Origin Time       07/09/2011 17:58:18 UTC
Lat.              28.6 N	
Long.             77.0 E	
Depth (Km)          8.0
Magnitude         4.2
Region           DELHI-HARYANA(SONIPAT)                                           
Above details taken from IMD 
    
Station Code      ANC
Station Lat.       28.539  N
Station Long.      77.264  E
Station Height(m)  231.0
Site Class        C   Vs30 between 200 m/sec to 375 m/sec *  
Record Time       07.09.2011 17:57:52.954 UTC
Sampling Rate     200. Hz
 Record Duration  100.125 Sec.
Direction         N-S (N positive)
Max. Acceleration     34.968 cm/sec**2
     
  * For reference see Site Classification link of website 
     
 Base Line Corrected and Low Pass Filtered (Cut Off at 35 Hz) Time History
 Acceleration data in cm/sec**2
    
[...]
      -0.016
      -0.022
      -0.024
      -0.022
      -0.018
      -0.014
      -0.013
      -0.012
      -0.007
       0.002
       0.012
       0.016
       0.011
       0.000
      -0.014
      -0.030
      -0.044
      -0.047
      -0.035
      -0.014
       0.004
       0.007
      -0.002
      -0.016
      -0.023
      -0.020
      -0.008
       0.007
       0.018
       0.014
      -0.009
      -0.042
      -0.064
      -0.058
      -0.026
       0.015
       0.042
       0.046
       0.029
       0.002
      -0.025
      -0.043
      -0.045
      -0.032
      -0.009
       0.015
       0.029
       0.028
       0.016
       0.001
      -0.009
      -0.010
      -0.005
       0.000
       0.002
       0.000
      -0.002
      -0.003
      -0.005
      -0.010
      -0.017
      -0.021
      -0.017
      -0.004
       0.012
       0.025
       0.030
       0.029
       0.024
       0.014
      -0.005
      -0.032
      -0.060
      -0.074
      -0.059
      -0.016
       0.036
       0.073
       0.074
       0.039
      -0.016
      -0.065
      -0.083
      -0.061
      -0.013
       0.035
       0.057
       0.044
       0.004
      -0.041
      -0.070
      -0.068
      -0.036
       0.007
       0.038
       0.045
       0.030
       0.009
      -0.011
      -0.023
      -0.029
      -0.026
      -0.014
       0.002
       0.013
       0.011
      -0.004
      -0.023
      -0.035
      -0.032
      -0.016
       0.006
       0.022
       0.025
       0.012
      -0.008
      -0.027
      -0.037
      -0.034
      -0.016
       0.011
       0.033
       0.036
       0.015
      -0.020
      -0.047
      -0.052
      -0.035
      -0.009
       0.013
       0.025
       0.030
       0.030
       0.026
       0.015
      -0.003
      -0.025
      -0.041
      -0.043
      -0.030
      -0.009
       0.012
       0.024
       0.023
       0.012
       0.000
      -0.007
      -0.007
      -0.001
       0.004
       0.002
      -0.006
      -0.016
      -0.020
      -0.014
      -0.001
       0.014
       0.022
       0.020
       0.010
      -0.002
      -0.012
      -0.021
      -0.029
      -0.038
      -0.041
      -0.032
      -0.009
       0.022
       0.047
       0.050
       0.027
      -0.015
      -0.052
      -0.061
      -0.037
       0.008
       0.047
       0.059
       0.042
       0.011
      -0.016
      -0.027
      -0.022
      -0.006
       0.011
       0.020
       0.017
       0.003
      -0.015
      -0.029
      -0.036
      -0.037
      -0.029
      -0.010
       0.016
       0.041
       0.051
       0.038
       0.008
      -0.024
      -0.040
      -0.033
      -0.007
       0.020
       0.028
       0.012
      -0.016
      -0.035
      -0.032
      -0.011
       0.014
       0.031
       0.036
       0.030
       0.016
      -0.006
      -0.030
      -0.048
      -0.049
      -0.033
      -0.009
       0.011
       0.022
       0.024
       0.022
       0.020
       0.019
       0.013
      -0.002
      -0.023
      -0.045
      -0.055
      -0.046
      -0.023
       0.001
       0.013
       0.007
      -0.008
      -0.020
      -0.020
      -0.011
       0.001
       0.008
       0.010
       0.009
       0.004
      -0.007
      -0.026
      -0.049
      -0.064
      -0.059
      -0.030
       0.014
       0.052
       0.066
       0.051
       0.015
      -0.022
      -0.046
      -0.050
      -0.038
      -0.021
      -0.011
      -0.011
      -0.019
      -0.020
      -0.004
       0.029
       0.063
       0.075
       0.052
       0.000
      -0.057
      -0.093
      -0.095
      -0.070
      -0.031
       0.007
       0.035
       0.049
       0.051
       0.043
       0.029
       0.012
      -0.007
      -0.026
      -0.041
      -0.046
      -0.036
      -0.015
       0.008
       0.020
       0.021
       0.018
       0.018
       0.021
       0.021
       0.011
      -0.006
      -0.024
      -0.036
      -0.037
      -0.028
      -0.013
       0.003
       0.015
       0.019
       0.014
       0.006
      -0.004
      -0.012
      -0.020
      -0.024
      -0.024
      -0.015
       0.003
       0.022
       0.032
       0.022
      -0.009
      -0.051
      -0.082
      -0.082
      -0.044
       0.020
       0.083
       0.119
       0.113
       0.070
       0.008
      -0.054
      -0.097
      -0.111
      -0.095
      -0.052
       0.003
       0.056
       0.091
       0.101
       0.085
       0.048
      -0.006
      -0.063
      -0.109
      -0.130
      -0.117
      -0.073
      -0.008
       0.056
       0.099
       0.110
       0.093
       0.057
       0.013
      -0.031
      -0.067
      -0.088
      -0.087
      -0.065
      -0.030
       0.007
       0.038
       0.057
       0.064
       0.054
       0.026
      -0.012
      -0.047
      -0.065
      -0.064
      -0.048
      -0.025
       0.002
       0.029
       0.048
       0.056
       0.049
       0.029
       0.003
      -0.024
      -0.046
      -0.054
      -0.043
      -0.015
       0.022
       0.051
       0.059
       0.044
       0.015
      -0.015
      -0.033
      -0.033
      -0.018
       0.002
       0.018
       0.023
       0.016
       0.001
      -0.014
      -0.025
      -0.028
      -0.023
      -0.013
      -0.004
       0.000
      -0.002
      -0.007
      -0.009
      -0.007
      -0.001
       0.008
       0.018
       0.026
       0.028
       0.021
       0.009
      -0.006
      -0.020
      -0.032
      -0.041
      -0.042
      -0.028
       0.002
       0.038
       0.063
       0.066
       0.043
       0.003
      -0.044
      -0.080
      -0.091
      -0.070
      -0.026
       0.019
       0.049
       0.060
       0.055
       0.041
       0.018
      -0.010
      -0.033
      -0.042
      -0.035
      -0.018
      -0.005
      -0.004
      -0.013
      -0.020
      -0.011
       0.012
       0.037
       0.048
       0.035
       0.001
      -0.039
      -0.067
      -0.073
      -0.053
      -0.014
       0.030
       0.061
       0.062
       0.033
      -0.012
      -0.053
      -0.073
      -0.066
      -0.035
       0.011
       0.058
       0.080
       0.057
      -0.006
      -0.069
      -0.072
       0.019
       0.178
       0.314
       0.324
       0.173
      -0.057
      -0.221
      -0.235
      -0.157
      -0.139
      -0.247
      -0.355
      -0.246
       0.141
       0.580
       0.715
       0.389
      -0.177
      -0.568
      -0.541
      -0.238
      -0.004
      -0.003
      -0.050
       0.156
       0.645
       1.046
       0.899
       0.088
      -1.004
      -1.762
      -1.781
      -1.108
      -0.140
       0.685
       1.149
       1.291
       1.254
       1.090
       0.706
      -0.009
      -0.966
      -1.777
      -1.941
      -1.210
       0.160
       1.516
       2.232
       2.060
       1.164
      -0.114
      -1.448
      -2.530
      -3.017
      -2.636
      -1.406
       0.289
       1.875
       2.889
       3.136
       2.641
       1.532
       0.015
      -1.555
      -2.663
      -2.850
      -2.036
      -0.654
       0.622
       1.333
       1.472
       1.325
       1.123
       0.843
       0.288
      -0.650
      -1.733
      -2.358
      -1.909
      -0.308
       1.712
       2.988
       2.755
       1.257
      -0.465
      -1.435
      -1.515
      -1.365
      -1.638
      -2.215
      -2.245
      -0.999
       1.311
       3.545
       4.480
       3.712
       1.822
      -0.224
      -1.816
      -2.916
      -3.641
      -3.751
      -2.699
      -0.318
       2.572
       4.454
       4.232
       2.185
      -0.226
      -1.562
      -1.538
      -1.053
      -1.155
      -1.944
      -2.460
      -1.653
       0.504
       2.848
       3.934
       3.150
       1.044
      -1.257
      -2.861
      -3.469
      -3.157
      -2.031
      -0.170
       2.145
       4.241
       5.202
       4.359
       1.772
      -1.625
      -4.415
      -5.405
      -4.231
      -1.526
       1.430
       3.359
       3.628
       2.513
       0.866
      -0.575
      -1.654
      -2.569
      -3.270
      -3.245
      -2.005
       0.238
       2.513
       3.791
       3.769
       2.929
       1.868
       0.693
      -0.820
      -2.578
      -3.878
      -3.904
      -2.517
      -0.500
       1.069
       1.739
       1.991
       2.550
       3.407
       3.602
       2.108
      -0.997
      -4.251
      -5.787
      -4.763
      -1.972
       0.894
       2.591
       3.006
       2.671
       1.926
       0.750
      -0.713
      -1.829
      -1.941
      -1.111
      -0.153
       0.198
       0.073
       0.273
       1.267
       2.504
       2.823
       1.530
      -0.968
      -3.477
      -4.816
      -4.377
      -2.257
       0.820
       3.705
       5.241
       4.841
       2.823
       0.174
      -2.068
      -3.333
      -3.564
      -2.976
      -1.848
      -0.506
       0.698
       1.502
       1.836
       1.748
       1.313
       0.692
       0.199
       0.069
       0.066
      -0.446
      -1.744
      -3.064
      -2.973
      -0.721
       2.749
       5.298
       5.252
       2.676
      -0.865
      -3.653
      -4.883
      -4.648
      -3.288
      -1.079
       1.489
       3.494
       4.014
       2.930
       1.181
      -0.005
      -0.229
      -0.207
      -0.819
      -1.938
      -2.396
      -1.243
       1.064
       2.883
       2.858
       1.133
      -0.907
      -2.000
      -2.068
      -1.962
      -2.304
      -2.686
      -2.050
       0.150
       3.143
       5.175
       4.770
       1.903
      -1.842
      -4.279
      -4.113
      -1.786
       0.982
       2.597
       2.723
       2.159
       1.696
       1.246
       0.165
      -1.665
      -3.349
      -3.735
      -2.602
      -0.892
       0.316
       0.903
       1.574
       2.721
       3.729
       3.599
       2.124
       0.173
      -1.224
      -1.871
      -2.353
      -3.089
      -3.686
      -3.346
      -1.810
       0.227
       1.652
       1.870
       1.221
       0.601
       0.710
       1.606
       2.798
       3.594
       3.362
       1.723
      -1.131
      -4.213
      -6.102
      -5.861
      -3.747
      -0.963
       1.282
       2.503
       2.917
       2.963
       2.928
       2.854
       2.591
       1.892
       0.602
      -1.061
      -2.409
      -2.665
      -1.677
      -0.260
       0.389
      -0.180
      -1.216
      -1.621
      -1.257
      -1.097
      -1.903
      -2.949
      -2.473
       0.402
       4.396
       6.946
       6.452
       3.573
       0.383
      -1.597
      -2.418
      -2.979
      -3.680
      -3.984
      -3.179
      -1.274
       0.976
       2.719
       3.486
       3.124
       1.692
      -0.318
      -1.889
      -2.105
      -1.050
       0.177
       0.630
       0.598
       1.178
       2.682
       3.801
       2.756
      -0.694
      -4.638
      -6.594
      -5.641
      -2.946
      -0.359
       1.245
       2.209
       3.062
       3.659
       3.429
       2.195
       0.524
      -0.745
      -1.214
      -1.159
      -1.128
      -1.369
      -1.603
      -1.309
      -0.225
       1.392
       2.893
       3.527
       2.716
       0.345
      -2.891
      -5.396
      -5.358
      -2.105
       2.930
       6.801
       7.075
       3.700
      -1.019
      -4.376
      -5.341
      -4.882
      -4.398
      -4.060
      -2.781
       0.252
       4.300
       7.480
       8.397
       7.176
       4.885
       2.253
      -0.786
      -4.361
      -7.782
      -9.574
      -8.470
      -4.494
       0.740
       4.879
       6.277
       4.964
       2.354
       0.016
      -1.365
      -2.048
      -2.535
      -2.892
      -2.664
      -1.365
       0.937
       3.469
       5.226
       5.636
       4.795
       3.160
       1.154
      -0.911
      -2.683
      -3.758
      -3.895
      -3.171
      -1.881
      -0.341
       1.147
       2.139
       2.006
       0.276
      -2.826
      -6.243
      -8.698
      -9.564
      -9.072
      -7.592
      -4.864
      -0.292
       5.815
      11.491
      14.125
      12.618
       8.558
       4.981
       3.787
       4.356
       4.663
       3.523
       1.542
      -0.051
      -1.086
      -2.622
      -5.479
      -8.926
     -11.082
     -10.623
      -7.976
      -4.893
      -3.044
      -3.125
      -4.968
      -7.951
     -10.973
     -12.294
     -10.090
      -3.704
       5.506
      14.710
      21.157
      23.321
      20.927
      14.545
       5.686
      -2.930
      -8.115
      -8.030
      -3.518
       2.550
       7.461
      10.299
      11.667
      12.172
      11.520
       9.082
       4.988
       0.298
      -3.964
      -7.698
     -11.422
     -15.123
     -17.653
     -17.470
     -14.032
      -8.457
      -2.841
       1.072
       2.721
       2.605
       1.651
       0.709
       0.366
       0.860
       1.993
       3.221
       4.042
       4.402
       4.652
       4.978
       4.841
       3.101
      -1.074
      -7.203
     -13.355
     -17.095
     -16.777
     -12.185
      -4.280
       5.372
      14.897
      22.193
      25.265
      22.974
      15.777
       5.792
      -4.028
     -11.181
     -14.540
     -14.376
     -11.619
      -7.127
      -1.602
       3.889
       7.587
       7.572
       3.005
      -4.913
     -13.188
     -18.394
     -18.154
     -11.841
      -0.449
      13.675
      26.940
      34.968
      34.101
      23.560
       6.599
     -10.755
     -22.902
     -27.568
     -26.270
     -22.260
     -17.842
     -13.157
      -6.956
       1.634
      11.812
      20.972
      25.725
      23.598
      14.666
       2.084
      -9.199
     -15.081
     -14.592
     -10.016
      -4.709
      -0.523
       2.872
       6.377
       9.530
      10.457
       7.715
       1.908
      -4.681
      -9.882
     -12.829
     -13.508
     -11.628
      -6.484
       1.852
      11.398
      18.653
      20.500
      16.078
       7.168
      -2.986
     -11.288
     -15.717
     -15.508
     -11.127
      -4.313
       2.232
       5.929
       5.762
       2.897
      -0.237
      -1.798
      -1.729
      -1.314
      -1.603
      -2.266
      -1.924
       0.496
       4.708
       9.160
      11.947
      11.692
       7.947
       1.271
      -6.854
     -14.333
     -19.085
     -19.747
     -16.086
      -8.968
       0.022
       9.072
      16.557
      21.275
      22.485
      19.858
      13.554
       4.538
      -5.216
     -13.146
     -17.189
     -16.791
     -13.047
      -7.933
      -3.281
      -0.140
       1.400
       2.017
       2.668
       3.909
       5.400
       6.112
       5.262
       3.219
       1.368
       0.796
       1.051
       0.423
      -2.287
      -6.332
      -9.465
      -9.827
      -7.271
      -2.990
       1.804
       6.496
      10.516
      12.678
      11.600
       7.008
       0.529
      -5.041
      -7.490
      -6.487
      -3.454
      -0.347
       1.516
       1.791
       0.766
      -1.000
      -2.788
      -3.872
      -3.961
      -3.499
      -3.222
      -3.189
      -2.334
       0.657
       5.784
      11.022
      13.357
      10.838
       4.000
      -4.431
     -11.188
     -14.139
     -12.987
      -8.898
      -3.646
       1.214
       4.871
       7.360
       9.190
      10.641
      11.198
       9.641
       4.938
      -2.625
     -10.998
     -17.131
     -18.507
     -14.376
      -5.934
       4.409
      13.949
      20.272
      21.615
      17.309
       8.238
      -3.160
     -13.605
     -20.137
     -21.110
     -16.579
      -8.039
       2.193
      11.571
      17.726
      18.860
      14.324
       5.179
      -5.777
     -14.875
     -19.028
     -17.003
      -9.824
      -0.202
       8.574
      13.709
      13.657
       8.589
       0.555
      -7.018
     -10.694
      -8.823
      -2.599
       4.589
       9.261
       9.931
       7.627
       4.559
       2.179
       0.291
      -2.192
      -5.736
      -9.353
     -11.164
      -9.781
      -5.341
       0.489
       5.393
       7.585
       6.661
       3.740
       0.768
      -0.685
      -0.399
       0.511
       0.679
      -0.227
      -1.192
      -0.876
       1.031
       3.476
       4.958
       4.646
       2.631
      -0.542
      -4.226
      -7.522
      -9.185
      -8.126
      -4.251
       1.198
       6.245
       9.222
       9.411
       6.975
       2.605
      -2.589
      -7.038
      -9.059
      -7.789
      -4.002
       0.175
       2.704
       3.070
       2.339
       1.845
       1.883
       1.691
       0.585
      -1.117
      -2.367
      -2.449
      -1.661
      -0.949
      -0.971
      -1.565
      -2.010
      -1.658
      -0.278
       1.992
       4.723
       7.122
       8.062
       6.587
       2.667
      -2.431
      -6.646
      -8.248
      -6.793
      -3.270
       0.585
       3.246
       4.011
       3.067
       1.165
      -0.838
      -2.350
      -3.188
      -3.379
      -2.783
      -0.960
       2.388
       6.660
      10.073
      10.408
       6.433
      -1.017
      -9.179
     -14.724
     -15.466
     -11.373
      -4.303
       3.152
       8.788
      11.275
      10.182
       6.033
       0.385
      -4.563
      -7.004
      -6.548
      -4.302
      -1.853
      -0.008
       1.566
       3.567
       5.973
       7.748
       7.575
       4.885
       0.309
      -4.661
      -8.381
      -9.675
      -8.170
      -4.382
       0.464
       4.826
       7.347
       7.302
       4.862
       1.084
      -2.440
      -4.230
      -3.628
      -1.154
       1.808
       3.879
       4.519
       4.153
       3.506
       2.776
       1.481
      -0.882
      -4.041
      -6.850
      -7.970
      -6.738
      -3.485
       0.788
       4.967
       8.150
       9.678
       9.138
       6.468
       2.126
      -2.892
      -7.284
      -9.901
     -10.196
      -8.396
      -5.251
      -1.590
       1.944
       4.815
       6.420
       6.178
       3.934
       0.352
      -3.172
      -5.169
      -4.888
      -2.641
       0.494
       3.267
       4.759
       4.643
       3.208
       1.155
      -0.761
      -2.046
      -2.577
      -2.460
      -1.803
      -0.623
       0.985
       2.588
       3.451
       2.987
       1.242
      -1.106
      -3.275
      -4.878
      -5.945
      -6.511
      -6.271
      -4.673
      -1.415
       3.074
       7.566
      10.487
      10.659
       7.891
       3.075
      -2.257
      -6.631
      -9.150
      -9.564
      -8.013
      -4.789
      -0.380
       4.319
       8.018
       9.448
       8.016
       4.263
      -0.231
      -3.552
      -4.455
      -3.050
      -0.685
       0.961
       0.961
      -0.378
      -1.883
      -2.380
      -1.359
       0.908
       3.643
       5.888
       6.721
       5.480
       2.083
      -2.712
      -7.438
     -10.529
     -11.065
      -9.101
      -5.387
      -0.851
       3.639
       7.230
       9.115
       8.829
       6.546
       3.048
      -0.598
      -3.423
      -4.805
      -4.587
      -3.086
      -0.946
       1.119
       2.581
       3.200
       2.948
       1.886
       0.149
