Origin Time       07/09/2011 17:58:18
Lat.              28.6 N	
Long.             77.0 E	
Depth (Km)          8.0
Magnitude         4.2
 Region           DELHI-HARYANA(SONIPAT)                                           
 Above details taken from IMD 
   
Station Code      ANC
Station Lat.       28.539
Station Long.      77.264
Station Height(m)  231.0
Site Class        C   Vs30 between 200 m/sec to 375 m/sec *  
Record Time       07.09.2011 17:57:52.954
Sampling Rate     200. Hz
 Record Duration  100.125 Sec.
 Direction         Vert. (Up positive)
Max. Acceleration     16.537 cm/sec**2
     
  * For reference see Site Classification link of website 
     
 Base Line Corrected and Low Pass Filtered (Cut Off at 35 Hz) Time History
 Acceleration data in cm/sec**2
    
[...]
      -0.005
       0.006
       0.013
       0.009
      -0.007
      -0.023
      -0.026
      -0.015
      -0.001
       0.004
      -0.002
      -0.012
      -0.018
      -0.015
      -0.009
      -0.002
       0.000
      -0.001
      -0.006
      -0.011
      -0.012
      -0.008
       0.001
       0.010
       0.015
       0.012
       0.004
      -0.008
      -0.018
      -0.024
      -0.022
      -0.011
       0.006
       0.020
       0.026
       0.023
       0.011
      -0.003
      -0.016
      -0.023
      -0.023
      -0.014
      -0.001
       0.009
       0.010
       0.002
      -0.010
      -0.020
      -0.024
      -0.023
      -0.019
      -0.013
      -0.007
      -0.002
       0.000
      -0.001
      -0.005
      -0.008
      -0.007
      -0.004
      -0.004
      -0.011
      -0.022
      -0.029
      -0.027
      -0.017
      -0.005
       0.002
       0.003
      -0.002
      -0.010
      -0.017
      -0.021
      -0.021
      -0.017
      -0.010
      -0.003
       0.003
       0.004
       0.001
      -0.005
      -0.011
      -0.016
      -0.015
      -0.009
       0.000
       0.005
       0.002
      -0.006
      -0.012
      -0.009
      -0.002
       0.001
      -0.004
      -0.014
      -0.022
      -0.021
      -0.014
      -0.004
       0.004
       0.009
       0.006
      -0.004
      -0.019
      -0.031
      -0.031
      -0.017
       0.002
       0.016
       0.018
       0.009
      -0.005
      -0.017
      -0.023
      -0.024
      -0.020
      -0.012
      -0.002
       0.005
       0.004
      -0.007
      -0.022
      -0.032
      -0.031
      -0.019
      -0.004
       0.005
       0.002
      -0.009
      -0.019
      -0.023
      -0.020
      -0.012
      -0.002
       0.009
       0.016
       0.014
       0.001
      -0.017
      -0.030
      -0.032
      -0.026
      -0.015
      -0.004
       0.003
       0.008
       0.008
       0.004
      -0.002
      -0.007
      -0.008
      -0.004
       0.000
       0.001
      -0.004
      -0.014
      -0.023
      -0.026
      -0.019
      -0.006
       0.007
       0.016
       0.018
       0.016
       0.012
       0.005
      -0.007
      -0.022
      -0.035
      -0.037
      -0.027
      -0.013
      -0.002
      -0.001
      -0.005
      -0.008
      -0.007
      -0.003
      -0.001
      -0.003
      -0.007
      -0.012
      -0.013
      -0.009
      -0.002
       0.002
      -0.002
      -0.012
      -0.021
      -0.023
      -0.017
      -0.009
      -0.004
      -0.005
      -0.008
      -0.009
      -0.005
       0.001
       0.006
       0.005
      -0.001
      -0.009
      -0.016
      -0.019
      -0.019
      -0.015
      -0.006
       0.004
       0.012
       0.011
       0.002
      -0.010
      -0.017
      -0.015
      -0.010
      -0.007
      -0.008
      -0.012
      -0.012
      -0.010
      -0.007
      -0.008
      -0.010
      -0.010
      -0.005
       0.004
       0.009
       0.005
      -0.006
      -0.020
      -0.027
      -0.025
      -0.014
      -0.001
       0.009
       0.011
       0.006
      -0.001
      -0.007
      -0.009
      -0.007
      -0.002
       0.003
       0.007
       0.007
       0.004
      -0.001
      -0.005
      -0.009
      -0.012
      -0.012
      -0.009
      -0.005
      -0.003
      -0.004
      -0.006
      -0.006
      -0.002
       0.002
       0.003
      -0.002
      -0.013
      -0.023
      -0.027
      -0.019
      -0.005
       0.010
       0.019
       0.018
       0.008
      -0.007
      -0.022
      -0.031
      -0.029
      -0.015
       0.004
       0.019
       0.018
       0.002
      -0.022
      -0.038
      -0.038
      -0.021
       0.003
       0.022
       0.026
       0.016
      -0.003
      -0.019
      -0.026
      -0.021
      -0.007
       0.008
       0.017
       0.016
       0.007
      -0.004
      -0.014
      -0.018
      -0.017
      -0.009
       0.001
       0.009
       0.011
       0.010
       0.006
       0.000
      -0.008
      -0.016
      -0.019
      -0.015
      -0.003
       0.012
       0.025
       0.030
       0.025
       0.011
      -0.008
      -0.024
      -0.033
      -0.031
      -0.022
      -0.008
       0.007
       0.019
       0.027
       0.029
       0.023
       0.009
      -0.009
      -0.025
      -0.033
      -0.032
      -0.023
      -0.011
      -0.001
       0.009
       0.022
       0.033
       0.035
       0.023
       0.001
      -0.017
      -0.021
      -0.013
      -0.002
       0.004
       0.005
       0.005
       0.005
       0.000
      -0.010
      -0.019
      -0.017
      -0.003
       0.016
       0.027
       0.025
       0.016
       0.010
       0.010
       0.012
       0.005
      -0.012
      -0.033
      -0.042
      -0.029
       0.004
       0.041
       0.063
       0.062
       0.044
       0.019
      -0.007
      -0.031
      -0.050
      -0.057
      -0.046
      -0.017
       0.025
       0.064
       0.086
       0.082
       0.056
       0.017
      -0.022
      -0.054
      -0.070
      -0.064
      -0.037
       0.004
       0.044
       0.069
       0.073
       0.059
       0.034
       0.007
      -0.021
      -0.045
      -0.056
      -0.046
      -0.013
       0.029
       0.060
       0.066
       0.048
       0.018
      -0.012
      -0.033
      -0.041
      -0.037
      -0.026
      -0.011
       0.004
       0.017
       0.027
       0.034
       0.033
       0.022
       0.002
      -0.023
      -0.043
      -0.050
      -0.041
      -0.017
       0.015
       0.041
       0.053
       0.046
       0.022
      -0.009
      -0.037
      -0.054
      -0.054
      -0.034
       0.000
       0.038
       0.064
       0.069
       0.049
       0.013
      -0.024
      -0.047
      -0.048
      -0.030
      -0.005
       0.013
       0.020
       0.021
       0.019
       0.018
       0.016
       0.010
       0.002
      -0.007
      -0.014
      -0.019
      -0.018
      -0.008
       0.009
       0.025
       0.030
       0.023
       0.008
      -0.007
      -0.014
      -0.012
      -0.003
       0.006
       0.012
       0.014
       0.014
       0.011
       0.004
      -0.008
      -0.021
      -0.028
      -0.022
      -0.002
       0.022
       0.037
       0.038
       0.028
       0.017
       0.008
       0.000
      -0.012
      -0.024
      -0.030
      -0.026
      -0.012
       0.007
       0.024
       0.031
       0.025
       0.009
      -0.011
      -0.025
      -0.029
      -0.021
      -0.007
       0.006
       0.012
       0.013
       0.011
       0.008
       0.002
      -0.007
      -0.015
      -0.015
      -0.002
       0.017
       0.029
       0.025
       0.007
      -0.013
      -0.022
      -0.018
      -0.004
       0.010
       0.021
       0.027
       0.029
       0.026
       0.019
       0.011
       0.004
       0.000
      -0.002
      -0.001
       0.002
       0.006
       0.009
       0.009
       0.005
       0.005
       0.015
       0.036
       0.054
       0.049
       0.006
      -0.068
      -0.135
      -0.147
      -0.076
       0.053
       0.158
       0.139
      -0.053
      -0.355
      -0.602
      -0.625
      -0.385
      -0.006
       0.329
       0.529
       0.635
       0.704
       0.677
       0.412
      -0.137
      -0.780
      -1.156
      -0.978
      -0.255
       0.697
       1.442
       1.672
       1.332
       0.557
      -0.446
      -1.461
      -2.244
      -2.508
      -2.016
      -0.736
       1.037
       2.707
       3.579
       3.181
       1.561
      -0.662
      -2.580
      -3.458
      -3.083
      -1.762
      -0.048
       1.558
       2.714
       3.185
       2.826
       1.637
      -0.147
      -2.046
      -3.452
      -3.848
      -3.029
      -1.214
       1.009
       2.898
       3.865
       3.704
       2.596
       0.909
      -0.991
      -2.756
      -3.989
      -4.267
      -3.329
      -1.285
       1.308
       3.569
       4.632
       4.048
       2.057
      -0.505
      -2.613
      -3.542
      -3.155
      -1.866
      -0.314
       1.041
       2.099
       2.888
       3.172
       2.444
       0.442
      -2.310
      -4.592
      -5.224
      -3.808
      -0.919
       2.274
       4.589
       5.285
       4.277
       2.055
      -0.597
      -2.909
      -4.272
      -4.313
      -3.004
      -0.787
       1.501
       2.998
       3.259
       2.468
       1.250
       0.218
      -0.400
      -0.785
      -1.203
      -1.668
      -1.889
      -1.526
      -0.508
       0.845
       1.995
       2.510
       2.299
       1.570
       0.567
      -0.654
      -2.151
      -3.746
      -4.754
      -4.218
      -1.664
       2.203
       5.569
       6.517
       4.344
       0.177
      -3.644
      -5.052
      -3.547
      -0.381
       2.459
       3.611
       3.016
       1.529
       0.012
      -1.197
      -2.103
      -2.592
      -2.358
      -1.343
      -0.072
       0.667
       0.547
       0.015
      -0.164
       0.375
       1.323
       2.017
       1.932
       0.969
      -0.550
      -2.040
      -2.887
      -2.699
      -1.466
       0.461
       2.540
       4.192
       4.873
       4.198
       2.176
      -0.649
      -3.381
      -5.174
      -5.544
      -4.499
      -2.497
      -0.282
       1.447
       2.394
       2.781
       3.044
       3.341
       3.308
       2.358
       0.296
      -2.318
      -4.435
      -5.181
      -4.309
      -2.139
       0.728
       3.520
       5.280
       5.130
       2.895
      -0.488
      -3.366
      -4.429
      -3.518
      -1.488
       0.597
       2.092
       2.731
       2.335
       0.868
      -1.227
      -3.009
      -3.566
      -2.629
      -0.676
       1.438
       2.924
       3.313
       2.628
       1.419
       0.466
       0.179
       0.212
      -0.197
      -1.383
      -2.752
      -3.202
      -2.106
       0.119
       2.348
       3.554
       3.317
       1.799
      -0.472
      -2.732
      -4.120
      -4.024
      -2.470
      -0.155
       1.981
       3.269
       3.516
       2.848
       1.520
      -0.119
      -1.613
      -2.513
      -2.576
      -1.895
      -0.853
       0.076
       0.604
       0.833
       1.170
       1.883
       2.641
       2.582
       1.007
      -1.853
      -4.695
      -5.859
      -4.402
      -0.776
       3.352
       6.026
       6.091
       3.825
       0.698
      -1.614
      -2.346
      -2.016
      -1.716
      -1.935
      -2.098
      -1.330
       0.359
       1.869
       2.089
       1.051
      -0.162
      -0.549
      -0.076
       0.519
       0.528
      -0.182
      -1.181
      -1.781
      -1.423
      -0.149
       1.188
       1.437
       0.216
      -1.524
      -2.195
      -0.974
       1.470
       3.586
       4.147
       2.934
       0.593
      -1.848
      -3.376
      -3.321
      -1.679
       0.767
       2.811
       3.500
       2.608
       0.576
      -1.846
      -3.871
      -4.844
      -4.451
      -2.905
      -0.814
       1.196
       2.721
       3.506
       3.382
       2.484
       1.400
       0.792
       0.740
       0.615
      -0.253
      -1.835
      -3.410
      -4.187
      -3.751
      -2.006
       0.865
       4.079
       6.130
       5.579
       2.331
      -1.940
      -4.924
      -5.359
      -3.628
      -0.901
       1.955
       4.507
       6.225
       6.364
       4.534
       1.149
      -2.820
      -6.384
      -8.745
      -9.213
      -7.389
      -3.623
       0.863
       4.580
       6.631
       7.034
       6.277
       4.687
       2.304
      -0.662
      -3.382
      -4.636
      -3.725
      -1.245
       1.188
       2.174
       1.597
       0.491
      -0.110
      -0.113
      -0.217
      -1.006
      -2.301
      -3.263
      -2.964
      -0.982
       2.207
       5.216
       6.342
       4.628
       0.615
      -3.911
      -7.015
      -7.647
      -5.920
      -2.700
       0.962
       4.186
       6.385
       7.216
       6.464
       4.082
       0.481
      -3.200
      -5.414
      -5.194
      -3.024
      -0.591
       0.584
       0.350
      -0.255
      -0.296
       0.142
       0.373
       0.161
      -0.001
       0.314
       0.708
       0.337
      -1.007
      -2.424
      -2.588
      -0.842
       2.298
       5.426
       6.920
       5.695
       1.860
      -3.045
      -6.651
      -7.108
      -4.312
       0.028
       3.633
       5.185
       4.891
       3.769
       2.542
       1.162
      -0.800
      -3.477
      -6.277
      -7.983
      -7.424
      -4.411
      -0.153
       3.474
       5.294
       5.549
       5.270
       5.095
       4.790
       3.785
       1.938
      -0.284
      -2.184
      -3.291
      -3.570
      -3.360
      -3.101
      -2.962
      -2.703
      -2.033
      -1.179
      -0.979
      -2.203
      -4.669
      -7.131
      -8.112
      -6.851
      -3.477
       1.436
       7.129
      12.460
      15.902
      16.268
      13.606
       9.219
       4.636
       0.602
      -2.889
      -5.822
      -7.832
      -8.775
      -9.279
     -10.143
     -10.998
      -9.955
      -5.172
       2.920
      11.117
      15.459
      14.035
       8.089
       0.773
      -4.938
      -7.466
      -6.722
      -3.803
      -0.607
       0.920
      -0.162
      -3.206
      -6.520
      -8.557
      -8.697
      -7.043
      -3.744
       1.205
       7.368
      13.233
      16.537
      15.631
      10.760
       3.992
      -2.218
      -6.566
      -9.180
     -10.592
     -10.577
      -8.117
      -2.577
       5.012
      11.849
      14.776
      12.270
       5.491
      -2.439
      -8.422
     -11.122
     -11.262
     -10.481
      -9.760
      -8.641
      -5.787
      -0.445
       6.354
      11.954
      13.682
      10.738
       4.889
      -0.626
      -3.102
      -1.879
       1.532
       4.542
       5.028
       2.502
      -1.680
      -5.197
      -6.262
      -4.759
      -2.159
      -0.279
       0.116
      -0.270
      -0.101
       1.296
       3.310
       4.549
       3.966
       1.644
      -1.269
      -3.328
      -3.661
      -2.443
      -0.719
       0.307
       0.089
      -0.915
      -1.706
      -1.675
      -1.080
      -0.611
      -0.570
      -0.609
      -0.288
       0.270
       0.440
      -0.207
      -1.312
      -1.921
      -1.295
       0.431
       2.354
       3.582
       3.936
       3.865
       3.694
       3.050
       1.201
      -1.968
      -5.414
      -7.510
      -7.203
      -4.661
      -0.937
       2.767
       5.546
       6.912
       6.892
       6.076
       5.292
       4.964
       4.756
       3.888
       1.828
      -1.340
      -5.064
      -8.593
     -11.010
     -11.301
      -8.863
      -4.242
       0.744
       3.974
       4.417
       2.721
       0.506
      -0.906
      -1.243
      -1.098
      -1.193
      -1.741
      -2.288
      -2.071
      -0.629
       1.819
       4.545
       6.833
       8.242
       8.407
       6.851
       3.324
      -1.554
      -6.158
      -8.610
      -7.908
      -4.535
      -0.201
       2.962
       3.323
       0.516
      -4.171
      -8.140
      -8.736
      -4.867
       2.138
       9.234
      13.466
      13.485
       9.778
       3.869
      -2.496
      -7.647
     -10.134
      -9.180
      -5.234
       0.018
       4.405
       6.318
       5.359
       2.381
      -0.973
      -3.079
      -3.246
      -2.110
      -0.994
      -0.655
      -0.683
      -0.206
       0.931
       1.977
       2.225
       1.865
       1.643
       1.837
       1.808
       0.666
      -1.741
      -4.518
      -6.297
      -6.088
      -3.817
      -0.349
       2.846
       4.274
       3.144
      -0.079
      -3.751
      -5.905
      -5.399
      -2.526
       1.337
       4.680
       6.627
       7.046
       6.131
       4.030
       0.895
      -2.747
      -5.826
      -7.162
      -6.214
      -3.514
      -0.303
       2.313
       3.967
       4.919
       5.484
       5.628
       5.011
       3.338
       0.658
      -2.554
      -5.516
      -7.411
      -7.695
      -6.333
      -3.832
      -1.014
       1.427
       3.314
       4.962
       6.595
       7.656
       6.810
       3.046
      -2.950
      -8.562
     -10.767
      -8.287
      -2.487
       3.722
       7.901
       9.297
       8.519
       6.422
       3.378
      -0.538
      -4.901
      -8.583
     -10.099
      -8.490
      -4.128
       1.217
       5.207
       6.212
       4.175
       0.529
      -2.678
      -3.866
      -2.614
       0.264
       3.207
       4.709
       4.063
       1.635
      -1.480
      -4.139
      -5.602
      -5.521
      -3.765
      -0.528
       3.351
       6.416
       7.330
       5.812
       2.879
       0.064
      -1.668
      -2.317
      -2.354
      -2.041
      -1.313
      -0.217
       0.690
       0.560
      -1.011
      -3.388
      -5.106
      -4.910
      -2.777
       0.070
       2.193
       2.993
       2.787
       2.084
       1.062
      -0.209
      -1.302
      -1.526
      -0.539
       1.235
       2.885
       3.657
       3.340
       2.180
       0.651
      -0.678
      -1.255
      -0.825
       0.271
       1.139
       0.907
      -0.593
      -2.617
      -4.015
      -4.005
      -2.600
      -0.449
       1.643
       3.099
       3.658
       3.264
       2.030
       0.325
      -1.228
      -2.052
      -1.985
      -1.344
      -0.603
      -0.078
       0.082
      -0.262
      -1.151
      -2.227
      -2.689
      -1.786
       0.505
       3.247
       5.031
       4.864
       2.788
      -0.185
      -2.750
      -4.061
      -4.016
      -2.999
      -1.456
       0.280
       1.853
       2.746
       2.431
       0.765
      -1.691
      -3.810
      -4.495
      -3.313
      -0.720
       2.251
       4.562
       5.584
       5.177
       3.551
       1.136
      -1.474
      -3.569
      -4.450
      -3.668
      -1.262
       2.129
       5.355
       7.115
       6.529
       3.678
      -0.308
      -3.850
      -5.858
      -6.268
      -5.715
      -4.715
      -3.257
      -1.167
       1.305
       3.407
       4.400
       4.042
       2.588
       0.492
      -1.756
      -3.579
      -4.401
      -3.960
      -2.508
      -0.552
       1.569
       3.729
       5.615
       6.520
       5.781
       3.499
       0.703
      -1.319
      -1.921
      -1.435
      -0.765
      -0.675
      -1.325
      -2.270
      -2.844
      -2.660
      -1.887
      -1.084
      -0.715
      -0.757
      -0.799
      -0.481
       0.158
       0.777
       1.091
       1.073
       0.845
       0.488
       0.054
      -0.308
      -0.359
      -0.017
       0.448
       0.525
      -0.113
      -1.220
      -2.007
      -1.664
      -0.029
       2.163
       3.705
       3.712
       2.171
      -0.113
      -2.066
      -2.943
      -2.601
      -1.413
       0.014
       1.134
       1.695
       1.794
       1.689
       1.457
       0.862
      -0.391
      -2.239
      -4.120
      -5.219
      -4.870
      -2.879
       0.345
       3.816
       6.250
       6.577
       4.520
       0.867
      -2.822
      -4.979
