Origin Time       07/09/2011 17:58:18
Lat.              28.6 N	
Long.             77.0 E	
Depth (Km)          8.0
Magnitude         4.2
 Region           DELHI-HARYANA(SONIPAT)                                           
 Above details taken from IMD 
     
Station Code      ANC
Station Lat.       28.539  N
Station Long.      77.264  E
Station Height(m)  231.0
Site Class        C   Vs30 between 200 m/sec to 375 m/sec *  
Record Time       07.09.2011 17:57:52.954
Sampling Rate     200. Hz
 Record Duration  100.125 Sec.
 Direction         E-W (E positive)
Max. Acceleration     35.669 cm/sec**2
     
  * For reference see Site Classification link of website 
     
 Base Line Corrected and Low Pass Filtered (Cut Off at 35 Hz) Time History
 Acceleration data in cm/sec**2
    
[...]
      -0.021
      -0.025
      -0.024
      -0.014
      -0.002
       0.003
       0.000
      -0.002
       0.005
       0.020
       0.028
       0.020
      -0.005
      -0.034
      -0.050
      -0.045
      -0.021
       0.012
       0.044
       0.064
       0.063
       0.040
       0.002
      -0.032
      -0.045
      -0.034
      -0.010
       0.012
       0.020
       0.016
       0.006
       0.001
       0.002
       0.005
       0.005
      -0.001
      -0.009
      -0.014
      -0.014
      -0.012
      -0.009
      -0.006
       0.000
       0.008
       0.012
       0.004
      -0.013
      -0.029
      -0.031
      -0.013
       0.016
       0.038
       0.038
       0.015
      -0.011
      -0.018
       0.000
       0.027
       0.039
       0.025
      -0.009
      -0.042
      -0.060
      -0.056
      -0.034
       0.001
       0.042
       0.075
       0.086
       0.064
       0.014
      -0.044
      -0.084
      -0.088
      -0.052
       0.006
       0.061
       0.083
       0.063
       0.015
      -0.028
      -0.042
      -0.025
       0.004
       0.023
       0.025
       0.014
      -0.002
      -0.019
      -0.030
      -0.030
      -0.013
       0.014
       0.041
       0.055
       0.049
       0.025
      -0.005
      -0.029
      -0.037
      -0.026
      -0.004
       0.015
       0.020
       0.013
       0.006
       0.007
       0.015
       0.026
       0.033
       0.033
       0.023
       0.003
      -0.018
      -0.030
      -0.023
      -0.002
       0.019
       0.027
       0.017
      -0.004
      -0.024
      -0.031
      -0.017
       0.011
       0.040
       0.052
       0.044
       0.024
       0.009
       0.007
       0.014
       0.021
       0.019
       0.006
      -0.013
      -0.031
      -0.039
      -0.027
       0.000
       0.033
       0.055
       0.057
       0.042
       0.019
      -0.004
      -0.021
      -0.025
      -0.015
       0.003
       0.017
       0.015
      -0.005
      -0.035
      -0.056
      -0.056
      -0.032
       0.006
       0.040
       0.057
       0.050
       0.023
      -0.014
      -0.045
      -0.055
      -0.039
      -0.006
       0.026
       0.041
       0.032
       0.006
      -0.022
      -0.037
      -0.033
      -0.007
       0.026
       0.048
       0.042
       0.008
      -0.032
      -0.053
      -0.041
      -0.005
       0.035
       0.054
       0.043
       0.007
      -0.035
      -0.064
      -0.064
      -0.037
       0.004
       0.040
       0.058
       0.050
       0.016
      -0.030
      -0.067
      -0.074
      -0.047
      -0.003
       0.035
       0.047
       0.030
       0.001
      -0.021
      -0.020
       0.003
       0.031
       0.045
       0.034
       0.002
      -0.032
      -0.049
      -0.040
      -0.007
       0.031
       0.058
       0.059
       0.034
      -0.005
      -0.041
      -0.055
      -0.040
      -0.002
       0.040
       0.065
       0.059
       0.026
      -0.018
      -0.051
      -0.056
      -0.032
       0.011
       0.054
       0.079
       0.071
       0.030
      -0.026
      -0.071
      -0.082
      -0.054
      -0.003
       0.048
       0.075
       0.067
       0.032
      -0.011
      -0.038
      -0.034
      -0.005
       0.031
       0.049
       0.039
       0.007
      -0.027
      -0.042
      -0.031
       0.003
       0.041
       0.067
       0.068
       0.044
       0.005
      -0.033
      -0.056
      -0.058
      -0.042
      -0.018
       0.009
       0.031
       0.045
       0.044
       0.030
       0.011
      -0.005
      -0.012
      -0.012
      -0.008
      -0.004
      -0.001
       0.004
       0.011
       0.015
       0.012
       0.003
      -0.007
      -0.009
      -0.003
       0.009
       0.021
       0.030
       0.030
       0.018
      -0.003
      -0.026
      -0.035
      -0.022
       0.008
       0.036
       0.044
       0.026
      -0.010
      -0.043
      -0.054
      -0.034
       0.007
       0.048
       0.070
       0.066
       0.045
       0.021
       0.005
      -0.001
      -0.002
      -0.004
      -0.011
      -0.021
      -0.032
      -0.043
      -0.048
      -0.036
       0.000
       0.054
       0.108
       0.137
       0.122
       0.064
      -0.013
      -0.080
      -0.113
      -0.110
      -0.087
      -0.059
      -0.030
       0.005
       0.045
       0.084
       0.110
       0.116
       0.099
       0.061
       0.009
      -0.047
      -0.096
      -0.125
      -0.124
      -0.088
      -0.022
       0.058
       0.126
       0.157
       0.140
       0.083
       0.011
      -0.051
      -0.087
      -0.094
      -0.077
      -0.048
      -0.015
       0.016
       0.044
       0.069
       0.086
       0.088
       0.068
       0.030
      -0.018
      -0.058
      -0.078
      -0.075
      -0.057
      -0.033
      -0.009
       0.014
       0.035
       0.048
       0.047
       0.037
       0.028
       0.029
       0.036
       0.036
       0.017
      -0.018
      -0.055
      -0.080
      -0.084
      -0.068
      -0.038
      -0.003
       0.029
       0.051
       0.066
       0.077
       0.082
       0.076
       0.049
       0.000
      -0.057
      -0.100
      -0.114
      -0.094
      -0.050
       0.004
       0.053
       0.089
       0.104
       0.097
       0.067
       0.016
      -0.044
      -0.093
      -0.113
      -0.093
      -0.040
       0.025
       0.075
       0.096
       0.087
       0.064
       0.041
       0.022
       0.000
      -0.033
      -0.069
      -0.093
      -0.091
      -0.059
      -0.008
       0.047
       0.091
       0.113
       0.106
       0.071
       0.013
      -0.050
      -0.094
      -0.100
      -0.064
      -0.003
       0.053
       0.081
       0.072
       0.034
      -0.009
      -0.039
      -0.044
      -0.026
       0.008
       0.044
       0.066
       0.059
       0.023
      -0.028
      -0.064
      -0.063
      -0.025
       0.027
       0.063
       0.068
       0.046
       0.016
      -0.006
      -0.011
      -0.005
       0.001
      -0.001
      -0.013
      -0.025
      -0.029
      -0.017
       0.009
       0.039
       0.063
       0.068
       0.051
       0.018
      -0.020
      -0.046
      -0.053
      -0.038
      -0.010
       0.020
       0.040
       0.045
       0.035
       0.016
       0.000
      -0.006
      -0.003
       0.000
      -0.003
      -0.015
      -0.027
      -0.031
      -0.021
      -0.003
       0.016
       0.027
       0.029
       0.026
       0.023
       0.021
       0.021
       0.017
       0.011
       0.002
      -0.010
      -0.026
      -0.039
      -0.044
      -0.033
      -0.006
       0.026
       0.052
       0.062
       0.053
       0.032
       0.004
      -0.021
      -0.034
      -0.030
      -0.008
       0.023
       0.048
       0.050
       0.024
      -0.018
      -0.050
      -0.048
      -0.006
       0.051
       0.088
       0.075
       0.020
      -0.035
      -0.036
       0.041
       0.165
       0.262
       0.273
       0.200
       0.100
       0.021
      -0.050
      -0.172
      -0.360
      -0.531
      -0.554
      -0.366
      -0.056
       0.186
       0.218
       0.065
      -0.107
      -0.145
      -0.053
       0.019
      -0.048
      -0.167
      -0.089
       0.353
       1.011
       1.465
       1.330
       0.567
      -0.447
      -1.186
      -1.351
      -1.070
      -0.723
      -0.558
      -0.455
      -0.113
       0.544
       1.162
       1.232
       0.582
      -0.407
      -1.085
      -1.068
      -0.527
       0.039
       0.303
       0.409
       0.740
       1.387
       1.891
       1.574
       0.200
      -1.696
      -3.125
      -3.331
      -2.265
      -0.505
       1.198
       2.341
       2.786
       2.589
       1.825
       0.581
      -0.897
      -2.149
      -2.689
      -2.314
      -1.244
       0.030
       1.069
       1.693
       1.936
       1.818
       1.217
       0.039
      -1.475
      -2.650
      -2.754
      -1.569
       0.379
       2.170
       3.107
       3.053
       2.283
       1.101
      -0.360
      -1.971
      -3.306
      -3.672
      -2.627
      -0.558
       1.377
       2.086
       1.447
       0.397
       0.086
       0.862
       1.963
       2.164
       0.822
      -1.511
      -3.454
      -3.861
      -2.689
      -0.864
       0.650
       1.596
       2.258
       2.725
       2.550
       1.241
      -0.947
      -2.821
      -3.028
      -1.202
       1.554
       3.384
       3.117
       1.203
      -0.712
      -1.243
      -0.439
       0.386
      -0.065
      -1.853
      -3.738
      -4.230
      -2.808
      -0.284
       1.901
       2.791
       2.473
       1.679
       0.964
       0.316
      -0.441
      -1.057
      -0.840
       0.656
       2.960
       4.737
       4.623
       2.193
      -1.654
      -5.149
      -6.671
      -5.702
      -3.081
      -0.350
       1.337
       1.875
       1.961
       2.251
       2.722
       2.749
       1.725
      -0.343
      -2.761
      -4.571
      -5.074
      -4.050
      -1.656
       1.679
       5.212
       7.846
       8.417
       6.311
       2.016
      -2.919
      -6.621
      -7.891
      -6.753
      -4.191
      -1.332
       1.182
       3.179
       4.473
       4.611
       3.220
       0.610
      -2.088
      -3.567
      -3.255
      -1.684
       0.003
       0.968
       1.223
       1.374
       1.887
       2.559
       2.660
       1.576
      -0.589
      -2.980
      -4.533
      -4.598
      -3.138
      -0.521
       2.673
       5.583
       7.040
       5.971
       2.176
      -3.146
      -7.703
      -9.244
      -6.848
      -1.547
       4.125
       7.463
       7.058
       3.533
      -0.920
      -3.929
      -4.352
      -2.721
      -0.512
       1.073
       1.721
       1.724
       1.359
       0.704
      -0.062
      -0.486
      -0.185
       0.625
       1.110
       0.493
      -1.168
      -2.889
      -3.483
      -2.474
      -0.404
       1.655
       2.870
       3.028
       2.341
       1.044
      -0.720
      -2.651
      -4.047
      -4.003
      -2.100
       1.004
       3.739
       4.640
       3.432
       1.241
      -0.353
      -0.586
       0.022
       0.390
      -0.025
      -0.849
      -1.408
      -1.506
      -1.490
      -1.600
      -1.463
      -0.465
       1.320
       2.684
       2.052
      -0.997
      -4.857
      -6.696
      -4.516
       1.118
       7.159
      10.052
       8.192
       3.029
      -2.060
      -4.265
      -3.238
      -0.905
       0.456
       0.053
      -1.166
      -1.756
      -1.156
      -0.015
       0.589
       0.150
      -0.929
      -1.847
      -2.181
      -2.138
      -2.054
      -1.742
      -0.594
       1.525
       3.635
       4.210
       2.581
      -0.259
      -2.366
      -2.401
      -0.554
       1.919
       3.844
       4.776
       4.666
       3.260
       0.194
      -4.123
      -7.930
      -8.917
      -6.012
      -0.504
       4.720
       7.193
       6.327
       3.281
      -0.196
      -2.760
      -3.800
      -3.369
      -1.997
      -0.424
       0.759
       1.355
       1.523
       1.505
       1.364
       0.931
      -0.015
      -1.497
      -3.213
      -4.608
      -5.051
      -4.030
      -1.346
       2.639
       6.880
       9.878
      10.283
       7.574
       2.399
      -3.606
      -8.379
     -10.165
      -8.280
      -3.623
       1.520
       4.636
       4.577
       2.302
       0.003
      -0.775
      -0.340
      -0.270
      -1.650
      -3.839
      -4.903
      -3.283
       0.782
       5.273
       7.784
       7.173
       4.193
       0.706
      -1.753
      -2.874
      -3.289
      -3.611
      -3.800
      -3.358
      -1.977
       0.016
       1.804
       2.650
       2.426
       1.667
       1.046
       0.705
       0.123
      -1.238
      -3.090
      -4.252
      -3.569
      -1.009
       2.156
       4.293
       4.622
       3.635
       2.431
       1.663
       1.091
       0.095
      -1.442
      -2.820
      -3.106
      -2.041
      -0.393
       0.591
       0.165
      -1.303
      -2.571
      -2.481
      -0.914
       1.049
       1.990
       1.383
       0.087
      -0.395
       0.730
       2.770
       4.008
       2.989
      -0.303
      -4.248
      -6.571
      -5.878
      -2.558
       1.635
       4.875
       6.254
       5.829
       4.039
       1.271
      -2.075
      -5.273
      -7.229
      -6.978
      -4.454
      -0.849
       1.966
       2.662
       1.354
      -0.555
      -1.408
      -0.381
       2.059
       4.498
       5.490
       4.552
       2.603
       1.399
       2.256
       4.952
       7.769
       8.708
       6.949
       3.360
      -0.372
      -3.158
      -5.189
      -7.292
      -9.658
     -11.238
     -10.432
      -6.459
      -0.238
       5.959
       9.767
       9.965
       6.901
       2.036
      -2.920
      -6.731
      -8.890
      -9.501
      -9.052
      -8.306
      -8.160
      -9.181
     -10.900
     -11.577
      -8.983
      -1.934
       8.584
      19.545
      27.189
      28.688
      23.391
      13.128
       1.468
      -7.875
     -12.685
     -13.062
     -11.014
      -9.172
      -9.410
     -11.944
     -15.258
     -16.860
     -14.504
      -7.272
       3.982
      16.894
      28.340
      35.310
      35.669
      28.713
      15.522
      -0.892
     -15.940
     -24.693
     -23.976
     -14.398
      -0.794
       9.832
      12.003
       4.810
      -7.703
     -18.994
     -23.567
     -19.407
      -8.254
       5.781
      17.973
      24.294
      22.407
      12.623
      -1.655
     -14.944
     -22.216
     -21.573
     -15.132
      -7.377
      -2.084
      -0.032
       0.959
       3.826
       9.647
      16.554
      20.998
      20.401
      15.100
       7.946
       1.945
      -1.972
      -5.100
      -9.127
     -14.117
     -18.132
     -18.649
     -14.474
      -6.613
       2.370
       9.846
      14.375
      15.984
      15.469
      13.344
       9.261
       2.442
      -7.115
     -17.612
     -25.712
     -28.176
     -23.764
     -13.909
      -1.661
      10.106
      19.767
      26.679
      30.254
      29.489
      23.470
      12.407
      -1.756
     -15.759
     -26.292
     -31.264
     -30.276
     -24.267
     -14.891
      -4.113
       6.053
      13.951
      18.747
      20.480
      19.550
      16.181
      10.534
       3.468
      -2.974
      -6.237
      -4.941
      -0.290
       4.249
       5.118
       1.155
      -5.564
     -11.234
     -12.953
     -10.430
      -5.700
      -1.426
       0.735
       0.707
      -0.495
      -1.639
      -1.938
      -1.301
      -0.241
       0.372
      -0.267
      -2.356
      -5.039
      -6.541
      -5.085
      -0.110
       7.117
      14.008
      17.941
      17.414
      12.410
       4.053
      -5.840
     -14.946
     -20.627
     -20.623
     -14.203
      -3.010
       9.252
      18.362
      21.469
      18.209
      10.525
       1.541
      -5.779
      -9.634
      -9.820
      -7.546
      -4.720
      -2.993
      -2.954
      -3.864
      -4.110
      -2.231
       2.051
       7.424
      11.555
      12.375
       9.289
       3.545
      -2.509
      -6.786
      -8.547
      -8.492
      -7.892
      -7.470
      -6.889
      -5.190
      -1.767
       2.903
       7.350
       9.942
       9.859
       7.543
       4.317
       1.465
      -0.578
      -2.281
      -4.261
      -6.390
      -7.618
      -6.657
      -2.965
       2.720
       8.560
      12.360
      12.515
       8.738
       2.172
      -5.193
     -11.403
     -15.226
     -16.333
     -15.033
     -11.851
      -7.252
      -1.640
       4.456
      10.273
      14.910
      17.561
      17.701
      15.142
      10.057
       3.064
      -4.682
     -11.577
     -15.936
     -16.517
     -12.968
      -6.047
       2.454
      10.134
      14.710
      14.841
      10.654
       3.724
      -3.490
      -8.546
     -10.033
      -8.269
      -5.156
      -3.012
      -3.014
      -4.438
      -5.368
      -4.287
      -1.231
       2.417
       5.178
       6.561
       7.061
       7.261
       7.025
       5.605
       2.437
      -2.168
      -7.018
     -10.570
     -11.520
      -9.213
      -3.959
       2.786
       8.724
      11.748
      11.202
       8.303
       5.171
       3.153
       1.891
      -0.026
      -3.496
      -7.917
     -11.622
     -13.180
     -12.246
      -9.323
      -4.985
       0.404
       6.216
      11.060
      13.128
      11.325
       6.221
      -0.057
      -4.992
      -6.993
      -6.022
      -3.250
      -0.208
       1.988
       3.020
       3.355
       3.872
       5.192
       7.016
       8.058
       6.863
       3.022
      -2.250
      -6.773
      -8.853
      -8.371
      -6.640
      -5.188
      -4.520
      -3.905
      -2.282
       0.562
       3.587
       5.147
       4.138
       0.815
      -3.179
      -5.592
      -4.816
      -0.950
       4.107
       7.797
       8.484
       6.265
       2.511
      -1.254
      -4.117
      -5.772
      -6.077
      -4.785
      -1.776
       2.418
       6.393
       8.340
       7.040
       2.725
      -2.850
      -7.262
      -8.709
      -6.975
      -3.427
      -0.082
       1.631
       1.573
       0.675
       0.109
       0.505
       1.661
       2.762
       2.859
       1.392
      -1.413
      -4.445
      -6.106
      -5.145
      -1.509
       3.460
       7.744
       9.823
       9.442
       7.490
       5.218
       3.434
       2.131
       0.647
      -1.790
      -5.435
      -9.704
     -13.386
     -15.206
     -14.349
     -10.702
      -4.879
       1.859
       7.831
      11.423
      11.756
       9.211
       5.408
       2.461
       1.797
       3.232
       5.004
       4.902
       1.838
      -3.231
      -7.746
      -9.117
      -6.403
      -0.931
       4.518
       7.412
       6.876
       3.916
       0.427
      -2.137
      -3.507
      -4.357
      -5.485
      -7.056
      -8.375
      -8.262
      -5.831
      -1.199
       4.396
       9.193
      11.804
      11.735
       9.197
       4.634
      -1.385
      -7.783
     -12.700
     -14.020
     -10.613
      -3.334
       5.142
      11.690
      14.328
      12.943
       8.782
       3.381
      -2.146
      -7.030
     -10.412
     -11.298
      -9.131
      -4.461
       1.001
       5.146
       6.508
       4.914
       1.376
      -2.532
      -5.347
      -6.080
      -4.297
      -0.186
       5.244
      10.137
      12.322
      10.399
       4.667
      -2.860
      -9.493
     -13.251
     -13.605
     -11.187
      -6.905
      -1.351
       5.003
      11.165
      15.362
      15.708
      11.434
       3.730
      -4.579
     -10.439
     -12.149
     -10.081
      -6.089
      -2.159
       0.667
       2.362
       3.194
       3.084
       1.718
      -0.754
      -3.253
      -4.178
      -2.496
       1.359
       5.583
       8.046
       7.487
       4.079
      -0.843
      -5.496
      -8.317
      -8.422
      -5.839
