Origin Time       05/3/2012 07:41:05	 UTC
Lat.              28.7 N	
Long.             76.6 E	
Depth (Km)         14.0
Magnitude         4.9
 Region           Haryana-Delhi-Border-Region                                      
 Above details taken from IMD 
    
Station Code      GGI
Station Lat.       28.665  N
Station Long.      77.232  E
Station Height(m)  207.0
Site Class        C   Vs30 between 200 m/sec to 375 m/sec *  
Record Time       05.03.2012 07:40:54.384 UTC
Sampling Rate     200. Hz
 Record Duration   91.865 Sec.
 Direction         N-S (N positive)
Max. Acceleration      8.988 cm/sec**2
     
  * For reference see Site Classification link of website 
     
 Base Line Corrected and Low Pass Filtered (Cut Off at 35 Hz) Time History
 Acceleration data in cm/sec**2
    
[...]
      -1.298
      -0.813
      -0.471
      -0.403
      -0.554
      -0.738
      -0.760
      -0.524
      -0.070
       0.467
       0.922
       1.162
       1.123
       0.840
       0.458
       0.180
       0.169
       0.446
       0.860
       1.164
       1.153
       0.785
       0.221
      -0.272
      -0.485
      -0.383
      -0.125
       0.035
      -0.090
      -0.515
      -1.065
      -1.482
      -1.592
      -1.410
      -1.118
      -0.918
      -0.873
      -0.851
      -0.614
       0.017
       1.026
       2.177
       3.100
       3.458
       3.078
       2.021
       0.560
      -0.912
      -2.014
      -2.506
      -2.361
      -1.758
      -0.997
      -0.375
      -0.063
      -0.051
      -0.168
      -0.201
      -0.028
       0.303
       0.618
       0.742
       0.614
       0.318
       0.026
      -0.109
      -0.036
       0.166
       0.325
       0.279
      -0.005
      -0.376
      -0.567
      -0.364
       0.253
       1.078
       1.773
       2.032
       1.704
       0.863
      -0.217
      -1.164
      -1.655
      -1.550
      -0.960
      -0.185
       0.440
       0.725
       0.705
       0.580
       0.557
       0.700
       0.897
       0.941
       0.668
       0.065
      -0.704
      -1.351
      -1.592
      -1.297
      -0.590
       0.165
       0.541
       0.300
      -0.435
      -1.230
      -1.602
      -1.332
      -0.581
       0.251
       0.811
       0.984
       0.885
       0.717
       0.632
       0.686
       0.841
       0.983
       0.928
       0.507
      -0.324
      -1.393
      -2.351
      -2.825
      -2.611
      -1.783
      -0.673
       0.268
       0.682
       0.470
      -0.151
      -0.744
      -0.867
      -0.322
       0.711
       1.732
       2.182
       1.762
       0.617
      -0.724
      -1.635
      -1.703
      -0.918
       0.352
       1.544
       2.147
       1.917
       0.975
      -0.266
      -1.296
      -1.755
      -1.554
      -0.857
       0.054
       0.906
       1.494
       1.712
       1.569
       1.205
       0.846
       0.679
       0.733
       0.856
       0.841
       0.598
       0.233
      -0.028
      -0.006
       0.306
       0.741
       1.055
       1.052
       0.673
       0.039
      -0.574
      -0.846
      -0.597
       0.070
       0.767
       1.026
       0.592
      -0.403
      -1.500
      -2.200
      -2.255
      -1.797
      -1.211
      -0.876
      -0.930
      -1.209
      -1.385
      -1.194
      -0.597
       0.225
       1.019
       1.601
       1.890
       1.860
       1.492
       0.805
      -0.088
      -0.990
      -1.712
      -2.156
      -2.320
      -2.221
      -1.854
      -1.241
      -0.519
       0.076
       0.343
       0.283
       0.126
       0.185
       0.635
       1.375
       2.074
       2.347
       1.977
       1.053
      -0.062
      -0.901
      -1.136
      -0.749
      -0.037
       0.541
       0.619
       0.116
      -0.719
      -1.445
      -1.682
      -1.329
      -0.615
       0.067
       0.430
       0.459
       0.362
       0.360
       0.495
       0.613
       0.525
       0.186
      -0.262
      -0.588
      -0.628
      -0.381
       0.025
       0.422
       0.694
       0.813
       0.823
       0.777
       0.685
       0.505
       0.198
      -0.204
      -0.583
      -0.811
      -0.836
      -0.696
      -0.452
      -0.116
       0.338
       0.872
       1.319
       1.440
       1.078
       0.294
      -0.627
      -1.323
      -1.541
      -1.254
      -0.649
      -0.004
       0.455
       0.635
       0.572
       0.370
       0.145
      -0.016
      -0.070
      -0.019
       0.086
       0.161
       0.117
      -0.093
      -0.430
      -0.759
      -0.909
      -0.767
      -0.345
       0.216
       0.701
       0.915
       0.788
       0.435
       0.111
       0.055
       0.329
       0.772
       1.110
       1.119
       0.716
      -0.041
      -0.985
      -1.852
      -2.318
      -2.128
      -1.265
      -0.021
       1.116
       1.719
       1.640
       1.052
       0.312
      -0.231
      -0.357
      -0.026
       0.610
       1.240
       1.501
       1.171
       0.324
      -0.665
      -1.304
      -1.255
      -0.534
       0.486
       1.253
       1.331
       0.651
      -0.415
      -1.254
      -1.377
      -0.725
       0.291
       1.061
       1.140
       0.501
      -0.485
      -1.279
      -1.485
      -1.044
      -0.225
       0.543
       0.872
       0.565
      -0.313
      -1.427
      -2.241
      -2.224
      -1.137
       0.735
       2.626
       3.651
       3.293
       1.717
      -0.308
      -1.815
      -2.156
      -1.338
       0.007
       0.978
       0.904
      -0.293
      -2.059
      -3.504
      -3.868
      -2.917
      -1.068
       0.821
       1.887
       1.713
       0.552
      -0.813
      -1.511
      -1.075
       0.302
       1.890
       2.833
       2.598
       1.226
      -0.726
      -2.477
      -3.372
      -3.139
      -1.977
      -0.463
       0.710
       1.061
       0.563
      -0.361
      -1.108
      -1.249
      -0.730
       0.170
       1.071
       1.704
       1.982
       1.945
       1.690
       1.345
       1.067
       0.979
       1.093
       1.279
       1.336
       1.115
       0.631
       0.063
      -0.330
      -0.367
      -0.056
       0.405
       0.747
       0.786
       0.502
       0.003
      -0.538
      -0.920
      -0.934
      -0.433
       0.532
       1.631
       2.336
       2.213
       1.236
      -0.106
      -1.075
      -1.164
      -0.439
       0.524
       1.058
       0.840
       0.034
      -0.903
      -1.554
      -1.743
      -1.520
      -1.045
      -0.512
      -0.135
      -0.104
      -0.461
      -0.983
      -1.226
      -0.779
       0.407
       1.895
       2.958
       3.015
       1.992
       0.374
      -1.075
      -1.753
      -1.550
      -0.868
      -0.325
      -0.339
      -0.867
      -1.472
      -1.666
      -1.281
      -0.571
      -0.004
       0.082
      -0.304
      -0.846
      -1.129
      -0.869
      -0.051
       1.049
       1.980
       2.315
       1.879
       0.862
      -0.265
      -1.025
      -1.206
      -0.966
      -0.689
      -0.718
      -1.151
      -1.816
      -2.386
      -2.542
      -2.119
      -1.187
      -0.054
       0.850
       1.185
       0.915
       0.375
       0.089
       0.416
       1.278
       2.188
       2.583
       2.195
       1.198
       0.062
      -0.764
      -1.088
      -1.016
      -0.811
      -0.686
      -0.705
      -0.795
      -0.837
      -0.719
      -0.360
       0.248
       0.979
       1.560
       1.702
       1.309
       0.602
      -0.002
      -0.170
       0.102
       0.519
       0.733
       0.604
       0.260
      -0.079
      -0.303
      -0.465
      -0.655
      -0.856
      -0.934
      -0.779
      -0.418
       0.002
       0.343
       0.588
       0.821
       1.127
       1.487
       1.767
       1.802
       1.499
       0.900
       0.175
      -0.465
      -0.866
      -0.991
      -0.931
      -0.854
      -0.925
      -1.208
      -1.607
      -1.903
      -1.877
      -1.455
      -0.751
       0.008
       0.610
       0.964
       1.114
       1.186
       1.293
       1.461
       1.597
       1.546
       1.201
       0.613
      -0.002
      -0.357
      -0.262
       0.252
       0.916
       1.337
       1.187
       0.371
      -0.904
      -2.203
      -3.049
      -3.133
      -2.454
      -1.312
      -0.139
       0.722
       1.157
       1.275
       1.293
       1.378
       1.553
       1.663
       1.464
       0.783
      -0.310
      -1.464
      -2.211
      -2.259
      -1.694
      -0.926
      -0.397
      -0.289
      -0.434
      -0.499
      -0.267
       0.212
       0.684
       0.910
       0.833
       0.603
       0.445
       0.493
       0.691
       0.814
       0.596
      -0.090
      -1.095
      -2.000
      -2.324
      -1.819
      -0.669
       0.580
       1.339
       1.317
       0.655
      -0.199
      -0.760
      -0.734
      -0.115
       0.850
       1.777
       2.302
       2.202
       1.487
       0.389
      -0.716
      -1.468
      -1.675
      -1.366
      -0.731
       0.009
       0.681
       1.151
       1.298
       1.045
       0.428
      -0.369
      -1.067
      -1.433
      -1.387
      -1.038
      -0.608
      -0.308
      -0.244
      -0.380
      -0.579
      -0.683
      -0.601
      -0.361
      -0.107
      -0.013
      -0.164
      -0.478
      -0.739
      -0.735
      -0.397
       0.146
       0.642
       0.873
       0.790
       0.553
       0.412
       0.538
       0.892
       1.252
       1.372
       1.174
       0.803
       0.511
       0.468
       0.650
       0.873
       0.926
       0.675
       0.118
      -0.611
      -1.239
      -1.422
      -0.917
       0.210
       1.517
       2.390
       2.396
       1.562
       0.358
      -0.605
      -0.930
      -0.622
      -0.018
       0.443
       0.458
      -0.010
      -0.733
      -1.346
      -1.534
      -1.193
      -0.500
       0.156
       0.382
       0.020
      -0.715
      -1.338
      -1.404
      -0.821
       0.073
       0.718
       0.717
       0.104
      -0.675
      -1.053
      -0.708
       0.221
       1.205
       1.639
       1.222
       0.178
      -0.853
      -1.207
      -0.657
       0.395
       1.154
       0.959
      -0.254
      -1.883
      -3.028
      -3.033
      -1.867
      -0.132
       1.286
       1.699
       0.968
      -0.448
      -1.743
      -2.192
      -1.536
      -0.135
       1.215
       1.720
       1.073
      -0.336
      -1.638
      -2.022
      -1.241
       0.241
       1.557
       1.982
       1.359
       0.148
      -0.885
      -1.121
      -0.422
       0.828
       1.946
       2.324
       1.755
       0.538
      -0.705
      -1.389
      -1.289
      -0.625
       0.117
       0.511
       0.434
       0.082
      -0.203
      -0.158
       0.259
       0.862
       1.320
       1.304
       0.662
      -0.433
      -1.483
      -1.884
      -1.288
       0.105
       1.571
       2.257
       1.708
       0.189
      -1.459
      -2.330
      -2.007
      -0.773
       0.622
       1.443
       1.358
       0.524
      -0.591
      -1.476
      -1.779
      -1.409
      -0.541
       0.459
       1.188
       1.367
       0.955
       0.144
      -0.753
      -1.465
      -1.867
      -1.978
      -1.867
      -1.590
      -1.203
      -0.807
      -0.520
      -0.388
      -0.306
      -0.071
       0.451
       1.185
       1.853
       2.159
       2.008
       1.596
       1.280
       1.291
       1.527
       1.602
       1.137
       0.075
      -1.240
      -2.271
      -2.619
      -2.232
      -1.390
      -0.520
       0.011
       0.026
      -0.409
      -1.017
      -1.413
      -1.274
      -0.505
       0.677
       1.831
       2.519
       2.570
       2.185
       1.791
       1.748
       2.108
       2.598
       2.816
       2.482
       1.586
       0.383
      -0.733
      -1.397
      -1.428
      -0.936
      -0.289
       0.072
      -0.086
      -0.609
      -1.041
      -0.935
      -0.174
       0.955
       1.969
       2.505
       2.509
       2.198
       1.857
       1.634
       1.471
       1.189
       0.641
      -0.160
      -1.025
      -1.674
      -1.883
      -1.612
      -1.007
      -0.288
       0.397
       1.029
       1.654
       2.263
       2.742
       2.929
       2.725
       2.145
       1.284
       0.247
      -0.862
      -1.898
      -2.668
      -3.003
      -2.877
      -2.468
      -2.093
      -2.060
      -2.489
      -3.198
      -3.737
      -3.605
      -2.577
      -0.933
       0.623
       1.372
       1.064
       0.104
      -0.718
      -0.800
      -0.167
       0.558
       0.623
      -0.268
      -1.727
      -2.941
      -3.230
      -2.486
      -1.200
      -0.087
       0.374
       0.203
      -0.208
      -0.453
      -0.458
      -0.509
      -0.974
      -1.929
      -3.012
      -3.617
      -3.286
      -2.005
      -0.207
       1.475
       2.554
       2.918
       2.828
       2.701
       2.793
       3.020
       3.043
       2.579
       1.697
       0.837
       0.516
       0.944
       1.846
       2.616
       2.681
       1.823
       0.296
      -1.311
      -2.383
      -2.593
      -2.044
      -1.166
      -0.430
      -0.079
      -0.030
       0.008
       0.303
       0.911
       1.643
       2.197
       2.368
       2.206
       2.001
       2.066
       2.462
       2.889
       2.850
       2.006
       0.427
      -1.445
      -3.067
      -4.102
      -4.545
      -4.627
      -4.617
      -4.635
      -4.592
      -4.258
      -3.419
      -2.039
      -0.342
       1.268
       2.418
       2.995
       3.208
       3.436
       3.949
       4.701
       5.336
       5.400
       4.620
       3.072
       1.122
      -0.787
      -2.358
      -3.494
      -4.185
      -4.397
      -4.061
      -3.188
      -1.969
      -0.738
       0.184
       0.661
       0.811
       0.925
       1.287
       1.998
       2.910
       3.696
       4.012
       3.653
       2.642
       1.224
      -0.211
      -1.298
      -1.899
      -2.238
      -2.818
      -4.071
      -5.937
      -7.677
      -8.166
      -6.533
      -2.774
       2.104
       6.501
       8.988
       8.970
       6.915
       4.020
       1.555
       0.237
      -0.002
       0.210
       0.176
      -0.485
      -1.739
      -3.292
      -4.779
      -5.841
      -6.173
      -5.620
      -4.320
      -2.739
      -1.448
      -0.787
      -0.641
      -0.550
      -0.042
       1.054
       2.555
       4.108
       5.407
       6.266
       6.506
       5.865
       4.102
       1.265
      -2.074
      -4.914
      -6.276
      -5.771
      -3.879
      -1.719
      -0.419
      -0.508
      -1.695
      -3.148
      -4.031
      -3.948
      -3.051
      -1.831
      -0.778
      -0.125
       0.199
       0.466
       0.979
       1.922
       3.271
       4.767
       5.960
       6.334
       5.529
       3.575
       1.022
      -1.209
      -2.233
      -1.697
      -0.034
       1.721
       2.473
       1.663
      -0.418
      -2.762
      -4.142
      -3.729
      -1.549
       1.458
       3.850
       4.419
       2.881
       0.110
      -2.287
      -2.860
      -1.142
       2.065
       5.134
       6.498
       5.466
       2.531
      -0.955
      -3.512
      -4.284
      -3.402
      -1.801
      -0.593
      -0.374
      -0.916
      -1.448
      -1.278
      -0.316
       0.890
       1.574
       1.302
       0.274
      -0.822
      -1.289
      -0.874
       0.079
       0.875
       0.908
      -0.022
      -1.655
      -3.448
      -4.808
      -5.267
      -4.573
      -2.730
      -0.017
       3.043
       5.797
       7.649
       8.234
       7.521
       5.786
       3.503
       1.205
      -0.656
      -1.801
      -2.188
      -2.031
      -1.748
      -1.807
      -2.484
      -3.667
      -4.848
      -5.356
      -4.729
      -2.985
      -0.623
       1.636
       3.218
       3.924
       3.947
       3.691
       3.538
       3.659
       3.944
       4.052
       3.573
       2.258
       0.208
      -2.106
      -4.029
      -5.077
      -5.216
      -4.853
      -4.525
      -4.507
      -4.673
      -4.678
      -4.260
      -3.369
      -2.079
      -0.475
       1.302
       2.920
       3.875
       3.774
       2.688
       1.236
       0.265
       0.336
       1.377
       2.753
       3.644
       3.487
       2.217
       0.253
      -1.726
      -3.091
      -3.532
      -3.167
      -2.451
      -1.936
      -1.986
      -2.585
      -3.331
      -3.640
      -3.085
      -1.673
       0.140
       1.722
       2.653
       2.919
       2.785
       2.495
       2.103
       1.575
       0.993
       0.565
       0.400
       0.307
      -0.084
      -0.922
      -1.841
      -2.109
      -1.168
       0.870
       3.200
       4.800
       5.061
       4.114
       2.673
       1.581
       1.338
       1.857
       2.537
       2.606
       1.581
      -0.401
      -2.607
      -4.105
      -4.292
      -3.221
      -1.539
      -0.087
       0.592
       0.522
       0.204
       0.208
       0.739
       1.484
       1.869
       1.532
       0.641
      -0.192
      -0.350
       0.345
       1.490
       2.333
       2.204
       0.870
      -1.327
      -3.589
      -5.008
      -4.989
      -3.558
      -1.356
       0.688
       1.810
       1.723
       0.640
      -0.910
      -2.325
      -3.137
      -3.171
      -2.627
      -1.986
      -1.681
      -1.727
      -1.651
      -0.873
       0.733
       2.605
       3.853
       3.904
       2.883
       1.435
       0.211
      -0.493
      -0.713
      -0.593
      -0.289
      -0.074
      -0.412
      -1.721
      -3.943
      -6.281
      -7.467
      -6.470
      -3.199
       1.319
       5.433
       7.733
       7.744
       6.057
       3.873
       2.292
       1.761
       1.994
       2.304
       2.094
       1.179
      -0.205
      -1.616
      -2.627
      -2.933
      -2.374
      -0.990
       0.894
       2.666
       3.645
       3.456
       2.298
       0.844
      -0.184
      -0.469
      -0.213
       0.102
       0.082
      -0.342
      -0.935
      -1.332
      -1.283
      -0.817
      -0.238
       0.079
      -0.055
      -0.521
      -0.991
      -1.161
      -0.919
      -0.349
       0.362
       0.984
       1.254
       0.919
      -0.131
      -1.708
      -3.311
      -4.336
      -4.401
      -3.552
      -2.177
      -0.720
       0.535
       1.430
       1.773
       1.303
      -0.095
      -2.082
      -3.825
      -4.363
      -3.201
      -0.712
       1.974
       3.582
       3.407
       1.691
      -0.544
      -2.065
      -2.054
      -0.469
       1.998
       4.293
       5.497
       5.215
       3.705
       1.697
       0.018
      -0.819
      -0.870
      -0.697
      -1.005
      -2.154
      -3.864
      -5.328
      -5.687
      -4.580
      -2.398
      -0.097
       1.348
       1.488
       0.634
      -0.355
      -0.620
       0.187
       1.734
       3.293
       4.231
       4.369
       3.991
       3.557
       3.358
       3.355
       3.276
       2.849
       2.024
       1.040
       0.313
       0.199
       0.764
       1.690
       2.397
       2.343
       1.347
      -0.262
      -1.782
      -2.505
      -2.103
      -0.784
       0.837
       2.071
       2.450
       1.857
       0.483
      -1.288
      -2.999
      -4.214
      -4.624
      -4.115
      -2.794
      -0.978
       0.843
       2.079
       2.206
       1.012
      -1.207
      -3.678
      -5.458
      -5.880
      -4.900
      -3.116
      -1.463
      -0.727
      -1.150
      -2.316
      -3.400
      -3.632
      -2.731
      -1.025
       0.799
       2.116
       2.678
       2.644
       2.406
       2.386
       2.880
       3.930
       5.235
       6.203
       6.216
       5.017
       2.946
       0.795
      -0.650
      -1.058
      -0.697
      -0.178
