Origin Time       05/3/2012 07:41:05	
Lat.              28.7 N	
Long.             76.6 E	
Depth (Km)         14.0
Magnitude         4.9
 Region           Haryana-Delhi-Border-Region                                      
 Above details taken from IMD 
    
Station Code       ALIP
Station Lat.       28.795  N
Station Long.      77.141  E
Station Height(m)   98.0
Site Class        C   Vs30 between 200 m/sec to 375 m/sec *  
Record Time        3/5/2012   7:40:25.000
Sampling Rate     200. Hz
 Record Duration  132.000 Sec.
 Direction         N-S (N positive)
Max. Acceleration -14.840 cm/sec**2
     
  * For reference see Site Classification link of website 
     
 Base Line Corrected and Low Pass Filtered (Cut Off at 35 Hz) Time History
 Acceleration data in cm/sec**2
    
[...]
   -0.707
   -0.479
   -0.476
   -0.652
   -0.782
   -0.656
   -0.264
    0.217
    0.596
    0.838
    1.050
    1.319
    1.569
    1.604
    1.279
    0.654
   -0.024
   -0.466
   -0.502
   -0.155
    0.396
    0.907
    1.166
    1.068
    0.632
   -0.007
   -0.648
   -1.063
   -1.058
   -0.558
    0.306
    1.187
    1.658
    1.458
    0.669
   -0.322
   -1.080
   -1.406
   -1.420
   -1.393
   -1.499
   -1.698
   -1.821
   -1.745
   -1.473
   -1.082
   -0.611
   -0.045
    0.604
    1.211
    1.553
    1.442
    0.876
    0.067
   -0.653
   -0.999
   -0.867
   -0.367
    0.252
    0.745
    0.990
    1.016
    0.927
    0.787
    0.568
    0.216
   -0.242
   -0.653
   -0.799
   -0.537
    0.101
    0.880
    1.474
    1.639
    1.370
    0.889
    0.452
    0.131
   -0.218
   -0.773
   -1.504
   -2.128
   -2.292
   -1.844
   -0.964
   -0.052
    0.530
    0.668
    0.514
    0.321
    0.251
    0.283
    0.284
    0.149
   -0.097
   -0.302
   -0.314
   -0.118
    0.115
    0.149
   -0.108
   -0.493
   -0.707
   -0.561
   -0.138
    0.270
    0.405
    0.245
   -0.004
   -0.100
    0.039
    0.287
    0.427
    0.329
    0.051
   -0.199
   -0.219
    0.031
    0.401
    0.666
    0.702
    0.569
    0.431
    0.413
    0.508
    0.577
    0.430
   -0.063
   -0.870
   -1.772
   -2.450
   -2.650
   -2.305
   -1.542
   -0.590
    0.326
    1.053
    1.526
    1.763
    1.838
    1.837
    1.813
    1.760
    1.630
    1.380
    0.996
    0.506
   -0.051
   -0.634
   -1.198
   -1.661
   -1.886
   -1.716
   -1.071
   -0.036
    1.122
    2.064
    2.539
    2.490
    2.036
    1.358
    0.615
   -0.072
   -0.591
   -0.851
   -0.832
   -0.605
   -0.282
    0.056
    0.381
    0.655
    0.791
    0.672
    0.246
   -0.398
   -1.044
   -1.451
   -1.476
   -1.149
   -0.642
   -0.165
    0.135
    0.228
    0.194
    0.163
    0.225
    0.359
    0.436
    0.317
   -0.024
   -0.478
   -0.879
   -1.133
   -1.250
   -1.289
   -1.259
   -1.108
   -0.795
   -0.391
   -0.101
   -0.148
   -0.603
   -1.279
   -1.790
   -1.777
   -1.134
   -0.092
    0.907
    1.469
    1.459
    1.023
    0.442
   -0.067
   -0.441
   -0.719
   -0.934
   -1.062
   -1.037
   -0.821
   -0.440
    0.023
    0.469
    0.816
    1.021
    1.077
    0.997
    0.772
    0.376
   -0.184
   -0.801
   -1.274
   -1.426
   -1.249
   -0.938
   -0.745
   -0.761
   -0.820
   -0.620
    0.041
    1.076
    2.144
    2.872
    3.097
    2.928
    2.591
    2.209
    1.727
    1.037
    0.170
   -0.646
   -1.127
   -1.140
   -0.803
   -0.411
   -0.249
   -0.416
   -0.763
   -0.983
   -0.803
   -0.163
    0.731
    1.533
    1.977
    2.019
    1.798
    1.481
    1.123
    0.689
    0.149
   -0.444
   -0.992
   -1.445
   -1.818
   -2.133
   -2.351
   -2.396
   -2.240
   -1.933
   -1.544
   -1.070
   -0.434
    0.404
    1.340
    2.121
    2.480
    2.295
    1.639
    0.739
   -0.122
   -0.686
   -0.803
   -0.517
   -0.079
    0.177
    0.056
   -0.346
   -0.702
   -0.706
   -0.304
    0.288
    0.781
    1.023
    1.048
    0.969
    0.861
    0.766
    0.751
    0.885
    1.148
    1.360
    1.243
    0.594
   -0.519
   -1.714
   -2.455
   -2.365
   -1.492
   -0.309
    0.576
    0.780
    0.332
   -0.432
   -1.130
   -1.533
   -1.607
   -1.444
   -1.165
   -0.857
   -0.567
   -0.332
   -0.201
   -0.207
   -0.295
   -0.301
   -0.026
    0.592
    1.385
    2.015
    2.187
    1.848
    1.205
    0.572
    0.153
   -0.080
   -0.333
   -0.817
   -1.556
   -2.327
   -2.773
   -2.630
   -1.918
   -0.946
   -0.125
    0.289
    0.342
    0.305
    0.455
    0.845
    1.273
    1.441
    1.176
    0.538
   -0.243
   -0.912
   -1.327
   -1.484
   -1.476
   -1.393
   -1.262
   -1.039
   -0.682
   -0.220
    0.229
    0.528
    0.618
    0.566
    0.534
    0.683
    1.057
    1.520
    1.816
    1.744
    1.339
    0.878
    0.700
    0.952
    1.483
    1.960
    2.121
    1.956
    1.678
    1.534
    1.600
    1.727
    1.654
    1.217
    0.488
   -0.244
   -0.653
   -0.600
   -0.234
    0.112
    0.163
   -0.111
   -0.499
   -0.730
   -0.678
   -0.456
   -0.322
   -0.462
   -0.792
   -0.962
   -0.613
    0.286
    1.314
    1.846
    1.499
    0.401
   -0.917
   -1.907
   -2.344
   -2.405
   -2.464
   -2.755
   -3.156
   -3.240
   -2.591
   -1.178
    0.528
    1.803
    2.123
    1.484
    0.351
   -0.689
   -1.292
   -1.469
   -1.434
   -1.342
   -1.143
   -0.652
    0.235
    1.349
    2.271
    2.577
    2.135
    1.215
    0.318
   -0.160
   -0.157
    0.065
    0.169
    0.001
   -0.320
   -0.543
   -0.511
   -0.271
   -0.013
    0.089
   -0.022
   -0.308
   -0.693
   -1.097
   -1.433
   -1.610
   -1.549
   -1.207
   -0.593
    0.220
    1.075
    1.733
    1.933
    1.493
    0.430
   -1.016
   -2.444
   -3.438
   -3.711
   -3.194
   -2.049
   -0.618
    0.708
    1.639
    2.089
    2.161
    2.036
    1.869
    1.742
    1.693
    1.744
    1.880
    2.024
    2.055
    1.869
    1.440
    0.835
    0.189
   -0.344
   -0.664
   -0.806
   -0.938
   -1.244
   -1.735
   -2.162
   -2.126
   -1.350
    0.086
    1.732
    2.988
    3.406
    2.906
    1.759
    0.404
   -0.790
   -1.628
   -2.051
   -2.053
   -1.664
   -1.003
   -0.314
    0.109
    0.074
   -0.387
   -1.009
   -1.423
   -1.353
   -0.757
    0.167
    1.120
    1.849
    2.239
    2.298
    2.107
    1.754
    1.298
    0.761
    0.163
   -0.433
   -0.923
   -1.219
   -1.309
   -1.250
   -1.093
   -0.807
   -0.304
    0.445
    1.304
    1.989
    2.216
    1.878
    1.085
    0.070
   -0.968
   -1.927
   -2.727
   -3.212
   -3.154
   -2.401
   -1.052
    0.505
    1.743
    2.263
    1.990
    1.169
    0.199
   -0.577
   -0.982
   -0.997
   -0.689
   -0.165
    0.439
    0.947
    1.172
    0.987
    0.416
   -0.335
   -0.936
   -1.099
   -0.756
   -0.139
    0.339
    0.375
    0.031
   -0.276
   -0.106
    0.599
    1.410
    1.745
    1.366
    0.592
    0.023
    0.028
    0.456
    0.786
    0.577
   -0.201
   -1.181
   -1.921
   -2.219
   -2.217
   -2.218
   -2.409
   -2.673
   -2.660
   -2.056
   -0.846
    0.630
    1.868
    2.474
    2.345
    1.684
    0.880
    0.287
    0.022
   -0.101
   -0.381
   -0.900
   -1.371
   -1.351
   -0.652
    0.429
    1.295
    1.456
    0.844
   -0.173
   -1.017
   -1.203
   -0.571
    0.630
    1.861
    2.560
    2.446
    1.662
    0.687
    0.063
    0.076
    0.577
    1.064
    0.988
    0.121
   -1.293
   -2.695
   -3.560
   -3.674
   -3.170
   -2.334
   -1.399
   -0.473
    0.382
    1.059
    1.417
    1.389
    1.064
    0.669
    0.459
    0.597
    1.074
    1.703
    2.195
    2.276
    1.822
    0.919
   -0.163
   -1.082
   -1.579
   -1.590
   -1.242
   -0.735
   -0.197
    0.350
    0.905
    1.380
    1.597
    1.412
    0.852
    0.141
   -0.432
   -0.704
   -0.750
   -0.799
   -1.022
   -1.373
   -1.616
   -1.542
   -1.159
   -0.688
   -0.366
   -0.234
   -0.111
    0.219
    0.790
    1.384
    1.685
    1.526
    1.024
    0.497
    0.198
    0.075
   -0.193
   -0.896
   -1.945
   -2.823
   -2.922
   -1.993
   -0.367
    1.229
    2.103
    1.985
    1.145
    0.195
   -0.298
   -0.160
    0.305
    0.573
    0.311
   -0.350
   -0.891
   -0.780
    0.122
    1.434
    2.509
    2.876
    2.533
    1.857
    1.239
    0.775
    0.285
   -0.403
   -1.190
   -1.726
   -1.683
   -1.045
   -0.168
    0.440
    0.464
    0.001
   -0.532
   -0.724
   -0.509
   -0.199
   -0.226
   -0.771
   -1.604
   -2.214
   -2.148
   -1.294
    0.050
    1.352
    2.146
    2.256
    1.825
    1.167
    0.564
    0.129
   -0.172
   -0.419
   -0.644
   -0.825
   -0.943
   -1.025
   -1.119
   -1.240
   -1.334
   -1.310
   -1.086
   -0.632
    0.009
    0.711
    1.288
    1.584
    1.601
    1.552
    1.723
    2.214
    2.782
    2.996
    2.594
    1.717
    0.764
   -0.004
   -0.698
   -1.612
   -2.812
   -3.913
   -4.290
   -3.555
   -1.872
    0.102
    1.606
    2.201
    1.986
    1.463
    1.145
    1.153
    1.131
    0.577
   -0.679
   -2.268
   -3.512
   -3.897
   -3.374
   -2.306
   -1.183
   -0.340
    0.151
    0.411
    0.601
    0.783
    0.873
    0.744
    0.405
    0.122
    0.287
    1.094
    2.261
    3.091
    2.920
    1.662
   -0.006
   -1.058
   -0.860
    0.314
    1.454
    1.549
    0.316
   -1.630
   -3.239
   -3.729
   -3.015
   -1.615
   -0.216
    0.748
    1.212
    1.309
    1.157
    0.799
    0.314
   -0.096
   -0.171
    0.224
    0.950
    1.605
    1.689
    0.883
   -0.684
   -2.395
   -3.430
   -3.269
   -2.022
   -0.312
    1.187
    2.164
    2.693
    2.956
    2.950
    2.484
    1.414
   -0.095
   -1.525
   -2.258
   -1.941
   -0.712
    0.884
    2.214
    2.857
    2.698
    1.851
    0.555
   -0.859
   -2.004
   -2.567
   -2.489
   -2.038
   -1.645
   -1.599
   -1.843
   -2.041
   -1.854
   -1.199
   -0.302
    0.459
    0.806
    0.733
    0.484
    0.362
    0.522
    0.891
    1.274
    1.513
    1.560
    1.451
    1.236
    0.971
    0.722
    0.551
    0.455
    0.358
    0.180
   -0.103
   -0.469
   -0.894
   -1.338
   -1.658
   -1.634
   -1.162
   -0.448
    0.055
   -0.009
   -0.584
   -1.199
   -1.289
   -0.561
    0.824
    2.341
    3.387
    3.607
    3.065
    2.120
    1.117
    0.132
   -0.958
   -2.177
   -3.243
   -3.689
   -3.212
   -1.922
   -0.288
    1.122
    1.901
    1.942
    1.440
    0.760
    0.211
   -0.142
   -0.446
   -0.825
   -1.168
   -1.181
   -0.690
    0.107
    0.694
    0.599
   -0.222
   -1.308
   -1.991
   -1.853
   -0.985
    0.142
    1.074
    1.691
    2.163
    2.621
    2.895
    2.612
    1.583
    0.112
   -1.109
   -1.463
   -0.853
    0.237
    1.103
    1.266
    0.704
   -0.212
   -0.957
   -1.121
   -0.632
    0.201
    0.882
    1.042
    0.623
   -0.169
   -1.066
   -1.852
   -2.372
   -2.514
   -2.246
   -1.633
   -0.808
    0.078
    0.841
    1.261
    1.182
    0.678
    0.074
   -0.263
   -0.209
    0.061
    0.277
    0.348
    0.411
    0.650
    1.079
    1.480
    1.564
    1.214
    0.613
    0.120
   -0.016
    0.149
    0.332
    0.320
    0.178
    0.170
    0.473
    0.986
    1.405
    1.444
    0.976
    0.021
   -1.292
   -2.714
   -3.894
   -4.500
   -4.394
   -3.707
   -2.747
   -1.858
   -1.312
   -1.250
   -1.616
   -2.147
   -2.487
   -2.386
   -1.838
   -1.054
   -0.302
    0.238
    0.497
    0.445
    0.040
   -0.730
   -1.780
   -2.907
   -3.891
   -4.604
   -5.055
   -5.331
   -5.519
   -5.659
   -5.746
   -5.730
   -5.529
   -5.079
   -4.399
   -3.614
   -2.865
   -2.181
   -1.439
   -0.472
    0.736
    1.964
    2.847
    3.112
    2.768
    2.124
    1.628
    1.611
    2.102
    2.848
    3.530
    4.032
    4.546
    5.393
    6.707
    8.244
    9.495
   10.034
    9.819
    9.214
    8.707
    8.575
    8.735
    8.869
    8.664
    8.000
    6.964
    5.763
    4.568
    3.409
    2.196
    0.862
   -0.452
   -1.357
   -1.402
   -0.423
    1.238
    2.849
    3.732
    3.702
    3.157
    2.720
    2.711
    2.880
    2.600
    1.374
   -0.752
   -3.166
   -5.044
   -5.791
   -5.283
   -3.804
   -1.794
    0.357
    2.345
    3.858
    4.506
    3.921
    1.965
   -1.111
   -4.711
   -8.100
  -10.639
  -11.949
  -11.967
  -10.932
   -9.287
   -7.515
   -5.974
   -4.784
   -3.830
   -2.896
   -1.883
   -0.938
   -0.348
   -0.284
   -0.615
   -1.000
   -1.124
   -0.856
   -0.201
    0.798
    2.065
    3.416
    4.530
    5.060
    4.780
    3.699
    2.048
    0.201
   -1.461
   -2.669
   -3.354
   -3.652
   -3.847
   -4.254
   -5.104
   -6.434
   -8.046
   -9.573
  -10.621
  -10.932
  -10.489
   -9.476
   -8.123
   -6.556
   -4.780
   -2.779
   -0.590
    1.716
    4.081
    6.429
    8.565
   10.172
   10.965
   10.908
   10.296
    9.617
    9.273
    9.363
    9.672
    9.815
    9.443
    8.383
    6.721
    4.771
    2.943
    1.533
    0.604
    0.041
   -0.276
   -0.391
   -0.345
   -0.286
   -0.459
   -1.071
   -2.133
   -3.412
   -4.497
   -4.987
   -4.694
   -3.768
   -2.624
   -1.680
   -1.099
   -0.744
   -0.363
    0.133
    0.580
    0.715
    0.450
    0.018
   -0.168
    0.181
    1.037
    2.098
    3.004
    3.489
    3.428
    2.819
    1.793
    0.599
   -0.480
   -1.276
   -1.829
   -2.330
   -2.913
   -3.495
   -3.804
   -3.614
   -2.959
   -2.132
   -1.481
   -1.205
   -1.283
   -1.534
   -1.725
   -1.670
   -1.326
   -0.836
   -0.446
   -0.331
   -0.458
   -0.603
   -0.529
   -0.181
    0.265
    0.493
    0.237
   -0.581
   -1.815
   -3.201
   -4.484
   -5.461
   -5.913
   -5.552
   -4.127
   -1.618
    1.630
    4.996
    7.821
    9.585
    9.935
    8.673
    5.865
    2.004
   -2.011
   -5.203
   -6.944
   -7.177
   -6.278
   -4.759
   -3.046
   -1.458
   -0.288
    0.176
   -0.226
   -1.340
   -2.608
   -3.228
   -2.557
   -0.518
    2.272
    4.801
    6.197
    6.157
    4.992
    3.350
    1.871
    0.956
    0.674
    0.789
    0.929
    0.828
    0.482
    0.056
   -0.332
   -0.701
   -1.065
   -1.286
   -1.160
   -0.716
   -0.382
   -0.775
   -2.219
   -4.366
   -6.259
   -6.842
   -5.595
   -2.874
    0.277
    2.706
    3.777
    3.660
    3.124
    2.972
    3.505
    4.404
    5.105
    5.357
    5.478
    6.066
    7.408
    9.104
   10.226
    9.918
    7.960
    4.908
    1.750
   -0.631
   -1.835
   -1.966
   -1.366
   -0.289
    1.229
    3.208
    5.400
    7.155
    7.699
    6.671
    4.458
    2.023
    0.316
   -0.270
   -0.022
    0.412
    0.461
   -0.093
   -1.135
   -2.438
   -3.916
   -5.724
   -8.074
  -10.870
  -13.460
  -14.840
  -14.277
  -11.899
   -8.716
   -5.990
   -4.462
   -4.027
   -4.046
   -3.938
   -3.585
   -3.318
   -3.572
   -4.473
   -5.650
   -6.411
   -6.191
   -4.977
   -3.376
   -2.239
   -2.090
   -2.763
   -3.544
   -3.701
   -2.991
   -1.756
   -0.582
    0.163
    0.552
    0.972
    1.815
    3.215
    4.938
    6.481
    7.325
    7.203
    6.241
    4.837
    3.367
    1.972
    0.623
   -0.596
   -1.300
   -0.975
    0.615
    3.103
    5.592
    7.090
    7.027
    5.529
    3.284
    1.102
   -0.516
   -1.539
   -2.188
   -2.574
   -2.522
   -1.756
   -0.267
    1.470
    2.670
    2.702
    1.519
   -0.290
   -1.856
   -2.548
   -2.307
   -1.580
   -0.947
   -0.723
   -0.810
   -0.855
   -0.551
    0.175
    1.164
    2.175
    3.052
    3.810
    4.599
    5.537
    6.576
    7.500
    8.081
    8.214
    7.922
    7.294
    6.440
    5.452
    4.321
    2.902
    1.048
   -1.128
   -3.143
   -4.383
   -4.513
   -3.687
   -2.386
   -1.072
    0.018
    0.803
    1.184
    0.980
    0.070
   -1.435
   -3.115
   -4.351
   -4.591
   -3.650
   -1.880
   -0.034
    1.113
    1.165
    0.250
   -1.171
   -2.648
   -3.967
   -5.129
   -6.167
   -7.004
   -7.443
   -7.298
   -6.563
   -5.510
   -4.590
   -4.182
   -4.321
   -4.620
   -4.455
   -3.310
   -1.075
    1.877
    4.835
    7.021
    7.862
    7.179
    5.252
    2.727
    0.372
   -1.248
   -2.013
   -2.266
   -2.543
   -3.175
   -4.049
   -4.687
   -4.560
   -3.417
   -1.424
    0.938
    3.142
    4.884
    6.185
    7.254
    8.225
    8.993
    9.300
    8.974
    8.080
    6.868
    5.579
    4.278
    2.801
    0.900
   -1.502
   -4.104
   -6.311
   -7.616
   -7.998
   -7.961
   -8.106
   -8.586
   -8.906
   -8.267
   -6.160
   -2.773
    1.034
    4.097
    5.465
    4.825
    2.680
    0.169
   -1.434
   -1.298
    0.589
    3.470
    6.263
    8.111
    8.732
    8.382
    7.526
    6.468
    5.209
    3.599
    1.572
   -0.744
   -3.066
   -5.051
   -6.380
   -6.853
   -6.501
   -5.598
   -4.508
   -3.452
   -2.431
   -1.385
   -0.439
    0.062
   -0.200
   -1.198
   -2.440
   -3.157
   -2.705
   -0.951
    1.588
    3.953
    5.200
    4.908
    3.433
    1.751
    0.935
    1.557
    3.410
    5.679
    7.392
    7.847
    6.821
    4.551
    1.573
   -1.491
   -4.124
   -6.031
   -7.176
   -7.722
   -7.936
   -8.115
   -8.501
   -9.187
  -10.025
  -10.616
  -10.421
   -9.002
   -6.305
   -2.849
    0.354
    2.232
    2.264
    0.870
   -0.793
   -1.581
   -1.088
    0.193
    1.378
    1.861
    1.628
    1.043
    0.460
    0.026
   -0.242
   -0.297
   -0.021
    0.714
    1.971
    3.718
    5.820
    8.013
    9.923
   11.170
   11.524
   10.969
    9.603
    7.495
    4.694
    1.408
   -1.850
   -4.379
   -5.608
   -5.367
   -3.922
   -1.819
    0.299
    1.812
    2.264
    1.589
    0.227
   -1.029
   -1.453
   -0.751
    0.857
    2.830
    4.564
    5.610
    5.804
    5.271
    4.271
    2.970
    1.357
   -0.580
   -2.610
   -4.247
   -5.021
   -4.795
   -3.836
   -2.603
   -1.440
   -0.393
    0.731
    2.128
    3.748
    5.232
    6.105
    6.055
    5.093
    3.506
    1.713
    0.171
   -0.715
   -0.764
   -0.216
    0.278
   -0.013
   -1.410
   -3.569
   -5.665
   -6.877
   -6.860
   -5.910
   -4.758
   -4.093
   -4.087
   -4.264
   -3.882
   -2.580
   -0.786
    0.509
    0.437
   -1.148
   -3.606
   -5.947
   -7.360
   -7.480
   -6.360
   -4.311
   -1.795
    0.630
    2.428
    3.254
    3.079
    2.127
    0.701
   -0.925
   -2.440
   -3.411
   -3.383
   -2.145
    0.070
    2.667
    4.997
    6.641
    7.505
    7.779
    7.807
    7.903
    8.121
    8.104
    7.233
    5.065
    1.779
   -1.800
   -4.674
   -6.292
   -6.784
   -6.683
   -6.439
   -6.157
   -5.731
   -5.162
   -4.751
   -4.944
   -5.927
   -7.285
   -8.092
   -7.458
   -5.192
   -2.025
    0.801
    2.325
    2.424
    1.779
    1.308
    1.492
    2.075
    2.326
    1.679
    0.255
   -1.123
   -1.442
   -0.201
    2.214
    4.759
    6.414
    6.812
    6.329
    5.622
    5.047
    4.455
    3.471
    1.983
    0.393
   -0.587
   -0.453
    0.637
    1.876
    2.344
    1.720
    0.616
    0.182
    1.220
    3.497
    5.795
    6.686
    5.428
    2.365
   -1.335
   -4.351
   -5.837
   -5.724
   -4.591
   -3.234
   -2.214
   -1.658
   -1.397
   -1.252
   -1.203
   -1.302
   -1.494
   -1.549
   -1.233
   -0.545
    0.213
    0.629
    0.471
   -0.168
   -0.970
   -1.600
   -1.884
   -1.885
   -1.883
   -2.216
   -3.023
   -4.058
   -4.734
   -4.433
   -2.916
   -0.559
    1.766
    3.141
    3.090
    1.814
    0.063
   -1.250
   -1.506
   -0.696
    0.572
    1.468
    1.507
    0.912
    0.451
    0.871
    2.362
    4.440
    6.273
    7.128
    6.660
    4.956
    2.433
   -0.309
   -2.625
   -3.950
   -3.952
   -2.673
   -0.565
    1.664
    3.329
    4.036
    3.775
    2.823
    1.560
    0.360
   -0.444
   -0.609
   -0.101
    0.842
    1.812
    2.451
    2.602
    2.302
    1.698
    0.997
    0.423
    0.108
    0.003
   -0.110
   -0.455
   -1.130
   -2.112
   -3.330
   -4.645
   -5.673
   -5.711
   -4.060
   -0.637
    3.639
    7.182
    8.650
    7.744
    5.263
    2.489
    0.426
   -0.583
   -0.786
   -0.724
   -0.909
   -1.611
   -2.808
   -4.241
   -5.505
   -6.123
   -5.669
   -3.990
   -1.458
    0.986
    2.191
    1.480
   -0.798
   -3.340
   -4.672
   -4.116
   -2.209
   -0.225
    0.780
    0.615
   -0.149
   -0.792
   -0.983
   -0.848
   -0.656
   -0.505
   -0.285
    0.109
    0.556
    0.733
    0.332
   -0.677
   -1.970
   -3.009
   -3.325
   -2.755
   -1.513
   -0.056
    1.164
    1.872
    1.954
    1.308
   -0.202
   -2.571
   -5.417
   -7.949
   -9.279
   -8.895
   -6.946
   -4.140
   -1.333
    0.866
    2.228
    2.746
    2.442
    1.363
   -0.247
