Origin Time       05/3/2012 07:41:05	
Lat.              28.7 N	
Long.             76.6 E	
Depth (Km)         14.0
Magnitude         4.9
 Region           Haryana-Delhi-Border-Region                                      
 Above details taken from IMD 
   
Station Code       ALIP
Station Lat.       28.795
Station Long.      77.141
Station Height(m)   98.0
Site Class        C   Vs30 between 200 m/sec to 375 m/sec *  
Record Time        3/5/2012   7:40:25.000
Sampling Rate     200. Hz
 Record Duration  132.000 Sec.
 Direction         Vert. (Up positive)
Max. Acceleration  -9.113 cm/sec**2
     
  * For reference see Site Classification link of website 
     
 Base Line Corrected and Low Pass Filtered (Cut Off at 35 Hz) Time History
 Acceleration data in cm/sec**2
    
[...]
    2.925
    3.107
    2.892
    2.393
    1.772
    1.126
    0.426
   -0.415
   -1.397
   -2.346
   -2.974
   -3.060
   -2.619
   -1.901
   -1.228
   -0.774
   -0.490
   -0.189
    0.269
    0.869
    1.449
    1.802
    1.791
    1.405
    0.772
    0.124
   -0.282
   -0.289
    0.069
    0.577
    0.975
    1.115
    1.009
    0.771
    0.508
    0.260
   -0.005
   -0.354
   -0.835
   -1.433
   -2.034
   -2.440
   -2.444
   -1.940
   -1.011
    0.096
    1.102
    1.838
    2.301
    2.600
    2.853
    3.087
    3.196
    2.989
    2.304
    1.130
   -0.351
   -1.830
   -2.998
   -3.674
   -3.843
   -3.622
   -3.187
   -2.696
   -2.236
   -1.786
   -1.232
   -0.442
    0.629
    1.869
    3.036
    3.862
    4.159
    3.870
    3.082
    2.013
    0.950
    0.140
   -0.337
   -0.611
   -0.927
   -1.464
   -2.179
   -2.814
   -3.063
   -2.764
   -1.980
   -0.945
    0.059
    0.813
    1.211
    1.286
    1.173
    1.041
    0.989
    0.996
    0.956
    0.774
    0.466
    0.168
    0.055
    0.219
    0.591
    0.951
    1.042
    0.719
    0.056
   -0.662
   -1.076
   -0.950
   -0.299
    0.603
    1.363
    1.658
    1.407
    0.803
    0.188
   -0.160
   -0.183
   -0.024
    0.118
    0.144
    0.096
    0.070
    0.080
    0.025
   -0.219
   -0.638
   -1.045
   -1.212
   -1.075
   -0.809
   -0.705
   -0.940
   -1.452
   -1.996
   -2.307
   -2.227
   -1.734
   -0.919
    0.036
    0.855
    1.239
    1.023
    0.346
   -0.347
   -0.556
   -0.075
    0.825
    1.562
    1.638
    0.985
    0.017
   -0.652
   -0.622
    0.025
    0.785
    1.075
    0.634
   -0.290
   -1.099
   -1.254
   -0.646
    0.332
    1.063
    1.132
    0.604
   -0.058
   -0.345
   -0.069
    0.537
    1.020
    1.002
    0.396
   -0.561
   -1.416
   -1.728
   -1.312
   -0.368
    0.612
    1.116
    0.903
    0.154
   -0.648
   -1.016
   -0.759
   -0.063
    0.671
    1.106
    1.146
    0.921
    0.646
    0.464
    0.389
    0.337
    0.210
   -0.035
   -0.364
   -0.670
   -0.817
   -0.707
   -0.355
    0.093
    0.432
    0.526
    0.416
    0.303
    0.412
    0.825
    1.395
    1.828
    1.851
    1.364
    0.470
   -0.592
   -1.551
   -2.199
   -2.455
   -2.386
   -2.163
   -1.925
   -1.674
   -1.290
   -0.676
    0.119
    0.911
    1.503
    1.798
    1.817
    1.648
    1.362
    0.967
    0.435
   -0.212
   -0.861
   -1.347
   -1.547
   -1.453
   -1.163
   -0.814
   -0.517
   -0.323
   -0.236
   -0.235
   -0.280
   -0.316
   -0.307
   -0.278
   -0.305
   -0.436
   -0.618
   -0.684
   -0.447
    0.163
    1.011
    1.790
    2.180
    2.039
    1.516
    0.984
    0.806
    1.060
    1.432
    1.400
    0.609
   -0.843
   -2.412
   -3.416
   -3.424
   -2.482
   -1.040
    0.315
    1.161
    1.378
    1.119
    0.678
    0.333
    0.231
    0.318
    0.361
    0.079
   -0.654
   -1.657
   -2.477
   -2.639
   -1.978
   -0.769
    0.446
    1.210
    1.425
    1.353
    1.367
    1.627
    1.949
    1.950
    1.355
    0.229
   -1.038
   -1.953
   -2.174
   -1.672
   -0.714
    0.313
    1.125
    1.644
    1.937
    2.092
    2.145
    2.091
    1.920
    1.635
    1.237
    0.714
    0.056
   -0.691
   -1.396
   -1.911
   -2.176
   -2.258
   -2.256
   -2.162
   -1.830
   -1.103
    0.001
    1.197
    2.046
    2.216
    1.711
    0.873
    0.154
   -0.163
   -0.107
    0.070
    0.112
   -0.044
   -0.220
   -0.144
    0.343
    1.157
    2.022
    2.617
    2.722
    2.284
    1.438
    0.449
   -0.404
   -0.961
   -1.237
   -1.388
   -1.593
   -1.946
   -2.402
   -2.838
   -3.124
   -3.142
   -2.766
   -1.873
   -0.460
    1.268
    2.924
    4.101
    4.550
    4.279
    3.508
    2.522
    1.539
    0.652
   -0.140
   -0.889
   -1.639
   -2.374
   -2.968
   -3.222
   -2.992
   -2.321
   -1.441
   -0.656
   -0.174
   -0.007
    0.002
    0.054
    0.241
    0.488
    0.609
    0.421
   -0.159
   -1.054
   -1.998
   -2.608
   -2.563
   -1.834
   -0.736
    0.237
    0.714
    0.661
    0.365
    0.212
    0.415
    0.898
    1.386
    1.586
    1.314
    0.560
   -0.491
   -1.478
   -1.997
   -1.807
   -0.983
    0.110
    1.003
    1.370
    1.187
    0.698
    0.236
    0.043
    0.205
    0.648
    1.154
    1.412
    1.192
    0.527
   -0.274
   -0.833
   -0.949
   -0.697
   -0.323
   -0.060
   -0.007
   -0.132
   -0.344
   -0.520
   -0.489
   -0.087
    0.684
    1.533
    1.992
    1.729
    0.831
   -0.208
   -0.811
   -0.723
   -0.197
    0.214
    0.084
   -0.584
   -1.415
   -1.967
   -2.011
   -1.615
   -1.041
   -0.590
   -0.461
   -0.674
   -1.051
   -1.284
   -1.101
   -0.459
    0.397
    1.089
    1.384
    1.344
    1.246
    1.341
    1.678
    2.093
    2.349
    2.293
    1.925
    1.354
    0.723
    0.134
   -0.358
   -0.729
   -0.954
   -1.006
   -0.872
   -0.592
   -0.263
   -0.024
   -0.001
   -0.249
   -0.699
   -1.145
   -1.303
   -0.969
   -0.177
    0.751
    1.380
    1.456
    1.090
    0.664
    0.538
    0.789
    1.174
    1.345
    1.134
    0.708
    0.435
    0.564
    0.981
    1.262
    0.987
    0.090
   -1.024
   -1.690
   -1.433
   -0.342
    0.940
    1.660
    1.469
    0.609
   -0.316
   -0.778
   -0.652
   -0.260
   -0.102
   -0.469
   -1.246
   -2.041
   -2.496
   -2.506
   -2.190
   -1.737
   -1.263
   -0.774
   -0.246
    0.265
    0.608
    0.649
    0.420
    0.142
    0.096
    0.433
    1.048
    1.615
    1.777
    1.384
    0.591
   -0.252
   -0.834
   -1.033
   -0.926
   -0.669
   -0.377
   -0.065
    0.327
    0.849
    1.451
    1.945
    2.052
    1.542
    0.406
   -1.047
   -2.290
   -2.873
   -2.717
   -2.189
   -1.835
   -1.983
   -2.497
   -2.891
   -2.692
   -1.770
   -0.405
    0.930
    1.855
    2.242
    2.179
    1.842
    1.392
    0.944
    0.568
    0.291
    0.099
   -0.051
   -0.207
   -0.419
   -0.735
   -1.176
   -1.661
   -1.959
   -1.766
   -0.882
    0.593
    2.227
    3.448
    3.853
    3.424
    2.512
    1.592
    0.991
    0.728
    0.557
    0.177
   -0.534
   -1.414
   -2.131
   -2.414
   -2.232
   -1.793
   -1.377
   -1.131
   -0.952
   -0.566
    0.237
    1.373
    2.467
    3.075
    2.975
    2.305
    1.496
    1.014
    1.066
    1.457
    1.708
    1.357
    0.226
   -1.489
   -3.298
   -4.602
   -4.923
   -4.107
   -2.405
   -0.384
    1.295
    2.154
    2.097
    1.412
    0.568
   -0.058
   -0.343
   -0.387
   -0.345
   -0.261
   -0.060
    0.299
    0.679
    0.814
    0.534
   -0.050
   -0.571
   -0.642
   -0.119
    0.784
    1.627
    2.023
    1.868
    1.336
    0.720
    0.252
    0.020
   -0.035
   -0.062
   -0.202
   -0.488
   -0.823
   -1.040
   -1.038
   -0.885
   -0.812
   -1.029
   -1.510
   -1.945
   -1.939
   -1.306
   -0.229
    0.816
    1.333
    1.103
    0.312
   -0.595
   -1.195
   -1.271
   -0.805
    0.079
    1.157
    2.126
    2.681
    2.620
    1.938
    0.856
   -0.279
   -1.185
   -1.795
   -2.236
   -2.658
   -3.074
   -3.317
   -3.150
   -2.445
   -1.319
   -0.087
    0.929
    1.592
    1.983
    2.273
    2.565
    2.799
    2.787
    2.377
    1.627
    0.811
    0.224
   -0.074
   -0.339
   -0.958
   -2.072
   -3.314
   -3.937
   -3.341
   -1.593
    0.542
    2.117
    2.626
    2.255
    1.630
    1.358
    1.655
    2.250
    2.574
    2.115
    0.740
   -1.157
   -2.768
   -3.266
   -2.311
   -0.384
    1.383
    1.890
    0.821
   -1.099
   -2.575
   -2.620
   -1.192
    0.842
    2.340
    2.612
    1.758
    0.466
   -0.469
   -0.593
    0.025
    0.910
    1.508
    1.519
    1.069
    0.594
    0.524
    0.950
    1.533
    1.758
    1.354
    0.525
   -0.225
   -0.513
   -0.375
   -0.194
   -0.371
   -1.010
   -1.859
   -2.516
   -2.708
   -2.452
   -1.995
   -1.636
   -1.536
   -1.633
   -1.676
   -1.360
   -0.524
    0.685
    1.805
    2.310
    1.980
    1.111
    0.340
    0.190
    0.697
    1.410
    1.759
    1.481
    0.768
    0.028
   -0.487
   -0.811
   -1.082
   -1.311
   -1.366
   -1.165
   -0.798
   -0.457
   -0.232
   -0.028
    0.317
    0.793
    1.117
    0.907
    0.035
   -1.180
   -2.133
   -2.325
   -1.706
   -0.698
    0.085
    0.262
   -0.057
   -0.369
   -0.176
    0.638
    1.713
    2.447
    2.387
    1.530
    0.361
   -0.445
   -0.477
    0.134
    0.824
    0.999
    0.411
   -0.725
   -1.897
   -2.591
   -2.543
   -1.818
   -0.740
    0.265
    0.830
    0.796
    0.262
   -0.486
   -1.139
   -1.491
   -1.461
   -1.038
   -0.246
    0.845
    2.059
    3.088
    3.568
    3.276
    2.290
    1.002
   -0.080
   -0.605
   -0.573
   -0.332
   -0.350
   -0.902
   -1.873
   -2.821
   -3.251
   -2.890
   -1.804
   -0.348
    0.998
    1.823
    1.978
    1.627
    1.121
    0.772
    0.705
    0.843
    0.983
    0.905
    0.522
   -0.033
   -0.446
   -0.418
    0.107
    0.834
    1.226
    0.835
   -0.335
   -1.729
   -2.555
   -2.316
   -1.138
    0.341
    1.386
    1.584
    1.052
    0.308
   -0.079
    0.144
    0.792
    1.411
    1.584
    1.189
    0.482
   -0.056
   -0.055
    0.453
    1.034
    1.160
    0.587
   -0.474
   -1.504
   -2.030
   -1.918
   -1.382
   -0.731
   -0.113
    0.528
    1.288
    2.142
    2.889
    3.258
    3.085
    2.445
    1.605
    0.815
    0.105
   -0.698
   -1.764
   -3.010
   -4.054
   -4.421
   -3.891
   -2.731
   -1.572
   -0.987
   -1.088
   -1.450
   -1.418
   -0.581
    0.886
    2.292
    2.901
    2.456
    1.329
    0.213
   -0.350
   -0.261
    0.159
    0.448
    0.331
   -0.145
   -0.759
   -1.334
   -1.767
   -1.918
   -1.595
   -0.720
    0.512
    1.652
    2.177
    1.771
    0.537
   -0.995
   -2.153
   -2.522
   -2.138
   -1.394
   -0.757
   -0.516
   -0.664
   -0.938
   -0.959
   -0.438
    0.629
    1.856
    2.626
    2.485
    1.515
    0.339
   -0.280
    0.075
    1.235
    2.574
    3.392
    3.281
    2.291
    0.827
   -0.598
   -1.586
   -1.997
   -1.968
   -1.794
   -1.704
   -1.696
   -1.571
   -1.131
   -0.381
    0.425
    0.912
    0.848
    0.348
   -0.149
   -0.163
    0.471
    1.456
    2.235
    2.380
    1.868
    1.029
    0.274
   -0.144
   -0.185
    0.067
    0.476
    0.884
    1.128
    1.096
    0.782
    0.288
   -0.222
   -0.585
   -0.665
   -0.390
    0.207
    0.950
    1.571
    1.825
    1.609
    1.016
    0.276
   -0.379
   -0.844
   -1.153
   -1.377
   -1.528
   -1.564
   -1.492
   -1.418
   -1.469
   -1.640
   -1.732
   -1.486
   -0.806
    0.130
    0.982
    1.483
    1.590
    1.463
    1.322
    1.281
    1.273
    1.111
    0.654
   -0.073
   -0.869
   -1.441
   -1.506
   -0.913
    0.241
    1.582
    2.590
    2.848
    2.257
    1.086
   -0.189
   -1.172
   -1.761
   -2.095
   -2.309
   -2.390
   -2.299
   -2.171
   -2.265
   -2.687
   -3.176
   -3.233
   -2.514
   -1.153
    0.290
    1.237
    1.501
    1.337
    1.131
    1.053
    0.992
    0.763
    0.344
   -0.060
   -0.183
    0.066
    0.516
    0.902
    1.079
    1.068
    0.931
    0.690
    0.378
    0.080
   -0.154
   -0.414
   -0.902
   -1.734
   -2.735
   -3.461
   -3.475
   -2.694
   -1.486
   -0.427
    0.063
   -0.073
   -0.559
   -0.990
   -1.060
   -0.711
   -0.148
    0.281
    0.266
   -0.284
   -1.143
   -1.858
   -2.022
   -1.527
   -0.618
    0.299
    0.926
    1.253
    1.539
    2.066
    2.858
    3.617
    3.964
    3.786
    3.368
    3.213
    3.665
    4.618
    5.533
    5.777
    5.022
    3.388
    1.288
   -0.816
   -2.546
   -3.668
   -4.127
   -4.057
   -3.719
   -3.386
   -3.225
   -3.211
   -3.163
   -2.905
   -2.426
   -1.851
   -1.268
   -0.625
    0.182
    1.164
    2.198
    3.095
    3.692
    3.897
    3.680
    3.044
    2.039
    0.817
   -0.354
   -1.201
   -1.591
   -1.561
   -1.234
   -0.736
   -0.166
    0.380
    0.772
    0.816
    0.321
   -0.705
   -1.932
   -2.809
   -2.887
   -2.125
   -0.952
   -0.014
    0.243
   -0.144
   -0.723
   -0.998
   -0.780
   -0.257
    0.198
    0.307
    0.079
   -0.184
   -0.090
    0.539
    1.491
    2.273
    2.453
    1.953
    1.090
    0.347
    0.063
    0.264
    0.699
    0.998
    0.855
    0.190
   -0.757
   -1.492
   -1.539
   -0.777
    0.396
    1.270
    1.286
    0.417
   -0.852
   -1.936
   -2.587
   -2.996
   -3.516
   -4.286
   -5.094
   -5.569
   -5.516
   -5.038
   -4.364
   -3.588
   -2.610
   -1.277
    0.464
    2.527
    4.719
    6.762
    8.314
    9.026
    8.675
    7.358
    5.569
    3.983
    3.004
    2.467
    1.805
    0.558
   -1.239
   -3.056
   -4.201
   -4.223
   -3.180
   -1.608
   -0.213
    0.540
    0.611
    0.268
   -0.182
   -0.567
   -0.894
   -1.299
   -1.929
   -2.802
   -3.753
   -4.505
   -4.776
   -4.351
   -3.137
   -1.254
    0.945
    3.008
    4.602
    5.594
    5.990
    5.853
    5.279
    4.404
    3.364
    2.265
    1.178
    0.157
   -0.749
   -1.483
   -1.991
   -2.252
   -2.316
   -2.266
   -2.129
   -1.842
   -1.334
   -0.634
    0.084
    0.574
    0.641
    0.267
   -0.354
   -0.924
   -1.245
   -1.330
   -1.323
   -1.317
   -1.296
   -1.209
   -1.032
   -0.744
   -0.288
    0.390
    1.259
    2.171
    2.902
    3.243
    3.122
    2.666
    2.129
    1.714
    1.483
    1.393
    1.363
    1.267
    0.928
    0.201
   -0.880
   -2.030
   -2.830
   -2.969
   -2.482
   -1.784
   -1.393
   -1.525
   -1.911
   -2.038
   -1.659
   -1.078
   -0.935
   -1.625
   -2.888
   -3.942
   -4.033
   -2.940
   -1.050
    0.943
    2.462
    3.314
    3.708
    4.053
    4.700
    5.743
    6.946
    7.777
    7.637
    6.229
    3.847
    1.275
   -0.700
   -1.803
   -2.403
   -3.187
   -4.619
   -6.561
   -8.326
   -9.113
   -8.472
   -6.529
   -3.891
   -1.367
    0.384
    1.157
    1.249
    1.188
    1.311
    1.521
    1.379
    0.483
   -1.110
   -2.757
   -3.598
   -3.179
   -1.807
   -0.332
    0.465
    0.394
   -0.039
    0.004
    1.134
    3.332
    5.952
    8.059
    8.861
    8.050
    5.947
    3.375
    1.222
   -0.047
   -0.614
   -1.072
   -1.928
   -3.206
   -4.447
   -5.103
   -4.968
   -4.295
   -3.551
   -3.046
   -2.754
   -2.432
   -1.922
   -1.356
   -1.071
   -1.271
   -1.789
   -2.169
   -2.005
   -1.224
   -0.140
    0.724
    0.968
    0.643
    0.339
    0.872
    2.706
    5.472
    7.993
    8.916
    7.619
    4.705
    1.627
   -0.308
   -0.734
   -0.221
    0.352
    0.451
    0.096
   -0.376
   -0.684
   -0.816
   -0.945
   -1.232
   -1.746
   -2.503
   -3.485
   -4.578
   -5.546
   -6.115
   -6.074
   -5.321
   -3.902
   -2.025
   -0.010
    1.862
    3.440
    4.680
    5.573
    6.084
    6.122
    5.553
    4.310
    2.572
    0.827
   -0.296
   -0.393
    0.404
    1.407
    1.740
    0.895
   -0.881
   -2.686
   -3.522
   -2.912
   -1.155
    0.906
    2.380
    2.778
    2.197
    1.173
    0.302
   -0.173
   -0.505
   -1.162
   -2.315
   -3.558
   -4.136
   -3.508
   -1.805
    0.208
    1.624
    1.982
    1.517
    0.899
    0.705
    1.052
    1.638
    2.031
    1.946
    1.362
    0.503
   -0.295
   -0.754
   -0.783
   -0.492
   -0.106
    0.135
    0.088
   -0.198
   -0.494
   -0.535
   -0.221
    0.315
    0.839
    1.205
    1.442
    1.662
    1.878
    1.896
    1.434
    0.390
   -0.975
   -2.173
   -2.859
   -3.082
   -3.200
   -3.523
   -4.004
   -4.238
   -3.803
   -2.645
   -1.184
   -0.027
    0.448
    0.322
    0.018
   -0.033
    0.294
    0.766
    1.026
    0.916
    0.594
    0.371
    0.446
    0.747
    0.944
    0.643
   -0.290
   -1.494
   -2.235
   -1.862
   -0.270
    1.971
    3.861
    4.462
    3.410
    1.187
   -1.119
   -2.441
   -2.338
   -1.145
    0.350
    1.382
    1.536
    0.844
   -0.326
   -1.480
   -2.193
   -2.227
   -1.592
   -0.532
    0.563
    1.340
    1.641
    1.523
    1.168
    0.788
    0.579
    0.672
    1.051
    1.546
    1.919
    1.967
    1.546
    0.584
   -0.848
   -2.479
   -3.909
   -4.773
   -4.906
   -4.424
   -3.684
   -3.098
   -2.883
   -2.934
   -2.915
   -2.473
   -1.408
    0.247
    2.225
    4.073
    5.285
    5.475
    4.580
    2.983
    1.413
    0.586
    0.801
    1.797
    2.966
    3.724
    3.794
    3.261
    2.429
    1.636
    1.147
    1.101
    1.418
    1.717
    1.445
    0.247
   -1.715
   -3.826
   -5.461
   -6.427
   -6.991
   -7.506
   -7.959
   -7.886
   -6.715
   -4.266
   -1.018
    2.054
    4.003
    4.460
    3.824
    2.948
    2.551
    2.773
    3.158
    3.035
    2.034
    0.405
   -1.106
   -1.745
   -1.256
   -0.041
    1.116
    1.560
    1.205
    0.598
    0.536
    1.476
    3.209
    5.020
    6.123
    6.025
    4.680
    2.431
   -0.152
   -2.494
   -4.208
   -5.204
   -5.701
   -6.083
   -6.594
   -7.092
   -7.102
   -6.185
   -4.304
   -1.874
    0.502
    2.389
    3.697
    4.609
    5.359
    6.037
    6.526
    6.594
    6.064
    4.986
    3.679
    2.580
    1.980
    1.848
    1.867
    1.647
    1.004
    0.124
   -0.542
   -0.624
   -0.187
    0.246
    0.029
   -1.159
   -3.079
   -5.087
   -6.542
   -7.172
   -7.111
   -6.653
   -5.987
   -5.124
   -3.972
   -2.444
   -0.557
    1.481
    3.308
    4.585
    5.210
    5.389
    5.498
    5.822
    6.332
    6.632
    6.190
    4.704
    2.349
   -0.287
   -2.503
   -3.829
   -4.266
   -4.260
   -4.357
   -4.750
   -5.125
   -4.989
   -4.144
   -2.866
   -1.661
   -0.842
   -0.290
    0.419
    1.579
    3.008
    4.096
    4.229
    3.210
    1.399
   -0.461
   -1.611
   -1.666
   -0.827
    0.257
    0.869
    0.611
   -0.396
   -1.574
   -2.216
   -1.941
   -0.950
    0.154
    0.818
    0.885
    0.571
    0.185
   -0.145
   -0.504
   -0.988
   -1.462
   -1.561
   -0.949
    0.374
    1.981
    3.192
    3.409
    2.466
    0.762
   -0.946
   -1.963
   -1.981
   -1.150
    0.061
    1.062
    1.345
    0.692
   -0.710
   -2.305
   -3.387
   -3.447
   -2.480
   -0.996
    0.287
    0.870
    0.712
    0.165
   -0.291
   -0.366
   -0.135
    0.067
   -0.045
   -0.456
   -0.881
   -1.004
   -0.694
   -0.081
    0.519
    0.811
    0.729
    0.512
    0.536
    0.993
    1.678
    2.069
    1.673
    0.414
   -1.219
   -2.420
   -2.551
   -1.520
    0.212
    1.930
    3.027
    3.223
    2.608
    1.530
    0.402
   -0.451
   -0.848
   -0.703
   -0.015
    1.076
    2.241
    3.049
    3.167
    2.536
    1.384
    0.097
   -0.961
   -1.552
   -1.611
   -1.263
   -0.840
   -0.820
   -1.581
   -3.050
   -4.522
   -4.970
   -3.738
   -1.111
    1.756
    3.528
    3.485
    1.926
   -0.039
   -1.180
   -0.934
    0.227
    1.167
    0.956
   -0.413
   -2.004
   -2.616
   -1.670
    0.315
    2.049
    2.416
    1.339
   -0.164
   -0.779
    0.101
    1.977
    3.667
    4.148
    3.176
    1.321
   -0.487
   -1.534
   -1.648
   -1.139
   -0.502
   -0.103
   -0.037
   -0.184
   -0.387
   -0.567
   -0.706
   -0.738
   -0.473
    0.339
    1.793
    3.570
    4.905
    4.947
    3.369
    0.723
   -1.819
   -3.184
   -3.031
   -1.863
   -0.597
    0.036
   -0.149
   -0.840
   -1.542
   -1.895
   -1.838
   -1.544
   -1.228
   -0.976
   -0.724
   -0.391
   -0.024
    0.185
    0.040
   -0.457
   -1.013
   -1.201
   -0.760
    0.217
    1.335
    2.105
    2.176
    1.530
    0.556
   -0.149
   -0.205
    0.282
    0.844
    1.035
    0.724
    0.130
   -0.357
   -0.454
   -0.191
    0.144
    0.277
    0.177
    0.024
    0.035
    0.330
    0.865
    1.390
    1.546
    1.095
    0.095
   -1.166
   -2.371
   -3.280
   -3.742
   -3.726
   -3.361
   -2.851
