Origin Time       05/3/2012 07:41:05	
Lat.              28.7 N	
Long.             76.6 E	
Depth (Km)         14.0
Magnitude         4.9
 Region           Haryana-Delhi-Border-Region                                      
 Above details taken from IMD 
     
Station Code       ALIP
Station Lat.       28.795  N
Station Long.      77.141  E
Station Height(m)   98.0
Site Class        C   Vs30 between 200 m/sec to 375 m/sec *  
Record Time        3/5/2012   7:40:25.000
Sampling Rate     200. Hz
 Record Duration  132.000 Sec.
 Direction         E-W (E positive)
Max. Acceleration  11.067 cm/sec**2
     
  * For reference see Site Classification link of website 
     
 Base Line Corrected and Low Pass Filtered (Cut Off at 35 Hz) Time History
 Acceleration data in cm/sec**2
    
[...]
   -0.814
   -1.300
   -1.604
   -1.760
   -1.838
   -1.826
   -1.614
   -1.116
   -0.399
    0.320
    0.813
    1.006
    0.997
    0.924
    0.822
    0.614
    0.221
   -0.332
   -0.929
   -1.449
   -1.833
   -2.078
   -2.190
   -2.155
   -1.946
   -1.551
   -0.983
   -0.291
    0.437
    1.080
    1.516
    1.693
    1.679
    1.624
    1.637
    1.683
    1.601
    1.237
    0.587
   -0.203
   -0.947
   -1.526
   -1.921
   -2.159
   -2.250
   -2.169
   -1.890
   -1.437
   -0.893
   -0.360
    0.097
    0.446
    0.649
    0.640
    0.374
   -0.093
   -0.560
   -0.761
   -0.527
    0.079
    0.770
    1.219
    1.284
    1.109
    1.000
    1.183
    1.637
    2.133
    2.425
    2.393
    2.065
    1.533
    0.883
    0.190
   -0.442
   -0.857
   -0.911
   -0.576
   -0.002
    0.536
    0.795
    0.688
    0.314
   -0.120
   -0.409
   -0.447
   -0.284
   -0.101
   -0.101
   -0.361
   -0.770
   -1.093
   -1.136
   -0.876
   -0.469
   -0.147
   -0.078
   -0.305
   -0.752
   -1.273
   -1.711
   -1.940
   -1.885
   -1.529
   -0.910
   -0.121
    0.674
    1.267
    1.473
    1.211
    0.553
   -0.310
   -1.154
   -1.799
   -2.149
   -2.179
   -1.915
   -1.401
   -0.699
    0.095
    0.848
    1.406
    1.650
    1.553
    1.211
    0.828
    0.620
    0.656
    0.787
    0.761
    0.457
    0.004
   -0.334
   -0.398
   -0.259
   -0.131
   -0.160
   -0.294
   -0.321
   -0.047
    0.551
    1.322
    2.067
    2.667
    3.102
    3.365
    3.385
    3.052
    2.323
    1.322
    0.331
   -0.346
   -0.563
   -0.405
   -0.114
    0.097
    0.158
    0.119
    0.005
   -0.253
   -0.738
   -1.388
   -1.955
   -2.154
   -1.887
   -1.325
   -0.790
   -0.533
   -0.589
   -0.814
   -1.037
   -1.188
   -1.289
   -1.349
   -1.290
   -0.987
   -0.418
    0.240
    0.652
    0.531
   -0.141
   -1.066
   -1.793
   -1.991
   -1.628
   -0.950
   -0.306
    0.058
    0.082
   -0.145
   -0.492
   -0.848
   -1.119
   -1.226
   -1.127
   -0.854
   -0.512
   -0.237
   -0.111
   -0.105
   -0.094
    0.033
    0.264
    0.471
    0.528
    0.420
    0.246
    0.114
    0.063
    0.053
    0.031
   -0.011
   -0.011
    0.118
    0.430
    0.907
    1.472
    2.026
    2.473
    2.733
    2.751
    2.508
    2.037
    1.448
    0.900
    0.542
    0.436
    0.538
    0.735
    0.911
    0.969
    0.844
    0.519
    0.030
   -0.531
   -1.040
   -1.358
   -1.370
   -1.016
   -0.329
    0.531
    1.278
    1.592
    1.307
    0.559
   -0.245
   -0.687
   -0.604
   -0.171
    0.265
    0.423
    0.236
   -0.175
   -0.638
   -1.036
   -1.341
   -1.574
   -1.758
   -1.895
   -1.967
   -1.936
   -1.783
   -1.534
   -1.251
   -0.978
   -0.692
   -0.325
    0.166
    0.741
    1.283
    1.662
    1.809
    1.746
    1.543
    1.255
    0.895
    0.450
   -0.067
   -0.586
   -0.980
   -1.096
   -0.858
   -0.355
    0.170
    0.488
    0.553
    0.508
    0.505
    0.532
    0.434
    0.090
   -0.427
   -0.868
   -0.991
   -0.739
   -0.266
    0.203
    0.530
    0.698
    0.742
    0.660
    0.430
    0.064
   -0.346
   -0.655
   -0.759
   -0.692
   -0.632
   -0.772
   -1.156
   -1.621
   -1.890
   -1.734
   -1.096
   -0.119
    0.910
    1.677
    1.957
    1.695
    1.027
    0.242
   -0.336
   -0.515
   -0.320
    0.061
    0.413
    0.596
    0.553
    0.292
   -0.127
   -0.607
   -1.027
   -1.269
   -1.253
   -0.998
   -0.634
   -0.340
   -0.247
   -0.373
   -0.628
   -0.868
   -0.944
   -0.751
   -0.252
    0.495
    1.320
    1.970
    2.203
    1.923
    1.257
    0.517
    0.055
    0.078
    0.534
    1.152
    1.603
    1.676
    1.328
    0.643
   -0.227
   -1.071
   -1.656
   -1.822
   -1.582
   -1.110
   -0.628
   -0.281
   -0.101
   -0.038
    0.010
    0.178
    0.585
    1.222
    1.879
    2.206
    1.938
    1.111
    0.088
   -0.655
   -0.846
   -0.586
   -0.240
   -0.138
   -0.338
   -0.625
   -0.718
   -0.500
   -0.082
    0.304
    0.480
    0.407
    0.160
   -0.124
   -0.300
   -0.261
    0.016
    0.448
    0.893
    1.216
    1.349
    1.303
    1.141
    0.914
    0.602
    0.137
   -0.496
   -1.176
   -1.699
   -1.920
   -1.845
   -1.611
   -1.366
   -1.157
   -0.911
   -0.545
   -0.106
    0.209
    0.206
   -0.121
   -0.558
   -0.811
   -0.718
   -0.363
   -0.031
   -0.010
   -0.378
   -0.920
   -1.269
   -1.157
   -0.606
    0.083
    0.517
    0.439
   -0.120
   -0.865
   -1.407
   -1.479
   -1.071
   -0.400
    0.237
    0.642
    0.786
    0.769
    0.710
    0.673
    0.673
    0.728
    0.898
    1.266
    1.869
    2.613
    3.270
    3.579
    3.406
    2.836
    2.105
    1.431
    0.884
    0.402
   -0.100
   -0.622
   -1.074
   -1.354
   -1.437
   -1.401
   -1.361
   -1.379
   -1.403
   -1.294
   -0.910
   -0.204
    0.719
    1.619
    2.189
    2.186
    1.562
    0.516
   -0.586
   -1.403
   -1.784
   -1.794
   -1.612
   -1.401
   -1.245
   -1.175
   -1.197
   -1.288
   -1.371
   -1.346
   -1.164
   -0.892
   -0.661
   -0.561
   -0.560
   -0.544
   -0.450
   -0.359
   -0.459
   -0.870
   -1.469
   -1.908
   -1.826
   -1.103
    0.067
    1.316
    2.306
    2.833
    2.838
    2.369
    1.578
    0.715
    0.081
   -0.109
    0.137
    0.574
    0.897
    0.948
    0.786
    0.571
    0.430
    0.407
    0.489
    0.642
    0.844
    1.095
    1.406
    1.764
    2.106
    2.323
    2.312
    2.038
    1.547
    0.924
    0.249
   -0.408
   -0.970
   -1.359
   -1.546
   -1.574
   -1.544
   -1.569
   -1.703
   -1.886
   -1.962
   -1.778
   -1.301
   -0.651
   -0.034
    0.355
    0.428
    0.241
   -0.023
   -0.173
   -0.136
   -0.004
    0.030
   -0.175
   -0.596
   -1.024
   -1.188
   -0.938
   -0.354
    0.288
    0.656
    0.545
    0.003
   -0.671
   -1.106
   -1.088
   -0.667
   -0.077
    0.412
    0.620
    0.506
    0.137
   -0.377
   -0.910
   -1.291
   -1.285
   -0.702
    0.399
    1.619
    2.387
    2.309
    1.464
    0.373
   -0.351
   -0.439
   -0.115
    0.156
    0.086
   -0.232
   -0.483
   -0.445
   -0.169
    0.131
    0.327
    0.503
    0.837
    1.371
    1.921
    2.188
    1.967
    1.280
    0.361
   -0.486
   -1.069
   -1.405
   -1.656
   -1.947
   -2.235
   -2.314
   -1.973
   -1.188
   -0.216
    0.501
    0.629
    0.198
   -0.392
   -0.678
   -0.466
    0.064
    0.544
    0.692
    0.466
    0.011
   -0.511
   -1.036
   -1.565
   -2.020
   -2.193
   -1.874
   -1.052
    0.018
    0.984
    1.639
    2.014
    2.244
    2.363
    2.274
    1.895
    1.312
    0.733
    0.326
    0.101
   -0.032
   -0.117
   -0.084
    0.140
    0.465
    0.608
    0.314
   -0.357
   -0.987
   -1.099
   -0.548
    0.351
    1.072
    1.255
    0.892
    0.219
   -0.489
   -1.036
   -1.276
   -1.117
   -0.606
   -0.024
    0.212
   -0.163
   -0.993
   -1.750
   -1.920
   -1.435
   -0.744
   -0.448
   -0.812
   -1.561
   -2.123
   -2.059
   -1.354
   -0.366
    0.448
    0.813
    0.733
    0.416
    0.141
    0.153
    0.576
    1.329
    2.139
    2.698
    2.859
    2.716
    2.480
    2.279
    2.077
    1.768
    1.352
    0.984
    0.830
    0.883
    0.950
    0.851
    0.617
    0.461
    0.538
    0.728
    0.685
    0.148
   -0.761
   -1.561
   -1.801
   -1.476
   -1.061
   -1.079
   -1.613
   -2.220
   -2.318
   -1.701
   -0.708
    0.065
    0.254
   -0.031
   -0.380
   -0.479
   -0.326
   -0.131
   -0.040
    0.012
    0.206
    0.639
    1.206
    1.658
    1.762
    1.455
    0.901
    0.426
    0.346
    0.761
    1.435
    1.889
    1.677
    0.681
   -0.802
   -2.215
   -3.045
   -3.079
   -2.468
   -1.592
   -0.827
   -0.387
   -0.339
   -0.669
   -1.289
   -1.977
   -2.401
   -2.297
   -1.662
   -0.770
    0.024
    0.516
    0.757
    0.974
    1.389
    2.048
    2.778
    3.279
    3.277
    2.599
    1.222
   -0.655
   -2.557
   -3.852
   -4.060
   -3.145
   -1.555
    0.034
    1.075
    1.386
    1.121
    0.565
   -0.057
   -0.606
   -0.961
   -0.994
   -0.643
    0.012
    0.761
    1.370
    1.708
    1.829
    1.928
    2.178
    2.572
    2.917
    2.958
    2.536
    1.667
    0.533
   -0.593
   -1.441
   -1.852
   -1.858
   -1.687
   -1.628
   -1.809
   -2.073
   -2.113
   -1.799
   -1.355
   -1.205
   -1.594
   -2.333
   -2.897
   -2.805
   -1.980
   -0.814
    0.123
    0.495
    0.394
    0.189
    0.199
    0.480
    0.848
    1.083
    1.118
    1.070
    1.084
    1.170
    1.194
    1.011
    0.597
    0.078
   -0.340
   -0.501
   -0.415
   -0.249
   -0.177
   -0.208
   -0.182
    0.077
    0.589
    1.153
    1.414
    1.094
    0.265
   -0.571
   -0.769
   -0.030
    1.324
    2.524
    2.839
    2.030
    0.472
   -1.114
   -2.116
   -2.344
   -2.026
   -1.521
   -1.024
   -0.501
    0.128
    0.761
    1.111
    0.941
    0.300
   -0.456
   -0.878
   -0.691
    0.042
    0.937
    1.493
    1.387
    0.662
   -0.330
   -1.175
   -1.650
   -1.800
   -1.816
   -1.836
   -1.824
   -1.633
   -1.194
   -0.636
   -0.205
   -0.042
   -0.038
    0.074
    0.481
    1.130
    1.763
    2.114
    2.051
    1.595
    0.850
   -0.031
   -0.843
   -1.320
   -1.204
   -0.399
    0.885
    2.145
    2.800
    2.503
    1.355
   -0.144
   -1.354
   -1.842
   -1.584
   -0.912
   -0.275
    0.016
   -0.105
   -0.508
   -0.998
   -1.403
   -1.588
   -1.446
   -0.911
    0.001
    1.154
    2.303
    3.146
    3.438
    3.113
    2.337
    1.427
    0.658
    0.121
   -0.257
   -0.573
   -0.826
   -0.948
   -0.908
   -0.789
   -0.723
   -0.774
   -0.881
   -0.922
   -0.831
   -0.687
   -0.686
   -1.016
   -1.676
   -2.401
   -2.785
   -2.539
   -1.659
   -0.386
    0.953
    2.074
    2.800
    3.074
    2.934
    2.454
    1.710
    0.834
    0.059
   -0.346
   -0.244
    0.247
    0.803
    1.073
    0.883
    0.331
   -0.299
   -0.745
   -0.929
   -0.975
   -1.077
   -1.306
   -1.508
   -1.400
   -0.836
   -0.033
    0.509
    0.364
   -0.475
   -1.546
   -2.225
   -2.156
   -1.479
   -0.686
   -0.220
   -0.177
   -0.371
   -0.610
   -0.862
   -1.136
   -1.278
   -0.978
   -0.040
    1.325
    2.478
    2.724
    1.823
    0.213
   -1.250
   -1.882
   -1.604
   -0.904
   -0.355
   -0.148
   -0.039
    0.285
    0.842
    1.336
    1.457
    1.166
    0.725
    0.465
    0.506
    0.662
    0.614
    0.214
   -0.372
   -0.792
   -0.788
   -0.366
    0.231
    0.694
    0.832
    0.674
    0.444
    0.426
    0.809
    1.573
    2.471
    3.156
    3.389
    3.188
    2.779
    2.399
    2.142
    1.954
    1.730
    1.416
    1.068
    0.810
    0.698
    0.630
    0.411
   -0.070
   -0.720
   -1.320
   -1.685
   -1.770
   -1.664
   -1.505
   -1.380
   -1.285
   -1.173
   -1.033
   -0.914
   -0.873
   -0.917
   -0.986
   -0.999
   -0.926
   -0.818
   -0.757
   -0.751
   -0.693
   -0.456
   -0.009
    0.520
    0.886
    0.830
    0.239
   -0.738
   -1.728
   -2.368
   -2.541
   -2.432
   -2.352
   -2.504
   -2.862
   -3.222
   -3.382
   -3.274
   -2.934
   -2.379
   -1.528
   -0.312
    1.141
    2.435
    3.056
    2.671
    1.389
   -0.209
   -1.317
   -1.317
   -0.105
    1.853
    3.786
    4.999
    5.153
    4.308
    2.793
    1.046
   -0.512
   -1.558
   -1.934
   -1.688
   -1.048
   -0.309
    0.290
    0.611
    0.566
    0.094
   -0.753
   -1.715
   -2.399
   -2.509
   -2.057
   -1.341
   -0.713
   -0.324
   -0.053
    0.335
    0.968
    1.762
    2.476
    2.833
    2.621
    1.795
    0.555
   -0.693
   -1.510
   -1.607
   -0.909
    0.464
    2.188
    3.749
    4.608
    4.487
    3.546
    2.279
    1.203
    0.560
    0.248
    0.013
   -0.266
   -0.425
   -0.182
    0.542
    1.468
    2.169
    2.406
    2.246
    1.888
    1.434
    0.872
    0.223
   -0.338
   -0.544
   -0.244
    0.434
    1.105
    1.359
    1.001
    0.120
   -1.021
   -2.145
   -3.031
   -3.525
   -3.545
   -3.115
   -2.376
   -1.544
   -0.816
   -0.243
    0.309
    1.061
    2.088
    3.162
    3.818
    3.649
    2.614
    1.121
   -0.179
   -0.760
   -0.503
    0.275
    1.039
    1.323
    0.903
   -0.173
   -1.618
   -2.989
   -3.872
   -4.102
   -3.860
   -3.531
   -3.434
   -3.626
   -3.917
   -4.050
   -3.893
   -3.483
   -2.886
   -2.042
   -0.764
    1.061
    3.274
    5.423
    6.943
    7.416
    6.761
    5.282
    3.526
    2.018
    1.017
    0.454
    0.067
   -0.374
   -0.936
   -1.528
   -1.997
   -2.224
   -2.208
   -2.104
   -2.168
   -2.592
   -3.352
   -4.227
   -4.988
   -5.564
   -6.028
   -6.435
   -6.694
   -6.591
   -5.955
   -4.828
   -3.464
   -2.143
   -0.961
    0.177
    1.412
    2.787
    4.235
    5.638
    6.857
    7.735
    8.090
    7.760
    6.706
    5.114
    3.381
    1.919
    0.926
    0.294
   -0.263
   -0.958
   -1.740
   -2.309
   -2.362
   -1.859
   -1.068
   -0.359
    0.032
    0.069
   -0.157
   -0.532
   -0.960
   -1.346
   -1.554
   -1.442
   -0.970
   -0.293
    0.320
    0.688
    0.875
    1.144
    1.758
    2.781
    4.026
    5.183
    5.993
    6.330
    6.159
    5.479
    4.352
    2.969
    1.657
    0.740
    0.346
    0.298
    0.242
   -0.059
   -0.527
   -0.870
   -0.896
   -0.783
   -1.035
   -2.130
   -4.090
   -6.295
   -7.754
   -7.708
   -6.153
   -3.890
   -2.056
   -1.443
   -2.043
   -3.121
   -3.763
   -3.519
   -2.635
   -1.708
   -1.121
   -0.756
   -0.188
    0.859
    2.227
    3.448
    4.133
    4.266
    4.122
    3.905
    3.475
    2.416
    0.384
   -2.543
   -5.733
   -8.208
   -9.109
   -8.141
   -5.720
   -2.745
   -0.193
    1.240
    1.337
    0.355
   -1.155
   -2.626
   -3.659
   -4.021
   -3.521
   -1.968
    0.707
    4.209
    7.768
   10.334
   11.067
    9.806
    7.182
    4.266
    2.002
    0.813
    0.603
    1.047
    1.872
    2.922
    4.006
    4.756
    4.720
    3.690
    1.995
    0.410
   -0.359
   -0.206
    0.281
    0.281
   -0.658
   -2.340
   -4.162
   -5.582
   -6.439
   -6.920
   -7.259
   -7.488
   -7.419
   -6.827
   -5.636
   -3.967
   -2.098
   -0.371
    0.926
    1.727
    2.241
    2.773
    3.418
    3.914
    3.856
    3.107
    2.056
    1.419
    1.712
    2.786
    3.844
    3.972
    2.794
    0.748
   -1.210
   -2.210
   -1.956
   -0.792
    0.626
    1.746
    2.299
    2.215
    1.460
    0.055
   -1.779
   -3.562
   -4.726
   -4.909
   -4.133
   -2.725
   -1.091
    0.448
    1.659
    2.344
    2.387
    1.871
    1.071
    0.277
   -0.382
   -0.951
   -1.507
   -1.999
   -2.211
   -1.913
   -1.097
   -0.109
    0.493
    0.273
   -0.831
   -2.483
   -4.105
   -5.095
   -5.030
   -3.787
   -1.541
    1.307
    4.202
    6.491
    7.587
    7.224
    5.616
    3.326
    0.955
   -1.081
   -2.533
   -3.197
   -2.877
   -1.488
    0.842
    3.727
    6.571
    8.664
    9.350
    8.260
    5.534
    1.885
   -1.630
   -4.076
   -5.064
   -4.833
   -3.957
   -2.966
   -2.150
   -1.568
   -1.148
   -0.794
   -0.491
   -0.340
   -0.471
   -0.910
   -1.513
   -2.018
   -2.180
   -1.919
   -1.371
   -0.796
   -0.422
   -0.376
   -0.729
   -1.527
   -2.718
   -4.048
   -5.049
   -5.205
   -4.192
   -2.042
    0.871
    4.009
    6.851
    9.025
   10.349
   10.789
   10.346
    8.972
    6.656
    3.628
    0.453
   -2.153
   -3.679
   -4.038
   -3.521
   -2.576
   -1.629
   -1.007
   -0.888
   -1.238
   -1.795
   -2.193
   -2.189
   -1.826
   -1.408
   -1.305
   -1.732
   -2.634
   -3.708
   -4.524
   -4.671
   -3.926
   -2.444
   -0.853
   -0.072
   -0.805
   -3.031
   -5.887
   -8.096
   -8.670
   -7.434
   -5.033
   -2.441
   -0.322
    1.301
    2.855
    4.706
    6.721
    8.236
    8.472
    7.129
    4.708
    2.273
    0.791
    0.565
    1.172
    1.889
    2.235
    2.217
    2.130
    2.138
    2.042
    1.492
    0.412
   -0.799
   -1.526
   -1.432
   -0.765
   -0.207
   -0.390
   -1.468
   -3.044
   -4.432
   -5.019
   -4.495
   -2.909
   -0.619
    1.811
    3.726
    4.543
    3.987
    2.296
    0.229
   -1.243
   -1.423
   -0.231
    1.789
    3.771
    4.950
    4.953
    3.850
    2.020
   -0.035
   -1.809
   -2.912
   -3.207
   -2.876
   -2.303
   -1.796
   -1.377
   -0.817
    0.123
    1.422
    2.734
    3.572
    3.576
    2.662
    1.014
   -0.947
   -2.590
   -3.216
   -2.367
   -0.131
    2.813
    5.433
    6.757
    6.257
    4.060
    0.867
   -2.366
   -4.785
   -5.886
   -5.628
   -4.451
   -3.144
   -2.520
   -2.984
   -4.259
   -5.491
   -5.786
   -4.844
   -3.185
   -1.722
   -1.039
   -0.999
   -0.975
   -0.406
    0.810
    2.339
    3.752
    4.845
    5.671
    6.293
    6.554
    6.121
    4.753
    2.553
    0.006
   -2.182
   -3.377
   -3.289
   -2.099
   -0.366
    1.222
    2.124
    2.133
    1.424
    0.435
   -0.342
   -0.567
   -0.199
    0.467
    0.928
    0.749
   -0.177
   -1.580
   -3.016
   -4.120
   -4.767
   -5.057
   -5.202
   -5.373
   -5.621
   -5.877
   -5.998
   -5.800
   -5.081
   -3.676
   -1.544
    1.144
    3.986
    6.468
    8.211
    9.177
    9.606
    9.723
    9.495
    8.689
    7.175
    5.131
    2.983
    1.133
   -0.254
   -1.221
   -1.800
   -1.874
   -1.302
   -0.193
    0.972
    1.594
    1.363
    0.467
   -0.591
   -1.350
   -1.621
   -1.439
   -0.909
   -0.122
    0.796
    1.614
    2.012
    1.716
    0.641
   -1.036
   -2.913
   -4.485
   -5.317
   -5.196
   -4.195
   -2.631
   -0.951
    0.389
    1.020
    0.764
   -0.278
   -1.708
   -2.979
   -3.637
   -3.481
   -2.561
   -1.109
    0.504
    1.812
    2.400
    2.068
    0.915
   -0.720
   -2.365
   -3.529
   -3.817
   -3.060
   -1.396
    0.688
    2.435
    3.082
    2.295
    0.481
   -1.372
   -2.316
   -2.063
   -1.084
   -0.140
    0.343
    0.543
    0.978
    1.962
    3.233
    4.073
    3.823
    2.388
    0.330
   -1.503
   -2.511
   -2.638
   -2.251
   -1.751
   -1.266
   -0.634
    0.351
    1.623
    2.707
    2.905
    1.748
   -0.580
   -3.224
   -5.138
   -5.723
   -5.170
   -4.227
   -3.611
   -3.509
   -3.545
   -3.198
   -2.243
   -0.851
    0.665
    2.138
    3.573
    4.967
    6.120
    6.678
    6.334
    5.039
    3.071
    0.934
   -0.859
   -2.024
   -2.638
   -3.032
   -3.462
   -3.833
   -3.731
   -2.759
   -0.910
    1.312
    3.108
    3.815
    3.252
    1.748
   -0.125
   -1.833
   -2.986
   -3.322
   -2.715
   -1.234
    0.825
    2.988
    4.721
    5.612
    5.523
    4.616
    3.236
    1.795
    0.730
    0.444
    1.132
    2.633
    4.473
    6.053
    6.838
    6.502
    5.069
    2.965
    0.868
   -0.616
   -1.237
   -1.178
   -0.909
   -0.892
   -1.304
   -1.961
   -2.513
   -2.718
   -2.569
   -2.208
   -1.776
   -1.327
   -0.870
   -0.503
   -0.457
   -0.946
   -1.900
   -2.901
   -3.435
   -3.238
   -2.423
   -1.355
   -0.449
   -0.032
   -0.272
   -1.123
   -2.277
   -3.198
   -3.327
   -2.397
   -0.643
    1.330
    2.946
    3.967
    4.454
    4.502
    4.067
    3.088
    1.731
    0.457
   -0.225
   -0.156
    0.283
    0.356
   -0.547
   -2.466
   -4.788
   -6.591
   -7.133
   -6.156
   -3.893
   -0.928
    1.977
    4.105
    5.027
    4.727
    3.528
    1.932
    0.496
   -0.307
   -0.285
    0.325
    0.946
    0.972
    0.112
   -1.423
   -3.014
   -3.959
   -3.834
   -2.651
   -0.753
    1.350
    3.100
    3.951
    3.511
    1.701
   -1.125
   -4.198
   -6.517
   -7.181
   -5.771
   -2.597
    1.365
    4.859
    6.879
    7.069
    5.756
    3.617
    1.252
   -0.983
   -2.794
   -3.751
   -3.410
   -1.751
    0.541
    2.303
    2.550
    1.076
   -1.443
   -3.885
