Origin Time       07/09/2011 17:58:18
Lat.              28.6 N	
Long.             77.0 E	
Depth (Km)          8.0
Magnitude         4.2
 Region           DELHI-HARYANA(SONIPAT)-Haryana                                   
 Above details taken from IMD 
     
Station Code       ALIP
Station Lat.       28.795  N
Station Long.      77.141  E
Station Height(m)   98.0
Site Class        C   Vs30 between 200 m/sec to 375 m/sec *  
Record Time        9/7/2011  ) 17:57:33.0
Sampling Rate     200. Hz
 Record Duration  116.000 Sec.
 Direction         E-W (E positive)
Max. Acceleration -25.191 cm/sec**2
     
  * For reference see Site Classification link of website 
     
 Base Line Corrected and Low Pass Filtered (Cut Off at 35 Hz) Time History
 Acceleration data in cm/sec**2
    
[...]
   -0.124
   -0.040
    0.058
    0.147
    0.208
    0.220
    0.172
    0.079
   -0.026
   -0.105
   -0.133
   -0.106
   -0.043
    0.025
    0.077
    0.111
    0.141
    0.167
    0.172
    0.133
    0.038
   -0.100
   -0.249
   -0.361
   -0.391
   -0.318
   -0.161
    0.030
    0.191
    0.270
    0.247
    0.146
    0.020
   -0.082
   -0.129
   -0.115
   -0.051
    0.036
    0.114
    0.160
    0.159
    0.098
   -0.021
   -0.166
   -0.275
   -0.290
   -0.193
   -0.021
    0.150
    0.247
    0.245
    0.175
    0.097
    0.047
    0.024
    0.003
   -0.037
   -0.094
   -0.152
   -0.188
   -0.189
   -0.158
   -0.108
   -0.042
    0.043
    0.148
    0.259
    0.348
    0.384
    0.339
    0.206
    0.011
   -0.187
   -0.325
   -0.368
   -0.314
   -0.198
   -0.069
    0.025
    0.068
    0.076
    0.078
    0.083
    0.075
    0.033
   -0.054
   -0.167
   -0.258
   -0.269
   -0.170
    0.016
    0.221
    0.366
    0.393
    0.293
    0.108
   -0.093
   -0.244
   -0.305
   -0.261
   -0.128
    0.053
    0.220
    0.315
    0.307
    0.196
    0.015
   -0.182
   -0.334
   -0.396
   -0.354
   -0.226
   -0.057
    0.091
    0.163
    0.142
    0.058
   -0.037
   -0.097
   -0.098
   -0.043
    0.048
    0.140
    0.195
    0.188
    0.112
   -0.018
   -0.159
   -0.253
   -0.250
   -0.148
    0.010
    0.156
    0.242
    0.256
    0.223
    0.177
    0.135
    0.090
    0.026
   -0.061
   -0.153
   -0.215
   -0.209
   -0.119
    0.031
    0.183
    0.273
    0.265
    0.162
    0.000
   -0.163
   -0.276
   -0.311
   -0.265
   -0.158
   -0.022
    0.101
    0.159
    0.124
    0.002
   -0.161
   -0.301
   -0.362
   -0.314
   -0.171
    0.020
    0.196
    0.312
    0.339
    0.272
    0.130
   -0.039
   -0.170
   -0.217
   -0.175
   -0.071
    0.048
    0.144
    0.196
    0.200
    0.165
    0.104
    0.034
   -0.028
   -0.064
   -0.071
   -0.059
   -0.046
   -0.042
   -0.049
   -0.063
   -0.078
   -0.081
   -0.062
   -0.015
    0.052
    0.110
    0.132
    0.109
    0.062
    0.021
    0.004
    0.003
   -0.002
   -0.028
   -0.072
   -0.115
   -0.131
   -0.103
   -0.036
    0.047
    0.113
    0.134
    0.101
    0.020
   -0.084
   -0.180
   -0.235
   -0.231
   -0.162
   -0.041
    0.095
    0.197
    0.224
    0.166
    0.051
   -0.073
   -0.161
   -0.186
   -0.145
   -0.055
    0.056
    0.154
    0.209
    0.204
    0.149
    0.075
    0.017
   -0.013
   -0.031
   -0.062
   -0.116
   -0.182
   -0.231
   -0.234
   -0.174
   -0.056
    0.091
    0.221
    0.295
    0.288
    0.203
    0.067
   -0.074
   -0.172
   -0.196
   -0.147
   -0.061
    0.016
    0.046
    0.024
   -0.027
   -0.076
   -0.100
   -0.087
   -0.037
    0.034
    0.098
    0.123
    0.098
    0.035
   -0.030
   -0.066
   -0.058
   -0.019
    0.023
    0.047
    0.042
    0.004
   -0.062
   -0.138
   -0.196
   -0.203
   -0.150
   -0.045
    0.091
    0.233
    0.344
    0.384
    0.328
    0.183
   -0.010
   -0.191
   -0.303
   -0.325
   -0.270
   -0.178
   -0.085
   -0.008
    0.054
    0.106
    0.144
    0.159
    0.134
    0.065
   -0.023
   -0.089
   -0.101
   -0.061
   -0.005
    0.021
   -0.011
   -0.091
   -0.173
   -0.199
   -0.138
   -0.005
    0.150
    0.265
    0.292
    0.220
    0.079
   -0.078
   -0.198
   -0.250
   -0.231
   -0.162
   -0.074
    0.009
    0.081
    0.140
    0.175
    0.174
    0.137
    0.083
    0.033
   -0.005
   -0.032
   -0.057
   -0.085
   -0.116
   -0.139
   -0.140
   -0.112
   -0.060
    0.007
    0.077
    0.126
    0.132
    0.090
    0.022
   -0.038
   -0.064
   -0.044
    0.012
    0.079
    0.118
    0.105
    0.045
   -0.030
   -0.082
   -0.085
   -0.043
    0.011
    0.035
    0.009
   -0.051
   -0.107
   -0.128
   -0.107
   -0.063
   -0.024
   -0.007
   -0.004
    0.009
    0.043
    0.084
    0.100
    0.065
   -0.022
   -0.130
   -0.207
   -0.211
   -0.137
   -0.020
    0.084
    0.136
    0.128
    0.080
    0.029
    0.007
    0.024
    0.062
    0.095
    0.105
    0.086
    0.041
   -0.016
   -0.063
   -0.088
   -0.087
   -0.058
   -0.001
    0.071
    0.124
    0.122
    0.054
   -0.055
   -0.160
   -0.215
   -0.191
   -0.100
    0.017
    0.109
    0.149
    0.137
    0.087
    0.019
   -0.044
   -0.091
   -0.126
   -0.153
   -0.166
   -0.149
   -0.088
    0.018
    0.149
    0.265
    0.314
    0.265
    0.130
   -0.041
   -0.182
   -0.249
   -0.230
   -0.149
   -0.050
    0.032
    0.087
    0.117
    0.126
    0.116
    0.086
    0.036
   -0.032
   -0.107
   -0.158
   -0.156
   -0.096
   -0.007
    0.072
    0.105
    0.079
    0.009
   -0.071
   -0.130
   -0.155
   -0.145
   -0.098
   -0.022
    0.062
    0.126
    0.151
    0.135
    0.092
    0.037
   -0.015
   -0.055
   -0.081
   -0.095
   -0.094
   -0.074
   -0.033
    0.026
    0.096
    0.161
    0.196
    0.179
    0.112
    0.017
   -0.077
   -0.142
   -0.163
   -0.137
   -0.078
   -0.005
    0.063
    0.115
    0.140
    0.131
    0.092
    0.030
   -0.045
   -0.115
   -0.159
   -0.161
   -0.124
   -0.064
   -0.001
    0.046
    0.062
    0.044
    0.010
   -0.017
   -0.024
   -0.014
   -0.001
    0.006
    0.000
   -0.022
   -0.052
   -0.075
   -0.077
   -0.050
    0.003
    0.072
    0.134
    0.164
    0.151
    0.099
    0.031
   -0.026
   -0.056
   -0.053
   -0.032
   -0.010
   -0.004
   -0.022
   -0.062
   -0.102
   -0.116
   -0.084
   -0.015
    0.062
    0.116
    0.136
    0.122
    0.089
    0.051
    0.020
   -0.001
   -0.013
   -0.019
   -0.026
   -0.039
   -0.060
   -0.084
   -0.100
   -0.103
   -0.096
   -0.079
   -0.052
   -0.013
    0.035
    0.084
    0.126
    0.153
    0.156
    0.135
    0.095
    0.044
   -0.011
   -0.058
   -0.084
   -0.079
   -0.051
   -0.022
   -0.017
   -0.043
   -0.085
   -0.119
   -0.129
   -0.109
   -0.065
   -0.008
    0.053
    0.106
    0.139
    0.142
    0.113
    0.068
    0.023
   -0.010
   -0.033
   -0.054
   -0.076
   -0.095
   -0.103
   -0.098
   -0.083
   -0.063
   -0.040
   -0.009
    0.035
    0.087
    0.127
    0.128
    0.082
    0.003
   -0.071
   -0.104
   -0.074
    0.009
    0.112
    0.191
    0.214
    0.173
    0.082
   -0.034
   -0.146
   -0.227
   -0.257
   -0.225
   -0.141
   -0.029
    0.084
    0.174
    0.229
    0.236
    0.194
    0.110
    0.005
   -0.096
   -0.169
   -0.196
   -0.170
   -0.102
   -0.013
    0.071
    0.129
    0.147
    0.120
    0.057
   -0.025
   -0.106
   -0.165
   -0.187
   -0.167
   -0.112
   -0.042
    0.031
    0.094
    0.140
    0.155
    0.135
    0.086
    0.020
   -0.047
   -0.105
   -0.143
   -0.154
   -0.131
   -0.067
    0.033
    0.147
    0.239
    0.272
    0.227
    0.114
   -0.035
   -0.178
   -0.274
   -0.302
   -0.261
   -0.161
   -0.022
    0.126
    0.245
    0.304
    0.293
    0.220
    0.110
   -0.006
   -0.097
   -0.149
   -0.166
   -0.158
   -0.130
   -0.085
   -0.033
    0.020
    0.075
    0.131
    0.169
    0.161
    0.093
   -0.022
   -0.147
   -0.232
   -0.241
   -0.171
   -0.058
    0.046
    0.108
    0.123
    0.101
    0.055
   -0.003
   -0.066
   -0.122
   -0.158
   -0.162
   -0.132
   -0.074
    0.002
    0.088
    0.171
    0.231
    0.249
    0.219
    0.152
    0.064
   -0.034
   -0.133
   -0.213
   -0.243
   -0.186
   -0.038
    0.148
    0.278
    0.269
    0.119
   -0.089
   -0.234
   -0.238
   -0.118
    0.037
    0.135
    0.134
    0.036
   -0.135
   -0.336
   -0.494
   -0.508
   -0.289
    0.174
    0.750
    1.150
    1.055
    0.380
   -0.550
   -1.139
   -0.951
   -0.090
    0.822
    1.111
    0.584
   -0.313
   -0.841
   -0.572
    0.250
    0.877
    0.656
   -0.402
   -1.562
   -1.906
   -1.094
    0.324
    1.328
    1.262
    0.342
   -0.582
   -0.771
   -0.156
    0.695
    1.081
    0.729
   -0.012
   -0.481
   -0.324
    0.151
    0.297
   -0.134
   -0.664
   -0.611
    0.106
    0.842
    0.883
    0.123
   -0.891
   -1.412
   -0.994
    0.208
    1.448
    1.857
    1.148
   -0.097
   -0.969
   -1.041
   -0.593
   -0.146
    0.026
   -0.035
   -0.134
   -0.072
    0.215
    0.573
    0.727
    0.501
   -0.047
   -0.674
   -1.069
   -1.001
   -0.484
    0.176
    0.586
    0.569
    0.233
   -0.212
   -0.618
   -0.861
   -0.792
   -0.313
    0.479
    1.273
    1.701
    1.564
    0.931
    0.062
   -0.751
   -1.258
   -1.267
   -0.725
    0.154
    0.922
    1.137
    0.639
   -0.299
   -1.078
   -1.183
   -0.665
   -0.149
   -0.154
   -0.458
   -0.357
    0.399
    1.203
    1.267
    0.514
   -0.394
   -0.770
   -0.454
    0.210
    0.695
    0.647
    0.128
   -0.401
   -0.491
   -0.141
    0.210
    0.176
   -0.148
   -0.294
    0.070
    0.753
    1.181
    0.875
   -0.136
   -1.350
   -2.137
   -2.090
   -1.163
    0.315
    1.739
    2.491
    2.259
    1.211
   -0.127
   -1.170
   -1.583
   -1.455
   -1.156
   -0.935
   -0.648
    0.018
    1.028
    1.835
    1.807
    0.789
   -0.757
   -2.068
   -2.485
   -1.733
   -0.079
    1.686
    2.611
    2.216
    0.893
   -0.385
   -0.892
   -0.721
   -0.485
   -0.511
   -0.482
    0.086
    1.140
    2.015
    2.030
    1.060
   -0.446
   -1.856
   -2.674
   -2.638
   -1.774
   -0.495
    0.527
    0.826
    0.560
    0.323
    0.457
    0.662
    0.426
   -0.272
   -0.849
   -0.712
    0.168
    1.244
    1.855
    1.704
    1.019
    0.296
   -0.123
   -0.242
   -0.267
   -0.411
   -0.818
   -1.458
   -1.968
   -1.782
   -0.620
    1.141
    2.660
    3.137
    2.219
    0.170
   -2.139
   -3.619
   -3.616
   -2.264
   -0.230
    1.685
    2.711
    2.334
    0.770
   -0.949
   -1.742
   -1.374
   -0.390
    0.674
    1.694
    2.576
    2.862
    1.976
   -0.168
   -2.833
   -4.730
   -4.791
   -2.917
   -0.049
    2.560
    4.158
    4.640
    4.156
    2.833
    0.847
   -1.441
   -3.498
   -4.677
   -4.382
   -2.456
    0.412
    2.806
    3.401
    1.947
   -0.443
   -2.084
   -2.002
   -0.591
    0.902
    1.521
    1.283
    0.854
    0.719
    0.693
    0.211
   -0.934
   -2.169
   -2.476
   -1.291
    0.840
    2.534
    2.602
    0.978
   -1.266
   -2.750
   -2.742
   -1.496
    0.162
    1.513
    2.288
    2.506
    2.184
    1.318
    0.050
   -1.287
   -2.346
   -2.887
   -2.727
   -1.759
   -0.180
    1.365
    2.084
    1.670
    0.625
   -0.141
   -0.083
    0.597
    1.296
    1.596
    1.467
    1.040
    0.385
   -0.471
   -1.452
   -2.403
   -3.064
   -3.085
   -2.249
   -0.781
    0.672
    1.526
    1.711
    1.591
    1.494
    1.393
    1.067
    0.491
   -0.002
    0.009
    0.542
    1.011
    0.664
   -0.630
   -2.088
   -2.638
   -1.885
   -0.400
    0.907
    1.564
    1.668
    1.424
    0.831
   -0.110
   -1.113
   -1.748
   -1.802
   -1.357
   -0.608
    0.206
    0.775
    0.916
    0.765
    0.567
    0.302
   -0.221
   -0.909
   -1.345
   -1.280
   -0.872
   -0.369
    0.182
    0.773
    1.242
    1.445
    1.421
    1.240
    0.862
    0.319
   -0.153
   -0.323
   -0.215
   -0.035
    0.075
    0.134
    0.247
    0.415
    0.374
   -0.221
   -1.280
   -2.064
   -1.798
   -0.511
    0.911
    1.506
    0.970
   -0.236
   -1.257
   -1.392
   -0.577
    0.575
    1.355
    1.545
    1.324
    0.780
   -0.125
   -1.155
   -1.755
   -1.529
   -0.568
    0.720
    1.848
    2.270
    1.548
   -0.231
   -2.261
   -3.470
   -3.239
   -1.756
    0.219
    1.850
    2.636
    2.532
    1.824
    0.956
    0.394
    0.391
    0.706
    0.680
   -0.118
   -1.281
   -1.852
   -1.347
   -0.323
    0.196
   -0.252
   -1.245
   -2.001
   -2.045
   -1.449
   -0.621
    0.108
    0.745
    1.482
    2.272
    2.718
    2.456
    1.552
    0.431
   -0.448
   -0.762
   -0.418
    0.223
    0.356
   -0.600
   -2.185
   -3.053
   -2.225
   -0.176
    1.513
    1.626
    0.405
   -0.775
   -0.728
    0.527
    1.845
    1.920
    0.365
   -1.884
   -3.199
   -2.552
   -0.397
    1.766
    2.732
    2.476
    1.810
    1.403
    1.156
    0.352
   -1.570
   -4.097
   -5.492
   -4.026
    0.234
    4.981
    7.317
    5.975
    2.036
   -2.169
   -4.683
   -4.833
   -3.166
   -0.789
    1.319
    2.634
    2.992
    2.408
    1.021
   -0.804
   -2.424
   -3.106
   -2.466
   -0.791
    1.123
    2.476
    2.815
    2.027
    0.314
   -1.750
   -3.407
   -4.130
   -3.756
   -2.189
    0.566
    3.822
    6.050
    5.864
    3.212
   -0.581
   -3.716
   -4.696
   -2.799
    1.345
    5.596
    7.413
    5.629
    1.241
   -3.307
   -5.512
   -4.100
    0.083
    4.277
    5.617
    3.317
   -0.887
   -4.433
   -5.845
   -5.227
   -3.651
   -2.347
   -1.921
   -1.827
   -0.893
    1.218
    3.252
    3.523
    1.791
   -0.304
   -0.719
    1.211
    4.257
    6.152
    5.042
    0.594
   -5.764
  -11.522
  -14.273
  -12.860
   -7.995
   -1.835
    3.433
    6.876
    8.659
    8.756
    6.395
    1.210
   -5.289
   -9.925
   -9.806
   -4.298
    4.449
   12.555
   16.412
   14.623
    8.606
    1.345
   -4.598
   -8.110
   -9.207
   -8.327
   -5.972
   -2.661
    0.949
    3.807
    4.503
    2.043
   -3.164
   -9.206
  -13.634
  -14.562
  -11.242
   -4.263
    4.470
   12.259
   16.660
   16.496
   12.321
    6.217
    0.933
   -1.435
   -0.568
    1.892
    3.296
    1.639
   -2.919
   -7.765
   -9.489
   -6.487
   -0.173
    6.346
   10.597
   11.817
   10.369
    6.871
    1.983
   -3.338
   -7.754
   -9.947
   -9.378
   -6.862
   -4.246
   -3.141
   -3.680
   -4.390
   -3.292
    0.610
    6.460
   11.910
   14.444
   12.676
    6.769
   -1.836
  -10.695
  -16.681
  -16.961
  -10.581
    0.450
   11.678
   18.234
   17.210
    8.968
   -3.310
  -15.339
  -23.408
  -25.191
  -20.020
   -9.174
    4.067
   15.311
   20.781
   18.914
   11.007
    0.760
   -7.171
   -9.238
   -4.800
    3.492
   11.110
   14.059
   10.839
    2.894
   -6.535
  -14.159
  -17.772
  -16.365
   -9.966
    0.097
   10.881
   18.469
   19.709
   13.929
    3.396
   -7.718
  -15.196
  -16.602
  -12.239
   -4.735
    2.572
    7.398
    9.280
    9.076
    7.832
    5.911
    2.990
   -1.140
   -5.688
   -8.865
   -9.020
   -6.004
   -1.527
    1.894
    2.628
    1.024
   -0.974
   -1.503
   -0.363
    1.046
    1.406
    0.885
    0.630
    0.972
    0.610
   -2.022
   -6.535
  -10.008
   -8.989
   -2.459
    6.925
   14.493
   16.702
   13.165
    6.171
   -1.381
   -7.640
  -11.888
  -13.668
  -12.335
   -7.673
   -0.797
    5.909
   10.067
   10.726
    8.724
    5.831
    3.506
    2.166
    1.358
    0.506
   -0.446
   -1.056
   -0.968
   -0.336
    0.356
    0.766
    0.880
    0.801
    0.521
   -0.080
   -1.116
   -2.631
   -4.580
   -6.707
   -8.372
   -8.576
   -6.527
   -2.510
    1.781
    4.080
    3.112
   -0.357
   -3.900
   -5.025
   -2.848
    1.405
    5.429
    7.552
    7.670
    6.745
    5.596
    4.232
    2.159
   -0.859
   -4.276
   -6.813
   -7.132
   -4.783
   -0.743
    2.947
    4.320
    2.667
   -0.982
   -4.449
   -5.721
   -4.091
   -0.282
    4.335
    8.414
   10.676
    9.950
    5.884
   -0.305
   -6.203
   -9.615
   -9.713
   -7.025
   -2.754
    1.705
    4.964
    5.984
    4.538
    1.343
   -2.375
   -5.483
   -7.213
   -7.055
   -4.743
   -0.648
    3.817
    6.543
    5.961
    2.222
   -2.752
   -6.353
   -6.658
   -3.325
    2.246
    7.563
   10.331
    9.644
    6.192
    1.483
   -2.958
   -5.778
   -5.869
   -2.981
    1.631
    5.668
    7.312
    6.342
    3.757
    0.529
   -3.110
   -7.242
  -11.259
  -13.400
  -11.628
   -5.549
    2.315
    7.677
    7.587
    2.748
   -3.218
   -6.704
   -6.376
   -3.173
    1.126
    5.112
    8.086
    9.787
   10.047
    8.714
    5.972
    2.653
    0.009
   -1.028
   -0.475
    0.720
    1.251
    0.145
   -2.702
   -6.385
   -9.443
  -10.722
   -9.969
   -7.623
   -4.148
    0.205
    4.932
    8.738
    9.809
    7.012
    1.209
   -4.568
   -6.739
   -3.776
    2.341
    7.380
    8.051
    4.408
   -0.631
   -3.970
   -4.624
   -3.739
   -2.806
   -2.108
   -0.809
    1.638
    4.397
    5.653
    4.205
    0.700
   -2.682
   -3.843
   -2.258
    0.880
    3.708
    4.883
    4.059
    1.691
   -1.385
   -4.334
   -6.497
   -7.296
   -6.098
   -2.550
    2.652
    7.435
    9.243
    6.704
    0.645
   -6.399
  -11.726
  -13.830
  -12.718
   -9.293
   -4.612
    0.327
    4.412
    6.526
    6.184
    4.130
    2.106
    1.735
    3.356
    5.761
    7.100
    6.176
    3.123
   -0.907
   -4.522
   -6.624
   -6.547
   -4.107
    0.226
    5.181
    8.868
    9.519
    6.561
    1.172
   -4.328
   -7.769
   -7.975
   -4.823
    0.812
    6.980
   11.120
   11.350
    7.646
    1.741
   -4.117
   -8.395
  -10.618
  -10.908
   -9.392
   -6.140
   -1.690
    2.584
    5.084
    5.187
    3.701
    1.974
    0.714
   -0.228
   -1.101
   -1.599
   -1.039
    0.860
    3.361
    4.922
    4.243
    1.364
   -2.176
   -4.351
   -4.017
   -1.612
    1.198
    2.568
    1.573
   -1.264
   -4.317
   -5.836
   -4.924
   -2.013
    1.417
    3.745
    4.254
    3.542
    2.941
    3.412
    4.829
    6.088
    5.833
    3.342
   -0.902
   -5.356
   -8.301
   -8.816
   -7.140
   -4.306
   -1.470
    0.648
    1.937
    2.544
    2.342
    0.953
   -1.528
   -4.006
   -4.940
   -3.521
   -0.219
    3.714
    7.084
    9.142
    9.533
    8.145
    5.049
    0.588
   -4.487
   -9.049
  -11.898
  -12.145
   -9.518
   -4.595
    1.085
    5.447
    6.941
    5.510
    2.562
   -0.081
   -1.336
   -1.239
   -0.473
    0.341
    0.960
    1.323
    1.301
    0.819
    0.143
   -0.158
    0.383
    1.766
    3.436
    4.452
    3.934
    1.757
   -1.085
   -3.109
   -3.582
   -3.063
   -2.627
   -2.705
   -2.821
   -2.254
   -0.753
    1.315
    3.230
    4.280
    4.076
    2.752
    0.925
   -0.626
   -1.381
   -1.298
   -0.672
    0.154
    0.868
    1.051
    0.211
   -1.798
   -4.355
   -6.189
   -6.065
   -3.537
    0.726
    5.217
    8.301
    8.944
    7.021
    3.152
   -1.569
   -5.801
   -8.294
   -8.386
   -6.279
   -2.821
    0.928
    3.977
    5.524
    5.153
    3.079
    0.192
   -2.272
   -3.350
   -2.921
   -1.740
   -0.783
   -0.435
   -0.314
    0.161
    1.167
    2.391
    3.316
    3.536
    2.974
    1.987
    1.174
    0.892
    0.906
    0.592
   -0.444
   -1.932
   -3.113
   -3.402
   -2.921
   -2.378
   -2.378
   -2.846
   -3.166
   -2.848
   -2.007
   -1.194
   -0.780
   -0.544
    0.152
    1.677
    3.584
    4.838
    4.735
    3.634
    2.619
    2.381
    2.526
    2.086
    0.675
   -0.995
   -1.841
   -1.577
   -1.052
   -1.369
   -2.734
   -4.212
   -4.555
   -3.175
   -0.446
    2.692
    5.269
    6.612
    6.440
    4.834
    2.158
   -1.020
   -3.989
   -6.005
   -6.504
   -5.327
   -2.818
    0.252
    2.879
    4.135
    3.560
    1.488
   -0.998
   -2.628
   -2.683
   -1.376
    0.417
    1.737
    1.962
    0.943
   -0.932
   -2.710
   -3.172
   -1.575
    1.643
    4.866
    6.183
    4.606
    0.804
   -3.206
   -5.297
   -4.581
   -1.896
    0.972
    2.640
    2.979
    2.797
    2.788
    2.810
    2.166
    0.530
   -1.526
   -2.931
   -2.978
   -1.789
   -0.148
    0.980
    0.911
   -0.367
   -2.053
   -2.980
   -2.465
   -0.814
    1.025
    2.216
    2.429
    1.713
    0.309
   -1.295
   -2.335
   -2.048
   -0.147
    2.876
    5.813
    7.144
    5.721
    1.503
   -4.179
   -9.173
  -11.570
  -10.562
   -6.620
   -1.108
    4.289
    8.059
    9.178
    7.275
    2.761
   -3.093
   -8.384
  -11.286
  -10.863
