Origin Time       16/4/2013 10:44:11	
Lat.              28.0 N	
Long.             62.1 E	
Depth (Km)         46.0
Magnitude         7.8
 Region           Iran-Pakistan-Border-Region                                      
 Above details taken from IMD 
     
Station Code       ALIP
Station Lat.       28.795  N
Station Long.      77.141  E
Station Height(m)   98.0
Site Class        C   Vs30 between 200 m/sec to 375 m/sec *  
Record Time        4/16/2013 6) 10:48:57.
Sampling Rate     200. Hz
 Record Duration  107.000 Sec.
 Direction         E-W (E positive)
Max. Acceleration  -1.972 cm/sec**2
     
  * For reference see Site Classification link of website 
     
 Base Line Corrected and Low Pass Filtered (Cut Off at 35 Hz) Time History
 Acceleration data in cm/sec**2
    
[...]
   -0.041
   -0.090
   -0.142
   -0.198
   -0.251
   -0.287
   -0.296
   -0.278
   -0.245
   -0.213
   -0.192
   -0.179
   -0.162
   -0.131
   -0.088
   -0.046
   -0.015
    0.008
    0.034
    0.076
    0.127
    0.168
    0.180
    0.160
    0.127
    0.102
    0.096
    0.113
    0.149
    0.201
    0.262
    0.321
    0.365
    0.386
    0.382
    0.361
    0.338
    0.319
    0.306
    0.293
    0.271
    0.233
    0.172
    0.091
    0.001
   -0.080
   -0.136
   -0.165
   -0.185
   -0.222
   -0.291
   -0.385
   -0.477
   -0.533
   -0.532
   -0.470
   -0.358
   -0.214
   -0.065
    0.061
    0.137
    0.154
    0.121
    0.065
    0.015
   -0.008
   -0.001
    0.033
    0.083
    0.140
    0.195
    0.242
    0.272
    0.281
    0.274
    0.264
    0.269
    0.303
    0.367
    0.450
    0.538
    0.617
    0.675
    0.709
    0.718
    0.703
    0.669
    0.619
    0.561
    0.504
    0.461
    0.441
    0.450
    0.483
    0.527
    0.565
    0.581
    0.564
    0.507
    0.413
    0.287
    0.143
    0.002
   -0.112
   -0.185
   -0.221
   -0.235
   -0.241
   -0.245
   -0.246
   -0.249
   -0.265
   -0.304
   -0.363
   -0.423
   -0.460
   -0.461
   -0.428
   -0.370
   -0.293
   -0.199
   -0.098
   -0.014
    0.027
    0.013
   -0.037
   -0.089
   -0.112
   -0.098
   -0.060
   -0.019
    0.008
    0.014
    0.002
   -0.023
   -0.057
   -0.093
   -0.126
   -0.153
   -0.169
   -0.175
   -0.170
   -0.159
   -0.151
   -0.159
   -0.189
   -0.236
   -0.286
   -0.328
   -0.357
   -0.378
   -0.396
   -0.414
   -0.424
   -0.421
   -0.399
   -0.363
   -0.316
   -0.259
   -0.193
   -0.127
   -0.070
   -0.028
    0.001
    0.023
    0.041
    0.047
    0.032
   -0.010
   -0.074
   -0.144
   -0.203
   -0.245
   -0.272
   -0.288
   -0.293
   -0.283
   -0.259
   -0.229
   -0.204
   -0.187
   -0.176
   -0.170
   -0.171
   -0.188
   -0.216
   -0.244
   -0.252
   -0.233
   -0.201
   -0.184
   -0.202
   -0.261
   -0.346
   -0.445
   -0.546
   -0.643
   -0.722
   -0.774
   -0.794
   -0.793
   -0.783
   -0.775
   -0.765
   -0.747
   -0.715
   -0.669
   -0.609
   -0.536
   -0.447
   -0.349
   -0.252
   -0.159
   -0.064
    0.045
    0.176
    0.325
    0.486
    0.658
    0.837
    1.014
    1.168
    1.281
    1.346
    1.369
    1.355
    1.303
    1.207
    1.070
    0.910
    0.755
    0.618
    0.496
    0.372
    0.232
    0.083
   -0.059
   -0.179
   -0.274
   -0.357
   -0.437
   -0.512
   -0.574
   -0.613
   -0.627
   -0.619
   -0.587
   -0.528
   -0.447
   -0.359
   -0.287
   -0.249
   -0.250
   -0.283
   -0.332
   -0.381
   -0.418
   -0.446
   -0.474
   -0.518
   -0.579
   -0.649
   -0.710
   -0.753
   -0.782
   -0.808
   -0.837
   -0.858
   -0.849
   -0.803
   -0.727
   -0.636
   -0.538
   -0.425
   -0.293
   -0.151
   -0.024
    0.060
    0.089
    0.065
    0.005
   -0.069
   -0.141
   -0.189
   -0.200
   -0.169
   -0.113
   -0.061
   -0.034
   -0.030
   -0.029
   -0.008
    0.035
    0.090
    0.147
    0.207
    0.283
    0.383
    0.498
    0.605
    0.681
    0.718
    0.719
    0.694
    0.654
    0.608
    0.561
    0.521
    0.491
    0.471
    0.460
    0.454
    0.446
    0.423
    0.372
    0.291
    0.190
    0.090
    0.013
   -0.037
   -0.074
   -0.120
   -0.187
   -0.274
   -0.365
   -0.440
   -0.483
   -0.491
   -0.476
   -0.454
   -0.438
   -0.428
   -0.416
   -0.391
   -0.353
   -0.309
   -0.270
   -0.241
   -0.220
   -0.198
   -0.169
   -0.131
   -0.082
   -0.017
    0.067
    0.173
    0.295
    0.427
    0.562
    0.694
    0.819
    0.932
    1.032
    1.119
    1.194
    1.259
    1.314
    1.356
    1.379
    1.378
    1.349
    1.295
    1.221
    1.140
    1.065
    1.009
    0.977
    0.965
    0.963
    0.955
    0.925
    0.854
    0.732
    0.561
    0.353
    0.131
   -0.077
   -0.244
   -0.354
   -0.404
   -0.408
   -0.381
   -0.341
   -0.297
   -0.251
   -0.204
   -0.155
   -0.103
   -0.044
    0.028
    0.123
    0.246
    0.393
    0.550
    0.704
    0.843
    0.956
    1.034
    1.065
    1.045
    0.981
    0.894
    0.809
    0.749
    0.728
    0.745
    0.784
    0.824
    0.842
    0.816
    0.734
    0.592
    0.396
    0.157
   -0.107
   -0.382
   -0.651
   -0.898
   -1.110
   -1.276
   -1.393
   -1.460
   -1.480
   -1.452
   -1.379
   -1.271
   -1.143
   -1.016
   -0.908
   -0.822
   -0.749
   -0.671
   -0.576
   -0.466
   -0.362
   -0.293
   -0.277
   -0.315
   -0.386
   -0.457
   -0.505
   -0.517
   -0.496
   -0.447
   -0.380
   -0.297
   -0.203
   -0.101
    0.004
    0.106
    0.198
    0.275
    0.330
    0.357
    0.356
    0.324
    0.263
    0.175
    0.065
   -0.061
   -0.191
   -0.310
   -0.407
   -0.480
   -0.531
   -0.563
   -0.574
   -0.565
   -0.537
   -0.495
   -0.447
   -0.400
   -0.358
   -0.317
   -0.275
   -0.233
   -0.196
   -0.173
   -0.169
   -0.187
   -0.221
   -0.262
   -0.295
   -0.307
   -0.298
   -0.270
   -0.232
   -0.185
   -0.129
   -0.060
    0.025
    0.126
    0.239
    0.343
    0.414
    0.433
    0.398
    0.321
    0.224
    0.121
    0.015
   -0.101
   -0.237
   -0.393
   -0.561
   -0.722
   -0.857
   -0.953
   -1.005
   -1.014
   -0.986
   -0.931
   -0.860
   -0.789
   -0.731
   -0.685
   -0.641
   -0.585
   -0.513
   -0.433
   -0.355
   -0.282
   -0.208
   -0.126
   -0.034
    0.064
    0.160
    0.255
    0.354
    0.466
    0.597
    0.742
    0.889
    1.024
    1.139
    1.233
    1.310
    1.372
    1.420
    1.456
    1.479
    1.487
    1.472
    1.427
    1.348
    1.240
    1.115
    0.985
    0.856
    0.729
    0.607
    0.492
    0.384
    0.276
    0.154
    0.007
   -0.162
   -0.337
   -0.491
   -0.600
   -0.646
   -0.626
   -0.550
   -0.441
   -0.323
   -0.215
   -0.127
   -0.066
   -0.037
   -0.042
   -0.078
   -0.135
   -0.201
   -0.262
   -0.305
   -0.320
   -0.312
   -0.290
   -0.265
   -0.233
   -0.189
   -0.130
   -0.067
   -0.014
    0.024
    0.057
    0.106
    0.182
    0.282
    0.389
    0.485
    0.557
    0.596
    0.601
    0.575
    0.529
    0.474
    0.421
    0.372
    0.319
    0.253
    0.166
    0.056
   -0.067
   -0.188
   -0.292
   -0.366
   -0.406
   -0.416
   -0.407
   -0.392
   -0.383
   -0.386
   -0.393
   -0.396
   -0.388
   -0.371
   -0.352
   -0.336
   -0.324
   -0.315
   -0.314
   -0.325
   -0.348
   -0.374
   -0.388
   -0.375
   -0.326
   -0.245
   -0.147
   -0.049
    0.035
    0.102
    0.151
    0.186
    0.205
    0.211
    0.207
    0.203
    0.206
    0.215
    0.218
    0.200
    0.151
    0.072
   -0.025
   -0.125
   -0.217
   -0.296
   -0.368
   -0.441
   -0.525
   -0.615
   -0.692
   -0.730
   -0.710
   -0.634
   -0.524
   -0.410
   -0.310
   -0.226
   -0.145
   -0.062
    0.020
    0.091
    0.140
    0.174
    0.204
    0.236
    0.267
    0.285
    0.280
    0.250
    0.205
    0.159
    0.121
    0.090
    0.060
    0.027
   -0.002
   -0.021
   -0.028
   -0.038
   -0.070
   -0.138
   -0.244
   -0.375
   -0.511
   -0.634
   -0.729
   -0.789
   -0.816
   -0.815
   -0.794
   -0.767
   -0.748
   -0.753
   -0.787
   -0.840
   -0.893
   -0.922
   -0.919
   -0.895
   -0.868
   -0.853
   -0.849
   -0.847
   -0.831
   -0.788
   -0.707
   -0.584
   -0.429
   -0.260
   -0.099
    0.038
    0.141
    0.203
    0.220
    0.187
    0.107
   -0.009
   -0.142
   -0.268
   -0.369
   -0.432
   -0.456
   -0.443
   -0.398
   -0.326
   -0.231
   -0.125
   -0.024
    0.056
    0.106
    0.127
    0.138
    0.163
    0.221
    0.318
    0.437
    0.550
    0.631
    0.661
    0.634
    0.556
    0.445
    0.324
    0.216
    0.135
    0.082
    0.057
    0.060
    0.095
    0.165
    0.262
    0.372
    0.472
    0.546
    0.591
    0.618
    0.644
    0.679
    0.727
    0.777
    0.818
    0.846
    0.869
    0.890
    0.905
    0.905
    0.886
    0.853
    0.813
    0.770
    0.716
    0.641
    0.537
    0.410
    0.274
    0.149
    0.050
   -0.025
   -0.087
   -0.145
   -0.198
   -0.236
   -0.253
   -0.244
   -0.211
   -0.155
   -0.077
    0.021
    0.134
    0.251
    0.364
    0.471
    0.580
    0.703
    0.842
    0.984
    1.106
    1.188
    1.220
    1.208
    1.168
    1.115
    1.065
    1.023
    0.991
    0.965
    0.933
    0.877
    0.782
    0.643
    0.474
    0.297
    0.131
   -0.011
   -0.124
   -0.210
   -0.274
   -0.324
   -0.368
   -0.411
   -0.458
   -0.511
   -0.569
   -0.622
   -0.660
   -0.678
   -0.676
   -0.660
   -0.639
   -0.620
   -0.605
   -0.590
   -0.568
   -0.529
   -0.465
   -0.374
   -0.266
   -0.152
   -0.041
    0.068
    0.183
    0.304
    0.423
    0.524
    0.591
    0.621
    0.629
    0.637
    0.668
    0.730
    0.820
    0.921
    1.013
    1.077
    1.102
    1.084
    1.021
    0.910
    0.749
    0.551
    0.338
    0.133
   -0.050
   -0.208
   -0.352
   -0.496
   -0.651
   -0.819
   -0.983
   -1.121
   -1.221
   -1.287
   -1.340
   -1.399
   -1.470
   -1.536
   -1.575
   -1.574
   -1.541
   -1.494
   -1.453
   -1.426
   -1.409
   -1.391
   -1.366
   -1.329
   -1.279
   -1.217
   -1.150
   -1.084
   -1.028
   -0.986
   -0.956
   -0.935
   -0.928
   -0.945
   -0.995
   -1.072
   -1.152
   -1.211
   -1.240
   -1.250
   -1.259
   -1.277
   -1.303
   -1.334
   -1.369
   -1.407
   -1.440
   -1.450
   -1.421
   -1.346
   -1.231
   -1.094
   -0.957
   -0.835
   -0.732
   -0.645
   -0.573
   -0.516
   -0.469
   -0.423
   -0.366
   -0.286
   -0.179
   -0.053
    0.074
    0.190
    0.288
    0.365
    0.423
    0.468
    0.511
    0.557
    0.612
    0.681
    0.762
    0.847
    0.930
    1.011
    1.094
    1.178
    1.256
    1.313
    1.331
    1.304
    1.249
    1.204
    1.203
    1.255
    1.351
    1.467
    1.585
    1.689
    1.763
    1.789
    1.760
    1.676
    1.551
    1.409
    1.271
    1.159
    1.081
    1.034
    1.006
    0.988
    0.970
    0.946
    0.908
    0.845
    0.746
    0.609
    0.447
    0.289
    0.171
    0.115
    0.127
    0.200
    0.317
    0.454
    0.585
    0.683
    0.732
    0.726
    0.677
    0.611
    0.560
    0.552
    0.599
    0.695
    0.827
    0.974
    1.106
    1.195
    1.222
    1.182
    1.084
    0.944
    0.778
    0.604
    0.441
    0.305
    0.207
    0.144
    0.102
    0.072
    0.054
    0.061
    0.103
    0.170
    0.239
    0.287
    0.307
    0.307
    0.302
    0.304
    0.314
    0.326
    0.334
    0.334
    0.332
    0.333
    0.341
    0.357
    0.384
    0.426
    0.484
    0.554
    0.629
    0.704
    0.776
    0.840
    0.882
    0.878
    0.811
    0.681
    0.514
    0.345
    0.197
    0.065
   -0.071
   -0.230
   -0.412
   -0.600
   -0.767
   -0.900
   -1.002
   -1.089
   -1.177
   -1.265
   -1.339
   -1.384
   -1.394
   -1.378
   -1.354
   -1.346
   -1.370
   -1.437
   -1.543
   -1.674
   -1.804
   -1.908
   -1.966
   -1.972
   -1.939
   -1.884
   -1.823
   -1.765
   -1.713
   -1.664
   -1.613
   -1.551
   -1.477
   -1.395
   -1.311
   -1.233
   -1.159
   -1.077
   -0.974
   -0.840
   -0.678
   -0.506
   -0.345
   -0.215
   -0.128
   -0.085
   -0.075
   -0.081
   -0.078
   -0.049
    0.011
    0.092
    0.175
    0.248
    0.315
    0.390
    0.483
    0.590
    0.693
    0.768
    0.801
    0.787
    0.735
    0.658
    0.571
    0.486
    0.410
    0.350
    0.303
    0.260
    0.204
    0.117
   -0.001
   -0.128
   -0.237
   -0.308
   -0.335
   -0.321
   -0.272
   -0.195
   -0.100
   -0.002
    0.079
    0.126
    0.131
    0.100
    0.052
    0.005
   -0.024
   -0.027
    0.002
    0.058
    0.134
    0.227
    0.335
    0.456
    0.573
    0.664
    0.712
    0.724
    0.723
    0.732
    0.753
    0.771
    0.764
    0.725
    0.664
    0.596
    0.528
    0.465
    0.415
    0.383
    0.366
    0.353
    0.330
    0.296
    0.265
    0.254
    0.273
    0.325
    0.402
    0.499
    0.612
    0.746
    0.901
    1.067
    1.225
    1.351
    1.432
    1.470
    1.474
    1.450
    1.391
    1.281
    1.113
    0.898
    0.662
    0.438
    0.245
    0.086
   -0.049
   -0.167
   -0.263
   -0.327
   -0.349
   -0.332
   -0.295
   -0.256
   -0.221
   -0.188
   -0.147
   -0.093
   -0.029
    0.037
    0.102
    0.173
    0.258
    0.365
    0.484
    0.592
    0.663
    0.686
    0.661
    0.599
    0.504
    0.380
    0.233
    0.080
   -0.053
   -0.143
   -0.191
   -0.219
   -0.260
   -0.336
   -0.446
   -0.578
   -0.717
   -0.855
   -0.987
   -1.103
   -1.189
   -1.233
   -1.237
   -1.212
   -1.179
   -1.151
   -1.137
   -1.139
   -1.158
   -1.191
   -1.220
   -1.215
   -1.149
   -1.016
   -0.834
   -0.643
   -0.481
   -0.373
   -0.318
   -0.301
   -0.304
   -0.314
   -0.323
   -0.326
   -0.315
   -0.289
   -0.245
   -0.181
   -0.101
   -0.011
    0.078
    0.161
    0.237
    0.307
    0.367
    0.403
    0.403
    0.360
    0.274
    0.159
    0.034
   -0.081
   -0.174
   -0.244
   -0.295
   -0.330
   -0.351
   -0.364
   -0.386
   -0.432
   -0.515
   -0.640
   -0.798
   -0.965
   -1.116
   -1.225
   -1.279
   -1.275
   -1.223
   -1.140
   -1.044
   -0.947
   -0.855
   -0.768
   -0.690
   -0.623
   -0.568
   -0.518
   -0.464
   -0.398
   -0.322
   -0.243
   -0.172
   -0.119
   -0.088
   -0.080
   -0.096
   -0.134
   -0.193
   -0.271
   -0.365
   -0.468
   -0.564
   -0.637
   -0.681
   -0.700
   -0.706
   -0.709
   -0.712
   -0.714
   -0.707
   -0.684
   -0.641
   -0.576
   -0.492
   -0.407
   -0.345
   -0.331
   -0.373
   -0.462
   -0.572
   -0.670
   -0.729
   -0.733
   -0.680
   -0.577
   -0.433
   -0.260
   -0.067
    0.140
    0.353
    0.573
    0.801
    1.036
    1.273
    1.498
    1.693
    1.840
    1.931
    1.969
    1.972
    1.956
    1.930
    1.892
    1.837
    1.764
    1.681
    1.603
    1.541
    1.497
    1.462
    1.423
    1.373
    1.314
    1.248
    1.182
    1.117
    1.056
    1.001
    0.958
    0.933
    0.927
    0.930
    0.922
    0.877
    0.780
    0.634
    0.458
    0.280
    0.127
    0.025
   -0.018
   -0.006
    0.037
    0.081
    0.096
    0.069
    0.000
   -0.096
   -0.205
   -0.319
   -0.430
   -0.534
   -0.620
   -0.680
   -0.710
   -0.713
   -0.697
   -0.670
   -0.639
   -0.608
   -0.572
   -0.518
   -0.434
   -0.313
   -0.162
   -0.003
    0.137
    0.235
    0.285
    0.296
    0.287
    0.279
    0.293
    0.345
    0.442
    0.585
    0.758
    0.930
    1.064
    1.129
    1.112
    1.022
    0.876
    0.702
    0.523
    0.365
    0.241
    0.146
    0.062
   -0.032
   -0.146
   -0.279
   -0.421
   -0.560
   -0.685
   -0.791
   -0.879
   -0.955
   -1.025
   -1.093
   -1.150
   -1.178
   -1.158
   -1.086
   -0.988
   -0.908
   -0.884
   -0.930
   -1.025
   -1.130
   -1.210
   -1.244
   -1.230
   -1.174
   -1.085
   -0.977
   -0.874
   -0.803
   -0.777
   -0.792
   -0.830
   -0.869
   -0.894
   -0.901
   -0.892
   -0.867
   -0.820
   -0.747
   -0.645
   -0.520
   -0.378
   -0.225
   -0.067
    0.084
    0.214
    0.309
    0.367
    0.400
    0.423
    0.449
    0.485
    0.528
    0.563
    0.570
    0.524
    0.415
    0.247
    0.049
   -0.148
   -0.316
   -0.452
   -0.562
   -0.657
   -0.737
   -0.797
   -0.826
   -0.822
   -0.785
   -0.725
   -0.651
   -0.571
   -0.484
   -0.387
   -0.279
   -0.164
   -0.048
    0.067
    0.180
    0.289
    0.397
    0.510
    0.635
    0.777
    0.934
    1.094
    1.238
    1.349
    1.420
    1.456
    1.473
    1.488
    1.509
    1.537
    1.570
    1.609
    1.659
    1.718
    1.777
    1.822
    1.838
    1.812
    1.735
    1.607
    1.430
    1.215
    0.980
    0.752
    0.560
    0.420
    0.330
    0.266
    0.199
    0.109
    0.001
   -0.105
   -0.185
   -0.231
   -0.254
   -0.275
   -0.311
   -0.364
   -0.423
   -0.478
   -0.521
   -0.553
   -0.569
   -0.555
   -0.494
   -0.377
   -0.211
   -0.020
    0.167
    0.330
    0.464
    0.580
    0.691
    0.804
    0.912
    1.007
    1.084
    1.145
    1.198
    1.242
    1.267
    1.255
    1.196
    1.092
    0.962
    0.827
    0.700
    0.582
    0.468
    0.355
    0.241
    0.134
    0.041
   -0.031
   -0.077
   -0.102
   -0.110
   -0.116
   -0.135
   -0.186
   -0.274
   -0.390
   -0.509
   -0.607
   -0.671
   -0.700
   -0.705
   -0.702
   -0.702
   -0.712
   -0.734
   -0.767
   -0.805
   -0.836
   -0.847
   -0.830
   -0.788
   -0.731
   -0.665
   -0.592
   -0.513
   -0.427
   -0.341
   -0.260
   -0.187
   -0.122
   -0.056
    0.022
    0.118
    0.226
    0.326
    0.397
    0.428
    0.425
    0.398
    0.354
    0.289
    0.198
    0.084
   -0.039
   -0.156
   -0.259
   -0.354
   -0.455
   -0.565
   -0.668
   -0.735
   -0.737
   -0.663
   -0.535
   -0.394
   -0.280
   -0.216
   -0.199
   -0.220
   -0.273
   -0.361
   -0.484
   -0.635
   -0.788
   -0.914
   -0.994
   -1.028
   -1.032
   -1.026
   -1.023
   -1.030
   -1.046
   -1.068
   -1.089
   -1.099
   -1.087
   -1.046
   -0.978
   -0.887
   -0.785
   -0.677
   -0.572
   -0.475
   -0.396
   -0.343
   -0.313
   -0.297
   -0.274
   -0.228
   -0.151
   -0.054
    0.044
    0.130
    0.206
    0.282
    0.364
    0.443
    0.499
    0.519
    0.498
    0.444
    0.368
    0.281
    0.188
    0.091
   -0.012
   -0.123
   -0.242
   -0.363
   -0.473
   -0.555
   -0.592
   -0.582
   -0.532
   -0.458
   -0.380
   -0.319
   -0.285
   -0.277
   -0.278
   -0.270
   -0.239
   -0.185
   -0.114
   -0.039
    0.032
    0.098
    0.166
    0.243
    0.328
    0.406
    0.462
    0.480
    0.460
    0.418
    0.376
    0.360
    0.379
    0.428
    0.484
    0.527
    0.549
    0.556
    0.561
    0.579
    0.612
    0.648
    0.669
    0.659
    0.615
    0.548
    0.479
    0.431
    0.422
    0.456
    0.526
    0.614
    0.698
    0.756
    0.767
    0.723
    0.631
    0.509
    0.378
    0.254
    0.145
    0.049
   -0.040
   -0.125
   -0.202
   -0.261
   -0.288
   -0.274
   -0.216
   -0.114
    0.025
    0.190
    0.363
    0.525
    0.660
    0.758
    0.826
    0.881
    0.936
    0.993
    1.049
    1.095
    1.125
    1.129
    1.095
    1.014
    0.885
    0.718
    0.534
    0.358
    0.216
    0.118
    0.061
    0.030
    0.001
   -0.046
   -0.127
   -0.242
   -0.375
   -0.498
   -0.591
   -0.648
   -0.679
   -0.704
   -0.737
   -0.782
   -0.830
   -0.870
   -0.898
   -0.921
   -0.953
   -0.997
   -1.043
   -1.070
   -1.057
   -0.996
   -0.894
   -0.764
   -0.616
   -0.458
   -0.302
   -0.170
   -0.087
   -0.063
   -0.082
   -0.107
   -0.098
   -0.028
    0.100
    0.262
    0.423
    0.557
    0.653
    0.715
    0.750
    0.758
    0.736
    0.684
    0.613
    0.538
    0.466
    0.395
    0.315
    0.217
    0.099
   -0.029
   -0.147
   -0.239
   -0.297
   -0.322
   -0.327
   -0.325
   -0.326
   -0.339
   -0.366
   -0.404
   -0.442
   -0.467
   -0.474
   -0.475
   -0.495
   -0.551
   -0.636
   -0.722
   -0.775
   -0.779
   -0.739
   -0.676
   -0.612
   -0.558
   -0.519
   -0.502
   -0.511
   -0.547
   -0.599
   -0.646
   -0.666
   -0.646
   -0.588
   -0.507
   -0.420
   -0.343
   -0.290
   -0.265
   -0.266
   -0.282
   -0.297
   -0.300
   -0.282
   -0.242
   -0.185
   -0.123
   -0.066
   -0.025
   -0.003
    0.007
    0.018
    0.038
    0.070
    0.111
    0.155
    0.200
    0.240
    0.270
    0.287
    0.289
    0.279
    0.265
    0.255
    0.258
    0.282
    0.328
    0.385
    0.438
    0.474
    0.490
    0.496
    0.508
    0.535
    0.570
    0.596
    0.592
    0.555
    0.498
    0.443
    0.401
    0.376
    0.364
    0.363
    0.374
    0.394
    0.416
