Origin Time       07/09/2011 17:58:18
Lat.              28.6 N	
Long.             77.0 E	
Depth (Km)          8.0
Magnitude         4.2
 Region           DELHI-HARYANA(SONIPAT)-Haryana                                   
 Above details taken from IMD 
   
Station Code       ALIP
Station Lat.       28.795
Station Long.      77.141
Station Height(m)   98.0
Site Class        C   Vs30 between 200 m/sec to 375 m/sec *  
Record Time        9/7/2011  ) 17:57:33.0
Sampling Rate     200. Hz
 Record Duration  116.000 Sec.
 Direction         Vert. (Up positive)
Max. Acceleration -13.942 cm/sec**2
     
  * For reference see Site Classification link of website 
     
 Base Line Corrected and Low Pass Filtered (Cut Off at 35 Hz) Time History
 Acceleration data in cm/sec**2
    
[...]
    0.092
    0.146
    0.172
    0.164
    0.124
    0.059
   -0.014
   -0.077
   -0.119
   -0.141
   -0.150
   -0.151
   -0.143
   -0.122
   -0.086
   -0.037
    0.013
    0.053
    0.078
    0.095
    0.115
    0.138
    0.154
    0.151
    0.127
    0.089
    0.050
    0.026
    0.025
    0.035
    0.038
    0.018
   -0.021
   -0.064
   -0.090
   -0.087
   -0.058
   -0.023
    0.000
    0.005
   -0.001
   -0.011
   -0.026
   -0.043
   -0.057
   -0.065
   -0.061
   -0.048
   -0.027
   -0.005
    0.012
    0.023
    0.027
    0.025
    0.021
    0.025
    0.037
    0.048
    0.050
    0.039
    0.019
   -0.013
   -0.054
   -0.096
   -0.124
   -0.129
   -0.108
   -0.060
    0.003
    0.060
    0.087
    0.078
    0.042
   -0.001
   -0.033
   -0.035
   -0.001
    0.052
    0.098
    0.117
    0.108
    0.074
    0.025
   -0.023
   -0.051
   -0.049
   -0.020
    0.021
    0.054
    0.066
    0.052
    0.025
    0.001
   -0.013
   -0.024
   -0.039
   -0.058
   -0.079
   -0.092
   -0.089
   -0.071
   -0.049
   -0.037
   -0.040
   -0.049
   -0.052
   -0.042
   -0.016
    0.017
    0.042
    0.048
    0.041
    0.033
    0.028
    0.020
    0.015
    0.020
    0.038
    0.058
    0.073
    0.079
    0.076
    0.068
    0.063
    0.066
    0.069
    0.054
    0.020
   -0.019
   -0.046
   -0.054
   -0.039
   -0.009
    0.017
    0.020
    0.001
   -0.024
   -0.041
   -0.050
   -0.059
   -0.070
   -0.076
   -0.070
   -0.049
   -0.018
    0.006
    0.006
   -0.015
   -0.041
   -0.055
   -0.058
   -0.054
   -0.047
   -0.036
   -0.020
    0.004
    0.040
    0.077
    0.096
    0.092
    0.076
    0.062
    0.056
    0.048
    0.026
   -0.022
   -0.089
   -0.145
   -0.152
   -0.097
   -0.002
    0.092
    0.148
    0.141
    0.073
   -0.028
   -0.109
   -0.134
   -0.092
   -0.002
    0.107
    0.202
    0.253
    0.247
    0.192
    0.103
   -0.004
   -0.106
   -0.170
   -0.177
   -0.139
   -0.082
   -0.035
   -0.016
   -0.032
   -0.071
   -0.110
   -0.127
   -0.119
   -0.094
   -0.064
   -0.035
   -0.014
    0.005
    0.032
    0.073
    0.119
    0.151
    0.158
    0.142
    0.115
    0.088
    0.068
    0.045
    0.009
   -0.039
   -0.082
   -0.100
   -0.089
   -0.056
   -0.012
    0.024
    0.035
    0.013
   -0.034
   -0.087
   -0.129
   -0.140
   -0.104
   -0.028
    0.054
    0.106
    0.114
    0.092
    0.064
    0.050
    0.054
    0.059
    0.037
   -0.019
   -0.086
   -0.120
   -0.097
   -0.023
    0.066
    0.126
    0.122
    0.054
   -0.044
   -0.120
   -0.132
   -0.076
    0.021
    0.110
    0.148
    0.121
    0.047
   -0.039
   -0.109
   -0.146
   -0.147
   -0.118
   -0.074
   -0.026
    0.019
    0.057
    0.079
    0.079
    0.063
    0.039
    0.021
    0.016
    0.033
    0.059
    0.073
    0.056
    0.013
   -0.037
   -0.071
   -0.078
   -0.057
   -0.022
    0.006
    0.011
   -0.003
   -0.021
   -0.031
   -0.030
   -0.019
    0.001
    0.018
    0.021
    0.004
   -0.020
   -0.028
   -0.007
    0.034
    0.070
    0.072
    0.032
   -0.026
   -0.068
   -0.068
   -0.028
    0.024
    0.060
    0.062
    0.034
   -0.008
   -0.040
   -0.047
   -0.026
    0.011
    0.043
    0.049
    0.027
   -0.011
   -0.044
   -0.062
   -0.062
   -0.048
   -0.024
    0.004
    0.025
    0.033
    0.030
    0.024
    0.023
    0.028
    0.038
    0.046
    0.046
    0.034
    0.016
   -0.003
   -0.019
   -0.025
   -0.015
    0.010
    0.034
    0.040
    0.021
   -0.012
   -0.042
   -0.055
   -0.055
   -0.052
   -0.058
   -0.071
   -0.079
   -0.070
   -0.041
   -0.001
    0.036
    0.059
    0.068
    0.064
    0.055
    0.047
    0.045
    0.049
    0.052
    0.045
    0.023
   -0.013
   -0.060
   -0.103
   -0.128
   -0.123
   -0.091
   -0.047
   -0.008
    0.018
    0.033
    0.044
    0.056
    0.066
    0.071
    0.067
    0.057
    0.043
    0.026
    0.007
   -0.014
   -0.043
   -0.077
   -0.103
   -0.104
   -0.068
   -0.001
    0.079
    0.148
    0.188
    0.194
    0.172
    0.129
    0.070
   -0.002
   -0.074
   -0.134
   -0.174
   -0.189
   -0.177
   -0.137
   -0.078
   -0.023
    0.012
    0.026
    0.029
    0.030
    0.032
    0.035
    0.031
    0.014
   -0.016
   -0.051
   -0.080
   -0.097
   -0.095
   -0.070
   -0.022
    0.039
    0.103
    0.162
    0.207
    0.223
    0.198
    0.135
    0.051
   -0.033
   -0.095
   -0.120
   -0.110
   -0.078
   -0.047
   -0.034
   -0.046
   -0.080
   -0.116
   -0.132
   -0.115
   -0.071
   -0.012
    0.051
    0.106
    0.147
    0.174
    0.185
    0.172
    0.121
    0.038
   -0.052
   -0.119
   -0.146
   -0.128
   -0.080
   -0.030
   -0.004
   -0.008
   -0.021
   -0.021
   -0.001
    0.026
    0.041
    0.032
   -0.005
   -0.047
   -0.066
   -0.046
   -0.005
    0.027
    0.032
    0.012
   -0.019
   -0.041
   -0.035
    0.001
    0.051
    0.088
    0.100
    0.083
    0.049
    0.014
    0.000
    0.013
    0.042
    0.066
    0.071
    0.053
    0.019
   -0.017
   -0.041
   -0.053
   -0.059
   -0.066
   -0.070
   -0.065
   -0.054
   -0.041
   -0.026
   -0.011
   -0.005
   -0.011
   -0.021
   -0.027
   -0.027
   -0.021
   -0.009
    0.004
    0.007
   -0.002
   -0.014
   -0.016
   -0.010
    0.001
    0.018
    0.041
    0.061
    0.068
    0.064
    0.049
    0.020
   -0.023
   -0.065
   -0.085
   -0.073
   -0.033
    0.024
    0.082
    0.116
    0.114
    0.085
    0.048
    0.015
   -0.011
   -0.033
   -0.057
   -0.086
   -0.115
   -0.127
   -0.106
   -0.054
    0.010
    0.063
    0.094
    0.099
    0.086
    0.075
    0.076
    0.086
    0.092
    0.085
    0.064
    0.027
   -0.020
   -0.063
   -0.092
   -0.112
   -0.131
   -0.147
   -0.148
   -0.128
   -0.088
   -0.034
    0.023
    0.066
    0.082
    0.081
    0.077
    0.079
    0.080
    0.072
    0.053
    0.018
   -0.029
   -0.073
   -0.098
   -0.108
   -0.110
   -0.108
   -0.093
   -0.060
   -0.013
    0.040
    0.093
    0.137
    0.158
    0.152
    0.119
    0.068
    0.010
   -0.032
   -0.047
   -0.038
   -0.025
   -0.016
   -0.013
   -0.010
   -0.005
    0.000
    0.001
   -0.015
   -0.051
   -0.094
   -0.117
   -0.104
   -0.055
    0.020
    0.093
    0.130
    0.113
    0.052
   -0.018
   -0.062
   -0.064
   -0.025
    0.034
    0.081
    0.092
    0.069
    0.039
    0.020
    0.014
    0.011
    0.002
   -0.024
   -0.066
   -0.109
   -0.131
   -0.118
   -0.076
   -0.020
    0.030
    0.058
    0.056
    0.031
    0.001
   -0.018
   -0.020
   -0.012
   -0.005
   -0.007
   -0.015
   -0.013
    0.009
    0.048
    0.084
    0.101
    0.088
    0.049
   -0.002
   -0.040
   -0.047
   -0.021
    0.024
    0.067
    0.095
    0.102
    0.090
    0.066
    0.041
    0.019
   -0.003
   -0.030
   -0.068
   -0.120
   -0.183
   -0.242
   -0.271
   -0.259
   -0.210
   -0.143
   -0.071
   -0.004
    0.056
    0.106
    0.145
    0.170
    0.178
    0.168
    0.149
    0.138
    0.143
    0.163
    0.187
    0.200
    0.189
    0.140
    0.050
   -0.067
   -0.182
   -0.265
   -0.298
   -0.283
   -0.243
   -0.203
   -0.176
   -0.155
   -0.120
   -0.061
    0.016
    0.087
    0.128
    0.130
    0.099
    0.055
    0.024
    0.023
    0.053
    0.099
    0.142
    0.164
    0.155
    0.115
    0.056
   -0.002
   -0.044
   -0.064
   -0.065
   -0.054
   -0.037
   -0.017
    0.003
    0.023
    0.038
    0.042
    0.028
   -0.008
   -0.057
   -0.102
   -0.132
   -0.139
   -0.127
   -0.099
   -0.059
   -0.016
    0.025
    0.059
    0.084
    0.096
    0.091
    0.072
    0.046
    0.018
   -0.003
   -0.007
    0.014
    0.057
    0.106
    0.139
    0.141
    0.110
    0.057
    0.003
   -0.035
   -0.056
   -0.068
   -0.080
   -0.092
   -0.103
   -0.113
   -0.121
   -0.127
   -0.125
   -0.115
   -0.097
   -0.076
   -0.059
   -0.054
   -0.061
   -0.064
   -0.046
    0.001
    0.070
    0.143
    0.199
    0.220
    0.210
    0.181
    0.148
    0.111
    0.065
    0.008
   -0.056
   -0.119
   -0.167
   -0.184
   -0.168
   -0.133
   -0.098
   -0.070
   -0.050
   -0.039
   -0.027
   -0.002
    0.039
    0.083
    0.113
    0.122
    0.118
    0.105
    0.087
    0.069
    0.055
    0.040
    0.021
    0.008
    0.017
    0.049
    0.087
    0.109
    0.099
    0.053
   -0.018
   -0.091
   -0.142
   -0.159
   -0.142
   -0.097
   -0.044
   -0.026
   -0.098
   -0.283
   -0.542
   -0.764
   -0.819
   -0.632
   -0.262
    0.092
    0.203
   -0.023
   -0.448
   -0.749
   -0.593
    0.159
    1.345
    2.554
    3.319
    3.314
    2.485
    1.053
   -0.561
   -1.837
   -2.293
   -1.698
   -0.321
    1.015
    1.300
    0.033
   -2.279
   -4.297
   -4.681
   -3.006
   -0.105
    2.422
    3.234
    2.141
    0.240
   -0.884
   -0.332
    1.434
    2.965
    2.943
    1.166
   -1.326
   -3.018
   -2.952
   -1.291
    0.886
    2.318
    2.332
    1.174
   -0.248
   -1.032
   -0.856
   -0.052
    0.772
    1.125
    0.760
   -0.298
   -1.674
   -2.707
   -2.868
   -2.185
   -1.155
   -0.196
    0.640
    1.377
    1.783
    1.591
    0.945
    0.344
    0.148
    0.343
    0.785
    1.351
    1.745
    1.463
    0.241
   -1.562
   -3.164
   -3.864
   -3.298
   -1.491
    0.990
    3.044
    3.608
    2.437
    0.284
   -1.645
   -2.400
   -1.674
    0.107
    1.979
    2.962
    2.610
    1.157
   -0.774
   -2.487
   -3.366
   -3.070
   -1.737
    0.050
    1.607
    2.455
    2.411
    1.607
    0.496
   -0.334
   -0.560
   -0.395
   -0.392
   -0.927
   -1.829
   -2.506
   -2.432
   -1.524
   -0.091
    1.441
    2.672
    3.232
    2.886
    1.720
    0.162
   -1.142
   -1.517
   -0.617
    1.052
    2.127
    1.423
   -0.848
   -3.164
   -4.106
   -3.438
   -1.808
    0.103
    1.774
    2.605
    2.132
    0.605
   -0.942
   -1.401
   -0.382
    1.549
    3.210
    3.474
    1.978
   -0.564
   -2.765
   -3.437
   -2.297
   -0.085
    1.877
    2.423
    1.224
   -0.975
   -2.759
   -2.897
   -1.150
    1.446
    3.141
    2.656
    0.148
   -2.874
   -4.615
   -4.101
   -1.615
    1.531
    3.648
    3.637
    1.829
   -0.110
   -0.440
    1.216
    3.569
    4.721
    3.597
    0.628
   -2.641
   -4.600
   -4.539
   -2.953
   -1.111
   -0.161
   -0.363
   -0.979
   -0.992
   -0.089
    1.048
    1.453
    0.831
   -0.231
   -0.873
   -0.620
    0.423
    1.736
    2.567
    2.181
    0.345
   -2.212
   -3.983
   -3.689
   -1.349
    1.648
    3.573
    3.504
    1.693
   -0.764
   -2.471
   -2.366
   -0.379
    2.352
    4.127
    3.796
    1.476
   -1.580
   -3.768
   -4.094
   -2.713
   -0.650
    0.982
    1.523
    0.807
   -0.857
   -2.617
   -3.355
   -2.418
   -0.075
    2.732
    4.895
    5.425
    3.858
    0.831
   -1.994
   -3.083
   -2.188
   -0.293
    1.328
    1.809
    0.892
   -0.964
   -2.694
   -3.272
   -2.421
   -0.632
    1.323
    2.672
    2.756
    1.438
   -0.536
   -1.887
   -1.692
    0.026
    2.327
    3.742
    3.019
    0.118
   -3.403
   -5.374
   -4.690
   -2.084
    0.625
    1.940
    1.551
    0.270
   -0.677
   -0.484
    0.748
    2.149
    2.727
    2.091
    0.732
   -0.391
   -0.677
   -0.380
   -0.269
   -0.800
   -1.671
   -2.125
   -1.603
   -0.201
    1.339
    2.112
    1.729
    0.671
   -0.102
    0.010
    0.760
    1.386
    1.369
    0.776
   -0.114
   -1.296
   -2.918
   -4.634
   -5.345
   -3.981
   -0.715
    2.756
    4.386
    3.441
    1.094
   -0.559
   -0.158
    1.990
    4.305
    5.130
    3.746
    0.657
   -2.784
   -5.095
   -5.431
   -4.033
   -1.987
   -0.404
    0.284
    0.330
    0.204
    0.278
    0.806
    1.840
    2.993
    3.533
    2.946
    1.412
   -0.372
   -1.756
   -2.480
   -2.634
   -2.503
   -2.360
   -2.251
   -1.949
   -1.193
    0.025
    1.468
    2.817
    3.710
    3.750
    2.738
    0.982
   -0.721
   -1.574
   -1.327
   -0.427
    0.318
    0.256
   -0.745
   -2.194
   -3.197
   -2.996
   -1.554
    0.447
    2.221
    3.355
    3.625
    2.782
    1.000
   -0.710
   -1.160
   -0.227
    0.946
    1.102
   -0.067
   -1.942
   -3.554
   -4.046
   -3.129
   -1.417
   -0.010
    0.542
    0.674
    1.088
    1.926
    2.806
    3.294
    3.083
    2.003
    0.229
   -1.579
   -2.531
   -1.991
   -0.047
    2.191
    2.988
    1.276
   -2.186
   -5.175
   -5.713
   -3.484
    0.132
    3.062
    3.830
    2.465
    0.348
   -1.047
   -1.253
   -0.629
    0.458
    1.682
    2.330
    1.681
   -0.004
   -1.480
   -1.769
   -1.009
    0.047
    0.894
    1.346
    1.172
    0.126
   -1.639
   -3.362
   -3.993
   -2.911
   -0.542
    1.803
    2.919
    2.594
    1.523
    0.540
    0.160
    0.603
    1.757
    3.027
    3.607
    3.124
    1.857
    0.232
   -1.591
   -3.446
   -4.794
   -5.051
   -4.229
   -3.015
   -2.140
   -1.793
   -1.593
   -1.028
    0.048
    1.236
    2.020
    2.461
    3.242
    4.749
    6.243
    6.316
    4.223
    0.600
   -3.056
   -5.306
   -5.363
   -3.416
   -0.707
    1.018
    0.662
   -1.392
   -3.598
   -4.406
   -3.220
   -0.584
    2.250
    3.951
    3.802
    2.211
    0.535
    0.029
    0.790
    1.796
    2.019
    1.327
    0.343
   -0.273
   -0.319
   -0.164
   -0.514
   -1.745
   -3.246
   -3.746
   -2.615
   -0.608
    0.904
    1.225
    0.638
   -0.234
   -0.921
   -1.107
   -0.609
    0.462
    1.708
    2.719
    3.317
    3.519
    3.338
    2.721
    1.678
    0.346
   -1.194
   -3.065
   -5.219
   -6.865
   -6.721
   -4.208
   -0.285
    3.113
    4.319
    2.774
   -0.653
   -3.761
   -4.101
   -0.863
    4.185
    7.984
    8.391
    5.295
    0.409
   -3.510
   -4.063
   -1.106
    2.599
    3.387
   -0.304
   -6.808
  -12.529
  -13.942
   -9.304
   -0.034
    9.310
   13.722
   11.506
    5.434
    0.162
   -1.239
    1.278
    5.326
    7.470
    5.227
   -0.859
   -7.082
   -9.383
   -6.704
   -1.583
    2.256
    2.686
    0.143
   -3.301
   -5.546
   -5.601
   -3.730
   -1.018
    1.069
    1.271
   -0.477
   -2.518
   -2.628
   -0.106
    3.569
    6.309
    7.211
    6.615
    5.043
    2.796
    0.428
   -1.146
   -1.332
   -0.469
    0.340
   -0.019
   -1.861
   -4.314
   -5.832
   -5.433
   -3.463
   -1.096
    0.681
    1.437
    1.215
    0.717
    1.260
    3.661
    6.947
    8.736
    7.212
    2.540
   -3.506
   -8.721
  -11.308
  -10.443
   -6.799
   -2.454
    0.274
    0.382
   -1.114
   -2.019
   -0.773
    2.231
    5.144
    6.424
    5.975
    4.668
    3.365
    2.654
    2.855
    3.629
    3.890
    2.802
    0.822
   -0.753
   -1.255
   -1.275
   -1.823
   -3.210
   -4.826
   -5.802
   -5.838
   -5.394
   -5.030
   -4.628
   -3.565
   -1.701
    0.203
    1.341
    1.890
    2.852
    4.877
    7.362
    8.685
    7.392
    3.482
   -1.265
   -4.350
   -4.239
   -1.361
    2.187
    3.892
    2.390
   -1.491
   -5.156
   -6.147
   -3.967
   -0.199
    2.863
    3.637
    1.918
   -1.082
   -3.340
   -3.256
   -0.817
    2.362
    4.165
    3.351
    0.274
   -3.362
   -5.550
   -5.194
   -2.599
    0.958
    3.939
    4.999
    3.446
   -0.126
   -3.793
   -5.439
   -4.280
   -1.289
    1.754
    3.445
    3.279
    1.665
   -0.194
   -0.792
    0.688
    3.571
    5.970
    6.095
    3.588
   -0.155
   -2.960
   -3.443
   -1.935
    0.021
    1.018
    0.613
   -0.862
   -2.768
   -4.256
   -4.383
   -2.737
    0.010
    2.450
    3.435
    2.717
    0.825
   -1.323
   -2.681
   -2.397
   -0.378
    2.320
    3.859
    2.792
   -0.750
   -4.899
   -7.267
   -6.627
   -3.657
   -0.214
    2.058
    2.656
    2.191
    1.713
    1.956
    2.922
    3.951
    4.225
    3.399
    1.935
    0.806
    0.752
    1.726
    2.989
    3.618
    2.842
    0.210
   -4.029
   -8.469
  -10.911
   -9.797
   -5.588
   -0.602
    2.681
    3.360
    2.409
    1.450
    1.274
    1.430
    1.095
    0.127
   -0.850
   -1.255
   -1.168
   -1.072
   -1.171
   -1.144
   -0.595
    0.347
    1.008
    0.874
    0.300
    0.298
    1.463
    3.207
    4.234
    3.755
    2.198
    0.825
    0.711
    1.914
    3.394
    3.751
    2.271
   -0.528
   -3.228
   -4.392
   -3.451
   -1.186
    0.535
   -0.005
   -2.878
   -6.226
   -7.712
   -6.349
   -2.989
    0.617
    2.963
    3.379
    2.209
    0.629
   -0.134
    0.196
    0.751
    0.438
   -1.009
   -2.834
   -3.872
   -3.240
   -0.742
    2.977
    6.536
    8.338
    7.492
    4.627
    1.714
    0.665
    1.736
    3.317
    3.430
    1.404
   -1.858
   -4.862
   -6.433
   -5.990
   -3.713
   -0.734
    1.275
    1.184
   -0.847
   -3.663
   -5.876
   -6.342
   -4.491
   -0.852
    2.869
    4.828
    4.433
    2.576
    0.573
   -0.812
   -1.422
   -1.424
   -1.223
   -1.199
   -1.131
   -0.132
    2.414
    5.928
    8.916
   10.075
    8.970
    5.937
    1.850
   -2.079
   -4.818
   -6.075
   -6.212
   -5.650
   -4.642
   -3.542
   -2.779
   -2.363
   -1.722
   -0.325
    1.641
    3.349
    3.936
    3.016
    0.878
   -1.609
   -3.471
   -4.271
   -4.316
   -4.120
   -3.753
   -2.852
   -1.204
    0.848
    2.594
    3.423
    3.198
    2.407
    1.969
    2.614
    4.218
    5.811
    6.321
    5.323
    3.154
    0.581
   -1.565
   -2.735
   -2.987
   -2.932
   -3.162
   -3.710
   -4.145
   -4.102
   -3.529
   -2.464
   -0.917
    0.816
    1.950
    1.714
    0.231
   -1.270
   -1.355
    0.399
    2.948
    4.409
    3.287
   -0.349
   -4.509
   -6.354
   -4.300
    0.519
    4.922
    6.052
    3.403
   -1.047
   -4.375
   -4.606
   -1.714
    2.641
    6.256
    7.553
    6.228
    3.223
    0.168
   -1.497
   -1.284
    0.176
    1.665
    2.164
    1.351
   -0.383
   -2.266
   -3.620
   -4.236
   -4.516
   -5.195
   -6.651
   -8.207
   -8.343
   -6.009
   -1.840
    2.207
    4.519
    4.964
    4.511
    4.213
    4.635
    5.712
    6.715
    6.592
    4.764
    1.683
   -1.452
   -3.469
   -3.865
   -3.106
   -2.384
   -2.708
   -3.930
   -4.828
   -4.298
   -2.287
    0.471
    3.229
    5.465
    6.662
    6.341
    4.436
    1.546
   -1.228
   -2.796
   -2.760
   -1.772
   -1.094
   -1.584
   -3.054
   -4.524
   -4.978
   -3.978
   -1.856
    0.495
    2.169
    2.812
    2.754
    2.622
    2.805
    3.210
    3.408
    3.061
    2.290
    1.608
    1.383
    1.406
    1.035
   -0.229
   -2.263
   -4.230
   -4.986
   -3.910
   -1.636
    0.196
    0.242
   -1.419
   -3.429
   -4.251
   -3.101
   -0.234
    3.179
    5.549
    5.743
    3.825
    0.954
   -1.412
   -2.288
   -1.506
    0.266
    1.854
    2.268
    1.292
   -0.572
   -2.587
   -4.135
   -4.842
   -4.673
   -3.900
   -2.791
   -1.372
    0.355
    2.061
    3.197
    3.518
    3.368
    3.399
    3.969
    4.762
    4.955
    3.882
    1.655
   -0.853
   -2.572
   -2.806
   -1.536
    0.474
    1.919
    1.711
   -0.224
   -2.914
   -5.065
   -5.717
   -4.499
   -1.828
    0.953
    2.175
    1.119
   -1.248
   -2.996
   -2.730
   -0.475
    2.564
    4.821
    5.172
    3.448
    0.538
   -2.064
   -3.122
   -2.390
   -0.676
    0.833
    1.415
    1.121
    0.413
   -0.372
   -1.179
   -2.006
   -2.667
   -2.755
   -1.830
    0.222
    2.906
    5.271
    6.442
    6.076
    4.393
    1.986
   -0.365
   -1.975
   -2.621
   -2.644
   -2.606
   -2.875
   -3.481
   -4.134
   -4.318
   -3.588
   -1.992
   -0.163
    1.095
    1.294
    0.451
   -0.905
   -1.870
   -1.640
   -0.126
    1.995
    3.904
    5.195
    5.773
    5.496
    4.238
    2.265
    0.354
   -0.666
   -0.566
    0.039
    0.167
   -0.705
   -2.256
   -3.714
   -4.518
