Origin Time       16/4/2013 10:44:11	
Lat.              28.0 N	
Long.             62.1 E	
Depth (Km)         46.0
Magnitude         7.8
 Region           Iran-Pakistan-Border-Region                                      
 Above details taken from IMD 
   
Station Code       ALIP
Station Lat.       28.795
Station Long.      77.141
Station Height(m)   98.0
Site Class        C   Vs30 between 200 m/sec to 375 m/sec *  
Record Time        4/16/2013 6) 10:48:57.
Sampling Rate     200. Hz
 Record Duration  107.000 Sec.
 Direction         Vert. (Up positive)
Max. Acceleration  -1.392 cm/sec**2
     
  * For reference see Site Classification link of website 
     
 Base Line Corrected and Low Pass Filtered (Cut Off at 35 Hz) Time History
 Acceleration data in cm/sec**2
    
[...]
   -0.086
    0.093
    0.294
    0.502
    0.699
    0.864
    0.982
    1.045
    1.050
    1.001
    0.904
    0.774
    0.631
    0.500
    0.402
    0.347
    0.332
    0.341
    0.356
    0.362
    0.348
    0.309
    0.244
    0.163
    0.082
    0.019
   -0.011
    0.000
    0.049
    0.124
    0.213
    0.311
    0.417
    0.532
    0.647
    0.748
    0.819
    0.850
    0.841
    0.797
    0.724
    0.625
    0.509
    0.384
    0.264
    0.164
    0.097
    0.068
    0.074
    0.108
    0.162
    0.229
    0.305
    0.390
    0.484
    0.579
    0.659
    0.704
    0.701
    0.654
    0.575
    0.479
    0.371
    0.253
    0.126
    0.000
   -0.110
   -0.193
   -0.251
   -0.298
   -0.349
   -0.414
   -0.491
   -0.574
   -0.655
   -0.729
   -0.800
   -0.867
   -0.926
   -0.962
   -0.958
   -0.900
   -0.788
   -0.636
   -0.465
   -0.294
   -0.138
    0.001
    0.125
    0.237
    0.333
    0.396
    0.409
    0.365
    0.269
    0.143
    0.009
   -0.114
   -0.213
   -0.281
   -0.315
   -0.315
   -0.284
   -0.230
   -0.161
   -0.093
   -0.035
    0.004
    0.019
    0.010
   -0.025
   -0.096
   -0.212
   -0.377
   -0.575
   -0.770
   -0.922
   -1.002
   -1.007
   -0.955
   -0.873
   -0.782
   -0.687
   -0.578
   -0.445
   -0.290
   -0.132
   -0.003
    0.072
    0.080
    0.030
   -0.057
   -0.159
   -0.266
   -0.378
   -0.498
   -0.622
   -0.735
   -0.820
   -0.866
   -0.870
   -0.841
   -0.783
   -0.702
   -0.599
   -0.483
   -0.367
   -0.274
   -0.221
   -0.222
   -0.278
   -0.387
   -0.537
   -0.709
   -0.878
   -1.019
   -1.112
   -1.147
   -1.116
   -1.013
   -0.835
   -0.590
   -0.305
   -0.022
    0.218
    0.391
    0.499
    0.555
    0.573
    0.557
    0.502
    0.406
    0.288
    0.176
    0.097
    0.061
    0.060
    0.078
    0.099
    0.124
    0.163
    0.224
    0.303
    0.384
    0.447
    0.476
    0.463
    0.404
    0.299
    0.161
    0.011
   -0.120
   -0.212
   -0.261
   -0.273
   -0.260
   -0.225
   -0.165
   -0.072
    0.046
    0.171
    0.282
    0.367
    0.428
    0.469
    0.494
    0.500
    0.490
    0.476
    0.473
    0.487
    0.514
    0.543
    0.562
    0.567
    0.564
    0.558
    0.550
    0.538
    0.514
    0.475
    0.418
    0.342
    0.249
    0.141
    0.022
   -0.105
   -0.233
   -0.353
   -0.450
   -0.507
   -0.507
   -0.449
   -0.351
   -0.241
   -0.143
   -0.061
    0.020
    0.117
    0.233
    0.359
    0.475
    0.559
    0.598
    0.590
    0.545
    0.478
    0.401
    0.317
    0.232
    0.158
    0.107
    0.074
    0.049
    0.021
   -0.020
   -0.085
   -0.179
   -0.296
   -0.419
   -0.529
   -0.614
   -0.673
   -0.708
   -0.718
   -0.694
   -0.625
   -0.513
   -0.367
   -0.198
   -0.019
    0.159
    0.333
    0.498
    0.645
    0.760
    0.830
    0.847
    0.812
    0.730
    0.610
    0.468
    0.320
    0.176
    0.043
   -0.083
   -0.198
   -0.294
   -0.355
   -0.367
   -0.326
   -0.235
   -0.103
    0.056
    0.227
    0.392
    0.540
    0.660
    0.745
    0.791
    0.799
    0.776
    0.739
    0.704
    0.682
    0.669
    0.657
    0.639
    0.618
    0.598
    0.575
    0.541
    0.489
    0.418
    0.336
    0.251
    0.162
    0.063
   -0.050
   -0.175
   -0.302
   -0.424
   -0.536
   -0.638
   -0.723
   -0.783
   -0.806
   -0.792
   -0.748
   -0.684
   -0.612
   -0.540
   -0.481
   -0.446
   -0.440
   -0.456
   -0.481
   -0.500
   -0.502
   -0.488
   -0.457
   -0.407
   -0.331
   -0.225
   -0.094
    0.049
    0.189
    0.308
    0.393
    0.435
    0.438
    0.412
    0.372
    0.327
    0.273
    0.202
    0.113
    0.016
   -0.069
   -0.124
   -0.145
   -0.142
   -0.132
   -0.127
   -0.128
   -0.127
   -0.115
   -0.093
   -0.070
   -0.059
   -0.071
   -0.112
   -0.176
   -0.256
   -0.338
   -0.413
   -0.469
   -0.496
   -0.484
   -0.428
   -0.335
   -0.220
   -0.107
   -0.014
    0.049
    0.084
    0.097
    0.095
    0.077
    0.038
   -0.029
   -0.120
   -0.216
   -0.290
   -0.320
   -0.302
   -0.247
   -0.174
   -0.098
   -0.020
    0.063
    0.153
    0.239
    0.298
    0.313
    0.277
    0.198
    0.096
   -0.006
   -0.093
   -0.164
   -0.233
   -0.311
   -0.399
   -0.480
   -0.533
   -0.549
   -0.541
   -0.532
   -0.544
   -0.578
   -0.616
   -0.632
   -0.613
   -0.562
   -0.501
   -0.449
   -0.416
   -0.390
   -0.351
   -0.278
   -0.174
   -0.061
    0.031
    0.080
    0.084
    0.060
    0.029
   -0.002
   -0.041
   -0.108
   -0.210
   -0.333
   -0.448
   -0.526
   -0.550
   -0.521
   -0.449
   -0.341
   -0.201
   -0.031
    0.160
    0.357
    0.537
    0.676
    0.766
    0.813
    0.834
    0.843
    0.844
    0.826
    0.771
    0.678
    0.570
    0.480
    0.421
    0.378
    0.324
    0.246
    0.160
    0.098
    0.080
    0.099
    0.128
    0.142
    0.138
    0.134
    0.152
    0.204
    0.273
    0.333
    0.360
    0.348
    0.310
    0.262
    0.213
    0.165
    0.115
    0.070
    0.047
    0.057
    0.098
    0.154
    0.208
    0.254
    0.299
    0.351
    0.412
    0.471
    0.514
    0.530
    0.518
    0.489
    0.457
    0.432
    0.411
    0.382
    0.333
    0.264
    0.185
    0.117
    0.077
    0.075
    0.109
    0.169
    0.239
    0.300
    0.338
    0.344
    0.321
    0.277
    0.227
    0.180
    0.131
    0.071
   -0.011
   -0.113
   -0.219
   -0.304
   -0.354
   -0.366
   -0.347
   -0.307
   -0.251
   -0.171
   -0.054
    0.106
    0.291
    0.466
    0.590
    0.638
    0.617
    0.557
    0.492
    0.433
    0.365
    0.260
    0.106
   -0.079
   -0.256
   -0.389
   -0.465
   -0.498
   -0.509
   -0.509
   -0.497
   -0.463
   -0.403
   -0.325
   -0.250
   -0.197
   -0.177
   -0.188
   -0.227
   -0.284
   -0.354
   -0.435
   -0.521
   -0.598
   -0.640
   -0.624
   -0.544
   -0.425
   -0.304
   -0.213
   -0.156
   -0.110
   -0.043
    0.059
    0.173
    0.259
    0.286
    0.257
    0.209
    0.184
    0.202
    0.251
    0.297
    0.307
    0.275
    0.217
    0.164
    0.132
    0.112
    0.082
    0.024
   -0.069
   -0.193
   -0.340
   -0.495
   -0.637
   -0.735
   -0.764
   -0.710
   -0.585
   -0.418
   -0.241
   -0.075
    0.073
    0.198
    0.299
    0.369
    0.407
    0.414
    0.399
    0.373
    0.343
    0.310
    0.272
    0.228
    0.184
    0.148
    0.127
    0.122
    0.126
    0.124
    0.100
    0.046
   -0.033
   -0.129
   -0.230
   -0.335
   -0.446
   -0.568
   -0.700
   -0.827
   -0.921
   -0.950
   -0.895
   -0.766
   -0.591
   -0.406
   -0.237
   -0.084
    0.064
    0.220
    0.377
    0.510
    0.588
    0.592
    0.523
    0.398
    0.239
    0.064
   -0.112
   -0.272
   -0.397
   -0.466
   -0.469
   -0.411
   -0.314
   -0.203
   -0.097
    0.003
    0.101
    0.203
    0.301
    0.380
    0.425
    0.435
    0.423
    0.409
    0.406
    0.411
    0.414
    0.412
    0.407
    0.411
    0.433
    0.472
    0.517
    0.554
    0.568
    0.553
    0.510
    0.448
    0.374
    0.296
    0.212
    0.122
    0.030
   -0.052
   -0.109
   -0.136
   -0.144
   -0.154
   -0.181
   -0.231
   -0.294
   -0.361
   -0.428
   -0.497
   -0.568
   -0.633
   -0.677
   -0.693
   -0.691
   -0.685
   -0.683
   -0.678
   -0.651
   -0.587
   -0.479
   -0.339
   -0.185
   -0.037
    0.089
    0.181
    0.230
    0.235
    0.201
    0.144
    0.089
    0.052
    0.040
    0.040
    0.036
    0.013
   -0.025
   -0.064
   -0.089
   -0.095
   -0.088
   -0.078
   -0.070
   -0.065
   -0.057
   -0.041
   -0.021
   -0.007
   -0.012
   -0.043
   -0.095
   -0.154
   -0.200
   -0.225
   -0.229
   -0.216
   -0.188
   -0.146
   -0.085
   -0.008
    0.074
    0.147
    0.203
    0.242
    0.272
    0.298
    0.318
    0.326
    0.316
    0.292
    0.264
    0.242
    0.229
    0.220
    0.209
    0.192
    0.167
    0.134
    0.089
    0.028
   -0.052
   -0.152
   -0.270
   -0.396
   -0.521
   -0.629
   -0.710
   -0.753
   -0.754
   -0.718
   -0.655
   -0.576
   -0.490
   -0.403
   -0.313
   -0.221
   -0.121
   -0.016
    0.088
    0.175
    0.229
    0.239
    0.204
    0.135
    0.050
   -0.032
   -0.095
   -0.131
   -0.141
   -0.127
   -0.099
   -0.074
   -0.063
   -0.069
   -0.081
   -0.086
   -0.083
   -0.083
   -0.103
   -0.152
   -0.225
   -0.304
   -0.372
   -0.420
   -0.446
   -0.452
   -0.437
   -0.398
   -0.337
   -0.264
   -0.192
   -0.130
   -0.071
    0.000
    0.094
    0.213
    0.340
    0.447
    0.512
    0.525
    0.493
    0.436
    0.372
    0.312
    0.255
    0.194
    0.127
    0.061
    0.013
   -0.007
    0.002
    0.030
    0.062
    0.092
    0.120
    0.149
    0.179
    0.201
    0.203
    0.174
    0.112
    0.022
   -0.088
   -0.202
   -0.306
   -0.385
   -0.435
   -0.455
   -0.451
   -0.426
   -0.377
   -0.305
   -0.209
   -0.092
    0.037
    0.166
    0.282
    0.371
    0.424
    0.440
    0.423
    0.384
    0.337
    0.300
    0.283
    0.293
    0.325
    0.366
    0.404
    0.432
    0.449
    0.462
    0.476
    0.494
    0.506
    0.498
    0.456
    0.378
    0.276
    0.173
    0.089
    0.028
   -0.015
   -0.054
   -0.100
   -0.158
   -0.222
   -0.283
   -0.334
   -0.374
   -0.405
   -0.431
   -0.447
   -0.444
   -0.411
   -0.340
   -0.234
   -0.101
    0.044
    0.189
    0.322
    0.436
    0.531
    0.609
    0.673
    0.715
    0.722
    0.686
    0.609
    0.505
    0.385
    0.257
    0.122
   -0.021
   -0.166
   -0.298
   -0.399
   -0.462
   -0.489
   -0.487
   -0.464
   -0.426
   -0.382
   -0.342
   -0.319
   -0.313
   -0.318
   -0.321
   -0.307
   -0.272
   -0.230
   -0.206
   -0.218
   -0.260
   -0.311
   -0.344
   -0.352
   -0.348
   -0.353
   -0.378
   -0.415
   -0.445
   -0.448
   -0.421
   -0.371
   -0.309
   -0.241
   -0.168
   -0.089
   -0.009
    0.060
    0.106
    0.119
    0.101
    0.061
    0.017
   -0.021
   -0.048
   -0.070
   -0.092
   -0.115
   -0.132
   -0.135
   -0.113
   -0.061
    0.024
    0.141
    0.289
    0.459
    0.636
    0.798
    0.928
    1.009
    1.038
    1.020
    0.968
    0.891
    0.795
    0.678
    0.537
    0.375
    0.206
    0.048
   -0.078
   -0.156
   -0.180
   -0.154
   -0.092
   -0.009
    0.078
    0.160
    0.225
    0.267
    0.285
    0.286
    0.278
    0.268
    0.253
    0.228
    0.189
    0.139
    0.092
    0.062
    0.061
    0.096
    0.161
    0.241
    0.311
    0.348
    0.339
    0.287
    0.209
    0.131
    0.074
    0.044
    0.028
    0.006
   -0.037
   -0.105
   -0.182
   -0.245
   -0.278
   -0.278
   -0.258
   -0.236
   -0.224
   -0.218
   -0.212
   -0.204
   -0.200
   -0.203
   -0.212
   -0.216
   -0.200
   -0.147
   -0.047
    0.094
    0.256
    0.411
    0.533
    0.608
    0.637
    0.632
    0.605
    0.555
    0.477
    0.366
    0.228
    0.080
   -0.061
   -0.178
   -0.260
   -0.304
   -0.315
   -0.298
   -0.267
   -0.235
   -0.216
   -0.217
   -0.234
   -0.258
   -0.278
   -0.293
   -0.306
   -0.326
   -0.357
   -0.398
   -0.440
   -0.471
   -0.478
   -0.454
   -0.393
   -0.299
   -0.183
   -0.060
    0.053
    0.145
    0.216
    0.265
    0.290
    0.285
    0.243
    0.168
    0.075
   -0.016
   -0.099
   -0.180
   -0.270
   -0.370
   -0.465
   -0.529
   -0.542
   -0.500
   -0.417
   -0.310
   -0.193
   -0.078
    0.022
    0.094
    0.122
    0.103
    0.047
   -0.027
   -0.102
   -0.169
   -0.225
   -0.275
   -0.321
   -0.367
   -0.411
   -0.442
   -0.446
   -0.408
   -0.326
   -0.215
   -0.101
   -0.014
    0.031
    0.039
    0.029
    0.028
    0.054
    0.110
    0.183
    0.253
    0.296
    0.302
    0.276
    0.242
    0.224
    0.234
    0.268
    0.305
    0.330
    0.332
    0.311
    0.273
    0.219
    0.152
    0.080
    0.018
   -0.019
   -0.025
   -0.010
    0.006
    0.004
   -0.021
   -0.057
   -0.081
   -0.081
   -0.065
   -0.058
   -0.082
   -0.145
   -0.235
   -0.334
   -0.421
   -0.487
   -0.526
   -0.538
   -0.518
   -0.460
   -0.359
   -0.217
   -0.043
    0.148
    0.339
    0.504
    0.620
    0.667
    0.641
    0.553
    0.433
    0.307
    0.193
    0.087
   -0.018
   -0.123
   -0.213
   -0.270
   -0.285
   -0.267
   -0.235
   -0.208
   -0.195
   -0.194
   -0.201
   -0.212
   -0.227
   -0.251
   -0.290
   -0.347
   -0.421
   -0.503
   -0.578
   -0.624
   -0.626
   -0.575
   -0.473
   -0.327
   -0.148
    0.045
    0.230
    0.388
    0.508
    0.586
    0.631
    0.651
    0.649
    0.621
    0.560
    0.465
    0.350
    0.235
    0.144
    0.087
    0.058
    0.044
    0.031
    0.017
    0.004
    0.000
    0.001
    0.002
   -0.002
   -0.008
   -0.009
    0.002
    0.031
    0.080
    0.152
    0.246
    0.354
    0.457
    0.537
    0.583
    0.597
    0.591
    0.577
    0.557
    0.523
    0.466
    0.385
    0.292
    0.203
    0.130
    0.070
    0.010
   -0.064
   -0.150
   -0.234
   -0.298
   -0.338
   -0.359
   -0.371
   -0.379
   -0.378
   -0.370
   -0.360
   -0.361
   -0.382
   -0.420
   -0.464
   -0.497
   -0.504
   -0.477
   -0.414
   -0.323
   -0.219
   -0.119
   -0.039
    0.016
    0.044
    0.055
    0.058
    0.068
    0.091
    0.129
    0.172
    0.202
    0.200
    0.157
    0.080
   -0.009
   -0.088
   -0.140
   -0.160
   -0.148
   -0.108
   -0.046
    0.028
    0.104
    0.172
    0.227
    0.257
    0.250
    0.197
    0.092
   -0.056
   -0.229
   -0.397
   -0.537
   -0.634
   -0.685
   -0.691
   -0.653
   -0.575
   -0.464
   -0.326
   -0.168
    0.005
    0.183
    0.350
    0.488
    0.585
    0.634
    0.643
    0.623
    0.585
    0.534
    0.465
    0.369
    0.235
    0.058
   -0.155
   -0.388
   -0.617
   -0.822
   -0.996
   -1.140
   -1.256
   -1.343
   -1.392
   -1.390
   -1.331
   -1.222
   -1.078
   -0.918
   -0.757
   -0.606
   -0.475
   -0.369
   -0.293
   -0.246
   -0.218
   -0.191
   -0.149
   -0.083
    0.002
    0.099
    0.195
    0.287
    0.375
    0.456
    0.526
    0.584
    0.627
    0.653
    0.655
    0.625
    0.561
    0.468
    0.357
    0.239
    0.122
    0.016
   -0.074
   -0.144
   -0.197
   -0.240
   -0.273
   -0.289
   -0.276
   -0.228
   -0.150
   -0.061
    0.026
    0.105
    0.185
    0.270
    0.359
    0.439
    0.498
    0.529
    0.535
    0.529
    0.521
    0.515
    0.510
    0.501
    0.488
    0.473
    0.460
    0.454
    0.451
    0.446
    0.435
    0.415
    0.383
    0.333
    0.261
    0.176
    0.096
    0.041
    0.022
    0.035
    0.059
    0.072
    0.060
    0.028
   -0.006
   -0.021
   -0.010
    0.016
    0.036
    0.032
    0.000
   -0.046
   -0.075
   -0.064
   -0.003
    0.095
    0.211
    0.322
    0.416
    0.487
    0.535
    0.559
    0.559
    0.526
    0.454
    0.336
    0.179
   -0.001
   -0.176
   -0.323
   -0.431
   -0.508
   -0.562
   -0.592
   -0.586
   -0.528
   -0.417
   -0.265
   -0.095
    0.072
    0.223
    0.346
    0.428
    0.457
    0.427
    0.348
    0.242
    0.137
    0.051
   -0.014
   -0.066
   -0.113
   -0.158
   -0.194
   -0.205
   -0.180
   -0.118
   -0.037
    0.029
    0.048
    0.006
   -0.086
   -0.192
   -0.278
   -0.325
   -0.337
   -0.336
   -0.345
   -0.371
   -0.405
   -0.427
   -0.422
   -0.387
   -0.330
   -0.268
   -0.205
   -0.138
   -0.055
    0.044
    0.147
    0.231
    0.275
    0.274
    0.236
    0.178
    0.116
    0.058
    0.002
   -0.057
   -0.124
   -0.198
   -0.274
   -0.341
   -0.394
   -0.434
   -0.461
   -0.473
   -0.458
   -0.407
   -0.321
   -0.214
   -0.106
   -0.009
    0.075
    0.152
    0.225
    0.287
    0.323
    0.319
    0.274
    0.192
    0.080
   -0.056
   -0.211
   -0.377
   -0.540
   -0.684
   -0.791
   -0.854
   -0.867
   -0.831
   -0.744
   -0.603
   -0.406
   -0.164
    0.101
    0.363
    0.595
    0.779
    0.908
    0.988
    1.027
    1.030
    0.997
    0.926
    0.818
    0.683
    0.542
    0.416
    0.322
    0.264
    0.233
    0.223
    0.230
    0.260
    0.313
    0.384
    0.458
    0.523
    0.574
    0.610
    0.632
    0.638
    0.615
    0.553
    0.449
    0.318
    0.187
    0.080
    0.006
   -0.041
   -0.074
   -0.102
   -0.120
   -0.109
   -0.052
    0.054
    0.193
    0.339
    0.463
    0.547
    0.579
    0.558
    0.496
    0.410
    0.320
    0.239
    0.172
    0.119
    0.077
    0.047
    0.032
    0.036
    0.063
    0.110
    0.170
    0.232
    0.276
    0.293
    0.278
    0.239
    0.183
    0.115
    0.034
   -0.064
   -0.183
   -0.324
   -0.476
   -0.617
   -0.714
   -0.742
   -0.693
   -0.583
   -0.446
   -0.314
   -0.205
   -0.118
   -0.042
    0.031
    0.096
    0.138
    0.144
    0.114
    0.060
    0.004
   -0.037
   -0.057
   -0.060
   -0.056
   -0.050
   -0.044
   -0.039
   -0.036
   -0.041
   -0.055
   -0.071
   -0.078
   -0.072
   -0.064
   -0.072
   -0.108
   -0.163
   -0.209
   -0.225
   -0.217
   -0.210
   -0.237
   -0.310
   -0.415
   -0.520
   -0.597
   -0.638
   -0.658
   -0.673
   -0.694
   -0.713
   -0.719
   -0.702
   -0.654
   -0.570
   -0.455
   -0.321
   -0.184
   -0.061
    0.040
    0.119
    0.184
    0.243
    0.298
    0.342
    0.365
    0.362
    0.337
    0.301
    0.268
    0.250
    0.250
    0.256
    0.255
    0.236
    0.203
    0.166
    0.137
    0.120
    0.112
    0.104
    0.086
    0.054
    0.014
   -0.024
   -0.049
   -0.056
   -0.044
   -0.014
    0.033
    0.089
    0.146
    0.190
    0.205
    0.186
    0.136
    0.065
   -0.015
   -0.098
   -0.184
   -0.263
   -0.319
   -0.334
   -0.301
   -0.231
   -0.149
   -0.087
   -0.064
   -0.081
   -0.125
   -0.183
   -0.247
   -0.320
   -0.405
   -0.495
   -0.575
   -0.631
   -0.654
   -0.653
   -0.637
   -0.615
   -0.582
   -0.530
   -0.448
   -0.335
   -0.203
   -0.072
    0.034
    0.100
    0.117
    0.087
    0.017
   -0.087
   -0.211
   -0.339
   -0.442
   -0.491
   -0.470
   -0.385
   -0.266
   -0.148
   -0.053
    0.016
    0.076
    0.144
    0.226
    0.306
    0.352
    0.329
    0.225
    0.055
   -0.143
   -0.333
   -0.490
   -0.608
   -0.683
   -0.712
   -0.682
   -0.588
   -0.434
   -0.245
   -0.049
    0.129
    0.275
    0.381
    0.443
    0.451
    0.400
    0.291
    0.137
   -0.037
   -0.196
   -0.306
   -0.348
   -0.316
   -0.219
   -0.075
    0.099
    0.285
    0.469
    0.639
    0.778
    0.869
    0.893
    0.843
    0.726
    0.566
    0.391
    0.221
    0.068
   -0.071
   -0.196
   -0.298
   -0.360
   -0.365
   -0.311
   -0.211
   -0.085
    0.046
    0.176
    0.308
    0.443
    0.577
    0.691
    0.762
    0.777
    0.734
    0.645
    0.529
    0.402
    0.278
    0.165
    0.071
   -0.002
   -0.048
   -0.065
   -0.058
   -0.034
    0.000
    0.041
    0.095
    0.165
    0.247
    0.330
    0.396
    0.433
    0.434
    0.397
    0.333
    0.257
    0.190
    0.148
    0.138
    0.156
    0.188
    0.225
    0.259
    0.287
    0.301
    0.292
    0.255
    0.191
    0.113
    0.037
   -0.018
   -0.040
   -0.027
    0.014
    0.072
    0.135
    0.194
    0.245
    0.281
    0.292
    0.263
    0.187
    0.067
   -0.078
   -0.226
   -0.360
   -0.470
   -0.554
   -0.608
   -0.624
   -0.589
   -0.500
   -0.359
   -0.177
    0.030
    0.244
    0.442
    0.603
    0.707
    0.748
    0.728
    0.662
    0.565
    0.458
    0.360
    0.288
    0.249
    0.245
    0.270
    0.316
    0.366
    0.408
    0.433
    0.440
    0.429
    0.402
    0.359
    0.299
    0.224
    0.142
    0.065
    0.003
   -0.041
   -0.068
   -0.081
   -0.077
   -0.051
   -0.005
    0.047
    0.081
    0.074
    0.016
   -0.085
   -0.208
