Origin Time       20/06/2011 06:27:18
Lat.              30.5 N	
Long.             79.4 E	
Depth (Km)         12.0
Magnitude         4.6
 Region           Chamoli-Uttarakhand                                              
 Above details taken from IMD 
   
Station Code      ALM
Station Lat.       29.596
Station Long.      79.657
Station Height(m) 1642.0
Site Class        A   Vs30 between 700 m/sec to 1400 m/sec * 
Record Time       20.06.2011 06:27:25.634
Sampling Rate     200. Hz
 Record Duration   81.065 Sec.
 Direction         Vert. (Up positive)
Max. Acceleration      1.790 cm/sec**2
     
  * For reference see Site Classification link of website 
     
 Base Line Corrected and Low Pass Filtered (Cut Off at 35 Hz) Time History
 Acceleration data in cm/sec**2
    
[...]
      -0.097
      -0.019
       0.038
       0.072
       0.103
       0.140
       0.157
       0.120
       0.030
      -0.056
      -0.082
      -0.035
       0.031
       0.041
      -0.044
      -0.196
      -0.351
      -0.458
      -0.512
      -0.533
      -0.535
      -0.514
      -0.466
      -0.398
      -0.326
      -0.268
      -0.233
      -0.208
      -0.160
      -0.066
       0.060
       0.175
       0.237
       0.241
       0.214
       0.191
       0.186
       0.175
       0.129
       0.057
      -0.003
      -0.025
      -0.040
      -0.093
      -0.189
      -0.267
      -0.253
      -0.126
       0.061
       0.216
       0.282
       0.279
       0.275
       0.315
       0.376
       0.405
       0.370
       0.293
       0.215
       0.168
       0.146
       0.114
       0.043
      -0.059
      -0.149
      -0.198
      -0.222
      -0.257
      -0.315
      -0.363
      -0.359
      -0.295
      -0.208
      -0.150
      -0.141
      -0.156
      -0.149
      -0.108
      -0.054
      -0.014
       0.020
       0.069
       0.136
       0.198
       0.228
       0.217
       0.176
       0.122
       0.066
       0.004
      -0.063
      -0.122
      -0.150
      -0.139
      -0.103
      -0.059
      -0.006
       0.057
       0.120
       0.167
       0.192
       0.205
       0.223
       0.256
       0.304
       0.349
       0.361
       0.328
       0.264
       0.196
       0.135
       0.070
      -0.009
      -0.095
      -0.161
      -0.175
      -0.122
      -0.033
       0.044
       0.081
       0.102
       0.150
       0.237
       0.326
       0.361
       0.305
       0.172
       0.019
      -0.099
      -0.166
      -0.212
      -0.261
      -0.297
      -0.285
      -0.220
      -0.136
      -0.089
      -0.109
      -0.180
      -0.248
      -0.257
      -0.196
      -0.103
      -0.030
       0.004
       0.018
       0.042
       0.088
       0.136
       0.148
       0.105
       0.034
      -0.021
      -0.040
      -0.054
      -0.100
      -0.176
      -0.239
      -0.251
      -0.207
      -0.140
      -0.088
      -0.063
      -0.049
      -0.018
       0.025
       0.053
       0.050
       0.040
       0.058
       0.114
       0.180
       0.215
       0.196
       0.134
       0.062
       0.010
      -0.022
      -0.056
      -0.111
      -0.181
      -0.239
      -0.269
      -0.272
      -0.266
      -0.264
      -0.262
      -0.228
      -0.131
       0.017
       0.158
       0.225
       0.203
       0.132
       0.063
       0.025
       0.012
      -0.004
      -0.049
      -0.127
      -0.214
      -0.276
      -0.297
      -0.279
      -0.237
      -0.188
      -0.140
      -0.076
       0.023
       0.158
       0.303
       0.433
       0.547
       0.651
       0.737
       0.777
       0.752
       0.675
       0.580
       0.497
       0.425
       0.333
       0.200
       0.044
      -0.094
      -0.188
      -0.251
      -0.299
      -0.325
      -0.306
      -0.236
      -0.143
      -0.063
      -0.013
       0.019
       0.063
       0.137
       0.224
       0.285
       0.296
       0.268
       0.226
       0.178
       0.107
      -0.005
      -0.153
      -0.297
      -0.390
      -0.413
      -0.397
      -0.400
      -0.451
      -0.514
      -0.523
      -0.442
      -0.296
      -0.146
      -0.041
       0.021
       0.083
       0.178
       0.290
       0.360
       0.346
       0.264
       0.162
       0.077
       0.010
      -0.052
      -0.119
      -0.187
      -0.244
      -0.279
      -0.296
      -0.309
      -0.328
      -0.345
      -0.339
      -0.292
      -0.191
      -0.045
       0.114
       0.247
       0.330
       0.371
       0.391
       0.409
       0.431
       0.449
       0.445
       0.407
       0.343
       0.284
       0.246
       0.209
       0.135
       0.008
      -0.151
      -0.297
      -0.390
      -0.416
      -0.388
      -0.322
      -0.211
      -0.039
       0.179
       0.383
       0.499
       0.491
       0.387
       0.253
       0.148
       0.082
       0.016
      -0.094
      -0.246
      -0.395
      -0.502
      -0.577
      -0.659
      -0.773
      -0.889
      -0.947
      -0.903
      -0.765
      -0.588
      -0.429
      -0.295
      -0.151
       0.021
       0.197
       0.329
       0.402
       0.442
       0.485
       0.541
       0.587
       0.589
       0.537
       0.458
       0.389
       0.337
       0.279
       0.187
       0.068
      -0.042
      -0.105
      -0.112
      -0.084
      -0.058
      -0.049
      -0.041
      -0.007
       0.046
       0.083
       0.074
       0.028
      -0.014
      -0.017
       0.013
       0.040
       0.025
      -0.041
      -0.129
      -0.193
      -0.209
      -0.193
      -0.174
      -0.163
      -0.143
      -0.093
      -0.010
       0.087
       0.171
       0.235
       0.291
       0.353
       0.410
       0.425
       0.374
       0.269
       0.151
       0.050
      -0.025
      -0.079
      -0.113
      -0.115
      -0.070
       0.023
       0.132
       0.209
       0.230
       0.216
       0.209
       0.222
       0.230
       0.194
       0.096
      -0.040
      -0.155
      -0.200
      -0.181
      -0.162
      -0.211
      -0.337
      -0.487
      -0.589
      -0.610
      -0.571
      -0.524
      -0.499
      -0.476
      -0.415
      -0.309
      -0.202
      -0.148
      -0.156
      -0.190
      -0.207
      -0.201
      -0.194
      -0.212
      -0.245
      -0.247
      -0.176
      -0.045
       0.087
       0.175
       0.232
       0.309
       0.432
       0.566
       0.643
       0.612
       0.484
       0.321
       0.183
       0.086
       0.000
      -0.098
      -0.186
      -0.212
      -0.149
      -0.025
       0.094
       0.160
       0.181
       0.207
       0.271
       0.346
       0.375
       0.331
       0.249
       0.173
       0.107
       0.015
      -0.127
      -0.291
      -0.417
      -0.455
      -0.406
      -0.316
      -0.233
      -0.162
      -0.077
       0.035
       0.142
       0.195
       0.174
       0.114
       0.067
       0.061
       0.080
       0.084
       0.054
       0.017
       0.013
       0.047
       0.078
       0.060
      -0.008
      -0.084
      -0.114
      -0.085
      -0.022
       0.030
       0.050
       0.053
       0.067
       0.097
       0.125
       0.137
       0.140
       0.145
       0.148
       0.132
       0.090
       0.038
      -0.005
      -0.031
      -0.054
      -0.099
      -0.173
      -0.256
      -0.307
      -0.301
      -0.248
      -0.182
      -0.131
      -0.106
      -0.105
      -0.116
      -0.129
      -0.139
      -0.145
      -0.139
      -0.112
      -0.068
      -0.021
       0.016
       0.049
       0.085
       0.130
       0.183
       0.242
       0.301
       0.357
       0.407
       0.446
       0.467
       0.470
       0.472
       0.495
       0.540
       0.576
       0.569
       0.519
       0.459
       0.419
       0.399
       0.363
       0.275
       0.127
      -0.045
      -0.195
      -0.295
      -0.346
      -0.354
      -0.321
      -0.260
      -0.194
      -0.151
      -0.143
      -0.169
      -0.227
      -0.303
      -0.378
      -0.438
      -0.485
      -0.529
      -0.570
      -0.589
      -0.566
      -0.492
      -0.385
      -0.282
      -0.213
      -0.180
      -0.163
      -0.145
      -0.121
      -0.087
      -0.026
       0.080
       0.226
       0.380
       0.503
       0.560
       0.544
       0.467
       0.355
       0.223
       0.075
      -0.083
      -0.232
      -0.347
      -0.395
      -0.353
      -0.224
      -0.051
       0.109
       0.229
       0.326
       0.418
       0.484
       0.468
       0.339
       0.136
      -0.059
      -0.189
      -0.272
      -0.369
      -0.507
      -0.628
      -0.648
      -0.543
      -0.387
      -0.272
      -0.228
      -0.217
      -0.189
      -0.138
      -0.091
      -0.063
      -0.031
       0.038
       0.148
       0.268
       0.355
       0.401
       0.418
       0.412
       0.371
       0.289
       0.197
       0.133
       0.116
       0.131
       0.159
       0.192
       0.234
       0.279
       0.309
       0.298
       0.238
       0.147
       0.055
      -0.016
      -0.065
      -0.098
      -0.118
      -0.125
      -0.117
      -0.079
      -0.007
       0.085
       0.157
       0.181
       0.164
       0.141
       0.134
       0.125
       0.072
      -0.050
      -0.217
      -0.363
      -0.445
      -0.483
      -0.536
      -0.626
      -0.708
      -0.723
      -0.663
      -0.574
      -0.493
      -0.407
      -0.262
      -0.032
       0.246
       0.487
       0.625
       0.660
       0.636
       0.588
       0.510
       0.374
       0.180
      -0.039
      -0.232
      -0.360
      -0.408
      -0.387
      -0.311
      -0.183
      -0.005
       0.203
       0.400
       0.553
       0.663
       0.756
       0.851
       0.925
       0.923
       0.806
       0.601
       0.392
       0.252
       0.169
       0.062
      -0.128
      -0.365
      -0.549
      -0.613
      -0.587
      -0.563
      -0.597
      -0.648
      -0.619
      -0.464
      -0.249
      -0.100
      -0.090
      -0.178
      -0.270
      -0.310
      -0.321
      -0.361
      -0.445
      -0.520
      -0.506
      -0.373
      -0.177
      -0.012
       0.075
       0.117
       0.176
       0.266
       0.337
       0.320
       0.196
       0.019
      -0.119
      -0.159
      -0.115
      -0.044
       0.009
       0.055
       0.127
       0.239
       0.365
       0.467
       0.528
       0.560
       0.587
       0.603
       0.564
       0.436
       0.238
       0.034
      -0.128
      -0.254
      -0.384
      -0.528
      -0.651
      -0.703
      -0.673
      -0.593
      -0.498
      -0.382
      -0.198
       0.070
       0.363
       0.581
       0.674
       0.690
       0.715
       0.784
       0.849
       0.833
       0.700
       0.488
       0.263
       0.057
      -0.153
      -0.404
      -0.681
      -0.912
      -1.011
      -0.951
      -0.783
      -0.594
      -0.443
      -0.307
      -0.111
       0.189
       0.530
       0.775
       0.831
       0.735
       0.615
       0.563
       0.554
       0.486
       0.297
       0.037
      -0.173
      -0.262
      -0.276
      -0.314
      -0.405
      -0.470
      -0.412
      -0.227
      -0.019
       0.085
       0.041
      -0.097
      -0.232
      -0.307
      -0.332
      -0.346
      -0.369
      -0.390
      -0.388
      -0.349
      -0.274
      -0.173
      -0.079
      -0.026
      -0.021
      -0.035
      -0.028
       0.009
       0.047
       0.051
       0.014
      -0.037
      -0.051
      -0.007
       0.068
       0.114
       0.102
       0.056
       0.032
       0.083
       0.217
       0.392
       0.535
       0.590
       0.568
       0.531
       0.527
       0.540
       0.516
       0.431
       0.323
       0.254
       0.240
       0.226
       0.132
      -0.058
      -0.266
      -0.393
      -0.413
      -0.385
      -0.381
      -0.409
      -0.413
      -0.337
      -0.162
       0.077
       0.319
       0.517
       0.662
       0.763
       0.819
       0.796
       0.662
       0.424
       0.131
      -0.145
      -0.344
      -0.441
      -0.460
      -0.441
      -0.408
      -0.367
      -0.331
      -0.322
      -0.341
      -0.350
      -0.305
      -0.197
      -0.063
       0.039
       0.076
       0.058
       0.023
      -0.004
      -0.041
      -0.115
      -0.220
      -0.310
      -0.340
      -0.297
      -0.195
      -0.053
       0.106
       0.257
       0.379
       0.460
       0.493
       0.471
       0.399
       0.297
       0.190
       0.094
       0.016
      -0.043
      -0.093
      -0.141
      -0.181
      -0.203
      -0.214
      -0.233
      -0.270
      -0.312
      -0.356
      -0.413
      -0.496
      -0.594
      -0.679
      -0.723
      -0.713
      -0.648
      -0.542
      -0.413
      -0.277
      -0.160
      -0.102
      -0.129
      -0.223
      -0.323
      -0.376
      -0.373
      -0.332
      -0.268
      -0.175
      -0.045
       0.120
       0.296
       0.443
       0.538
       0.588
       0.618
       0.647
       0.677
       0.711
       0.749
       0.773
       0.758
       0.701
       0.630
       0.572
       0.520
       0.448
       0.336
       0.190
       0.039
      -0.089
      -0.190
      -0.286
      -0.394
      -0.489
      -0.515
      -0.448
      -0.322
      -0.213
      -0.176
      -0.214
      -0.284
      -0.331
      -0.329
      -0.295
      -0.259
      -0.225
      -0.164
      -0.046
       0.127
       0.322
       0.492
       0.592
       0.602
       0.531
       0.400
       0.230
       0.044
      -0.116
      -0.205
      -0.214
      -0.177
      -0.141
      -0.120
      -0.097
      -0.050
       0.028
       0.129
       0.234
       0.334
       0.430
       0.531
       0.629
       0.702
       0.729
       0.707
       0.649
       0.575
       0.501
       0.422
       0.310
       0.142
      -0.068
      -0.270
      -0.422
      -0.527
      -0.627
      -0.770
      -0.973
      -1.214
      -1.437
      -1.592
      -1.661
      -1.644
      -1.536
      -1.324
      -1.006
      -0.608
      -0.166
       0.288
       0.727
       1.120
       1.439
       1.664
       1.783
       1.790
       1.693
       1.503
       1.239
       0.929
       0.626
       0.380
       0.206
       0.078
      -0.033
      -0.125
      -0.178
      -0.180
      -0.152
      -0.138
      -0.182
      -0.287
      -0.408
      -0.496
      -0.533
      -0.538
      -0.525
      -0.491
      -0.435
      -0.383
      -0.377
      -0.449
      -0.599
      -0.785
      -0.936
      -0.997
      -0.964
      -0.871
      -0.746
      -0.577
      -0.335
      -0.025
       0.289
       0.499
       0.531
       0.403
       0.223
       0.098
       0.049
       0.013
      -0.065
      -0.163
      -0.208
      -0.168
      -0.097
      -0.098
      -0.220
      -0.397
      -0.499
      -0.437
      -0.246
      -0.035
       0.118
       0.233
       0.381
       0.590
       0.818
       0.992
       1.076
       1.101
       1.121
       1.151
       1.141
       1.036
       0.845
       0.641
       0.488
       0.377
       0.251
       0.069
      -0.144
      -0.317
      -0.391
      -0.375
      -0.331
      -0.319
      -0.343
      -0.373
      -0.394
      -0.431
      -0.508
      -0.609
      -0.682
      -0.676
      -0.583
      -0.442
      -0.311
      -0.221
      -0.152
      -0.065
       0.036
       0.100
       0.082
      -0.003
      -0.092
      -0.123
      -0.086
      -0.020
       0.033
       0.078
       0.160
       0.299
       0.447
       0.527
       0.518
       0.482
       0.498
       0.582
       0.673
       0.689
       0.603
       0.459
       0.343
       0.306
       0.332
       0.379
       0.429
       0.495
       0.579
       0.630
       0.574
       0.372
       0.051
      -0.304
      -0.588
      -0.737
      -0.757
      -0.694
      -0.594
      -0.474
      -0.353
      -0.266
      -0.251
      -0.320
      -0.440
      -0.554
      -0.613
      -0.620
      -0.629
      -0.696
      -0.819
      -0.939
      -0.998
      -0.989
      -0.945
      -0.898
      -0.851
      -0.772
      -0.628
      -0.425
      -0.211
      -0.049
       0.040
       0.086
       0.133
       0.211
       0.332
       0.494
       0.686
       0.896
       1.114
       1.328
       1.505
       1.606
       1.610
       1.535
       1.420
       1.304
       1.207
       1.113
       0.986
       0.813
       0.632
       0.503
       0.445
       0.426
       0.396
       0.331
       0.239
       0.140
       0.051
      -0.022
      -0.082
      -0.138
      -0.197
      -0.268
      -0.367
      -0.508
      -0.687
      -0.878
      -1.051
      -1.181
      -1.239
      -1.207
      -1.087
      -0.912
      -0.734
      -0.597
      -0.523
      -0.493
      -0.462
      -0.402
      -0.339
      -0.330
      -0.405
      -0.534
      -0.656
      -0.723
      -0.725
      -0.678
      -0.599
      -0.485
      -0.313
      -0.088
       0.137
       0.290
       0.340
       0.318
       0.277
       0.242
       0.200
       0.132
       0.043
      -0.026
      -0.025
       0.054
       0.155
       0.195
       0.136
       0.015
      -0.097
      -0.143
      -0.105
       0.014
       0.211
       0.494
       0.861
       1.259
       1.587
       1.753
       1.736
       1.578
       1.334
       1.032
       0.677
       0.290
      -0.089
      -0.415
      -0.661
      -0.832
      -0.948
      -1.009
      -0.976
      -0.808
      -0.516
      -0.168
       0.149
       0.383
       0.536
       0.632
       0.680
       0.647
       0.481
       0.166
      -0.246
      -0.662
      -1.018
      -1.299
      -1.501
      -1.598
      -1.550
      -1.333
      -0.965
      -0.508
      -0.049
       0.339
       0.629
       0.825
       0.935
       0.954
       0.887
       0.759
       0.616
       0.487
       0.375
       0.254
       0.098
      -0.079
      -0.219
      -0.267
      -0.220
      -0.127
      -0.025
       0.091
       0.242
       0.418
       0.570
       0.655
       0.666
       0.642
       0.629
       0.640
       0.648
       0.634
       0.613
       0.603
       0.576
       0.472
       0.264
      -0.004
      -0.255
      -0.448
      -0.606
      -0.778
      -0.985
      -1.186
      -1.317
      -1.344
      -1.296
      -1.224
      -1.141
      -1.021
      -0.836
      -0.593
      -0.327
      -0.082
       0.106
       0.223
       0.284
       0.312
       0.315
       0.271
       0.167
       0.021
      -0.108
      -0.158
      -0.103
       0.015
       0.122
       0.177
       0.215
       0.288
       0.394
       0.476
       0.498
       0.494
       0.540
       0.665
       0.814
       0.894
       0.861
       0.757
       0.675
       0.660
       0.670
       0.631
       0.528
       0.416
       0.346
       0.301
       0.209
       0.017
      -0.261
      -0.537
      -0.730
      -0.836
      -0.934
      -1.094
      -1.288
      -1.403
      -1.348
      -1.149
      -0.918
      -0.765
      -0.707
      -0.673
      -0.570
      -0.374
      -0.148
       0.021
       0.112
       0.181
       0.292
       0.450
       0.602
       0.686
       0.685
       0.637
       0.597
       0.580
       0.541
       0.424
       0.226
       0.006
      -0.173
      -0.287
      -0.351
      -0.380
      -0.372
      -0.309
      -0.189
      -0.044
       0.078
       0.165
       0.265
       0.431
       0.651
       0.841
       0.926
       0.914
       0.878
       0.877
       0.902
       0.882
       0.760
       0.552
       0.330
       0.140
      -0.050
      -0.303
      -0.618
      -0.903
      -1.042
      -0.999
      -0.837
      -0.656
      -0.506
      -0.356
      -0.152
       0.090
       0.276
       0.316
       0.224
       0.103
       0.041
       0.038
       0.024
      -0.058
      -0.203
