Origin Time       20/06/2011 06:27:18 UTC
Lat.              30.5 N	
Long.             79.4 E	
Depth (Km)         12.0
Magnitude         4.6
 Region           Chamoli-Uttarakhand                                              
 Above details taken from IMD 
    
Station Code      ALM
Station Lat.       29.596  N
Station Long.      79.657  E
Station Height(m) 1642.0
Site Class        A   Vs30 between 700 m/sec to 1400 m/sec * 
Record Time       20.06.2011 06:27:25.634 UTC
Sampling Rate     200. Hz
 Record Duration   81.065 Sec.
 Direction         N-S (N positive)
Max. Acceleration      3.985 cm/sec**2
     
  * For reference see Site Classification link of website 
     
 Base Line Corrected and Low Pass Filtered (Cut Off at 35 Hz) Time History
 Acceleration data in cm/sec**2
    
[...]
       0.058
      -0.014
      -0.075
      -0.118
      -0.132
      -0.114
      -0.070
      -0.008
       0.059
       0.123
       0.180
       0.230
       0.273
       0.307
       0.335
       0.363
       0.396
       0.433
       0.469
       0.496
       0.509
       0.500
       0.469
       0.426
       0.388
       0.367
       0.367
       0.376
       0.380
       0.372
       0.354
       0.330
       0.300
       0.254
       0.188
       0.110
       0.034
      -0.026
      -0.062
      -0.077
      -0.081
      -0.083
      -0.089
      -0.097
      -0.108
      -0.124
      -0.145
      -0.167
      -0.189
      -0.214
      -0.242
      -0.261
      -0.254
      -0.220
      -0.180
      -0.169
      -0.202
      -0.274
      -0.361
      -0.441
      -0.510
      -0.583
      -0.676
      -0.783
      -0.886
      -0.967
      -1.026
      -1.066
      -1.084
      -1.070
      -1.022
      -0.954
      -0.880
      -0.796
      -0.673
      -0.491
      -0.265
      -0.036
       0.168
       0.345
       0.501
       0.626
       0.704
       0.739
       0.760
       0.800
       0.871
       0.962
       1.054
       1.132
       1.192
       1.242
       1.291
       1.340
       1.380
       1.400
       1.390
       1.348
       1.284
       1.211
       1.138
       1.057
       0.950
       0.814
       0.664
       0.519
       0.385
       0.244
       0.066
      -0.157
      -0.398
      -0.611
      -0.758
      -0.835
      -0.867
      -0.885
      -0.911
      -0.953
      -1.005
      -1.054
      -1.088
      -1.095
      -1.067
      -1.001
      -0.908
      -0.812
      -0.734
      -0.679
      -0.637
      -0.596
      -0.557
      -0.536
      -0.547
      -0.590
      -0.643
      -0.682
      -0.693
      -0.682
      -0.656
      -0.614
      -0.555
      -0.489
      -0.422
      -0.345
      -0.232
      -0.066
       0.138
       0.343
       0.519
       0.656
       0.766
       0.857
       0.930
       0.977
       0.998
       1.008
       1.020
       1.030
       1.018
       0.961
       0.856
       0.723
       0.587
       0.471
       0.380
       0.312
       0.262
       0.220
       0.176
       0.121
       0.055
      -0.011
      -0.062
      -0.087
      -0.082
      -0.053
      -0.018
       0.000
      -0.010
      -0.041
      -0.076
      -0.109
      -0.146
      -0.195
      -0.260
      -0.336
      -0.411
      -0.472
      -0.505
      -0.505
      -0.481
      -0.447
      -0.418
      -0.396
      -0.372
      -0.330
      -0.261
      -0.174
      -0.087
      -0.012
       0.044
       0.084
       0.109
       0.114
       0.091
       0.040
      -0.027
      -0.087
      -0.119
      -0.114
      -0.079
      -0.022
       0.044
       0.105
       0.154
       0.192
       0.226
       0.259
       0.287
       0.303
       0.308
       0.309
       0.317
       0.340
       0.373
       0.404
       0.424
       0.432
       0.426
       0.397
       0.328
       0.217
       0.079
      -0.056
      -0.161
      -0.222
      -0.250
      -0.262
      -0.275
      -0.289
      -0.299
      -0.303
      -0.302
      -0.299
      -0.290
      -0.272
      -0.236
      -0.179
      -0.106
      -0.033
       0.024
       0.056
       0.065
       0.051
       0.011
      -0.052
      -0.128
      -0.199
      -0.244
      -0.253
      -0.229
      -0.191
      -0.162
      -0.151
      -0.150
      -0.148
      -0.135
      -0.114
      -0.095
      -0.084
      -0.077
      -0.063
      -0.034
       0.002
       0.028
       0.030
       0.008
      -0.029
      -0.064
      -0.090
      -0.107
      -0.126
      -0.150
      -0.171
      -0.178
      -0.167
      -0.142
      -0.103
      -0.050
       0.016
       0.083
       0.128
       0.137
       0.111
       0.074
       0.048
       0.041
       0.039
       0.028
       0.005
      -0.022
      -0.044
      -0.054
      -0.050
      -0.032
       0.002
       0.057
       0.139
       0.242
       0.349
       0.442
       0.516
       0.572
       0.606
       0.607
       0.570
       0.504
       0.427
       0.350
       0.267
       0.168
       0.048
      -0.082
      -0.202
      -0.297
      -0.362
      -0.394
      -0.392
      -0.362
      -0.319
      -0.279
      -0.246
      -0.207
      -0.148
      -0.069
       0.011
       0.069
       0.092
       0.090
       0.075
       0.048
      -0.008
      -0.102
      -0.219
      -0.326
      -0.399
      -0.431
      -0.434
      -0.422
      -0.406
      -0.385
      -0.348
      -0.285
      -0.203
      -0.118
      -0.043
       0.016
       0.063
       0.096
       0.105
       0.084
       0.037
      -0.019
      -0.064
      -0.091
      -0.105
      -0.112
      -0.110
      -0.090
      -0.046
       0.018
       0.092
       0.171
       0.254
       0.347
       0.453
       0.560
       0.643
       0.679
       0.671
       0.639
       0.602
       0.562
       0.507
       0.429
       0.327
       0.210
       0.085
      -0.043
      -0.171
      -0.287
      -0.373
      -0.415
      -0.413
      -0.382
      -0.334
      -0.273
      -0.188
      -0.070
       0.074
       0.215
       0.321
       0.371
       0.368
       0.327
       0.264
       0.186
       0.095
      -0.010
      -0.126
      -0.247
      -0.363
      -0.467
      -0.564
      -0.659
      -0.745
      -0.803
      -0.815
      -0.781
      -0.718
      -0.649
      -0.582
      -0.510
      -0.423
      -0.326
      -0.235
      -0.163
      -0.108
      -0.053
       0.016
       0.098
       0.180
       0.247
       0.292
       0.320
       0.338
       0.349
       0.351
       0.345
       0.335
       0.323
       0.312
       0.299
       0.285
       0.275
       0.272
       0.279
       0.295
       0.312
       0.322
       0.323
       0.328
       0.352
       0.397
       0.446
       0.474
       0.464
       0.418
       0.355
       0.295
       0.241
       0.190
       0.136
       0.086
       0.049
       0.031
       0.024
       0.014
      -0.014
      -0.069
      -0.145
      -0.225
      -0.293
      -0.340
      -0.364
      -0.359
      -0.323
      -0.258
      -0.181
      -0.116
      -0.078
      -0.070
      -0.075
      -0.079
      -0.079
      -0.091
      -0.122
      -0.158
      -0.172
      -0.147
      -0.087
      -0.013
       0.061
       0.132
       0.207
       0.281
       0.337
       0.350
       0.314
       0.248
       0.183
       0.134
       0.095
       0.045
      -0.036
      -0.153
      -0.293
      -0.436
      -0.565
      -0.667
      -0.734
      -0.756
      -0.733
      -0.686
      -0.641
      -0.603
      -0.552
      -0.461
      -0.324
      -0.162
      -0.006
       0.128
       0.241
       0.340
       0.421
       0.470
       0.485
       0.472
       0.447
       0.415
       0.372
       0.309
       0.228
       0.150
       0.106
       0.121
       0.187
       0.278
       0.368
       0.451
       0.532
       0.608
       0.663
       0.684
       0.669
       0.629
       0.579
       0.528
       0.474
       0.403
       0.302
       0.170
       0.016
      -0.143
      -0.287
      -0.405
      -0.492
      -0.551
      -0.591
      -0.619
      -0.642
      -0.662
      -0.677
      -0.687
      -0.692
      -0.696
      -0.699
      -0.695
      -0.679
      -0.648
      -0.602
      -0.537
      -0.459
      -0.378
      -0.312
      -0.274
      -0.274
      -0.305
      -0.345
      -0.358
      -0.323
      -0.247
      -0.160
      -0.089
      -0.040
       0.004
       0.061
       0.140
       0.239
       0.348
       0.465
       0.589
       0.710
       0.813
       0.882
       0.913
       0.921
       0.918
       0.908
       0.877
       0.818
       0.740
       0.665
       0.608
       0.553
       0.471
       0.350
       0.210
       0.082
      -0.014
      -0.077
      -0.121
      -0.158
      -0.198
      -0.247
      -0.304
      -0.366
      -0.439
      -0.530
      -0.642
      -0.761
      -0.861
      -0.922
      -0.944
      -0.946
      -0.941
      -0.924
      -0.875
      -0.788
      -0.680
      -0.578
      -0.485
      -0.384
      -0.250
      -0.073
       0.127
       0.315
       0.462
       0.559
       0.621
       0.668
       0.711
       0.754
       0.790
       0.815
       0.820
       0.801
       0.759
       0.702
       0.638
       0.575
       0.522
       0.483
       0.461
       0.453
       0.454
       0.459
       0.454
       0.416
       0.325
       0.177
      -0.002
      -0.169
      -0.284
      -0.340
      -0.353
      -0.349
      -0.340
      -0.329
      -0.319
      -0.316
      -0.320
      -0.322
      -0.315
      -0.300
      -0.289
      -0.289
      -0.290
      -0.266
      -0.202
      -0.108
      -0.020
       0.031
       0.040
       0.025
       0.004
      -0.018
      -0.043
      -0.075
      -0.114
      -0.154
      -0.195
      -0.239
      -0.281
      -0.310
      -0.309
      -0.273
      -0.213
      -0.145
      -0.084
      -0.039
      -0.015
      -0.010
      -0.013
      -0.012
      -0.001
       0.022
       0.059
       0.108
       0.159
       0.190
       0.179
       0.114
       0.009
      -0.103
      -0.194
      -0.256
      -0.293
      -0.308
      -0.299
      -0.271
      -0.241
      -0.224
      -0.217
      -0.196
      -0.144
      -0.066
       0.011
       0.059
       0.077
       0.091
       0.132
       0.201
       0.268
       0.302
       0.298
       0.270
       0.238
       0.212
       0.193
       0.176
       0.161
       0.155
       0.163
       0.189
       0.227
       0.267
       0.301
       0.324
       0.331
       0.320
       0.293
       0.258
       0.228
       0.213
       0.212
       0.198
       0.140
       0.026
      -0.124
      -0.268
      -0.380
      -0.462
      -0.535
      -0.609
      -0.678
      -0.725
      -0.744
      -0.746
      -0.746
      -0.742
      -0.725
      -0.687
      -0.637
      -0.588
      -0.541
      -0.484
      -0.399
      -0.287
      -0.165
      -0.060
       0.022
       0.097
       0.193
       0.321
       0.455
       0.557
       0.604
       0.602
       0.580
       0.568
       0.575
       0.590
       0.592
       0.568
       0.525
       0.474
       0.427
       0.391
       0.373
       0.379
       0.404
       0.433
       0.447
       0.438
       0.410
       0.378
       0.349
       0.313
       0.240
       0.110
      -0.071
      -0.270
      -0.449
      -0.581
      -0.661
      -0.698
      -0.704
      -0.691
      -0.675
      -0.674
      -0.693
      -0.714
      -0.700
      -0.625
      -0.496
      -0.343
      -0.195
      -0.058
       0.082
       0.240
       0.405
       0.541
       0.611
       0.606
       0.545
       0.463
       0.378
       0.290
       0.189
       0.074
      -0.040
      -0.128
      -0.170
      -0.169
      -0.146
      -0.120
      -0.085
      -0.022
       0.084
       0.225
       0.382
       0.537
       0.680
       0.803
       0.885
       0.895
       0.823
       0.687
       0.529
       0.381
       0.250
       0.129
       0.014
      -0.087
      -0.168
      -0.232
      -0.292
      -0.362
      -0.441
      -0.522
      -0.595
      -0.658
      -0.704
      -0.717
      -0.683
      -0.606
      -0.516
      -0.448
      -0.413
      -0.397
      -0.380
      -0.351
      -0.317
      -0.287
      -0.258
      -0.219
      -0.160
      -0.086
      -0.011
       0.051
       0.097
       0.132
       0.158
       0.171
       0.158
       0.105
       0.016
      -0.084
      -0.159
      -0.195
      -0.204
      -0.204
      -0.204
      -0.191
      -0.155
      -0.107
      -0.079
      -0.093
      -0.140
      -0.177
      -0.164
      -0.097
      -0.014
       0.038
       0.024
      -0.062
      -0.205
      -0.371
      -0.521
      -0.621
      -0.659
      -0.640
      -0.582
      -0.504
      -0.419
      -0.327
      -0.220
      -0.087
       0.072
       0.241
       0.392
       0.493
       0.528
       0.508
       0.460
       0.413
       0.384
       0.388
       0.431
       0.508
       0.600
       0.684
       0.746
       0.775
       0.772
       0.747
       0.713
       0.677
       0.636
       0.598
       0.574
       0.577
       0.604
       0.635
       0.655
       0.661
       0.665
       0.684
       0.725
       0.780
       0.833
       0.884
       0.948
       1.039
       1.156
       1.278
       1.374
       1.413
       1.373
       1.251
       1.059
       0.816
       0.551
       0.300
       0.097
      -0.046
      -0.144
      -0.223
      -0.305
      -0.397
      -0.494
      -0.585
      -0.652
      -0.688
      -0.696
      -0.685
      -0.670
      -0.665
      -0.686
      -0.745
      -0.849
      -1.007
      -1.225
      -1.498
      -1.819
      -2.173
      -2.545
      -2.905
      -3.224
      -3.479
      -3.663
      -3.782
      -3.840
      -3.841
      -3.784
      -3.664
      -3.474
      -3.215
      -2.894
      -2.511
      -2.063
      -1.555
      -1.007
      -0.455
       0.071
       0.558
       1.010
       1.434
       1.827
       2.166
       2.429
       2.615
       2.756
       2.885
       3.024
       3.173
       3.322
       3.466
       3.612
       3.761
       3.899
       3.984
       3.985
       3.906
       3.787
       3.670
       3.557
       3.408
       3.176
       2.844
       2.429
       1.968
       1.490
       1.001
       0.494
      -0.024
      -0.539
      -1.040
      -1.524
      -1.984
      -2.400
      -2.745
      -3.004
      -3.179
      -3.290
      -3.354
      -3.371
      -3.322
      -3.185
      -2.959
      -2.663
      -2.324
      -1.968
      -1.621
      -1.304
      -1.029
      -0.805
      -0.638
      -0.525
      -0.445
      -0.374
      -0.301
      -0.239
      -0.205
      -0.205
      -0.228
      -0.264
      -0.305
      -0.341
      -0.355
      -0.327
      -0.244
      -0.112
       0.055
       0.246
       0.458
       0.696
       0.956
       1.223
       1.480
       1.715
       1.929
       2.125
       2.301
       2.443
       2.526
       2.537
       2.480
       2.362
       2.181
       1.926
       1.604
       1.250
       0.919
       0.657
       0.476
       0.354
       0.249
       0.128
      -0.023
      -0.204
      -0.413
      -0.646
      -0.887
      -1.108
      -1.283
      -1.411
      -1.516
      -1.625
      -1.744
      -1.856
      -1.939
      -1.994
      -2.045
      -2.124
      -2.233
      -2.335
      -2.378
      -2.328
      -2.178
      -1.956
      -1.699
      -1.429
      -1.153
      -0.876
      -0.617
      -0.403
      -0.240
      -0.098
       0.063
       0.260
       0.472
       0.654
       0.765
       0.794
       0.761
       0.702
       0.641
       0.594
       0.578
       0.619
       0.733
       0.911
       1.125
       1.353
       1.600
       1.884
       2.213
       2.567
       2.908
       3.205
       3.447
       3.632
       3.745
       3.749
       3.606
       3.309
       2.884
       2.378
       1.833
       1.269
       0.691
       0.107
      -0.473
      -1.035
      -1.576
      -2.092
      -2.564
      -2.955
      -3.236
      -3.402
      -3.477
      -3.492
      -3.465
      -3.389
      -3.247
      -3.034
      -2.774
      -2.508
      -2.265
      -2.051
      -1.852
      -1.660
      -1.478
      -1.313
      -1.162
      -1.011
      -0.847
      -0.672
      -0.502
      -0.347
      -0.186
       0.022
       0.307
       0.659
       1.039
       1.407
       1.744
       2.050
       2.325
       2.549
       2.688
       2.728
       2.686
       2.603
       2.507
       2.397
       2.248
       2.039
       1.767
       1.443
       1.083
       0.701
       0.310
      -0.069
      -0.409
      -0.690
      -0.909
      -1.072
      -1.179
      -1.213
      -1.165
      -1.043
      -0.875
      -0.703
      -0.563
      -0.472
      -0.418
      -0.377
      -0.337
      -0.315
      -0.340
      -0.425
      -0.557
      -0.700
      -0.815
      -0.881
      -0.901
      -0.899
      -0.897
      -0.908
      -0.928
      -0.937
      -0.909
      -0.827
      -0.686
      -0.494
      -0.260
       0.008
       0.293
       0.567
       0.805
       0.996
       1.135
       1.224
       1.260
       1.240
       1.163
       1.043
       0.904
       0.763
       0.621
       0.462
       0.281
       0.090
      -0.087
      -0.228
      -0.325
      -0.373
      -0.366
      -0.296
      -0.168
      -0.008
       0.149
       0.273
       0.359
       0.412
       0.432
       0.415
       0.368
       0.304
       0.238
       0.169
       0.089
      -0.006
      -0.114
      -0.218
      -0.294
      -0.316
      -0.281
      -0.208
      -0.121
      -0.035
       0.048
       0.120
       0.166
       0.171
       0.135
       0.081
       0.040
       0.033
       0.061
       0.113
       0.178
       0.248
       0.317
       0.379
       0.428
       0.456
       0.457
       0.435
       0.402
       0.368
       0.325
       0.250
       0.123
      -0.059
      -0.289
      -0.553
      -0.831
      -1.097
      -1.329
      -1.508
      -1.624
      -1.671
      -1.650
      -1.563
      -1.405
      -1.170
      -0.867
      -0.528
      -0.196
       0.094
       0.324
       0.497
       0.619
       0.698
       0.739
       0.746
       0.729
       0.702
       0.666
       0.614
       0.543
       0.459
       0.384
       0.341
       0.341
       0.376
       0.424
       0.470
       0.514
       0.564
       0.621
       0.677
       0.727
       0.782
       0.852
       0.937
       1.012
       1.042
       0.993
       0.862
       0.672
       0.464
       0.266
       0.087
      -0.080
      -0.246
      -0.419
      -0.605
      -0.798
      -0.986
      -1.148
      -1.260
      -1.300
      -1.260
      -1.159
      -1.030
      -0.895
      -0.759
      -0.617
      -0.477
      -0.361
      -0.284
      -0.242
      -0.213
      -0.183
      -0.153
      -0.144
      -0.163
      -0.197
      -0.230
      -0.261
      -0.300
      -0.348
      -0.378
      -0.365
      -0.307
      -0.234
      -0.180
      -0.155
      -0.137
      -0.097
      -0.026
       0.051
       0.108
       0.145
       0.188
       0.260
       0.364
       0.483
       0.592
       0.678
       0.744
       0.802
       0.859
       0.908
       0.929
       0.914
       0.873
       0.828
       0.793
       0.762
       0.715
       0.635
       0.525
       0.402
       0.277
       0.132
      -0.062
      -0.314
      -0.593
      -0.857
      -1.079
      -1.256
      -1.394
      -1.482
      -1.497
      -1.421
      -1.269
      -1.082
      -0.892
      -0.698
      -0.483
      -0.246
      -0.020
       0.155
       0.268
       0.352
       0.452
       0.582
       0.718
       0.810
       0.834
       0.809
       0.773
       0.742
       0.699
       0.619
       0.507
       0.397
       0.322
       0.290
       0.281
       0.265
