Origin Time       04/04/2011 11:31:40
Lat.              29.6 N	
Long.             80.8 E	
Depth (Km)         10.0
Magnitude         5.7
 Region           NEPAL-INDIA-BORDER-REGION                                        
 Above details taken from IMD 
   
Station Code      ALM
Station Lat.       29.596
Station Long.      79.657
Station Height(m) 1642.0
Site Class        A   Vs30 between 700 m/sec to 1400 m/sec * 
Record Time       04.04.2011 11:31:34.259
Sampling Rate     200. Hz
 Record Duration  106.420 Sec.
 Direction         Vert. (Up positive)
Max. Acceleration     -7.588 cm/sec**2
     
  * For reference see Site Classification link of website 
     
 Base Line Corrected and Low Pass Filtered (Cut Off at 35 Hz) Time History
 Acceleration data in cm/sec**2
    
[...]
      -0.449
      -0.491
      -0.485
      -0.424
      -0.289
      -0.101
       0.082
       0.209
       0.283
       0.330
       0.362
       0.361
       0.329
       0.314
       0.389
       0.579
       0.824
       1.019
       1.082
       0.993
       0.784
       0.507
       0.205
      -0.084
      -0.314
      -0.416
      -0.315
       0.032
       0.593
       1.243
       1.806
       2.129
       2.152
       1.925
       1.548
       1.108
       0.646
       0.204
      -0.136
      -0.288
      -0.256
      -0.172
      -0.215
      -0.476
      -0.883
      -1.259
      -1.443
      -1.382
      -1.127
      -0.769
      -0.395
      -0.064
       0.194
       0.395
       0.592
       0.839
       1.133
       1.374
       1.407
       1.125
       0.552
      -0.150
      -0.787
      -1.232
      -1.451
      -1.459
      -1.272
      -0.914
      -0.457
      -0.032
       0.225
       0.252
       0.100
      -0.109
      -0.263
      -0.315
      -0.285
      -0.215
      -0.131
      -0.030
       0.088
       0.185
       0.179
       0.011
      -0.288
      -0.583
      -0.725
      -0.650
      -0.422
      -0.194
      -0.127
      -0.302
      -0.685
      -1.140
      -1.507
      -1.684
      -1.656
      -1.460
      -1.133
      -0.707
      -0.242
       0.159
       0.389
       0.401
       0.231
      -0.034
      -0.327
      -0.637
      -0.991
      -1.383
      -1.738
      -1.952
      -1.974
      -1.841
      -1.651
      -1.483
      -1.365
      -1.288
      -1.248
      -1.243
      -1.258
      -1.253
      -1.175
      -0.982
      -0.656
      -0.205
       0.335
       0.894
       1.369
       1.639
       1.611
       1.269
       0.698
       0.066
      -0.440
      -0.688
      -0.645
      -0.376
       0.001
       0.373
       0.671
       0.869
       0.962
       0.957
       0.861
       0.691
       0.472
       0.242
       0.032
      -0.153
      -0.301
      -0.352
      -0.211
       0.159
       0.657
       1.077
       1.255
       1.183
       0.999
       0.859
       0.819
       0.820
       0.770
       0.638
       0.487
       0.429
       0.539
       0.792
       1.071
       1.235
       1.205
       0.995
       0.681
       0.343
       0.022
      -0.282
      -0.575
      -0.830
      -0.973
      -0.922
      -0.654
      -0.261
       0.081
       0.214
       0.113
      -0.101
      -0.256
      -0.253
      -0.133
      -0.005
       0.057
       0.074
       0.109
       0.186
       0.247
       0.213
       0.082
      -0.027
       0.053
       0.400
       0.942
       1.519
       1.996
       2.331
       2.544
       2.648
       2.614
       2.425
       2.124
       1.816
       1.599
       1.498
       1.459
       1.392
       1.238
       0.996
       0.726
       0.508
       0.416
       0.498
       0.753
       1.122
       1.493
       1.741
       1.775
       1.565
       1.138
       0.555
      -0.107
      -0.763
      -1.324
      -1.722
      -1.937
      -2.007
      -2.009
      -1.988
      -1.932
      -1.781
      -1.487
      -1.065
      -0.604
      -0.232
      -0.052
      -0.088
      -0.279
      -0.529
      -0.758
      -0.929
      -1.023
      -1.014
      -0.874
      -0.607
      -0.283
      -0.016
       0.109
       0.113
       0.141
       0.368
       0.872
       1.567
       2.247
       2.704
       2.822
       2.589
       2.078
       1.402
       0.677
       0.013
      -0.503
      -0.808
      -0.888
      -0.803
      -0.677
      -0.658
      -0.838
      -1.200
      -1.622
      -1.954
      -2.089
      -2.007
      -1.762
      -1.457
      -1.210
      -1.107
      -1.178
      -1.390
      -1.660
      -1.895
      -2.037
      -2.075
      -2.010
      -1.803
      -1.400
      -0.826
      -0.226
       0.246
       0.548
       0.750
       0.936
       1.128
       1.291
       1.381
       1.365
       1.239
       1.057
       0.925
       0.901
       0.894
       0.710
       0.245
      -0.387
      -0.971
      -1.416
      -1.815
      -2.283
      -2.753
      -2.986
      -2.814
      -2.335
      -1.820
      -1.461
      -1.232
      -0.992
      -0.687
      -0.430
      -0.380
      -0.552
      -0.779
      -0.854
      -0.697
      -0.396
      -0.097
       0.131
       0.315
       0.475
       0.558
       0.475
       0.206
      -0.159
      -0.470
      -0.628
      -0.631
      -0.546
      -0.434
      -0.318
      -0.195
      -0.080
      -0.028
      -0.107
      -0.333
      -0.649
      -0.974
      -1.276
      -1.575
      -1.892
      -2.190
      -2.379
      -2.372
      -2.145
      -1.738
      -1.216
      -0.626
       0.009
       0.667
       1.309
       1.872
       2.291
       2.528
       2.598
       2.558
       2.468
       2.364
       2.260
       2.171
       2.100
       2.013
       1.844
       1.569
       1.263
       1.076
       1.119
       1.377
       1.730
       2.062
       2.324
       2.498
       2.533
       2.340
       1.871
       1.192
       0.472
      -0.125
      -0.539
      -0.835
      -1.133
      -1.505
      -1.930
      -2.340
      -2.699
      -3.048
      -3.452
      -3.900
      -4.260
      -4.352
      -4.074
      -3.486
      -2.745
      -1.977
      -1.204
      -0.403
       0.385
       1.033
       1.412
       1.510
       1.448
       1.404
       1.490
       1.699
       1.941
       2.126
       2.229
       2.298
       2.385
       2.473
       2.482
       2.361
       2.162
       2.018
       2.043
       2.249
       2.544
       2.805
       2.952
       2.969
       2.867
       2.642
       2.281
       1.794
       1.240
       0.711
       0.286
       0.007
      -0.107
      -0.039
       0.196
       0.522
       0.815
       0.965
       0.935
       0.755
       0.477
       0.144
      -0.200
      -0.509
      -0.747
      -0.922
      -1.078
      -1.267
      -1.507
      -1.789
      -2.089
      -2.379
      -2.613
      -2.737
      -2.708
      -2.519
      -2.214
      -1.865
      -1.531
      -1.221
      -0.885
      -0.458
       0.072
       0.638
       1.139
       1.520
       1.798
       2.009
       2.141
       2.130
       1.938
       1.588
       1.145
       0.655
       0.112
      -0.535
      -1.326
      -2.232
      -3.153
      -3.958
      -4.538
      -4.826
      -4.802
      -4.494
      -3.979
      -3.385
      -2.855
      -2.483
      -2.265
      -2.102
      -1.861
      -1.451
      -0.879
      -0.227
       0.414
       0.990
       1.463
       1.795
       1.958
       1.973
       1.917
       1.879
       1.886
       1.875
       1.749
       1.467
       1.090
       0.765
       0.631
       0.714
       0.911
       1.078
       1.142
       1.130
       1.100
       1.065
       0.971
       0.729
       0.278
      -0.385
      -1.205
      -2.087
      -2.928
      -3.651
      -4.215
      -4.597
      -4.760
      -4.661
      -4.290
      -3.713
      -3.048
      -2.391
      -1.744
      -1.041
      -0.227
       0.660
       1.512
       2.217
       2.738
       3.122
       3.446
       3.744
       3.980
       4.084
       4.017
       3.797
       3.489
       3.157
       2.820
       2.447
       2.009
       1.540
       1.135
       0.891
       0.850
       1.006
       1.341
       1.833
       2.418
       2.941
       3.199
       3.058
       2.538
       1.797
       1.014
       0.279
      -0.411
      -1.067
      -1.634
      -2.009
      -2.117
      -1.953
      -1.567
      -1.009
      -0.302
       0.537
       1.457
       2.367
       3.159
       3.748
       4.100
       4.224
       4.145
       3.856
       3.324
       2.530
       1.518
       0.398
      -0.702
      -1.704
      -2.600
      -3.425
      -4.187
      -4.830
      -5.253
      -5.364
      -5.130
      -4.564
      -3.696
      -2.554
      -1.174
       0.368
       1.933
       3.317
       4.315
       4.812
       4.839
       4.540
       4.096
       3.625
       3.164
       2.711
       2.298
       1.980
       1.775
       1.621
       1.410
       1.071
       0.635
       0.212
      -0.095
      -0.276
      -0.422
      -0.647
      -0.997
      -1.431
      -1.890
      -2.381
      -2.984
      -3.774
      -4.729
      -5.710
      -6.537
      -7.082
      -7.315
      -7.273
      -6.982
      -6.424
      -5.570
      -4.460
      -3.230
      -2.063
      -1.087
      -0.300
       0.400
       1.110
       1.826
       2.434
       2.787
       2.801
       2.487
       1.940
       1.299
       0.710
       0.293
       0.095
       0.064
       0.093
       0.093
       0.065
       0.087
       0.234
       0.522
       0.897
       1.283
       1.616
       1.846
       1.946
       1.912
       1.771
       1.560
       1.320
       1.095
       0.932
       0.849
       0.822
       0.779
       0.650
       0.412
       0.104
      -0.216
      -0.497
      -0.707
      -0.805
      -0.740
      -0.478
      -0.042
       0.469
       0.895
       1.063
       0.863
       0.325
      -0.372
      -0.976
      -1.293
      -1.275
      -1.011
      -0.644
      -0.282
       0.008
       0.176
       0.171
      -0.021
      -0.343
      -0.687
      -0.967
      -1.175
      -1.362
      -1.572
      -1.796
      -1.990
      -2.119
      -2.173
      -2.145
      -2.010
      -1.738
      -1.317
      -0.780
      -0.196
       0.360
       0.849
       1.285
       1.715
       2.163
       2.596
       2.930
       3.084
       3.014
       2.727
       2.270
       1.697
       1.056
       0.401
      -0.196
      -0.649
      -0.887
      -0.886
      -0.678
      -0.347
       0.016
       0.339
       0.578
       0.698
       0.676
       0.515
       0.259
      -0.020
      -0.250
      -0.402
      -0.503
      -0.597
      -0.695
      -0.759
      -0.747
      -0.669
      -0.583
      -0.529
      -0.481
      -0.383
      -0.241
      -0.161
      -0.289
      -0.668
      -1.177
      -1.614
      -1.859
      -1.945
      -1.993
      -2.074
      -2.131
      -2.046
      -1.752
      -1.319
      -0.911
      -0.662
      -0.572
      -0.512
      -0.330
       0.029
       0.499
       0.979
       1.421
       1.842
       2.235
       2.481
       2.374
       1.775
       0.753
      -0.413
      -1.380
      -1.921
      -2.004
      -1.728
      -1.189
      -0.409
       0.625
       1.849
       3.074
       4.045
       4.577
       4.641
       4.343
       3.809
       3.097
       2.216
       1.209
       0.211
      -0.603
      -1.113
      -1.341
      -1.425
      -1.513
      -1.649
      -1.758
      -1.717
      -1.465
      -1.050
      -0.587
      -0.173
       0.160
       0.407
       0.518
       0.390
      -0.049
      -0.742
      -1.485
      -2.019
      -2.163
      -1.897
      -1.336
      -0.644
       0.055
       0.703
       1.273
       1.724
       2.002
       2.088
       2.024
       1.901
       1.782
       1.663
       1.492
       1.212
       0.808
       0.307
      -0.240
      -0.803
      -1.369
      -1.925
      -2.446
      -2.918
      -3.329
      -3.644
      -3.789
      -3.681
      -3.295
      -2.704
      -2.057
      -1.492
      -1.062
      -0.721
      -0.407
      -0.120
       0.070
       0.103
       0.007
      -0.107
      -0.122
       0.004
       0.238
       0.532
       0.879
       1.279
       1.672
       1.927
       1.929
       1.680
       1.306
       0.963
       0.723
       0.552
       0.398
       0.284
       0.311
       0.546
       0.914
       1.217
       1.270
       1.042
       0.657
       0.275
      -0.032
      -0.285
      -0.511
      -0.665
      -0.640
      -0.348
       0.211
       0.932
       1.653
       2.227
       2.576
       2.713
       2.697
       2.576
       2.357
       2.025
       1.568
       0.997
       0.352
      -0.306
      -0.910
      -1.412
      -1.761
      -1.876
      -1.623
      -0.890
       0.290
       1.683
       2.945
       3.802
       4.160
       4.080
       3.673
       3.014
       2.147
       1.139
       0.124
      -0.735
      -1.325
      -1.652
      -1.838
      -2.036
      -2.309
      -2.578
      -2.690
      -2.531
      -2.108
      -1.528
      -0.934
      -0.442
      -0.106
       0.073
       0.117
       0.042
      -0.163
      -0.523
      -1.050
      -1.717
      -2.458
      -3.197
      -3.860
      -4.374
      -4.658
      -4.630
      -4.235
      -3.480
      -2.452
      -1.289
      -0.128
       0.936
       1.861
       2.634
       3.232
       3.605
       3.712
       3.575
       3.289
       2.960
       2.643
       2.325
       1.965
       1.532
       1.013
       0.404
      -0.279
      -0.985
      -1.612
      -2.018
      -2.088
      -1.797
      -1.224
      -0.504
       0.232
       0.894
       1.439
       1.862
       2.180
       2.418
       2.577
       2.633
       2.549
       2.298
       1.871
       1.287
       0.609
      -0.082
      -0.732
      -1.320
      -1.811
      -2.124
      -2.157
      -1.879
      -1.380
      -0.799
      -0.196
       0.502
       1.397
       2.465
       3.507
       4.259
       4.552
       4.385
       3.868
       3.101
       2.098
       0.829
      -0.675
      -2.258
      -3.721
      -4.964
      -6.014
      -6.895
      -7.493
      -7.588
      -7.030
      -5.876
      -4.362
      -2.763
      -1.266
       0.049
       1.125
       1.898
       2.342
       2.507
       2.467
       2.273
       1.940
       1.478
       0.925
       0.342
      -0.220
      -0.725
      -1.119
      -1.323
      -1.286
      -1.010
      -0.543
       0.053
       0.698
       1.284
       1.665
       1.681
       1.257
       0.498
      -0.324
      -0.914
      -1.102
      -0.884
      -0.365
       0.317
       1.033
       1.671
       2.155
       2.471
       2.661
       2.746
       2.664
       2.302
       1.634
       0.807
       0.064
      -0.398
      -0.535
      -0.448
      -0.318
      -0.295
      -0.429
      -0.652
      -0.835
      -0.883
      -0.769
      -0.518
      -0.156
       0.307
       0.847
       1.388
       1.809
       2.021
       2.031
       1.900
       1.651
       1.218
       0.537
      -0.332
      -1.165
      -1.680
      -1.696
      -1.218
      -0.417
       0.445
       1.104
       1.363
       1.154
       0.556
      -0.234
      -0.976
      -1.481
      -1.682
      -1.653
      -1.560
      -1.580
      -1.814
      -2.252
      -2.785
      -3.272
      -3.589
      -3.634
      -3.337
      -2.694
      -1.796
      -0.788
       0.174
       0.957
       1.472
       1.688
       1.641
       1.419
       1.136
       0.899
       0.778
       0.794
       0.914
       1.088
       1.272
       1.415
       1.436
       1.249
       0.833
       0.261
      -0.343
      -0.880
      -1.310
      -1.638
      -1.867
      -1.976
      -1.925
      -1.661
      -1.143
      -0.371
       0.587
       1.596
       2.493
       3.134
       3.408
       3.248
       2.645
       1.678
       0.498
      -0.729
      -1.875
      -2.848
      -3.593
      -4.092
      -4.377
      -4.508
      -4.508
      -4.317
      -3.809
      -2.887
      -1.576
      -0.045
       1.442
       2.643
       3.422
       3.757
       3.694
       3.302
       2.648
       1.800
       0.851
      -0.065
      -0.802
      -1.282
      -1.553
      -1.756
      -2.005
      -2.280
      -2.417
      -2.237
      -1.679
      -0.848
       0.060
       0.886
       1.566
       2.093
       2.433
       2.494
       2.170
       1.424
       0.341
      -0.881
      -2.006
      -2.838
      -3.271
      -3.271
      -2.842
      -1.999
      -0.776
       0.738
       2.376
       3.907
       5.102
       5.809
       5.982
       5.651
       4.887
       3.798
       2.553
       1.347
       0.324
      -0.479
      -1.107
      -1.599
      -1.933
      -2.055
      -1.960
      -1.704
      -1.351
      -0.910
      -0.370
       0.240
       0.816
       1.242
       1.471
       1.517
       1.370
       0.948
       0.162
      -0.951
      -2.167
      -3.155
      -3.669
      -3.683
      -3.367
      -2.931
      -2.491
      -2.056
      -1.606
      -1.159
      -0.747
      -0.359
       0.080
       0.656
       1.411
       2.320
       3.319
       4.315
       5.187
       5.793
       6.014
       5.814
       5.241
       4.371
       3.249
       1.910
       0.460
      -0.880
      -1.854
      -2.298
      -2.226
      -1.789
      -1.162
      -0.462
       0.253
       0.927
       1.484
       1.861
       2.050
       2.108
       2.095
       1.986
       1.670
       1.063
       0.246
      -0.533
      -0.997
      -1.008
      -0.633
      -0.068
       0.499
       0.964
       1.297
       1.487
       1.527
       1.427
       1.223
       0.962
       0.696
       0.471
       0.327
       0.288
       0.356
       0.492
       0.584
       0.473
       0.044
      -0.686
      -1.591
      -2.519
      -3.365
      -4.048
      -4.446
      -4.403
      -3.823
      -2.761
      -1.406
       0.016
       1.333
       2.434
       3.239
       3.654
       3.581
       2.971
       1.883
       0.492
      -0.966
      -2.294
      -3.402
      -4.283
      -4.920
      -5.229
      -5.125
      -4.622
      -3.874
      -3.096
      -2.448
      -1.977
      -1.669
      -1.512
      -1.505
      -1.608
      -1.740
      -1.787
      -1.651
      -1.307
      -0.828
      -0.335
       0.072
       0.352
       0.502
       0.546
       0.534
       0.545
       0.673
       0.990
       1.505
       2.146
       2.781
       3.267
       3.498
       3.411
       2.969
       2.162
       1.046
      -0.232
      -1.436
      -2.311
      -2.688
      -2.572
      -2.123
      -1.535
      -0.930
      -0.367
       0.091
       0.328
       0.200
      -0.366
      -1.284
      -2.313
      -3.152
      -3.563
      -3.466
      -2.946
      -2.182
      -1.320
      -0.424
       0.503
       1.446
       2.319
       2.968
       3.247
       3.120
       2.687
       2.115
       1.534
       0.967
       0.371
      -0.274
      -0.901
      -1.394
      -1.660
      -1.701
      -1.603
      -1.482
      -1.422
      -1.437
      -1.485
      -1.506
      -1.458
      -1.326
      -1.096
      -0.746
      -0.257
       0.361
       1.070
       1.800
       2.456
       2.950
       3.243
       3.351
       3.314
       3.170
       2.913
       2.464
       1.706
       0.594
      -0.768
      -2.161
      -3.361
      -4.233
      -4.742
      -4.887
      -4.655
      -4.044
      -3.119
      -2.018
      -0.894
       0.153
       1.086
       1.882
       2.487
       2.842
       2.961
       2.944
       2.877
       2.718
       2.334
       1.649
       0.760
      -0.126
      -0.818
      -1.225
      -1.351
      -1.237
      -0.902
      -0.347
       0.403
       1.266
       2.115
       2.817
       3.268
       3.422
       3.289
       2.909
       2.333
       1.624
       0.864
