Origin Time       04/04/2011 11:31:40 UTC
Lat.              29.6 N	
Long.             80.8 E	
Depth (Km)         10.0
Magnitude         5.7
 Region           NEPAL-INDIA-BORDER-REGION                                        
 Above details taken from IMD 
    
Station Code      ALM
Station Lat.       29.596  N
Station Long.      79.657  E
Station Height(m) 1642.0
Site Class        A   Vs30 between 700 m/sec to 1400 m/sec * 
Record Time       04.04.2011 11:31:34.259 UTC
Sampling Rate     200. Hz
 Record Duration  106.420 Sec.
 Direction         N-S (N positive)
Max. Acceleration     10.662 cm/sec**2
     
  * For reference see Site Classification link of website 
     
 Base Line Corrected and Low Pass Filtered (Cut Off at 35 Hz) Time History
 Acceleration data in cm/sec**2
    
[...]
       2.524
       2.205
       1.877
       1.542
       1.182
       0.778
       0.315
      -0.213
      -0.785
      -1.349
      -1.835
      -2.191
      -2.419
      -2.569
      -2.696
      -2.814
      -2.869
      -2.779
      -2.497
      -2.054
      -1.548
      -1.089
      -0.753
      -0.569
      -0.538
      -0.646
      -0.859
      -1.117
      -1.353
      -1.530
      -1.675
      -1.863
      -2.162
      -2.583
      -3.073
      -3.551
      -3.957
      -4.265
      -4.447
      -4.450
      -4.212
      -3.705
      -2.970
      -2.097
      -1.166
      -0.217
       0.750
       1.723
       2.657
       3.480
       4.143
       4.655
       5.064
       5.414
       5.700
       5.868
       5.854
       5.639
       5.261
       4.792
       4.297
       3.813
       3.350
       2.925
       2.570
       2.316
       2.158
       2.052
       1.942
       1.803
       1.656
       1.534
       1.440
       1.325
       1.120
       0.778
       0.314
      -0.200
      -0.677
      -1.051
      -1.312
      -1.493
      -1.640
      -1.787
      -1.950
      -2.132
      -2.324
      -2.489
      -2.565
      -2.499
      -2.287
      -1.983
      -1.678
      -1.441
      -1.293
      -1.203
      -1.120
      -1.003
      -0.832
      -0.602
      -0.313
       0.036
       0.433
       0.838
       1.193
       1.449
       1.594
       1.661
       1.713
       1.813
       1.997
       2.259
       2.550
       2.803
       2.958
       2.975
       2.828
       2.493
       1.954
       1.227
       0.369
      -0.533
      -1.391
      -2.144
      -2.781
      -3.332
      -3.847
      -4.360
      -4.872
      -5.348
      -5.734
      -5.986
      -6.088
      -6.050
      -5.880
      -5.562
      -5.054
      -4.332
      -3.423
      -2.418
      -1.432
      -0.549
       0.197
       0.818
       1.334
       1.753
       2.071
       2.280
       2.381
       2.372
       2.243
       1.999
       1.674
       1.347
       1.104
       0.997
       1.027
       1.150
       1.310
       1.456
       1.561
       1.618
       1.630
       1.597
       1.504
       1.328
       1.056
       0.704
       0.312
      -0.080
      -0.464
      -0.863
      -1.316
      -1.833
      -2.381
      -2.895
      -3.305
      -3.572
      -3.688
      -3.670
      -3.532
      -3.283
      -2.932
      -2.500
      -2.017
      -1.507
      -0.979
      -0.443
       0.078
       0.542
       0.906
       1.149
       1.285
       1.343
       1.339
       1.253
       1.060
       0.768
       0.453
       0.238
       0.237
       0.490
       0.946
       1.514
       2.106
       2.666
       3.141
       3.471
       3.592
       3.482
       3.175
       2.743
       2.252
       1.731
       1.178
       0.596
       0.013
      -0.522
      -0.968
      -1.299
      -1.500
      -1.553
      -1.434
      -1.135
      -0.688
      -0.165
       0.349
       0.777
       1.080
       1.250
       1.302
       1.247
       1.086
       0.811
       0.415
      -0.096
      -0.702
      -1.379
      -2.103
      -2.839
      -3.533
      -4.116
      -4.527
      -4.732
      -4.728
      -4.522
      -4.095
      -3.400
      -2.404
      -1.144
       0.241
       1.566
       2.687
       3.577
       4.305
       4.956
       5.546
       6.009
       6.254
       6.239
       5.999
       5.612
       5.133
       4.559
       3.863
       3.059
       2.238
       1.526
       1.001
       0.643
       0.355
       0.041
      -0.320
      -0.682
      -0.991
      -1.247
      -1.507
      -1.826
      -2.201
      -2.554
      -2.785
      -2.829
      -2.693
      -2.444
      -2.175
      -1.976
      -1.909
      -1.993
      -2.195
      -2.428
      -2.581
      -2.551
      -2.290
      -1.820
      -1.229
      -0.638
      -0.158
       0.136
       0.233
       0.190
       0.123
       0.156
       0.347
       0.645
       0.910
       1.002
       0.873
       0.598
       0.325
       0.175
       0.178
       0.276
       0.396
       0.509
       0.640
       0.821
       1.032
       1.186
       1.172
       0.928
       0.485
      -0.054
      -0.582
      -1.052
      -1.478
      -1.893
      -2.288
      -2.599
      -2.744
      -2.681
      -2.432
      -2.064
      -1.644
      -1.196
      -0.711
      -0.176
       0.396
       0.959
       1.463
       1.876
       2.201
       2.455
       2.652
       2.798
       2.887
       2.906
       2.841
       2.674
       2.391
       1.994
       1.507
       0.974
       0.447
      -0.022
      -0.393
      -0.640
      -0.760
      -0.764
      -0.675
      -0.519
      -0.311
      -0.056
       0.239
       0.551
       0.834
       1.041
       1.151
       1.182
       1.178
       1.172
       1.162
       1.092
       0.878
       0.448
      -0.211
      -1.024
      -1.861
      -2.590
      -3.139
      -3.511
      -3.754
      -3.907
      -3.971
      -3.922
      -3.740
      -3.438
      -3.058
      -2.652
      -2.274
      -1.969
      -1.767
      -1.664
      -1.609
      -1.514
      -1.304
      -0.962
      -0.531
      -0.076
       0.373
       0.834
       1.334
       1.848
       2.292
       2.577
       2.680
       2.659
       2.606
       2.568
       2.518
       2.397
       2.179
       1.893
       1.604
       1.355
       1.144
       0.958
       0.803
       0.720
       0.743
       0.861
       1.003
       1.095
       1.117
       1.119
       1.189
       1.376
       1.650
       1.923
       2.105
       2.160
       2.098
       1.928
       1.619
       1.117
       0.409
      -0.417
      -1.200
      -1.796
      -2.158
      -2.353
      -2.479
      -2.582
      -2.631
      -2.575
      -2.427
      -2.281
      -2.252
      -2.392
      -2.651
      -2.926
      -3.135
      -3.250
      -3.286
      -3.261
      -3.177
      -3.047
      -2.921
      -2.880
      -2.982
      -3.207
      -3.448
      -3.564
      -3.454
      -3.111
      -2.609
      -2.054
      -1.521
      -1.031
      -0.557
      -0.068
       0.444
       0.961
       1.479
       2.028
       2.664
       3.421
       4.259
       5.067
       5.710
       6.105
       6.256
       6.242
       6.171
       6.134
       6.185
       6.348
       6.616
       6.959
       7.310
       7.588
       7.707
       7.599
       7.219
       6.557
       5.629
       4.481
       3.176
       1.793
       0.425
      -0.830
      -1.881
      -2.666
      -3.190
      -3.536
      -3.839
      -4.222
      -4.732
      -5.319
      -5.872
      -6.290
      -6.518
      -6.533
      -6.318
      -5.871
      -5.229
      -4.489
      -3.777
      -3.176
      -2.696
      -2.296
      -1.953
      -1.690
      -1.544
      -1.510
      -1.519
      -1.499
      -1.433
      -1.365
      -1.339
      -1.327
      -1.230
      -0.963
      -0.534
      -0.055
       0.346
       0.625
       0.860
       1.185
       1.697
       2.379
       3.114
       3.753
       4.215
       4.523
       4.772
       5.044
       5.327
       5.505
       5.422
       4.971
       4.156
       3.083
       1.885
       0.649
      -0.607
      -1.887
      -3.150
      -4.296
      -5.204
      -5.815
      -6.154
      -6.286
      -6.236
      -5.959
      -5.380
      -4.469
      -3.301
      -2.039
      -0.862
       0.090
       0.743
       1.076
       1.113
       0.921
       0.610
       0.303
       0.082
      -0.046
      -0.138
      -0.266
      -0.469
      -0.730
      -0.987
      -1.157
      -1.175
      -1.020
      -0.706
      -0.255
       0.334
       1.082
       1.985
       2.977
       3.921
       4.659
       5.067
       5.091
       4.743
       4.081
       3.190
       2.180
       1.176
       0.297
      -0.390
      -0.883
      -1.235
      -1.503
      -1.702
      -1.804
      -1.756
      -1.527
      -1.133
      -0.631
      -0.090
       0.434
       0.913
       1.346
       1.749
       2.140
       2.521
       2.860
       3.086
       3.109
       2.865
       2.361
       1.682
       0.966
       0.358
      -0.026
      -0.121
       0.073
       0.491
       1.022
       1.546
       1.986
       2.322
       2.572
       2.745
       2.808
       2.693
       2.329
       1.693
       0.817
      -0.234
      -1.392
      -2.590
      -3.738
      -4.715
      -5.401
      -5.745
      -5.798
      -5.664
      -5.412
      -5.018
      -4.387
      -3.444
      -2.203
      -0.777
       0.672
       1.994
       3.079
       3.843
       4.218
       4.158
       3.668
       2.800
       1.616
       0.145
      -1.597
      -3.541
      -5.501
      -7.204
      -8.387
      -8.904
      -8.757
      -8.063
      -6.979
      -5.657
      -4.220
      -2.745
      -1.265
       0.197
       1.603
       2.901
       4.041
       5.016
       5.858
       6.595
       7.190
       7.531
       7.483
       6.967
       6.002
       4.680
       3.105
       1.377
      -0.397
      -2.081
      -3.550
      -4.727
      -5.579
      -6.069
      -6.131
      -5.702
      -4.778
      -3.438
      -1.820
      -0.074
       1.661
       3.260
       4.605
       5.595
       6.168
       6.316
       6.074
       5.496
       4.631
       3.532
       2.269
       0.950
      -0.314
      -1.452
      -2.470
      -3.417
      -4.321
      -5.132
      -5.739
      -6.038
      -5.995
      -5.648
      -5.040
      -4.179
      -3.059
      -1.729
      -0.329
       0.967
       2.045
       2.906
       3.625
       4.241
       4.679
       4.789
       4.458
       3.707
       2.683
       1.571
       0.503
      -0.464
      -1.305
      -1.985
      -2.461
      -2.713
      -2.759
      -2.624
      -2.309
      -1.788
      -1.049
      -0.139
       0.830
       1.725
       2.442
       2.943
       3.241
       3.364
       3.334
       3.159
       2.838
       2.368
       1.745
       0.978
       0.100
      -0.822
      -1.709
      -2.480
      -3.061
      -3.369
      -3.326
      -2.877
      -2.024
      -0.843
       0.537
       1.960
       3.262
       4.276
       4.850
       4.890
       4.401
       3.510
       2.437
       1.429
       0.664
       0.195
      -0.058
      -0.236
      -0.452
      -0.725
      -0.979
      -1.097
      -1.003
      -0.712
      -0.320
       0.056
       0.340
       0.524
       0.636
       0.697
       0.689
       0.579
       0.360
       0.090
      -0.121
      -0.164
       0.006
       0.350
       0.776
       1.208
       1.614
       1.988
       2.299
       2.483
       2.472
       2.246
       1.860
       1.422
       1.041
       0.778
       0.618
       0.478
       0.262
      -0.085
      -0.546
      -1.048
      -1.523
      -1.938
      -2.287
      -2.555
      -2.693
      -2.648
      -2.411
      -2.034
      -1.608
      -1.224
      -0.958
      -0.873
      -1.028
      -1.469
      -2.194
      -3.142
      -4.202
      -5.242
      -6.140
      -6.797
      -7.145
      -7.150
      -6.810
      -6.150
      -5.224
      -4.115
      -2.925
      -1.742
      -0.614
       0.449
       1.435
       2.304
       3.000
       3.501
       3.837
       4.059
       4.177
       4.144
       3.906
       3.477
       2.949
       2.427
       1.952
       1.480
       0.946
       0.330
      -0.339
      -1.049
      -1.839
      -2.759
      -3.781
      -4.761
      -5.507
      -5.895
      -5.949
      -5.803
      -5.607
      -5.461
      -5.404
      -5.447
      -5.581
      -5.777
      -5.982
      -6.136
      -6.194
      -6.134
      -5.940
      -5.591
      -5.062
      -4.348
      -3.471
      -2.479
      -1.435
      -0.401
       0.577
       1.467
       2.266
       2.980
       3.603
       4.091
       4.368
       4.369
       4.119
       3.755
       3.483
       3.468
       3.748
       4.233
       4.785
       5.303
       5.756
       6.146
       6.456
       6.628
       6.596
       6.341
       5.913
       5.407
       4.924
       4.542
       4.304
       4.220
       4.270
       4.404
       4.537
       4.560
       4.370
       3.912
       3.205
       2.346
       1.471
       0.728
       0.238
       0.061
       0.176
       0.487
       0.882
       1.287
       1.683
       2.057
       2.365
       2.519
       2.435
       2.081
       1.481
       0.687
      -0.251
      -1.271
      -2.271
      -3.090
      -3.546
      -3.507
      -2.964
      -2.048
      -0.986
      -0.003
       0.764
       1.315
       1.745
       2.175
       2.686
       3.308
       4.034
       4.833
       5.656
       6.435
       7.103
       7.612
       7.924
       7.987
       7.723
       7.073
       6.056
       4.791
       3.447
       2.162
       0.971
      -0.172
      -1.327
      -2.508
      -3.666
      -4.726
      -5.612
      -6.282
      -6.732
      -6.994
      -7.118
      -7.146
      -7.097
      -6.955
      -6.691
      -6.292
      -5.797
      -5.309
      -4.970
      -4.895
      -5.105
      -5.520
      -6.013
      -6.484
      -6.901
      -7.261
      -7.528
      -7.616
      -7.436
      -6.966
      -6.295
      -5.585
      -4.976
      -4.495
      -4.044
      -3.457
      -2.605
      -1.460
      -0.081
       1.445
       3.065
       4.750
       6.451
       8.049
       9.369
      10.257
      10.662
      10.656
      10.376
       9.931
       9.344
       8.568
       7.542
       6.248
       4.736
       3.097
       1.435
      -0.168
      -1.652
      -2.960
      -4.020
      -4.750
      -5.099
      -5.074
      -4.767
      -4.324
      -3.889
      -3.546
      -3.287
      -3.051
      -2.788
      -2.501
      -2.222
      -1.943
      -1.580
      -1.008
      -0.163
       0.890
       1.962
       2.820
       3.281
       3.259
       2.750
       1.799
       0.495
      -1.018
      -2.541
      -3.863
      -4.827
      -5.375
      -5.532
      -5.351
      -4.883
      -4.188
      -3.361
      -2.523
      -1.760
      -1.071
      -0.378
       0.390
       1.207
       1.945
       2.445
       2.609
       2.430
       1.959
       1.254
       0.373
      -0.596
      -1.523
      -2.265
      -2.732
      -2.934
      -2.955
      -2.876
      -2.702
      -2.349
      -1.699
      -0.684
       0.660
       2.213
       3.813
       5.299
       6.531
       7.388
       7.787
       7.702
       7.181
       6.329
       5.266
       4.091
       2.867
       1.635
       0.423
      -0.745
      -1.861
      -2.931
      -3.939
      -4.821
      -5.473
      -5.803
      -5.797
      -5.532
      -5.116
      -4.606
      -3.970
      -3.137
      -2.113
      -1.046
      -0.184
       0.283
       0.366
       0.278
       0.288
       0.518
       0.853
       1.035
       0.853
       0.288
      -0.500
      -1.294
      -1.951
      -2.427
      -2.703
      -2.707
      -2.321
      -1.463
      -0.174
       1.369
       2.918
       4.264
       5.299
       6.028
       6.510
       6.795
       6.889
       6.776
       6.478
       6.088
       5.740
       5.526
       5.424
       5.290
       4.940
       4.263
       3.302
       2.232
       1.250
       0.473
      -0.091
      -0.495
      -0.769
      -0.897
      -0.844
      -0.610
      -0.262
       0.089
       0.337
       0.415
       0.306
       0.024
      -0.411
      -0.979
      -1.650
      -2.368
      -3.055
      -3.638
      -4.087
      -4.427
      -4.717
      -5.007
      -5.290
      -5.490
      -5.485
      -5.165
      -4.508
      -3.611
      -2.658
      -1.821
      -1.164
      -0.605
       0.019
       0.841
       1.865
       2.962
       3.943
       4.649
       5.001
       4.991
       4.653
       4.040
       3.231
       2.332
       1.462
       0.726
       0.185
      -0.163
      -0.378
      -0.542
      -0.723
      -0.942
      -1.169
      -1.337
      -1.374
      -1.236
      -0.920
      -0.470
       0.028
       0.448
       0.659
       0.573
       0.177
      -0.451
      -1.182
      -1.897
      -2.526
      -3.068
      -3.567
      -4.084
      -4.660
      -5.283
      -5.866
      -6.261
      -6.305
      -5.902
      -5.061
      -3.893
      -2.547
      -1.146
       0.232
       1.534
       2.684
       3.580
       4.140
       4.373
       4.395
       4.379
       4.446
       4.594
       4.711
       4.660
       4.372
       3.874
       3.238
       2.510
       1.702
       0.834
      -0.030
      -0.794
      -1.372
      -1.722
      -1.826
      -1.679
      -1.285
      -0.688
       0.020
       0.716
       1.294
       1.693
       1.888
       1.868
       1.630
       1.203
       0.663
       0.110
      -0.382
      -0.792
      -1.133
      -1.415
      -1.627
      -1.748
      -1.769
      -1.687
      -1.496
      -1.196
      -0.829
      -0.497
      -0.334
      -0.423
      -0.734
      -1.120
      -1.400
      -1.450
      -1.253
      -0.879
      -0.434
      -0.026
       0.233
       0.226
      -0.127
      -0.814
      -1.703
      -2.593
      -3.315
      -3.804
      -4.081
      -4.169
      -4.039
      -3.624
      -2.903
      -1.966
      -1.004
      -0.222
       0.270
       0.512
       0.652
       0.854
       1.212
       1.744
       2.417
       3.179
       3.961
       4.657
       5.138
       5.292
       5.075
       4.531
       3.765
       2.905
       2.067
       1.346
       0.803
       0.471
       0.341
       0.361
       0.445
       0.503
       0.471
       0.332
       0.113
      -0.131
      -0.346
      -0.486
      -0.518
      -0.415
      -0.175
       0.153
       0.458
       0.604
       0.500
       0.168
      -0.274
      -0.700
      -1.065
      -1.414
      -1.818
      -2.294
      -2.792
      -3.240
      -3.618
      -3.971
      -4.357
      -4.781
      -5.161
      -5.355
      -5.226
      -4.694
      -3.761
      -2.502
      -1.043
       0.462
       1.867
       3.070
       4.035
       4.786
       5.370
       5.824
       6.153
       6.336
       6.339
       6.138
       5.728
       5.135
       4.409
       3.619
       2.828
       2.089
       1.428
       0.851
       0.348
      -0.080
      -0.408
      -0.574
      -0.509
      -0.175
       0.401
       1.113
       1.816
       2.364
       2.661
       2.665
       2.381
       1.842
       1.096
       0.208
      -0.750
      -1.710
      -2.603
      -3.375
      -3.988
      -4.439
      -4.750
      -4.947
      -5.029
      -4.975
      -4.760
      -4.383
      -3.864
      -3.232
      -2.508
      -1.721
      -0.934
      -0.262
       0.153
       0.209
      -0.086
      -0.603
      -1.154
      -1.591
      -1.870
      -2.032
      -2.142
      -2.232
      -2.283
      -2.259
      -2.145
      -1.952
      -1.689
      -1.327
      -0.804
      -0.075
       0.832
       1.812
       2.743
       3.547
       4.222
       4.809
       5.339
       5.803
       6.156
       6.347
       6.348
       6.159
       5.795
       5.261
       4.547
       3.635
       2.539
       1.328
       0.116
