Origin Time       04/04/2011 11:31:40
Lat.              29.6 N	
Long.             80.8 E	
Depth (Km)         10.0
Magnitude         5.7
 Region           NEPAL-INDIA-BORDER-REGION                                        
 Above details taken from IMD 
     
Station Code      ALM
Station Lat.       29.596  N
Station Long.      79.657  E
Station Height(m) 1642.0
Site Class        A   Vs30 between 700 m/sec to 1400 m/sec * 
Record Time       04.04.2011 11:31:34.259
Sampling Rate     200. Hz
 Record Duration  106.420 Sec.
 Direction         E-W (E positive)
Max. Acceleration      9.662 cm/sec**2
     
  * For reference see Site Classification link of website 
     
 Base Line Corrected and Low Pass Filtered (Cut Off at 35 Hz) Time History
 Acceleration data in cm/sec**2
    
[...]
      -1.241
      -1.468
      -1.687
      -1.831
      -1.846
      -1.691
      -1.334
      -0.750
       0.060
       1.042
       2.086
       3.049
       3.806
       4.291
       4.511
       4.525
       4.414
       4.250
       4.090
       3.966
       3.879
       3.799
       3.668
       3.423
       3.028
       2.498
       1.911
       1.378
       0.996
       0.795
       0.725
       0.693
       0.628
       0.506
       0.337
       0.120
      -0.169
      -0.557
      -1.027
      -1.505
      -1.893
      -2.128
      -2.217
      -2.236
      -2.279
      -2.397
      -2.565
      -2.706
      -2.742
      -2.647
      -2.458
      -2.231
      -1.992
      -1.715
      -1.355
      -0.908
      -0.421
       0.044
       0.453
       0.815
       1.158
       1.522
       1.944
       2.444
       3.012
       3.598
       4.138
       4.580
       4.888
       5.034
       4.980
       4.705
       4.238
       3.670
       3.134
       2.744
       2.538
       2.471
       2.448
       2.380
       2.221
       1.970
       1.630
       1.195
       0.660
       0.048
      -0.578
      -1.153
      -1.644
      -2.057
      -2.393
      -2.637
      -2.773
      -2.822
      -2.859
      -2.961
      -3.160
      -3.408
      -3.615
      -3.712
      -3.688
      -3.591
      -3.471
      -3.347
      -3.203
      -3.026
      -2.828
      -2.633
      -2.445
      -2.230
      -1.944
      -1.564
      -1.115
      -0.653
      -0.242
       0.071
       0.267
       0.349
       0.339
       0.268
       0.171
       0.077
      -0.008
      -0.091
      -0.184
      -0.279
      -0.354
      -0.394
      -0.406
      -0.423
      -0.473
      -0.558
      -0.654
      -0.733
      -0.785
      -0.820
      -0.856
      -0.906
      -0.972
      -1.039
      -1.070
      -1.013
      -0.831
      -0.530
      -0.169
       0.161
       0.380
       0.457
       0.418
       0.318
       0.209
       0.119
       0.067
       0.087
       0.227
       0.509
       0.884
       1.237
       1.450
       1.480
       1.394
       1.309
       1.307
       1.376
       1.436
       1.422
       1.342
       1.259
       1.226
       1.223
       1.170
       0.996
       0.709
       0.396
       0.163
       0.058
       0.059
       0.119
       0.226
       0.415
       0.717
       1.102
       1.478
       1.753
       1.894
       1.944
       1.972
       2.003
       1.992
       1.860
       1.561
       1.119
       0.618
       0.141
      -0.265
      -0.587
      -0.826
      -0.976
      -1.035
      -1.022
      -0.968
      -0.906
      -0.853
      -0.816
      -0.809
      -0.864
      -1.019
      -1.296
      -1.673
      -2.087
      -2.447
      -2.676
      -2.735
      -2.629
      -2.391
      -2.077
      -1.754
      -1.496
      -1.355
      -1.349
      -1.460
      -1.649
      -1.874
      -2.091
      -2.257
      -2.324
      -2.251
      -2.010
      -1.592
      -1.017
      -0.331
       0.399
       1.108
       1.760
       2.346
       2.874
       3.336
       3.708
       3.959
       4.085
       4.109
       4.056
       3.923
       3.674
       3.270
       2.707
       2.032
       1.319
       0.628
      -0.020
      -0.633
      -1.220
      -1.772
      -2.257
      -2.630
      -2.851
      -2.905
      -2.820
      -2.656
      -2.485
      -2.347
      -2.237
      -2.113
      -1.932
      -1.684
      -1.396
      -1.110
      -0.852
      -0.607
      -0.334
      -0.003
       0.374
       0.746
       1.059
       1.289
       1.459
       1.618
       1.802
       2.021
       2.272
       2.558
       2.888
       3.249
       3.572
       3.745
       3.673
       3.338
       2.807
       2.200
       1.620
       1.103
       0.620
       0.123
      -0.406
      -0.931
      -1.389
      -1.739
      -1.992
      -2.196
      -2.400
      -2.622
      -2.853
      -3.071
      -3.263
      -3.431
      -3.590
      -3.766
      -3.983
      -4.253
      -4.571
      -4.916
      -5.249
      -5.507
      -5.620
      -5.530
      -5.222
      -4.734
      -4.132
      -3.482
      -2.823
      -2.176
      -1.549
      -0.946
      -0.369
       0.187
       0.734
       1.267
       1.754
       2.133
       2.344
       2.361
       2.203
       1.911
       1.525
       1.079
       0.620
       0.223
      -0.032
      -0.099
       0.004
       0.210
       0.443
       0.664
       0.877
       1.111
       1.380
       1.665
       1.928
       2.142
       2.307
       2.439
       2.546
       2.612
       2.611
       2.526
       2.359
       2.135
       1.884
       1.651
       1.490
       1.460
       1.590
       1.855
       2.178
       2.463
       2.645
       2.720
       2.746
       2.795
       2.920
       3.122
       3.361
       3.579
       3.722
       3.740
       3.589
       3.235
       2.675
       1.963
       1.210
       0.538
       0.035
      -0.293
      -0.501
      -0.661
      -0.812
      -0.942
      -1.019
      -1.031
      -1.009
      -1.007
      -1.062
      -1.167
      -1.283
      -1.391
      -1.523
      -1.747
      -2.097
      -2.525
      -2.914
      -3.144
      -3.168
      -3.020
      -2.771
      -2.458
      -2.062
      -1.536
      -0.861
      -0.083
       0.704
       1.414
       2.013
       2.515
       2.954
       3.335
       3.643
       3.859
       3.993
       4.081
       4.149
       4.186
       4.135
       3.938
       3.576
       3.098
       2.607
       2.208
       1.958
       1.844
       1.787
       1.688
       1.468
       1.102
       0.607
       0.019
      -0.641
      -1.367
      -2.139
      -2.893
      -3.518
      -3.910
      -4.032
      -3.953
      -3.803
      -3.694
      -3.655
      -3.633
      -3.551
      -3.367
      -3.103
      -2.819
      -2.587
      -2.468
      -2.496
      -2.676
      -2.977
      -3.338
      -3.685
      -3.957
      -4.106
      -4.106
      -3.940
      -3.616
      -3.165
      -2.632
      -2.058
      -1.459
      -0.830
      -0.173
       0.481
       1.068
       1.518
       1.800
       1.937
       1.996
       2.048
       2.140
       2.280
       2.448
       2.620
       2.780
       2.920
       3.034
       3.112
       3.132
       3.063
       2.866
       2.517
       2.026
       1.449
       0.868
       0.350
      -0.078
      -0.442
      -0.786
      -1.146
      -1.522
      -1.880
      -2.179
      -2.389
      -2.493
      -2.473
      -2.311
      -1.996
      -1.555
      -1.053
      -0.579
      -0.213
       0.006
       0.091
       0.096
       0.081
       0.071
       0.046
      -0.030
      -0.165
      -0.307
      -0.358
      -0.233
       0.098
       0.589
       1.155
       1.716
       2.234
       2.713
       3.163
       3.563
       3.856
       3.970
       3.870
       3.584
       3.182
       2.739
       2.282
       1.795
       1.248
       0.649
       0.056
      -0.448
      -0.815
      -1.064
      -1.254
      -1.433
      -1.587
      -1.666
      -1.638
      -1.553
      -1.522
      -1.646
      -1.942
      -2.322
      -2.662
      -2.879
      -2.966
      -2.960
      -2.883
      -2.719
      -2.450
      -2.104
      -1.758
      -1.473
      -1.219
      -0.882
      -0.348
       0.401
       1.254
       2.042
       2.632
       2.977
       3.085
       2.965
       2.603
       1.991
       1.189
       0.339
      -0.382
      -0.848
      -1.038
      -1.029
      -0.920
      -0.769
      -0.584
      -0.370
      -0.180
      -0.105
      -0.202
      -0.423
      -0.628
      -0.688
      -0.589
      -0.440
      -0.393
      -0.514
      -0.738
      -0.920
      -0.947
      -0.798
      -0.524
      -0.171
       0.269
       0.834
       1.520
       2.237
       2.841
       3.212
       3.331
       3.272
       3.141
       3.012
       2.896
       2.763
       2.589
       2.374
       2.141
       1.909
       1.686
       1.468
       1.260
       1.070
       0.902
       0.744
       0.567
       0.342
       0.052
      -0.296
      -0.686
      -1.094
      -1.495
      -1.866
      -2.194
      -2.483
      -2.749
      -3.001
      -3.220
      -3.364
      -3.396
      -3.306
      -3.126
      -2.906
      -2.686
      -2.489
      -2.327
      -2.208
      -2.135
      -2.106
      -2.103
      -2.110
      -2.117
      -2.126
      -2.140
      -2.145
      -2.113
      -2.021
      -1.858
      -1.629
      -1.330
      -0.924
      -0.365
       0.355
       1.175
       1.977
       2.645
       3.115
       3.391
       3.508
       3.491
       3.338
       3.044
       2.640
       2.194
       1.773
       1.376
       0.928
       0.336
      -0.419
      -1.239
      -1.954
      -2.421
      -2.596
      -2.540
      -2.365
      -2.151
      -1.908
      -1.578
      -1.098
      -0.475
       0.197
       0.778
       1.155
       1.298
       1.237
       1.011
       0.636
       0.117
      -0.501
      -1.096
      -1.497
      -1.548
      -1.196
      -0.514
       0.344
       1.225
       2.048
       2.800
       3.498
       4.134
       4.664
       5.037
       5.226
       5.240
       5.095
       4.784
       4.284
       3.578
       2.696
       1.710
       0.702
      -0.263
      -1.153
      -1.954
      -2.655
      -3.235
      -3.663
      -3.899
      -3.906
      -3.677
      -3.255
      -2.735
      -2.230
      -1.833
      -1.590
      -1.501
      -1.533
      -1.633
      -1.737
      -1.791
      -1.767
      -1.679
      -1.568
      -1.469
      -1.396
      -1.342
      -1.305
      -1.293
      -1.308
      -1.315
      -1.225
      -0.913
      -0.274
       0.726
       2.012
       3.425
       4.768
       5.872
       6.630
       7.004
       7.009
       6.683
       6.077
       5.257
       4.310
       3.313
       2.309
       1.291
       0.222
      -0.922
      -2.121
      -3.300
      -4.359
      -5.204
      -5.777
      -6.056
      -6.049
      -5.772
      -5.255
      -4.551
      -3.742
      -2.937
      -2.245
      -1.729
      -1.371
      -1.082
      -0.761
      -0.367
       0.070
       0.506
       0.951
       1.485
       2.193
       3.080
       4.054
       4.984
       5.789
       6.469
       7.057
       7.541
       7.840
       7.842
       7.476
       6.748
       5.731
       4.523
       3.212
       1.873
       0.578
      -0.608
      -1.650
      -2.569
      -3.429
      -4.289
      -5.151
      -5.960
      -6.653
      -7.216
      -7.682
      -8.082
      -8.394
      -8.532
      -8.410
      -8.012
      -7.415
      -6.728
      -6.010
      -5.240
      -4.354
      -3.306
      -2.107
      -0.812
       0.501
       1.753
       2.879
       3.845
       4.653
       5.314
       5.809
       6.084
       6.067
       5.712
       5.028
       4.105
       3.098
       2.191
       1.538
       1.220
       1.232
       1.523
       2.029
       2.680
       3.382
       4.005
       4.419
       4.533
       4.331
       3.863
       3.212
       2.458
       1.655
       0.821
      -0.055
      -0.992
      -1.999
      -3.062
      -4.129
      -5.113
      -5.889
      -6.319
      -6.282
      -5.723
      -4.695
      -3.367
      -1.991
      -0.818
      -0.012
       0.389
       0.456
       0.329
       0.167
       0.107
       0.239
       0.587
       1.109
       1.703
       2.238
       2.591
       2.682
       2.506
       2.135
       1.697
       1.310
       1.027
       0.817
       0.619
       0.401
       0.175
      -0.039
      -0.255
      -0.523
      -0.879
      -1.307
      -1.738
      -2.109
      -2.406
      -2.664
      -2.922
      -3.190
      -3.456
      -3.718
      -4.000
      -4.313
      -4.629
      -4.865
      -4.924
      -4.741
      -4.307
      -3.650
      -2.805
      -1.808
      -0.726
       0.331
       1.247
       1.948
       2.419
       2.684
       2.761
       2.652
       2.361
       1.921
       1.397
       0.877
       0.461
       0.228
       0.209
       0.361
       0.582
       0.774
       0.900
       0.997
       1.131
       1.334
       1.568
       1.749
       1.804
       1.709
       1.488
       1.174
       0.780
       0.305
      -0.224
      -0.733
      -1.124
      -1.340
      -1.392
      -1.342
      -1.245
      -1.103
      -0.873
      -0.529
      -0.114
       0.250
       0.411
       0.255
      -0.239
      -0.995
      -1.890
      -2.813
      -3.688
      -4.461
      -5.064
      -5.404
      -5.386
      -4.962
      -4.162
      -3.078
      -1.805
      -0.402
       1.099
       2.634
       4.068
       5.220
       5.933
       6.152
       5.937
       5.411
       4.696
       3.880
       3.027
       2.207
       1.515
       1.049
       0.867
       0.964
       1.275
       1.710
       2.187
       2.649
       3.061
       3.386
       3.563
       3.522
       3.224
       2.714
       2.119
       1.593
       1.231
       1.016
       0.827
       0.527
       0.039
      -0.623
      -1.394
      -2.220
      -3.075
      -3.940
      -4.761
      -5.448
      -5.914
      -6.113
      -6.062
      -5.802
      -5.355
      -4.702
      -3.804
      -2.649
      -1.265
       0.289
       1.954
       3.671
       5.359
       6.896
       8.143
       9.002
       9.473
       9.651
       9.662
       9.576
       9.374
       8.989
       8.387
       7.607
       6.744
       5.887
       5.072
       4.260
       3.365
       2.290
       0.983
      -0.528
      -2.127
      -3.648
      -4.933
      -5.882
      -6.460
      -6.673
      -6.553
      -6.150
      -5.546
      -4.860
      -4.223
      -3.736
      -3.442
      -3.309
      -3.250
      -3.176
      -3.034
      -2.821
      -2.559
      -2.271
      -1.975
      -1.702
      -1.496
      -1.395
      -1.409
      -1.502
      -1.598
      -1.613
      -1.487
      -1.211
      -0.813
      -0.330
       0.224
       0.862
       1.595
       2.392
       3.174
       3.837
       4.289
       4.478
       4.393
       4.047
       3.478
       2.742
       1.904
       1.015
       0.107
      -0.812
      -1.751
      -2.717
      -3.686
      -4.587
      -5.310
      -5.761
      -5.900
      -5.761
      -5.427
      -4.996
      -4.558
      -4.178
      -3.889
      -3.674
      -3.472
      -3.191
      -2.743
      -2.076
      -1.203
      -0.195
       0.851
       1.852
       2.764
       3.592
       4.351
       5.045
       5.638
       6.060
       6.235
       6.125
       5.746
       5.158
       4.419
       3.560
       2.595
       1.559
       0.528
      -0.381
      -1.047
      -1.383
      -1.361
      -1.022
      -0.456
       0.222
       0.899
       1.486
       1.923
       2.153
       2.108
       1.727
       1.008
       0.057
      -0.928
      -1.746
      -2.289
      -2.576
      -2.704
      -2.745
      -2.687
      -2.454
      -1.978
      -1.273
      -0.442
       0.361
       1.010
       1.446
       1.675
       1.707
       1.509
       1.013
       0.190
      -0.883
      -2.026
      -3.041
      -3.823
      -4.412
      -4.953
      -5.584
      -6.326
      -7.065
      -7.613
      -7.826
      -7.663
      -7.169
      -6.405
      -5.391
      -4.107
      -2.551
      -0.791
       1.024
       2.710
       4.113
       5.156
       5.844
       6.226
       6.372
       6.348
       6.225
       6.076
       5.971
       5.952
       6.012
       6.098
       6.115
       5.957
       5.555
       4.910
       4.109
       3.302
       2.640
       2.206
       1.982
       1.859
       1.706
       1.428
       1.002
       0.463
      -0.134
      -0.745
      -1.345
      -1.929
      -2.503
      -3.058
      -3.552
      -3.908
      -4.052
      -3.960
      -3.671
      -3.274
      -2.861
      -2.508
      -2.274
      -2.217
      -2.390
      -2.809
      -3.419
      -4.103
      -4.729
      -5.208
      -5.510
      -5.630
      -5.557
      -5.277
      -4.795
      -4.154
      -3.410
      -2.603
      -1.756
      -0.893
      -0.045
       0.767
       1.563
       2.387
       3.265
       4.157
       4.976
       5.622
       6.036
       6.200
       6.124
       5.821
       5.307
       4.622
       3.836
       3.038
       2.311
       1.702
       1.226
       0.892
       0.724
       0.740
       0.903
       1.098
       1.163
       0.986
       0.592
       0.140
      -0.171
      -0.239
      -0.140
      -0.080
      -0.256
      -0.716
      -1.342
      -1.938
      -2.371
      -2.631
      -2.790
      -2.909
      -3.000
      -3.043
      -3.036
      -3.023
      -3.061
      -3.178
      -3.345
      -3.494
      -3.574
      -3.592
      -3.619
      -3.727
      -3.911
      -4.055
      -3.977
      -3.542
      -2.754
      -1.755
      -0.732
       0.182
       0.951
       1.606
       2.186
       2.719
       3.229
       3.753
       4.334
       4.986
       5.679
       6.339
       6.872
       7.190
       7.227
       6.949
       6.355
       5.480
       4.401
       3.236
       2.125
       1.191
       0.494
       0.020
      -0.297
      -0.540
      -0.786
      -1.115
      -1.608
      -2.312
      -3.211
      -4.214
      -5.187
      -6.003
      -6.583
      -6.902
      -6.974
      -6.815
      -6.427
      -5.802
      -4.947
      -3.894
      -2.682
      -1.349
       0.062
       1.485
       2.822
       3.959
       4.797
       5.273
       5.356
       5.046
       4.373
       3.426
       2.354
       1.330
       0.486
      -0.128
      -0.546
      -0.821
      -0.976
      -0.990
      -0.832
      -0.511
      -0.088
       0.346
       0.711
       0.974
       1.150
       1.278
       1.397
       1.522
       1.643
       1.749
       1.845
       1.950
       2.059
       2.130
       2.097
       1.919
       1.614
       1.242
       0.859
       0.487
       0.117
      -0.254
      -0.581
      -0.787
      -0.797
      -0.590
      -0.211
       0.254
       0.721
       1.132
       1.455
       1.680
       1.824
       1.937
       2.082
       2.290
       2.518
       2.642
       2.507
       1.990
       1.043
      -0.284
      -1.847
      -3.428
      -4.778
      -5.681
      -6.015
      -5.771
      -5.039
      -3.967
      -2.709
      -1.401
      -0.156
       0.921
       1.743
       2.274
       2.556
       2.702
       2.845
       3.078
       3.420
       3.824
       4.222
       4.566
       4.843
       5.059
       5.205
       5.235
       5.074
       4.654
       3.948
       2.993
       1.870
       0.687
      -0.446
      -1.438
      -2.233
      -2.811
      -3.185
      -3.389
      -3.467
      -3.458
      -3.391
      -3.288
      -3.161
      -3.031
      -2.935
      -2.919
      -3.022
      -3.239
      -3.500
      -3.677
      -3.645
      -3.353
      -2.862
      -2.310
      -1.830
      -1.486
      -1.271
      -1.154
      -1.120
      -1.159
      -1.226
      -1.235
      -1.102
      -0.817
      -0.459
      -0.161
      -0.026
      -0.075
      -0.253
