Origin Time       20/06/2011 06:27:18
Lat.              30.5 N	
Long.             79.4 E	
Depth (Km)         12.0
Magnitude         4.6
 Region           Chamoli-Uttarakhand                                              
 Above details taken from IMD 
     
Station Code      ALM
Station Lat.       29.596  N
Station Long.      79.657  E
Station Height(m) 1642.0
Site Class        A   Vs30 between 700 m/sec to 1400 m/sec * 
Record Time       20.06.2011 06:27:25.634
Sampling Rate     200. Hz
 Record Duration   81.065 Sec.
 Direction         E-W (E positive)
Max. Acceleration     -3.860 cm/sec**2
     
  * For reference see Site Classification link of website 
     
 Base Line Corrected and Low Pass Filtered (Cut Off at 35 Hz) Time History
 Acceleration data in cm/sec**2
    
[...]
      -0.495
      -0.521
      -0.539
      -0.556
      -0.573
      -0.576
      -0.551
      -0.500
      -0.443
      -0.394
      -0.363
      -0.355
      -0.371
      -0.407
      -0.452
      -0.496
      -0.528
      -0.536
      -0.510
      -0.448
      -0.363
      -0.264
      -0.158
      -0.052
       0.050
       0.149
       0.250
       0.354
       0.455
       0.544
       0.613
       0.658
       0.679
       0.684
       0.684
       0.688
       0.692
       0.688
       0.673
       0.642
       0.594
       0.533
       0.469
       0.408
       0.358
       0.324
       0.303
       0.282
       0.246
       0.203
       0.168
       0.148
       0.136
       0.130
       0.134
       0.136
       0.114
       0.054
      -0.036
      -0.147
      -0.277
      -0.425
      -0.572
      -0.691
      -0.758
      -0.763
      -0.715
      -0.641
      -0.567
      -0.494
      -0.412
      -0.313
      -0.202
      -0.091
       0.010
       0.094
       0.154
       0.187
       0.199
       0.187
       0.152
       0.109
       0.079
       0.074
       0.082
       0.084
       0.066
       0.027
      -0.020
      -0.062
      -0.095
      -0.132
      -0.188
      -0.259
      -0.329
      -0.385
      -0.425
      -0.453
      -0.472
      -0.478
      -0.459
      -0.397
      -0.286
      -0.144
       0.000
       0.126
       0.225
       0.289
       0.314
       0.303
       0.270
       0.224
       0.175
       0.137
       0.125
       0.142
       0.180
       0.231
       0.292
       0.356
       0.406
       0.433
       0.439
       0.434
       0.432
       0.437
       0.444
       0.441
       0.423
       0.399
       0.382
       0.370
       0.348
       0.306
       0.250
       0.194
       0.151
       0.119
       0.091
       0.061
       0.026
      -0.007
      -0.037
      -0.076
      -0.136
      -0.221
      -0.325
      -0.443
      -0.567
      -0.677
      -0.750
      -0.778
      -0.769
      -0.744
      -0.719
      -0.705
      -0.699
      -0.686
      -0.650
      -0.594
      -0.532
      -0.477
      -0.425
      -0.364
      -0.285
      -0.186
      -0.075
       0.034
       0.135
       0.231
       0.326
       0.410
       0.469
       0.502
       0.526
       0.561
       0.621
       0.710
       0.814
       0.912
       0.977
       1.002
       0.987
       0.939
       0.863
       0.769
       0.671
       0.581
       0.496
       0.414
       0.330
       0.246
       0.167
       0.103
       0.061
       0.034
       0.011
      -0.017
      -0.056
      -0.111
      -0.184
      -0.263
      -0.338
      -0.409
      -0.484
      -0.565
      -0.646
      -0.721
      -0.788
      -0.846
      -0.892
      -0.924
      -0.938
      -0.927
      -0.884
      -0.816
      -0.735
      -0.651
      -0.565
      -0.480
      -0.405
      -0.340
      -0.275
      -0.199
      -0.104
       0.012
       0.144
       0.275
       0.383
       0.457
       0.496
       0.505
       0.491
       0.465
       0.439
       0.419
       0.411
       0.420
       0.451
       0.497
       0.542
       0.578
       0.606
       0.625
       0.632
       0.630
       0.626
       0.619
       0.597
       0.552
       0.488
       0.417
       0.351
       0.294
       0.243
       0.182
       0.108
       0.031
      -0.031
      -0.073
      -0.109
      -0.149
      -0.200
      -0.262
      -0.333
      -0.414
      -0.507
      -0.615
      -0.735
      -0.850
      -0.941
      -0.994
      -1.007
      -0.987
      -0.947
      -0.901
      -0.848
      -0.775
      -0.668
      -0.536
      -0.403
      -0.287
      -0.187
      -0.088
       0.017
       0.126
       0.221
       0.279
       0.285
       0.247
       0.195
       0.158
       0.150
       0.166
       0.193
       0.214
       0.223
       0.231
       0.250
       0.282
       0.321
       0.362
       0.405
       0.450
       0.494
       0.530
       0.555
       0.561
       0.546
       0.511
       0.457
       0.376
       0.266
       0.138
       0.007
      -0.117
      -0.236
      -0.350
      -0.453
      -0.542
      -0.609
      -0.646
      -0.640
      -0.586
      -0.494
      -0.374
      -0.236
      -0.084
       0.072
       0.222
       0.348
       0.439
       0.491
       0.512
       0.510
       0.478
       0.406
       0.294
       0.160
       0.022
      -0.101
      -0.196
      -0.263
      -0.313
      -0.354
      -0.376
      -0.363
      -0.310
      -0.229
      -0.138
      -0.051
       0.027
       0.091
       0.135
       0.158
       0.160
       0.147
       0.132
       0.126
       0.124
       0.117
       0.100
       0.076
       0.054
       0.037
       0.027
       0.021
       0.011
      -0.010
      -0.034
      -0.047
      -0.036
       0.004
       0.070
       0.152
       0.223
       0.265
       0.276
       0.273
       0.272
       0.280
       0.295
       0.312
       0.319
       0.304
       0.263
       0.203
       0.137
       0.071
       0.009
      -0.049
      -0.105
      -0.166
      -0.237
      -0.310
      -0.373
      -0.414
      -0.432
      -0.437
      -0.447
      -0.474
      -0.516
      -0.555
      -0.576
      -0.567
      -0.520
      -0.437
      -0.335
      -0.234
      -0.150
      -0.088
      -0.045
      -0.013
       0.020
       0.068
       0.127
       0.181
       0.213
       0.222
       0.216
       0.209
       0.220
       0.260
       0.325
       0.397
       0.456
       0.492
       0.505
       0.511
       0.527
       0.562
       0.602
       0.619
       0.596
       0.535
       0.451
       0.357
       0.265
       0.177
       0.090
       0.006
      -0.066
      -0.116
      -0.147
      -0.175
      -0.208
      -0.242
      -0.272
      -0.297
      -0.324
      -0.363
      -0.429
      -0.525
      -0.636
      -0.736
      -0.810
      -0.855
      -0.878
      -0.885
      -0.881
      -0.859
      -0.808
      -0.720
      -0.602
      -0.467
      -0.316
      -0.147
       0.036
       0.220
       0.391
       0.541
       0.661
       0.745
       0.792
       0.802
       0.776
       0.721
       0.662
       0.623
       0.611
       0.611
       0.601
       0.573
       0.530
       0.482
       0.440
       0.405
       0.368
       0.312
       0.234
       0.145
       0.061
      -0.007
      -0.057
      -0.098
      -0.138
      -0.181
      -0.230
      -0.287
      -0.357
      -0.433
      -0.504
      -0.559
      -0.602
      -0.641
      -0.674
      -0.689
      -0.683
      -0.664
      -0.637
      -0.606
      -0.563
      -0.496
      -0.400
      -0.279
      -0.155
      -0.050
       0.028
       0.090
       0.150
       0.213
       0.275
       0.328
       0.363
       0.379
       0.386
       0.389
       0.390
       0.386
       0.376
       0.364
       0.351
       0.338
       0.329
       0.323
       0.313
       0.289
       0.246
       0.186
       0.114
       0.049
       0.014
       0.027
       0.080
       0.151
       0.225
       0.298
       0.368
       0.425
       0.452
       0.434
       0.366
       0.257
       0.132
       0.014
      -0.087
      -0.177
      -0.264
      -0.345
      -0.413
      -0.455
      -0.462
      -0.438
      -0.402
      -0.372
      -0.358
      -0.359
      -0.370
      -0.388
      -0.411
      -0.445
      -0.490
      -0.530
      -0.538
      -0.496
      -0.412
      -0.314
      -0.225
      -0.154
      -0.093
      -0.028
       0.058
       0.173
       0.307
       0.442
       0.571
       0.692
       0.797
       0.868
       0.889
       0.860
       0.798
       0.734
       0.685
       0.647
       0.596
       0.519
       0.424
       0.322
       0.213
       0.088
      -0.053
      -0.193
      -0.315
      -0.401
      -0.441
      -0.439
      -0.418
      -0.410
      -0.428
      -0.471
      -0.534
      -0.610
      -0.693
      -0.769
      -0.822
      -0.838
      -0.808
      -0.740
      -0.659
      -0.592
      -0.551
      -0.526
      -0.497
      -0.448
      -0.375
      -0.283
      -0.183
      -0.078
       0.040
       0.181
       0.343
       0.512
       0.669
       0.792
       0.863
       0.871
       0.826
       0.747
       0.649
       0.537
       0.419
       0.308
       0.213
       0.144
       0.110
       0.115
       0.158
       0.223
       0.284
       0.312
       0.292
       0.231
       0.156
       0.092
       0.038
      -0.019
      -0.082
      -0.143
      -0.191
      -0.232
      -0.275
      -0.327
      -0.388
      -0.447
      -0.490
      -0.505
      -0.485
      -0.430
      -0.347
      -0.254
      -0.179
      -0.138
      -0.126
      -0.134
      -0.158
      -0.200
      -0.254
      -0.299
      -0.313
      -0.287
      -0.219
      -0.121
      -0.009
       0.102
       0.202
       0.290
       0.362
       0.422
       0.480
       0.543
       0.611
       0.676
       0.727
       0.752
       0.736
       0.679
       0.597
       0.516
       0.451
       0.405
       0.366
       0.318
       0.248
       0.160
       0.078
       0.018
      -0.023
      -0.061
      -0.100
      -0.136
      -0.173
      -0.224
      -0.299
      -0.399
      -0.521
      -0.656
      -0.796
      -0.930
      -1.044
      -1.123
      -1.144
      -1.103
      -1.015
      -0.912
      -0.811
      -0.707
      -0.584
      -0.431
      -0.253
      -0.067
       0.104
       0.247
       0.362
       0.458
       0.547
       0.630
       0.703
       0.759
       0.797
       0.821
       0.842
       0.865
       0.892
       0.917
       0.927
       0.902
       0.821
       0.684
       0.521
       0.364
       0.222
       0.082
      -0.073
      -0.241
      -0.396
      -0.500
      -0.528
      -0.485
      -0.399
      -0.300
      -0.198
      -0.094
       0.010
       0.105
       0.178
       0.219
       0.216
       0.160
       0.050
      -0.109
      -0.297
      -0.484
      -0.633
      -0.725
      -0.767
      -0.774
      -0.747
      -0.673
      -0.549
      -0.387
      -0.212
      -0.050
       0.080
       0.167
       0.212
       0.223
       0.206
       0.164
       0.106
       0.043
      -0.010
      -0.041
      -0.040
      -0.010
       0.039
       0.103
       0.187
       0.291
       0.402
       0.499
       0.573
       0.625
       0.658
       0.669
       0.652
       0.602
       0.519
       0.414
       0.300
       0.184
       0.058
      -0.072
      -0.186
      -0.256
      -0.279
      -0.276
      -0.273
      -0.275
      -0.276
      -0.267
      -0.249
      -0.238
      -0.252
      -0.291
      -0.338
      -0.375
      -0.398
      -0.414
      -0.430
      -0.445
      -0.455
      -0.451
      -0.426
      -0.388
      -0.352
      -0.331
      -0.313
      -0.278
      -0.216
      -0.135
      -0.054
       0.012
       0.059
       0.090
       0.102
       0.082
       0.012
      -0.105
      -0.231
      -0.320
      -0.351
      -0.333
      -0.283
      -0.210
      -0.111
       0.021
       0.185
       0.366
       0.533
       0.661
       0.742
       0.780
       0.781
       0.757
       0.717
       0.667
       0.601
       0.515
       0.413
       0.304
       0.195
       0.087
      -0.017
      -0.108
      -0.177
      -0.216
      -0.219
      -0.191
      -0.143
      -0.084
      -0.014
       0.072
       0.164
       0.250
       0.322
       0.373
       0.394
       0.376
       0.322
       0.240
       0.138
       0.028
      -0.066
      -0.121
      -0.139
      -0.143
      -0.163
      -0.213
      -0.283
      -0.342
      -0.362
      -0.337
      -0.286
      -0.227
      -0.160
      -0.084
      -0.015
       0.027
       0.038
       0.041
       0.066
       0.141
       0.278
       0.460
       0.650
       0.816
       0.945
       1.034
       1.072
       1.038
       0.923
       0.731
       0.480
       0.197
      -0.090
      -0.364
      -0.621
      -0.856
      -1.052
      -1.191
      -1.268
      -1.289
      -1.261
      -1.194
      -1.103
      -1.005
      -0.908
      -0.823
      -0.756
      -0.702
      -0.645
      -0.580
      -0.524
      -0.501
      -0.520
      -0.571
      -0.640
      -0.714
      -0.775
      -0.810
      -0.816
      -0.801
      -0.765
      -0.710
      -0.638
      -0.548
      -0.433
      -0.295
      -0.143
       0.015
       0.178
       0.341
       0.490
       0.614
       0.723
       0.839
       0.970
       1.102
       1.208
       1.255
       1.214
       1.074
       0.852
       0.576
       0.275
      -0.016
      -0.257
      -0.413
      -0.477
      -0.462
      -0.389
      -0.288
      -0.193
      -0.132
      -0.107
      -0.106
      -0.114
      -0.116
      -0.103
      -0.066
      -0.007
       0.072
       0.168
       0.268
       0.360
       0.444
       0.534
       0.648
       0.794
       0.976
       1.198
       1.446
       1.683
       1.866
       1.973
       2.004
       1.979
       1.925
       1.866
       1.812
       1.752
       1.675
       1.579
       1.464
       1.323
       1.153
       0.968
       0.794
       0.642
       0.500
       0.334
       0.102
      -0.232
      -0.667
      -1.167
      -1.688
      -2.197
      -2.677
      -3.109
      -3.465
      -3.721
      -3.855
      -3.860
      -3.752
      -3.556
      -3.288
      -2.950
      -2.554
      -2.131
      -1.713
      -1.306
      -0.895
      -0.468
      -0.026
       0.420
       0.860
       1.284
       1.692
       2.083
       2.445
       2.745
       2.947
       3.027
       2.982
       2.820
       2.558
       2.215
       1.803
       1.329
       0.814
       0.291
      -0.200
      -0.632
      -0.986
      -1.248
      -1.417
      -1.502
      -1.514
      -1.458
      -1.347
      -1.208
      -1.066
      -0.941
      -0.844
      -0.784
      -0.764
      -0.778
      -0.815
      -0.858
      -0.881
      -0.855
      -0.761
      -0.615
      -0.447
      -0.278
      -0.106
       0.080
       0.287
       0.502
       0.688
       0.799
       0.812
       0.741
       0.629
       0.514
       0.422
       0.362
       0.335
       0.342
       0.383
       0.457
       0.544
       0.616
       0.661
       0.704
       0.773
       0.873
       0.986
       1.092
       1.185
       1.267
       1.344
       1.417
       1.469
       1.464
       1.372
       1.184
       0.916
       0.592
       0.246
      -0.083
      -0.357
      -0.559
      -0.697
      -0.802
      -0.918
      -1.082
      -1.296
      -1.521
      -1.700
      -1.798
      -1.813
      -1.762
      -1.661
      -1.520
      -1.344
      -1.149
      -0.967
      -0.837
      -0.777
      -0.769
      -0.767
      -0.734
      -0.654
      -0.532
      -0.373
      -0.184
       0.035
       0.273
       0.504
       0.700
       0.852
       0.973
       1.080
       1.166
       1.207
       1.193
       1.131
       1.037
       0.920
       0.776
       0.593
       0.371
       0.137
      -0.066
      -0.205
      -0.276
      -0.292
      -0.268
      -0.216
      -0.158
      -0.117
      -0.110
      -0.137
      -0.188
      -0.239
      -0.257
      -0.226
      -0.154
      -0.065
       0.020
       0.091
       0.141
       0.163
       0.159
       0.135
       0.106
       0.095
       0.121
       0.179
       0.240
       0.279
       0.292
       0.283
       0.249
       0.183
       0.087
      -0.022
      -0.130
      -0.227
      -0.311
      -0.394
      -0.489
      -0.596
      -0.692
      -0.753
      -0.774
      -0.755
      -0.684
      -0.545
      -0.337
      -0.085
       0.169
       0.383
       0.522
       0.579
       0.575
       0.543
       0.510
       0.488
       0.485
       0.499
       0.523
       0.553
       0.587
       0.622
       0.653
       0.680
       0.706
       0.722
       0.696
       0.599
       0.424
       0.196
      -0.044
      -0.250
      -0.387
      -0.452
      -0.471
      -0.465
      -0.443
      -0.405
      -0.362
      -0.336
      -0.339
      -0.370
      -0.420
      -0.474
      -0.524
      -0.572
      -0.629
      -0.688
      -0.720
      -0.694
      -0.606
      -0.470
      -0.304
      -0.125
       0.063
       0.259
       0.451
       0.599
       0.647
       0.569
       0.399
       0.206
       0.052
      -0.025
      -0.015
       0.070
       0.201
       0.342
       0.475
       0.592
       0.690
       0.763
       0.803
       0.792
       0.707
       0.541
       0.310
       0.039
      -0.243
      -0.516
      -0.761
      -0.965
      -1.116
      -1.197
      -1.194
      -1.117
      -0.993
      -0.848
      -0.690
      -0.521
      -0.355
      -0.215
      -0.123
      -0.090
      -0.110
      -0.157
      -0.194
      -0.201
      -0.181
      -0.144
      -0.088
      -0.001
       0.118
       0.263
       0.422
       0.573
       0.693
       0.768
       0.802
       0.810
       0.805
       0.794
       0.791
       0.801
       0.816
       0.820
       0.803
       0.759
       0.689
       0.593
       0.470
       0.320
       0.143
      -0.044
      -0.210
      -0.328
      -0.382
      -0.371
      -0.299
      -0.179
      -0.038
       0.100
       0.221
       0.314
       0.366
       0.369
       0.328
       0.247
       0.127
      -0.027
      -0.204
      -0.387
      -0.561
      -0.713
      -0.835
      -0.934
      -1.027
      -1.120
      -1.200
      -1.254
      -1.276
      -1.271
      -1.239
      -1.186
      -1.127
      -1.080
      -1.052
      -1.038
      -1.026
      -0.987
      -0.888
      -0.710
      -0.468
      -0.198
       0.069
       0.315
       0.531
       0.711
       0.847
       0.922
       0.918
       0.839
       0.715
       0.579
       0.460
       0.379
       0.362
       0.420
       0.548
       0.732
       0.955
       1.196
       1.428
       1.619
       1.744
       1.777
       1.702
       1.529
       1.285
       0.995
       0.669
       0.321
      -0.017
      -0.314
      -0.553
      -0.730
      -0.844
      -0.889
      -0.866
      -0.783
      -0.664
      -0.547
      -0.469
      -0.437
      -0.423
      -0.401
      -0.369
      -0.341
      -0.322
      -0.304
      -0.273
      -0.219
      -0.144
      -0.062
       0.012
       0.079
       0.150
       0.229
       0.289
       0.292
       0.216
       0.061
      -0.141
      -0.339
      -0.485
      -0.561
      -0.577
      -0.542
      -0.449
      -0.292
      -0.088
       0.125
       0.313
       0.468
       0.595
       0.708
       0.808
       0.881
       0.908
       0.887
       0.836
       0.767
       0.678
       0.561
       0.422
       0.274
       0.127
      -0.013
      -0.146
      -0.279
      -0.420
      -0.563
      -0.690
      -0.797
      -0.896
      -1.001
      -1.098
      -1.158
      -1.153
      -1.072
      -0.914
      -0.702
      -0.469
      -0.249
      -0.067
       0.058
       0.116
       0.109
       0.060
      -0.012
      -0.097
      -0.191
