Origin Time       29/11/2006 05:41:14
Lat.              27.6 N 
Long.             76.7 E 
Depth (Km)         13.0
Magnitude         3.9
 Region           ALWAR-RAJASTHAN                                                  
 Above details taken from IMD 
   
Station Code      ALW
Station Lat.       27.569
Station Long.      76.594
Station Height(m)  289.0
Site Class        A   Vs30 between 700 m/sec to 1400 m/sec * 
Record Time       29.11.2006 05:41:05.554
Sampling Rate     200. Hz
 Record Duration   31.130 Sec.
 Direction         Vert. (Up positive)
Max. Acceleration    -51.705 cm/sec**2
     
  * For reference see Site Classification link of website 
     
 Base Line Corrected and Low Pass Filtered (Cut Off at 35 Hz) Time History
 Acceleration data in cm/sec**2
    
[...]
      -0.017
      -0.025
      -0.018
      -0.002
       0.013
       0.014
       0.001
      -0.018
      -0.030
      -0.032
      -0.022
      -0.006
       0.008
       0.012
      -0.001
      -0.025
      -0.043
      -0.043
      -0.024
       0.001
       0.020
       0.026
       0.019
       0.001
      -0.023
      -0.038
      -0.032
      -0.002
       0.028
       0.035
       0.013
      -0.018
      -0.034
      -0.026
      -0.004
       0.017
       0.023
       0.010
      -0.013
      -0.031
      -0.031
      -0.015
       0.005
       0.018
       0.022
       0.017
      -0.003
      -0.030
      -0.043
      -0.025
       0.012
       0.035
       0.023
      -0.007
      -0.030
      -0.034
      -0.024
      -0.009
       0.008
       0.022
       0.022
       0.005
      -0.014
      -0.020
      -0.013
      -0.005
       0.002
       0.011
       0.018
       0.014
      -0.005
      -0.025
      -0.030
      -0.015
       0.008
       0.022
       0.018
       0.000
      -0.015
      -0.014
       0.000
       0.012
       0.010
      -0.003
      -0.013
      -0.014
      -0.009
      -0.004
       0.000
       0.002
       0.000
      -0.009
      -0.019
      -0.019
      -0.008
       0.004
       0.008
       0.000
      -0.013
      -0.023
      -0.023
      -0.011
       0.007
       0.021
       0.018
      -0.001
      -0.024
      -0.036
      -0.028
      -0.006
       0.016
       0.022
       0.008
      -0.017
      -0.034
      -0.031
      -0.010
       0.013
       0.024
       0.019
       0.004
      -0.013
      -0.022
      -0.017
       0.002
       0.025
       0.036
       0.029
       0.009
      -0.012
      -0.022
      -0.020
      -0.007
       0.011
       0.025
       0.025
       0.008
      -0.014
      -0.024
      -0.015
       0.005
       0.020
       0.024
       0.019
       0.006
      -0.011
      -0.024
      -0.021
       0.002
       0.031
       0.043
       0.027
      -0.007
      -0.035
      -0.042
      -0.022
       0.011
       0.037
       0.038
       0.010
      -0.026
      -0.048
      -0.041
      -0.013
       0.016
       0.032
       0.025
       0.004
      -0.018
      -0.024
      -0.011
       0.010
       0.021
       0.016
       0.001
      -0.013
      -0.020
      -0.018
      -0.010
       0.002
       0.009
       0.005
      -0.006
      -0.014
      -0.010
       0.004
       0.020
       0.027
       0.024
       0.014
       0.001
      -0.010
      -0.014
      -0.012
      -0.004
       0.002
       0.001
      -0.006
      -0.010
      -0.010
      -0.006
      -0.003
      -0.001
       0.001
       0.003
       0.003
      -0.002
      -0.005
      -0.005
      -0.003
      -0.003
      -0.006
      -0.008
      -0.006
      -0.005
      -0.003
       0.004
       0.015
       0.020
       0.009
      -0.009
      -0.018
      -0.009
       0.007
       0.015
       0.010
       0.000
      -0.008
      -0.014
      -0.015
      -0.008
       0.007
       0.021
       0.022
       0.006
      -0.016
      -0.028
      -0.022
      -0.002
       0.021
       0.034
       0.028
       0.007
      -0.016
      -0.023
      -0.007
       0.025
       0.051
       0.055
       0.034
      -0.002
      -0.031
      -0.036
      -0.015
       0.015
       0.031
       0.026
       0.009
      -0.007
      -0.016
      -0.014
       0.000
       0.020
       0.029
       0.016
      -0.010
      -0.029
      -0.029
      -0.016
      -0.002
       0.011
       0.022
       0.026
       0.014
      -0.011
      -0.029
      -0.027
      -0.004
       0.025
       0.043
       0.038
       0.009
      -0.025
      -0.039
      -0.018
       0.019
       0.042
       0.033
       0.005
      -0.020
      -0.031
      -0.028
      -0.010
       0.016
       0.037
       0.036
       0.014
      -0.014
      -0.028
      -0.026
      -0.013
       0.007
       0.028
       0.036
       0.022
      -0.006
      -0.024
      -0.017
       0.006
       0.024
       0.028
       0.022
       0.010
      -0.006
      -0.017
      -0.010
       0.015
       0.039
       0.038
       0.016
      -0.010
      -0.022
      -0.018
      -0.004
       0.014
       0.028
       0.026
       0.005
      -0.013
      -0.011
       0.011
       0.029
       0.028
       0.014
       0.003
       0.001
       0.002
       0.006
       0.017
       0.027
       0.025
       0.005
      -0.013
      -0.012
       0.009
       0.030
       0.035
       0.024
       0.008
      -0.008
      -0.020
      -0.020
      -0.006
       0.016
       0.027
       0.021
       0.007
      -0.002
       0.000
       0.005
       0.010
       0.013
       0.016
       0.018
       0.015
       0.005
      -0.005
      -0.005
       0.012
       0.034
       0.038
       0.017
      -0.014
      -0.029
      -0.016
       0.009
       0.024
       0.023
       0.014
       0.006
      -0.004
      -0.017
      -0.023
      -0.009
       0.019
       0.039
       0.035
       0.012
      -0.012
      -0.023
      -0.017
      -0.001
       0.019
       0.032
       0.026
       0.002
      -0.023
      -0.030
      -0.012
       0.017
       0.036
       0.034
       0.017
       0.000
      -0.010
      -0.010
       0.000
       0.019
       0.036
       0.038
       0.017
      -0.014
      -0.032
      -0.024
      -0.001
       0.020
       0.027
       0.022
       0.012
      -0.001
      -0.012
      -0.011
       0.001
       0.016
       0.019
       0.005
      -0.018
      -0.032
      -0.030
      -0.013
       0.009
       0.024
       0.024
       0.010
      -0.008
      -0.018
      -0.014
       0.002
       0.019
       0.026
       0.017
      -0.004
      -0.022
      -0.024
      -0.005
       0.021
       0.035
       0.028
       0.010
      -0.005
      -0.010
      -0.005
       0.008
       0.023
       0.030
       0.017
      -0.011
      -0.030
      -0.022
       0.007
       0.030
       0.027
       0.008
      -0.008
      -0.014
      -0.014
      -0.012
      -0.005
       0.009
       0.019
       0.014
       0.000
      -0.010
      -0.008
       0.000
       0.008
       0.012
       0.012
       0.008
       0.001
      -0.004
       0.000
       0.013
       0.022
       0.018
       0.005
      -0.007
      -0.012
      -0.008
       0.001
       0.014
       0.028
       0.037
       0.030
       0.011
      -0.006
      -0.007
       0.009
       0.026
       0.033
       0.027
       0.011
      -0.006
      -0.018
      -0.017
      -0.001
       0.020
       0.029
       0.020
       0.002
      -0.008
      -0.003
       0.010
       0.022
       0.029
       0.031
       0.025
       0.008
      -0.012
      -0.024
      -0.018
       0.002
       0.019
       0.021
       0.010
      -0.005
      -0.016
      -0.020
      -0.021
      -0.017
      -0.007
       0.008
       0.014
       0.002
      -0.021
      -0.036
      -0.027
       0.000
       0.023
       0.024
       0.006
      -0.016
      -0.027
      -0.021
      -0.002
       0.019
       0.030
       0.026
       0.012
      -0.006
      -0.020
      -0.023
      -0.010
       0.014
       0.034
       0.031
       0.004
      -0.027
      -0.039
      -0.029
      -0.009
       0.011
       0.023
       0.022
       0.007
      -0.012
      -0.016
       0.000
       0.021
       0.028
       0.019
       0.009
       0.005
       0.000
      -0.009
      -0.012
       0.002
       0.024
       0.032
       0.016
      -0.010
      -0.027
      -0.030
      -0.024
      -0.012
       0.005
       0.017
       0.018
       0.009
      -0.003
      -0.010
       0.003
       0.051
       0.113
       0.122
       0.039
      -0.069
      -0.072
       0.058
       0.176
       0.142
       0.031
       0.046
       0.221
       0.339
       0.224
       0.008
      -0.041
       0.080
       0.082
      -0.176
      -0.391
      -0.205
       0.198
       0.222
      -0.334
      -0.888
      -0.732
       0.064
       0.638
       0.356
      -0.396
      -0.671
      -0.133
       0.547
       0.521
      -0.195
      -0.716
      -0.339
       0.628
       1.210
       0.822
      -0.145
      -0.777
      -0.594
      -0.012
       0.226
      -0.002
      -0.090
       0.418
       1.048
       0.769
      -0.650
      -1.972
      -1.686
       0.158
       1.776
       1.521
      -0.282
      -1.717
      -1.422
       0.067
       1.138
       0.917
      -0.006
      -0.571
      -0.439
       0.081
       0.765
       1.543
       1.930
       1.127
      -0.886
      -2.720
      -2.633
      -0.388
       2.231
       3.092
       1.781
      -0.289
      -1.584
      -1.687
      -0.962
       0.188
       1.235
       1.282
      -0.114
      -1.976
      -2.563
      -1.284
       0.563
       1.326
       0.801
      -0.037
      -0.577
      -0.954
      -1.021
      -0.014
       2.091
       3.540
       2.391
      -0.789
      -2.993
      -2.122
       0.551
       2.001
       1.077
      -0.517
      -0.848
      -0.181
      -0.023
      -0.628
      -0.784
       0.093
       0.900
       0.425
      -0.781
      -1.084
      -0.034
       1.048
       0.802
      -0.464
      -1.178
      -0.500
       0.609
       0.633
      -0.574
      -1.501
      -0.704
       1.319
       2.420
       1.178
      -1.349
      -2.512
      -0.855
       2.102
       3.289
       1.403
      -1.537
      -2.344
      -0.346
       1.785
       1.312
      -1.149
      -2.380
      -0.613
       2.121
       2.448
      -0.120
      -2.667
      -2.483
      -0.106
       1.641
       1.127
      -0.539
      -1.449
      -1.081
      -0.111
       0.908
       1.830
       2.124
       0.948
      -1.303
      -2.540
      -1.207
       1.504
       2.689
       1.096
      -1.395
      -2.198
      -1.081
       0.149
       0.485
       0.806
       1.754
       1.997
       0.196
      -2.228
      -2.321
       0.336
       2.564
       1.599
      -1.076
      -1.790
       0.082
       1.276
      -0.542
      -3.134
      -2.602
       0.943
       3.176
       1.431
      -1.651
      -1.837
       0.788
       2.009
      -0.361
      -3.048
      -1.748
       2.613
       4.588
       1.347
      -3.319
      -3.769
       0.278
       3.711
       2.772
      -0.684
      -2.491
      -1.644
      -0.390
       0.004
       0.619
       1.690
       1.068
      -2.162
      -4.601
      -2.189
       3.556
       6.194
       2.307
      -3.696
      -4.834
      -0.193
       4.481
       4.417
       0.968
      -1.647
      -1.905
      -1.266
      -0.683
       0.157
       0.444
      -1.502
      -4.578
      -4.500
       0.747
       6.730
       6.754
       0.283
      -5.711
      -5.009
       0.696
       4.744
       3.757
       0.335
      -1.820
      -2.240
      -2.042
      -0.976
       1.350
       2.975
       1.338
      -2.419
      -3.531
       0.539
       6.030
       6.799
       1.639
      -4.396
      -5.968
      -2.950
       0.638
       1.755
       0.928
       0.135
      -0.123
      -0.797
      -2.185
      -2.979
      -1.743
       1.089
       3.279
       2.895
       0.224
      -2.365
      -2.498
      -0.031
       2.592
       2.444
      -0.803
      -3.903
      -3.008
       1.977
       6.551
       5.857
       0.055
      -5.117
      -4.145
       1.945
       6.103
       2.849
      -4.949
      -8.426
      -2.878
       5.815
       7.275
      -0.890
      -9.328
      -7.638
       2.841
      10.277
       6.510
      -3.526
      -8.472
      -4.089
       3.206
       5.645
       2.959
       0.159
      -0.328
      -0.517
      -1.834
      -2.252
       0.014
       2.697
       2.308
      -0.550
      -2.067
      -1.117
      -0.827
      -3.158
      -4.711
      -1.063
       5.711
       7.919
       1.922
      -6.234
      -7.537
      -0.865
       6.125
       6.944
       3.410
       1.018
       0.504
      -1.930
      -6.765
      -8.376
      -2.563
       6.242
       9.189
       3.718
      -3.468
      -4.926
      -0.997
       2.371
       2.038
       0.327
      -0.132
      -0.287
      -1.856
      -3.454
      -2.371
       0.965
       3.153
       2.420
       0.586
      -0.405
      -1.375
      -3.262
      -3.753
       0.002
       5.833
       7.256
       1.601
      -5.137
      -5.138
       0.881
       4.425
       0.325
      -6.773
      -8.726
      -4.048
       1.634
       3.967
       3.858
       2.898
       0.129
      -4.237
      -5.650
      -0.389
       6.908
       6.554
      -3.172
     -11.381
      -7.263
       5.377
      11.757
       4.717
      -5.828
      -5.776
       4.800
      12.043
       6.381
      -5.525
      -9.654
      -1.973
       7.579
       7.617
      -2.515
     -13.722
     -16.809
      -9.661
       2.413
      10.783
       9.753
       2.486
      -0.167
       8.717
      21.454
      22.046
       5.672
     -12.578
     -13.694
       2.230
      15.052
       7.806
     -14.543
     -32.346
     -32.370
     -17.182
       2.042
      14.450
      12.911
      -1.884
     -16.971
     -14.253
      10.001
      35.306
      34.968
       6.340
     -22.680
     -22.178
       7.483
      36.036
      34.541
       3.340
     -29.781
     -36.155
     -11.752
      19.181
      24.711
      -4.962
     -43.966
     -51.705
     -14.506
      34.996
      48.034
      12.016
     -33.453
     -38.562
       2.179
      44.940
      46.125
       8.809
     -25.411
     -25.315
      -0.960
      15.170
       7.481
     -10.431
     -17.925
     -10.971
      -0.898
       3.004
       2.282
       2.402
       4.330
       5.636
       5.753
       6.211
       6.724
       4.199
      -3.200
     -12.150
     -15.526
      -8.728
       4.097
      11.368
       5.138
      -8.474
     -13.771
      -3.033
      13.159
      17.524
       6.998
      -3.721
      -1.371
       8.986
      11.540
       0.941
     -11.355
     -12.713
      -4.672
       1.558
       0.533
      -3.155
      -4.627
      -5.050
      -5.875
      -3.375
       5.378
      14.398
      13.753
       3.129
      -5.752
      -3.225
       6.282
      10.617
       5.381
      -2.631
      -6.581
      -7.589
      -9.372
     -10.655
      -8.013
      -3.270
      -1.987
      -4.738
      -5.313
       0.297
       7.141
       7.305
       0.785
      -3.924
      -0.407
       7.926
      12.196
       8.019
      -0.612
      -6.047
      -3.850
       3.784
       9.372
       6.036
      -5.023
     -13.342
      -9.069
       4.828
      13.891
       8.540
      -4.088
      -9.177
      -2.996
       3.677
       1.688
      -3.974
      -3.048
       3.357
       3.780
      -5.666
     -13.095
      -6.300
       8.749
      13.801
       2.619
      -9.902
      -7.341
       6.560
      13.513
       5.286
      -6.192
      -5.998
       4.033
       9.638
       4.206
      -4.163
      -5.958
      -2.824
      -2.598
      -6.663
      -8.906
      -6.107
      -2.593
      -2.715
      -3.977
      -1.379
       4.396
       7.585
       5.550
       2.172
       1.921
       4.105
       5.096
       3.545
       0.920
      -1.562
      -3.654
      -4.150
      -1.577
       2.207
       2.280
      -3.178
      -9.019
      -8.184
      -0.074
       8.540
      10.924
       6.414
      -0.919
      -6.349
      -6.140
       0.902
      10.177
      12.361
       2.726
     -10.947
     -14.838
      -5.213
       6.336
       6.828
      -2.527
      -9.107
      -5.462
       2.487
       5.238
       2.291
       0.367
       2.237
       3.691
       1.634
      -0.687
       0.604
       3.119
       1.581
      -3.497
      -5.602
      -1.588
       3.206
       2.075
      -3.714
      -6.624
      -2.925
       3.015
       5.294
       3.606
       1.711
       1.501
       1.730
       1.357
       0.898
       0.338
      -1.315
      -3.311
      -2.719
       1.099
       3.769
       0.917
      -4.987
      -6.397
      -0.377
       6.576
       6.213
      -0.912
      -6.287
      -4.453
       0.656
       2.013
      -0.818
      -2.038
       1.304
       4.912
       3.369
      -2.188
      -5.404
      -2.955
       1.756
       3.658
       1.663
      -1.963
      -5.176
      -6.806
      -5.213
       0.167
       5.750
       5.963
       0.116
      -5.539
      -4.853
       0.581
       3.809
       2.099
       0.036
       1.741
       4.180
       1.765
      -4.292
      -6.032
       0.353
       7.997
       7.673
       0.077
      -5.061
      -1.997
       3.739
       3.782
      -1.053
      -2.493
       2.570
       7.068
       3.553
      -5.002
      -8.589
      -3.207
       4.332
       5.756
       1.242
      -2.831
      -3.068
      -1.791
      -1.339
      -0.478
       1.661
       2.091
      -1.788
      -6.599
      -6.039
       0.502
       6.282
       5.689
       1.059
      -1.721
      -1.610
      -2.142
      -3.910
      -2.597
       3.545
       8.400
       4.901
      -4.244
      -8.302
      -2.150
       6.400
       6.135
      -3.156
     -10.284
      -6.890
       2.429
       6.805
       2.710
      -3.193
      -3.907
      -0.295
       2.396
       2.571
       2.915
       4.495
       4.581
       1.362
      -2.403
      -2.931
      -0.749
       0.559
       0.048
       0.367
       2.562
       3.295
      -0.406
      -5.754
      -6.883
      -2.358
       3.158
       4.961
       3.211
       0.878
      -0.563
      -1.311
      -0.976
       0.853
       2.197
      -0.061
      -5.381
      -8.351
      -4.625
       2.923
       6.760
       3.456
      -2.573
      -4.869
      -2.392
       0.541
       0.577
      -0.951
      -0.873
       1.404
       3.622
       3.758
       1.878
      -0.781
      -2.924
      -3.150
      -0.612
       3.259
       4.996
       2.657
      -1.235
      -2.169
       0.620
       3.017
       1.598
      -1.736
      -2.535
      -0.073
       1.674
      -0.120
      -2.801
      -1.932
       2.114
       4.232
       1.449
      -2.930
      -3.704
      -0.735
       1.173
      -0.761
      -3.488
      -2.637
       1.266
       3.338
       0.707
      -3.735
      -4.816
      -1.002
       4.247
       6.328
       3.696
      -1.363
      -4.987
      -4.638
      -0.862
       2.984
       3.397
       0.168
      -3.070
      -2.644
       0.814
       2.791
       0.315
      -3.849
      -4.097
       0.908
       5.895
       4.928
      -1.211
      -5.393
      -2.406
       4.650
       7.803
       3.402
      -3.815
      -6.190
      -1.505
       5.078
       6.896
       2.495
      -3.515
      -5.562
      -2.558
       1.747
       3.283
       1.648
      -0.528
      -1.352
      -1.613
      -2.672
      -3.695
      -2.440
       1.352
       4.654
       4.090
      -0.051
      -3.641
      -3.081
       0.493
       2.364
       0.166
      -2.552
      -0.609
       5.297
       8.079
       2.861
      -5.833
      -8.572
      -2.490
       5.060
       5.522
      -0.880
      -6.362
