Origin Time       29/11/2006 05:41:14
Lat.              27.6 N 
Long.             76.7 E 
Depth (Km)         13.0
Magnitude         3.9
 Region           ALWAR-RAJASTHAN                                                  
 Above details taken from IMD 
     
Station Code      ALW
Station Lat.       27.569  N
Station Long.      76.594  E
Station Height(m)  289.0
Site Class        A   Vs30 between 700 m/sec to 1400 m/sec * 
Record Time       29.11.2006 05:41:05.554
Sampling Rate     200. Hz
 Record Duration   31.130 Sec.
 Direction         E-W (E positive)
Max. Acceleration     25.480 cm/sec**2
     
  * For reference see Site Classification link of website 
     
 Base Line Corrected and Low Pass Filtered (Cut Off at 35 Hz) Time History
 Acceleration data in cm/sec**2
    
[...]
      -0.001
      -0.005
      -0.009
      -0.012
      -0.013
      -0.013
      -0.013
      -0.012
      -0.011
      -0.011
      -0.012
      -0.014
      -0.013
      -0.006
       0.005
       0.011
       0.006
      -0.009
      -0.025
      -0.030
      -0.021
      -0.006
       0.006
       0.007
       0.000
      -0.008
      -0.009
      -0.005
       0.002
       0.006
       0.005
       0.000
      -0.007
      -0.013
      -0.017
      -0.016
      -0.010
      -0.002
       0.005
       0.007
       0.004
       0.000
      -0.006
      -0.012
      -0.014
      -0.013
      -0.010
      -0.010
      -0.013
      -0.012
      -0.006
       0.000
       0.004
       0.002
       0.000
      -0.003
      -0.005
      -0.008
      -0.009
      -0.007
      -0.004
      -0.002
      -0.002
      -0.004
      -0.008
      -0.012
      -0.013
      -0.007
       0.001
       0.005
       0.000
      -0.011
      -0.020
      -0.021
      -0.013
       0.001
       0.012
       0.015
       0.008
      -0.002
      -0.007
      -0.004
       0.002
       0.006
       0.003
      -0.003
      -0.009
      -0.012
      -0.010
      -0.005
      -0.001
      -0.001
      -0.006
      -0.010
      -0.011
      -0.006
       0.002
       0.010
       0.014
       0.011
       0.003
      -0.006
      -0.012
      -0.013
      -0.009
      -0.004
      -0.001
      -0.001
      -0.005
      -0.011
      -0.017
      -0.020
      -0.019
      -0.016
      -0.012
      -0.011
      -0.013
      -0.015
      -0.015
      -0.010
      -0.004
      -0.001
      -0.006
      -0.014
      -0.020
      -0.020
      -0.014
      -0.006
       0.001
       0.004
       0.004
       0.001
      -0.004
      -0.008
      -0.009
      -0.006
      -0.001
       0.001
      -0.001
      -0.006
      -0.010
      -0.011
      -0.010
      -0.008
      -0.008
      -0.012
      -0.017
      -0.019
      -0.015
      -0.007
       0.003
       0.008
       0.007
       0.001
      -0.006
      -0.009
      -0.007
       0.000
       0.007
       0.011
       0.011
       0.008
       0.002
      -0.007
      -0.014
      -0.015
      -0.009
      -0.001
       0.003
      -0.001
      -0.008
      -0.012
      -0.009
      -0.003
       0.003
       0.004
      -0.001
      -0.009
      -0.017
      -0.019
      -0.011
       0.003
       0.014
       0.014
       0.002
      -0.014
      -0.025
      -0.025
      -0.013
       0.001
       0.012
       0.013
       0.007
      -0.003
      -0.012
      -0.015
      -0.011
      -0.004
       0.001
       0.003
      -0.001
      -0.008
      -0.014
      -0.015
      -0.009
       0.002
       0.010
       0.010
       0.003
      -0.007
      -0.010
      -0.004
       0.007
       0.015
       0.010
      -0.004
      -0.016
      -0.015
      -0.003
       0.012
       0.021
       0.020
       0.014
       0.007
       0.001
      -0.001
       0.001
       0.004
       0.005
       0.003
       0.002
       0.002
       0.004
       0.004
       0.003
       0.002
       0.001
       0.000
      -0.003
      -0.005
      -0.003
       0.002
       0.008
       0.011
       0.007
       0.000
      -0.004
      -0.002
       0.004
       0.011
       0.014
       0.010
       0.002
      -0.004
      -0.006
      -0.002
       0.005
       0.014
       0.020
       0.017
       0.003
      -0.014
      -0.022
      -0.017
      -0.004
       0.005
       0.006
       0.002
       0.000
       0.005
       0.014
       0.023
       0.027
       0.024
       0.016
       0.009
       0.005
       0.006
       0.008
       0.012
       0.017
       0.021
       0.020
       0.013
       0.002
      -0.007
      -0.009
      -0.001
       0.013
       0.024
       0.022
       0.010
      -0.004
      -0.009
      -0.004
       0.005
       0.013
       0.018
       0.020
       0.019
       0.015
       0.013
       0.016
       0.022
       0.025
       0.020
       0.010
       0.002
      -0.002
       0.000
       0.005
       0.013
       0.020
       0.022
       0.016
       0.009
       0.008
       0.017
       0.026
       0.030
       0.025
       0.017
       0.010
       0.009
       0.013
       0.018
       0.021
       0.017
       0.009
       0.003
       0.001
       0.001
       0.002
       0.005
       0.008
       0.010
       0.007
       0.003
       0.003
       0.009
       0.015
       0.018
       0.016
       0.013
       0.010
       0.006
       0.003
       0.003
       0.007
       0.012
       0.014
       0.011
       0.005
      -0.001
      -0.005
      -0.004
       0.001
       0.008
       0.012
       0.010
       0.003
      -0.005
      -0.010
      -0.009
      -0.002
       0.006
       0.008
       0.005
       0.002
       0.003
       0.010
       0.017
       0.018
       0.011
      -0.002
      -0.014
      -0.020
      -0.016
      -0.005
       0.008
       0.015
       0.011
       0.001
      -0.008
      -0.011
      -0.008
      -0.003
       0.002
       0.004
       0.003
       0.001
       0.003
       0.010
       0.018
       0.022
       0.017
       0.004
      -0.008
      -0.014
      -0.012
      -0.006
       0.002
       0.006
       0.007
       0.004
      -0.002
      -0.009
      -0.012
      -0.010
      -0.003
       0.005
       0.009
       0.007
       0.001
      -0.005
      -0.005
       0.001
       0.010
       0.016
       0.013
       0.002
      -0.010
      -0.015
      -0.011
      -0.001
       0.008
       0.011
       0.008
       0.001
      -0.007
      -0.011
      -0.006
       0.007
       0.020
       0.025
       0.016
       0.000
      -0.012
      -0.011
       0.001
       0.014
       0.020
       0.017
       0.008
       0.001
       0.001
       0.006
       0.011
       0.015
       0.015
       0.013
       0.007
       0.001
      -0.002
       0.002
       0.011
       0.018
       0.019
       0.016
       0.011
       0.009
       0.007
       0.004
       0.001
       0.000
       0.001
       0.004
       0.007
       0.009
       0.009
       0.008
       0.006
       0.005
       0.004
       0.003
       0.002
       0.003
       0.006
       0.011
       0.013
       0.013
       0.011
       0.008
       0.008
       0.011
       0.014
       0.017
       0.015
       0.009
       0.001
      -0.002
       0.001
       0.008
       0.013
       0.010
       0.003
      -0.002
      -0.002
       0.003
       0.006
       0.004
       0.002
       0.002
       0.004
       0.004
       0.001
      -0.004
      -0.005
      -0.001
       0.008
       0.017
       0.020
       0.015
       0.006
       0.001
       0.001
       0.005
       0.008
       0.007
       0.004
       0.000
      -0.001
       0.002
       0.005
       0.007
       0.005
       0.000
      -0.006
      -0.010
      -0.007
       0.003
       0.017
       0.029
       0.032
       0.025
       0.013
       0.003
       0.001
       0.005
       0.011
       0.011
       0.007
       0.002
      -0.003
      -0.003
       0.002
       0.011
       0.018
       0.020
       0.016
       0.009
       0.003
       0.002
       0.007
       0.013
       0.012
       0.004
      -0.005
      -0.007
      -0.002
       0.004
       0.009
       0.012
       0.016
       0.018
       0.015
       0.007
       0.001
       0.001
       0.007
       0.013
       0.013
       0.009
       0.002
      -0.004
      -0.005
       0.003
       0.016
       0.026
       0.027
       0.018
       0.006
      -0.002
      -0.004
      -0.001
       0.004
       0.009
       0.011
       0.012
       0.014
       0.012
       0.003
      -0.005
       0.000
       0.020
       0.033
       0.020
      -0.006
      -0.012
       0.008
       0.019
      -0.002
      -0.029
      -0.019
       0.012
       0.010
      -0.044
      -0.093
      -0.075
      -0.013
       0.010
      -0.030
      -0.055
       0.009
       0.111
       0.130
       0.038
      -0.049
      -0.004
       0.146
       0.245
       0.184
       0.023
      -0.075
      -0.032
       0.062
       0.059
      -0.062
      -0.173
      -0.156
      -0.030
       0.074
       0.053
      -0.047
      -0.084
       0.017
       0.169
       0.213
       0.102
      -0.039
      -0.071
      -0.035
      -0.100
      -0.299
      -0.421
      -0.237
       0.171
       0.429
       0.278
      -0.148
      -0.479
      -0.483
      -0.246
       0.004
       0.149
       0.225
       0.268
       0.224
       0.080
      -0.021
       0.053
       0.197
       0.139
      -0.217
      -0.604
      -0.633
      -0.196
       0.396
       0.713
       0.584
       0.181
      -0.208
      -0.379
      -0.234
       0.182
       0.578
       0.554
       0.006
      -0.656
      -0.865
      -0.460
       0.189
       0.598
       0.558
       0.143
      -0.433
      -0.870
      -0.823
      -0.181
       0.652
       0.948
       0.350
      -0.649
      -1.102
      -0.570
       0.409
       0.919
       0.624
      -0.015
      -0.399
      -0.399
      -0.257
      -0.121
       0.085
       0.380
       0.561
       0.432
       0.069
      -0.218
      -0.177
       0.130
       0.352
       0.188
      -0.287
      -0.663
      -0.592
      -0.153
       0.274
       0.425
       0.334
       0.171
       0.015
      -0.168
      -0.369
      -0.425
      -0.151
       0.379
       0.729
       0.506
      -0.127
      -0.567
      -0.464
      -0.102
       0.010
      -0.195
      -0.290
       0.015
       0.447
       0.497
       0.051
      -0.421
      -0.373
       0.202
       0.759
       0.762
       0.188
      -0.468
      -0.687
      -0.366
       0.186
       0.532
       0.403
      -0.135
      -0.705
      -0.869
      -0.498
       0.076
       0.382
       0.266
      -0.025
      -0.176
      -0.120
       0.013
       0.167
       0.366
       0.452
       0.116
      -0.625
      -1.151
      -0.803
       0.236
       1.031
       0.970
       0.383
      -0.064
      -0.253
      -0.530
      -0.850
      -0.599
       0.461
       1.493
       1.327
      -0.098
      -1.490
      -1.608
      -0.654
       0.102
      -0.076
      -0.581
      -0.418
       0.413
       0.956
       0.647
       0.076
       0.140
       0.820
       1.259
       0.915
       0.149
      -0.398
      -0.536
      -0.414
      -0.079
       0.417
       0.660
       0.178
      -0.781
      -1.257
      -0.688
       0.301
       0.622
       0.078
      -0.493
      -0.422
       0.013
       0.246
       0.305
       0.546
       0.758
       0.269
      -0.880
      -1.572
      -0.936
       0.423
       1.090
       0.532
      -0.392
      -0.681
      -0.377
      -0.163
      -0.292
      -0.411
      -0.266
      -0.037
       0.113
       0.343
       0.700
       0.768
       0.202
      -0.576
      -0.726
      -0.081
       0.560
       0.452
      -0.098
      -0.163
       0.531
       1.229
       1.076
       0.092
      -0.914
      -1.207
      -0.773
      -0.186
       0.027
      -0.125
      -0.189
       0.115
       0.455
       0.305
      -0.275
      -0.568
      -0.049
       0.894
       1.270
       0.539
      -0.742
      -1.382
      -0.736
       0.579
       1.281
       0.760
      -0.332
      -0.855
      -0.418
       0.280
       0.355
      -0.233
      -0.699
      -0.376
       0.449
       0.710
      -0.233
      -1.621
      -1.901
      -0.518
       1.265
       1.732
       0.739
      -0.216
      -0.033
       0.582
       0.280
      -0.879
      -1.408
      -0.477
       0.835
       0.949
      -0.080
      -0.675
       0.045
       0.995
       0.570
      -1.122
      -2.266
      -1.542
       0.404
       1.899
       2.046
       1.219
       0.223
      -0.427
      -0.475
       0.056
       0.573
       0.228
      -1.012
      -1.920
      -1.200
       0.774
       1.990
       1.023
      -1.105
      -1.948
      -0.512
       1.595
       2.220
       1.187
       0.065
      -0.194
      -0.370
      -1.493
      -3.051
      -3.462
      -2.041
       0.261
       2.112
       3.067
       3.244
       2.415
       0.325
      -2.226
      -3.581
      -2.899
      -1.081
       0.380
       1.032
       1.366
       1.566
       1.187
       0.098
      -0.895
      -0.856
       0.011
       0.554
       0.172
      -0.630
      -1.271
      -1.824
      -2.317
      -1.919
       0.197
       3.107
       4.371
       2.690
      -0.328
      -1.776
      -0.575
       1.509
       2.020
       0.489
      -1.302
      -1.269
       1.036
       4.023
       5.121
       2.618
      -2.658
      -7.171
      -7.143
      -2.209
       3.579
       5.384
       2.551
      -0.730
      -0.188
       3.564
       5.645
       2.451
      -4.222
      -8.937
      -8.018
      -2.780
       2.198
       3.223
       0.036
      -4.442
      -6.028
      -1.962
       6.448
      13.516
      13.063
       3.961
      -8.261
     -15.898
     -15.239
      -8.637
      -1.575
       1.489
      -0.540
      -5.072
      -7.360
      -3.924
       4.188
      11.726
      13.805
      10.510
       6.707
       7.058
      11.236
      13.999
       9.747
      -2.464
     -16.984
     -24.591
     -19.599
      -5.734
       5.724
       5.774
      -3.112
      -8.588
      -1.064
      15.223
      25.480
      19.308
       1.407
     -13.157
     -13.573
      -2.583
       8.006
       9.375
       2.617
      -4.792
      -7.137
      -4.624
      -1.226
      -0.262
      -2.068
      -4.756
      -6.404
      -6.617
      -6.229
      -5.638
      -3.735
       0.939
       7.583
      12.259
      10.885
       3.720
      -3.811
      -5.791
      -1.486
       4.151
       5.578
       1.608
      -4.451
      -8.399
      -8.450
      -5.782
      -2.687
      -0.390
       1.550
       3.879
       6.046
       6.697
       5.886
       5.569
       6.785
       7.200
       3.316
      -4.596
     -11.250
     -11.269
      -4.974
       1.901
       4.375
       2.741
       0.366
      -1.326
      -3.681
      -7.166
      -9.316
      -7.462
      -2.292
       2.633
       4.543
       3.604
       1.716
       0.488
       0.646
       2.140
       3.907
       4.284
       2.721
       0.762
       0.423
       1.676
       2.372
       0.718
      -2.730
      -5.575
      -5.661
      -2.601
       2.136
       6.071
       6.973
       4.382
       0.359
      -1.873
      -0.781
       1.991
       3.366
       1.900
      -1.201
      -3.768
      -4.608
      -3.737
      -1.725
       0.339
       0.875
      -0.796
      -2.921
      -2.518
       1.028
       4.464
       4.148
       0.714
      -1.302
       1.055
       5.310
       6.219
       1.812
      -4.432
      -7.663
      -6.694
      -4.136
      -2.561
      -2.044
      -1.305
       0.270
       2.425
       4.812
       6.794
       6.973
       4.332
       0.107
      -2.662
      -2.196
      -0.039
       0.798
      -0.513
      -1.938
      -1.681
      -0.725
      -1.292
      -3.531
      -4.987
      -3.470
       0.400
       3.882
       4.774
       3.004
       0.164
      -1.917
      -2.322
      -1.476
      -0.752
      -1.308
      -2.939
      -4.265
      -4.239
      -3.206
      -2.228
      -1.688
      -1.004
       0.366
       2.145
       3.641
       4.382
       3.957
       1.873
      -1.491
      -4.149
      -3.974
      -1.176
       1.655
       2.506
       2.061
       2.073
       2.556
       1.908
      -0.388
      -2.574
      -2.605
      -0.545
       1.749
       2.857
       2.880
       2.454
       1.730
       0.799
       0.365
       1.058
       2.239
       2.417
       1.174
      -0.103
       0.005
       1.023
       1.219
      -0.099
      -1.801
      -2.571
      -2.507
      -2.583
      -3.086
      -3.367
      -2.992
      -2.366
      -2.009
      -1.803
      -1.295
      -0.368
       0.759
       1.783
       2.187
       1.314
      -0.761
      -2.557
      -2.180
       0.437
       2.799
       2.336
      -0.389
      -1.895
       0.246
       4.221
       5.683
       2.617
      -2.303
      -4.551
      -2.424
       1.635
       4.151
       4.073
       2.857
       2.218
       2.669
       3.773
       4.777
       4.815
       3.336
       0.920
      -0.911
      -1.292
      -1.047
      -1.566
      -2.846
      -3.392
      -2.267
      -0.498
       0.046
      -1.213
      -3.030
      -3.826
      -3.294
      -2.268
      -1.462
      -0.956
      -0.727
      -0.954
      -1.558
      -1.966
      -1.845
      -1.792
      -2.585
      -3.766
      -3.775
      -1.912
       0.430
       1.199
       0.170
      -0.807
      -0.110
       1.766
       3.006
       2.683
       1.575
       0.907
       1.010
       1.548
       2.328
       3.203
       3.576
       2.923
       1.743
       1.153
       1.285
       0.936
      -0.558
      -1.851
      -1.079
       1.432
       3.197
       2.591
       0.905
       0.539
       1.734
       2.331
       0.848
      -1.417
      -2.039
      -0.616
       0.725
       0.040
      -2.038
      -3.140
      -2.011
       0.110
       0.941
      -0.499
      -3.255
      -5.655
      -6.576
      -5.780
      -3.805
      -1.753
      -0.681
      -0.731
      -1.027
      -0.836
      -0.580
      -1.084
      -2.007
      -1.933
      -0.329
       1.400
       1.546
       0.400
      -0.081
       1.081
       2.549
       2.496
       1.044
       0.029
       0.649
       2.257
       3.480
       3.776
       3.577
       3.392
       3.244
       2.878
       2.179
       1.303
       0.638
       0.692
       1.737
       3.391
       4.676
       4.722
       3.437
       1.405
      -0.733
      -2.573
      -3.756
      -3.839
      -2.650
      -0.695
       1.027
       1.678
       0.990
      -0.825
      -3.274
      -5.514
      -6.306
      -4.760
      -1.530
       1.209
       1.602
      -0.103
      -1.989
      -2.676
      -2.547
      -2.591
      -2.719
      -1.999
      -0.371
       0.769
       0.167
      -1.549
      -2.417
      -1.459
       0.188
       0.792
       0.148
      -0.394
       0.173
       1.259
       1.568
       0.830
       0.192
       0.857
       2.633
       4.000
       3.537
       1.251
      -1.376
      -2.479
      -1.171
       1.749
       4.267
       4.646
       2.832
       0.497
      -0.491
       0.128
       0.844
       0.183
      -1.505
      -2.333
      -0.998
       1.621
       3.248
       2.500
       0.133
      -1.954
      -2.580
      -2.005
      -1.145
      -0.497
       0.028
       0.515
       0.614
      -0.139
      -1.613
      -2.968
      -3.410
      -2.941
      -2.173
      -1.485
      -0.700
       0.303
       1.094
       1.164
       0.688
       0.368
       0.512
       0.619
       0.078
      -0.933
      -1.433
      -0.554
       1.504
       3.411
       3.792
       2.613
       1.266
       0.954
       1.234
       0.715
      -0.883
      -2.117
      -1.559
       0.414
       2.032
       2.043
