Origin Time       29/11/2006 05:41:14 UTC
Lat.              27.6 N 
Long.             76.7 E 
Depth (Km)         13.0
Magnitude         3.9
 Region           ALWAR-RAJASTHAN                                                  
 Above details taken from IMD 
    
Station Code      ALW
Station Lat.       27.569  N
Station Long.      76.594  E
Station Height(m)  289.0
Site Class        A   Vs30 between 700 m/sec to 1400 m/sec * 
Record Time       29.11.2006 05:41:05.554 UTC
Sampling Rate     200. Hz
 Record Duration   31.130 Sec.
 Direction         N-S (N positive)
Max. Acceleration    -34.069 cm/sec**2
     
  * For reference see Site Classification link of website 
     
 Base Line Corrected and Low Pass Filtered (Cut Off at 35 Hz) Time History
 Acceleration data in cm/sec**2
    
[...]
      -0.022
      -0.013
       0.003
       0.014
       0.016
       0.008
      -0.003
      -0.012
      -0.016
      -0.010
       0.004
       0.019
       0.025
       0.015
      -0.008
      -0.030
      -0.040
      -0.032
      -0.012
       0.006
       0.012
       0.007
      -0.003
      -0.013
      -0.019
      -0.021
      -0.017
      -0.004
       0.011
       0.020
       0.016
       0.002
      -0.013
      -0.019
      -0.014
       0.000
       0.014
       0.021
       0.014
      -0.003
      -0.020
      -0.024
      -0.010
       0.012
       0.028
       0.030
       0.021
       0.011
       0.007
       0.006
       0.004
      -0.002
      -0.005
      -0.004
      -0.002
      -0.006
      -0.014
      -0.018
      -0.014
      -0.004
       0.004
       0.006
       0.004
      -0.001
      -0.006
      -0.011
      -0.012
      -0.008
       0.000
       0.008
       0.010
       0.005
      -0.005
      -0.011
      -0.009
       0.000
       0.011
       0.017
       0.016
       0.010
       0.002
      -0.006
      -0.010
      -0.007
       0.005
       0.018
       0.021
       0.010
      -0.008
      -0.020
      -0.021
      -0.010
       0.007
       0.020
       0.024
       0.015
       0.002
      -0.007
      -0.008
      -0.002
       0.007
       0.015
       0.017
       0.014
       0.009
       0.006
       0.005
       0.006
       0.008
       0.012
       0.014
       0.012
       0.002
      -0.011
      -0.017
      -0.010
       0.008
       0.026
       0.032
       0.021
       0.001
      -0.014
      -0.015
      -0.004
       0.011
       0.019
       0.016
       0.007
      -0.002
      -0.007
      -0.008
      -0.006
       0.000
       0.006
       0.010
       0.008
      -0.001
      -0.012
      -0.021
      -0.021
      -0.009
       0.007
       0.017
       0.012
      -0.005
      -0.020
      -0.022
      -0.010
       0.006
       0.015
       0.012
       0.001
      -0.008
      -0.013
      -0.013
      -0.013
      -0.013
      -0.010
      -0.004
       0.003
       0.006
       0.002
      -0.004
      -0.005
       0.001
       0.010
       0.011
       0.003
      -0.007
      -0.012
      -0.009
      -0.001
       0.007
       0.011
       0.011
       0.006
      -0.001
      -0.009
      -0.013
      -0.012
      -0.005
       0.006
       0.015
       0.014
       0.001
      -0.018
      -0.029
      -0.026
      -0.012
       0.001
       0.002
      -0.007
      -0.018
      -0.020
      -0.010
       0.004
       0.009
       0.002
      -0.010
      -0.017
      -0.017
      -0.013
      -0.012
      -0.013
      -0.009
       0.002
       0.013
       0.016
       0.005
      -0.012
      -0.025
      -0.027
      -0.019
      -0.006
       0.006
       0.012
       0.011
       0.005
      -0.003
      -0.007
      -0.003
       0.005
       0.013
       0.017
       0.013
       0.005
      -0.005
      -0.012
      -0.012
      -0.005
       0.006
       0.014
       0.014
       0.007
      -0.003
      -0.013
      -0.017
      -0.011
       0.002
       0.015
       0.017
       0.006
      -0.011
      -0.024
      -0.026
      -0.019
      -0.008
       0.002
       0.005
       0.001
      -0.010
      -0.021
      -0.026
      -0.019
      -0.005
       0.007
       0.009
       0.001
      -0.011
      -0.016
      -0.010
       0.004
       0.015
       0.016
       0.008
      -0.003
      -0.012
      -0.015
      -0.015
      -0.010
      -0.002
       0.008
       0.013
       0.010
       0.002
      -0.006
      -0.012
      -0.014
      -0.012
      -0.007
      -0.002
       0.003
       0.004
       0.001
      -0.003
      -0.005
       0.000
       0.008
       0.017
       0.018
       0.013
       0.005
       0.002
       0.004
       0.008
       0.012
       0.014
       0.013
       0.010
       0.002
      -0.004
      -0.005
       0.001
       0.012
       0.021
       0.024
       0.017
       0.003
      -0.009
      -0.011
      -0.002
       0.012
       0.019
       0.018
       0.013
       0.010
       0.008
       0.006
       0.002
       0.001
       0.004
       0.007
       0.008
       0.008
       0.007
       0.007
       0.011
       0.017
       0.022
       0.021
       0.011
      -0.003
      -0.010
      -0.003
       0.013
       0.026
       0.026
       0.016
       0.004
       0.000
       0.007
       0.019
       0.027
       0.026
       0.016
       0.004
      -0.004
      -0.003
       0.002
       0.009
       0.015
       0.018
       0.016
       0.008
      -0.001
      -0.005
      -0.002
       0.004
       0.007
       0.004
      -0.001
      -0.004
      -0.001
       0.005
       0.010
       0.012
       0.011
       0.010
       0.012
       0.017
       0.020
       0.019
       0.014
       0.007
       0.002
       0.003
       0.012
       0.021
       0.022
       0.010
      -0.007
      -0.019
      -0.018
      -0.006
       0.006
       0.009
       0.005
      -0.002
      -0.004
       0.000
       0.009
       0.020
       0.027
       0.027
       0.020
       0.011
       0.005
       0.003
       0.005
       0.010
       0.015
       0.020
       0.020
       0.015
       0.009
       0.005
       0.007
       0.011
       0.014
       0.014
       0.009
       0.002
      -0.006
      -0.010
      -0.009
      -0.001
       0.010
       0.016
       0.010
      -0.004
      -0.018
      -0.020
      -0.009
       0.007
       0.018
       0.020
       0.015
       0.007
       0.002
       0.001
       0.002
       0.003
       0.002
       0.003
       0.006
       0.007
       0.001
      -0.013
      -0.025
      -0.026
      -0.014
       0.003
       0.013
       0.013
       0.004
      -0.005
      -0.010
      -0.011
      -0.008
      -0.005
      -0.003
      -0.003
      -0.006
      -0.010
      -0.013
      -0.011
      -0.005
       0.002
       0.005
       0.001
      -0.007
      -0.013
      -0.010
      -0.001
       0.008
       0.012
       0.008
      -0.002
      -0.011
      -0.013
      -0.007
       0.005
       0.016
       0.019
       0.013
      -0.002
      -0.017
      -0.025
      -0.023
      -0.010
       0.005
       0.013
       0.009
      -0.004
      -0.017
      -0.024
      -0.023
      -0.015
      -0.002
       0.009
       0.013
       0.009
       0.001
      -0.005
      -0.007
      -0.008
      -0.006
      -0.003
       0.005
       0.012
       0.013
       0.007
      -0.005
      -0.014
      -0.015
      -0.009
      -0.001
       0.004
       0.000
      -0.008
      -0.014
      -0.012
      -0.003
       0.006
       0.010
       0.005
      -0.004
      -0.010
      -0.008
       0.000
       0.008
       0.012
       0.011
       0.007
       0.003
      -0.001
      -0.007
      -0.010
      -0.008
       0.000
       0.010
       0.016
       0.014
       0.003
      -0.010
      -0.019
      -0.018
      -0.005
       0.011
       0.021
       0.015
      -0.003
      -0.019
      -0.023
      -0.014
       0.001
       0.013
       0.018
       0.016
       0.009
      -0.003
      -0.014
      -0.018
      -0.008
       0.010
       0.025
       0.025
       0.008
      -0.014
      -0.025
      -0.020
      -0.004
       0.012
       0.019
       0.015
       0.006
      -0.003
      -0.011
      -0.016
      -0.013
       0.000
       0.015
       0.023
       0.019
       0.008
       0.002
       0.006
       0.018
       0.029
       0.031
       0.022
       0.007
      -0.006
      -0.008
       0.000
       0.013
       0.022
       0.021
       0.012
      -0.001
      -0.013
      -0.019
      -0.015
      -0.002
       0.013
       0.018
       0.011
      -0.004
      -0.018
      -0.023
      -0.012
       0.009
       0.029
       0.035
       0.023
       0.002
      -0.016
      -0.025
      -0.022
      -0.010
       0.005
       0.016
       0.011
      -0.007
      -0.024
      -0.025
      -0.010
       0.006
       0.011
       0.006
      -0.002
      -0.012
      -0.025
      -0.029
      -0.012
       0.015
       0.027
       0.020
       0.009
       0.012
       0.020
       0.012
      -0.020
      -0.042
      -0.011
       0.063
       0.111
       0.095
       0.039
      -0.021
      -0.065
      -0.074
      -0.035
       0.038
       0.093
       0.075
      -0.018
      -0.102
      -0.086
       0.027
       0.126
       0.104
      -0.017
      -0.116
      -0.106
      -0.005
       0.090
       0.074
      -0.080
      -0.246
      -0.247
      -0.065
       0.142
       0.205
       0.097
      -0.063
      -0.150
      -0.147
      -0.067
       0.107
       0.350
       0.511
       0.382
      -0.055
      -0.496
      -0.544
      -0.076
       0.582
       0.831
       0.331
      -0.592
      -1.175
      -0.912
      -0.002
       0.864
       1.071
       0.489
      -0.473
      -1.164
      -1.130
      -0.374
       0.633
       1.194
       0.865
      -0.118
      -0.956
      -0.997
      -0.324
       0.411
       0.619
       0.174
      -0.580
      -1.045
      -0.746
       0.273
       1.359
       1.679
       0.906
      -0.472
      -1.493
      -1.408
      -0.273
       1.096
       1.809
       1.536
       0.525
      -0.694
      -1.518
      -1.505
      -0.687
       0.354
       0.893
       0.632
      -0.086
      -0.614
      -0.526
       0.110
       0.792
       0.976
       0.497
      -0.304
      -0.818
      -0.649
      -0.004
       0.542
       0.627
       0.326
      -0.047
      -0.224
      -0.182
      -0.091
      -0.096
      -0.152
      -0.065
       0.173
       0.235
      -0.170
      -0.860
      -1.269
      -0.924
       0.102
       1.162
       1.487
       0.839
      -0.182
      -0.667
      -0.339
       0.236
       0.360
      -0.092
      -0.598
      -0.596
      -0.102
       0.353
       0.320
      -0.082
      -0.291
      -0.017
       0.382
       0.440
       0.178
       0.017
       0.224
       0.533
       0.439
      -0.194
      -1.008
      -1.516
      -1.399
      -0.651
       0.411
       1.229
       1.298
       0.604
      -0.273
      -0.660
      -0.386
       0.144
       0.483
       0.569
       0.489
       0.178
      -0.359
      -0.789
      -0.693
      -0.083
       0.503
       0.571
       0.198
      -0.133
      -0.071
       0.201
       0.170
      -0.312
      -0.755
      -0.633
      -0.074
       0.254
      -0.041
      -0.537
      -0.534
       0.038
       0.538
       0.429
      -0.058
      -0.302
      -0.126
       0.157
       0.422
       0.878
       1.412
       1.326
       0.172
      -1.353
      -1.905
      -0.968
       0.583
       1.447
       1.081
      -0.121
      -1.352
      -1.813
      -1.073
       0.507
       1.806
       1.795
       0.532
      -0.798
      -1.073
      -0.411
       0.113
      -0.194
      -0.888
      -1.013
      -0.266
       0.741
       1.246
       0.938
      -0.056
      -1.243
      -1.847
      -1.249
       0.389
       1.948
       2.228
       1.247
       0.276
       0.328
       0.923
       0.711
      -0.794
      -2.536
      -3.115
      -2.155
      -0.406
       1.015
       1.327
       0.516
      -0.607
      -0.915
       0.064
       1.532
       2.016
       0.797
      -1.344
      -2.810
      -2.478
      -0.483
       1.893
       3.050
       2.155
      -0.153
      -2.100
      -2.209
      -0.555
       1.418
       2.219
       1.448
      -0.104
      -1.249
      -1.301
      -0.369
       0.944
       1.961
       2.118
       1.197
      -0.317
      -1.426
      -1.498
      -0.766
       0.091
       0.577
       0.528
      -0.039
      -0.861
      -1.350
      -1.051
      -0.176
       0.626
       0.914
       0.630
      -0.125
      -1.150
      -1.896
      -1.570
       0.025
       1.835
       2.305
       0.959
      -0.970
      -1.629
      -0.308
       1.823
       2.789
       1.644
      -0.753
      -2.622
      -2.797
      -1.450
       0.400
       1.655
       1.605
       0.349
      -1.126
      -1.633
      -0.782
       0.589
       1.155
       0.471
      -0.614
      -1.012
      -0.599
      -0.108
       0.059
       0.381
       1.255
       2.026
       1.551
      -0.381
      -2.536
      -3.229
      -1.745
       1.100
       3.467
       3.644
       1.279
      -2.117
      -3.966
      -2.385
       2.191
       6.866
       8.097
       4.276
      -2.936
      -9.586
     -11.877
      -8.381
      -0.902
       6.446
       9.628
       7.183
       1.179
      -4.161
      -5.415
      -2.311
       2.307
       4.784
       3.397
      -0.740
      -4.926
      -6.455
      -3.984
       1.126
       5.121
       4.655
      -0.147
      -5.395
      -6.749
      -3.417
       1.404
       3.751
       2.113
      -1.926
      -5.518
      -6.810
      -5.532
      -2.322
       1.597
       4.495
       4.772
       2.154
      -1.633
      -3.933
      -3.262
      -0.293
       2.873
       4.137
       2.716
      -0.251
      -2.393
      -1.951
       0.526
       2.523
       2.149
       0.168
      -1.219
      -1.485
      -2.593
      -5.870
      -8.983
      -7.853
      -1.536
       6.775
      13.860
      19.680
      25.714
      31.423
      33.512
      28.435
      15.184
      -3.609
     -22.186
     -33.721
     -34.069
     -25.105
     -13.770
      -6.499
      -4.355
      -3.660
      -0.356
       6.982
      17.035
      26.395
      30.444
      25.946
      14.318
       1.384
      -7.792
     -13.592
     -19.830
     -27.212
     -30.789
     -25.379
     -12.969
      -2.488
      -0.929
      -6.001
      -8.850
      -3.170
       9.048
      19.572
      20.792
      11.536
      -2.509
     -13.457
     -16.678
     -12.958
      -6.773
      -2.835
      -3.157
      -5.959
      -7.508
      -5.813
      -2.122
       1.512
       4.738
       7.854
       9.532
       7.572
       2.175
      -2.799
      -2.612
       4.522
      15.861
      25.161
      25.995
      16.497
       1.793
      -9.404
     -11.883
      -7.734
      -2.976
      -1.177
      -1.266
      -0.895
      -0.031
      -0.194
      -1.100
      -0.012
       4.946
      11.906
      16.476
      15.454
       9.150
       0.832
      -5.668
      -8.291
      -7.538
      -5.574
      -4.733
      -6.217
      -9.401
     -12.168
     -12.079
      -7.622
       0.697
       9.771
      14.835
      12.468
       3.871
      -5.124
      -8.534
      -5.551
      -1.167
      -1.037
      -5.976
     -11.748
     -13.515
      -9.706
      -2.178
       5.799
      11.316
      12.840
      10.608
       6.179
       1.302
      -3.050
      -6.583
      -8.927
      -9.633
      -9.105
      -8.759
      -9.406
      -9.739
      -7.445
      -2.159
       3.549
       6.807
       7.362
       7.104
       7.304
       7.550
       7.316
       7.130
       7.438
       7.403
       6.108
       4.492
       4.539
       6.136
       6.012
       1.078
      -7.395
     -13.980
     -13.910
      -7.562
      -0.015
       3.681
       2.333
      -1.884
      -6.040
      -7.796
      -5.700
       0.108
       7.376
      12.914
      14.880
      13.664
      10.585
       6.645
       2.715
      -0.362
      -2.561
      -4.899
      -8.107
     -11.134
     -11.694
      -8.902
      -4.879
      -2.860
      -3.886
      -6.009
      -6.582
      -4.611
      -0.747
       4.026
       8.561
      10.880
       9.012
       3.200
      -3.304
      -6.271
      -3.715
       2.652
       8.723
      10.644
       7.107
       0.317
      -5.115
      -5.494
      -1.438
       2.265
       1.263
      -3.750
      -7.896
      -7.507
      -3.465
       0.878
       3.293
       3.279
       0.770
      -3.683
      -7.748
      -8.315
      -4.381
       1.749
       6.435
       7.657
       6.171
       4.081
       2.675
       1.820
       0.909
      -0.350
      -1.882
      -3.269
      -3.724
      -2.549
       0.072
       2.930
       4.694
       4.782
       3.183
      -0.006
      -4.133
      -7.408
      -7.710
      -4.477
       0.385
       3.920
       4.574
       3.072
       1.047
      -0.478
      -1.087
      -0.471
       1.146
       2.468
       2.047
       0.011
      -1.717
      -1.300
       1.126
       3.550
       4.003
       2.273
      -0.266
      -2.070
      -2.445
      -1.664
      -0.489
       0.337
       0.228
      -1.146
      -3.503
      -5.731
      -6.267
      -4.126
       0.181
       4.658
       6.745
       4.856
      -0.065
      -4.538
      -5.018
      -1.007
       4.272
       6.774
       5.287
       1.862
      -0.835
      -1.762
      -1.373
      -0.273
       1.238
       2.421
       1.994
      -0.539
      -3.775
      -5.214
      -3.640
      -0.598
       1.079
       0.122
      -2.244
      -3.842
      -3.431
      -1.216
       1.850
       4.591
       5.709
       4.372
       1.017
      -2.739
      -5.083
      -5.045
      -2.870
       0.397
       3.457
       5.037
       4.363
       1.830
      -0.987
      -2.407
      -1.938
      -0.432
       0.923
       1.324
       0.234
      -2.412
      -5.355
      -6.156
      -3.271
       1.900
       5.745
       5.694
       2.573
      -0.429
      -0.823
       1.150
       3.223
       3.535
       2.184
       0.602
      -0.002
       0.512
       1.492
       2.252
       2.394
       1.730
       0.437
      -0.809
      -1.300
      -0.937
      -0.283
      -0.001
      -0.296
      -0.866
      -1.127
      -0.402
       1.629
       4.299
       5.975
       5.247
       2.362
      -0.784
      -2.428
      -2.537
      -2.374
      -2.802
      -3.481
      -3.663
      -3.147
      -2.200
      -1.179
      -0.695
      -1.483
      -3.400
      -4.932
      -4.438
      -1.935
       0.783
       1.892
       1.061
      -0.776
      -2.608
      -3.962
      -4.488
      -3.625
      -1.178
       2.021
       4.472
       5.016
       3.509
       0.716
      -2.236
      -4.269
      -4.544
      -2.814
       0.211
       3.079
       4.552
       4.412
       3.193
       1.339
      -0.887
      -2.778
      -3.124
      -1.163
       2.393
       5.584
       6.717
       5.573
       3.225
       1.003
      -0.382
      -0.906
      -0.718
       0.086
       1.209
       2.028
       1.972
       0.960
      -0.532
      -1.854
      -2.571
      -2.507
      -1.739
      -0.639
       0.368
       1.026
       1.068
       0.211
      -1.289
      -2.335
      -1.785
       0.194
       1.851
       1.320
      -1.495
      -4.584
      -5.440
      -3.182
       0.704
       3.606
       3.850
       1.761
      -0.948
      -2.694
      -3.059
      -2.546
      -1.664
      -0.557
       0.654
       1.544
       1.627
       0.911
       0.010
      -0.437
      -0.329
      -0.132
      -0.364
      -0.904
      -0.870
       0.464
       2.612
       3.982
       3.300
       0.868
      -1.705
      -2.869
      -2.059
       0.279
       3.049
       4.999
       5.295
       3.899
