Origin Time       14/03/2010 6:53:21	 UTC
Lat.              31.7 N	
Long.             76.1 E	
Depth (Km)         29.0
Magnitude         4.6
 Region           HIMACHAL-PUNJAB-(HOSHIARPUR)-BORDER                              
 Above details taken from IMD 
    
Station Code      AMB
Station Lat.       31.688  N
Station Long.      76.116  E
Station Height(m)  488.0
Site Class        C   Vs30 between 200 m/sec to 375 m/sec *  
Record Time       14.03.2010 06:53:11.489 UTC
Sampling Rate     200. Hz
 Record Duration   78.550 Sec.
 Direction         N-S (N positive)
Max. Acceleration     15.865 cm/sec**2
     
  * For reference see Site Classification link of website 
     
 Base Line Corrected and Low Pass Filtered (Cut Off at 35 Hz) Time History
 Acceleration data in cm/sec**2
    
[...]
       0.040
       0.042
       0.049
       0.057
       0.060
       0.051
       0.030
       0.006
      -0.007
      -0.004
       0.007
       0.014
       0.012
       0.006
       0.001
       0.000
       0.001
       0.000
      -0.003
      -0.007
      -0.013
      -0.015
      -0.010
       0.006
       0.029
       0.049
       0.057
       0.047
       0.028
       0.010
       0.005
       0.014
       0.030
       0.041
       0.041
       0.032
       0.025
       0.027
       0.039
       0.051
       0.053
       0.044
       0.028
       0.015
       0.008
       0.008
       0.011
       0.017
       0.024
       0.030
       0.031
       0.027
       0.017
       0.004
      -0.008
      -0.019
      -0.028
      -0.031
      -0.026
      -0.014
      -0.001
       0.008
       0.010
       0.013
       0.019
       0.027
       0.034
       0.036
       0.033
       0.024
       0.014
       0.007
       0.005
       0.006
       0.006
       0.002
      -0.003
      -0.004
      -0.001
       0.004
       0.008
       0.012
       0.019
       0.026
       0.028
       0.022
       0.010
      -0.002
      -0.008
      -0.006
      -0.003
      -0.003
      -0.003
       0.003
       0.018
       0.035
       0.045
       0.041
       0.029
       0.018
       0.014
       0.013
       0.006
      -0.008
      -0.025
      -0.036
      -0.037
      -0.027
      -0.011
       0.005
       0.012
       0.008
      -0.008
      -0.026
      -0.040
      -0.046
      -0.042
      -0.031
      -0.015
       0.003
       0.020
       0.032
       0.038
       0.034
       0.022
       0.010
       0.001
      -0.003
      -0.006
      -0.011
      -0.016
      -0.016
      -0.006
       0.014
       0.034
       0.045
       0.042
       0.027
       0.006
      -0.012
      -0.025
      -0.030
      -0.030
      -0.026
      -0.021
      -0.017
      -0.010
      -0.001
       0.009
       0.014
       0.012
       0.005
       0.000
       0.000
       0.001
      -0.005
      -0.019
      -0.032
      -0.031
      -0.016
       0.003
       0.010
       0.004
      -0.007
      -0.008
       0.001
       0.010
       0.009
      -0.001
      -0.012
      -0.016
      -0.012
      -0.006
      -0.006
      -0.011
      -0.020
      -0.027
      -0.028
      -0.026
      -0.022
      -0.018
      -0.016
      -0.015
      -0.015
      -0.016
      -0.018
      -0.018
      -0.015
      -0.009
      -0.004
      -0.005
      -0.016
      -0.032
      -0.045
      -0.049
      -0.040
      -0.023
      -0.003
       0.009
       0.011
       0.004
      -0.005
      -0.011
      -0.012
      -0.014
      -0.023
      -0.037
      -0.050
      -0.054
      -0.046
      -0.032
      -0.022
      -0.020
      -0.024
      -0.027
      -0.029
      -0.031
      -0.036
      -0.043
      -0.049
      -0.050
      -0.045
      -0.036
      -0.025
      -0.012
      -0.001
       0.005
       0.001
      -0.011
      -0.028
      -0.045
      -0.058
      -0.067
      -0.074
      -0.075
      -0.068
      -0.056
      -0.045
      -0.043
      -0.049
      -0.057
      -0.058
      -0.047
      -0.031
      -0.022
      -0.027
      -0.041
      -0.059
      -0.072
      -0.080
      -0.080
      -0.070
      -0.050
      -0.029
      -0.018
      -0.025
      -0.041
      -0.054
      -0.052
      -0.037
      -0.022
      -0.018
      -0.027
      -0.043
      -0.059
      -0.069
      -0.075
      -0.079
      -0.082
      -0.081
      -0.078
      -0.074
      -0.072
      -0.073
      -0.074
      -0.072
      -0.070
      -0.076
      -0.091
      -0.108
      -0.112
      -0.096
      -0.067
      -0.040
      -0.027
      -0.034
      -0.055
      -0.081
      -0.096
      -0.089
      -0.057
      -0.007
       0.037
       0.052
       0.021
      -0.052
      -0.144
      -0.217
      -0.236
      -0.188
      -0.085
       0.034
       0.126
       0.152
       0.100
      -0.013
      -0.132
      -0.190
      -0.142
      -0.005
       0.147
       0.218
       0.161
       0.006
      -0.147
      -0.203
      -0.134
       0.003
       0.115
       0.141
       0.074
      -0.053
      -0.194
      -0.296
      -0.300
      -0.166
       0.070
       0.287
       0.352
       0.226
       0.009
      -0.138
      -0.132
      -0.028
       0.047
       0.025
      -0.053
      -0.104
      -0.098
      -0.075
      -0.075
      -0.084
      -0.061
      -0.010
       0.010
      -0.034
      -0.084
      -0.044
       0.099
       0.227
       0.204
       0.023
      -0.175
      -0.249
      -0.192
      -0.108
      -0.080
      -0.088
      -0.072
      -0.029
      -0.006
      -0.025
      -0.028
       0.042
       0.154
       0.201
       0.120
      -0.026
      -0.110
      -0.075
       0.013
       0.043
      -0.029
      -0.156
      -0.263
      -0.300
      -0.253
      -0.137
      -0.003
       0.067
       0.022
      -0.083
      -0.112
       0.036
       0.309
       0.538
       0.590
       0.472
       0.286
       0.097
      -0.120
      -0.384
      -0.603
      -0.619
      -0.381
      -0.046
       0.126
       0.006
      -0.274
      -0.450
      -0.356
      -0.059
       0.234
       0.361
       0.313
       0.175
       0.033
      -0.075
      -0.135
      -0.133
      -0.063
       0.047
       0.145
       0.189
       0.170
       0.104
       0.019
      -0.060
      -0.105
      -0.095
      -0.034
       0.045
       0.099
       0.108
       0.085
       0.046
      -0.010
      -0.088
      -0.158
      -0.161
      -0.073
       0.040
       0.053
      -0.085
      -0.277
      -0.343
      -0.194
       0.066
       0.225
       0.177
       0.026
      -0.025
       0.122
       0.359
       0.489
       0.413
       0.205
       0.020
      -0.053
      -0.049
      -0.051
      -0.093
      -0.132
      -0.118
      -0.059
      -0.024
      -0.076
      -0.201
      -0.308
      -0.302
      -0.169
       0.022
       0.171
       0.225
       0.193
       0.114
       0.035
      -0.004
       0.023
       0.111
       0.204
       0.235
       0.183
       0.082
      -0.028
      -0.148
      -0.280
      -0.364
      -0.302
      -0.080
       0.166
       0.258
       0.175
       0.085
       0.153
       0.331
       0.385
       0.152
      -0.262
      -0.568
      -0.585
      -0.413
      -0.295
      -0.353
      -0.464
      -0.416
      -0.141
       0.215
       0.432
       0.414
       0.237
       0.063
       0.015
       0.110
       0.268
       0.354
       0.253
      -0.040
      -0.378
      -0.539
      -0.408
      -0.082
       0.205
       0.295
       0.219
       0.117
       0.062
       0.003
      -0.127
      -0.309
      -0.452
      -0.492
      -0.436
      -0.313
      -0.125
       0.112
       0.325
       0.404
       0.308
       0.119
      -0.026
      -0.071
      -0.079
      -0.138
      -0.232
      -0.237
      -0.067
       0.201
       0.383
       0.360
       0.199
       0.062
       0.026
       0.010
      -0.103
      -0.295
      -0.407
      -0.297
      -0.008
       0.253
       0.291
       0.088
      -0.184
      -0.298
      -0.140
       0.213
       0.524
       0.548
       0.219
      -0.279
      -0.623
      -0.600
      -0.272
       0.094
       0.268
       0.242
       0.191
       0.261
       0.410
       0.461
       0.287
      -0.053
      -0.367
      -0.502
      -0.461
      -0.355
      -0.277
      -0.228
      -0.158
      -0.057
       0.028
       0.054
       0.043
       0.049
       0.080
       0.083
       0.023
      -0.050
      -0.049
       0.034
       0.089
       0.003
      -0.197
      -0.336
      -0.257
       0.013
       0.266
       0.294
       0.070
      -0.240
      -0.435
      -0.445
      -0.340
      -0.207
      -0.049
       0.187
       0.482
       0.698
       0.662
       0.334
      -0.126
      -0.458
      -0.496
      -0.293
      -0.056
       0.027
      -0.060
      -0.177
      -0.173
      -0.020
       0.179
       0.312
       0.375
       0.460
       0.618
       0.754
       0.691
       0.355
      -0.110
      -0.442
      -0.475
      -0.269
      -0.041
       0.023
      -0.103
      -0.297
      -0.405
      -0.351
      -0.176
       0.020
       0.152
       0.190
       0.148
       0.057
      -0.055
      -0.148
      -0.181
      -0.142
      -0.074
      -0.047
      -0.070
      -0.069
       0.036
       0.202
       0.267
       0.106
      -0.202
      -0.411
      -0.339
      -0.046
       0.226
       0.288
       0.162
       0.014
      -0.030
       0.018
       0.043
      -0.052
      -0.280
      -0.555
      -0.714
      -0.597
      -0.166
       0.401
       0.781
       0.735
       0.307
      -0.205
      -0.491
      -0.460
      -0.236
       0.024
       0.276
       0.553
       0.819
       0.924
       0.723
       0.234
      -0.340
      -0.742
      -0.819
      -0.591
      -0.200
       0.180
       0.412
       0.438
       0.287
       0.056
      -0.159
      -0.320
      -0.435
      -0.495
      -0.432
      -0.180
       0.221
       0.592
       0.721
       0.523
       0.114
      -0.265
      -0.426
      -0.350
      -0.163
       0.005
       0.139
       0.330
       0.639
       0.967
       1.077
       0.781
       0.136
      -0.525
      -0.813
      -0.594
      -0.119
       0.164
      -0.020
      -0.536
      -0.958
      -0.947
      -0.553
      -0.136
      -0.008
      -0.137
      -0.216
      -0.006
       0.405
       0.692
       0.604
       0.191
      -0.280
      -0.577
      -0.663
      -0.637
      -0.578
      -0.451
      -0.180
       0.238
       0.692
       1.024
       1.129
       0.995
       0.680
       0.278
      -0.088
      -0.296
      -0.297
      -0.182
      -0.120
      -0.205
      -0.329
      -0.273
       0.071
       0.544
       0.837
       0.776
       0.496
       0.307
       0.372
       0.539
       0.493
       0.104
      -0.417
      -0.708
      -0.615
      -0.340
      -0.223
      -0.386
      -0.602
      -0.530
      -0.073
       0.501
       0.786
       0.572
      -0.001
      -0.578
      -0.850
      -0.732
      -0.375
      -0.040
       0.076
      -0.015
      -0.103
       0.041
       0.430
       0.810
       0.894
       0.651
       0.362
       0.338
       0.596
       0.817
       0.653
       0.067
      -0.630
      -1.064
      -1.101
      -0.911
      -0.766
      -0.802
      -0.935
      -0.970
      -0.760
      -0.307
       0.254
       0.718
       0.908
       0.771
       0.424
       0.092
      -0.074
      -0.141
      -0.299
      -0.604
      -0.815
      -0.590
       0.123
       0.926
       1.284
       1.022
       0.501
       0.243
       0.404
       0.642
       0.519
      -0.002
      -0.508
      -0.574
      -0.208
       0.177
       0.192
      -0.159
      -0.535
      -0.626
      -0.418
      -0.133
       0.029
       0.039
      -0.006
      -0.010
       0.064
       0.229
       0.478
       0.747
       0.904
       0.832
       0.546
       0.193
      -0.078
      -0.242
      -0.395
      -0.598
      -0.758
      -0.701
      -0.381
       0.006
       0.164
      -0.011
      -0.297
      -0.340
      -0.005
       0.470
       0.689
       0.464
      -0.014
      -0.378
      -0.416
      -0.223
      -0.058
      -0.076
      -0.199
      -0.209
       0.048
       0.516
       0.950
       1.096
       0.905
       0.573
       0.363
       0.349
       0.337
       0.062
      -0.515
      -1.120
      -1.392
      -1.223
      -0.867
      -0.686
      -0.781
      -0.883
      -0.615
       0.119
       1.030
       1.663
       1.733
       1.261
       0.495
      -0.260
      -0.756
      -0.868
      -0.631
      -0.227
       0.131
       0.350
       0.505
       0.724
       1.012
       1.212
       1.153
       0.831
       0.430
       0.140
      -0.028
      -0.227
      -0.564
      -0.934
      -1.077
      -0.828
      -0.294
       0.217
       0.465
       0.464
       0.424
       0.491
       0.579
       0.452
       0.009
      -0.539
      -0.791
      -0.494
       0.208
       0.863
       1.068
       0.763
       0.215
      -0.259
      -0.555
      -0.779
      -1.042
      -1.284
      -1.327
      -1.083
      -0.669
      -0.304
      -0.114
      -0.059
      -0.040
      -0.032
      -0.089
      -0.236
      -0.401
      -0.465
      -0.379
      -0.198
      -0.014
       0.140
       0.304
       0.525
       0.797
       1.073
       1.322
       1.538
       1.681
       1.629
       1.234
       0.475
      -0.435
      -1.110
      -1.234
      -0.790
      -0.085
       0.479
       0.689
       0.624
       0.480
       0.326
       0.017
      -0.609
      -1.459
      -2.127
      -2.139
      -1.345
      -0.081
       1.043
       1.567
       1.450
       0.955
       0.317
      -0.456
      -1.485
      -2.757
      -4.015
      -4.921
      -5.333
      -5.430
      -5.563
      -5.983
      -6.680
      -7.448
      -8.092
      -8.561
      -8.918
      -9.219
      -9.463
      -9.616
      -9.648
      -9.501
      -9.053
      -8.165
      -6.808
      -5.135
      -3.385
      -1.697
       0.008
       1.927
       4.157
       6.563
       8.856
      10.805
      12.376
      13.670
      14.756
      15.549
      15.865
      15.585
      14.774
      13.661
      12.506
      11.478
      10.639
      10.006
       9.623
       9.547
       9.761
      10.102
      10.298
      10.097
       9.365
       8.071
       6.213
       3.822
       1.064
      -1.662
      -3.812
      -4.959
      -5.049
      -4.446
      -3.698
      -3.225
      -3.150
      -3.391
      -3.872
      -4.642
      -5.799
      -7.286
      -8.779
      -9.768
      -9.803
      -8.722
      -6.704
      -4.116
      -1.310
       1.455
       3.950
       5.904
       7.050
       7.276
       6.712
       5.674
       4.476
       3.286
       2.131
       0.990
      -0.114
      -1.129
      -2.029
      -2.839
      -3.582
      -4.214
      -4.618
      -4.682
      -4.407
      -3.960
      -3.614
      -3.599
      -3.967
      -4.555
      -5.087
      -5.325
      -5.174
      -4.671
      -3.902
      -2.934
      -1.839
      -0.747
       0.159
       0.747
       1.018
       1.094
       1.099
       1.073
       0.993
       0.848
       0.666
       0.461
       0.195
      -0.178
      -0.613
      -0.958
      -1.048
      -0.851
      -0.517
      -0.305
      -0.430
      -0.975
      -1.890
      -3.046
      -4.267
      -5.343
      -6.029
      -6.081
      -5.324
      -3.749
      -1.580
       0.767
       2.832
       4.287
       5.019
       5.075
       4.558
       3.583
       2.309
       0.968
      -0.185
      -0.960
      -1.275
      -1.128
      -0.556
       0.349
       1.389
       2.264
       2.680
       2.491
       1.764
       0.705
      -0.435
      -1.402
      -1.929
      -1.761
      -0.765
       0.954
       3.046
       5.058
       6.616
       7.513
       7.655
       6.973
       5.436
       3.186
       0.606
      -1.781
      -3.573
      -4.669
      -5.232
      -5.501
      -5.618
      -5.607
      -5.458
      -5.194
      -4.862
      -4.480
      -4.010
      -3.393
      -2.620
      -1.758
      -0.923
      -0.201
       0.406
       0.970
       1.561
       2.181
       2.761
       3.237
       3.620
       3.969
       4.308
       4.564
       4.618
       4.400
       3.954
       3.379
       2.714
       1.877
       0.720
      -0.833
      -2.678
      -4.558
      -6.159
      -7.212
      -7.528
      -7.037
      -5.830
      -4.187
      -2.484
      -1.015
       0.131
       1.024
       1.716
       2.129
       2.114
       1.635
       0.857
       0.062
      -0.529
      -0.839
      -0.871
      -0.603
       0.003
       0.899
       1.895
       2.735
       3.239
       3.362
       3.129
       2.548
       1.629
       0.494
      -0.562
      -1.183
      -1.184
      -0.665
       0.101
       0.906
       1.713
       2.537
       3.258
       3.601
       3.323
       2.429
       1.188
      -0.060
      -1.126
      -2.005
      -2.739
      -3.267
      -3.439
      -3.164
      -2.535
      -1.790
      -1.154
      -0.696
      -0.339
       0.014
       0.348
       0.530
       0.440
       0.119
      -0.199
      -0.229
       0.165
       0.873
       1.637
       2.237
       2.641
       2.966
       3.330
       3.706
       3.926
       3.813
       3.340
       2.668
       2.024
       1.537
       1.155
       0.717
       0.087
      -0.739
      -1.657
      -2.547
      -3.346
      -4.052
      -4.662
      -5.124
      -5.361
      -5.341
      -5.111
      -4.758
      -4.332
      -3.805
      -3.108
      -2.221
      -1.234
      -0.308
       0.419
       0.914
       1.245
       1.495
       1.683
       1.757
       1.664
       1.418
       1.109
       0.838
       0.671
       0.639
       0.765
       1.068
       1.512
       1.976
       2.280
       2.277
       1.921
       1.274
       0.457
      -0.389
      -1.120
      -1.610
      -1.784
      -1.666
      -1.362
      -0.990
      -0.599
      -0.171
       0.307
       0.760
       1.034
       0.998
       0.670
       0.221
      -0.137
      -0.299
      -0.316
      -0.313
      -0.360
      -0.419
      -0.409
      -0.288
      -0.090
       0.117
       0.290
       0.415
       0.483
       0.466
       0.328
       0.071
      -0.257
      -0.591
      -0.889
      -1.145
      -1.372
      -1.567
      -1.699
      -1.710
      -1.546
      -1.175
      -0.604
       0.117
       0.906
       1.679
       2.359
       2.903
       3.307
       3.596
       3.789
       3.864
       3.761
       3.434
       2.919
       2.355
       1.936
       1.824
       2.069
       2.580
       3.160
       3.596
       3.740
       3.535
       2.995
       2.159
       1.093
      -0.094
      -1.241
      -2.184
      -2.829
      -3.182
      -3.303
      -3.239
      -3.001
      -2.611
      -2.155
      -1.771
      -1.577
      -1.597
      -1.752
      -1.923
      -2.030
      -2.078
      -2.114
      -2.154
      -2.125
      -1.890
      -1.346
      -0.511
       0.451
       1.309
       1.878
       2.070
       1.886
       1.361
       0.534
      -0.513
      -1.623
      -2.575
      -3.174
      -3.354
      -3.195
      -2.857
      -2.468
      -2.079
      -1.698
      -1.351
      -1.100
      -1.007
      -1.102
      -1.366
      -1.757
      -2.232
      -2.763
      -3.327
      -3.867
      -4.266
      -4.363
      -4.020
      -3.196
      -1.969
      -0.490
       1.065
       2.530
       3.753
       4.610
       5.044
       5.082
       4.808
       4.307
       3.655
       2.965
       2.440
       2.318
       2.728
       3.555
       4.454
       5.021
       5.008
       4.418
       3.426
       2.221
       0.903
      -0.484
      -1.869
      -3.106
      -4.031
      -4.546
      -4.668
      -4.495
      -4.143
      -3.698
      -3.215
