Origin Time       14/03/2010 6:53:21	
Lat.              31.7 N	
Long.             76.1 E	
Depth (Km)         29.0
Magnitude         4.6
 Region           HIMACHAL-PUNJAB-(HOSHIARPUR)-BORDER                              
 Above details taken from IMD 
     
Station Code      AMB
Station Lat.       31.688  N
Station Long.      76.116  E
Station Height(m)  488.0
Site Class        C   Vs30 between 200 m/sec to 375 m/sec *  
Record Time       14.03.2010 06:53:11.489
Sampling Rate     200. Hz
 Record Duration   78.550 Sec.
 Direction         E-W (E positive)
Max. Acceleration     12.235 cm/sec**2
     
  * For reference see Site Classification link of website 
     
 Base Line Corrected and Low Pass Filtered (Cut Off at 35 Hz) Time History
 Acceleration data in cm/sec**2
    
[...]
      -0.044
      -0.043
      -0.038
      -0.033
      -0.030
      -0.033
      -0.038
      -0.040
      -0.036
      -0.028
      -0.023
      -0.023
      -0.025
      -0.022
      -0.008
       0.010
       0.017
       0.007
      -0.011
      -0.020
      -0.012
       0.009
       0.028
       0.033
       0.027
       0.018
       0.015
       0.018
       0.021
       0.018
       0.005
      -0.014
      -0.031
      -0.041
      -0.039
      -0.029
      -0.015
      -0.005
      -0.003
      -0.009
      -0.019
      -0.025
      -0.023
      -0.014
      -0.005
      -0.007
      -0.021
      -0.037
      -0.041
      -0.029
      -0.009
       0.005
       0.009
       0.006
       0.002
      -0.001
      -0.006
      -0.012
      -0.018
      -0.020
      -0.019
      -0.014
      -0.004
       0.009
       0.023
       0.030
       0.026
       0.012
      -0.001
      -0.005
       0.000
       0.006
       0.006
       0.000
      -0.004
      -0.003
      -0.001
       0.000
      -0.001
      -0.006
      -0.013
      -0.019
      -0.020
      -0.013
      -0.001
       0.011
       0.019
       0.021
       0.016
       0.004
      -0.012
      -0.026
      -0.031
      -0.024
      -0.011
       0.002
       0.010
       0.014
       0.015
       0.016
       0.014
       0.006
      -0.008
      -0.021
      -0.025
      -0.018
      -0.006
       0.001
       0.000
      -0.003
      -0.002
       0.009
       0.024
       0.036
       0.039
       0.031
       0.015
       0.001
      -0.005
       0.002
       0.016
       0.028
       0.034
       0.034
       0.029
       0.021
       0.011
      -0.003
      -0.015
      -0.020
      -0.017
      -0.005
       0.006
       0.010
       0.006
       0.001
       0.000
       0.004
       0.007
       0.007
       0.002
      -0.006
      -0.016
      -0.023
      -0.023
      -0.016
      -0.004
       0.009
       0.022
       0.033
       0.041
       0.043
       0.036
       0.023
       0.007
      -0.006
      -0.014
      -0.017
      -0.016
      -0.014
      -0.012
      -0.012
      -0.010
      -0.005
       0.004
       0.010
       0.008
       0.002
      -0.001
       0.006
       0.024
       0.040
       0.045
       0.036
       0.022
       0.014
       0.014
       0.019
       0.020
       0.015
       0.010
       0.010
       0.017
       0.028
       0.038
       0.044
       0.046
       0.044
       0.041
       0.035
       0.028
       0.021
       0.017
       0.016
       0.017
       0.017
       0.014
       0.011
       0.014
       0.025
       0.041
       0.053
       0.052
       0.041
       0.025
       0.009
      -0.003
      -0.008
      -0.007
       0.000
       0.008
       0.017
       0.026
       0.034
       0.037
       0.035
       0.029
       0.024
       0.024
       0.029
       0.034
       0.036
       0.033
       0.030
       0.029
       0.032
       0.038
       0.044
       0.047
       0.043
       0.034
       0.020
       0.006
      -0.002
       0.000
       0.011
       0.029
       0.049
       0.065
       0.075
       0.082
       0.086
       0.085
       0.076
       0.060
       0.044
       0.036
       0.039
       0.046
       0.047
       0.040
       0.027
       0.019
       0.019
       0.027
       0.037
       0.045
       0.052
       0.060
       0.065
       0.065
       0.058
       0.050
       0.049
       0.053
       0.057
       0.054
       0.044
       0.032
       0.028
       0.035
       0.049
       0.064
       0.076
       0.082
       0.083
       0.079
       0.074
       0.071
       0.071
       0.071
       0.069
       0.062
       0.053
       0.049
       0.059
       0.082
       0.112
       0.134
       0.139
       0.126
       0.102
       0.078
       0.060
       0.049
       0.046
       0.055
       0.075
       0.097
       0.104
       0.084
       0.041
      -0.005
      -0.028
      -0.010
       0.045
       0.118
       0.179
       0.201
       0.171
       0.096
       0.002
      -0.069
      -0.085
      -0.044
       0.019
       0.055
       0.036
      -0.017
      -0.049
      -0.013
       0.090
       0.205
       0.260
       0.204
       0.040
      -0.177
      -0.363
      -0.437
      -0.357
      -0.147
       0.104
       0.281
       0.297
       0.157
      -0.043
      -0.173
      -0.162
      -0.047
       0.063
       0.084
       0.019
      -0.060
      -0.073
       0.007
       0.145
       0.273
       0.330
       0.281
       0.135
      -0.051
      -0.188
      -0.199
      -0.075
       0.106
       0.229
       0.220
       0.101
      -0.040
      -0.125
      -0.135
      -0.097
      -0.045
       0.008
       0.053
       0.084
       0.102
       0.121
       0.147
       0.147
       0.064
      -0.120
      -0.341
      -0.476
      -0.438
      -0.235
       0.038
       0.262
       0.368
       0.351
       0.249
       0.108
      -0.038
      -0.173
      -0.283
      -0.352
      -0.352
      -0.257
      -0.067
       0.175
       0.399
       0.549
       0.606
       0.566
       0.412
       0.126
      -0.252
      -0.581
      -0.677
      -0.447
       0.006
       0.426
       0.583
       0.434
       0.129
      -0.120
      -0.207
      -0.177
      -0.150
      -0.195
      -0.277
      -0.312
      -0.241
      -0.079
       0.111
       0.266
       0.348
       0.341
       0.243
       0.074
      -0.109
      -0.228
      -0.221
      -0.082
       0.128
       0.308
       0.367
       0.276
       0.081
      -0.118
      -0.236
      -0.254
      -0.214
      -0.167
      -0.117
      -0.034
       0.091
       0.213
       0.258
       0.202
       0.094
       0.004
      -0.047
      -0.108
      -0.215
      -0.325
      -0.333
      -0.172
       0.094
       0.301
       0.311
       0.123
      -0.131
      -0.299
      -0.315
      -0.222
      -0.098
       0.018
       0.136
       0.272
       0.404
       0.477
       0.447
       0.306
       0.088
      -0.146
      -0.337
      -0.445
      -0.466
      -0.420
      -0.335
      -0.227
      -0.099
       0.047
       0.193
       0.305
       0.360
       0.353
       0.292
       0.173
      -0.003
      -0.202
      -0.350
      -0.378
      -0.291
      -0.179
      -0.137
      -0.161
      -0.137
       0.041
       0.329
       0.533
       0.473
       0.174
      -0.146
      -0.268
      -0.150
       0.069
       0.228
       0.273
       0.255
       0.239
       0.236
       0.203
       0.091
      -0.105
      -0.322
      -0.460
      -0.434
      -0.234
       0.048
       0.269
       0.336
       0.273
       0.196
       0.192
       0.239
       0.239
       0.119
      -0.097
      -0.311
      -0.422
      -0.383
      -0.206
       0.042
       0.260
       0.345
       0.252
       0.040
      -0.141
      -0.160
      -0.008
       0.184
       0.255
       0.157
      -0.017
      -0.142
      -0.180
      -0.193
      -0.253
      -0.355
      -0.415
      -0.354
      -0.156
       0.120
       0.389
       0.575
       0.622
       0.483
       0.141
      -0.335
      -0.763
      -0.937
      -0.779
      -0.418
      -0.093
       0.041
       0.040
       0.095
       0.335
       0.682
       0.893
       0.750
       0.240
      -0.410
      -0.871
      -0.914
      -0.541
       0.032
       0.516
       0.720
       0.636
       0.394
       0.152
      -0.011
      -0.108
      -0.184
      -0.255
      -0.290
      -0.255
      -0.151
      -0.009
       0.126
       0.203
       0.179
       0.046
      -0.137
      -0.269
      -0.272
      -0.155
       0.005
       0.139
       0.250
       0.396
       0.605
       0.799
       0.827
       0.594
       0.168
      -0.257
      -0.507
      -0.544
      -0.441
      -0.287
      -0.124
       0.033
       0.154
       0.200
       0.155
       0.037
      -0.111
      -0.251
      -0.355
      -0.411
      -0.396
      -0.276
      -0.028
       0.308
       0.605
       0.707
       0.534
       0.143
      -0.291
      -0.580
      -0.626
      -0.473
      -0.243
      -0.033
       0.146
       0.329
       0.507
       0.593
       0.492
       0.205
      -0.142
      -0.379
      -0.419
      -0.303
      -0.139
       0.002
       0.112
       0.210
       0.286
       0.300
       0.225
       0.082
      -0.063
      -0.142
      -0.138
      -0.090
      -0.044
      -0.013
       0.028
       0.094
       0.161
       0.196
       0.195
       0.199
       0.243
       0.305
       0.310
       0.201
       0.010
      -0.152
      -0.189
      -0.099
       0.017
       0.052
      -0.030
      -0.181
      -0.332
      -0.444
      -0.508
      -0.526
      -0.492
      -0.383
      -0.157
       0.211
       0.671
       1.065
       1.196
       0.961
       0.444
      -0.144
      -0.595
      -0.808
      -0.780
      -0.554
      -0.202
       0.157
       0.391
       0.422
       0.282
       0.083
      -0.076
      -0.173
      -0.249
      -0.337
      -0.416
      -0.423
      -0.312
      -0.099
       0.151
       0.349
       0.425
       0.335
       0.087
      -0.255
      -0.583
      -0.782
      -0.782
      -0.580
      -0.232
       0.168
       0.507
       0.684
       0.642
       0.415
       0.117
      -0.103
      -0.145
      -0.006
       0.221
       0.413
       0.497
       0.498
       0.494
       0.519
       0.506
       0.333
      -0.060
      -0.582
      -1.005
      -1.100
      -0.802
      -0.275
       0.189
       0.362
       0.230
      -0.034
      -0.236
      -0.318
      -0.364
      -0.460
      -0.566
      -0.540
      -0.289
       0.114
       0.467
       0.591
       0.458
       0.175
      -0.123
      -0.364
      -0.541
      -0.658
      -0.696
      -0.614
      -0.382
      -0.034
       0.320
       0.533
       0.516
       0.314
       0.084
      -0.011
       0.074
       0.235
       0.305
       0.188
      -0.047
      -0.200
      -0.097
       0.250
       0.640
       0.847
       0.808
       0.647
       0.517
       0.422
       0.239
      -0.115
      -0.519
      -0.704
      -0.482
       0.047
       0.527
       0.605
       0.223
      -0.318
      -0.589
      -0.369
       0.196
       0.715
       0.857
       0.569
       0.082
      -0.283
      -0.337
      -0.142
       0.057
       0.024
      -0.274
      -0.634
      -0.789
      -0.630
      -0.285
       0.023
       0.190
       0.293
       0.458
       0.698
       0.881
       0.854
       0.566
       0.095
      -0.412
      -0.818
      -1.030
      -1.034
      -0.893
      -0.708
      -0.542
      -0.377
      -0.159
       0.119
       0.367
       0.469
       0.374
       0.153
      -0.059
      -0.168
      -0.192
      -0.229
      -0.345
      -0.495
      -0.563
      -0.489
      -0.344
      -0.256
      -0.261
      -0.250
      -0.069
       0.333
       0.848
       1.291
       1.518
       1.479
       1.189
       0.676
      -0.013
      -0.767
      -1.401
      -1.734
      -1.681
      -1.274
      -0.615
       0.171
       0.925
       1.442
       1.534
       1.146
       0.435
      -0.297
      -0.780
      -0.927
      -0.828
      -0.623
      -0.379
      -0.100
       0.183
       0.360
       0.303
       0.001
      -0.411
      -0.750
      -0.922
      -0.937
      -0.814
      -0.524
      -0.051
       0.501
       0.911
       0.981
       0.703
       0.285
      -0.005
      -0.029
       0.129
       0.274
       0.273
       0.142
       0.005
      -0.029
       0.044
       0.121
       0.067
      -0.165
      -0.478
      -0.708
      -0.758
      -0.667
      -0.541
      -0.431
      -0.290
      -0.042
       0.303
       0.619
       0.747
       0.630
       0.369
       0.141
       0.065
       0.144
       0.306
       0.476
       0.591
       0.592
       0.427
       0.097
      -0.329
      -0.736
      -1.024
      -1.135
      -1.053
      -0.793
      -0.422
      -0.057
       0.203
       0.359
       0.504
       0.689
       0.823
       0.720
       0.281
      -0.366
      -0.904
      -1.032
      -0.682
      -0.091
       0.352
       0.385
       0.069
      -0.279
      -0.346
      -0.052
       0.425
       0.804
       0.895
       0.691
       0.316
      -0.101
      -0.500
      -0.847
      -1.066
      -1.045
      -0.730
      -0.194
       0.381
       0.799
       0.946
       0.810
       0.462
      -0.007
      -0.503
      -0.939
      -1.231
      -1.331
      -1.244
      -1.024
      -0.735
      -0.434
      -0.165
       0.044
       0.196
       0.316
       0.431
       0.523
       0.531
       0.395
       0.142
      -0.091
      -0.115
       0.176
       0.706
       1.233
       1.492
       1.353
       0.901
       0.350
      -0.109
      -0.419
      -0.622
      -0.748
      -0.738
      -0.514
      -0.095
       0.343
       0.565
       0.433
       0.014
      -0.477
      -0.815
      -0.888
      -0.728
      -0.454
      -0.203
      -0.087
      -0.171
      -0.474
      -0.974
      -1.617
      -2.339
      -3.075
      -3.756
      -4.292
      -4.583
      -4.561
      -4.250
      -3.773
      -3.301
      -2.956
      -2.741
      -2.536
      -2.180
      -1.537
      -0.524
       0.921
       2.825
       5.114
       7.551
       9.772
      11.411
      12.235
      12.191
      11.365
       9.896
       7.929
       5.623
       3.187
       0.881
      -1.034
      -2.395
      -3.194
      -3.582
      -3.793
      -4.046
      -4.495
      -5.204
      -6.130
      -7.092
      -7.820
      -8.060
      -7.704
      -6.822
      -5.614
      -4.294
      -2.997
      -1.752
      -0.538
       0.627
       1.672
       2.547
       3.298
       4.063
       4.971
       6.028
       7.085
       7.890
       8.213
       7.947
       7.144
       5.967
       4.614
       3.249
       1.969
       0.807
      -0.232
      -1.146
      -1.920
      -2.554
      -3.092
      -3.613
      -4.201
      -4.907
      -5.721
      -6.557
      -7.244
      -7.584
      -7.425
      -6.722
      -5.533
      -3.974
      -2.157
      -0.168
       1.914
       3.959
       5.741
       6.963
       7.350
       6.782
       5.390
       3.561
       1.810
       0.590
       0.144
       0.480
       1.434
       2.745
       4.103
       5.182
       5.699
       5.475
       4.487
       2.882
       0.942
      -0.990
      -2.607
      -3.713
      -4.261
      -4.340
      -4.129
      -3.809
      -3.478
      -3.124
      -2.684
      -2.155
      -1.632
      -1.264
      -1.158
      -1.324
      -1.703
      -2.199
      -2.705
      -3.107
      -3.317
      -3.302
      -3.090
      -2.732
      -2.277
      -1.770
      -1.266
      -0.816
      -0.437
      -0.091
       0.273
       0.665
       1.039
       1.333
       1.514
       1.585
       1.564
       1.484
       1.398
       1.375
       1.475
       1.723
       2.100
       2.530
       2.879
       2.983
       2.704
       2.005
       0.983
      -0.172
      -1.251
      -2.070
      -2.473
      -2.345
      -1.670
      -0.579
       0.677
       1.831
       2.683
       3.135
       3.160
       2.781
       2.048
       1.047
      -0.061
      -1.035
      -1.615
      -1.646
      -1.162
      -0.349
       0.572
       1.453
       2.202
       2.725
       2.889
       2.592
       1.857
       0.873
      -0.070
      -0.730
      -1.027
      -1.053
      -0.986
      -0.966
      -1.048
      -1.238
      -1.563
      -2.075
      -2.786
      -3.601
      -4.325
      -4.759
      -4.808
      -4.518
      -4.021
      -3.426
      -2.752
      -1.938
      -0.931
       0.244
       1.471
       2.597
       3.507
       4.143
       4.508
       4.644
       4.620
       4.503
       4.315
       4.034
       3.630
       3.109
       2.522
       1.929
       1.372
       0.866
       0.416
       0.025
      -0.301
      -0.561
      -0.755
      -0.888
      -0.990
      -1.142
      -1.477
      -2.089
      -2.924
      -3.741
      -4.209
      -4.092
      -3.377
      -2.255
      -0.987
       0.228
       1.283
       2.088
       2.522
       2.480
       1.987
       1.255
       0.582
       0.194
       0.144
       0.356
       0.715
       1.115
       1.444
       1.567
       1.373
       0.857
       0.157
      -0.518
      -1.021
      -1.367
      -1.697
      -2.162
      -2.815
      -3.581
      -4.311
      -4.864
      -5.148
      -5.117
      -4.723
      -3.908
      -2.649
      -1.031
       0.709
       2.231
       3.201
       3.417
       2.898
       1.885
       0.744
      -0.192
      -0.731
      -0.839
      -0.553
       0.098
       1.079
       2.269
       3.422
       4.245
       4.546
       4.323
       3.732
       2.971
       2.197
       1.516
       1.027
       0.817
       0.904
       1.189
       1.479
       1.600
       1.480
       1.161
       0.723
       0.213
      -0.364
      -1.005
      -1.652
      -2.180
      -2.451
      -2.398
      -2.077
      -1.622
      -1.161
      -0.755
      -0.409
      -0.120
       0.076
       0.121
      -0.021
      -0.323
      -0.676
      -0.940
      -1.027
      -0.965
      -0.898
      -0.994
      -1.324
      -1.787
      -2.152
      -2.191
      -1.818
      -1.128
      -0.321
       0.429
       1.054
       1.568
       1.989
       2.276
       2.346
       2.148
       1.727
       1.223
       0.804
       0.559
       0.454
       0.354
       0.121
      -0.295
      -0.827
      -1.336
      -1.690
      -1.824
      -1.760
      -1.582
      -1.390
      -1.263
      -1.231
      -1.266
      -1.294
      -1.213
      -0.942
      -0.461
       0.180
       0.881
       1.539
       2.089
       2.499
       2.759
       2.875
       2.878
       2.834
       2.800
       2.783
       2.743
       2.652
       2.534
       2.448
       2.427
       2.448
       2.456
       2.413
       2.313
       2.166
       1.957
       1.631
       1.132
       0.458
      -0.305
      -1.021
      -1.581
      -1.963
      -2.228
      -2.456
      -2.673
      -2.839
      -2.907
      -2.877
      -2.807
      -2.747
      -2.679
      -2.526
      -2.221
      -1.778
      -1.314
      -0.977
      -0.859
      -0.936
      -1.097
      -1.230
      -1.291
      -1.318
      -1.391
      -1.558
      -1.798
      -2.024
      -2.132
      -2.053
      -1.795
      -1.432
      -1.074
      -0.826
      -0.763
      -0.920
      -1.284
      -1.779
      -2.278
      -2.640
      -2.762
      -2.604
      -2.161
      -1.448
      -0.516
       0.525
       1.517
       2.321
       2.890
       3.285
       3.612
       3.928
       4.194
       4.310
       4.205
       3.909
       3.549
       3.260
       3.106
       3.063
       3.074
       3.114
       3.171
       3.202
       3.121
       2.850
       2.386
       1.795
       1.144
       0.449
      -0.312
      -1.133
      -1.948
      -2.644
      -3.125
      -3.350
      -3.328
      -3.094
      -2.679
      -2.119
      -1.469
