Origin Time       1/5/2013 06:57:12	 
Lat.              33.1 N	
Long.             75.8 E	
Depth (Km)         15.0
Magnitude         5.8
 Region           JK-HP-Border                                                     
 Above details taken from IMD 
     
Station Code      AMB
Station Lat.       31.688  N
Station Long.      76.116  E
Station Height(m)  488.0
Site Class        C   Vs30 between 200 m/sec to 375 m/sec *  
Record Time       01.05.2013 06:57:34.039
Sampling Rate     200. Hz
 Record Duration  102.955 Sec.
 Direction         E-W (E positive)
Max. Acceleration    -14.277 cm/sec**2
     
  * For reference see Site Classification link of website 
     
 Base Line Corrected and Low Pass Filtered (Cut Off at 35 Hz) Time History
 Acceleration data in cm/sec**2
    
[...]
       0.650
       0.764
       0.816
       0.732
       0.554
       0.384
       0.267
       0.146
      -0.052
      -0.302
      -0.478
      -0.471
      -0.291
      -0.053
       0.135
       0.244
       0.299
       0.316
       0.283
       0.183
       0.014
      -0.200
      -0.402
      -0.544
      -0.635
      -0.731
      -0.850
      -0.922
      -0.854
      -0.650
      -0.429
      -0.321
      -0.349
      -0.444
      -0.533
      -0.598
      -0.624
      -0.568
      -0.416
      -0.251
      -0.202
      -0.319
      -0.494
      -0.550
      -0.386
      -0.052
       0.285
       0.437
       0.303
      -0.049
      -0.398
      -0.514
      -0.310
       0.099
       0.479
       0.618
       0.437
       0.031
      -0.406
      -0.684
      -0.717
      -0.553
      -0.332
      -0.202
      -0.252
      -0.469
      -0.731
      -0.827
      -0.599
      -0.126
       0.277
       0.316
       0.002
      -0.351
      -0.406
      -0.093
       0.351
       0.583
       0.439
       0.072
      -0.193
      -0.135
       0.196
       0.567
       0.777
       0.792
       0.721
       0.711
       0.830
       0.993
       1.029
       0.848
       0.571
       0.430
       0.530
       0.719
       0.736
       0.468
       0.050
      -0.291
      -0.471
      -0.601
      -0.836
      -1.162
      -1.364
      -1.223
      -0.787
      -0.392
      -0.386
      -0.803
      -1.314
      -1.506
      -1.225
      -0.674
      -0.186
       0.071
       0.196
       0.379
       0.676
       0.961
       1.053
       0.893
       0.578
       0.268
       0.070
      -0.005
      -0.025
      -0.104
      -0.298
      -0.525
      -0.605
      -0.427
      -0.088
       0.135
      -0.013
      -0.547
      -1.191
      -1.564
      -1.469
      -1.043
      -0.620
      -0.463
      -0.602
      -0.864
      -1.032
      -1.002
      -0.823
      -0.625
      -0.513
      -0.495
      -0.494
      -0.411
      -0.208
       0.049
       0.257
       0.376
       0.457
       0.555
       0.624
       0.529
       0.213
      -0.178
      -0.387
      -0.286
       0.013
       0.316
       0.539
       0.725
       0.886
       0.916
       0.697
       0.271
      -0.157
      -0.395
      -0.428
      -0.386
      -0.379
      -0.387
      -0.331
      -0.189
      -0.012
       0.154
       0.311
       0.471
       0.612
       0.711
       0.772
       0.801
       0.767
       0.638
       0.461
       0.353
       0.371
       0.431
       0.395
       0.241
       0.088
       0.049
       0.084
       0.045
      -0.148
      -0.405
      -0.580
      -0.633
      -0.645
      -0.673
      -0.654
      -0.490
      -0.189
       0.098
       0.205
       0.096
      -0.105
      -0.241
      -0.263
      -0.241
      -0.252
      -0.269
      -0.192
       0.038
       0.347
       0.584
       0.649
       0.598
       0.586
       0.718
       0.953
       1.162
       1.259
       1.255
       1.204
       1.132
       1.033
       0.926
       0.864
       0.862
       0.873
       0.847
       0.774
       0.652
       0.452
       0.167
      -0.141
      -0.366
      -0.453
      -0.447
      -0.454
      -0.543
      -0.698
      -0.856
      -0.965
      -0.988
      -0.901
      -0.715
      -0.516
      -0.432
      -0.539
      -0.769
      -0.949
      -0.929
      -0.681
      -0.296
       0.097
       0.390
       0.528
       0.525
       0.484
       0.535
       0.734
       0.987
       1.091
       0.883
       0.398
      -0.120
      -0.382
      -0.269
       0.089
       0.418
       0.497
       0.290
      -0.053
      -0.322
      -0.396
      -0.308
      -0.169
      -0.055
       0.041
       0.165
       0.306
       0.382
       0.318
       0.133
      -0.054
      -0.122
      -0.031
       0.171
       0.394
       0.548
       0.579
       0.532
       0.555
       0.758
       1.033
       1.094
       0.743
       0.106
      -0.444
      -0.623
      -0.469
      -0.272
      -0.277
      -0.477
      -0.655
      -0.623
      -0.397
      -0.155
      -0.027
       0.022
       0.109
       0.258
       0.353
       0.285
       0.095
      -0.074
      -0.160
      -0.247
      -0.426
      -0.655
      -0.783
      -0.708
      -0.454
      -0.139
       0.101
       0.171
       0.049
      -0.189
      -0.391
      -0.410
      -0.204
       0.097
       0.248
       0.095
      -0.247
      -0.443
      -0.258
       0.168
       0.429
       0.248
      -0.251
      -0.687
      -0.762
      -0.471
      -0.044
       0.228
       0.161
      -0.223
      -0.714
      -1.029
      -0.988
      -0.640
      -0.203
       0.102
       0.174
       0.039
      -0.187
      -0.358
      -0.372
      -0.237
      -0.048
       0.075
       0.068
      -0.040
      -0.158
      -0.206
      -0.177
      -0.116
      -0.061
      -0.007
       0.067
       0.134
       0.120
      -0.031
      -0.284
      -0.521
      -0.630
      -0.589
      -0.469
      -0.364
      -0.328
      -0.365
      -0.447
      -0.531
      -0.566
      -0.521
      -0.392
      -0.168
       0.179
       0.624
       1.034
       1.235
       1.164
       0.939
       0.742
       0.626
       0.490
       0.225
      -0.138
      -0.463
      -0.666
      -0.784
      -0.894
      -0.990
      -1.000
      -0.907
      -0.810
      -0.837
      -1.014
      -1.237
      -1.370
      -1.380
      -1.349
      -1.357
      -1.379
      -1.330
      -1.195
      -1.068
      -1.039
      -1.069
      -1.026
      -0.841
      -0.591
      -0.400
      -0.290
      -0.167
       0.032
       0.230
       0.295
       0.245
       0.277
       0.551
       0.955
       1.149
       0.898
       0.335
      -0.133
      -0.211
       0.022
       0.243
       0.240
       0.085
      -0.023
      -0.025
      -0.059
      -0.290
      -0.721
      -1.188
      -1.511
      -1.626
      -1.595
      -1.532
      -1.520
      -1.568
      -1.637
      -1.687
      -1.691
      -1.626
      -1.485
      -1.302
      -1.146
      -1.068
      -1.044
      -1.011
      -0.900
      -0.652
      -0.255
       0.189
       0.475
       0.447
       0.169
      -0.100
      -0.116
       0.130
       0.401
       0.430
       0.165
      -0.193
      -0.370
      -0.268
      -0.055
      -0.002
      -0.205
      -0.494
      -0.636
      -0.576
      -0.455
      -0.408
      -0.402
      -0.292
      -0.020
       0.290
       0.435
       0.350
       0.199
       0.225
       0.496
       0.821
       0.922
       0.692
       0.256
      -0.164
      -0.414
      -0.459
      -0.368
      -0.262
      -0.218
      -0.185
      -0.062
       0.163
       0.383
       0.505
       0.571
       0.728
       1.067
       1.504
       1.827
       1.883
       1.722
       1.545
       1.514
       1.607
       1.663
       1.542
       1.251
       0.920
       0.684
       0.564
       0.441
       0.153
      -0.332
      -0.845
      -1.140
      -1.119
      -0.904
      -0.693
      -0.592
      -0.579
      -0.615
      -0.732
      -0.990
      -1.357
      -1.680
      -1.808
      -1.729
      -1.571
      -1.471
      -1.451
      -1.426
      -1.309
      -1.097
      -0.848
      -0.613
      -0.379
      -0.101
       0.225
       0.518
       0.673
       0.695
       0.738
       0.961
       1.351
       1.721
       1.871
       1.750
       1.468
       1.184
       0.993
       0.872
       0.742
       0.550
       0.334
       0.195
       0.200
       0.291
       0.291
       0.049
      -0.420
      -0.933
      -1.286
      -1.397
      -1.316
      -1.171
      -1.091
      -1.148
      -1.317
      -1.489
      -1.575
      -1.578
      -1.561
      -1.519
      -1.361
      -1.037
      -0.649
      -0.363
      -0.214
      -0.054
       0.283
       0.784
       1.271
       1.597
       1.777
       1.919
       2.067
       2.147
       2.077
       1.892
       1.730
       1.685
       1.704
       1.654
       1.454
       1.143
       0.830
       0.601
       0.471
       0.385
       0.255
       0.028
      -0.269
      -0.544
      -0.705
      -0.726
      -0.674
      -0.664
      -0.782
      -1.021
      -1.275
      -1.410
      -1.383
      -1.261
      -1.148
      -1.098
      -1.108
      -1.157
      -1.229
      -1.313
      -1.377
      -1.359
      -1.214
      -0.976
      -0.750
      -0.650
      -0.703
      -0.845
      -1.000
      -1.152
      -1.326
      -1.492
      -1.549
      -1.414
      -1.145
      -0.923
      -0.886
      -0.975
      -0.964
      -0.677
      -0.154
       0.384
       0.715
       0.771
       0.656
       0.540
       0.536
       0.665
       0.898
       1.219
       1.612
       2.002
       2.258
       2.308
       2.220
       2.143
       2.164
       2.238
       2.272
       2.222
       2.100
       1.913
       1.651
       1.331
       1.011
       0.738
       0.502
       0.257
      -0.023
      -0.317
      -0.572
      -0.752
      -0.869
      -0.974
      -1.104
      -1.243
      -1.336
      -1.342
      -1.262
      -1.142
      -1.037
      -0.996
      -1.048
      -1.193
      -1.377
      -1.499
      -1.485
      -1.384
      -1.341
      -1.460
      -1.694
      -1.868
      -1.804
      -1.444
      -0.903
      -0.399
      -0.079
       0.108
       0.332
       0.677
       1.043
       1.254
       1.232
       1.053
       0.841
       0.666
       0.547
       0.528
       0.686
       1.022
       1.382
       1.536
       1.387
       1.071
       0.837
       0.816
       0.931
       1.019
       1.011
       0.982
       1.034
       1.170
       1.302
       1.373
       1.456
       1.664
       1.994
       2.284
       2.359
       2.189
       1.912
       1.706
       1.665
       1.765
       1.912
       2.009
       1.985
       1.805
       1.479
       1.068
       0.655
       0.298
      -0.014
      -0.350
      -0.776
      -1.293
      -1.817
      -2.243
      -2.559
      -2.861
      -3.254
      -3.720
      -4.127
      -4.370
      -4.482
      -4.576
      -4.695
      -4.740
      -4.586
      -4.251
      -3.907
      -3.691
      -3.544
      -3.280
      -2.795
      -2.198
      -1.710
      -1.452
      -1.335
      -1.158
      -0.796
      -0.275
       0.293
       0.796
       1.159
       1.342
       1.367
       1.324
       1.306
       1.316
       1.255
       1.041
       0.735
       0.528
       0.553
       0.746
       0.919
       0.961
       0.940
       0.999
       1.179
       1.370
       1.416
       1.247
       0.916
       0.548
       0.238
      -0.015
      -0.293
      -0.656
      -1.068
      -1.419
      -1.647
      -1.825
      -2.096
      -2.529
      -3.043
      -3.505
      -3.887
      -4.275
      -4.710
      -5.089
      -5.255
      -5.171
      -4.944
      -4.678
      -4.370
      -3.955
      -3.428
      -2.877
      -2.403
      -2.039
      -1.733
      -1.405
      -1.000
      -0.526
      -0.062
       0.279
       0.415
       0.349
       0.180
       0.052
       0.057
       0.159
       0.240
       0.244
       0.249
       0.387
       0.709
       1.170
       1.694
       2.218
       2.679
       3.024
       3.249
       3.410
       3.596
       3.861
       4.181
       4.466
       4.638
       4.676
       4.595
       4.396
       4.039
       3.449
       2.595
       1.559
       0.532
      -0.300
      -0.856
      -1.186
      -1.421
      -1.706
      -2.178
      -2.930
      -3.928
      -4.960
      -5.726
      -6.049
      -6.042
      -6.007
      -6.138
      -6.318
      -6.271
      -5.906
      -5.485
      -5.368
      -5.617
      -5.898
      -5.798
      -5.214
      -4.423
      -3.779
      -3.381
      -3.038
      -2.525
      -1.804
      -0.992
      -0.191
       0.581
       1.342
       2.071
       2.745
       3.392
       4.083
       4.824
       5.501
       5.955
       6.134
       6.167
       6.276
       6.602
       7.092
       7.553
       7.810
       7.847
       7.803
       7.839
       7.990
       8.162
       8.240
       8.201
       8.106
       8.027
       7.956
       7.792
       7.409
       6.756
       5.906
       5.005
       4.166
       3.412
       2.699
       1.971
       1.195
       0.370
      -0.477
      -1.294
      -2.038
      -2.703
      -3.317
      -3.912
      -4.489
      -4.996
      -5.375
      -5.661
      -6.014
      -6.574
      -7.273
      -7.823
      -7.968
      -7.752
      -7.499
      -7.510
      -7.780
      -8.029
      -7.939
      -7.375
      -6.419
      -5.271
      -4.112
      -3.018
      -1.953
      -0.853
       0.264
       1.285
       2.135
       2.917
       3.844
       5.017
       6.287
       7.369
       8.074
       8.449
       8.698
       9.000
       9.369
       9.677
       9.808
       9.779
       9.703
       9.640
       9.544
       9.335
       8.996
       8.567
       8.087
       7.585
       7.108
       6.727
       6.482
       6.335
       6.201
       6.020
       5.794
       5.525
       5.164
       4.628
       3.890
       3.003
       2.036
       0.995
      -0.156
      -1.423
      -2.764
      -4.161
      -5.636
      -7.187
      -8.716
     -10.073
     -11.158
     -11.976
     -12.603
     -13.128
     -13.588
     -13.969
     -14.221
     -14.277
     -14.070
     -13.575
     -12.830
     -11.909
     -10.888
      -9.836
      -8.830
      -7.927
      -7.126
      -6.363
      -5.569
      -4.723
      -3.844
      -2.940
      -2.005
      -1.061
      -0.189
       0.529
       1.086
       1.571
       2.083
       2.625
       3.109
       3.457
       3.689
       3.869
       3.988
       3.934
       3.614
       3.090
       2.568
       2.249
       2.196
       2.323
       2.498
       2.650
       2.794
       2.991
       3.319
       3.871
       4.721
       5.842
       7.027
       7.954
       8.365
       8.258
       7.883
       7.529
       7.285
       7.000
       6.464
       5.601
       4.513
       3.358
       2.210
       1.008
      -0.341
      -1.802
      -3.159
      -4.156
      -4.708
      -4.955
      -5.108
      -5.247
      -5.279
      -5.065
      -4.582
      -3.948
      -3.304
      -2.669
      -1.938
      -1.032
      -0.045
       0.796
       1.309
       1.494
       1.494
       1.459
       1.440
       1.389
       1.202
       0.761
      -0.012
      -1.080
      -2.246
      -3.246
      -3.928
      -4.353
      -4.682
      -4.988
      -5.194
      -5.180
      -4.911
      -4.447
      -3.858
      -3.134
      -2.224
      -1.161
      -0.107
       0.755
       1.390
       1.933
       2.548
       3.283
       4.065
       4.792
       5.415
       5.932
       6.349
       6.643
       6.770
       6.707
       6.469
       6.070
       5.484
       4.679
       3.670
       2.522
       1.292
      -0.024
      -1.479
      -3.110
      -4.870
      -6.618
      -8.192
      -9.491
     -10.496
     -11.206
     -11.601
     -11.673
     -11.478
     -11.125
     -10.716
     -10.277
      -9.731
      -8.943
      -7.851
      -6.577
      -5.374
      -4.421
      -3.646
      -2.773
      -1.572
      -0.091
       1.368
       2.509
       3.280
       3.853
       4.415
       5.014
       5.589
       6.097
       6.562
       6.995
       7.318
       7.419
       7.323
       7.240
       7.370
       7.637
       7.675
       7.153
       6.120
       5.031
       4.386
       4.324
       4.553
       4.662
       4.469
       4.077
       3.667
       3.336
       3.099
       2.954
       2.838
       2.585
       2.004
       1.056
      -0.065
      -1.063
      -1.752
      -2.143
      -2.361
      -2.518
      -2.707
      -3.032
      -3.562
      -4.232
      -4.850
      -5.237
      -5.372
      -5.384
      -5.424
      -5.509
      -5.512
      -5.275
      -4.750
      -4.018
      -3.164
      -2.176
      -0.985
       0.402
       1.841
       3.134
       4.150
       4.866
       5.320
       5.574
       5.701
       5.770
       5.784
       5.667
       5.346
       4.848
       4.300
       3.825
       3.468
       3.207
       3.016
       2.870
       2.730
       2.566
       2.399
       2.283
       2.235
       2.217
       2.201
       2.244
       2.438
       2.765
       3.042
       3.052
       2.745
       2.282
       1.886
       1.664
       1.556
       1.446
       1.250
       0.916
       0.411
      -0.266
      -1.069
      -1.919
      -2.727
      -3.410
      -3.941
      -4.386
      -4.844
      -5.353
      -5.871
      -6.336
      -6.719
      -7.025
      -7.266
      -7.447
      -7.543
      -7.481
      -7.182
      -6.650
      -6.005
      -5.399
      -4.878
      -4.345
      -3.691
      -2.943
      -2.256
      -1.764
      -1.463
      -1.226
      -0.918
      -0.482
       0.026
       0.454
       0.638
       0.538
       0.326
       0.289
       0.609
       1.213
       1.866
       2.406
       2.888
       3.505
       4.392
       5.488
       6.570
       7.403
       7.875
       8.025
       7.981
       7.892
       7.887
       8.026
       8.261
       8.453
       8.457
       8.250
       7.957
       7.746
       7.667
       7.599
       7.383
       6.970
       6.418
       5.774
       4.992
       4.006
       2.804
       1.420
      -0.092
      -1.643
      -3.074
      -4.226
      -5.055
      -5.659
      -6.176
      -6.677
      -7.151
      -7.544
      -7.785
      -7.832
      -7.727
      -7.580
      -7.486
      -7.459
      -7.444
      -7.359
      -7.138
      -6.767
      -6.315
      -5.913
      -5.685
      -5.665
      -5.764
      -5.845
      -5.813
      -5.686
      -5.569
      -5.559
      -5.645
      -5.685
      -5.489
      -4.969
      -4.220
      -3.445
      -2.776
      -2.179
      -1.525
      -0.747
       0.124
       1.051
       2.044
       3.113
       4.194
       5.172
       5.964
       6.598
       7.199
       7.882
       8.636
       9.318
       9.775
       9.961
       9.930
       9.714
       9.243
       8.403
       7.179
       5.734
       4.332
       3.149
       2.166
       1.220
       0.161
      -1.028
      -2.207
      -3.163
      -3.763
      -4.049
      -4.191
      -4.304
      -4.332
      -4.119
      -3.586
      -2.815
      -1.965
      -1.141
      -0.372
       0.335
       0.949
       1.438
       1.804
       2.069
       2.249
       2.339
       2.324
       2.187
       1.893
       1.400
       0.692
      -0.192
      -1.166
      -2.125
      -2.986
      -3.714
      -4.321
      -4.837
      -5.275
      -5.605
      -5.766
      -5.715
      -5.469
      -5.096
      -4.671
      -4.213
      -3.683
      -3.051
      -2.369
      -1.793
      -1.477
      -1.426
      -1.472
      -1.432
      -1.263
      -1.074
      -0.973
      -0.925
      -0.758
      -0.313
       0.403
       1.209
       1.886
       2.328
       2.563
       2.679
       2.742
       2.783
       2.823
       2.874
       2.929
       2.980
       3.044
