Origin Time       14/03/2010 6:53:21	
Lat.              31.7 N	
Long.             76.1 E	
Depth (Km)         29.0
Magnitude         4.6
 Region           HIMACHAL-PUNJAB-(HOSHIARPUR)-BORDER                              
 Above details taken from IMD 
   
Station Code      AMB
Station Lat.       31.688
Station Long.      76.116
Station Height(m)  488.0
Site Class        C   Vs30 between 200 m/sec to 375 m/sec *  
Record Time       14.03.2010 06:53:11.489
Sampling Rate     200. Hz
 Record Duration   78.550 Sec.
 Direction         Vert. (Up positive)
Max. Acceleration     12.137 cm/sec**2
     
  * For reference see Site Classification link of website 
     
 Base Line Corrected and Low Pass Filtered (Cut Off at 35 Hz) Time History
 Acceleration data in cm/sec**2
    
[...]
      -0.011
      -0.008
      -0.008
      -0.007
       0.000
       0.010
       0.020
       0.023
       0.017
       0.003
      -0.015
      -0.033
      -0.047
      -0.058
      -0.062
      -0.058
      -0.043
      -0.021
       0.000
       0.017
       0.026
       0.028
       0.026
       0.019
       0.010
       0.002
      -0.004
      -0.006
      -0.005
      -0.002
       0.005
       0.014
       0.020
       0.015
       0.001
      -0.017
      -0.030
      -0.034
      -0.032
      -0.029
      -0.023
      -0.013
       0.000
       0.014
       0.022
       0.022
       0.017
       0.010
       0.002
      -0.007
      -0.019
      -0.028
      -0.030
      -0.024
      -0.014
      -0.007
      -0.006
      -0.006
      -0.003
       0.006
       0.017
       0.025
       0.026
       0.017
       0.004
      -0.010
      -0.020
      -0.023
      -0.019
      -0.010
      -0.002
       0.003
       0.003
       0.000
      -0.001
       0.004
       0.015
       0.026
       0.030
       0.024
       0.010
      -0.007
      -0.023
      -0.034
      -0.040
      -0.041
      -0.036
      -0.027
      -0.015
       0.000
       0.017
       0.030
       0.034
       0.028
       0.014
      -0.002
      -0.015
      -0.023
      -0.024
      -0.021
      -0.016
      -0.012
      -0.007
       0.000
       0.007
       0.012
       0.013
       0.013
       0.012
       0.014
       0.019
       0.027
       0.037
       0.045
       0.044
       0.033
       0.016
      -0.002
      -0.018
      -0.031
      -0.040
      -0.043
      -0.035
      -0.017
       0.006
       0.024
       0.031
       0.027
       0.017
       0.007
       0.000
      -0.008
      -0.018
      -0.027
      -0.030
      -0.023
      -0.007
       0.011
       0.026
       0.033
       0.032
       0.025
       0.014
       0.001
      -0.012
      -0.023
      -0.030
      -0.033
      -0.028
      -0.017
       0.001
       0.020
       0.032
       0.032
       0.021
       0.005
      -0.007
      -0.010
      -0.008
      -0.006
      -0.004
       0.000
       0.011
       0.027
       0.042
       0.045
       0.033
       0.013
      -0.007
      -0.020
      -0.026
      -0.027
      -0.023
      -0.014
      -0.003
       0.008
       0.017
       0.020
       0.017
       0.009
      -0.004
      -0.017
      -0.028
      -0.031
      -0.024
      -0.008
       0.012
       0.028
       0.036
       0.036
       0.028
       0.014
       0.000
      -0.013
      -0.021
      -0.022
      -0.019
      -0.011
       0.002
       0.016
       0.026
       0.026
       0.018
       0.009
       0.004
       0.008
       0.016
       0.023
       0.025
       0.021
       0.012
       0.001
      -0.007
      -0.008
      -0.003
       0.004
       0.007
       0.005
       0.000
      -0.003
      -0.002
      -0.001
      -0.004
      -0.007
      -0.008
      -0.003
       0.007
       0.018
       0.024
       0.026
       0.026
       0.026
       0.025
       0.021
       0.013
      -0.001
      -0.016
      -0.027
      -0.032
      -0.031
      -0.025
      -0.017
      -0.011
      -0.007
      -0.005
      -0.002
       0.004
       0.010
       0.013
       0.011
       0.006
       0.001
      -0.001
       0.001
       0.007
       0.014
       0.020
       0.022
       0.019
       0.012
       0.007
       0.005
       0.008
       0.013
       0.018
       0.023
       0.025
       0.023
       0.016
       0.004
      -0.006
      -0.007
      -0.001
       0.006
       0.006
      -0.002
      -0.014
      -0.022
      -0.025
      -0.022
      -0.017
      -0.013
      -0.011
      -0.009
      -0.008
      -0.006
      -0.003
       0.001
       0.005
       0.008
       0.008
       0.005
       0.004
       0.008
       0.017
       0.028
       0.033
       0.032
       0.026
       0.019
       0.018
       0.021
       0.027
       0.031
       0.032
       0.027
       0.014
      -0.003
      -0.019
      -0.026
      -0.024
      -0.015
      -0.004
       0.006
       0.014
       0.020
       0.021
       0.017
       0.011
       0.005
       0.002
       0.003
       0.006
       0.007
       0.006
       0.002
      -0.003
      -0.004
       0.000
       0.009
       0.017
       0.018
       0.012
       0.000
      -0.011
      -0.017
      -0.015
      -0.008
       0.002
       0.011
       0.015
       0.018
       0.020
       0.021
       0.019
       0.010
      -0.001
      -0.008
      -0.008
      -0.002
       0.004
       0.009
       0.011
       0.014
       0.019
       0.023
       0.023
       0.015
       0.003
      -0.009
      -0.016
      -0.015
      -0.007
       0.003
       0.012
       0.017
       0.019
       0.019
       0.018
       0.014
       0.008
       0.003
       0.002
       0.003
       0.005
       0.004
       0.003
       0.004
       0.007
       0.013
       0.018
       0.021
       0.021
       0.017
       0.012
       0.008
       0.005
       0.002
      -0.002
      -0.007
      -0.010
      -0.011
      -0.012
      -0.016
      -0.024
      -0.031
      -0.031
      -0.022
      -0.007
       0.006
       0.011
       0.011
       0.012
       0.016
       0.024
       0.031
       0.031
       0.024
       0.013
       0.002
      -0.006
      -0.012
      -0.017
      -0.019
      -0.015
      -0.005
       0.006
       0.012
       0.011
       0.007
       0.004
       0.005
       0.008
       0.011
       0.010
       0.006
       0.003
       0.003
       0.006
       0.009
       0.008
       0.004
      -0.002
      -0.007
      -0.007
      -0.003
       0.006
       0.016
       0.026
       0.032
       0.031
       0.024
       0.014
       0.003
      -0.005
      -0.012
      -0.015
      -0.016
      -0.015
      -0.012
      -0.008
      -0.004
       0.000
       0.001
      -0.001
      -0.005
      -0.009
      -0.009
      -0.006
      -0.005
      -0.006
      -0.010
      -0.011
      -0.008
      -0.001
       0.007
       0.012
       0.016
       0.018
       0.017
       0.014
       0.009
       0.003
      -0.001
       0.000
       0.004
       0.007
       0.007
       0.003
      -0.001
      -0.004
      -0.005
      -0.006
      -0.006
      -0.005
      -0.002
       0.000
       0.001
       0.001
       0.003
       0.009
       0.017
       0.020
       0.016
       0.006
      -0.007
      -0.016
      -0.020
      -0.017
      -0.011
      -0.003
       0.003
       0.005
       0.002
      -0.005
      -0.013
      -0.017
      -0.017
      -0.015
      -0.013
      -0.013
      -0.013
      -0.010
      -0.002
       0.006
       0.013
       0.018
       0.022
       0.027
       0.027
       0.020
       0.005
      -0.010
      -0.018
      -0.017
      -0.010
      -0.005
      -0.008
      -0.017
      -0.025
      -0.026
      -0.020
      -0.012
      -0.005
      -0.002
       0.002
       0.009
       0.018
       0.026
       0.032
       0.033
       0.031
       0.025
       0.016
       0.005
      -0.007
      -0.021
      -0.034
      -0.043
      -0.044
      -0.038
      -0.026
      -0.013
      -0.003
       0.004
       0.008
       0.009
       0.006
       0.001
      -0.003
      -0.005
      -0.004
      -0.001
       0.002
       0.004
       0.003
       0.001
      -0.004
      -0.009
      -0.012
      -0.012
      -0.009
      -0.004
       0.001
       0.005
       0.007
       0.005
       0.003
      -0.001
      -0.004
      -0.005
      -0.004
       0.001
       0.009
       0.017
       0.024
       0.028
       0.032
       0.033
       0.030
       0.021
       0.007
      -0.009
      -0.020
      -0.024
      -0.023
      -0.020
      -0.018
      -0.017
      -0.015
      -0.012
      -0.006
      -0.001
       0.002
       0.004
       0.007
       0.012
       0.020
       0.028
       0.034
       0.034
       0.026
       0.012
      -0.003
      -0.016
      -0.023
      -0.027
      -0.030
      -0.032
      -0.031
      -0.025
      -0.016
      -0.010
      -0.012
      -0.027
      -0.050
      -0.071
      -0.074
      -0.046
       0.013
       0.089
       0.152
       0.164
       0.100
      -0.042
      -0.232
      -0.422
      -0.565
      -0.627
      -0.587
      -0.448
      -0.242
      -0.034
       0.100
       0.118
       0.040
      -0.054
      -0.066
       0.063
       0.304
       0.543
       0.615
       0.385
      -0.183
      -0.994
      -1.829
      -2.413
      -2.493
      -1.935
      -0.803
       0.631
       1.970
       2.872
       3.200
       3.063
       2.702
       2.319
       1.960
       1.518
       0.866
      -0.005
      -0.923
      -1.600
      -1.786
      -1.405
      -0.620
       0.198
       0.593
       0.245
      -0.795
      -2.028
      -2.726
      -2.366
      -0.983
       0.849
       2.375
       3.087
       2.918
       2.151
       1.183
       0.325
      -0.289
      -0.697
      -1.041
      -1.449
      -1.910
      -2.225
      -2.129
      -1.520
      -0.609
       0.200
       0.601
       0.594
       0.433
       0.401
       0.644
       1.156
       1.818
       2.378
       2.468
       1.782
       0.341
      -1.413
      -2.859
      -3.567
      -3.469
      -2.738
      -1.579
      -0.178
       1.231
       2.345
       2.900
       2.781
       2.042
       0.842
      -0.569
      -1.833
      -2.553
      -2.488
      -1.720
      -0.597
       0.511
       1.395
       1.957
       2.050
       1.490
       0.282
      -1.204
      -2.367
      -2.748
      -2.297
      -1.293
      -0.043
       1.274
       2.500
       3.325
       3.348
       2.374
       0.653
      -1.165
      -2.362
      -2.519
      -1.724
      -0.489
       0.543
       0.946
       0.702
       0.132
      -0.367
      -0.584
      -0.568
      -0.479
      -0.391
      -0.245
       0.035
       0.413
       0.758
       0.972
       1.068
       1.096
       1.009
       0.665
      -0.008
      -0.839
      -1.469
      -1.612
      -1.278
      -0.739
      -0.287
      -0.022
       0.140
       0.303
       0.449
       0.485
       0.410
       0.388
       0.603
       1.021
       1.332
       1.168
       0.432
      -0.590
      -1.430
      -1.777
      -1.662
      -1.358
      -1.125
      -1.010
      -0.846
      -0.414
       0.368
       1.360
       2.264
       2.781
       2.756
       2.224
       1.356
       0.357
      -0.603
      -1.400
      -1.958
      -2.253
      -2.303
      -2.124
      -1.692
      -0.976
      -0.012
       1.075
       2.112
       2.893
       3.165
       2.686
       1.412
      -0.350
      -2.023
      -3.057
      -3.193
      -2.480
      -1.155
       0.407
       1.701
       2.233
       1.861
       0.976
       0.219
      -0.089
      -0.187
      -0.493
      -1.041
      -1.377
      -1.043
      -0.056
       1.101
       1.895
       2.065
       1.625
       0.727
      -0.416
      -1.531
      -2.324
      -2.578
      -2.219
      -1.318
      -0.057
       1.266
       2.216
       2.341
       1.455
      -0.125
      -1.662
      -2.432
      -2.163
      -1.134
       0.088
       1.001
       1.381
       1.301
       1.018
       0.815
       0.824
       0.924
       0.827
       0.333
      -0.418
      -0.983
      -0.972
      -0.456
       0.027
      -0.094
      -0.932
      -2.057
      -2.849
      -2.882
      -2.061
      -0.552
       1.288
       2.960
       3.949
       3.933
       2.935
       1.313
      -0.410
      -1.790
      -2.630
      -2.955
      -2.821
      -2.173
      -0.934
       0.761
       2.446
       3.487
       3.423
       2.265
       0.552
      -0.908
      -1.510
      -1.228
      -0.587
      -0.184
      -0.157
      -0.090
       0.541
       1.770
       2.963
       3.252
       2.202
       0.152
      -2.056
      -3.648
      -4.316
      -4.196
      -3.573
      -2.622
      -1.374
       0.159
       1.822
       3.261
       4.017
       3.734
       2.384
       0.360
      -1.638
      -2.896
      -2.997
      -1.998
      -0.376
       1.215
       2.270
       2.645
       2.463
       1.866
       0.877
      -0.435
      -1.739
      -2.493
      -2.295
      -1.190
       0.318
       1.539
       1.955
       1.448
       0.328
      -0.876
      -1.709
      -1.967
      -1.665
      -0.917
       0.104
       1.150
       1.943
       2.303
       2.222
       1.799
       1.106
       0.157
      -1.007
      -2.183
      -2.982
      -2.983
      -2.034
      -0.473
       1.000
       1.758
       1.632
       0.920
       0.044
      -0.751
      -1.409
      -1.865
      -1.926
      -1.408
      -0.388
       0.724
       1.393
       1.283
       0.450
      -0.688
      -1.555
      -1.731
      -1.214
      -0.400
       0.240
       0.531
       0.632
       0.764
       0.962
       1.101
       1.082
       0.896
       0.546
       0.012
      -0.621
      -1.064
      -0.967
      -0.238
       0.831
       1.800
       2.446
       2.842
       3.079
       3.008
       2.328
       0.925
      -0.928
      -2.679
      -3.750
      -3.730
      -2.515
      -0.425
       1.835
       3.505
       4.202
       3.981
       2.968
       1.045
      -1.954
      -5.704
      -9.162
     -10.979
     -10.217
      -6.788
      -1.446
       4.493
       9.478
      12.137
      11.749
       8.570
       3.735
      -1.249
      -5.086
      -7.028
      -6.916
      -5.076
      -2.212
       0.730
       2.832
       3.543
       2.906
       1.465
      -0.045
      -1.007
      -1.062
      -0.133
       1.570
       3.589
       5.300
       6.067
       5.391
       3.074
      -0.631
      -4.951
      -8.741
     -10.872
     -10.679
      -8.215
      -4.189
       0.329
       4.233
       6.654
       7.149
       5.825
       3.324
       0.630
      -1.300
      -1.955
      -1.521
      -0.707
      -0.230
      -0.316
      -0.655
      -0.795
      -0.581
      -0.229
      -0.038
      -0.074
      -0.128
       0.043
       0.445
       0.806
       0.765
       0.118
      -1.022
      -2.240
      -2.996
      -2.912
      -1.956
      -0.411
       1.351
       3.039
       4.407
       5.112
       4.740
       3.124
       0.651
      -1.819
      -3.442
      -3.866
      -3.336
      -2.453
      -1.813
      -1.711
      -2.018
      -2.323
      -2.273
      -1.828
      -1.181
      -0.445
       0.500
       1.809
       3.366
       4.698
       5.216
       4.551
       2.766
       0.335
      -2.033
      -3.655
      -4.067
      -3.126
      -1.063
       1.504
       3.677
       4.588
       3.824
       1.690
      -0.873
      -2.714
      -3.016
      -1.735
       0.348
       2.069
       2.604
       1.980
       0.919
       0.134
      -0.275
      -0.744
      -1.579
      -2.457
      -2.640
      -1.701
       0.029
       1.740
       2.798
       3.092
       2.838
       2.201
       1.165
      -0.309
      -2.072
      -3.702
      -4.597
      -4.218
      -2.428
       0.249
       2.718
       3.828
       3.048
       0.824
      -1.661
      -3.166
      -3.043
      -1.462
       0.858
       3.143
       4.867
       5.687
       5.226
       3.140
      -0.465
      -4.708
      -8.188
      -9.728
      -8.974
      -6.382
      -2.752
       1.181
       4.813
       7.562
       8.852
       8.264
       5.743
       1.730
      -2.838
      -6.695
      -8.618
      -7.930
      -4.913
      -0.780
       2.916
       5.102
       5.613
       4.914
       3.506
       1.620
      -0.575
      -2.641
      -3.873
      -3.687
      -2.073
       0.306
       2.460
       3.616
       3.548
       2.524
       0.978
      -0.739
      -2.355
      -3.521
      -3.803
      -2.951
      -1.199
       0.762
       2.170
       2.623
       2.219
       1.382
       0.522
      -0.200
      -0.867
      -1.567
      -2.157
      -2.261
      -1.560
      -0.115
       1.544
       2.703
       2.937
       2.379
       1.504
       0.631
      -0.300
      -1.435
      -2.589
      -3.244
      -2.987
      -1.882
      -0.409
       0.910
       1.809
       2.307
       2.517
       2.456
       1.999
       1.018
      -0.434
      -2.040
      -3.257
      -3.483
      -2.347
      -0.021
       2.663
       4.546
       4.782
       3.320
       0.868
      -1.603
      -3.353
      -4.068
      -3.780
      -2.766
      -1.486
      -0.394
       0.339
       0.941
       1.752
       2.782
       3.570
       3.492
       2.204
      -0.110
      -2.761
      -4.781
      -5.322
      -4.128
      -1.750
       0.756
       2.458
       3.037
       2.786
       2.176
       1.399
       0.261
      -1.441
      -3.431
      -4.871
      -4.874
      -3.166
      -0.283
       2.828
       5.342
       6.804
       7.053
       6.070
       3.924
       0.847
      -2.666
      -5.870
      -7.938
      -8.249
      -6.649
      -3.561
       0.130
       3.393
       5.428
       5.898
       4.911
       2.875
       0.378
      -1.915
      -3.439
      -3.944
      -3.568
      -2.689
      -1.666
      -0.669
       0.302
       1.284
       2.243
       3.041
       3.484
       3.409
       2.802
       1.878
       1.005
       0.466
       0.230
      -0.017
      -0.575
      -1.419
      -2.174
      -2.394
      -1.900
      -0.918
       0.089
       0.727
       0.904
       0.816
       0.717
       0.657
       0.443
      -0.135
      -1.035
      -1.917
      -2.381
      -2.243
      -1.615
      -0.768
       0.060
       0.761
       1.326
       1.770
       2.069
       2.143
       1.912
       1.366
       0.626
      -0.079
      -0.558
      -0.838
      -1.168
      -1.784
      -2.596
      -3.133
      -2.847
      -1.554
       0.344
       2.013
       2.642
       1.915
       0.202
      -1.648
      -2.802
      -2.889
      -2.104
      -0.945
       0.190
       1.189
       2.102
       2.870
       3.219
       2.813
       1.523
      -0.415
      -2.465
      -4.010
      -4.577
      -3.956
      -2.237
       0.172
       2.565
       4.140
       4.378
       3.354
       1.664
       0.021
      -1.125
      -1.669
      -1.671
      -1.179
      -0.161
       1.412
       3.381
       5.243
       6.260
       5.843
       3.984
       1.343
      -1.111
      -2.664
      -3.207
      -3.119
      -2.844
      -2.552
      -2.178
      -1.678
      -1.173
      -0.838
      -0.742
      -0.837
      -1.035
      -1.214
      -1.165
      -0.644
       0.427
       1.777
       2.813
       2.898
       1.743
      -0.339
      -2.504
      -3.805
      -3.709
      -2.375
      -0.501
       1.125
       2.061
       2.332
       2.180
       1.722
       0.871
      -0.437
      -1.979
      -3.256
      -3.755
      -3.189
      -1.578
       0.799
       3.486
       5.931
       7.604
       8.117
       7.341
       5.449
       2.830
      -0.058
      -2.805
      -5.041
      -6.390
      -6.558
      -5.526
      -3.663
      -1.590
       0.089
       0.993
       1.013
       0.276
      -0.921
