Origin Time       1/5/2013 06:57:12	 
Lat.              33.1 N	
Long.             75.8 E	
Depth (Km)         15.0
Magnitude         5.8
 Region           JK-HP-Border                                                     
 Above details taken from IMD 
   
Station Code      AMB
Station Lat.       31.688
Station Long.      76.116
Station Height(m)  488.0
Site Class        C   Vs30 between 200 m/sec to 375 m/sec *  
Record Time       01.05.2013 06:57:34.039
Sampling Rate     200. Hz
 Record Duration  102.955 Sec.
 Direction         Vert. (Up positive)
Max. Acceleration     -5.812 cm/sec**2
     
  * For reference see Site Classification link of website 
     
 Base Line Corrected and Low Pass Filtered (Cut Off at 35 Hz) Time History
 Acceleration data in cm/sec**2
    
[...]
       0.582
       0.551
       0.431
       0.254
       0.079
      -0.040
      -0.070
      -0.024
       0.044
       0.066
       0.004
      -0.141
      -0.329
      -0.517
      -0.666
      -0.752
      -0.771
      -0.732
      -0.651
      -0.541
      -0.406
      -0.260
      -0.130
      -0.042
      -0.003
       0.013
       0.057
       0.176
       0.395
       0.694
       1.008
       1.245
       1.329
       1.240
       1.018
       0.739
       0.475
       0.259
       0.090
      -0.055
      -0.181
      -0.272
      -0.302
      -0.256
      -0.154
      -0.031
       0.083
       0.179
       0.269
       0.375
       0.506
       0.646
       0.744
       0.737
       0.574
       0.260
      -0.142
      -0.537
      -0.838
      -1.001
      -1.026
      -0.948
      -0.802
      -0.614
      -0.401
      -0.180
       0.013
       0.125
       0.113
      -0.029
      -0.258
      -0.495
      -0.660
      -0.698
      -0.600
      -0.388
      -0.111
       0.175
       0.418
       0.579
       0.641
       0.602
       0.475
       0.276
       0.028
      -0.240
      -0.494
      -0.699
      -0.822
      -0.839
      -0.732
      -0.499
      -0.165
       0.208
       0.533
       0.729
       0.758
       0.644
       0.460
       0.296
       0.212
       0.219
       0.296
       0.416
       0.562
       0.712
       0.820
       0.830
       0.709
       0.479
       0.208
      -0.029
      -0.183
      -0.243
      -0.213
      -0.106
       0.068
       0.288
       0.535
       0.791
       1.039
       1.248
       1.362
       1.322
       1.091
       0.686
       0.166
      -0.389
      -0.906
      -1.326
      -1.612
      -1.746
      -1.738
      -1.608
      -1.383
      -1.094
      -0.776
      -0.468
      -0.214
      -0.051
      -0.001
      -0.054
      -0.169
      -0.289
      -0.363
      -0.374
      -0.334
      -0.275
      -0.226
      -0.192
      -0.166
      -0.135
      -0.098
      -0.065
      -0.048
      -0.048
      -0.060
      -0.081
      -0.117
      -0.174
      -0.244
      -0.295
      -0.279
      -0.158
       0.072
       0.376
       0.696
       0.969
       1.150
       1.223
       1.209
       1.160
       1.137
       1.185
       1.311
       1.487
       1.669
       1.815
       1.892
       1.879
       1.765
       1.545
       1.227
       0.838
       0.416
      -0.002
      -0.400
      -0.781
      -1.148
      -1.480
      -1.732
      -1.868
      -1.879
      -1.795
      -1.656
      -1.484
      -1.275
      -1.014
      -0.698
      -0.353
      -0.026
       0.224
       0.341
       0.286
       0.059
      -0.293
      -0.685
      -1.023
      -1.232
      -1.270
      -1.129
      -0.830
      -0.421
       0.020
       0.397
       0.621
       0.649
       0.497
       0.239
      -0.031
      -0.234
      -0.318
      -0.254
      -0.035
       0.320
       0.754
       1.180
       1.500
       1.640
       1.576
       1.341
       1.013
       0.694
       0.474
       0.398
       0.443
       0.543
       0.618
       0.617
       0.533
       0.391
       0.215
       0.016
      -0.210
      -0.456
      -0.679
      -0.811
      -0.798
      -0.640
      -0.401
      -0.176
      -0.050
      -0.064
      -0.201
      -0.406
      -0.606
      -0.744
      -0.788
      -0.733
      -0.582
      -0.347
      -0.051
       0.254
       0.487
       0.563
       0.431
       0.102
      -0.352
      -0.829
      -1.236
      -1.517
      -1.657
      -1.660
      -1.525
      -1.247
      -0.832
      -0.333
       0.148
       0.484
       0.584
       0.438
       0.129
      -0.200
      -0.411
      -0.424
      -0.246
       0.049
       0.369
       0.648
       0.864
       1.022
       1.118
       1.133
       1.047
       0.869
       0.649
       0.461
       0.361
       0.352
       0.383
       0.384
       0.312
       0.168
      -0.011
      -0.182
      -0.314
      -0.402
      -0.446
      -0.439
      -0.358
      -0.183
       0.074
       0.357
       0.587
       0.712
       0.734
       0.704
       0.678
       0.669
       0.641
       0.530
       0.298
      -0.049
      -0.465
      -0.889
      -1.271
      -1.584
      -1.814
      -1.963
      -2.043
      -2.071
      -2.056
      -1.999
      -1.895
      -1.748
      -1.573
      -1.382
      -1.177
      -0.957
      -0.734
      -0.544
      -0.429
      -0.410
      -0.478
      -0.598
      -0.732
      -0.846
      -0.910
      -0.897
      -0.782
      -0.546
      -0.186
       0.276
       0.788
       1.262
       1.600
       1.740
       1.690
       1.526
       1.355
       1.263
       1.279
       1.377
       1.500
       1.599
       1.651
       1.658
       1.630
       1.569
       1.467
       1.327
       1.171
       1.036
       0.957
       0.943
       0.962
       0.959
       0.882
       0.717
       0.497
       0.283
       0.122
       0.024
      -0.034
      -0.084
      -0.142
      -0.204
      -0.250
      -0.257
      -0.209
      -0.111
       0.015
       0.141
       0.263
       0.405
       0.600
       0.850
       1.108
       1.301
       1.367
       1.290
       1.103
       0.864
       0.625
       0.413
       0.217
       0.006
      -0.252
      -0.563
      -0.907
      -1.242
      -1.521
      -1.716
      -1.822
      -1.861
      -1.860
      -1.830
      -1.768
      -1.669
      -1.539
      -1.398
      -1.253
      -1.098
      -0.920
      -0.712
      -0.485
      -0.252
      -0.018
       0.220
       0.474
       0.751
       1.047
       1.336
       1.587
       1.779
       1.919
       2.032
       2.138
       2.220
       2.220
       2.057
       1.678
       1.097
       0.407
      -0.255
      -0.757
      -1.022
      -1.042
      -0.868
      -0.577
      -0.240
       0.085
       0.355
       0.540
       0.619
       0.594
       0.494
       0.374
       0.297
       0.321
       0.473
       0.732
       1.024
       1.250
       1.325
       1.209
       0.924
       0.525
       0.076
      -0.372
      -0.788
      -1.157
      -1.482
      -1.778
      -2.062
      -2.343
      -2.608
      -2.828
      -2.965
      -2.988
      -2.894
      -2.698
      -2.431
      -2.121
      -1.794
      -1.479
      -1.211
      -1.024
      -0.932
      -0.919
      -0.944
      -0.962
      -0.946
      -0.885
      -0.776
      -0.616
      -0.395
      -0.107
       0.249
       0.654
       1.062
       1.400
       1.592
       1.594
       1.423
       1.156
       0.894
       0.717
       0.654
       0.675
       0.730
       0.776
       0.794
       0.784
       0.746
       0.679
       0.578
       0.450
       0.323
       0.248
       0.274
       0.423
       0.678
       0.995
       1.315
       1.578
       1.725
       1.714
       1.532
       1.214
       0.832
       0.471
       0.188
       0.003
      -0.093
      -0.119
      -0.108
      -0.095
      -0.121
      -0.211
      -0.364
      -0.556
      -0.734
      -0.837
      -0.820
      -0.681
      -0.468
      -0.254
      -0.099
      -0.023
      -0.002
       0.007
       0.025
       0.040
       0.018
      -0.066
      -0.212
      -0.400
      -0.602
      -0.796
      -0.961
      -1.075
      -1.108
      -1.042
      -0.875
      -0.623
      -0.318
      -0.016
       0.219
       0.321
       0.262
       0.061
      -0.223
      -0.518
      -0.769
      -0.951
      -1.048
      -1.035
      -0.875
      -0.541
      -0.045
       0.542
       1.105
       1.526
       1.743
       1.781
       1.732
       1.682
       1.658
       1.613
       1.468
       1.167
       0.730
       0.252
      -0.143
      -0.358
      -0.370
      -0.224
      -0.003
       0.210
       0.362
       0.439
       0.453
       0.422
       0.350
       0.238
       0.098
      -0.029
      -0.088
      -0.038
       0.119
       0.334
       0.542
       0.689
       0.746
       0.694
       0.520
       0.230
      -0.141
      -0.520
      -0.820
      -0.974
      -0.961
      -0.812
      -0.599
      -0.398
      -0.258
      -0.186
      -0.158
      -0.144
      -0.125
      -0.092
      -0.040
       0.028
       0.095
       0.139
       0.152
       0.137
       0.105
       0.049
      -0.045
      -0.193
      -0.390
      -0.614
      -0.831
      -1.015
      -1.161
      -1.289
      -1.415
      -1.534
      -1.609
      -1.594
      -1.456
      -1.190
      -0.815
      -0.366
       0.117
       0.590
       1.009
       1.331
       1.531
       1.609
       1.601
       1.565
       1.566
       1.644
       1.801
       1.985
       2.120
       2.149
       2.065
       1.898
       1.684
       1.434
       1.142
       0.802
       0.425
       0.050
      -0.288
      -0.581
      -0.868
      -1.204
      -1.619
      -2.092
      -2.567
      -2.977
      -3.269
      -3.416
      -3.417
      -3.288
      -3.049
      -2.718
      -2.302
      -1.801
      -1.215
      -0.563
       0.116
       0.766
       1.326
       1.738
       1.952
       1.943
       1.725
       1.350
       0.899
       0.456
       0.079
      -0.216
      -0.446
      -0.639
      -0.808
      -0.950
      -1.049
      -1.083
      -1.031
      -0.876
      -0.605
      -0.220
       0.262
       0.797
       1.334
       1.832
       2.277
       2.671
       3.012
       3.281
       3.452
       3.502
       3.418
       3.205
       2.881
       2.482
       2.050
       1.626
       1.235
       0.877
       0.542
       0.229
      -0.049
      -0.274
      -0.445
      -0.581
      -0.722
      -0.905
      -1.138
      -1.369
      -1.501
      -1.441
      -1.158
      -0.711
      -0.231
       0.139
       0.299
       0.229
      -0.030
      -0.409
      -0.847
      -1.292
      -1.686
      -1.966
      -2.080
      -2.028
      -1.869
      -1.695
      -1.576
      -1.521
      -1.490
      -1.432
      -1.318
      -1.146
      -0.923
      -0.639
      -0.288
       0.109
       0.484
       0.750
       0.851
       0.807
       0.700
       0.633
       0.681
       0.865
       1.157
       1.490
       1.773
       1.919
       1.865
       1.608
       1.203
       0.749
       0.348
       0.071
      -0.064
      -0.091
      -0.073
      -0.069
      -0.100
      -0.146
      -0.164
      -0.111
       0.034
       0.269
       0.572
       0.906
       1.226
       1.471
       1.581
       1.506
       1.227
       0.770
       0.207
      -0.355
      -0.813
      -1.098
      -1.197
      -1.144
      -1.004
      -0.850
      -0.761
      -0.796
      -0.985
      -1.303
      -1.678
      -2.005
      -2.187
      -2.170
      -1.964
      -1.638
      -1.297
      -1.048
      -0.963
      -1.065
      -1.329
      -1.694
      -2.082
      -2.410
      -2.601
      -2.606
      -2.408
      -2.028
      -1.510
      -0.924
      -0.353
       0.118
       0.430
       0.567
       0.561
       0.478
       0.391
       0.366
       0.448
       0.646
       0.919
       1.180
       1.334
       1.323
       1.156
       0.893
       0.608
       0.359
       0.190
       0.140
       0.247
       0.543
       1.029
       1.665
       2.361
       2.997
       3.464
       3.704
       3.731
       3.627
       3.497
       3.418
       3.404
       3.402
       3.327
       3.110
       2.734
       2.224
       1.612
       0.908
       0.110
      -0.765
      -1.668
      -2.518
      -3.226
      -3.713
      -3.937
      -3.901
      -3.666
      -3.328
      -2.989
      -2.721
      -2.555
      -2.480
      -2.454
      -2.417
      -2.316
      -2.131
      -1.888
      -1.645
      -1.464
      -1.387
      -1.427
      -1.566
      -1.758
      -1.930
      -2.016
      -1.987
      -1.856
      -1.660
      -1.428
      -1.159
      -0.829
      -0.412
       0.104
       0.703
       1.347
       1.978
       2.524
       2.925
       3.158
       3.250
       3.270
       3.286
       3.329
       3.380
       3.397
       3.358
       3.277
       3.188
       3.115
       3.056
       2.987
       2.887
       2.748
       2.569
       2.346
       2.081
       1.795
       1.534
       1.347
       1.246
       1.198
       1.138
       1.004
       0.769
       0.448
       0.102
      -0.200
      -0.415
      -0.546
      -0.641
      -0.771
      -1.008
      -1.389
      -1.901
      -2.483
      -3.045
      -3.496
      -3.782
      -3.900
      -3.886
      -3.783
      -3.620
      -3.413
      -3.187
      -2.972
      -2.791
      -2.650
      -2.541
      -2.458
      -2.397
      -2.358
      -2.329
      -2.281
      -2.180
      -1.999
      -1.746
      -1.454
      -1.169
      -0.912
      -0.676
      -0.436
      -0.168
       0.141
       0.501
       0.930
       1.432
       1.984
       2.525
       2.984
       3.322
       3.542
       3.667
       3.714
       3.685
       3.580
       3.417
       3.234
       3.068
       2.935
       2.834
       2.740
       2.615
       2.422
       2.134
       1.737
       1.246
       0.715
       0.246
      -0.056
      -0.153
      -0.114
      -0.068
      -0.127
      -0.329
      -0.632
      -0.963
      -1.262
      -1.498
      -1.663
      -1.757
      -1.801
      -1.837
      -1.924
      -2.135
      -2.530
      -3.126
      -3.865
      -4.627
      -5.272
      -5.686
      -5.812
      -5.641
      -5.207
      -4.575
      -3.821
      -3.018
      -2.228
      -1.500
      -0.861
      -0.297
       0.234
       0.783
       1.358
       1.922
       2.419
       2.816
       3.117
       3.322
       3.372
       3.182
       2.731
       2.149
       1.677
       1.522
       1.729
       2.161
       2.607
       2.936
       3.152
       3.318
       3.463
       3.547
       3.531
       3.424
       3.284
       3.153
       3.015
       2.808
       2.478
       2.019
       1.475
       0.916
       0.412
      -0.006
      -0.354
      -0.674
      -0.999
      -1.332
      -1.661
      -1.987
      -2.324
      -2.664
      -2.975
      -3.215
      -3.357
      -3.389
      -3.294
      -3.062
      -2.710
      -2.293
      -1.892
      -1.585
      -1.421
      -1.410
      -1.517
      -1.666
      -1.759
      -1.717
      -1.529
      -1.263
      -1.026
      -0.900
      -0.895
      -0.949
      -0.969
      -0.881
      -0.666
      -0.346
       0.044
       0.471
       0.896
       1.258
       1.482
       1.514
       1.355
       1.065
       0.726
       0.426
       0.234
       0.200
       0.326
       0.552
       0.774
       0.895
       0.873
       0.727
       0.502
       0.242
      -0.020
      -0.236
      -0.339
      -0.270
      -0.016
       0.367
       0.769
       1.072
       1.203
       1.165
       1.013
       0.816
       0.637
       0.515
       0.474
       0.515
       0.629
       0.806
       1.040
       1.316
       1.604
       1.860
       2.048
       2.167
       2.249
       2.332
       2.404
       2.389
       2.186
       1.738
       1.090
       0.381
      -0.226
      -0.624
      -0.808
      -0.848
      -0.829
      -0.804
      -0.790
      -0.786
      -0.788
      -0.808
      -0.883
      -1.061
      -1.374
      -1.794
      -2.234
      -2.577
      -2.735
      -2.686
      -2.468
      -2.140
      -1.754
      -1.344
      -0.952
      -0.636
      -0.461
      -0.459
      -0.597
      -0.781
      -0.902
      -0.899
      -0.776
      -0.577
      -0.343
      -0.090
       0.184
       0.477
       0.764
       1.016
       1.213
       1.340
       1.378
       1.310
       1.146
       0.934
       0.727
       0.552
       0.392
       0.223
       0.042
      -0.126
      -0.249
      -0.313
      -0.327
      -0.314
      -0.284
      -0.246
      -0.221
      -0.241
      -0.318
      -0.412
      -0.448
      -0.360
      -0.134
       0.183
       0.528
       0.854
       1.144
       1.374
       1.495
       1.449
       1.222
       0.869
       0.471
       0.072
      -0.349
      -0.826
      -1.351
      -1.844
      -2.200
      -2.353
      -2.314
      -2.156
      -1.964
      -1.775
      -1.574
      -1.327
      -1.024
      -0.705
      -0.422
      -0.205
      -0.035
       0.144
       0.388
       0.725
       1.145
       1.604
       2.048
       2.417
       2.668
       2.776
       2.741
       2.583
       2.332
       2.021
       1.681
       1.337
       0.994
       0.628
       0.197
      -0.320
      -0.902
      -1.489
      -2.012
      -2.412
      -2.643
      -2.663
      -2.429
      -1.924
      -1.196
      -0.370
       0.403
       1.009
       1.406
       1.592
       1.582
       1.400
       1.109
       0.817
       0.640
       0.632
       0.753
       0.905
       1.006
       1.009
       0.890
       0.618
       0.187
      -0.349
      -0.871
      -1.258
      -1.465
      -1.542
      -1.571
      -1.596
      -1.589
      -1.503
      -1.325
      -1.104
      -0.910
      -0.782
      -0.711
      -0.666
      -0.636
      -0.649
      -0.736
      -0.890
      -1.047
      -1.131
      -1.110
      -1.005
      -0.860
      -0.702
      -0.536
      -0.369
      -0.227
      -0.138
      -0.098
      -0.068
      -0.007
       0.110
       0.271
       0.446
       0.609
       0.765
       0.932
       1.112
       1.276
       1.386
       1.430
       1.440
       1.475
       1.589
       1.804
       2.098
       2.405
       2.632
       2.700
       2.578
       2.301
       1.933
       1.526
       1.086
       0.591
       0.039
      -0.511
      -0.959
      -1.227
      -1.302
      -1.219
      -1.027
      -0.759
      -0.448
      -0.132
       0.150
       0.370
       0.522
       0.605
       0.605
       0.504
       0.307
       0.055
      -0.198
      -0.425
      -0.640
      -0.865
      -1.077
      -1.209
      -1.210
      -1.100
      -0.967
      -0.907
      -0.961
      -1.105
      -1.280
      -1.435
      -1.537
      -1.565
      -1.512
      -1.391
      -1.231
      -1.067
      -0.914
      -0.766
      -0.600
      -0.393
      -0.152
       0.089
       0.273
       0.356
       0.338
       0.270
       0.233
       0.289
       0.456
       0.710
       1.012
       1.325
       1.614
       1.831
       1.936
       1.903
       1.740
       1.485
       1.200
       0.947
       0.763
       0.648
       0.574
       0.513
       0.460
       0.435
       0.467
       0.569
       0.733
       0.926
       1.096
       1.198
       1.208
       1.135
       1.008
       0.849
       0.671
       0.489
       0.335
       0.242
       0.226
       0.272
       0.339
       0.377
       0.342
       0.205
      -0.043
      -0.393
      -0.808
      -1.225
      -1.569
      -1.775
      -1.793
      -1.604
      -1.219
      -0.694
      -0.131
       0.337
       0.607
       0.658
       0.559
       0.430
       0.374
       0.437
       0.594
       0.777
       0.900
       0.901
       0.762
       0.519
       0.235
      -0.028
      -0.226
      -0.330
      -0.306
      -0.114
       0.258
       0.763
       1.296
