Origin Time       1/5/2013 06:57:12	  UTC
Lat.              33.1 N	
Long.             75.8 E	
Depth (Km)         15.0
Magnitude         5.8
 Region           JK-HP-Border                                                     
 Above details taken from IMD 
    
Station Code      AMB
Station Lat.       31.688  N
Station Long.      76.116  E
Station Height(m)  488.0
Site Class        C   Vs30 between 200 m/sec to 375 m/sec *  
Record Time       01.05.2013 06:57:34.039 UTC
Sampling Rate     200. Hz
 Record Duration  102.955 Sec.
 Direction         N-S (N positive)
Max. Acceleration     19.636 cm/sec**2
     
  * For reference see Site Classification link of website 
     
 Base Line Corrected and Low Pass Filtered (Cut Off at 35 Hz) Time History
 Acceleration data in cm/sec**2
    
[...]
       0.124
       0.022
      -0.161
      -0.298
      -0.297
      -0.184
      -0.062
       0.011
       0.078
       0.216
       0.409
       0.539
       0.488
       0.252
      -0.066
      -0.357
      -0.581
      -0.749
      -0.867
      -0.917
      -0.875
      -0.738
      -0.533
      -0.324
      -0.168
      -0.061
       0.049
       0.187
       0.292
       0.284
       0.170
       0.056
       0.053
       0.166
       0.311
       0.417
       0.466
       0.450
       0.338
       0.136
      -0.050
      -0.075
       0.104
       0.364
       0.509
       0.421
       0.141
      -0.166
      -0.311
      -0.179
       0.172
       0.525
       0.638
       0.420
      -0.015
      -0.428
      -0.603
      -0.467
      -0.118
       0.255
       0.475
       0.471
       0.296
       0.089
      -0.005
       0.100
       0.392
       0.748
       0.953
       0.843
       0.485
       0.188
       0.235
       0.612
       1.001
       1.069
       0.751
       0.294
       0.051
       0.186
       0.542
       0.787
       0.693
       0.308
      -0.139
      -0.444
      -0.567
      -0.609
      -0.709
      -0.929
      -1.185
      -1.302
      -1.192
      -0.972
      -0.877
      -1.014
      -1.232
      -1.269
      -1.013
      -0.601
      -0.258
      -0.069
       0.073
       0.309
       0.612
       0.766
       0.565
       0.075
      -0.346
      -0.340
       0.131
       0.741
       1.072
       0.964
       0.611
       0.345
       0.329
       0.461
       0.534
       0.456
       0.325
       0.303
       0.458
       0.715
       0.933
       1.014
       0.948
       0.814
       0.730
       0.759
       0.820
       0.736
       0.407
      -0.061
      -0.393
      -0.345
       0.094
       0.650
       0.954
       0.823
       0.397
      -0.002
      -0.128
       0.030
       0.298
       0.467
       0.442
       0.276
       0.098
       0.007
       0.003
       0.001
      -0.103
      -0.342
      -0.642
      -0.882
      -1.004
      -1.059
      -1.114
      -1.134
      -0.993
      -0.635
      -0.208
       0.024
      -0.070
      -0.373
      -0.667
      -0.855
      -0.980
      -1.066
      -1.023
      -0.733
      -0.222
       0.316
       0.685
       0.849
       0.910
       0.965
       1.002
       0.957
       0.819
       0.640
       0.465
       0.295
       0.132
       0.002
      -0.076
      -0.129
      -0.176
      -0.180
      -0.092
       0.052
       0.128
       0.063
      -0.067
      -0.116
      -0.041
       0.052
       0.053
      -0.003
       0.028
       0.224
       0.490
       0.668
       0.710
       0.699
       0.703
       0.669
       0.489
       0.153
      -0.203
      -0.412
      -0.418
      -0.318
      -0.264
      -0.311
      -0.398
      -0.447
      -0.465
      -0.533
      -0.696
      -0.887
      -0.963
      -0.842
      -0.592
      -0.386
      -0.345
      -0.439
      -0.539
      -0.561
      -0.517
      -0.465
      -0.428
      -0.381
      -0.326
      -0.315
      -0.383
      -0.513
      -0.661
      -0.792
      -0.861
      -0.811
      -0.632
      -0.398
      -0.221
      -0.149
      -0.130
      -0.056
       0.138
       0.427
       0.741
       1.010
       1.180
       1.208
       1.106
       0.978
       0.971
       1.156
       1.444
       1.634
       1.570
       1.242
       0.771
       0.305
      -0.049
      -0.247
      -0.306
      -0.320
      -0.408
      -0.625
      -0.886
      -1.009
      -0.845
      -0.437
      -0.022
       0.134
      -0.056
      -0.446
      -0.769
      -0.836
      -0.635
      -0.312
      -0.042
       0.081
       0.087
       0.058
       0.042
       0.017
      -0.059
      -0.183
      -0.286
      -0.291
      -0.198
      -0.084
      -0.041
      -0.100
      -0.225
      -0.349
      -0.404
      -0.365
      -0.302
      -0.378
      -0.689
      -1.093
      -1.260
      -0.965
      -0.330
       0.266
       0.517
       0.452
       0.350
       0.457
       0.766
       1.051
       1.107
       0.935
       0.701
       0.549
       0.469
       0.368
       0.230
       0.152
       0.214
       0.356
       0.438
       0.419
       0.412
       0.532
       0.746
       0.897
       0.862
       0.643
       0.339
       0.075
      -0.046
       0.004
       0.159
       0.272
       0.198
      -0.098
      -0.475
      -0.678
      -0.545
      -0.202
      -0.003
      -0.205
      -0.681
      -1.024
      -0.950
      -0.566
      -0.236
      -0.237
      -0.564
      -0.984
      -1.218
      -1.101
      -0.663
      -0.120
       0.246
       0.265
      -0.010
      -0.353
      -0.543
      -0.474
      -0.177
       0.222
       0.558
       0.710
       0.666
       0.517
       0.388
       0.356
       0.413
       0.485
       0.498
       0.436
       0.331
       0.210
       0.065
      -0.117
      -0.306
      -0.419
      -0.389
      -0.233
      -0.051
       0.054
       0.053
      -0.002
      -0.034
       0.006
       0.130
       0.328
       0.565
       0.782
       0.930
       0.979
       0.904
       0.677
       0.331
       0.009
      -0.109
       0.038
       0.328
       0.574
       0.715
       0.852
       1.094
       1.416
       1.686
       1.814
       1.839
       1.843
       1.822
       1.702
       1.460
       1.190
       1.023
       0.989
       0.991
       0.900
       0.695
       0.470
       0.322
       0.232
       0.105
      -0.094
      -0.293
      -0.414
      -0.487
      -0.625
      -0.884
      -1.178
      -1.386
      -1.494
      -1.601
      -1.765
      -1.895
      -1.852
      -1.654
      -1.509
      -1.592
      -1.800
      -1.802
      -1.370
      -0.646
      -0.037
       0.164
       0.048
      -0.054
       0.076
       0.371
       0.643
       0.836
       1.080
       1.514
       2.112
       2.693
       3.076
       3.202
       3.137
       3.000
       2.884
       2.822
       2.794
       2.766
       2.705
       2.576
       2.360
       2.086
       1.822
       1.617
       1.451
       1.267
       1.013
       0.650
       0.183
      -0.284
      -0.563
      -0.528
      -0.262
      -0.028
      -0.063
      -0.374
      -0.734
      -0.882
      -0.760
      -0.552
      -0.514
      -0.729
      -1.020
      -1.120
      -0.940
      -0.662
      -0.526
      -0.584
      -0.680
      -0.664
      -0.564
      -0.536
      -0.656
      -0.805
      -0.774
      -0.496
      -0.148
       0.003
      -0.138
      -0.389
      -0.469
      -0.247
       0.176
       0.596
       0.851
       0.883
       0.734
       0.518
       0.325
       0.134
      -0.130
      -0.463
      -0.756
      -0.927
      -1.028
      -1.205
      -1.539
      -1.931
      -2.163
      -2.086
      -1.762
      -1.420
      -1.238
      -1.200
      -1.133
      -0.885
      -0.460
      -0.004
       0.335
       0.536
       0.723
       1.063
       1.586
       2.118
       2.425
       2.420
       2.228
       2.035
       1.919
       1.842
       1.762
       1.723
       1.798
       1.954
       2.037
       1.902
       1.559
       1.169
       0.890
       0.744
       0.621
       0.409
       0.091
      -0.262
      -0.575
      -0.838
      -1.094
      -1.359
      -1.562
      -1.603
      -1.485
      -1.354
      -1.378
      -1.559
      -1.723
      -1.679
      -1.386
      -0.963
      -0.583
      -0.346
      -0.233
      -0.153
      -0.044
       0.072
       0.104
      -0.013
      -0.224
      -0.360
      -0.265
       0.051
       0.416
       0.634
       0.621
       0.423
       0.165
      -0.022
      -0.058
       0.037
       0.162
       0.237
       0.281
       0.362
       0.480
       0.535
       0.468
       0.367
       0.388
       0.555
       0.705
       0.654
       0.398
       0.110
      -0.055
      -0.095
      -0.107
      -0.135
      -0.119
       0.007
       0.191
       0.279
       0.160
      -0.120
      -0.403
      -0.562
      -0.591
      -0.572
      -0.595
      -0.687
      -0.796
      -0.825
      -0.702
      -0.447
      -0.156
       0.058
       0.146
       0.152
       0.180
       0.311
       0.531
       0.731
       0.783
       0.665
       0.479
       0.357
       0.356
       0.455
       0.606
       0.772
       0.936
       1.072
       1.131
       1.073
       0.917
       0.751
       0.680
       0.743
       0.903
       1.101
       1.322
       1.581
       1.843
       2.001
       1.963
       1.763
       1.551
       1.443
       1.372
       1.135
       0.588
      -0.202
      -0.997
      -1.565
      -1.831
      -1.890
      -1.901
      -1.971
      -2.105
      -2.260
      -2.419
      -2.583
      -2.706
      -2.679
      -2.431
      -2.027
      -1.621
      -1.311
      -1.069
      -0.806
      -0.477
      -0.095
       0.325
       0.775
       1.222
       1.601
       1.871
       2.053
       2.202
       2.349
       2.474
       2.527
       2.476
       2.340
       2.189
       2.084
       2.027
       1.962
       1.826
       1.598
       1.308
       1.022
       0.803
       0.696
       0.707
       0.780
       0.816
       0.751
       0.645
       0.643
       0.836
       1.162
       1.444
       1.502
       1.275
       0.868
       0.482
       0.251
       0.124
      -0.062
      -0.391
      -0.766
      -1.028
      -1.112
      -1.087
      -1.052
      -1.032
      -1.015
      -1.043
      -1.204
      -1.512
      -1.818
      -1.898
      -1.668
      -1.282
      -1.002
      -0.958
      -1.056
      -1.104
      -1.010
      -0.842
      -0.710
      -0.638
      -0.558
      -0.435
      -0.358
      -0.451
      -0.713
      -0.980
      -1.064
      -0.924
      -0.676
      -0.475
      -0.393
      -0.393
      -0.398
      -0.346
      -0.210
       0.007
       0.275
       0.540
       0.726
       0.781
       0.710
       0.576
       0.460
       0.389
       0.313
       0.153
      -0.097
      -0.343
      -0.483
      -0.526
      -0.584
      -0.733
      -0.913
      -0.992
      -0.920
      -0.806
      -0.793
      -0.878
      -0.898
      -0.716
      -0.390
      -0.112
      -0.001
       0.038
       0.219
       0.663
       1.280
       1.864
       2.265
       2.469
       2.547
       2.577
       2.612
       2.681
       2.759
       2.762
       2.601
       2.281
       1.912
       1.600
       1.324
       0.943
       0.360
      -0.345
      -0.981
      -1.433
      -1.754
      -2.062
      -2.385
      -2.616
      -2.623
      -2.359
      -1.907
      -1.411
      -0.983
      -0.636
      -0.307
       0.051
       0.392
       0.615
       0.679
       0.678
       0.770
       1.021
       1.331
       1.543
       1.619
       1.653
       1.723
       1.765
       1.661
       1.391
       1.064
       0.776
       0.506
       0.171
      -0.252
      -0.695
      -1.072
      -1.357
      -1.605
      -1.898
      -2.298
      -2.803
      -3.342
      -3.802
      -4.095
      -4.209
      -4.222
      -4.252
      -4.362
      -4.491
      -4.507
      -4.339
      -4.052
      -3.753
      -3.475
      -3.170
      -2.780
      -2.268
      -1.607
      -0.790
       0.139
       1.080
       1.919
       2.584
       3.074
       3.438
       3.709
       3.887
       3.971
       4.002
       4.063
       4.245
       4.574
       4.956
       5.212
       5.188
       4.855
       4.312
       3.719
       3.246
       3.049
       3.235
       3.778
       4.458
       4.970
       5.146
       5.111
       5.169
       5.488
       5.908
       6.100
       5.935
       5.645
       5.567
       5.738
       5.813
       5.387
       4.380
       3.100
       1.922
       0.961
       0.052
      -0.999
      -2.196
      -3.388
      -4.439
      -5.322
      -6.066
      -6.693
      -7.223
      -7.713
      -8.226
      -8.740
      -9.117
      -9.200
      -8.961
      -8.555
      -8.210
      -8.063
      -8.054
      -7.995
      -7.711
      -7.176
      -6.506
      -5.845
      -5.231
      -4.588
      -3.820
      -2.905
      -1.907
      -0.907
       0.063
       1.053
       2.146
       3.371
       4.655
       5.861
       6.886
       7.718
       8.425
       9.094
       9.786
      10.508
      11.219
      11.850
      12.343
      12.679
      12.867
      12.910
      12.781
      12.413
      11.748
      10.843
       9.887
       9.060
       8.337
       7.476
       6.263
       4.777
       3.371
       2.358
       1.736
       1.220
       0.485
      -0.619
      -2.025
      -3.551
      -5.024
      -6.366
      -7.599
      -8.774
      -9.871
     -10.793
     -11.490
     -12.093
     -12.838
     -13.843
     -14.963
     -15.901
     -16.443
     -16.603
     -16.562
     -16.474
     -16.339
     -16.017
     -15.392
     -14.497
     -13.471
     -12.412
     -11.312
     -10.128
      -8.874
      -7.609
      -6.382
      -5.219
      -4.165
      -3.283
      -2.610
      -2.108
      -1.692
      -1.303
      -0.938
      -0.598
      -0.240
       0.205
       0.761
       1.383
       2.024
       2.702
       3.484
       4.408
       5.478
       6.713
       8.160
       9.815
      11.569
      13.258
      14.769
      16.076
      17.207
      18.182
      18.969
      19.487
      19.636
      19.316
      18.462
      17.084
      15.286
      13.214
      11.005
       8.773
       6.624
       4.649
       2.880
       1.288
      -0.186
      -1.571
      -2.875
      -4.098
      -5.226
      -6.191
      -6.870
      -7.169
      -7.106
      -6.809
      -6.413
      -5.944
      -5.332
      -4.532
      -3.617
      -2.722
      -1.898
      -1.072
      -0.163
       0.777
       1.552
       1.971
       1.991
       1.732
       1.375
       1.039
       0.734
       0.406
      -0.034
      -0.687
      -1.633
      -2.842
      -4.106
      -5.105
      -5.600
      -5.616
      -5.427
      -5.332
      -5.409
      -5.490
      -5.348
      -4.899
      -4.240
      -3.541
      -2.884
      -2.208
      -1.402
      -0.476
       0.379
       0.925
       1.091
       1.040
       1.020
       1.154
       1.385
       1.585
       1.710
       1.830
       2.022
       2.248
       2.354
       2.219
       1.904
       1.614
       1.514
       1.600
       1.729
       1.758
       1.639
       1.426
       1.227
       1.154
       1.269
       1.514
       1.687
       1.552
       1.022
       0.241
      -0.557
      -1.241
      -1.836
      -2.411
      -2.970
      -3.453
      -3.823
      -4.136
      -4.483
      -4.861
      -5.140
      -5.175
      -4.971
      -4.696
      -4.530
      -4.522
      -4.588
      -4.605
      -4.496
      -4.240
      -3.863
      -3.399
      -2.880
      -2.337
      -1.803
      -1.292
      -0.787
      -0.271
       0.235
       0.682
       1.058
       1.419
       1.876
       2.519
       3.352
       4.287
       5.197
       5.994
       6.647
       7.127
       7.391
       7.421
       7.275
       7.066
       6.889
       6.759
       6.574
       6.171
       5.458
       4.535
       3.655
       3.009
       2.542
       1.989
       1.115
      -0.049
      -1.217
      -2.102
      -2.653
      -3.038
      -3.435
      -3.893
      -4.361
      -4.817
      -5.302
      -5.839
      -6.332
      -6.631
      -6.712
      -6.749
      -6.931
      -7.189
      -7.172
      -6.554
      -5.384
      -4.115
      -3.252
      -2.947
      -2.925
      -2.797
      -2.404
      -1.855
      -1.319
      -0.861
      -0.482
      -0.186
       0.051
       0.354
       0.891
       1.701
       2.616
       3.369
       3.811
       3.986
       4.034
       4.070
       4.174
       4.436
       4.907
       5.518
       6.072
       6.395
       6.460
       6.388
       6.313
       6.255
       6.112
       5.774
       5.242
       4.617
       3.968
       3.245
       2.350
       1.274
       0.140
      -0.891
      -1.740
      -2.427
      -3.006
      -3.524
      -4.032
      -4.573
      -5.133
      -5.613
      -5.908
      -6.011
      -6.024
      -6.071
      -6.212
      -6.448
      -6.758
      -7.102
      -7.406
      -7.604
      -7.691
      -7.701
      -7.637
      -7.444
      -7.084
      -6.623
      -6.177
      -5.762
      -5.239
      -4.448
      -3.393
      -2.272
      -1.318
      -0.629
      -0.150
       0.216
       0.540
       0.887
       1.329
       1.913
       2.626
       3.419
       4.236
       5.030
       5.797
       6.589
       7.465
       8.419
       9.382
      10.282
      11.094
      11.829
      12.510
      13.153
      13.743
      14.207
      14.452
      14.450
      14.284
      14.058
      13.773
      13.298
      12.511
      11.444
      10.266
       9.128
       8.040
       6.894
       5.577
       4.054
       2.400
       0.783
      -0.615
      -1.724
      -2.679
      -3.731
      -5.031
      -6.486
      -7.854
      -8.972
      -9.912
     -10.897
     -12.106
     -13.520
     -14.937
     -16.120
     -16.942
     -17.421
     -17.662
     -17.786
     -17.889
     -18.004
     -18.065
     -17.934
     -17.494
     -16.759
     -15.887
     -15.065
     -14.350
     -13.633
     -12.776
     -11.754
     -10.645
      -9.496
      -8.264
      -6.874
      -5.297
      -3.540
      -1.614
       0.428
       2.443
       4.263
       5.815
       7.159
       8.397
       9.568
      10.654
      11.604
      12.358
      12.879
      13.202
      13.436
      13.681
      13.969
      14.271
      14.531
      14.697
      14.746
      14.709
      14.657
      14.654
      14.693
      14.681
      14.498
      14.090
      13.507
      12.878
      12.316
      11.824
      11.269
      10.455
       9.274
       7.786
       6.163
       4.522
       2.830
       0.982
      -1.054
      -3.192
      -5.324
      -7.382
      -9.304
     -10.984
     -12.291
     -13.161
     -13.658
     -13.947
     -14.183
     -14.389
     -14.462
     -14.288
     -13.863
     -13.270
     -12.553
     -11.639
     -10.405
      -8.831
      -7.094
      -5.477
      -4.169
      -3.138
      -2.191
      -1.145
       0.040
       1.226
       2.195
       2.801
       3.087
       3.226
       3.348
       3.419
       3.307
       2.953
       2.452
       1.967
       1.593
       1.332
       1.163
       1.092
       1.140
       1.297
       1.511
       1.712
       1.846
       1.884
       1.843
       1.784
       1.775
       1.842
       1.949
       2.024
       2.005
       1.864
       1.614
       1.294
       0.955
       0.621
       0.279
      -0.105
      -0.536
      -0.963
      -1.299
      -1.490
      -1.565
      -1.619
      -1.732
      -1.879
      -1.911
      -1.673
      -1.158
      -0.536
       0.002
       0.399
       0.750
       1.154
       1.580
       1.869
       1.882
       1.634
       1.297
       1.070
       1.038
       1.154
       1.322
       1.467
       1.541
       1.498
       1.312
       0.995
       0.586
