Origin Time       26/01/2011 03:06:45 UTC
Lat.              29.0 N	
Long.             77.2 E	
Depth (Km)         10.0
Magnitude         3.2
 Region           SONIPAT-Bagpat-Border                                            
 Above details taken from IMD 
    
Station Code      ANC
Station Lat.       28.539  N
Station Long.      77.264  E
Station Height(m)  231.0
Site Class        C   Vs30 between 200 m/sec to 375 m/sec *  
Record Time       26.01.2011 03:06:34.424 UTC
Sampling Rate     200. Hz
 Record Duration   80.180 Sec.
 Direction         N-S (N positive)
Max. Acceleration      1.862 cm/sec**2
     
  * For reference see Site Classification link of website 
     
 Base Line Corrected and Low Pass Filtered (Cut Off at 35 Hz) Time History
 Acceleration data in cm/sec**2
    
[...]
      -0.333
      -0.191
      -0.025
       0.081
       0.088
       0.022
      -0.056
      -0.084
      -0.030
       0.097
       0.249
       0.357
       0.358
       0.232
       0.021
      -0.186
      -0.302
      -0.288
      -0.167
      -0.002
       0.138
       0.196
       0.143
      -0.017
      -0.233
      -0.408
      -0.445
      -0.301
      -0.024
       0.270
       0.461
       0.483
       0.353
       0.142
      -0.061
      -0.189
      -0.226
      -0.195
      -0.145
      -0.109
      -0.086
      -0.049
       0.019
       0.099
       0.146
       0.127
       0.045
      -0.055
      -0.125
      -0.139
      -0.097
      -0.011
       0.104
       0.222
       0.303
       0.301
       0.191
      -0.006
      -0.225
      -0.386
      -0.438
      -0.377
      -0.247
      -0.103
       0.026
       0.138
       0.244
       0.332
       0.365
       0.305
       0.148
      -0.058
      -0.240
      -0.335
      -0.317
      -0.207
      -0.046
       0.112
       0.222
       0.255
       0.208
       0.102
      -0.034
      -0.178
      -0.311
      -0.405
      -0.416
      -0.308
      -0.095
       0.153
       0.345
       0.428
       0.410
       0.336
       0.235
       0.108
      -0.047
      -0.194
      -0.273
      -0.242
      -0.120
       0.013
       0.071
       0.015
      -0.117
      -0.243
      -0.286
      -0.218
      -0.077
       0.059
       0.126
       0.118
       0.087
       0.095
       0.164
       0.255
       0.298
       0.245
       0.105
      -0.060
      -0.177
      -0.211
      -0.180
      -0.137
      -0.126
      -0.146
      -0.154
      -0.109
      -0.005
       0.113
       0.186
       0.186
       0.136
       0.086
       0.070
       0.077
       0.067
       0.012
      -0.074
      -0.142
      -0.145
      -0.072
       0.043
       0.135
       0.140
       0.028
      -0.175
      -0.388
      -0.504
      -0.445
      -0.206
       0.130
       0.426
       0.564
       0.498
       0.282
       0.035
      -0.130
      -0.170
      -0.120
      -0.054
      -0.016
       0.001
       0.024
       0.048
       0.030
      -0.071
      -0.229
      -0.351
      -0.338
      -0.169
       0.081
       0.290
       0.366
       0.298
       0.141
      -0.022
      -0.124
      -0.126
      -0.030
       0.123
       0.250
       0.267
       0.136
      -0.096
      -0.315
      -0.407
      -0.337
      -0.166
      -0.005
       0.067
       0.047
       0.004
       0.016
       0.106
       0.222
       0.271
       0.195
       0.028
      -0.115
      -0.122
       0.023
       0.207
       0.258
       0.079
      -0.272
      -0.599
      -0.709
      -0.530
      -0.158
       0.224
       0.459
       0.485
       0.337
       0.105
      -0.105
      -0.206
      -0.162
      -0.018
       0.116
       0.136
       0.022
      -0.132
      -0.190
      -0.082
       0.126
       0.277
       0.243
       0.022
      -0.256
      -0.421
      -0.381
      -0.174
       0.077
       0.251
       0.302
       0.269
       0.225
       0.219
       0.234
       0.214
       0.105
      -0.099
      -0.345
      -0.544
      -0.611
      -0.506
      -0.259
       0.027
       0.222
       0.241
       0.110
      -0.041
      -0.058
       0.126
       0.431
       0.673
       0.677
       0.395
      -0.056
      -0.459
      -0.623
      -0.491
      -0.166
       0.149
       0.275
       0.158
      -0.101
      -0.326
      -0.379
      -0.249
      -0.039
       0.123
       0.173
       0.138
       0.098
       0.115
       0.191
       0.275
       0.292
       0.189
      -0.031
      -0.291
      -0.462
      -0.436
      -0.205
       0.114
       0.337
       0.344
       0.164
      -0.058
      -0.176
      -0.163
      -0.102
      -0.086
      -0.125
      -0.143
      -0.070
       0.075
       0.193
       0.199
       0.104
       0.008
       0.006
       0.101
       0.196
       0.182
       0.039
      -0.145
      -0.241
      -0.180
      -0.003
       0.172
       0.229
       0.138
      -0.037
      -0.186
      -0.231
      -0.170
      -0.070
      -0.008
      -0.008
      -0.027
      -0.002
       0.090
       0.199
       0.237
       0.148
      -0.049
      -0.267
      -0.402
      -0.385
      -0.205
       0.089
       0.402
       0.617
       0.637
       0.444
       0.114
      -0.210
      -0.407
      -0.439
      -0.354
      -0.226
      -0.105
      -0.004
       0.078
       0.130
       0.136
       0.095
       0.028
      -0.032
      -0.067
      -0.081
      -0.078
      -0.046
       0.044
       0.201
       0.380
       0.487
       0.425
       0.166
      -0.213
      -0.561
      -0.736
      -0.677
      -0.421
      -0.072
       0.258
       0.482
       0.561
       0.495
       0.328
       0.127
      -0.040
      -0.146
      -0.202
      -0.233
      -0.245
      -0.208
      -0.096
       0.076
       0.236
       0.295
       0.207
       0.001
      -0.232
      -0.391
      -0.410
      -0.277
      -0.037
       0.224
       0.405
       0.431
       0.291
       0.053
      -0.168
      -0.271
      -0.225
      -0.080
       0.073
       0.158
       0.158
       0.105
       0.052
       0.033
       0.047
       0.062
       0.037
      -0.048
      -0.169
      -0.262
      -0.259
      -0.133
       0.062
       0.212
       0.217
       0.075
      -0.107
      -0.185
      -0.096
       0.083
       0.189
       0.102
      -0.137
      -0.349
      -0.338
      -0.053
       0.366
       0.681
       0.712
       0.442
       0.005
      -0.409
      -0.655
      -0.684
      -0.523
      -0.242
       0.072
       0.326
       0.449
       0.421
       0.287
       0.124
       0.000
      -0.065
      -0.093
      -0.114
      -0.141
      -0.159
      -0.137
      -0.052
       0.088
       0.228
       0.288
       0.212
       0.019
      -0.189
      -0.291
      -0.237
      -0.094
       0.000
      -0.053
      -0.227
      -0.381
      -0.356
      -0.093
       0.316
       0.665
       0.758
       0.535
       0.120
      -0.248
      -0.378
      -0.244
       0.002
       0.159
       0.124
      -0.052
      -0.229
      -0.295
      -0.236
      -0.116
      -0.019
       0.005
      -0.044
      -0.122
      -0.162
      -0.096
       0.099
       0.366
       0.577
       0.607
       0.413
       0.068
      -0.279
      -0.483
      -0.474
      -0.283
      -0.020
       0.175
       0.202
       0.047
      -0.207
      -0.423
      -0.476
      -0.324
      -0.028
       0.277
       0.453
       0.437
       0.275
       0.092
       0.015
       0.080
       0.206
       0.252
       0.127
      -0.132
      -0.384
      -0.490
      -0.413
      -0.224
      -0.033
       0.093
       0.154
       0.176
       0.177
       0.152
       0.104
       0.053
       0.027
       0.037
       0.069
       0.093
       0.078
       0.009
      -0.097
      -0.191
      -0.220
      -0.164
      -0.067
      -0.004
      -0.029
      -0.129
      -0.228
      -0.242
      -0.139
       0.041
       0.213
       0.314
       0.330
       0.289
       0.225
       0.149
       0.058
      -0.040
      -0.115
      -0.138
      -0.120
      -0.113
      -0.173
      -0.295
      -0.394
      -0.363
      -0.164
       0.124
       0.361
       0.449
       0.395
       0.278
       0.166
       0.072
      -0.021
      -0.120
      -0.205
      -0.263
      -0.309
      -0.359
      -0.396
      -0.367
      -0.236
      -0.028
       0.178
       0.312
       0.367
       0.385
       0.392
       0.363
       0.254
       0.076
      -0.091
      -0.160
      -0.125
      -0.077
      -0.131
      -0.313
      -0.518
      -0.588
      -0.434
      -0.111
       0.222
       0.422
       0.455
       0.390
       0.311
       0.244
       0.159
       0.030
      -0.115
      -0.213
      -0.227
      -0.183
      -0.150
      -0.170
      -0.216
      -0.211
      -0.094
       0.125
       0.359
       0.486
       0.427
       0.190
      -0.123
      -0.375
      -0.463
      -0.378
      -0.195
      -0.017
       0.089
       0.121
       0.122
       0.133
       0.160
       0.181
       0.173
       0.126
       0.041
      -0.076
      -0.214
      -0.339
      -0.396
      -0.332
      -0.142
       0.106
       0.300
       0.343
       0.223
       0.018
      -0.152
      -0.201
      -0.130
      -0.017
       0.051
       0.039
      -0.015
      -0.044
       0.000
       0.116
       0.262
       0.379
       0.415
       0.338
       0.152
      -0.104
      -0.358
      -0.526
      -0.545
      -0.410
      -0.188
       0.015
       0.119
       0.112
       0.048
      -0.003
      -0.017
      -0.012
      -0.019
      -0.035
      -0.024
       0.037
       0.127
       0.190
       0.187
       0.132
       0.075
       0.042
       0.008
      -0.068
      -0.180
      -0.254
      -0.205
      -0.012
       0.237
       0.401
       0.382
       0.192
      -0.070
      -0.299
      -0.445
      -0.510
      -0.496
      -0.383
      -0.153
       0.160
       0.456
       0.618
       0.578
       0.365
       0.083
      -0.145
      -0.245
      -0.213
      -0.104
       0.005
       0.054
       0.016
      -0.089
      -0.203
      -0.256
      -0.216
      -0.120
      -0.047
      -0.045
      -0.071
      -0.014
       0.200
       0.517
       0.768
       0.789
       0.557
       0.196
      -0.125
      -0.321
      -0.428
      -0.525
      -0.638
      -0.706
      -0.643
      -0.415
      -0.080
       0.246
       0.450
       0.473
       0.331
       0.100
      -0.126
      -0.269
      -0.310
      -0.278
      -0.219
      -0.150
      -0.057
       0.074
       0.221
       0.331
       0.356
       0.296
       0.195
       0.105
       0.042
      -0.005
      -0.046
      -0.062
      -0.028
       0.037
       0.074
       0.022
      -0.114
      -0.258
      -0.312
      -0.241
      -0.100
       0.011
       0.030
      -0.025
      -0.075
      -0.052
       0.051
       0.179
       0.251
       0.209
       0.046
      -0.186
      -0.394
      -0.471
      -0.344
      -0.022
       0.387
       0.720
       0.841
       0.719
       0.430
       0.100
      -0.167
      -0.327
      -0.377
      -0.336
      -0.248
      -0.176
      -0.181
      -0.272
      -0.384
      -0.404
      -0.250
       0.076
       0.474
       0.809
       0.971
       0.924
       0.710
       0.411
       0.108
      -0.153
      -0.360
      -0.520
      -0.640
      -0.712
      -0.727
      -0.687
      -0.601
      -0.467
      -0.261
       0.044
       0.427
       0.787
       0.969
       0.851
       0.440
      -0.118
      -0.610
      -0.880
      -0.899
      -0.753
      -0.548
      -0.333
      -0.085
       0.231
       0.593
       0.903
       1.038
       0.932
       0.623
       0.249
      -0.019
      -0.069
       0.086
       0.310
       0.414
       0.266
      -0.140
      -0.684
      -1.184
      -1.469
      -1.437
      -1.076
      -0.472
       0.200
       0.730
       0.972
       0.925
       0.731
       0.565
       0.505
       0.485
       0.376
       0.102
      -0.289
      -0.662
      -0.886
      -0.918
      -0.818
      -0.690
      -0.599
      -0.516
      -0.342
       0.004
       0.480
       0.903
       1.044
       0.791
       0.242
      -0.345
      -0.699
      -0.687
      -0.361
       0.104
       0.513
       0.733
       0.710
       0.466
       0.085
      -0.293
      -0.518
      -0.496
      -0.254
       0.077
       0.343
       0.460
       0.445
       0.373
       0.300
       0.219
       0.086
      -0.131
      -0.395
      -0.614
      -0.684
      -0.548
      -0.238
       0.133
       0.421
       0.524
       0.445
       0.288
       0.196
       0.247
       0.385
       0.444
       0.272
      -0.137
      -0.607
      -0.897
      -0.877
      -0.631
      -0.395
      -0.362
      -0.514
      -0.613
      -0.386
       0.239
       1.035
       1.601
       1.632
       1.116
       0.330
      -0.347
      -0.668
      -0.632
      -0.417
      -0.232
      -0.195
      -0.296
      -0.447
      -0.540
      -0.494
      -0.273
       0.087
       0.483
       0.777
       0.859
       0.712
       0.432
       0.181
       0.083
       0.135
       0.205
       0.124
      -0.174
      -0.590
      -0.913
      -0.957
      -0.680
      -0.222
       0.172
       0.285
       0.053
      -0.387
      -0.765
      -0.825
      -0.468
       0.188
       0.877
       1.329
       1.401
       1.120
       0.626
       0.090
      -0.348
      -0.612
      -0.694
      -0.639
      -0.507
      -0.325
      -0.085
       0.215
       0.510
       0.672
       0.595
       0.298
      -0.057
      -0.259
      -0.203
       0.040
       0.277
       0.320
       0.110
      -0.263
      -0.632
      -0.856
      -0.888
      -0.775
      -0.602
      -0.426
      -0.261
      -0.105
       0.017
       0.060
       0.019
      -0.024
       0.073
       0.400
       0.888
       1.315
       1.428
       1.111
       0.466
      -0.249
      -0.772
      -0.969
      -0.865
      -0.588
      -0.282
      -0.054
       0.036
      -0.035
      -0.250
      -0.539
      -0.761
      -0.736
      -0.328
       0.436
       1.301
       1.862
       1.799
       1.097
       0.097
      -0.706
      -0.972
      -0.714
      -0.243
       0.072
       0.051
      -0.228
      -0.546
      -0.722
      -0.721
      -0.626
      -0.530
      -0.450
      -0.321
      -0.053
       0.381
       0.900
       1.340
       1.525
       1.357
       0.862
       0.190
      -0.448
      -0.860
      -0.942
      -0.711
      -0.289
       0.141
       0.408
       0.439
       0.288
       0.093
      -0.025
      -0.049
      -0.060
      -0.157
      -0.356
      -0.563
      -0.642
      -0.512
      -0.198
       0.187
       0.516
       0.695
       0.685
       0.502
       0.205
      -0.124
      -0.419
      -0.634
      -0.738
      -0.692
      -0.474
      -0.123
       0.239
       0.457
       0.449
       0.264
       0.048
      -0.057
       0.002
       0.182
       0.392
       0.548
       0.585
       0.464
       0.182
      -0.208
      -0.596
      -0.853
      -0.901
      -0.750
      -0.472
      -0.139
       0.212
       0.558
       0.854
       1.015
       0.948
       0.623
       0.121
      -0.389
      -0.737
      -0.836
      -0.715
      -0.465
      -0.177
       0.091
       0.310
       0.469
       0.551
       0.531
       0.383
       0.098
      -0.284
      -0.664
      -0.908
      -0.899
      -0.606
      -0.108
       0.425
       0.793
       0.862
       0.631
       0.246
      -0.086
      -0.216
      -0.150
      -0.028
      -0.004
      -0.112
      -0.233
      -0.201
       0.045
       0.389
       0.610
       0.536
       0.164
      -0.337
      -0.740
      -0.887
      -0.763
      -0.472
      -0.162
       0.056
       0.159
       0.200
       0.262
       0.387
       0.539
       0.637
       0.616
       0.477
       0.277
       0.085
      -0.056
      -0.143
      -0.207
      -0.282
      -0.387
      -0.499
      -0.559
      -0.499
      -0.291
       0.019
       0.314
       0.460
       0.391
       0.155
      -0.102
      -0.216
      -0.111
       0.138
       0.342
       0.311
      -0.004
      -0.460
      -0.792
      -0.770
      -0.356
       0.258
       0.748
       0.840
       0.469
      -0.183
      -0.777
      -0.990
      -0.685
       0.008
       0.749
       1.165
       1.054
       0.492
      -0.215
      -0.711
      -0.794
      -0.509
      -0.095
       0.194
       0.244
       0.140
       0.069
       0.167
       0.412
       0.638
       0.650
       0.349
      -0.203
      -0.812
      -1.240
      -1.306
      -0.958
      -0.306
       0.407
       0.892
       0.953
       0.600
       0.065
      -0.318
      -0.318
       0.055
       0.553
       0.854
       0.758
       0.284
      -0.367
      -0.944
      -1.253
      -1.206
      -0.823
      -0.218
       0.423
       0.895
       1.054
       0.882
       0.493
       0.063
      -0.276
      -0.490
      -0.609
      -0.640
      -0.538
      -0.264
       0.126
       0.466
       0.587
       0.439
       0.135
      -0.143
      -0.263
      -0.209
      -0.047
       0.138
       0.287
       0.349
       0.272
       0.024
      -0.342
      -0.674
      -0.777
      -0.540
      -0.025
       0.541
       0.873
       0.779
       0.269
      -0.431
      -0.984
      -1.117
      -0.765
      -0.108
       0.540
       0.929
       1.005
       0.903
       0.798
       0.741
       0.623
       0.281
      -0.332
      -1.065
      -1.634
      -1.779
      -1.416
      -0.672
       0.195
       0.918
       1.312
       1.308
       0.941
       0.348
      -0.258
      -0.659
      -0.729
      -0.512
      -0.193
       0.025
       0.051
      -0.047
      -0.121
      -0.073
       0.076
       0.232
       0.325
       0.360
       0.375
       0.359
       0.249
       0.002
      -0.318
      -0.543
      -0.509
      -0.179
       0.303
       0.684
       0.748
       0.442
      -0.099
      -0.625
      -0.902
      -0.808
      -0.382
       0.193
       0.673
       0.869
       0.738
       0.400
       0.045
      -0.184
      -0.270
      -0.297
      -0.354
      -0.441
      -0.467
      -0.336
      -0.045
       0.278
       0.441
       0.306
      -0.118
      -0.662
      -1.068
      -1.111
      -0.710
       0.015
       0.787
       1.305
       1.390
       1.083
       0.587
       0.129
      -0.181
      -0.372
      -0.526
      -0.655
      -0.674
      -0.486
      -0.093
       0.365
       0.677
       0.679
       0.348
      -0.190
      -0.710
      -0.987
      -0.898
      -0.477
       0.097
       0.582
       0.790
       0.678
       0.360
       0.030
      -0.156
      -0.160
      -0.057
       0.029
       0.008
      -0.133
      -0.329
      -0.473
      -0.464
      -0.250
       0.139
       0.581
       0.898
       0.933
       0.636
       0.111
      -0.424
      -0.751
      -0.778
      -0.586
      -0.361
      -0.251
      -0.259
      -0.252
      -0.104
       0.173
       0.413
       0.430
       0.183
      -0.166
      -0.359
      -0.217
       0.232
       0.773
       1.126
       1.107
       0.706
       0.073
      -0.570
      -1.027
      -1.181
      -1.008
      -0.559
       0.055
       0.668
       1.080
       1.128
       0.768
       0.123
      -0.558
      -1.037
      -1.190
      -1.049
      -0.730
      -0.346
       0.038
       0.392
       0.680
       0.838
       0.801
       0.551
       0.158
      -0.227
      -0.437
      -0.377
      -0.094
       0.247
       0.461
       0.464
       0.305
       0.105
      -0.049
      -0.158
      -0.271
      -0.416
      -0.573
      -0.684
      -0.688
      -0.540
      -0.230
       0.190
       0.591
       0.818
       0.774
       0.504
       0.177
      -0.019
