Origin Time       18/2/2011 14:44:14	 UTC
Lat.              28.6 N	
Long.             77.3 E	
Depth (Km)          5.0
Magnitude         2.3
 Region           Delhi                                                            
 Above details taken from IMD 
    
Station Code      ANC
Station Lat.       28.539  N
Station Long.      77.264  E
Station Height(m)  231.0
Site Class        C   Vs30 between 200 m/sec to 375 m/sec *  
Record Time       18.02.2011 14:43:50.329 UTC
Sampling Rate     200. Hz
 Record Duration   80.720 Sec.
 Direction         N-S (N positive)
Max. Acceleration      5.041 cm/sec**2
     
  * For reference see Site Classification link of website 
     
 Base Line Corrected and Low Pass Filtered (Cut Off at 35 Hz) Time History
 Acceleration data in cm/sec**2
    
[...]
       0.069
       0.051
      -0.006
      -0.065
      -0.081
      -0.041
       0.033
       0.092
       0.097
       0.045
      -0.026
      -0.071
      -0.062
      -0.009
       0.052
       0.085
       0.072
       0.024
      -0.033
      -0.069
      -0.065
      -0.022
       0.037
       0.077
       0.074
       0.032
      -0.021
      -0.048
      -0.032
       0.010
       0.046
       0.048
       0.015
      -0.025
      -0.042
      -0.024
       0.012
       0.038
       0.037
       0.016
      -0.006
      -0.012
       0.001
       0.020
       0.034
       0.037
       0.029
       0.010
      -0.015
      -0.039
      -0.047
      -0.029
       0.010
       0.049
       0.065
       0.048
       0.011
      -0.018
      -0.020
       0.005
       0.033
       0.036
       0.008
      -0.031
      -0.046
      -0.020
       0.035
       0.080
       0.083
       0.040
      -0.019
      -0.055
      -0.049
      -0.014
       0.015
       0.011
      -0.025
      -0.061
      -0.064
      -0.021
       0.044
       0.089
       0.087
       0.042
      -0.017
      -0.054
      -0.049
      -0.009
       0.039
       0.065
       0.053
       0.015
      -0.019
      -0.022
       0.004
       0.027
       0.015
      -0.033
      -0.082
      -0.083
      -0.017
       0.085
       0.158
       0.151
       0.061
      -0.060
      -0.141
      -0.138
      -0.061
       0.036
       0.096
       0.095
       0.054
       0.016
       0.010
       0.028
       0.040
       0.023
      -0.014
      -0.039
      -0.026
       0.017
       0.059
       0.066
       0.033
      -0.018
      -0.055
      -0.059
      -0.033
       0.009
       0.048
       0.072
       0.072
       0.049
       0.012
      -0.021
      -0.035
      -0.020
       0.013
       0.043
       0.048
       0.027
      -0.002
      -0.015
       0.001
       0.034
       0.060
       0.056
       0.022
      -0.021
      -0.044
      -0.032
       0.006
       0.035
       0.031
      -0.004
      -0.041
      -0.046
      -0.010
       0.045
       0.083
       0.078
       0.035
      -0.018
      -0.049
      -0.045
      -0.017
       0.010
       0.021
       0.018
       0.014
       0.021
       0.033
       0.036
       0.022
      -0.003
      -0.024
      -0.029
      -0.018
       0.002
       0.021
       0.035
       0.040
       0.033
       0.017
      -0.003
      -0.014
      -0.010
       0.002
       0.007
      -0.008
      -0.034
      -0.048
      -0.027
       0.029
       0.090
       0.109
       0.065
      -0.023
      -0.102
      -0.123
      -0.073
       0.016
       0.088
       0.108
       0.079
       0.032
       0.003
      -0.005
      -0.006
      -0.017
      -0.035
      -0.046
      -0.037
      -0.008
       0.029
       0.057
       0.055
       0.021
      -0.025
      -0.048
      -0.028
       0.024
       0.075
       0.092
       0.068
       0.022
      -0.016
      -0.026
      -0.007
       0.021
       0.039
       0.039
       0.030
       0.019
       0.008
      -0.005
      -0.016
      -0.012
       0.016
       0.054
       0.071
       0.043
      -0.018
      -0.069
      -0.066
      -0.004
       0.071
       0.097
       0.049
      -0.038
      -0.092
      -0.074
      -0.003
       0.059
       0.068
       0.028
      -0.018
      -0.032
      -0.013
       0.009
       0.013
       0.003
       0.004
       0.026
       0.046
       0.035
      -0.015
      -0.071
      -0.085
      -0.041
       0.033
       0.086
       0.089
       0.052
       0.012
      -0.002
       0.007
       0.016
       0.006
      -0.016
      -0.025
      -0.004
       0.035
       0.060
       0.050
       0.012
      -0.023
      -0.031
      -0.011
       0.020
       0.039
       0.041
       0.032
       0.018
       0.001
      -0.017
      -0.026
      -0.012
       0.025
       0.067
       0.083
       0.055
      -0.002
      -0.050
      -0.054
      -0.007
       0.058
       0.090
       0.057
      -0.022
      -0.086
      -0.084
      -0.016
       0.062
       0.093
       0.066
       0.017
      -0.014
      -0.017
      -0.013
      -0.024
      -0.043
      -0.044
      -0.013
       0.036
       0.068
       0.057
       0.009
      -0.041
      -0.063
      -0.044
       0.001
       0.045
       0.066
       0.060
       0.034
       0.002
      -0.022
      -0.030
      -0.019
       0.003
       0.022
       0.027
       0.011
      -0.015
      -0.034
      -0.029
      -0.001
       0.034
       0.060
       0.068
       0.062
       0.049
       0.034
       0.012
      -0.015
      -0.043
      -0.056
      -0.043
      -0.006
       0.034
       0.054
       0.042
       0.008
      -0.024
      -0.032
      -0.008
       0.033
       0.067
       0.074
       0.050
       0.008
      -0.031
      -0.051
      -0.046
      -0.022
       0.011
       0.035
       0.040
       0.020
      -0.013
      -0.038
      -0.033
       0.002
       0.045
       0.067
       0.053
       0.016
      -0.017
      -0.025
      -0.008
       0.014
       0.022
       0.009
      -0.015
      -0.029
      -0.018
       0.014
       0.049
       0.064
       0.048
       0.009
      -0.030
      -0.051
      -0.046
      -0.019
       0.022
       0.062
       0.077
       0.044
      -0.033
      -0.113
      -0.129
      -0.046
       0.095
       0.199
       0.189
       0.073
      -0.062
      -0.129
      -0.102
      -0.025
       0.039
       0.059
       0.044
       0.024
       0.016
       0.016
       0.011
      -0.005
      -0.027
      -0.040
      -0.032
      -0.006
       0.025
       0.038
       0.023
      -0.010
      -0.032
      -0.024
       0.008
       0.035
       0.035
       0.007
      -0.025
      -0.034
      -0.015
       0.014
       0.028
       0.014
      -0.017
      -0.045
      -0.049
      -0.025
       0.014
       0.046
       0.053
       0.034
       0.006
      -0.014
      -0.019
      -0.018
      -0.022
      -0.028
      -0.024
      -0.004
       0.021
       0.037
       0.036
       0.023
       0.012
       0.009
       0.011
       0.010
       0.005
       0.000
       0.000
       0.006
       0.014
       0.016
       0.010
       0.002
      -0.001
       0.005
       0.013
       0.012
      -0.003
      -0.022
      -0.031
      -0.020
       0.009
       0.040
       0.054
       0.043
       0.014
      -0.016
      -0.032
      -0.029
      -0.015
      -0.003
       0.004
       0.008
       0.017
       0.030
       0.039
       0.034
       0.015
      -0.011
      -0.029
      -0.027
      -0.005
       0.026
       0.047
       0.037
      -0.004
      -0.053
      -0.077
      -0.051
       0.010
       0.065
       0.073
       0.031
      -0.025
      -0.048
      -0.021
       0.031
       0.064
       0.053
       0.013
      -0.018
      -0.014
       0.015
       0.032
       0.015
      -0.025
      -0.052
      -0.041
       0.003
       0.048
       0.069
       0.066
       0.050
       0.034
       0.013
      -0.017
      -0.051
      -0.069
      -0.055
      -0.010
       0.045
       0.082
       0.086
       0.062
       0.031
       0.009
      -0.002
      -0.009
      -0.017
      -0.025
      -0.023
      -0.005
       0.025
       0.049
       0.050
       0.021
      -0.021
      -0.049
      -0.043
      -0.007
       0.035
       0.060
       0.058
       0.035
       0.007
      -0.009
      -0.009
       0.003
       0.016
       0.023
       0.018
       0.003
      -0.016
      -0.031
      -0.032
      -0.016
       0.013
       0.040
       0.053
       0.049
       0.035
       0.023
       0.016
       0.010
       0.001
      -0.011
      -0.019
      -0.016
      -0.001
       0.021
       0.041
       0.054
       0.057
       0.046
       0.023
      -0.006
      -0.029
      -0.033
      -0.019
       0.002
       0.022
       0.045
       0.077
       0.100
       0.073
      -0.028
      -0.157
      -0.211
      -0.114
       0.089
       0.249
       0.228
       0.037
      -0.171
      -0.229
      -0.103
       0.091
       0.200
       0.160
       0.023
      -0.098
      -0.125
      -0.062
       0.032
       0.090
       0.088
       0.047
       0.003
      -0.022
      -0.028
      -0.026
      -0.018
      -0.003
       0.018
       0.038
       0.046
       0.037
       0.015
      -0.010
      -0.026
      -0.021
       0.007
       0.044
       0.067
       0.064
       0.036
       0.002
      -0.021
      -0.025
      -0.014
       0.003
       0.014
       0.017
       0.011
       0.005
       0.005
       0.012
       0.024
       0.034
       0.032
       0.014
      -0.013
      -0.032
      -0.028
       0.001
       0.038
       0.062
       0.058
       0.027
      -0.015
      -0.044
      -0.038
       0.004
       0.063
       0.100
       0.084
       0.023
      -0.025
       0.006
       0.113
       0.196
       0.131
      -0.098
      -0.341
      -0.395
      -0.214
       0.025
       0.090
      -0.044
      -0.147
       0.008
       0.366
       0.613
       0.508
       0.151
      -0.125
      -0.106
       0.077
       0.107
      -0.160
      -0.505
      -0.563
      -0.225
       0.216
       0.357
       0.117
      -0.192
      -0.230
       0.016
       0.275
       0.340
       0.247
       0.133
       0.049
      -0.021
      -0.042
       0.052
       0.242
       0.365
       0.240
      -0.120
      -0.448
      -0.474
      -0.237
      -0.051
      -0.112
      -0.245
      -0.137
       0.244
       0.587
       0.580
       0.266
      -0.008
       0.001
       0.108
      -0.097
      -0.712
      -1.280
      -1.194
      -0.341
       0.723
       1.259
       1.009
       0.384
      -0.007
       0.052
       0.263
       0.254
      -0.009
      -0.271
      -0.336
      -0.251
      -0.164
      -0.119
      -0.046
       0.093
       0.202
       0.137
      -0.109
      -0.352
      -0.363
      -0.094
       0.243
       0.362
       0.168
      -0.151
      -0.301
      -0.170
       0.089
       0.265
       0.320
       0.359
       0.424
       0.416
       0.235
      -0.062
      -0.307
      -0.391
      -0.347
      -0.278
      -0.249
      -0.257
      -0.251
      -0.170
       0.037
       0.349
       0.631
       0.678
       0.388
      -0.098
      -0.461
      -0.475
      -0.207
       0.058
       0.094
      -0.082
      -0.264
      -0.248
       0.015
       0.388
       0.640
       0.608
       0.312
      -0.093
      -0.438
      -0.612
      -0.552
      -0.280
       0.051
       0.218
       0.111
      -0.125
      -0.190
       0.095
       0.578
       0.856
       0.614
      -0.067
      -0.737
      -0.933
      -0.547
       0.102
       0.548
       0.546
       0.229
      -0.073
      -0.140
       0.000
       0.167
       0.217
       0.114
      -0.087
      -0.295
      -0.411
      -0.370
      -0.175
       0.083
       0.265
       0.260
       0.060
      -0.224
      -0.411
      -0.356
      -0.058
       0.309
       0.505
       0.423
       0.174
      -0.032
      -0.107
      -0.144
      -0.231
      -0.274
      -0.079
       0.344
       0.658
       0.512
      -0.037
      -0.520
      -0.543
      -0.194
       0.093
       0.046
      -0.182
      -0.248
      -0.038
       0.238
       0.323
       0.198
       0.037
      -0.048
      -0.104
      -0.177
      -0.166
       0.059
       0.434
       0.678
       0.541
       0.048
      -0.507
      -0.787
      -0.659
      -0.270
       0.090
       0.209
       0.081
      -0.146
      -0.285
      -0.205
       0.117
       0.547
       0.835
       0.787
       0.425
      -0.026
      -0.328
      -0.406
      -0.365
      -0.361
      -0.435
      -0.461
      -0.293
       0.048
       0.351
       0.423
       0.299
       0.203
       0.296
       0.465
       0.405
      -0.056
      -0.693
      -0.968
      -0.496
       0.529
       1.375
       1.333
       0.301
      -1.108
      -2.017
      -1.887
      -0.845
       0.453
       1.290
       1.359
       0.886
       0.348
       0.056
      -0.016
      -0.049
      -0.134
      -0.207
      -0.201
      -0.157
      -0.150
      -0.149
      -0.031
       0.232
       0.464
       0.415
       0.020
      -0.533
      -0.962
      -1.085
      -0.847
      -0.281
       0.478
       1.135
       1.326
       0.865
      -0.010
      -0.717
      -0.734
      -0.056
       0.757
       1.016
       0.452
      -0.582
      -1.365
      -1.294
      -0.292
       1.085
       1.915
       1.491
      -0.101
      -1.873
      -2.524
      -1.446
       0.670
       2.253
       2.110
       0.446
      -1.305
      -1.709
      -0.502
       1.280
       2.213
       1.559
      -0.320
      -2.347
      -3.430
      -2.978
      -1.084
       1.508
       3.611
       4.114
       2.691
       0.147
      -2.048
      -2.807
      -2.112
      -0.779
       0.353
       0.928
       0.949
       0.482
      -0.285
      -0.806
      -0.404
       0.984
       2.340
       2.203
       0.067
      -2.837
      -4.342
      -3.160
      -0.032
       2.849
       3.576
       1.873
      -0.912
      -2.927
      -3.049
      -1.455
       0.651
       1.880
       1.551
       0.106
      -1.203
      -1.171
       0.535
       3.097
       5.016
       5.041
       2.961
      -0.270
      -3.150
      -4.494
      -3.962
      -2.049
       0.252
       1.841
       1.918
       0.396
      -1.911
      -3.655
      -3.804
      -2.377
      -0.359
       1.167
       1.872
       2.198
       2.636
       3.067
       2.879
       1.671
      -0.193
      -1.760
      -2.206
      -1.470
      -0.258
       0.539
       0.503
      -0.093
      -0.625
      -0.682
      -0.379
      -0.190
      -0.485
      -1.171
      -1.734
      -1.632
      -0.700
       0.735
       2.063
       2.749
       2.596
       1.797
       0.786
      -0.039
      -0.518
      -0.727
      -0.792
      -0.743
      -0.533
      -0.214
      -0.018
      -0.195
      -0.749
      -1.349
      -1.528
      -1.006
       0.088
       1.227
       1.748
       1.291
       0.118
      -0.969
      -1.166
      -0.280
       1.082
       1.913
       1.546
       0.172
      -1.273
      -1.801
      -1.111
       0.230
       1.276
       1.426
       0.783
      -0.049
      -0.466
      -0.276
       0.231
       0.544
       0.304
      -0.469
      -1.403
      -2.007
      -1.943
      -1.214
      -0.171
       0.690
       1.052
       0.987
       0.835
       0.863
       1.016
       1.018
       0.710
       0.257
      -0.003
       0.064
       0.202
       0.001
      -0.671
      -1.492
      -1.947
      -1.742
      -0.978
       0.025
       0.977
       1.698
       2.031
       1.819
       1.019
      -0.152
      -1.257
      -1.851
      -1.727
      -0.998
      -0.008
       0.849
       1.274
       1.162
       0.647
       0.028
      -0.391
      -0.458
      -0.236
       0.040
       0.105
      -0.176
      -0.691
      -1.108
      -1.058
      -0.364
       0.788
       1.876
       2.302
       1.776
       0.535
      -0.799
      -1.648
      -1.820
      -1.488
      -0.890
      -0.127
       0.742
       1.499
       1.793
       1.427
       0.582
      -0.307
      -0.902
      -1.171
      -1.270
      -1.264
      -1.033
      -0.471
       0.285
       0.891
       1.069
       0.819
       0.360
      -0.081
      -0.385
      -0.517
      -0.459
      -0.234
       0.059
       0.280
       0.364
       0.374
       0.418
       0.504
       0.526
       0.379
       0.097
      -0.184
      -0.344
      -0.358
      -0.266
      -0.123
       0.010
       0.070
       0.052
       0.029
       0.061
       0.097
      -0.008
      -0.328
      -0.730
      -0.923
      -0.691
      -0.091
       0.576
       0.998
       1.063
       0.863
       0.532
       0.120
      -0.357
      -0.807
      -1.034
      -0.878
      -0.364
       0.287
       0.805
       1.040
       0.974
       0.636
       0.052
      -0.680
      -1.294
      -1.430
      -0.887
       0.135
       1.081
       1.394
       0.924
       0.035
      -0.688
      -0.881
      -0.609
      -0.200
       0.084
       0.219
       0.311
       0.400
       0.409
       0.268
       0.043
      -0.091
      -0.019
       0.193
       0.331
       0.215
      -0.142
      -0.540
      -0.729
      -0.578
      -0.156
       0.307
       0.552
       0.457
       0.105
      -0.272
      -0.448
      -0.330
      -0.011
       0.290
       0.369
       0.182
      -0.119
      -0.303
      -0.251
      -0.041
       0.146
       0.213
       0.242
       0.381
       0.638
       0.787
       0.541
      -0.149
      -0.974
      -1.447
      -1.262
      -0.514
       0.374
       0.948
       1.002
       0.642
       0.125
      -0.329
      -0.610
      -0.667
      -0.478
      -0.084
       0.379
       0.717
       0.781
       0.544
       0.131
      -0.239
      -0.377
      -0.248
      -0.005
       0.119
      -0.018
      -0.354
      -0.675
      -0.767
      -0.576
      -0.222
       0.111
       0.315
       0.409
       0.484
       0.603
       0.741
       0.796
       0.659
       0.302
      -0.177
      -0.594
      -0.774
      -0.648
      -0.291
       0.114
       0.369
       0.360
       0.115
      -0.224
      -0.484
      -0.551
      -0.413
      -0.146
       0.128
       0.285
       0.261
       0.089
      -0.106
      -0.183
      -0.073
       0.177
       0.448
       0.632
       0.674
       0.556
       0.265
      -0.169
      -0.613
      -0.862
      -0.789
      -0.470
      -0.122
       0.081
       0.129
       0.139
       0.211
       0.341
       0.442
       0.433
       0.298
       0.074
      -0.168
      -0.338
      -0.356
      -0.222
      -0.039
       0.072
       0.095
       0.127
       0.242
       0.372
       0.342
       0.051
      -0.386
      -0.689
      -0.638
      -0.274
       0.125
       0.274
       0.108
      -0.187
      -0.340
      -0.210
       0.125
       0.455
       0.596
       0.516
       0.327
       0.178
       0.129
       0.093
      -0.078
      -0.434
      -0.818
      -0.957
      -0.683
      -0.104
       0.466
       0.750
       0.716
       0.556
       0.464
       0.433
       0.281
      -0.126
      -0.685
      -1.097
      -1.093
      -0.644
       0.017
       0.560
       0.772
       0.657
       0.376
       0.098
      -0.095
      -0.201
      -0.235
      -0.200
      -0.110
      -0.013
       0.035
       0.023
       0.004
       0.050
       0.181
       0.324
       0.350
       0.163
      -0.199
      -0.557
      -0.688
      -0.481
      -0.028
       0.436
       0.685
       0.630
       0.351
       0.025
      -0.187
      -0.231
      -0.186
      -0.185
      -0.299
      -0.459
      -0.506
      -0.311
       0.109
       0.592
       0.918
       0.931
       0.618
       0.100
      -0.428
      -0.781
      -0.856
      -0.667
      -0.331
       0.008
       0.277
