Origin Time       26/01/2011 03:06:45
Lat.              29.0 N	
Long.             77.2 E	
Depth (Km)         10.0
Magnitude         3.2
 Region           SONIPAT-Bagpat-Border                                            
 Above details taken from IMD 
   
Station Code      ANC
Station Lat.       28.539
Station Long.      77.264
Station Height(m)  231.0
Site Class        C   Vs30 between 200 m/sec to 375 m/sec *  
Record Time       26.01.2011 03:06:34.424
Sampling Rate     200. Hz
 Record Duration   80.180 Sec.
 Direction         Vert. (Up positive)
Max. Acceleration     -1.066 cm/sec**2
     
  * For reference see Site Classification link of website 
     
 Base Line Corrected and Low Pass Filtered (Cut Off at 35 Hz) Time History
 Acceleration data in cm/sec**2
    
[...]
       0.165
       0.230
       0.229
       0.152
       0.018
      -0.128
      -0.229
      -0.241
      -0.162
      -0.034
       0.091
       0.175
       0.204
       0.177
       0.095
      -0.020
      -0.115
      -0.126
      -0.028
       0.124
       0.219
       0.171
      -0.011
      -0.224
      -0.346
      -0.314
      -0.150
       0.074
       0.276
       0.397
       0.399
       0.277
       0.073
      -0.133
      -0.252
      -0.237
      -0.106
       0.068
       0.199
       0.226
       0.135
      -0.035
      -0.210
      -0.314
      -0.307
      -0.203
      -0.063
       0.049
       0.105
       0.113
       0.104
       0.098
       0.095
       0.091
       0.086
       0.084
       0.088
       0.088
       0.064
      -0.002
      -0.101
      -0.192
      -0.213
      -0.123
       0.066
       0.279
       0.411
       0.389
       0.207
      -0.064
      -0.310
      -0.428
      -0.377
      -0.198
       0.017
       0.174
       0.233
       0.208
       0.146
       0.081
       0.023
      -0.037
      -0.106
      -0.173
      -0.212
      -0.191
      -0.101
       0.038
       0.171
       0.242
       0.222
       0.130
       0.021
      -0.053
      -0.072
      -0.061
      -0.056
      -0.067
      -0.069
      -0.029
       0.050
       0.119
       0.124
       0.050
      -0.063
      -0.146
      -0.151
      -0.073
       0.056
       0.180
       0.250
       0.236
       0.152
       0.042
      -0.038
      -0.056
      -0.026
       0.004
      -0.018
      -0.114
      -0.254
      -0.361
      -0.357
      -0.210
       0.031
       0.259
       0.367
       0.314
       0.146
      -0.031
      -0.117
      -0.073
       0.054
       0.167
       0.180
       0.084
      -0.056
      -0.143
      -0.125
      -0.027
       0.077
       0.116
       0.067
      -0.045
      -0.171
      -0.256
      -0.254
      -0.146
       0.044
       0.245
       0.372
       0.378
       0.279
       0.131
      -0.019
      -0.155
      -0.273
      -0.352
      -0.346
      -0.223
       0.000
       0.245
       0.408
       0.410
       0.242
      -0.022
      -0.260
      -0.357
      -0.271
      -0.053
       0.177
       0.303
       0.270
       0.106
      -0.100
      -0.249
      -0.273
      -0.169
       0.009
       0.166
       0.214
       0.120
      -0.071
      -0.251
      -0.305
      -0.174
       0.100
       0.389
       0.552
       0.508
       0.281
      -0.017
      -0.255
      -0.354
      -0.318
      -0.204
      -0.085
      -0.005
       0.027
       0.026
       0.015
       0.010
       0.018
       0.035
       0.052
       0.061
       0.052
       0.017
      -0.044
      -0.120
      -0.176
      -0.172
      -0.081
       0.079
       0.246
       0.337
       0.296
       0.129
      -0.095
      -0.266
      -0.295
      -0.165
       0.047
       0.212
       0.230
       0.104
      -0.066
      -0.156
      -0.111
       0.024
       0.147
       0.182
       0.124
       0.023
      -0.064
      -0.116
      -0.145
      -0.171
      -0.197
      -0.206
      -0.176
      -0.103
      -0.008
       0.079
       0.136
       0.165
       0.187
       0.216
       0.248
       0.255
       0.203
       0.082
      -0.076
      -0.198
      -0.217
      -0.111
       0.074
       0.241
       0.302
       0.226
       0.048
      -0.163
      -0.341
      -0.443
      -0.445
      -0.341
      -0.151
       0.082
       0.304
       0.458
       0.501
       0.412
       0.211
      -0.036
      -0.237
      -0.322
      -0.287
      -0.186
      -0.087
      -0.024
       0.019
       0.074
       0.149
       0.217
       0.236
       0.178
       0.048
      -0.115
      -0.246
      -0.283
      -0.196
      -0.014
       0.178
       0.282
       0.240
       0.064
      -0.169
      -0.354
      -0.414
      -0.327
      -0.131
       0.105
       0.315
       0.452
       0.487
       0.400
       0.196
      -0.074
      -0.321
      -0.450
      -0.414
      -0.237
      -0.009
       0.169
       0.229
       0.169
       0.051
      -0.042
      -0.049
       0.038
       0.174
       0.284
       0.291
       0.156
      -0.093
      -0.355
      -0.502
      -0.444
      -0.198
       0.120
       0.360
       0.418
       0.282
       0.031
      -0.217
      -0.353
      -0.326
      -0.163
       0.048
       0.204
       0.240
       0.169
       0.064
       0.005
       0.015
       0.051
       0.039
      -0.055
      -0.191
      -0.273
      -0.218
      -0.025
       0.212
       0.356
       0.321
       0.130
      -0.096
      -0.224
      -0.196
      -0.063
       0.067
       0.109
       0.066
       0.005
       0.004
       0.081
       0.191
       0.259
       0.231
       0.099
      -0.100
      -0.303
      -0.433
      -0.418
      -0.233
       0.077
       0.386
       0.550
       0.480
       0.197
      -0.176
      -0.474
      -0.569
      -0.430
      -0.134
       0.177
       0.370
       0.392
       0.277
       0.108
      -0.043
      -0.145
      -0.196
      -0.197
      -0.143
      -0.036
       0.099
       0.210
       0.244
       0.175
       0.034
      -0.103
      -0.151
      -0.076
       0.076
       0.197
       0.187
       0.032
      -0.179
      -0.311
      -0.275
      -0.088
       0.148
       0.316
       0.352
       0.250
       0.053
      -0.174
      -0.352
      -0.412
      -0.330
      -0.154
       0.030
       0.155
       0.212
       0.232
       0.232
       0.191
       0.083
      -0.072
      -0.196
      -0.201
      -0.063
       0.150
       0.312
       0.323
       0.167
      -0.079
      -0.301
      -0.406
      -0.364
      -0.199
       0.030
       0.248
       0.377
       0.362
       0.200
      -0.036
      -0.227
      -0.275
      -0.173
      -0.008
       0.098
       0.074
      -0.057
      -0.195
      -0.236
      -0.135
       0.065
       0.268
       0.377
       0.345
       0.192
      -0.015
      -0.184
      -0.245
      -0.179
      -0.023
       0.151
       0.268
       0.274
       0.147
      -0.086
      -0.342
      -0.501
      -0.470
      -0.240
       0.094
       0.380
       0.486
       0.365
       0.080
      -0.226
      -0.397
      -0.344
      -0.097
       0.214
       0.438
       0.489
       0.372
       0.162
      -0.063
      -0.252
      -0.378
      -0.419
      -0.360
      -0.214
      -0.029
       0.130
       0.222
       0.249
       0.240
       0.216
       0.176
       0.106
       0.006
      -0.103
      -0.196
      -0.252
      -0.264
      -0.236
      -0.182
      -0.120
      -0.064
      -0.006
       0.076
       0.192
       0.320
       0.399
       0.366
       0.207
      -0.023
      -0.220
      -0.292
      -0.225
      -0.081
       0.055
       0.134
       0.164
       0.174
       0.170
       0.136
       0.056
      -0.046
      -0.118
      -0.119
      -0.059
       0.007
       0.021
      -0.032
      -0.112
      -0.158
      -0.137
      -0.059
       0.035
       0.113
       0.170
       0.211
       0.232
       0.210
       0.119
      -0.039
      -0.222
      -0.360
      -0.383
      -0.259
      -0.018
       0.244
       0.402
       0.372
       0.167
      -0.101
      -0.292
      -0.312
      -0.167
       0.057
       0.243
       0.309
       0.240
       0.084
      -0.081
      -0.187
      -0.198
      -0.114
       0.031
       0.170
       0.223
       0.134
      -0.080
      -0.317
      -0.446
      -0.382
      -0.145
       0.151
       0.373
       0.426
       0.297
       0.046
      -0.211
      -0.353
      -0.304
      -0.077
       0.230
       0.479
       0.565
       0.457
       0.209
      -0.070
      -0.264
      -0.308
      -0.215
      -0.063
       0.063
       0.123
       0.126
       0.091
       0.032
      -0.043
      -0.109
      -0.132
      -0.100
      -0.045
      -0.025
      -0.071
      -0.148
      -0.179
      -0.105
       0.056
       0.215
       0.267
       0.174
       0.000
      -0.133
      -0.129
       0.017
       0.212
       0.331
       0.293
       0.103
      -0.150
      -0.343
      -0.381
      -0.247
      -0.016
       0.195
       0.286
       0.237
       0.100
      -0.040
      -0.118
      -0.105
      -0.015
       0.098
       0.161
       0.112
      -0.055
      -0.267
      -0.409
      -0.389
      -0.199
       0.091
       0.367
       0.530
       0.530
       0.384
       0.157
      -0.070
      -0.245
      -0.354
      -0.410
      -0.407
      -0.322
      -0.139
       0.107
       0.327
       0.423
       0.345
       0.123
      -0.152
      -0.366
      -0.439
      -0.351
      -0.142
       0.105
       0.293
       0.352
       0.261
       0.070
      -0.122
      -0.213
      -0.154
       0.023
       0.221
       0.331
       0.282
       0.078
      -0.200
      -0.423
      -0.471
      -0.294
       0.061
       0.464
       0.760
       0.832
       0.645
       0.262
      -0.190
      -0.557
      -0.711
      -0.594
      -0.243
       0.219
       0.614
       0.789
       0.681
       0.354
      -0.038
      -0.338
      -0.455
      -0.394
      -0.232
      -0.070
       0.012
      -0.012
      -0.103
      -0.184
      -0.183
      -0.083
       0.069
       0.199
       0.250
       0.216
       0.124
       0.011
      -0.108
      -0.220
      -0.291
      -0.269
      -0.121
       0.111
       0.313
       0.370
       0.243
       0.001
      -0.227
      -0.331
      -0.265
      -0.059
       0.200
       0.402
       0.455
       0.335
       0.095
      -0.179
      -0.419
      -0.589
      -0.663
      -0.600
      -0.376
      -0.027
       0.336
       0.581
       0.630
       0.500
       0.268
       0.024
      -0.172
      -0.284
      -0.284
      -0.159
       0.063
       0.292
       0.413
       0.347
       0.113
      -0.170
      -0.347
      -0.316
      -0.101
       0.164
       0.317
       0.268
       0.042
      -0.246
      -0.454
      -0.475
      -0.281
       0.062
       0.425
       0.662
       0.680
       0.469
       0.102
      -0.295
      -0.583
      -0.648
      -0.459
      -0.094
       0.274
       0.466
       0.393
       0.105
      -0.245
      -0.499
      -0.572
      -0.468
      -0.251
       0.001
       0.219
       0.361
       0.414
       0.402
       0.357
       0.300
       0.228
       0.131
       0.023
      -0.061
      -0.092
      -0.078
      -0.051
      -0.035
      -0.025
      -0.008
       0.010
       0.000
      -0.058
      -0.147
      -0.207
      -0.176
      -0.042
       0.128
       0.232
       0.204
       0.071
      -0.066
      -0.117
      -0.063
       0.045
       0.142
       0.192
       0.191
       0.141
       0.040
      -0.108
      -0.283
      -0.438
      -0.511
      -0.443
      -0.217
       0.117
       0.448
       0.647
       0.634
       0.412
       0.073
      -0.244
      -0.416
      -0.398
      -0.226
       0.015
       0.242
       0.407
       0.481
       0.447
       0.305
       0.099
      -0.085
      -0.154
      -0.075
       0.091
       0.209
       0.145
      -0.141
      -0.552
      -0.893
      -0.990
      -0.792
      -0.394
       0.042
       0.390
       0.614
       0.729
       0.747
       0.648
       0.414
       0.067
      -0.308
      -0.598
      -0.707
      -0.609
      -0.361
      -0.077
       0.145
       0.271
       0.330
       0.358
       0.357
       0.297
       0.166
      -0.005
      -0.154
      -0.234
      -0.238
      -0.192
      -0.132
      -0.079
      -0.031
       0.029
       0.114
       0.222
       0.321
       0.363
       0.310
       0.165
      -0.013
      -0.137
      -0.143
      -0.031
       0.127
       0.225
       0.177
      -0.034
      -0.347
      -0.635
      -0.766
      -0.655
      -0.310
       0.165
       0.605
       0.855
       0.828
       0.540
       0.098
      -0.344
      -0.635
      -0.673
      -0.432
       0.022
       0.529
       0.872
       0.854
       0.425
      -0.249
      -0.835
      -1.011
      -0.674
      -0.009
       0.616
       0.873
       0.658
       0.107
      -0.504
      -0.908
      -0.950
      -0.626
      -0.068
       0.503
       0.861
       0.863
       0.513
      -0.026
      -0.500
      -0.676
      -0.457
       0.063
       0.637
       0.989
       0.942
       0.515
      -0.098
      -0.622
      -0.852
      -0.742
      -0.409
      -0.035
       0.237
       0.348
       0.314
       0.185
       0.020
      -0.119
      -0.176
      -0.125
       0.008
       0.144
       0.183
       0.056
      -0.209
      -0.474
      -0.551
      -0.335
       0.094
       0.494
       0.612
       0.367
      -0.101
      -0.519
      -0.652
      -0.424
       0.055
       0.558
       0.853
       0.807
       0.438
      -0.097
      -0.580
      -0.819
      -0.730
      -0.370
       0.085
       0.424
       0.509
       0.351
       0.102
      -0.051
      -0.008
       0.188
       0.388
       0.438
       0.266
      -0.074
      -0.431
      -0.626
      -0.555
      -0.255
       0.115
       0.377
       0.442
       0.341
       0.157
      -0.055
      -0.285
      -0.502
      -0.609
      -0.489
      -0.110
       0.402
       0.810
       0.902
       0.615
       0.059
      -0.542
      -0.964
      -1.066
      -0.839
      -0.399
       0.061
       0.357
       0.413
       0.303
       0.201
       0.264
       0.520
       0.834
       0.978
       0.772
       0.223
      -0.448
      -0.916
      -0.950
      -0.562
      -0.003
       0.408
       0.463
       0.175
      -0.265
      -0.607
      -0.680
      -0.467
      -0.102
       0.230
       0.401
       0.407
       0.338
       0.287
       0.279
       0.276
       0.218
       0.068
      -0.166
      -0.433
      -0.638
      -0.679
      -0.505
      -0.170
       0.195
       0.464
       0.592
       0.602
       0.526
       0.357
       0.079
      -0.266
      -0.548
      -0.607
      -0.367
       0.084
       0.529
       0.744
       0.634
       0.275
      -0.151
      -0.465
      -0.559
      -0.427
      -0.150
       0.138
       0.301
       0.269
       0.073
      -0.168
      -0.325
      -0.325
      -0.193
      -0.018
       0.098
       0.094
      -0.024
      -0.194
      -0.319
      -0.314
      -0.145
       0.151
       0.480
       0.737
       0.843
       0.765
       0.511
       0.127
      -0.302
      -0.647
      -0.777
      -0.628
      -0.256
       0.176
       0.471
       0.502
       0.268
      -0.103
      -0.430
      -0.565
      -0.461
      -0.181
       0.141
       0.364
       0.401
       0.258
       0.026
      -0.167
      -0.234
      -0.176
      -0.057
       0.051
       0.122
       0.165
       0.186
       0.174
       0.117
       0.026
      -0.067
      -0.132
      -0.158
      -0.144
      -0.093
      -0.020
       0.036
       0.036
      -0.016
      -0.056
       0.012
       0.224
       0.495
       0.643
       0.506
       0.073
      -0.471
      -0.850
      -0.856
      -0.485
       0.064
       0.501
       0.600
       0.330
      -0.133
      -0.507
      -0.572
      -0.301
       0.133
       0.469
       0.514
       0.241
      -0.203
      -0.583
      -0.699
      -0.488
      -0.048
       0.426
       0.742
       0.794
       0.589
       0.213
      -0.206
      -0.541
      -0.694
      -0.625
      -0.362
       0.013
       0.391
       0.671
       0.780
       0.694
       0.451
       0.135
      -0.151
      -0.334
      -0.395
      -0.366
      -0.306
      -0.269
      -0.268
      -0.271
      -0.224
      -0.101
       0.068
       0.207
       0.251
       0.189
       0.071
      -0.016
       0.001
       0.129
       0.294
       0.378
       0.308
       0.113
      -0.086
      -0.169
      -0.103
       0.047
       0.166
       0.168
       0.052
      -0.103
      -0.192
      -0.159
      -0.040
       0.079
       0.123
       0.070
      -0.059
      -0.227
      -0.387
      -0.475
      -0.431
      -0.232
       0.073
       0.378
       0.571
       0.587
       0.433
       0.181
      -0.071
      -0.248
      -0.314
      -0.271
      -0.152
      -0.010
       0.090
       0.102
       0.029
      -0.067
      -0.102
      -0.031
       0.121
       0.270
       0.325
       0.246
       0.061
      -0.149
      -0.300
      -0.348
      -0.301
      -0.197
      -0.080
       0.024
       0.096
       0.130
       0.135
       0.127
       0.122
       0.113
       0.083
       0.023
      -0.039
      -0.062
      -0.019
       0.071
       0.151
       0.170
       0.116
       0.019
      -0.089
      -0.193
      -0.286
      -0.334
      -0.273
      -0.062
       0.249
       0.504
       0.538
       0.302
      -0.088
      -0.429
      -0.561
      -0.453
      -0.193
       0.086
       0.270
       0.302
       0.190
       0.008
      -0.138
      -0.162
      -0.054
       0.106
       0.201
       0.157
       0.000
      -0.155
      -0.197
      -0.105
       0.044
       0.138
       0.116
       0.009
      -0.105
      -0.161
      -0.149
      -0.099
      -0.045
       0.006
       0.063
       0.123
       0.164
       0.154
       0.094
       0.035
       0.050
       0.167
       0.316
       0.365
       0.218
      -0.093
      -0.419
      -0.595
      -0.546
      -0.312
       0.009
       0.320
       0.544
       0.615
       0.485
       0.173
      -0.219
      -0.529
      -0.619
      -0.455
      -0.130
       0.187
       0.336
       0.259
       0.028
      -0.206
      -0.312
      -0.263
      -0.130
       0.001
       0.097
       0.192
       0.319
       0.457
       0.527
       0.450
       0.210
      -0.120
      -0.417
      -0.568
      -0.523
      -0.325
      -0.082
       0.096
       0.159
       0.143
       0.136
       0.188
       0.260
       0.241
       0.053
      -0.252
      -0.500
      -0.511
      -0.230
       0.227
       0.643
       0.829
       0.716
       0.382
      -0.007
      -0.288
      -0.393
      -0.373
      -0.341
      -0.367
      -0.416
      -0.385
      -0.208
       0.072
       0.328
       0.444
       0.387
       0.213
       0.014
      -0.135
      -0.194
      -0.163
      -0.077
       0.006
       0.041
       0.024
      -0.007
      -0.013
       0.020
       0.076
       0.130
       0.164
       0.157
       0.097
      -0.007
      -0.121
      -0.203
      -0.230
      -0.214
      -0.176
      -0.126
      -0.046
       0.077
       0.221
       0.314
       0.283
       0.115
      -0.097
      -0.215
      -0.162
       0.007
       0.149
       0.163
       0.074
      -0.002
       0.022
       0.117
       0.172
       0.094
      -0.100
      -0.296
      -0.371
      -0.286
      -0.110
       0.039
       0.078
       0.017
      -0.056
      -0.048
       0.078
       0.280
       0.471
       0.567
       0.525
       0.341
       0.048
      -0.290
      -0.583
      -0.740
      -0.693
      -0.423
       0.016
       0.489
       0.806
