Origin Time       26/01/2011 03:06:45
Lat.              29.0 N	
Long.             77.2 E	
Depth (Km)         10.0
Magnitude         3.2
 Region           SONIPAT-Bagpat-Border                                            
 Above details taken from IMD 
     
Station Code      ANC
Station Lat.       28.539  N
Station Long.      77.264  E
Station Height(m)  231.0
Site Class        C   Vs30 between 200 m/sec to 375 m/sec *  
Record Time       26.01.2011 03:06:34.424
Sampling Rate     200. Hz
 Record Duration   80.180 Sec.
 Direction         E-W (E positive)
Max. Acceleration      2.883 cm/sec**2
     
  * For reference see Site Classification link of website 
     
 Base Line Corrected and Low Pass Filtered (Cut Off at 35 Hz) Time History
 Acceleration data in cm/sec**2
    
[...]
       0.052
       0.233
       0.318
       0.267
       0.104
      -0.084
      -0.181
      -0.113
       0.112
       0.394
       0.589
       0.582
       0.362
       0.022
      -0.286
      -0.445
      -0.435
      -0.329
      -0.234
      -0.219
      -0.276
      -0.338
      -0.320
      -0.174
       0.077
       0.342
       0.513
       0.512
       0.341
       0.073
      -0.184
      -0.343
      -0.365
      -0.265
      -0.098
       0.072
       0.198
       0.264
       0.271
       0.224
       0.116
      -0.051
      -0.243
      -0.387
      -0.406
      -0.268
      -0.022
       0.221
       0.356
       0.346
       0.225
       0.063
      -0.095
      -0.232
      -0.341
      -0.391
      -0.347
      -0.203
       0.001
       0.203
       0.362
       0.468
       0.513
       0.469
       0.309
       0.047
      -0.247
      -0.475
      -0.568
      -0.515
      -0.362
      -0.170
       0.005
       0.130
       0.190
       0.191
       0.149
       0.078
      -0.027
      -0.171
      -0.324
      -0.403
      -0.313
      -0.022
       0.386
       0.724
       0.806
       0.552
       0.057
      -0.451
      -0.725
      -0.627
      -0.207
       0.330
       0.726
       0.799
       0.528
       0.042
      -0.452
      -0.770
      -0.830
      -0.664
      -0.384
      -0.115
       0.071
       0.176
       0.244
       0.312
       0.369
       0.367
       0.272
       0.102
      -0.077
      -0.196
      -0.238
      -0.240
      -0.244
      -0.249
      -0.207
      -0.077
       0.130
       0.338
       0.461
       0.458
       0.353
       0.199
       0.038
      -0.110
      -0.235
      -0.313
      -0.312
      -0.222
      -0.078
       0.053
       0.116
       0.102
       0.045
      -0.019
      -0.075
      -0.124
      -0.150
      -0.116
      -0.007
       0.134
       0.215
       0.165
       0.002
      -0.164
      -0.213
      -0.113
       0.051
       0.148
       0.104
      -0.046
      -0.194
      -0.238
      -0.145
       0.042
       0.232
       0.332
       0.286
       0.104
      -0.143
      -0.339
      -0.381
      -0.239
       0.024
       0.274
       0.383
       0.301
       0.087
      -0.132
      -0.234
      -0.174
      -0.003
       0.167
       0.235
       0.166
       0.007
      -0.158
      -0.253
      -0.245
      -0.146
      -0.002
       0.126
       0.190
       0.171
       0.091
      -0.009
      -0.094
      -0.155
      -0.198
      -0.223
      -0.201
      -0.099
       0.082
       0.281
       0.406
       0.391
       0.238
       0.009
      -0.214
      -0.365
      -0.407
      -0.323
      -0.126
       0.126
       0.332
       0.387
       0.244
      -0.043
      -0.337
      -0.489
      -0.423
      -0.171
       0.150
       0.411
       0.527
       0.482
       0.306
       0.061
      -0.184
      -0.357
      -0.410
      -0.332
      -0.160
       0.044
       0.216
       0.312
       0.308
       0.199
       0.012
      -0.191
      -0.330
      -0.359
      -0.303
      -0.229
      -0.179
      -0.121
       0.018
       0.252
       0.483
       0.557
       0.392
       0.065
      -0.230
      -0.326
      -0.202
       0.017
       0.168
       0.168
       0.038
      -0.138
      -0.282
      -0.349
      -0.315
      -0.170
       0.063
       0.317
       0.484
       0.476
       0.281
      -0.023
      -0.305
      -0.443
      -0.384
      -0.163
       0.110
       0.302
       0.316
       0.137
      -0.158
      -0.427
      -0.533
      -0.411
      -0.113
       0.224
       0.455
       0.515
       0.435
       0.297
       0.164
       0.044
      -0.089
      -0.243
      -0.382
      -0.437
      -0.353
      -0.130
       0.175
       0.469
       0.648
       0.631
       0.396
       0.006
      -0.387
      -0.612
      -0.569
      -0.297
       0.039
       0.248
       0.225
       0.014
      -0.236
      -0.371
      -0.314
      -0.100
       0.162
       0.348
       0.377
       0.242
       0.009
      -0.217
      -0.338
      -0.313
      -0.172
      -0.001
       0.112
       0.128
       0.082
       0.054
       0.117
       0.281
       0.478
       0.590
       0.517
       0.245
      -0.127
      -0.439
      -0.576
      -0.536
      -0.417
      -0.330
      -0.313
      -0.312
      -0.237
      -0.031
       0.275
       0.575
       0.735
       0.662
       0.360
      -0.063
      -0.443
      -0.639
      -0.594
      -0.345
       0.017
       0.378
       0.624
       0.657
       0.431
       0.000
      -0.468
      -0.767
      -0.755
      -0.450
      -0.013
       0.350
       0.502
       0.425
       0.206
      -0.038
      -0.210
      -0.252
      -0.151
       0.057
       0.276
       0.382
       0.294
       0.037
      -0.252
      -0.412
      -0.362
      -0.159
       0.055
       0.161
       0.141
       0.072
       0.035
       0.042
       0.031
      -0.067
      -0.254
      -0.448
      -0.537
      -0.453
      -0.206
       0.127
       0.438
       0.626
       0.618
       0.405
       0.066
      -0.235
      -0.327
      -0.139
       0.234
       0.574
       0.672
       0.461
       0.046
      -0.382
      -0.660
      -0.728
      -0.621
      -0.422
      -0.212
      -0.056
       0.017
       0.020
       0.009
       0.054
       0.182
       0.346
       0.455
       0.439
       0.311
       0.155
       0.055
       0.015
      -0.035
      -0.169
      -0.380
      -0.570
      -0.619
      -0.469
      -0.169
       0.153
       0.373
       0.427
       0.339
       0.193
       0.072
       0.008
      -0.031
      -0.099
      -0.214
      -0.322
      -0.336
      -0.209
       0.017
       0.237
       0.365
       0.391
       0.366
       0.338
       0.301
       0.211
       0.041
      -0.185
      -0.394
      -0.516
      -0.512
      -0.380
      -0.147
       0.126
       0.349
       0.424
       0.302
       0.024
      -0.289
      -0.502
      -0.543
      -0.434
      -0.262
      -0.109
      -0.012
       0.045
       0.104
       0.202
       0.347
       0.518
       0.673
       0.770
       0.782
       0.693
       0.484
       0.129
      -0.378
      -0.966
      -1.469
      -1.676
      -1.441
      -0.779
       0.109
       0.912
       1.345
       1.274
       0.780
       0.114
      -0.410
      -0.570
      -0.330
       0.135
       0.533
       0.609
       0.275
      -0.325
      -0.892
      -1.122
      -0.880
      -0.275
       0.400
       0.837
       0.878
       0.586
       0.175
      -0.128
      -0.203
      -0.074
       0.133
       0.276
       0.267
       0.109
      -0.115
      -0.297
      -0.363
      -0.322
      -0.262
      -0.284
      -0.426
      -0.609
      -0.674
      -0.479
      -0.013
       0.568
       1.004
       1.079
       0.749
       0.180
      -0.345
      -0.588
      -0.483
      -0.153
       0.184
       0.348
       0.294
       0.117
      -0.025
      -0.016
       0.139
       0.323
       0.391
       0.280
       0.053
      -0.157
      -0.255
      -0.245
      -0.208
      -0.211
      -0.251
      -0.262
      -0.182
      -0.007
       0.200
       0.349
       0.369
       0.238
      -0.018
      -0.332
      -0.606
      -0.737
      -0.653
      -0.359
       0.059
       0.470
       0.772
       0.929
       0.944
       0.812
       0.505
       0.017
      -0.575
      -1.100
      -1.368
      -1.280
      -0.892
      -0.373
       0.096
       0.425
       0.630
       0.769
       0.865
       0.870
       0.713
       0.374
      -0.080
      -0.507
      -0.760
      -0.768
      -0.557
      -0.229
       0.099
       0.336
       0.428
       0.349
       0.123
      -0.158
      -0.351
      -0.331
      -0.077
       0.286
       0.545
       0.530
       0.219
      -0.241
      -0.623
      -0.741
      -0.538
      -0.111
       0.333
       0.578
       0.498
       0.140
      -0.304
      -0.594
      -0.586
      -0.311
       0.054
       0.316
       0.392
       0.357
       0.357
       0.476
       0.660
       0.748
       0.597
       0.186
      -0.360
      -0.853
      -1.150
      -1.213
      -1.102
      -0.900
      -0.644
      -0.314
       0.126
       0.661
       1.193
       1.567
       1.649
       1.405
       0.926
       0.378
      -0.096
      -0.440
      -0.683
      -0.877
      -1.038
      -1.127
      -1.093
      -0.920
      -0.640
      -0.310
       0.025
       0.339
       0.611
       0.796
       0.837
       0.702
       0.418
       0.075
      -0.220
      -0.399
      -0.457
      -0.430
      -0.356
      -0.254
      -0.126
       0.019
       0.164
       0.295
       0.415
       0.531
       0.641
       0.724
       0.763
       0.750
       0.679
       0.526
       0.258
      -0.129
      -0.565
      -0.918
      -1.057
      -0.937
      -0.646
      -0.361
      -0.246
      -0.354
      -0.591
      -0.778
      -0.749
      -0.442
       0.067
       0.591
       0.921
       0.930
       0.637
       0.192
      -0.214
      -0.440
      -0.439
      -0.225
       0.161
       0.661
       1.173
       1.536
       1.579
       1.207
       0.473
      -0.431
      -1.254
      -1.794
      -1.975
      -1.848
      -1.529
      -1.123
      -0.686
      -0.233
       0.223
       0.662
       1.064
       1.420
       1.708
       1.860
       1.763
       1.316
       0.518
      -0.480
      -1.414
      -2.023
      -2.167
      -1.879
      -1.328
      -0.717
      -0.185
       0.242
       0.620
       1.013
       1.412
       1.723
       1.815
       1.611
       1.142
       0.534
      -0.066
      -0.570
      -0.979
      -1.342
      -1.677
      -1.917
      -1.932
      -1.618
      -0.984
      -0.168
       0.624
       1.227
       1.568
       1.659
       1.550
       1.284
       0.894
       0.422
      -0.070
      -0.506
      -0.823
      -0.986
      -0.996
      -0.890
      -0.731
      -0.586
      -0.485
      -0.391
      -0.222
       0.086
       0.505
       0.908
       1.142
       1.117
       0.868
       0.528
       0.243
       0.068
      -0.053
      -0.223
      -0.476
      -0.728
      -0.828
      -0.676
      -0.300
       0.162
       0.551
       0.769
       0.789
       0.619
       0.271
      -0.218
      -0.754
      -1.183
      -1.349
      -1.178
      -0.726
      -0.160
       0.320
       0.575
       0.584
       0.441
       0.287
       0.231
       0.305
       0.469
       0.640
       0.728
       0.659
       0.407
       0.019
      -0.389
      -0.686
      -0.796
      -0.722
      -0.516
      -0.232
       0.089
       0.387
       0.559
       0.510
       0.237
      -0.132
      -0.408
      -0.464
      -0.315
      -0.079
       0.131
       0.265
       0.307
       0.226
      -0.016
      -0.382
      -0.706
      -0.757
      -0.410
       0.219
       0.802
       0.991
       0.658
      -0.010
      -0.611
      -0.780
      -0.418
       0.246
       0.784
       0.822
       0.270
      -0.604
      -1.313
      -1.422
      -0.804
       0.279
       1.325
       1.868
       1.710
       0.979
       0.011
      -0.849
      -1.390
      -1.570
      -1.450
      -1.116
      -0.627
      -0.024
       0.635
       1.229
       1.585
       1.546
       1.066
       0.274
      -0.556
      -1.127
      -1.258
      -0.976
      -0.492
      -0.083
       0.063
      -0.055
      -0.270
      -0.370
      -0.242
       0.060
       0.372
       0.557
       0.603
       0.597
       0.618
       0.642
       0.565
       0.318
      -0.051
      -0.391
      -0.559
      -0.527
      -0.393
      -0.297
      -0.310
      -0.399
      -0.476
      -0.465
      -0.338
      -0.100
       0.214
       0.542
       0.796
       0.892
       0.803
       0.575
       0.299
       0.042
      -0.187
      -0.422
      -0.689
      -0.951
      -1.112
      -1.063
      -0.760
      -0.269
       0.262
       0.667
       0.847
       0.786
       0.541
       0.204
      -0.120
      -0.333
      -0.373
      -0.250
      -0.042
       0.140
       0.217
       0.187
       0.108
       0.054
       0.064
       0.137
       0.237
       0.321
       0.344
       0.272
       0.092
      -0.169
      -0.445
      -0.655
      -0.743
      -0.703
      -0.561
      -0.338
      -0.047
       0.275
       0.552
       0.691
       0.654
       0.490
       0.296
       0.139
      -0.008
      -0.235
      -0.590
      -0.991
      -1.239
      -1.126
      -0.583
       0.257
       1.113
       1.690
       1.807
       1.468
       0.852
       0.222
      -0.203
      -0.351
      -0.313
      -0.271
      -0.373
      -0.648
      -0.988
      -1.220
      -1.208
      -0.924
      -0.453
       0.053
       0.452
       0.654
       0.647
       0.489
       0.279
       0.121
       0.080
       0.160
       0.296
       0.396
       0.382
       0.236
      -0.010
      -0.296
      -0.565
      -0.752
      -0.776
      -0.558
      -0.096
       0.477
       0.912
       0.967
       0.570
      -0.118
      -0.785
      -1.146
      -1.084
      -0.654
      -0.007
       0.699
       1.300
       1.619
       1.495
       0.867
      -0.147
      -1.264
      -2.146
      -2.517
      -2.244
      -1.359
      -0.050
       1.355
       2.450
       2.883
       2.513
       1.501
       0.251
      -0.785
      -1.321
      -1.329
      -0.988
      -0.541
      -0.191
      -0.047
      -0.123
      -0.338
      -0.546
      -0.583
      -0.357
       0.094
       0.607
       0.980
       1.080
       0.900
       0.535
       0.103
      -0.305
      -0.640
      -0.860
      -0.920
      -0.784
      -0.470
      -0.069
       0.271
       0.416
       0.336
       0.130
      -0.023
       0.013
       0.237
       0.509
       0.649
       0.550
       0.235
      -0.172
      -0.519
      -0.688
      -0.637
      -0.408
      -0.127
       0.060
       0.061
      -0.087
      -0.246
      -0.277
      -0.146
       0.049
       0.176
       0.177
       0.120
       0.129
       0.272
       0.496
       0.669
       0.668
       0.453
       0.070
      -0.382
      -0.781
      -1.016
      -0.999
      -0.711
      -0.222
       0.321
       0.753
       0.972
       0.966
       0.788
       0.489
       0.107
      -0.324
      -0.732
      -1.016
      -1.086
      -0.916
      -0.561
      -0.140
       0.220
       0.436
       0.502
       0.477
       0.458
       0.526
       0.687
       0.857
       0.887
       0.647
       0.117
      -0.575
      -1.196
      -1.522
      -1.453
      -1.051
      -0.494
       0.020
       0.369
       0.530
       0.554
       0.521
       0.482
       0.437
       0.350
       0.192
      -0.011
      -0.178
      -0.228
      -0.142
       0.009
       0.102
       0.036
      -0.204
      -0.543
      -0.850
      -0.990
      -0.862
      -0.431
       0.234
       0.958
       1.496
       1.625
       1.260
       0.523
      -0.284
      -0.819
      -0.871
      -0.489
       0.054
       0.420
       0.409
       0.051
      -0.445
      -0.829
      -0.947
      -0.794
      -0.477
      -0.135
       0.138
       0.316
       0.414
       0.457
       0.454
       0.411
       0.343
       0.280
       0.257
       0.284
       0.343
       0.374
       0.298
       0.045
      -0.382
      -0.865
      -1.190
      -1.143
      -0.665
       0.078
       0.759
       1.081
       0.958
       0.545
       0.101
      -0.203
      -0.369
      -0.498
      -0.633
      -0.681
      -0.496
      -0.041
       0.507
       0.839
       0.724
       0.183
      -0.503
      -0.957
      -0.930
      -0.444
       0.233
       0.745
       0.860
       0.597
       0.182
      -0.115
      -0.166
      -0.029
       0.125
       0.159
       0.049
      -0.130
      -0.276
      -0.324
      -0.271
      -0.157
      -0.038
       0.043
       0.076
       0.079
       0.070
       0.039
      -0.048
      -0.208
      -0.388
      -0.483
      -0.396
      -0.114
       0.262
       0.569
       0.663
       0.500
       0.178
      -0.117
      -0.220
      -0.101
       0.109
       0.209
       0.083
      -0.209
      -0.467
      -0.494
      -0.242
       0.145
       0.431
       0.441
       0.185
      -0.162
      -0.391
      -0.406
      -0.266
      -0.104
       0.001
       0.079
       0.213
       0.428
       0.639
       0.688
       0.469
       0.007
      -0.540
      -0.962
      -1.099
      -0.908
      -0.481
      -0.001
       0.359
       0.517
       0.521
       0.482
       0.473
       0.465
       0.363
       0.114
      -0.212
      -0.453
      -0.476
      -0.290
      -0.050
       0.063
      -0.009
      -0.169
      -0.247
      -0.155
       0.047
       0.211
       0.225
       0.101
      -0.045
      -0.079
       0.046
       0.260
       0.411
       0.356
       0.059
      -0.371
      -0.724
      -0.792
      -0.493
       0.059
       0.605
       0.878
       0.757
       0.333
      -0.147
      -0.432
      -0.400
      -0.131
       0.151
       0.206
      -0.060
      -0.526
      -0.916
      -0.980
      -0.655
      -0.110
       0.382
       0.627
       0.614
       0.484
       0.391
       0.398
       0.464
       0.513
       0.490
       0.370
       0.136
      -0.215
      -0.624
      -0.957
      -1.068
      -0.911
      -0.592
      -0.293
      -0.133
      -0.073
       0.032
       0.291
       0.660
       0.962
       1.016
       0.767
       0.332
      -0.087
      -0.324
      -0.339
      -0.214
      -0.090
      -0.089
      -0.250
      -0.519
      -0.772
      -0.872
      -0.731
      -0.339
       0.215
       0.768
       1.128
       1.145
       0.798
       0.211
      -0.391
      -0.790
      -0.864
      -0.619
      -0.161
       0.356
       0.766
       0.928
       0.762
       0.296
      -0.316
      -0.840
      -1.067
      -0.922
      -0.502
      -0.018
       0.312
       0.373
       0.211
       0.003
      -0.050
       0.138
       0.461
       0.669
       0.539
       0.045
      -0.590
      -1.021
      -0.990
      -0.486
       0.259
       0.898
       1.157
       0.944
       0.355
      -0.385
      -1.009
      -1.287
      -1.100
      -0.492
       0.333
       1.085
       1.502
       1.441
       0.920
       0.095
      -0.775
      -1.400
      -1.537
      -1.104
      -0.246
       0.693
       1.318
       1.372
       0.856
       0.018
      -0.781
      -1.223
      -1.155
      -0.634
       0.103
       0.727
       0.957
       0.691
       0.064
      -0.608
      -0.990
      -0.893
      -0.374
       0.302
       0.804
       0.912
       0.622
       0.126
      -0.313
      -0.498
      -0.370
      -0.002
       0.452
       0.822
       0.963
       0.790
       0.309
      -0.366
      -1.033
      -1.469
      -1.515
      -1.142
      -0.468
       0.278
       0.843
       1.047
       0.862
       0.422
      -0.043
      -0.316
      -0.288
       0.007
       0.420
       0.754
