Origin Time       18/2/2011 14:44:14	
Lat.              28.6 N	
Long.             77.3 E	
Depth (Km)          5.0
Magnitude         2.3
 Region           Delhi                                                            
 Above details taken from IMD 
     
Station Code      ANC
Station Lat.       28.539  N
Station Long.      77.264  E
Station Height(m)  231.0
Site Class        C   Vs30 between 200 m/sec to 375 m/sec *  
Record Time       18.02.2011 14:43:50.329
Sampling Rate     200. Hz
 Record Duration   80.720 Sec.
 Direction         E-W (E positive)
Max. Acceleration     -7.613 cm/sec**2
     
  * For reference see Site Classification link of website 
     
 Base Line Corrected and Low Pass Filtered (Cut Off at 35 Hz) Time History
 Acceleration data in cm/sec**2
    
[...]
       0.038
      -0.041
      -0.101
      -0.102
      -0.043
       0.035
       0.082
       0.074
       0.023
      -0.036
      -0.067
      -0.057
      -0.017
       0.025
       0.039
       0.016
      -0.027
      -0.058
      -0.056
      -0.026
       0.014
       0.044
       0.053
       0.040
       0.012
      -0.018
      -0.032
      -0.021
       0.007
       0.029
       0.024
      -0.009
      -0.046
      -0.057
      -0.029
       0.024
       0.065
       0.062
       0.015
      -0.045
      -0.076
      -0.057
      -0.003
       0.050
       0.069
       0.048
       0.005
      -0.034
      -0.051
      -0.045
      -0.021
       0.009
       0.036
       0.050
       0.049
       0.034
       0.008
      -0.021
      -0.047
      -0.064
      -0.067
      -0.055
      -0.028
       0.010
       0.050
       0.077
       0.076
       0.042
      -0.014
      -0.066
      -0.094
      -0.088
      -0.054
      -0.012
       0.019
       0.023
       0.003
      -0.018
      -0.013
       0.022
       0.059
       0.058
       0.005
      -0.070
      -0.115
      -0.095
      -0.020
       0.063
       0.103
       0.078
       0.005
      -0.073
      -0.110
      -0.090
      -0.025
       0.048
       0.091
       0.083
       0.032
      -0.032
      -0.072
      -0.066
      -0.021
       0.028
       0.049
       0.035
       0.009
      -0.004
       0.003
       0.013
       0.005
      -0.023
      -0.052
      -0.058
      -0.035
       0.004
       0.038
       0.052
       0.042
       0.014
      -0.020
      -0.051
      -0.070
      -0.071
      -0.050
      -0.017
       0.015
       0.034
       0.040
       0.040
       0.037
       0.030
       0.009
      -0.026
      -0.060
      -0.074
      -0.057
      -0.011
       0.041
       0.074
       0.073
       0.044
       0.006
      -0.019
      -0.026
      -0.024
      -0.023
      -0.025
      -0.021
      -0.003
       0.028
       0.056
       0.058
       0.027
      -0.021
      -0.052
      -0.045
      -0.005
       0.040
       0.062
       0.049
       0.009
      -0.036
      -0.062
      -0.057
      -0.023
       0.017
       0.039
       0.034
       0.014
       0.002
       0.009
       0.022
       0.020
      -0.008
      -0.045
      -0.064
      -0.046
      -0.001
       0.038
       0.042
       0.010
      -0.036
      -0.062
      -0.052
      -0.014
       0.027
       0.047
       0.037
       0.002
      -0.039
      -0.064
      -0.055
      -0.013
       0.034
       0.052
       0.025
      -0.032
      -0.080
      -0.082
      -0.030
       0.047
       0.102
       0.102
       0.047
      -0.028
      -0.077
      -0.077
      -0.038
       0.004
       0.020
       0.006
      -0.014
      -0.017
       0.005
       0.035
       0.052
       0.044
       0.015
      -0.017
      -0.032
      -0.022
       0.005
       0.029
       0.032
       0.011
      -0.021
      -0.046
      -0.049
      -0.034
      -0.010
       0.011
       0.019
       0.012
      -0.003
      -0.017
      -0.019
      -0.007
       0.011
       0.018
       0.007
      -0.019
      -0.045
      -0.052
      -0.031
       0.011
       0.050
       0.059
       0.023
      -0.046
      -0.107
      -0.120
      -0.071
       0.013
       0.084
       0.102
       0.063
      -0.003
      -0.049
      -0.051
      -0.019
       0.011
       0.009
      -0.021
      -0.041
      -0.020
       0.036
       0.086
       0.086
       0.029
      -0.050
      -0.100
      -0.096
      -0.048
       0.010
       0.048
       0.057
       0.042
       0.019
       0.004
       0.000
       0.002
      -0.003
      -0.020
      -0.040
      -0.044
      -0.024
       0.013
       0.042
       0.043
       0.017
      -0.014
      -0.025
      -0.014
       0.001
       0.001
      -0.013
      -0.027
      -0.026
      -0.013
      -0.004
      -0.013
      -0.031
      -0.038
      -0.017
       0.026
       0.061
       0.059
       0.017
      -0.037
      -0.063
      -0.046
      -0.004
       0.025
       0.020
      -0.010
      -0.032
      -0.024
       0.007
       0.036
       0.036
       0.006
      -0.033
      -0.049
      -0.028
       0.018
       0.058
       0.063
       0.028
      -0.025
      -0.063
      -0.062
      -0.025
       0.021
       0.049
       0.045
       0.013
      -0.028
      -0.056
      -0.056
      -0.030
       0.007
       0.033
       0.040
       0.033
       0.022
       0.018
       0.020
       0.021
       0.014
      -0.004
      -0.027
      -0.046
      -0.048
      -0.028
       0.008
       0.044
       0.064
       0.060
       0.036
       0.003
      -0.027
      -0.049
      -0.061
      -0.061
      -0.047
      -0.025
      -0.001
       0.017
       0.022
       0.014
      -0.002
      -0.016
      -0.017
      -0.006
       0.007
       0.009
      -0.004
      -0.024
      -0.042
      -0.046
      -0.032
       0.001
       0.040
       0.067
       0.058
       0.011
      -0.051
      -0.090
      -0.085
      -0.045
       0.000
       0.029
       0.041
       0.043
       0.032
      -0.003
      -0.057
      -0.099
      -0.093
      -0.030
       0.057
       0.118
       0.121
       0.069
      -0.001
      -0.054
      -0.068
      -0.052
      -0.028
      -0.015
      -0.014
      -0.014
       0.001
       0.026
       0.043
       0.034
      -0.004
      -0.047
      -0.064
      -0.040
       0.009
       0.047
       0.048
       0.015
      -0.024
      -0.044
      -0.042
      -0.033
      -0.030
      -0.030
      -0.019
       0.011
       0.050
       0.078
       0.077
       0.048
       0.002
      -0.043
      -0.071
      -0.071
      -0.043
      -0.004
       0.028
       0.043
       0.041
       0.033
       0.022
       0.009
      -0.007
      -0.022
      -0.023
      -0.010
       0.007
       0.012
      -0.001
      -0.021
      -0.029
      -0.019
       0.000
       0.010
       0.005
      -0.002
       0.003
       0.024
       0.043
       0.037
       0.002
      -0.047
      -0.077
      -0.066
      -0.019
       0.038
       0.072
       0.065
       0.024
      -0.024
      -0.055
      -0.056
      -0.032
      -0.002
       0.018
       0.021
       0.013
       0.003
      -0.004
      -0.010
      -0.017
      -0.023
      -0.021
      -0.003
       0.026
       0.051
       0.050
       0.015
      -0.038
      -0.077
      -0.077
      -0.040
       0.007
       0.032
       0.028
       0.012
       0.010
       0.029
       0.048
       0.041
       0.000
      -0.053
      -0.079
      -0.056
       0.004
       0.056
       0.062
       0.016
      -0.045
      -0.075
      -0.053
       0.002
       0.048
       0.058
       0.035
       0.006
      -0.008
      -0.005
      -0.003
      -0.013
      -0.031
      -0.042
      -0.032
      -0.006
       0.020
       0.030
       0.018
      -0.007
      -0.029
      -0.040
      -0.036
      -0.017
       0.012
       0.040
       0.047
       0.017
      -0.041
      -0.096
      -0.113
      -0.079
      -0.014
       0.045
       0.073
       0.067
       0.043
       0.016
      -0.007
      -0.027
      -0.045
      -0.055
      -0.049
      -0.023
       0.018
       0.057
       0.076
       0.064
       0.025
      -0.024
      -0.057
      -0.057
      -0.027
       0.014
       0.040
       0.034
       0.004
      -0.027
      -0.035
      -0.013
       0.024
       0.049
       0.047
       0.020
      -0.015
      -0.037
      -0.033
      -0.006
       0.028
       0.045
       0.034
      -0.002
      -0.041
      -0.063
      -0.056
      -0.022
       0.027
       0.071
       0.093
       0.083
       0.041
      -0.021
      -0.074
      -0.097
      -0.083
      -0.048
      -0.018
      -0.008
      -0.010
      -0.005
       0.021
       0.057
       0.077
       0.061
       0.014
      -0.034
      -0.052
      -0.033
      -0.003
       0.007
      -0.012
      -0.044
      -0.056
      -0.038
       0.001
       0.040
       0.070
       0.089
       0.082
       0.023
      -0.077
      -0.152
      -0.122
       0.016
       0.162
       0.202
       0.105
      -0.055
      -0.168
      -0.177
      -0.096
       0.014
       0.093
       0.109
       0.072
       0.019
      -0.011
      -0.001
       0.032
       0.055
       0.041
      -0.010
      -0.071
      -0.106
      -0.094
      -0.040
       0.028
       0.082
       0.104
       0.094
       0.061
       0.019
      -0.019
      -0.051
      -0.077
      -0.097
      -0.105
      -0.088
      -0.041
       0.023
       0.075
       0.089
       0.061
       0.012
      -0.027
      -0.039
      -0.024
       0.000
       0.013
       0.012
       0.003
      -0.007
      -0.019
      -0.031
      -0.034
      -0.016
       0.024
       0.067
       0.082
       0.053
      -0.003
      -0.051
      -0.064
      -0.041
      -0.005
       0.021
       0.033
       0.049
       0.079
       0.110
       0.116
       0.083
       0.038
       0.025
       0.060
       0.102
       0.086
      -0.014
      -0.154
      -0.265
      -0.315
      -0.329
      -0.329
      -0.295
      -0.185
      -0.007
       0.175
       0.287
       0.305
       0.264
       0.232
       0.243
       0.258
       0.189
      -0.004
      -0.233
      -0.334
      -0.222
       0.009
       0.166
       0.134
      -0.032
      -0.181
      -0.190
      -0.057
       0.100
       0.142
       0.051
      -0.048
      -0.032
       0.066
       0.093
      -0.039
      -0.238
      -0.304
      -0.123
       0.188
       0.341
       0.136
      -0.312
      -0.634
      -0.515
       0.009
       0.558
       0.732
       0.454
       0.012
      -0.222
      -0.113
       0.162
       0.303
       0.142
      -0.221
      -0.505
      -0.493
      -0.225
       0.045
       0.099
      -0.048
      -0.179
      -0.101
       0.148
       0.322
       0.226
      -0.046
      -0.173
       0.051
       0.462
       0.670
       0.466
       0.051
      -0.173
      -0.040
       0.191
       0.103
      -0.420
      -1.040
      -1.255
      -0.860
      -0.127
       0.451
       0.587
       0.403
       0.249
       0.344
       0.575
       0.639
       0.353
      -0.170
      -0.625
      -0.773
      -0.599
      -0.265
       0.053
       0.270
       0.391
       0.446
       0.451
       0.402
       0.280
       0.061
      -0.254
      -0.607
      -0.866
      -0.872
      -0.557
      -0.017
       0.534
       0.901
       0.985
       0.767
       0.286
      -0.318
      -0.810
      -0.963
      -0.726
      -0.264
       0.152
       0.334
       0.276
       0.135
       0.093
       0.232
       0.477
       0.643
       0.556
       0.175
      -0.338
      -0.690
      -0.664
      -0.312
       0.052
       0.106
      -0.187
      -0.539
      -0.600
      -0.250
       0.330
       0.831
       1.016
       0.804
       0.268
      -0.391
      -0.883
      -0.953
      -0.539
       0.124
       0.610
       0.600
       0.138
      -0.369
      -0.465
      -0.034
       0.575
       0.823
       0.446
      -0.314
      -0.920
      -0.989
      -0.582
      -0.064
       0.267
       0.395
       0.459
       0.506
       0.443
       0.222
      -0.015
      -0.071
       0.061
       0.155
       0.000
      -0.337
      -0.553
      -0.431
      -0.069
       0.204
       0.159
      -0.110
      -0.284
      -0.132
       0.256
       0.525
       0.367
      -0.194
      -0.786
      -0.970
      -0.591
       0.098
       0.649
       0.784
       0.582
       0.328
       0.209
       0.182
       0.101
      -0.077
      -0.253
      -0.319
      -0.275
      -0.191
      -0.095
       0.045
       0.206
       0.233
      -0.022
      -0.475
      -0.786
      -0.640
      -0.055
       0.602
       0.905
       0.677
       0.088
      -0.464
      -0.594
      -0.207
       0.369
       0.594
       0.179
      -0.588
      -1.039
      -0.705
       0.242
       1.118
       1.284
       0.652
      -0.293
      -0.904
      -0.865
      -0.340
       0.248
       0.573
       0.570
       0.338
      -0.037
      -0.506
      -0.951
      -1.119
      -0.767
       0.068
       0.957
       1.330
       0.948
       0.172
      -0.331
      -0.199
       0.257
       0.363
      -0.230
      -1.122
      -1.479
      -0.793
       0.599
       1.739
       1.816
       0.788
      -0.629
      -1.548
      -1.533
      -0.793
       0.105
       0.701
       0.880
       0.782
       0.534
       0.131
      -0.441
      -1.000
      -1.162
      -0.639
       0.420
       1.397
       1.621
       0.892
      -0.334
      -1.279
      -1.408
      -0.775
       0.078
       0.556
       0.437
      -0.031
      -0.393
      -0.370
      -0.042
       0.264
       0.277
      -0.011
      -0.352
      -0.420
      -0.007
       0.868
       1.912
       2.567
       2.197
       0.535
      -1.873
      -3.724
      -3.741
      -1.729
       1.055
       2.706
       2.125
      -0.081
      -2.046
      -2.120
      -0.202
       2.135
       2.871
       1.181
      -1.806
      -3.767
      -2.950
       0.378
       3.951
       5.052
       2.537
      -2.178
      -5.969
      -6.142
      -2.314
       3.292
       7.288
       7.259
       3.193
      -2.600
      -6.929
      -7.613
      -4.677
      -0.168
       3.238
       3.931
       2.288
       0.206
      -0.419
       0.825
       2.604
       3.034
       1.349
      -1.387
      -3.146
      -2.611
      -0.249
       2.091
       2.662
       1.148
      -1.181
      -2.548
      -2.064
      -0.362
       0.980
       0.724
      -1.049
      -2.985
      -3.477
      -1.854
       1.115
       3.736
       4.525
       3.168
       0.685
      -1.276
      -1.561
      -0.272
       1.327
       1.737
       0.319
      -2.196
      -4.164
      -4.142
      -1.908
       1.355
       3.850
       4.371
       3.030
       0.983
      -0.558
      -1.168
      -1.276
      -1.507
      -1.994
      -2.269
      -1.768
      -0.434
       1.125
       2.041
       1.812
       0.666
      -0.602
      -1.175
      -0.780
       0.134
       0.766
       0.633
       0.015
      -0.267
       0.383
       1.673
       2.530
       1.968
      -0.009
      -2.277
      -3.430
      -2.883
      -1.301
       0.041
       0.356
      -0.082
      -0.362
       0.124
       1.137
       1.874
       1.714
       0.738
      -0.364
      -0.843
      -0.427
       0.521
       1.290
       1.312
       0.499
      -0.774
      -1.939
      -2.498
      -2.164
      -0.956
       0.720
       2.155
       2.707
       2.209
       1.073
      -0.047
      -0.745
      -1.094
      -1.451
      -2.018
      -2.554
      -2.469
      -1.297
       0.833
       3.077
       4.302
       3.795
       1.776
      -0.702
      -2.428
      -2.795
      -2.078
      -1.048
      -0.309
       0.061
       0.335
       0.712
       1.080
       1.152
       0.793
       0.171
      -0.362
      -0.560
      -0.444
      -0.225
      -0.102
      -0.121
      -0.199
      -0.250
      -0.243
      -0.150
       0.106
       0.571
       1.105
       1.344
       0.940
      -0.104
      -1.308
      -1.999
      -1.782
      -0.844
       0.191
       0.728
       0.647
       0.350
       0.367
       0.835
       1.319
       1.153
       0.061
      -1.464
      -2.406
      -1.969
      -0.254
       1.713
       2.674
       2.039
       0.283
      -1.441
      -2.131
      -1.574
      -0.365
       0.612
       0.824
       0.385
      -0.138
      -0.224
       0.196
       0.733
       0.890
       0.477
      -0.257
      -0.845
      -0.964
      -0.637
      -0.152
       0.196
       0.306
       0.298
       0.388
       0.675
       1.016
       1.065
       0.528
      -0.541
      -1.676
      -2.259
      -1.939
      -0.863
       0.435
       1.388
       1.701
       1.416
       0.766
       0.001
      -0.706
      -1.234
      -1.468
      -1.301
      -0.695
       0.240
       1.225
       1.890
       1.933
       1.270
       0.107
      -1.106
      -1.846
      -1.754
      -0.828
       0.529
       1.663
       1.995
       1.351
       0.087
      -1.116
      -1.683
      -1.487
      -0.848
      -0.206
       0.214
       0.468
       0.686
       0.846
       0.754
       0.252
      -0.545
      -1.223
      -1.322
      -0.695
       0.332
       1.164
       1.351
       0.885
       0.150
      -0.391
      -0.520
      -0.337
      -0.099
       0.029
       0.074
       0.161
       0.345
       0.528
       0.527
       0.217
      -0.350
      -0.937
      -1.253
      -1.131
      -0.628
       0.020
       0.546
       0.778
       0.693
       0.383
      -0.005
      -0.326
      -0.465
      -0.372
      -0.096
       0.230
       0.481
       0.620
       0.685
       0.677
       0.499
       0.055
      -0.592
      -1.176
      -1.374
      -1.040
      -0.319
       0.442
       0.901
       0.901
       0.530
       0.038
      -0.304
      -0.362
      -0.199
      -0.013
       0.018
      -0.121
      -0.283
      -0.292
      -0.097
       0.202
       0.436
       0.491
       0.361
       0.121
      -0.129
      -0.303
      -0.344
      -0.228
       0.015
       0.272
       0.384
       0.233
      -0.142
      -0.537
      -0.699
      -0.510
      -0.078
       0.326
       0.464
       0.284
      -0.064
      -0.354
      -0.424
      -0.245
       0.096
       0.446
       0.653
       0.621
       0.349
      -0.072
      -0.481
      -0.706
      -0.641
      -0.321
       0.074
       0.312
       0.276
       0.063
      -0.091
      -0.016
       0.237
       0.430
       0.355
       0.028
      -0.323
      -0.458
      -0.328
      -0.085
       0.083
       0.101
       0.027
      -0.050
      -0.088
      -0.082
      -0.029
       0.074
       0.205
       0.291
       0.258
       0.091
      -0.145
      -0.333
      -0.379
      -0.262
      -0.050
       0.144
       0.229
       0.187
       0.070
      -0.042
      -0.086
      -0.041
       0.067
       0.176
       0.202
       0.081
      -0.172
      -0.431
      -0.504
      -0.261
       0.233
       0.712
       0.851
       0.498
      -0.198
      -0.866
      -1.150
      -0.929
      -0.364
       0.237
       0.620
       0.712
       0.610
       0.464
       0.341
       0.204
      -0.014
      -0.304
      -0.559
      -0.644
      -0.496
      -0.152
       0.272
       0.623
       0.748
       0.547
       0.050
      -0.541
      -0.944
      -0.965
      -0.633
      -0.163
       0.213
       0.412
       0.512
       0.622
       0.738
       0.734
       0.483
      -0.002
      -0.545
      -0.910
      -0.956
      -0.702
      -0.294
       0.109
       0.401
       0.523
       0.431
       0.108
      -0.352
      -0.722
      -0.756
      -0.372
       0.266
       0.833
       1.048
       0.826
       0.306
      -0.237
      -0.548
      -0.521
      -0.241
       0.084
       0.260
       0.220
       0.043
