Origin Time       29/08/2013 10:13:21
Lat.              31.4 N	
Long.             76.1 E	
Depth (Km)         10.0
Magnitude         4.7
 Region           HIMACHAL-PUNJAB-(HOSHIARPUR)-BORDER                              
 Above details taken from IMD 
   
Station Code      ANS
Station Lat.       31.237
Station Long.      76.493
Station Height(m)  320.0
Site Class        C   Vs30 between 200 m/sec to 375 m/sec *  
Record Time       29.08.2013 10:12:58.154
Sampling Rate     200. Hz
 Record Duration   87.210 Sec.
 Direction         Vert. (Up positive)
Max. Acceleration     10.543 cm/sec**2
     
  * For reference see Site Classification link of website 
     
 Base Line Corrected and Low Pass Filtered (Cut Off at 35 Hz) Time History
 Acceleration data in cm/sec**2
    
[...]
      -1.080
      -0.210
       0.574
       1.119
       1.308
       1.088
       0.528
      -0.146
      -0.645
      -0.788
      -0.623
      -0.386
      -0.308
      -0.410
      -0.475
      -0.224
       0.433
       1.268
       1.848
       1.817
       1.150
       0.193
      -0.556
      -0.784
      -0.557
      -0.216
      -0.086
      -0.250
      -0.555
      -0.791
      -0.847
      -0.736
      -0.514
      -0.227
       0.082
       0.341
       0.453
       0.339
      -0.016
      -0.525
      -1.003
      -1.235
      -1.078
      -0.535
       0.246
       1.030
       1.580
       1.736
       1.484
       0.957
       0.349
      -0.201
      -0.676
      -1.131
      -1.581
      -1.906
      -1.857
      -1.207
       0.045
       1.561
       2.771
       3.160
       2.557
       1.219
      -0.307
      -1.453
      -1.871
      -1.540
      -0.721
       0.181
       0.790
       0.885
       0.443
      -0.379
      -1.284
      -1.896
      -1.878
      -1.130
       0.083
       1.187
       1.603
       1.118
       0.043
      -0.960
      -1.307
      -0.842
       0.090
       0.892
       1.085
       0.610
      -0.129
      -0.523
      -0.175
       0.796
       1.813
       2.224
       1.748
       0.657
      -0.436
      -0.982
      -0.804
      -0.119
       0.651
       1.116
       1.070
       0.532
      -0.280
      -1.039
      -1.440
      -1.336
      -0.808
      -0.120
       0.405
       0.509
       0.099
      -0.695
      -1.538
      -2.018
      -1.847
      -1.034
       0.088
       1.000
       1.269
       0.797
      -0.110
      -0.913
      -1.154
      -0.714
       0.153
       0.991
       1.416
       1.322
       0.918
       0.553
       0.463
       0.622
       0.805
       0.790
       0.508
       0.047
      -0.426
      -0.732
      -0.740
      -0.430
       0.075
       0.553
       0.787
       0.662
       0.223
      -0.364
      -0.910
      -1.299
      -1.485
      -1.441
      -1.140
      -0.609
       0.022
       0.547
       0.781
       0.664
       0.307
      -0.054
      -0.210
      -0.117
       0.083
       0.198
       0.149
       0.025
      -0.024
       0.070
       0.237
       0.356
       0.384
       0.429
       0.649
       1.069
       1.461
       1.446
       0.771
      -0.456
      -1.769
      -2.601
      -2.620
      -1.920
      -0.932
      -0.151
       0.156
       0.051
      -0.186
      -0.277
      -0.108
       0.263
       0.707
       1.108
       1.381
       1.455
       1.270
       0.820
       0.200
      -0.374
      -0.629
      -0.375
       0.318
       1.074
       1.386
       0.938
      -0.154
      -1.389
      -2.163
      -2.098
      -1.236
      -0.003
       1.027
       1.457
       1.260
       0.705
       0.123
      -0.286
      -0.475
      -0.463
      -0.273
       0.070
       0.483
       0.797
       0.810
       0.419
      -0.249
      -0.872
      -1.126
      -0.921
      -0.445
       0.002
       0.247
       0.328
       0.395
       0.541
       0.706
       0.728
       0.481
       0.001
      -0.496
      -0.728
      -0.520
       0.063
       0.742
       1.186
       1.213
       0.882
       0.410
       0.014
      -0.216
      -0.321
      -0.397
      -0.525
      -0.732
      -0.980
      -1.189
      -1.289
      -1.281
      -1.224
      -1.138
      -0.933
      -0.470
       0.268
       1.065
       1.543
       1.383
       0.559
      -0.585
      -1.488
      -1.688
      -1.073
       0.095
       1.357
       2.282
       2.602
       2.254
       1.364
       0.202
      -0.873
      -1.506
      -1.485
      -0.892
      -0.129
       0.280
       0.034
      -0.727
      -1.482
      -1.657
      -0.995
       0.269
       1.539
       2.194
       1.929
       0.897
      -0.395
      -1.337
      -1.502
      -0.840
       0.311
       1.398
       1.921
       1.661
       0.759
      -0.363
      -1.194
      -1.375
      -0.887
      -0.080
       0.503
       0.432
      -0.347
      -1.461
      -2.321
      -2.458
      -1.757
      -0.505
       0.764
       1.526
       1.523
       0.906
       0.156
      -0.204
       0.063
       0.774
       1.481
       1.783
       1.555
       0.930
       0.120
      -0.738
      -1.578
      -2.284
      -2.629
      -2.370
      -1.436
      -0.059
       1.283
       2.095
       2.118
       1.457
       0.492
      -0.336
      -0.745
      -0.686
      -0.280
       0.298
       0.888
       1.340
       1.502
       1.270
       0.693
       0.013
      -0.441
      -0.475
      -0.197
       0.023
      -0.200
      -0.965
      -1.980
      -2.713
      -2.720
      -1.907
      -0.572
       0.776
       1.680
       1.914
       1.527
       0.776
       0.019
      -0.409
      -0.314
       0.270
       1.102
       1.876
       2.376
       2.535
       2.340
       1.744
       0.698
      -0.697
      -2.101
      -3.035
      -3.151
      -2.462
      -1.354
      -0.353
       0.189
       0.289
       0.236
       0.296
       0.464
       0.507
       0.253
      -0.176
      -0.429
      -0.238
       0.330
       0.898
       1.069
       0.734
       0.154
      -0.268
      -0.322
      -0.144
      -0.061
      -0.266
      -0.635
      -0.835
      -0.607
       0.038
       0.833
       1.443
       1.647
       1.416
       0.855
       0.103
      -0.725
      -1.495
      -2.016
      -2.077
      -1.600
      -0.747
       0.110
       0.605
       0.613
       0.334
       0.127
       0.225
       0.562
       0.842
       0.776
       0.289
      -0.420
      -1.005
      -1.191
      -0.939
      -0.453
      -0.028
       0.136
       0.029
      -0.216
      -0.419
      -0.439
      -0.235
       0.112
       0.445
       0.642
       0.694
       0.667
       0.607
       0.527
       0.450
       0.440
       0.545
       0.719
       0.803
       0.592
       0.006
      -0.741
      -1.176
      -0.880
       0.133
       1.316
       1.917
       1.519
       0.349
      -0.861
      -1.380
      -0.972
      -0.035
       0.707
       0.719
      -0.011
      -1.017
      -1.706
      -1.737
      -1.186
      -0.430
       0.118
       0.240
      -0.032
      -0.492
      -0.868
      -0.905
      -0.434
       0.527
       1.724
       2.733
       3.156
       2.831
       1.901
       0.696
      -0.464
      -1.393
      -2.023
      -2.322
      -2.234
      -1.731
      -0.908
      -0.035
       0.540
       0.581
       0.129
      -0.500
      -0.899
      -0.809
      -0.279
       0.362
       0.714
       0.576
       0.074
      -0.426
      -0.573
      -0.258
       0.340
       0.901
       1.183
       1.141
       0.880
       0.479
      -0.108
      -0.949
      -1.915
      -2.583
      -2.462
      -1.383
       0.276
       1.772
       2.462
       2.214
       1.461
       0.862
       0.819
       1.210
       1.526
       1.284
       0.379
      -0.859
      -1.911
      -2.378
      -2.160
      -1.439
      -0.518
       0.337
       0.941
       1.140
       0.806
      -0.029
      -1.038
      -1.685
      -1.556
      -0.663
       0.500
       1.201
       0.886
      -0.457
      -2.191
      -3.328
      -3.085
      -1.368
       1.145
       3.368
       4.363
       3.784
       1.980
      -0.233
      -1.976
      -2.675
      -2.225
      -0.955
       0.561
       1.735
       2.179
       1.833
       0.970
       0.044
      -0.544
      -0.632
      -0.338
       0.061
       0.304
       0.267
       0.006
      -0.305
      -0.483
      -0.432
      -0.184
       0.165
       0.536
       0.879
       1.120
       1.093
       0.591
      -0.465
      -1.869
      -3.140
      -3.724
      -3.279
      -1.867
       0.065
       1.879
       3.016
       3.220
       2.637
       1.720
       0.992
       0.756
       0.956
       1.244
       1.209
       0.631
      -0.383
      -1.439
      -2.045
      -1.893
      -1.056
       0.047
       0.910
       1.210
       0.886
       0.063
      -1.038
      -2.113
      -2.796
      -2.767
      -1.940
      -0.566
       0.848
       1.803
       2.073
       1.777
       1.230
       0.720
       0.375
       0.174
       0.041
      -0.073
      -0.153
      -0.154
      -0.048
       0.163
       0.454
       0.767
       0.985
       0.954
       0.583
      -0.047
      -0.668
      -0.981
      -0.874
      -0.531
      -0.299
      -0.425
      -0.868
      -1.370
      -1.668
      -1.634
      -1.243
      -0.516
       0.452
       1.391
       1.876
       1.540
       0.357
      -1.234
      -2.512
      -2.891
      -2.275
      -1.099
      -0.025
       0.473
       0.357
      -0.034
      -0.254
      -0.051
       0.502
       1.097
       1.415
       1.320
       0.890
       0.315
      -0.200
      -0.473
      -0.389
       0.019
       0.518
       0.773
       0.586
       0.121
      -0.135
       0.281
       1.381
       2.607
       3.167
       2.591
       1.083
      -0.600
      -1.635
      -1.636
      -0.834
       0.131
       0.637
       0.396
      -0.464
      -1.516
      -2.255
      -2.311
      -1.623
      -0.466
       0.676
       1.332
       1.244
       0.456
      -0.692
      -1.667
      -1.934
      -1.228
       0.238
       1.764
       2.456
       1.728
      -0.242
      -2.477
      -3.699
      -3.112
      -0.939
       1.683
       3.381
       3.357
       1.816
      -0.230
      -1.615
      -1.686
      -0.617
       0.782
       1.601
       1.373
       0.306
      -0.910
      -1.548
      -1.257
      -0.213
       1.001
       1.703
       1.439
       0.200
      -1.532
      -2.964
      -3.343
      -2.349
      -0.335
       1.800
       3.075
       2.935
       1.493
      -0.588
      -2.414
      -3.204
      -2.595
      -0.844
       1.232
       2.661
       2.869
       2.007
       0.791
      -0.007
      -0.032
       0.545
       1.267
       1.729
       1.732
       1.255
       0.386
      -0.663
      -1.536
      -1.818
      -1.289
      -0.144
       1.017
       1.517
       1.049
      -0.085
      -1.165
      -1.562
      -1.193
      -0.555
      -0.313
      -0.760
      -1.589
      -2.122
      -1.809
      -0.615
       0.981
       2.344
       3.088
       3.192
       2.775
       1.842
       0.334
      -1.546
      -3.150
      -3.684
      -2.808
      -1.001
       0.706
       1.404
       0.856
      -0.465
      -1.754
      -2.344
      -1.995
      -0.885
       0.600
       2.068
       3.192
       3.689
       3.370
       2.255
       0.640
      -0.997
      -2.187
      -2.664
      -2.442
      -1.738
      -0.810
       0.143
       0.939
       1.334
       1.111
       0.315
      -0.639
      -1.153
      -0.845
       0.177
       1.360
       2.041
       1.870
       1.025
       0.040
      -0.603
      -0.802
      -0.818
      -0.987
      -1.425
      -1.944
      -2.205
      -1.984
      -1.320
      -0.471
       0.276
       0.749
       0.924
       0.865
       0.661
       0.363
      -0.016
      -0.440
      -0.778
      -0.873
      -0.695
      -0.453
      -0.471
      -0.923
      -1.626
      -2.099
      -1.868
      -0.815
       0.704
       2.044
       2.648
       2.341
       1.379
       0.238
      -0.659
      -1.131
      -1.218
      -1.048
      -0.683
      -0.070
       0.879
       2.125
       3.388
       4.182
       4.029
       2.761
       0.702
      -1.406
      -2.725
      -2.713
      -1.385
       0.675
       2.530
       3.292
       2.578
       0.754
      -1.257
      -2.521
      -2.620
      -1.810
      -0.750
      -0.044
       0.097
      -0.135
      -0.391
      -0.425
      -0.161
       0.375
       1.099
       1.804
       2.169
       1.925
       1.077
      -0.049
      -0.992
      -1.407
      -1.223
      -0.670
      -0.160
      -0.063
      -0.480
      -1.195
      -1.837
      -2.091
      -1.779
      -0.848
       0.621
       2.325
       3.710
       4.166
       3.369
       1.523
      -0.701
      -2.511
      -3.398
      -3.336
      -2.678
      -1.882
      -1.287
      -1.046
      -1.156
      -1.467
      -1.696
      -1.534
      -0.816
       0.373
       1.733
       2.892
       3.553
       3.579
       3.000
       1.952
       0.606
      -0.844
      -2.126
      -2.872
      -2.777
      -1.857
      -0.594
       0.268
       0.199
      -0.718
      -1.813
      -2.283
      -1.756
      -0.525
       0.697
       1.326
       1.329
       1.178
       1.382
       2.019
       2.692
       2.926
       2.579
       1.891
       1.187
       0.612
       0.114
      -0.390
      -0.888
      -1.289
      -1.504
      -1.533
      -1.491
      -1.557
      -1.862
      -2.370
      -2.836
      -2.900
      -2.291
      -1.029
       0.499
       1.647
       1.811
       0.822
      -0.821
      -2.125
      -2.223
      -0.984
       0.920
       2.573
       3.493
       3.827
       4.012
       4.284
       4.485
       4.243
       3.314
       1.820
       0.215
      -0.997
      -1.582
      -1.679
      -1.640
      -1.791
      -2.308
      -3.234
      -4.488
      -5.837
      -6.917
      -7.349
      -6.913
      -5.659
      -3.913
      -2.137
      -0.702
       0.325
       1.222
       2.410
       4.150
       6.314
       8.425
       9.940
      10.543
      10.229
       9.161
       7.476
       5.265
       2.707
       0.160
      -1.944
      -3.320
      -3.965
      -4.121
      -4.129
      -4.287
      -4.770
      -5.560
      -6.447
      -7.106
      -7.252
      -6.776
      -5.763
      -4.392
      -2.784
      -0.939
       1.158
       3.342
       5.178
       6.128
       5.900
       4.756
       3.488
       2.999
       3.737
       5.388
       7.021
       7.594
       6.477
       3.747
       0.130
      -3.372
      -5.936
      -7.202
      -7.259
      -6.457
      -5.240
      -4.067
      -3.317
      -3.109
      -3.193
      -3.079
      -2.358
      -1.002
       0.601
       1.893
       2.522
       2.582
       2.550
       2.940
       3.925
       5.198
       6.143
       6.181
       5.077
       3.055
       0.686
      -1.409
      -2.826
      -3.488
      -3.549
      -3.247
      -2.818
      -2.464
      -2.340
      -2.519
      -2.957
      -3.469
      -3.749
      -3.472
      -2.455
      -0.790
       1.163
       2.936
       4.172
       4.756
       4.767
       4.324
       3.487
       2.311
       0.965
      -0.250
      -1.022
      -1.197
      -0.866
      -0.317
       0.123
       0.277
       0.207
       0.123
       0.200
       0.451
       0.756
       0.966
       0.991
       0.790
       0.364
      -0.236
      -0.873
      -1.335
      -1.425
      -1.073
      -0.421
       0.226
       0.558
       0.457
       0.062
      -0.359
      -0.635
      -0.819
      -1.099
      -1.578
      -2.143
      -2.536
      -2.557
      -2.201
      -1.626
      -1.012
      -0.448
       0.091
       0.664
       1.251
       1.720
       1.927
       1.869
       1.733
       1.759
       2.016
       2.285
       2.172
       1.415
       0.129
      -1.217
      -2.099
      -2.276
      -1.900
      -1.372
      -1.073
      -1.185
      -1.654
      -2.262
      -2.739
      -2.855
      -2.495
      -1.673
      -0.513
       0.783
       1.970
       2.824
       3.226
       3.204
       2.906
       2.518
       2.192
       1.993
       1.870
       1.650
       1.106
       0.093
      -1.297
      -2.721
      -3.761
      -4.145
      -3.853
      -3.042
      -1.913
      -0.657
       0.525
       1.433
       1.937
       2.052
       1.938
       1.833
       1.943
       2.341
       2.911
       3.354
       3.308
       2.526
       1.062
      -0.659
      -1.995
      -2.449
      -2.014
      -1.240
      -0.928
      -1.628
      -3.250
      -5.028
      -5.896
      -5.106
      -2.718
       0.394
       3.038
       4.340
       4.088
       2.696
       0.929
      -0.428
      -0.849
      -0.243
       1.064
       2.481
       3.387
       3.343
       2.289
       0.649
      -0.795
      -1.285
      -0.548
       0.978
       2.382
       2.798
       1.879
      -0.089
      -2.416
      -4.352
      -5.349
      -5.203
      -4.104
      -2.553
      -1.135
      -0.242
       0.101
       0.184
       0.410
       1.037
       1.988
       2.849
       3.115
       2.544
       1.361
       0.136
      -0.598
      -0.694
      -0.450
      -0.379
      -0.854
      -1.855
      -2.969
      -3.642
      -3.533
      -2.681
      -1.402
      -0.046
       1.153
       2.055
       2.565
       2.658
       2.429
       2.082
       1.855
       1.919
       2.314
       2.920
       3.474
       3.651
       3.199
       2.077
       0.508
      -1.101
      -2.340
      -2.993
      -3.136
      -3.065
      -3.087
      -3.322
      -3.636
      -3.728
      -3.317
      -2.324
      -0.948
       0.424
       1.428
       1.914
       1.984
       1.869
       1.760
       1.699
       1.598
       1.337
       0.894
       0.399
       0.064
       0.030
       0.283
       0.700
       1.150
       1.505
       1.603
       1.288
       0.582
      -0.213
      -0.661
      -0.509
       0.105
       0.720
       0.843
       0.226
      -1.017
      -2.470
      -3.600
      -3.971
      -3.404
      -2.033
      -0.257
       1.394
       2.427
       2.549
       1.785
       0.508
      -0.671
      -1.177
      -0.784
       0.246
       1.317
       1.842
       1.529
       0.467
      -0.971
      -2.297
      -3.081
      -3.103
      -2.428
      -1.364
      -0.290
       0.532
       1.043
       1.313
       1.409
       1.333
       1.059
       0.628
       0.208
       0.054
       0.390
       1.251
       2.392
       3.366
       3.770
       3.483
       2.706
       1.762
       0.837
      -0.119
      -1.249
      -2.549
      -3.758
      -4.484
      -4.504
      -3.960
      -3.281
      -2.841
      -2.626
      -2.182
      -0.952
       1.224
       3.821
       5.812
       6.257
       4.886
       2.256
      -0.586
      -2.663
      -3.479
      -3.114
      -2.073
      -1.010
      -0.444
      -0.558
      -1.146
      -1.746
      -1.898
      -1.351
      -0.136
       1.474
       3.034
       4.020
       4.007
       2.883
       0.978
      -1.019
      -2.356
      -2.597
      -1.848
      -0.663
       0.325
       0.786
       0.809
       0.695
       0.664
       0.714
       0.719
       0.602
       0.409
       0.221
       0.043
      -0.220
      -0.651
      -1.201
      -1.653
      -1.755
      -1.414
      -0.795
      -0.235
       0.010
      -0.029
      -0.065
       0.152
       0.561
       0.811
       0.621
       0.081
      -0.386
      -0.390
       0.125
       0.890
       1.564
       1.970
       2.123
       2.098
       1.913
       1.557
       1.076
       0.587
       0.196
      -0.091
      -0.344
      -0.604
      -0.827
      -0.954
      -1.033
      -1.211
      -1.599
      -2.110
      -2.468
      -2.381
