Origin Time       29/08/2013 10:13:21 UTC
Lat.              31.4 N	
Long.             76.1 E	
Depth (Km)         10.0
Magnitude         4.7
 Region           HIMACHAL-PUNJAB-(HOSHIARPUR)-BORDER                              
 Above details taken from IMD 
    
Station Code      ANS
Station Lat.       31.237  N
Station Long.      76.493  E
Station Height(m)  320.0
Site Class        C   Vs30 between 200 m/sec to 375 m/sec *  
Record Time       29.08.2013 10:12:58.154 UTC
Sampling Rate     200. Hz
 Record Duration   87.210 Sec.
 Direction         N-S (N positive)
Max. Acceleration     22.129 cm/sec**2
     
  * For reference see Site Classification link of website 
     
 Base Line Corrected and Low Pass Filtered (Cut Off at 35 Hz) Time History
 Acceleration data in cm/sec**2
    
[...]
       0.925
       0.827
       0.556
       0.205
      -0.128
      -0.374
      -0.498
      -0.491
      -0.376
      -0.216
      -0.109
      -0.141
      -0.320
      -0.552
      -0.699
      -0.682
      -0.546
      -0.434
      -0.455
      -0.584
      -0.658
      -0.509
      -0.103
       0.410
       0.793
       0.889
       0.713
       0.423
       0.209
       0.192
       0.385
       0.709
       1.029
       1.209
       1.167
       0.907
       0.507
       0.066
      -0.343
      -0.685
      -0.940
      -1.085
      -1.101
      -1.003
      -0.837
      -0.654
      -0.475
      -0.302
      -0.143
      -0.032
      -0.008
      -0.072
      -0.166
      -0.207
      -0.140
       0.028
       0.236
       0.417
       0.535
       0.582
       0.566
       0.492
       0.375
       0.242
       0.122
       0.028
      -0.049
      -0.130
      -0.220
      -0.299
      -0.336
      -0.313
      -0.235
      -0.124
       0.005
       0.149
       0.311
       0.482
       0.636
       0.730
       0.713
       0.539
       0.198
      -0.242
      -0.638
      -0.831
      -0.755
      -0.486
      -0.194
      -0.008
       0.071
       0.134
       0.241
       0.333
       0.277
      -0.017
      -0.493
      -0.964
      -1.215
      -1.120
      -0.694
      -0.083
       0.501
       0.861
       0.913
       0.728
       0.488
       0.355
       0.368
       0.447
       0.483
       0.442
       0.377
       0.353
       0.383
       0.413
       0.385
       0.288
       0.171
       0.082
       0.018
      -0.061
      -0.175
      -0.300
      -0.401
      -0.481
      -0.585
      -0.748
      -0.943
      -1.082
      -1.065
      -0.853
      -0.491
      -0.088
       0.249
       0.457
       0.528
       0.491
       0.398
       0.316
       0.309
       0.404
       0.569
       0.716
       0.757
       0.659
       0.479
       0.326
       0.280
       0.322
       0.340
       0.213
      -0.102
      -0.539
      -0.957
      -1.218
      -1.267
      -1.164
      -1.039
      -0.998
      -1.050
      -1.111
      -1.088
      -0.960
      -0.790
      -0.665
      -0.602
      -0.532
      -0.364
      -0.084
       0.216
       0.416
       0.464
       0.420
       0.407
       0.506
       0.710
       0.941
       1.127
       1.250
       1.332
       1.389
       1.393
       1.282
       0.994
       0.518
      -0.088
      -0.698
      -1.169
      -1.409
      -1.426
      -1.326
      -1.239
      -1.252
      -1.372
      -1.554
      -1.744
      -1.892
      -1.934
      -1.778
      -1.332
      -0.576
       0.391
       1.378
       2.199
       2.762
       3.099
       3.314
       3.506
       3.704
       3.874
       3.957
       3.914
       3.733
       3.404
       2.910
       2.235
       1.398
       0.465
      -0.459
      -1.274
      -1.936
      -2.477
      -2.974
      -3.478
      -3.952
      -4.281
      -4.350
      -4.124
      -3.684
      -3.185
      -2.771
      -2.499
      -2.310
      -2.085
      -1.718
      -1.179
      -0.510
       0.206
       0.894
       1.505
       2.026
       2.469
       2.840
       3.128
       3.292
       3.293
       3.128
       2.842
       2.508
       2.172
       1.809
       1.337
       0.706
      -0.026
      -0.700
      -1.155
      -1.339
      -1.334
      -1.284
      -1.290
      -1.356
      -1.418
      -1.419
      -1.347
      -1.227
      -1.081
      -0.921
      -0.761
      -0.628
      -0.542
      -0.490
      -0.421
      -0.283
      -0.054
       0.231
       0.493
       0.651
       0.682
       0.632
       0.578
       0.566
       0.580
       0.559
       0.446
       0.230
      -0.051
      -0.331
      -0.552
      -0.674
      -0.671
      -0.528
      -0.262
       0.071
       0.377
       0.565
       0.577
       0.421
       0.164
      -0.094
      -0.260
      -0.294
      -0.220
      -0.108
      -0.024
       0.005
       0.008
       0.024
       0.056
       0.054
      -0.047
      -0.263
      -0.521
      -0.690
      -0.647
      -0.361
       0.073
       0.471
       0.659
       0.583
       0.344
       0.123
       0.047
       0.099
       0.147
       0.063
      -0.163
      -0.414
      -0.545
      -0.495
      -0.311
      -0.087
       0.116
       0.300
       0.494
       0.705
       0.918
       1.108
       1.254
       1.335
       1.315
       1.162
       0.874
       0.505
       0.154
      -0.081
      -0.156
      -0.122
      -0.118
      -0.302
      -0.747
      -1.356
      -1.892
      -2.118
      -1.957
      -1.547
      -1.140
      -0.931
      -0.949
      -1.062
      -1.079
      -0.864
      -0.402
       0.198
       0.748
       1.064
       1.051
       0.774
       0.456
       0.373
       0.692
       1.363
       2.146
       2.758
       3.022
       2.921
       2.533
       1.940
       1.192
       0.334
      -0.542
      -1.292
      -1.788
      -1.994
      -1.996
      -1.957
      -2.009
      -2.169
      -2.321
      -2.298
      -1.987
      -1.400
      -0.653
       0.101
       0.743
       1.195
       1.404
       1.338
       1.035
       0.635
       0.352
       0.361
       0.669
       1.102
       1.413
       1.442
       1.201
       0.826
       0.447
       0.098
      -0.260
      -0.630
      -0.911
      -0.936
      -0.609
      -0.012
       0.596
       0.922
       0.802
       0.284
      -0.428
      -1.102
      -1.582
      -1.805
      -1.761
      -1.458
      -0.945
      -0.342
       0.185
       0.495
       0.546
       0.399
       0.162
      -0.077
      -0.271
      -0.409
      -0.490
      -0.513
      -0.478
      -0.391
      -0.249
      -0.025
       0.299
       0.688
       1.034
       1.224
       1.240
       1.179
       1.171
       1.249
       1.323
       1.269
       1.047
       0.742
       0.468
       0.245
      -0.023
      -0.438
      -0.981
      -1.496
      -1.799
      -1.803
      -1.567
      -1.247
      -0.996
      -0.887
      -0.892
      -0.917
      -0.861
      -0.671
      -0.365
      -0.024
       0.250
       0.392
       0.407
       0.366
       0.363
       0.462
       0.655
       0.861
       0.967
       0.887
       0.627
       0.306
       0.102
       0.141
       0.402
       0.708
       0.827
       0.629
       0.188
      -0.254
      -0.443
      -0.280
       0.118
       0.504
       0.673
       0.579
       0.330
       0.083
      -0.077
      -0.186
      -0.348
      -0.628
      -0.974
      -1.232
      -1.247
      -0.985
      -0.566
      -0.196
      -0.014
      -0.003
      -0.020
       0.076
       0.308
       0.585
       0.801
       0.931
       1.019
       1.086
       1.062
       0.836
       0.378
      -0.184
      -0.616
      -0.735
      -0.540
      -0.214
      -0.007
      -0.069
      -0.374
      -0.754
      -1.024
      -1.090
      -0.980
      -0.794
      -0.622
      -0.495
      -0.387
      -0.268
      -0.141
      -0.045
       0.001
       0.042
       0.181
       0.502
       0.984
       1.481
       1.791
       1.796
       1.549
       1.239
       1.041
       0.989
       0.961
       0.800
       0.438
      -0.057
      -0.567
      -1.013
      -1.371
      -1.628
      -1.736
      -1.651
      -1.402
      -1.100
      -0.866
      -0.725
      -0.593
      -0.355
       0.034
       0.510
       0.936
       1.176
       1.163
       0.923
       0.571
       0.254
       0.070
       0.000
      -0.070
      -0.248
      -0.524
      -0.758
      -0.789
      -0.585
      -0.276
      -0.051
       0.007
      -0.014
       0.068
       0.359
       0.794
       1.176
       1.320
       1.168
       0.800
       0.371
       0.041
      -0.067
       0.099
       0.490
       0.944
       1.240
       1.216
       0.858
       0.303
      -0.264
      -0.726
      -1.081
      -1.399
      -1.725
      -2.014
      -2.138
      -1.964
      -1.446
      -0.669
       0.172
       0.856
       1.227
       1.251
       1.027
       0.724
       0.489
       0.358
       0.237
      -0.006
      -0.413
      -0.883
      -1.239
      -1.364
      -1.282
      -1.116
      -0.980
      -0.906
      -0.849
      -0.771
      -0.702
      -0.727
      -0.889
      -1.119
      -1.245
      -1.107
      -0.665
      -0.013
       0.702
       1.378
       1.991
       2.533
       2.939
       3.106
       2.986
       2.648
       2.236
       1.852
       1.495
       1.099
       0.637
       0.163
      -0.230
      -0.492
      -0.666
      -0.854
      -1.148
      -1.577
      -2.091
      -2.593
      -2.979
      -3.162
      -3.098
      -2.794
      -2.303
      -1.706
      -1.090
      -0.525
      -0.047
       0.367
       0.787
       1.276
       1.833
       2.368
       2.752
       2.909
       2.874
       2.764
       2.681
       2.626
       2.517
       2.282
       1.931
       1.553
       1.225
       0.946
       0.648
       0.264
      -0.211
      -0.706
      -1.113
      -1.342
      -1.368
      -1.253
      -1.128
      -1.137
      -1.352
      -1.708
      -2.021
      -2.101
      -1.878
      -1.445
      -0.987
      -0.654
      -0.488
      -0.450
      -0.487
      -0.574
      -0.694
      -0.795
      -0.798
      -0.660
      -0.441
      -0.272
      -0.249
      -0.348
      -0.434
      -0.379
      -0.159
       0.145
       0.429
       0.645
       0.819
       1.014
       1.286
       1.654
       2.082
       2.465
       2.639
       2.452
       1.872
       1.052
       0.270
      -0.227
      -0.361
      -0.238
      -0.050
       0.059
       0.047
      -0.048
      -0.165
      -0.258
      -0.314
      -0.363
      -0.465
      -0.688
      -1.052
      -1.496
      -1.868
      -1.989
      -1.737
      -1.147
      -0.426
       0.125
       0.284
       0.048
      -0.360
      -0.654
      -0.677
      -0.495
      -0.311
      -0.287
      -0.424
      -0.579
      -0.593
      -0.410
      -0.105
       0.195
       0.410
       0.542
       0.645
       0.772
       0.959
       1.243
       1.673
       2.259
       2.894
       3.317
       3.199
       2.356
       0.931
      -0.615
      -1.756
      -2.213
      -2.118
      -1.875
      -1.842
      -2.077
      -2.345
      -2.360
      -2.040
      -1.544
      -1.095
      -0.789
      -0.560
      -0.312
      -0.024
       0.251
       0.474
       0.669
       0.889
       1.138
       1.358
       1.475
       1.467
       1.376
       1.254
       1.119
       0.968
       0.825
       0.743
       0.755
       0.826
       0.852
       0.713
       0.339
      -0.249
      -0.929
      -1.538
      -1.951
      -2.131
      -2.137
      -2.068
      -1.991
      -1.876
      -1.597
      -1.021
      -0.129
       0.917
       1.839
       2.390
       2.487
       2.239
       1.867
       1.573
       1.453
       1.483
       1.561
       1.566
       1.402
       1.037
       0.521
      -0.038
      -0.520
      -0.827
      -0.912
      -0.794
      -0.568
      -0.378
      -0.350
      -0.509
      -0.749
      -0.901
      -0.838
      -0.555
      -0.159
       0.218
       0.508
       0.741
       0.997
       1.331
       1.723
       2.082
       2.297
       2.300
       2.106
       1.805
       1.507
       1.277
       1.118
       1.005
       0.915
       0.850
       0.816
       0.816
       0.854
       0.945
       1.100
       1.309
       1.538
       1.761
       2.005
       2.344
       2.823
       3.385
       3.878
       4.165
       4.224
       4.145
       4.007
       3.767
       3.262
       2.331
       0.941
      -0.785
      -2.642
      -4.440
      -6.039
      -7.343
      -8.297
      -8.931
      -9.362
      -9.713
      -9.974
      -9.954
      -9.379
      -8.095
      -6.199
      -4.007
      -1.876
      -0.016
       1.562
       2.983
       4.368
       5.752
       7.074
       8.212
       8.996
       9.205
       8.612
       7.090
       4.719
       1.795
      -1.279
      -4.165
      -6.698
      -8.859
     -10.662
     -12.068
     -13.005
     -13.458
     -13.517
     -13.318
     -12.922
     -12.248
     -11.107
      -9.346
      -6.972
      -4.182
      -1.264
       1.555
       4.190
       6.644
       8.866
      10.671
      11.811
      12.159
      11.838
      11.175
      10.479
       9.804
       8.908
       7.448
       5.273
       2.572
      -0.222
      -2.689
      -4.625
      -6.056
      -7.090
      -7.763
      -8.002
      -7.708
      -6.861
      -5.531
      -3.824
      -1.835
       0.335
       2.539
       4.596
       6.356
       7.751
       8.791
       9.512
       9.966
      10.249
      10.500
      10.826
      11.181
      11.321
      10.918
       9.783
       8.013
       5.933
       3.880
       1.991
       0.195
      -1.611
      -3.356
      -4.779
      -5.619
      -5.856
      -5.777
      -5.793
      -6.186
      -6.975
      -8.008
      -9.141
     -10.331
     -11.567
     -12.752
     -13.676
     -14.131
     -14.067
     -13.649
     -13.130
     -12.658
     -12.167
     -11.442
     -10.278
      -8.613
      -6.548
      -4.282
      -1.986
       0.309
       2.720
       5.376
       8.244
      11.082
      13.580
      15.562
      17.085
      18.376
      19.636
      20.866
      21.821
      22.129
      21.477
      19.755
      17.117
      13.931
      10.644
       7.614
       4.996
       2.744
       0.720
      -1.197
      -3.055
      -4.877
      -6.701
      -8.570
     -10.454
     -12.194
     -13.557
     -14.353
     -14.535
     -14.197
     -13.510
     -12.640
     -11.691
     -10.697
      -9.654
      -8.570
      -7.486
      -6.434
      -5.375
      -4.185
      -2.724
      -0.951
       1.020
       2.966
       4.689
       6.104
       7.242
       8.158
       8.861
       9.326
       9.554
       9.609
       9.553
       9.360
       8.886
       7.954
       6.490
       4.610
       2.592
       0.743
      -0.772
      -2.004
      -3.149
      -4.365
      -5.628
      -6.718
      -7.348
      -7.351
      -6.788
      -5.914
      -5.019
      -4.253
      -3.584
      -2.898
      -2.165
      -1.497
      -1.064
      -0.961
      -1.129
      -1.381
      -1.488
      -1.264
      -0.629
       0.363
       1.532
       2.616
       3.363
       3.610
       3.349
       2.737
       2.054
       1.615
       1.632
       2.108
       2.819
       3.415
       3.606
       3.294
       2.601
       1.751
       0.946
       0.279
      -0.243
      -0.628
      -0.863
      -0.920
      -0.788
      -0.494
      -0.097
       0.306
       0.564
       0.501
      -0.009
      -0.946
      -2.120
      -3.241
      -4.043
      -4.399
      -4.345
      -4.015
      -3.548
      -3.016
      -2.414
      -1.719
      -0.961
      -0.234
       0.355
       0.756
       1.007
       1.197
       1.399
       1.620
       1.813
       1.935
       1.998
       2.081
       2.271
       2.574
       2.878
       2.999
       2.795
       2.243
       1.448
       0.553
      -0.331
      -1.152
      -1.876
      -2.445
      -2.781
      -2.829
      -2.589
      -2.106
      -1.440
      -0.642
       0.230
       1.107
       1.921
       2.637
       3.249
       3.725
       3.951
       3.756
       3.026
       1.822
       0.405
      -0.881
      -1.790
      -2.293
      -2.550
      -2.772
      -3.075
      -3.424
      -3.691
      -3.751
      -3.547
      -3.088
      -2.440
      -1.708
      -1.022
      -0.495
      -0.170
      -0.009
       0.074
       0.166
       0.326
       0.590
       0.992
       1.548
       2.234
       2.979
       3.717
       4.435
       5.142
       5.778
       6.138
       5.942
       5.020
       3.474
       1.645
      -0.075
      -1.446
      -2.439
      -3.148
      -3.648
      -3.923
      -3.898
      -3.516
      -2.779
      -1.746
      -0.504
       0.819
       2.044
       2.949
       3.330
       3.085
       2.254
       0.995
      -0.485
      -2.010
      -3.463
      -4.766
      -5.835
      -6.560
      -6.840
      -6.643
      -6.045
      -5.216
      -4.344
      -3.545
      -2.819
      -2.090
      -1.282
      -0.365
       0.644
       1.701
       2.754
       3.753
       4.675
       5.534
       6.382
       7.260
       8.154
       8.952
       9.447
       9.377
       8.513
       6.785
       4.380
       1.711
      -0.734
      -2.610
      -3.835
      -4.571
      -5.065
      -5.493
      -5.897
      -6.229
      -6.434
      -6.505
      -6.483
      -6.413
      -6.300
      -6.068
      -5.560
      -4.597
      -3.097
      -1.176
       0.852
       2.608
       3.828
       4.472
       4.716
       4.826
       5.023
       5.377
       5.800
       6.094
       6.050
       5.539
       4.575
       3.300
       1.916
       0.583
      -0.628
      -1.701
      -2.604
      -3.256
      -3.586
      -3.593
      -3.365
      -3.013
      -2.616
      -2.212
      -1.835
      -1.542
      -1.377
      -1.312
      -1.228
      -0.984
      -0.536
       0.009
       0.463
       0.708
       0.767
       0.764
       0.808
       0.932
       1.115
       1.335
       1.586
       1.839
       2.010
       1.964
       1.585
       0.839
      -0.193
      -1.327
      -2.338
      -3.019
      -3.234
      -2.960
      -2.287
      -1.382
      -0.416
       0.513
       1.409
       2.331
       3.294
       4.184
       4.759
       4.749
       3.990
       2.510
       0.505
      -1.733
      -3.901
      -5.727
      -6.993
      -7.561
      -7.413
      -6.662
      -5.527
      -4.255
      -3.059
      -2.071
      -1.335
      -0.809
      -0.385
       0.071
       0.675
       1.509
       2.613
       3.979
       5.521
       7.054
       8.343
       9.184
       9.490
       9.311
       8.768
       7.946
       6.837
       5.384
       3.584
       1.550
      -0.522
      -2.447
      -4.129
      -5.557
      -6.734
      -7.602
      -8.053
      -8.010
      -7.505
      -6.688
      -5.745
      -4.809
      -3.930
      -3.111
      -2.342
      -1.605
      -0.872
      -0.140
       0.543
       1.082
       1.393
       1.470
       1.384
       1.246
       1.166
       1.237
       1.535
       2.079
       2.771
       3.394
       3.705
       3.580
       3.101
       2.492
       1.953
       1.536
       1.154
       0.721
       0.261
      -0.091
      -0.207
      -0.085
       0.123
       0.205
       0.008
      -0.481
      -1.155
      -1.859
      -2.465
      -2.903
      -3.149
      -3.195
      -3.032
      -2.657
      -2.082
      -1.344
      -0.489
       0.422
       1.302
       2.039
       2.517
       2.682
       2.571
       2.298
       1.983
       1.690
       1.434
       1.241
       1.173
       1.268
       1.438
       1.465
       1.132
       0.394
      -0.560
      -1.436
      -2.026
      -2.320
      -2.455
      -2.572
      -2.715
      -2.831
      -2.847
      -2.734
      -2.527
      -2.272
      -1.980
      -1.605
