Origin Time       29/08/2013 10:13:21
Lat.              31.4 N	
Long.             76.1 E	
Depth (Km)         10.0
Magnitude         4.7
 Region           HIMACHAL-PUNJAB-(HOSHIARPUR)-BORDER                              
 Above details taken from IMD 
     
Station Code      ANS
Station Lat.       31.237  N
Station Long.      76.493  E
Station Height(m)  320.0
Site Class        C   Vs30 between 200 m/sec to 375 m/sec *  
Record Time       29.08.2013 10:12:58.154
Sampling Rate     200. Hz
 Record Duration   87.210 Sec.
 Direction         E-W (E positive)
Max. Acceleration    -25.864 cm/sec**2
     
  * For reference see Site Classification link of website 
     
 Base Line Corrected and Low Pass Filtered (Cut Off at 35 Hz) Time History
 Acceleration data in cm/sec**2
    
[...]
      -0.293
      -0.316
      -0.126
       0.123
       0.273
       0.244
       0.057
      -0.190
      -0.388
      -0.464
      -0.401
      -0.230
      -0.014
       0.169
       0.236
       0.139
      -0.095
      -0.354
      -0.490
      -0.421
      -0.197
       0.017
       0.061
      -0.094
      -0.309
      -0.378
      -0.178
       0.234
       0.657
       0.871
       0.773
       0.423
      -0.011
      -0.359
      -0.521
      -0.489
      -0.306
      -0.043
       0.214
       0.380
       0.389
       0.231
      -0.044
      -0.342
      -0.551
      -0.585
      -0.416
      -0.080
       0.340
       0.735
       1.003
       1.073
       0.924
       0.592
       0.151
      -0.298
      -0.653
      -0.824
      -0.779
      -0.568
      -0.311
      -0.136
      -0.109
      -0.209
      -0.362
      -0.504
      -0.604
      -0.644
      -0.589
      -0.389
      -0.022
       0.452
       0.903
       1.192
       1.238
       1.046
       0.688
       0.267
      -0.115
      -0.389
      -0.527
      -0.538
      -0.446
      -0.272
      -0.042
       0.200
       0.390
       0.468
       0.412
       0.257
       0.073
      -0.076
      -0.156
      -0.165
      -0.110
      -0.008
       0.107
       0.173
       0.130
      -0.040
      -0.289
      -0.536
      -0.711
      -0.792
      -0.797
      -0.754
      -0.679
      -0.579
      -0.466
      -0.361
      -0.271
      -0.173
      -0.022
       0.198
       0.452
       0.666
       0.785
       0.822
       0.837
       0.874
       0.916
       0.896
       0.755
       0.500
       0.203
      -0.038
      -0.148
      -0.098
       0.082
       0.295
       0.390
       0.224
      -0.240
      -0.866
      -1.398
      -1.595
      -1.373
      -0.848
      -0.266
       0.140
       0.256
       0.123
      -0.132
      -0.373
      -0.507
      -0.495
      -0.345
      -0.108
       0.148
       0.365
       0.524
       0.641
       0.753
       0.883
       1.021
       1.129
       1.157
       1.068
       0.860
       0.576
       0.303
       0.139
       0.130
       0.227
       0.311
       0.263
       0.040
      -0.302
      -0.644
      -0.870
      -0.917
      -0.801
      -0.605
      -0.442
      -0.411
      -0.547
      -0.794
      -1.035
      -1.153
      -1.093
      -0.883
      -0.595
      -0.288
       0.010
       0.275
       0.462
       0.511
       0.411
       0.234
       0.115
       0.170
       0.428
       0.822
       1.237
       1.559
       1.709
       1.658
       1.436
       1.118
       0.788
       0.487
       0.202
      -0.121
      -0.521
      -0.984
      -1.439
      -1.797
      -2.011
      -2.084
      -2.049
      -1.939
      -1.784
      -1.622
      -1.495
      -1.428
      -1.416
      -1.408
      -1.319
      -1.068
      -0.625
      -0.045
       0.553
       1.053
       1.400
       1.637
       1.861
       2.150
       2.506
       2.843
       3.054
       3.070
       2.892
       2.572
       2.166
       1.704
       1.193
       0.643
       0.089
      -0.409
      -0.807
      -1.096
      -1.296
      -1.429
      -1.498
      -1.503
      -1.472
      -1.476
      -1.585
      -1.810
      -2.080
      -2.277
      -2.307
      -2.142
      -1.817
      -1.406
      -0.980
      -0.578
      -0.200
       0.189
       0.620
       1.085
       1.516
       1.810
       1.897
       1.785
       1.561
       1.335
       1.174
       1.088
       1.058
       1.067
       1.100
       1.131
       1.102
       0.944
       0.623
       0.176
      -0.296
      -0.680
      -0.915
      -1.021
      -1.070
      -1.131
      -1.217
      -1.276
      -1.233
      -1.054
      -0.775
      -0.478
      -0.236
      -0.082
      -0.009
       0.008
      -0.010
      -0.039
      -0.043
       0.024
       0.204
       0.501
       0.868
       1.211
       1.423
       1.423
       1.204
       0.832
       0.427
       0.113
      -0.028
       0.010
       0.139
       0.213
       0.101
      -0.235
      -0.705
      -1.130
      -1.335
      -1.242
      -0.912
      -0.519
      -0.253
      -0.226
      -0.417
      -0.686
      -0.848
      -0.765
      -0.416
       0.082
       0.528
       0.735
       0.622
       0.258
      -0.168
      -0.436
      -0.398
      -0.041
       0.513
       1.070
       1.456
       1.582
       1.472
       1.223
       0.949
       0.728
       0.568
       0.413
       0.183
      -0.175
      -0.636
      -1.091
      -1.392
      -1.430
      -1.200
      -0.803
      -0.416
      -0.209
      -0.272
      -0.565
      -0.938
      -1.204
      -1.228
      -0.976
      -0.504
       0.093
       0.716
       1.269
       1.657
       1.793
       1.635
       1.221
       0.666
       0.119
      -0.294
      -0.511
      -0.547
      -0.482
      -0.423
      -0.460
      -0.615
      -0.829
      -0.996
      -1.009
      -0.815
      -0.430
       0.065
       0.561
       0.963
       1.201
       1.243
       1.089
       0.783
       0.402
       0.043
      -0.203
      -0.262
      -0.108
       0.215
       0.588
       0.855
       0.891
       0.658
       0.215
      -0.307
      -0.762
      -1.038
      -1.079
      -0.896
      -0.568
      -0.231
      -0.049
      -0.136
      -0.469
      -0.874
      -1.113
      -1.023
      -0.625
      -0.117
       0.258
       0.364
       0.255
       0.111
       0.112
       0.322
       0.680
       1.053
       1.310
       1.366
       1.192
       0.814
       0.310
      -0.191
      -0.537
      -0.609
      -0.392
       0.005
       0.408
       0.669
       0.736
       0.644
       0.467
       0.262
       0.043
      -0.208
      -0.503
      -0.806
      -1.033
      -1.090
      -0.938
      -0.647
      -0.387
      -0.347
      -0.614
      -1.085
      -1.509
      -1.634
      -1.355
      -0.748
       0.001
       0.706
       1.245
       1.567
       1.662
       1.559
       1.326
       1.069
       0.892
       0.844
       0.897
       0.972
       0.989
       0.892
       0.653
       0.279
      -0.181
      -0.642
      -1.014
      -1.238
      -1.305
      -1.243
      -1.086
      -0.873
      -0.657
      -0.516
      -0.522
      -0.685
      -0.920
      -1.086
      -1.077
      -0.887
      -0.596
      -0.291
       0.004
       0.327
       0.712
       1.143
       1.559
       1.900
       2.137
       2.254
       2.209
       1.942
       1.423
       0.710
      -0.045
      -0.650
      -0.975
      -1.013
      -0.892
      -0.808
      -0.916
      -1.235
      -1.630
      -1.885
      -1.845
      -1.508
      -1.020
      -0.564
      -0.245
      -0.060
       0.038
       0.076
       0.051
      -0.021
      -0.074
      -0.026
       0.157
       0.425
       0.679
       0.849
       0.933
       0.968
       0.976
       0.938
       0.836
       0.690
       0.559
       0.495
       0.512
       0.575
       0.618
       0.588
       0.485
       0.373
       0.336
       0.407
       0.536
       0.600
       0.476
       0.120
      -0.392
      -0.887
      -1.188
      -1.204
      -0.970
      -0.611
      -0.287
      -0.138
      -0.246
      -0.622
      -1.190
      -1.789
      -2.203
      -2.243
      -1.856
      -1.174
      -0.448
       0.101
       0.412
       0.596
       0.827
       1.202
       1.666
       2.045
       2.150
       1.894
       1.349
       0.712
       0.205
      -0.032
       0.004
       0.204
       0.426
       0.564
       0.571
       0.436
       0.158
      -0.247
      -0.721
      -1.165
      -1.499
      -1.719
      -1.883
      -2.036
      -2.133
      -2.045
      -1.644
      -0.917
      -0.001
       0.880
       1.541
       1.912
       2.038
       2.008
       1.887
       1.700
       1.460
       1.198
       0.952
       0.736
       0.525
       0.293
       0.060
      -0.108
      -0.156
      -0.095
      -0.011
      -0.022
      -0.219
      -0.620
      -1.167
      -1.751
      -2.253
      -2.584
      -2.706
      -2.633
      -2.408
      -2.070
      -1.636
      -1.110
      -0.522
       0.054
       0.520
       0.808
       0.932
       0.980
       1.070
       1.272
       1.574
       1.900
       2.177
       2.377
       2.513
       2.592
       2.579
       2.410
       2.051
       1.537
       0.960
       0.412
      -0.062
      -0.453
      -0.761
      -0.982
      -1.136
      -1.300
      -1.563
      -1.953
      -2.372
      -2.630
      -2.565
      -2.153
      -1.527
      -0.900
      -0.442
      -0.205
      -0.118
      -0.039
       0.172
       0.586
       1.168
       1.789
       2.287
       2.529
       2.457
       2.101
       1.560
       0.968
       0.457
       0.107
      -0.081
      -0.183
      -0.310
      -0.539
      -0.869
      -1.241
      -1.583
      -1.854
      -2.052
      -2.183
      -2.250
      -2.254
      -2.192
      -2.047
      -1.773
      -1.295
      -0.561
       0.396
       1.434
       2.352
       2.986
       3.273
       3.256
       3.027
       2.678
       2.273
       1.843
       1.400
       0.949
       0.492
       0.046
      -0.352
      -0.658
      -0.865
      -1.045
      -1.321
      -1.792
      -2.446
      -3.146
      -3.690
      -3.909
      -3.737
      -3.211
      -2.433
      -1.531
      -0.643
       0.107
       0.657
       1.047
       1.398
       1.826
       2.348
       2.850
       3.160
       3.178
       2.955
       2.666
       2.489
       2.483
       2.559
       2.549
       2.312
       1.803
       1.078
       0.265
      -0.500
      -1.127
      -1.599
      -1.964
      -2.292
      -2.626
      -2.940
      -3.140
      -3.122
      -2.844
      -2.363
      -1.815
      -1.353
      -1.064
      -0.930
      -0.838
      -0.650
      -0.280
       0.253
       0.818
       1.226
       1.333
       1.133
       0.799
       0.611
       0.798
       1.394
       2.183
       2.800
       2.921
       2.453
       1.593
       0.729
       0.211
       0.159
       0.415
       0.670
       0.665
       0.322
      -0.251
      -0.849
      -1.290
      -1.484
      -1.444
      -1.267
      -1.105
      -1.127
      -1.454
      -2.074
      -2.792
      -3.288
      -3.273
      -2.660
      -1.631
      -0.545
       0.270
       0.678
       0.774
       0.782
       0.913
       1.261
       1.790
       2.371
       2.829
       2.995
       2.776
       2.216
       1.505
       0.891
       0.549
       0.483
       0.522
       0.428
       0.044
      -0.601
      -1.302
      -1.813
      -2.001
      -1.909
      -1.710
      -1.588
      -1.626
      -1.762
      -1.840
      -1.733
      -1.424
      -0.984
      -0.480
       0.087
       0.750
       1.485
       2.152
       2.535
       2.481
       2.032
       1.430
       0.972
       0.805
       0.852
       0.900
       0.778
       0.474
       0.120
      -0.118
      -0.157
      -0.037
       0.136
       0.266
       0.293
       0.187
      -0.045
      -0.339
      -0.562
      -0.560
      -0.242
       0.355
       1.061
       1.668
       2.038
       2.170
       2.162
       2.130
       2.131
       2.149
       2.136
       2.064
       1.942
       1.794
       1.626
       1.407
       1.089
       0.673
       0.239
      -0.077
      -0.171
      -0.058
       0.118
       0.170
       0.022
      -0.214
      -0.312
      -0.107
       0.391
       1.035
       1.668
       2.225
       2.730
       3.220
       3.686
       4.069
       4.282
       4.236
       3.833
       2.957
       1.527
      -0.405
      -2.608
      -4.749
      -6.565
      -7.991
      -9.145
     -10.187
     -11.187
     -12.076
     -12.708
     -12.968
     -12.840
     -12.407
     -11.787
     -11.064
     -10.248
      -9.265
      -7.970
      -6.208
      -3.904
      -1.162
       1.720
       4.350
       6.393
       7.696
       8.286
       8.275
       7.781
       6.905
       5.778
       4.595
       3.565
       2.843
       2.497
       2.551
       3.032
       3.939
       5.158
       6.404
       7.285
       7.468
       6.818
       5.439
       3.596
       1.598
      -0.287
      -1.849
      -2.926
      -3.399
      -3.215
      -2.424
      -1.207
       0.151
       1.346
       2.145
       2.438
       2.233
       1.605
       0.661
      -0.471
      -1.646
      -2.717
      -3.568
      -4.156
      -4.524
      -4.760
      -4.920
      -4.951
      -4.699
      -3.994
      -2.750
      -1.011
       1.074
       3.316
       5.541
       7.607
       9.405
      10.863
      11.955
      12.687
      13.050
      12.957
      12.261
      10.865
       8.831
       6.395
       3.850
       1.385
      -1.003
      -3.445
      -6.048
      -8.784
     -11.509
     -14.076
     -16.420
     -18.536
     -20.393
     -21.892
     -22.901
     -23.296
     -22.937
     -21.627
     -19.131
     -15.300
     -10.216
      -4.279
       1.841
       7.404
      11.886
      15.185
      17.585
      19.498
      21.168
      22.550
      23.417
      23.589
      23.090
      22.146
      21.023
      19.839
      18.476
      16.659
      14.120
      10.769
       6.790
       2.594
      -1.359
      -4.806
      -7.810
     -10.673
     -13.686
     -16.906
     -20.106
     -22.907
     -24.929
     -25.864
     -25.508
     -23.827
     -21.041
     -17.625
     -14.167
     -11.143
      -8.735
      -6.785
      -4.925
      -2.813
      -0.336
       2.364
       5.060
       7.630
      10.082
      12.427
      14.528
      16.110
      16.893
      16.756
      15.792
      14.259
      12.488
      10.757
       9.185
       7.672
       5.954
       3.792
       1.180
      -1.576
      -3.981
      -5.612
      -6.316
      -6.230
      -5.664
      -4.977
      -4.491
      -4.429
      -4.823
      -5.455
      -5.899
      -5.684
      -4.494
      -2.313
       0.559
       3.597
       6.200
       7.869
       8.353
       7.724
       6.343
       4.712
       3.254
       2.155
       1.322
       0.488
      -0.621
      -2.140
      -3.987
      -5.897
      -7.538
      -8.659
      -9.181
      -9.174
      -8.758
      -8.005
      -6.933
      -5.577
      -4.046
      -2.493
      -1.025
       0.360
       1.723
       3.107
       4.486
       5.793
       6.942
       7.828
       8.308
       8.202
       7.363
       5.794
       3.728
       1.592
      -0.153
      -1.200
      -1.488
      -1.163
      -0.455
       0.417
       1.291
       2.062
       2.673
       3.107
       3.369
       3.443
       3.276
       2.794
       1.951
       0.772
      -0.631
      -2.086
      -3.392
      -4.356
      -4.837
      -4.798
      -4.350
      -3.752
      -3.335
      -3.358
      -3.874
      -4.709
      -5.556
      -6.128
      -6.252
      -5.876
      -5.010
      -3.696
      -2.032
      -0.220
       1.445
       2.673
       3.326
       3.511
       3.540
       3.768
       4.407
       5.425
       6.579
       7.560
       8.125
       8.164
       7.676
       6.722
       5.407
       3.884
       2.352
       0.995
      -0.087
      -0.926
      -1.657
      -2.416
      -3.246
      -4.058
      -4.676
      -4.944
      -4.813
      -4.359
      -3.731
      -3.063
      -2.417
      -1.785
      -1.158
      -0.591
      -0.222
      -0.195
      -0.559
      -1.188
      -1.818
      -2.167
      -2.076
      -1.586
      -0.898
      -0.264
       0.123
       0.205
       0.078
      -0.036
       0.125
       0.729
       1.737
       2.889
       3.819
       4.239
       4.066
       3.435
       2.583
       1.704
       0.861
       0.019
      -0.854
      -1.704
      -2.402
      -2.817
      -2.908
      -2.750
      -2.488
      -2.241
      -2.034
      -1.812
      -1.516
      -1.154
      -0.808
      -0.601
      -0.651
      -1.015
      -1.636
      -2.306
      -2.718
      -2.592
      -1.807
      -0.460
       1.183
       2.799
       4.130
       5.033
       5.477
       5.503
       5.175
       4.554
       3.675
       2.562
       1.253
      -0.154
      -1.495
      -2.585
      -3.289
      -3.584
      -3.555
      -3.334
      -3.027
      -2.665
      -2.222
      -1.672
      -1.016
      -0.290
       0.444
       1.109
       1.636
       1.999
       2.254
       2.514
       2.870
       3.317
       3.728
       3.918
       3.722
       3.065
       1.989
       0.625
      -0.829
      -2.136
      -3.058
      -3.438
      -3.283
      -2.792
      -2.261
      -1.925
      -1.838
      -1.854
      -1.718
      -1.219
      -0.318
       0.798
       1.772
       2.228
       1.952
       0.987
      -0.395
      -1.818
      -2.936
      -3.503
      -3.375
      -2.520
      -1.046
       0.776
       2.559
       3.937
       4.701
       4.848
       4.500
       3.798
       2.844
       1.728
       0.591
      -0.359
      -0.911
      -0.954
      -0.553
       0.077
       0.657
       0.964
       0.899
       0.495
      -0.103
      -0.683
      -1.035
      -1.045
      -0.760
      -0.363
      -0.062
       0.020
      -0.119
      -0.411
      -0.774
      -1.141
      -1.451
      -1.674
      -1.835
      -2.026
      -2.345
      -2.817
      -3.353
      -3.780
      -3.918
      -3.647
      -2.932
      -1.826
      -0.444
       1.063
       2.527
       3.771
       4.613
       4.905
       4.612
       3.856
       2.888
       1.973
       1.283
       0.849
       0.606
       0.463
       0.355
       0.236
       0.076
      -0.149
      -0.433
      -0.736
      -0.991
      -1.129
      -1.089
      -0.841
      -0.402
       0.135
       0.604
       0.807
       0.610
       0.018
      -0.801
      -1.589
      -2.120
      -2.301
      -2.182
      -1.891
      -1.549
      -1.229
      -0.960
      -0.749
      -0.583
      -0.417
      -0.195
       0.107
       0.444
       0.726
       0.892
       0.951
       0.964
       0.979
       1.001
       1.002
       0.957
       0.858
       0.705
       0.497
       0.238
      -0.046
      -0.308
      -0.497
      -0.585
      -0.559
      -0.403
      -0.085
       0.406
       1.033
       1.681
       2.187
       2.402
       2.259
       1.811
       1.200
       0.597
       0.132
      -0.154
      -0.318
      -0.475
      -0.730
      -1.116
      -1.590
      -2.079
      -2.528
      -2.912
      -3.190
      -3.278
      -3.078
      -2.546
      -1.755
      -0.867
      -0.040
       0.674
       1.341
       2.051
       2.802
       3.451
       3.774
       3.594
       2.883
       1.777
       0.511
      -0.692
      -1.678
      -2.368
      -2.732
      -2.762
      -2.483
      -1.951
      -1.263
      -0.545
       0.064
       0.442
       0.508
       0.251
      -0.260
      -0.878
      -1.414
      -1.687
      -1.580
      -1.070
      -0.246
       0.719
       1.617
       2.261
       2.543
       2.448
       2.038
       1.427
       0.755
       0.167
      -0.214
      -0.314
      -0.122
       0.317
       0.920
       1.598
