Origin Time       27/3/2012 23:40:08	
Lat.              26.1 N	
Long.             87.8 E	
Depth (Km)         12.0
Magnitude         4.9
 Region           India-Nepal                                                      
 Above details taken from IMD 
     
Station Code      ARI
Station Lat.       26.134  N
Station Long.      87.466  E
Station Height(m)   52.0
Site Class        C   Vs30 between 200 m/sec to 375 m/sec *  
Record Time       27.03.2012 23:39:52.394
Sampling Rate     200. Hz
 Record Duration   91.750 Sec.
 Direction         E-W (E positive)
Max. Acceleration     27.882 cm/sec**2
     
  * For reference see Site Classification link of website 
     
 Base Line Corrected and Low Pass Filtered (Cut Off at 35 Hz) Time History
 Acceleration data in cm/sec**2
    
[...]
       0.085
       0.274
       0.438
       0.491
       0.400
       0.185
      -0.096
      -0.360
      -0.542
      -0.659
      -0.808
      -1.056
      -1.333
      -1.467
      -1.358
      -1.104
      -0.916
      -0.919
      -1.045
      -1.117
      -1.024
      -0.784
      -0.494
      -0.237
      -0.057
       0.028
       0.020
      -0.048
      -0.117
      -0.116
       0.009
       0.278
       0.660
       1.086
       1.490
       1.828
       2.064
       2.152
       2.057
       1.796
       1.459
       1.168
       1.005
       0.968
       0.993
       1.025
       1.058
       1.090
       1.059
       0.881
       0.549
       0.184
      -0.065
      -0.158
      -0.179
      -0.214
      -0.257
      -0.262
      -0.261
      -0.373
      -0.674
      -1.077
      -1.376
      -1.389
      -1.085
      -0.593
      -0.108
       0.219
       0.343
       0.296
       0.116
      -0.193
      -0.615
      -1.076
      -1.444
      -1.586
      -1.434
      -1.015
      -0.456
       0.069
       0.426
       0.603
       0.696
       0.784
       0.835
       0.752
       0.509
       0.210
       0.002
      -0.045
       0.034
       0.171
       0.315
       0.427
       0.466
       0.425
       0.345
       0.266
       0.178
       0.036
      -0.176
      -0.439
      -0.747
      -1.134
      -1.624
      -2.162
      -2.591
      -2.729
      -2.479
      -1.923
      -1.306
      -0.890
      -0.769
      -0.830
      -0.905
      -0.944
      -0.988
      -1.016
      -0.902
      -0.552
      -0.040
       0.447
       0.793
       1.036
       1.285
       1.582
       1.845
       1.958
       1.879
       1.684
       1.494
       1.377
       1.324
       1.290
       1.245
       1.179
       1.082
       0.935
       0.724
       0.472
       0.255
       0.171
       0.267
       0.478
       0.640
       0.595
       0.305
      -0.126
      -0.521
      -0.749
      -0.794
      -0.731
      -0.651
      -0.611
      -0.631
      -0.703
      -0.792
      -0.839
      -0.801
      -0.683
      -0.531
      -0.408
      -0.359
      -0.401
      -0.494
      -0.550
      -0.458
      -0.155
       0.327
       0.839
       1.169
       1.155
       0.791
       0.250
      -0.213
      -0.425
      -0.368
      -0.136
       0.164
       0.450
       0.654
       0.702
       0.558
       0.272
      -0.007
      -0.119
      -0.019
       0.174
       0.262
       0.136
      -0.140
      -0.407
      -0.549
      -0.530
      -0.349
       0.003
       0.486
       0.964
       1.243
       1.200
       0.858
       0.367
      -0.088
      -0.382
      -0.481
      -0.399
      -0.146
       0.255
       0.695
       0.998
       1.056
       0.946
       0.851
       0.865
       0.903
       0.797
       0.477
       0.047
      -0.277
      -0.308
      -0.018
       0.444
       0.852
       1.035
       0.937
       0.599
       0.118
      -0.361
      -0.695
      -0.855
      -0.971
      -1.227
      -1.679
      -2.196
      -2.562
      -2.638
      -2.427
      -2.040
      -1.631
      -1.348
      -1.282
      -1.427
      -1.672
      -1.853
      -1.851
      -1.654
      -1.329
      -0.942
      -0.511
      -0.031
       0.459
       0.874
       1.145
       1.283
       1.376
       1.508
       1.691
       1.851
       1.867
       1.647
       1.200
       0.657
       0.219
       0.045
       0.173
       0.488
       0.780
       0.831
       0.517
      -0.128
      -0.918
      -1.602
      -1.980
      -1.971
      -1.619
      -1.056
      -0.459
       0.018
       0.314
       0.492
       0.687
       0.995
       1.413
       1.859
       2.247
       2.504
       2.548
       2.288
       1.717
       0.986
       0.376
       0.133
       0.305
       0.707
       1.041
       1.083
       0.798
       0.311
      -0.221
      -0.722
      -1.191
      -1.630
      -2.007
      -2.273
      -2.408
      -2.422
      -2.334
      -2.138
      -1.819
      -1.403
      -0.976
      -0.636
      -0.411
      -0.256
      -0.129
      -0.054
      -0.070
      -0.135
      -0.110
       0.121
       0.527
       0.947
       1.241
       1.405
       1.516
       1.596
       1.541
       1.232
       0.692
       0.104
      -0.335
      -0.553
      -0.591
      -0.486
      -0.233
       0.138
       0.497
       0.676
       0.594
       0.314
      -0.018
      -0.288
      -0.471
      -0.599
      -0.679
      -0.679
      -0.583
      -0.454
      -0.381
      -0.366
      -0.295
      -0.050
       0.347
       0.730
       0.925
       0.881
       0.675
       0.424
       0.210
       0.096
       0.156
       0.455
       0.960
       1.502
       1.836
       1.800
       1.428
       0.933
       0.536
       0.294
       0.063
      -0.320
      -0.837
      -1.278
      -1.411
      -1.164
      -0.637
      -0.014
       0.523
       0.830
       0.820
       0.492
      -0.064
      -0.706
      -1.286
      -1.701
      -1.913
      -1.937
      -1.801
      -1.543
      -1.224
      -0.952
      -0.817
      -0.803
      -0.791
      -0.667
      -0.448
      -0.267
      -0.230
      -0.297
      -0.311
      -0.138
       0.223
       0.667
       1.062
       1.310
       1.362
       1.238
       1.021
       0.813
       0.661
       0.528
       0.374
       0.219
       0.141
       0.173
       0.260
       0.306
       0.270
       0.188
       0.115
       0.053
      -0.048
      -0.255
      -0.591
      -1.002
      -1.360
      -1.504
      -1.310
      -0.785
      -0.087
       0.531
       0.870
       0.901
       0.744
       0.542
       0.373
       0.262
       0.238
       0.322
       0.472
       0.566
       0.490
       0.247
      -0.037
      -0.211
      -0.199
      -0.032
       0.200
       0.423
       0.623
       0.804
       0.934
       0.943
       0.801
       0.569
       0.358
       0.231
       0.174
       0.145
       0.136
       0.178
       0.300
       0.513
       0.780
       0.995
       1.006
       0.712
       0.159
      -0.470
      -0.973
      -1.244
      -1.286
      -1.148
      -0.879
      -0.553
      -0.268
      -0.109
      -0.082
      -0.113
      -0.130
      -0.139
      -0.218
      -0.448
      -0.823
      -1.233
      -1.525
      -1.588
      -1.403
      -1.012
      -0.486
       0.082
       0.570
       0.866
       0.936
       0.838
       0.662
       0.459
       0.246
       0.068
       0.010
       0.110
       0.270
       0.307
       0.138
      -0.102
      -0.175
       0.013
       0.306
       0.460
       0.381
       0.176
      -0.008
      -0.142
      -0.288
      -0.466
      -0.596
      -0.570
      -0.346
       0.025
       0.432
       0.747
       0.855
       0.695
       0.317
      -0.122
      -0.436
      -0.531
      -0.448
      -0.327
      -0.311
      -0.471
      -0.762
      -1.053
      -1.212
      -1.199
      -1.070
      -0.910
      -0.756
      -0.601
      -0.421
      -0.192
       0.104
       0.452
       0.802
       1.106
       1.354
       1.558
       1.710
       1.775
       1.742
       1.653
       1.563
       1.497
       1.441
       1.366
       1.218
       0.927
       0.447
      -0.151
      -0.679
      -0.955
      -0.973
      -0.927
      -1.045
      -1.408
      -1.918
      -2.419
      -2.785
      -2.929
      -2.802
      -2.443
      -1.991
      -1.602
      -1.336
      -1.137
      -0.924
      -0.664
      -0.372
      -0.074
       0.213
       0.495
       0.782
       1.044
       1.195
       1.183
       1.084
       1.078
       1.307
       1.755
       2.246
       2.556
       2.541
       2.208
       1.704
       1.233
       0.955
       0.902
       0.950
       0.885
       0.532
      -0.110
      -0.866
      -1.504
      -1.869
      -1.907
      -1.609
      -1.010
      -0.254
       0.390
       0.633
       0.350
      -0.331
      -1.107
      -1.656
      -1.772
      -1.418
      -0.723
       0.067
       0.670
       0.879
       0.666
       0.216
      -0.165
      -0.239
       0.000
       0.329
       0.473
       0.295
      -0.153
      -0.731
      -1.308
      -1.775
      -2.014
      -1.930
      -1.526
      -0.921
      -0.278
       0.288
       0.727
       0.997
       1.055
       0.926
       0.765
       0.760
       0.949
       1.155
       1.161
       0.948
       0.717
       0.701
       0.970
       1.405
       1.816
       2.049
       2.018
       1.714
       1.201
       0.589
      -0.022
      -0.564
      -0.981
      -1.218
      -1.245
      -1.089
      -0.828
      -0.563
      -0.410
      -0.483
      -0.829
      -1.340
      -1.762
      -1.849
      -1.553
      -1.066
      -0.654
      -0.450
      -0.398
      -0.360
      -0.248
      -0.073
       0.093
       0.182
       0.192
       0.201
       0.288
       0.433
       0.517
       0.449
       0.275
       0.168
       0.301
       0.723
       1.334
       1.948
       2.366
       2.438
       2.109
       1.455
       0.665
      -0.032
      -0.491
      -0.725
      -0.867
      -1.057
      -1.327
      -1.599
      -1.788
      -1.857
      -1.782
      -1.487
      -0.888
      -0.052
       0.729
       1.069
       0.787
       0.102
      -0.478
      -0.518
       0.032
       0.844
       1.508
       1.817
       1.812
       1.621
       1.320
       0.901
       0.343
      -0.294
      -0.852
      -1.166
      -1.215
      -1.152
      -1.152
      -1.219
      -1.190
      -0.922
      -0.456
       0.021
       0.310
       0.278
      -0.137
      -0.902
      -1.838
      -2.644
      -3.026
      -2.839
      -2.131
      -1.063
       0.199
       1.520
       2.757
       3.726
       4.270
       4.360
       4.114
       3.686
       3.137
       2.440
       1.606
       0.773
       0.148
      -0.163
      -0.253
      -0.326
      -0.499
      -0.708
      -0.799
      -0.705
      -0.530
      -0.496
      -0.784
      -1.415
      -2.240
      -3.044
      -3.642
      -3.929
      -3.887
      -3.597
      -3.199
      -2.818
      -2.510
      -2.287
      -2.174
      -2.193
      -2.283
      -2.277
      -1.993
      -1.363
      -0.485
       0.413
       1.073
       1.343
       1.286
       1.173
       1.309
       1.792
       2.428
       2.864
       2.842
       2.365
       1.670
       1.065
       0.764
       0.801
       1.051
       1.302
       1.388
       1.303
       1.195
       1.222
       1.387
       1.544
       1.552
       1.381
       1.059
       0.568
      -0.139
      -1.003
      -1.778
      -2.149
      -1.953
      -1.309
      -0.539
       0.038
       0.267
       0.165
      -0.151
      -0.519
      -0.745
      -0.676
      -0.301
       0.222
       0.690
       0.983
       1.086
       1.021
       0.816
       0.528
       0.253
       0.065
      -0.041
      -0.146
      -0.335
      -0.601
      -0.820
      -0.811
      -0.454
       0.233
       1.092
       1.882
       2.350
       2.312
       1.754
       0.860
      -0.064
      -0.752
      -1.099
      -1.183
      -1.183
      -1.282
      -1.569
      -1.974
      -2.266
      -2.191
      -1.693
      -1.016
      -0.531
      -0.438
      -0.653
      -0.974
      -1.325
      -1.760
      -2.270
      -2.642
      -2.578
      -1.954
      -0.935
       0.149
       1.018
       1.532
       1.666
       1.466
       1.042
       0.576
       0.289
       0.348
       0.759
       1.353
       1.888
       2.221
       2.379
       2.469
       2.540
       2.560
       2.498
       2.371
       2.171
       1.785
       1.084
       0.103
      -0.905
      -1.632
      -1.911
      -1.735
      -1.158
      -0.236
       0.919
       2.081
       2.986
       3.479
       3.604
       3.547
       3.503
       3.559
       3.666
       3.711
       3.638
       3.523
       3.549
       3.915
       4.721
       5.887
       7.157
       8.191
       8.691
       8.482
       7.534
       5.962
       4.040
       2.161
       0.722
      -0.033
      -0.101
       0.320
       0.971
       1.672
       2.351
       2.967
       3.403
       3.452
       2.940
       1.870
       0.456
      -0.993
      -2.192
      -2.899
      -2.876
      -1.946
      -0.137
       2.237
       4.712
       6.906
       8.609
       9.679
       9.907
       9.063
       7.108
       4.325
       1.214
      -1.753
      -4.287
      -6.246
      -7.542
      -8.156
      -8.252
      -8.212
      -8.475
      -9.290
     -10.609
     -12.209
     -13.900
     -15.612
     -17.301
     -18.798
     -19.772
     -19.880
     -18.969
     -17.162
     -14.770
     -12.147
      -9.629
      -7.588
      -6.449
      -6.529
      -7.765
      -9.605
     -11.237
     -12.041
     -11.867
     -10.928
      -9.451
      -7.440
      -4.750
      -1.352
       2.479
       6.192
       9.146
      10.815
      10.913
       9.465
       6.844
       3.705
       0.782
      -1.408
      -2.725
      -3.315
      -3.353
      -2.870
      -1.843
      -0.427
       0.943
       1.722
       1.538
       0.341
      -1.686
      -4.311
      -7.329
     -10.492
     -13.406
     -15.535
     -16.325
     -15.371
     -12.522
      -7.919
      -1.983
       4.628
      11.143
      16.875
      21.410
      24.654
      26.719
      27.757
      27.882
      27.207
      25.923
      24.323
      22.753
      21.515
      20.785
      20.538
      20.565
      20.582
      20.370
      19.780
      18.646
      16.758
      13.998
      10.470
       6.480
       2.383
      -1.542
      -5.103
      -8.166
     -10.642
     -12.504
     -13.786
     -14.579
     -15.056
     -15.425
     -15.822
     -16.226
     -16.540
     -16.761
     -17.035
     -17.477
     -17.975
     -18.230
     -18.017
     -17.374
     -16.519
     -15.574
     -14.406
     -12.735
     -10.411
      -7.607
      -4.757
      -2.298
      -0.426
       0.949
       2.024
       2.925
       3.705
       4.465
       5.385
       6.602
       8.083
       9.667
      11.195
      12.579
      13.725
      14.451
      14.538
      13.860
      12.453
      10.499
       8.291
       6.196
       4.584
       3.669
       3.403
       3.517
       3.737
       3.956
       4.210
       4.499
       4.698
       4.639
       4.265
       3.646
       2.846
       1.829
       0.521
      -1.043
      -2.659
      -4.063
      -5.098
      -5.785
      -6.244
      -6.587
      -6.891
      -7.247
      -7.753
      -8.425
      -9.119
      -9.589
      -9.653
      -9.294
      -8.616
      -7.718
      -6.658
      -5.511
      -4.414
      -3.528
      -2.923
      -2.493
      -1.965
      -1.070
       0.261
       1.817
       3.236
       4.215
       4.652
       4.647
       4.402
       4.104
       3.840
       3.580
       3.232
       2.715
       2.024
       1.222
       0.395
      -0.393
      -1.135
      -1.855
      -2.538
      -3.099
      -3.445
      -3.577
      -3.587
      -3.553
      -3.434
      -3.108
      -2.476
      -1.538
      -0.390
       0.796
       1.802
       2.425
       2.571
       2.315
       1.893
       1.584
       1.576
       1.874
       2.325
       2.743
       3.013
       3.120
       3.095
       2.968
       2.751
       2.447
       2.047
       1.549
       0.957
       0.278
      -0.489
      -1.320
      -2.133
      -2.846
      -3.485
      -4.170
      -4.961
      -5.721
      -6.191
      -6.215
      -5.850
      -5.293
      -4.720
      -4.203
      -3.727
      -3.254
      -2.800
      -2.442
      -2.221
      -2.024
      -1.616
      -0.842
       0.197
       1.212
       1.950
       2.341
       2.463
       2.468
       2.558
       2.939
       3.704
       4.730
       5.713
       6.352
       6.509
       6.210
       5.520
       4.447
       2.976
       1.192
      -0.674
      -2.324
      -3.549
      -4.319
      -4.728
      -4.869
      -4.748
      -4.310
      -3.570
      -2.707
      -1.983
      -1.525
      -1.182
      -0.654
       0.226
       1.357
       2.519
       3.604
       4.668
       5.789
       6.945
       8.041
       8.992
       9.760
      10.333
      10.703
      10.884
      10.909
      10.768
      10.355
       9.496
       8.060
       6.071
       3.740
       1.389
      -0.671
      -2.253
      -3.320
      -3.928
      -4.160
      -4.096
      -3.817
      -3.413
      -2.977
      -2.605
      -2.390
      -2.387
      -2.583
      -2.898
      -3.221
      -3.434
      -3.437
      -3.162
      -2.613
      -1.879
      -1.101
      -0.408
       0.127
       0.499
       0.753
       0.939
       1.071
       1.125
       1.078
       0.967
       0.892
       0.950
       1.189
       1.595
       2.113
       2.665
       3.196
       3.703
       4.189
       4.553
       4.562
       3.991
       2.815
       1.252
      -0.386
      -1.868
      -3.091
      -4.031
      -4.712
      -5.190
      -5.512
      -5.687
      -5.704
      -5.613
      -5.546
      -5.631
      -5.883
      -6.164
      -6.285
      -6.132
      -5.708
      -5.079
      -4.322
      -3.527
      -2.826
      -2.343
      -2.104
      -1.987
      -1.787
      -1.353
      -0.668
       0.195
       1.149
       2.141
       3.128
       4.049
       4.836
       5.448
       5.871
       6.074
       5.993
       5.591
       4.919
       4.103
       3.259
       2.442
       1.675
       0.974
       0.339
      -0.267
      -0.882
      -1.486
      -2.017
      -2.449
      -2.846
      -3.318
      -3.923
      -4.617
      -5.281
      -5.783
      -6.030
      -5.994
      -5.723
      -5.319
      -4.887
      -4.487
      -4.128
      -3.778
      -3.382
      -2.878
      -2.212
      -1.344
      -0.262
       1.002
       2.350
       3.630
       4.709
       5.540
       6.151
       6.577
       6.834
       6.961
       7.057
       7.222
       7.458
       7.642
       7.626
       7.321
       6.697
       5.730
       4.419
       2.851
       1.209
      -0.312
      -1.601
      -2.672
      -3.621
      -4.539
      -5.446
      -6.261
      -6.850
      -7.110
      -7.008
      -6.569
      -5.846
      -4.921
      -3.910
      -2.920
      -2.011
      -1.199
      -0.496
       0.086
       0.587
       1.110
       1.749
       2.517
       3.329
       4.077
       4.683
       5.107
       5.333
       5.364
       5.225
       4.948
       4.545
       4.004
       3.299
       2.403
       1.296
      -0.025
      -1.532
      -3.147
      -4.753
      -6.218
      -7.424
      -8.282
      -8.728
      -8.748
      -8.423
      -7.919
      -7.400
      -6.890
      -6.243
      -5.264
      -3.895
      -2.292
      -0.714
       0.648
       1.736
       2.567
       3.162
       3.568
       3.933
       4.475
       5.337
       6.460
       7.606
       8.503
       8.979
       8.997
       8.595
       7.826
       6.740
       5.406
       3.922
       2.390
       0.882
      -0.544
      -1.800
      -2.786
      -3.456
      -3.855
      -4.081
      -4.211
