Origin Time       27/3/2012 23:40:08	
Lat.              26.1 N	
Long.             87.8 E	
Depth (Km)         12.0
Magnitude         4.9
 Region           India-Nepal                                                      
 Above details taken from IMD 
   
Station Code      ARI
Station Lat.       26.134
Station Long.      87.466
Station Height(m)   52.0
Site Class        C   Vs30 between 200 m/sec to 375 m/sec *  
Record Time       27.03.2012 23:39:52.394
Sampling Rate     200. Hz
 Record Duration   91.750 Sec.
 Direction         Vert. (Up positive)
Max. Acceleration     19.865 cm/sec**2
     
  * For reference see Site Classification link of website 
     
 Base Line Corrected and Low Pass Filtered (Cut Off at 35 Hz) Time History
 Acceleration data in cm/sec**2
    
[...]
      -1.382
      -1.247
      -0.707
       0.171
       1.089
       1.618
       1.508
       0.917
       0.310
       0.092
       0.299
       0.637
       0.776
       0.587
       0.132
      -0.455
      -0.981
      -1.153
      -0.729
       0.212
       1.191
       1.618
       1.161
      -0.096
      -1.739
      -3.177
      -3.862
      -3.581
      -2.612
      -1.534
      -0.798
      -0.448
      -0.250
      -0.060
      -0.016
      -0.327
      -0.893
      -1.252
      -1.014
      -0.327
       0.170
      -0.060
      -0.876
      -1.504
      -1.223
      -0.040
       1.317
       2.100
       2.209
       2.138
       2.323
       2.633
       2.531
       1.681
       0.338
      -0.827
      -1.222
      -0.704
       0.387
       1.437
       1.870
       1.452
       0.462
      -0.436
      -0.613
       0.076
       1.185
       2.024
       2.196
       1.841
       1.402
       1.177
       1.119
       1.030
       0.832
       0.574
       0.202
      -0.492
      -1.577
      -2.695
      -3.243
      -2.905
      -1.962
      -1.012
      -0.453
      -0.286
      -0.352
      -0.636
      -1.230
      -2.022
      -2.539
      -2.224
      -0.948
       0.777
       2.163
       2.755
       2.673
       2.308
       1.860
       1.233
       0.328
      -0.687
      -1.422
      -1.559
      -1.023
       0.064
       1.456
       2.739
       3.366
       2.976
       1.777
       0.458
      -0.387
      -0.760
      -1.142
      -1.885
      -2.789
      -3.242
      -2.752
      -1.369
       0.306
       1.448
       1.478
       0.407
      -1.157
      -2.398
      -2.832
      -2.543
      -1.936
      -1.303
      -0.650
       0.094
       0.803
       1.165
       0.985
       0.420
      -0.138
      -0.445
      -0.567
      -0.632
      -0.527
       0.033
       1.099
       2.255
       2.821
       2.315
       0.796
      -1.152
      -2.752
      -3.426
      -2.975
      -1.523
       0.571
       2.729
       4.220
       4.450
       3.346
       1.469
      -0.319
      -1.369
      -1.534
      -1.117
      -0.646
      -0.587
      -0.997
      -1.373
      -1.015
       0.298
       1.973
       3.056
       2.991
       1.913
       0.292
      -1.485
      -3.095
      -4.042
      -3.759
      -2.127
       0.207
       2.200
       3.188
       3.283
       3.011
       2.633
       1.897
       0.446
      -1.604
      -3.526
      -4.418
      -3.836
      -2.141
      -0.250
       1.005
       1.382
       1.161
       0.668
      -0.009
      -0.867
      -1.714
      -2.164
      -1.904
      -0.976
       0.218
       1.242
       2.009
       2.782
       3.693
       4.287
       3.698
       1.476
      -1.705
      -4.318
      -5.166
      -4.363
      -3.044
      -2.079
      -1.213
       0.418
       3.019
       5.568
       6.552
       5.236
       2.235
      -1.037
      -3.377
      -4.375
      -4.232
      -3.203
      -1.276
       1.590
       4.933
       7.638
       8.495
       7.032
       3.829
       0.059
      -3.240
      -5.559
      -6.831
      -7.097
      -6.272
      -4.232
      -1.186
       2.042
       4.303
       4.861
       3.861
       2.029
      -0.044
      -2.221
      -4.494
      -6.508
      -7.539
      -6.950
      -4.693
      -1.437
       1.808
       4.254
       5.718
       6.559
       7.187
       7.471
       6.637
       4.014
       0.053
      -3.572
      -5.192
      -4.563
      -2.942
      -1.735
      -1.187
      -0.479
       1.059
       3.005
       4.121
       3.469
       1.254
      -1.301
      -2.896
      -3.041
      -2.186
      -1.083
      -0.138
       0.624
       1.142
       1.130
       0.392
      -0.846
      -2.036
      -2.762
      -3.018
      -3.003
      -2.727
      -1.934
      -0.480
       1.290
       2.633
       2.900
       1.955
       0.202
      -1.655
      -2.886
      -2.965
      -1.790
       0.235
       2.450
       4.378
       5.932
       7.117
       7.578
       6.632
       3.894
      -0.101
      -4.001
      -6.445
      -6.846
      -5.507
      -3.153
      -0.463
       2.083
       4.144
       5.436
       5.643
       4.408
       1.634
      -2.040
      -5.246
      -6.757
      -6.518
      -5.625
      -5.148
      -5.046
      -4.388
      -2.516
       0.199
       2.748
       4.450
       5.373
       5.889
       5.957
       5.060
       2.879
      -0.097
      -2.793
      -4.364
      -4.668
      -3.973
      -2.456
      -0.163
       2.606
       5.110
       6.507
       6.384
       4.953
       2.767
       0.358
      -1.886
      -3.657
      -4.737
      -5.108
      -4.949
      -4.481
      -3.817
      -2.969
      -1.921
      -0.716
       0.486
       1.398
       1.747
       1.488
       0.851
       0.138
      -0.487
      -0.978
      -1.226
      -1.002
      -0.156
       1.116
       2.294
       2.896
       2.845
       2.402
       1.774
       0.904
      -0.306
      -1.646
      -2.624
      -2.843
      -2.284
      -1.189
       0.258
       2.011
       3.887
       5.328
       5.615
       4.413
       2.090
      -0.509
      -2.600
      -3.859
      -4.403
      -4.458
      -4.003
      -2.796
      -0.817
       1.332
       2.699
       2.785
       2.018
       1.314
       1.179
       1.287
       0.887
      -0.423
      -2.272
      -3.812
      -4.431
      -4.191
      -3.584
      -2.864
      -1.729
       0.220
       2.668
       4.396
       4.210
       2.164
      -0.326
      -1.752
      -1.796
      -1.222
      -0.726
      -0.223
       0.716
       2.088
       3.343
       3.930
       3.750
       3.091
       2.302
       1.567
       0.880
       0.169
      -0.516
      -0.924
      -0.782
      -0.119
       0.656
       1.059
       0.901
       0.346
      -0.288
      -0.726
      -0.891
      -1.042
      -1.667
      -2.939
      -4.233
      -4.447
      -3.013
      -0.561
       1.532
       2.238
       1.547
       0.198
      -1.066
      -1.985
      -2.675
      -3.177
      -3.199
      -2.302
      -0.356
       2.170
       4.308
       5.064
       4.053
       1.861
      -0.259
      -1.230
      -0.800
       0.558
       2.189
       3.568
       4.169
       3.401
       1.033
      -2.208
      -4.679
      -4.835
      -2.484
       0.918
       3.376
       3.916
       3.157
       2.379
       2.146
       1.932
       1.029
      -0.400
      -1.386
      -1.225
      -0.339
       0.045
      -0.941
      -2.994
      -4.926
      -5.630
      -4.810
      -2.947
      -0.803
       1.003
       2.108
       2.322
       1.625
       0.275
      -1.149
      -1.959
      -1.770
      -0.749
       0.519
       1.445
       1.799
       1.757
       1.656
       1.703
       1.871
       1.975
       1.790
       1.175
       0.217
      -0.778
      -1.511
      -1.901
      -1.961
      -1.567
      -0.593
       0.680
       1.495
       1.174
      -0.249
      -1.975
      -3.013
      -2.872
      -1.865
      -0.834
      -0.485
      -0.808
      -1.127
      -0.784
       0.216
       1.231
       1.578
       1.029
      -0.177
      -1.581
      -2.700
      -3.115
      -2.488
      -0.646
       2.187
       5.143
       6.923
       6.636
       4.572
       1.999
       0.031
      -1.280
      -2.641
      -4.375
      -5.745
      -5.511
      -3.147
       0.563
       4.094
       6.288
       6.969
       6.640
       5.718
       4.104
       1.476
      -2.053
      -5.656
      -8.195
      -8.906
      -7.746
      -5.195
      -1.822
       1.950
       5.611
       8.192
       8.404
       5.550
       0.459
      -4.701
      -7.808
      -8.178
      -6.692
      -4.735
      -3.056
      -1.472
       0.540
       3.061
       5.472
       6.925
       7.054
       6.200
       4.884
       3.163
       0.676
      -2.609
      -5.828
      -7.556
      -6.786
      -3.606
       0.887
       5.182
       7.926
       8.279
       6.119
       2.106
      -2.545
      -6.596
      -9.296
     -10.435
     -10.009
      -7.992
      -4.517
      -0.191
       3.943
       6.805
       7.729
       6.682
       4.237
       1.336
      -1.104
      -2.544
      -2.939
      -2.568
      -1.753
      -0.670
       0.651
       2.206
       3.873
       5.355
       6.214
       6.060
       4.834
       2.979
       1.245
       0.181
      -0.262
      -0.586
      -1.173
      -1.898
      -2.343
      -2.359
      -2.277
      -2.522
      -3.086
      -3.508
      -3.366
      -2.688
      -1.813
      -0.926
       0.081
       1.236
       2.126
       2.141
       1.129
      -0.337
      -1.464
      -1.930
      -1.925
      -1.606
      -0.761
       0.826
       2.826
       4.351
       4.586
       3.451
       1.704
       0.369
      -0.053
       0.058
      -0.144
      -1.150
      -2.637
      -3.730
      -3.684
      -2.376
      -0.318
       1.681
       2.886
       2.884
       1.710
      -0.146
      -1.946
      -3.094
      -3.444
      -3.280
      -2.984
      -2.696
      -2.232
      -1.323
       0.022
       1.374
       2.151
       2.112
       1.582
       1.135
       1.036
       1.079
       0.961
       0.707
       0.649
       1.045
       1.800
       2.535
       2.932
       3.023
       3.146
       3.553
       4.075
       4.269
       3.867
       2.940
       1.608
      -0.212
      -2.565
      -4.996
      -6.573
      -6.609
      -5.368
      -3.882
      -2.989
      -2.632
      -2.171
      -1.229
      -0.100
       0.656
       0.846
       0.818
       1.049
       1.647
       2.205
       2.151
       1.262
      -0.100
      -1.229
      -1.594
      -1.160
      -0.262
       0.769
       1.753
       2.446
       2.363
       1.093
      -1.104
      -3.189
      -4.043
      -3.388
      -1.969
      -0.809
      -0.302
      -0.037
       0.579
       1.596
       2.466
       2.641
       2.127
       1.379
       0.722
       0.024
      -1.016
      -2.339
      -3.437
      -3.739
      -3.020
      -1.434
       0.683
       2.963
       5.052
       6.630
       7.463
       7.418
       6.446
       4.576
       1.958
      -1.072
      -3.955
      -5.978
      -6.537
      -5.506
      -3.436
      -1.321
      -0.081
      -0.131
      -1.275
      -2.858
      -4.109
      -4.525
      -4.077
      -3.061
      -1.819
      -0.707
      -0.244
      -0.986
      -2.970
      -5.274
      -6.385
      -5.295
      -2.316
       1.256
       4.287
       6.522
       8.173
       9.063
       8.489
       6.042
       2.419
      -0.789
      -2.246
      -1.865
      -0.706
       0.039
      -0.049
      -0.583
      -0.998
      -1.061
      -0.788
      -0.127
       1.081
       2.791
       4.517
       5.522
       5.251
       3.636
       1.047
      -1.917
      -4.541
      -6.048
      -5.858
      -4.023
      -1.346
       1.142
       2.898
       4.017
       4.767
       5.174
       5.081
       4.361
       2.899
       0.516
      -2.781
      -6.327
      -8.775
      -8.841
      -6.267
      -2.115
       1.913
       4.529
       5.416
       5.013
       3.913
       2.454
       0.678
      -1.496
      -3.988
      -6.286
      -7.467
      -6.711
      -3.974
      -0.175
       3.344
       5.621
       6.489
       6.364
       5.666
       4.386
       2.199
      -0.928
      -4.233
      -6.409
      -6.507
      -4.675
      -2.008
       0.286
       1.557
       1.815
       1.503
       1.254
       1.502
       2.006
       1.844
       0.214
      -2.618
      -5.321
      -6.521
      -5.782
      -3.624
      -0.830
       2.061
       4.648
       6.428
       6.952
       6.139
       4.240
       1.553
      -1.535
      -4.254
      -5.588
      -5.033
      -3.181
      -1.389
      -0.781
      -1.420
      -2.280
      -2.023
      -0.079
       2.790
       4.970
       5.199
       3.469
       0.835
      -1.593
      -3.415
      -4.832
      -5.993
      -6.610
      -6.190
      -4.583
      -2.283
      -0.173
       1.101
       1.613
       1.997
       2.793
       3.862
       4.424
       3.648
       1.306
      -2.076
      -5.617
      -8.518
     -10.027
      -9.224
      -5.379
       1.096
       8.165
      13.118
      14.401
      12.620
       9.666
       6.837
       3.866
      -0.237
      -5.543
     -10.496
     -12.866
     -11.509
      -7.357
      -2.714
       0.585
       2.450
       4.022
       6.008
       7.735
       7.831
       5.560
       1.352
      -3.684
      -8.412
     -11.872
     -13.217
     -11.838
      -7.756
      -1.911
       4.103
       8.817
      11.564
      12.466
      11.889
      10.042
       7.074
       3.398
      -0.164
      -2.562
      -2.931
      -1.101
       2.056
       4.928
       6.182
       5.670
       4.273
       2.802
       1.182
      -1.220
      -4.621
      -8.326
     -11.079
     -11.735
      -9.712
      -5.135
       1.176
       7.901
      13.638
      17.370
      18.628
      17.254
      13.147
       6.487
      -1.725
      -9.536
     -14.756
     -16.070
     -13.633
      -8.805
      -3.338
       1.401
       4.806
       6.862
       7.635
       6.925
       4.464
       0.447
      -4.245
      -8.461
     -11.334
     -12.383
     -11.170
      -7.215
      -0.533
       7.706
      15.236
      19.695
      19.865
      16.240
      10.594
       4.961
       0.736
      -1.642
      -2.438
      -2.200
      -1.504
      -0.853
      -0.556
      -0.661
      -1.117
      -2.066
      -3.851
      -6.642
     -10.079
     -13.401
     -15.988
     -17.691
     -18.552
     -18.201
     -15.742
     -10.494
      -2.947
       5.130
      11.644
      15.268
      15.711
      13.272
       8.417
       1.771
      -5.606
     -12.041
     -15.559
     -14.875
     -10.440
      -4.340
       1.248
       5.607
       9.301
      12.532
      14.126
      12.491
       7.502
       1.124
      -3.959
      -6.330
      -6.546
      -6.107
      -5.895
      -5.565
      -4.207
      -1.390
       2.401
       6.127
       8.858
      10.147
       9.957
       8.446
       5.877
       2.652
      -0.673
      -3.504
      -5.369
      -6.031
      -5.529
      -4.107
      -2.127
      -0.021
       1.746
       2.811
       3.136
       3.111
       3.281
       3.818
       4.213
       3.572
       1.364
      -1.953
      -4.902
      -5.725
      -3.639
       0.315
       3.834
       5.133
       4.244
       2.555
       1.297
       0.714
       0.453
       0.205
      -0.214
      -1.054
      -2.510
      -4.344
      -5.764
      -5.838
      -4.171
      -1.325
       1.386
       2.688
       2.231
       0.906
       0.197
       0.945
       2.573
       3.548
       2.710
       0.247
      -2.545
      -4.382
      -4.825
      -4.152
      -2.632
      -0.185
       3.209
       6.929
       9.766
      10.590
       8.970
       5.292
       0.475
      -4.362
      -8.118
      -9.875
      -9.146
      -6.141
      -1.748
       2.844
       6.569
       8.628
       8.490
       6.100
       2.192
      -1.868
      -4.842
      -6.349
      -6.889
      -7.212
      -7.677
      -8.106
      -8.017
      -6.921
      -4.565
      -1.231
       2.034
       3.679
       2.613
      -0.796
      -4.716
      -7.055
      -6.890
      -4.842
      -2.230
       0.006
       1.643
       2.756
       3.257
       2.897
       1.586
      -0.361
      -2.224
      -3.113
      -2.421
      -0.323
       2.183
       3.978
       4.736
       5.053
       5.563
       6.059
       5.758
       4.450
       3.030
       2.569
       2.949
       2.756
       0.729
      -2.784
      -5.903
      -6.774
      -5.072
      -2.058
       0.696
       2.537
       3.746
       4.575
       4.544
       2.876
      -0.372
      -3.814
      -5.648
      -5.170
      -3.243
      -1.178
       0.668
       2.967
       6.234
       9.849
      12.344
      12.466
       9.898
       5.235
      -0.353
      -5.409
      -8.559
      -9.074
      -7.214
      -3.924
      -0.147
       3.446
       6.155
       7.017
       5.235
       0.931
      -4.646
      -9.769
     -13.186
     -14.531
     -14.013
     -11.946
      -8.625
      -4.477
      -0.103
       3.892
       6.997
       8.699
       8.475
       6.178
       2.523
      -1.002
      -2.958
      -2.810
      -1.011
       1.677
       4.802
       8.143
      11.165
      12.797
      11.987
       8.561
       3.485
      -1.834
      -6.532
     -10.510
     -13.701
     -15.360
     -14.380
     -10.447
      -4.733
       0.778
       4.719
       7.024
       8.221
       8.325
       6.675
       2.908
      -2.133
      -6.618
      -8.865
      -8.292
      -5.409
      -1.187
       3.426
       7.540
      10.369
      11.556
      11.365
      10.272
       8.384
       5.464
       1.616
      -2.254
      -4.800
      -5.092
      -3.195
      -0.116
       2.723
       4.168
       3.899
       2.559
       1.269
       0.782
       0.946
       0.951
       0.104
      -1.633
      -3.776
      -5.778
      -7.212
      -7.631
      -6.657
      -4.473
      -2.109
      -0.891
      -1.362
      -2.760
      -3.649
      -3.171
      -1.730
      -0.505
      -0.308
      -0.884
      -1.305
      -1.020
      -0.477
      -0.651
      -1.959
      -3.657
      -4.322
      -2.952
       0.303
       4.371
       8.156
      11.230
      13.700
      15.466
      15.716
      13.287
       7.646
      -0.348
      -8.583
     -14.713
     -17.308
     -16.329
     -12.679
      -7.440
      -1.554
       3.926
       7.645
       8.395
       5.967
       1.538
      -3.004
      -6.434
      -8.993
     -11.721
     -14.885
     -17.209
     -16.834
     -13.008
      -6.693
       0.372
       6.910
      12.379
      16.392
      18.355
      17.820
      15.029
      11.004
       7.212
       5.099
       5.508
       8.068
      11.154
      12.830
      12.101
       9.308
       5.443
       1.324
      -2.562
      -5.831
      -8.221
      -9.859
     -11.184
     -12.412
     -13.156
     -12.752
     -10.989
      -8.430
      -6.065
      -4.721
      -4.715
      -5.755
      -7.012
      -7.494
      -6.636
      -4.643
      -2.277
      -0.355
       0.625
       0.671
       0.283
       0.083
       0.282
       0.547
       0.555
       0.602
       1.456
       3.549
       6.420
       9.021
      10.467
      10.461
       9.183
       7.067
       4.750
       2.997
       2.336
       2.628
       3.170
       3.420
       3.581
       4.299
       5.712
       6.977
       6.911
       5.036
       1.857
      -1.810
      -5.506
      -8.998
     -11.751
     -12.922
     -12.052
      -9.620
      -6.794
      -4.587
      -3.198
      -2.061
      -0.497
       1.611
       3.696
       5.018
       5.246
       4.563
       3.384
       2.142
       1.267
       1.135
       1.903
       3.373
       4.988
       6.006
       5.792
       4.127
       1.339
      -1.837
      -4.621
      -6.574
      -7.712
      -8.240
      -8.150
