Origin Time       27/3/2012 23:40:08	 UTC
Lat.              26.1 N	
Long.             87.8 E	
Depth (Km)         12.0
Magnitude         4.9
 Region           India-Nepal                                                      
 Above details taken from IMD 
    
Station Code      ARI
Station Lat.       26.134  N
Station Long.      87.466  E
Station Height(m)   52.0
Site Class        C   Vs30 between 200 m/sec to 375 m/sec *  
Record Time       27.03.2012 23:39:52.394 UTC
Sampling Rate     200. Hz
 Record Duration   91.750 Sec.
 Direction         N-S (N positive)
Max. Acceleration    -30.105 cm/sec**2
     
  * For reference see Site Classification link of website 
     
 Base Line Corrected and Low Pass Filtered (Cut Off at 35 Hz) Time History
 Acceleration data in cm/sec**2
    
[...]
       0.867
       0.582
       0.365
       0.239
       0.205
       0.281
       0.469
       0.718
       0.939
       1.064
       1.084
       1.027
       0.905
       0.707
       0.419
       0.046
      -0.381
      -0.828
      -1.252
      -1.595
      -1.789
      -1.791
      -1.591
      -1.206
      -0.654
       0.019
       0.694
       1.194
       1.365
       1.169
       0.700
       0.100
      -0.517
      -1.074
      -1.484
      -1.637
      -1.464
      -1.008
      -0.411
       0.165
       0.603
       0.841
       0.862
       0.709
       0.473
       0.246
       0.057
      -0.122
      -0.319
      -0.516
      -0.655
      -0.687
      -0.601
      -0.422
      -0.185
       0.090
       0.376
       0.633
       0.819
       0.925
       0.963
       0.948
       0.876
       0.731
       0.509
       0.241
       0.003
      -0.108
      -0.023
       0.244
       0.584
       0.849
       0.928
       0.796
       0.493
       0.079
      -0.386
      -0.837
      -1.202
      -1.417
      -1.440
      -1.241
      -0.821
      -0.248
       0.319
       0.688
       0.749
       0.542
       0.229
      -0.021
      -0.132
      -0.141
      -0.129
      -0.129
      -0.113
      -0.042
       0.079
       0.210
       0.335
       0.478
       0.653
       0.806
       0.826
       0.642
       0.298
      -0.075
      -0.351
      -0.471
      -0.446
      -0.333
      -0.215
      -0.159
      -0.177
      -0.227
      -0.264
      -0.285
      -0.309
      -0.338
      -0.342
      -0.307
      -0.266
      -0.265
      -0.302
      -0.317
      -0.227
       0.006
       0.347
       0.689
       0.898
       0.891
       0.687
       0.376
       0.046
      -0.251
      -0.480
      -0.593
      -0.554
      -0.372
      -0.099
       0.200
       0.472
       0.673
       0.776
       0.778
       0.707
       0.592
       0.436
       0.222
      -0.044
      -0.311
      -0.513
      -0.613
      -0.618
      -0.529
      -0.323
       0.007
       0.403
       0.753
       0.954
       0.965
       0.806
       0.514
       0.114
      -0.378
      -0.903
      -1.324
      -1.483
      -1.303
      -0.873
      -0.408
      -0.115
      -0.087
      -0.277
      -0.559
      -0.796
      -0.881
      -0.776
      -0.538
      -0.296
      -0.177
      -0.229
      -0.402
      -0.590
      -0.673
      -0.555
      -0.203
       0.300
       0.776
       1.042
       1.034
       0.832
       0.576
       0.356
       0.194
       0.097
       0.099
       0.239
       0.500
       0.778
       0.943
       0.912
       0.693
       0.363
       0.013
      -0.289
      -0.509
      -0.627
      -0.635
      -0.548
      -0.402
      -0.205
       0.082
       0.494
       0.966
       1.330
       1.419
       1.186
       0.716
       0.148
      -0.400
      -0.843
      -1.112
      -1.149
      -0.935
      -0.506
       0.053
       0.637
       1.156
       1.556
       1.810
       1.891
       1.763
       1.407
       0.852
       0.187
      -0.456
      -0.942
      -1.208
      -1.295
      -1.303
      -1.310
      -1.306
      -1.224
      -1.011
      -0.683
      -0.325
      -0.044
       0.086
       0.058
      -0.077
      -0.236
      -0.354
      -0.414
      -0.433
      -0.429
      -0.397
      -0.325
      -0.212
      -0.070
       0.098
       0.280
       0.436
       0.490
       0.386
       0.148
      -0.105
      -0.243
      -0.240
      -0.198
      -0.258
      -0.460
      -0.704
      -0.824
      -0.713
      -0.389
       0.030
       0.414
       0.688
       0.850
       0.940
       0.991
       1.002
       0.956
       0.837
       0.643
       0.382
       0.079
      -0.213
      -0.408
      -0.423
      -0.216
       0.167
       0.593
       0.880
       0.878
       0.553
       0.003
      -0.582
      -1.015
      -1.193
      -1.123
      -0.886
      -0.581
      -0.291
      -0.067
       0.078
       0.153
       0.171
       0.132
       0.043
      -0.070
      -0.181
      -0.277
      -0.356
      -0.408
      -0.388
      -0.250
       0.016
       0.350
       0.645
       0.816
       0.841
       0.753
       0.595
       0.399
       0.188
      -0.023
      -0.230
      -0.431
      -0.609
      -0.731
      -0.775
      -0.753
      -0.687
      -0.571
      -0.372
      -0.092
       0.182
       0.307
       0.191
      -0.123
      -0.475
      -0.710
      -0.777
      -0.722
      -0.605
      -0.442
      -0.220
       0.058
       0.363
       0.673
       0.979
       1.260
       1.456
       1.504
       1.384
       1.131
       0.818
       0.526
       0.329
       0.272
       0.333
       0.424
       0.437
       0.330
       0.168
       0.077
       0.126
       0.279
       0.424
       0.458
       0.340
       0.097
      -0.203
      -0.473
      -0.631
      -0.595
      -0.309
       0.218
       0.881
       1.496
       1.873
       1.892
       1.545
       0.913
       0.121
      -0.710
      -1.481
      -2.104
      -2.481
      -2.533
      -2.244
      -1.689
      -1.009
      -0.375
       0.071
       0.253
       0.199
       0.007
      -0.241
      -0.527
      -0.858
      -1.192
      -1.430
      -1.482
      -1.328
      -1.008
      -0.569
      -0.044
       0.522
       1.038
       1.403
       1.555
       1.496
       1.285
       1.005
       0.733
       0.504
       0.300
       0.090
      -0.111
      -0.238
      -0.239
      -0.141
      -0.033
       0.022
       0.034
       0.050
       0.091
       0.125
       0.113
       0.045
      -0.073
      -0.236
      -0.429
      -0.596
      -0.650
      -0.523
      -0.214
       0.208
       0.635
       0.968
       1.149
       1.158
       1.009
       0.748
       0.443
       0.157
      -0.082
      -0.290
      -0.494
      -0.693
      -0.855
      -0.959
      -1.018
      -1.067
      -1.134
      -1.216
      -1.276
      -1.251
      -1.074
      -0.732
      -0.289
       0.129
       0.419
       0.565
       0.637
       0.719
       0.850
       1.030
       1.247
       1.493
       1.737
       1.901
       1.889
       1.656
       1.243
       0.759
       0.319
       0.005
      -0.139
      -0.115
       0.020
       0.161
       0.218
       0.172
       0.096
       0.082
       0.174
       0.337
       0.499
       0.599
       0.590
       0.427
       0.097
      -0.348
      -0.784
      -1.074
      -1.129
      -0.949
      -0.610
      -0.229
       0.068
       0.184
       0.083
      -0.188
      -0.513
      -0.759
      -0.853
      -0.810
      -0.698
      -0.582
      -0.499
      -0.474
      -0.523
      -0.631
      -0.720
      -0.675
      -0.420
       0.001
       0.433
       0.714
       0.792
       0.726
       0.602
       0.464
       0.332
       0.236
       0.206
       0.214
       0.184
       0.068
      -0.089
      -0.190
      -0.184
      -0.122
      -0.099
      -0.174
      -0.349
      -0.604
      -0.924
      -1.273
      -1.553
      -1.628
      -1.407
      -0.909
      -0.255
       0.400
       0.919
       1.228
       1.326
       1.281
       1.180
       1.079
       0.969
       0.785
       0.465
       0.032
      -0.389
      -0.646
      -0.659
      -0.454
      -0.118
       0.278
       0.684
       1.041
       1.275
       1.340
       1.237
       0.981
       0.555
      -0.042
      -0.732
      -1.369
      -1.830
      -2.080
      -2.125
      -1.929
      -1.438
      -0.684
       0.140
       0.758
       0.977
       0.792
       0.355
      -0.112
      -0.392
      -0.340
       0.045
       0.610
       1.131
       1.432
       1.457
       1.270
       0.998
       0.761
       0.610
       0.523
       0.439
       0.302
       0.066
      -0.294
      -0.760
      -1.232
      -1.550
      -1.580
      -1.301
      -0.819
      -0.303
       0.088
       0.256
       0.203
       0.036
      -0.090
      -0.071
       0.056
       0.141
       0.060
      -0.154
      -0.333
      -0.307
      -0.032
       0.424
       0.961
       1.480
       1.861
       1.955
       1.646
       0.935
      -0.022
      -0.967
      -1.661
      -1.985
      -1.965
      -1.715
      -1.340
      -0.892
      -0.410
       0.031
       0.332
       0.451
       0.426
       0.311
       0.108
      -0.217
      -0.647
      -1.057
      -1.261
      -1.097
      -0.523
       0.353
       1.310
       2.115
       2.630
       2.842
       2.798
       2.525
       1.990
       1.153
       0.078
      -1.036
      -1.943
      -2.479
      -2.606
      -2.358
      -1.772
      -0.906
       0.107
       1.057
       1.746
       2.072
       2.017
       1.586
       0.791
      -0.283
      -1.427
      -2.357
      -2.841
      -2.805
      -2.349
      -1.670
      -0.949
      -0.292
       0.253
       0.647
       0.839
       0.799
       0.557
       0.220
      -0.064
      -0.179
      -0.090
       0.152
       0.436
       0.636
       0.680
       0.599
       0.496
       0.440
       0.408
       0.320
       0.133
      -0.111
      -0.322
      -0.432
      -0.418
      -0.283
      -0.016
       0.398
       0.952
       1.599
       2.244
       2.745
       2.932
       2.682
       2.003
       1.060
       0.103
      -0.658
      -1.139
      -1.378
      -1.452
      -1.393
      -1.166
      -0.745
      -0.206
       0.275
       0.534
       0.538
       0.365
       0.094
      -0.277
      -0.791
      -1.416
      -1.996
      -2.316
      -2.228
      -1.716
      -0.887
       0.070
       0.933
       1.500
       1.665
       1.442
       0.920
       0.215
      -0.516
      -1.064
      -1.246
      -1.023
      -0.528
       0.044
       0.556
       0.949
       1.209
       1.321
       1.258
       0.988
       0.497
      -0.162
      -0.867
      -1.465
      -1.837
      -1.931
      -1.747
      -1.321
      -0.719
      -0.061
       0.497
       0.838
       0.964
       0.972
       0.963
       0.952
       0.864
       0.614
       0.218
      -0.172
      -0.363
      -0.269
       0.029
       0.368
       0.631
       0.793
       0.857
       0.805
       0.624
       0.348
       0.042
      -0.265
      -0.614
      -1.046
      -1.508
      -1.828
      -1.824
      -1.459
      -0.894
      -0.378
      -0.093
      -0.106
      -0.409
      -0.925
      -1.496
      -1.928
      -2.098
      -2.003
      -1.705
      -1.225
      -0.532
       0.398
       1.522
       2.730
       3.856
       4.684
       4.972
       4.547
       3.408
       1.760
      -0.069
      -1.733
      -2.938
      -3.500
      -3.394
      -2.761
      -1.840
      -0.844
       0.101
       0.940
       1.611
       2.005
       1.978
       1.415
       0.333
      -1.060
      -2.369
      -3.143
      -3.077
      -2.155
      -0.632
       1.103
       2.691
       3.880
       4.528
       4.557
       3.963
       2.867
       1.535
       0.292
      -0.632
      -1.187
      -1.462
      -1.578
      -1.612
      -1.589
      -1.498
      -1.304
      -0.974
      -0.519
      -0.042
       0.281
       0.293
      -0.036
      -0.576
      -1.113
      -1.452
      -1.473
      -1.129
      -0.457
       0.408
       1.252
       1.854
       2.063
       1.828
       1.187
       0.244
      -0.845
      -1.901
      -2.765
      -3.342
      -3.580
      -3.426
      -2.827
      -1.802
      -0.520
       0.732
       1.690
       2.247
       2.455
       2.412
       2.158
       1.693
       1.077
       0.470
       0.085
       0.085
       0.497
       1.194
       1.955
       2.563
       2.878
       2.852
       2.509
       1.923
       1.215
       0.545
       0.064
      -0.160
      -0.176
      -0.127
      -0.173
      -0.382
      -0.672
      -0.845
      -0.734
      -0.336
       0.190
       0.676
       1.094
       1.554
       2.150
       2.837
       3.453
       3.841
       3.917
       3.655
       3.058
       2.196
       1.236
       0.394
      -0.186
      -0.500
      -0.649
      -0.740
      -0.807
      -0.823
      -0.752
      -0.570
      -0.254
       0.216
       0.809
       1.399
       1.790
       1.818
       1.464
       0.850
       0.139
      -0.555
      -1.177
      -1.685
      -2.032
      -2.218
      -2.335
      -2.531
      -2.939
      -3.624
      -4.614
      -5.938
      -7.619
      -9.614
     -11.784
     -13.932
     -15.880
     -17.505
     -18.717
     -19.411
     -19.470
     -18.820
     -17.461
     -15.461
     -12.913
      -9.934
      -6.678
      -3.341
      -0.135
       2.732
       5.040
       6.560
       7.104
       6.637
       5.377
       3.768
       2.308
       1.332
       0.946
       1.124
       1.827
       3.013
       4.564
       6.249
       7.779
       8.906
       9.481
       9.466
       8.898
       7.858
       6.455
       4.844
       3.273
       2.100
       1.732
       2.483
       4.428
       7.356
      10.855
      14.502
      18.022
      21.318
      24.345
      26.932
      28.684
      29.097
      27.823
      24.910
      20.869
      16.517
      12.675
       9.879
       8.225
       7.455
       7.185
       7.134
       7.177
       7.208
       6.965
       6.007
       3.872
       0.308
      -4.580
     -10.332
     -16.275
     -21.702
     -26.033
     -28.891
     -30.105
     -29.670
     -27.735
     -24.614
     -20.767
     -16.731
     -13.013
     -10.010
      -7.978
      -7.005
      -6.995
      -7.682
      -8.723
      -9.801
     -10.678
     -11.190
     -11.211
     -10.665
      -9.556
      -8.006
      -6.224
      -4.420
      -2.702
      -1.089
       0.404
       1.709
       2.751
       3.532
       4.139
       4.635
       4.987
       5.106
       4.960
       4.594
       4.046
       3.291
       2.307
       1.200
       0.238
      -0.242
       0.014
       1.064
       2.739
       4.708
       6.598
       8.132
       9.193
       9.808
      10.087
      10.153
      10.093
       9.901
       9.457
       8.568
       7.116
       5.210
       3.211
       1.617
       0.838
       1.010
       1.941
       3.205
       4.322
       4.895
       4.671
       3.566
       1.692
      -0.660
      -3.121
      -5.387
      -7.278
      -8.696
      -9.563
      -9.829
      -9.507
      -8.671
      -7.393
      -5.722
      -3.722
      -1.526
       0.658
       2.612
       4.158
       5.150
       5.449
       4.970
       3.781
       2.157
       0.478
      -0.948
      -1.988
      -2.645
      -2.942
      -2.876
      -2.450
      -1.728
      -0.852
      -0.031
       0.504
       0.580
       0.152
      -0.658
      -1.597
      -2.379
      -2.771
      -2.659
      -2.050
      -1.035
       0.272
       1.752
       3.257
       4.582
       5.483
       5.720
       5.125
       3.668
       1.510
      -1.017
      -3.488
      -5.532
      -6.952
      -7.763
      -8.105
      -8.116
      -7.873
      -7.415
      -6.813
      -6.199
      -5.716
      -5.447
      -5.379
      -5.427
      -5.472
      -5.393
      -5.085
      -4.480
      -3.565
      -2.390
      -1.076
       0.217
       1.360
       2.309
       3.099
       3.788
       4.389
       4.864
       5.161
       5.265
       5.199
       4.996
       4.680
       4.274
       3.824
       3.408
       3.118
       3.025
       3.145
       3.426
       3.775
       4.103
       4.362
       4.556
       4.709
       4.828
       4.885
       4.847
       4.705
       4.453
       4.065
       3.546
       3.003
       2.636
       2.605
       2.892
       3.298
       3.564
       3.498
       3.030
       2.210
       1.181
       0.139
      -0.731
      -1.312
      -1.599
      -1.707
      -1.830
      -2.140
      -2.706
      -3.484
      -4.392
      -5.360
      -6.319
      -7.169
      -7.796
      -8.131
      -8.158
      -7.890
      -7.347
      -6.569
      -5.594
      -4.425
      -3.032
      -1.431
       0.238
       1.747
       2.899
       3.627
       3.979
       4.033
       3.855
       3.529
       3.202
       3.032
       3.069
       3.187
       3.155
       2.805
       2.154
       1.385
       0.713
       0.227
      -0.182
      -0.741
      -1.616
      -2.783
      -4.027
      -5.069
      -5.678
      -5.709
      -5.099
      -3.894
      -2.282
      -0.558
       1.009
       2.285
       3.265
       3.963
       4.350
       4.395
       4.129
       3.642
       3.037
       2.390
       1.762
       1.211
       0.778
       0.458
       0.194
      -0.097
      -0.497
      -1.058
      -1.781
      -2.606
      -3.413
      -4.064
      -4.441
      -4.488
      -4.215
      -3.667
      -2.886
      -1.901
      -0.764
       0.431
       1.572
       2.592
       3.491
       4.314
       5.112
       5.922
       6.752
       7.570
       8.300
       8.840
       9.088
       8.970
       8.478
       7.679
       6.700
       5.686
       4.756
       3.960
       3.265
       2.566
       1.730
       0.654
      -0.689
      -2.254
      -3.952
      -5.652
      -7.175
      -8.323
      -8.956
      -9.017
      -8.509
      -7.493
      -6.136
      -4.730
      -3.595
      -2.910
      -2.620
      -2.494
      -2.285
      -1.847
      -1.159
      -0.270
       0.749
       1.818
       2.836
       3.680
       4.231
       4.369
       3.990
       3.052
       1.652
       0.016
      -1.607
      -3.080
      -4.409
      -5.658
      -6.820
      -7.765
      -8.306
      -8.319
      -7.792
      -6.817
      -5.567
      -4.250
      -3.045
      -2.031
      -1.185
      -0.458
       0.149
       0.610
       0.934
       1.210
       1.563
       2.087
       2.796
       3.646
       4.555
       5.407
       6.029
       6.236
       5.925
       5.152
       4.108
       3.023
       2.076
       1.326
       0.725
       0.166
      -0.433
      -1.065
      -1.637
      -2.030
      -2.174
      -2.085
      -1.830
      -1.464
      -0.979
      -0.325
       0.525
       1.539
       2.650
       3.791
       4.878
       5.771
       6.274
       6.236
       5.646
       4.651
       3.444
       2.173
       0.911
      -0.291
      -1.382
      -2.314
      -3.061
      -3.632
      -4.067
      -4.431
      -4.779
      -5.106
      -5.339
      -5.386
      -5.218
      -4.894
      -4.517
      -4.166
      -3.834
      -3.428
      -2.828
      -1.962
      -0.845
       0.438
       1.766
       3.003
       4.015
       4.710
       5.083
       5.196
       5.102
       4.773
       4.124
       3.110
       1.799
       0.375
      -0.923
      -1.874
      -2.335
      -2.277
      -1.789
      -1.042
      -0.237
       0.446
       0.869
       0.936
       0.609
      -0.057
      -0.907
      -1.713
      -2.254
      -2.371
      -1.973
      -1.046
       0.315
       1.869
       3.268
       4.192
       4.483
       4.185
       3.465
       2.495
       1.386
       0.196
      -1.023
      -2.199
      -3.226
      -3.972
      -4.317
      -4.217
      -3.738
      -3.035
      -2.270
