Origin Time       20/06/2011 06:27:18 UTC
Lat.              30.5 N	
Long.             79.4 E	
Depth (Km)         12.0
Magnitude         4.6
 Region           Chamoli-Uttarakhand                                              
 Above details taken from IMD 
    
Station Code      CKR
Station Lat.       30.694  N
Station Long.      77.901  E
Station Height(m)    0.0
Site Class        B   Vs30 between 375 m/sec to 700 m/sec *  
Record Time       20.06.2011 06:27:31.574 UTC
Sampling Rate     200. Hz
 Record Duration   83.970 Sec.
 Direction         N-S (N positive)
Max. Acceleration      2.558 cm/sec**2
     
  * For reference see Site Classification link of website 
     
 Base Line Corrected and Low Pass Filtered (Cut Off at 35 Hz) Time History
 Acceleration data in cm/sec**2
    
[...]
      -0.193
      -0.201
      -0.173
      -0.101
      -0.012
       0.051
       0.072
       0.068
       0.061
       0.055
       0.047
       0.030
       0.006
      -0.021
      -0.040
      -0.038
      -0.013
       0.032
       0.095
       0.166
       0.227
       0.261
       0.262
       0.237
       0.202
       0.171
       0.152
       0.141
       0.122
       0.079
       0.011
      -0.065
      -0.127
      -0.159
      -0.162
      -0.158
      -0.176
      -0.225
      -0.288
      -0.340
      -0.378
      -0.408
      -0.430
      -0.438
      -0.427
      -0.399
      -0.349
      -0.270
      -0.161
      -0.028
       0.123
       0.278
       0.411
       0.500
       0.539
       0.552
       0.559
       0.569
       0.572
       0.552
       0.488
       0.379
       0.248
       0.129
       0.040
      -0.033
      -0.116
      -0.222
      -0.343
      -0.451
      -0.520
      -0.541
      -0.529
      -0.502
      -0.471
      -0.439
      -0.406
      -0.363
      -0.298
      -0.201
      -0.090
       0.006
       0.072
       0.107
       0.124
       0.135
       0.155
       0.185
       0.208
       0.200
       0.153
       0.073
      -0.025
      -0.116
      -0.171
      -0.177
      -0.151
      -0.125
      -0.111
      -0.099
      -0.076
      -0.041
       0.000
       0.048
       0.105
       0.172
       0.247
       0.319
       0.380
       0.427
       0.469
       0.514
       0.552
       0.565
       0.543
       0.487
       0.411
       0.328
       0.249
       0.170
       0.077
      -0.047
      -0.196
      -0.345
      -0.461
      -0.518
      -0.515
      -0.479
      -0.450
      -0.449
      -0.456
      -0.441
      -0.390
      -0.305
      -0.193
      -0.063
       0.064
       0.170
       0.252
       0.321
       0.378
       0.412
       0.409
       0.356
       0.250
       0.101
      -0.062
      -0.200
      -0.287
      -0.318
      -0.301
      -0.257
      -0.210
      -0.172
      -0.133
      -0.075
       0.007
       0.093
       0.157
       0.182
       0.169
       0.138
       0.107
       0.083
       0.054
       0.012
      -0.038
      -0.083
      -0.112
      -0.118
      -0.095
      -0.050
       0.003
       0.042
       0.058
       0.046
       0.002
      -0.067
      -0.139
      -0.193
      -0.225
      -0.249
      -0.274
      -0.302
      -0.327
      -0.336
      -0.309
      -0.240
      -0.147
      -0.061
       0.003
       0.052
       0.097
       0.142
       0.186
       0.225
       0.253
       0.266
       0.267
       0.266
       0.272
       0.289
       0.317
       0.348
       0.362
       0.346
       0.299
       0.232
       0.156
       0.082
       0.022
      -0.020
      -0.059
      -0.109
      -0.169
      -0.223
      -0.246
      -0.221
      -0.152
      -0.069
      -0.011
       0.009
       0.007
       0.009
       0.016
       0.017
       0.002
      -0.029
      -0.077
      -0.140
      -0.200
      -0.240
      -0.252
      -0.243
      -0.221
      -0.194
      -0.172
      -0.162
      -0.156
      -0.140
      -0.111
      -0.074
      -0.036
      -0.001
       0.024
       0.034
       0.039
       0.057
       0.096
       0.142
       0.173
       0.172
       0.145
       0.110
       0.086
       0.073
       0.057
       0.027
      -0.018
      -0.071
      -0.129
      -0.185
      -0.222
      -0.226
      -0.205
      -0.174
      -0.144
      -0.123
      -0.113
      -0.110
      -0.091
      -0.042
       0.032
       0.113
       0.185
       0.244
       0.288
       0.329
       0.389
       0.472
       0.552
       0.592
       0.580
       0.535
       0.483
       0.436
       0.393
       0.345
       0.284
       0.202
       0.104
       0.003
      -0.089
      -0.165
      -0.223
      -0.274
      -0.331
      -0.402
      -0.472
      -0.523
      -0.538
      -0.513
      -0.451
      -0.367
      -0.286
      -0.226
      -0.186
      -0.152
      -0.106
      -0.045
       0.025
       0.079
       0.096
       0.079
       0.058
       0.059
       0.082
       0.106
       0.121
       0.126
       0.118
       0.089
       0.045
      -0.003
      -0.040
      -0.061
      -0.064
      -0.059
      -0.057
      -0.067
      -0.082
      -0.087
      -0.071
      -0.034
       0.018
       0.073
       0.116
       0.141
       0.165
       0.213
       0.289
       0.373
       0.439
       0.468
       0.464
       0.444
       0.424
       0.407
       0.380
       0.331
       0.262
       0.177
       0.081
      -0.021
      -0.117
      -0.197
      -0.266
      -0.334
      -0.410
      -0.494
      -0.584
      -0.669
      -0.724
      -0.734
      -0.704
      -0.652
      -0.595
      -0.541
      -0.490
      -0.428
      -0.333
      -0.202
      -0.063
       0.045
       0.108
       0.145
       0.182
       0.236
       0.308
       0.393
       0.480
       0.557
       0.620
       0.665
       0.687
       0.683
       0.654
       0.601
       0.516
       0.391
       0.229
       0.038
      -0.165
      -0.359
      -0.523
      -0.648
      -0.742
      -0.814
      -0.862
      -0.875
      -0.839
      -0.747
      -0.606
      -0.446
      -0.303
      -0.198
      -0.118
      -0.044
       0.028
       0.089
       0.132
       0.152
       0.149
       0.131
       0.126
       0.162
       0.246
       0.364
       0.494
       0.615
       0.702
       0.744
       0.742
       0.707
       0.647
       0.561
       0.451
       0.322
       0.179
       0.035
      -0.086
      -0.156
      -0.175
      -0.164
      -0.155
      -0.160
      -0.173
      -0.173
      -0.145
      -0.095
      -0.049
      -0.026
      -0.032
      -0.062
      -0.114
      -0.179
      -0.236
      -0.270
      -0.284
      -0.291
      -0.297
      -0.306
      -0.315
      -0.317
      -0.292
      -0.227
      -0.132
      -0.034
       0.046
       0.105
       0.148
       0.194
       0.256
       0.329
       0.376
       0.360
       0.281
       0.171
       0.068
      -0.011
      -0.062
      -0.092
      -0.111
      -0.126
      -0.136
      -0.140
      -0.133
      -0.114
      -0.080
      -0.035
       0.005
       0.023
       0.013
      -0.017
      -0.050
      -0.063
      -0.039
       0.020
       0.095
       0.167
       0.231
       0.294
       0.370
       0.463
       0.562
       0.636
       0.650
       0.595
       0.493
       0.375
       0.254
       0.132
       0.012
      -0.103
      -0.216
      -0.324
      -0.407
      -0.444
      -0.423
      -0.356
      -0.261
      -0.165
      -0.094
      -0.062
      -0.060
      -0.066
      -0.063
      -0.053
      -0.043
      -0.044
      -0.068
      -0.114
      -0.164
      -0.189
      -0.181
      -0.155
      -0.139
      -0.152
      -0.191
      -0.235
      -0.265
      -0.274
      -0.272
      -0.269
      -0.265
      -0.258
      -0.246
      -0.223
      -0.176
      -0.103
      -0.014
       0.071
       0.139
       0.181
       0.193
       0.182
       0.168
       0.165
       0.168
       0.156
       0.117
       0.051
      -0.026
      -0.077
      -0.069
       0.005
       0.109
       0.195
       0.243
       0.262
       0.271
       0.277
       0.282
       0.282
       0.269
       0.240
       0.198
       0.150
       0.109
       0.085
       0.088
       0.118
       0.159
       0.193
       0.217
       0.237
       0.266
       0.310
       0.365
       0.409
       0.416
       0.367
       0.266
       0.136
       0.001
      -0.120
      -0.226
      -0.335
      -0.467
      -0.622
      -0.769
      -0.878
      -0.940
      -0.959
      -0.936
      -0.872
      -0.778
      -0.670
      -0.551
      -0.421
      -0.279
      -0.131
       0.017
       0.146
       0.235
       0.273
       0.279
       0.285
       0.314
       0.364
       0.420
       0.459
       0.462
       0.428
       0.383
       0.357
       0.357
       0.360
       0.333
       0.261
       0.154
       0.041
      -0.053
      -0.122
      -0.176
      -0.222
      -0.253
      -0.260
      -0.245
      -0.211
      -0.159
      -0.094
      -0.028
       0.027
       0.069
       0.093
       0.098
       0.096
       0.112
       0.159
       0.223
       0.274
       0.289
       0.266
       0.219
       0.175
       0.160
       0.177
       0.193
       0.176
       0.123
       0.057
       0.003
      -0.029
      -0.044
      -0.049
      -0.057
      -0.077
      -0.103
      -0.127
      -0.146
      -0.158
      -0.170
      -0.189
      -0.231
      -0.302
      -0.393
      -0.493
      -0.588
      -0.665
      -0.711
      -0.723
      -0.708
      -0.673
      -0.618
      -0.532
      -0.408
      -0.244
      -0.056
       0.125
       0.271
       0.383
       0.492
       0.626
       0.786
       0.953
       1.109
       1.238
       1.323
       1.360
       1.363
       1.352
       1.336
       1.305
       1.243
       1.137
       0.978
       0.773
       0.545
       0.323
       0.120
      -0.066
      -0.239
      -0.409
      -0.586
      -0.768
      -0.935
      -1.066
      -1.156
      -1.222
      -1.286
      -1.364
      -1.453
      -1.533
      -1.579
      -1.579
      -1.535
      -1.451
      -1.331
      -1.180
      -1.000
      -0.787
      -0.535
      -0.249
       0.047
       0.324
       0.568
       0.774
       0.941
       1.076
       1.193
       1.296
       1.372
       1.406
       1.396
       1.351
       1.288
       1.231
       1.203
       1.197
       1.181
       1.119
       1.003
       0.849
       0.668
       0.465
       0.239
      -0.004
      -0.258
      -0.517
      -0.772
      -1.012
      -1.219
      -1.373
      -1.452
      -1.456
      -1.408
      -1.339
      -1.266
      -1.190
      -1.102
      -0.990
      -0.847
      -0.683
      -0.521
      -0.379
      -0.257
      -0.142
      -0.021
       0.115
       0.256
       0.375
       0.445
       0.465
       0.463
       0.464
       0.469
       0.467
       0.456
       0.437
       0.406
       0.360
       0.302
       0.246
       0.200
       0.168
       0.150
       0.133
       0.103
       0.054
      -0.001
      -0.035
      -0.034
       0.005
       0.076
       0.165
       0.259
       0.357
       0.474
       0.626
       0.804
       0.973
       1.089
       1.129
       1.095
       1.009
       0.896
       0.762
       0.603
       0.418
       0.219
       0.024
      -0.158
      -0.317
      -0.450
      -0.560
      -0.659
      -0.753
      -0.839
      -0.914
      -0.979
      -1.031
      -1.056
      -1.044
      -1.005
      -0.959
      -0.922
      -0.905
      -0.900
      -0.883
      -0.824
      -0.717
      -0.591
      -0.484
      -0.410
      -0.355
      -0.302
      -0.242
      -0.173
      -0.100
      -0.029
       0.035
       0.102
       0.184
       0.292
       0.433
       0.603
       0.791
       0.973
       1.130
       1.254
       1.345
       1.407
       1.448
       1.468
       1.459
       1.402
       1.285
       1.114
       0.911
       0.705
       0.523
       0.369
       0.216
       0.025
      -0.216
      -0.481
      -0.737
      -0.967
      -1.167
      -1.334
      -1.470
      -1.583
      -1.671
      -1.721
      -1.717
      -1.658
      -1.546
      -1.385
      -1.180
      -0.945
      -0.696
      -0.439
      -0.176
       0.090
       0.354
       0.606
       0.826
       0.997
       1.113
       1.195
       1.268
       1.337
       1.378
       1.366
       1.290
       1.167
       1.026
       0.894
       0.773
       0.655
       0.537
       0.421
       0.308
       0.197
       0.095
       0.014
      -0.042
      -0.086
      -0.136
      -0.200
      -0.281
      -0.379
      -0.482
      -0.569
      -0.626
      -0.660
      -0.686
      -0.713
      -0.740
      -0.756
      -0.738
      -0.671
      -0.562
      -0.449
      -0.368
      -0.326
      -0.309
      -0.309
      -0.321
      -0.344
      -0.368
      -0.385
      -0.388
      -0.368
      -0.319
      -0.238
      -0.121
       0.035
       0.219
       0.412
       0.592
       0.751
       0.883
       0.992
       1.085
       1.166
       1.226
       1.240
       1.195
       1.096
       0.969
       0.841
       0.730
       0.630
       0.514
       0.360
       0.179
       0.008
      -0.127
      -0.230
      -0.314
      -0.387
      -0.450
      -0.511
      -0.569
      -0.614
      -0.637
      -0.641
      -0.639
      -0.642
      -0.661
      -0.708
      -0.785
      -0.879
      -0.966
      -1.029
      -1.057
      -1.053
      -1.032
      -1.014
      -1.001
      -0.966
      -0.877
      -0.728
      -0.539
      -0.347
      -0.171
      -0.006
       0.169
       0.366
       0.576
       0.776
       0.951
       1.099
       1.221
       1.311
       1.369
       1.399
       1.403
       1.375
       1.310
       1.203
       1.047
       0.839
       0.591
       0.331
       0.078
      -0.174
      -0.443
      -0.743
      -1.070
      -1.403
      -1.697
      -1.906
      -2.012
      -2.037
      -2.016
      -1.958
      -1.847
      -1.664
      -1.409
      -1.092
      -0.731
      -0.340
       0.069
       0.485
       0.898
       1.296
       1.670
       2.010
       2.292
       2.484
       2.558
       2.510
       2.355
       2.126
       1.858
       1.575
       1.273
       0.931
       0.540
       0.120
      -0.284
      -0.625
      -0.880
      -1.059
      -1.197
      -1.324
      -1.433
      -1.495
      -1.491
      -1.428
      -1.323
      -1.186
      -1.025
      -0.851
      -0.674
      -0.497
      -0.323
      -0.158
      -0.007
       0.131
       0.253
       0.355
       0.439
       0.524
       0.622
       0.731
       0.838
       0.932
       1.009
       1.074
       1.140
       1.215
       1.281
       1.302
       1.257
       1.156
       1.028
       0.888
       0.736
       0.570
       0.386
       0.182
      -0.039
      -0.263
      -0.476
      -0.668
      -0.836
      -0.976
      -1.087
      -1.173
      -1.235
      -1.264
      -1.246
      -1.177
      -1.061
      -0.916
      -0.773
      -0.660
      -0.581
      -0.514
      -0.434
      -0.334
      -0.237
      -0.176
      -0.175
      -0.231
      -0.314
      -0.384
      -0.416
      -0.405
      -0.354
      -0.272
      -0.180
      -0.098
      -0.030
       0.030
       0.077
       0.090
       0.046
      -0.058
      -0.211
      -0.390
      -0.561
      -0.679
      -0.716
      -0.671
      -0.556
      -0.387
      -0.176
       0.071
       0.367
       0.724
       1.130
       1.529
       1.862
       2.098
       2.239
       2.298
       2.281
       2.183
       2.000
       1.735
       1.399
       1.015
       0.611
       0.214
      -0.146
      -0.448
      -0.694
      -0.902
      -1.090
      -1.263
      -1.416
      -1.536
      -1.609
      -1.629
      -1.609
      -1.569
      -1.519
      -1.447
      -1.335
      -1.168
      -0.941
      -0.671
      -0.396
      -0.157
       0.038
       0.209
       0.378
       0.542
       0.684
       0.782
       0.818
       0.778
       0.673
       0.541
       0.423
       0.339
       0.290
       0.261
       0.235
       0.198
       0.146
       0.088
       0.036
      -0.009
      -0.057
      -0.120
      -0.212
      -0.339
      -0.483
      -0.601
      -0.657
      -0.644
      -0.591
      -0.535
      -0.499
      -0.474
      -0.431
      -0.342
      -0.208
      -0.047
       0.128
       0.312
       0.497
       0.670
       0.821
       0.950
       1.051
       1.113
       1.124
       1.080
       0.984
       0.851
       0.706
       0.577
       0.460
       0.328
       0.162
      -0.021
      -0.183
      -0.302
      -0.388
      -0.458
      -0.512
      -0.538
      -0.532
      -0.504
      -0.467
      -0.420
      -0.341
      -0.223
      -0.091
       0.017
       0.077
       0.103
       0.115
       0.124
       0.137
       0.160
       0.188
       0.208
       0.204
       0.173
       0.134
       0.115
       0.146
       0.237
       0.364
       0.485
       0.562
       0.588
       0.581
       0.568
       0.572
       0.584
       0.573
       0.511
       0.406
       0.287
       0.171
       0.044
      -0.106
      -0.274
      -0.455
      -0.651
      -0.860
      -1.065
      -1.240
      -1.369
      -1.448
      -1.485
      -1.492
      -1.474
      -1.422
      -1.311
      -1.123
      -0.864
      -0.559
      -0.237
       0.074
       0.351
       0.593
       0.816
       1.029
       1.215
       1.339
       1.373
       1.317
       1.200
       1.056
       0.899
       0.722
       0.516
       0.295
       0.091
      -0.071
      -0.186
      -0.260
      -0.302
      -0.324
      -0.341
      -0.360
      -0.390
      -0.447
      -0.545
      -0.675
      -0.808
      -0.924
      -1.021
      -1.105
      -1.178
      -1.231
      -1.242
      -1.185
      -1.047
      -0.850
      -0.648
      -0.477
      -0.330
      -0.175
       0.013
       0.229
       0.448
       0.636
       0.767
       0.841
       0.880
       0.908
       0.941
       0.983
       1.032
       1.079
       1.109
       1.102
       1.050
       0.962
       0.859
       0.768
       0.700
       0.639
       0.555
       0.432
       0.289
       0.162
       0.076
       0.029
      -0.004
      -0.053
      -0.124
      -0.197
      -0.241
      -0.251
      -0.242
      -0.231
      -0.222
      -0.222
      -0.239
      -0.274
      -0.317
      -0.364
      -0.424
      -0.513
      -0.639
      -0.810
      -1.023
      -1.258
      -1.476
      -1.639
      -1.722
      -1.713
      -1.612
      -1.432
      -1.189
      -0.886
      -0.513
      -0.073
       0.397
       0.844
       1.222
       1.517
       1.735
       1.889
       1.987
       2.016
       1.959
       1.808
       1.568
       1.253
       0.879
       0.468
       0.044
      -0.376
      -0.783
      -1.161
      -1.488
      -1.745
      -1.915
      -1.983
      -1.945
      -1.817
      -1.641
      -1.456
      -1.282
      -1.117
      -0.939
      -0.722
      -0.458
      -0.174
       0.091
       0.317
       0.519
       0.718
       0.916
       1.107
       1.287
       1.453
       1.593
       1.697
       1.762
       1.796
       1.805
       1.790
       1.745
       1.654
       1.499
       1.277
       1.008
       0.721
       0.438
       0.178
      -0.051
      -0.246
      -0.409
      -0.535
      -0.608
      -0.619
      -0.574
      -0.498
      -0.423
      -0.376
      -0.358
      -0.355
      -0.361
      -0.388
      -0.457
      -0.574
      -0.720
      -0.871
      -1.008
      -1.111
      -1.167
      -1.174
      -1.140
      -1.070
      -0.961
      -0.817
      -0.648
      -0.459
      -0.244
      -0.011
       0.214
       0.398
       0.514
       0.553
       0.528
       0.478
       0.446
       0.444
       0.447
       0.421
       0.355
       0.267
       0.184
