Origin Time       18/01/2011 20:23:27
Lat.              28.9 N	
Long.             64.0 E	
Depth (Km)          5.0
Magnitude         7.4
 Region           Southwestern-Pakistan                                            
 Above details taken from IMD 
    
Station Code       NSIT
Station Lat.       28.608  N
Station Long.      77.041  E
Station Height(m)  159.0
Site Class        C   Vs30 between 200 m/sec to 375 m/sec *  
Record Time        1/18/2011 ) 20:27:53.0
Sampling Rate     200. Hz
 Record Duration   91.000 Sec.
 Direction         N-S (N positive)
Max. Acceleration   9.891 cm/sec**2
     
  * For reference see Site Classification link of website 
     
 Base Line Corrected and Low Pass Filtered (Cut Off at 35 Hz) Time History
 Acceleration data in cm/sec**2
    
[...]
   -0.130
   -0.171
   -0.189
   -0.160
   -0.086
    0.004
    0.085
    0.140
    0.167
    0.183
    0.212
    0.274
    0.362
    0.442
    0.477
    0.450
    0.375
    0.282
    0.190
    0.102
    0.012
   -0.066
   -0.094
   -0.044
    0.068
    0.198
    0.308
    0.385
    0.441
    0.484
    0.509
    0.506
    0.475
    0.431
    0.393
    0.359
    0.305
    0.195
    0.018
   -0.210
   -0.447
   -0.650
   -0.808
   -0.935
   -1.050
   -1.140
   -1.161
   -1.079
   -0.907
   -0.702
   -0.527
   -0.409
   -0.331
   -0.264
   -0.196
   -0.147
   -0.144
   -0.187
   -0.244
   -0.279
   -0.282
   -0.278
   -0.310
   -0.398
   -0.512
   -0.587
   -0.564
   -0.443
   -0.286
   -0.163
   -0.101
   -0.068
   -0.008
    0.107
    0.255
    0.375
    0.416
    0.374
    0.288
    0.196
    0.100
   -0.019
   -0.168
   -0.321
   -0.437
   -0.495
   -0.503
   -0.487
   -0.464
   -0.437
   -0.401
   -0.362
   -0.341
   -0.365
   -0.441
   -0.544
   -0.627
   -0.651
   -0.610
   -0.533
   -0.455
   -0.383
   -0.293
   -0.156
    0.024
    0.201
    0.314
    0.328
    0.254
    0.138
    0.018
   -0.092
   -0.193
   -0.285
   -0.357
   -0.391
   -0.373
   -0.297
   -0.172
   -0.020
    0.126
    0.227
    0.261
    0.229
    0.158
    0.074
   -0.007
   -0.079
   -0.143
   -0.199
   -0.247
   -0.294
   -0.343
   -0.385
   -0.391
   -0.325
   -0.171
    0.039
    0.240
    0.372
    0.415
    0.392
    0.337
    0.263
    0.155
   -0.011
   -0.238
   -0.491
   -0.715
   -0.863
   -0.909
   -0.867
   -0.778
   -0.695
   -0.658
   -0.677
   -0.743
   -0.839
   -0.939
   -1.006
   -1.006
   -0.928
   -0.792
   -0.630
   -0.471
   -0.325
   -0.191
   -0.073
    0.016
    0.056
    0.046
    0.003
   -0.047
   -0.092
   -0.125
   -0.147
   -0.165
   -0.189
   -0.219
   -0.246
   -0.263
   -0.278
   -0.309
   -0.369
   -0.451
   -0.529
   -0.573
   -0.569
   -0.537
   -0.517
   -0.532
   -0.570
   -0.599
   -0.598
   -0.578
   -0.561
   -0.562
   -0.571
   -0.568
   -0.548
   -0.533
   -0.550
   -0.611
   -0.698
   -0.781
   -0.841
   -0.874
   -0.896
   -0.933
   -0.991
   -1.045
   -1.054
   -0.994
   -0.879
   -0.745
   -0.624
   -0.523
   -0.430
   -0.343
   -0.277
   -0.261
   -0.310
   -0.404
   -0.509
   -0.591
   -0.629
   -0.616
   -0.554
   -0.465
   -0.378
   -0.319
   -0.286
   -0.255
   -0.196
   -0.099
    0.024
    0.145
    0.244
    0.314
    0.358
    0.376
    0.373
    0.362
    0.358
    0.368
    0.386
    0.395
    0.388
    0.365
    0.333
    0.301
    0.278
    0.269
    0.271
    0.273
    0.256
    0.215
    0.169
    0.153
    0.190
    0.260
    0.309
    0.280
    0.156
   -0.024
   -0.201
   -0.332
   -0.423
   -0.504
   -0.601
   -0.705
   -0.783
   -0.804
   -0.764
   -0.685
   -0.600
   -0.534
   -0.491
   -0.456
   -0.419
   -0.383
   -0.360
   -0.346
   -0.320
   -0.258
   -0.169
   -0.091
   -0.055
   -0.048
   -0.022
    0.071
    0.229
    0.400
    0.520
    0.569
    0.582
    0.619
    0.705
    0.821
    0.933
    1.027
    1.105
    1.172
    1.221
    1.245
    1.243
    1.218
    1.166
    1.084
    0.981
    0.891
    0.853
    0.871
    0.907
    0.913
    0.880
    0.832
    0.791
    0.740
    0.643
    0.493
    0.332
    0.226
    0.208
    0.249
    0.287
    0.282
    0.247
    0.215
    0.203
    0.202
    0.196
    0.184
    0.180
    0.201
    0.251
    0.315
    0.360
    0.359
    0.311
    0.238
    0.162
    0.097
    0.042
   -0.005
   -0.032
   -0.013
    0.061
    0.173
    0.287
    0.384
    0.471
    0.558
    0.634
    0.674
    0.672
    0.646
    0.621
    0.595
    0.538
    0.426
    0.274
    0.131
    0.037
   -0.011
   -0.053
   -0.113
   -0.176
   -0.202
   -0.169
   -0.086
    0.024
    0.147
    0.279
    0.411
    0.515
    0.558
    0.527
    0.439
    0.332
    0.240
    0.186
    0.182
    0.229
    0.313
    0.406
    0.476
    0.513
    0.528
    0.545
    0.568
    0.578
    0.552
    0.486
    0.400
    0.319
    0.245
    0.161
    0.050
   -0.080
   -0.202
   -0.296
   -0.354
   -0.384
   -0.388
   -0.366
   -0.313
   -0.235
   -0.145
   -0.060
    0.007
    0.055
    0.087
    0.109
    0.124
    0.134
    0.135
    0.124
    0.098
    0.070
    0.063
    0.087
    0.132
    0.167
    0.169
    0.134
    0.072
   -0.011
   -0.128
   -0.298
   -0.519
   -0.756
   -0.944
   -1.036
   -1.026
   -0.956
   -0.883
   -0.841
   -0.827
   -0.818
   -0.806
   -0.809
   -0.857
   -0.954
   -1.071
   -1.177
   -1.266
   -1.354
   -1.439
   -1.484
   -1.434
   -1.269
   -1.032
   -0.822
   -0.729
   -0.778
   -0.923
   -1.095
   -1.255
   -1.402
   -1.547
   -1.683
   -1.784
   -1.822
   -1.792
   -1.714
   -1.617
   -1.516
   -1.409
   -1.298
   -1.201
   -1.150
   -1.175
   -1.285
   -1.476
   -1.725
   -2.005
   -2.291
   -2.562
   -2.788
   -2.930
   -2.951
   -2.841
   -2.635
   -2.403
   -2.220
   -2.116
   -2.060
   -1.984
   -1.843
   -1.645
   -1.439
   -1.268
   -1.129
   -0.977
   -0.759
   -0.468
   -0.151
    0.127
    0.340
    0.523
    0.728
    0.972
    1.222
    1.426
    1.565
    1.669
    1.779
    1.898
    1.980
    1.969
    1.851
    1.663
    1.460
    1.279
    1.126
    0.989
    0.866
    0.770
    0.715
    0.690
    0.648
    0.523
    0.281
   -0.056
   -0.418
   -0.737
   -0.976
   -1.144
   -1.258
   -1.319
   -1.305
   -1.205
   -1.038
   -0.848
   -0.668
   -0.505
   -0.348
   -0.202
   -0.088
   -0.019
    0.018
    0.066
    0.163
    0.322
    0.534
    0.776
    1.032
    1.289
    1.524
    1.714
    1.840
    1.899
    1.901
    1.863
    1.802
    1.733
    1.677
    1.650
    1.656
    1.684
    1.711
    1.721
    1.726
    1.767
    1.884
    2.079
    2.305
    2.493
    2.594
    2.608
    2.561
    2.481
    2.369
    2.217
    2.038
    1.871
    1.765
    1.736
    1.750
    1.749
    1.702
    1.627
    1.576
    1.586
    1.651
    1.722
    1.755
    1.756
    1.778
    1.884
    2.089
    2.346
    2.578
    2.721
    2.743
    2.652
    2.469
    2.227
    1.963
    1.714
    1.507
    1.354
    1.256
    1.212
    1.215
    1.245
    1.265
    1.245
    1.169
    1.049
    0.914
    0.796
    0.710
    0.640
    0.556
    0.439
    0.294
    0.144
    0.010
   -0.102
   -0.202
   -0.300
   -0.384
   -0.410
   -0.339
   -0.173
    0.039
    0.233
    0.372
    0.459
    0.525
    0.590
    0.649
    0.691
    0.715
    0.737
    0.766
    0.787
    0.788
    0.783
    0.807
    0.876
    0.967
    1.032
    1.043
    1.018
    1.001
    1.029
    1.103
    1.189
    1.245
    1.240
    1.159
    1.004
    0.795
    0.562
    0.327
    0.085
   -0.179
   -0.474
   -0.780
   -1.058
   -1.272
   -1.404
   -1.451
   -1.410
   -1.272
   -1.039
   -0.745
   -0.445
   -0.190
    0.004
    0.153
    0.288
    0.433
    0.604
    0.797
    0.997
    1.184
    1.358
    1.533
    1.726
    1.932
    2.124
    2.267
    2.345
    2.360
    2.319
    2.219
    2.046
    1.788
    1.448
    1.049
    0.633
    0.251
   -0.055
   -0.270
   -0.418
   -0.549
   -0.706
   -0.898
   -1.109
   -1.319
   -1.523
   -1.725
   -1.925
   -2.103
   -2.229
   -2.272
   -2.229
   -2.117
   -1.966
   -1.809
   -1.675
   -1.587
   -1.553
   -1.552
   -1.549
   -1.511
   -1.420
   -1.279
   -1.105
   -0.915
   -0.727
   -0.553
   -0.401
   -0.272
   -0.165
   -0.083
   -0.037
   -0.038
   -0.071
   -0.098
   -0.096
   -0.079
   -0.098
   -0.197
   -0.379
   -0.605
   -0.824
   -1.010
   -1.183
   -1.381
   -1.619
   -1.880
   -2.130
   -2.351
   -2.552
   -2.737
   -2.893
   -2.987
   -2.985
   -2.884
   -2.715
   -2.525
   -2.342
   -2.154
   -1.924
   -1.623
   -1.264
   -0.907
   -0.625
   -0.461
   -0.398
   -0.380
   -0.352
   -0.287
   -0.183
   -0.038
    0.157
    0.410
    0.711
    1.038
    1.366
    1.680
    1.973
    2.236
    2.449
    2.587
    2.637
    2.600
    2.483
    2.298
    2.054
    1.744
    1.346
    0.840
    0.239
   -0.404
   -1.021
   -1.573
   -2.064
   -2.528
   -2.988
   -3.443
   -3.867
   -4.230
   -4.517
   -4.725
   -4.849
   -4.876
   -4.795
   -4.608
   -4.339
   -4.024
   -3.715
   -3.467
   -3.318
   -3.263
   -3.256
   -3.234
   -3.158
   -3.031
   -2.876
   -2.705
   -2.498
   -2.230
   -1.911
   -1.592
   -1.327
   -1.130
   -0.974
   -0.829
   -0.691
   -0.582
   -0.522
   -0.506
   -0.516
   -0.541
   -0.593
   -0.680
   -0.788
   -0.872
   -0.884
   -0.802
   -0.635
   -0.418
   -0.195
   -0.002
    0.143
    0.248
    0.335
    0.417
    0.491
    0.541
    0.560
    0.553
    0.531
    0.500
    0.456
    0.397
    0.333
    0.286
    0.263
    0.249
    0.214
    0.146
    0.073
    0.031
    0.030
    0.044
    0.027
   -0.038
   -0.131
   -0.211
   -0.260
   -0.303
   -0.380
   -0.505
   -0.648
   -0.757
   -0.798
   -0.779
   -0.733
   -0.698
   -0.697
   -0.729
   -0.777
   -0.821
   -0.843
   -0.833
   -0.795
   -0.744
   -0.687
   -0.607
   -0.471
   -0.254
    0.036
    0.358
    0.668
    0.944
    1.208
    1.499
    1.828
    2.153
    2.404
    2.545
    2.593
    2.597
    2.577
    2.508
    2.349
    2.096
    1.803
    1.546
    1.359
    1.198
    0.988
    0.686
    0.313
   -0.070
   -0.414
   -0.709
   -0.971
   -1.214
   -1.424
   -1.559
   -1.565
   -1.403
   -1.074
   -0.611
   -0.068
    0.502
    1.064
    1.597
    2.069
    2.433
    2.653
    2.739
    2.755
    2.778
    2.851
    2.962
    3.065
    3.112
    3.078
    2.956
    2.740
    2.423
    2.008
    1.518
    0.984
    0.437
   -0.096
   -0.594
   -1.047
   -1.460
   -1.837
   -2.156
   -2.374
   -2.463
   -2.438
   -2.354
   -2.258
   -2.152
   -1.995
   -1.754
   -1.451
   -1.158
   -0.944
   -0.830
   -0.775
   -0.709
   -0.570
   -0.333
   -0.013
    0.347
    0.709
    1.055
    1.380
    1.668
    1.879
    1.959
    1.875
    1.639
    1.310
    0.959
    0.631
    0.344
    0.105
   -0.068
   -0.157
   -0.162
   -0.114
   -0.061
   -0.052
   -0.111
   -0.231
   -0.375
   -0.499
   -0.576
   -0.615
   -0.650
   -0.708
   -0.784
   -0.841
   -0.850
   -0.820
   -0.793
   -0.807
   -0.863
   -0.932
   -0.984
   -1.008
   -1.000
   -0.956
   -0.875
   -0.777
   -0.700
   -0.674
   -0.701
   -0.756
   -0.810
   -0.836
   -0.816
   -0.732
   -0.563
   -0.294
    0.083
    0.571
    1.169
    1.860
    2.596
    3.300
    3.899
    4.370
    4.735
    5.021
    5.219
    5.287
    5.191
    4.944
    4.614
    4.287
    4.023
    3.837
    3.713
    3.624
    3.536
    3.400
    3.159
    2.774
    2.255
    1.665
    1.093
    0.634
    0.353
    0.267
    0.342
    0.516
    0.726
    0.936
    1.133
    1.305
    1.407
    1.380
    1.187
    0.849
    0.429
   -0.007
   -0.426
   -0.823
   -1.207
   -1.571
   -1.888
   -2.122
   -2.259
   -2.315
   -2.329
   -2.334
   -2.343
   -2.348
   -2.331
   -2.270
   -2.150
   -1.957
   -1.673
   -1.280
   -0.783
   -0.216
    0.362
    0.887
    1.306
    1.588
    1.736
    1.803
    1.875
    2.033
    2.317
    2.705
    3.122
    3.486
    3.741
    3.869
    3.876
    3.771
    3.579
    3.344
    3.114
    2.912
    2.712
    2.468
    2.164
    1.836
    1.538
    1.295
    1.077
    0.837
    0.566
    0.319
    0.169
    0.153
    0.244
    0.371
    0.467
    0.489
    0.430
    0.302
    0.115
   -0.133
   -0.441
   -0.792
   -1.135
   -1.396
   -1.508
   -1.453
   -1.275
   -1.049
   -0.835
   -0.650
   -0.487
   -0.348
   -0.251
   -0.206
   -0.197
   -0.194
   -0.191
   -0.220
   -0.338
   -0.579
   -0.915
   -1.269
   -1.555
   -1.729
   -1.807
   -1.844
   -1.900
   -2.011
   -2.189
   -2.432
   -2.749
   -3.158
   -3.664
   -4.233
   -4.789
   -5.247
   -5.552
   -5.697
   -5.698
   -5.567
   -5.293
   -4.873
   -4.345
   -3.793
   -3.296
   -2.883
   -2.517
   -2.151
   -1.767
   -1.381
   -1.015
   -0.663
   -0.295
    0.123
    0.602
    1.110
    1.575
    1.910
    2.056
    2.018
    1.856
    1.644
    1.409
    1.121
    0.759
    0.367
    0.047
   -0.118
   -0.142
   -0.127
   -0.179
   -0.328
   -0.527
   -0.711
   -0.857
   -0.981
   -1.096
   -1.177
   -1.190
   -1.144
   -1.101
   -1.131
   -1.254
   -1.438
   -1.628
   -1.790
   -1.915
   -2.002
   -2.039
   -2.007
   -1.892
   -1.699
   -1.456
   -1.212
   -1.037
   -1.000
   -1.129
   -1.393
   -1.724
   -2.071
   -2.421
   -2.779
   -3.136
   -3.471
   -3.774
   -4.067
   -4.396
   -4.792
   -5.229
   -5.632
   -5.925
   -6.078
   -6.115
   -6.080
   -6.007
   -5.908
   -5.792
   -5.679
   -5.593
   -5.534
   -5.463
   -5.306
   -5.007
   -4.554
   -3.979
   -3.324
   -2.615
   -1.877
   -1.159
   -0.554
   -0.152
    0.015
    0.011
   -0.035
   -0.018
    0.084
    0.226
    0.363
    0.502
    0.680
    0.911
    1.144
    1.301
    1.341
    1.301
    1.258
    1.252
    1.237
    1.120
    0.840
    0.422
   -0.040
   -0.433
   -0.686
   -0.774
   -0.701
   -0.477
   -0.113
    0.363
    0.890
    1.395
    1.825
    2.172
    2.454
    2.687
    2.856
    2.922
    2.854
    2.654
    2.355
    1.990
    1.575
    1.107
    0.605
    0.125
   -0.250
   -0.456
   -0.469
   -0.309
   -0.028
    0.317
    0.682
    1.044
    1.397
    1.737
    2.043
    2.287
    2.451
    2.546
    2.614
    2.700
    2.823
    2.963
    3.086
    3.161
    3.166
    3.065
    2.815
    2.406
    1.888
    1.360
    0.916
    0.589
    0.360
    0.203
    0.130
    0.200
    0.480
    0.996
    1.722
    2.600
    3.572
    4.597
    5.640
    6.655
    7.572
    8.319
    8.850
    9.182
    9.383
    9.534
    9.682
    9.817
    9.891
    9.856
    9.700
    9.444
    9.112
    8.709
    8.235
    7.718
    7.219
    6.799
    6.490
    6.277
    6.123
    5.986
    5.852
    5.731
    5.650
    5.623
    5.637
    5.653
    5.626
    5.529
    5.373
    5.184
    4.959
    4.656
    4.236
    3.726
    3.227
    2.862
    2.704
    2.761
    3.010
    3.436
    4.034
    4.760
    5.518
    6.195
    6.744
    7.194
    7.590
    7.906
    8.042
    7.894
    7.438
    6.740
    5.905
    5.006
    4.061
    3.083
    2.122
    1.271
    0.624
    0.231
    0.076
    0.088
    0.165
    0.217
    0.202
    0.125
    0.003
   -0.178
   -0.471
   -0.927
   -1.551
   -2.290
   -3.055
   -3.759
   -4.333
   -4.712
   -4.837
   -4.671
   -4.241
   -3.633
   -2.960
   -2.301
   -1.683
   -1.095
   -0.526
    0.003
    0.422
    0.627
    0.529
    0.119
   -0.495
   -1.136
   -1.653
   -2.007
   -2.263
   -2.498
   -2.719
   -2.855
   -2.832
   -2.655
   -2.408
   -2.174
   -1.947
   -1.632
   -1.141
   -0.482
    0.223
    0.820
    1.232
    1.492
    1.695
    1.906
    2.105
    2.226
    2.236
    2.180
    2.154
    2.226
    2.377
    2.512
    2.533
    2.407
    2.165
    1.854
    1.480
    0.999
    0.369
   -0.399
   -1.235
   -2.049
   -2.796
   -3.495
   -4.207
   -4.979
   -5.808
   -6.646
   -7.422
   -8.068
   -8.536
   -8.806
   -8.878
   -8.774
   -8.525
   -8.179
   -7.786
   -7.373
   -6.927
   -6.407
   -5.789
   -5.106
   -4.452
   -3.945
   -3.661
   -3.602
   -3.718
   -3.943
   -4.222
   -4.489
   -4.664
   -4.670
   -4.482
   -4.148
   -3.759
   -3.393
   -3.083
   -2.818
   -2.593
   -2.423
   -2.325
   -2.280
   -2.229
   -2.118
   -1.948
   -1.780
   -1.709
   -1.802
   -2.065
   -2.443
   -2.848
   -3.203
   -3.460
   -3.605
   -3.653
   -3.650
   -3.661
   -3.750
   -3.951
   -4.252
   -4.600
   -4.923
   -5.176
   -5.356
   -5.487
   -5.592
   -5.671
   -5.709
   -5.684
   -5.572
   -5.364
   -5.080
   -4.783
   -4.544
   -4.403
   -4.329
   -4.230
   -4.001
   -3.583
   -2.991
   -2.291
   -1.552
   -0.819
   -0.131
    0.458
    0.876
    1.053
    0.951
    0.556
   -0.126
   -1.083
   -2.275
   -3.622
   -4.994
   -6.234
   -7.195
   -7.779
   -7.963
   -7.808
   -7.426
   -6.930
   -6.393
   -5.843
   -5.303
   -4.812
   -4.420
   -4.157
   -4.020
   -3.983
   -4.021
   -4.119
   -4.274
   -4.473
   -4.683
   -4.856
   -4.950
   -4.955
   -4.883
   -4.753
   -4.572
   -4.337
   -4.057
   -3.758
   -3.490
   -3.312
   -3.264
   -3.345
   -3.504
   -3.672
   -3.801
   -3.890
   -3.966
   -4.032
   -4.038
   -3.925
   -3.689
   -3.406
   -3.178
   -3.041
   -2.939
   -2.783
   -2.536
   -2.234
   -1.942
   -1.683
   -1.430
   -1.150
   -0.855
   -0.587
   -0.375
   -0.196
    0.001
    0.249
    0.547
    0.883
    1.260
    1.678
    2.105
    2.479
    2.737
    2.864
    2.904
    2.934
    3.014
    3.158
    3.335
    3.502
    3.634
    3.749
    3.904
    4.172
    4.583
    5.085
    5.563
    5.912
    6.085
    6.097
    5.985
    5.770
    5.459
    5.067
    4.638
    4.230
    3.875
    3.560
    3.247
    2.920
    2.614
    2.390
    2.295
    2.346
    2.540
    2.887
    3.412
    4.117
    4.922
    5.651
    6.101
    6.138
    5.756
    5.044
    4.109
    3.029
    1.865
    0.711
   -0.279
   -0.943
   -1.203
   -1.106
   -0.802
   -0.451
   -0.152
    0.065
    0.220
    0.331
    0.395
    0.391
    0.311
    0.172
    0.020
   -0.101
   -0.163
   -0.161
   -0.085
    0.115
    0.528
    1.228
    2.206
    3.344
    4.476
    5.479
    6.323
    7.041
    7.663
    8.166
    8.482
    8.544
    8.342
    7.930
    7.409
    6.887
    6.441
    6.105
    5.870
    5.708
    5.590
    5.493
    5.388
    5.231
    4.979
    4.628
    4.219
    3.803
    3.388
    2.923
    2.360
    1.725
    1.137
    0.743
    0.616
    0.705
    0.879
    1.023
    1.101
    1.137
    1.153
    1.147
    1.135
    1.186
    1.398
    1.824
    2.410
    3.018
    3.512
    3.851
    4.112
    4.431
    4.898
    5.487
    6.066
    6.471
    6.621
    6.570
    6.480
    6.499
    6.665
    6.906
    7.126
    7.282
    7.376
    7.381
    7.192
    6.660
    5.699
    4.369
    2.856
    1.352
   -0.046
   -1.334
   -2.518
   -3.542
   -4.281
   -4.617
   -4.516
   -4.054
   -3.370
   -2.593
   -1.803
   -1.047
   -0.382
    0.100
    0.309
    0.207
   -0.140
   -0.564
   -0.872
   -0.945
   -0.793
   -0.514
   -0.214
    0.060
    0.310
    0.541
    0.728
    0.837
    0.863
    0.854
    0.869
    0.912
    0.910
    0.758
    0.406
   -0.091
   -0.579
   -0.888
   -0.919
   -0.694
   -0.332
    0.032
    0.299
    0.415
    0.335
    0.006
   -0.608
   -1.475
   -2.476
   -3.451
   -4.258
   -4.826
   -5.129
   -5.156
   -4.905
   -4.399
   -3.700
   -2.893
   -2.059
   -1.271
   -0.585
   -0.038
    0.354
    0.599
    0.730
    0.806
    0.907
    1.098
    1.405
    1.799
    2.209
    2.559
    2.801
    2.935
    3.012
    3.097
    3.240
    3.445
    3.679
    3.893
    4.050
    4.133
    4.146
    4.093
    3.962
    3.717
    3.326
    2.780
    2.105
    1.349
    0.561
   -0.209
   -0.888
   -1.378
   -1.583
   -1.471
   -1.107
   -0.627
   -0.162
    0.211
    0.476
    0.647
    0.747
    0.808
    0.862
    0.910
    0.883
    0.657
    0.122
   -0.733
   -1.789
   -2.858
   -3.783
   -4.479
   -4.912
   -5.057
   -4.887
   -4.415
   -3.725
   -2.960
   -2.271
   -1.757
   -1.437
   -1.263
   -1.171
   -1.121
   -1.114
   -1.163
   -1.257
   -1.361
   -1.435
   -1.480
   -1.548
   -1.705
   -1.975
   -2.302
   -2.573
   -2.682
   -2.590
   -2.341
   -2.025
   -1.722
   -1.477
   -1.316
   -1.287
   -1.447
   -1.818
   -2.343
   -2.901
   -3.368
   -3.671
   -3.819
   -3.887
   -3.978
   -4.163
   -4.464
   -4.846
   -5.249
