Origin Time       04/04/2011 11:31:40 UTC
Lat.              29.6 N	
Long.             80.8 E	
Depth (Km)         10.0
Magnitude         5.7
 Region           NEPAL-INDIA-BORDER-REGION                                        
 Above details taken from IMD 
    
Station Code      PTI
Station Lat.       29.407  N
Station Long.      79.931  E
Station Height(m) 1667.0
Site Class        A   Vs30 between 700 m/sec to 1400 m/sec * 
Record Time       04.04.2011 11:31:38.004 UTC
Sampling Rate     200. Hz
 Record Duration   97.110 Sec.
 Direction         N-S (N positive)
Max. Acceleration     -9.108 cm/sec**2
     
  * For reference see Site Classification link of website 
     
 Base Line Corrected and Low Pass Filtered (Cut Off at 35 Hz) Time History
 Acceleration data in cm/sec**2
    
[...]
       0.382
       0.366
       0.440
       0.528
       0.563
       0.495
       0.300
       0.003
      -0.314
      -0.531
      -0.557
      -0.383
      -0.100
       0.155
       0.270
       0.202
      -0.029
      -0.355
      -0.689
      -0.942
      -1.061
      -1.058
      -0.997
      -0.952
      -0.952
      -0.980
      -0.995
      -0.966
      -0.878
      -0.723
      -0.494
      -0.208
       0.082
       0.306
       0.434
       0.495
       0.548
       0.624
       0.696
       0.711
       0.647
       0.539
       0.463
       0.501
       0.681
       0.961
       1.235
       1.377
       1.300
       0.985
       0.497
      -0.055
      -0.550
      -0.902
      -1.082
      -1.120
      -1.077
      -1.011
      -0.938
      -0.842
      -0.705
      -0.534
      -0.345
      -0.141
       0.086
       0.326
       0.535
       0.658
       0.665
       0.581
       0.457
       0.332
       0.205
       0.052
      -0.137
      -0.333
      -0.476
      -0.502
      -0.374
      -0.100
       0.258
       0.599
       0.820
       0.868
       0.768
       0.605
       0.464
       0.382
       0.339
       0.304
       0.260
       0.202
       0.109
      -0.052
      -0.286
      -0.542
      -0.748
      -0.847
      -0.832
      -0.728
      -0.584
      -0.451
      -0.360
      -0.297
      -0.216
      -0.082
       0.095
       0.261
       0.372
       0.420
       0.437
       0.454
       0.475
       0.480
       0.452
       0.416
       0.430
       0.541
       0.723
       0.871
       0.859
       0.620
       0.205
      -0.254
      -0.616
      -0.809
      -0.852
      -0.817
      -0.773
      -0.746
      -0.721
      -0.657
      -0.512
      -0.269
       0.049
       0.374
       0.617
       0.716
       0.665
       0.495
       0.234
      -0.105
      -0.492
      -0.836
      -1.017
      -0.963
      -0.710
      -0.380
      -0.106
       0.033
       0.033
      -0.052
      -0.140
      -0.152
      -0.051
       0.133
       0.306
       0.356
       0.223
      -0.062
      -0.388
      -0.624
      -0.678
      -0.533
      -0.234
       0.138
       0.495
       0.771
       0.932
       0.986
       0.967
       0.923
       0.889
       0.872
       0.846
       0.764
       0.592
       0.341
       0.066
      -0.165
      -0.307
      -0.362
      -0.353
      -0.302
      -0.228
      -0.159
      -0.134
      -0.177
      -0.272
      -0.366
      -0.420
      -0.447
      -0.514
      -0.678
      -0.926
      -1.157
      -1.237
      -1.097
      -0.791
      -0.461
      -0.244
      -0.176
      -0.187
      -0.161
      -0.025
       0.206
       0.456
       0.650
       0.763
       0.826
       0.879
       0.926
       0.929
       0.832
       0.603
       0.268
      -0.106
      -0.436
      -0.659
      -0.760
      -0.763
      -0.701
      -0.591
      -0.431
      -0.233
      -0.029
       0.132
       0.204
       0.161
      -0.002
      -0.262
      -0.570
      -0.860
      -1.080
      -1.205
      -1.234
      -1.178
      -1.043
      -0.836
      -0.567
      -0.258
       0.049
       0.298
       0.440
       0.465
       0.418
       0.376
       0.389
       0.459
       0.556
       0.659
       0.767
       0.867
       0.921
       0.878
       0.725
       0.513
       0.335
       0.266
       0.318
       0.439
       0.550
       0.599
       0.584
       0.554
       0.559
       0.612
       0.671
       0.680
       0.615
       0.504
       0.386
       0.272
       0.125
      -0.097
      -0.392
      -0.699
      -0.929
      -1.005
      -0.897
      -0.634
      -0.295
       0.012
       0.199
       0.236
       0.160
       0.042
      -0.055
      -0.109
      -0.127
      -0.134
      -0.155
      -0.214
      -0.311
      -0.419
      -0.495
      -0.513
      -0.483
      -0.430
      -0.362
      -0.256
      -0.086
       0.144
       0.392
       0.608
       0.749
       0.785
       0.685
       0.434
       0.063
      -0.337
      -0.636
      -0.729
      -0.588
      -0.278
       0.082
       0.360
       0.462
       0.361
       0.104
      -0.201
      -0.423
      -0.464
      -0.315
      -0.069
       0.130
       0.165
       0.014
      -0.253
      -0.525
      -0.709
      -0.751
      -0.633
      -0.369
      -0.002
       0.384
       0.680
       0.802
       0.741
       0.585
       0.472
       0.507
       0.701
       0.966
       1.165
       1.180
       0.966
       0.558
       0.052
      -0.425
      -0.749
      -0.845
      -0.724
      -0.489
      -0.282
      -0.209
      -0.279
      -0.417
      -0.518
      -0.514
      -0.396
      -0.204
       0.007
       0.190
       0.312
       0.358
       0.336
       0.271
       0.201
       0.158
       0.150
       0.144
       0.088
      -0.051
      -0.260
      -0.472
      -0.605
      -0.603
      -0.472
      -0.274
      -0.085
       0.036
       0.074
       0.043
      -0.035
      -0.137
      -0.244
      -0.338
      -0.401
      -0.406
      -0.336
      -0.188
       0.020
       0.257
       0.491
       0.687
       0.812
       0.839
       0.760
       0.599
       0.404
       0.221
       0.071
      -0.069
      -0.237
      -0.435
      -0.600
      -0.627
      -0.456
      -0.121
       0.255
       0.533
       0.641
       0.601
       0.498
       0.411
       0.363
       0.328
       0.271
       0.189
       0.119
       0.104
       0.161
       0.272
       0.392
       0.479
       0.506
       0.474
       0.412
       0.360
       0.347
       0.365
       0.377
       0.346
       0.260
       0.138
       0.006
      -0.125
      -0.258
      -0.396
      -0.529
      -0.631
      -0.672
      -0.622
      -0.462
      -0.208
       0.072
       0.280
       0.348
       0.279
       0.150
       0.057
       0.059
       0.147
       0.269
       0.363
       0.397
       0.390
       0.396
       0.459
       0.580
       0.711
       0.779
       0.737
       0.593
       0.407
       0.253
       0.179
       0.177
       0.204
       0.220
       0.218
       0.212
       0.208
       0.191
       0.151
       0.113
       0.131
       0.247
       0.438
       0.622
       0.708
       0.660
       0.513
       0.340
       0.214
       0.165
       0.172
       0.173
       0.108
      -0.036
      -0.207
      -0.326
      -0.335
      -0.236
      -0.073
       0.099
       0.243
       0.323
       0.292
       0.114
      -0.198
      -0.552
      -0.816
      -0.897
      -0.786
      -0.554
      -0.294
      -0.066
       0.116
       0.257
       0.346
       0.362
       0.307
       0.229
       0.209
       0.299
       0.494
       0.735
       0.952
       1.097
       1.151
       1.105
       0.951
       0.706
       0.427
       0.204
       0.103
       0.127
       0.224
       0.345
       0.480
       0.640
       0.799
       0.879
       0.790
       0.501
       0.072
      -0.366
      -0.693
      -0.861
      -0.915
      -0.959
      -1.081
      -1.298
      -1.544
      -1.705
      -1.688
      -1.464
      -1.082
      -0.641
      -0.250
       0.007
       0.098
       0.045
      -0.080
      -0.178
      -0.163
      -0.009
       0.224
       0.412
       0.431
       0.234
      -0.125
      -0.527
      -0.851
      -1.030
      -1.071
      -1.033
      -0.981
      -0.934
      -0.860
      -0.726
      -0.546
      -0.396
      -0.365
      -0.494
      -0.749
      -1.041
      -1.270
      -1.363
      -1.297
      -1.108
      -0.883
      -0.720
      -0.692
      -0.820
      -1.063
      -1.338
      -1.545
      -1.612
      -1.532
      -1.365
      -1.196
      -1.083
      -1.023
      -0.974
      -0.882
      -0.709
      -0.452
      -0.145
       0.147
       0.350
       0.425
       0.397
       0.346
       0.361
       0.482
       0.664
       0.810
       0.837
       0.720
       0.486
       0.177
      -0.174
      -0.529
      -0.840
      -1.047
      -1.104
      -1.005
      -0.797
      -0.555
      -0.352
      -0.221
      -0.154
      -0.110
      -0.033
       0.125
       0.376
       0.689
       0.987
       1.189
       1.236
       1.126
       0.915
       0.694
       0.556
       0.562
       0.728
       1.026
       1.389
       1.738
       2.021
       2.231
       2.388
       2.498
       2.533
       2.455
       2.254
       1.967
       1.659
       1.381
       1.146
       0.927
       0.689
       0.404
       0.057
      -0.342
      -0.771
      -1.205
      -1.632
      -2.054
      -2.471
      -2.864
      -3.196
      -3.416
      -3.482
      -3.382
      -3.140
      -2.808
      -2.451
      -2.126
      -1.867
      -1.673
      -1.504
      -1.309
      -1.062
      -0.768
      -0.446
      -0.106
       0.254
       0.626
       0.979
       1.261
       1.425
       1.455
       1.372
       1.224
       1.062
       0.924
       0.817
       0.711
       0.570
       0.383
       0.192
       0.072
       0.084
       0.232
       0.453
       0.650
       0.741
       0.695
       0.528
       0.279
      -0.011
      -0.309
      -0.587
      -0.834
      -1.061
      -1.291
      -1.528
      -1.735
      -1.840
      -1.771
      -1.502
      -1.060
      -0.511
       0.074
       0.650
       1.189
       1.675
       2.099
       2.468
       2.798
       3.097
       3.349
       3.518
       3.581
       3.545
       3.438
       3.282
       3.085
       2.840
       2.543
       2.199
       1.810
       1.363
       0.842
       0.253
      -0.354
      -0.909
      -1.357
      -1.691
      -1.928
      -2.071
      -2.100
      -1.997
      -1.794
      -1.585
      -1.469
      -1.482
      -1.567
      -1.605
      -1.491
      -1.185
      -0.735
      -0.239
       0.199
       0.513
       0.688
       0.753
       0.755
       0.737
       0.725
       0.731
       0.767
       0.842
       0.956
       1.097
       1.256
       1.437
       1.649
       1.876
       2.071
       2.165
       2.108
       1.883
       1.517
       1.061
       0.557
       0.027
      -0.520
      -1.055
      -1.511
      -1.799
      -1.870
      -1.767
      -1.617
      -1.553
      -1.609
      -1.687
      -1.615
      -1.273
      -0.683
       0.008
       0.619
       1.040
       1.253
       1.280
       1.127
       0.792
       0.314
      -0.195
      -0.596
      -0.810
      -0.860
      -0.840
      -0.831
      -0.843
      -0.815
      -0.657
      -0.296
       0.300
       1.096
       1.984
       2.803
       3.400
       3.702
       3.739
       3.608
       3.397
       3.146
       2.860
       2.553
       2.275
       2.082
       2.000
       2.020
       2.119
       2.285
       2.504
       2.747
       2.961
       3.097
       3.130
       3.069
       2.946
       2.789
       2.593
       2.316
       1.900
       1.309
       0.557
      -0.296
      -1.161
      -1.946
      -2.586
      -3.073
      -3.456
      -3.799
      -4.142
      -4.473
      -4.746
      -4.918
      -4.976
      -4.942
      -4.854
      -4.745
      -4.647
      -4.586
      -4.576
      -4.594
      -4.571
      -4.431
      -4.141
      -3.735
      -3.295
      -2.901
      -2.597
      -2.378
      -2.198
      -1.992
      -1.711
      -1.346
      -0.938
      -0.553
      -0.234
       0.013
       0.209
       0.363
       0.460
       0.487
       0.474
       0.499
       0.650
       0.958
       1.371
       1.764
       1.993
       1.955
       1.632
       1.097
       0.482
      -0.063
      -0.421
      -0.525
      -0.359
       0.044
       0.603
       1.196
       1.685
       1.958
       1.970
       1.760
       1.447
       1.178
       1.060
       1.101
       1.203
       1.215
       1.017
       0.576
      -0.055
      -0.780
      -1.495
      -2.109
      -2.550
      -2.786
      -2.844
      -2.806
      -2.761
      -2.741
      -2.700
      -2.559
      -2.268
      -1.847
      -1.363
      -0.873
      -0.393
       0.097
       0.619
       1.162
       1.671
       2.061
       2.255
       2.216
       1.966
       1.572
       1.118
       0.689
       0.352
       0.138
       0.025
      -0.067
      -0.247
      -0.601
      -1.145
      -1.827
      -2.570
      -3.320
      -4.050
      -4.733
      -5.322
      -5.748
      -5.956
      -5.923
      -5.668
      -5.244
      -4.711
      -4.110
      -3.444
      -2.676
      -1.767
      -0.718
       0.415
       1.558
       2.657
       3.699
       4.672
       5.540
       6.241
       6.729
       6.999
       7.086
       7.040
       6.902
       6.695
       6.433
       6.115
       5.724
       5.221
       4.559
       3.691
       2.581
       1.224
      -0.332
      -1.988
      -3.607
      -5.051
      -6.197
      -6.961
      -7.320
      -7.321
      -7.068
      -6.672
      -6.199
      -5.661
      -5.037
      -4.308
      -3.477
      -2.561
      -1.584
      -0.576
       0.430
       1.410
       2.358
       3.273
       4.137
       4.902
       5.505
       5.923
       6.193
       6.406
       6.653
       6.965
       7.285
       7.493
       7.450
       7.040
       6.215
       5.007
       3.526
       1.919
       0.313
      -1.209
      -2.610
      -3.878
      -5.010
      -6.012
      -6.898
      -7.687
      -8.372
      -8.887
      -9.108
      -8.898
      -8.189
      -7.024
      -5.543
      -3.922
      -2.310
      -0.811
       0.516
       1.631
       2.508
       3.148
       3.587
       3.883
       4.083
       4.208
       4.253
       4.220
       4.140
       4.075
       4.093
       4.230
       4.459
       4.691
       4.797
       4.670
       4.265
       3.607
       2.757
       1.776
       0.712
      -0.379
      -1.434
      -2.400
      -3.255
      -4.003
      -4.649
      -5.169
      -5.504
      -5.574
      -5.309
      -4.695
      -3.817
      -2.823
      -1.852
      -0.975
      -0.197
       0.492
       1.079
       1.537
       1.842
       1.997
       2.025
       1.959
       1.837
       1.694
       1.549
       1.404
       1.253
       1.110
       1.022
       1.034
       1.135
       1.247
       1.255
       1.083
       0.729
       0.241
      -0.329
      -0.939
      -1.536
      -2.034
      -2.332
      -2.363
      -2.135
      -1.732
      -1.271
      -0.844
      -0.480
      -0.153
       0.173
       0.520
       0.888
       1.259
       1.599
       1.846
       1.940
       1.862
       1.663
       1.449
       1.331
       1.372
       1.567
       1.857
       2.166
       2.426
       2.586
       2.628
       2.566
       2.443
       2.301
       2.153
       1.977
       1.747
       1.468
       1.189
       0.969
       0.838
       0.764
       0.655
       0.398
      -0.075
      -0.749
      -1.511
      -2.194
      -2.642
      -2.769
      -2.588
      -2.193
      -1.710
      -1.243
      -0.839
      -0.474
      -0.079
       0.423
       1.066
       1.826
       2.643
       3.447
       4.186
       4.823
       5.330
       5.680
       5.853
       5.842
       5.663
       5.358
       4.992
       4.623
       4.282
       3.946
       3.559
       3.053
       2.381
       1.525
       0.499
      -0.649
      -1.838
      -2.963
      -3.933
      -4.711
      -5.325
      -5.834
      -6.292
      -6.717
      -7.107
      -7.458
      -7.758
      -7.964
      -7.990
      -7.749
      -7.223
      -6.515
      -5.832
      -5.375
      -5.219
      -5.260
      -5.282
      -5.079
      -4.559
      -3.764
      -2.827
      -1.918
      -1.192
      -0.743
      -0.572
      -0.599
      -0.700
      -0.758
      -0.689
      -0.449
      -0.043
       0.466
       0.963
       1.323
       1.478
       1.461
       1.394
       1.419
       1.611
       1.937
       2.282
       2.517
       2.555
       2.386
       2.068
       1.689
       1.328
       1.047
       0.890
       0.897
       1.091
       1.458
       1.932
       2.422
       2.854
       3.209
       3.539
       3.933
       4.456
       5.091
       5.721
       6.181
       6.327
       6.096
       5.521
       4.700
       3.742
       2.734
       1.737
       0.797
      -0.057
      -0.817
      -1.504
      -2.150
      -2.778
      -3.395
      -3.995
      -4.563
      -5.063
      -5.455
      -5.710
      -5.825
      -5.809
      -5.656
      -5.337
      -4.834
      -4.191
      -3.527
      -3.000
      -2.737
      -2.773
      -3.040
      -3.416
      -3.780
      -4.054
      -4.188
      -4.135
      -3.850
      -3.322
      -2.588
      -1.737
      -0.890
      -0.171
       0.334
       0.613
       0.729
       0.780
       0.859
       1.032
       1.339
       1.788
       2.362
       3.025
       3.729
       4.414
       5.001
       5.393
       5.488
       5.214
       4.568
       3.635
       2.575
       1.580
       0.817
       0.382
       0.280
       0.427
       0.687
       0.931
       1.074
       1.087
       0.986
       0.811
       0.614
       0.453
       0.380
       0.418
       0.562
       0.779
       1.033
       1.280
       1.464
       1.520
       1.400
       1.097
       0.648
       0.107
      -0.480
      -1.075
      -1.634
      -2.096
      -2.392
      -2.460
      -2.277
      -1.870
      -1.305
      -0.647
       0.078
       0.873
       1.724
       2.571
       3.306
       3.844
       4.175
       4.368
       4.516
       4.671
       4.824
       4.927
       4.921
       4.754
       4.380
       3.776
       2.966
       2.032
       1.090
       0.245
      -0.440
      -0.948
      -1.289
      -1.492
      -1.604
      -1.679
      -1.751
      -1.827
      -1.904
      -2.000
      -2.149
      -2.356
      -2.578
      -2.755
      -2.882
      -3.032
      -3.299
      -3.716
      -4.212
      -4.662
      -4.964
      -5.096
      -5.100
      -5.020
      -4.866
      -4.619
      -4.261
      -3.780
      -3.173
      -2.450
      -1.658
      -0.879
      -0.191
       0.371
       0.817
       1.167
       1.424
       1.576
       1.621
       1.586
       1.515
       1.442
       1.371
       1.281
       1.139
       0.923
       0.652
       0.407
       0.314
       0.473
       0.897
       1.493
       2.114
       2.629
       2.977
       3.191
       3.374
       3.644
       4.058
       4.569
       5.033
       5.257
       5.065
       4.375
       3.237
       1.823
       0.366
      -0.910
      -1.859
      -2.434
      -2.672
      -2.653
      -2.464
      -2.170
      -1.808
      -1.387
      -0.894
      -0.306
       0.384
       1.146
       1.911
       2.587
       3.075
       3.287
       3.179
       2.774
       2.176
       1.548
       1.049
       0.773
       0.715
       0.795
       0.907
       0.944
       0.811
       0.435
      -0.201
      -1.027
      -1.902
      -2.663
      -3.175
      -3.373
      -3.270
      -2.955
      -2.561
      -2.218
      -2.003
      -1.914
      -1.890
      -1.866
      -1.812
      -1.736
      -1.664
      -1.633
      -1.681
      -1.851
