Origin Time       07/09/2011 17:58:18
Lat.              28.6 N	
Long.             77.0 E	
Depth (Km)          8.0
Magnitude         4.2
 Region           DELHI-HARYANA(SONIPAT)-Haryana                                   
 Above details taken from IMD 
    
Station Code       JAFR
Station Lat.       28.594  N
Station Long.      76.908  E
Station Height(m)  162.0
Site Class        C   Vs30 between 200 m/sec to 375 m/sec *  
Record Time        9/7/2011  ) 17:58:13.0
Sampling Rate     100. Hz
 Record Duration   66.000 Sec.
 Direction         N-S (N positive)
Max. Acceleration  -6.110 cm/sec**2
     
  * For reference see Site Classification link of website 
     
 Base Line Corrected and Low Pass Filtered (Cut Off at 35 Hz) Time History
 Acceleration data in cm/sec**2
    
[...]
    0.000
   -0.002
    0.001
    0.010
    0.008
   -0.001
    0.003
    0.008
    0.003
   -0.003
   -0.007
   -0.007
    0.003
    0.013
    0.004
   -0.005
    0.001
   -0.002
   -0.011
    0.001
    0.015
    0.001
   -0.011
   -0.005
    0.000
    0.000
    0.000
   -0.003
   -0.002
    0.004
   -0.002
   -0.007
    0.000
    0.004
    0.003
    0.000
   -0.002
    0.007
    0.010
   -0.003
   -0.009
    0.003
    0.008
   -0.001
   -0.008
   -0.003
    0.007
    0.005
   -0.005
   -0.003
    0.006
    0.003
   -0.008
   -0.009
    0.006
    0.010
   -0.003
   -0.008
   -0.003
   -0.003
   -0.006
   -0.007
    0.006
    0.014
    0.000
   -0.006
    0.003
    0.007
    0.002
   -0.007
   -0.005
    0.006
    0.007
    0.000
   -0.001
    0.006
    0.004
   -0.003
    0.006
    0.010
   -0.002
   -0.005
   -0.002
   -0.002
    0.001
   -0.001
   -0.004
   -0.001
   -0.003
   -0.005
   -0.002
   -0.001
   -0.006
   -0.008
   -0.003
    0.001
    0.002
    0.004
    0.002
    0.001
    0.000
   -0.005
   -0.002
    0.007
    0.006
   -0.001
    0.001
    0.005
    0.003
   -0.008
   -0.010
    0.005
    0.011
   -0.002
   -0.008
   -0.004
    0.001
    0.001
   -0.001
    0.007
    0.008
   -0.009
   -0.016
   -0.004
    0.007
    0.002
   -0.010
   -0.001
    0.013
    0.007
   -0.006
   -0.006
    0.005
    0.006
   -0.004
   -0.001
    0.010
    0.009
   -0.003
   -0.007
    0.001
    0.004
   -0.004
   -0.009
   -0.005
    0.003
    0.000
   -0.008
   -0.003
    0.009
    0.006
   -0.004
   -0.004
    0.001
   -0.002
   -0.005
    0.000
    0.007
    0.005
   -0.002
    0.002
    0.007
    0.003
    0.002
    0.003
    0.001
    0.001
   -0.003
   -0.005
    0.000
   -0.002
   -0.008
   -0.003
    0.002
    0.000
    0.000
    0.009
    0.009
   -0.003
   -0.005
    0.003
    0.004
    0.000
   -0.001
    0.001
    0.004
    0.002
   -0.004
   -0.004
    0.003
    0.003
   -0.008
   -0.007
    0.004
    0.001
   -0.006
    0.002
    0.008
    0.004
   -0.001
    0.003
    0.007
    0.003
   -0.007
   -0.009
    0.002
    0.003
   -0.006
   -0.006
    0.002
    0.005
   -0.002
   -0.005
    0.004
    0.006
   -0.001
   -0.003
    0.000
    0.002
    0.001
   -0.002
    0.000
    0.003
    0.001
    0.000
   -0.001
   -0.001
   -0.002
   -0.002
    0.002
    0.000
   -0.001
    0.002
   -0.002
   -0.001
    0.002
   -0.004
   -0.004
    0.001
    0.001
    0.001
    0.002
    0.002
    0.000
   -0.002
   -0.003
   -0.001
    0.005
    0.006
    0.001
   -0.001
    0.002
    0.002
    0.000
    0.001
   -0.002
   -0.002
    0.005
    0.007
    0.003
   -0.004
   -0.006
    0.000
   -0.002
   -0.005
   -0.002
   -0.002
    0.002
    0.003
   -0.002
    0.004
    0.006
   -0.003
   -0.004
    0.000
    0.003
    0.000
   -0.007
   -0.006
    0.001
   -0.001
   -0.001
    0.004
    0.006
    0.004
    0.001
    0.000
    0.003
    0.008
    0.003
   -0.009
   -0.008
    0.004
    0.001
   -0.008
   -0.002
    0.007
    0.003
   -0.008
   -0.005
    0.001
    0.000
   -0.003
   -0.007
   -0.005
    0.003
    0.007
   -0.003
   -0.003
    0.013
    0.012
   -0.002
   -0.001
    0.009
    0.005
   -0.009
   -0.009
    0.002
    0.002
   -0.002
    0.000
    0.005
    0.003
   -0.006
   -0.007
   -0.001
    0.004
    0.000
   -0.004
    0.003
    0.005
   -0.004
   -0.005
    0.001
    0.002
   -0.003
   -0.005
    0.005
    0.011
    0.004
    0.000
   -0.001
    0.001
    0.004
    0.003
    0.005
    0.004
   -0.003
   -0.002
    0.004
    0.003
   -0.004
   -0.006
   -0.002
    0.003
    0.001
   -0.008
   -0.007
    0.004
    0.000
   -0.006
    0.005
    0.009
    0.000
   -0.003
    0.000
    0.006
    0.005
   -0.005
   -0.006
    0.002
    0.002
   -0.007
   -0.005
    0.007
    0.004
   -0.006
   -0.006
    0.001
    0.004
   -0.004
   -0.010
    0.001
    0.005
   -0.003
   -0.005
    0.003
    0.005
   -0.001
   -0.007
    0.000
    0.008
    0.003
   -0.003
    0.001
    0.006
    0.004
   -0.002
   -0.005
   -0.003
   -0.001
   -0.002
   -0.001
    0.001
   -0.003
   -0.004
    0.000
    0.002
   -0.002
   -0.005
   -0.003
   -0.001
    0.000
    0.000
    0.005
    0.005
   -0.002
   -0.001
    0.006
    0.008
    0.003
   -0.003
   -0.002
    0.000
   -0.002
    0.001
    0.006
    0.003
   -0.003
   -0.006
   -0.006
    0.001
    0.002
   -0.003
    0.003
    0.005
   -0.007
   -0.008
    0.003
    0.004
   -0.003
   -0.004
    0.005
    0.010
    0.006
   -0.001
   -0.002
    0.002
    0.000
   -0.007
   -0.006
    0.001
    0.002
    0.001
    0.001
    0.005
    0.007
   -0.002
   -0.006
    0.005
    0.007
   -0.005
   -0.011
   -0.005
    0.000
    0.000
   -0.001
   -0.003
   -0.003
    0.000
    0.001
    0.001
    0.002
    0.004
    0.002
   -0.003
   -0.006
   -0.005
    0.002
    0.008
    0.005
    0.001
   -0.001
    0.003
    0.010
    0.000
   -0.009
    0.005
    0.008
   -0.008
   -0.010
    0.003
    0.003
   -0.002
    0.003
    0.003
    0.001
    0.000
   -0.007
   -0.006
    0.005
    0.004
   -0.005
   -0.004
    0.000
   -0.002
    0.001
    0.005
    0.003
    0.000
   -0.001
    0.001
    0.009
    0.009
    0.000
   -0.003
    0.002
    0.003
   -0.003
   -0.007
   -0.002
    0.006
    0.005
    0.000
   -0.003
   -0.003
   -0.003
   -0.005
   -0.006
    0.000
    0.007
    0.005
   -0.001
   -0.003
   -0.001
    0.000
   -0.007
   -0.007
    0.003
    0.005
    0.001
   -0.002
   -0.003
    0.002
    0.003
   -0.007
   -0.005
    0.010
    0.008
   -0.002
   -0.002
    0.004
    0.008
    0.003
   -0.005
    0.005
    0.011
   -0.003
   -0.011
    0.001
    0.008
   -0.002
   -0.008
    0.003
    0.007
   -0.001
   -0.010
   -0.009
    0.000
    0.001
   -0.009
   -0.005
    0.007
    0.001
   -0.007
   -0.002
    0.005
    0.008
    0.002
   -0.004
    0.002
    0.004
   -0.002
    0.001
    0.008
    0.000
   -0.004
    0.007
    0.012
    0.006
    0.000
    0.002
    0.008
   -0.001
   -0.014
   -0.005
    0.003
   -0.004
   -0.006
   -0.002
    0.003
    0.000
   -0.006
   -0.004
    0.003
    0.004
   -0.003
   -0.003
    0.007
    0.004
   -0.006
   -0.005
    0.006
    0.011
    0.001
   -0.004
    0.007
    0.012
   -0.004
   -0.012
    0.000
    0.008
   -0.001
   -0.008
    0.001
    0.006
   -0.001
   -0.003
    0.007
    0.009
   -0.001
   -0.007
   -0.004
    0.004
    0.006
   -0.001
   -0.004
    0.001
    0.003
   -0.003
   -0.006
    0.001
    0.002
    0.000
    0.001
    0.000
    0.001
   -0.003
   -0.007
    0.002
    0.005
   -0.001
    0.005
    0.006
   -0.002
   -0.006
   -0.002
    0.004
    0.004
    0.002
    0.001
    0.000
    0.004
    0.005
    0.001
   -0.003
   -0.007
   -0.007
    0.000
    0.004
    0.001
   -0.004
    0.000
    0.009
    0.003
   -0.010
   -0.004
    0.009
    0.007
   -0.007
   -0.009
    0.001
    0.007
   -0.001
   -0.006
    0.007
    0.015
    0.002
   -0.007
   -0.001
    0.004
   -0.002
   -0.004
    0.008
    0.010
   -0.001
   -0.007
   -0.005
    0.007
    0.010
   -0.005
   -0.007
    0.006
    0.002
   -0.010
   -0.006
    0.001
    0.002
   -0.001
   -0.007
   -0.004
    0.004
    0.004
    0.001
    0.005
    0.008
    0.001
   -0.002
    0.001
   -0.001
    0.000
    0.004
    0.004
    0.000
   -0.002
    0.003
    0.007
    0.003
   -0.008
   -0.009
   -0.001
   -0.005
   -0.004
    0.006
    0.002
   -0.002
    0.004
    0.004
    0.004
    0.003
   -0.002
   -0.007
   -0.006
   -0.002
   -0.001
   -0.002
    0.000
    0.001
    0.000
    0.001
    0.007
    0.008
   -0.003
   -0.010
    0.001
    0.011
    0.002
   -0.007
   -0.003
    0.008
    0.011
    0.002
   -0.002
    0.005
    0.005
   -0.005
   -0.009
   -0.002
    0.002
    0.001
   -0.004
   -0.003
    0.010
    0.010
    0.001
    0.003
    0.004
   -0.007
   -0.011
   -0.003
    0.001
    0.001
    0.003
    0.000
   -0.005
    0.001
    0.000
   -0.009
   -0.002
    0.010
    0.010
    0.009
    0.004
    0.000
    0.002
   -0.001
   -0.005
    0.000
    0.009
    0.005
   -0.004
    0.001
    0.006
   -0.002
   -0.009
   -0.004
    0.008
    0.007
   -0.003
   -0.007
   -0.003
    0.002
   -0.002
   -0.003
    0.005
    0.004
   -0.004
   -0.006
   -0.002
    0.002
    0.001
   -0.002
   -0.004
   -0.006
   -0.005
   -0.002
    0.003
    0.006
    0.000
   -0.010
   -0.004
    0.004
    0.005
    0.005
    0.006
    0.008
    0.006
    0.003
    0.000
   -0.004
   -0.002
    0.003
    0.003
   -0.002
   -0.008
   -0.005
    0.008
    0.012
    0.000
   -0.010
   -0.006
    0.001
   -0.004
   -0.008
    0.007
    0.008
   -0.011
   -0.013
    0.000
    0.009
    0.006
   -0.002
    0.004
    0.009
    0.003
   -0.003
   -0.004
    0.004
    0.005
   -0.010
   -0.012
    0.005
    0.012
    0.006
    0.000
    0.006
    0.003
   -0.013
   -0.007
    0.003
   -0.001
   -0.002
   -0.006
   -0.004
    0.011
    0.011
   -0.001
   -0.005
   -0.006
   -0.005
   -0.004
   -0.001
    0.001
   -0.002
   -0.004
   -0.001
   -0.001
   -0.006
   -0.002
    0.002
    0.000
   -0.003
   -0.005
    0.002
   -0.001
   -0.010
   -0.002
    0.006
    0.001
   -0.001
    0.005
    0.016
    0.014
   -0.003
   -0.007
    0.002
    0.003
   -0.001
   -0.001
    0.002
    0.002
   -0.006
   -0.011
   -0.006
   -0.002
   -0.008
   -0.012
   -0.006
   -0.001
   -0.002
    0.003
    0.012
    0.005
   -0.008
   -0.006
   -0.002
    0.004
    0.009
   -0.001
    0.001
    0.014
    0.009
   -0.004
   -0.004
    0.001
    0.003
   -0.001
   -0.010
   -0.008
    0.009
    0.022
    0.017
    0.012
    0.010
   -0.008
   -0.028
   -0.046
   -0.052
    0.023
    0.098
   -0.037
   -0.213
   -0.035
    0.300
    0.180
   -0.257
   -0.219
    0.264
    0.224
   -0.367
   -0.312
    0.292
    0.310
    0.125
    0.009
   -0.466
   -0.261
    0.368
    0.037
   -0.104
    0.192
    0.023
    0.043
   -0.170
   -0.291
    0.567
    0.223
   -0.760
    0.209
    0.495
   -0.822
   -0.437
    0.773
    0.762
    0.220
   -0.331
   -0.178
    0.027
   -0.610
   -0.542
    0.058
    0.421
    0.743
   -0.218
   -1.144
   -0.373
    0.164
    0.648
    1.122
    0.123
   -0.030
    0.443
   -0.854
   -0.912
    0.518
    0.126
   -0.331
    0.181
   -0.146
   -0.369
   -0.138
   -0.073
    0.804
    0.988
   -0.393
   -0.624
   -0.447
   -0.642
    0.552
    0.674
   -0.498
    0.476
    1.202
   -0.660
   -1.760
   -0.468
    1.205
    1.273
   -0.182
   -0.272
    0.601
   -0.839
   -1.586
    0.473
    1.207
   -0.041
   -0.564
    0.322
    0.870
   -0.173
   -0.663
    0.210
    0.117
   -0.595
   -0.325
    0.003
    0.383
    0.603
   -0.429
   -0.563
    0.441
    0.197
   -0.513
   -0.835
   -0.130
    1.701
    1.263
   -0.653
   -0.481
   -0.486
   -0.839
    0.185
    0.104
   -0.144
    0.898
    0.867
   -0.113
   -0.935
   -0.539
    0.968
    0.256
   -1.173
    0.212
    1.395
    0.289
   -1.337
   -1.727
    0.202
    1.518
    0.133
   -0.584
    0.267
    0.728
    0.239
   -0.887
   -0.690
    0.726
    0.133
   -1.596
   -0.320
    2.198
    0.994
   -1.563
   -0.690
    1.303
    0.324
   -1.572
   -0.500
    1.712
    1.450
   -0.535
   -1.260
    0.348
    1.028
   -1.791
   -2.739
    1.103
    2.769
    0.794
   -0.198
   -0.785
   -1.136
   -0.664
   -0.668
    0.432
    2.122
    0.818
   -0.828
    0.399
    0.558
   -1.419
   -1.605
    0.182
    1.191
    0.132
   -0.837
    0.510
    1.525
   -0.306
   -1.988
   -0.200
    2.217
    0.797
   -2.274
   -1.371
    2.100
    1.635
   -1.671
   -2.112
    0.741
    2.581
   -0.252
   -2.742
    0.052
    1.952
    0.103
   -0.734
    0.183
    0.559
   -0.437
   -1.475
   -0.252
    1.908
    1.773
    0.461
   -0.338
   -1.098
   -1.330
   -1.591
   -0.723
    1.662
    0.778
   -1.231
    0.317
    1.623
    0.710
   -0.736
   -1.229
    0.273
    0.653
   -0.614
    0.059
    0.549
   -0.835
   -0.411
    1.181
    0.428
   -0.911
    0.433
    1.672
   -0.241
   -1.420
   -0.378
   -0.124
    0.028
    0.553
    0.359
   -0.021
   -0.860
   -0.995
    0.601
    1.102
   -0.189
   -0.717
   -0.151
    0.248
    0.801
    0.733
   -0.953
   -1.445
    0.239
    1.078
   -0.187
   -0.714
    1.535
    2.062
   -1.240
   -2.656
   -0.183
    1.941
    0.706
   -1.733
   -1.111
    0.876
    0.221
   -0.359
    1.189
    1.036
   -0.947
   -1.181
    0.299
    1.298
    0.275
   -1.437
   -1.148
   -0.080
    0.126
    0.323
    0.720
    1.034
    0.584
   -0.603
   -0.529
    0.445
   -0.021
   -0.568
   -0.106
   -0.669
   -0.882
    1.000
    2.082
    0.703
   -1.329
   -1.133
    1.129
    0.555
   -2.757
   -2.766
    0.652
    2.409
    1.160
    0.355
    1.287
    0.646
   -1.388
   -1.041
    0.624
    0.165
   -1.289
   -0.712
    1.462
    1.718
   -0.949
   -1.834
    0.437
    1.098
   -0.248
   -0.685
   -0.064
   -0.028
   -0.870
    0.029
    1.958
    1.097
   -0.945
   -1.233
   -0.376
    0.585
   -0.235
   -1.408
    1.224
    2.758
   -1.100
   -2.656
    0.316
    1.575
   -0.057
   -2.092
   -1.527
    1.494
    2.709
    1.156
   -1.141
   -1.484
    1.028
    1.635
   -0.895
   -1.550
   -0.098
    0.510
    0.135
   -0.268
   -0.182
   -0.106
   -0.110
    0.829
    1.625
   -0.329
   -3.454
   -2.542
    1.858
    2.467
   -1.223
   -1.132
    2.756
    2.575
   -1.595
   -3.914
   -1.761
    2.305
    2.430
   -1.322
   -2.037
    1.394
    3.271
    2.662
    1.500
    0.251
    0.290
   -0.346
   -2.106
   -1.066
   -0.141
   -3.615
   -6.110
   -3.111
   -0.045
   -1.151
   -1.793
    0.588
    1.701
    1.078
    1.245
    1.425
    1.413
    1.282
    1.285
    3.084
    5.097
    3.925
    0.810
    0.082
    0.783
   -1.192
   -2.865
   -0.238
    1.704
   -1.305
   -3.939
   -2.333
   -0.399
    0.522
    1.604
    0.948
   -0.941
   -2.084
   -2.040
   -0.305
    0.597
   -1.116
   -2.143
   -1.138
    0.753
    2.655
    2.319
    0.533
    0.201
    0.794
    0.850
    0.166
   -0.372
   -0.522
   -1.709
   -2.877
   -1.258
    1.490
    1.224
   -0.613
    1.052
    4.353
    3.561
   -0.727
   -3.760
   -2.407
    0.748
   -0.169
   -2.322
    0.486
    2.643
   -0.586
   -2.429
   -0.281
    1.568
    1.818
    0.078
   -1.578
    1.054
    3.613
    1.245
   -2.511
   -4.780
   -2.627
    2.828
    2.742
   -1.275
   -1.382
    0.091
    0.153
    0.697
    2.419
    3.608
    1.800
   -1.970
   -2.172
    0.284
   -1.363
   -3.264
   -0.770
    0.430
   -0.796
   -1.556
   -0.881
    1.382
    1.324
    0.000
    2.058
    2.524
   -0.778
   -1.560
   -0.444
    0.116
    1.402
    0.743
   -1.288
   -1.335
   -0.498
    1.772
    2.872
   -1.054
   -3.527
   -0.418
    2.940
    2.851
   -0.301
   -3.084
   -2.475
   -0.772
   -0.909
   -1.184
    0.654
    1.631
   -0.743
   -2.089
    0.502
    3.416
    3.489
    1.949
    0.453
   -2.013
   -4.036
   -2.319
    0.661
    1.767
    1.702
   -0.180
   -2.562
   -1.625
    0.243
   -1.095
   -2.099
    1.250
    4.466
    2.401
   -1.859
   -2.855
   -0.071
    1.923
   -0.862
   -3.215
    0.708
    4.402
    2.395
   -0.529
   -1.094
    0.535
    3.470
    2.733
   -2.204
   -3.455
    0.410
    3.562
    2.976
   -1.272
   -5.008
   -4.083
   -1.110
    0.493
    1.439
    1.103
   -2.303
   -3.886
    0.534
    3.542
    0.867
   -0.570
    1.273
    1.785
   -0.049
   -1.711
   -0.938
    1.237
    1.863
    1.714
    2.064
    0.633
   -1.743
   -2.145
   -1.628
   -1.805
   -2.274
   -0.991
    2.319
    4.179
    2.506
   -1.322
   -3.353
   -1.159
    1.761
    1.420
   -0.703
   -1.323
   -1.209
   -1.577
   -0.630
    0.181
   -0.784
   -0.375
    1.548
    1.346
   -1.491
   -1.492
    3.132
    3.954
   -0.506
   -3.031
   -3.365
   -2.827
    0.077
    3.301
    3.915
    2.283
    1.075
    1.904
    2.522
    0.188
   -3.315
   -3.962
   -1.295
    1.349
    1.381
   -1.134
   -3.413
   -2.149
    1.136
    2.232
    0.170
   -1.144
    1.764
    4.243
    1.571
   -2.433
   -3.349
   -0.768
    2.534
    1.976
   -1.392
   -2.530
   -1.036
    1.274
    1.982
    0.281
   -0.102
    0.665
   -0.642
   -1.664
    0.417
    1.470
   -0.920
   -1.809
   -0.767
   -0.136
    0.930
    0.820
   -0.604
   -1.378
   -2.058
   -1.551
    1.266
    2.582
    1.172
    0.376
   -0.265
   -0.568
    1.593
    2.331
   -0.397
   -1.679
    0.508
    2.041
   -0.591
   -2.551
    0.266
    0.900
   -2.731
   -2.488
    1.809
    2.407
   -0.751
   -1.562
    0.330
    0.748
   -0.294
   -0.052
   -0.062
   -1.603
   -0.808
    2.032
    1.070
   -2.015
   -1.131
    1.332
    1.665
    1.831
    2.295
    1.006
   -2.000
   -2.658
    0.492
    1.671
   -0.362
   -1.145
   -0.246
    1.789
    2.672
   -0.944
   -3.301
   -0.921
   -1.251
   -2.946
   -0.156
    1.681
    0.086
   -0.373
    0.941
    2.108
    1.592
    0.024
    0.499
    1.860
   -0.211
   -2.543
   -0.036
    1.782
   -1.158
   -2.556
   -0.226
    1.886
    2.103
    0.332
   -1.651
   -1.693
   -0.861
    0.183
    0.969
   -0.476
   -1.881
   -0.453
    0.918
    0.117
   -0.883
   -0.309
    0.644
    0.443
    0.177
    0.636
    1.186
    1.306
    0.676
   -0.165
   -0.404
   -0.260
   -0.736
   -1.885
   -1.634
    0.750
    1.242
   -1.952
   -2.802
    0.720
    2.569
    1.819
    1.610
    1.264
   -0.363
   -1.619
   -0.140
    2.733
    2.448
   -1.426
   -2.953
   -0.453
    1.634
    1.865
   -1.040
   -5.064
   -3.535
    1.043
    2.668
    2.207
    0.878
   -0.911
   -1.481
   -0.334
    1.370
    1.828
   -0.399
   -2.732
   -0.694
    2.501
    1.936
    0.044
   -1.129
   -1.494
   -0.426
    0.761
    0.544
   -0.791
   -0.907
    0.361
    0.592
    0.376
    0.279
   -0.911
   -2.260
   -1.514
    1.664
    3.782
    1.168
   -2.383
   -0.829
    1.750
   -0.100
   -1.829
    0.557
    2.996
    1.190
   -1.920
   -1.754
    0.003
    0.729
    0.326
   -0.314
    0.813
    1.709
   -0.566
   -2.381
   -1.901
   -1.467
    0.112
    1.734
    0.365
   -1.105
   -1.074
   -0.238
    1.901
    2.106
   -0.380
   -1.525
   -0.935
    0.152
    1.196
    0.941
   -0.460
   -0.879
    0.265
    0.938
    0.753
    0.609
    0.321
   -0.416
   -1.569
   -1.498
    0.415
    1.872
    1.495
   -0.365
   -1.045
    0.717
    1.240
   -0.123
   -0.606
   -0.411
   -0.346
   -0.315
    0.182
    1.161
    0.278
   -2.121
   -1.883
    0.916
    1.884
   -0.504
   -2.195
   -0.175
    1.535
   -0.094
   -1.704
   -1.431
   -1.071
   -0.273
    1.496
    1.769
    0.618
   -0.528
   -1.349
    0.086
    1.891
    1.204
    0.364
   -0.108
   -0.804
   -0.790
   -0.591
    0.760
    2.840
    1.780
   -1.416
   -1.532
    0.840
    0.102
   -2.246
   -0.554
    1.724
   -0.145
   -2.069
   -0.678
    1.243
    0.982
   -0.801
   -1.168
    0.783
    1.188
   -1.234
   -1.312
    1.805
    2.393
   -0.180
   -1.375
   -0.711
   -0.274
   -0.091
   -0.319
   -0.422
    0.594
    1.088
    0.341
   -0.144
   -0.528
   -1.261
   -0.603
    0.988
    0.816
    0.147
    0.744
    0.102
   -1.859
   -1.091
    1.463
    1.446
   -0.269
   -1.267
   -1.186
    0.173
    1.288
    1.169
    1.249
    1.112
   -0.484
   -1.686
   -1.228
   -0.063
    1.386
    1.249
   -0.974
   -1.702
   -0.418
   -0.025
   -0.485
    0.162
    1.259
    1.234
