Origin Time       18/9/2011 12:40:47	 UTC
Lat.              27.6 N	
Long.             88.2 E	
Depth (Km)         10.0
Magnitude         6.8
 Region           India(Sikkim)-Nepar-Border                                       
 Above details taken from IMD 
    
Station Code      CMO
Station Lat.       30.412  N
Station Long.      79.320  E
Station Height(m) 1578.0
Site Class        A   Vs30 between 700 m/sec to 1400 m/sec * 
Record Time       18.09.2011 12:43:51.969 UTC
Sampling Rate     200. Hz
 Record Duration   92.255 Sec.
 Direction         N-S (N positive)
Max. Acceleration     -2.321 cm/sec**2
     
  * For reference see Site Classification link of website 
     
 Base Line Corrected and Low Pass Filtered (Cut Off at 35 Hz) Time History
 Acceleration data in cm/sec**2
    
[...]
      -1.622
      -1.675
      -1.698
      -1.689
      -1.659
      -1.624
      -1.595
      -1.565
      -1.522
      -1.455
      -1.360
      -1.235
      -1.093
      -0.950
      -0.820
      -0.701
      -0.588
      -0.480
      -0.373
      -0.254
      -0.115
       0.039
       0.195
       0.343
       0.480
       0.610
       0.733
       0.852
       0.972
       1.099
       1.237
       1.384
       1.525
       1.644
       1.732
       1.798
       1.851
       1.895
       1.933
       1.968
       2.003
       2.032
       2.044
       2.030
       1.991
       1.925
       1.835
       1.730
       1.624
       1.522
       1.422
       1.315
       1.195
       1.060
       0.917
       0.776
       0.642
       0.514
       0.395
       0.290
       0.206
       0.138
       0.073
       0.000
      -0.085
      -0.181
      -0.281
      -0.367
      -0.426
      -0.458
      -0.474
      -0.491
      -0.515
      -0.546
      -0.583
      -0.620
      -0.649
      -0.664
      -0.661
      -0.640
      -0.606
      -0.571
      -0.544
      -0.528
      -0.514
      -0.494
      -0.461
      -0.406
      -0.330
      -0.250
      -0.188
      -0.153
      -0.141
      -0.149
      -0.180
      -0.229
      -0.285
      -0.330
      -0.359
      -0.375
      -0.391
      -0.419
      -0.467
      -0.528
      -0.589
      -0.639
      -0.671
      -0.680
      -0.671
      -0.661
      -0.665
      -0.685
      -0.710
      -0.733
      -0.754
      -0.768
      -0.764
      -0.735
      -0.686
      -0.632
      -0.587
      -0.556
      -0.539
      -0.524
      -0.497
      -0.449
      -0.377
      -0.285
      -0.184
      -0.087
      -0.003
       0.066
       0.124
       0.176
       0.224
       0.278
       0.347
       0.433
       0.524
       0.607
       0.674
       0.719
       0.742
       0.750
       0.757
       0.771
       0.787
       0.795
       0.785
       0.758
       0.719
       0.672
       0.615
       0.550
       0.480
       0.419
       0.377
       0.352
       0.332
       0.306
       0.275
       0.241
       0.208
       0.179
       0.164
       0.165
       0.177
       0.184
       0.178
       0.152
       0.107
       0.048
      -0.016
      -0.075
      -0.124
      -0.158
      -0.177
      -0.186
      -0.193
      -0.200
      -0.199
      -0.188
      -0.167
      -0.138
      -0.097
      -0.048
      -0.005
       0.019
       0.019
       0.000
      -0.041
      -0.101
      -0.170
      -0.232
      -0.276
      -0.303
      -0.321
      -0.340
      -0.364
      -0.386
      -0.399
      -0.402
      -0.396
      -0.377
      -0.342
      -0.296
      -0.259
      -0.242
      -0.242
      -0.251
      -0.264
      -0.277
      -0.286
      -0.282
      -0.265
      -0.243
      -0.220
      -0.203
      -0.194
      -0.189
      -0.181
      -0.164
      -0.132
      -0.086
      -0.028
       0.029
       0.073
       0.101
       0.117
       0.124
       0.120
       0.109
       0.100
       0.103
       0.113
       0.118
       0.107
       0.079
       0.042
       0.007
      -0.011
       0.001
       0.045
       0.109
       0.177
       0.234
       0.275
       0.302
       0.314
       0.307
       0.276
       0.231
       0.189
       0.162
       0.143
       0.120
       0.085
       0.042
      -0.003
      -0.041
      -0.062
      -0.057
      -0.029
       0.010
       0.045
       0.070
       0.079
       0.068
       0.042
       0.013
      -0.009
      -0.021
      -0.025
      -0.029
      -0.045
      -0.078
      -0.125
      -0.174
      -0.217
      -0.244
      -0.244
      -0.216
      -0.171
      -0.128
      -0.093
      -0.062
      -0.028
       0.010
       0.051
       0.099
       0.160
       0.238
       0.329
       0.425
       0.512
       0.580
       0.626
       0.657
       0.682
       0.710
       0.746
       0.790
       0.830
       0.858
       0.871
       0.873
       0.868
       0.854
       0.836
       0.820
       0.809
       0.800
       0.790
       0.776
       0.753
       0.717
       0.668
       0.618
       0.579
       0.561
       0.560
       0.558
       0.537
       0.487
       0.415
       0.330
       0.231
       0.115
      -0.012
      -0.139
      -0.260
      -0.385
      -0.525
      -0.688
      -0.868
      -1.051
      -1.220
      -1.354
      -1.443
      -1.488
      -1.501
      -1.494
      -1.476
      -1.450
      -1.414
      -1.371
      -1.322
      -1.269
      -1.206
      -1.129
      -1.045
      -0.969
      -0.911
      -0.873
      -0.852
      -0.840
      -0.827
      -0.800
      -0.754
      -0.695
      -0.631
      -0.566
      -0.500
      -0.430
      -0.357
      -0.284
      -0.214
      -0.147
      -0.075
      -0.001
       0.064
       0.104
       0.122
       0.126
       0.125
       0.125
       0.140
       0.175
       0.221
       0.263
       0.296
       0.328
       0.364
       0.394
       0.413
       0.425
       0.443
       0.473
       0.515
       0.563
       0.606
       0.632
       0.642
       0.640
       0.634
       0.632
       0.644
       0.677
       0.722
       0.758
       0.779
       0.790
       0.799
       0.805
       0.803
       0.799
       0.806
       0.824
       0.840
       0.840
       0.817
       0.773
       0.718
       0.665
       0.624
       0.598
       0.585
       0.579
       0.570
       0.551
       0.526
       0.500
       0.473
       0.438
       0.391
       0.339
       0.287
       0.237
       0.180
       0.109
       0.019
      -0.092
      -0.220
      -0.348
      -0.455
      -0.524
      -0.557
      -0.573
      -0.590
      -0.614
      -0.643
      -0.671
      -0.695
      -0.712
      -0.716
      -0.697
      -0.658
      -0.611
      -0.573
      -0.549
      -0.534
      -0.525
      -0.517
      -0.504
      -0.483
      -0.455
      -0.427
      -0.401
      -0.375
      -0.344
      -0.309
      -0.275
      -0.244
      -0.208
      -0.159
      -0.095
      -0.025
       0.028
       0.045
       0.025
      -0.021
      -0.081
      -0.141
      -0.187
      -0.215
      -0.234
      -0.261
      -0.303
      -0.356
      -0.413
      -0.466
      -0.506
      -0.527
      -0.525
      -0.503
      -0.471
      -0.439
      -0.416
      -0.404
      -0.399
      -0.398
      -0.397
      -0.392
      -0.372
      -0.336
      -0.297
      -0.269
      -0.260
      -0.264
      -0.282
      -0.310
      -0.340
      -0.358
      -0.354
      -0.332
      -0.302
      -0.278
      -0.267
      -0.266
      -0.262
      -0.241
      -0.196
      -0.128
      -0.047
       0.035
       0.103
       0.157
       0.203
       0.250
       0.297
       0.342
       0.387
       0.443
       0.513
       0.594
       0.677
       0.750
       0.801
       0.826
       0.829
       0.827
       0.833
       0.850
       0.868
       0.873
       0.858
       0.822
       0.773
       0.717
       0.664
       0.625
       0.609
       0.609
       0.610
       0.601
       0.584
       0.571
       0.569
       0.575
       0.581
       0.592
       0.614
       0.645
       0.677
       0.697
       0.690
       0.649
       0.577
       0.488
       0.400
       0.325
       0.269
       0.229
       0.190
       0.137
       0.062
      -0.032
      -0.134
      -0.229
      -0.302
      -0.347
      -0.373
      -0.400
      -0.439
      -0.483
      -0.523
      -0.559
      -0.594
      -0.628
      -0.652
      -0.660
      -0.651
      -0.634
      -0.622
      -0.632
      -0.666
      -0.718
      -0.778
      -0.837
      -0.886
      -0.922
      -0.951
      -0.982
      -1.017
      -1.052
      -1.084
      -1.114
      -1.132
      -1.123
      -1.073
      -0.990
      -0.895
      -0.810
      -0.743
      -0.693
      -0.648
      -0.594
      -0.526
      -0.444
      -0.355
      -0.264
      -0.179
      -0.103
      -0.032
       0.039
       0.110
       0.176
       0.237
       0.305
       0.388
       0.482
       0.570
       0.641
       0.690
       0.718
       0.736
       0.754
       0.782
       0.823
       0.866
       0.903
       0.927
       0.937
       0.934
       0.918
       0.890
       0.855
       0.825
       0.812
       0.812
       0.808
       0.786
       0.746
       0.696
       0.642
       0.584
       0.526
       0.475
       0.434
       0.396
       0.355
       0.303
       0.239
       0.165
       0.092
       0.032
      -0.008
      -0.024
      -0.020
      -0.006
       0.003
      -0.004
      -0.022
      -0.043
      -0.062
      -0.073
      -0.067
      -0.043
      -0.012
       0.012
       0.024
       0.025
       0.012
      -0.021
      -0.076
      -0.141
      -0.200
      -0.242
      -0.269
      -0.291
      -0.321
      -0.354
      -0.372
      -0.358
      -0.316
      -0.258
      -0.192
      -0.121
      -0.049
       0.011
       0.052
       0.075
       0.081
       0.077
       0.071
       0.071
       0.074
       0.073
       0.060
       0.032
      -0.015
      -0.084
      -0.167
      -0.243
      -0.291
      -0.304
      -0.295
      -0.288
      -0.294
      -0.307
      -0.314
      -0.309
      -0.302
      -0.296
      -0.285
      -0.257
      -0.210
      -0.159
      -0.120
      -0.100
      -0.096
      -0.100
      -0.104
      -0.100
      -0.085
      -0.059
      -0.029
      -0.004
       0.005
      -0.001
      -0.017
      -0.040
      -0.072
      -0.109
      -0.139
      -0.151
      -0.153
      -0.163
      -0.192
      -0.241
      -0.300
      -0.357
      -0.395
      -0.400
      -0.373
      -0.327
      -0.280
      -0.241
      -0.208
      -0.179
      -0.149
      -0.114
      -0.071
      -0.022
       0.035
       0.098
       0.158
       0.201
       0.223
       0.231
       0.234
       0.241
       0.264
       0.314
       0.383
       0.448
       0.496
       0.525
       0.539
       0.537
       0.520
       0.500
       0.489
       0.492
       0.503
       0.510
       0.502
       0.470
       0.417
       0.352
       0.282
       0.216
       0.161
       0.119
       0.078
       0.022
      -0.056
      -0.145
      -0.230
      -0.308
      -0.380
      -0.441
      -0.490
      -0.528
      -0.553
      -0.568
      -0.576
      -0.589
      -0.612
      -0.644
      -0.676
      -0.698
      -0.707
      -0.714
      -0.729
      -0.757
      -0.789
      -0.812
      -0.825
      -0.832
      -0.832
      -0.818
      -0.787
      -0.746
      -0.706
      -0.673
      -0.643
      -0.617
      -0.590
      -0.551
      -0.493
      -0.416
      -0.329
      -0.249
      -0.189
      -0.155
      -0.143
      -0.144
      -0.148
      -0.144
      -0.119
      -0.064
       0.014
       0.091
       0.151
       0.193
       0.228
       0.265
       0.312
       0.377
       0.458
       0.544
       0.620
       0.679
       0.721
       0.746
       0.750
       0.732
       0.702
       0.671
       0.653
       0.658
       0.681
       0.707
       0.721
       0.721
       0.713
       0.704
       0.707
       0.738
       0.805
       0.893
       0.981
       1.054
       1.113
       1.162
       1.204
       1.245
       1.296
       1.360
       1.434
       1.504
       1.554
       1.575
       1.563
       1.526
       1.477
       1.424
       1.372
       1.324
       1.273
       1.210
       1.129
       1.037
       0.940
       0.834
       0.715
       0.585
       0.456
       0.334
       0.212
       0.079
      -0.072
      -0.240
      -0.416
      -0.581
      -0.724
      -0.837
      -0.921
      -0.980
      -1.025
      -1.074
      -1.141
      -1.228
      -1.327
      -1.429
      -1.519
      -1.589
      -1.635
      -1.669
      -1.704
      -1.746
      -1.789
      -1.828
      -1.861
      -1.880
      -1.873
      -1.836
      -1.776
      -1.706
      -1.641
      -1.582
      -1.527
      -1.467
      -1.404
      -1.338
      -1.267
      -1.181
      -1.077
      -0.968
      -0.874
      -0.803
      -0.747
      -0.691
      -0.629
      -0.552
      -0.458
      -0.353
      -0.252
      -0.165
      -0.092
      -0.028
       0.029
       0.079
       0.126
       0.175
       0.234
       0.310
       0.396
       0.474
       0.527
       0.549
       0.548
       0.531
       0.506
       0.485
       0.481
       0.492
       0.503
       0.501
       0.484
       0.457
       0.427
       0.402
       0.390
       0.396
       0.414
       0.441
       0.470
       0.498
       0.523
       0.546
       0.574
       0.610
       0.659
       0.723
       0.799
       0.875
       0.938
       0.985
       1.027
       1.068
       1.107
       1.149
       1.207
       1.284
       1.377
       1.469
       1.552
       1.617
       1.662
       1.688
       1.701
       1.708
       1.710
       1.702
       1.676
       1.622
       1.537
       1.427
       1.301
       1.160
       1.006
       0.849
       0.705
       0.582
       0.473
       0.363
       0.242
       0.109
      -0.032
      -0.171
      -0.293
      -0.388
      -0.458
      -0.518
      -0.590
      -0.683
      -0.795
      -0.918
      -1.046
      -1.180
      -1.321
      -1.460
      -1.584
      -1.688
      -1.782
      -1.879
      -1.983
      -2.088
      -2.187
      -2.266
      -2.313
      -2.321
      -2.299
      -2.260
      -2.207
      -2.135
      -2.040
      -1.923
      -1.791
      -1.648
      -1.495
      -1.327
      -1.141
      -0.942
      -0.747
      -0.567
      -0.404
      -0.258
      -0.123
       0.005
       0.134
       0.259
       0.365
       0.439
       0.479
       0.498
       0.503
       0.500
       0.494
       0.497
       0.518
       0.557
       0.609
       0.663
       0.708
       0.740
       0.764
       0.785
       0.807
       0.830
       0.854
       0.874
       0.878
       0.858
       0.813
       0.748
       0.660
       0.559
       0.461
       0.389
       0.350
       0.334
       0.322
       0.299
       0.258
       0.204
       0.148
       0.104
       0.074
       0.056
       0.041
       0.026
       0.011
       0.003
       0.009
       0.029
       0.057
       0.092
       0.142
       0.209
       0.284
       0.352
       0.399
       0.425
       0.433
       0.431
       0.426
       0.424
       0.426
       0.423
       0.410
       0.386
       0.354
       0.318
       0.277
       0.227
       0.169
       0.115
       0.082
       0.077
       0.090
       0.103
       0.105
       0.096
       0.084
       0.078
       0.092
       0.134
       0.197
       0.261
       0.309
       0.333
       0.335
       0.315
       0.275
       0.222
       0.161
       0.099
       0.042
      -0.010
      -0.066
      -0.130
      -0.199
      -0.267
      -0.329
      -0.382
      -0.421
      -0.444
      -0.461
      -0.486
      -0.526
      -0.576
      -0.631
      -0.689
      -0.749
      -0.799
      -0.829
      -0.837
      -0.831
      -0.824
      -0.827
      -0.838
      -0.853
      -0.867
      -0.881
      -0.891
      -0.884
      -0.855
      -0.816
      -0.783
      -0.762
      -0.743
      -0.717
      -0.688
      -0.663
      -0.637
      -0.603
      -0.549
      -0.476
      -0.391
      -0.306
      -0.230
      -0.158
      -0.079
       0.023
       0.148
       0.287
       0.418
       0.523
       0.599
       0.653
       0.691
       0.716
       0.733
       0.753
       0.790
       0.839
       0.885
       0.911
       0.913
       0.894
       0.862
       0.829
       0.811
       0.817
       0.843
       0.871
       0.883
       0.874
       0.853
       0.834
       0.819
       0.806
       0.793
       0.781
       0.774
       0.766
       0.742
       0.695
       0.627
       0.544
       0.452
       0.362
       0.283
       0.219
       0.163
       0.106
       0.042
      -0.031
      -0.112
      -0.203
      -0.295
      -0.378
      -0.442
      -0.483
      -0.510
      -0.537
      -0.576
      -0.627
      -0.682
      -0.734
      -0.777
      -0.803
      -0.806
      -0.789
      -0.768
      -0.755
      -0.754
      -0.765
      -0.792
      -0.832
      -0.876
      -0.908
      -0.917
      -0.902
      -0.866
      -0.822
      -0.782
      -0.754
      -0.733
      -0.704
      -0.653
      -0.571
      -0.464
      -0.351
      -0.251
      -0.171
      -0.103
      -0.042
       0.012
       0.058
       0.100
       0.146
       0.197
       0.246
       0.289
       0.326
       0.360
       0.395
       0.440
       0.500
       0.580
       0.676
       0.780
       0.880
       0.964
       1.030
       1.081
       1.122
       1.155
       1.185
       1.223
       1.273
       1.328
       1.375
       1.400
       1.398
       1.368
       1.314
       1.252
       1.194
       1.147
       1.102
       1.045
       0.967
       0.871
       0.769
       0.672
       0.586
       0.513
       0.456
       0.419
       0.396
       0.370
       0.327
       0.262
       0.184
       0.102
       0.024
      -0.042
      -0.093
      -0.137
      -0.191
      -0.260
      -0.343
      -0.432
      -0.522
      -0.611
      -0.694
      -0.769
      -0.833
      -0.889
      -0.940
      -1.000
      -1.075
      -1.168
      -1.268
      -1.361
      -1.427
      -1.450
      -1.430
      -1.390
      -1.355
      -1.328
      -1.301
      -1.265
      -1.224
      -1.181
      -1.133
      -1.075
      -1.004
      -0.928
      -0.861
      -0.814
      -0.791
      -0.782
      -0.773
      -0.753
      -0.713
      -0.648
      -0.560
      -0.461
      -0.365
      -0.277
      -0.198
      -0.128
      -0.068
      -0.004
       0.079
       0.184
       0.297
       0.397
       0.472
       0.521
       0.552
       0.576
       0.603
       0.637
       0.672
       0.691
       0.681
       0.640
       0.583
       0.533
       0.496
       0.467
       0.433
       0.398
       0.372
       0.357
       0.344
       0.319
       0.281
       0.235
       0.190
       0.161
       0.157
       0.182
       0.229
       0.289
       0.350
       0.399
       0.430
       0.446
       0.459
       0.474
       0.495
       0.521
       0.550
       0.570
       0.570
       0.542
       0.485
       0.408
       0.317
       0.226
       0.147
       0.082
       0.018
      -0.055
      -0.136
      -0.220
      -0.305
      -0.392
      -0.476
      -0.546
      -0.588
      -0.594
      -0.573
      -0.539
      -0.513
      -0.502
      -0.504
      -0.515
      -0.521
      -0.506
      -0.457
      -0.382
      -0.299
      -0.227
      -0.167
      -0.118
      -0.085
      -0.073
      -0.078
      -0.089
      -0.094
      -0.091
      -0.081
      -0.070
      -0.065
      -0.068
      -0.072
      -0.070
      -0.057
      -0.028
       0.018
       0.072
       0.119
       0.147
       0.152
       0.138
       0.105
       0.064
       0.032
       0.026
       0.050
       0.092
       0.134
       0.165
       0.180
       0.183
       0.192
       0.220
       0.274
