Origin Time       09/01/2013 07:44:20
Lat.              29.75 N
Long.             81.74 E
Depth (Km)         34.0
Magnitude         5.0
 Region           NEPAL                                                            
 Above details taken from IIT 
   
Station Code      PTI
Station Lat.       29.407
Station Long.      79.931
Station Height(m) 1667.0
Site Class        A   Vs30 between 700 m/sec to 1400 m/sec * 
Record Time       09.01.2013 07:44:39.314
Sampling Rate     200. Hz
 Record Duration   84.525 Sec.
 Direction         Vert. (Up positive)
Max. Acceleration      2.711 cm/sec**2
     
  * For reference see Site Classification link of website 
     
 Base Line Corrected and Low Pass Filtered (Cut Off at 35 Hz) Time History
 Acceleration data in cm/sec**2
    
[...]
       0.286
       0.470
       0.571
       0.556
       0.437
       0.269
       0.122
       0.041
       0.033
       0.073
       0.128
       0.165
       0.161
       0.105
       0.011
      -0.087
      -0.147
      -0.149
      -0.107
      -0.069
      -0.079
      -0.151
      -0.259
      -0.355
      -0.395
      -0.354
      -0.230
      -0.045
       0.163
       0.344
       0.454
       0.472
       0.410
       0.308
       0.207
       0.134
       0.090
       0.058
       0.015
      -0.051
      -0.136
      -0.220
      -0.276
      -0.290
      -0.264
      -0.214
      -0.154
      -0.091
      -0.022
       0.055
       0.139
       0.216
       0.270
       0.282
       0.244
       0.162
       0.058
      -0.036
      -0.097
      -0.113
      -0.096
      -0.065
      -0.037
      -0.017
       0.001
       0.027
       0.063
       0.102
       0.128
       0.136
       0.126
       0.104
       0.069
       0.021
      -0.043
      -0.111
      -0.163
      -0.184
      -0.177
      -0.163
      -0.161
      -0.178
      -0.195
      -0.188
      -0.140
      -0.054
       0.046
       0.130
       0.174
       0.170
       0.125
       0.062
       0.007
      -0.021
      -0.014
       0.026
       0.084
       0.139
       0.171
       0.172
       0.147
       0.109
       0.076
       0.063
       0.072
       0.090
       0.094
       0.063
      -0.003
      -0.089
      -0.168
      -0.223
      -0.246
      -0.240
      -0.211
      -0.167
      -0.125
      -0.104
      -0.114
      -0.141
      -0.151
      -0.104
       0.013
       0.169
       0.310
       0.383
       0.369
       0.290
       0.187
       0.106
       0.075
       0.097
       0.150
       0.194
       0.187
       0.104
      -0.041
      -0.201
      -0.318
      -0.344
      -0.270
      -0.123
       0.044
       0.174
       0.225
       0.184
       0.074
      -0.058
      -0.159
      -0.198
      -0.179
      -0.139
      -0.123
      -0.160
      -0.243
      -0.332
      -0.377
      -0.334
      -0.195
       0.009
       0.216
       0.363
       0.412
       0.369
       0.276
       0.189
       0.148
       0.166
       0.219
       0.270
       0.285
       0.251
       0.188
       0.126
       0.082
       0.051
       0.004
      -0.077
      -0.187
      -0.299
      -0.383
      -0.426
      -0.433
      -0.425
      -0.423
      -0.435
      -0.457
      -0.467
      -0.440
      -0.355
      -0.208
      -0.025
       0.149
       0.268
       0.315
       0.314
       0.316
       0.367
       0.476
       0.613
       0.721
       0.752
       0.685
       0.536
       0.343
       0.151
      -0.006
      -0.121
      -0.211
      -0.304
      -0.418
      -0.541
      -0.639
      -0.668
      -0.595
      -0.417
      -0.162
       0.115
       0.353
       0.503
       0.542
       0.475
       0.327
       0.138
      -0.047
      -0.187
      -0.260
      -0.266
      -0.224
      -0.157
      -0.083
      -0.007
       0.069
       0.139
       0.189
       0.209
       0.194
       0.154
       0.100
       0.040
      -0.023
      -0.084
      -0.127
      -0.129
      -0.080
       0.008
       0.098
       0.146
       0.128
       0.051
      -0.052
      -0.144
      -0.200
      -0.217
      -0.202
      -0.161
      -0.097
      -0.017
       0.061
       0.114
       0.128
       0.112
       0.090
       0.079
       0.076
       0.066
       0.036
      -0.012
      -0.062
      -0.103
      -0.127
      -0.132
      -0.115
      -0.073
      -0.013
       0.045
       0.077
       0.075
       0.053
       0.033
       0.026
       0.031
       0.033
       0.025
       0.007
      -0.017
      -0.047
      -0.083
      -0.119
      -0.134
      -0.109
      -0.042
       0.048
       0.125
       0.166
       0.168
       0.144
       0.111
       0.082
       0.063
       0.053
       0.045
       0.030
      -0.002
      -0.057
      -0.127
      -0.193
      -0.229
      -0.217
      -0.152
      -0.048
       0.069
       0.172
       0.241
       0.270
       0.269
       0.249
       0.219
       0.172
       0.103
       0.015
      -0.080
      -0.167
      -0.232
      -0.264
      -0.250
      -0.179
      -0.054
       0.091
       0.206
       0.255
       0.233
       0.167
       0.095
       0.038
      -0.007
      -0.050
      -0.101
      -0.157
      -0.213
      -0.255
      -0.267
      -0.233
      -0.151
      -0.046
       0.041
       0.071
       0.036
      -0.031
      -0.079
      -0.067
       0.011
       0.128
       0.236
       0.294
       0.283
       0.214
       0.123
       0.055
       0.038
       0.069
       0.107
       0.101
       0.013
      -0.154
      -0.357
      -0.529
      -0.610
      -0.565
      -0.405
      -0.180
       0.035
       0.173
       0.201
       0.142
       0.058
       0.010
       0.026
       0.083
       0.130
       0.127
       0.065
      -0.024
      -0.095
      -0.107
      -0.045
       0.074
       0.206
       0.298
       0.309
       0.235
       0.113
      -0.003
      -0.074
      -0.099
      -0.110
      -0.137
      -0.194
      -0.265
      -0.318
      -0.318
      -0.244
      -0.097
       0.097
       0.280
       0.389
       0.380
       0.256
       0.075
      -0.083
      -0.157
      -0.134
      -0.052
       0.033
       0.076
       0.060
      -0.003
      -0.078
      -0.122
      -0.101
      -0.011
       0.121
       0.238
       0.289
       0.255
       0.159
       0.051
      -0.023
      -0.051
      -0.057
      -0.079
      -0.145
      -0.252
      -0.372
      -0.464
      -0.488
      -0.418
      -0.254
      -0.029
       0.200
       0.375
       0.467
       0.484
       0.465
       0.451
       0.463
       0.493
       0.517
       0.511
       0.464
       0.381
       0.276
       0.169
       0.074
      -0.001
      -0.065
      -0.137
      -0.230
      -0.339
      -0.432
      -0.478
      -0.471
      -0.437
      -0.416
      -0.428
      -0.456
      -0.463
      -0.423
      -0.336
      -0.225
      -0.122
      -0.045
       0.004
       0.040
       0.089
       0.179
       0.326
       0.510
       0.674
       0.748
       0.692
       0.520
       0.293
       0.086
      -0.052
      -0.119
      -0.151
      -0.194
      -0.280
      -0.410
      -0.547
      -0.634
      -0.619
      -0.482
      -0.247
       0.020
       0.239
       0.344
       0.318
       0.189
       0.017
      -0.132
      -0.210
      -0.197
      -0.105
       0.025
       0.138
       0.191
       0.171
       0.115
       0.085
       0.132
       0.265
       0.435
       0.571
       0.615
       0.550
       0.395
       0.186
      -0.035
      -0.225
      -0.341
      -0.359
      -0.295
      -0.207
      -0.169
      -0.222
      -0.351
      -0.491
      -0.572
      -0.553
      -0.449
      -0.305
      -0.171
      -0.074
      -0.009
       0.043
       0.107
       0.203
       0.336
       0.497
       0.657
       0.778
       0.830
       0.801
       0.707
       0.579
       0.444
       0.314
       0.184
       0.048
      -0.098
      -0.251
      -0.405
      -0.547
      -0.655
      -0.707
      -0.696
      -0.640
      -0.568
      -0.498
      -0.423
      -0.326
      -0.201
      -0.064
       0.059
       0.155
       0.232
       0.296
       0.341
       0.348
       0.305
       0.229
       0.160
       0.131
       0.147
       0.182
       0.207
       0.207
       0.187
       0.152
       0.095
       0.007
      -0.109
      -0.232
      -0.336
      -0.408
      -0.455
      -0.491
      -0.516
      -0.519
      -0.488
      -0.422
      -0.329
      -0.217
      -0.088
       0.057
       0.214
       0.368
       0.507
       0.624
       0.712
       0.755
       0.733
       0.640
       0.493
       0.327
       0.179
       0.060
      -0.040
      -0.131
      -0.215
      -0.280
      -0.313
      -0.312
      -0.276
      -0.207
      -0.107
       0.019
       0.152
       0.266
       0.331
       0.325
       0.240
       0.087
      -0.107
      -0.306
      -0.472
      -0.578
      -0.615
      -0.593
      -0.537
      -0.468
      -0.399
      -0.324
      -0.220
      -0.066
       0.142
       0.368
       0.546
       0.611
       0.535
       0.349
       0.137
      -0.008
      -0.023
       0.094
       0.282
       0.451
       0.523
       0.470
       0.327
       0.167
       0.062
       0.037
       0.066
       0.087
       0.047
      -0.079
      -0.277
      -0.506
      -0.705
      -0.810
      -0.778
      -0.613
      -0.366
      -0.108
       0.112
       0.294
       0.466
       0.645
       0.816
       0.936
       0.968
       0.903
       0.756
       0.548
       0.289
      -0.005
      -0.308
      -0.575
      -0.759
      -0.827
      -0.774
      -0.620
      -0.405
      -0.182
       0.002
       0.119
       0.173
       0.197
       0.234
       0.308
       0.405
       0.481
       0.482
       0.372
       0.154
      -0.133
      -0.431
      -0.675
      -0.817
      -0.834
      -0.739
      -0.580
      -0.423
      -0.320
      -0.280
      -0.267
      -0.227
      -0.125
       0.029
       0.189
       0.300
       0.326
       0.265
       0.146
       0.019
      -0.055
      -0.027
       0.119
       0.349
       0.588
       0.752
       0.791
       0.709
       0.546
       0.347
       0.142
      -0.059
      -0.246
      -0.399
      -0.494
      -0.520
      -0.487
      -0.412
      -0.302
      -0.157
       0.028
       0.235
       0.423
       0.544
       0.570
       0.515
       0.419
       0.325
       0.257
       0.220
       0.206
       0.206
       0.204
       0.185
       0.136
       0.067
       0.009
      -0.001
       0.052
       0.145
       0.226
       0.245
       0.182
       0.063
      -0.058
      -0.127
      -0.114
      -0.026
       0.098
       0.194
       0.200
       0.083
      -0.146
      -0.429
      -0.686
      -0.842
      -0.856
      -0.736
      -0.533
      -0.324
      -0.171
      -0.099
      -0.086
      -0.080
      -0.032
       0.077
       0.222
       0.356
       0.437
       0.456
       0.430
       0.393
       0.369
       0.371
       0.398
       0.439
       0.469
       0.459
       0.385
       0.247
       0.069
      -0.114
      -0.272
      -0.386
      -0.445
      -0.452
      -0.419
      -0.372
      -0.338
      -0.335
      -0.361
      -0.400
      -0.430
      -0.440
      -0.427
      -0.391
      -0.331
      -0.243
      -0.129
      -0.002
       0.126
       0.246
       0.357
       0.453
       0.515
       0.524
       0.461
       0.324
       0.124
      -0.111
      -0.344
      -0.531
      -0.627
      -0.602
      -0.456
      -0.226
       0.017
       0.194
       0.252
       0.184
       0.034
      -0.128
      -0.244
      -0.302
      -0.338
      -0.414
      -0.574
      -0.817
      -1.097
      -1.340
      -1.474
      -1.453
      -1.263
      -0.934
      -0.532
      -0.132
       0.214
       0.496
       0.740
       0.967
       1.167
       1.295
       1.307
       1.192
       0.981
       0.719
       0.438
       0.159
      -0.101
      -0.325
      -0.498
      -0.626
      -0.726
      -0.816
      -0.893
      -0.938
      -0.931
      -0.873
      -0.775
      -0.634
      -0.427
      -0.124
       0.279
       0.746
       1.215
       1.625
       1.930
       2.107
       2.147
       2.068
       1.911
       1.729
       1.556
       1.385
       1.167
       0.851
       0.421
      -0.089
      -0.607
      -1.062
      -1.399
      -1.591
      -1.639
      -1.568
      -1.431
      -1.293
      -1.207
      -1.179
      -1.168
      -1.111
      -0.970
      -0.765
      -0.561
      -0.421
      -0.374
      -0.394
      -0.421
      -0.387
      -0.248
      -0.001
       0.299
       0.566
       0.723
       0.755
       0.714
       0.678
       0.698
       0.763
       0.833
       0.878
       0.902
       0.916
       0.910
       0.856
       0.753
       0.641
       0.573
       0.561
       0.549
       0.457
       0.247
      -0.046
      -0.348
      -0.601
      -0.791
      -0.925
      -0.998
      -0.986
      -0.870
      -0.669
      -0.430
      -0.211
      -0.050
       0.037
       0.055
       0.020
      -0.035
      -0.063
      -0.020
       0.120
       0.345
       0.608
       0.845
       0.993
       1.022
       0.942
       0.802
       0.664
       0.574
       0.538
       0.522
       0.482
       0.393
       0.268
       0.142
       0.043
      -0.036
      -0.135
      -0.295
      -0.518
      -0.760
      -0.954
      -1.052
      -1.045
      -0.960
      -0.831
      -0.682
      -0.532
      -0.396
      -0.292
      -0.227
      -0.195
      -0.185
      -0.193
      -0.224
      -0.274
      -0.325
      -0.345
      -0.313
      -0.231
      -0.112
       0.039
       0.223
       0.439
       0.671
       0.882
       1.032
       1.097
       1.068
       0.955
       0.777
       0.565
       0.359
       0.190
       0.072
      -0.006
      -0.074
      -0.168
      -0.313
      -0.516
      -0.761
      -1.016
      -1.245
      -1.421
      -1.527
      -1.549
      -1.470
      -1.270
      -0.940
      -0.490
       0.043
       0.612
       1.177
       1.710
       2.179
       2.534
       2.711
       2.660
       2.378
       1.934
       1.443
       1.015
       0.704
       0.490
       0.296
       0.040
      -0.328
      -0.808
      -1.346
      -1.851
      -2.223
      -2.392
      -2.343
      -2.126
      -1.829
      -1.530
      -1.268
      -1.030
      -0.778
      -0.466
      -0.071
       0.396
       0.879
       1.287
       1.529
       1.556
       1.390
       1.113
       0.827
       0.604
       0.458
       0.358
       0.251
       0.096
      -0.112
      -0.340
      -0.530
      -0.634
      -0.639
      -0.587
      -0.559
      -0.624
      -0.792
      -1.003
      -1.156
      -1.160
      -0.983
      -0.655
      -0.247
       0.163
       0.513
       0.769
       0.929
       1.025
       1.103
       1.201
       1.314
       1.396
       1.392
       1.276
       1.077
       0.855
       0.662
       0.513
       0.389
       0.262
       0.110
      -0.085
      -0.330
      -0.612
      -0.893
      -1.123
      -1.260
      -1.296
      -1.253
      -1.167
      -1.065
      -0.951
      -0.819
      -0.658
      -0.467
      -0.245
       0.004
       0.262
       0.493
       0.648
       0.691
       0.620
       0.475
       0.319
       0.203
       0.151
       0.151
       0.169
       0.164
       0.110
       0.009
      -0.112
      -0.210
      -0.253
      -0.239
      -0.201
      -0.184
      -0.218
      -0.300
      -0.394
      -0.454
      -0.446
      -0.362
      -0.220
      -0.053
       0.096
       0.187
       0.193
       0.115
      -0.012
      -0.134
      -0.205
      -0.208
      -0.159
      -0.092
      -0.038
      -0.010
      -0.003
       0.000
       0.023
       0.087
       0.197
       0.341
       0.488
       0.604
       0.657
       0.631
       0.517
       0.321
       0.068
      -0.198
      -0.424
      -0.564
      -0.600
      -0.538
      -0.398
      -0.200
       0.040
       0.313
       0.599
       0.868
       1.081
       1.208
       1.233
       1.164
       1.027
       0.857
       0.689
       0.539
       0.399
       0.249
       0.074
      -0.125
      -0.340
      -0.571
      -0.828
      -1.120
      -1.421
      -1.658
      -1.736
      -1.583
      -1.186
      -0.603
       0.057
       0.671
       1.133
       1.385
       1.428
       1.316
       1.130
       0.944
       0.787
       0.641
       0.464
       0.225
      -0.070
      -0.387
      -0.681
      -0.922
      -1.102
      -1.241
      -1.366
      -1.502
      -1.650
      -1.776
      -1.824
      -1.732
      -1.467
      -1.040
      -0.511
       0.034
       0.510
       0.859
       1.066
       1.151
       1.156
       1.119
       1.058
       0.971
       0.851
       0.704
       0.548
       0.409
       0.300
       0.223
       0.181
       0.179
       0.223
       0.310
       0.416
       0.495
       0.495
       0.385
       0.171
      -0.103
      -0.378
      -0.601
      -0.739
      -0.775
      -0.704
      -0.536
      -0.297
      -0.031
       0.221
       0.427
       0.574
       0.655
       0.665
       0.601
       0.470
       0.286
       0.080
      -0.115
      -0.267
      -0.352
      -0.359
      -0.301
      -0.217
      -0.153
      -0.138
      -0.165
      -0.199
      -0.203
      -0.168
      -0.110
      -0.057
      -0.029
      -0.043
      -0.107
      -0.207
      -0.309
      -0.364
      -0.344
      -0.265
      -0.177
      -0.131
      -0.144
      -0.199
      -0.268
      -0.334
      -0.389
      -0.422
      -0.413
      -0.352
      -0.258
      -0.161
      -0.083
      -0.022
       0.038
       0.092
       0.103
       0.033
      -0.123
      -0.314
      -0.455
      -0.473
      -0.341
      -0.089
       0.219
       0.505
       0.708
       0.796
       0.779
       0.707
       0.649
       0.659
       0.741
       0.852
       0.917
       0.873
       0.704
       0.453
       0.204
       0.034
      -0.033
      -0.037
      -0.061
      -0.175
      -0.399
      -0.690
      -0.967
      -1.152
      -1.198
      -1.101
      -0.901
      -0.658
      -0.426
      -0.226
      -0.039
       0.180
       0.461
       0.790
       1.106
       1.333
       1.420
       1.366
       1.217
       1.034
       0.862
       0.710
       0.556
       0.368
       0.128
      -0.147
      -0.415
      -0.619
      -0.718
      -0.702
      -0.595
      -0.442
      -0.279
      -0.124
       0.019
       0.152
       0.263
       0.327
       0.319
       0.226
       0.066
      -0.119
      -0.276
      -0.371
      -0.399
      -0.387
      -0.370
      -0.365
      -0.351
      -0.285
      -0.135
       0.093
       0.355
       0.585
       0.718
       0.713
       0.557
       0.280
      -0.054
      -0.362
      -0.577
      -0.671
      -0.666
      -0.619
      -0.594
      -0.626
      -0.715
      -0.833
      -0.948
      -1.037
      -1.090
      -1.102
      -1.063
      -0.954
      -0.758
      -0.474
      -0.128
       0.236
       0.573
       0.851
       1.064
       1.221
       1.337
       1.421
       1.464
       1.446
       1.347
       1.155
       0.873
       0.524
       0.146
      -0.219
      -0.540
      -0.809
      -1.040
      -1.257
      -1.478
      -1.696
      -1.871
      -1.942
      -1.850
      -1.563
      -1.098
      -0.511
       0.127
       0.749
       1.306
       1.754
       2.039
       2.113
       1.956
       1.597
       1.120
       0.627
       0.209
      -0.089
      -0.270
      -0.366
      -0.417
      -0.452
      -0.480
      -0.488
      -0.456
      -0.369
      -0.240
      -0.110
      -0.032
      -0.046
      -0.147
      -0.289
      -0.400
      -0.422
      -0.329
      -0.138
       0.100
       0.322
