Origin Time       18/9/2011 12:40:47	 UTC
Lat.              27.6 N	
Long.             88.2 E	
Depth (Km)         10.0
Magnitude         6.8
 Region           India(Sikkim)-Nepar-Border                                       
 Above details taken from IMD 
    
Station Code      KRM
Station Lat.       24.870  N
Station Long.      92.354  E
Station Height(m)   35.0
Site Class        C   Vs30 between 200 m/sec to 375 m/sec *  
Record Time       18.09.2011 12:42:52.549 UTC
Sampling Rate     200. Hz
 Record Duration  140.155 Sec.
 Direction         N-S (N positive)
Max. Acceleration     -4.583 cm/sec**2
     
  * For reference see Site Classification link of website 
     
 Base Line Corrected and Low Pass Filtered (Cut Off at 35 Hz) Time History
 Acceleration data in cm/sec**2
    
[...]
       0.419
       0.392
       0.369
       0.345
       0.316
       0.286
       0.269
       0.272
       0.293
       0.318
       0.334
       0.342
       0.349
       0.360
       0.369
       0.369
       0.361
       0.352
       0.353
       0.364
       0.379
       0.388
       0.388
       0.380
       0.366
       0.344
       0.309
       0.263
       0.217
       0.179
       0.146
       0.110
       0.066
       0.019
      -0.029
      -0.078
      -0.132
      -0.193
      -0.255
      -0.305
      -0.335
      -0.347
      -0.349
      -0.348
      -0.344
      -0.335
      -0.326
      -0.321
      -0.320
      -0.314
      -0.294
      -0.257
      -0.208
      -0.160
      -0.120
      -0.090
      -0.065
      -0.043
      -0.027
      -0.023
      -0.030
      -0.041
      -0.050
      -0.055
      -0.062
      -0.076
      -0.100
      -0.134
      -0.174
      -0.218
      -0.265
      -0.308
      -0.341
      -0.359
      -0.362
      -0.353
      -0.336
      -0.314
      -0.289
      -0.264
      -0.242
      -0.228
      -0.221
      -0.213
      -0.197
      -0.175
      -0.154
      -0.142
      -0.142
      -0.151
      -0.166
      -0.193
      -0.234
      -0.290
      -0.350
      -0.403
      -0.443
      -0.477
      -0.513
      -0.552
      -0.590
      -0.620
      -0.643
      -0.665
      -0.683
      -0.690
      -0.679
      -0.652
      -0.614
      -0.565
      -0.508
      -0.444
      -0.379
      -0.320
      -0.269
      -0.221
      -0.168
      -0.108
      -0.050
      -0.003
       0.034
       0.069
       0.108
       0.149
       0.181
       0.198
       0.206
       0.219
       0.245
       0.284
       0.327
       0.371
       0.416
       0.466
       0.518
       0.565
       0.604
       0.640
       0.677
       0.717
       0.752
       0.774
       0.780
       0.775
       0.764
       0.746
       0.712
       0.655
       0.586
       0.520
       0.461
       0.403
       0.339
       0.271
       0.206
       0.143
       0.074
      -0.005
      -0.087
      -0.159
      -0.210
      -0.242
      -0.265
      -0.291
      -0.325
      -0.361
      -0.391
      -0.412
      -0.427
      -0.445
      -0.470
      -0.502
      -0.539
      -0.578
      -0.617
      -0.657
      -0.699
      -0.744
      -0.796
      -0.861
      -0.935
      -1.004
      -1.051
      -1.071
      -1.076
      -1.078
      -1.086
      -1.094
      -1.095
      -1.088
      -1.084
      -1.089
      -1.101
      -1.112
      -1.117
      -1.119
      -1.123
      -1.132
      -1.142
      -1.155
      -1.178
      -1.214
      -1.262
      -1.313
      -1.357
      -1.387
      -1.406
      -1.423
      -1.442
      -1.460
      -1.469
      -1.471
      -1.474
      -1.486
      -1.502
      -1.508
      -1.501
      -1.485
      -1.474
      -1.471
      -1.471
      -1.473
      -1.483
      -1.513
      -1.564
      -1.624
      -1.674
      -1.710
      -1.739
      -1.767
      -1.795
      -1.816
      -1.827
      -1.830
      -1.830
      -1.832
      -1.834
      -1.829
      -1.810
      -1.776
      -1.732
      -1.686
      -1.647
      -1.620
      -1.608
      -1.610
      -1.622
      -1.637
      -1.652
      -1.665
      -1.684
      -1.717
      -1.771
      -1.837
      -1.903
      -1.968
      -2.037
      -2.112
      -2.191
      -2.266
      -2.334
      -2.397
      -2.457
      -2.512
      -2.560
      -2.606
      -2.659
      -2.727
      -2.804
      -2.877
      -2.933
      -2.970
      -3.003
      -3.046
      -3.103
      -3.164
      -3.218
      -3.264
      -3.311
      -3.367
      -3.430
      -3.489
      -3.532
      -3.563
      -3.588
      -3.617
      -3.648
      -3.682
      -3.722
      -3.770
      -3.823
      -3.874
      -3.916
      -3.952
      -3.986
      -4.026
      -4.070
      -4.114
      -4.150
      -4.181
      -4.212
      -4.248
      -4.285
      -4.312
      -4.325
      -4.327
      -4.326
      -4.326
      -4.327
      -4.328
      -4.329
      -4.335
      -4.349
      -4.362
      -4.365
      -4.352
      -4.333
      -4.321
      -4.324
      -4.336
      -4.348
      -4.358
      -4.371
      -4.388
      -4.404
      -4.406
      -4.391
      -4.363
      -4.330
      -4.291
      -4.242
      -4.182
      -4.118
      -4.057
      -3.996
      -3.927
      -3.842
      -3.740
      -3.627
      -3.510
      -3.390
      -3.263
      -3.130
      -2.998
      -2.879
      -2.774
      -2.672
      -2.557
      -2.423
      -2.275
      -2.123
      -1.972
      -1.827
      -1.683
      -1.540
      -1.405
      -1.280
      -1.162
      -1.041
      -0.912
      -0.782
      -0.662
      -0.552
      -0.445
      -0.337
      -0.233
      -0.141
      -0.062
       0.011
       0.092
       0.186
       0.288
       0.391
       0.490
       0.591
       0.698
       0.804
       0.902
       0.991
       1.078
       1.170
       1.269
       1.362
       1.437
       1.484
       1.506
       1.514
       1.510
       1.486
       1.432
       1.352
       1.258
       1.161
       1.063
       0.964
       0.860
       0.747
       0.623
       0.489
       0.353
       0.226
       0.121
       0.041
      -0.019
      -0.068
      -0.114
      -0.153
      -0.179
      -0.193
      -0.204
      -0.221
      -0.244
      -0.264
      -0.276
      -0.282
      -0.292
      -0.314
      -0.352
      -0.402
      -0.460
      -0.524
      -0.598
      -0.679
      -0.757
      -0.824
      -0.874
      -0.914
      -0.951
      -0.988
      -1.021
      -1.048
      -1.073
      -1.105
      -1.150
      -1.199
      -1.235
      -1.254
      -1.263
      -1.273
      -1.287
      -1.301
      -1.314
      -1.330
      -1.352
      -1.377
      -1.395
      -1.392
      -1.366
      -1.322
      -1.272
      -1.218
      -1.152
      -1.070
      -0.977
      -0.881
      -0.787
      -0.689
      -0.578
      -0.451
      -0.311
      -0.163
      -0.015
       0.133
       0.273
       0.400
       0.508
       0.603
       0.697
       0.798
       0.908
       1.018
       1.120
       1.208
       1.286
       1.360
       1.428
       1.486
       1.530
       1.567
       1.606
       1.655
       1.711
       1.767
       1.821
       1.869
       1.904
       1.922
       1.921
       1.905
       1.887
       1.878
       1.878
       1.880
       1.874
       1.857
       1.839
       1.833
       1.837
       1.842
       1.842
       1.837
       1.840
       1.857
       1.889
       1.930
       1.973
       2.015
       2.051
       2.080
       2.095
       2.102
       2.110
       2.128
       2.155
       2.181
       2.203
       2.224
       2.250
       2.277
       2.298
       2.304
       2.300
       2.298
       2.314
       2.346
       2.389
       2.436
       2.489
       2.549
       2.611
       2.663
       2.703
       2.740
       2.788
       2.853
       2.928
       3.003
       3.069
       3.125
       3.176
       3.224
       3.262
       3.283
       3.291
       3.296
       3.304
       3.314
       3.321
       3.318
       3.305
       3.282
       3.247
       3.194
       3.121
       3.036
       2.952
       2.877
       2.807
       2.730
       2.641
       2.546
       2.456
       2.370
       2.281
       2.181
       2.073
       1.970
       1.882
       1.809
       1.743
       1.679
       1.615
       1.553
       1.487
       1.411
       1.328
       1.248
       1.180
       1.128
       1.084
       1.036
       0.977
       0.912
       0.852
       0.803
       0.754
       0.697
       0.633
       0.578
       0.544
       0.529
       0.521
       0.512
       0.502
       0.496
       0.495
       0.491
       0.479
       0.464
       0.455
       0.460
       0.472
       0.480
       0.476
       0.467
       0.460
       0.457
       0.450
       0.436
       0.417
       0.401
       0.399
       0.413
       0.441
       0.482
       0.536
       0.601
       0.676
       0.756
       0.842
       0.939
       1.055
       1.193
       1.344
       1.498
       1.646
       1.788
       1.928
       2.064
       2.185
       2.280
       2.351
       2.413
       2.482
       2.554
       2.621
       2.677
       2.723
       2.764
       2.795
       2.809
       2.803
       2.785
       2.771
       2.771
       2.782
       2.791
       2.789
       2.776
       2.755
       2.725
       2.682
       2.627
       2.563
       2.495
       2.423
       2.344
       2.255
       2.159
       2.058
       1.952
       1.842
       1.726
       1.610
       1.507
       1.427
       1.374
       1.345
       1.333
       1.334
       1.348
       1.380
       1.434
       1.505
       1.583
       1.661
       1.747
       1.845
       1.954
       2.067
       2.174
       2.273
       2.359
       2.429
       2.479
       2.506
       2.517
       2.522
       2.526
       2.526
       2.519
       2.505
       2.491
       2.482
       2.477
       2.470
       2.462
       2.462
       2.479
       2.515
       2.566
       2.626
       2.692
       2.761
       2.832
       2.899
       2.956
       3.001
       3.041
       3.086
       3.134
       3.178
       3.204
       3.207
       3.192
       3.168
       3.138
       3.096
       3.036
       2.960
       2.882
       2.812
       2.751
       2.692
       2.634
       2.577
       2.520
       2.456
       2.383
       2.305
       2.232
       2.170
       2.115
       2.058
       1.991
       1.916
       1.842
       1.771
       1.698
       1.616
       1.525
       1.436
       1.355
       1.282
       1.209
       1.135
       1.064
       1.000
       0.945
       0.893
       0.838
       0.778
       0.723
       0.682
       0.659
       0.651
       0.651
       0.658
       0.674
       0.701
       0.733
       0.764
       0.788
       0.809
       0.841
       0.892
       0.957
       1.025
       1.092
       1.157
       1.222
       1.281
       1.328
       1.363
       1.391
       1.419
       1.451
       1.480
       1.499
       1.506
       1.505
       1.497
       1.481
       1.448
       1.398
       1.342
       1.292
       1.254
       1.225
       1.203
       1.185
       1.170
       1.153
       1.130
       1.102
       1.076
       1.064
       1.071
       1.092
       1.112
       1.122
       1.122
       1.122
       1.130
       1.141
       1.144
       1.133
       1.111
       1.092
       1.087
       1.094
       1.107
       1.122
       1.141
       1.164
       1.189
       1.213
       1.236
       1.266
       1.315
       1.382
       1.455
       1.521
       1.575
       1.622
       1.665
       1.698
       1.712
       1.708
       1.696
       1.687
       1.682
       1.679
       1.672
       1.662
       1.649
       1.632
       1.610
       1.582
       1.555
       1.536
       1.532
       1.542
       1.557
       1.571
       1.585
       1.603
       1.623
       1.638
       1.639
       1.624
       1.601
       1.577
       1.555
       1.532
       1.501
       1.460
       1.410
       1.353
       1.288
       1.214
       1.139
       1.071
       1.014
       0.970
       0.932
       0.897
       0.866
       0.844
       0.829
       0.812
       0.785
       0.745
       0.703
       0.670
       0.646
       0.622
       0.592
       0.552
       0.499
       0.432
       0.349
       0.251
       0.143
       0.037
      -0.059
      -0.146
      -0.231
      -0.326
      -0.429
      -0.532
      -0.630
      -0.727
      -0.829
      -0.937
      -1.049
      -1.159
      -1.264
      -1.364
      -1.461
      -1.558
      -1.654
      -1.752
      -1.855
      -1.964
      -2.074
      -2.173
      -2.253
      -2.316
      -2.366
      -2.404
      -2.428
      -2.436
      -2.426
      -2.403
      -2.374
      -2.340
      -2.294
      -2.229
      -2.143
      -2.044
      -1.936
      -1.822
      -1.701
      -1.580
      -1.468
      -1.369
      -1.278
      -1.180
      -1.067
      -0.943
      -0.822
      -0.717
      -0.627
      -0.541
      -0.454
      -0.369
      -0.290
      -0.216
      -0.141
      -0.065
       0.009
       0.074
       0.126
       0.168
       0.198
       0.215
       0.216
       0.203
       0.185
       0.170
       0.163
       0.159
       0.148
       0.127
       0.100
       0.070
       0.040
       0.004
      -0.045
      -0.107
      -0.173
      -0.236
      -0.295
      -0.356
      -0.420
      -0.487
      -0.557
      -0.639
      -0.743
      -0.874
      -1.021
      -1.169
      -1.304
      -1.425
      -1.543
      -1.668
      -1.802
      -1.936
      -2.065
      -2.190
      -2.318
      -2.445
      -2.562
      -2.658
      -2.732
      -2.789
      -2.837
      -2.882
      -2.928
      -2.976
      -3.031
      -3.096
      -3.167
      -3.233
      -3.286
      -3.329
      -3.373
      -3.424
      -3.481
      -3.538
      -3.594
      -3.654
      -3.722
      -3.792
      -3.846
      -3.872
      -3.872
      -3.859
      -3.850
      -3.846
      -3.846
      -3.851
      -3.862
      -3.881
      -3.901
      -3.911
      -3.909
      -3.900
      -3.898
      -3.915
      -3.948
      -3.989
      -4.033
      -4.084
      -4.156
      -4.245
      -4.336
      -4.413
      -4.470
      -4.513
      -4.546
      -4.570
      -4.583
      -4.583
      -4.571
      -4.551
      -4.520
      -4.470
      -4.396
      -4.302
      -4.199
      -4.093
      -3.983
      -3.865
      -3.743
      -3.629
      -3.537
      -3.470
      -3.418
      -3.366
      -3.312
      -3.262
      -3.221
      -3.189
      -3.167
      -3.157
      -3.164
      -3.188
      -3.221
      -3.249
      -3.266
      -3.273
      -3.277
      -3.281
      -3.283
      -3.280
      -3.276
      -3.280
      -3.296
      -3.315
      -3.317
      -3.295
      -3.256
      -3.212
      -3.170
      -3.131
      -3.094
      -3.059
      -3.029
      -3.003
      -2.973
      -2.930
      -2.870
      -2.800
      -2.728
      -2.661
      -2.596
      -2.529
      -2.460
      -2.391
      -2.326
      -2.262
      -2.189
      -2.100
      -1.995
      -1.882
      -1.767
      -1.650
      -1.530
      -1.408
      -1.291
      -1.181
      -1.069
      -0.941
      -0.789
      -0.617
      -0.440
      -0.269
      -0.109
       0.049
       0.211
       0.379
       0.546
       0.710
       0.869
       1.024
       1.174
       1.320
       1.463
       1.601
       1.728
       1.835
       1.918
       1.978
       2.026
       2.070
       2.112
       2.143
       2.151
       2.133
       2.098
       2.056
       2.010
       1.955
       1.885
       1.801
       1.711
       1.619
       1.527
       1.430
       1.330
       1.232
       1.136
       1.031
       0.905
       0.757
       0.602
       0.456
       0.323
       0.195
       0.064
      -0.070
      -0.198
      -0.317
      -0.430
      -0.547
      -0.672
      -0.799
      -0.912
      -1.005
      -1.078
      -1.135
      -1.179
      -1.212
      -1.238
      -1.263
      -1.288
      -1.307
      -1.312
      -1.299
      -1.268
      -1.227
      -1.184
      -1.136
      -1.080
      -1.014
      -0.946
      -0.887
      -0.837
      -0.790
      -0.733
      -0.662
      -0.582
      -0.500
      -0.421
      -0.345
      -0.276
      -0.219
      -0.182
      -0.162
      -0.146
      -0.125
      -0.094
      -0.061
      -0.034
      -0.018
      -0.010
      -0.006
      -0.009
      -0.027
      -0.066
      -0.119
      -0.167
      -0.200
      -0.220
      -0.238
      -0.260
      -0.289
      -0.325
      -0.371
      -0.429
      -0.492
      -0.550
      -0.590
      -0.611
      -0.627
      -0.653
      -0.695
      -0.743
      -0.785
      -0.818
      -0.848
      -0.877
      -0.900
      -0.908
      -0.896
      -0.866
      -0.826
      -0.779
      -0.726
      -0.667
      -0.605
      -0.543
      -0.474
      -0.391
      -0.288
      -0.172
      -0.051
       0.067
       0.185
       0.309
       0.440
       0.570
       0.689
       0.793
       0.890
       0.995
       1.117
       1.251
       1.383
       1.506
       1.619
       1.722
       1.812
       1.884
       1.941
       1.988
       2.030
       2.070
       2.103
       2.124
       2.130
       2.124
       2.106
       2.073
       2.020
       1.950
       1.877
       1.812
       1.757
       1.707
       1.656
       1.601
       1.543
       1.482
       1.419
       1.350
       1.276
       1.203
       1.141
       1.089
       1.037
       0.972
       0.889
       0.792
       0.691
       0.590
       0.488
       0.379
       0.263
       0.147
       0.041
      -0.055
      -0.145
      -0.234
      -0.323
      -0.412
      -0.501
      -0.588
      -0.669
      -0.737
      -0.786
      -0.813
      -0.823
      -0.827
      -0.833
      -0.842
      -0.852
      -0.862
      -0.876
      -0.897
      -0.925
      -0.951
      -0.969
      -0.979
      -0.978
      -0.970
      -0.957
      -0.946
      -0.943
      -0.945
      -0.942
      -0.923
      -0.886
      -0.838
      -0.788
      -0.737
      -0.680
      -0.605
      -0.515
      -0.419
      -0.334
      -0.265
      -0.202
      -0.130
      -0.040
       0.061
       0.164
       0.262
       0.357
       0.449
       0.530
       0.595
       0.648
       0.702
       0.767
       0.842
       0.917
       0.984
       1.042
       1.098
       1.155
       1.208
       1.246
       1.265
       1.276
       1.292
       1.317
       1.349
       1.385
       1.420
       1.451
       1.474
       1.484
       1.481
       1.470
       1.462
       1.465
       1.479
       1.499
       1.515
       1.529
       1.543
       1.557
       1.564
       1.559
       1.541
       1.519
       1.500
       1.489
       1.481
       1.469
       1.451
       1.434
       1.421
       1.407
       1.385
       1.356
       1.330
       1.321
       1.334
       1.362
       1.396
       1.428
       1.456
       1.483
       1.506
       1.522
       1.534
       1.549
       1.573
       1.601
       1.626
       1.645
       1.661
       1.674
       1.679
       1.670
       1.648
       1.623
       1.610
       1.616
       1.637
       1.658
       1.671
       1.681
       1.700
       1.735
       1.777
       1.811
       1.835
       1.858
       1.892
       1.936
       1.978
       2.009
       2.027
       2.037
       2.041
       2.034
       2.015
       1.988
       1.967
       1.957
       1.952
       1.941
       1.917
       1.889
       1.869
       1.865
       1.871
       1.875
       1.876
       1.881
       1.901
       1.938
       1.985
       2.039
       2.095
       2.153
       2.205
       2.246
       2.272
       2.284
       2.293
       2.309
       2.335
       2.363
       2.385
       2.395
       2.393
       2.381
       2.360
       2.331
       2.296
       2.263
       2.233
       2.207
       2.179
       2.145
       2.106
       2.061
       2.009
       1.947
       1.870
       1.786
