Origin Time       18/01/2011 20:23:27
Lat.              28.9 N	
Long.             64.0 E	
Depth (Km)          5.0
Magnitude         7.4
 Region           Southwestern-Pakistan                                            
 Above details taken from IMD 
    
Station Code       ZAKI
Station Lat.       28.640  N
Station Long.      77.230  E
Station Height(m)  101.0
Site Class        C   Vs30 between 200 m/sec to 375 m/sec *  
Record Time        1/2/1980  17:06:07.000
Sampling Rate     200. Hz
 Record Duration   74.000 Sec.
 Direction         N-S (N positive)
Max. Acceleration -13.083 cm/sec**2
     
  * For reference see Site Classification link of website 
     
 Base Line Corrected and Low Pass Filtered (Cut Off at 35 Hz) Time History
 Acceleration data in cm/sec**2
    
[...]
    1.160
    1.083
    0.926
    0.722
    0.548
    0.493
    0.610
    0.881
    1.225
    1.540
    1.749
    1.829
    1.798
    1.684
    1.508
    1.284
    1.037
    0.793
    0.570
    0.362
    0.172
    0.020
   -0.056
   -0.049
   -0.011
   -0.040
   -0.215
   -0.529
   -0.860
   -1.039
   -0.963
   -0.676
   -0.346
   -0.160
   -0.203
   -0.414
   -0.639
   -0.740
   -0.690
   -0.586
   -0.568
   -0.701
   -0.917
   -1.050
   -0.945
   -0.575
   -0.072
    0.346
    0.508
    0.399
    0.152
   -0.035
   -0.029
    0.170
    0.439
    0.631
    0.669
    0.595
    0.524
    0.556
    0.710
    0.912
    1.050
    1.046
    0.913
    0.735
    0.613
    0.592
    0.641
    0.674
    0.604
    0.411
    0.159
   -0.033
   -0.081
   -0.001
    0.092
    0.055
   -0.194
   -0.615
   -1.057
   -1.340
   -1.359
   -1.142
   -0.824
   -0.550
   -0.389
   -0.296
   -0.160
    0.113
    0.522
    0.958
    1.274
    1.372
    1.269
    1.083
    0.961
    0.981
    1.107
    1.217
    1.200
    1.034
    0.789
    0.559
    0.400
    0.307
    0.243
    0.170
    0.080
   -0.001
   -0.031
    0.023
    0.147
    0.277
    0.323
    0.231
    0.024
   -0.200
   -0.334
   -0.332
   -0.241
   -0.156
   -0.157
   -0.271
   -0.483
   -0.757
   -1.062
   -1.372
   -1.659
   -1.886
   -2.024
   -2.072
   -2.062
   -2.032
   -1.995
   -1.924
   -1.782
   -1.555
   -1.278
   -1.004
   -0.770
   -0.567
   -0.365
   -0.145
    0.072
    0.249
    0.364
    0.436
    0.518
    0.676
    0.947
    1.303
    1.651
    1.873
    1.907
    1.803
    1.692
    1.695
    1.817
    1.938
    1.905
    1.648
    1.239
    0.842
    0.603
    0.577
    0.703
    0.854
    0.910
    0.817
    0.611
    0.388
    0.233
    0.158
    0.084
   -0.103
   -0.464
   -0.949
   -1.409
   -1.685
   -1.705
   -1.536
   -1.335
   -1.255
   -1.358
   -1.589
   -1.818
   -1.922
   -1.848
   -1.642
   -1.416
   -1.267
   -1.209
   -1.170
   -1.057
   -0.834
   -0.555
   -0.306
   -0.134
   -0.021
    0.084
    0.208
    0.329
    0.410
    0.442
    0.455
    0.479
    0.514
    0.532
    0.532
    0.555
    0.649
    0.798
    0.919
    0.926
    0.818
    0.693
    0.675
    0.806
    0.996
    1.083
    0.964
    0.666
    0.328
    0.100
    0.034
    0.060
    0.047
   -0.096
   -0.350
   -0.620
   -0.813
   -0.904
   -0.939
   -0.978
   -1.044
   -1.106
   -1.111
   -1.023
   -0.852
   -0.634
   -0.416
   -0.240
   -0.148
   -0.162
   -0.252
   -0.320
   -0.247
    0.027
    0.452
    0.888
    1.195
    1.331
    1.377
    1.465
    1.660
    1.895
    2.017
    1.906
    1.573
    1.168
    0.874
    0.780
    0.823
    0.839
    0.687
    0.344
   -0.084
   -0.444
   -0.632
   -0.649
   -0.585
   -0.543
   -0.573
   -0.663
   -0.777
   -0.888
   -0.996
   -1.117
   -1.284
   -1.527
   -1.831
   -2.119
   -2.273
   -2.220
   -1.995
   -1.729
   -1.551
   -1.487
   -1.437
   -1.260
   -0.893
   -0.411
    0.031
    0.308
    0.410
    0.444
    0.559
    0.847
    1.282
    1.739
    2.071
    2.204
    2.165
    2.055
    1.972
    1.945
    1.925
    1.827
    1.609
    1.308
    1.016
    0.812
    0.696
    0.599
    0.444
    0.221
    0.007
   -0.094
   -0.037
    0.117
    0.248
    0.265
    0.170
    0.040
   -0.044
   -0.061
   -0.067
   -0.157
   -0.390
   -0.739
   -1.093
   -1.328
   -1.387
   -1.318
   -1.237
   -1.235
   -1.318
   -1.412
   -1.427
   -1.318
   -1.108
   -0.858
   -0.622
   -0.417
   -0.240
   -0.083
    0.051
    0.159
    0.241
    0.317
    0.417
    0.573
    0.795
    1.061
    1.314
    1.496
    1.583
    1.603
    1.593
    1.562
    1.481
    1.323
    1.117
    0.952
    0.907
    0.972
    1.026
    0.921
    0.600
    0.152
   -0.247
   -0.465
   -0.513
   -0.538
   -0.705
   -1.055
   -1.449
   -1.656
   -1.519
   -1.078
   -0.560
   -0.239
   -0.255
   -0.531
   -0.835
   -0.949
   -0.816
   -0.567
   -0.412
   -0.472
   -0.674
   -0.787
   -0.578
    0.004
    0.755
    1.326
    1.457
    1.162
    0.730
    0.521
    0.710
    1.166
    1.557
    1.609
    1.315
    0.931
    0.766
    0.929
    1.249
    1.401
    1.153
    0.526
   -0.220
   -0.760
   -0.904
   -0.696
   -0.360
   -0.149
   -0.191
   -0.438
   -0.721
   -0.887
   -0.896
   -0.835
   -0.836
   -0.974
   -1.216
   -1.443
   -1.535
   -1.444
   -1.227
   -0.993
   -0.842
   -0.801
   -0.834
   -0.882
   -0.904
   -0.887
   -0.828
   -0.721
   -0.562
   -0.377
   -0.231
   -0.187
   -0.245
   -0.315
   -0.272
   -0.065
    0.223
    0.423
    0.413
    0.225
    0.037
    0.031
    0.230
    0.464
    0.495
    0.220
   -0.220
   -0.532
   -0.481
   -0.057
    0.509
    0.911
    0.973
    0.752
    0.461
    0.298
    0.295
    0.316
    0.175
   -0.212
   -0.745
   -1.195
   -1.361
   -1.201
   -0.855
   -0.534
   -0.381
   -0.390
   -0.438
   -0.399
   -0.237
   -0.036
    0.075
    0.025
   -0.143
   -0.315
   -0.388
   -0.347
   -0.254
   -0.191
   -0.189
   -0.219
   -0.231
   -0.213
   -0.203
   -0.249
   -0.350
   -0.458
   -0.523
   -0.543
   -0.561
   -0.600
   -0.605
   -0.452
   -0.063
    0.490
    0.987
    1.202
    1.074
    0.779
    0.610
    0.772
    1.226
    1.714
    1.947
    1.817
    1.470
    1.194
    1.212
    1.522
    1.892
    2.031
    1.796
    1.313
    0.886
    0.774
    0.990
    1.271
    1.274
    0.837
    0.128
   -0.457
   -0.592
   -0.281
    0.129
    0.198
   -0.286
   -1.147
   -1.945
   -2.288
   -2.090
   -1.613
   -1.265
   -1.323
   -1.767
   -2.339
   -2.734
   -2.796
   -2.593
   -2.343
   -2.251
   -2.368
   -2.563
   -2.620
   -2.382
   -1.849
   -1.159
   -0.501
   -0.005
    0.317
    0.549
    0.799
    1.135
    1.552
    1.985
    2.336
    2.514
    2.476
    2.264
    1.995
    1.805
    1.770
    1.845
    1.883
    1.717
    1.278
    0.653
    0.042
   -0.357
   -0.472
   -0.394
   -0.305
   -0.351
   -0.533
   -0.714
   -0.722
   -0.495
   -0.151
    0.078
   -0.004
   -0.417
   -0.976
   -1.415
   -1.563
   -1.458
   -1.303
   -1.305
   -1.516
   -1.807
   -1.974
   -1.912
   -1.690
   -1.493
   -1.475
   -1.645
   -1.875
   -1.994
   -1.897
   -1.612
   -1.268
   -1.014
   -0.921
   -0.950
   -0.992
   -0.940
   -0.761
   -0.495
   -0.221
    0.003
    0.180
    0.354
    0.562
    0.789
    0.970
    1.040
    0.982
    0.841
    0.688
    0.565
    0.467
    0.363
    0.255
    0.190
    0.225
    0.364
    0.547
    0.687
    0.746
    0.765
    0.835
    1.015
    1.272
    1.502
    1.612
    1.598
    1.546
    1.561
    1.680
    1.834
    1.885
    1.719
    1.342
    0.893
    0.547
    0.393
    0.369
    0.316
    0.098
   -0.295
   -0.736
   -1.036
   -1.062
   -0.825
   -0.460
   -0.135
    0.066
    0.186
    0.344
    0.627
    1.006
    1.343
    1.487
    1.392
    1.145
    0.910
    0.814
    0.872
    0.981
    1.004
    0.870
    0.628
    0.408
    0.322
    0.394
    0.560
    0.728
    0.841
    0.893
    0.898
    0.850
    0.718
    0.483
    0.164
   -0.198
   -0.579
   -0.989
   -1.449
   -1.940
   -2.382
   -2.649
   -2.628
   -2.275
   -1.667
   -0.971
   -0.354
    0.105
    0.452
    0.798
    1.219
    1.679
    2.042
    2.163
    2.001
    1.654
    1.303
    1.097
    1.067
    1.121
    1.133
    1.062
    0.992
    1.070
    1.370
    1.805
    2.168
    2.264
    2.041
    1.612
    1.166
    0.846
    0.680
    0.588
    0.461
    0.242
   -0.027
   -0.223
   -0.217
    0.035
    0.451
    0.866
    1.146
    1.259
    1.269
    1.260
    1.277
    1.317
    1.360
    1.389
    1.393
    1.350
    1.222
    0.975
    0.614
    0.192
   -0.219
   -0.570
   -0.877
   -1.195
   -1.568
   -1.963
   -2.273
   -2.377
   -2.231
   -1.910
   -1.578
   -1.382
   -1.362
   -1.431
   -1.429
   -1.243
   -0.888
   -0.499
   -0.228
   -0.124
   -0.088
    0.047
    0.382
    0.861
    1.299
    1.502
    1.407
    1.133
    0.900
    0.877
    1.066
    1.301
    1.382
    1.223
    0.923
    0.690
    0.701
    0.989
    1.437
    1.869
    2.150
    2.250
    2.227
    2.171
    2.144
    2.135
    2.057
    1.804
    1.336
    0.744
    0.213
   -0.117
   -0.269
   -0.417
   -0.736
   -1.244
   -1.786
   -2.160
   -2.292
   -2.290
   -2.347
   -2.566
   -2.884
   -3.148
   -3.256
   -3.229
   -3.157
   -3.098
   -3.024
   -2.851
   -2.527
   -2.079
   -1.595
   -1.143
   -0.717
   -0.253
    0.281
    0.810
    1.182
    1.266
    1.065
    0.733
    0.485
    0.455
    0.608
    0.773
    0.773
    0.559
    0.240
    0.017
    0.037
    0.292
    0.605
    0.751
    0.616
    0.290
    0.001
   -0.053
    0.140
    0.399
    0.477
    0.235
   -0.267
   -0.826
   -1.247
   -1.468
   -1.566
   -1.676
   -1.889
   -2.200
   -2.524
   -2.745
   -2.779
   -2.620
   -2.348
   -2.091
   -1.937
   -1.868
   -1.770
   -1.531
   -1.154
   -0.767
   -0.519
   -0.447
   -0.447
   -0.369
   -0.155
    0.110
    0.271
    0.242
    0.094
   -0.002
    0.082
    0.317
    0.535
    0.566
    0.376
    0.104
   -0.038
    0.072
    0.371
    0.671
    0.816
    0.801
    0.752
    0.793
    0.939
    1.089
    1.139
    1.088
    1.059
    1.195
    1.533
    1.961
    2.294
    2.407
    2.317
    2.150
    2.038
    2.014
    1.982
    1.792
    1.358
    0.748
    0.154
   -0.236
   -0.384
   -0.441
   -0.652
   -1.177
   -1.969
   -2.807
   -3.453
   -3.816
   -3.995
   -4.171
   -4.452
   -4.777
   -4.948
   -4.775
   -4.224
   -3.452
   -2.706
   -2.148
   -1.747
   -1.333
   -0.760
   -0.043
    0.634
    1.074
    1.227
    1.241
    1.361
    1.746
    2.366
    3.032
    3.536
    3.778
    3.804
    3.734
    3.650
    3.558
    3.412
    3.185
    2.902
    2.628
    2.427
    2.306
    2.209
    2.042
    1.723
    1.195
    0.426
   -0.574
   -1.736
   -2.927
   -4.006
   -4.878
   -5.523
   -5.963
   -6.209
   -6.245
   -6.057
   -5.686
   -5.235
   -4.811
   -4.475
   -4.217
   -3.990
   -3.750
   -3.463
   -3.103
   -2.636
   -2.034
   -1.290
   -0.431
    0.485
    1.405
    2.314
    3.242
    4.220
    5.228
    6.168
    6.899
    7.318
    7.424
    7.336
    7.214
    7.154
    7.126
    7.012
    6.698
    6.144
    5.390
    4.506
    3.534
    2.464
    1.262
   -0.064
   -1.418
   -2.639
   -3.592
   -4.243
   -4.676
   -5.025
   -5.377
   -5.713
   -5.955
   -6.058
   -6.082
   -6.148
   -6.334
   -6.591
   -6.769
   -6.723
   -6.405
   -5.887
   -5.292
   -4.713
   -4.162
   -3.591
   -2.954
   -2.247
   -1.513
   -0.818
   -0.221
    0.262
    0.668
    1.063
    1.508
    2.018
    2.567
    3.110
    3.615
    4.088
    4.551
    5.012
    5.436
    5.767
    5.964
    6.034
    6.026
    6.002
    6.003
    6.037
    6.086
    6.123
    6.130
    6.086
    5.952
    5.680
    5.237
    4.621
    3.851
    2.943
    1.904
    0.734
   -0.547
   -1.873
   -3.122
   -4.154
   -4.882
   -5.322
   -5.592
   -5.835
   -6.141
   -6.497
   -6.810
   -6.977
   -6.959
   -6.795
   -6.549
   -6.235
   -5.793
   -5.133
   -4.218
   -3.120
   -2.018
   -1.108
   -0.500
   -0.164
    0.035
    0.239
    0.523
    0.884
    1.283
    1.683
    2.069
    2.429
    2.738
    2.972
    3.125
    3.223
    3.293
    3.343
    3.342
    3.248
    3.036
    2.723
    2.375
    2.085
    1.924
    1.890
    1.902
    1.844
    1.643
    1.313
    0.949
    0.660
    0.486
    0.379
    0.247
    0.036
   -0.228
   -0.462
   -0.598
   -0.633
   -0.617
   -0.591
   -0.536
   -0.376
   -0.053
    0.411
    0.917
    1.366
    1.737
    2.103
    2.557
    3.113
    3.667
    4.047
    4.131
    3.915
    3.498
    2.993
    2.444
    1.831
    1.140
    0.414
   -0.250
   -0.779
   -1.182
   -1.544
   -1.955
   -2.440
   -2.951
   -3.412
   -3.787
   -4.091
   -4.341
   -4.502
   -4.489
   -4.224
   -3.707
   -3.026
   -2.309
   -1.644
   -1.050
   -0.503
    0.017
    0.511
    0.982
    1.448
    1.917
    2.334
    2.583
    2.549
    2.211
    1.669
    1.066
    0.486
   -0.083
   -0.692
   -1.339
   -1.926
   -2.302
   -2.359
   -2.098
   -1.619
   -1.050
   -0.479
    0.072
    0.626
    1.203
    1.793
    2.341
    2.773
    3.048
    3.167
    3.160
    3.038
    2.782
    2.357
    1.755
    1.029
    0.290
   -0.328
   -0.745
   -0.973
   -1.101
   -1.225
   -1.379
   -1.516
   -1.554
   -1.431
   -1.137
   -0.701
   -0.158
    0.456
    1.091
    1.667
    2.095
    2.310
    2.285
    2.029
    1.590
    1.059
    0.535
    0.078
   -0.333
   -0.783
   -1.365
   -2.119
   -3.006
   -3.914
   -4.707
   -5.289
   -5.648
   -5.849
   -5.979
   -6.081
   -6.130
   -6.074
   -5.901
   -5.654
   -5.380
   -5.062
   -4.618
   -3.975
   -3.142
   -2.207
   -1.273
   -0.384
    0.486
    1.384
    2.322
    3.256
    4.127
    4.896
    5.567
    6.167
    6.701
    7.124
    7.336
    7.240
    6.817
    6.156
    5.409
    4.709
    4.128
    3.682
    3.353
    3.087
    2.783
    2.311
    1.576
    0.569
   -0.630
   -1.893
   -3.116
   -4.256
   -5.326
   -6.342
   -7.261
   -7.966
   -8.325
   -8.284
   -7.946
   -7.528
   -7.224
   -7.075
   -6.959
   -6.715
   -6.283
   -5.730
   -5.163
   -4.621
   -4.050
   -3.359
   -2.516
   -1.567
   -0.590
    0.382
    1.381
    2.469
    3.672
    4.963
    6.279
    7.556
    8.735
    9.750
   10.516
   10.947
   10.990
   10.668
   10.083
    9.364
    8.591
    7.762
    6.811
    5.671
    4.329
    2.845
    1.336
   -0.085
   -1.375
   -2.597
   -3.866
   -5.249
   -6.688
   -8.020
   -9.101
   -9.932
  -10.661
  -11.449
  -12.293
  -12.960
  -13.083
  -12.375
  -10.824
   -8.739
   -6.599
   -4.796
   -3.441
   -2.366
   -1.297
   -0.094
    1.143
    2.134
    2.625
    2.560
    2.143
    1.719
    1.577
    1.797
    2.243
    2.696
    3.034
    3.313
    3.672
    4.157
    4.614
    4.784
    4.514
    3.901
    3.241
    2.811
    2.669
    2.622
    2.389
    1.823
    1.017
    0.218
   -0.386
   -0.815
   -1.279
   -2.002
   -3.025
   -4.150
   -5.082
   -5.661
   -5.970
   -6.224
   -6.553
   -6.863
   -6.898
   -6.413
   -5.335
   -3.809
   -2.121
   -0.563
    0.694
    1.640
    2.380
    3.042
    3.698
    4.365
    5.059
    5.836
    6.743
    7.732
    8.620
    9.175
    9.260
    8.905
    8.250
    7.423
    6.481
    5.448
    4.394
    3.474
    2.876
    2.712
    2.935
    3.359
    3.762
    4.018
    4.137
    4.207
    4.263
    4.229
    3.977
    3.443
    2.701
    1.905
    1.180
    0.566
    0.047
   -0.373
   -0.661
   -0.795
   -0.821
   -0.848
   -0.987
   -1.277
   -1.670
   -2.083
   -2.470
   -2.852
   -3.284
   -3.796
   -4.348
   -4.836
   -5.146
   -5.219
   -5.070
   -4.769
   -4.402
   -4.041
   -3.714
   -3.393
   -3.005
   -2.471
   -1.752
   -0.852
    0.186
    1.308
    2.467
    3.610
    4.675
    5.585
    6.276
    6.734
    7.013
    7.200
    7.354
    7.482
    7.559
    7.574
    7.555
    7.544
    7.546
    7.507
    7.330
    6.953
    6.410
    5.825
    5.340
    5.020
    4.825
    4.642
    4.363
    3.945
    3.410
    2.794
    2.103
    1.339
    0.548
   -0.183
   -0.789
   -1.305
   -1.853
   -2.552
   -3.423
   -4.353
   -5.182
   -5.815
   -6.301
   -6.782
   -7.352
   -7.934
   -8.301
   -8.228
   -7.665
   -6.772
   -5.804
   -4.928
   -4.138
   -3.319
   -2.380
   -1.342
   -0.288
    0.745
    1.790
    2.879
    3.950
    4.847
    5.425
    5.655
    5.638
    5.499
    5.271
    4.871
    4.205
    3.318
    2.465
    2.010
    2.200
    2.998
    4.093
    5.102
    5.799
    6.194
    6.437
    6.632
    6.733
    6.583
    6.036
    5.078
    3.849
    2.570
    1.438
    0.538
   -0.170
   -0.808
   -1.504
   -2.325
   -3.258
   -4.221
   -5.092
   -5.757
   -6.162
   -6.361
   -6.509
   -6.754
   -7.136
   -7.550
   -7.833
   -7.868
   -7.631
   -7.153
   -6.476
   -5.637
   -4.685
   -3.698
   -2.752
   -1.893
   -1.112
   -0.365
    0.413
    1.294
    2.347
    3.594
    4.948
    6.199
    7.100
    7.497
    7.392
    6.918
    6.220
    5.368
    4.333
    3.052
    1.532
   -0.104
   -1.658
   -2.975
   -4.021
   -4.870
   -5.615
   -6.293
   -6.883
   -7.371
   -7.791
   -8.192
   -8.562
   -8.804
   -8.793
   -8.482
   -7.949
   -7.339
   -6.758
   -6.214
   -5.654
   -5.038
   -4.382
   -3.727
   -3.081
   -2.393
   -1.603
   -0.729
    0.093
    0.656
    0.820
    0.633
    0.338
    0.249
    0.558
    1.225
    2.017
    2.672
    3.054
    3.181
    3.134
    2.954
    2.627
    2.177
    1.734
    1.501
    1.616
    2.028
    2.499
    2.749
    2.628
    2.202
    1.662
    1.136
    0.583
   -0.145
   -1.117
   -2.204
   -3.140
   -3.721
   -3.958
   -4.069
   -4.302
   -4.749
   -5.296
   -5.729
   -5.895
   -5.777
   -5.449
   -4.978
   -4.366
   -3.589
   -2.664
   -1.683
   -0.772
   -0.010
    0.625
    1.231
    1.895
    2.624
    3.349
    3.980
    4.467
    4.808
    5.023
    5.119
    5.086
    4.907
    4.573
    4.082
    3.421
    2.564
    1.489
    0.205
   -1.225
   -2.690
   -4.077
   -5.330
   -6.487
   -7.638
   -8.804
   -9.840
  -10.472
  -10.449
   -9.726
   -8.512
   -7.153
   -5.936
   -4.952
   -4.121
   -3.317
   -2.482
   -1.650
   -0.887
   -0.226
    0.351
    0.895
    1.434
    1.937
    2.316
    2.485
    2.436
    2.276
    2.203
    2.422
    3.064
    4.130
    5.476
    6.853
    7.974
    8.607
    8.655
    8.182
    7.380
    6.476
    5.645
    4.963
    4.403
    3.877
    3.293
    2.609
    1.854
    1.079
    0.283
   -0.616
   -1.710
   -2.987
   -4.300
   -5.452
   -6.332
   -6.980
   -7.531
   -8.086
   -8.633
   -9.065
   -9.267
   -9.189
   -8.859
   -8.334
   -7.651
   -6.804
   -5.769
   -4.540
   -3.149
   -1.667
   -0.186
    1.199
    2.382
    3.262
    3.767
    3.919
    3.847
    3.756
    3.825
    4.107
    4.509
    4.871
    5.078
    5.131
    5.134
    5.219
    5.446
    5.758
    6.006
    6.039
    5.788
    5.283
    4.602
    3.807
    2.919
    1.965
    1.019
    0.212
   -0.339
   -0.598
   -0.633
   -0.549
   -0.428
   -0.309
   -0.229
   -0.259
   -0.490
   -0.993
   -1.773
   -2.760
   -3.826
   -4.831
   -5.639
   -6.126
   -6.176
   -5.713
   -4.757
   -3.459
   -2.082
   -0.908
   -0.123
    0.251
    0.348
    0.380
    0.563
    1.067
    1.985
    3.302
    4.883
    6.507
    7.942
    9.021
    9.664
    9.837
    9.511
    8.646
    7.242
    5.413
    3.423
    1.628
    0.349
   -0.254
   -0.239
    0.158
    0.643
    0.991
    1.111
    1.035
    0.854
    0.656
    0.484
    0.324
    0.121
   -0.159
   -0.479
   -0.729
   -0.799
   -0.684
   -0.516
   -0.510
   -0.815
   -1.405
   -2.074
   -2.568
   -2.752
   -2.678
   -2.514
   -2.391
   -2.298
   -2.090
   -1.583
   -0.682
    0.557
    1.953
    3.284
    4.374
    5.141
    5.604
    5.837
    5.900
    5.765
    5.313
    4.415
    3.068
    1.471
   -0.018
   -1.058
   -1.518
   -1.548
   -1.450
   -1.435
   -1.479
   -1.376
   -0.954
   -0.242
    0.524
    1.049
    1.152
    0.840
    0.264
   -0.397
   -1.008
   -1.496
   -1.840
   -2.076
   -2.290
   -2.578
   -2.970
   -3.399
   -3.719
   -3.777
   -3.492
   -2.910
   -2.205
   -1.590
   -1.182
   -0.908
   -0.511
    0.313
    1.710
    3.532
    5.363
    6.725
    7.330
    7.210
    6.650
    5.985
    5.411
    4.926
    4.410
    3.759
    2.979
    2.166
    1.414
    0.760
    0.188
