Origin Time       16/4/2013 10:44:11	
Lat.              28.0 N	
Long.             62.1 E	
Depth (Km)         46.0
Magnitude         7.8
 Region           Iran-Pakistan-Border-Region                                      
 Above details taken from IMD 
    
Station Code       ALIP
Station Lat.       28.795  N
Station Long.      77.141  E
Station Height(m)   98.0
Site Class        C   Vs30 between 200 m/sec to 375 m/sec *  
Record Time        4/16/2013 6) 10:48:57.
Sampling Rate     200. Hz
 Record Duration  107.000 Sec.
 Direction         N-S (N positive)
Max. Acceleration   2.597 cm/sec**2
     
  * For reference see Site Classification link of website 
     
 Base Line Corrected and Low Pass Filtered (Cut Off at 35 Hz) Time History
 Acceleration data in cm/sec**2
    
[...]
    0.271
    0.201
    0.111
    0.019
   -0.063
   -0.131
   -0.194
   -0.260
   -0.326
   -0.380
   -0.405
   -0.393
   -0.354
   -0.304
   -0.257
   -0.218
   -0.180
   -0.137
   -0.088
   -0.036
    0.010
    0.042
    0.059
    0.063
    0.053
    0.028
   -0.015
   -0.069
   -0.124
   -0.165
   -0.181
   -0.173
   -0.154
   -0.137
   -0.127
   -0.119
   -0.107
   -0.090
   -0.074
   -0.067
   -0.066
   -0.062
   -0.045
   -0.020
   -0.005
   -0.016
   -0.059
   -0.124
   -0.195
   -0.255
   -0.297
   -0.320
   -0.327
   -0.324
   -0.317
   -0.317
   -0.334
   -0.366
   -0.402
   -0.425
   -0.428
   -0.421
   -0.423
   -0.444
   -0.480
   -0.515
   -0.538
   -0.546
   -0.542
   -0.526
   -0.489
   -0.423
   -0.333
   -0.236
   -0.158
   -0.114
   -0.099
   -0.090
   -0.066
   -0.019
    0.046
    0.110
    0.159
    0.181
    0.172
    0.132
    0.070
    0.000
   -0.058
   -0.094
   -0.113
   -0.125
   -0.135
   -0.138
   -0.124
   -0.088
   -0.035
    0.021
    0.071
    0.111
    0.138
    0.152
    0.151
    0.139
    0.121
    0.102
    0.085
    0.071
    0.058
    0.045
    0.035
    0.037
    0.056
    0.088
    0.118
    0.134
    0.142
    0.157
    0.190
    0.228
    0.248
    0.234
    0.195
    0.153
    0.121
    0.098
    0.077
    0.069
    0.087
    0.132
    0.182
    0.214
    0.222
    0.224
    0.240
    0.280
    0.330
    0.371
    0.385
    0.370
    0.343
    0.327
    0.335
    0.355
    0.364
    0.347
    0.310
    0.275
    0.257
    0.260
    0.279
    0.316
    0.366
    0.419
    0.451
    0.447
    0.412
    0.369
    0.353
    0.378
    0.432
    0.478
    0.485
    0.450
    0.397
    0.354
    0.327
    0.302
    0.261
    0.201
    0.141
    0.104
    0.099
    0.117
    0.143
    0.162
    0.166
    0.149
    0.104
    0.031
   -0.059
   -0.141
   -0.191
   -0.203
   -0.193
   -0.186
   -0.199
   -0.224
   -0.245
   -0.251
   -0.245
   -0.238
   -0.233
   -0.234
   -0.247
   -0.275
   -0.304
   -0.305
   -0.249
   -0.138
   -0.008
    0.086
    0.102
    0.037
   -0.074
   -0.184
   -0.256
   -0.287
   -0.296
   -0.304
   -0.322
   -0.350
   -0.390
   -0.440
   -0.492
   -0.524
   -0.521
   -0.485
   -0.440
   -0.407
   -0.397
   -0.398
   -0.387
   -0.344
   -0.269
   -0.178
   -0.096
   -0.040
   -0.015
   -0.011
   -0.021
   -0.040
   -0.074
   -0.124
   -0.183
   -0.230
   -0.247
   -0.234
   -0.209
   -0.195
   -0.206
   -0.235
   -0.257
   -0.245
   -0.188
   -0.100
   -0.008
    0.065
    0.112
    0.143
    0.167
    0.192
    0.217
    0.239
    0.253
    0.257
    0.250
    0.233
    0.208
    0.178
    0.149
    0.130
    0.120
    0.111
    0.086
    0.038
   -0.031
   -0.107
   -0.172
   -0.212
   -0.226
   -0.223
   -0.215
   -0.215
   -0.229
   -0.249
   -0.257
   -0.239
   -0.192
   -0.135
   -0.087
   -0.055
   -0.033
   -0.008
    0.025
    0.057
    0.076
    0.073
    0.050
    0.021
    0.003
    0.004
    0.021
    0.041
    0.056
    0.066
    0.072
    0.076
    0.078
    0.079
    0.083
    0.094
    0.111
    0.128
    0.138
    0.133
    0.115
    0.095
    0.086
    0.098
    0.126
    0.157
    0.176
    0.179
    0.175
    0.173
    0.173
    0.163
    0.139
    0.103
    0.066
    0.031
   -0.002
   -0.031
   -0.055
   -0.065
   -0.060
   -0.042
   -0.027
   -0.027
   -0.040
   -0.052
   -0.043
   -0.007
    0.042
    0.081
    0.097
    0.091
    0.084
    0.096
    0.132
    0.184
    0.238
    0.287
    0.332
    0.377
    0.417
    0.440
    0.442
    0.426
    0.398
    0.360
    0.314
    0.267
    0.232
    0.216
    0.219
    0.229
    0.234
    0.229
    0.216
    0.199
    0.182
    0.170
    0.172
    0.198
    0.248
    0.313
    0.375
    0.423
    0.452
    0.471
    0.491
    0.516
    0.540
    0.556
    0.562
    0.567
    0.579
    0.598
    0.612
    0.607
    0.580
    0.538
    0.495
    0.459
    0.436
    0.428
    0.431
    0.438
    0.437
    0.427
    0.414
    0.406
    0.403
    0.396
    0.373
    0.320
    0.235
    0.131
    0.034
   -0.029
   -0.049
   -0.038
   -0.022
   -0.028
   -0.064
   -0.125
   -0.196
   -0.263
   -0.310
   -0.320
   -0.287
   -0.225
   -0.177
   -0.182
   -0.253
   -0.356
   -0.440
   -0.472
   -0.460
   -0.445
   -0.466
   -0.526
   -0.597
   -0.641
   -0.645
   -0.622
   -0.590
   -0.558
   -0.516
   -0.458
   -0.389
   -0.324
   -0.280
   -0.260
   -0.260
   -0.268
   -0.279
   -0.292
   -0.308
   -0.318
   -0.313
   -0.291
   -0.264
   -0.249
   -0.255
   -0.275
   -0.294
   -0.298
   -0.280
   -0.248
   -0.218
   -0.198
   -0.186
   -0.171
   -0.147
   -0.114
   -0.073
   -0.028
    0.018
    0.060
    0.089
    0.091
    0.059
    0.002
   -0.058
   -0.097
   -0.106
   -0.093
   -0.076
   -0.067
   -0.073
   -0.090
   -0.112
   -0.134
   -0.153
   -0.172
   -0.201
   -0.247
   -0.319
   -0.410
   -0.507
   -0.587
   -0.632
   -0.634
   -0.598
   -0.535
   -0.456
   -0.370
   -0.277
   -0.186
   -0.107
   -0.046
    0.005
    0.066
    0.148
    0.236
    0.299
    0.316
    0.299
    0.275
    0.261
    0.251
    0.225
    0.176
    0.119
    0.081
    0.074
    0.088
    0.099
    0.108
    0.145
    0.247
    0.400
    0.540
    0.606
    0.592
    0.548
    0.522
    0.515
    0.496
    0.447
    0.389
    0.362
    0.377
    0.402
    0.392
    0.336
    0.262
    0.207
    0.179
    0.151
    0.093
    0.010
   -0.063
   -0.093
   -0.089
   -0.087
   -0.121
   -0.185
   -0.248
   -0.294
   -0.339
   -0.412
   -0.511
   -0.595
   -0.612
   -0.561
   -0.499
   -0.489
   -0.533
   -0.575
   -0.559
   -0.484
   -0.400
   -0.350
   -0.333
   -0.313
   -0.265
   -0.198
   -0.141
   -0.107
   -0.084
   -0.054
   -0.012
    0.028
    0.058
    0.086
    0.130
    0.196
    0.274
    0.343
    0.397
    0.440
    0.479
    0.509
    0.523
    0.522
    0.521
    0.535
    0.561
    0.581
    0.576
    0.546
    0.503
    0.463
    0.438
    0.428
    0.433
    0.446
    0.462
    0.482
    0.508
    0.542
    0.576
    0.598
    0.600
    0.579
    0.536
    0.475
    0.404
    0.329
    0.255
    0.182
    0.112
    0.051
    0.005
   -0.024
   -0.036
   -0.029
    0.000
    0.050
    0.111
    0.172
    0.219
    0.247
    0.260
    0.269
    0.277
    0.278
    0.257
    0.207
    0.131
    0.043
   -0.041
   -0.105
   -0.139
   -0.140
   -0.120
   -0.091
   -0.067
   -0.053
   -0.052
   -0.064
   -0.083
   -0.108
   -0.143
   -0.191
   -0.252
   -0.319
   -0.387
   -0.453
   -0.519
   -0.587
   -0.661
   -0.751
   -0.856
   -0.970
   -1.083
   -1.182
   -1.257
   -1.294
   -1.283
   -1.225
   -1.139
   -1.050
   -0.977
   -0.924
   -0.881
   -0.835
   -0.784
   -0.734
   -0.694
   -0.665
   -0.650
   -0.651
   -0.673
   -0.711
   -0.750
   -0.773
   -0.772
   -0.749
   -0.707
   -0.648
   -0.574
   -0.487
   -0.393
   -0.295
   -0.198
   -0.108
   -0.035
    0.008
    0.016
   -0.004
   -0.039
   -0.078
   -0.119
   -0.170
   -0.231
   -0.288
   -0.321
   -0.321
   -0.299
   -0.270
   -0.242
   -0.213
   -0.184
   -0.167
   -0.181
   -0.229
   -0.293
   -0.340
   -0.358
   -0.357
   -0.360
   -0.380
   -0.409
   -0.429
   -0.431
   -0.423
   -0.417
   -0.420
   -0.432
   -0.447
   -0.461
   -0.469
   -0.469
   -0.468
   -0.473
   -0.490
   -0.515
   -0.537
   -0.541
   -0.513
   -0.451
   -0.361
   -0.257
   -0.152
   -0.055
    0.033
    0.117
    0.208
    0.314
    0.426
    0.526
    0.596
    0.629
    0.633
    0.618
    0.588
    0.543
    0.490
    0.433
    0.373
    0.306
    0.226
    0.133
    0.041
   -0.024
   -0.046
   -0.031
   -0.004
    0.015
    0.022
    0.031
    0.053
    0.081
    0.098
    0.089
    0.057
    0.016
   -0.016
   -0.037
   -0.055
   -0.079
   -0.105
   -0.128
   -0.149
   -0.177
   -0.213
   -0.241
   -0.238
   -0.186
   -0.093
    0.013
    0.102
    0.165
    0.214
    0.270
    0.345
    0.433
    0.516
    0.581
    0.624
    0.655
    0.685
    0.720
    0.757
    0.788
    0.811
    0.836
    0.874
    0.930
    0.995
    1.057
    1.115
    1.171
    1.222
    1.264
    1.295
    1.317
    1.331
    1.342
    1.352
    1.357
    1.354
    1.338
    1.315
    1.301
    1.303
    1.315
    1.313
    1.276
    1.195
    1.084
    0.965
    0.851
    0.749
    0.665
    0.613
    0.597
    0.599
    0.583
    0.527
    0.445
    0.378
    0.360
    0.394
    0.452
    0.499
    0.511
    0.477
    0.397
    0.276
    0.124
   -0.031
   -0.164
   -0.256
   -0.312
   -0.348
   -0.374
   -0.391
   -0.395
   -0.388
   -0.383
   -0.396
   -0.434
   -0.491
   -0.551
   -0.598
   -0.621
   -0.625
   -0.626
   -0.647
   -0.701
   -0.784
   -0.878
   -0.959
   -1.005
   -1.008
   -0.968
   -0.892
   -0.792
   -0.677
   -0.557
   -0.441
   -0.341
   -0.270
   -0.235
   -0.231
   -0.244
   -0.252
   -0.244
   -0.217
   -0.181
   -0.143
   -0.104
   -0.059
   -0.005
    0.051
    0.090
    0.094
    0.062
    0.009
   -0.047
   -0.099
   -0.150
   -0.198
   -0.224
   -0.208
   -0.142
   -0.041
    0.068
    0.158
    0.219
    0.253
    0.270
    0.270
    0.246
    0.191
    0.113
    0.030
   -0.040
   -0.093
   -0.138
   -0.185
   -0.241
   -0.309
   -0.387
   -0.470
   -0.543
   -0.594
   -0.609
   -0.582
   -0.512
   -0.407
   -0.283
   -0.161
   -0.062
   -0.004
    0.008
   -0.022
   -0.081
   -0.149
   -0.208
   -0.246
   -0.266
   -0.273
   -0.275
   -0.266
   -0.240
   -0.194
   -0.136
   -0.080
   -0.031
    0.008
    0.036
    0.063
    0.099
    0.152
    0.216
    0.272
    0.307
    0.314
    0.301
    0.279
    0.252
    0.217
    0.168
    0.101
    0.014
   -0.088
   -0.196
   -0.291
   -0.353
   -0.373
   -0.362
   -0.336
   -0.302
   -0.251
   -0.168
   -0.048
    0.102
    0.267
    0.431
    0.579
    0.701
    0.798
    0.881
    0.964
    1.054
    1.149
    1.246
    1.339
    1.424
    1.492
    1.536
    1.545
    1.514
    1.444
    1.343
    1.222
    1.095
    0.973
    0.868
    0.791
    0.744
    0.729
    0.739
    0.764
    0.790
    0.799
    0.784
    0.748
    0.697
    0.639
    0.574
    0.503
    0.429
    0.354
    0.270
    0.167
    0.034
   -0.125
   -0.295
   -0.453
   -0.589
   -0.705
   -0.808
   -0.886
   -0.916
   -0.887
   -0.822
   -0.759
   -0.718
   -0.689
   -0.653
   -0.613
   -0.593
   -0.601
   -0.611
   -0.586
   -0.512
   -0.416
   -0.337
   -0.292
   -0.262
   -0.228
   -0.192
   -0.177
   -0.195
   -0.227
   -0.241
   -0.219
   -0.179
   -0.152
   -0.163
   -0.208
   -0.272
   -0.340
   -0.408
   -0.465
   -0.496
   -0.497
   -0.485
   -0.494
   -0.544
   -0.610
   -0.642
   -0.612
   -0.538
   -0.463
   -0.418
   -0.409
   -0.432
   -0.492
   -0.587
   -0.696
   -0.785
   -0.831
   -0.833
   -0.812
   -0.789
   -0.776
   -0.765
   -0.736
   -0.687
   -0.641
   -0.636
   -0.684
   -0.762
   -0.829
   -0.855
   -0.834
   -0.767
   -0.663
   -0.536
   -0.410
   -0.316
   -0.276
   -0.290
   -0.339
   -0.392
   -0.428
   -0.438
   -0.422
   -0.382
   -0.328
   -0.273
   -0.234
   -0.217
   -0.220
   -0.238
   -0.264
   -0.290
   -0.305
   -0.298
   -0.264
   -0.206
   -0.132
   -0.054
    0.020
    0.086
    0.146
    0.196
    0.231
    0.253
    0.274
    0.306
    0.348
    0.393
    0.438
    0.488
    0.548
    0.608
    0.660
    0.699
    0.728
    0.759
    0.799
    0.849
    0.899
    0.941
    0.974
    1.002
    1.024
    1.029
    1.004
    0.949
    0.879
    0.811
    0.754
    0.703
    0.651
    0.597
    0.546
    0.503
    0.464
    0.419
    0.360
    0.285
    0.199
    0.109
    0.026
   -0.032
   -0.045
   -0.003
    0.088
    0.200
    0.296
    0.351
    0.354
    0.313
    0.250
    0.188
    0.146
    0.131
    0.138
    0.154
    0.164
    0.161
    0.151
    0.137
    0.119
    0.095
    0.065
    0.035
    0.005
   -0.021
   -0.039
   -0.044
   -0.033
   -0.011
    0.011
    0.024
    0.018
   -0.008
   -0.051
   -0.111
   -0.191
   -0.304
   -0.456
   -0.641
   -0.831
   -0.991
   -1.095
   -1.134
   -1.121
   -1.081
   -1.037
   -0.997
   -0.958
   -0.910
   -0.847
   -0.774
   -0.702
   -0.641
   -0.599
   -0.576
   -0.573
   -0.586
   -0.607
   -0.627
   -0.634
   -0.611
   -0.551
   -0.462
   -0.375
   -0.320
   -0.305
   -0.314
   -0.319
   -0.298
   -0.241
   -0.152
   -0.049
    0.045
    0.106
    0.120
    0.092
    0.045
    0.007
   -0.007
   -0.004
   -0.004
   -0.025
   -0.072
   -0.143
   -0.235
   -0.337
   -0.429
   -0.478
   -0.467
   -0.408
   -0.340
   -0.299
   -0.297
   -0.319
   -0.340
   -0.354
   -0.378
   -0.430
   -0.515
   -0.612
   -0.689
   -0.721
   -0.708
   -0.671
   -0.641
   -0.635
   -0.649
   -0.666
   -0.673
   -0.669
   -0.665
   -0.666
   -0.670
   -0.672
   -0.667
   -0.655
   -0.641
   -0.637
   -0.646
   -0.669
   -0.706
   -0.758
   -0.823
   -0.895
   -0.960
   -1.009
   -1.038
   -1.041
   -1.013
   -0.955
   -0.882
   -0.812
   -0.762
   -0.729
   -0.697
   -0.649
   -0.570
   -0.458
   -0.311
   -0.132
    0.077
    0.303
    0.523
    0.711
    0.848
    0.924
    0.948
    0.935
    0.905
    0.874
    0.846
    0.816
    0.778
    0.732
    0.675
    0.606
    0.521
    0.428
    0.343
    0.293
    0.300
    0.370
    0.490
    0.640
    0.799
    0.956
    1.100
    1.219
    1.302
    1.343
    1.350
    1.330
    1.285
    1.215
    1.124
    1.027
    0.946
    0.897
    0.878
    0.872
    0.858
    0.826
    0.782
    0.743
    0.724
    0.732
    0.769
    0.836
    0.936
    1.075
    1.246
    1.438
    1.635
    1.828
    2.015
    2.195
    2.358
    2.490
    2.573
    2.597
    2.559
    2.466
    2.338
    2.201
    2.080
    1.988
    1.921
    1.863
    1.792
    1.695
    1.572
    1.434
    1.292
    1.152
    1.007
    0.851
    0.687
    0.532
    0.404
    0.310
    0.239
    0.165
    0.066
   -0.069
   -0.239
   -0.425
   -0.608
   -0.775
   -0.922
   -1.045
   -1.137
   -1.189
   -1.192
   -1.143
   -1.043
   -0.907
   -0.764
   -0.645
   -0.571
   -0.542
   -0.548
   -0.579
   -0.627
   -0.688
   -0.751
   -0.813
   -0.872
   -0.934
   -1.003
   -1.081
   -1.165
   -1.248
   -1.329
   -1.402
   -1.456
   -1.476
   -1.452
   -1.383
   -1.272
   -1.129
   -0.971
   -0.818
   -0.688
   -0.585
   -0.496
   -0.406
   -0.302
   -0.185
   -0.062
    0.055
    0.163
    0.263
    0.355
    0.437
    0.504
    0.554
    0.585
    0.593
    0.575
    0.536
    0.488
    0.442
    0.397
    0.353
    0.308
    0.270
    0.241
    0.223
    0.215
    0.212
    0.208
    0.197
    0.179
    0.161
    0.148
    0.140
    0.132
    0.110
    0.056
   -0.040
   -0.169
   -0.306
   -0.425
   -0.511
   -0.561
   -0.582
   -0.580
   -0.560
   -0.523
   -0.477
   -0.431
   -0.401
   -0.398
   -0.427
   -0.475
   -0.521
   -0.544
   -0.530
   -0.482
   -0.419
   -0.357
   -0.305
   -0.266
   -0.238
   -0.221
   -0.218
   -0.233
   -0.263
   -0.298
   -0.319
   -0.309
   -0.259
   -0.178
   -0.085
   -0.004
    0.047
    0.064
    0.050
    0.009
   -0.051
   -0.126
   -0.204
   -0.273
   -0.322
   -0.346
   -0.345
   -0.318
   -0.265
   -0.181
   -0.073
    0.038
    0.123
    0.160
    0.146
    0.100
    0.051
    0.023
    0.028
    0.070
    0.136
    0.209
    0.267
    0.300
    0.314
    0.326
    0.348
    0.380
    0.409
    0.424
    0.425
    0.424
    0.440
    0.490
    0.582
    0.713
    0.869
    1.030
    1.169
    1.264
    1.302
    1.287
    1.232
    1.155
    1.067
    0.971
    0.860
    0.730
    0.581
    0.419
    0.258
    0.108
   -0.027
   -0.154
   -0.282
   -0.419
   -0.567
   -0.721
   -0.876
   -1.019
   -1.131
   -1.186
   -1.168
   -1.081
   -0.950
   -0.817
   -0.716
   -0.660
   -0.636
   -0.624
   -0.612
   -0.596
   -0.580
   -0.568
   -0.568
   -0.586
   -0.621
   -0.654
   -0.663
   -0.632
   -0.563
   -0.471
   -0.373
   -0.275
   -0.173
   -0.052
    0.094
    0.259
    0.425
    0.568
    0.668
    0.715
    0.717
    0.691
    0.656
    0.623
    0.598
    0.580
    0.563
    0.536
    0.490
    0.423
    0.347
    0.277
    0.226
    0.202
    0.210
    0.246
    0.302
    0.358
    0.393
    0.394
    0.361
    0.309
    0.254
    0.204
    0.153
    0.091
    0.006
   -0.106
   -0.239
   -0.375
   -0.489
   -0.561
   -0.592
   -0.603
   -0.624
   -0.673
   -0.743
   -0.811
   -0.855
   -0.863
   -0.840
   -0.796
   -0.745
   -0.692
   -0.640
   -0.588
   -0.537
   -0.499
   -0.486
   -0.509
   -0.567
   -0.648
   -0.739
   -0.838
   -0.954
   -1.094
   -1.252
   -1.410
   -1.547
   -1.647
   -1.707
   -1.722
   -1.687
   -1.603
   -1.478
   -1.333
   -1.182
   -1.031
   -0.876
   -0.711
   -0.537
   -0.357
   -0.174
    0.007
    0.175
    0.318
    0.427
    0.501
    0.545
    0.566
    0.568
    0.553
    0.524
    0.486
    0.447
    0.414
    0.397
    0.404
    0.438
    0.502
    0.596
    0.719
    0.866
    1.018
    1.142
    1.209
    1.210
    1.167
    1.114
    1.078
    1.063
    1.053
    1.036
    1.015
    1.002
    1.006
    1.024
    1.043
    1.054
    1.054
    1.046
    1.029
    0.989
    0.904
    0.761
    0.576
    0.390
    0.246
    0.169
    0.151
    0.166
    0.181
    0.174
    0.141
    0.085
    0.012
   -0.076
   -0.165
   -0.239
   -0.280
   -0.287
   -0.274
   -0.262
   -0.264
   -0.284
   -0.320
   -0.369
   -0.427
   -0.489
   -0.551
   -0.610
   -0.671
   -0.747
   -0.853
   -0.991
   -1.146
   -1.295
   -1.421
   -1.515
   -1.572
   -1.588
   -1.565
   -1.509
   -1.430
   -1.340
   -1.244
   -1.140
   -1.022
   -0.887
   -0.745
   -0.609
   -0.488
   -0.375
   -0.260
   -0.133
    0.007
    0.153
    0.299
    0.441
    0.577
    0.702
    0.808
    0.887
    0.941
    0.982
    1.020
    1.050
    1.057
    1.024
    0.944
    0.822
    0.672
    0.507
    0.342
    0.183
    0.029
   -0.122
   -0.274
   -0.421
   -0.554
   -0.662
   -0.743
   -0.802
   -0.852
   -0.899
   -0.939
   -0.962
   -0.960
   -0.935
   -0.897
   -0.857
   -0.819
   -0.774
   -0.707
   -0.612
   -0.493
   -0.369
   -0.254
   -0.153
   -0.058
    0.038
    0.138
    0.238
    0.325
    0.392
    0.436
    0.466
    0.492
    0.517
    0.539
    0.553
    0.566
    0.586
    0.621
    0.665
    0.703
    0.708
    0.657
    0.543
    0.376
    0.185
    0.006
   -0.129
   -0.205
   -0.225
   -0.211
   -0.180
   -0.142
   -0.098
   -0.053
   -0.021
   -0.014
   -0.029
   -0.050
   -0.054
   -0.026
    0.038
    0.130
    0.237
    0.343
    0.427
    0.470
    0.462
    0.402
    0.301
    0.182
    0.068
   -0.019
   -0.066
   -0.070
   -0.043
   -0.001
    0.041
    0.078
    0.110
    0.140
    0.171
    0.209
    0.254
    0.308
    0.367
    0.430
    0.496
    0.566
    0.639
    0.707
    0.756
    0.763
    0.710
    0.590
    0.419
    0.229
    0.054
   -0.076
   -0.151
   -0.178
   -0.183
   -0.191
   -0.209
   -0.227
   -0.228
   -0.206
   -0.171
   -0.141
   -0.126
   -0.125
   -0.129
   -0.124
   -0.109
   -0.089
   -0.077
   -0.080
   -0.105
   -0.160
   -0.247
   -0.360
   -0.482
   -0.589
   -0.658
   -0.670
   -0.625
   -0.539
   -0.436
   -0.339
   -0.252
   -0.168
   -0.073
    0.044
    0.189
    0.352
    0.507
    0.623
    0.674
    0.648
    0.545
    0.382
    0.185
   -0.020
   -0.213
   -0.371
   -0.474
   -0.507
   -0.472
   -0.384
   -0.258
   -0.107
    0.057
    0.222
    0.377
    0.516
    0.634
    0.730
    0.802
    0.854
    0.890
