Origin Time       25/11/2007 23:12:20
Lat.              28.6 N 
Long.             77.0 E 
Depth (Km)         20.3
Magnitude         4.3
 Region           DELHI-HARYANA-BORDER-REGION                                      
 Above details taken from IMD 
    
Station Code       JAFR
Station Lat.       28.594  N
Station Long.      76.908  E
Station Height(m)  164.0
Site Class        C   Vs30 between 200 m/sec to 375 m/sec *  
Record Time        11/25/200 29) 23:12:16
Sampling Rate     100. Hz
 Record Duration   38.000 Sec.
 Direction         N-S (N positive)
Max. Acceleration  52.528 cm/sec**2
     
  * For reference see Site Classification link of website 
     
 Base Line Corrected and Low Pass Filtered (Cut Off at 35 Hz) Time History
 Acceleration data in cm/sec**2
    
[...]
   -0.001
    0.011
    0.017
    0.003
   -0.011
   -0.006
    0.006
    0.013
    0.005
   -0.009
   -0.005
    0.012
    0.026
    0.021
    0.001
   -0.015
   -0.014
    0.002
    0.019
    0.025
    0.008
   -0.019
   -0.027
   -0.014
    0.009
    0.016
    0.000
   -0.006
    0.007
    0.011
    0.002
   -0.011
   -0.011
    0.002
    0.010
    0.014
    0.010
   -0.004
   -0.014
   -0.014
   -0.006
    0.004
    0.010
    0.014
    0.018
    0.019
    0.011
   -0.003
   -0.017
   -0.014
    0.003
    0.011
    0.007
   -0.003
   -0.005
    0.005
    0.000
   -0.004
   -0.002
   -0.002
    0.009
    0.010
   -0.003
   -0.007
    0.001
    0.003
    0.006
    0.005
   -0.007
   -0.006
    0.005
    0.007
    0.001
   -0.006
   -0.006
   -0.001
    0.003
    0.014
    0.017
    0.010
    0.006
    0.004
    0.004
    0.004
   -0.002
   -0.007
   -0.007
    0.004
    0.009
   -0.002
   -0.005
   -0.004
   -0.008
    0.006
    0.014
    0.002
   -0.002
    0.003
   -0.001
   -0.002
    0.003
    0.001
   -0.005
   -0.005
    0.004
    0.012
    0.006
   -0.005
   -0.007
   -0.002
    0.000
    0.001
    0.002
   -0.001
    0.002
    0.004
   -0.003
   -0.005
    0.002
    0.011
    0.012
    0.005
    0.000
   -0.001
   -0.001
   -0.002
    0.001
    0.000
    0.003
    0.007
   -0.003
    0.000
    0.009
   -0.002
   -0.004
    0.006
    0.002
   -0.009
   -0.008
   -0.002
   -0.001
    0.003
    0.002
    0.001
    0.012
    0.009
   -0.007
   -0.005
   -0.002
   -0.007
   -0.004
    0.003
    0.000
   -0.003
    0.001
    0.001
   -0.002
   -0.002
   -0.005
    0.000
    0.008
    0.006
    0.003
    0.002
    0.002
    0.000
   -0.001
    0.002
    0.001
   -0.001
    0.001
    0.001
   -0.002
    0.001
   -0.003
   -0.009
   -0.003
    0.000
   -0.002
    0.002
    0.000
   -0.008
   -0.008
   -0.001
    0.000
   -0.002
   -0.001
    0.004
    0.005
    0.002
    0.001
   -0.001
    0.000
    0.002
    0.004
    0.010
    0.007
   -0.001
   -0.003
    0.000
    0.002
    0.001
   -0.005
   -0.008
   -0.005
    0.003
    0.005
   -0.002
   -0.005
   -0.005
   -0.005
    0.000
    0.005
    0.004
   -0.001
   -0.003
    0.002
    0.002
   -0.002
    0.000
    0.008
    0.007
   -0.001
   -0.002
   -0.001
   -0.001
    0.002
    0.003
   -0.003
   -0.007
   -0.002
    0.008
    0.011
   -0.001
   -0.012
   -0.005
    0.005
    0.005
    0.004
    0.000
   -0.003
   -0.003
   -0.003
    0.002
   -0.001
   -0.006
    0.005
    0.008
    0.000
   -0.001
   -0.005
   -0.006
   -0.001
   -0.005
   -0.007
   -0.003
   -0.002
   -0.002
   -0.001
   -0.005
   -0.006
   -0.005
   -0.002
    0.003
    0.003
    0.002
    0.002
   -0.001
    0.000
    0.000
   -0.001
    0.000
   -0.001
   -0.003
    0.004
    0.009
    0.000
   -0.002
    0.003
   -0.004
   -0.005
    0.002
    0.000
    0.003
    0.006
   -0.001
   -0.002
    0.000
   -0.003
   -0.003
    0.001
    0.004
   -0.001
   -0.005
   -0.001
   -0.004
   -0.004
    0.005
    0.002
    0.000
    0.004
    0.001
   -0.002
   -0.005
   -0.007
   -0.001
    0.002
    0.004
    0.008
    0.006
    0.002
    0.003
    0.006
    0.000
   -0.005
    0.001
    0.003
    0.006
    0.009
   -0.001
   -0.005
   -0.004
   -0.006
   -0.001
    0.000
    0.000
    0.006
    0.002
    0.001
    0.005
    0.003
    0.002
    0.001
   -0.004
   -0.002
   -0.001
   -0.008
   -0.008
    0.001
    0.002
   -0.006
   -0.002
    0.002
   -0.007
   -0.009
    0.002
    0.008
    0.004
   -0.007
   -0.013
   -0.003
    0.004
    0.004
    0.005
   -0.002
   -0.006
   -0.003
   -0.005
   -0.003
    0.002
    0.000
    0.004
    0.018
    0.013
   -0.005
   -0.011
   -0.009
   -0.007
    0.003
    0.011
    0.004
   -0.004
   -0.002
    0.007
    0.002
   -0.017
   -0.019
   -0.002
    0.009
    0.012
    0.011
    0.000
   -0.006
   -0.002
   -0.001
    0.007
    0.010
   -0.005
   -0.009
   -0.004
   -0.005
   -0.006
   -0.003
    0.001
    0.004
    0.005
    0.007
    0.001
   -0.008
   -0.010
   -0.003
    0.004
    0.012
    0.011
   -0.001
   -0.003
    0.003
    0.004
    0.004
   -0.003
   -0.007
   -0.003
   -0.002
   -0.002
    0.007
    0.010
   -0.004
   -0.011
    0.001
    0.006
   -0.002
   -0.005
   -0.003
    0.001
    0.001
   -0.001
   -0.002
   -0.006
   -0.007
   -0.002
    0.008
    0.016
    0.010
   -0.008
   -0.021
   -0.011
    0.008
    0.012
    0.005
    0.000
   -0.003
   -0.004
   -0.005
   -0.012
   -0.010
    0.005
    0.013
    0.017
    0.012
   -0.005
   -0.012
   -0.007
    0.006
    0.015
    0.008
   -0.005
   -0.010
   -0.003
    0.011
    0.014
    0.004
   -0.002
    0.001
    0.000
   -0.005
   -0.008
   -0.004
    0.002
    0.004
    0.004
    0.004
   -0.006
   -0.011
    0.002
    0.014
    0.013
    0.002
   -0.011
   -0.017
   -0.009
    0.012
    0.022
    0.014
    0.001
   -0.008
   -0.005
   -0.003
   -0.004
    0.003
    0.004
   -0.005
   -0.010
   -0.007
   -0.002
    0.000
    0.000
    0.000
    0.006
    0.009
    0.001
   -0.003
   -0.003
   -0.004
   -0.004
    0.002
    0.010
    0.007
   -0.003
   -0.003
   -0.001
   -0.005
   -0.002
    0.003
   -0.003
   -0.007
    0.001
    0.007
    0.004
    0.002
    0.001
    0.003
    0.002
   -0.004
   -0.003
   -0.006
   -0.011
    0.002
    0.008
    0.004
    0.002
   -0.006
   -0.009
   -0.001
    0.002
    0.001
    0.001
   -0.002
   -0.005
    0.000
    0.001
   -0.001
    0.003
    0.002
   -0.003
   -0.004
   -0.005
   -0.004
    0.000
   -0.001
    0.000
    0.006
    0.003
    0.001
    0.005
   -0.003
   -0.008
   -0.004
    0.000
    0.002
   -0.004
   -0.006
    0.002
    0.004
   -0.005
   -0.001
    0.010
    0.007
    0.000
   -0.005
   -0.010
   -0.003
    0.004
    0.001
    0.003
    0.004
   -0.002
    0.000
    0.003
   -0.001
   -0.008
   -0.008
    0.000
    0.004
    0.001
   -0.005
   -0.008
   -0.003
   -0.001
   -0.001
    0.005
    0.008
    0.002
   -0.010
   -0.017
   -0.012
   -0.001
    0.005
    0.005
    0.006
    0.000
   -0.012
   -0.011
   -0.002
    0.004
    0.008
    0.004
   -0.004
   -0.005
   -0.007
   -0.006
    0.001
    0.005
    0.006
    0.003
   -0.007
   -0.009
    0.003
    0.010
   -0.001
   -0.014
   -0.010
   -0.002
    0.005
    0.008
    0.005
   -0.002
   -0.005
   -0.003
   -0.003
   -0.006
    0.002
    0.011
    0.008
    0.004
    0.002
   -0.005
   -0.005
   -0.003
   -0.003
    0.007
    0.018
    0.008
   -0.007
   -0.007
   -0.004
   -0.005
   -0.005
    0.002
    0.011
    0.011
    0.006
   -0.001
   -0.007
   -0.009
   -0.001
    0.012
    0.008
   -0.009
   -0.007
    0.009
    0.002
   -0.010
   -0.004
    0.000
   -0.003
   -0.002
    0.004
    0.011
    0.005
   -0.009
   -0.014
   -0.009
    0.000
    0.009
    0.000
   -0.007
    0.002
    0.009
    0.008
    0.004
    0.001
   -0.005
   -0.007
    0.004
    0.016
    0.005
   -0.003
    0.007
    0.003
   -0.015
   -0.015
    0.000
    0.006
    0.007
    0.009
    0.001
   -0.007
   -0.006
    0.000
    0.005
    0.007
    0.009
    0.010
    0.002
   -0.012
   -0.014
   -0.005
    0.004
    0.007
    0.010
    0.009
    0.001
   -0.002
   -0.001
   -0.006
   -0.007
   -0.008
   -0.006
    0.011
    0.020
    0.011
   -0.002
   -0.013
   -0.016
   -0.006
    0.007
    0.008
    0.001
    0.003
    0.003
   -0.010
   -0.009
    0.008
    0.003
   -0.011
   -0.006
   -0.001
   -0.001
    0.003
    0.005
    0.003
   -0.001
   -0.005
   -0.002
    0.000
   -0.004
   -0.004
    0.002
    0.005
    0.003
   -0.004
   -0.004
   -0.001
    0.000
    0.002
    0.001
   -0.002
    0.001
   -0.002
   -0.018
   -0.022
    0.002
    0.016
    0.009
    0.006
   -0.001
   -0.009
   -0.001
    0.001
   -0.004
    0.006
    0.007
   -0.011
   -0.014
    0.001
    0.004
   -0.003
   -0.006
   -0.003
   -0.002
   -0.006
   -0.011
   -0.002
    0.013
    0.011
   -0.005
   -0.007
    0.005
   -0.001
   -0.014
   -0.005
    0.008
    0.007
    0.001
    0.001
   -0.004
   -0.017
   -0.018
   -0.001
    0.015
    0.007
   -0.009
   -0.009
    0.003
    0.004
   -0.006
   -0.009
    0.003
    0.014
    0.013
    0.003
   -0.007
   -0.010
   -0.010
   -0.001
    0.008
    0.002
    0.001
    0.008
    0.003
   -0.004
   -0.005
   -0.010
   -0.009
   -0.003
   -0.003
   -0.002
   -0.010
   -0.013
    0.007
    0.010
   -0.009
   -0.010
    0.000
   -0.001
   -0.008
   -0.005
    0.002
    0.002
    0.001
    0.005
    0.003
   -0.005
   -0.012
   -0.011
   -0.004
    0.007
    0.013
   -0.001
   -0.015
   -0.005
    0.001
   -0.007
   -0.007
    0.003
    0.008
    0.002
   -0.005
   -0.004
   -0.002
   -0.008
   -0.006
   -0.001
   -0.006
   -0.005
    0.001
    0.002
   -0.001
    0.000
    0.002
   -0.007
   -0.012
    0.006
    0.013
    0.003
   -0.002
   -0.005
   -0.006
   -0.002
   -0.006
   -0.010
   -0.001
    0.005
   -0.005
   -0.011
   -0.001
    0.006
   -0.001
   -0.006
   -0.003
    0.005
    0.005
   -0.004
   -0.003
    0.004
    0.003
   -0.003
    0.003
    0.009
    0.004
    0.003
    0.008
    0.004
   -0.033
   -0.035
    0.014
    0.083
    0.070
   -0.070
    0.056
    0.273
    0.207
   -0.199
   -0.355
    0.505
    0.420
   -0.982
   -0.963
    0.731
    1.093
   -1.460
   -1.525
    1.667
    1.538
   -1.047
   -2.088
    1.153
    3.988
   -1.394
   -4.427
    1.293
    3.143
   -0.440
   -2.084
   -0.060
    2.204
   -0.737
   -1.615
    2.633
    1.124
   -2.598
   -2.472
    0.135
    3.784
    1.487
   -2.239
   -0.531
    0.674
    1.656
    1.660
   -1.134
   -0.410
    0.288
   -2.599
   -3.514
   -1.241
    2.988
    1.920
   -3.142
   -1.158
    0.948
   -0.089
    1.570
    2.110
    0.579
   -2.109
   -3.248
   -0.241
    2.215
    2.487
    0.759
   -2.097
   -1.446
    1.992
    4.271
    3.262
   -2.070
   -4.924
   -1.785
   -0.299
    0.551
    3.624
    1.419
   -3.961
   -3.125
    1.347
    2.501
    0.557
    1.078
    2.340
   -2.528
   -5.454
   -1.266
    1.476
    2.172
    1.693
   -0.200
   -1.047
   -1.218
    1.360
    3.748
   -1.179
   -5.765
   -1.147
    3.759
    2.526
    0.549
   -0.207
   -1.323
   -0.944
    1.419
   -0.403
   -3.757
    0.128
    3.602
    1.637
    0.560
   -1.101
   -2.669
   -0.864
    1.305
    1.746
   -0.533
   -1.876
    0.380
    2.302
    1.527
   -2.189
   -2.402
    0.527
   -2.148
   -3.054
    1.075
    2.442
    2.861
    2.937
    1.594
   -0.281
   -2.700
   -1.882
    0.721
    1.379
    0.300
   -3.353
   -3.544
    3.124
    5.938
    0.258
   -3.653
   -0.412
    1.537
   -1.629
   -3.248
   -0.318
    2.640
    1.288
   -1.706
   -2.655
   -0.086
    3.755
    1.392
   -2.440
   -0.883
   -0.721
   -0.953
    1.167
    1.539
    1.328
   -0.466
   -2.182
    0.896
    3.187
    1.724
    0.177
   -0.396
    0.011
   -1.510
   -3.749
   -0.584
    2.832
    0.065
   -3.427
   -2.654
    2.363
    5.670
    1.263
   -2.891
   -2.157
   -1.942
   -0.772
    0.594
    0.798
    1.801
    0.469
   -0.781
    0.862
    3.046
    3.353
   -1.646
   -4.443
   -0.322
    1.347
   -1.012
   -3.422
   -1.524
    2.754
   -0.122
   -1.365
    4.541
    2.809
   -2.255
    1.219
    2.477
   -2.776
   -3.086
    0.649
    0.729
   -2.052
   -1.537
    2.656
    2.341
   -0.015
    0.111
   -1.326
   -0.472
    2.364
    0.333
   -1.617
   -1.061
   -2.220
   -0.232
    2.905
   -0.478
   -4.276
   -3.774
    1.218
    6.097
    2.099
   -2.520
   -0.095
    1.899
    1.319
    0.127
   -1.030
   -1.707
   -2.406
   -0.882
    0.915
    0.969
    2.298
    1.317
   -1.271
    0.446
    0.589
   -3.029
   -1.206
    3.437
    0.576
   -2.759
    0.949
    1.485
   -1.557
    0.998
    2.723
    0.122
    0.492
    0.279
   -3.190
   -2.971
   -0.061
    1.049
    1.328
    0.450
   -2.731
   -4.372
   -0.841
    2.508
    1.304
    0.875
    2.463
    0.628
   -3.044
   -2.208
    1.054
    1.893
    2.431
    1.828
   -0.275
   -0.040
   -1.781
   -3.189
    2.025
    3.504
   -0.113
    0.857
    1.372
   -0.978
   -0.248
    1.317
    0.504
   -2.176
   -4.487
   -3.023
   -0.144
    0.605
    0.143
   -0.686
   -0.344
    0.461
   -2.273
   -1.842
    5.350
    3.974
   -2.728
    1.522
    6.130
    0.180
   -6.319
   -3.358
    3.410
    3.552
    0.004
   -2.618
   -3.617
   -1.170
    2.245
    3.942
    0.964
   -3.973
   -2.798
   -1.008
   -1.180
    2.562
    3.234
   -1.806
   -3.313
    1.323
    4.567
    0.531
   -1.096
    3.502
    1.030
   -4.112
   -0.696
    1.535
   -1.575
    0.357
    5.760
    1.326
   -7.479
   -2.380
    6.558
    0.768
   -6.879
   -3.368
    0.143
   -0.947
    0.103
    0.722
   -1.515
   -0.077
    4.316
    4.018
    1.104
   -0.933
   -2.165
   -0.203
    0.756
   -1.192
   -0.490
    1.537
    1.623
    0.448
   -0.587
   -0.994
   -0.610
    1.165
    0.182
   -4.051
   -1.074
    6.084
    2.526
   -2.188
    3.506
    2.297
   -7.027
   -4.111
    3.592
    2.038
   -1.458
   -2.799
   -3.332
   -0.629
    2.697
    1.758
    1.975
    3.100
   -4.296
   -8.146
   -0.494
    2.930
    2.468
    3.097
   -0.648
   -1.539
    1.169
   -1.062
   -0.428
    3.530
    2.061
   -0.145
    0.885
    3.414
    3.201
   -1.470
   -6.518
   -8.570
   -2.756
    4.505
    1.070
   -2.099
    5.097
    6.650
   -4.117
  -11.021
  -10.812
   -9.490
    0.259
   10.744
    9.811
   12.317
   16.141
    4.074
  -11.198
  -14.749
  -14.468
  -17.857
  -23.096
  -30.056
  -35.888
  -29.623
   -1.996
   33.368
   51.248
   52.528
   45.808
   35.964
   31.973
   23.630
    6.191
   -1.573
   -3.207
  -15.552
  -27.003
  -27.315
  -28.861
  -32.679
  -25.999
  -14.060
  -11.658
   -4.288
   18.962
   34.024
   36.467
   31.731
   14.070
   -1.951
  -12.429
  -21.487
  -23.098
  -26.417
  -27.365
  -10.460
   12.363
   20.716
   16.860
   15.063
   12.771
    9.192
   11.554
   11.462
    8.142
    1.206
  -16.843
  -30.618
  -30.833
  -22.510
  -10.756
   -8.934
   -8.636
    1.192
    5.639
    6.899
   12.308
   13.118
   15.134
   19.752
   11.755
    0.944
    6.611
   12.019
    1.766
   -5.005
   -4.567
  -11.373
  -16.415
  -12.161
   -7.008
   -3.949
   -4.464
   -5.577
   -2.449
    1.242
    6.684
   11.432
    4.148
   -3.672
    2.897
    6.072
    2.749
   11.102
   15.725
    4.484
   -5.916
   -7.549
   -2.398
   -4.269
  -13.104
   -6.559
    4.831
    5.036
    4.588
    0.993
   -4.807
   -2.971
   -2.940
   -5.194
   -2.580
    0.168
    0.549
   -2.063
   -0.752
    5.259
    5.574
    8.417
   17.431
   16.112
    7.171
    6.200
    4.610
   -6.287
  -11.490
   -8.778
  -12.539
  -21.644
  -26.113
  -23.763
  -16.357
   -4.182
    9.402
   17.381
   18.008
   14.021
    8.909
    4.778
   -0.092
   -4.269
   -2.503
    1.611
   -1.656
   -7.548
   -4.687
    0.443
    1.255
    6.208
   13.028
   13.718
   12.900
    8.856
   -2.054
  -11.546
  -16.479
  -19.002
  -18.862
  -17.078
  -11.870
   -0.929
   12.396
   19.643
   14.811
    5.137
   -1.109
   -1.264
    8.666
   19.427
   18.225
    9.420
    1.252
   -4.503
   -7.908
   -5.064
    1.502
   -1.173
  -11.539
  -15.151
  -13.222
  -12.893
  -12.380
  -15.067
  -15.098
   -0.938
   12.193
   13.001
   11.601
   13.061
   19.406
   25.687
   20.535
    5.880
   -4.626
   -2.037
    2.557
   -2.832
   -9.547
  -14.899
  -20.851
  -16.944
   -6.213
   -1.253
   -0.029
    2.153
    1.209
   -4.380
   -3.183
    6.392
    7.227
    0.817
    2.228
    5.770
    3.139
    0.450
    0.496
    1.521
    0.465
   -3.588
   -1.147
    4.378
    0.339
   -3.166
    3.224
    8.832
    4.124
   -7.312
  -13.834
  -12.953
   -9.988
   -6.230
   -3.139
    1.108
    6.182
    6.707
    8.143
   14.352
   15.885
    9.879
    3.679
    0.738
    0.644
    2.447
    2.457
   -0.828
   -3.172
   -0.366
    5.210
    3.668
   -5.964
  -11.391
  -13.546
  -15.770
   -7.374
    1.874
   -3.794
   -8.519
   -2.040
    2.705
    3.560
    6.579
    9.663
    9.319
    5.731
    4.449
    6.260
    2.720
   -3.057
   -1.787
   -0.232
   -5.236
   -6.828
   -1.987
   -1.008
   -2.416
   -3.088
   -6.175
   -6.411
   -2.305
    0.241
    1.424
    3.361
    4.158
    4.054
    2.327
   -2.635
   -1.563
    5.314
    4.405
    1.250
    4.987
    6.830
    2.399
   -0.801
   -1.075
   -4.882
   -9.941
   -9.650
   -8.699
   -8.050
   -2.933
    2.824
    8.116
   11.126
    6.354
    1.454
    0.765
   -1.587
   -1.559
    3.335
    5.586
    2.409
   -1.372
   -0.083
    1.543
   -2.760
   -4.059
   -2.412
   -7.885
  -11.033
   -4.528
    1.955
    5.677
   10.590
   12.269
    6.160
    1.446
    1.950
   -1.629
   -5.037
   -1.573
    0.380
   -0.652
   -0.006
    0.561
    0.820
   -0.001
   -4.647
   -9.223
   -8.307
   -5.094
   -3.180
   -0.087
    3.547
    4.148
    2.020
    1.106
    1.383
   -2.094
   -6.510
   -4.956
   -1.151
   -1.606
   -2.521
    0.874
    5.461
    8.356
    9.315
    8.676
    7.405
    3.742
   -1.635
   -2.240
    0.572
   -1.820
   -4.867
   -1.234
    0.243
   -5.345
   -8.560
   -2.919
    3.448
    0.557
   -3.367
   -1.802
   -1.706
   -0.421
    3.523
    1.508
   -3.363
   -2.876
    1.569
    3.667
    1.833
    1.265
   -0.261
   -3.736
   -1.704
    0.488
   -0.553
    2.465
    6.882
    9.050
    7.776
    3.167
    1.779
    2.589
   -0.286
   -5.215
   -7.121
   -4.799
   -2.835
   -2.894
   -1.180
    2.596
    2.545
   -1.960
   -2.433
    1.072
   -0.086
   -3.008
   -0.805
    0.147
   -2.742
   -2.813
   -2.221
   -1.766
    1.794
    3.581
    1.492
    0.200
    0.579
    0.713
    1.122
    1.310
    1.450
    3.263
    4.438
    4.108
    3.490
    2.305
    1.261
   -0.731
   -4.104
   -6.501
   -6.534
   -4.570
   -1.984
    0.700
    0.796
   -1.945
   -2.545
   -1.646
   -1.063
    1.047
    4.387
    5.630
    2.322
   -0.505
    1.128
    1.645
   -0.614
   -0.996
   -1.409
   -2.974
   -0.841
    1.697
    1.232
    3.685
    6.323
    1.435
   -3.469
   -0.851
    0.734
   -2.701
   -2.934
   -0.526
   -1.277
   -1.006
    0.892
   -0.687
   -2.755
   -1.238
    1.654
    1.379
   -0.396
    0.379
   -0.750
   -3.138
   -0.852
    3.283
    6.120
    6.313
    4.139
    2.391
   -0.328
   -3.905
   -5.612
   -5.178
   -3.716
   -3.160
   -2.221
    2.121
    7.874
    9.461
    6.157
    2.671
    0.346
   -1.166
   -1.668
   -2.856
   -3.866
   -3.501
   -3.360
   -3.256
   -2.772
   -3.574
   -5.495
   -4.850
    0.461
    4.660
    1.590
   -2.907
   -2.230
   -0.780
   -1.160
   -0.350
    0.298
   -2.057
   -3.645
   -0.329
    3.973
    5.568
    5.734
    5.440
    6.165
    7.523
    5.359
    2.157
    3.009
    1.029
   -6.687
   -9.648
   -4.967
   -1.248
   -3.722
   -5.686
   -2.032
    0.679
    0.785
    2.181
    2.781
    1.576
    1.009
    0.664
   -0.465
   -0.502
    1.802
    0.818
   -4.160
   -2.953
    0.949
   -0.278
    0.855
    3.493
    2.143
    2.500
    3.125
    0.461
   -0.552
    0.375
    0.369
   -1.740
   -4.589
   -4.264
   -2.004
   -1.508
   -2.419
   -1.212
    2.613
    4.035
    3.325
    3.929
    5.313
    6.017
    2.255
   -4.130
   -6.834
   -4.914
   -1.936
   -2.564
   -2.988
   -2.263
   -4.327
   -2.572
    3.457
    6.237
    4.085
    1.222
    2.999
    4.714
    2.269
   -0.218
   -1.329
   -1.385
