Origin Time       24/2/2010 19:20:52	
Lat.              28.6 N	
Long.             76.9 E	
Depth (Km)         17.0
Magnitude         2.5
 Region           Rohtak                                                           
 Above details taken from IMD 
    
Station Code       JAMI
Station Lat.       28.559  N
Station Long.      77.279  E
Station Height(m)  153.0
Site Class        C   Vs30 between 200 m/sec to 375 m/sec *  
Record Time        2/24/2010 ) 19:20:12.0
Sampling Rate     200. Hz
 Record Duration  101.000 Sec.
 Direction         N-S (N positive)
Max. Acceleration   6.472 cm/sec**2
     
  * For reference see Site Classification link of website 
     
 Base Line Corrected and Low Pass Filtered (Cut Off at 35 Hz) Time History
 Acceleration data in cm/sec**2
    
[...]
    0.010
   -0.019
   -0.051
   -0.052
   -0.012
    0.039
    0.064
    0.054
    0.032
    0.022
    0.021
    0.009
   -0.020
   -0.051
   -0.065
   -0.056
   -0.042
   -0.036
   -0.033
   -0.018
    0.010
    0.035
    0.037
    0.021
    0.005
    0.002
    0.007
    0.006
   -0.007
   -0.023
   -0.026
   -0.006
    0.027
    0.052
    0.052
    0.033
    0.011
   -0.001
   -0.001
    0.006
    0.013
    0.019
    0.022
    0.019
    0.005
   -0.017
   -0.033
   -0.026
    0.000
    0.023
    0.024
    0.003
   -0.021
   -0.033
   -0.034
   -0.029
   -0.023
   -0.017
   -0.013
   -0.014
   -0.021
   -0.023
   -0.014
    0.007
    0.024
    0.020
   -0.002
   -0.025
   -0.030
   -0.021
   -0.013
   -0.007
    0.006
    0.034
    0.064
    0.075
    0.059
    0.027
    0.002
   -0.007
   -0.011
   -0.021
   -0.037
   -0.044
   -0.034
   -0.015
    0.001
    0.013
    0.027
    0.039
    0.040
    0.024
   -0.001
   -0.022
   -0.032
   -0.030
   -0.020
   -0.001
    0.018
    0.028
    0.025
    0.013
   -0.001
   -0.013
   -0.019
   -0.015
   -0.001
    0.020
    0.035
    0.033
    0.017
    0.002
    0.002
    0.009
    0.008
   -0.009
   -0.034
   -0.052
   -0.060
   -0.062
   -0.062
   -0.055
   -0.037
   -0.009
    0.020
    0.035
    0.034
    0.023
    0.013
    0.008
    0.008
    0.009
    0.009
    0.004
   -0.007
   -0.020
   -0.022
   -0.006
    0.020
    0.037
    0.029
   -0.001
   -0.034
   -0.047
   -0.035
   -0.014
    0.001
    0.009
    0.021
    0.040
    0.051
    0.045
    0.029
    0.019
    0.021
    0.023
    0.010
   -0.009
   -0.018
   -0.007
    0.007
    0.009
   -0.001
   -0.007
   -0.001
    0.007
   -0.001
   -0.017
   -0.019
    0.008
    0.046
    0.062
    0.047
    0.016
   -0.010
   -0.028
   -0.048
   -0.074
   -0.093
   -0.089
   -0.058
   -0.010
    0.041
    0.083
    0.103
    0.098
    0.073
    0.043
    0.013
   -0.021
   -0.063
   -0.096
   -0.096
   -0.057
   -0.002
    0.036
    0.051
    0.054
    0.053
    0.037
   -0.003
   -0.049
   -0.071
   -0.060
   -0.036
   -0.026
   -0.028
   -0.017
    0.020
    0.059
    0.068
    0.045
    0.014
   -0.002
   -0.014
   -0.039
   -0.069
   -0.076
   -0.042
    0.013
    0.053
    0.061
    0.050
    0.045
    0.051
    0.048
    0.021
   -0.017
   -0.042
   -0.039
   -0.014
    0.014
    0.038
    0.060
    0.075
    0.079
    0.065
    0.034
   -0.011
   -0.057
   -0.082
   -0.071
   -0.033
    0.006
    0.027
    0.033
    0.035
    0.033
    0.014
   -0.028
   -0.073
   -0.093
   -0.077
   -0.048
   -0.032
   -0.026
   -0.004
    0.045
    0.093
    0.099
    0.060
    0.008
   -0.022
   -0.028
   -0.033
   -0.048
   -0.058
   -0.044
   -0.004
    0.037
    0.055
    0.046
    0.023
    0.003
   -0.011
   -0.024
   -0.035
   -0.038
   -0.026
   -0.001
    0.027
    0.044
    0.044
    0.030
    0.015
    0.010
    0.010
    0.004
   -0.009
   -0.016
   -0.007
    0.009
    0.014
    0.003
   -0.012
   -0.013
    0.001
    0.006
   -0.014
   -0.044
   -0.053
   -0.032
   -0.003
    0.010
    0.008
    0.011
    0.021
    0.024
    0.010
   -0.007
   -0.007
    0.011
    0.026
    0.021
    0.002
   -0.017
   -0.025
   -0.029
   -0.036
   -0.042
   -0.036
   -0.017
    0.007
    0.025
    0.039
    0.052
    0.057
    0.045
    0.025
    0.013
    0.015
    0.015
   -0.002
   -0.031
   -0.048
   -0.039
   -0.013
    0.008
    0.018
    0.025
    0.039
    0.050
    0.038
    0.000
   -0.040
   -0.054
   -0.039
   -0.016
   -0.002
    0.004
    0.014
    0.029
    0.036
    0.025
   -0.002
   -0.032
   -0.049
   -0.046
   -0.028
   -0.008
   -0.001
   -0.004
   -0.005
    0.009
    0.035
    0.054
    0.047
    0.022
    0.001
   -0.003
   -0.001
   -0.012
   -0.030
   -0.030
    0.000
    0.043
    0.062
    0.048
    0.018
   -0.004
   -0.017
   -0.033
   -0.052
   -0.056
   -0.035
    0.002
    0.026
    0.020
   -0.002
   -0.013
   -0.002
    0.013
    0.011
   -0.012
   -0.038
   -0.050
   -0.045
   -0.033
   -0.019
   -0.001
    0.024
    0.049
    0.061
    0.046
    0.012
   -0.016
   -0.017
    0.007
    0.033
    0.043
    0.032
    0.014
    0.002
    0.000
    0.003
    0.008
    0.016
    0.025
    0.027
    0.015
   -0.004
   -0.012
   -0.007
   -0.005
   -0.024
   -0.053
   -0.062
   -0.037
    0.001
    0.025
    0.027
    0.025
    0.033
    0.039
    0.025
   -0.012
   -0.047
   -0.052
   -0.025
    0.012
    0.038
    0.046
    0.044
    0.037
    0.027
    0.011
   -0.014
   -0.041
   -0.056
   -0.048
   -0.023
   -0.002
   -0.005
   -0.022
   -0.027
   -0.003
    0.030
    0.036
    0.005
   -0.036
   -0.054
   -0.049
   -0.052
   -0.076
   -0.087
   -0.044
    0.043
    0.108
    0.099
    0.042
    0.011
    0.040
    0.079
    0.062
   -0.015
   -0.086
   -0.097
   -0.061
   -0.027
   -0.020
   -0.010
    0.035
    0.101
    0.138
    0.113
    0.041
   -0.028
   -0.055
   -0.039
   -0.010
    0.005
    0.000
   -0.007
    0.007
    0.035
    0.047
    0.017
   -0.035
   -0.057
   -0.030
    0.009
    0.000
   -0.059
   -0.107
   -0.087
   -0.018
    0.024
    0.002
   -0.039
   -0.025
    0.048
    0.108
    0.090
    0.017
   -0.033
   -0.016
    0.028
    0.034
   -0.010
   -0.057
   -0.056
   -0.008
    0.042
    0.057
    0.036
    0.007
   -0.005
    0.002
    0.003
   -0.021
   -0.066
   -0.097
   -0.087
   -0.043
   -0.011
   -0.023
   -0.056
   -0.054
    0.003
    0.065
    0.072
    0.023
   -0.021
   -0.011
    0.030
    0.048
    0.030
    0.011
    0.025
    0.058
    0.069
    0.046
    0.019
    0.017
    0.034
    0.036
    0.006
   -0.039
   -0.067
   -0.067
   -0.046
   -0.017
    0.013
    0.032
    0.032
    0.018
    0.005
   -0.007
   -0.033
   -0.080
   -0.120
   -0.118
   -0.070
   -0.009
    0.026
    0.039
    0.054
    0.081
    0.093
    0.058
   -0.013
   -0.073
   -0.090
   -0.072
   -0.052
   -0.034
    0.005
    0.076
    0.144
    0.163
    0.119
    0.044
   -0.021
   -0.065
   -0.095
   -0.113
   -0.107
   -0.066
    0.002
    0.071
    0.113
    0.117
    0.090
    0.046
   -0.005
   -0.055
   -0.105
   -0.153
   -0.188
   -0.187
   -0.130
   -0.029
    0.070
    0.124
    0.129
    0.117
    0.109
    0.092
    0.042
   -0.039
   -0.109
   -0.127
   -0.096
   -0.052
   -0.024
   -0.004
    0.034
    0.095
    0.155
    0.187
    0.193
    0.191
    0.185
    0.163
    0.110
    0.027
   -0.078
   -0.192
   -0.299
   -0.376
   -0.393
   -0.337
   -0.224
   -0.087
    0.046
    0.171
    0.288
    0.383
    0.414
    0.345
    0.179
   -0.049
   -0.293
   -0.521
   -0.692
   -0.742
   -0.616
   -0.309
    0.112
    0.534
    0.829
    0.899
    0.729
    0.409
    0.086
   -0.135
   -0.245
   -0.302
   -0.359
   -0.426
   -0.471
   -0.434
   -0.263
    0.034
    0.357
    0.571
    0.615
    0.539
    0.417
    0.243
   -0.028
   -0.329
   -0.458
   -0.289
    0.026
    0.150
   -0.080
   -0.458
   -0.618
   -0.410
   -0.019
    0.286
    0.429
    0.500
    0.536
    0.438
    0.134
   -0.265
   -0.544
   -0.584
   -0.441
   -0.264
   -0.174
   -0.216
   -0.335
   -0.370
   -0.148
    0.334
    0.846
    1.095
    0.966
    0.583
    0.148
   -0.211
   -0.466
   -0.630
   -0.739
   -0.814
   -0.818
   -0.659
   -0.294
    0.165
    0.540
    0.777
    0.985
    1.212
    1.254
    0.840
    0.003
   -0.827
   -1.205
   -1.077
   -0.713
   -0.321
    0.115
    0.575
    0.803
    0.538
   -0.083
   -0.563
   -0.536
   -0.109
    0.335
    0.549
    0.528
    0.313
   -0.099
   -0.616
   -0.989
   -1.023
   -0.786
   -0.471
   -0.125
    0.355
    0.915
    1.236
    1.063
    0.549
    0.124
    0.007
    0.005
   -0.174
   -0.543
   -0.885
   -1.042
   -1.018
   -0.810
   -0.344
    0.344
    0.998
    1.326
    1.266
    0.970
    0.554
    0.008
   -0.619
   -1.077
   -1.092
   -0.690
   -0.227
   -0.045
   -0.111
   -0.071
    0.355
    1.048
    1.577
    1.561
    0.957
    0.051
   -0.773
   -1.260
   -1.377
   -1.230
   -0.933
   -0.559
   -0.169
    0.181
    0.491
    0.819
    1.156
    1.310
    1.031
    0.295
   -0.574
   -1.136
   -1.217
   -1.013
   -0.826
   -0.730
   -0.555
   -0.152
    0.395
    0.830
    0.967
    0.834
    0.610
    0.436
    0.295
    0.083
   -0.220
   -0.498
   -0.623
   -0.591
   -0.473
   -0.278
    0.064
    0.526
    0.893
    0.931
    0.654
    0.333
    0.178
    0.100
   -0.129
   -0.527
   -0.827
   -0.794
   -0.520
   -0.286
   -0.208
   -0.126
    0.112
    0.396
    0.467
    0.256
   -0.009
   -0.068
    0.080
    0.227
    0.221
    0.091
   -0.084
   -0.299
   -0.537
   -0.668
   -0.570
   -0.317
   -0.113
   -0.016
    0.140
    0.480
    0.837
    0.899
    0.579
    0.138
   -0.105
   -0.093
   -0.014
   -0.005
   -0.001
    0.080
    0.111
   -0.097
   -0.448
   -0.557
   -0.223
    0.242
    0.326
   -0.059
   -0.468
   -0.488
   -0.210
   -0.007
    0.009
    0.082
    0.361
    0.593
    0.429
   -0.079
   -0.495
   -0.517
   -0.308
   -0.206
   -0.234
   -0.111
    0.279
    0.624
    0.535
    0.058
   -0.333
   -0.267
    0.112
    0.343
    0.187
   -0.163
   -0.371
   -0.325
   -0.163
   -0.028
    0.091
    0.266
    0.468
    0.583
    0.564
    0.487
    0.425
    0.302
   -0.041
   -0.592
   -1.050
   -1.057
   -0.577
    0.013
    0.256
    0.050
   -0.287
   -0.370
   -0.124
    0.195
    0.306
    0.191
    0.060
    0.052
    0.069
   -0.061
   -0.301
   -0.389
   -0.147
    0.287
    0.609
    0.705
    0.733
    0.828
    0.843
    0.512
   -0.147
   -0.733
   -0.860
   -0.571
   -0.257
   -0.187
   -0.268
   -0.300
   -0.314
   -0.474
   -0.691
   -0.586
    0.031
    0.765
    0.956
    0.414
   -0.332
   -0.604
   -0.282
    0.188
    0.376
    0.271
    0.098
   -0.033
   -0.159
   -0.260
   -0.222
    0.000
    0.296
    0.525
    0.642
    0.655
    0.551
    0.330
    0.070
   -0.131
   -0.250
   -0.308
   -0.258
   -0.027
    0.301
    0.436
    0.137
   -0.462
   -0.898
   -0.819
   -0.358
    0.015
   -0.024
   -0.358
   -0.628
   -0.611
   -0.349
    0.002
    0.352
    0.663
    0.846
    0.756
    0.355
   -0.167
   -0.490
   -0.435
   -0.133
    0.114
    0.143
    0.078
    0.129
    0.294
    0.347
    0.161
   -0.070
   -0.051
    0.185
    0.256
   -0.082
   -0.546
   -0.619
   -0.203
    0.228
    0.201
   -0.158
   -0.287
    0.087
    0.587
    0.633
    0.135
   -0.401
   -0.460
   -0.064
    0.304
    0.248
   -0.163
   -0.540
   -0.596
   -0.363
   -0.039
    0.259
    0.525
    0.722
    0.732
    0.512
    0.213
    0.059
    0.077
    0.063
   -0.136
   -0.379
   -0.379
   -0.124
    0.013
   -0.298
   -0.857
   -1.068
   -0.643
   -0.005
    0.182
   -0.175
   -0.475
   -0.178
    0.514
    0.904
    0.659
    0.156
   -0.052
    0.120
    0.335
    0.374
    0.336
    0.308
    0.121
   -0.355
   -0.833
   -0.816
   -0.202
    0.518
    0.758
    0.435
   -0.023
   -0.183
    0.016
    0.336
    0.526
    0.451
    0.088
   -0.459
   -0.928
   -1.014
   -0.643
   -0.093
    0.228
    0.184
    0.022
    0.058
    0.309
    0.480
    0.330
   -0.050
   -0.360
   -0.426
   -0.323
   -0.168
    0.038
    0.299
    0.444
    0.264
   -0.141
   -0.335
   -0.005
    0.599
    0.863
    0.497
   -0.121
   -0.413
   -0.299
   -0.199
   -0.363
   -0.495
   -0.239
    0.208
    0.298
   -0.072
   -0.375
   -0.196
    0.141
    0.013
   -0.564
   -0.860
   -0.383
    0.444
    0.801
    0.493
    0.115
    0.197
    0.557
    0.666
    0.410
    0.163
    0.155
    0.139
   -0.181
   -0.641
   -0.804
   -0.568
   -0.276
   -0.206
   -0.199
    0.020
    0.345
    0.380
    0.030
   -0.285
   -0.136
    0.342
    0.583
    0.264
   -0.329
   -0.656
   -0.507
   -0.117
    0.227
    0.488
    0.709
    0.736
    0.348
   -0.324
   -0.742
   -0.518
    0.084
    0.395
    0.110
   -0.381
   -0.499
   -0.179
    0.106
   -0.018
   -0.367
   -0.455
   -0.103
    0.373
    0.566
    0.411
    0.156
   -0.005
   -0.089
   -0.128
   -0.025
    0.253
    0.437
    0.168
   -0.502
   -1.015
   -0.863
   -0.162
    0.474
    0.618
    0.421
    0.292
    0.343
    0.330
    0.076
   -0.260
   -0.401
   -0.291
   -0.076
    0.163
    0.462
    0.766
    0.836
    0.520
    0.007
   -0.338
   -0.378
   -0.310
   -0.344
   -0.414
   -0.330
   -0.144
   -0.148
   -0.456
   -0.743
   -0.573
    0.040
    0.566
    0.509
   -0.063
   -0.613
   -0.697
   -0.354
    0.038
    0.189
    0.145
    0.155
    0.361
    0.620
    0.644
    0.300
   -0.197
   -0.447
   -0.244
    0.229
    0.601
    0.677
    0.563
    0.446
    0.344
    0.143
   -0.193
   -0.534
   -0.719
   -0.712
   -0.596
   -0.467
   -0.336
   -0.124
    0.236
    0.657
    0.893
    0.774
    0.442
    0.215
    0.177
    0.055
   -0.390
   -0.965
   -1.227
   -1.018
   -0.618
   -0.324
   -0.055
    0.447
    1.121
    1.506
    1.232
    0.481
   -0.209
   -0.522
   -0.595
   -0.669
   -0.712
   -0.545
   -0.210
    0.015
   -0.005
   -0.078
    0.018
    0.194
    0.182
   -0.038
   -0.158
    0.035
    0.309
    0.221
   -0.327
   -0.928
   -1.077
   -0.648
    0.058
    0.608
    0.746
    0.538
    0.327
    0.459
    0.914
    1.225
    0.906
    0.002
   -0.856
   -1.036
   -0.519
    0.138
    0.435
    0.417
    0.492
    0.869
    1.333
    1.584
    1.622
    1.659
    1.761
    1.742
    1.421
    0.817
    0.040
   -0.885
   -1.986
   -3.214
   -4.443
   -5.531
   -6.245
   -6.199
   -5.102
   -3.188
   -1.264
   -0.082
    0.379
    0.876
    2.080
    3.887
    5.569
    6.472
    6.410
    5.483
    3.783
    1.480
   -0.920
   -2.652
   -3.176
   -2.553
   -1.283
    0.180
    1.613
    2.781
    3.264
    2.770
    1.580
    0.435
   -0.194
   -0.633
   -1.614
   -3.315
   -4.962
   -5.543
   -4.838
   -3.557
   -2.447
   -1.529
   -0.392
    0.948
    1.867
    1.854
    1.107
    0.221
   -0.514
   -1.161
   -1.541
   -1.079
    0.459
    2.291
    3.179
    2.796
    2.166
    2.454
    3.549
    4.237
    3.727
    2.529
    1.624
    1.183
    0.538
   -0.691
   -1.969
   -2.523
   -2.279
   -1.786
   -1.405
   -0.985
   -0.379
    0.077
   -0.180
   -1.344
   -3.064
   -4.736
   -5.783
   -5.751
   -4.436
   -2.096
    0.545
    2.646
    3.656
    3.460
    2.320
    0.792
   -0.399
   -0.617
    0.355
    2.167
    4.057
    5.203
    5.070
    3.588
    1.228
   -1.094
   -2.390
   -2.174
   -0.809
    0.709
    1.381
    0.772
   -0.839
   -2.666
   -3.835
   -3.845
   -2.831
   -1.401
   -0.149
    0.675
    1.064
    1.011
    0.537
   -0.031
   -0.066
    0.823
    2.210
    3.008
    2.433
    0.811
   -0.719
   -1.335
   -1.241
   -1.183
   -1.461
   -1.676
   -1.386
   -0.717
   -0.171
   -0.033
   -0.190
   -0.436
   -0.662
   -0.608
    0.276
    2.305
    4.758
    5.942
    4.503
    0.850
   -2.964
   -4.952
   -4.732
   -3.326
   -1.808
   -0.588
    0.147
    0.002
   -1.107
   -2.333
   -2.433
   -1.108
    0.588
    1.450
    1.478
    1.692
    2.691
    3.815
    3.889
    2.544
    0.576
   -0.862
   -1.145
   -0.329
    1.110
    2.414
    2.734
    1.713
   -0.011
   -1.212
   -1.251
   -0.670
   -0.448
   -0.851
   -1.298
   -1.317
   -1.197
   -1.449
   -1.854
   -1.560
   -0.282
    0.992
    0.888
   -0.803
   -2.831
   -3.798
   -3.441
   -2.414
   -1.123
    0.670
    2.962
    4.722
    4.597
    2.458
   -0.169
   -1.499
   -1.169
   -0.294
   -0.002
   -0.285
   -0.400
   -0.019
    0.398
    0.339
   -0.073
   -0.377
   -0.494
   -0.764
   -1.225
   -1.260
   -0.255
    1.489
    2.822
    2.868
    1.919
    1.022
    0.808
    0.964
    0.886
    0.498
    0.173
    0.046
   -0.212
   -0.837
   -1.508
   -1.665
   -1.168
   -0.397
    0.237
    0.646
    0.877
    0.785
    0.123
   -1.061
   -2.236
   -2.726
   -2.294
   -1.308
   -0.297
    0.491
    0.970
    0.888
    0.007
   -1.348
   -2.268
   -2.067
   -0.989
    0.139
    0.870
    1.468
    2.242
    2.926
    3.016
    2.508
    1.946
    1.709
    1.560
    1.101
    0.448
    0.129
    0.258
    0.129
   -1.059
   -3.105
   -4.781
   -5.022
   -3.933
   -2.445
   -1.211
   -0.176
    0.823
    1.496
    1.444
    0.888
    0.654
    1.318
    2.589
    3.657
    3.959
    3.424
    2.209
    0.584
   -0.912
   -1.595
   -1.197
   -0.230
    0.427
    0.285
   -0.483
   -1.419
   -2.220
   -2.784
   -3.040
   -2.927
   -2.480
   -1.815
   -1.054
   -0.384
   -0.115
   -0.444
   -1.051
   -1.135
   -0.146
    1.511
    2.767
    2.984
    2.564
    2.337
    2.544
    2.689
    2.273
    1.346
    0.267
   -0.756
   -1.669
   -2.307
   -2.414
   -1.937
   -1.067
    0.010
    1.216
    2.347
    2.978
    2.825
    2.119
    1.359
    0.705
   -0.153
   -1.380
   -2.516
   -2.884
   -2.413
   -1.746
   -1.474
   -1.522
   -1.466
   -1.197
   -0.939
   -0.735
   -0.301
    0.440
    1.002
    0.817
   -0.024
   -0.815
   -1.039
   -0.873
   -0.732
   -0.575
   -0.021
    0.926
    1.640
    1.563
    0.914
    0.459
    0.674
    1.366
    2.069
    2.524
    2.660
    2.346
    1.479
    0.305
   -0.607
   -0.882
   -0.739
   -0.746
   -1.158
   -1.626
   -1.587
   -0.876
    0.094
    0.706
    0.596
   -0.206
   -1.398
   -2.531
   -3.084
   -2.693
   -1.484
   -0.126
    0.659
    0.726
    0.574
    0.732
    1.182
    1.486
    1.402
    1.167
    1.113
    1.156
    0.858
    0.027
   -0.917
   -1.297
   -0.861
    0.025
    0.852
    1.445
    1.863
    2.013
    1.632
    0.685
   -0.437
   -1.224
   -1.471
   -1.318
   -0.982
   -0.591
   -0.224
    0.008
    0.001
   -0.244
   -0.562
   -0.712
   -0.590
   -0.418
   -0.654
   -1.575
   -2.918
   -3.980
   -4.134
   -3.251
   -1.625
    0.351
    2.324
    3.906
    4.716
    4.643
    3.971
    3.108
    2.239
    1.412
    0.891
    1.100
    2.037
    2.933
    2.798
    1.376
   -0.600
   -2.150
   -2.901
   -3.116
   -3.077
   -2.780
   -2.269
   -1.929
   -2.136
   -2.697
   -2.907
   -2.242
   -0.865
    0.566
    1.432
    1.446
    0.657
   -0.580
   -1.673
   -2.080
   -1.682
   -0.812
    0.125
    0.992
    1.825
    2.523
    2.830
    2.636
    2.154
    1.746
    1.664
    1.984
    2.614
    3.176
    3.032
    1.759
   -0.252
   -1.887
   -2.256
   -1.548
   -0.785
   -0.747
   -1.289
   -1.745
   -1.785
   -1.635
   -1.547
   -1.390
   -0.926
   -0.278
    0.164
    0.247
    0.166
    0.007
   -0.509
   -1.580
   -2.756
   -3.167
   -2.388
   -0.865
    0.601
    1.609
    2.253
    2.649
    2.687
    2.306
    1.775
    1.455
    1.343
    1.086
    0.510
   -0.022
    0.017
    0.616
    1.100
    0.824
   -0.091
   -0.877
   -0.964
   -0.546
   -0.242
   -0.382
   -0.799
   -1.227
   -1.606
   -1.939
   -2.077
   -1.876
   -1.451
   -1.059
   -0.710
   -0.123
    0.797
    1.609
    1.670
    0.858
   -0.193
   -0.680
   -0.375
    0.275
    0.732
    0.890
    0.972
    1.092
    1.119
    0.955
    0.734
    0.640
    0.646
    0.587
    0.449
    0.415
    0.563
    0.668
    0.467
    0.046
   -0.225
   -0.198
   -0.187
   -0.559
   -1.154
   -1.386
   -1.008
   -0.563
   -0.803
   -1.715
   -2.382
   -1.988
   -0.775
    0.211
    0.342
    0.064
    0.203
    0.835
    1.235
    0.940
    0.426
    0.431
    0.872
    0.906
    0.100
   -0.918
   -1.215
   -0.689
   -0.039
    0.296
    0.677
    1.504
    2.305
    2.100
    0.682
