Origin Time       04/04/2011 11:31:40 UTC
Lat.              29.6 N	
Long.             80.8 E	
Depth (Km)         10.0
Magnitude         5.7
 Region           NEPAL-INDIA-BORDER-REGION                                        
 Above details taken from IMD 
    
Station Code      KSH
Station Lat.       29.211  N
Station Long.      78.960  E
Station Height(m)  216.0
Site Class        C   Vs30 between 200 m/sec to 375 m/sec *  
Record Time       04.04.2011 11:20:13.934 UTC
Sampling Rate     200. Hz
 Record Duration   69.090 Sec.
 Direction         N-S (N positive)
Max. Acceleration    -10.254 cm/sec**2
     
  * For reference see Site Classification link of website 
     
 Base Line Corrected and Low Pass Filtered (Cut Off at 35 Hz) Time History
 Acceleration data in cm/sec**2
    
[...]
       0.118
       0.155
       0.184
       0.219
       0.280
       0.380
       0.504
       0.610
       0.648
       0.588
       0.441
       0.245
       0.045
      -0.128
      -0.269
      -0.389
      -0.507
      -0.623
      -0.724
      -0.791
      -0.812
      -0.790
      -0.729
      -0.631
      -0.498
      -0.338
      -0.166
       0.011
       0.195
       0.386
       0.576
       0.744
       0.866
       0.927
       0.928
       0.885
       0.813
       0.720
       0.600
       0.438
       0.236
       0.019
      -0.166
      -0.278
      -0.300
      -0.249
      -0.166
      -0.100
      -0.079
      -0.109
      -0.162
      -0.198
      -0.185
      -0.121
      -0.041
       0.008
      -0.005
      -0.078
      -0.181
      -0.282
      -0.356
      -0.398
      -0.414
      -0.412
      -0.393
      -0.352
      -0.288
      -0.213
      -0.157
      -0.145
      -0.184
      -0.252
      -0.313
      -0.331
      -0.293
      -0.211
      -0.115
      -0.036
       0.016
       0.054
       0.098
       0.158
       0.225
       0.275
       0.285
       0.244
       0.154
       0.030
      -0.100
      -0.216
      -0.315
      -0.409
      -0.511
      -0.610
      -0.672
      -0.658
      -0.544
      -0.331
      -0.046
       0.273
       0.578
       0.829
       0.999
       1.080
       1.076
       1.005
       0.892
       0.773
       0.678
       0.618
       0.580
       0.541
       0.478
       0.378
       0.241
       0.083
      -0.069
      -0.188
      -0.264
      -0.306
      -0.329
      -0.343
      -0.354
      -0.366
      -0.380
      -0.388
      -0.369
      -0.299
      -0.165
       0.030
       0.259
       0.483
       0.652
       0.729
       0.709
       0.615
       0.485
       0.352
       0.238
       0.158
       0.114
       0.097
       0.088
       0.080
       0.086
       0.134
       0.248
       0.423
       0.623
       0.793
       0.881
       0.846
       0.686
       0.433
       0.141
      -0.138
      -0.374
      -0.548
      -0.646
      -0.656
      -0.580
      -0.435
      -0.252
      -0.064
       0.093
       0.187
       0.201
       0.135
       0.010
      -0.145
      -0.307
      -0.466
      -0.616
      -0.753
      -0.866
      -0.940
      -0.954
      -0.894
      -0.763
      -0.590
      -0.416
      -0.272
      -0.161
      -0.073
       0.009
       0.093
       0.170
       0.227
       0.248
       0.236
       0.209
       0.189
       0.191
       0.213
       0.239
       0.251
       0.233
       0.182
       0.109
       0.034
      -0.023
      -0.056
      -0.069
      -0.072
      -0.072
      -0.066
      -0.049
      -0.019
       0.025
       0.082
       0.160
       0.263
       0.384
       0.500
       0.580
       0.601
       0.556
       0.462
       0.347
       0.234
       0.130
       0.028
      -0.078
      -0.176
      -0.240
      -0.248
      -0.202
      -0.136
      -0.104
      -0.154
      -0.297
      -0.489
      -0.646
      -0.682
      -0.555
      -0.286
       0.051
       0.364
       0.577
       0.654
       0.595
       0.432
       0.212
      -0.013
      -0.207
      -0.357
      -0.474
      -0.573
      -0.662
      -0.728
      -0.751
      -0.713
      -0.613
      -0.460
      -0.272
      -0.061
       0.155
       0.354
       0.504
       0.576
       0.559
       0.469
       0.347
       0.241
       0.185
       0.181
       0.195
       0.180
       0.096
      -0.055
      -0.234
      -0.379
      -0.437
      -0.394
      -0.281
      -0.156
      -0.072
      -0.051
      -0.074
      -0.102
      -0.104
      -0.077
      -0.040
      -0.017
      -0.020
      -0.052
      -0.107
      -0.181
      -0.262
      -0.333
      -0.376
      -0.385
      -0.365
      -0.331
      -0.301
      -0.281
      -0.260
      -0.210
      -0.102
       0.079
       0.319
       0.574
       0.780
       0.879
       0.845
       0.698
       0.492
       0.286
       0.109
      -0.050
      -0.225
      -0.441
      -0.692
      -0.937
      -1.120
      -1.197
      -1.157
      -1.012
      -0.782
      -0.490
      -0.160
       0.171
       0.448
       0.610
       0.629
       0.524
       0.371
       0.262
       0.263
       0.375
       0.533
       0.651
       0.667
       0.572
       0.406
       0.226
       0.077
      -0.023
      -0.086
      -0.140
      -0.218
      -0.331
      -0.472
      -0.609
      -0.698
      -0.701
      -0.603
      -0.424
      -0.211
      -0.010
       0.147
       0.252
       0.316
       0.364
       0.418
       0.484
       0.538
       0.540
       0.461
       0.307
       0.113
      -0.079
      -0.246
      -0.377
      -0.459
      -0.473
      -0.402
      -0.252
      -0.061
       0.112
       0.212
       0.212
       0.121
      -0.021
      -0.157
      -0.239
      -0.242
      -0.171
      -0.051
       0.087
       0.217
       0.327
       0.426
       0.528
       0.644
       0.770
       0.881
       0.949
       0.945
       0.852
       0.666
       0.410
       0.128
      -0.125
      -0.311
      -0.420
      -0.468
      -0.486
      -0.501
      -0.530
      -0.565
      -0.580
      -0.547
      -0.457
      -0.323
      -0.165
      -0.003
       0.150
       0.282
       0.381
       0.439
       0.454
       0.432
       0.388
       0.337
       0.299
       0.282
       0.279
       0.271
       0.250
       0.224
       0.207
       0.202
       0.188
       0.139
       0.038
      -0.112
      -0.286
      -0.450
      -0.567
      -0.605
      -0.548
      -0.406
      -0.205
       0.019
       0.234
       0.410
       0.521
       0.559
       0.537
       0.476
       0.397
       0.310
       0.223
       0.148
       0.087
       0.026
      -0.051
      -0.148
      -0.246
      -0.316
      -0.342
      -0.326
      -0.288
      -0.259
      -0.263
      -0.296
      -0.322
      -0.291
      -0.170
       0.037
       0.292
       0.547
       0.762
       0.908
       0.969
       0.950
       0.871
       0.762
       0.657
       0.582
       0.557
       0.589
       0.663
       0.745
       0.794
       0.785
       0.712
       0.588
       0.440
       0.305
       0.217
       0.197
       0.231
       0.285
       0.317
       0.304
       0.244
       0.158
       0.073
       0.009
      -0.030
      -0.058
      -0.088
      -0.121
      -0.151
      -0.177
      -0.204
      -0.240
      -0.282
      -0.323
      -0.367
      -0.428
      -0.516
      -0.621
      -0.713
      -0.757
      -0.738
      -0.656
      -0.528
      -0.379
      -0.235
      -0.106
       0.022
       0.178
       0.380
       0.607
       0.812
       0.944
       0.976
       0.910
       0.772
       0.605
       0.463
       0.397
       0.442
       0.602
       0.844
       1.110
       1.327
       1.432
       1.396
       1.223
       0.949
       0.626
       0.306
       0.034
      -0.163
      -0.288
      -0.364
      -0.406
      -0.403
      -0.326
      -0.155
       0.101
       0.407
       0.721
       1.010
       1.248
       1.418
       1.506
       1.503
       1.407
       1.231
       1.004
       0.765
       0.555
       0.389
       0.255
       0.128
      -0.012
      -0.163
      -0.315
      -0.452
      -0.562
      -0.630
      -0.640
      -0.591
      -0.496
      -0.380
      -0.271
      -0.195
      -0.168
      -0.197
      -0.276
      -0.387
      -0.505
      -0.602
      -0.651
      -0.648
      -0.615
      -0.590
      -0.606
      -0.669
      -0.761
      -0.846
      -0.889
      -0.870
      -0.789
      -0.678
      -0.599
      -0.622
      -0.790
      -1.094
      -1.467
      -1.812
      -2.034
      -2.087
      -1.985
      -1.792
      -1.575
      -1.370
      -1.180
      -0.993
      -0.818
      -0.691
      -0.652
      -0.720
      -0.873
      -1.055
      -1.198
      -1.253
      -1.205
      -1.076
      -0.909
      -0.745
      -0.613
      -0.525
      -0.480
      -0.462
      -0.451
      -0.430
      -0.388
      -0.322
      -0.238
      -0.145
      -0.048
       0.044
       0.112
       0.126
       0.055
      -0.115
      -0.376
      -0.701
      -1.061
      -1.429
      -1.789
      -2.135
      -2.470
      -2.789
      -3.075
      -3.293
      -3.416
      -3.430
      -3.352
      -3.219
      -3.076
      -2.960
      -2.882
      -2.824
      -2.744
      -2.603
      -2.382
      -2.098
      -1.791
      -1.499
      -1.230
      -0.962
      -0.662
      -0.313
       0.080
       0.488
       0.874
       1.205
       1.472
       1.693
       1.897
       2.102
       2.297
       2.444
       2.489
       2.389
       2.141
       1.788
       1.406
       1.068
       0.828
       0.697
       0.650
       0.637
       0.605
       0.521
       0.388
       0.239
       0.120
       0.072
       0.119
       0.266
       0.487
       0.730
       0.928
       1.021
       0.972
       0.777
       0.454
       0.042
      -0.394
      -0.778
      -1.044
      -1.166
      -1.161
      -1.080
      -0.976
      -0.876
      -0.761
      -0.578
      -0.277
       0.150
       0.661
       1.177
       1.631
       1.993
       2.274
       2.500
       2.687
       2.830
       2.909
       2.915
       2.863
       2.785
       2.715
       2.665
       2.624
       2.563
       2.462
       2.320
       2.158
       2.003
       1.873
       1.770
       1.686
       1.613
       1.546
       1.491
       1.448
       1.404
       1.332
       1.212
       1.050
       0.874
       0.718
       0.600
       0.521
       0.470
       0.439
       0.425
       0.427
       0.436
       0.427
       0.362
       0.209
      -0.028
      -0.308
      -0.564
      -0.745
      -0.843
      -0.885
      -0.906
      -0.924
      -0.928
      -0.882
      -0.740
      -0.463
      -0.034
       0.534
       1.201
       1.912
       2.607
       3.232
       3.743
       4.120
       4.373
       4.522
       4.584
       4.570
       4.497
       4.394
       4.291
       4.198
       4.105
       3.995
       3.861
       3.705
       3.536
       3.358
       3.158
       2.911
       2.589
       2.176
       1.682
       1.144
       0.611
       0.126
      -0.295
      -0.667
      -1.031
      -1.430
      -1.885
      -2.382
      -2.873
      -3.298
      -3.614
      -3.816
      -3.937
      -4.027
      -4.116
      -4.196
      -4.233
      -4.182
      -4.027
      -3.789
      -3.518
      -3.255
      -3.019
      -2.795
      -2.557
      -2.275
      -1.933
      -1.530
      -1.077
      -0.580
      -0.041
       0.539
       1.129
       1.669
       2.082
       2.309
       2.327
       2.144
       1.782
       1.270
       0.639
      -0.059
      -0.761
      -1.403
      -1.935
      -2.337
      -2.612
      -2.771
      -2.819
      -2.754
      -2.573
      -2.285
      -1.919
      -1.510
      -1.095
      -0.704
      -0.366
      -0.101
       0.076
       0.155
       0.128
      -0.008
      -0.239
      -0.531
      -0.838
      -1.122
      -1.374
      -1.611
      -1.856
      -2.121
      -2.392
      -2.632
      -2.793
      -2.836
      -2.742
      -2.526
      -2.221
      -1.861
      -1.478
      -1.101
      -0.761
      -0.490
      -0.313
      -0.235
      -0.247
      -0.327
      -0.441
      -0.550
      -0.616
      -0.615
      -0.536
      -0.376
      -0.136
       0.187
       0.588
       1.048
       1.530
       1.986
       2.369
       2.636
       2.765
       2.746
       2.585
       2.289
       1.870
       1.348
       0.749
       0.101
      -0.578
      -1.276
      -1.968
      -2.614
      -3.158
      -3.559
      -3.807
      -3.933
      -3.990
      -4.031
      -4.080
      -4.128
      -4.146
      -4.114
      -4.037
      -3.941
      -3.855
      -3.793
      -3.757
      -3.739
      -3.731
      -3.716
      -3.665
      -3.552
      -3.377
      -3.173
      -2.990
      -2.861
      -2.786
      -2.731
      -2.656
      -2.540
      -2.383
      -2.197
      -1.989
      -1.753
      -1.476
      -1.156
      -0.800
      -0.424
      -0.057
       0.266
       0.501
       0.620
       0.632
       0.593
       0.585
       0.681
       0.907
       1.243
       1.647
       2.072
       2.488
       2.869
       3.182
       3.385
       3.437
       3.318
       3.045
       2.659
       2.214
       1.760
       1.336
       0.972
       0.689
       0.495
       0.388
       0.358
       0.393
       0.488
       0.631
       0.794
       0.934
       1.011
       1.010
       0.944
       0.843
       0.733
       0.628
       0.527
       0.425
       0.321
       0.224
       0.160
       0.156
       0.228
       0.379
       0.595
       0.860
       1.152
       1.443
       1.708
       1.934
       2.129
       2.314
       2.510
       2.726
       2.953
       3.180
       3.407
       3.657
       3.972
       4.389
       4.916
       5.527
       6.177
       6.823
       7.432
       7.971
       8.401
       8.675
       8.756
       8.628
       8.304
       7.820
       7.220
       6.537
       5.795
       4.999
       4.146
       3.224
       2.217
       1.121
      -0.055
      -1.285
      -2.534
      -3.770
      -4.969
      -6.117
      -7.196
      -8.182
      -9.035
      -9.707
     -10.134
     -10.254
     -10.035
      -9.508
      -8.767
      -7.947
      -7.176
      -6.541
      -6.074
      -5.758
      -5.546
      -5.381
      -5.211
      -4.992
      -4.674
      -4.196
      -3.499
      -2.556
      -1.395
      -0.103
       1.196
       2.383
       3.370
       4.113
       4.616
       4.910
       5.031
       4.997
       4.815
       4.503
       4.106
       3.696
       3.352
       3.143
       3.109
       3.249
       3.524
       3.861
       4.183
       4.417
       4.498
       4.374
       4.028
       3.480
       2.781
       1.983
       1.125
       0.247
      -0.601
      -1.366
      -2.010
      -2.527
      -2.928
      -3.224
      -3.419
      -3.518
      -3.534
      -3.503
      -3.485
      -3.550
      -3.759
      -4.134
      -4.648
      -5.233
      -5.794
      -6.234
      -6.466
      -6.443
      -6.172
      -5.711
      -5.137
      -4.498
      -3.798
      -3.029
      -2.199
      -1.348
      -0.536
       0.181
       0.758
       1.171
       1.417
       1.520
       1.505
       1.390
       1.188
       0.933
       0.683
       0.526
       0.546
       0.807
       1.324
       2.055
       2.916
       3.806
       4.629
       5.315
       5.821
       6.121
       6.210
       6.095
       5.800
       5.354
       4.800
       4.195
       3.606
       3.092
       2.680
       2.358
       2.101
       1.891
       1.733
       1.638
       1.614
       1.654
       1.739
       1.844
       1.946
       2.035
       2.107
       2.163
       2.192
       2.180
       2.112
       1.982
       1.796
       1.570
       1.321
       1.060
       0.781
       0.469
       0.122
      -0.237
      -0.560
      -0.799
      -0.936
      -0.990
      -1.002
      -1.003
      -0.996
      -0.960
      -0.875
      -0.736
      -0.558
      -0.370
      -0.199
      -0.067
       0.007
       0.007
      -0.088
      -0.299
      -0.624
      -1.022
      -1.409
      -1.683
      -1.756
      -1.574
      -1.141
      -0.517
       0.184
       0.829
       1.300
       1.520
       1.471
       1.189
       0.753
       0.251
      -0.248
      -0.715
      -1.142
      -1.515
      -1.809
      -2.000
      -2.087
      -2.099
      -2.093
      -2.137
      -2.278
      -2.521
      -2.823
      -3.105
      -3.277
      -3.270
      -3.048
      -2.618
      -2.035
      -1.384
      -0.777
      -0.322
      -0.100
      -0.137
      -0.401
      -0.818
      -1.300
      -1.774
      -2.201
      -2.567
      -2.866
      -3.083
      -3.188
      -3.146
      -2.926
      -2.515
      -1.915
      -1.156
      -0.283
       0.649
       1.579
       2.448
       3.195
       3.768
       4.134
       4.290
       4.272
       4.137
       3.944
       3.729
       3.500
       3.249
       2.969
       2.663
       2.344
       2.022
       1.705
       1.399
       1.120
       0.880
       0.675
       0.480
       0.254
      -0.034
      -0.392
      -0.808
      -1.256
      -1.695
      -2.076
      -2.342
      -2.444
      -2.356
      -2.088
      -1.680
      -1.189
      -0.667
      -0.142
       0.386
       0.938
       1.541
       2.206
       2.924
       3.657
       4.341
       4.898
       5.248
       5.331
       5.125
       4.658
       3.992
       3.205
       2.380
       1.605
       0.975
       0.574
       0.449
       0.592
       0.949
       1.454
       2.039
       2.636
       3.169
       3.558
       3.734
       3.659
       3.327
       2.757
       1.971
       0.982
      -0.193
      -1.519
      -2.926
      -4.319
      -5.599
      -6.687
      -7.520
      -8.038
      -8.179
      -7.891
      -7.158
      -6.028
      -4.606
      -3.038
      -1.476
      -0.044
       1.183
       2.170
       2.904
       3.373
       3.567
       3.490
       3.171
       2.674
       2.087
       1.510
       1.028
       0.695
       0.517
       0.447
       0.398
       0.272
      -0.006
      -0.455
      -1.030
      -1.644
      -2.203
      -2.652
      -2.996
      -3.299
      -3.657
      -4.150
      -4.796
      -5.526
      -6.194
      -6.617
      -6.641
      -6.188
      -5.278
      -4.011
      -2.527
      -0.978
       0.504
       1.817
       2.897
       3.707
       4.224
       4.433
       4.333
       3.953
       3.355
       2.618
       1.825
       1.057
       0.387
      -0.113
      -0.384
      -0.396
      -0.168
       0.224
       0.661
       1.023
       1.228
       1.244
       1.071
       0.718
       0.188
      -0.508
      -1.333
      -2.207
      -3.009
      -3.594
      -3.842
      -3.696
      -3.188
      -2.425
      -1.545
      -0.665
       0.154
       0.909
       1.637
       2.365
       3.086
       3.748
       4.276
       4.604
       4.703
       4.581
       4.276
       3.834
       3.299
       2.719
       2.152
       1.662
       1.304
       1.105
       1.054
       1.109
       1.213
       1.312
       1.361
       1.317
       1.140
       0.803
       0.299
      -0.354
      -1.119
      -1.952
      -2.808
      -3.646
      -4.424
      -5.097
      -5.602
      -5.866
      -5.823
      -5.433
      -4.708
      -3.713
      -2.556
      -1.360
      -0.240
       0.725
       1.511
       2.140
       2.646
       3.043
       3.308
       3.409
       3.327
       3.079
       2.706
       2.263
       1.794
       1.325
       0.861
       0.404
      -0.029
      -0.407
      -0.693
      -0.863
      -0.912
      -0.850
      -0.706
      -0.527
      -0.374
      -0.313
      -0.398
      -0.660
      -1.112
      -1.758
      -2.589
      -3.561
      -4.583
      -5.522
      -6.245
      -6.658
      -6.718
      -6.423
      -5.779
      -4.784
