Origin Time       17/9/2010 19:21:09	 UTC
Lat.              36.5 N	
Long.             70.8 E	
Depth (Km)        167.0
Magnitude         6.5
 Region           Hindukush                                                        
 Above details taken from IMD 
    
Station Code      KSL
Station Lat.       30.899  N
Station Long.      76.960  E
Station Height(m) 1802.0
Site Class        B   Vs30 between 375 m/sec to 700 m/sec *  
Record Time       17.09.2010 19:23:55.129 UTC
Sampling Rate     200. Hz
 Record Duration   88.340 Sec.
 Direction         N-S (N positive)
Max. Acceleration     -2.936 cm/sec**2
     
  * For reference see Site Classification link of website 
     
 Base Line Corrected and Low Pass Filtered (Cut Off at 35 Hz) Time History
 Acceleration data in cm/sec**2
    
[...]
       0.109
       0.148
       0.185
       0.219
       0.250
       0.278
       0.301
       0.320
       0.334
       0.344
       0.348
       0.346
       0.338
       0.328
       0.317
       0.305
       0.289
       0.266
       0.235
       0.200
       0.164
       0.134
       0.111
       0.093
       0.073
       0.048
       0.017
      -0.016
      -0.046
      -0.074
      -0.103
      -0.134
      -0.168
      -0.201
      -0.231
      -0.257
      -0.280
      -0.298
      -0.315
      -0.333
      -0.354
      -0.375
      -0.391
      -0.396
      -0.391
      -0.379
      -0.364
      -0.347
      -0.325
      -0.300
      -0.274
      -0.250
      -0.229
      -0.210
      -0.190
      -0.166
      -0.138
      -0.111
      -0.086
      -0.058
      -0.025
       0.015
       0.056
       0.091
       0.119
       0.144
       0.172
       0.209
       0.253
       0.299
       0.344
       0.390
       0.440
       0.491
       0.537
       0.570
       0.587
       0.588
       0.575
       0.552
       0.521
       0.485
       0.444
       0.396
       0.338
       0.267
       0.189
       0.108
       0.028
      -0.050
      -0.123
      -0.189
      -0.244
      -0.286
      -0.318
      -0.344
      -0.366
      -0.382
      -0.388
      -0.380
      -0.359
      -0.330
      -0.298
      -0.265
      -0.233
      -0.201
      -0.165
      -0.123
      -0.078
      -0.033
       0.003
       0.027
       0.039
       0.042
       0.041
       0.037
       0.029
       0.018
       0.003
      -0.009
      -0.016
      -0.015
      -0.010
      -0.007
      -0.009
      -0.016
      -0.021
      -0.017
       0.001
       0.030
       0.066
       0.104
       0.143
       0.184
       0.223
       0.258
       0.286
       0.307
       0.324
       0.341
       0.354
       0.358
       0.351
       0.333
       0.309
       0.285
       0.264
       0.243
       0.221
       0.193
       0.160
       0.126
       0.094
       0.068
       0.048
       0.031
       0.012
      -0.009
      -0.030
      -0.048
      -0.063
      -0.078
      -0.094
      -0.110
      -0.123
      -0.131
      -0.130
      -0.125
      -0.121
      -0.119
      -0.117
      -0.107
      -0.083
      -0.043
       0.007
       0.061
       0.115
       0.170
       0.226
       0.283
       0.341
       0.397
       0.451
       0.503
       0.552
       0.597
       0.631
       0.650
       0.652
       0.644
       0.632
       0.618
       0.596
       0.559
       0.509
       0.450
       0.391
       0.335
       0.281
       0.224
       0.164
       0.102
       0.042
      -0.012
      -0.058
      -0.097
      -0.133
      -0.166
      -0.198
      -0.227
      -0.252
      -0.277
      -0.305
      -0.338
      -0.377
      -0.420
      -0.464
      -0.504
      -0.538
      -0.569
      -0.603
      -0.642
      -0.685
      -0.725
      -0.761
      -0.794
      -0.827
      -0.860
      -0.889
      -0.906
      -0.909
      -0.896
      -0.872
      -0.841
      -0.804
      -0.759
      -0.705
      -0.641
      -0.571
      -0.501
      -0.435
      -0.371
      -0.307
      -0.241
      -0.177
      -0.120
      -0.070
      -0.028
       0.006
       0.037
       0.066
       0.096
       0.126
       0.153
       0.173
       0.184
       0.191
       0.197
       0.204
       0.209
       0.209
       0.203
       0.190
       0.171
       0.146
       0.115
       0.079
       0.040
       0.001
      -0.036
      -0.067
      -0.095
      -0.119
      -0.142
      -0.162
      -0.176
      -0.179
      -0.165
      -0.138
      -0.105
      -0.072
      -0.045
      -0.021
       0.003
       0.026
       0.046
       0.057
       0.059
       0.054
       0.045
       0.030
       0.006
      -0.027
      -0.067
      -0.111
      -0.151
      -0.184
      -0.206
      -0.218
      -0.222
      -0.219
      -0.208
      -0.184
      -0.147
      -0.100
      -0.052
      -0.009
       0.026
       0.058
       0.090
       0.121
       0.145
       0.155
       0.146
       0.119
       0.077
       0.024
      -0.039
      -0.110
      -0.185
      -0.259
      -0.331
      -0.396
      -0.456
      -0.511
      -0.562
      -0.607
      -0.641
      -0.658
      -0.657
      -0.640
      -0.615
      -0.582
      -0.540
      -0.485
      -0.417
      -0.341
      -0.261
      -0.183
      -0.106
      -0.030
       0.044
       0.117
       0.190
       0.261
       0.329
       0.395
       0.461
       0.529
       0.600
       0.674
       0.753
       0.836
       0.922
       1.005
       1.077
       1.133
       1.174
       1.206
       1.233
       1.254
       1.265
       1.263
       1.248
       1.220
       1.181
       1.130
       1.065
       0.988
       0.902
       0.810
       0.716
       0.620
       0.520
       0.414
       0.301
       0.185
       0.073
      -0.030
      -0.124
      -0.208
      -0.287
      -0.365
      -0.441
      -0.509
      -0.564
      -0.600
      -0.622
      -0.635
      -0.644
      -0.648
      -0.644
      -0.630
      -0.605
      -0.572
      -0.536
      -0.504
      -0.480
      -0.464
      -0.451
      -0.436
      -0.419
      -0.403
      -0.393
      -0.388
      -0.389
      -0.398
      -0.418
      -0.452
      -0.498
      -0.546
      -0.585
      -0.609
      -0.616
      -0.610
      -0.594
      -0.575
      -0.552
      -0.526
      -0.494
      -0.458
      -0.420
      -0.385
      -0.351
      -0.318
      -0.283
      -0.251
      -0.223
      -0.199
      -0.177
      -0.152
      -0.126
      -0.101
      -0.078
      -0.054
      -0.029
       0.000
       0.037
       0.084
       0.143
       0.209
       0.281
       0.356
       0.438
       0.530
       0.632
       0.737
       0.841
       0.942
       1.041
       1.134
       1.212
       1.273
       1.318
       1.351
       1.375
       1.385
       1.376
       1.345
       1.295
       1.230
       1.153
       1.061
       0.954
       0.837
       0.716
       0.596
       0.481
       0.371
       0.267
       0.169
       0.076
      -0.010
      -0.090
      -0.163
      -0.230
      -0.291
      -0.346
      -0.398
      -0.447
      -0.492
      -0.533
      -0.574
      -0.620
      -0.675
      -0.740
      -0.810
      -0.880
      -0.945
      -1.002
      -1.052
      -1.096
      -1.133
      -1.161
      -1.176
      -1.178
      -1.166
      -1.143
      -1.112
      -1.075
      -1.030
      -0.977
      -0.912
      -0.833
      -0.741
      -0.639
      -0.533
      -0.427
      -0.323
      -0.222
      -0.124
      -0.027
       0.068
       0.162
       0.253
       0.338
       0.416
       0.488
       0.555
       0.616
       0.673
       0.724
       0.772
       0.816
       0.856
       0.891
       0.921
       0.942
       0.950
       0.945
       0.926
       0.899
       0.866
       0.829
       0.787
       0.737
       0.680
       0.619
       0.556
       0.491
       0.422
       0.351
       0.282
       0.223
       0.176
       0.135
       0.092
       0.042
      -0.013
      -0.067
      -0.114
      -0.155
      -0.193
      -0.227
      -0.259
      -0.287
      -0.309
      -0.325
      -0.334
      -0.334
      -0.329
      -0.321
      -0.311
      -0.296
      -0.275
      -0.247
      -0.216
      -0.182
      -0.145
      -0.104
      -0.065
      -0.035
      -0.014
       0.004
       0.023
       0.045
       0.064
       0.073
       0.070
       0.055
       0.034
       0.010
      -0.015
      -0.042
      -0.070
      -0.097
      -0.118
      -0.136
      -0.152
      -0.172
      -0.196
      -0.223
      -0.250
      -0.274
      -0.294
      -0.312
      -0.330
      -0.349
      -0.373
      -0.400
      -0.431
      -0.465
      -0.501
      -0.537
      -0.566
      -0.584
      -0.592
      -0.592
      -0.587
      -0.573
      -0.552
      -0.525
      -0.496
      -0.469
      -0.441
      -0.410
      -0.373
      -0.335
      -0.301
      -0.276
      -0.258
      -0.244
      -0.229
      -0.212
      -0.197
      -0.185
      -0.178
      -0.173
      -0.165
      -0.151
      -0.133
      -0.116
      -0.102
      -0.087
      -0.065
      -0.030
       0.016
       0.068
       0.122
       0.177
       0.238
       0.306
       0.376
       0.443
       0.503
       0.557
       0.604
       0.643
       0.676
       0.702
       0.720
       0.728
       0.723
       0.702
       0.669
       0.627
       0.578
       0.526
       0.469
       0.409
       0.347
       0.282
       0.212
       0.135
       0.054
      -0.025
      -0.098
      -0.163
      -0.219
      -0.268
      -0.310
      -0.349
      -0.387
      -0.426
      -0.462
      -0.490
      -0.505
      -0.505
      -0.492
      -0.469
      -0.441
      -0.412
      -0.386
      -0.366
      -0.350
      -0.335
      -0.323
      -0.314
      -0.308
      -0.298
      -0.283
      -0.267
      -0.255
      -0.250
      -0.250
      -0.248
      -0.239
      -0.220
      -0.189
      -0.146
      -0.095
      -0.039
       0.018
       0.077
       0.138
       0.200
       0.262
       0.319
       0.372
       0.419
       0.461
       0.494
       0.513
       0.516
       0.503
       0.476
       0.437
       0.387
       0.328
       0.263
       0.190
       0.106
       0.014
      -0.079
      -0.160
      -0.223
      -0.269
      -0.307
      -0.342
      -0.374
      -0.401
      -0.415
      -0.414
      -0.391
      -0.346
      -0.279
      -0.192
      -0.089
       0.029
       0.159
       0.297
       0.437
       0.577
       0.715
       0.850
       0.986
       1.120
       1.247
       1.357
       1.443
       1.503
       1.543
       1.567
       1.575
       1.560
       1.511
       1.424
       1.300
       1.148
       0.972
       0.772
       0.546
       0.293
       0.019
      -0.265
      -0.551
      -0.832
      -1.102
      -1.359
      -1.600
      -1.823
      -2.025
      -2.206
      -2.361
      -2.487
      -2.581
      -2.644
      -2.679
      -2.687
      -2.668
      -2.616
      -2.533
      -2.424
      -2.298
      -2.159
      -2.007
      -1.839
      -1.660
      -1.474
      -1.288
      -1.100
      -0.908
      -0.712
      -0.515
      -0.317
      -0.118
       0.084
       0.288
       0.487
       0.676
       0.853
       1.015
       1.162
       1.294
       1.413
       1.525
       1.632
       1.730
       1.811
       1.867
       1.898
       1.912
       1.917
       1.918
       1.913
       1.897
       1.869
       1.835
       1.803
       1.777
       1.754
       1.730
       1.705
       1.682
       1.666
       1.656
       1.649
       1.643
       1.633
       1.619
       1.601
       1.575
       1.537
       1.486
       1.420
       1.339
       1.244
       1.135
       1.012
       0.874
       0.721
       0.552
       0.370
       0.178
      -0.020
      -0.218
      -0.410
      -0.593
      -0.768
      -0.935
      -1.095
      -1.243
      -1.377
      -1.493
      -1.591
      -1.673
      -1.741
      -1.796
      -1.835
      -1.855
      -1.857
      -1.843
      -1.816
      -1.777
      -1.724
      -1.657
      -1.580
      -1.504
      -1.436
      -1.383
      -1.343
      -1.308
      -1.273
      -1.235
      -1.194
      -1.151
      -1.104
      -1.053
      -0.994
      -0.927
      -0.850
      -0.762
      -0.664
      -0.555
      -0.435
      -0.303
      -0.160
      -0.007
       0.149
       0.303
       0.452
       0.592
       0.720
       0.832
       0.927
       1.007
       1.072
       1.118
       1.139
       1.130
       1.093
       1.036
       0.964
       0.881
       0.791
       0.697
       0.603
       0.515
       0.436
       0.368
       0.313
       0.273
       0.247
       0.236
       0.239
       0.252
       0.273
       0.292
       0.301
       0.296
       0.281
       0.262
       0.238
       0.201
       0.143
       0.060
      -0.045
      -0.166
      -0.300
      -0.443
      -0.595
      -0.748
      -0.898
      -1.038
      -1.167
      -1.281
      -1.377
      -1.451
      -1.505
      -1.542
      -1.563
      -1.566
      -1.546
      -1.500
      -1.427
      -1.330
      -1.216
      -1.091
      -0.963
      -0.839
      -0.721
      -0.604
      -0.484
      -0.362
      -0.240
      -0.122
      -0.013
       0.089
       0.188
       0.283
       0.370
       0.441
       0.495
       0.533
       0.564
       0.595
       0.627
       0.654
       0.676
       0.694
       0.716
       0.746
       0.782
       0.823
       0.867
       0.918
       0.981
       1.058
       1.145
       1.240
       1.340
       1.444
       1.551
       1.657
       1.755
       1.841
       1.908
       1.956
       1.986
       1.997
       1.990
       1.965
       1.918
       1.850
       1.762
       1.655
       1.533
       1.401
       1.261
       1.120
       0.985
       0.864
       0.759
       0.670
       0.593
       0.522
       0.454
       0.387
       0.317
       0.245
       0.169
       0.091
       0.013
      -0.064
      -0.145
      -0.238
      -0.349
      -0.484
      -0.640
      -0.813
      -0.998
      -1.196
      -1.403
      -1.617
      -1.828
      -2.029
      -2.214
      -2.380
      -2.529
      -2.660
      -2.772
      -2.860
      -2.916
      -2.936
      -2.922
      -2.879
      -2.815
      -2.732
      -2.627
      -2.497
      -2.346
      -2.183
      -2.019
      -1.856
      -1.693
      -1.524
      -1.349
      -1.169
      -0.986
      -0.803
      -0.620
      -0.435
      -0.249
      -0.063
       0.121
       0.300
       0.478
       0.658
       0.840
       1.020
       1.195
       1.362
       1.523
       1.678
       1.825
       1.957
       2.072
       2.171
       2.259
       2.335
       2.397
       2.442
       2.464
       2.461
       2.434
       2.389
       2.326
       2.246
       2.146
       2.029
       1.900
       1.767
       1.637
       1.511
       1.385
       1.257
       1.126
       0.996
       0.869
       0.745
       0.628
       0.520
       0.422
       0.329
       0.240
       0.152
       0.067
      -0.011
      -0.082
      -0.149
      -0.212
      -0.273
      -0.328
      -0.377
      -0.425
      -0.475
      -0.530
      -0.586
      -0.639
      -0.687
      -0.733
      -0.780
      -0.833
      -0.888
      -0.943
      -0.991
      -1.029
      -1.054
      -1.069
      -1.078
      -1.083
      -1.082
      -1.075
      -1.063
      -1.050
      -1.039
      -1.026
      -1.009
      -0.982
      -0.947
      -0.906
      -0.859
      -0.807
      -0.746
      -0.677
      -0.603
      -0.527
      -0.450
      -0.371
      -0.291
      -0.209
      -0.127
      -0.043
       0.042
       0.124
       0.201
       0.269
       0.328
       0.380
       0.422
       0.455
       0.479
       0.500
       0.522
       0.543
       0.563
       0.582
       0.602
       0.631
       0.669
       0.714
       0.761
       0.807
       0.851
       0.893
       0.933
       0.968
       0.997
       1.015
       1.021
       1.010
       0.983
       0.939
       0.882
       0.813
       0.734
       0.640
       0.528
       0.397
       0.252
       0.099
      -0.055
      -0.205
      -0.347
      -0.478
      -0.596
      -0.702
      -0.796
      -0.882
      -0.962
      -1.037
      -1.103
      -1.157
      -1.195
      -1.218
      -1.231
      -1.241
      -1.249
      -1.255
      -1.255
      -1.244
      -1.222
      -1.190
      -1.151
      -1.110
      -1.066
      -1.014
      -0.948
      -0.863
      -0.760
      -0.644
      -0.522
      -0.401
      -0.283
      -0.173
      -0.072
       0.024
       0.116
       0.205
       0.289
       0.360
       0.414
       0.445
       0.457
       0.454
       0.443
       0.429
       0.414
       0.396
       0.377
       0.361
       0.353
       0.361
       0.384
       0.419
       0.461
       0.507
       0.560
       0.620
       0.683
       0.745
       0.801
       0.851
       0.897
       0.941
       0.981
       1.007
       1.014
       1.000
       0.970
       0.931
       0.885
       0.833
       0.778
       0.725
       0.679
       0.638
       0.597
       0.550
       0.494
       0.430
       0.361
       0.292
       0.228
       0.165
       0.099
       0.020
      -0.078
      -0.194
      -0.325
      -0.462
      -0.600
      -0.737
      -0.871
      -1.002
      -1.131
      -1.256
      -1.373
      -1.474
      -1.554
      -1.607
      -1.632
      -1.631
      -1.606
      -1.561
      -1.495
      -1.409
      -1.304
      -1.185
      -1.056
      -0.921
      -0.783
      -0.646
      -0.514
      -0.390
      -0.277
      -0.177
      -0.091
      -0.018
       0.038
       0.078
       0.103
       0.119
       0.136
       0.164
       0.208
       0.269
       0.341
       0.422
       0.507
       0.595
       0.683
       0.772
       0.858
       0.941
       1.018
       1.088
       1.148
       1.192
       1.215
       1.215
       1.195
       1.162
       1.124
       1.081
       1.032
       0.972
       0.896
       0.807
       0.708
       0.606
       0.508
       0.421
       0.348
       0.291
       0.249
       0.220
       0.203
       0.202
       0.214
       0.235
       0.262
       0.291
       0.323
       0.355
       0.384
       0.405
       0.416
       0.418
       0.411
       0.396
       0.373
       0.345
       0.320
       0.300
       0.287
       0.278
       0.267
       0.254
       0.235
       0.211
       0.185
       0.162
       0.145
       0.131
       0.118
       0.101
       0.074
       0.038
      -0.005
      -0.050
      -0.093
      -0.132
      -0.168
      -0.205
      -0.245
      -0.289
      -0.336
      -0.385
      -0.435
      -0.480
      -0.517
      -0.545
      -0.568
      -0.591
      -0.621
      -0.655
      -0.686
      -0.710
      -0.724
      -0.729
      -0.731
      -0.736
      -0.749
      -0.768
      -0.792
      -0.820
      -0.851
      -0.885
      -0.918
      -0.950
      -0.978
      -1.001
      -1.017
      -1.025
      -1.021
      -1.007
      -0.982
      -0.949
      -0.912
      -0.876
      -0.845
      -0.823
      -0.806
      -0.793
      -0.784
      -0.780
      -0.783
      -0.792
      -0.806
      -0.824
      -0.847
      -0.875
      -0.902
      -0.917
      -0.913
      -0.887
      -0.840
      -0.775
      -0.694
      -0.598
      -0.491
      -0.373
      -0.244
      -0.102
       0.055
       0.226
       0.407
       0.589
       0.767
       0.933
       1.085
       1.225
       1.357
       1.481
       1.596
       1.699
       1.788
       1.862
       1.921
       1.963
       1.989
       2.000
       1.998
       1.983
       1.957
       1.921
       1.874
       1.814
       1.738
       1.641
       1.521
       1.381
       1.229
       1.069
       0.903
       0.729
       0.547
       0.361
       0.179
       0.008
      -0.152
      -0.302
      -0.442
      -0.569
      -0.677
      -0.762
