Origin Time       1/5/2013 06:57:12	  UTC
Lat.              33.1 N	
Long.             75.8 E	
Depth (Km)         15.0
Magnitude         5.8
 Region           JK-HP-Border                                                     
 Above details taken from IMD 
    
Station Code      ASR
Station Lat.       31.644  N
Station Long.      74.858  E
Station Height(m)  235.0
Site Class        C   Vs30 between 200 m/sec to 375 m/sec *  
Record Time       01.05.2013 06:57:16.084 UTC
Sampling Rate     200. Hz
 Record Duration  108.775 Sec.
 Direction         N-S (N positive)
Max. Acceleration      8.293 cm/sec**2
     
  * For reference see Site Classification link of website 
     
 Base Line Corrected and Low Pass Filtered (Cut Off at 35 Hz) Time History
 Acceleration data in cm/sec**2
    
[...]
       1.405
       1.319
       1.145
       0.884
       0.565
       0.226
      -0.096
      -0.374
      -0.592
      -0.743
      -0.836
      -0.889
      -0.935
      -1.008
      -1.121
      -1.265
      -1.409
      -1.524
      -1.593
      -1.604
      -1.540
      -1.375
      -1.090
      -0.696
      -0.235
       0.244
       0.721
       1.208
       1.722
       2.263
       2.810
       3.336
       3.819
       4.235
       4.553
       4.751
       4.819
       4.756
       4.547
       4.172
       3.626
       2.942
       2.179
       1.395
       0.637
      -0.064
      -0.679
      -1.172
      -1.509
      -1.667
      -1.656
      -1.510
      -1.284
      -1.034
      -0.809
      -0.641
      -0.531
      -0.470
      -0.449
      -0.472
      -0.537
      -0.633
      -0.735
      -0.820
      -0.875
      -0.892
      -0.865
      -0.799
      -0.713
      -0.632
      -0.564
      -0.494
      -0.380
      -0.184
       0.109
       0.477
       0.869
       1.227
       1.510
       1.699
       1.787
       1.777
       1.693
       1.582
       1.502
       1.485
       1.522
       1.568
       1.578
       1.539
       1.470
       1.396
       1.321
       1.223
       1.082
       0.897
       0.693
       0.497
       0.326
       0.186
       0.078
       0.005
      -0.028
      -0.015
       0.038
       0.121
       0.214
       0.291
       0.323
       0.287
       0.181
       0.033
      -0.110
      -0.198
      -0.208
      -0.137
      -0.001
       0.181
       0.378
       0.548
       0.646
       0.638
       0.508
       0.259
      -0.097
      -0.542
      -1.054
      -1.611
      -2.192
      -2.777
      -3.346
      -3.874
      -4.329
      -4.677
      -4.896
      -4.982
      -4.946
      -4.798
      -4.542
      -4.177
      -3.702
      -3.127
      -2.485
      -1.830
      -1.216
      -0.669
      -0.186
       0.245
       0.631
       0.972
       1.273
       1.552
       1.825
       2.109
       2.402
       2.689
       2.935
       3.100
       3.155
       3.083
       2.879
       2.547
       2.101
       1.569
       0.987
       0.386
      -0.203
      -0.759
      -1.268
      -1.736
      -2.185
      -2.645
      -3.125
      -3.601
      -4.018
      -4.305
      -4.405
      -4.282
      -3.917
      -3.309
      -2.478
      -1.478
      -0.392
       0.699
       1.729
       2.657
       3.458
       4.126
       4.663
       5.076
       5.366
       5.525
       5.539
       5.394
       5.089
       4.637
       4.071
       3.433
       2.779
       2.174
       1.680
       1.337
       1.143
       1.058
       1.033
       1.024
       0.999
       0.935
       0.810
       0.612
       0.339
       0.004
      -0.359
      -0.699
      -0.958
      -1.101
      -1.136
      -1.097
      -1.010
      -0.863
      -0.633
      -0.324
       0.016
       0.316
       0.512
       0.567
       0.474
       0.250
      -0.068
      -0.425
      -0.773
      -1.086
      -1.363
      -1.602
      -1.785
      -1.891
      -1.917
      -1.892
      -1.858
      -1.836
      -1.818
      -1.784
      -1.720
      -1.628
      -1.520
      -1.401
      -1.266
      -1.102
      -0.896
      -0.649
      -0.389
      -0.162
      -0.011
       0.059
       0.075
       0.076
       0.081
       0.099
       0.139
       0.211
       0.305
       0.381
       0.390
       0.309
       0.147
      -0.067
      -0.306
      -0.545
      -0.757
      -0.913
      -0.999
      -1.021
      -0.991
      -0.908
      -0.744
      -0.469
      -0.082
       0.362
       0.775
       1.061
       1.148
       1.015
       0.695
       0.274
      -0.141
      -0.454
      -0.615
      -0.623
      -0.505
      -0.306
      -0.083
       0.103
       0.203
       0.193
       0.082
      -0.105
      -0.334
      -0.573
      -0.800
      -0.999
      -1.159
      -1.265
      -1.305
      -1.257
      -1.097
      -0.809
      -0.402
       0.074
       0.546
       0.949
       1.260
       1.493
       1.671
       1.800
       1.866
       1.853
       1.751
       1.549
       1.233
       0.786
       0.219
      -0.416
      -1.053
      -1.649
      -2.207
      -2.752
      -3.295
      -3.806
      -4.238
      -4.550
      -4.713
      -4.703
      -4.505
      -4.119
      -3.555
      -2.837
      -2.004
      -1.121
      -0.278
       0.429
       0.922
       1.176
       1.232
       1.178
       1.120
       1.147
       1.320
       1.671
       2.201
       2.884
       3.665
       4.472
       5.212
       5.771
       6.036
       5.943
       5.513
       4.860
       4.138
       3.487
       2.985
       2.650
       2.448
       2.313
       2.170
       1.954
       1.638
       1.249
       0.854
       0.533
       0.337
       0.270
       0.292
       0.345
       0.379
       0.360
       0.279
       0.150
       0.014
      -0.071
      -0.043
       0.136
       0.447
       0.802
       1.082
       1.184
       1.065
       0.747
       0.291
      -0.212
      -0.662
      -0.952
      -0.990
      -0.724
      -0.173
       0.572
       1.370
       2.075
       2.579
       2.820
       2.781
       2.484
       1.983
       1.353
       0.658
      -0.070
      -0.815
      -1.560
      -2.267
      -2.895
      -3.413
      -3.812
      -4.094
      -4.265
      -4.343
      -4.347
      -4.291
      -4.174
      -3.986
      -3.740
      -3.482
      -3.284
      -3.208
      -3.273
      -3.446
      -3.660
      -3.831
      -3.867
      -3.701
      -3.317
      -2.757
      -2.100
      -1.420
      -0.767
      -0.168
       0.354
       0.779
       1.097
       1.311
       1.427
       1.447
       1.375
       1.219
       0.999
       0.743
       0.485
       0.255
       0.083
      -0.012
      -0.035
      -0.019
      -0.015
      -0.064
      -0.177
      -0.324
      -0.456
      -0.518
      -0.472
      -0.303
      -0.022
       0.325
       0.663
       0.899
       0.959
       0.809
       0.463
      -0.024
      -0.585
      -1.153
      -1.667
      -2.069
      -2.308
      -2.345
      -2.163
      -1.780
      -1.249
      -0.642
      -0.001
       0.677
       1.422
       2.237
       3.064
       3.797
       4.322
       4.570
       4.536
       4.267
       3.845
       3.359
       2.876
       2.416
       1.948
       1.412
       0.770
       0.037
      -0.723
      -1.426
      -2.003
      -2.419
      -2.681
      -2.830
      -2.921
      -2.998
      -3.066
      -3.087
      -3.002
      -2.763
      -2.363
      -1.831
      -1.219
      -0.574
       0.068
       0.676
       1.212
       1.640
       1.938
       2.118
       2.225
       2.328
       2.498
       2.783
       3.199
       3.733
       4.345
       4.967
       5.488
       5.773
       5.693
       5.186
       4.279
       3.086
       1.772
       0.519
      -0.511
      -1.200
      -1.490
      -1.400
      -1.021
      -0.489
       0.050
       0.474
       0.703
       0.702
       0.493
       0.154
      -0.212
      -0.519
      -0.735
      -0.882
      -0.997
      -1.102
      -1.212
      -1.331
      -1.453
      -1.544
      -1.544
      -1.396
      -1.073
      -0.594
      -0.015
       0.588
       1.147
       1.605
       1.924
       2.077
       2.046
       1.829
       1.440
       0.906
       0.264
      -0.457
      -1.237
      -2.066
      -2.936
      -3.820
      -4.673
      -5.442
      -6.095
      -6.620
      -7.011
      -7.247
      -7.292
      -7.126
      -6.763
      -6.258
      -5.682
      -5.095
      -4.530
      -3.987
      -3.439
      -2.835
      -2.106
      -1.192
      -0.087
       1.144
       2.380
       3.480
       4.311
       4.775
       4.824
       4.477
       3.820
       2.982
       2.097
       1.278
       0.612
       0.163
      -0.025
       0.044
       0.313
       0.684
       1.060
       1.373
       1.590
       1.694
       1.680
       1.565
       1.389
       1.201
       1.036
       0.911
       0.849
       0.887
       1.065
       1.388
       1.799
       2.192
       2.463
       2.560
       2.495
       2.316
       2.072
       1.794
       1.506
       1.226
       0.958
       0.685
       0.383
       0.038
      -0.333
      -0.682
      -0.939
      -1.026
      -0.888
      -0.515
       0.051
       0.721
       1.379
       1.903
       2.200
       2.224
       1.981
       1.522
       0.915
       0.236
      -0.449
      -1.100
      -1.698
      -2.234
      -2.685
      -3.020
      -3.214
      -3.243
      -3.073
      -2.662
      -1.993
      -1.131
      -0.226
       0.536
       1.015
       1.175
       1.069
       0.784
       0.413
       0.051
      -0.200
      -0.259
      -0.113
       0.168
       0.477
       0.724
       0.855
       0.845
       0.672
       0.335
      -0.137
      -0.680
      -1.213
      -1.665
      -1.995
      -2.189
      -2.265
      -2.261
      -2.222
      -2.195
      -2.225
      -2.342
      -2.546
      -2.790
      -3.002
      -3.107
      -3.063
      -2.864
      -2.534
      -2.115
      -1.647
      -1.156
      -0.642
      -0.091
       0.504
       1.128
       1.749
       2.335
       2.864
       3.305
       3.626
       3.818
       3.912
       3.957
       3.989
       3.995
       3.930
       3.746
       3.416
       2.941
       2.349
       1.691
       1.033
       0.444
      -0.021
      -0.340
      -0.527
      -0.622
      -0.677
      -0.725
      -0.774
      -0.806
      -0.808
      -0.790
      -0.779
      -0.799
      -0.843
      -0.879
      -0.861
      -0.756
      -0.559
      -0.290
       0.015
       0.322
       0.605
       0.843
       1.013
       1.096
       1.094
       1.042
       0.988
       0.963
       0.967
       0.974
       0.959
       0.897
       0.746
       0.437
      -0.103
      -0.901
      -1.903
      -2.969
      -3.924
      -4.623
      -4.995
      -5.047
      -4.832
      -4.426
      -3.898
      -3.304
      -2.662
      -1.953
      -1.131
      -0.160
       0.954
       2.154
       3.347
       4.427
       5.301
       5.921
       6.294
       6.474
       6.521
       6.470
       6.327
       6.089
       5.763
       5.357
       4.875
       4.322
       3.715
       3.089
       2.473
       1.891
       1.360
       0.901
       0.518
       0.184
      -0.160
      -0.572
      -1.070
      -1.627
      -2.177
      -2.642
      -2.941
      -3.008
      -2.806
      -2.338
      -1.645
      -0.796
       0.125
       1.025
       1.813
       2.401
       2.709
       2.694
       2.364
       1.785
       1.069
       0.331
      -0.320
      -0.795
      -1.029
      -1.002
      -0.757
      -0.379
       0.052
       0.489
       0.903
       1.255
       1.490
       1.558
       1.430
       1.107
       0.618
       0.029
      -0.568
      -1.068
      -1.380
      -1.451
      -1.288
      -0.978
      -0.689
      -0.618
      -0.912
      -1.597
      -2.549
      -3.537
      -4.327
      -4.771
      -4.839
      -4.577
      -4.060
      -3.369
      -2.599
      -1.852
      -1.203
      -0.680
      -0.266
       0.064
       0.305
       0.429
       0.409
       0.246
      -0.029
      -0.371
      -0.724
      -1.018
      -1.179
      -1.150
      -0.915
      -0.505
       0.010
       0.540
       0.993
       1.284
       1.354
       1.173
       0.749
       0.119
      -0.637
      -1.405
      -2.047
      -2.447
      -2.533
      -2.286
      -1.734
      -0.959
      -0.104
       0.654
       1.159
       1.341
       1.233
       0.941
       0.580
       0.225
      -0.112
      -0.481
      -0.960
      -1.612
      -2.430
      -3.325
      -4.149
      -4.761
      -5.074
      -5.067
      -4.760
      -4.195
      -3.434
      -2.557
      -1.638
      -0.728
       0.148
       0.973
       1.724
       2.375
       2.890
       3.219
       3.305
       3.120
       2.691
       2.099
       1.461
       0.897
       0.506
       0.345
       0.424
       0.707
       1.141
       1.667
       2.229
       2.772
       3.254
       3.650
       3.956
       4.175
       4.302
       4.308
       4.141
       3.762
       3.171
       2.410
       1.561
       0.721
       0.005
      -0.487
      -0.693
      -0.619
      -0.327
       0.094
       0.556
       0.980
       1.301
       1.482
       1.518
       1.420
       1.205
       0.906
       0.582
       0.300
       0.101
      -0.035
      -0.172
      -0.371
      -0.651
      -0.983
      -1.320
      -1.634
      -1.926
      -2.207
      -2.477
      -2.717
      -2.891
      -2.959
      -2.884
      -2.652
      -2.294
      -1.883
      -1.504
      -1.227
      -1.093
      -1.122
      -1.316
      -1.649
      -2.054
      -2.428
      -2.665
      -2.710
      -2.585
      -2.371
      -2.167
      -2.038
      -1.996
      -2.015
      -2.046
      -2.029
      -1.908
      -1.648
      -1.260
      -0.796
      -0.330
       0.070
       0.366
       0.541
       0.590
       0.499
       0.253
      -0.156
      -0.704
      -1.338
      -1.981
      -2.546
      -2.949
      -3.129
      -3.052
      -2.725
      -2.187
      -1.505
      -0.747
       0.045
       0.870
       1.768
       2.785
       3.932
       5.157
       6.343
       7.345
       8.027
       8.293
       8.105
       7.487
       6.530
       5.379
       4.193
       3.105
       2.202
       1.535
       1.130
       0.988
       1.067
       1.272
       1.480
       1.590
       1.550
       1.359
       1.035
       0.581
      -0.021
      -0.796
      -1.725
      -2.719
      -3.629
      -4.309
      -4.671
      -4.722
      -4.547
      -4.262
      -3.965
      -3.695
      -3.434
      -3.118
      -2.683
      -2.107
      -1.439
      -0.777
      -0.216
       0.206
       0.503
       0.716
       0.877
       1.000
       1.099
       1.187
       1.275
       1.349
       1.377
       1.313
       1.115
       0.753
       0.217
      -0.473
      -1.261
      -2.045
      -2.682
      -3.032
      -3.011
      -2.619
      -1.930
      -1.060
      -0.141
       0.708
       1.394
       1.874
       2.167
       2.331
       2.422
       2.460
       2.424
       2.276
       1.986
       1.548
       0.981
       0.333
      -0.312
      -0.848
      -1.175
      -1.238
      -1.039
      -0.623
      -0.057
       0.591
       1.244
       1.815
       2.211
       2.367
       2.285
       2.053
       1.822
       1.735
       1.860
       2.157
       2.511
       2.801
       2.957
       2.977
       2.906
       2.778
       2.574
       2.218
       1.638
       0.827
      -0.132
      -1.086
      -1.878
      -2.396
      -2.600
      -2.520
      -2.237
      -1.845
      -1.430
      -1.048
      -0.721
      -0.440
      -0.194
       0.012
       0.155
       0.195
       0.088
      -0.206
      -0.702
      -1.378
      -2.164
      -2.967
      -3.682
      -4.205
      -4.444
      -4.333
      -3.860
      -3.077
      -2.076
      -0.977
       0.104
       1.064
       1.828
       2.354
       2.631
       2.690
       2.588
       2.387
       2.134
       1.855
       1.568
       1.290
       1.019
       0.735
       0.416
       0.074
      -0.236
      -0.435
      -0.463
      -0.311
      -0.032
       0.271
       0.483
       0.516
       0.340
      -0.011
      -0.451
      -0.866
      -1.143
      -1.206
      -1.052
      -0.751
      -0.427
      -0.216
      -0.224
      -0.489
      -0.969
      -1.568
      -2.172
      -2.691
      -3.087
      -3.372
      -3.583
      -3.745
      -3.841
      -3.837
      -3.713
      -3.489
      -3.200
      -2.866
      -2.484
      -2.036
      -1.513
      -0.931
      -0.318
       0.297
       0.909
       1.529
       2.159
       2.767
       3.288
       3.654
       3.828
       3.814
       3.636
       3.312
       2.858
       2.315
       1.763
       1.288
       0.942
       0.733
       0.635
       0.608
       0.608
       0.591
       0.525
       0.407
       0.273
       0.178
       0.160
       0.210
       0.270
       0.264
       0.133
      -0.138
      -0.530
      -0.998
      -1.480
      -1.902
      -2.180
      -2.242
      -2.053
      -1.637
      -1.068
      -0.458
       0.072
       0.418
       0.518
       0.376
       0.055
      -0.343
      -0.710
      -0.966
      -1.082
      -1.075
      -0.987
      -0.838
      -0.604
      -0.231
       0.318
       1.022
       1.805
       2.567
       3.217
       3.684
       3.923
       3.915
       3.675
       3.252
       2.711
       2.110
       1.482
       0.838
       0.200
      -0.387
      -0.862
      -1.175
      -1.314
      -1.291
      -1.128
      -0.837
      -0.440
       0.013
       0.433
       0.713
       0.765
       0.554
       0.097
      -0.547
      -1.307
      -2.103
      -2.857
      -3.493
      -3.946
      -4.178
      -4.186
      -4.020
      -3.758
      -3.475
      -3.198
      -2.905
      -2.546
      -2.073
      -1.455
      -0.692
       0.187
       1.113
       1.988
       2.702
       3.173
       3.372
       3.333
       3.131
       2.850
       2.567
       2.348
       2.251
       2.311
       2.529
       2.866
       3.248
       3.586
       3.788
       3.767
       3.467
       2.884
       2.084
       1.191
       0.346
      -0.337
      -0.798
      -1.037
      -1.097
      -1.040
      -0.931
      -0.826
      -0.780
      -0.836
      -1.020
      -1.331
      -1.741
      -2.206
      -2.688
      -3.169
      -3.637
      -4.070
      -4.429
      -4.661
      -4.715
      -4.559
      -4.186
      -3.629
      -2.960
      -2.270
      -1.633
      -1.079
      -0.580
      -0.073
       0.497
       1.139
       1.809
       2.430
       2.925
       3.246
       3.379
       3.341
       3.176
       2.934
       2.669
       2.424
       2.232
       2.115
       2.083
       2.139
       2.274
       2.464
       2.671
       2.854
       2.978
       3.028
       3.006
       2.934
       2.849
       2.779
       2.703
       2.542
       2.195
       1.601
       0.771
      -0.216
      -1.249
      -2.210
      -2.988
      -3.503
      -3.718
      -3.655
      -3.377
      -2.969
      -2.517
      -2.091
      -1.737
      -1.470
      -1.284
      -1.167
      -1.117
      -1.141
      -1.236
      -1.357
      -1.426
      -1.373
      -1.165
      -0.824
      -0.392
       0.091
       0.600
       1.108
       1.571
       1.939
       2.169
       2.251
       2.201
       2.064
       1.885
       1.700
       1.524
       1.339
       1.096
       0.733
       0.206
      -0.491
      -1.322
      -2.235
      -3.176
      -4.098
      -4.948
      -5.672
      -6.218
      -6.553
      -6.668
      -6.580
      -6.315
      -5.887
      -5.285
      -4.485
      -3.481
      -2.317
      -1.089
       0.087
       1.123
       1.975
       2.635
       3.097
       3.358
       3.431
       3.369
       3.247
       3.131
       3.043
       2.976
       2.911
