Origin Time       1/5/2013 06:57:12	 
Lat.              33.1 N	
Long.             75.8 E	
Depth (Km)         15.0
Magnitude         5.8
 Region           JK-HP-Border                                                     
 Above details taken from IMD 
     
Station Code      ASR
Station Lat.       31.644  N
Station Long.      74.858  E
Station Height(m)  235.0
Site Class        C   Vs30 between 200 m/sec to 375 m/sec *  
Record Time       01.05.2013 06:57:16.084
Sampling Rate     200. Hz
 Record Duration  108.775 Sec.
 Direction         E-W (E positive)
Max. Acceleration      7.974 cm/sec**2
     
  * For reference see Site Classification link of website 
     
 Base Line Corrected and Low Pass Filtered (Cut Off at 35 Hz) Time History
 Acceleration data in cm/sec**2
    
[...]
       0.246
       0.473
       0.660
       0.797
       0.900
       1.006
       1.156
       1.381
       1.681
       2.026
       2.372
       2.675
       2.918
       3.101
       3.223
       3.264
       3.194
       3.006
       2.741
       2.472
       2.261
       2.111
       1.969
       1.763
       1.447
       1.014
       0.496
      -0.044
      -0.524
      -0.866
      -1.030
      -1.033
      -0.939
      -0.826
      -0.754
      -0.733
      -0.724
      -0.674
      -0.555
      -0.367
      -0.122
       0.170
       0.505
       0.861
       1.204
       1.492
       1.682
       1.747
       1.670
       1.458
       1.131
       0.711
       0.218
      -0.314
      -0.828
      -1.253
      -1.550
      -1.723
      -1.805
      -1.817
      -1.758
      -1.631
      -1.472
      -1.342
      -1.282
      -1.277
      -1.245
      -1.088
      -0.739
      -0.195
       0.486
       1.208
       1.863
       2.353
       2.615
       2.634
       2.439
       2.084
       1.639
       1.177
       0.761
       0.427
       0.185
       0.027
      -0.067
      -0.118
      -0.153
      -0.192
      -0.242
      -0.302
      -0.371
      -0.460
      -0.582
      -0.744
      -0.937
      -1.135
      -1.311
      -1.444
      -1.533
      -1.589
      -1.636
      -1.691
      -1.752
      -1.807
      -1.835
      -1.815
      -1.738
      -1.604
      -1.430
      -1.226
      -0.995
      -0.738
      -0.471
      -0.232
      -0.060
       0.025
       0.039
       0.023
       0.018
       0.039
       0.076
       0.116
       0.168
       0.260
       0.412
       0.603
       0.786
       0.911
       0.945
       0.877
       0.706
       0.432
       0.058
      -0.421
      -1.003
      -1.658
      -2.317
      -2.885
      -3.276
      -3.452
      -3.424
      -3.242
      -2.969
      -2.659
      -2.350
      -2.071
      -1.843
      -1.676
      -1.554
      -1.441
      -1.300
      -1.103
      -0.840
      -0.503
      -0.100
       0.334
       0.739
       1.041
       1.182
       1.132
       0.883
       0.440
      -0.172
      -0.906
      -1.688
      -2.435
      -3.067
      -3.527
      -3.774
      -3.790
      -3.583
      -3.199
      -2.707
      -2.178
      -1.652
      -1.140
      -0.635
      -0.136
       0.340
       0.767
       1.113
       1.358
       1.501
       1.558
       1.556
       1.529
       1.521
       1.583
       1.753
       2.032
       2.381
       2.727
       2.987
       3.087
       2.981
       2.654
       2.125
       1.439
       0.662
      -0.121
      -0.818
      -1.345
      -1.654
      -1.738
      -1.625
      -1.356
      -0.972
      -0.510
      -0.008
       0.492
       0.954
       1.362
       1.721
       2.053
       2.373
       2.672
       2.919
       3.070
       3.091
       2.970
       2.717
       2.369
       1.979
       1.605
       1.289
       1.037
       0.816
       0.565
       0.226
      -0.233
      -0.810
      -1.477
      -2.193
      -2.898
      -3.511
      -3.941
      -4.120
      -4.036
      -3.742
      -3.322
      -2.852
      -2.373
      -1.897
      -1.421
      -0.937
      -0.436
       0.085
       0.617
       1.138
       1.627
       2.079
       2.503
       2.910
       3.296
       3.631
       3.879
       3.992
       3.925
       3.635
       3.108
       2.378
       1.531
       0.678
      -0.084
      -0.707
      -1.196
      -1.597
      -1.956
      -2.288
      -2.561
      -2.723
      -2.738
      -2.607
      -2.365
      -2.049
      -1.674
      -1.228
      -0.685
      -0.030
       0.721
       1.516
       2.275
       2.918
       3.383
       3.635
       3.666
       3.490
       3.153
       2.741
       2.360
       2.093
       1.953
       1.878
       1.777
       1.587
       1.308
       0.994
       0.718
       0.544
       0.518
       0.656
       0.938
       1.319
       1.736
       2.130
       2.444
       2.632
       2.658
       2.501
       2.159
       1.649
       1.006
       0.284
      -0.450
      -1.120
      -1.659
      -2.016
      -2.170
      -2.125
      -1.901
      -1.536
      -1.086
      -0.607
      -0.138
       0.310
       0.746
       1.175
       1.585
       1.955
       2.255
       2.460
       2.545
       2.492
       2.293
       1.961
       1.532
       1.053
       0.556
       0.039
      -0.516
      -1.105
      -1.687
      -2.198
      -2.585
      -2.823
      -2.916
      -2.882
      -2.755
      -2.570
      -2.358
      -2.133
      -1.890
      -1.607
      -1.267
      -0.869
      -0.436
      -0.007
       0.376
       0.676
       0.870
       0.947
       0.911
       0.782
       0.597
       0.399
       0.215
       0.044
      -0.145
      -0.391
      -0.704
      -1.051
      -1.372
      -1.620
      -1.765
      -1.796
      -1.691
      -1.431
      -1.011
      -0.460
       0.164
       0.790
       1.353
       1.803
       2.105
       2.246
       2.245
       2.160
       2.073
       2.061
       2.162
       2.371
       2.647
       2.937
       3.175
       3.297
       3.248
       2.989
       2.507
       1.815
       0.956
       0.000
      -0.964
      -1.849
      -2.582
      -3.117
      -3.432
      -3.523
      -3.414
      -3.146
      -2.776
      -2.367
      -1.977
      -1.658
      -1.450
      -1.386
      -1.473
      -1.690
      -1.986
      -2.297
      -2.567
      -2.762
      -2.864
      -2.873
      -2.809
      -2.708
      -2.611
      -2.543
      -2.498
      -2.454
      -2.391
      -2.317
      -2.263
      -2.268
      -2.355
      -2.512
      -2.702
      -2.878
      -3.003
      -3.056
      -3.025
      -2.898
      -2.654
      -2.280
      -1.801
      -1.289
      -0.841
      -0.542
      -0.445
      -0.567
      -0.894
      -1.383
      -1.957
      -2.540
      -3.073
      -3.530
      -3.894
      -4.146
      -4.270
      -4.269
      -4.167
      -3.996
      -3.784
      -3.553
      -3.334
      -3.157
      -3.018
      -2.857
      -2.561
      -2.016
      -1.166
      -0.053
       1.197
       2.423
       3.483
       4.290
       4.819
       5.097
       5.184
       5.151
       5.042
       4.859
       4.567
       4.121
       3.512
       2.776
       1.991
       1.254
       0.666
       0.324
       0.295
       0.583
       1.118
       1.780
       2.445
       3.038
       3.536
       3.949
       4.285
       4.533
       4.675
       4.710
       4.674
       4.623
       4.594
       4.572
       4.497
       4.298
       3.926
       3.380
       2.705
       1.968
       1.231
       0.524
      -0.156
      -0.834
      -1.525
      -2.205
      -2.805
      -3.222
      -3.338
      -3.047
      -2.289
      -1.085
       0.448
       2.117
       3.709
       5.056
       6.070
       6.740
       7.101
       7.208
       7.121
       6.899
       6.593
       6.238
       5.843
       5.392
       4.858
       4.210
       3.425
       2.501
       1.464
       0.369
      -0.712
      -1.699
      -2.522
      -3.130
      -3.495
      -3.617
      -3.517
      -3.235
      -2.827
      -2.357
      -1.887
      -1.450
      -1.043
      -0.626
      -0.141
       0.454
       1.162
       1.934
       2.679
       3.291
       3.682
       3.801
       3.636
       3.212
       2.573
       1.779
       0.896
      -0.008
      -0.873
      -1.648
      -2.304
      -2.836
      -3.252
      -3.576
      -3.843
      -4.106
      -4.419
      -4.805
      -5.233
      -5.615
      -5.845
      -5.853
      -5.635
      -5.238
      -4.726
      -4.148
      -3.545
      -2.970
      -2.491
      -2.180
      -2.087
      -2.237
      -2.634
      -3.258
      -4.061
      -4.952
      -5.791
      -6.418
      -6.687
      -6.506
      -5.852
      -4.759
      -3.312
      -1.638
       0.104
       1.745
       3.144
       4.213
       4.924
       5.300
       5.397
       5.289
       5.046
       4.728
       4.383
       4.056
       3.780
       3.557
       3.350
       3.103
       2.782
       2.402
       2.028
       1.730
       1.539
       1.410
       1.242
       0.921
       0.388
      -0.327
      -1.109
      -1.810
      -2.298
      -2.498
      -2.397
      -2.032
      -1.491
      -0.890
      -0.355
       0.030
       0.233
       0.273
       0.174
      -0.046
      -0.371
      -0.771
      -1.194
      -1.581
      -1.865
      -1.991
      -1.929
      -1.687
      -1.302
      -0.825
      -0.313
       0.160
       0.510
       0.666
       0.595
       0.324
      -0.070
      -0.480
      -0.802
      -0.960
      -0.923
      -0.712
      -0.384
      -0.020
       0.302
       0.526
       0.636
       0.651
       0.607
       0.537
       0.445
       0.309
       0.086
      -0.259
      -0.733
      -1.306
      -1.925
      -2.526
      -3.046
      -3.422
      -3.588
      -3.476
      -3.034
      -2.256
      -1.205
      -0.003
       1.208
       2.308
       3.214
       3.867
       4.233
       4.304
       4.103
       3.679
       3.096
       2.422
       1.734
       1.111
       0.617
       0.286
       0.121
       0.089
       0.120
       0.120
       0.004
      -0.269
      -0.685
      -1.194
      -1.716
      -2.137
      -2.325
      -2.172
      -1.642
      -0.800
       0.201
       1.166
       1.927
       2.379
       2.502
       2.342
       1.997
       1.592
       1.246
       1.038
       0.981
       1.029
       1.098
       1.118
       1.054
       0.918
       0.749
       0.595
       0.501
       0.497
       0.581
       0.697
       0.730
       0.551
       0.080
      -0.671
      -1.593
      -2.515
      -3.261
      -3.697
      -3.774
      -3.539
      -3.097
      -2.567
      -2.032
      -1.536
      -1.090
      -0.697
      -0.374
      -0.171
      -0.157
      -0.389
      -0.864
      -1.491
      -2.108
      -2.537
      -2.652
      -2.430
      -1.958
      -1.396
      -0.921
      -0.657
      -0.632
      -0.765
      -0.909
      -0.917
      -0.700
      -0.243
       0.413
       1.195
       2.019
       2.797
       3.444
       3.890
       4.096
       4.051
       3.772
       3.298
       2.687
       2.022
       1.420
       1.020
       0.931
       1.177
       1.665
       2.212
       2.607
       2.668
       2.294
       1.493
       0.383
      -0.834
      -1.928
      -2.702
      -3.057
      -3.012
      -2.693
      -2.276
      -1.913
      -1.687
      -1.602
      -1.603
      -1.613
      -1.559
      -1.392
      -1.084
      -0.638
      -0.091
       0.474
       0.954
       1.258
       1.349
       1.255
       1.043
       0.781
       0.511
       0.240
      -0.050
      -0.362
      -0.659
      -0.849
      -0.817
      -0.489
       0.127
       0.932
       1.781
       2.548
       3.158
       3.592
       3.857
       3.976
       3.982
       3.922
       3.829
       3.697
       3.477
       3.125
       2.648
       2.111
       1.581
       1.083
       0.576
      -0.005
      -0.702
      -1.493
      -2.287
      -2.971
      -3.451
      -3.696
      -3.732
      -3.623
      -3.434
      -3.216
      -3.006
      -2.830
      -2.713
      -2.675
      -2.700
      -2.729
      -2.678
      -2.491
      -2.187
      -1.854
      -1.584
      -1.406
      -1.274
      -1.107
      -0.860
      -0.555
      -0.259
      -0.029
       0.120
       0.208
       0.267
       0.318
       0.363
       0.394
       0.401
       0.390
       0.390
       0.451
       0.629
       0.963
       1.459
       2.084
       2.772
       3.438
       3.994
       4.364
       4.499
       4.404
       4.152
       3.871
       3.689
       3.678
       3.821
       4.035
       4.203
       4.204
       3.925
       3.275
       2.212
       0.776
      -0.909
      -2.653
      -4.258
      -5.575
      -6.528
      -7.091
      -7.274
      -7.099
      -6.605
      -5.837
      -4.845
      -3.679
      -2.410
      -1.138
       0.015
       0.944
       1.604
       2.019
       2.258
       2.394
       2.473
       2.500
       2.460
       2.344
       2.180
       2.037
       1.994
       2.087
       2.276
       2.460
       2.531
       2.444
       2.230
       1.964
       1.699
       1.447
       1.205
       0.978
       0.785
       0.628
       0.469
       0.229
      -0.178
      -0.811
      -1.665
      -2.661
      -3.669
      -4.546
      -5.173
      -5.475
      -5.428
      -5.063
      -4.467
      -3.769
      -3.111
      -2.597
      -2.257
      -2.035
      -1.820
      -1.499
      -1.006
      -0.347
       0.407
       1.137
       1.711
       2.011
       1.954
       1.497
       0.636
      -0.594
      -2.094
      -3.694
      -5.179
      -6.341
      -7.038
      -7.225
      -6.947
      -6.316
      -5.475
      -4.551
      -3.625
      -2.695
      -1.696
      -0.554
       0.748
       2.141
       3.489
       4.643
       5.483
       5.937
       5.989
       5.683
       5.105
       4.344
       3.467
       2.508
       1.497
       0.475
      -0.495
      -1.342
      -2.006
      -2.453
      -2.682
      -2.716
      -2.590
      -2.327
      -1.931
      -1.395
      -0.711
       0.115
       1.052
       2.048
       3.052
       4.031
       4.974
       5.874
       6.698
       7.374
       7.818
       7.974
       7.843
       7.479
       6.956
       6.327
       5.609
       4.794
       3.878
       2.877
       1.838
       0.838
      -0.029
      -0.680
      -1.071
      -1.222
      -1.216
      -1.171
      -1.196
      -1.344
      -1.589
      -1.848
      -2.029
      -2.089
      -2.053
      -1.987
      -1.943
      -1.938
      -1.958
      -1.999
      -2.090
      -2.282
      -2.603
      -3.025
      -3.472
      -3.856
      -4.117
      -4.237
      -4.220
      -4.073
      -3.795
      -3.382
      -2.840
      -2.201
      -1.525
      -0.882
      -0.324
       0.135
       0.514
       0.841
       1.127
       1.366
       1.554
       1.696
       1.813
       1.938
       2.090
       2.261
       2.409
       2.471
       2.403
       2.197
       1.888
       1.522
       1.140
       0.758
       0.377
      -0.002
      -0.365
      -0.694
      -0.977
      -1.213
      -1.410
      -1.568
      -1.664
      -1.653
      -1.489
      -1.160
      -0.715
      -0.246
       0.150
       0.405
       0.501
       0.467
       0.364
       0.252
       0.177
       0.156
       0.194
       0.279
       0.377
       0.432
       0.393
       0.250
       0.042
      -0.175
      -0.365
      -0.530
      -0.692
      -0.866
      -1.052
      -1.234
      -1.386
      -1.475
      -1.473
      -1.374
      -1.192
      -0.958
      -0.687
      -0.362
       0.059
       0.605
       1.244
       1.881
       2.402
       2.742
       2.919
       3.009
       3.096
       3.226
       3.390
       3.553
       3.665
       3.668
       3.495
       3.104
       2.519
       1.858
       1.294
       0.972
       0.945
       1.156
       1.489
       1.824
       2.073
       2.190
       2.154
       1.974
       1.681
       1.337
       1.016
       0.779
       0.645
       0.586
       0.524
       0.372
       0.063
      -0.413
      -1.001
      -1.609
      -2.146
      -2.549
      -2.795
      -2.892
      -2.864
      -2.746
      -2.575
      -2.387
      -2.210
      -2.068
      -1.977
      -1.941
      -1.955
      -2.000
      -2.062
      -2.143
      -2.259
      -2.438
      -2.702
      -3.057
      -3.480
      -3.912
      -4.282
      -4.530
      -4.632
      -4.593
      -4.424
      -4.126
      -3.687
      -3.094
      -2.353
      -1.511
      -0.651
       0.126
       0.717
       1.041
       1.055
       0.760
       0.204
      -0.533
      -1.350
      -2.141
      -2.812
      -3.295
      -3.553
      -3.574
      -3.367
      -2.958
      -2.395
      -1.748
      -1.083
      -0.444
       0.159
       0.729
       1.262
       1.734
       2.125
       2.435
       2.683
       2.904
       3.118
       3.324
       3.493
       3.575
       3.528
       3.343
       3.054
       2.714
       2.375
       2.061
       1.779
       1.538
       1.353
       1.241
       1.200
       1.213
       1.274
       1.392
       1.575
       1.802
       2.003
       2.080
       1.945
       1.553
       0.915
       0.105
      -0.753
      -1.513
      -2.040
      -2.245
      -2.106
      -1.664
      -0.992
      -0.174
       0.689
       1.469
       2.003
       2.137
       1.797
       1.045
       0.080
      -0.829
      -1.436
      -1.607
      -1.339
      -0.736
       0.060
       0.929
       1.788
       2.574
       3.224
       3.674
       3.889
       3.885
       3.729
       3.497
       3.252
       3.030
       2.857
       2.751
       2.708
       2.689
       2.621
       2.410
       1.960
       1.202
       0.134
      -1.162
      -2.537
      -3.826
      -4.900
      -5.692
      -6.190
      -6.414
      -6.388
      -6.133
      -5.667
      -5.031
      -4.287
      -3.509
      -2.747
      -2.020
      -1.318
      -0.636
       0.008
       0.574
       1.028
       1.361
       1.584
       1.692
       1.644
       1.385
       0.914
       0.306
      -0.318
      -0.852
      -1.232
      -1.434
      -1.440
      -1.245
      -0.864
      -0.351
       0.207
       0.716
       1.111
       1.377
       1.544
       1.675
       1.842
       2.088
       2.409
       2.755
       3.053
       3.237
       3.254
       3.056
       2.603
       1.890
       0.966
      -0.053
      -1.012
      -1.770
      -2.259
      -2.509
      -2.619
      -2.685
      -2.733
      -2.719
      -2.571
      -2.259
      -1.809
      -1.282
      -0.725
      -0.157
       0.408
       0.930
       1.338
       1.568
       1.602
       1.474
       1.234
       0.923
       0.567
       0.192
      -0.168
      -0.485
      -0.742
      -0.929
      -1.035
      -1.045
      -0.955
      -0.771
      -0.513
      -0.201
       0.147
       0.518
       0.898
       1.269
       1.600
       1.850
       1.979
       1.957
       1.774
       1.439
       0.967
       0.372
      -0.337
      -1.138
      -1.979
      -2.771
      -3.415
      -3.845
      -4.072
      -4.173
      -4.249
      -4.352
      -4.444
      -4.408
      -4.121
      -3.528
      -2.674
      -1.669
      -0.635
       0.342
       1.222
       1.994
       2.639
       3.122
       3.404
       3.473
       3.362
       3.129
       2.836
       2.533
       2.265
       2.082
       2.026
       2.119
       2.340
       2.638
       2.945
       3.191
       3.302
       3.201
       2.820
       2.141
       1.228
       0.238
      -0.618
      -1.133
      -1.186
      -0.772
      -0.012
       0.894
       1.723
       2.291
       2.504
       2.372
       1.981
       1.452
       0.879
       0.308
      -0.264
      -0.853
      -1.466
      -2.078
      -2.620
      -2.986
      -3.060
      -2.773
      -2.144
      -1.283
      -0.344
       0.522
       1.207
