Origin Time       1/5/2013 06:57:12	 
Lat.              33.1 N	
Long.             75.8 E	
Depth (Km)         15.0
Magnitude         5.8
 Region           JK-HP-Border                                                     
 Above details taken from IMD 
   
Station Code      ASR
Station Lat.       31.644
Station Long.      74.858
Station Height(m)  235.0
Site Class        C   Vs30 between 200 m/sec to 375 m/sec *  
Record Time       01.05.2013 06:57:16.084
Sampling Rate     200. Hz
 Record Duration  108.775 Sec.
 Direction         Vert. (Up positive)
Max. Acceleration     -7.790 cm/sec**2
     
  * For reference see Site Classification link of website 
     
 Base Line Corrected and Low Pass Filtered (Cut Off at 35 Hz) Time History
 Acceleration data in cm/sec**2
    
[...]
      -0.206
      -0.339
      -0.426
      -0.401
      -0.231
       0.039
       0.320
       0.533
       0.644
       0.647
       0.529
       0.264
      -0.132
      -0.572
      -0.912
      -1.038
      -0.933
      -0.675
      -0.370
      -0.081
       0.191
       0.482
       0.804
       1.121
       1.359
       1.445
       1.338
       1.047
       0.628
       0.159
      -0.285
      -0.648
      -0.898
      -1.020
      -1.009
      -0.863
      -0.582
      -0.184
       0.283
       0.732
       1.049
       1.145
       1.006
       0.705
       0.365
       0.080
      -0.113
      -0.214
      -0.216
      -0.087
       0.190
       0.580
       0.996
       1.332
       1.515
       1.511
       1.321
       0.979
       0.559
       0.168
      -0.100
      -0.204
      -0.171
      -0.060
       0.087
       0.250
       0.398
       0.472
       0.414
       0.225
      -0.035
      -0.298
      -0.554
      -0.850
      -1.224
      -1.641
      -1.991
      -2.167
      -2.145
      -1.985
      -1.776
      -1.571
      -1.372
      -1.156
      -0.911
      -0.652
      -0.409
      -0.202
      -0.036
       0.096
       0.209
       0.332
       0.516
       0.819
       1.276
       1.862
       2.467
       2.933
       3.126
       3.011
       2.656
       2.173
       1.647
       1.117
       0.597
       0.104
      -0.351
      -0.765
      -1.138
      -1.447
      -1.644
      -1.687
      -1.580
      -1.366
      -1.096
      -0.794
      -0.469
      -0.150
       0.097
       0.213
       0.198
       0.118
       0.061
       0.069
       0.122
       0.173
       0.189
       0.164
       0.106
       0.027
      -0.060
      -0.146
      -0.225
      -0.283
      -0.299
      -0.249
      -0.124
       0.048
       0.206
       0.280
       0.232
       0.065
      -0.188
      -0.487
      -0.794
      -1.069
      -1.259
      -1.316
      -1.217
      -0.975
      -0.611
      -0.141
       0.391
       0.884
       1.207
       1.275
       1.118
       0.852
       0.587
       0.367
       0.169
      -0.035
      -0.233
      -0.375
      -0.422
      -0.376
      -0.281
      -0.176
      -0.073
       0.034
       0.147
       0.255
       0.323
       0.312
       0.195
      -0.009
      -0.225
      -0.362
      -0.355
      -0.203
       0.043
       0.304
       0.515
       0.624
       0.600
       0.444
       0.207
      -0.026
      -0.178
      -0.223
      -0.195
      -0.148
      -0.120
      -0.107
      -0.078
      -0.004
       0.129
       0.299
       0.450
       0.510
       0.418
       0.158
      -0.240
      -0.706
      -1.153
      -1.500
      -1.693
      -1.725
      -1.629
      -1.444
      -1.167
      -0.770
      -0.250
       0.324
       0.843
       1.217
       1.414
       1.452
       1.381
       1.269
       1.183
       1.165
       1.218
       1.311
       1.406
       1.488
       1.550
       1.555
       1.417
       1.043
       0.426
      -0.316
      -1.003
      -1.510
      -1.827
      -2.031
      -2.183
      -2.276
      -2.247
      -2.042
      -1.677
      -1.237
      -0.831
      -0.532
      -0.350
      -0.254
      -0.216
      -0.225
      -0.283
      -0.382
      -0.499
      -0.590
      -0.611
      -0.544
      -0.409
      -0.244
      -0.061
       0.175
       0.513
       0.961
       1.464
       1.939
       2.307
       2.512
       2.509
       2.285
       1.879
       1.385
       0.909
       0.515
       0.203
      -0.069
      -0.337
      -0.597
      -0.829
      -1.031
      -1.222
      -1.418
      -1.614
      -1.799
      -1.981
      -2.178
      -2.363
      -2.447
      -2.327
      -1.956
      -1.376
      -0.681
       0.030
       0.693
       1.266
       1.704
       1.957
       2.007
       1.902
       1.740
       1.612
       1.555
       1.551
       1.575
       1.624
       1.709
       1.817
       1.910
       1.938
       1.864
       1.671
       1.361
       0.945
       0.441
      -0.115
      -0.660
      -1.127
      -1.476
      -1.720
      -1.890
      -2.003
      -2.050
      -2.026
      -1.947
      -1.851
      -1.765
      -1.692
      -1.611
      -1.504
      -1.364
      -1.208
      -1.059
      -0.929
      -0.809
      -0.674
      -0.505
      -0.308
      -0.093
       0.135
       0.385
       0.655
       0.921
       1.136
       1.257
       1.286
       1.280
       1.326
       1.486
       1.744
       2.013
       2.185
       2.203
       2.091
       1.932
       1.809
       1.746
       1.702
       1.596
       1.370
       1.023
       0.625
       0.273
       0.039
      -0.077
      -0.131
      -0.209
      -0.370
      -0.618
      -0.908
      -1.175
      -1.390
      -1.573
      -1.768
      -1.979
      -2.145
      -2.179
      -2.047
      -1.803
      -1.546
      -1.341
      -1.187
      -1.045
      -0.887
      -0.722
      -0.574
      -0.449
      -0.327
      -0.189
      -0.031
       0.140
       0.325
       0.533
       0.763
       0.984
       1.145
       1.210
       1.186
       1.111
       1.032
       0.975
       0.943
       0.916
       0.868
       0.781
       0.655
       0.503
       0.349
       0.213
       0.088
      -0.060
      -0.249
      -0.446
      -0.586
      -0.613
      -0.527
      -0.383
      -0.238
      -0.119
      -0.021
       0.050
       0.056
      -0.053
      -0.274
      -0.524
      -0.690
      -0.711
      -0.624
      -0.516
      -0.445
      -0.406
      -0.359
      -0.270
      -0.114
       0.111
       0.361
       0.514
       0.435
       0.086
      -0.394
      -0.754
      -0.792
      -0.502
      -0.063
       0.301
       0.495
       0.591
       0.718
       0.910
       1.061
       1.027
       0.753
       0.320
      -0.128
      -0.497
      -0.793
      -1.101
      -1.486
      -1.903
      -2.191
      -2.172
      -1.798
      -1.204
      -0.624
      -0.235
      -0.066
      -0.035
      -0.046
      -0.062
      -0.095
      -0.132
      -0.095
       0.135
       0.614
       1.268
       1.944
       2.518
       2.970
       3.331
       3.592
       3.677
       3.500
       3.043
       2.387
       1.664
       0.983
       0.377
      -0.182
      -0.724
      -1.246
      -1.733
      -2.209
      -2.728
      -3.311
      -3.892
      -4.331
      -4.502
      -4.371
      -4.012
      -3.525
      -2.941
      -2.201
      -1.238
      -0.095
       1.044
       1.948
       2.500
       2.764
       2.913
       3.090
       3.318
       3.528
       3.663
       3.735
       3.800
       3.847
       3.766
       3.426
       2.805
       2.043
       1.330
       0.753
       0.243
      -0.339
      -1.059
      -1.855
      -2.579
      -3.096
      -3.356
      -3.413
      -3.358
      -3.250
      -3.084
      -2.808
      -2.378
      -1.785
      -1.080
      -0.362
       0.269
       0.764
       1.142
       1.449
       1.709
       1.911
       2.038
       2.088
       2.067
       1.966
       1.770
       1.494
       1.202
       0.963
       0.797
       0.660
       0.489
       0.249
      -0.046
      -0.370
      -0.725
      -1.148
      -1.660
      -2.215
      -2.729
      -3.138
      -3.436
      -3.639
      -3.736
      -3.681
      -3.433
      -2.993
      -2.428
      -1.841
      -1.314
      -0.860
      -0.433
       0.021
       0.509
       0.981
       1.378
       1.682
       1.924
       2.145
       2.347
       2.480
       2.492
       2.381
       2.206
       2.022
       1.813
       1.511
       1.088
       0.620
       0.256
       0.090
       0.093
       0.153
       0.195
       0.255
       0.431
       0.777
       1.234
       1.655
       1.897
       1.896
       1.676
       1.306
       0.847
       0.325
      -0.274
      -0.982
      -1.803
      -2.668
      -3.442
      -3.983
      -4.198
      -4.066
      -3.613
      -2.885
      -1.948
      -0.902
       0.121
       0.992
       1.607
       1.911
       1.909
       1.686
       1.393
       1.185
       1.136
       1.207
       1.287
       1.304
       1.314
       1.456
       1.811
       2.276
       2.598
       2.547
       2.084
       1.362
       0.581
      -0.160
      -0.880
      -1.605
      -2.270
      -2.733
      -2.891
      -2.765
      -2.477
      -2.165
      -1.899
      -1.704
      -1.604
      -1.649
      -1.854
      -2.156
      -2.429
      -2.560
      -2.498
      -2.255
      -1.878
      -1.428
      -0.962
      -0.528
      -0.153
       0.157
       0.412
       0.603
       0.693
       0.648
       0.514
       0.442
       0.618
       1.139
       1.938
       2.837
       3.665
       4.354
       4.910
       5.329
       5.547
       5.479
       5.096
       4.464
       3.690
       2.845
       1.941
       0.986
       0.041
      -0.780
      -1.379
      -1.739
      -1.935
      -2.098
      -2.332
      -2.668
      -3.059
      -3.431
      -3.731
      -3.929
      -3.998
      -3.899
      -3.593
      -3.076
      -2.384
      -1.574
      -0.681
       0.273
       1.239
       2.115
       2.773
       3.119
       3.130
       2.836
       2.290
       1.548
       0.691
      -0.150
      -0.814
      -1.173
      -1.208
      -1.005
      -0.676
      -0.286
       0.166
       0.671
       1.154
       1.482
       1.566
       1.426
       1.170
       0.899
       0.639
       0.347
      -0.014
      -0.406
      -0.733
      -0.906
      -0.914
      -0.822
      -0.722
      -0.673
      -0.683
      -0.737
      -0.827
      -0.951
      -1.102
      -1.259
      -1.381
      -1.414
      -1.309
      -1.059
      -0.711
      -0.341
      -0.013
       0.254
       0.477
       0.690
       0.901
       1.070
       1.121
       1.001
       0.720
       0.354
       0.001
      -0.278
      -0.463
      -0.563
      -0.571
      -0.442
      -0.113
       0.443
       1.174
       1.950
       2.616
       3.062
       3.263
       3.277
       3.202
       3.118
       3.040
       2.923
       2.712
       2.420
       2.127
       1.898
       1.695
       1.392
       0.885
       0.183
      -0.613
      -1.418
      -2.248
      -3.196
      -4.306
      -5.458
      -6.390
      -6.858
      -6.779
      -6.254
      -5.461
      -4.544
      -3.588
      -2.638
      -1.720
      -0.854
      -0.055
       0.646
       1.200
       1.554
       1.690
       1.654
       1.552
       1.524
       1.663
       1.961
       2.316
       2.600
       2.725
       2.655
       2.371
       1.867
       1.188
       0.459
      -0.152
      -0.520
      -0.647
      -0.653
      -0.667
      -0.704
      -0.663
      -0.447
      -0.086
       0.267
       0.451
       0.403
       0.176
      -0.119
      -0.374
      -0.524
      -0.567
      -0.557
      -0.557
      -0.589
      -0.608
      -0.538
      -0.318
       0.058
       0.553
       1.108
       1.665
       2.170
       2.566
       2.803
       2.865
       2.791
       2.639
       2.442
       2.208
       1.952
       1.703
       1.464
       1.187
       0.809
       0.319
      -0.216
      -0.706
      -1.129
      -1.556
      -2.071
      -2.666
      -3.232
      -3.660
      -3.946
      -4.192
      -4.489
      -4.798
      -4.971
      -4.887
      -4.562
      -4.117
      -3.669
      -3.258
      -2.883
      -2.551
      -2.277
      -2.045
      -1.795
      -1.465
      -1.038
      -0.538
       0.043
       0.775
       1.716
       2.790
       3.755
       4.334
       4.392
       4.001
       3.344
       2.555
       1.667
       0.690
      -0.287
      -1.098
      -1.600
      -1.756
      -1.636
      -1.345
      -0.944
      -0.429
       0.223
       0.983
       1.736
       2.343
       2.726
       2.908
       2.972
       2.977
       2.898
       2.635
       2.096
       1.296
       0.392
      -0.382
      -0.856
      -1.019
      -1.009
      -1.000
      -1.079
      -1.209
      -1.286
      -1.261
      -1.208
      -1.286
      -1.599
      -2.098
      -2.597
      -2.896
      -2.895
      -2.612
      -2.127
      -1.512
      -0.821
      -0.109
       0.565
       1.166
       1.694
       2.163
       2.574
       2.913
       3.182
       3.406
       3.599
       3.719
       3.673
       3.385
       2.868
       2.223
       1.555
       0.897
       0.217
      -0.500
      -1.195
      -1.767
      -2.139
      -2.290
      -2.239
      -2.012
      -1.648
      -1.206
      -0.769
      -0.404
      -0.133
       0.047
       0.117
       0.034
      -0.220
      -0.577
      -0.908
      -1.120
      -1.217
      -1.250
      -1.213
      -1.004
      -0.498
       0.320
       1.297
       2.177
       2.761
       3.020
       3.107
       3.237
       3.530
       3.919
       4.196
       4.157
       3.735
       3.020
       2.161
       1.228
       0.177
      -1.066
      -2.485
      -3.925
      -5.158
      -5.978
      -6.274
      -6.033
      -5.320
      -4.259
      -3.023
      -1.796
      -0.718
       0.147
       0.797
       1.236
       1.452
       1.432
       1.208
       0.876
       0.584
       0.474
       0.637
       1.092
       1.781
       2.584
       3.339
       3.875
       4.038
       3.721
       2.889
       1.593
      -0.048
      -1.873
      -3.712
      -5.401
      -6.770
      -7.625
      -7.790
      -7.203
      -5.984
      -4.394
      -2.707
      -1.081
       0.454
       1.909
       3.224
       4.247
       4.803
       4.813
       4.353
       3.625
       2.876
       2.302
       2.006
       2.005
       2.247
       2.633
       3.021
       3.264
       3.250
       2.926
       2.307
       1.462
       0.490
      -0.530
      -1.555
      -2.551
      -3.444
      -4.101
      -4.393
      -4.271
      -3.810
      -3.163
      -2.476
      -1.823
      -1.185
      -0.506
       0.232
       0.965
       1.583
       2.013
       2.281
       2.477
       2.665
       2.802
       2.779
       2.534
       2.127
       1.689
       1.301
       0.932
       0.498
      -0.011
      -0.480
      -0.746
      -0.734
      -0.513
      -0.239
      -0.035
       0.067
       0.131
       0.256
       0.507
       0.857
       1.176
       1.298
       1.108
       0.604
      -0.110
      -0.898
      -1.656
      -2.340
      -2.906
      -3.277
      -3.369
      -3.191
      -2.881
      -2.620
      -2.499
      -2.457
      -2.363
      -2.158
      -1.911
      -1.746
      -1.700
      -1.684
      -1.548
      -1.187
      -0.609
       0.086
       0.778
       1.387
       1.885
       2.286
       2.623
       2.949
       3.316
       3.737
       4.185
       4.601
       4.904
       5.010
       4.854
       4.430
       3.790
       3.005
       2.120
       1.148
       0.113
      -0.931
      -1.910
      -2.762
      -3.443
      -3.900
      -4.064
      -3.902
      -3.490
      -3.023
      -2.710
      -2.626
      -2.656
      -2.590
      -2.297
      -1.827
      -1.363
      -1.067
      -0.974
      -0.998
      -1.016
      -0.927
      -0.693
      -0.351
      -0.012
       0.200
       0.214
       0.057
      -0.179
      -0.408
      -0.608
      -0.809
      -1.031
      -1.253
      -1.437
      -1.571
      -1.650
      -1.618
      -1.344
      -0.705
       0.278
       1.402
       2.382
       3.014
       3.252
       3.165
       2.850
       2.395
       1.879
       1.390
       0.994
       0.712
       0.518
       0.391
       0.341
       0.387
       0.499
       0.579
       0.503
       0.198
      -0.313
      -0.928
      -1.503
      -1.910
      -2.080
      -2.013
      -1.756
      -1.346
      -0.767
       0.026
       1.036
       2.177
       3.295
       4.242
       4.914
       5.228
       5.080
       4.369
       3.077
       1.348
      -0.542
      -2.312
      -3.815
      -5.034
      -5.959
      -6.491
      -6.504
      -5.976
      -5.055
      -3.955
      -2.827
      -1.718
      -0.649
       0.307
       1.046
       1.533
       1.861
       2.195
       2.660
       3.287
       4.052
       4.929
       5.871
       6.751
       7.371
       7.564
       7.296
       6.646
       5.694
       4.438
       2.848
       0.993
      -0.893
      -2.490
      -3.550
      -3.998
      -3.916
      -3.456
      -2.776
      -2.034
      -1.399
      -1.030
      -1.027
      -1.385
      -2.009
      -2.751
      -3.453
      -3.981
      -4.239
      -4.193
      -3.867
      -3.317
      -2.602
      -1.786
      -0.947
      -0.184
       0.413
       0.792
       0.964
       0.993
       0.966
       0.960
       1.030
       1.222
       1.568
       2.082
       2.734
       3.438
       4.048
       4.391
       4.339
       3.871
       3.091
       2.158
       1.197
       0.243
      -0.720
      -1.683
      -2.559
      -3.224
      -3.593
      -3.679
      -3.572
      -3.367
      -3.114
      -2.833
      -2.538
      -2.240
      -1.921
      -1.535
      -1.075
      -0.607
      -0.241
      -0.041
       0.029
       0.089
       0.260
       0.588
       1.042
       1.553
       2.055
       2.486
       2.791
       2.932
       2.890
       2.641
       2.143
       1.373
       0.389
      -0.634
      -1.458
      -1.901
      -1.942
      -1.710
      -1.374
      -1.011
      -0.586
      -0.055
       0.511
       0.930
       1.044
       0.860
       0.550
       0.300
       0.158
       0.030
      -0.199
      -0.535
      -0.852
      -0.992
      -0.882
      -0.590
      -0.275
      -0.064
       0.039
       0.153
       0.416
       0.857
       1.374
       1.815
       2.100
       2.242
       2.295
       2.274
       2.150
       1.900
       1.554
       1.168
       0.775
       0.370
      -0.066
      -0.522
      -0.970
      -1.407
      -1.877
      -2.416
      -2.973
      -3.399
      -3.544
      -3.354
      -2.877
      -2.183
      -1.307
      -0.290
       0.749
       1.584
       1.974
       1.806
       1.164
       0.254
      -0.721
      -1.624
      -2.364
      -2.847
      -2.995
      -2.810
      -2.400
      -1.925
      -1.487
      -1.071
      -0.579
       0.045
       0.726
       1.277
       1.519
       1.387
       0.973
       0.451
      -0.006
      -0.287
      -0.339
      -0.132
       0.359
       1.125
       2.063
       2.964
       3.571
       3.693
       3.286
       2.456
       1.389
       0.264
      -0.796
      -1.733
      -2.530
      -3.157
      -3.542
      -3.599
      -3.309
      -2.768
      -2.139
      -1.556
      -1.066
      -0.666
      -0.363
      -0.205
      -0.238
      -0.427
      -0.634
      -0.688
      -0.510
      -0.168
       0.178
       0.402
       0.511
       0.630
       0.922
       1.473
       2.223
       2.996
       3.590
       3.885
       3.880
       3.642
       3.232
       2.677
       1.984
       1.182
       0.340
      -0.462
      -1.151
      -1.681
      -2.024
      -2.175
      -2.154
      -2.008
      -1.802
      -1.606
      -1.485
      -1.468
      -1.531
      -1.601
      -1.612
