Origin Time       01/05/2009 22:36:25
Lat.              29.9 N 
Long.             80.1 E 
Depth (Km)         10.0
Magnitude         4.6
 Region           Bageshwar-Uttarakhand                                            
 Above details taken from IMD 
     
Station Code      BAG
Station Lat.       29.831  N
Station Long.      79.770  E
Station Height(m)  972.0
Site Class        A   Vs30 between 700 m/sec to 1400 m/sec * 
Record Time       01.05.2010 22:29:50.564
Sampling Rate     200. Hz
 Record Duration   86.280 Sec.
 Direction         E-W (E positive)
Max. Acceleration     16.814 cm/sec**2
     
  * For reference see Site Classification link of website 
     
 Base Line Corrected and Low Pass Filtered (Cut Off at 35 Hz) Time History
 Acceleration data in cm/sec**2
    
[...]
       0.037
       0.027
       0.020
       0.028
       0.046
       0.054
       0.035
      -0.008
      -0.052
      -0.071
      -0.061
      -0.035
      -0.013
       0.000
       0.008
       0.017
       0.030
       0.040
       0.038
       0.022
      -0.004
      -0.027
      -0.038
      -0.032
      -0.012
       0.010
       0.022
       0.021
       0.015
       0.016
       0.026
       0.035
       0.028
       0.001
      -0.033
      -0.053
      -0.050
      -0.032
      -0.013
       0.000
       0.010
       0.022
       0.036
       0.046
       0.043
       0.027
       0.002
      -0.020
      -0.031
      -0.026
      -0.008
       0.012
       0.024
       0.023
       0.014
       0.013
       0.025
       0.043
       0.048
       0.027
      -0.011
      -0.045
      -0.054
      -0.041
      -0.021
      -0.008
      -0.001
       0.005
       0.016
       0.030
       0.040
       0.039
       0.024
       0.000
      -0.025
      -0.039
      -0.035
      -0.017
       0.004
       0.016
       0.013
       0.006
       0.008
       0.021
       0.032
       0.026
      -0.002
      -0.036
      -0.056
      -0.053
      -0.039
      -0.025
      -0.017
      -0.009
       0.006
       0.025
       0.039
       0.038
       0.020
      -0.008
      -0.031
      -0.041
      -0.037
      -0.021
      -0.002
       0.011
       0.013
       0.010
       0.014
       0.030
       0.047
       0.049
       0.023
      -0.021
      -0.057
      -0.066
      -0.048
      -0.019
       0.003
       0.012
       0.017
       0.024
       0.034
       0.039
       0.032
       0.010
      -0.016
      -0.037
      -0.046
      -0.042
      -0.028
      -0.012
      -0.005
      -0.009
      -0.016
      -0.015
      -0.003
       0.004
      -0.010
      -0.050
      -0.101
      -0.140
      -0.158
      -0.166
      -0.180
      -0.204
      -0.230
      -0.246
      -0.249
      -0.247
      -0.252
      -0.267
      -0.286
      -0.295
      -0.289
      -0.279
      -0.281
      -0.309
      -0.357
      -0.400
      -0.408
      -0.360
      -0.261
      -0.127
       0.030
       0.209
       0.407
       0.594
       0.717
       0.728
       0.629
       0.466
       0.295
       0.153
       0.073
       0.110
       0.331
       0.755
       1.297
       1.779
       2.026
       1.958
       1.615
       1.095
       0.483
      -0.152
      -0.720
      -1.089
      -1.147
      -0.888
      -0.424
       0.085
       0.522
       0.823
       0.924
       0.745
       0.257
      -0.429
      -1.075
      -1.456
      -1.497
      -1.285
      -0.966
      -0.645
      -0.369
      -0.154
      -0.011
       0.037
      -0.057
      -0.336
      -0.773
      -1.222
      -1.468
      -1.359
      -0.908
      -0.271
       0.376
       0.932
       1.354
       1.597
       1.592
       1.307
       0.798
       0.212
      -0.261
      -0.469
      -0.358
      -0.002
       0.442
       0.813
       1.017
       1.034
       0.883
       0.592
       0.193
      -0.272
      -0.737
      -1.110
      -1.293
      -1.224
      -0.917
      -0.447
       0.087
       0.583
       0.914
       0.937
       0.556
      -0.206
      -1.180
      -2.121
      -2.813
      -3.140
      -3.092
      -2.722
      -2.109
      -1.324
      -0.432
       0.466
       1.203
       1.583
       1.509
       1.081
       0.542
       0.116
      -0.105
      -0.156
      -0.090
       0.098
       0.463
       1.034
       1.752
       2.463
       2.960
       3.036
       2.568
       1.625
       0.505
      -0.387
      -0.779
      -0.679
      -0.302
       0.150
       0.623
       1.142
       1.639
       1.916
       1.782
       1.226
       0.411
      -0.464
      -1.268
      -1.926
      -2.352
      -2.444
      -2.162
      -1.602
      -0.965
      -0.444
      -0.127
       0.007
       0.008
      -0.083
      -0.242
      -0.430
      -0.600
      -0.704
      -0.715
      -0.628
      -0.461
      -0.271
      -0.140
      -0.132
      -0.235
      -0.357
      -0.384
      -0.243
       0.074
       0.533
       1.051
       1.474
       1.601
       1.302
       0.651
      -0.073
      -0.546
      -0.593
      -0.257
       0.290
       0.872
       1.358
       1.649
       1.678
       1.448
       1.038
       0.534
      -0.028
      -0.640
      -1.238
      -1.666
      -1.755
      -1.456
      -0.904
      -0.351
      -0.026
      -0.027
      -0.306
      -0.729
      -1.158
      -1.495
      -1.670
      -1.628
      -1.339
      -0.819
      -0.154
       0.530
       1.107
       1.499
       1.693
       1.724
       1.649
       1.503
       1.285
       0.989
       0.649
       0.358
       0.219
       0.251
       0.349
       0.330
       0.073
      -0.384
      -0.856
      -1.134
      -1.109
      -0.811
      -0.369
       0.073
       0.410
       0.600
       0.657
       0.618
       0.523
       0.403
       0.279
       0.168
       0.061
      -0.078
      -0.302
      -0.631
      -1.012
      -1.335
      -1.491
      -1.433
      -1.189
      -0.839
      -0.469
      -0.153
       0.053
       0.122
       0.071
      -0.042
      -0.139
      -0.156
      -0.063
       0.139
       0.420
       0.737
       1.035
       1.267
       1.402
       1.422
       1.309
       1.054
       0.673
       0.214
      -0.256
      -0.682
      -1.031
      -1.276
      -1.366
      -1.246
      -0.902
      -0.411
       0.078
       0.437
       0.647
       0.801
       1.007
       1.279
       1.491
       1.470
       1.126
       0.523
      -0.173
      -0.809
      -1.303
      -1.624
      -1.743
      -1.626
      -1.272
      -0.754
      -0.209
       0.215
       0.424
       0.419
       0.301
       0.216
       0.261
       0.416
       0.565
       0.610
       0.552
       0.490
       0.516
       0.632
       0.743
       0.718
       0.456
      -0.065
      -0.772
      -1.493
      -2.013
      -2.173
      -1.958
      -1.510
      -1.023
      -0.615
      -0.270
       0.101
       0.535
       0.954
       1.208
       1.190
       0.926
       0.555
       0.244
       0.108
       0.161
       0.325
       0.485
       0.544
       0.460
       0.236
      -0.090
      -0.455
      -0.767
      -0.922
      -0.850
      -0.542
      -0.046
       0.569
       1.220
       1.803
       2.188
       2.256
       1.959
       1.354
       0.587
      -0.181
      -0.831
      -1.301
      -1.558
      -1.575
      -1.343
      -0.919
      -0.436
      -0.053
       0.122
       0.070
      -0.151
      -0.445
      -0.712
      -0.861
      -0.819
      -0.538
      -0.033
       0.603
       1.207
       1.611
       1.719
       1.528
       1.105
       0.541
      -0.063
      -0.584
      -0.920
      -1.053
      -1.073
      -1.112
      -1.217
      -1.290
      -1.165
      -0.788
      -0.301
       0.044
       0.104
      -0.019
      -0.053
       0.232
       0.829
       1.488
       1.873
       1.774
       1.207
       0.369
      -0.500
      -1.233
      -1.769
      -2.115
      -2.290
      -2.293
      -2.106
      -1.725
      -1.182
      -0.544
       0.099
       0.661
       1.072
       1.294
       1.331
       1.250
       1.159
       1.154
       1.244
       1.338
       1.314
       1.132
       0.856
       0.580
       0.323
       0.031
      -0.331
      -0.693
      -0.915
      -0.895
      -0.662
      -0.343
      -0.072
       0.106
       0.239
       0.405
       0.632
       0.871
       1.022
       1.000
       0.781
       0.429
       0.063
      -0.200
      -0.321
      -0.362
      -0.442
      -0.640
      -0.917
      -1.137
      -1.165
      -0.961
      -0.612
      -0.274
      -0.079
      -0.047
      -0.076
      -0.009
       0.250
       0.652
       1.035
       1.250
       1.287
       1.281
       1.373
       1.546
       1.607
       1.336
       0.696
      -0.104
      -0.749
      -1.049
      -1.050
      -0.959
      -0.955
      -1.059
      -1.144
      -1.064
      -0.785
      -0.419
      -0.138
      -0.047
      -0.108
      -0.177
      -0.118
       0.094
       0.351
       0.489
       0.403
       0.115
      -0.252
      -0.570
      -0.792
      -0.959
      -1.129
      -1.298
      -1.381
      -1.277
      -0.962
      -0.523
      -0.111
       0.161
       0.289
       0.359
       0.461
       0.596
       0.665
       0.559
       0.287
       0.002
      -0.102
       0.050
       0.366
       0.669
       0.851
       0.926
       0.961
       0.964
       0.864
       0.599
       0.221
      -0.115
      -0.273
      -0.252
      -0.174
      -0.153
      -0.198
      -0.244
      -0.262
      -0.303
      -0.436
      -0.654
      -0.860
      -0.931
      -0.788
      -0.432
       0.056
       0.547
       0.914
       1.091
       1.088
       0.969
       0.798
       0.606
       0.388
       0.137
      -0.119
      -0.317
      -0.408
      -0.394
      -0.333
      -0.287
      -0.270
      -0.250
      -0.186
      -0.079
       0.039
       0.133
       0.185
       0.181
       0.100
      -0.071
      -0.291
      -0.459
      -0.472
      -0.308
      -0.064
       0.120
       0.160
       0.077
      -0.043
      -0.118
      -0.102
       0.014
       0.196
       0.371
       0.448
       0.374
       0.189
       0.005
      -0.089
      -0.108
      -0.149
      -0.287
      -0.507
      -0.735
      -0.913
      -1.031
      -1.086
      -1.044
      -0.856
      -0.520
      -0.115
       0.259
       0.559
       0.830
       1.140
       1.478
       1.713
       1.660
       1.232
       0.542
      -0.140
      -0.551
      -0.587
      -0.322
       0.090
       0.520
       0.888
       1.127
       1.164
       0.941
       0.474
      -0.114
      -0.637
      -0.935
      -0.955
      -0.764
      -0.479
      -0.188
       0.072
       0.289
       0.433
       0.454
       0.317
       0.043
      -0.286
      -0.571
      -0.751
      -0.837
      -0.894
      -0.976
      -1.079
      -1.156
      -1.165
      -1.102
      -0.994
      -0.856
      -0.677
      -0.433
      -0.115
       0.250
       0.606
       0.895
       1.072
       1.112
       1.012
       0.805
       0.558
       0.342
       0.195
       0.111
       0.052
      -0.023
      -0.129
      -0.244
      -0.328
      -0.343
      -0.278
      -0.142
       0.040
       0.235
       0.401
       0.491
       0.476
       0.383
       0.291
       0.299
       0.442
       0.657
       0.804
       0.773
       0.569
       0.328
       0.211
       0.263
       0.362
       0.325
       0.077
      -0.291
      -0.605
      -0.764
      -0.801
      -0.813
      -0.854
      -0.887
      -0.834
      -0.661
      -0.423
      -0.226
      -0.152
      -0.203
      -0.309
      -0.384
      -0.376
      -0.285
      -0.158
      -0.070
      -0.099
      -0.285
      -0.587
      -0.891
      -1.070
      -1.050
      -0.840
      -0.501
      -0.105
       0.289
       0.626
       0.864
       0.994
       1.055
       1.101
       1.149
       1.163
       1.093
       0.924
       0.684
       0.407
       0.091
      -0.291
      -0.742
      -1.192
      -1.514
      -1.601
      -1.447
      -1.159
      -0.885
      -0.706
      -0.593
      -0.453
      -0.222
       0.091
       0.414
       0.665
       0.794
       0.817
       0.800
       0.823
       0.910
       1.014
       1.040
       0.918
       0.640
       0.242
      -0.239
      -0.788
      -1.369
      -1.894
      -2.229
      -2.273
      -2.023
      -1.584
      -1.094
      -0.660
      -0.323
      -0.068
       0.155
       0.403
       0.708
       1.048
       1.352
       1.546
       1.599
       1.521
       1.306
       0.908
       0.285
      -0.529
      -1.423
      -2.277
      -3.023
      -3.620
      -3.986
      -3.983
      -3.504
      -2.591
      -1.443
      -0.289
       0.770
       1.804
       2.935
       4.192
       5.441
       6.456
       7.047
       7.147
       6.828
       6.245
       5.566
       4.908
       4.309
       3.744
       3.164
       2.524
       1.791
       0.957
       0.060
      -0.793
      -1.450
      -1.776
      -1.713
      -1.289
      -0.593
       0.261
       1.162
       2.009
       2.718
       3.218
       3.458
       3.407
       3.075
       2.506
       1.749
       0.817
      -0.307
      -1.626
      -3.098
      -4.636
      -6.153
      -7.591
      -8.891
      -9.944
     -10.568
     -10.579
      -9.905
      -8.635
      -6.950
      -4.995
      -2.815
      -0.432
       2.051
       4.425
       6.458
       8.010
       9.038
       9.523
       9.426
       8.731
       7.527
       6.007
       4.363
       2.681
       0.947
      -0.868
      -2.730
      -4.553
      -6.243
      -7.708
      -8.827
      -9.444
      -9.440
      -8.815
      -7.693
      -6.232
      -4.524
      -2.603
      -0.545
       1.468
       3.212
       4.555
       5.500
       6.085
       6.266
       5.911
       4.903
       3.259
       1.142
      -1.214
      -3.596
      -5.855
      -7.906
      -9.712
     -11.261
     -12.525
     -13.407
     -13.730
     -13.278
     -11.901
      -9.582
      -6.445
      -2.722
       1.292
       5.270
       8.897
      11.943
      14.301
      15.942
      16.814
      16.797
      15.778
      13.793
      11.095
       8.053
       4.990
       2.072
      -0.645
      -3.103
      -5.171
      -6.647
      -7.342
      -7.160
      -6.146
      -4.481
      -2.418
      -0.210
       1.945
       3.915
       5.594
       6.881
       7.678
       7.932
       7.649
       6.868
       5.646
       4.061
       2.245
       0.396
      -1.268
      -2.586
      -3.521
      -4.152
      -4.614
      -5.021
      -5.406
      -5.717
      -5.854
      -5.735
      -5.327
      -4.658
      -3.801
      -2.841
      -1.849
      -0.856
       0.111
       0.990
       1.674
       2.073
       2.177
       2.063
       1.837
       1.594
       1.417
       1.391
       1.569
       1.914
       2.301
       2.572
       2.616
       2.398
       1.941
       1.313
       0.636
       0.065
      -0.271
      -0.344
      -0.239
      -0.074
       0.092
       0.278
       0.532
       0.863
       1.237
       1.601
       1.922
       2.180
       2.357
       2.417
       2.303
       1.968
       1.409
       0.705
       0.000
      -0.565
      -0.934
      -1.156
      -1.337
      -1.559
      -1.846
      -2.195
      -2.599
      -3.022
      -3.357
      -3.446
      -3.197
      -2.686
      -2.142
      -1.790
      -1.696
      -1.714
      -1.598
      -1.164
      -0.416
       0.452
       1.165
       1.501
       1.377
       0.849
       0.044
      -0.902
      -1.867
      -2.723
      -3.334
      -3.584
      -3.434
      -2.952
      -2.287
      -1.582
      -0.890
      -0.179
       0.569
       1.268
       1.739
       1.841
       1.597
       1.189
       0.839
       0.689
       0.764
       1.000
       1.270
       1.402
       1.229
       0.693
      -0.083
      -0.843
      -1.340
      -1.475
      -1.320
      -1.042
      -0.790
      -0.633
      -0.554
      -0.480
      -0.316
      -0.014
       0.386
       0.764
       1.007
       1.099
       1.141
       1.275
       1.575
       1.979
       2.323
       2.433
       2.229
       1.753
       1.119
       0.442
      -0.204
      -0.769
      -1.203
      -1.457
      -1.502
      -1.338
      -0.988
      -0.484
       0.140
       0.856
       1.646
       2.488
       3.313
       3.979
       4.305
       4.157
       3.539
       2.597
       1.546
       0.574
      -0.222
      -0.832
      -1.310
      -1.719
      -2.099
      -2.447
      -2.725
      -2.882
      -2.881
      -2.711
      -2.383
      -1.907
      -1.284
      -0.516
       0.358
       1.244
       2.021
       2.592
       2.925
       3.037
       2.949
       2.673
       2.231
       1.668
       1.044
       0.392
      -0.275
      -0.941
      -1.552
      -2.040
      -2.354
      -2.480
      -2.430
      -2.240
      -1.982
      -1.759
      -1.656
      -1.682
      -1.753
      -1.754
      -1.603
      -1.296
      -0.881
      -0.427
      -0.019
       0.234
       0.219
      -0.107
      -0.662
      -1.269
      -1.760
      -2.063
      -2.213
      -2.282
      -2.300
      -2.238
      -2.050
      -1.733
      -1.329
      -0.881
      -0.396
       0.159
       0.809
       1.532
       2.242
       2.829
       3.227
       3.443
       3.543
       3.589
       3.589
       3.501
       3.272
       2.888
       2.394
       1.875
       1.408
       1.027
       0.717
       0.436
       0.146
      -0.170
      -0.501
      -0.814
      -1.064
      -1.213
      -1.273
      -1.301
      -1.362
      -1.467
      -1.556
      -1.545
      -1.393
      -1.128
      -0.812
      -0.511
      -0.273
      -0.126
      -0.062
      -0.035
       0.022
       0.144
       0.307
       0.456
       0.564
       0.666
       0.807
       0.972
       1.087
       1.087
       0.992
       0.897
       0.896
       1.007
       1.175
       1.308
       1.326
       1.170
       0.821
       0.303
      -0.322
      -0.990
      -1.676
      -2.387
      -3.111
      -3.772
      -4.244
      -4.423
      -4.280
      -3.876
      -3.310
      -2.665
      -1.978
      -1.248
      -0.475
       0.316
       1.076
       1.759
       2.346
       2.838
       3.227
       3.471
       3.508
       3.295
       2.848
       2.247
       1.607
       1.021
       0.532
       0.146
      -0.132
      -0.263
      -0.202
       0.056
       0.441
       0.823
       1.066
       1.073
       0.815
       0.348
      -0.179
      -0.558
      -0.609
      -0.289
       0.262
       0.783
       1.032
       0.907
       0.471
      -0.130
      -0.756
      -1.318
      -1.757
      -2.027
      -2.108
      -2.020
      -1.809
      -1.526
      -1.226
      -0.987
      -0.874
      -0.883
      -0.912
      -0.823
      -0.560
      -0.190
       0.158
       0.398
       0.530
       0.593
       0.603
       0.548
       0.435
       0.301
       0.171
       0.016
      -0.219
      -0.525
      -0.774
      -0.782
      -0.457
       0.121
       0.749
       1.234
       1.491
       1.540
       1.442
       1.268
       1.071
       0.886
       0.724
       0.579
       0.433
       0.257
       0.003
      -0.365
      -0.839
      -1.337
      -1.731
      -1.894
      -1.768
      -1.378
      -0.812
      -0.181
       0.398
       0.819
       1.014
       0.999
       0.888
       0.833
       0.934
       1.159
       1.371
       1.423
       1.243
       0.848
       0.312
      -0.271
      -0.808
      -1.215
      -1.448
      -1.522
      -1.502
      -1.453
      -1.390
      -1.269
      -1.045
      -0.726
      -0.375
      -0.055
       0.215
       0.448
       0.656
       0.823
       0.924
       0.952
       0.916
       0.813
       0.633
       0.378
       0.068
      -0.271
