Origin Time       04/04/2011 11:31:40
Lat.              29.6 N	
Long.             80.8 E	
Depth (Km)         10.0
Magnitude         5.7
 Region           NEPAL-INDIA-BORDER-REGION                                        
 Above details taken from IMD 
   
Station Code      BAG
Station Lat.       29.831
Station Long.      79.770
Station Height(m)  972.0
Site Class        A   Vs30 between 700 m/sec to 1400 m/sec * 
Record Time       04.04.2011 11:31:42.214
Sampling Rate     200. Hz
 Record Duration   92.220 Sec.
 Direction         Vert. (Up positive)
Max. Acceleration      4.310 cm/sec**2
     
  * For reference see Site Classification link of website 
     
 Base Line Corrected and Low Pass Filtered (Cut Off at 35 Hz) Time History
 Acceleration data in cm/sec**2
    
[...]
       0.035
       0.014
       0.150
       0.386
       0.557
       0.527
       0.299
       0.012
      -0.145
      -0.067
       0.193
       0.452
       0.515
       0.302
      -0.112
      -0.552
      -0.836
      -0.839
      -0.538
      -0.042
       0.433
       0.670
       0.590
       0.309
       0.046
      -0.038
       0.073
       0.295
       0.547
       0.794
       1.002
       1.093
       0.975
       0.651
       0.276
       0.064
       0.113
       0.312
       0.459
       0.451
       0.369
       0.359
       0.472
       0.607
       0.610
       0.408
       0.062
      -0.279
      -0.486
      -0.534
      -0.495
      -0.465
      -0.498
      -0.609
      -0.798
      -1.051
      -1.309
      -1.470
      -1.451
      -1.237
      -0.877
      -0.440
      -0.006
       0.327
       0.474
       0.440
       0.334
       0.287
       0.341
       0.440
       0.507
       0.514
       0.467
       0.362
       0.189
      -0.046
      -0.309
      -0.552
      -0.719
      -0.754
      -0.640
      -0.421
      -0.186
       0.006
       0.154
       0.287
       0.405
       0.484
       0.507
       0.484
       0.431
       0.354
       0.264
       0.181
       0.130
       0.115
       0.128
       0.149
       0.155
       0.135
       0.115
       0.155
       0.296
       0.491
       0.628
       0.634
       0.557
       0.523
       0.617
       0.812
       0.999
       1.074
       0.995
       0.791
       0.526
       0.258
       0.019
      -0.162
      -0.227
      -0.126
       0.101
       0.294
       0.283
       0.048
      -0.253
      -0.439
      -0.482
      -0.523
      -0.716
      -1.070
      -1.438
      -1.633
      -1.579
      -1.372
      -1.195
      -1.166
      -1.239
      -1.278
      -1.208
      -1.069
      -0.931
      -0.777
      -0.533
      -0.196
       0.112
       0.231
       0.097
      -0.216
      -0.560
      -0.803
      -0.879
      -0.787
      -0.584
      -0.381
      -0.328
      -0.547
      -1.016
      -1.527
      -1.780
      -1.604
      -1.096
      -0.549
      -0.216
      -0.134
      -0.148
      -0.080
       0.128
       0.413
       0.676
       0.858
       0.958
       1.016
       1.097
       1.280
       1.615
       2.073
       2.510
       2.711
       2.500
       1.878
       1.087
       0.500
       0.378
       0.691
       1.151
       1.424
       1.324
       0.858
       0.174
      -0.504
      -0.951
      -1.050
      -0.867
      -0.604
      -0.451
      -0.480
      -0.640
      -0.813
      -0.857
      -0.677
      -0.292
       0.143
       0.424
       0.450
       0.284
       0.104
       0.060
       0.185
       0.374
       0.458
       0.314
      -0.046
      -0.474
      -0.771
      -0.802
      -0.564
      -0.196
       0.083
       0.090
      -0.195
      -0.586
      -0.807
      -0.674
      -0.210
       0.399
       0.934
       1.247
       1.289
       1.099
       0.781
       0.480
       0.327
       0.364
       0.507
       0.601
       0.532
       0.316
       0.065
      -0.119
      -0.219
      -0.285
      -0.370
      -0.478
      -0.577
      -0.635
      -0.636
      -0.568
      -0.407
      -0.150
       0.144
       0.363
       0.422
       0.353
       0.297
       0.393
       0.649
       0.920
       1.006
       0.774
       0.244
      -0.426
      -1.012
      -1.330
      -1.313
      -1.006
      -0.535
      -0.069
       0.208
       0.179
      -0.107
      -0.429
      -0.538
      -0.331
       0.101
       0.579
       0.953
       1.132
       1.068
       0.787
       0.408
       0.115
       0.034
       0.169
       0.412
       0.639
       0.770
       0.799
       0.778
       0.789
       0.896
       1.098
       1.336
       1.528
       1.620
       1.581
       1.401
       1.103
       0.783
       0.584
       0.598
       0.768
       0.906
       0.831
       0.479
      -0.063
      -0.637
      -1.087
      -1.321
      -1.322
      -1.147
      -0.901
      -0.696
      -0.608
      -0.647
      -0.757
      -0.848
      -0.858
      -0.788
      -0.677
      -0.565
      -0.462
      -0.363
      -0.276
      -0.230
      -0.257
      -0.357
      -0.484
      -0.582
      -0.629
      -0.646
      -0.659
      -0.669
      -0.660
      -0.629
      -0.595
      -0.584
      -0.612
      -0.684
      -0.796
      -0.930
      -1.046
      -1.087
      -1.007
      -0.814
      -0.586
      -0.440
      -0.447
      -0.562
      -0.658
      -0.625
      -0.467
      -0.289
      -0.195
      -0.195
      -0.193
      -0.072
       0.213
       0.579
       0.858
       0.904
       0.699
       0.372
       0.115
       0.053
       0.178
       0.382
       0.542
       0.602
       0.577
       0.511
       0.436
       0.374
       0.357
       0.430
       0.604
       0.827
       0.989
       0.993
       0.804
       0.469
       0.084
      -0.261
      -0.539
      -0.780
      -1.020
      -1.243
      -1.401
      -1.486
      -1.553
      -1.650
      -1.730
      -1.684
      -1.453
      -1.089
      -0.694
      -0.326
       0.005
       0.291
       0.522
       0.723
       0.949
       1.224
       1.506
       1.727
       1.864
       1.924
       1.890
       1.726
       1.442
       1.117
       0.837
       0.594
       0.297
      -0.134
      -0.691
      -1.289
      -1.835
      -2.283
      -2.641
      -2.933
      -3.151
      -3.244
      -3.173
      -2.967
      -2.722
      -2.523
      -2.383
      -2.258
      -2.120
      -1.980
      -1.850
      -1.709
      -1.525
      -1.298
      -1.062
      -0.845
      -0.652
      -0.492
      -0.383
      -0.329
      -0.270
      -0.096
       0.284
       0.864
       1.522
       2.081
       2.406
       2.472
       2.351
       2.154
       1.951
       1.760
       1.571
       1.390
       1.255
       1.223
       1.314
       1.485
       1.649
       1.747
       1.797
       1.846
       1.881
       1.815
       1.607
       1.356
       1.264
       1.453
       1.834
       2.156
       2.194
       1.892
       1.369
       0.800
       0.303
      -0.088
      -0.385
      -0.598
      -0.727
      -0.796
      -0.851
      -0.913
      -0.944
      -0.872
      -0.655
      -0.315
       0.105
       0.571
       1.045
       1.448
       1.675
       1.668
       1.466
       1.175
       0.908
       0.733
       0.657
       0.619
       0.516
       0.270
      -0.094
      -0.464
      -0.742
      -0.952
      -1.195
      -1.511
      -1.793
      -1.866
      -1.651
      -1.241
      -0.806
      -0.449
      -0.153
       0.144
       0.468
       0.781
       1.034
       1.212
       1.318
       1.329
       1.181
       0.816
       0.262
      -0.344
      -0.817
      -1.046
      -1.069
      -1.043
      -1.119
      -1.326
      -1.569
      -1.722
      -1.727
      -1.594
      -1.347
      -0.991
      -0.549
      -0.099
       0.258
       0.468
       0.554
       0.569
       0.547
       0.499
       0.456
       0.475
       0.602
       0.832
       1.093
       1.276
       1.293
       1.150
       0.961
       0.859
       0.882
       0.937
       0.902
       0.760
       0.616
       0.585
       0.663
       0.721
       0.626
       0.354
       0.012
      -0.250
      -0.348
      -0.310
      -0.223
      -0.136
      -0.024
       0.148
       0.339
       0.436
       0.370
       0.211
       0.120
       0.217
       0.482
       0.781
       0.970
       0.972
       0.802
       0.548
       0.320
       0.209
       0.250
       0.423
       0.647
       0.792
       0.733
       0.435
      -0.014
      -0.480
      -0.876
      -1.195
      -1.436
      -1.566
      -1.542
      -1.372
      -1.115
      -0.861
      -0.712
      -0.759
      -1.026
      -1.418
      -1.773
      -1.970
      -2.005
      -1.935
      -1.793
      -1.570
      -1.268
      -0.935
      -0.647
      -0.463
      -0.407
      -0.445
      -0.495
      -0.459
      -0.286
      -0.002
       0.316
       0.601
       0.822
       0.968
       1.020
       0.966
       0.826
       0.655
       0.520
       0.472
       0.518
       0.606
       0.642
       0.558
       0.363
       0.144
      -0.003
      -0.034
       0.030
       0.123
       0.162
       0.088
      -0.090
      -0.290
      -0.418
      -0.443
      -0.408
      -0.361
      -0.302
      -0.183
       0.030
       0.306
       0.544
       0.629
       0.490
       0.139
      -0.351
      -0.874
      -1.316
      -1.573
      -1.593
      -1.418
      -1.153
      -0.890
      -0.653
      -0.443
      -0.301
      -0.295
      -0.431
      -0.609
      -0.701
      -0.657
      -0.546
      -0.483
      -0.529
      -0.658
      -0.795
      -0.881
      -0.915
      -0.945
      -1.029
      -1.191
      -1.395
      -1.562
      -1.605
      -1.502
      -1.307
      -1.106
      -0.915
      -0.649
      -0.197
       0.447
       1.132
       1.649
       1.871
       1.816
       1.593
       1.319
       1.075
       0.908
       0.842
       0.872
       0.955
       1.014
       0.968
       0.782
       0.519
       0.328
       0.344
       0.610
       1.065
       1.598
       2.095
       2.465
       2.680
       2.793
       2.883
       2.951
       2.892
       2.585
       2.024
       1.330
       0.672
       0.170
      -0.127
      -0.235
      -0.212
      -0.149
      -0.128
      -0.201
      -0.379
      -0.633
      -0.892
      -1.071
      -1.123
      -1.066
      -0.960
      -0.842
      -0.717
      -0.590
      -0.504
      -0.520
      -0.679
      -0.978
      -1.361
      -1.733
      -1.987
      -2.066
      -1.994
      -1.821
      -1.569
      -1.259
      -0.977
      -0.833
      -0.819
      -0.751
      -0.423
       0.170
       0.787
       1.132
       1.094
       0.807
       0.526
       0.436
       0.553
       0.754
       0.880
       0.837
       0.616
       0.275
      -0.108
      -0.474
      -0.793
      -1.044
      -1.179
      -1.142
      -0.927
      -0.596
      -0.235
       0.109
       0.415
       0.656
       0.799
       0.834
       0.777
       0.655
       0.513
       0.426
       0.455
       0.568
       0.635
       0.530
       0.244
      -0.127
      -0.477
      -0.755
      -0.937
      -0.975
      -0.824
      -0.511
      -0.162
       0.084
       0.187
       0.231
       0.338
       0.566
       0.889
       1.249
       1.600
       1.903
       2.095
       2.093
       1.835
       1.357
       0.810
       0.379
       0.148
       0.037
      -0.093
      -0.287
      -0.454
      -0.484
      -0.375
      -0.237
      -0.183
      -0.225
      -0.284
      -0.288
      -0.260
      -0.303
      -0.500
      -0.822
      -1.141
      -1.343
      -1.410
      -1.402
      -1.348
      -1.209
      -0.934
      -0.568
      -0.247
      -0.086
      -0.085
      -0.161
      -0.275
      -0.462
      -0.729
      -0.971
      -1.026
      -0.829
      -0.470
      -0.096
       0.197
       0.396
       0.519
       0.590
       0.635
       0.677
       0.704
       0.686
       0.628
       0.594
       0.644
       0.763
       0.861
       0.835
       0.628
       0.243
      -0.243
      -0.688
      -0.935
      -0.906
      -0.653
      -0.329
      -0.093
      -0.035
      -0.139
      -0.299
      -0.372
      -0.272
      -0.041
       0.173
       0.233
       0.123
      -0.057
      -0.199
      -0.278
      -0.329
      -0.371
      -0.366
      -0.265
      -0.079
       0.100
       0.156
       0.039
      -0.173
      -0.310
      -0.232
       0.056
       0.407
       0.669
       0.819
       0.946
       1.104
       1.218
       1.142
       0.819
       0.367
       0.007
      -0.107
       0.013
       0.232
       0.435
       0.619
       0.856
       1.164
       1.444
       1.548
       1.431
       1.204
       1.039
       1.019
       1.079
       1.090
       0.985
       0.807
       0.660
       0.610
       0.643
       0.679
       0.636
       0.475
       0.204
      -0.144
      -0.524
      -0.874
      -1.104
      -1.129
      -0.931
      -0.594
      -0.262
      -0.062
      -0.034
      -0.141
      -0.313
      -0.495
      -0.655
      -0.761
      -0.760
      -0.592
      -0.232
       0.262
       0.767
       1.169
       1.425
       1.530
       1.435
       1.040
       0.324
      -0.533
      -1.183
      -1.331
      -0.936
      -0.234
       0.432
       0.812
       0.835
       0.571
       0.137
      -0.364
      -0.851
      -1.261
      -1.575
      -1.820
      -2.033
      -2.187
      -2.189
      -1.949
      -1.498
      -0.991
      -0.615
      -0.475
      -0.562
      -0.791
      -1.054
      -1.255
      -1.320
      -1.201
      -0.846
      -0.216
       0.639
       1.505
       2.056
       2.063
       1.575
       0.893
       0.343
       0.086
       0.085
       0.211
       0.338
       0.368
       0.244
      -0.026
      -0.351
      -0.613
      -0.740
      -0.771
      -0.852
      -1.127
      -1.613
      -2.145
      -2.481
      -2.491
      -2.244
      -1.917
      -1.626
      -1.357
      -1.045
      -0.672
      -0.276
       0.108
       0.488
       0.871
       1.209
       1.436
       1.561
       1.721
       2.086
       2.702
       3.424
       4.015
       4.310
       4.307
       4.142
       3.981
       3.912
       3.899
       3.832
       3.620
       3.257
       2.784
       2.237
       1.638
       1.059
       0.622
       0.402
       0.319
       0.168
      -0.217
      -0.817
      -1.448
      -1.909
      -2.120
      -2.131
      -2.050
      -1.966
      -1.917
      -1.890
      -1.844
      -1.749
      -1.601
      -1.410
      -1.184
      -0.956
      -0.816
      -0.874
      -1.167
      -1.606
      -2.037
      -2.340
      -2.456
      -2.348
      -1.998
      -1.467
      -0.944
      -0.643
      -0.643
      -0.799
      -0.835
      -0.552
       0.021
       0.669
       1.174
       1.480
       1.654
       1.705
       1.481
       0.803
      -0.302
      -1.526
      -2.480
      -2.961
      -3.029
      -2.849
      -2.498
      -1.956
      -1.243
      -0.510
       0.044
       0.326
       0.404
       0.425
       0.497
       0.643
       0.802
       0.882
       0.821
       0.630
       0.380
       0.126
      -0.108
      -0.266
      -0.210
       0.190
       0.884
       1.599
       2.010
       1.984
       1.636
       1.187
       0.801
       0.557
       0.515
       0.726
       1.164
       1.695
       2.132
       2.351
       2.352
       2.205
       1.959
       1.591
       1.042
       0.330
      -0.383
      -0.850
      -0.928
      -0.698
      -0.413
      -0.296
      -0.398
      -0.638
      -0.930
      -1.248
      -1.586
      -1.902
      -2.129
      -2.217
      -2.167
      -2.030
      -1.878
      -1.764
      -1.681
      -1.560
      -1.351
      -1.101
      -0.940
      -0.960
      -1.127
      -1.317
      -1.463
      -1.608
      -1.810
      -2.004
      -2.002
      -1.669
      -1.063
      -0.404
       0.105
       0.412
       0.616
       0.879
       1.312
       1.869
       2.341
       2.490
       2.229
       1.674
       1.038
       0.483
       0.104
      -0.042
       0.056
       0.304
       0.520
       0.557
       0.423
       0.250
       0.164
       0.169
       0.179
       0.147
       0.124
       0.188
       0.326
       0.425
       0.390
       0.258
       0.156
       0.170
       0.258
       0.295
       0.181
      -0.073
      -0.345
      -0.474
      -0.376
      -0.113
       0.159
       0.322
       0.363
       0.324
       0.224
       0.058
      -0.143
      -0.305
      -0.364
      -0.316
      -0.213
      -0.117
      -0.060
      -0.014
       0.092
       0.286
       0.501
       0.605
       0.504
       0.197
      -0.217
      -0.568
      -0.645
      -0.313
       0.359
       1.106
       1.659
       1.964
       2.160
       2.380
       2.597
       2.692
       2.620
       2.466
       2.350
       2.293
       2.198
       1.946
       1.528
       1.068
       0.733
       0.590
       0.538
       0.383
      -0.012
      -0.602
      -1.160
      -1.410
      -1.230
      -0.761
      -0.333
      -0.243
      -0.565
      -1.134
      -1.656
      -1.862
      -1.621
      -1.026
      -0.374
      -0.019
      -0.145
      -0.628
      -1.129
      -1.335
      -1.176
      -0.831
      -0.564
      -0.508
      -0.607
      -0.709
      -0.717
      -0.640
      -0.536
      -0.422
      -0.248
       0.029
       0.382
       0.698
       0.845
       0.759
       0.483
       0.144
      -0.122
      -0.252
      -0.293
      -0.354
      -0.525
      -0.794
      -1.050
      -1.132
      -0.918
      -0.408
       0.222
       0.672
       0.692
       0.268
      -0.350
      -0.822
      -0.944
      -0.746
      -0.415
      -0.127
       0.057
       0.181
       0.303
       0.415
       0.442
       0.334
       0.153
       0.051
       0.169
       0.524
       0.976
       1.276
       1.195
       0.665
      -0.157
      -0.960
      -1.458
      -1.537
      -1.270
      -0.819
      -0.334
       0.078
       0.341
       0.400
       0.239
      -0.089
      -0.461
      -0.712
      -0.724
      -0.538
      -0.357
      -0.397
      -0.706
      -1.123
      -1.437
      -1.562
      -1.545
      -1.454
      -1.296
      -1.051
      -0.740
      -0.443
      -0.272
      -0.308
      -0.532
      -0.803
      -0.934
      -0.845
      -0.620
      -0.406
      -0.254
      -0.095
       0.147
       0.447
       0.685
       0.722
       0.472
      -0.047
      -0.677
      -1.165
      -1.299
      -1.059
      -0.613
      -0.171
       0.162
       0.405
       0.611
       0.803
       0.975
       1.124
       1.268
       1.449
       1.708
       2.038
       2.358
       2.544
       2.515
       2.307
       2.047
       1.869
       1.825
       1.860
       1.847
       1.666
       1.257
       0.624
      -0.173
      -1.001
      -1.650
      -1.922
      -1.790
      -1.457
      -1.194
      -1.111
      -1.092
      -0.981
      -0.772
      -0.614
      -0.617
      -0.704
      -0.660
      -0.316
       0.308
       1.022
       1.585
       1.814
       1.620
       1.022
       0.169
      -0.671
      -1.238
      -1.437
      -1.397
      -1.343
      -1.415
      -1.592
      -1.759
      -1.814
      -1.702
      -1.402
      -0.929
      -0.365
       0.142
       0.445
       0.484
       0.332
       0.143
       0.076
       0.216
       0.549
       0.965
       1.297
       1.382
       1.134
       0.583
      -0.142
      -0.869
      -1.442
      -1.744
      -1.723
      -1.415
      -0.948
      -0.486
      -0.133
       0.124
       0.373
       0.706
       1.162
       1.695
       2.164
       2.356
       2.098
       1.371
       0.339
      -0.754
      -1.693
      -2.306
      -2.460
      -2.117
      -1.418
      -0.652
      -0.070
       0.257
       0.419
       0.498
