Origin Time       10/07/2010 03:16:20 UTC
Lat.              29.9 N 
Long.             79.6 E 
Depth (Km)         10.0
Magnitude         4.1
 Region           ALMORA-UTTARAKHAND                                               
 Above details taken from IMD 
    
Station Code      BAG
Station Lat.       29.831  N
Station Long.      79.770  E
Station Height(m)  972.0
Site Class        A   Vs30 between 700 m/sec to 1400 m/sec * 
Record Time       10.07.2010 03:08:38.314 UTC
Sampling Rate     200. Hz
 Record Duration   81.960 Sec.
 Direction         N-S (N positive)
Max. Acceleration     -5.569 cm/sec**2
     
  * For reference see Site Classification link of website 
     
 Base Line Corrected and Low Pass Filtered (Cut Off at 35 Hz) Time History
 Acceleration data in cm/sec**2
    
[...]
       0.023
      -0.016
      -0.078
      -0.096
      -0.052
       0.016
       0.069
       0.098
       0.112
       0.108
       0.071
       0.003
      -0.059
      -0.065
      -0.002
       0.094
       0.157
       0.146
       0.083
       0.036
       0.058
       0.134
       0.192
       0.163
       0.047
      -0.094
      -0.179
      -0.176
      -0.114
      -0.049
      -0.012
       0.006
       0.019
       0.032
       0.038
       0.029
       0.007
      -0.019
      -0.038
      -0.037
      -0.018
       0.002
       0.004
      -0.019
      -0.055
      -0.091
      -0.127
      -0.164
      -0.198
      -0.208
      -0.170
      -0.076
       0.046
       0.156
       0.227
       0.246
       0.201
       0.090
      -0.046
      -0.130
      -0.111
      -0.011
       0.091
       0.127
       0.099
       0.062
       0.060
       0.082
       0.073
      -0.008
      -0.152
      -0.296
      -0.377
      -0.374
      -0.322
      -0.264
      -0.220
      -0.167
      -0.065
       0.098
       0.272
       0.373
       0.359
       0.270
       0.188
       0.169
       0.203
       0.247
       0.270
       0.265
       0.229
       0.149
       0.025
      -0.106
      -0.183
      -0.170
      -0.092
      -0.018
      -0.001
      -0.040
      -0.089
      -0.110
      -0.103
      -0.105
      -0.149
      -0.231
      -0.295
      -0.284
      -0.189
      -0.060
       0.042
       0.090
       0.092
       0.066
       0.021
      -0.037
      -0.092
      -0.117
      -0.092
      -0.019
       0.076
       0.159
       0.212
       0.245
       0.288
       0.349
       0.391
       0.349
       0.188
      -0.054
      -0.282
      -0.409
      -0.419
      -0.369
      -0.326
      -0.300
      -0.246
      -0.116
       0.084
       0.295
       0.446
       0.509
       0.514
       0.498
       0.467
       0.390
       0.245
       0.051
      -0.142
      -0.295
      -0.400
      -0.464
      -0.484
      -0.437
      -0.310
      -0.128
       0.046
       0.147
       0.162
       0.126
       0.071
      -0.019
      -0.174
      -0.366
      -0.487
      -0.420
      -0.157
       0.173
       0.388
       0.387
       0.224
       0.043
      -0.040
      -0.017
       0.038
       0.061
       0.054
       0.063
       0.094
       0.094
       0.004
      -0.169
      -0.335
      -0.387
      -0.287
      -0.093
       0.103
       0.259
       0.392
       0.516
       0.598
       0.575
       0.412
       0.143
      -0.140
      -0.349
      -0.446
      -0.449
      -0.398
      -0.319
      -0.218
      -0.105
      -0.015
       0.007
      -0.055
      -0.155
      -0.205
      -0.135
       0.043
       0.244
       0.374
       0.403
       0.364
       0.297
       0.206
       0.076
      -0.082
      -0.218
      -0.270
      -0.206
      -0.045
       0.146
       0.285
       0.304
       0.183
      -0.032
      -0.247
      -0.367
      -0.347
      -0.215
      -0.050
       0.055
       0.056
      -0.032
      -0.144
      -0.202
      -0.162
      -0.045
       0.080
       0.156
       0.174
       0.160
       0.140
       0.121
       0.095
       0.049
      -0.020
      -0.098
      -0.166
      -0.216
      -0.245
      -0.250
      -0.223
      -0.153
      -0.050
       0.055
       0.128
       0.164
       0.194
       0.247
       0.317
       0.355
       0.314
       0.203
       0.074
      -0.028
      -0.101
      -0.163
      -0.216
      -0.232
      -0.174
      -0.042
       0.115
       0.222
       0.225
       0.130
       0.006
      -0.065
      -0.038
       0.059
       0.145
       0.142
       0.018
      -0.194
      -0.408
      -0.521
      -0.476
      -0.285
      -0.030
       0.174
       0.242
       0.172
       0.037
      -0.073
      -0.113
      -0.091
      -0.034
       0.033
       0.098
       0.155
       0.203
       0.244
       0.285
       0.328
       0.365
       0.381
       0.353
       0.262
       0.104
      -0.100
      -0.299
      -0.428
      -0.452
      -0.391
      -0.313
      -0.270
      -0.273
      -0.293
      -0.302
      -0.279
      -0.221
      -0.138
      -0.059
      -0.021
      -0.034
      -0.070
      -0.076
      -0.022
       0.072
       0.155
       0.186
       0.163
       0.116
       0.084
       0.084
       0.111
       0.150
       0.196
       0.249
       0.316
       0.392
       0.447
       0.424
       0.283
       0.049
      -0.194
      -0.366
      -0.439
      -0.441
      -0.410
      -0.361
      -0.300
      -0.249
      -0.234
      -0.246
      -0.226
      -0.123
       0.042
       0.174
       0.194
       0.119
       0.058
       0.118
       0.315
       0.563
       0.724
       0.696
       0.477
       0.173
      -0.071
      -0.160
      -0.106
      -0.006
       0.025
      -0.065
      -0.238
      -0.401
      -0.473
      -0.427
      -0.291
      -0.122
       0.030
       0.127
       0.147
       0.079
      -0.061
      -0.232
      -0.385
      -0.481
      -0.490
      -0.388
      -0.167
       0.144
       0.457
       0.650
       0.636
       0.434
       0.161
      -0.060
      -0.176
      -0.208
      -0.204
      -0.189
      -0.156
      -0.090
       0.008
       0.116
       0.203
       0.249
       0.255
       0.241
       0.235
       0.254
       0.290
       0.314
       0.285
       0.170
      -0.044
      -0.335
      -0.637
      -0.852
      -0.917
      -0.838
      -0.667
      -0.441
      -0.160
       0.175
       0.526
       0.816
       0.969
       0.945
       0.746
       0.418
       0.041
      -0.286
      -0.482
      -0.519
      -0.430
      -0.278
      -0.119
       0.026
       0.161
       0.290
       0.399
       0.457
       0.433
       0.305
       0.074
      -0.208
      -0.451
      -0.577
      -0.577
      -0.514
      -0.463
      -0.445
      -0.409
      -0.289
      -0.082
       0.125
       0.228
       0.201
       0.127
       0.129
       0.250
       0.411
       0.477
       0.381
       0.194
       0.057
       0.054
       0.137
       0.184
       0.128
       0.004
      -0.112
      -0.185
      -0.235
      -0.290
      -0.353
      -0.409
      -0.444
      -0.443
      -0.387
      -0.258
      -0.067
       0.141
       0.303
       0.366
       0.311
       0.169
       0.015
      -0.056
       0.011
       0.188
       0.380
       0.485
       0.471
       0.388
       0.288
       0.175
       0.016
      -0.184
      -0.360
      -0.427
      -0.340
      -0.131
       0.111
       0.277
       0.295
       0.159
      -0.058
      -0.223
      -0.219
      -0.028
       0.244
       0.435
       0.440
       0.286
       0.080
      -0.081
      -0.178
      -0.238
      -0.288
      -0.326
      -0.327
      -0.281
      -0.213
      -0.165
      -0.152
      -0.143
      -0.092
       0.011
       0.131
       0.214
       0.232
       0.198
       0.142
       0.082
       0.012
      -0.078
      -0.175
      -0.234
      -0.215
      -0.126
      -0.031
      -0.008
      -0.075
      -0.163
      -0.161
      -0.002
       0.256
       0.452
       0.435
       0.200
      -0.105
      -0.299
      -0.305
      -0.182
      -0.045
       0.042
       0.096
       0.145
       0.180
       0.174
       0.144
       0.158
       0.263
       0.416
       0.505
       0.448
       0.272
       0.085
      -0.025
      -0.069
      -0.129
      -0.271
      -0.463
      -0.596
      -0.593
      -0.487
      -0.383
      -0.357
      -0.400
      -0.449
      -0.458
      -0.432
      -0.404
      -0.398
      -0.396
      -0.345
      -0.193
       0.060
       0.339
       0.541
       0.617
       0.617
       0.644
       0.745
       0.864
       0.890
       0.771
       0.567
       0.393
       0.292
       0.207
       0.070
      -0.103
      -0.224
      -0.229
      -0.156
      -0.114
      -0.183
      -0.346
      -0.516
      -0.625
      -0.671
      -0.696
      -0.711
      -0.676
      -0.533
      -0.278
       0.022
       0.267
       0.402
       0.457
       0.507
       0.592
       0.667
       0.652
       0.517
       0.322
       0.157
       0.064
       0.023
      -0.009
      -0.052
      -0.085
      -0.078
      -0.024
       0.054
       0.116
       0.124
       0.062
      -0.062
      -0.211
      -0.337
      -0.389
      -0.339
      -0.199
      -0.032
       0.098
       0.149
       0.116
       0.013
      -0.132
      -0.286
      -0.412
      -0.469
      -0.426
      -0.292
      -0.116
       0.028
       0.084
       0.033
      -0.090
      -0.214
      -0.278
      -0.272
      -0.235
      -0.214
      -0.221
      -0.222
      -0.177
      -0.074
       0.065
       0.209
       0.330
       0.410
       0.439
       0.414
       0.343
       0.254
       0.176
       0.120
       0.088
       0.096
       0.181
       0.349
       0.541
       0.653
       0.608
       0.411
       0.136
      -0.140
      -0.380
      -0.586
      -0.757
      -0.856
      -0.829
      -0.647
      -0.357
      -0.071
       0.093
       0.094
      -0.012
      -0.115
      -0.125
      -0.031
       0.117
       0.267
       0.401
       0.521
       0.600
       0.597
       0.489
       0.316
       0.158
       0.085
       0.104
       0.156
       0.173
       0.122
       0.020
      -0.095
      -0.199
      -0.283
      -0.342
      -0.361
      -0.319
      -0.199
       0.000
       0.243
       0.454
       0.545
       0.467
       0.229
      -0.116
      -0.484
      -0.786
      -0.953
      -0.976
      -0.911
      -0.844
      -0.830
      -0.852
      -0.836
      -0.727
      -0.543
      -0.362
      -0.256
      -0.220
      -0.178
      -0.045
       0.193
       0.466
       0.669
       0.748
       0.727
       0.680
       0.647
       0.601
       0.492
       0.315
       0.117
      -0.058
      -0.209
      -0.355
      -0.489
      -0.584
      -0.635
      -0.684
      -0.785
      -0.936
      -1.061
      -1.052
      -0.857
      -0.512
      -0.111
       0.264
       0.576
       0.834
       1.056
       1.241
       1.358
       1.359
       1.227
       1.006
       0.778
       0.601
       0.482
       0.388
       0.297
       0.208
       0.134
       0.071
      -0.006
      -0.124
      -0.287
      -0.469
      -0.634
      -0.745
      -0.783
      -0.739
      -0.607
      -0.398
      -0.158
       0.023
       0.058
      -0.077
      -0.309
      -0.516
      -0.612
      -0.613
      -0.593
      -0.575
      -0.487
      -0.227
       0.226
       0.773
       1.270
       1.633
       1.894
       2.159
       2.508
       2.936
       3.359
       3.669
       3.782
       3.662
       3.321
       2.818
       2.241
       1.672
       1.153
       0.683
       0.231
      -0.240
      -0.740
      -1.235
      -1.676
      -2.042
      -2.354
      -2.645
      -2.939
      -3.251
      -3.590
      -3.932
      -4.192
      -4.242
      -3.974
      -3.381
      -2.574
      -1.726
      -0.985
      -0.405
       0.053
       0.470
       0.902
       1.351
       1.785
       2.169
       2.486
       2.730
       2.904
       3.001
       3.004
       2.888
       2.616
       2.128
       1.364
       0.305
      -0.981
      -2.348
      -3.610
      -4.599
      -5.204
      -5.382
      -5.158
      -4.613
      -3.875
      -3.111
      -2.457
      -1.949
      -1.477
      -0.862
       0.006
       1.064
       2.105
       2.914
       3.383
       3.520
       3.372
       2.959
       2.283
       1.367
       0.286
      -0.834
      -1.846
      -2.614
      -3.048
      -3.102
      -2.778
      -2.134
      -1.294
      -0.426
       0.324
       0.896
       1.308
       1.600
       1.765
       1.752
       1.512
       1.062
       0.503
      -0.007
      -0.295
      -0.236
       0.200
       0.926
       1.787
       2.622
       3.313
       3.777
       3.943
       3.744
       3.145
       2.187
       1.003
      -0.202
      -1.191
      -1.771
      -1.855
      -1.508
      -0.920
      -0.306
       0.200
       0.579
       0.866
       1.071
       1.158
       1.100
       0.951
       0.849
       0.933
       1.246
       1.698
       2.131
       2.405
       2.450
       2.259
       1.852
       1.269
       0.586
      -0.099
      -0.692
      -1.146
      -1.486
      -1.790
      -2.148
      -2.605
      -3.138
      -3.662
      -4.074
      -4.302
      -4.336
      -4.217
      -3.975
      -3.601
      -3.090
      -2.493
      -1.921
      -1.487
      -1.232
      -1.109
      -1.016
      -0.861
      -0.610
      -0.287
       0.051
       0.352
       0.595
       0.794
       0.987
       1.219
       1.515
       1.850
       2.138
       2.258
       2.126
       1.781
       1.405
       1.217
       1.334
       1.707
       2.172
       2.564
       2.798
       2.881
       2.854
       2.729
       2.469
       2.025
       1.411
       0.725
       0.114
      -0.318
      -0.574
      -0.764
      -1.052
      -1.579
      -2.372
      -3.293
      -4.065
      -4.398
      -4.135
      -3.336
      -2.221
      -1.002
       0.231
       1.484
       2.712
       3.741
       4.325
       4.305
       3.710
       2.727
       1.570
       0.364
      -0.861
      -2.101
      -3.308
      -4.377
      -5.174
      -5.569
      -5.461
      -4.837
      -3.831
      -2.700
      -1.708
      -0.979
      -0.451
       0.049
       0.675
       1.458
       2.302
       3.060
       3.620
       3.949
       4.074
       4.025
       3.795
       3.331
       2.594
       1.636
       0.634
      -0.173
      -0.622
      -0.740
      -0.719
      -0.808
      -1.179
      -1.839
      -2.604
      -3.144
      -3.118
      -2.349
      -0.926
       0.823
       2.483
       3.740
       4.515
       4.921
       5.106
       5.096
       4.787
       4.069
       2.962
       1.632
       0.285
      -0.948
      -2.035
      -2.976
      -3.739
      -4.269
      -4.547
      -4.613
      -4.542
      -4.370
      -4.063
      -3.538
      -2.736
      -1.672
      -0.439
       0.831
       2.007
       2.968
       3.597
       3.795
       3.505
       2.750
       1.664
       0.460
      -0.648
      -1.554
      -2.291
      -2.959
      -3.606
      -4.159
      -4.448
      -4.287
      -3.574
      -2.343
      -0.769
       0.877
       2.302
       3.272
       3.651
       3.416
       2.664
       1.584
       0.406
      -0.641
      -1.360
      -1.604
      -1.309
      -0.541
       0.495
       1.514
       2.285
       2.731
       2.912
       2.921
       2.791
       2.493
       2.001
       1.351
       0.616
      -0.161
      -1.010
      -1.986
      -3.073
      -4.107
      -4.812
      -4.933
      -4.357
      -3.150
      -1.504
       0.322
       2.053
       3.445
       4.330
       4.620
       4.311
       3.479
       2.298
       1.022
      -0.085
      -0.838
      -1.174
      -1.131
      -0.808
      -0.351
       0.059
       0.268
       0.237
       0.084
       0.022
       0.217
       0.670
       1.211
       1.616
       1.732
       1.548
       1.174
       0.772
       0.460
       0.263
       0.113
      -0.100
      -0.468
      -1.020
      -1.702
      -2.391
      -2.945
      -3.259
      -3.287
      -3.044
      -2.596
      -2.037
      -1.470
      -0.976
      -0.594
      -0.338
      -0.210
      -0.214
      -0.331
      -0.495
      -0.596
      -0.514
      -0.193
       0.312
       0.877
       1.385
       1.783
       2.066
       2.245
       2.321
       2.275
       2.077
       1.688
       1.094
       0.337
      -0.481
      -1.238
      -1.851
      -2.287
      -2.540
      -2.603
      -2.463
      -2.119
      -1.606
      -0.987
      -0.338
       0.256
       0.704
       0.940
       0.972
       0.887
       0.786
       0.711
       0.633
       0.491
       0.270
       0.030
      -0.126
      -0.138
      -0.038
       0.059
       0.028
      -0.210
      -0.655
      -1.228
      -1.769
      -2.063
      -1.921
      -1.287
      -0.301
       0.761
       1.631
       2.183
       2.450
       2.512
       2.392
       2.066
       1.558
       1.003
       0.586
       0.434
       0.547
       0.828
       1.149
       1.407
       1.532
       1.470
       1.182
       0.680
       0.054
      -0.529
      -0.887
      -0.927
      -0.694
      -0.338
      -0.029
       0.123
       0.090
      -0.110
      -0.453
      -0.896
      -1.344
      -1.657
      -1.716
      -1.486
      -1.034
      -0.482
       0.050
       0.490
       0.799
       0.956
       0.951
       0.789
       0.494
       0.111
      -0.280
      -0.566
      -0.629
      -0.406
       0.068
       0.681
       1.301
       1.814
       2.134
       2.210
       2.033
       1.656
       1.169
       0.677
       0.262
      -0.034
      -0.207
      -0.258
      -0.168
       0.091
       0.507
       0.987
       1.368
       1.477
       1.219
       0.626
      -0.177
      -1.044
      -1.872
      -2.603
      -3.194
      -3.584
      -3.720
      -3.599
      -3.273
      -2.844
      -2.445
      -2.198
      -2.168
      -2.334
      -2.594
      -2.799
      -2.804
      -2.521
      -1.931
      -1.072
      -0.021
       1.118
       2.222
       3.164
       3.845
       4.224
       4.330
       4.243
       4.056
       3.824
       3.535
       3.118
       2.484
       1.590
       0.482
      -0.692
      -1.730
      -2.490
      -2.962
      -3.256
      -3.485
      -3.671
      -3.723
      -3.518
      -3.009
      -2.266
      -1.444
      -0.703
      -0.148
       0.178
       0.303
       0.326
       0.394
       0.636
       1.072
       1.578
       1.958
       2.086
       1.985
       1.787
       1.605
       1.437
       1.206
       0.883
       0.558
       0.375
       0.397
       0.558
       0.718
       0.782
       0.775
       0.805
       0.970
       1.279
       1.647
       1.953
       2.119
       2.144
       2.065
       1.889
       1.567
       1.041
       0.335
      -0.435
      -1.128
      -1.673
      -2.090
      -2.422
      -2.667
      -2.793
      -2.799
      -2.732
      -2.632
      -2.484
      -2.225
      -1.807
      -1.250
      -0.654
      -0.154
       0.169
       0.351
       0.530
       0.842
       1.305
       1.790
       2.099
       2.096
       1.784
       1.292
       0.786
       0.378
       0.094
      -0.098
      -0.234
      -0.335
      -0.411
      -0.470
      -0.538
      -0.642
      -0.792
      -0.957
      -1.079
      -1.104
      -1.017
      -0.843
      -0.623
      -0.375
      -0.087
       0.259
       0.637
       0.962
       1.131
       1.093
       0.892
       0.628
       0.386
       0.182
      -0.019
      -0.243
      -0.445
      -0.539
      -0.473
      -0.272
      -0.004
       0.292
       0.611
       0.929
       1.172
       1.249
       1.118
       0.810
       0.399
      -0.064
      -0.560
      -1.076
      -1.567
      -1.960
      -2.193
      -2.255
