Origin Time       14/12/2005 07:09:48 UTC
Lat.              30.9 N 
Long.             79.3 E 
Depth (Km)         25.7
Magnitude         5.2
 Region           Chamoli-Uttarakhand                                              
 Above details taken from IMD 
    
Station Code      BAG
Station Lat.       29.831  N
Station Long.      79.770  E
Station Height(m)  872.0
Site Class        A   Vs30 between 700 m/sec to 1400 m/sec * 
Record Time       14.12.2005 07:09:58.869 UTC
Sampling Rate     200. Hz
 Record Duration   29.995 Sec.
 Direction         N-S (N positive)
Max. Acceleration      6.454 cm/sec**2
     
  * For reference see Site Classification link of website 
     
 Base Line Corrected and Low Pass Filtered (Cut Off at 35 Hz) Time History
 Acceleration data in cm/sec**2
    
[...]
      -1.062
      -0.769
      -0.473
      -0.193
       0.104
       0.433
       0.745
       0.953
       1.010
       0.937
       0.787
       0.593
       0.361
       0.122
      -0.036
      -0.022
       0.180
       0.488
       0.775
       0.955
       1.006
       0.930
       0.727
       0.410
       0.034
      -0.317
      -0.579
      -0.728
      -0.766
      -0.680
      -0.465
      -0.165
       0.111
       0.250
       0.217
       0.085
      -0.029
      -0.062
      -0.028
       0.025
       0.076
       0.139
       0.209
       0.249
       0.218
       0.121
      -0.004
      -0.137
      -0.302
      -0.538
      -0.839
      -1.139
      -1.353
      -1.429
      -1.353
      -1.127
      -0.763
      -0.302
       0.165
       0.526
       0.696
       0.662
       0.476
       0.218
      -0.040
      -0.240
      -0.336
      -0.291
      -0.094
       0.229
       0.613
       0.970
       1.215
       1.298
       1.221
       1.041
       0.848
       0.716
       0.665
       0.656
       0.637
       0.593
       0.556
       0.554
       0.571
       0.543
       0.400
       0.111
      -0.289
      -0.715
      -1.064
      -1.250
      -1.232
      -1.039
      -0.764
      -0.532
      -0.445
      -0.521
      -0.677
      -0.790
      -0.773
      -0.631
      -0.434
      -0.256
      -0.137
      -0.084
      -0.099
      -0.183
      -0.312
      -0.441
      -0.520
      -0.530
      -0.471
      -0.341
      -0.129
       0.164
       0.482
       0.725
       0.805
       0.706
       0.486
       0.234
       0.024
      -0.096
      -0.091
       0.049
       0.292
       0.549
       0.722
       0.754
       0.666
       0.531
       0.428
       0.404
       0.464
       0.579
       0.691
       0.733
       0.668
       0.515
       0.336
       0.185
       0.069
      -0.050
      -0.215
      -0.428
      -0.640
      -0.781
      -0.807
      -0.730
      -0.620
      -0.571
      -0.651
      -0.858
      -1.117
      -1.323
      -1.406
      -1.378
      -1.321
      -1.304
      -1.314
      -1.249
      -0.994
      -0.512
       0.119
       0.754
       1.258
       1.553
       1.624
       1.499
       1.236
       0.910
       0.590
       0.330
       0.158
       0.087
       0.121
       0.239
       0.383
       0.475
       0.463
       0.368
       0.276
       0.271
       0.362
       0.475
       0.520
       0.467
       0.370
       0.306
       0.310
       0.353
       0.382
       0.353
       0.251
       0.074
      -0.153
      -0.372
      -0.504
      -0.494
      -0.351
      -0.154
      -0.006
       0.020
      -0.088
      -0.285
      -0.501
      -0.662
      -0.714
      -0.629
      -0.416
      -0.130
       0.138
       0.295
       0.300
       0.185
       0.023
      -0.120
      -0.235
      -0.356
      -0.499
      -0.629
      -0.665
      -0.540
      -0.261
       0.087
       0.388
       0.549
       0.539
       0.387
       0.168
      -0.026
      -0.133
      -0.152
      -0.142
      -0.185
      -0.320
      -0.519
      -0.707
      -0.818
      -0.827
      -0.745
      -0.601
      -0.429
      -0.272
      -0.167
      -0.125
      -0.115
      -0.101
      -0.073
      -0.060
      -0.085
      -0.127
      -0.132
      -0.063
       0.065
       0.190
       0.258
       0.250
       0.182
       0.070
      -0.069
      -0.209
      -0.311
      -0.354
      -0.356
      -0.348
      -0.322
      -0.210
       0.056
       0.472
       0.935
       1.296
       1.446
       1.378
       1.173
       0.940
       0.765
       0.669
       0.624
       0.574
       0.478
       0.330
       0.165
       0.029
      -0.044
      -0.050
      -0.008
       0.049
       0.091
       0.095
       0.049
      -0.044
      -0.167
      -0.297
      -0.415
      -0.514
      -0.601
      -0.684
      -0.766
      -0.842
      -0.901
      -0.927
      -0.895
      -0.784
      -0.581
      -0.298
       0.038
       0.392
       0.731
       1.018
       1.215
       1.283
       1.194
       0.941
       0.549
       0.078
      -0.388
      -0.762
      -0.979
      -1.027
      -0.955
      -0.861
      -0.839
      -0.915
      -1.019
      -1.026
      -0.842
      -0.479
      -0.056
       0.261
       0.358
       0.231
      -0.015
      -0.238
      -0.338
      -0.306
      -0.209
      -0.124
      -0.073
      -0.016
       0.111
       0.340
       0.656
       1.013
       1.356
       1.637
       1.815
       1.867
       1.810
       1.702
       1.611
       1.575
       1.569
       1.522
       1.356
       1.038
       0.597
       0.118
      -0.298
      -0.568
      -0.655
      -0.570
      -0.360
      -0.084
       0.199
       0.434
       0.574
       0.593
       0.495
       0.298
       0.014
      -0.359
      -0.816
      -1.315
      -1.782
      -2.148
      -2.377
      -2.469
      -2.434
      -2.283
      -2.030
      -1.705
      -1.338
      -0.945
      -0.514
      -0.030
       0.495
       1.018
       1.489
       1.891
       2.239
       2.559
       2.850
       3.078
       3.188
       3.136
       2.905
       2.519
       2.046
       1.573
       1.171
       0.851
       0.565
       0.247
      -0.125
      -0.506
      -0.814
      -0.986
      -1.019
      -0.973
      -0.935
      -0.987
      -1.169
      -1.461
      -1.791
      -2.064
      -2.218
      -2.248
      -2.219
      -2.229
      -2.366
      -2.658
      -3.055
      -3.450
      -3.734
      -3.849
      -3.795
      -3.613
      -3.337
      -2.977
      -2.527
      -1.989
      -1.400
      -0.812
      -0.269
       0.218
       0.658
       1.062
       1.428
       1.759
       2.070
       2.391
       2.749
       3.135
       3.492
       3.732
       3.782
       3.641
       3.390
       3.161
       3.054
       3.085
       3.172
       3.183
       3.006
       2.602
       2.016
       1.350
       0.711
       0.165
      -0.288
      -0.698
      -1.136
      -1.640
      -2.177
      -2.634
      -2.861
      -2.752
      -2.300
      -1.600
      -0.792
      -0.001
       0.685
       1.209
       1.531
       1.643
       1.570
       1.359
       1.048
       0.650
       0.172
      -0.359
      -0.892
      -1.372
      -1.760
      -2.033
      -2.174
      -2.163
      -1.990
      -1.675
      -1.264
      -0.805
      -0.327
       0.155
       0.614
       0.996
       1.244
       1.332
       1.280
       1.135
       0.948
       0.757
       0.582
       0.436
       0.318
       0.211
       0.080
      -0.130
      -0.471
      -0.952
      -1.513
      -2.023
      -2.344
      -2.395
      -2.192
      -1.827
      -1.406
      -1.008
      -0.670
      -0.409
      -0.238
      -0.162
      -0.174
      -0.248
      -0.345
      -0.413
      -0.402
      -0.275
      -0.034
       0.284
       0.639
       1.022
       1.459
       1.959
       2.462
       2.843
       2.978
       2.829
       2.457
       1.958
       1.394
       0.787
       0.162
      -0.415
      -0.861
      -1.140
      -1.286
      -1.382
      -1.508
      -1.718
      -2.044
      -2.497
      -3.033
      -3.530
      -3.815
      -3.750
      -3.308
      -2.575
      -1.672
      -0.691
       0.312
       1.264
       2.050
       2.551
       2.716
       2.596
       2.327
       2.065
       1.932
       1.983
       2.180
       2.414
       2.563
       2.578
       2.519
       2.490
       2.541
       2.607
       2.563
       2.330
       1.917
       1.393
       0.817
       0.214
      -0.388
      -0.944
      -1.404
      -1.753
      -1.998
      -2.113
      -2.004
      -1.555
      -0.739
       0.317
       1.381
       2.239
       2.775
       2.976
       2.888
       2.593
       2.201
       1.829
       1.546
       1.330
       1.086
       0.720
       0.200
      -0.446
      -1.181
      -1.999
      -2.900
      -3.837
      -4.707
      -5.394
      -5.837
      -6.043
      -6.060
      -5.941
      -5.736
      -5.492
      -5.229
      -4.910
      -4.456
      -3.815
      -3.023
      -2.199
      -1.457
      -0.821
      -0.212
       0.473
       1.272
       2.140
       2.994
       3.761
       4.396
       4.873
       5.183
       5.335
       5.354
       5.246
       4.996
       4.586
       4.039
       3.430
       2.846
       2.335
       1.898
       1.516
       1.204
       1.002
       0.933
       0.953
       0.975
       0.924
       0.783
       0.578
       0.325
       0.012
      -0.365
      -0.755
      -1.066
      -1.225
      -1.247
      -1.230
      -1.292
      -1.489
      -1.807
      -2.193
      -2.595
      -2.962
      -3.234
      -3.358
      -3.316
      -3.136
      -2.868
      -2.557
      -2.235
      -1.933
      -1.695
      -1.548
      -1.477
      -1.419
      -1.304
      -1.097
      -0.805
      -0.432
       0.048
       0.671
       1.430
       2.234
       2.942
       3.427
       3.630
       3.568
       3.317
       2.991
       2.705
       2.525
       2.443
       2.390
       2.303
       2.174
       2.048
       1.968
       1.923
       1.863
       1.750
       1.588
       1.402
       1.208
       1.000
       0.776
       0.545
       0.304
       0.001
      -0.448
      -1.093
      -1.882
      -2.662
      -3.264
      -3.601
      -3.700
      -3.649
      -3.528
      -3.383
      -3.241
      -3.113
      -2.977
      -2.774
      -2.458
      -2.044
      -1.614
      -1.256
      -0.991
      -0.757
      -0.452
      -0.009
       0.562
       1.183
       1.743
       2.134
       2.285
       2.182
       1.884
       1.496
       1.117
       0.784
       0.468
       0.129
      -0.226
      -0.533
      -0.706
      -0.692
      -0.495
      -0.171
       0.190
       0.481
       0.622
       0.605
       0.509
       0.455
       0.522
       0.687
       0.851
       0.915
       0.851
       0.718
       0.606
       0.578
       0.631
       0.697
       0.689
       0.549
       0.285
      -0.032
      -0.313
      -0.509
      -0.632
      -0.740
      -0.895
      -1.131
      -1.445
      -1.796
      -2.099
      -2.236
      -2.115
      -1.737
      -1.220
      -0.748
      -0.475
      -0.459
      -0.663
      -0.993
      -1.340
      -1.597
      -1.674
      -1.514
      -1.122
      -0.566
       0.038
       0.570
       0.940
       1.103
       1.056
       0.827
       0.475
       0.079
      -0.271
      -0.496
      -0.519
      -0.276
       0.260
       1.038
       1.911
       2.682
       3.190
       3.379
       3.299
       3.045
       2.697
       2.297
       1.864
       1.429
       1.037
       0.733
       0.551
       0.497
       0.549
       0.648
       0.715
       0.672
       0.485
       0.187
      -0.132
      -0.355
      -0.387
      -0.184
       0.223
       0.730
       1.188
       1.459
       1.480
       1.282
       0.951
       0.542
       0.039
      -0.613
      -1.426
      -2.311
      -3.099
      -3.627
      -3.821
      -3.730
      -3.478
      -3.194
      -2.950
      -2.746
      -2.533
      -2.248
      -1.869
      -1.424
      -0.987
      -0.621
      -0.332
      -0.056
       0.293
       0.756
       1.295
       1.804
       2.177
       2.367
       2.412
       2.406
       2.440
       2.556
       2.741
       2.953
       3.153
       3.322
       3.454
       3.533
       3.499
       3.251
       2.699
       1.836
       0.791
      -0.216
      -0.971
      -1.378
      -1.482
      -1.428
      -1.383
      -1.478
      -1.790
      -2.320
      -2.995
      -3.687
      -4.281
      -4.718
      -4.990
      -5.082
      -4.943
      -4.523
      -3.845
      -3.024
      -2.229
      -1.603
      -1.228
      -1.133
      -1.300
      -1.649
      -2.021
      -2.224
      -2.124
      -1.703
      -1.034
      -0.205
       0.740
       1.774
       2.832
       3.809
       4.597
       5.132
       5.401
       5.432
       5.286
       5.053
       4.833
       4.693
       4.633
       4.581
       4.435
       4.104
       3.534
       2.719
       1.713
       0.612
      -0.480
      -1.496
      -2.403
      -3.158
      -3.653
      -3.745
      -3.364
      -2.627
      -1.814
      -1.229
      -1.027
      -1.162
      -1.467
      -1.776
      -1.992
      -2.074
      -2.014
      -1.826
      -1.554
      -1.250
      -0.946
      -0.646
      -0.342
      -0.052
       0.190
       0.352
       0.422
       0.409
       0.335
       0.248
       0.218
       0.310
       0.544
       0.860
       1.141
       1.280
       1.244
       1.082
       0.876
       0.679
       0.495
       0.302
       0.087
      -0.141
      -0.368
      -0.569
      -0.710
      -0.745
      -0.638
      -0.394
      -0.071
       0.253
       0.528
       0.751
       0.954
       1.151
       1.314
       1.369
       1.227
       0.818
       0.122
      -0.802
      -1.800
      -2.651
      -3.141
      -3.150
      -2.688
      -1.886
      -0.936
      -0.028
       0.690
       1.139
       1.302
       1.205
       0.893
       0.416
      -0.166
      -0.780
      -1.353
      -1.821
      -2.134
      -2.248
      -2.117
      -1.723
      -1.100
      -0.325
       0.528
       1.422
       2.351
       3.293
       4.185
       4.950
       5.551
       6.002
       6.318
       6.454
       6.299
       5.749
       4.792
       3.522
       2.085
       0.615
      -0.791
      -2.058
      -3.136
      -4.015
      -4.722
      -5.278
      -5.664
      -5.828
      -5.739
      -5.423
      -4.947
      -4.381
      -3.783
      -3.207
      -2.712
      -2.333
      -2.044
      -1.773
      -1.451
      -1.062
      -0.634
      -0.197
       0.243
       0.696
       1.145
       1.552
       1.885
       2.145
       2.365
       2.571
       2.770
       2.944
       3.064
       3.086
       2.951
       2.608
       2.049
       1.323
       0.520
      -0.269
      -0.970
      -1.523
      -1.870
      -1.966
      -1.808
      -1.450
      -0.988
      -0.520
      -0.130
       0.126
       0.229
       0.211
       0.148
       0.140
       0.249
       0.469
       0.731
       0.948
       1.060
       1.044
       0.906
       0.670
       0.389
       0.132
      -0.041
      -0.114
      -0.129
      -0.146
      -0.204
      -0.290
      -0.354
      -0.354
      -0.293
      -0.223
      -0.203
      -0.247
      -0.311
      -0.326
      -0.250
      -0.111
       0.017
       0.059
      -0.012
      -0.154
      -0.284
      -0.330
      -0.277
      -0.174
      -0.090
      -0.066
      -0.091
      -0.120
      -0.113
      -0.055
       0.049
       0.197
       0.396
       0.637
       0.869
       1.009
       0.989
       0.815
       0.566
       0.343
       0.196
       0.105
       0.011
      -0.120
      -0.252
      -0.292
      -0.145
       0.220
       0.720
       1.161
       1.321
       1.059
       0.400
      -0.484
      -1.373
      -2.107
      -2.627
      -2.940
      -3.075
      -3.074
      -3.006
      -2.951
      -2.960
      -3.003
      -2.982
      -2.802
      -2.438
      -1.949
      -1.422
      -0.920
      -0.459
      -0.031
       0.379
       0.790
       1.217
       1.652
       2.054
       2.360
       2.527
       2.556
       2.475
       2.315
       2.100
       1.866
       1.654
       1.487
       1.343
       1.168
       0.940
       0.718
       0.622
       0.751
       1.103
       1.556
       1.929
       2.060
       1.856
       1.324
       0.564
      -0.249
      -0.925
      -1.337
      -1.470
      -1.400
      -1.232
      -1.033
      -0.809
      -0.542
      -0.225
       0.123
       0.469
       0.779
       1.027
       1.199
       1.304
       1.368
       1.409
       1.408
       1.311
       1.069
       0.693
       0.257
      -0.148
      -0.480
      -0.761
      -1.026
      -1.272
      -1.458
      -1.549
      -1.562
      -1.545
      -1.538
      -1.548
      -1.556
      -1.533
      -1.434
      -1.206
      -0.813
      -0.284
       0.277
       0.722
       0.947
       0.944
       0.814
       0.714
       0.782
       1.072
       1.530
       2.020
       2.376
       2.493
       2.379
       2.146
       1.920
       1.747
       1.569
       1.281
       0.825
       0.220
      -0.460
      -1.143
      -1.780
      -2.336
      -2.789
      -3.143
      -3.435
      -3.703
      -3.939
      -4.072
      -4.003
      -3.677
      -3.121
      -2.428
      -1.724
      -1.129
      -0.726
      -0.533
      -0.489
      -0.473
      -0.367
      -0.109
       0.291
       0.776
       1.276
       1.715
       2.012
       2.119
       2.074
       2.000
       2.028
       2.193
       2.393
       2.470
       2.331
       2.008
       1.615
       1.254
       0.963
       0.725
       0.518
       0.345
       0.231
       0.199
       0.248
       0.343
       0.425
       0.432
       0.332
       0.148
      -0.053
      -0.220
      -0.364
      -0.558
      -0.875
      -1.310
      -1.762
      -2.089
      -2.188
      -2.049
      -1.760
      -1.452
      -1.229
      -1.110
      -1.018
      -0.832
      -0.470
       0.050
       0.609
       1.056
       1.291
       1.304
       1.164
       0.979
       0.855
       0.862
       0.999
       1.194
       1.325
       1.291
       1.061
       0.685
       0.246
      -0.189
      -0.581
      -0.884
      -1.033
      -0.965
      -0.675
      -0.237
       0.231
       0.622
       0.865
       0.932
       0.832
       0.607
       0.316
      -0.001
      -0.341
      -0.713
      -1.097
      -1.427
      -1.620
      -1.639
      -1.501
      -1.258
      -0.951
      -0.596
      -0.204
       0.202
       0.590
       0.930
       1.193
       1.353
       1.391
       1.321
       1.186
       1.034
       0.879
       0.689
       0.412
       0.009
      -0.518
      -1.105
      -1.630
      -1.945
      -1.950
      -1.649
      -1.155
      -0.611
      -0.112
       0.333
       0.749
       1.128
       1.397
       1.456
       1.255
       0.845
       0.372
       0.002
      -0.152
      -0.076
       0.158
       0.437
       0.644
       0.690
       0.539
       0.217
      -0.205
      -0.643
      -1.046
      -1.402
      -1.712
      -1.952
      -2.062
      -1.977
      -1.663
      -1.151
      -0.531
       0.077
       0.570
       0.902
       1.085
       1.167
       1.195
       1.200
       1.196
       1.205
       1.265
       1.412
       1.655
       1.966
       2.290
       2.560
       2.692
       2.586
       2.149
       1.356
       0.290
      -0.869
      -1.908
      -2.650
      -2.986
      -2.886
      -2.397
      -1.640
      -0.783
       0.002
       0.591
       0.927
       1.007
       0.854
       0.512
       0.051
      -0.425
      -0.809
      -1.024
      -1.055
      -0.943
      -0.772
      -0.639
      -0.626
      -0.774
      -1.060
      -1.413
      -1.748
      -2.000
      -2.132
      -2.123
      -1.953
      -1.617
      -1.132
      -0.531
       0.146
