Origin Time       10/07/2010 03:16:20
Lat.              29.9 N 
Long.             79.6 E 
Depth (Km)         10.0
Magnitude         4.1
 Region           ALMORA-UTTARAKHAND                                               
 Above details taken from IMD 
   
Station Code      BAG
Station Lat.       29.831
Station Long.      79.770
Station Height(m)  972.0
Site Class        A   Vs30 between 700 m/sec to 1400 m/sec * 
Record Time       10.07.2010 03:08:38.314
Sampling Rate     200. Hz
 Record Duration   81.960 Sec.
 Direction         Vert. (Up positive)
Max. Acceleration     -4.976 cm/sec**2
     
  * For reference see Site Classification link of website 
     
 Base Line Corrected and Low Pass Filtered (Cut Off at 35 Hz) Time History
 Acceleration data in cm/sec**2
    
[...]
       0.110
       0.039
       0.018
      -0.035
      -0.119
      -0.125
       0.037
       0.297
       0.443
       0.306
      -0.059
      -0.411
      -0.532
      -0.406
      -0.194
      -0.057
      -0.018
       0.009
       0.086
       0.169
       0.176
       0.089
      -0.020
      -0.068
      -0.036
       0.043
       0.138
       0.236
       0.297
       0.266
       0.129
      -0.046
      -0.168
      -0.211
      -0.229
      -0.277
      -0.327
      -0.291
      -0.140
       0.024
       0.067
      -0.021
      -0.109
      -0.095
      -0.030
      -0.048
      -0.178
      -0.284
      -0.209
       0.040
       0.274
       0.297
       0.103
      -0.127
      -0.207
      -0.107
       0.058
       0.172
       0.223
       0.256
       0.268
       0.185
      -0.042
      -0.338
      -0.516
      -0.420
      -0.075
       0.301
       0.456
       0.298
      -0.040
      -0.314
      -0.343
      -0.131
       0.165
       0.378
       0.453
       0.437
       0.379
       0.267
       0.080
      -0.141
      -0.295
      -0.315
      -0.239
      -0.170
      -0.165
      -0.178
      -0.121
       0.017
       0.130
       0.101
      -0.049
      -0.151
      -0.051
       0.211
       0.418
       0.382
       0.124
      -0.151
      -0.265
      -0.230
      -0.207
      -0.306
      -0.447
      -0.427
      -0.129
       0.335
       0.686
       0.690
       0.347
      -0.110
      -0.404
      -0.415
      -0.227
      -0.010
       0.140
       0.251
       0.383
       0.491
       0.433
       0.110
      -0.382
      -0.777
      -0.825
      -0.491
       0.012
       0.397
       0.541
       0.532
       0.510
       0.464
       0.251
      -0.196
      -0.682
      -0.856
      -0.520
       0.143
       0.674
       0.710
       0.272
      -0.275
      -0.549
      -0.457
      -0.193
       0.005
       0.064
       0.065
       0.080
       0.075
      -0.015
      -0.171
      -0.285
      -0.276
      -0.177
      -0.087
      -0.046
      -0.004
       0.098
       0.235
       0.304
       0.218
      -0.001
      -0.236
      -0.355
      -0.300
      -0.098
       0.170
       0.405
       0.512
       0.440
       0.207
      -0.104
      -0.382
      -0.538
      -0.521
      -0.328
      -0.003
       0.341
       0.558
       0.546
       0.324
       0.033
      -0.163
      -0.203
      -0.151
      -0.106
      -0.097
      -0.081
      -0.037
      -0.009
      -0.042
      -0.094
      -0.054
       0.133
       0.363
       0.446
       0.289
       0.001
      -0.217
      -0.276
      -0.257
      -0.271
      -0.294
      -0.198
       0.074
       0.386
       0.512
       0.347
       0.000
      -0.295
      -0.359
      -0.171
       0.157
       0.465
       0.624
       0.564
       0.298
      -0.066
      -0.363
      -0.485
      -0.452
      -0.365
      -0.299
      -0.255
      -0.203
      -0.141
      -0.089
      -0.045
       0.025
       0.131
       0.210
       0.169
      -0.006
      -0.192
      -0.227
      -0.075
       0.121
       0.172
       0.033
      -0.145
      -0.177
      -0.026
       0.164
       0.223
       0.130
       0.008
      -0.024
       0.034
       0.097
       0.109
       0.074
       0.002
      -0.114
      -0.271
      -0.408
      -0.433
      -0.312
      -0.113
       0.057
       0.141
       0.157
       0.131
       0.056
      -0.080
      -0.224
      -0.258
      -0.095
       0.215
       0.493
       0.558
       0.375
       0.062
      -0.228
      -0.400
      -0.424
      -0.297
      -0.045
       0.262
       0.505
       0.573
       0.445
       0.220
       0.031
      -0.078
      -0.179
      -0.351
      -0.565
      -0.684
      -0.577
      -0.243
       0.172
       0.475
       0.547
       0.385
       0.072
      -0.271
      -0.498
      -0.463
      -0.125
       0.361
       0.708
       0.703
       0.382
      -0.008
      -0.226
      -0.237
      -0.169
      -0.128
      -0.068
       0.106
       0.343
       0.424
       0.184
      -0.272
      -0.606
      -0.560
      -0.209
       0.124
       0.210
       0.132
       0.128
       0.262
       0.324
       0.093
      -0.353
      -0.649
      -0.501
      -0.015
       0.385
       0.362
      -0.023
      -0.429
      -0.591
      -0.528
      -0.408
      -0.308
      -0.133
       0.211
       0.630
       0.879
       0.784
       0.403
      -0.039
      -0.341
      -0.438
      -0.352
      -0.138
       0.120
       0.285
       0.239
       0.000
      -0.242
      -0.282
      -0.100
       0.109
       0.123
      -0.066
      -0.240
      -0.182
       0.105
       0.405
       0.511
       0.397
       0.200
       0.056
      -0.001
      -0.001
       0.049
       0.180
       0.367
       0.475
       0.350
      -0.029
      -0.499
      -0.809
      -0.787
      -0.447
       0.028
       0.382
       0.426
       0.147
      -0.269
      -0.524
      -0.419
      -0.014
       0.393
       0.505
       0.267
      -0.102
      -0.322
      -0.309
      -0.231
      -0.320
      -0.625
      -0.922
      -0.895
      -0.420
       0.301
       0.869
       0.976
       0.616
       0.064
      -0.351
      -0.477
      -0.374
      -0.147
       0.195
       0.677
       1.186
       1.422
       1.100
       0.236
      -0.771
      -1.371
      -1.271
      -0.644
       0.025
       0.334
       0.261
       0.099
       0.136
       0.370
       0.530
       0.378
      -0.038
      -0.415
      -0.487
      -0.259
       0.018
       0.106
      -0.004
      -0.117
      -0.078
       0.072
       0.165
       0.116
       0.016
       0.026
       0.194
       0.398
       0.471
       0.347
       0.090
      -0.200
      -0.457
      -0.626
      -0.623
      -0.397
      -0.038
       0.234
       0.233
      -0.012
      -0.270
      -0.331
      -0.208
      -0.113
      -0.213
      -0.424
      -0.487
      -0.244
       0.166
       0.439
       0.410
       0.210
       0.088
       0.132
       0.190
       0.101
      -0.074
      -0.101
       0.129
       0.426
       0.463
       0.131
      -0.320
      -0.509
      -0.288
       0.122
       0.356
       0.245
      -0.066
      -0.293
      -0.256
       0.020
       0.373
       0.638
       0.729
       0.628
       0.365
       0.020
      -0.268
      -0.352
      -0.181
       0.134
       0.376
       0.356
       0.042
      -0.423
      -0.805
      -0.913
      -0.696
      -0.262
       0.192
       0.473
       0.488
       0.277
      -0.007
      -0.193
      -0.207
      -0.119
      -0.055
      -0.072
      -0.116
      -0.107
      -0.058
      -0.072
      -0.224
      -0.441
      -0.542
      -0.407
      -0.113
       0.146
       0.262
       0.307
       0.394
       0.482
       0.385
       0.001
      -0.472
      -0.651
      -0.324
       0.288
       0.687
       0.544
       0.012
      -0.422
      -0.393
       0.032
       0.481
       0.662
       0.581
       0.424
       0.303
       0.169
      -0.041
      -0.260
      -0.347
      -0.271
      -0.180
      -0.246
      -0.464
      -0.627
      -0.530
      -0.184
       0.183
       0.324
       0.168
      -0.162
      -0.451
      -0.517
      -0.286
       0.162
       0.619
       0.852
       0.738
       0.342
      -0.125
      -0.438
      -0.488
      -0.301
       0.025
       0.392
       0.703
       0.844
       0.724
       0.383
       0.001
      -0.219
      -0.219
      -0.113
      -0.053
      -0.083
      -0.122
      -0.093
      -0.035
      -0.091
      -0.346
      -0.697
      -0.896
      -0.756
      -0.325
       0.142
       0.379
       0.306
       0.069
      -0.112
      -0.137
      -0.090
      -0.108
      -0.208
      -0.258
      -0.126
       0.149
       0.367
       0.336
       0.058
      -0.262
      -0.397
      -0.288
      -0.057
       0.148
       0.287
       0.387
       0.417
       0.277
      -0.073
      -0.482
      -0.674
      -0.473
       0.032
       0.540
       0.787
       0.724
       0.483
       0.214
      -0.015
      -0.187
      -0.266
      -0.201
      -0.005
       0.207
       0.288
       0.190
      -0.005
      -0.191
      -0.336
      -0.452
      -0.509
      -0.422
      -0.163
       0.157
       0.347
       0.301
       0.105
      -0.063
      -0.114
      -0.104
      -0.109
      -0.084
       0.093
       0.427
       0.713
       0.683
       0.271
      -0.260
      -0.520
      -0.332
       0.112
       0.435
       0.419
       0.163
      -0.077
      -0.161
      -0.153
      -0.189
      -0.299
      -0.379
      -0.338
      -0.213
      -0.137
      -0.181
      -0.263
      -0.242
      -0.081
       0.102
       0.161
       0.084
       0.011
       0.103
       0.389
       0.742
       0.972
       0.947
       0.639
       0.142
      -0.361
      -0.661
      -0.637
      -0.345
       0.007
       0.208
       0.194
       0.067
      -0.040
      -0.092
      -0.156
      -0.277
      -0.395
      -0.383
      -0.173
       0.146
       0.378
       0.376
       0.148
      -0.173
      -0.456
      -0.640
      -0.708
      -0.635
      -0.398
      -0.063
       0.199
       0.207
      -0.072
      -0.472
      -0.738
      -0.735
      -0.531
      -0.295
      -0.115
       0.047
       0.237
       0.392
       0.399
       0.254
       0.108
       0.120
       0.288
       0.443
       0.437
       0.317
       0.272
       0.405
       0.573
       0.508
       0.113
      -0.383
      -0.600
      -0.363
       0.131
       0.502
       0.510
       0.212
      -0.170
      -0.469
      -0.661
      -0.748
      -0.639
      -0.225
       0.422
       0.988
       1.137
       0.810
       0.290
      -0.046
      -0.042
       0.161
       0.333
       0.394
       0.430
       0.519
       0.618
       0.626
       0.523
       0.374
       0.206
      -0.050
      -0.452
      -0.892
      -1.118
      -0.947
      -0.468
       0.017
       0.236
       0.141
      -0.122
      -0.401
      -0.636
      -0.794
      -0.758
      -0.397
       0.219
       0.735
       0.733
       0.123
      -0.691
      -1.089
      -0.734
       0.168
       1.056
       1.479
       1.405
       1.130
       0.948
       0.931
       0.989
       1.057
       1.148
       1.254
       1.272
       1.080
       0.677
       0.197
      -0.204
      -0.475
      -0.666
      -0.852
      -1.070
      -1.338
      -1.674
      -2.054
      -2.354
      -2.398
      -2.112
      -1.633
      -1.217
      -1.007
      -0.910
      -0.731
      -0.408
      -0.074
       0.111
       0.157
       0.239
       0.485
       0.807
       0.961
       0.798
       0.425
       0.093
      -0.048
      -0.046
      -0.007
       0.096
       0.397
       0.926
       1.445
       1.566
       1.069
       0.122
      -0.807
      -1.272
      -1.104
      -0.429
       0.475
       1.307
       1.771
       1.635
       0.888
      -0.149
      -0.958
      -1.178
      -0.876
      -0.474
      -0.398
      -0.755
      -1.321
      -1.779
      -1.966
      -1.896
      -1.604
      -1.059
      -0.245
       0.705
       1.514
       1.932
       1.897
       1.537
       1.051
       0.620
       0.394
       0.489
       0.899
       1.420
       1.719
       1.553
       0.929
       0.058
      -0.839
      -1.650
      -2.304
      -2.653
      -2.511
      -1.849
      -0.931
      -0.176
       0.166
       0.202
       0.257
       0.573
       1.154
       1.871
       2.617
       3.286
       3.609
       3.185
       1.800
      -0.209
      -2.008
      -2.824
      -2.523
      -1.680
      -1.051
      -0.959
      -1.134
      -1.108
      -0.679
      -0.026
       0.553
       0.905
       1.040
       0.984
       0.714
       0.261
      -0.186
      -0.378
      -0.248
      -0.027
      -0.035
      -0.342
      -0.667
      -0.646
      -0.217
       0.314
       0.581
       0.520
       0.381
       0.402
       0.515
       0.440
       0.063
      -0.363
      -0.443
      -0.056
       0.496
       0.761
       0.538
       0.014
      -0.480
      -0.780
      -0.956
      -1.132
      -1.324
      -1.473
      -1.547
      -1.551
      -1.444
      -1.107
      -0.453
       0.448
       1.361
       2.040
       2.400
       2.504
       2.409
       2.050
       1.337
       0.352
      -0.607
      -1.191
      -1.218
      -0.759
      -0.049
       0.637
       1.043
       0.931
       0.146
      -1.233
      -2.760
      -3.737
      -3.612
      -2.367
      -0.583
       0.933
       1.654
       1.618
       1.289
       1.132
       1.274
       1.482
       1.431
       0.986
       0.270
      -0.479
      -1.084
      -1.477
      -1.634
      -1.538
      -1.234
      -0.876
      -0.648
      -0.574
      -0.421
       0.142
       1.225
       2.541
       3.578
       3.975
       3.764
       3.271
       2.785
       2.320
       1.675
       0.688
      -0.584
      -1.919
      -3.067
      -3.826
      -4.046
      -3.658
      -2.766
      -1.678
      -0.773
      -0.236
       0.083
       0.510
       1.204
       1.956
       2.355
       2.164
       1.539
       0.870
       0.426
       0.167
      -0.108
      -0.490
      -0.867
      -1.072
      -1.119
      -1.257
      -1.803
      -2.851
      -4.102
      -4.976
      -4.947
      -3.872
      -2.066
      -0.077
       1.634
       2.886
       3.724
       4.234
       4.408
       4.174
       3.551
       2.735
       1.996
       1.459
       0.995
       0.357
      -0.559
      -1.549
      -2.209
      -2.263
      -1.809
      -1.273
      -1.071
      -1.288
      -1.626
      -1.654
      -1.135
      -0.172
       0.883
       1.648
       1.898
       1.639
       1.090
       0.583
       0.417
       0.692
       1.237
       1.692
       1.731
       1.296
       0.624
       0.080
      -0.101
       0.049
       0.275
       0.272
      -0.143
      -0.957
      -1.975
      -2.903
      -3.447
      -3.421
      -2.829
      -1.895
      -0.972
      -0.352
      -0.066
       0.125
       0.506
       1.100
       1.594
       1.599
       1.010
       0.129
      -0.558
      -0.754
      -0.541
      -0.256
      -0.205
      -0.453
      -0.845
      -1.149
      -1.174
      -0.812
      -0.057
       0.975
       2.033
       2.807
       3.078
       2.852
       2.372
       1.934
       1.674
       1.503
       1.278
       1.017
       0.907
       1.074
       1.354
       1.332
       0.670
      -0.587
      -2.023
      -3.138
      -3.645
      -3.546
      -2.987
      -2.118
      -1.086
      -0.121
       0.504
       0.645
       0.423
       0.126
      -0.051
      -0.157
      -0.380
      -0.786
      -1.204
      -1.375
      -1.230
      -0.998
      -1.017
      -1.413
      -1.947
      -2.153
      -1.679
      -0.559
       0.790
       1.834
       2.262
       2.139
       1.771
       1.418
       1.116
       0.782
       0.428
       0.234
       0.385
       0.831
       1.246
       1.245
       0.715
      -0.079
      -0.701
      -0.888
      -0.706
      -0.405
      -0.147
       0.107
       0.476
       0.961
       1.409
       1.632
       1.551
       1.235
       0.822
       0.431
       0.116
      -0.126
      -0.334
      -0.551
      -0.785
      -0.990
      -1.103
      -1.104
      -1.029
      -0.904
      -0.669
      -0.220
       0.439
       1.093
       1.422
       1.272
       0.813
       0.384
       0.169
       0.034
      -0.284
      -0.856
      -1.415
      -1.569
      -1.156
      -0.374
       0.388
       0.834
       0.893
       0.667
       0.312
      -0.041
      -0.305
      -0.431
      -0.416
      -0.310
      -0.193
      -0.144
      -0.221
      -0.450
      -0.786
      -1.071
      -1.066
      -0.600
       0.245
       1.122
       1.636
       1.612
       1.174
       0.597
       0.087
      -0.295
      -0.565
      -0.739
      -0.828
      -0.869
      -0.881
      -0.788
      -0.456
       0.143
       0.793
       1.137
       0.970
       0.437
      -0.086
      -0.317
      -0.254
      -0.063
       0.174
       0.511
       0.943
       1.246
       1.095
       0.401
      -0.497
      -1.046
      -0.946
      -0.410
       0.032
      -0.012
      -0.494
      -1.040
      -1.300
      -1.214
      -0.954
      -0.694
      -0.471
      -0.230
       0.048
       0.303
       0.448
       0.453
       0.366
       0.268
       0.210
       0.198
       0.220
       0.258
       0.292
       0.293
       0.243
       0.168
       0.120
       0.116
       0.105
       0.016
      -0.136
      -0.245
      -0.214
      -0.082
      -0.032
      -0.236
      -0.665
      -1.054
      -1.074
      -0.605
       0.135
       0.738
       0.919
       0.705
       0.350
       0.065
      -0.142
      -0.376
      -0.646
      -0.787
      -0.616
      -0.167
       0.269
       0.386
       0.155
      -0.150
      -0.228
      -0.031
       0.243
       0.391
       0.416
       0.478
       0.659
       0.823
       0.744
       0.374
      -0.052
      -0.209
       0.021
       0.436
       0.691
       0.576
       0.145
      -0.361
      -0.677
      -0.645
      -0.270
       0.277
       0.718
       0.818
       0.573
       0.244
       0.163
       0.417
       0.750
       0.797
       0.443
      -0.052
      -0.324
      -0.263
      -0.105
      -0.141
      -0.383
      -0.546
      -0.385
       0.000
       0.229
       0.016
      -0.547
      -1.085
      -1.285
      -1.128
      -0.808
      -0.482
      -0.143
       0.278
       0.755
       1.140
       1.310
       1.276
       1.139
       0.965
       0.749
       0.487
       0.243
       0.089
       0.007
      -0.139
      -0.474
      -0.972
      -1.456
      -1.752
      -1.811
      -1.686
      -1.428
      -1.056
      -0.617
      -0.207
       0.095
       0.309
       0.514
       0.722
       0.812
       0.640
       0.221
      -0.230
      -0.451
      -0.334
       0.021
       0.412
       0.651
       0.628
       0.341
      -0.098
      -0.481
      -0.607
      -0.420
      -0.081
       0.122
       0.015
      -0.306
      -0.548
      -0.501
      -0.212
       0.107
       0.317
       0.458
       0.636
       0.848
       0.965
       0.883
       0.668
       0.505
       0.489
       0.507
       0.353
      -0.038
      -0.498
      -0.782
      -0.794
      -0.642
      -0.496
      -0.421
      -0.371
      -0.319
      -0.326
      -0.462
      -0.674
      -0.771
      -0.577
      -0.100
       0.446
       0.793
       0.798
       0.515
       0.138
      -0.121
      -0.155
      -0.014
       0.157
       0.231
       0.189
       0.115
       0.118
       0.260
       0.520
       0.814
       1.036
       1.112
       1.026
       0.822
       0.584
       0.387
       0.247
       0.105
      -0.095
      -0.318
      -0.444
      -0.390
      -0.217
      -0.102
      -0.194
      -0.481
      -0.801
      -0.982
      -0.989
      -0.924
      -0.902
      -0.929
