Origin Time       21/9/2009 9:43:47	 
Lat.              30.9 N	
Long.             79.1 E	
Depth (Km)         13.0
Magnitude         4.7
 Region           UTTARKASHI-UTTARAKHAND                                           
 Above details taken from IMD 
   
Station Code      BAG
Station Lat.       29.831
Station Long.      79.770
Station Height(m)  972.0
Site Class        A   Vs30 between 700 m/sec to 1400 m/sec * 
Record Time       21.09.2009 09:41:12.079
Sampling Rate     200. Hz
 Record Duration   65.025 Sec.
 Direction         Vert. (Up positive)
Max. Acceleration     -1.243 cm/sec**2
     
  * For reference see Site Classification link of website 
     
 Base Line Corrected and Low Pass Filtered (Cut Off at 35 Hz) Time History
 Acceleration data in cm/sec**2
    
[...]
      -0.063
      -0.025
       0.085
       0.180
       0.196
       0.142
       0.080
       0.064
       0.087
       0.097
       0.050
      -0.042
      -0.126
      -0.159
      -0.144
      -0.119
      -0.120
      -0.142
      -0.149
      -0.112
      -0.037
       0.041
       0.087
       0.094
       0.082
       0.079
       0.099
       0.131
       0.146
       0.117
       0.044
      -0.045
      -0.105
      -0.090
       0.010
       0.155
       0.268
       0.282
       0.189
       0.046
      -0.063
      -0.093
      -0.059
      -0.016
      -0.003
      -0.014
      -0.020
      -0.012
      -0.011
      -0.032
      -0.059
      -0.052
       0.001
       0.063
       0.080
       0.031
      -0.043
      -0.073
      -0.029
       0.051
       0.100
       0.081
       0.015
      -0.044
      -0.066
      -0.060
      -0.060
      -0.087
      -0.137
      -0.194
      -0.242
      -0.269
      -0.267
      -0.232
      -0.169
      -0.087
       0.003
       0.087
       0.147
       0.171
       0.162
       0.134
       0.111
       0.106
       0.113
       0.113
       0.095
       0.069
       0.054
       0.050
       0.043
       0.017
      -0.026
      -0.070
      -0.099
      -0.109
      -0.113
      -0.119
      -0.128
      -0.132
      -0.128
      -0.122
      -0.126
      -0.147
      -0.173
      -0.183
      -0.152
      -0.070
       0.053
       0.182
       0.273
       0.303
       0.284
       0.258
       0.253
       0.262
       0.247
       0.170
       0.032
      -0.128
      -0.258
      -0.320
      -0.310
      -0.251
      -0.176
      -0.116
      -0.095
      -0.114
      -0.153
      -0.181
      -0.172
      -0.117
      -0.031
       0.056
       0.117
       0.143
       0.142
       0.127
       0.095
       0.039
      -0.038
      -0.104
      -0.126
      -0.097
      -0.051
      -0.035
      -0.063
      -0.096
      -0.081
      -0.007
       0.073
       0.092
       0.034
      -0.042
      -0.067
      -0.026
       0.027
       0.037
       0.011
       0.003
       0.046
       0.106
       0.107
       0.017
      -0.118
      -0.205
      -0.186
      -0.073
       0.074
       0.197
       0.273
       0.304
       0.298
       0.256
       0.176
       0.071
      -0.031
      -0.092
      -0.092
      -0.037
       0.046
       0.125
       0.176
       0.188
       0.161
       0.094
      -0.011
      -0.132
      -0.225
      -0.249
      -0.203
      -0.126
      -0.072
      -0.057
      -0.051
      -0.016
       0.053
       0.114
       0.122
       0.074
       0.019
       0.007
       0.046
       0.094
       0.102
       0.053
      -0.028
      -0.100
      -0.137
      -0.138
      -0.116
      -0.098
      -0.108
      -0.146
      -0.190
      -0.203
      -0.164
      -0.084
       0.006
       0.073
       0.108
       0.116
       0.108
       0.094
       0.086
       0.102
       0.142
       0.182
       0.186
       0.138
       0.060
      -0.009
      -0.039
      -0.026
       0.015
       0.065
       0.110
       0.133
       0.114
       0.055
      -0.015
      -0.055
      -0.059
      -0.064
      -0.117
      -0.222
      -0.324
      -0.357
      -0.302
      -0.197
      -0.106
      -0.064
      -0.068
      -0.099
      -0.147
      -0.207
      -0.254
      -0.250
      -0.167
      -0.030
       0.087
       0.114
       0.047
      -0.046
      -0.077
      -0.007
       0.130
       0.262
       0.338
       0.354
       0.334
       0.288
       0.207
       0.089
      -0.039
      -0.129
      -0.153
      -0.116
      -0.046
       0.031
       0.102
       0.147
       0.147
       0.098
       0.029
      -0.010
       0.003
       0.046
       0.072
       0.054
       0.019
       0.009
       0.030
       0.042
       0.005
      -0.076
      -0.146
      -0.144
      -0.063
       0.052
       0.132
       0.143
       0.097
       0.033
      -0.020
      -0.057
      -0.080
      -0.082
      -0.053
       0.005
       0.066
       0.091
       0.053
      -0.039
      -0.144
      -0.212
      -0.220
      -0.182
      -0.137
      -0.122
      -0.145
      -0.189
      -0.224
      -0.229
      -0.189
      -0.102
       0.012
       0.111
       0.149
       0.105
       0.012
      -0.069
      -0.090
      -0.051
       0.012
       0.067
       0.105
       0.126
       0.118
       0.072
       0.010
      -0.027
      -0.015
       0.014
      -0.005
      -0.102
      -0.226
      -0.279
      -0.203
      -0.039
       0.113
       0.177
       0.151
       0.086
       0.024
      -0.023
      -0.052
      -0.041
       0.027
       0.127
       0.180
       0.110
      -0.078
      -0.291
      -0.413
      -0.390
      -0.260
      -0.106
       0.008
       0.068
       0.091
       0.095
       0.089
       0.078
       0.068
       0.057
       0.038
       0.001
      -0.056
      -0.119
      -0.172
      -0.198
      -0.189
      -0.138
      -0.048
       0.057
       0.138
       0.162
       0.124
       0.058
       0.014
       0.022
       0.076
       0.147
       0.202
       0.233
       0.252
       0.282
       0.327
       0.367
       0.376
       0.344
       0.281
       0.207
       0.139
       0.089
       0.059
       0.049
       0.053
       0.064
       0.078
       0.086
       0.074
       0.029
      -0.047
      -0.125
      -0.166
      -0.150
      -0.096
      -0.045
      -0.021
      -0.013
      -0.003
       0.005
      -0.025
      -0.113
      -0.230
      -0.300
      -0.268
      -0.152
      -0.039
      -0.004
      -0.051
      -0.110
      -0.120
      -0.083
      -0.054
      -0.084
      -0.162
      -0.233
      -0.245
      -0.186
      -0.082
       0.033
       0.126
       0.163
       0.118
      -0.006
      -0.154
      -0.241
      -0.210
      -0.081
       0.065
       0.144
       0.120
       0.010
      -0.128
      -0.231
      -0.246
      -0.161
      -0.011
       0.135
       0.214
       0.202
       0.131
       0.054
       0.014
       0.009
       0.008
      -0.019
      -0.080
      -0.150
      -0.191
      -0.173
      -0.095
       0.009
       0.092
       0.123
       0.102
       0.052
       0.004
      -0.015
       0.013
       0.097
       0.220
       0.339
       0.402
       0.385
       0.301
       0.190
       0.086
       0.000
      -0.060
      -0.073
      -0.016
       0.100
       0.212
       0.254
       0.213
       0.143
       0.120
       0.176
       0.279
       0.372
       0.423
       0.433
       0.407
       0.339
       0.225
       0.093
      -0.003
      -0.029
      -0.003
       0.022
       0.009
      -0.036
      -0.085
      -0.118
      -0.147
      -0.193
      -0.265
      -0.364
      -0.475
      -0.577
      -0.632
      -0.602
      -0.489
      -0.345
      -0.246
      -0.232
      -0.268
      -0.282
      -0.225
      -0.111
       0.005
       0.078
       0.102
       0.088
       0.039
      -0.043
      -0.136
      -0.182
      -0.127
       0.032
       0.234
       0.392
       0.453
       0.419
       0.331
       0.227
       0.138
       0.085
       0.090
       0.160
       0.274
       0.384
       0.439
       0.410
       0.293
       0.105
      -0.126
      -0.353
      -0.513
      -0.558
      -0.487
      -0.353
      -0.228
      -0.155
      -0.140
      -0.168
      -0.235
      -0.348
      -0.494
      -0.623
      -0.673
      -0.628
      -0.540
      -0.482
      -0.481
      -0.493
      -0.455
      -0.355
      -0.249
      -0.200
      -0.210
      -0.221
      -0.173
      -0.071
       0.033
       0.089
       0.104
       0.118
       0.161
       0.216
       0.260
       0.295
       0.345
       0.416
       0.471
       0.463
       0.382
       0.276
       0.212
       0.227
       0.306
       0.416
       0.526
       0.621
       0.676
       0.658
       0.551
       0.394
       0.270
       0.246
       0.314
       0.394
       0.396
       0.284
       0.104
      -0.058
      -0.140
      -0.140
      -0.098
      -0.062
      -0.060
      -0.104
      -0.199
      -0.338
      -0.488
      -0.590
      -0.593
      -0.498
      -0.366
      -0.268
      -0.226
      -0.196
      -0.115
       0.030
       0.180
       0.252
       0.200
       0.045
      -0.146
      -0.284
      -0.299
      -0.160
       0.100
       0.388
       0.590
       0.642
       0.568
       0.462
       0.406
       0.416
       0.451
       0.472
       0.467
       0.427
       0.317
       0.098
      -0.217
      -0.546
      -0.789
      -0.906
      -0.940
      -0.967
      -1.022
      -1.086
      -1.126
      -1.138
      -1.143
      -1.153
      -1.149
      -1.102
      -0.992
      -0.822
      -0.608
      -0.369
      -0.144
       0.023
       0.109
       0.143
       0.187
       0.285
       0.423
       0.545
       0.603
       0.597
       0.564
       0.536
       0.512
       0.480
       0.436
       0.399
       0.388
       0.404
       0.435
       0.469
       0.490
       0.472
       0.388
       0.245
       0.094
       0.014
       0.054
       0.198
       0.374
       0.499
       0.531
       0.486
       0.407
       0.333
       0.282
       0.257
       0.248
       0.237
       0.215
       0.186
       0.168
       0.176
       0.214
       0.275
       0.339
       0.378
       0.371
       0.308
       0.204
       0.090
       0.002
      -0.057
      -0.117
      -0.227
      -0.403
      -0.602
      -0.744
      -0.770
      -0.687
      -0.563
      -0.488
      -0.512
      -0.613
      -0.705
      -0.701
      -0.573
      -0.374
      -0.193
      -0.090
      -0.058
      -0.054
      -0.048
      -0.048
      -0.080
      -0.135
      -0.161
      -0.111
       0.000
       0.105
       0.139
       0.104
       0.054
       0.036
       0.049
       0.061
       0.055
       0.065
       0.139
       0.285
       0.454
       0.570
       0.590
       0.512
       0.354
       0.137
      -0.109
      -0.328
      -0.460
      -0.487
      -0.456
      -0.450
      -0.514
      -0.623
      -0.699
      -0.665
      -0.501
      -0.242
       0.049
       0.309
       0.484
       0.544
       0.496
       0.389
       0.280
       0.202
       0.148
       0.093
       0.024
      -0.060
      -0.160
      -0.271
      -0.373
      -0.425
      -0.393
      -0.287
      -0.157
      -0.041
       0.075
       0.245
       0.492
       0.748
       0.879
       0.787
       0.507
       0.190
      -0.004
      -0.019
       0.076
       0.177
       0.225
       0.232
       0.237
       0.262
       0.296
       0.326
       0.346
       0.353
       0.340
       0.299
       0.240
       0.199
       0.212
       0.280
       0.363
       0.416
       0.409
       0.337
       0.208
       0.032
      -0.167
      -0.350
      -0.478
      -0.533
      -0.521
      -0.466
      -0.388
      -0.289
      -0.167
      -0.045
       0.022
      -0.023
      -0.193
      -0.435
      -0.661
      -0.795
      -0.804
      -0.696
      -0.512
      -0.309
      -0.150
      -0.068
      -0.048
      -0.029
       0.039
       0.151
       0.250
       0.288
       0.267
       0.230
       0.203
       0.156
       0.041
      -0.150
      -0.356
      -0.497
      -0.544
      -0.534
      -0.505
      -0.448
      -0.321
      -0.121
       0.078
       0.182
       0.175
       0.147
       0.220
       0.432
       0.707
       0.918
       0.989
       0.935
       0.820
       0.695
       0.567
       0.412
       0.211
      -0.030
      -0.266
      -0.433
      -0.467
      -0.344
      -0.108
       0.155
       0.355
       0.453
       0.462
       0.422
       0.356
       0.258
       0.113
      -0.074
      -0.268
      -0.427
      -0.524
      -0.558
      -0.546
      -0.498
      -0.415
      -0.301
      -0.174
      -0.071
      -0.027
      -0.040
      -0.056
      -0.003
       0.133
       0.282
       0.333
       0.233
       0.037
      -0.136
      -0.203
      -0.171
      -0.109
      -0.077
      -0.074
      -0.061
      -0.012
       0.061
       0.123
       0.158
       0.171
       0.164
       0.113
      -0.007
      -0.187
      -0.376
      -0.515
      -0.572
      -0.547
      -0.459
      -0.335
      -0.201
      -0.094
      -0.038
      -0.028
      -0.028
       0.004
       0.073
       0.147
       0.189
       0.195
       0.186
       0.171
       0.125
       0.008
      -0.176
      -0.362
      -0.455
      -0.398
      -0.217
      -0.003
       0.155
       0.233
       0.278
       0.359
       0.506
       0.680
       0.803
       0.814
       0.711
       0.543
       0.366
       0.194
      -0.001
      -0.251
      -0.547
      -0.830
      -1.022
      -1.083
      -1.034
      -0.943
      -0.872
      -0.845
      -0.838
      -0.816
      -0.748
      -0.624
      -0.446
      -0.228
       0.008
       0.234
       0.422
       0.545
       0.583
       0.548
       0.489
       0.459
       0.471
       0.485
       0.451
       0.365
       0.283
       0.279
       0.373
       0.509
       0.596
       0.584
       0.500
       0.418
       0.395
       0.426
       0.461
       0.453
       0.385
       0.261
       0.092
      -0.111
      -0.317
      -0.482
      -0.585
      -0.653
      -0.740
      -0.877
      -1.040
      -1.176
      -1.243
      -1.234
      -1.148
      -0.970
      -0.689
      -0.335
       0.010
       0.260
       0.386
       0.431
       0.461
       0.507
       0.546
       0.547
       0.525
       0.541
       0.645
       0.825
       1.001
       1.079
       1.003
       0.783
       0.486
       0.205
       0.032
       0.018
       0.142
       0.319
       0.443
       0.459
       0.390
       0.302
       0.240
       0.198
       0.140
       0.048
      -0.069
      -0.194
      -0.326
      -0.473
      -0.632
      -0.768
      -0.836
      -0.819
      -0.742
      -0.644
      -0.536
      -0.387
      -0.160
       0.138
       0.445
       0.686
       0.819
       0.849
       0.823
       0.784
       0.747
       0.685
       0.551
       0.327
       0.043
      -0.233
      -0.441
      -0.563
      -0.615
      -0.605
      -0.520
      -0.350
      -0.127
       0.074
       0.189
       0.216
       0.204
       0.195
       0.186
       0.154
       0.107
       0.096
       0.156
       0.257
       0.321
       0.293
       0.197
       0.106
       0.068
       0.055
       0.009
      -0.093
      -0.205
      -0.272
      -0.279
      -0.253
      -0.222
      -0.185
      -0.137
      -0.107
      -0.136
      -0.232
      -0.348
      -0.416
      -0.406
      -0.350
      -0.298
      -0.263
      -0.214
      -0.116
       0.034
       0.202
       0.357
       0.489
       0.588
       0.619
       0.539
       0.350
       0.115
      -0.073
      -0.157
      -0.157
      -0.147
      -0.196
      -0.329
      -0.519
      -0.709
      -0.842
      -0.878
      -0.800
      -0.622
      -0.374
      -0.097
       0.167
       0.369
       0.472
       0.480
       0.449
       0.452
       0.521
       0.612
       0.643
       0.562
       0.391
       0.200
       0.044
      -0.081
      -0.212
      -0.367
      -0.515
      -0.613
      -0.658
      -0.691
      -0.745
      -0.796
      -0.777
      -0.642
      -0.427
      -0.232
      -0.139
      -0.136
      -0.130
      -0.032
       0.156
       0.343
       0.427
       0.377
       0.243
       0.106
       0.018
      -0.001
       0.054
       0.178
       0.332
       0.438
       0.422
       0.277
       0.089
      -0.018
       0.013
       0.134
       0.231
       0.220
       0.106
      -0.039
      -0.136
      -0.158
      -0.128
      -0.091
      -0.079
      -0.099
      -0.138
      -0.169
      -0.164
      -0.108
      -0.003
       0.134
       0.287
       0.439
       0.574
       0.665
       0.679
       0.596
       0.423
       0.201
      -0.011
      -0.172
      -0.286
      -0.390
      -0.525
      -0.694
      -0.848
      -0.919
      -0.875
      -0.739
      -0.574
      -0.431
      -0.319
      -0.224
      -0.133
      -0.054
       0.012
       0.086
       0.196
       0.339
       0.464
       0.516
       0.471
       0.345
       0.167
      -0.040
      -0.252
      -0.426
      -0.516
      -0.509
      -0.444
      -0.387
      -0.354
      -0.290
      -0.118
       0.160
       0.439
       0.589
       0.569
       0.457
       0.369
       0.356
       0.378
       0.368
       0.313
       0.258
       0.247
       0.267
       0.278
       0.276
       0.304
       0.387
       0.471
       0.441
       0.223
      -0.130
      -0.458
      -0.609
      -0.544
      -0.346
      -0.133
       0.018
       0.091
       0.094
       0.039
      -0.046
      -0.100
      -0.052
       0.111
       0.314
       0.434
       0.394
       0.219
       0.009
      -0.140
      -0.213
      -0.264
      -0.346
      -0.445
      -0.477
      -0.360
      -0.092
       0.239
       0.507
       0.626
       0.594
       0.469
       0.311
       0.146
      -0.020
      -0.166
      -0.246
      -0.240
      -0.179
      -0.133
      -0.140
      -0.183
      -0.208
      -0.192
      -0.159
      -0.151
      -0.168
      -0.167
      -0.115
      -0.030
       0.039
       0.073
       0.107
       0.186
       0.308
       0.408
       0.411
       0.304
       0.136
      -0.038
      -0.198
      -0.354
      -0.493
      -0.562
      -0.520
      -0.395
      -0.273
      -0.217
      -0.210
      -0.180
      -0.086
       0.030
       0.088
       0.055
      -0.013
      -0.023
       0.066
       0.211
       0.340
       0.414
       0.433
       0.402
       0.304
       0.135
      -0.054
      -0.173
      -0.169
      -0.081
      -0.009
      -0.025
      -0.114
      -0.203
      -0.243
      -0.245
      -0.250
      -0.268
      -0.270
      -0.234
      -0.170
      -0.106
      -0.037
       0.081
       0.271
       0.483
       0.609
       0.567
       0.362
       0.077
      -0.188
      -0.371
      -0.456
      -0.455
      -0.386
      -0.275
      -0.154
      -0.050
       0.026
       0.083
       0.135
       0.182
       0.219
       0.244
       0.255
       0.244
       0.205
       0.146
       0.103
       0.112
       0.165
       0.206
       0.166
       0.023
      -0.177
      -0.365
      -0.500
      -0.579
      -0.611
      -0.592
      -0.510
      -0.362
      -0.166
       0.049
       0.256
       0.434
       0.553
       0.588
       0.545
       0.458
       0.361
       0.243
       0.068
      -0.178
      -0.445
      -0.651
      -0.749
      -0.764
      -0.754
      -0.722
      -0.609
      -0.359
      -0.004
       0.333
       0.525
       0.544
       0.468
       0.406
       0.411
       0.451
       0.458
       0.401
       0.304
       0.213
       0.154
       0.116
       0.076
       0.017
      -0.052
      -0.111
      -0.143
      -0.146
      -0.125
      -0.091
      -0.053
      -0.023
      -0.007
      -0.006
      -0.021
      -0.060
