Origin Time       21/9/2009 9:43:47	 
Lat.              30.9 N	
Long.             79.1 E	
Depth (Km)         13.0
Magnitude         4.7
 Region           UTTARKASHI-UTTARAKHAND                                           
 Above details taken from IMD 
     
Station Code      BAG
Station Lat.       29.831  N
Station Long.      79.770  E
Station Height(m)  972.0
Site Class        A   Vs30 between 700 m/sec to 1400 m/sec * 
Record Time       21.09.2009 09:41:12.079
Sampling Rate     200. Hz
 Record Duration   65.025 Sec.
 Direction         E-W (E positive)
Max. Acceleration     -1.822 cm/sec**2
     
  * For reference see Site Classification link of website 
     
 Base Line Corrected and Low Pass Filtered (Cut Off at 35 Hz) Time History
 Acceleration data in cm/sec**2
    
[...]
      -0.154
      -0.133
      -0.136
      -0.165
      -0.210
      -0.256
      -0.297
      -0.325
      -0.325
      -0.282
      -0.197
      -0.096
      -0.017
       0.018
       0.008
      -0.027
      -0.067
      -0.099
      -0.117
      -0.111
      -0.077
      -0.023
       0.027
       0.053
       0.054
       0.043
       0.033
       0.022
       0.005
      -0.018
      -0.040
      -0.048
      -0.040
      -0.014
       0.027
       0.083
       0.151
       0.213
       0.254
       0.262
       0.240
       0.191
       0.118
       0.022
      -0.080
      -0.160
      -0.196
      -0.189
      -0.157
      -0.121
      -0.093
      -0.075
      -0.065
      -0.063
      -0.068
      -0.067
      -0.050
      -0.011
       0.044
       0.103
       0.160
       0.211
       0.253
       0.275
       0.266
       0.223
       0.153
       0.070
      -0.008
      -0.062
      -0.080
      -0.064
      -0.031
       0.001
       0.019
       0.020
       0.010
      -0.007
      -0.026
      -0.041
      -0.039
      -0.014
       0.029
       0.073
       0.107
       0.129
       0.148
       0.161
       0.156
       0.122
       0.059
      -0.020
      -0.107
      -0.202
      -0.305
      -0.405
      -0.473
      -0.478
      -0.402
      -0.261
      -0.093
       0.050
       0.132
       0.137
       0.075
      -0.027
      -0.133
      -0.214
      -0.254
      -0.251
      -0.207
      -0.131
      -0.034
       0.066
       0.155
       0.221
       0.263
       0.279
       0.272
       0.248
       0.215
       0.183
       0.162
       0.156
       0.162
       0.178
       0.201
       0.221
       0.218
       0.174
       0.088
      -0.026
      -0.150
      -0.267
      -0.364
      -0.420
      -0.412
      -0.329
      -0.189
      -0.033
       0.096
       0.172
       0.190
       0.154
       0.081
      -0.006
      -0.074
      -0.093
      -0.060
       0.002
       0.065
       0.110
       0.130
       0.130
       0.114
       0.085
       0.049
       0.007
      -0.042
      -0.091
      -0.125
      -0.128
      -0.095
      -0.047
      -0.012
      -0.002
      -0.004
       0.009
       0.037
       0.058
       0.045
      -0.001
      -0.057
      -0.104
      -0.140
      -0.166
      -0.175
      -0.152
      -0.099
      -0.037
       0.009
       0.037
       0.073
       0.129
       0.186
       0.198
       0.142
       0.039
      -0.059
      -0.113
      -0.115
      -0.083
      -0.040
      -0.004
       0.011
      -0.005
      -0.051
      -0.109
      -0.159
      -0.186
      -0.187
      -0.159
      -0.093
       0.011
       0.129
       0.218
       0.240
       0.194
       0.111
       0.032
      -0.025
      -0.066
      -0.100
      -0.133
      -0.163
      -0.188
      -0.205
      -0.203
      -0.164
      -0.077
       0.045
       0.171
       0.271
       0.331
       0.349
       0.322
       0.242
       0.114
      -0.032
      -0.150
      -0.207
      -0.197
      -0.139
      -0.062
       0.009
       0.061
       0.084
       0.083
       0.067
       0.049
       0.035
       0.023
       0.013
       0.012
       0.028
       0.066
       0.115
       0.156
       0.175
       0.164
       0.120
       0.046
      -0.046
      -0.135
      -0.202
      -0.238
      -0.242
      -0.213
      -0.146
      -0.042
       0.077
       0.171
       0.198
       0.138
       0.008
      -0.156
      -0.317
      -0.442
      -0.503
      -0.478
      -0.363
      -0.189
      -0.003
       0.152
       0.260
       0.327
       0.362
       0.364
       0.327
       0.252
       0.164
       0.093
       0.059
       0.057
       0.060
       0.042
      -0.007
      -0.080
      -0.153
      -0.206
      -0.228
      -0.218
      -0.177
      -0.108
      -0.021
       0.064
       0.129
       0.167
       0.179
       0.175
       0.159
       0.133
       0.100
       0.069
       0.048
       0.036
       0.019
      -0.023
      -0.095
      -0.186
      -0.270
      -0.325
      -0.338
      -0.310
      -0.252
      -0.184
      -0.131
      -0.107
      -0.107
      -0.113
      -0.101
      -0.054
       0.036
       0.161
       0.297
       0.407
       0.454
       0.417
       0.310
       0.170
       0.033
      -0.077
      -0.154
      -0.189
      -0.175
      -0.117
      -0.046
      -0.006
      -0.023
      -0.085
      -0.151
      -0.179
      -0.154
      -0.089
      -0.012
       0.054
       0.096
       0.101
       0.063
      -0.016
      -0.113
      -0.202
      -0.261
      -0.280
      -0.257
      -0.198
      -0.115
      -0.026
       0.048
       0.090
       0.096
       0.072
       0.033
       0.002
      -0.005
       0.020
       0.061
       0.089
       0.079
       0.029
      -0.046
      -0.125
      -0.196
      -0.252
      -0.275
      -0.250
      -0.174
      -0.072
       0.018
       0.071
       0.095
       0.116
       0.152
       0.200
       0.247
       0.288
       0.321
       0.334
       0.306
       0.227
       0.121
       0.035
       0.005
       0.029
       0.069
       0.086
       0.071
       0.037
       0.004
      -0.022
      -0.047
      -0.079
      -0.112
      -0.132
      -0.122
      -0.081
      -0.018
       0.051
       0.108
       0.148
       0.183
       0.229
       0.286
       0.328
       0.318
       0.241
       0.114
      -0.027
      -0.148
      -0.238
      -0.296
      -0.322
      -0.316
      -0.281
      -0.236
      -0.201
      -0.187
      -0.191
      -0.200
      -0.202
      -0.189
      -0.158
      -0.110
      -0.052
       0.011
       0.076
       0.139
       0.185
       0.196
       0.157
       0.074
      -0.023
      -0.098
      -0.133
      -0.139
      -0.134
      -0.129
      -0.117
      -0.091
      -0.053
      -0.014
       0.021
       0.055
       0.091
       0.119
       0.129
       0.123
       0.108
       0.090
       0.066
       0.024
      -0.044
      -0.129
      -0.212
      -0.267
      -0.279
      -0.240
      -0.160
      -0.061
       0.028
       0.087
       0.114
       0.122
       0.124
       0.130
       0.150
       0.195
       0.268
       0.344
       0.380
       0.340
       0.221
       0.053
      -0.120
      -0.265
      -0.370
      -0.432
      -0.446
      -0.408
      -0.321
      -0.202
      -0.071
       0.057
       0.168
       0.244
       0.270
       0.244
       0.180
       0.109
       0.057
       0.029
       0.014
      -0.009
      -0.044
      -0.076
      -0.085
      -0.069
      -0.044
      -0.036
      -0.059
      -0.102
      -0.138
      -0.143
      -0.114
      -0.070
      -0.035
      -0.019
      -0.016
      -0.018
      -0.031
      -0.066
      -0.121
      -0.173
      -0.188
      -0.150
      -0.076
       0.000
       0.054
       0.090
       0.130
       0.189
       0.259
       0.318
       0.344
       0.324
       0.264
       0.183
       0.101
       0.033
      -0.017
      -0.052
      -0.076
      -0.091
      -0.103
      -0.119
      -0.141
      -0.162
      -0.162
      -0.125
      -0.055
       0.026
       0.090
       0.121
       0.115
       0.069
      -0.016
      -0.128
      -0.231
      -0.284
      -0.265
      -0.188
      -0.093
      -0.013
       0.042
       0.089
       0.145
       0.208
       0.263
       0.287
       0.266
       0.203
       0.119
       0.037
      -0.026
      -0.076
      -0.136
      -0.220
      -0.318
      -0.399
      -0.432
      -0.410
      -0.349
      -0.271
      -0.191
      -0.110
      -0.030
       0.046
       0.114
       0.164
       0.194
       0.202
       0.191
       0.172
       0.160
       0.162
       0.167
       0.152
       0.109
       0.053
       0.009
      -0.011
      -0.020
      -0.042
      -0.087
      -0.143
      -0.183
      -0.190
      -0.167
      -0.131
      -0.091
      -0.054
      -0.019
       0.009
       0.032
       0.061
       0.105
       0.169
       0.243
       0.316
       0.372
       0.399
       0.381
       0.308
       0.187
       0.047
      -0.074
      -0.148
      -0.174
      -0.169
      -0.153
      -0.129
      -0.096
      -0.058
      -0.024
      -0.005
       0.003
       0.010
       0.024
       0.043
       0.058
       0.062
       0.054
       0.036
       0.013
      -0.017
      -0.051
      -0.084
      -0.105
      -0.105
      -0.079
      -0.034
       0.006
       0.013
      -0.025
      -0.091
      -0.148
      -0.165
      -0.134
      -0.065
       0.024
       0.115
       0.178
       0.186
       0.126
       0.013
      -0.115
      -0.211
      -0.250
      -0.234
      -0.180
      -0.107
      -0.028
       0.044
       0.094
       0.110
       0.087
       0.031
      -0.046
      -0.129
      -0.202
      -0.249
      -0.262
      -0.239
      -0.187
      -0.125
      -0.070
      -0.038
      -0.032
      -0.044
      -0.056
      -0.052
      -0.024
       0.023
       0.074
       0.113
       0.135
       0.141
       0.142
       0.154
       0.185
       0.229
       0.259
       0.246
       0.181
       0.085
      -0.009
      -0.079
      -0.124
      -0.152
      -0.166
      -0.155
      -0.116
      -0.061
      -0.012
       0.021
       0.048
       0.081
       0.120
       0.147
       0.148
       0.130
       0.108
       0.088
       0.057
       0.001
      -0.082
      -0.170
      -0.231
      -0.244
      -0.205
      -0.127
      -0.038
       0.026
       0.041
       0.002
      -0.060
      -0.101
      -0.094
      -0.045
       0.018
       0.076
       0.129
       0.180
       0.219
       0.228
       0.194
       0.127
       0.055
       0.001
      -0.031
      -0.049
      -0.056
      -0.043
       0.001
       0.072
       0.150
       0.216
       0.248
       0.232
       0.165
       0.058
      -0.057
      -0.148
      -0.196
      -0.199
      -0.159
      -0.080
       0.033
       0.166
       0.289
       0.370
       0.397
       0.374
       0.320
       0.247
       0.160
       0.063
      -0.030
      -0.106
      -0.158
      -0.188
      -0.203
      -0.212
      -0.223
      -0.236
      -0.247
      -0.247
      -0.238
      -0.227
      -0.219
      -0.206
      -0.170
      -0.107
      -0.037
       0.001
      -0.021
      -0.101
      -0.203
      -0.286
      -0.330
      -0.335
      -0.315
      -0.288
      -0.266
      -0.255
      -0.248
      -0.234
      -0.202
      -0.149
      -0.083
      -0.021
       0.024
       0.049
       0.055
       0.047
       0.025
      -0.007
      -0.034
      -0.044
      -0.039
      -0.033
      -0.036
      -0.049
      -0.058
      -0.052
      -0.028
       0.006
       0.038
       0.060
       0.078
       0.100
       0.124
       0.138
       0.119
       0.057
      -0.040
      -0.142
      -0.213
      -0.226
      -0.182
      -0.095
       0.022
       0.166
       0.329
       0.493
       0.628
       0.706
       0.721
       0.685
       0.626
       0.580
       0.575
       0.620
       0.700
       0.782
       0.833
       0.840
       0.813
       0.776
       0.742
       0.708
       0.666
       0.615
       0.554
       0.474
       0.362
       0.219
       0.070
      -0.047
      -0.106
      -0.107
      -0.071
      -0.024
       0.013
       0.026
       0.004
      -0.056
      -0.143
      -0.236
      -0.318
      -0.386
      -0.446
      -0.499
      -0.536
      -0.551
      -0.552
      -0.551
      -0.555
      -0.560
      -0.560
      -0.555
      -0.553
      -0.552
      -0.535
      -0.486
      -0.411
      -0.337
      -0.285
      -0.252
      -0.215
      -0.160
      -0.092
      -0.027
       0.024
       0.057
       0.067
       0.046
      -0.003
      -0.061
      -0.102
      -0.112
      -0.099
      -0.085
      -0.087
      -0.108
      -0.143
      -0.192
      -0.260
      -0.341
      -0.406
      -0.424
      -0.380
      -0.290
      -0.187
      -0.100
      -0.041
      -0.009
      -0.004
      -0.030
      -0.085
      -0.156
      -0.213
      -0.233
      -0.200
      -0.118
      -0.001
       0.124
       0.232
       0.306
       0.347
       0.370
       0.387
       0.402
       0.412
       0.409
       0.393
       0.370
       0.349
       0.336
       0.325
       0.300
       0.245
       0.160
       0.071
       0.013
       0.009
       0.050
       0.104
       0.145
       0.172
       0.203
       0.248
       0.301
       0.339
       0.345
       0.303
       0.205
       0.044
      -0.169
      -0.402
      -0.609
      -0.751
      -0.812
      -0.809
      -0.767
      -0.710
      -0.649
      -0.591
      -0.538
      -0.481
      -0.403
      -0.290
      -0.148
      -0.006
       0.098
       0.137
       0.110
       0.038
      -0.050
      -0.137
      -0.212
      -0.276
      -0.328
      -0.366
      -0.385
      -0.378
      -0.335
      -0.250
      -0.131
       0.007
       0.154
       0.310
       0.480
       0.656
       0.811
       0.905
       0.915
       0.849
       0.745
       0.647
       0.584
       0.564
       0.583
       0.632
       0.698
       0.764
       0.808
       0.805
       0.731
       0.572
       0.339
       0.065
      -0.203
      -0.426
      -0.585
      -0.689
      -0.773
      -0.877
      -1.025
      -1.216
      -1.425
      -1.618
      -1.760
      -1.822
      -1.786
      -1.649
      -1.420
      -1.124
      -0.789
      -0.436
      -0.075
       0.285
       0.625
       0.921
       1.154
       1.318
       1.416
       1.453
       1.425
       1.330
       1.174
       0.977
       0.772
       0.588
       0.439
       0.324
       0.222
       0.103
      -0.060
      -0.280
      -0.544
      -0.817
      -1.064
      -1.257
      -1.372
      -1.387
      -1.284
      -1.069
      -0.787
      -0.504
      -0.278
      -0.136
      -0.066
      -0.042
      -0.041
      -0.044
      -0.031
       0.012
       0.083
       0.164
       0.226
       0.255
       0.253
       0.233
       0.212
       0.211
       0.248
       0.335
       0.468
       0.631
       0.802
       0.957
       1.085
       1.175
       1.219
       1.207
       1.127
       0.972
       0.741
       0.453
       0.154
      -0.092
      -0.231
      -0.251
      -0.186
      -0.086
       0.012
       0.092
       0.149
       0.179
       0.185
       0.187
       0.212
       0.280
       0.386
       0.502
       0.600
       0.656
       0.653
       0.570
       0.391
       0.118
      -0.228
      -0.608
      -0.979
      -1.293
      -1.497
      -1.548
      -1.444
      -1.233
      -0.991
      -0.774
      -0.588
      -0.410
      -0.219
      -0.022
       0.159
       0.308
       0.436
       0.565
       0.708
       0.864
       1.014
       1.140
       1.218
       1.213
       1.096
       0.854
       0.516
       0.135
      -0.235
      -0.552
      -0.789
      -0.929
      -0.962
      -0.896
      -0.751
      -0.556
      -0.334
      -0.109
       0.085
       0.212
       0.249
       0.212
       0.143
       0.077
       0.013
      -0.070
      -0.184
      -0.317
      -0.447
      -0.559
      -0.653
      -0.723
      -0.749
      -0.709
      -0.600
      -0.446
      -0.278
      -0.112
       0.050
       0.204
       0.340
       0.443
       0.521
       0.606
       0.723
       0.874
       1.020
       1.115
       1.120
       1.032
       0.869
       0.662
       0.442
       0.237
       0.072
      -0.030
      -0.052
       0.008
       0.138
       0.299
       0.428
       0.457
       0.353
       0.133
      -0.143
      -0.412
      -0.640
      -0.822
      -0.959
      -1.043
      -1.059
      -1.008
      -0.911
      -0.806
      -0.722
      -0.661
      -0.602
      -0.526
      -0.428
      -0.316
      -0.200
      -0.083
       0.037
       0.167
       0.313
       0.470
       0.622
       0.744
       0.817
       0.827
       0.771
       0.653
       0.481
       0.268
       0.031
      -0.210
      -0.432
      -0.610
      -0.724
      -0.757
      -0.710
      -0.598
      -0.439
      -0.243
      -0.007
       0.271
       0.571
       0.856
       1.080
       1.208
       1.216
       1.099
       0.867
       0.554
       0.215
      -0.092
      -0.322
      -0.467
      -0.541
      -0.565
      -0.549
      -0.492
      -0.393
      -0.253
      -0.078
       0.123
       0.327
       0.503
       0.621
       0.664
       0.633
       0.538
       0.385
       0.182
      -0.061
      -0.326
      -0.582
      -0.797
      -0.947
      -1.030
      -1.064
      -1.073
      -1.077
      -1.078
      -1.060
      -1.008
      -0.920
      -0.813
      -0.703
      -0.594
      -0.473
      -0.324
      -0.146
       0.050
       0.243
       0.408
       0.518
       0.551
       0.505
       0.397
       0.252
       0.091
      -0.078
      -0.244
      -0.375
      -0.429
      -0.379
      -0.240
      -0.066
       0.082
       0.163
       0.160
       0.081
      -0.035
      -0.125
      -0.113
       0.047
       0.344
       0.717
       1.087
       1.391
       1.600
       1.706
       1.714
       1.637
       1.504
       1.355
       1.220
       1.105
       0.999
       0.875
       0.705
       0.468
       0.158
      -0.206
      -0.573
      -0.882
      -1.077
      -1.132
      -1.054
      -0.882
      -0.666
      -0.455
      -0.282
      -0.150
      -0.041
       0.054
       0.122
       0.136
       0.082
      -0.024
      -0.153
      -0.292
      -0.451
      -0.639
      -0.832
      -0.980
      -1.039
      -0.996
      -0.870
      -0.685
      -0.455
      -0.193
       0.080
       0.331
       0.536
       0.691
       0.804
       0.872
       0.882
       0.826
       0.710
       0.552
       0.368
       0.172
      -0.008
      -0.128
      -0.152
      -0.082
       0.032
       0.117
       0.125
       0.044
      -0.112
      -0.327
      -0.589
      -0.865
      -1.099
      -1.232
      -1.234
      -1.115
      -0.913
      -0.676
      -0.449
      -0.271
      -0.169
      -0.139
      -0.152
      -0.166
      -0.148
      -0.083
       0.027
       0.173
       0.343
       0.513
       0.649
       0.723
       0.720
       0.645
       0.512
       0.342
       0.165
       0.023
      -0.057
      -0.069
      -0.033
       0.020
       0.064
       0.089
       0.093
       0.078
       0.054
       0.037
       0.048
       0.098
       0.176
       0.261
       0.334
       0.381
       0.398
       0.375
       0.306
       0.191
       0.040
      -0.119
      -0.262
      -0.372
      -0.450
      -0.503
      -0.524
      -0.501
      -0.426
      -0.310
      -0.175
      -0.046
       0.066
       0.158
       0.233
       0.288
       0.319
       0.327
       0.323
       0.319
       0.315
       0.300
       0.264
       0.218
       0.195
       0.229
       0.328
       0.467
       0.602
       0.692
       0.724
       0.704
       0.650
       0.581
       0.508
       0.434
       0.351
       0.251
       0.136
       0.019
      -0.084
      -0.165
