Origin Time       3/10/2009 5:20:54	 
Lat.              30.0°N	
Long.             79.9°E	
Depth (Km)         15.0
Magnitude         4.3
 Region           BAGESHWAR-UTTRAKHAND                                             
 Above details taken from IMD 
   
Station Code      BAG
Station Lat.       29.831
Station Long.      79.770
Station Height(m)  972.0
Site Class        A   Vs30 between 700 m/sec to 1400 m/sec * 
Record Time       03.10.2009 05:17:29.249
Sampling Rate     200. Hz
 Record Duration   66.960 Sec.
 Direction         Vert. (Up positive)
Max. Acceleration      6.526 cm/sec**2
     
  * For reference see Site Classification link of website 
     
 Base Line Corrected and Low Pass Filtered (Cut Off at 35 Hz) Time History
 Acceleration data in cm/sec**2
    
[...]
       0.019
       0.030
       0.015
      -0.010
      -0.020
      -0.005
       0.018
       0.025
       0.007
      -0.019
      -0.028
      -0.010
       0.018
       0.032
       0.019
      -0.005
      -0.015
      -0.004
       0.013
       0.016
       0.000
      -0.018
      -0.018
       0.003
       0.025
       0.026
       0.005
      -0.019
      -0.023
      -0.004
       0.021
       0.029
       0.014
      -0.007
      -0.013
       0.001
       0.023
       0.032
       0.022
       0.004
      -0.006
       0.000
       0.014
       0.019
       0.009
      -0.009
      -0.018
      -0.007
       0.018
       0.038
       0.037
       0.019
       0.000
      -0.003
       0.008
       0.017
       0.010
      -0.009
      -0.020
      -0.012
       0.009
       0.023
       0.018
       0.000
      -0.011
       0.000
       0.023
       0.035
       0.021
      -0.011
      -0.033
      -0.025
       0.007
       0.035
       0.035
       0.010
      -0.014
      -0.016
       0.005
       0.024
       0.020
      -0.005
      -0.026
      -0.021
       0.006
       0.031
       0.032
       0.008
      -0.018
      -0.025
      -0.009
       0.012
       0.017
       0.002
      -0.016
      -0.016
       0.004
       0.027
       0.033
       0.020
       0.000
      -0.006
       0.005
       0.021
       0.023
       0.007
      -0.013
      -0.019
      -0.003
       0.022
       0.034
       0.025
       0.004
      -0.008
      -0.001
       0.015
       0.021
       0.006
      -0.017
      -0.027
      -0.011
       0.019
       0.039
       0.032
       0.007
      -0.016
      -0.014
       0.008
       0.028
       0.025
      -0.001
      -0.026
      -0.027
      -0.004
       0.022
       0.029
       0.014
      -0.005
      -0.009
       0.007
       0.022
       0.019
      -0.002
      -0.022
      -0.018
       0.008
       0.036
       0.042
       0.021
      -0.006
      -0.015
      -0.001
       0.019
       0.020
      -0.001
      -0.023
      -0.021
       0.008
       0.040
       0.046
       0.022
      -0.009
      -0.019
      -0.002
       0.025
       0.034
       0.017
      -0.011
      -0.025
      -0.015
       0.009
       0.025
       0.020
       0.004
      -0.008
      -0.002
       0.014
       0.022
       0.013
      -0.006
      -0.018
      -0.014
       0.001
       0.014
       0.017
       0.012
       0.008
       0.011
       0.019
       0.022
       0.012
      -0.005
      -0.016
      -0.010
       0.009
       0.022
       0.014
      -0.010
      -0.026
      -0.017
       0.009
       0.028
       0.018
      -0.012
      -0.033
      -0.023
       0.012
       0.042
       0.040
       0.010
      -0.021
      -0.024
       0.000
       0.025
       0.025
      -0.001
      -0.026
      -0.026
      -0.001
       0.025
       0.028
       0.010
      -0.009
      -0.008
       0.009
       0.023
       0.015
      -0.012
      -0.035
      -0.034
      -0.011
       0.012
       0.016
      -0.001
      -0.021
      -0.021
      -0.002
       0.020
       0.023
       0.004
      -0.017
      -0.020
       0.000
       0.027
       0.038
       0.025
       0.003
      -0.009
      -0.003
       0.013
       0.019
       0.006
      -0.017
      -0.030
      -0.021
       0.002
       0.022
       0.025
       0.012
       0.001
       0.007
       0.031
       0.055
       0.066
       0.067
       0.077
       0.106
       0.150
       0.191
       0.215
       0.227
       0.236
       0.248
       0.256
       0.251
       0.234
       0.224
       0.232
       0.249
       0.245
       0.193
       0.095
      -0.015
      -0.098
      -0.138
      -0.156
      -0.191
      -0.270
      -0.385
      -0.490
      -0.532
      -0.486
      -0.376
      -0.266
      -0.227
      -0.290
      -0.416
      -0.510
      -0.486
      -0.334
      -0.136
      -0.007
      -0.015
      -0.122
      -0.222
      -0.222
      -0.108
       0.044
       0.138
       0.121
       0.001
      -0.180
      -0.364
      -0.477
      -0.438
      -0.215
       0.111
       0.359
       0.377
       0.193
       0.019
       0.086
       0.416
       0.780
       0.901
       0.713
       0.402
       0.200
       0.176
       0.236
       0.292
       0.364
       0.503
       0.639
       0.585
       0.227
      -0.309
      -0.709
      -0.741
      -0.461
      -0.152
      -0.062
      -0.218
      -0.469
      -0.651
      -0.684
      -0.561
      -0.303
       0.016
       0.260
       0.298
       0.134
      -0.051
      -0.057
       0.128
       0.294
       0.235
      -0.009
      -0.187
      -0.122
       0.095
       0.222
       0.168
       0.115
       0.271
       0.534
       0.507
      -0.052
      -0.826
      -1.116
      -0.522
       0.563
       1.229
       0.887
      -0.157
      -0.994
      -0.980
      -0.306
       0.279
       0.264
      -0.160
      -0.417
      -0.225
       0.117
       0.122
      -0.300
      -0.708
      -0.588
       0.088
       0.794
       0.945
       0.464
      -0.147
      -0.282
       0.208
       0.909
       1.246
       0.980
       0.349
      -0.191
      -0.330
      -0.095
       0.234
       0.357
       0.174
      -0.153
      -0.350
      -0.264
       0.017
       0.234
       0.166
      -0.196
      -0.630
      -0.853
      -0.738
      -0.383
       0.003
       0.281
       0.442
       0.543
       0.609
       0.602
       0.469
       0.220
      -0.050
      -0.219
      -0.220
      -0.088
       0.065
       0.094
      -0.074
      -0.359
      -0.566
      -0.552
      -0.378
      -0.244
      -0.263
      -0.313
      -0.159
       0.259
       0.672
       0.693
       0.207
      -0.461
      -0.817
      -0.638
      -0.138
       0.283
       0.382
       0.196
      -0.093
      -0.321
      -0.421
      -0.399
      -0.290
      -0.153
      -0.078
      -0.155
      -0.368
      -0.554
      -0.511
      -0.191
       0.221
       0.437
       0.304
      -0.060
      -0.351
      -0.336
      -0.057
       0.239
       0.366
       0.359
       0.363
       0.413
       0.380
       0.135
      -0.255
      -0.533
      -0.446
       0.033
       0.654
       1.030
       0.899
       0.325
      -0.312
      -0.573
      -0.313
       0.185
       0.437
       0.188
      -0.351
      -0.686
      -0.482
       0.124
       0.637
       0.656
       0.239
      -0.186
      -0.248
       0.026
       0.304
       0.321
       0.128
      -0.008
       0.104
       0.395
       0.607
       0.544
       0.244
      -0.063
      -0.180
      -0.119
      -0.047
      -0.094
      -0.202
      -0.190
       0.059
       0.457
       0.745
       0.680
       0.243
      -0.310
      -0.610
      -0.442
       0.082
       0.572
       0.630
       0.152
      -0.545
      -0.944
      -0.752
      -0.168
       0.295
       0.282
      -0.107
      -0.461
      -0.478
      -0.241
      -0.081
      -0.209
      -0.499
      -0.649
      -0.528
      -0.294
      -0.173
      -0.185
      -0.143
       0.083
       0.376
       0.467
       0.226
      -0.183
      -0.439
      -0.357
      -0.032
       0.290
       0.449
       0.449
       0.381
       0.304
       0.230
       0.163
       0.115
       0.077
       0.002
      -0.145
      -0.312
      -0.368
      -0.233
       0.013
       0.190
       0.213
       0.197
       0.309
       0.517
       0.546
       0.142
      -0.589
      -1.170
      -1.145
      -0.511
       0.279
       0.743
       0.774
       0.623
       0.522
       0.423
       0.141
      -0.313
      -0.629
      -0.479
       0.106
       0.706
       0.867
       0.496
      -0.094
      -0.495
      -0.545
      -0.379
      -0.222
      -0.173
      -0.192
      -0.227
      -0.296
      -0.453
      -0.690
      -0.890
      -0.897
      -0.647
      -0.245
       0.113
       0.294
       0.315
       0.269
       0.193
       0.039
      -0.225
      -0.500
      -0.575
      -0.277
       0.353
       1.040
       1.453
       1.435
       1.088
       0.644
       0.286
       0.071
      -0.012
       0.028
       0.179
       0.375
       0.491
       0.430
       0.248
       0.136
       0.237
       0.460
       0.544
       0.306
      -0.163
      -0.553
      -0.594
      -0.267
       0.197
       0.526
       0.617
       0.532
       0.329
      -0.021
      -0.491
      -0.868
      -0.852
      -0.359
       0.327
       0.730
       0.552
      -0.113
      -0.879
      -1.380
      -1.477
      -1.231
      -0.754
      -0.159
       0.393
       0.672
       0.482
      -0.177
      -1.042
      -1.696
      -1.799
      -1.259
      -0.270
       0.775
       1.444
       1.456
       0.858
       0.040
      -0.511
      -0.552
      -0.238
       0.053
       0.068
      -0.123
      -0.226
      -0.050
       0.283
       0.454
       0.290
      -0.052
      -0.252
      -0.143
       0.163
       0.435
       0.554
       0.571
       0.584
       0.578
       0.444
       0.160
      -0.085
      -0.030
       0.380
       0.863
       1.004
       0.593
      -0.203
      -0.954
      -1.248
      -0.919
      -0.105
       0.845
       1.535
       1.670
       1.178
       0.263
      -0.666
      -1.188
      -1.101
      -0.549
       0.081
       0.421
       0.351
       0.028
      -0.287
      -0.416
      -0.311
      -0.007
       0.416
       0.809
       0.975
       0.780
       0.278
      -0.289
      -0.638
      -0.665
      -0.515
      -0.426
      -0.483
      -0.542
      -0.430
      -0.182
      -0.047
      -0.244
      -0.724
      -1.187
      -1.328
      -1.077
      -0.622
      -0.220
       0.009
       0.123
       0.229
       0.358
       0.479
       0.595
       0.762
       0.971
       1.048
       0.761
       0.100
      -0.595
      -0.850
      -0.476
       0.224
       0.703
       0.641
       0.207
      -0.158
      -0.192
      -0.044
      -0.028
      -0.228
      -0.394
      -0.251
       0.171
       0.567
       0.684
       0.561
       0.425
       0.398
       0.367
       0.148
      -0.257
      -0.611
      -0.662
      -0.397
      -0.057
       0.094
      -0.020
      -0.271
      -0.485
      -0.579
      -0.555
      -0.427
      -0.194
       0.114
       0.412
       0.604
       0.652
       0.605
       0.551
       0.559
       0.625
       0.659
       0.520
       0.126
      -0.438
      -0.933
      -1.137
      -1.046
      -0.885
      -0.874
      -0.986
      -0.974
      -0.649
      -0.113
       0.349
       0.568
       0.631
       0.676
       0.612
       0.181
      -0.639
      -1.378
      -1.378
      -0.437
       0.897
       1.753
       1.680
       0.959
       0.236
      -0.112
      -0.196
      -0.273
      -0.318
      -0.065
       0.542
       1.082
       1.009
       0.261
      -0.567
      -0.749
      -0.133
       0.707
       1.037
       0.660
       0.036
      -0.241
      -0.032
       0.302
       0.381
       0.213
       0.096
       0.190
       0.302
       0.136
      -0.298
      -0.645
      -0.601
      -0.286
      -0.125
      -0.352
      -0.722
      -0.779
      -0.368
       0.195
       0.470
       0.349
       0.116
       0.061
       0.127
       0.015
      -0.391
      -0.793
      -0.764
      -0.239
       0.346
       0.456
      -0.022
      -0.683
      -1.021
      -0.888
      -0.523
      -0.198
       0.053
       0.337
       0.641
       0.779
       0.604
       0.195
      -0.179
      -0.299
      -0.170
       0.040
       0.231
       0.470
       0.823
       1.146
       1.155
       0.729
       0.098
      -0.320
      -0.273
       0.157
       0.697
       1.142
       1.414
       1.429
       1.028
       0.154
      -0.946
      -1.786
      -1.989
      -1.577
      -0.901
      -0.310
       0.112
       0.472
       0.778
       0.823
       0.422
      -0.275
      -0.807
      -0.804
      -0.332
       0.204
       0.451
       0.369
       0.135
      -0.126
      -0.443
      -0.824
      -1.087
      -0.960
      -0.415
       0.188
       0.392
       0.106
      -0.274
      -0.268
       0.180
       0.631
       0.599
       0.046
      -0.583
      -0.811
      -0.589
      -0.290
      -0.256
      -0.415
      -0.397
      -0.011
       0.474
       0.593
       0.212
      -0.278
      -0.320
       0.261
       1.107
       1.701
       1.862
       1.836
       1.954
       2.259
       2.535
       2.639
       2.686
       2.846
       3.003
       2.773
       1.926
       0.749
      -0.136
      -0.366
      -0.191
      -0.195
      -0.670
      -1.372
      -1.861
      -2.014
      -2.091
      -2.349
      -2.695
      -2.789
      -2.454
      -1.881
      -1.358
      -0.882
      -0.145
       1.034
       2.316
       3.012
       2.666
       1.448
      -0.077
      -1.489
      -2.761
      -3.992
      -5.036
      -5.519
      -5.195
      -4.202
      -2.914
      -1.591
      -0.252
       1.114
       2.276
       2.817
       2.488
       1.515
       0.500
      -0.007
       0.160
       0.781
       1.511
       2.067
       2.242
       1.831
       0.669
      -1.182
      -3.275
      -4.888
      -5.426
      -4.817
      -3.529
      -2.173
      -1.054
      -0.051
       1.136
       2.643
       4.293
       5.705
       6.516
       6.526
       5.730
       4.288
       2.472
       0.587
      -1.082
      -2.264
      -2.723
      -2.414
      -1.662
      -1.100
      -1.275
      -2.201
      -3.306
      -3.868
      -3.583
      -2.739
      -1.850
      -1.145
      -0.435
       0.529
       1.667
       2.603
       3.057
       3.148
       3.262
       3.621
       4.027
       4.045
       3.435
       2.355
       1.164
       0.080
      -0.890
      -1.739
      -2.281
      -2.245
      -1.578
      -0.637
      -0.039
      -0.223
      -1.105
      -2.147
      -2.783
      -2.782
      -2.255
      -1.398
      -0.305
       0.972
       2.251
       3.204
       3.571
       3.397
       2.978
       2.558
       2.110
       1.438
       0.487
      -0.509
      -1.191
      -1.372
      -1.197
      -1.023
      -1.121
      -1.470
      -1.811
      -1.906
      -1.746
      -1.539
      -1.529
      -1.805
      -2.252
      -2.646
      -2.829
      -2.837
      -2.863
      -3.056
      -3.343
      -3.447
      -3.100
      -2.281
      -1.278
      -0.490
      -0.109
       0.053
       0.400
       1.151
       2.086
       2.707
       2.678
       2.145
       1.627
       1.565
       1.921
       2.225
       2.039
       1.352
       0.536
      -0.044
      -0.309
      -0.364
      -0.244
       0.153
       0.857
       1.612
       2.003
       1.846
       1.440
       1.327
       1.767
       2.470
       2.883
       2.736
       2.276
       1.961
       1.970
       2.061
       1.928
       1.591
       1.348
       1.340
       1.319
       0.925
       0.137
      -0.659
      -1.077
      -1.115
      -1.115
      -1.348
      -1.713
      -1.858
      -1.587
      -1.082
      -0.709
      -0.661
      -0.844
      -1.095
      -1.381
      -1.717
      -1.962
      -1.842
      -1.270
      -0.581
      -0.313
      -0.687
      -1.331
      -1.610
      -1.236
      -0.536
      -0.083
      -0.111
      -0.302
      -0.174
       0.364
       0.886
       0.909
       0.437
       0.000
       0.140
       0.898
       1.792
       2.253
       2.048
       1.364
       0.564
      -0.088
      -0.516
      -0.740
      -0.764
      -0.580
      -0.256
       0.005
      -0.052
      -0.538
      -1.278
      -1.856
      -1.855
      -1.150
      -0.022
       1.002
       1.487
       1.358
       0.902
       0.520
       0.446
       0.644
       0.912
       1.047
       0.957
       0.679
       0.360
       0.189
       0.286
       0.585
       0.828
       0.737
       0.242
      -0.419
      -0.894
      -1.047
      -1.072
      -1.257
      -1.614
      -1.825
      -1.577
      -0.944
      -0.383
      -0.325
      -0.775
      -1.303
      -1.429
      -1.043
      -0.484
      -0.210
      -0.394
      -0.803
      -1.044
      -0.898
      -0.443
       0.064
       0.383
       0.397
       0.149
      -0.199
      -0.441
      -0.443
      -0.211
       0.127
       0.425
       0.639
       0.850
       1.161
       1.543
       1.803
       1.748
       1.404
       1.040
       0.929
       1.039
       1.032
       0.609
      -0.117
      -0.643
      -0.501
       0.283
       1.146
       1.411
       0.835
      -0.192
      -0.992
      -1.171
      -0.882
      -0.570
      -0.504
      -0.547
      -0.367
       0.187
       0.894
       1.355
       1.348
       1.000
       0.607
       0.318
       0.022
      -0.475
      -1.166
      -1.760
      -1.907
      -1.530
      -0.932
      -0.540
      -0.545
      -0.778
      -0.926
      -0.838
      -0.614
      -0.460
      -0.465
      -0.536
      -0.534
      -0.441
      -0.347
      -0.266
      -0.066
       0.376
       0.954
       1.332
       1.212
       0.616
      -0.093
      -0.457
      -0.253
       0.379
       1.096
       1.622
       1.869
       1.872
       1.676
       1.311
       0.836
       0.354
      -0.024
      -0.211
      -0.170
       0.061
       0.373
       0.610
       0.661
       0.540
       0.389
       0.358
       0.456
       0.528
       0.402
       0.067
      -0.286
      -0.424
      -0.279
      -0.032
       0.049
      -0.153
      -0.513
      -0.833
      -1.041
      -1.207
      -1.391
      -1.545
      -1.554
      -1.356
      -0.987
      -0.557
      -0.197
      -0.001
       0.011
      -0.095
      -0.182
      -0.120
       0.110
       0.379
       0.504
       0.430
       0.299
       0.304
       0.483
       0.654
       0.574
       0.176
      -0.324
      -0.560
      -0.301
       0.351
       1.018
       1.318
       1.130
       0.638
       0.167
      -0.045
       0.037
       0.256
       0.365
       0.155
      -0.406
      -1.115
      -1.642
      -1.758
      -1.495
      -1.089
      -0.768
      -0.594
      -0.482
      -0.333
      -0.132
       0.086
       0.325
       0.634
       1.014
       1.324
       1.340
       0.954
       0.339
      -0.142
      -0.252
      -0.143
      -0.228
      -0.766
      -1.567
      -2.140
      -2.156
      -1.723
      -1.243
      -0.994
      -0.879
      -0.618
      -0.149
       0.219
       0.127
      -0.382
      -0.812
      -0.655
       0.135
       1.083
       1.590
       1.421
       0.870
       0.504
       0.689
       1.312
       1.920
       2.082
       1.663
       0.837
      -0.048
      -0.637
      -0.710
      -0.307
       0.277
       0.670
       0.683
       0.444
       0.305
       0.552
       1.151
       1.738
       1.920
       1.597
       1.028
       0.560
       0.329
       0.220
       0.102
       0.030
       0.180
       0.567
       0.884
       0.700
      -0.114
      -1.169
      -1.847
      -1.818
      -1.288
      -0.734
      -0.465
      -0.425
      -0.401
