Origin Time       14/12/2005 07:09:48
Lat.              30.9 N 
Long.             79.3 E 
Depth (Km)         25.7
Magnitude         5.2
 Region           Chamoli-Uttarakhand                                              
 Above details taken from IMD 
   
Station Code      BAG
Station Lat.       29.831
Station Long.      79.770
Station Height(m)  872.0
Site Class        A   Vs30 between 700 m/sec to 1400 m/sec * 
Record Time       14.12.2005 07:09:58.869
Sampling Rate     200. Hz
 Record Duration   29.995 Sec.
 Direction         Vert. (Up positive)
Max. Acceleration      5.425 cm/sec**2
     
  * For reference see Site Classification link of website 
     
 Base Line Corrected and Low Pass Filtered (Cut Off at 35 Hz) Time History
 Acceleration data in cm/sec**2
    
[...]
      -0.225
      -0.483
      -0.585
      -0.385
       0.000
       0.396
       0.776
       1.214
       1.668
       1.893
       1.622
       0.825
      -0.242
      -1.227
      -1.892
      -2.151
      -1.993
      -1.461
      -0.734
      -0.132
       0.045
      -0.249
      -0.742
      -1.038
      -0.894
      -0.344
       0.403
       1.125
       1.662
       1.884
       1.705
       1.153
       0.417
      -0.234
      -0.627
      -0.764
      -0.734
      -0.565
      -0.209
       0.316
       0.818
       1.034
       0.852
       0.423
       0.036
      -0.120
      -0.040
       0.179
       0.466
       0.765
       0.970
       0.936
       0.593
       0.038
      -0.532
      -0.962
      -1.217
      -1.319
      -1.267
      -1.042
      -0.676
      -0.278
       0.041
       0.257
       0.417
       0.560
       0.678
       0.764
       0.870
       1.054
       1.266
       1.326
       1.057
       0.456
      -0.287
      -0.920
      -1.266
      -1.254
      -0.907
      -0.390
      -0.030
      -0.152
      -0.753
      -1.356
      -1.326
      -0.466
       0.702
       1.331
       0.996
       0.063
      -0.686
      -0.781
      -0.397
      -0.026
       0.090
       0.124
       0.340
       0.714
       0.959
       0.858
       0.488
       0.079
      -0.240
      -0.485
      -0.653
      -0.627
      -0.350
       0.002
       0.131
      -0.047
      -0.268
      -0.203
       0.128
       0.326
       0.052
      -0.575
      -1.066
      -1.073
      -0.721
      -0.408
      -0.332
      -0.300
      -0.010
       0.568
       1.165
       1.521
       1.628
       1.615
       1.486
       1.082
       0.346
      -0.466
      -0.937
      -0.862
      -0.407
       0.116
       0.561
       0.974
       1.335
       1.412
       0.967
       0.066
      -0.896
      -1.521
      -1.713
      -1.639
      -1.443
      -1.106
      -0.589
      -0.029
       0.314
       0.316
       0.123
      -0.030
      -0.080
      -0.147
      -0.289
      -0.339
      -0.082
       0.419
       0.776
       0.630
       0.039
      -0.564
      -0.800
      -0.696
      -0.561
      -0.578
      -0.584
      -0.311
       0.246
       0.769
       0.926
       0.692
       0.326
       0.084
       0.016
       0.031
       0.082
       0.222
       0.488
       0.792
       0.956
       0.847
       0.463
      -0.089
      -0.656
      -1.084
      -1.253
      -1.146
      -0.886
      -0.655
      -0.516
      -0.320
       0.148
       0.888
       1.564
       1.723
       1.180
       0.201
      -0.696
      -1.121
      -1.029
      -0.625
      -0.145
       0.244
       0.419
       0.296
      -0.070
      -0.416
      -0.410
       0.074
       0.783
       1.252
       1.177
       0.660
       0.091
      -0.202
      -0.190
      -0.057
       0.043
       0.121
       0.252
       0.420
       0.517
       0.467
       0.296
       0.049
      -0.302
      -0.792
      -1.302
      -1.539
      -1.256
      -0.508
       0.344
       0.924
       1.117
       1.051
       0.840
       0.431
      -0.246
      -1.019
      -1.478
      -1.306
      -0.623
       0.066
       0.286
      -0.030
      -0.557
      -0.924
      -1.002
      -0.877
      -0.648
      -0.318
       0.116
       0.554
       0.844
       0.921
       0.871
       0.823
       0.815
       0.762
       0.566
       0.225
      -0.145
      -0.378
      -0.365
      -0.133
       0.151
       0.251
       0.023
      -0.455
      -0.895
      -0.986
      -0.639
      -0.065
       0.395
       0.542
       0.447
       0.331
       0.343
       0.455
       0.545
       0.533
       0.429
       0.279
       0.124
       0.008
      -0.028
      -0.006
      -0.040
      -0.243
      -0.568
      -0.768
      -0.593
      -0.058
       0.489
       0.643
       0.313
      -0.176
      -0.362
      -0.061
       0.487
       0.866
       0.853
       0.548
       0.191
      -0.091
      -0.304
      -0.444
      -0.408
      -0.135
       0.223
       0.342
       0.010
      -0.630
      -1.162
      -1.236
      -0.835
      -0.217
       0.350
       0.767
       1.022
       1.034
       0.657
      -0.109
      -0.953
      -1.395
      -1.163
      -0.465
       0.145
       0.214
      -0.237
      -0.748
      -0.832
      -0.376
       0.316
       0.812
       0.897
       0.653
       0.297
      -0.025
      -0.282
      -0.479
      -0.589
      -0.576
      -0.453
      -0.268
      -0.045
       0.237
       0.572
       0.851
       0.895
       0.596
       0.023
      -0.609
      -1.070
      -1.217
      -1.013
      -0.507
       0.153
       0.732
       1.003
       0.893
       0.537
       0.160
      -0.101
      -0.246
      -0.292
      -0.167
       0.223
       0.801
       1.262
       1.272
       0.750
      -0.054
      -0.773
      -1.203
      -1.356
      -1.288
      -0.957
      -0.323
       0.451
       0.983
       0.941
       0.359
      -0.359
      -0.755
      -0.668
      -0.307
      -0.038
      -0.105
      -0.501
      -1.012
      -1.350
      -1.298
      -0.836
      -0.171
       0.383
       0.616
       0.567
       0.464
       0.495
       0.647
       0.738
       0.611
       0.283
      -0.075
      -0.285
      -0.288
      -0.152
       0.007
       0.108
       0.145
       0.180
       0.294
       0.502
       0.702
       0.731
       0.519
       0.196
       0.013
       0.106
       0.334
       0.372
       0.026
      -0.555
      -0.971
      -0.911
      -0.419
       0.149
       0.425
       0.294
      -0.082
      -0.456
      -0.682
      -0.734
      -0.609
      -0.271
       0.281
       0.891
       1.268
       1.160
       0.569
      -0.212
      -0.764
      -0.821
      -0.430
       0.092
       0.401
       0.356
       0.104
      -0.065
       0.038
       0.348
       0.620
       0.642
       0.413
       0.135
       0.029
       0.164
       0.428
       0.635
       0.663
       0.507
       0.229
      -0.109
      -0.478
      -0.862
      -1.238
      -1.559
      -1.752
      -1.729
      -1.418
      -0.827
      -0.079
       0.614
       1.057
       1.173
       1.025
       0.741
       0.414
       0.066
      -0.306
      -0.668
      -0.921
      -0.958
      -0.740
      -0.340
       0.098
       0.441
       0.630
       0.677
       0.608
       0.454
       0.274
       0.169
       0.224
       0.441
       0.735
       1.040
       1.374
       1.787
       2.223
       2.489
       2.383
       1.901
       1.270
       0.763
       0.475
       0.266
      -0.046
      -0.485
      -0.909
      -1.202
      -1.421
      -1.715
      -2.112
      -2.419
      -2.384
      -1.947
      -1.334
      -0.892
      -0.816
      -1.022
      -1.231
      -1.174
      -0.747
      -0.057
       0.643
       1.077
       1.088
       0.710
       0.139
      -0.390
      -0.722
      -0.827
      -0.760
      -0.606
      -0.450
      -0.361
      -0.352
      -0.358
      -0.261
       0.013
       0.409
       0.759
       0.917
       0.879
       0.770
       0.708
       0.679
       0.570
       0.328
       0.066
       0.001
       0.255
       0.711
       1.087
       1.157
       0.951
       0.741
       0.805
       1.169
       1.550
       1.564
       1.043
       0.209
      -0.465
      -0.583
      -0.117
       0.568
       0.962
       0.718
      -0.168
      -1.393
      -2.548
      -3.312
      -3.551
      -3.307
      -2.724
      -1.974
      -1.211
      -0.552
      -0.079
       0.167
       0.215
       0.184
       0.250
       0.524
       0.929
       1.197
       1.066
       0.519
      -0.152
      -0.557
      -0.521
      -0.206
       0.066
       0.111
      -0.005
      -0.098
      -0.096
      -0.080
      -0.138
      -0.203
      -0.075
       0.373
       1.040
       1.638
       1.911
       1.826
       1.583
       1.459
       1.627
       2.057
       2.534
       2.760
       2.510
       1.764
       0.729
      -0.278
      -1.007
      -1.386
      -1.478
      -1.381
      -1.151
      -0.832
      -0.520
      -0.376
      -0.552
      -1.072
      -1.776
      -2.374
      -2.613
      -2.413
      -1.881
      -1.200
      -0.506
       0.140
       0.674
       0.978
       0.945
       0.609
       0.189
      -0.054
      -0.029
       0.108
       0.131
      -0.007
      -0.115
       0.010
       0.316
       0.483
       0.228
      -0.404
      -1.068
      -1.467
      -1.624
      -1.795
      -2.109
      -2.361
      -2.203
      -1.520
      -0.582
       0.190
       0.594
       0.745
       0.860
       0.990
       1.019
       0.871
       0.664
       0.606
       0.764
       0.982
       1.044
       0.888
       0.661
       0.569
       0.714
       1.044
       1.394
       1.558
       1.365
       0.819
       0.200
      -0.050
       0.321
       1.078
       1.587
       1.308
       0.276
      -0.915
      -1.609
      -1.602
      -1.211
      -0.908
      -0.938
      -1.258
      -1.710
      -2.135
      -2.321
      -1.997
      -1.020
       0.415
       1.836
       2.837
       3.356
       3.590
       3.651
       3.395
       2.642
       1.495
       0.339
      -0.522
      -1.178
      -1.978
      -3.086
      -4.231
      -4.936
      -4.946
      -4.393
      -3.534
      -2.452
      -1.078
       0.502
       1.885
       2.601
       2.525
       2.002
       1.543
       1.415
       1.559
       1.810
       2.087
       2.320
       2.290
       1.715
       0.594
      -0.601
      -1.191
      -0.850
       0.112
       1.026
       1.427
       1.355
       1.166
       1.117
       1.182
       1.190
       1.036
       0.710
       0.208
      -0.476
      -1.257
      -1.935
      -2.359
      -2.611
      -2.934
      -3.436
      -3.891
      -3.921
      -3.397
      -2.587
      -1.885
      -1.388
      -0.818
       0.112
       1.321
       2.385
       2.959
       3.093
       3.112
       3.194
       3.153
       2.643
       1.569
       0.234
      -0.896
      -1.539
      -1.707
      -1.551
      -1.190
      -0.720
      -0.294
      -0.069
      -0.026
       0.086
       0.543
       1.336
       2.123
       2.519
       2.446
       2.162
       1.947
       1.824
       1.596
       1.149
       0.624
       0.264
       0.107
      -0.096
      -0.658
      -1.628
      -2.705
      -3.434
      -3.483
      -2.784
      -1.526
      -0.069
       1.170
       1.902
       2.135
       2.151
       2.244
       2.408
       2.325
       1.700
       0.619
      -0.466
      -1.124
      -1.285
      -1.201
      -1.097
      -0.961
      -0.668
      -0.255
       0.053
       0.082
      -0.084
      -0.231
      -0.327
      -0.627
      -1.388
      -2.488
      -3.423
      -3.707
      -3.282
      -2.503
      -1.741
      -1.073
      -0.371
       0.362
       0.864
       0.857
       0.385
      -0.147
      -0.276
       0.170
       0.996
       1.827
       2.343
       2.395
       2.024
       1.453
       1.006
       0.895
       1.010
       0.941
       0.311
      -0.844
      -2.019
      -2.625
      -2.463
      -1.846
      -1.256
      -0.908
      -0.633
      -0.152
       0.593
       1.381
       1.922
       2.069
       1.845
       1.353
       0.754
       0.291
       0.235
       0.706
       1.507
       2.187
       2.328
       1.819
       0.899
      -0.032
      -0.653
      -0.837
      -0.631
      -0.195
       0.248
       0.469
       0.319
      -0.200
      -0.926
      -1.615
      -2.042
      -2.084
      -1.764
      -1.248
      -0.780
      -0.537
      -0.509
      -0.516
      -0.370
      -0.033
       0.394
       0.815
       1.246
       1.747
       2.277
       2.662
       2.731
       2.455
       1.943
       1.300
       0.546
      -0.324
      -1.233
      -2.015
      -2.533
      -2.781
      -2.829
      -2.693
      -2.286
      -1.530
      -0.505
       0.556
       1.421
       2.013
       2.389
       2.609
       2.650
       2.465
       2.074
       1.567
       1.020
       0.455
      -0.106
      -0.589
      -0.908
      -1.081
      -1.242
      -1.515
      -1.843
      -1.996
      -1.754
      -1.115
      -0.317
       0.314
       0.558
       0.366
      -0.180
      -0.918
      -1.620
      -2.058
      -2.120
      -1.925
      -1.746
      -1.782
      -1.955
      -1.978
      -1.625
      -0.972
      -0.341
      -0.014
       0.011
      -0.002
       0.235
       0.808
       1.572
       2.275
       2.693
       2.691
       2.247
       1.485
       0.679
       0.155
       0.096
       0.402
       0.729
       0.742
       0.357
      -0.190
      -0.540
      -0.470
      -0.041
       0.483
       0.864
       1.068
       1.280
       1.731
       2.453
       3.152
       3.333
       2.625
       1.095
      -0.711
      -2.062
      -2.500
      -2.112
      -1.435
      -1.057
      -1.241
      -1.842
      -2.512
      -2.975
      -3.132
      -3.018
      -2.718
      -2.370
      -2.145
      -2.143
      -2.276
      -2.300
      -2.020
      -1.481
      -0.911
      -0.477
      -0.130
       0.278
       0.750
       1.100
       1.168
       1.055
       1.042
       1.276
       1.574
       1.639
       1.458
       1.430
       2.021
       3.262
       4.628
       5.425
       5.309
       4.463
       3.344
       2.305
       1.427
       0.613
      -0.239
      -1.134
      -1.966
      -2.565
      -2.790
      -2.629
      -2.232
      -1.802
      -1.451
      -1.154
      -0.845
      -0.520
      -0.210
       0.118
       0.545
       1.038
       1.338
       1.103
       0.251
      -0.851
      -1.607
      -1.648
      -1.102
      -0.431
      -0.019
       0.056
      -0.075
      -0.296
      -0.573
      -0.856
      -1.030
      -1.025
      -0.923
      -0.899
      -1.041
      -1.268
      -1.443
      -1.513
      -1.499
      -1.373
      -1.028
      -0.442
       0.183
       0.538
       0.504
       0.328
       0.430
       1.020
       1.899
       2.649
       2.997
       2.977
       2.779
       2.516
       2.168
       1.721
       1.264
       0.915
       0.680
       0.450
       0.166
      -0.064
      -0.069
       0.175
       0.468
       0.555
       0.360
       0.040
      -0.204
      -0.330
      -0.474
      -0.757
      -1.139
      -1.486
      -1.766
      -2.136
      -2.769
      -3.590
      -4.215
      -4.191
      -3.336
      -1.889
      -0.338
       0.892
       1.635
       1.951
       1.959
       1.731
       1.305
       0.772
       0.304
       0.060
       0.063
       0.170
       0.211
       0.147
       0.109
       0.239
       0.521
       0.782
       0.893
       0.929
       1.085
       1.424
       1.743
       1.740
       1.359
       0.918
       0.863
       1.361
       2.134
       2.675
       2.621
       1.938
       0.838
      -0.404
      -1.518
      -2.238
      -2.362
      -1.892
      -1.094
      -0.344
       0.118
       0.293
       0.315
       0.302
       0.323
       0.451
       0.741
       1.131
       1.407
       1.349
       0.942
       0.386
      -0.118
      -0.594
      -1.242
      -2.180
      -3.255
      -4.150
      -4.643
      -4.736
      -4.528
      -4.051
      -3.274
      -2.254
      -1.194
      -0.298
       0.389
       0.963
       1.468
       1.791
       1.794
       1.537
       1.312
       1.418
       1.878
       2.397
       2.587
       2.235
       1.423
       0.455
      -0.285
      -0.486
      -0.062
       0.757
       1.506
       1.752
       1.394
       0.728
       0.196
       0.052
       0.223
       0.476
       0.661
       0.781
       0.847
       0.747
       0.319
      -0.454
      -1.348
      -2.025
      -2.269
      -2.112
      -1.746
      -1.335
      -0.896
      -0.340
       0.382
       1.164
       1.774
       1.995
       1.791
       1.341
       0.916
       0.677
       0.548
       0.270
      -0.382
      -1.375
      -2.365
      -2.895
      -2.703
      -1.926
      -1.024
      -0.480
      -0.493
      -0.877
      -1.238
      -1.258
      -0.875
      -0.253
       0.399
       0.989
       1.544
       2.071
       2.432
       2.384
       1.781
       0.777
      -0.178
      -0.599
      -0.316
       0.365
       0.857
       0.716
      -0.005
      -0.788
      -1.055
      -0.624
       0.149
       0.690
       0.676
       0.263
      -0.108
      -0.109
       0.238
       0.657
       0.887
       0.873
       0.716
       0.528
       0.327
       0.078
      -0.237
      -0.566
      -0.803
      -0.836
      -0.640
      -0.370
      -0.350
      -0.880
      -1.952
      -3.114
      -3.695
      -3.264
      -1.947
      -0.309
       1.077
       1.983
       2.497
       2.740
       2.681
       2.242
       1.516
       0.808
       0.423
       0.412
       0.532
       0.446
      -0.029
      -0.802
      -1.583
      -2.037
      -1.954
      -1.356
      -0.506
       0.220
       0.546
       0.456
       0.154
      -0.141
      -0.350
      -0.516
      -0.665
      -0.737
      -0.676
      -0.517
      -0.351
      -0.194
       0.038
       0.398
       0.775
       0.968
       0.937
       0.924
       1.259
       1.989
       2.745
       3.025
       2.647
       1.912
       1.297
       1.004
       0.798
       0.279
      -0.725
      -2.022
      -3.238
      -4.083
      -4.447
      -4.349
      -3.884
      -3.227
      -2.592
      -2.109
      -1.726
      -1.274
      -0.659
       0.015
       0.540
       0.809
       0.902
       0.967
       1.063
       1.158
       1.242
       1.394
       1.674
       1.987
       2.137
       2.039
       1.860
       1.878
       2.189
       2.573
       2.668
       2.279
       1.530
       0.719
       0.097
      -0.216
      -0.174
       0.242
       0.951
       1.694
       2.110
       1.949
       1.228
       0.210
      -0.759
      -1.392
      -1.517
      -1.116
      -0.373
       0.339
       0.624
       0.298
      -0.506
      -1.479
      -2.380
      -3.120
      -3.643
      -3.799
      -3.428
      -2.589
      -1.637
      -0.992
      -0.807
      -0.878
      -0.876
      -0.644
      -0.254
       0.169
       0.601
       1.076
       1.549
       1.874
       1.922
       1.685
       1.241
       0.661
      -0.002
      -0.624
      -0.987
      -0.916
      -0.475
       0.033
       0.322
       0.398
       0.562
       1.092
       1.902
       2.514
       2.396
       1.389
      -0.115
      -1.381
      -1.769
      -1.131
       0.087
       1.114
       1.352
       0.755
      -0.177
      -0.806
      -0.826
      -0.414
       0.022
       0.220
       0.206
       0.132
       0.039
      -0.171
      -0.581
      -1.120
      -1.603
      -1.901
      -2.008
      -1.970
      -1.777
      -1.383
      -0.819
      -0.227
       0.227
       0.475
       0.553
       0.496
       0.287
      -0.072
      -0.467
      -0.691
      -0.577
      -0.123
       0.523
       1.155
       1.580
