Origin Time       22/02/2010 17:23:43
Lat.              30.0 N	
Long.             80.1 E	
Depth (Km)          2.0
Magnitude         4.7
 Region           BAGESHWER-UTTARAKHAND                                            
 Above details taken from IMD 
     
Station Code      BAG
Station Lat.       29.831  N
Station Long.      79.770  E
Station Height(m)  972.0
Site Class        A   Vs30 between 700 m/sec to 1400 m/sec * 
Record Time       22.02.2010 17:18:12.759
Sampling Rate     200. Hz
 Record Duration   82.165 Sec.
 Direction         E-W (E positive)
Max. Acceleration    -14.937 cm/sec**2
     
  * For reference see Site Classification link of website 
     
 Base Line Corrected and Low Pass Filtered (Cut Off at 35 Hz) Time History
 Acceleration data in cm/sec**2
    
[...]
       0.151
       0.413
       0.538
       0.461
       0.242
       0.038
      -0.008
       0.143
       0.403
       0.610
       0.618
       0.380
      -0.001
      -0.310
      -0.352
      -0.077
       0.362
       0.719
       0.832
       0.729
       0.568
       0.469
       0.415
       0.312
       0.136
      -0.009
       0.004
       0.182
       0.382
       0.440
       0.314
       0.102
      -0.063
      -0.096
       0.025
       0.291
       0.645
       0.958
       1.060
       0.846
       0.367
      -0.188
      -0.613
      -0.801
      -0.763
      -0.577
      -0.331
      -0.102
       0.049
       0.109
       0.127
       0.178
       0.270
       0.302
       0.136
      -0.246
      -0.675
      -0.891
      -0.768
      -0.429
      -0.147
      -0.114
      -0.303
      -0.529
      -0.611
      -0.498
      -0.266
      -0.054
       0.022
      -0.083
      -0.308
      -0.514
      -0.571
      -0.465
      -0.308
      -0.242
      -0.325
      -0.506
      -0.708
      -0.894
      -1.038
      -1.050
      -0.805
      -0.283
       0.334
       0.755
       0.811
       0.586
       0.313
       0.138
       0.009
      -0.194
      -0.444
      -0.544
      -0.323
       0.148
       0.588
       0.739
       0.571
       0.263
       0.022
      -0.055
       0.009
       0.149
       0.298
       0.393
       0.397
       0.340
       0.311
       0.389
       0.564
       0.751
       0.881
       0.973
       1.102
       1.283
       1.418
       1.367
       1.082
       0.654
       0.242
      -0.044
      -0.196
      -0.269
      -0.317
      -0.368
      -0.434
      -0.519
      -0.583
      -0.542
      -0.338
      -0.032
       0.190
       0.153
      -0.130
      -0.441
      -0.522
      -0.290
       0.113
       0.450
       0.547
       0.355
      -0.086
      -0.686
      -1.304
      -1.760
      -1.889
      -1.634
      -1.086
      -0.434
       0.150
       0.578
       0.829
       0.894
       0.761
       0.459
       0.074
      -0.291
      -0.574
      -0.764
      -0.854
      -0.805
      -0.590
      -0.253
       0.087
       0.312
       0.395
       0.406
       0.440
       0.518
       0.567
       0.469
       0.164
      -0.282
      -0.687
      -0.843
      -0.643
      -0.160
       0.383
       0.745
       0.834
       0.745
       0.666
       0.700
       0.780
       0.730
       0.437
      -0.034
      -0.477
      -0.709
      -0.695
      -0.517
      -0.265
       0.035
       0.375
       0.693
       0.892
       0.916
       0.792
       0.573
       0.291
      -0.029
      -0.299
      -0.391
      -0.264
      -0.048
       0.044
      -0.088
      -0.325
      -0.453
      -0.356
      -0.103
       0.174
       0.401
       0.582
       0.708
       0.732
       0.634
       0.485
       0.390
       0.365
       0.306
       0.096
      -0.254
      -0.601
      -0.800
      -0.848
      -0.861
      -0.936
      -1.043
      -1.068
      -0.940
      -0.708
      -0.476
      -0.312
      -0.205
      -0.121
      -0.052
      -0.025
      -0.060
      -0.137
      -0.208
      -0.233
      -0.211
      -0.179
      -0.175
      -0.207
      -0.239
      -0.203
      -0.037
       0.251
       0.557
       0.725
       0.646
       0.321
      -0.143
      -0.585
      -0.840
      -0.784
      -0.404
       0.161
       0.668
       0.919
       0.887
       0.728
       0.628
       0.632
       0.608
       0.377
      -0.114
      -0.736
      -1.275
      -1.561
      -1.532
      -1.199
      -0.620
       0.089
       0.754
       1.200
       1.350
       1.265
       1.072
       0.855
       0.611
       0.321
       0.022
      -0.190
      -0.246
      -0.164
      -0.031
       0.070
       0.106
       0.087
       0.043
       0.015
       0.048
       0.159
       0.313
       0.444
       0.515
       0.554
       0.627
       0.769
       0.957
       1.122
       1.194
       1.119
       0.860
       0.424
      -0.118
      -0.629
      -0.965
      -1.062
      -0.978
      -0.844
      -0.765
      -0.745
      -0.706
      -0.571
      -0.339
      -0.110
      -0.025
      -0.170
      -0.492
      -0.812
      -0.934
      -0.767
      -0.381
       0.060
       0.408
       0.604
       0.656
       0.603
       0.488
       0.348
       0.204
       0.043
      -0.160
      -0.404
      -0.637
      -0.792
      -0.847
      -0.837
      -0.816
      -0.806
      -0.786
      -0.720
      -0.585
      -0.362
      -0.038
       0.374
       0.788
       1.062
       1.096
       0.932
       0.741
       0.681
       0.754
       0.800
       0.649
       0.290
      -0.116
      -0.371
      -0.403
      -0.298
      -0.202
      -0.202
      -0.286
      -0.389
      -0.446
      -0.415
      -0.283
      -0.083
       0.113
       0.234
       0.277
       0.321
       0.446
       0.632
       0.762
       0.740
       0.601
       0.485
       0.473
       0.484
       0.341
      -0.038
      -0.540
      -0.950
      -1.130
      -1.121
      -1.063
      -1.053
      -1.062
      -0.990
      -0.763
      -0.377
       0.112
       0.616
       1.028
       1.247
       1.212
       0.947
       0.555
       0.161
      -0.148
      -0.348
      -0.457
      -0.493
      -0.455
      -0.328
      -0.117
       0.130
       0.310
       0.322
       0.143
      -0.140
      -0.384
      -0.483
      -0.430
      -0.296
      -0.167
      -0.089
      -0.051
      -0.009
       0.075
       0.203
       0.342
       0.455
       0.530
       0.573
       0.558
       0.419
       0.100
      -0.348
      -0.758
      -0.944
      -0.846
      -0.561
      -0.237
       0.057
       0.348
       0.672
       0.994
       1.223
       1.298
       1.235
       1.097
       0.917
       0.686
       0.389
       0.059
      -0.219
      -0.352
      -0.293
      -0.073
       0.196
       0.360
       0.312
       0.057
      -0.272
      -0.512
      -0.583
      -0.536
      -0.485
      -0.488
      -0.487
      -0.352
      -0.017
       0.427
       0.763
       0.790
       0.467
      -0.054
      -0.516
      -0.722
      -0.638
      -0.392
      -0.165
      -0.087
      -0.194
      -0.462
      -0.835
      -1.219
      -1.478
      -1.463
      -1.109
      -0.496
       0.173
       0.672
       0.868
       0.762
       0.466
       0.151
      -0.033
      -0.029
       0.088
       0.152
       0.031
      -0.255
      -0.545
      -0.654
      -0.514
      -0.208
       0.106
       0.301
       0.326
       0.200
      -0.010
      -0.205
      -0.284
      -0.195
       0.031
       0.291
       0.482
       0.558
       0.536
       0.455
       0.347
       0.237
       0.167
       0.190
       0.320
       0.481
       0.531
       0.357
      -0.034
      -0.496
      -0.834
      -0.919
      -0.751
      -0.430
      -0.088
       0.181
       0.363
       0.506
       0.682
       0.920
       1.186
       1.404
       1.492
       1.387
       1.058
       0.528
      -0.102
      -0.675
      -1.059
      -1.227
      -1.252
      -1.206
      -1.078
      -0.785
      -0.278
       0.364
       0.937
       1.228
       1.152
       0.818
       0.456
       0.257
       0.249
       0.274
       0.127
      -0.273
      -0.803
      -1.208
      -1.282
      -1.008
      -0.561
      -0.186
      -0.040
      -0.128
      -0.331
      -0.490
      -0.478
      -0.241
       0.172
       0.617
       0.918
       0.963
       0.773
       0.480
       0.235
       0.105
       0.049
      -0.030
      -0.204
      -0.469
      -0.751
      -0.955
      -1.028
      -0.986
      -0.887
      -0.770
      -0.610
      -0.344
       0.047
       0.488
       0.854
       1.064
       1.150
       1.200
       1.256
       1.268
       1.143
       0.841
       0.418
      -0.010
      -0.332
      -0.477
      -0.415
      -0.184
       0.099
       0.279
       0.265
       0.108
      -0.060
      -0.144
      -0.149
      -0.114
      -0.026
       0.180
       0.508
       0.831
       0.963
       0.816
       0.463
       0.057
      -0.309
      -0.645
      -0.991
      -1.338
      -1.619
      -1.764
      -1.727
      -1.498
      -1.109
      -0.648
      -0.248
      -0.028
      -0.014
      -0.114
      -0.182
      -0.133
      -0.006
       0.077
       0.016
      -0.188
      -0.448
      -0.648
      -0.694
      -0.533
      -0.148
       0.429
       1.111
       1.750
       2.175
       2.251
       1.954
       1.388
       0.737
       0.160
      -0.275
      -0.592
      -0.855
      -1.095
      -1.280
      -1.329
      -1.149
      -0.699
      -0.033
       0.689
       1.256
       1.489
       1.332
       0.878
       0.326
      -0.108
      -0.280
      -0.168
       0.133
       0.460
       0.673
       0.728
       0.675
       0.599
       0.547
       0.528
       0.545
       0.606
       0.685
       0.689
       0.509
       0.118
      -0.382
      -0.836
      -1.144
      -1.303
      -1.344
      -1.274
      -1.087
      -0.824
      -0.579
      -0.430
      -0.370
      -0.327
      -0.240
      -0.119
      -0.015
       0.042
       0.059
       0.049
      -0.010
      -0.153
      -0.368
      -0.575
      -0.676
      -0.640
      -0.526
      -0.427
      -0.390
      -0.400
      -0.409
      -0.402
      -0.398
      -0.423
      -0.463
      -0.455
      -0.335
      -0.089
       0.217
       0.466
       0.577
       0.569
       0.570
       0.722
       1.072
       1.520
       1.886
       2.034
       1.948
       1.711
       1.412
       1.110
       0.857
       0.737
       0.820
       1.067
       1.304
       1.315
       1.008
       0.478
      -0.076
      -0.492
      -0.717
      -0.784
      -0.761
      -0.728
      -0.760
      -0.897
      -1.087
      -1.198
      -1.104
      -0.808
      -0.461
      -0.255
      -0.273
      -0.439
      -0.607
      -0.702
      -0.773
      -0.929
      -1.223
      -1.611
      -1.986
      -2.238
      -2.267
      -1.987
      -1.378
      -0.563
       0.195
       0.619
       0.611
       0.321
       0.040
      -0.008
       0.204
       0.552
       0.879
       1.086
       1.123
       0.940
       0.493
      -0.206
      -1.026
      -1.745
      -2.148
      -2.155
      -1.858
      -1.447
      -1.080
      -0.800
      -0.545
      -0.203
       0.328
       1.072
       1.933
       2.690
       3.091
       3.006
       2.517
       1.878
       1.352
       1.062
       0.965
       0.953
       0.960
       0.975
       0.976
       0.899
       0.692
       0.400
       0.157
       0.066
       0.095
       0.106
       0.014
      -0.087
       0.029
       0.522
       1.318
       2.134
       2.669
       2.800
       2.620
       2.318
       2.030
       1.769
       1.470
       1.085
       0.641
       0.219
      -0.118
      -0.403
      -0.758
      -1.304
      -2.042
      -2.807
      -3.335
      -3.427
      -3.070
      -2.460
      -1.872
      -1.489
      -1.279
      -1.048
      -0.615
       0.023
       0.657
       1.016
       0.953
       0.536
      -0.019
      -0.505
      -0.844
      -1.113
      -1.465
      -2.023
      -2.797
      -3.668
      -4.448
      -4.965
      -5.133
      -4.965
      -4.534
      -3.920
      -3.169
      -2.282
      -1.226
       0.015
       1.376
       2.687
       3.715
       4.273
       4.313
       3.931
       3.293
       2.540
       1.745
       0.941
       0.157
      -0.583
      -1.275
      -1.948
      -2.629
      -3.290
      -3.835
      -4.107
      -3.943
      -3.240
      -2.016
      -0.426
       1.299
       2.946
       4.401
       5.643
       6.679
       7.462
       7.849
       7.668
       6.819
       5.356
       3.451
       1.298
      -0.946
      -3.125
      -5.031
      -6.441
      -7.220
      -7.398
      -7.134
      -6.596
      -5.869
      -4.930
      -3.709
      -2.173
      -0.381
       1.497
       3.221
       4.573
       5.459
       5.936
       6.148
       6.179
       5.972
       5.361
       4.229
       2.650
       0.912
      -0.597
      -1.558
      -1.832
      -1.485
      -0.730
       0.175
       1.029
       1.731
       2.265
       2.636
       2.817
       2.786
       2.579
       2.319
       2.165
       2.214
       2.437
       2.683
       2.751
       2.473
       1.781
       0.733
      -0.528
      -1.862
      -3.189
      -4.461
      -5.564
      -6.289
      -6.431
      -5.943
      -5.013
      -3.984
      -3.166
      -2.693
      -2.489
      -2.354
      -2.095
      -1.629
      -1.003
      -0.333
       0.281
       0.803
       1.234
       1.545
       1.659
       1.489
       1.021
       0.347
      -0.392
      -1.121
      -1.868
      -2.692
      -3.534
      -4.156
      -4.239
      -3.605
      -2.372
      -0.894
       0.463
       1.528
       2.365
       3.138
       3.940
       4.702
       5.212
       5.224
       4.576
       3.273
       1.502
      -0.434
      -2.219
      -3.597
      -4.385
      -4.452
      -3.736
      -2.293
      -0.301
       2.021
       4.501
       6.999
       9.327
      11.203
      12.330
      12.522
      11.754
      10.075
       7.515
       4.111
       0.041
      -4.281
      -8.291
     -11.499
     -13.658
     -14.765
     -14.937
     -14.304
     -12.967
     -11.001
      -8.452
      -5.370
      -1.878
       1.747
       5.074
       7.642
       9.154
       9.593
       9.163
       8.117
       6.632
       4.829
       2.867
       0.961
      -0.716
      -2.150
      -3.466
      -4.776
      -6.036
      -7.036
      -7.536
      -7.412
      -6.731
      -5.709
      -4.580
      -3.449
      -2.228
      -0.720
       1.190
       3.373
       5.468
       7.079
       7.986
       8.222
       7.954
       7.312
       6.316
       4.956
       3.287
       1.447
      -0.410
      -2.150
      -3.652
      -4.775
      -5.384
      -5.415
      -4.913
      -4.000
      -2.812
      -1.456
      -0.013
       1.436
       2.787
       3.916
       4.712
       5.116
       5.144
       4.849
       4.253
       3.312
       1.971
       0.279
      -1.548
      -3.182
      -4.335
      -4.871
      -4.825
      -4.330
      -3.519
      -2.498
      -1.351
      -0.164
       0.962
       1.909
       2.546
       2.774
       2.599
       2.184
       1.789
       1.617
       1.668
       1.747
       1.610
       1.135
       0.373
      -0.527
      -1.423
      -2.228
      -2.913
      -3.482
      -3.957
      -4.336
      -4.553
      -4.481
      -4.003
      -3.104
      -1.906
      -0.629
       0.484
       1.217
       1.430
       1.107
       0.389
      -0.455
      -1.142
      -1.506
      -1.552
      -1.408
      -1.226
      -1.080
      -0.937
      -0.678
      -0.173
       0.617
       1.579
       2.459
       2.994
       3.071
       2.799
       2.403
       2.038
       1.685
       1.232
       0.618
      -0.080
      -0.691
      -1.044
      -1.053
      -0.743
      -0.239
       0.261
       0.573
       0.627
       0.503
       0.342
       0.212
       0.052
      -0.236
      -0.643
      -1.017
      -1.173
      -1.047
      -0.738
      -0.419
      -0.203
      -0.087
       0.003
       0.129
       0.283
       0.372
       0.271
      -0.105
      -0.715
      -1.378
      -1.850
      -1.972
      -1.776
      -1.460
      -1.221
      -1.097
      -0.949
      -0.588
       0.072
       0.945
       1.831
       2.531
       2.948
       3.129
       3.214
       3.324
       3.453
       3.456
       3.152
       2.481
       1.587
       0.763
       0.268
       0.178
       0.363
       0.587
       0.657
       0.511
       0.224
      -0.050
      -0.174
      -0.116
       0.018
       0.062
      -0.066
      -0.273
      -0.349
      -0.141
       0.300
       0.736
       0.921
       0.793
       0.516
       0.340
       0.409
       0.677
       0.962
       1.082
       0.966
       0.681
       0.366
       0.137
       0.029
       0.008
       0.035
       0.105
       0.221
       0.344
       0.398
       0.338
       0.211
       0.137
       0.199
       0.354
       0.441
       0.308
      -0.087
      -0.663
      -1.315
      -1.976
      -2.585
      -3.016
      -3.063
      -2.572
      -1.594
      -0.441
       0.465
       0.840
       0.701
       0.314
      -0.030
      -0.210
      -0.318
      -0.524
      -0.920
      -1.455
      -1.988
      -2.374
      -2.515
      -2.371
      -1.967
      -1.390
      -0.759
      -0.170
       0.347
       0.826
       1.287
       1.679
       1.889
       1.812
       1.415
       0.748
      -0.111
      -1.087
      -2.100
      -3.017
      -3.655
      -3.847
      -3.536
      -2.810
      -1.854
      -0.863
       0.014
       0.684
       1.106
       1.289
       1.280
       1.137
       0.909
       0.628
       0.328
       0.061
      -0.117
      -0.162
      -0.065
       0.138
       0.381
       0.584
       0.696
       0.716
       0.689
       0.676
       0.718
       0.825
       0.970
       1.103
       1.149
       1.040
       0.757
       0.367
       0.010
      -0.168
      -0.102
       0.131
       0.343
       0.351
       0.089
      -0.345
      -0.770
      -1.036
      -1.098
      -0.997
      -0.804
      -0.557
      -0.267
       0.062
       0.405
       0.699
       0.855
       0.792
       0.489
       0.028
      -0.417
      -0.673
      -0.666
      -0.463
      -0.217
      -0.054
       0.011
       0.065
       0.223
       0.539
       0.978
       1.423
       1.733
       1.817
       1.690
       1.473
       1.315
       1.277
       1.290
       1.216
       0.982
       0.643
       0.326
       0.102
      -0.078
      -0.328
      -0.695
      -1.093
      -1.363
      -1.400
      -1.216
      -0.906
      -0.548
      -0.149
       0.335
       0.927
       1.569
       2.113
       2.366
       2.193
       1.606
       0.792
       0.013
      -0.544
      -0.857
      -1.035
      -1.182
      -1.297
      -1.281
      -1.035
      -0.548
       0.080
       0.689
       1.120
       1.268
       1.125
       0.774
       0.338
      -0.108
      -0.571
      -1.073
      -1.564
      -1.905
      -1.967
      -1.743
      -1.348
      -0.917
      -0.518
      -0.164
       0.120
       0.273
       0.264
       0.144
       0.009
      -0.091
      -0.181
      -0.281
      -0.332
      -0.236
       0.019
       0.297
       0.409
       0.272
      -0.020
      -0.282
      -0.393
      -0.369
      -0.325
      -0.383
      -0.601
      -0.955
      -1.321
      -1.497
      -1.285
      -0.627
       0.316
       1.215
       1.769
       1.873
       1.650
       1.331
       1.096
       0.995
       0.952
       0.837
       0.531
       0.000
      -0.657
      -1.234
      -1.524
      -1.460
      -1.166
      -0.853
      -0.646
      -0.493
      -0.246
       0.175
       0.684
       1.072
       1.152
       0.888
       0.422
      -0.004
      -0.180
