Origin Time       01/05/2009 22:36:25
Lat.              29.9 N 
Long.             80.1 E 
Depth (Km)         10.0
Magnitude         4.6
 Region           Bageshwar-Uttarakhand                                            
 Above details taken from IMD 
   
Station Code      BAG
Station Lat.       29.831
Station Long.      79.770
Station Height(m)  972.0
Site Class        A   Vs30 between 700 m/sec to 1400 m/sec * 
Record Time       01.05.2010 22:29:50.564
Sampling Rate     200. Hz
 Record Duration   86.280 Sec.
 Direction         Vert. (Up positive)
Max. Acceleration     -5.395 cm/sec**2
     
  * For reference see Site Classification link of website 
     
 Base Line Corrected and Low Pass Filtered (Cut Off at 35 Hz) Time History
 Acceleration data in cm/sec**2
    
[...]
       0.586
       0.382
       0.218
       0.101
       0.008
      -0.077
      -0.131
      -0.128
      -0.122
      -0.275
      -0.772
      -1.648
      -2.697
      -3.580
      -4.045
      -4.070
      -3.783
      -3.264
      -2.467
      -1.352
      -0.086
       0.951
       1.413
       1.255
       0.746
       0.219
      -0.174
      -0.431
      -0.485
      -0.131
       0.745
       1.884
       2.700
       2.694
       1.858
       0.646
      -0.448
      -1.266
      -1.950
      -2.574
      -2.927
      -2.681
      -1.771
      -0.545
       0.491
       1.073
       1.340
       1.601
       1.984
       2.321
       2.354
       2.025
       1.541
       1.173
       1.021
       0.966
       0.809
       0.480
       0.104
      -0.105
      -0.076
      -0.019
      -0.310
      -1.153
      -2.323
      -3.267
      -3.508
      -3.007
      -2.125
      -1.258
      -0.519
       0.238
       1.129
       2.026
       2.628
       2.711
       2.311
       1.697
       1.186
       0.967
       1.019
       1.179
       1.260
       1.151
       0.836
       0.373
      -0.148
      -0.644
      -1.074
      -1.405
      -1.555
      -1.401
      -0.886
      -0.094
       0.767
       1.481
       1.910
       2.033
       1.915
       1.674
       1.459
       1.386
       1.464
       1.568
       1.516
       1.162
       0.442
      -0.581
      -1.677
      -2.505
      -2.819
      -2.627
      -2.150
      -1.654
      -1.339
      -1.314
      -1.582
      -1.993
      -2.280
      -2.210
      -1.758
      -1.164
      -0.722
      -0.472
      -0.149
       0.467
       1.137
       1.244
       0.415
      -0.918
      -1.702
      -1.165
       0.410
       1.864
       2.212
       1.488
       0.566
       0.211
       0.396
       0.534
       0.235
      -0.258
      -0.384
       0.098
       0.849
       1.318
       1.310
       1.122
       1.147
       1.388
       1.426
       0.852
      -0.252
      -1.269
      -1.500
      -0.744
       0.497
       1.370
       1.310
       0.454
      -0.533
      -1.052
      -1.051
      -0.937
      -1.059
      -1.328
      -1.373
      -1.007
      -0.435
       0.021
       0.292
       0.579
       1.001
       1.339
       1.210
       0.517
      -0.346
      -0.805
      -0.627
      -0.128
       0.173
       0.068
      -0.205
      -0.284
      -0.075
       0.185
       0.188
      -0.182
      -0.807
      -1.457
      -1.897
      -1.927
      -1.434
      -0.502
       0.536
       1.253
       1.418
       1.159
       0.813
       0.621
       0.568
       0.501
       0.336
       0.129
      -0.046
      -0.227
      -0.508
      -0.878
      -1.160
      -1.154
      -0.828
      -0.353
       0.061
       0.334
       0.520
       0.682
       0.800
       0.829
       0.801
       0.839
       1.031
       1.294
       1.417
       1.241
       0.816
       0.379
       0.167
       0.207
       0.277
       0.102
      -0.377
      -0.919
      -1.190
      -1.067
      -0.742
      -0.509
      -0.463
      -0.431
      -0.231
       0.029
       0.014
      -0.436
      -0.998
      -1.080
      -0.408
       0.643
       1.326
       1.167
       0.365
      -0.433
      -0.739
      -0.628
      -0.550
      -0.788
      -1.158
      -1.227
      -0.774
      -0.016
       0.591
       0.735
       0.460
       0.056
      -0.238
      -0.408
      -0.575
      -0.763
      -0.801
      -0.448
       0.364
       1.384
       2.119
       2.141
       1.422
       0.388
      -0.390
      -0.620
      -0.456
      -0.263
      -0.229
      -0.202
       0.108
       0.766
       1.485
       1.868
       1.757
       1.343
       0.937
       0.688
       0.511
       0.260
      -0.078
      -0.385
      -0.571
      -0.674
      -0.787
      -0.923
      -1.009
      -0.970
      -0.807
      -0.572
      -0.327
      -0.129
      -0.018
       0.026
       0.099
       0.335
       0.784
       1.343
       1.803
       1.979
       1.800
       1.311
       0.614
      -0.175
      -0.938
      -1.575
      -2.037
      -2.353
      -2.595
      -2.790
      -2.849
      -2.642
      -2.162
      -1.608
      -1.255
      -1.213
      -1.303
      -1.164
      -0.516
       0.609
       1.843
       2.705
       2.924
       2.602
       2.081
       1.645
       1.340
       1.062
       0.767
       0.540
       0.459
       0.437
       0.260
      -0.206
      -0.868
      -1.465
      -1.773
      -1.755
      -1.520
      -1.181
      -0.768
      -0.298
       0.145
       0.442
       0.580
       0.701
       0.966
       1.369
       1.726
       1.846
       1.709
       1.444
       1.146
       0.758
       0.159
      -0.646
      -1.432
      -1.878
      -1.802
      -1.306
      -0.696
      -0.237
       0.024
       0.206
       0.407
       0.598
       0.710
       0.784
       0.982
       1.411
       1.947
       2.260
       2.058
       1.349
       0.455
      -0.240
      -0.582
      -0.699
      -0.800
      -0.942
      -1.018
      -0.946
      -0.814
      -0.817
      -1.059
      -1.439
      -1.724
      -1.727
      -1.414
      -0.884
      -0.260
       0.363
       0.922
       1.337
       1.508
       1.343
       0.834
       0.117
      -0.560
      -0.958
      -0.987
      -0.756
      -0.502
      -0.421
      -0.523
      -0.629
      -0.564
      -0.336
      -0.126
      -0.074
      -0.130
      -0.150
      -0.092
      -0.075
      -0.210
      -0.413
      -0.430
      -0.074
       0.540
       1.033
       1.067
       0.642
       0.113
      -0.125
       0.022
       0.276
       0.262
      -0.133
      -0.670
      -0.986
      -0.916
      -0.607
      -0.359
      -0.346
      -0.480
      -0.519
      -0.316
       0.037
       0.324
       0.428
       0.427
       0.460
       0.544
       0.560
       0.446
       0.350
       0.538
       1.088
       1.694
       1.854
       1.323
       0.385
      -0.347
      -0.459
      -0.072
       0.298
       0.238
      -0.200
      -0.593
      -0.570
      -0.146
       0.344
       0.578
       0.506
       0.326
       0.270
       0.429
       0.730
       1.022
       1.155
       1.015
       0.549
      -0.179
      -0.964
      -1.522
      -1.634
      -1.299
      -0.759
      -0.370
      -0.364
      -0.704
      -1.132
      -1.394
      -1.403
      -1.219
      -0.915
      -0.498
       0.033
       0.575
       0.935
       1.004
       0.913
       0.960
       1.295
       1.679
       1.653
       1.016
       0.119
      -0.395
      -0.200
       0.359
       0.572
       0.040
      -0.940
      -1.680
      -1.740
      -1.262
      -0.708
      -0.373
      -0.194
       0.005
       0.208
       0.240
       0.085
       0.052
       0.488
       1.329
       2.022
       1.981
       1.128
      -0.014
      -0.757
      -0.792
      -0.355
       0.045
       0.061
      -0.311
      -0.846
      -1.309
      -1.556
      -1.531
      -1.255
      -0.850
      -0.500
      -0.347
      -0.370
      -0.397
      -0.256
       0.063
       0.406
       0.603
       0.604
       0.482
       0.340
       0.256
       0.273
       0.411
       0.619
       0.765
       0.713
       0.457
       0.160
       0.019
       0.091
       0.243
       0.286
       0.141
      -0.133
      -0.422
      -0.623
      -0.644
      -0.408
       0.072
       0.618
       0.952
       0.918
       0.648
       0.484
       0.672
       1.113
       1.424
       1.277
       0.680
      -0.059
      -0.624
      -0.914
      -1.005
      -0.978
      -0.852
      -0.675
      -0.603
      -0.791
      -1.204
      -1.535
      -1.398
      -0.654
       0.386
       1.110
       1.034
       0.180
      -0.918
      -1.593
      -1.480
      -0.696
       0.309
       1.054
       1.266
       0.934
       0.231
      -0.574
      -1.183
      -1.349
      -0.987
      -0.250
       0.540
       1.090
       1.291
       1.213
       0.980
       0.659
       0.271
      -0.113
      -0.348
      -0.295
       0.067
       0.621
       1.196
       1.631
       1.783
       1.520
       0.788
      -0.276
      -1.335
      -1.995
      -2.043
      -1.565
      -0.852
      -0.194
       0.251
       0.436
       0.359
       0.087
      -0.199
      -0.237
       0.131
       0.801
       1.432
       1.694
       1.518
       1.125
       0.765
       0.467
       0.049
      -0.582
      -1.218
      -1.478
      -1.186
      -0.587
      -0.172
      -0.259
      -0.762
      -1.330
      -1.683
      -1.765
      -1.620
      -1.199
      -0.392
       0.739
       1.794
       2.232
       1.817
       0.885
       0.124
       0.035
       0.578
       1.291
       1.717
       1.713
       1.409
       0.964
       0.385
      -0.410
      -1.374
      -2.226
      -2.587
      -2.268
      -1.442
      -0.533
       0.067
       0.225
       0.084
      -0.093
      -0.114
       0.062
       0.368
       0.728
       1.088
       1.378
       1.465
       1.208
       0.592
      -0.188
      -0.821
      -1.091
      -1.031
      -0.874
      -0.859
      -1.055
      -1.352
      -1.580
      -1.649
      -1.576
      -1.397
      -1.061
      -0.457
       0.435
       1.431
       2.202
       2.458
       2.129
       1.410
       0.667
       0.241
       0.278
       0.677
       1.187
       1.556
       1.636
       1.384
       0.844
       0.143
      -0.528
      -0.974
      -1.099
      -0.952
      -0.660
      -0.342
      -0.064
       0.148
       0.293
       0.402
       0.521
       0.672
       0.817
       0.880
       0.818
       0.680
       0.585
       0.630
       0.795
       0.952
       0.939
       0.660
       0.126
      -0.569
      -1.267
      -1.780
      -1.946
      -1.726
      -1.274
      -0.852
      -0.656
      -0.675
      -0.722
      -0.582
      -0.170
       0.430
       1.040
       1.495
       1.717
       1.724
       1.602
       1.471
       1.426
       1.465
       1.470
       1.258
       0.695
      -0.196
      -1.204
      -2.011
      -2.370
      -2.262
      -1.918
      -1.662
      -1.673
      -1.872
      -2.016
      -1.907
      -1.531
      -1.023
      -0.534
      -0.134
       0.170
       0.382
       0.516
       0.629
       0.803
       1.048
       1.247
       1.225
       0.899
       0.367
      -0.139
      -0.394
      -0.320
      -0.024
       0.277
       0.409
       0.343
       0.216
       0.228
       0.483
       0.898
       1.289
       1.559
       1.782
       2.061
       2.314
       2.293
       1.828
       1.051
       0.311
      -0.160
      -0.474
      -0.935
      -1.651
      -2.347
      -2.612
      -2.334
      -1.843
      -1.579
      -1.656
      -1.808
      -1.731
      -1.399
      -0.982
      -0.524
       0.153
       1.200
       2.434
       3.392
       3.714
       3.440
       2.909
       2.377
       1.809
       1.064
       0.226
      -0.381
      -0.550
      -0.494
      -0.675
      -1.324
      -2.188
      -2.786
      -2.891
      -2.720
      -2.698
      -3.028
      -3.521
      -3.791
      -3.584
      -2.942
      -2.111
      -1.336
      -0.736
      -0.292
       0.109
       0.584
       1.133
       1.573
       1.626
       1.133
       0.218
      -0.770
      -1.491
      -1.804
      -1.765
      -1.503
      -1.134
      -0.744
      -0.360
       0.112
       0.854
       1.965
       3.252
       4.227
       4.434
       3.832
       2.873
       2.144
       1.894
       1.876
       1.647
       0.997
       0.115
      -0.626
      -1.015
      -1.132
      -1.185
      -1.266
      -1.298
      -1.202
      -1.080
      -1.198
      -1.742
      -2.572
      -3.221
      -3.192
      -2.337
      -1.001
       0.201
       0.815
       0.840
       0.642
       0.583
       0.708
       0.774
       0.569
       0.177
      -0.090
       0.006
       0.409
       0.863
       1.182
       1.384
       1.561
       1.692
       1.633
       1.317
       0.899
       0.648
       0.678
       0.825
       0.793
       0.417
      -0.197
      -0.773
      -1.078
      -1.071
      -0.896
      -0.762
      -0.805
      -1.002
      -1.187
      -1.167
      -0.869
      -0.423
      -0.056
       0.124
       0.212
       0.318
       0.314
      -0.119
      -1.122
      -2.347
      -3.104
      -2.894
      -1.847
      -0.615
       0.150
       0.265
       0.032
      -0.141
      -0.081
       0.109
       0.276
       0.428
       0.734
       1.322
       2.091
       2.737
       2.971
       2.748
       2.293
       1.918
       1.784
       1.819
       1.837
       1.741
       1.578
       1.419
       1.223
       0.885
       0.398
      -0.074
      -0.318
      -0.261
      -0.016
       0.247
       0.449
       0.611
       0.749
       0.803
       0.698
       0.444
       0.133
      -0.174
      -0.511
      -0.927
      -1.338
      -1.533
      -1.362
      -0.914
      -0.446
      -0.094
       0.287
       0.925
       1.803
       2.579
       2.882
       2.666
       2.240
       1.962
       1.967
       2.164
       2.449
       2.803
       3.171
       3.313
       2.897
       1.802
       0.312
      -1.044
      -1.871
      -2.137
      -2.093
      -2.041
      -2.198
      -2.670
      -3.448
      -4.369
      -5.122
      -5.395
      -5.089
      -4.394
      -3.632
      -2.982
      -2.380
      -1.694
      -0.970
      -0.458
      -0.375
      -0.656
      -0.957
      -0.917
      -0.424
       0.325
       0.993
       1.329
       1.263
       0.876
       0.317
      -0.254
      -0.718
      -1.029
      -1.209
      -1.262
      -1.110
      -0.666
       0.002
       0.611
       0.823
       0.523
      -0.056
      -0.480
      -0.422
       0.110
       0.809
       1.313
       1.446
       1.278
       0.982
       0.648
       0.222
      -0.389
      -1.167
      -1.920
      -2.375
      -2.361
      -1.931
      -1.324
      -0.784
      -0.387
      -0.016
       0.481
       1.109
       1.678
       1.969
       1.949
       1.814
       1.804
       1.983
       2.215
       2.315
       2.178
       1.788
       1.177
       0.434
      -0.267
      -0.723
      -0.849
      -0.794
      -0.841
      -1.133
      -1.479
      -1.499
      -1.016
      -0.286
       0.194
       0.118
      -0.369
      -0.838
      -0.976
      -0.813
      -0.588
      -0.441
      -0.290
      -0.006
       0.344
       0.506
       0.287
      -0.227
      -0.732
      -0.964
      -0.900
      -0.722
      -0.617
      -0.618
      -0.631
      -0.571
      -0.462
      -0.375
      -0.290
      -0.062
       0.446
       1.164
       1.785
       1.974
       1.653
       1.089
       0.694
       0.697
       0.989
       1.248
       1.237
       0.986
       0.717
       0.607
       0.626
       0.615
       0.492
       0.343
       0.304
       0.361
       0.341
       0.091
      -0.327
      -0.677
      -0.762
      -0.606
      -0.422
      -0.401
      -0.545
      -0.666
      -0.553
      -0.162
       0.328
       0.640
       0.628
       0.413
       0.301
       0.520
       0.991
       1.376
       1.373
       0.982
       0.464
       0.060
      -0.221
      -0.523
      -0.883
      -1.113
      -0.956
      -0.356
       0.438
       1.057
       1.292
       1.210
       1.022
       0.878
       0.809
       0.794
       0.832
       0.912
       0.976
       0.942
       0.769
       0.464
       0.042
      -0.481
      -1.038
      -1.475
      -1.613
      -1.399
      -0.974
      -0.594
      -0.460
      -0.602
      -0.908
      -1.222
      -1.405
      -1.347
      -0.990
      -0.400
       0.194
       0.505
       0.421
       0.123
      -0.069
      -0.001
       0.188
       0.239
       0.068
      -0.167
      -0.282
      -0.289
      -0.375
      -0.653
      -1.005
      -1.189
      -1.101
      -0.872
      -0.725
      -0.754
      -0.886
      -1.028
      -1.179
      -1.362
      -1.487
      -1.378
      -0.964
      -0.392
       0.100
       0.390
       0.506
       0.475
       0.252
      -0.163
      -0.568
      -0.639
      -0.229
       0.432
       0.896
       0.905
       0.631
       0.485
       0.691
       1.083
       1.309
       1.205
       0.907
       0.627
       0.412
       0.184
      -0.029
      -0.048
       0.242
       0.666
       0.845
       0.535
      -0.145
      -0.781
      -0.993
      -0.709
      -0.176
       0.284
       0.529
       0.628
       0.721
       0.887
       1.105
       1.294
       1.338
       1.154
       0.742
       0.216
      -0.259
      -0.551
      -0.631
      -0.560
      -0.436
      -0.351
      -0.378
      -0.531
      -0.717
      -0.751
      -0.479
       0.071
       0.669
       1.016
       0.950
       0.563
       0.148
      -0.002
       0.220
       0.693
       1.172
       1.430
       1.358
       0.991
       0.460
      -0.094
      -0.563
      -0.864
      -0.919
      -0.655
      -0.073
       0.667
       1.244
       1.326
       0.808
      -0.088
      -0.963
      -1.494
      -1.550
      -1.139
      -0.362
       0.556
       1.239
       1.314
       0.682
      -0.339
      -1.189
      -1.455
      -1.136
      -0.550
      -0.009
       0.400
       0.718
       0.876
       0.642
      -0.130
      -1.204
      -2.009
      -2.035
      -1.225
       0.001
       1.079
       1.655
       1.685
       1.299
       0.613
      -0.278
      -1.161
      -1.633
      -1.293
      -0.109
       1.384
       2.326
       2.095
       0.768
      -0.916
      -2.071
      -2.240
      -1.601
      -0.709
      -0.068
       0.116
      -0.098
      -0.542
      -1.042
      -1.431
      -1.556
      -1.326
      -0.793
      -0.153
       0.352
       0.553
       0.423
       0.078
      -0.255
      -0.356
      -0.171
       0.126
       0.307
       0.319
       0.316
       0.447
       0.639
       0.642
       0.300
      -0.250
      -0.667
      -0.714
      -0.452
      -0.105
       0.198
       0.518
       0.921
       1.275
       1.294
       0.824
       0.082
      -0.431
      -0.335
       0.283
       0.946
       1.208
       0.987
       0.497
      -0.038
      -0.549
      -1.030
      -1.375
      -1.394
      -0.996
      -0.355
       0.162
       0.284
       0.049
      -0.270
      -0.442
      -0.427
      -0.298
      -0.072
       0.300
       0.800
       1.244
       1.379
       1.097
       0.555
       0.052
      -0.193
      -0.168
      -0.001
       0.156
       0.190
       0.054
      -0.207
      -0.473
      -0.617
      -0.578
      -0.395
      -0.160
       0.050
       0.217
       0.353
       0.442
       0.434
       0.329
       0.226
       0.264
       0.488
       0.793
       0.999
       0.981
       0.743
       0.380
       0.003
      -0.296
      -0.430
      -0.353
      -0.125
       0.085
       0.115
      -0.072
      -0.394
      -0.739
      -1.036
      -1.215
      -1.157
      -0.743
      -0.005
       0.782
       1.218
       1.038
