Origin Time       3/10/2009 5:20:54	 
Lat.              30.0 N	
Long.             79.9 E	
Depth (Km)         15.0
Magnitude         4.3
 Region           BAGESHWAR-UTTRAKHAND                                             
 Above details taken from IMD 
     
Station Code      BAG
Station Lat.       29.831  N
Station Long.      79.770  E
Station Height(m)  972.0
Site Class        A   Vs30 between 700 m/sec to 1400 m/sec * 
Record Time       03.10.2009 05:17:29.249
Sampling Rate     200. Hz
 Record Duration   66.960 Sec.
 Direction         E-W (E positive)
Max. Acceleration      7.390 cm/sec**2
     
  * For reference see Site Classification link of website 
     
 Base Line Corrected and Low Pass Filtered (Cut Off at 35 Hz) Time History
 Acceleration data in cm/sec**2
    
[...]
      -0.011
      -0.013
       0.006
       0.027
       0.029
       0.009
      -0.015
      -0.020
      -0.003
       0.019
       0.024
       0.005
      -0.020
      -0.025
      -0.002
       0.029
       0.043
       0.027
      -0.003
      -0.019
      -0.010
       0.012
       0.025
       0.015
      -0.008
      -0.019
      -0.006
       0.022
       0.039
       0.032
       0.009
      -0.009
      -0.008
       0.005
       0.013
       0.005
      -0.011
      -0.016
      -0.001
       0.023
       0.035
       0.022
      -0.006
      -0.025
      -0.021
      -0.001
       0.015
       0.009
      -0.011
      -0.024
      -0.013
       0.013
       0.031
       0.023
      -0.004
      -0.027
      -0.027
      -0.007
       0.015
       0.018
       0.002
      -0.016
      -0.015
       0.009
       0.038
       0.047
       0.029
      -0.001
      -0.020
      -0.017
      -0.003
       0.004
      -0.004
      -0.016
      -0.015
       0.001
       0.019
       0.022
       0.007
      -0.011
      -0.015
      -0.003
       0.013
       0.017
       0.005
      -0.009
      -0.009
       0.009
       0.029
       0.034
       0.018
      -0.005
      -0.015
      -0.007
       0.008
       0.010
      -0.004
      -0.023
      -0.026
      -0.006
       0.020
       0.029
       0.010
      -0.019
      -0.031
      -0.014
       0.015
       0.028
       0.013
      -0.016
      -0.030
      -0.015
       0.015
       0.032
       0.019
      -0.011
      -0.031
      -0.023
       0.003
       0.021
       0.016
      -0.004
      -0.015
      -0.001
       0.026
       0.040
       0.025
      -0.011
      -0.039
      -0.038
      -0.015
       0.008
       0.010
      -0.009
      -0.025
      -0.018
       0.009
       0.036
       0.038
       0.014
      -0.015
      -0.028
      -0.018
       0.001
       0.009
       0.000
      -0.013
      -0.011
       0.008
       0.028
       0.030
       0.010
      -0.014
      -0.022
      -0.009
       0.009
       0.014
      -0.001
      -0.020
      -0.023
      -0.005
       0.021
       0.030
       0.013
      -0.014
      -0.026
      -0.013
       0.013
       0.028
       0.020
      -0.002
      -0.015
      -0.006
       0.016
       0.029
       0.020
      -0.005
      -0.025
      -0.021
       0.001
       0.020
       0.018
      -0.002
      -0.020
      -0.017
       0.005
       0.024
       0.019
      -0.008
      -0.037
      -0.046
      -0.033
      -0.016
      -0.013
      -0.021
      -0.021
       0.005
       0.050
       0.086
       0.091
       0.066
       0.041
       0.047
       0.087
       0.137
       0.161
       0.147
       0.116
       0.105
       0.131
       0.180
       0.212
       0.201
       0.152
       0.091
       0.040
       0.001
      -0.034
      -0.068
      -0.093
      -0.107
      -0.125
      -0.168
      -0.234
      -0.291
      -0.298
      -0.240
      -0.156
      -0.119
      -0.172
      -0.287
      -0.367
      -0.324
      -0.165
       0.007
       0.071
       0.005
      -0.100
      -0.124
      -0.031
       0.104
       0.172
       0.130
       0.023
      -0.078
      -0.127
      -0.119
      -0.062
       0.031
       0.123
       0.169
       0.161
       0.149
       0.197
       0.303
       0.375
       0.321
       0.152
      -0.005
      -0.030
       0.078
       0.207
       0.242
       0.178
       0.106
       0.112
       0.196
       0.285
       0.300
       0.214
       0.058
      -0.111
      -0.238
      -0.294
      -0.286
      -0.262
      -0.286
      -0.389
      -0.533
      -0.620
      -0.569
      -0.389
      -0.188
      -0.075
      -0.068
      -0.081
      -0.024
       0.094
       0.180
       0.171
       0.112
       0.098
       0.161
       0.230
       0.230
       0.183
       0.193
       0.314
       0.455
       0.462
       0.285
       0.048
      -0.064
       0.015
       0.167
       0.213
       0.073
      -0.170
      -0.365
      -0.415
      -0.335
      -0.208
      -0.103
      -0.031
       0.047
       0.164
       0.302
       0.390
       0.350
       0.158
      -0.123
      -0.380
      -0.510
      -0.488
      -0.375
      -0.270
      -0.233
      -0.246
      -0.237
      -0.150
      -0.002
       0.127
       0.176
       0.162
       0.166
       0.248
       0.380
       0.482
       0.501
       0.448
       0.366
       0.278
       0.173
       0.035
      -0.128
      -0.290
      -0.429
      -0.508
      -0.474
      -0.299
      -0.044
       0.148
       0.167
       0.056
      -0.018
       0.074
       0.281
       0.420
       0.355
       0.136
      -0.057
      -0.083
       0.038
       0.174
       0.206
       0.116
      -0.031
      -0.157
      -0.209
      -0.176
      -0.088
      -0.002
       0.031
       0.002
      -0.066
      -0.141
      -0.194
      -0.206
      -0.169
      -0.090
       0.009
       0.096
       0.129
       0.066
      -0.108
      -0.355
      -0.581
      -0.682
      -0.614
      -0.441
      -0.280
      -0.196
      -0.147
      -0.054
       0.104
       0.264
       0.354
       0.365
       0.346
       0.349
       0.386
       0.439
       0.481
       0.474
       0.375
       0.170
      -0.084
      -0.283
      -0.360
      -0.337
      -0.287
      -0.242
      -0.156
       0.031
       0.291
       0.492
       0.502
       0.310
       0.047
      -0.131
      -0.169
      -0.143
      -0.171
      -0.300
      -0.461
      -0.528
      -0.427
      -0.201
       0.017
       0.122
       0.121
       0.113
       0.182
       0.318
       0.429
       0.433
       0.325
       0.168
       0.029
      -0.067
      -0.124
      -0.147
      -0.116
      -0.007
       0.171
       0.365
       0.492
       0.481
       0.318
       0.072
      -0.122
      -0.153
      -0.030
       0.108
       0.105
      -0.064
      -0.275
      -0.376
      -0.342
      -0.285
      -0.320
      -0.428
      -0.476
      -0.361
      -0.123
       0.097
       0.206
       0.242
       0.309
       0.451
       0.582
       0.558
       0.300
      -0.135
      -0.584
      -0.871
      -0.892
      -0.654
      -0.268
       0.106
       0.339
       0.382
       0.274
       0.101
      -0.056
      -0.148
      -0.159
      -0.078
       0.094
       0.318
       0.497
       0.527
       0.388
       0.190
       0.099
       0.186
       0.347
       0.392
       0.232
      -0.020
      -0.161
      -0.106
       0.024
       0.035
      -0.136
      -0.360
      -0.456
      -0.379
      -0.248
      -0.219
      -0.343
      -0.533
      -0.654
      -0.615
      -0.410
      -0.100
       0.224
       0.464
       0.565
       0.538
       0.462
       0.426
       0.468
       0.551
       0.595
       0.536
       0.364
       0.124
      -0.115
      -0.297
      -0.407
      -0.479
      -0.565
      -0.692
      -0.834
      -0.910
      -0.824
      -0.542
      -0.141
       0.212
       0.365
       0.290
       0.114
       0.022
       0.114
       0.330
       0.503
       0.488
       0.268
      -0.036
      -0.250
      -0.258
      -0.062
       0.235
       0.509
       0.674
       0.712
       0.645
       0.508
       0.339
       0.184
       0.097
       0.107
       0.186
       0.261
       0.267
       0.211
       0.157
       0.151
       0.146
       0.038
      -0.198
      -0.432
      -0.472
      -0.262
       0.033
       0.150
      -0.044
      -0.437
      -0.778
      -0.882
      -0.753
      -0.529
      -0.344
      -0.248
      -0.230
      -0.285
      -0.416
      -0.586
      -0.692
      -0.614
      -0.326
       0.068
       0.409
       0.597
       0.629
       0.552
       0.417
       0.278
       0.197
       0.210
       0.280
       0.301
       0.180
      -0.073
      -0.329
      -0.434
      -0.320
      -0.056
       0.227
       0.434
       0.540
       0.528
       0.358
       0.011
      -0.423
      -0.735
      -0.716
      -0.336
       0.208
       0.621
       0.728
       0.587
       0.393
       0.292
       0.283
       0.269
       0.195
       0.111
       0.108
       0.197
       0.275
       0.205
      -0.054
      -0.404
      -0.688
      -0.806
      -0.773
      -0.666
      -0.543
      -0.408
      -0.251
      -0.096
       0.010
       0.034
      -0.004
      -0.056
      -0.083
      -0.071
      -0.024
       0.057
       0.155
       0.214
       0.169
       0.019
      -0.121
      -0.070
       0.270
       0.800
       1.261
       1.402
       1.139
       0.607
       0.087
      -0.162
      -0.046
       0.313
       0.651
       0.721
       0.436
      -0.087
      -0.598
      -0.860
      -0.784
      -0.479
      -0.172
      -0.059
      -0.184
      -0.446
      -0.711
      -0.920
      -1.074
      -1.150
      -1.060
      -0.734
      -0.245
       0.182
       0.309
       0.077
      -0.337
      -0.644
      -0.646
      -0.350
       0.090
       0.504
       0.792
       0.922
       0.903
       0.769
       0.594
       0.461
       0.426
       0.486
       0.594
       0.680
       0.673
       0.517
       0.208
      -0.168
      -0.448
      -0.495
      -0.304
      -0.018
       0.177
       0.188
       0.061
      -0.103
      -0.239
      -0.325
      -0.343
      -0.258
      -0.076
       0.117
       0.201
       0.119
      -0.075
      -0.278
      -0.442
      -0.591
      -0.736
      -0.804
      -0.696
      -0.408
      -0.077
       0.137
       0.185
       0.139
       0.073
      -0.034
      -0.249
      -0.547
      -0.771
      -0.747
      -0.443
      -0.003
       0.384
       0.622
       0.727
       0.755
       0.744
       0.717
       0.703
       0.713
       0.693
       0.540
       0.209
      -0.194
      -0.451
      -0.404
      -0.091
       0.300
       0.610
       0.815
       0.975
       1.083
       1.024
       0.691
       0.149
      -0.361
      -0.600
      -0.531
      -0.352
      -0.310
      -0.482
      -0.728
      -0.844
      -0.764
      -0.593
      -0.467
      -0.385
      -0.218
       0.113
       0.510
       0.762
       0.740
       0.497
       0.179
      -0.124
      -0.419
      -0.718
      -0.957
      -1.026
      -0.888
      -0.638
      -0.419
      -0.307
      -0.270
      -0.237
      -0.174
      -0.085
       0.026
       0.167
       0.319
       0.424
       0.419
       0.296
       0.114
      -0.058
      -0.183
      -0.243
      -0.207
      -0.034
       0.282
       0.674
       1.024
       1.226
       1.241
       1.093
       0.816
       0.421
      -0.072
      -0.567
      -0.903
      -0.938
      -0.658
      -0.195
       0.269
       0.631
       0.909
       1.149
       1.326
       1.346
       1.169
       0.890
       0.670
       0.602
       0.643
       0.698
       0.735
       0.810
       0.966
       1.143
       1.202
       1.053
       0.737
       0.375
       0.072
      -0.131
      -0.221
      -0.173
       0.026
       0.318
       0.552
       0.563
       0.281
      -0.215
      -0.771
      -1.264
      -1.649
      -1.907
      -1.997
      -1.873
      -1.575
      -1.256
      -1.098
      -1.172
      -1.384
      -1.571
      -1.649
      -1.678
      -1.784
      -2.036
      -2.390
      -2.741
      -3.018
      -3.223
      -3.389
      -3.520
      -3.581
      -3.537
      -3.384
      -3.145
      -2.835
      -2.450
      -2.008
      -1.584
      -1.269
      -1.075
      -0.872
      -0.472
       0.200
       0.998
       1.662
       2.036
       2.194
       2.352
       2.671
       3.170
       3.785
       4.446
       5.062
       5.459
       5.419
       4.838
       3.860
       2.823
       2.043
       1.634
       1.518
       1.570
       1.712
       1.868
       1.901
       1.657
       1.111
       0.439
      -0.096
      -0.339
      -0.309
      -0.085
       0.324
       0.971
       1.831
       2.716
       3.374
       3.686
       3.752
       3.753
       3.748
       3.601
       3.138
       2.347
       1.430
       0.622
      -0.015
      -0.628
      -1.399
      -2.361
      -3.357
      -4.174
      -4.708
      -5.001
      -5.156
      -5.223
      -5.176
      -4.978
      -4.647
      -4.238
      -3.795
      -3.324
      -2.824
      -2.322
      -1.887
      -1.599
      -1.509
      -1.614
      -1.863
      -2.184
      -2.494
      -2.719
      -2.811
      -2.747
      -2.499
      -2.021
      -1.287
      -0.345
       0.678
       1.657
       2.552
       3.407
       4.241
       4.979
       5.505
       5.804
       6.019
       6.315
       6.710
       7.044
       7.140
       6.955
       6.547
       5.911
       4.905
       3.371
       1.355
      -0.822
      -2.705
      -3.966
      -4.566
      -4.727
      -4.768
      -4.910
      -5.185
      -5.476
      -5.628
      -5.538
      -5.162
      -4.485
      -3.524
      -2.360
      -1.141
      -0.006
       0.990
       1.863
       2.620
       3.177
       3.381
       3.117
       2.383
       1.293
       0.016
      -1.243
      -2.272
      -2.921
      -3.197
      -3.263
      -3.311
      -3.398
      -3.435
      -3.322
      -3.103
      -2.949
      -2.989
      -3.161
      -3.223
      -2.910
      -2.085
      -0.781
       0.859
       2.663
       4.439
       5.971
       7.020
       7.390
       7.019
       6.026
       4.670
       3.231
       1.899
       0.754
      -0.184
      -0.901
      -1.377
      -1.619
      -1.673
      -1.609
      -1.480
      -1.320
      -1.143
      -0.940
      -0.654
      -0.172
       0.598
       1.606
       2.622
       3.346
       3.601
       3.452
       3.138
       2.858
       2.614
       2.235
       1.570
       0.630
      -0.426
      -1.426
      -2.284
      -2.969
      -3.432
      -3.601
      -3.469
      -3.159
      -2.837
      -2.557
      -2.204
      -1.617
      -0.770
       0.185
       1.039
       1.665
       2.049
       2.218
       2.186
       1.983
       1.704
       1.496
       1.441
       1.466
       1.387
       1.061
       0.488
      -0.208
      -0.904
      -1.540
      -2.083
      -2.461
      -2.586
      -2.447
      -2.164
      -1.904
      -1.734
      -1.569
      -1.271
      -0.803
      -0.292
       0.056
       0.100
      -0.140
      -0.492
      -0.736
      -0.724
      -0.447
      -0.029
       0.344
       0.527
       0.504
       0.411
       0.455
       0.774
       1.339
       1.967
       2.422
       2.534
       2.255
       1.652
       0.860
       0.046
      -0.630
      -1.053
      -1.182
      -1.073
      -0.854
      -0.668
      -0.598
      -0.638
      -0.712
      -0.724
      -0.619
      -0.417
      -0.219
      -0.155
      -0.283
      -0.546
      -0.802
      -0.920
      -0.848
      -0.593
      -0.187
       0.312
       0.794
       1.115
       1.177
       1.007
       0.740
       0.506
       0.334
       0.167
      -0.024
      -0.186
      -0.249
      -0.241
      -0.298
      -0.538
      -0.926
      -1.278
      -1.406
      -1.246
      -0.876
      -0.409
       0.096
       0.630
       1.164
       1.597
       1.808
       1.753
       1.515
       1.251
       1.089
       1.052
       1.072
       1.062
       0.986
       0.884
       0.818
       0.823
       0.907
       1.084
       1.368
       1.726
       2.041
       2.163
       2.009
       1.621
       1.113
       0.565
      -0.006
      -0.599
      -1.167
      -1.619
      -1.862
      -1.863
      -1.676
      -1.439
      -1.317
      -1.410
      -1.684
      -1.973
      -2.054
      -1.775
      -1.156
      -0.382
       0.313
       0.765
       0.941
       0.909
       0.766
       0.584
       0.396
       0.213
       0.047
      -0.090
      -0.198
      -0.301
      -0.429
      -0.598
      -0.786
      -0.954
      -1.074
      -1.168
      -1.300
      -1.508
      -1.761
      -1.954
      -1.984
      -1.832
      -1.589
      -1.400
      -1.360
      -1.444
      -1.539
      -1.531
      -1.380
      -1.122
      -0.817
      -0.505
      -0.208
       0.061
       0.292
       0.488
       0.660
       0.804
       0.900
       0.933
       0.929
       0.965
       1.124
       1.424
       1.778
       2.038
       2.085
       1.915
       1.638
       1.393
       1.275
       1.303
       1.439
       1.616
       1.761
       1.825
       1.800
       1.723
       1.635
       1.537
       1.391
       1.169
       0.903
       0.678
       0.556
       0.519
       0.486
       0.410
       0.319
       0.278
       0.305
       0.343
       0.306
       0.148
      -0.120
      -0.442
      -0.748
      -0.964
      -1.026
      -0.899
      -0.620
      -0.312
      -0.131
      -0.190
      -0.493
      -0.940
      -1.384
      -1.707
      -1.865
      -1.876
      -1.791
      -1.669
      -1.577
      -1.561
      -1.605
      -1.613
      -1.472
      -1.143
      -0.721
      -0.371
      -0.206
      -0.213
      -0.286
      -0.332
      -0.350
      -0.414
      -0.601
      -0.905
      -1.213
      -1.371
      -1.292
      -1.012
      -0.645
      -0.303
      -0.046
       0.117
       0.212
       0.291
       0.413
       0.608
       0.854
       1.108
       1.349
       1.582
       1.773
       1.804
       1.543
       0.996
       0.380
       0.005
       0.042
       0.391
       0.771
       0.960
       0.962
       0.954
       1.085
       1.331
       1.533
       1.543
       1.340
       1.026
       0.735
       0.561
       0.518
       0.570
       0.655
       0.699
       0.626
       0.375
      -0.053
      -0.577
      -1.067
      -1.418
      -1.615
      -1.732
      -1.858
      -2.016
      -2.126
      -2.034
      -1.612
      -0.858
       0.072
       0.930
       1.491
       1.655
       1.468
       1.084
       0.667
       0.310
       0.027
      -0.189
      -0.302
      -0.250
      -0.017
       0.286
       0.441
       0.255
      -0.294
      -1.014
      -1.625
      -1.928
      -1.906
      -1.664
      -1.313
      -0.902
      -0.452
       0.001
       0.407
       0.744
       1.030
       1.284
       1.484
       1.587
       1.566
       1.432
       1.203
       0.873
       0.449
       0.004
      -0.329
      -0.454
      -0.412
      -0.373
      -0.501
      -0.802
      -1.110
      -1.224
      -1.069
      -0.734
      -0.364
      -0.049
       0.186
       0.325
       0.326
       0.169
      -0.074
      -0.241
      -0.174
       0.145
       0.574
       0.901
       0.995
       0.879
       0.686
       0.541
       0.454
       0.324
       0.043
      -0.382
      -0.801
      -1.021
      -0.957
      -0.699
      -0.449
      -0.339
      -0.318
      -0.201
       0.148
       0.676
       1.176
       1.446
       1.433
       1.240
       1.032
       0.923
       0.920
       0.933
       0.838
       0.556
       0.113
      -0.360
      -0.718
      -0.895
      -0.942
      -0.975
      -1.071
      -1.218
      -1.333
      -1.329
      -1.177
      -0.914
      -0.621
      -0.385
