Origin Time       04/04/2011 11:31:40
Lat.              29.6 N	
Long.             80.8 E	
Depth (Km)         10.0
Magnitude         5.7
 Region           NEPAL-INDIA-BORDER-REGION                                        
 Above details taken from IMD 
     
Station Code      BAG
Station Lat.       29.831  N
Station Long.      79.770  E
Station Height(m)  972.0
Site Class        A   Vs30 between 700 m/sec to 1400 m/sec * 
Record Time       04.04.2011 11:31:42.214
Sampling Rate     200. Hz
 Record Duration   92.220 Sec.
 Direction         E-W (E positive)
Max. Acceleration     10.856 cm/sec**2
     
  * For reference see Site Classification link of website 
     
 Base Line Corrected and Low Pass Filtered (Cut Off at 35 Hz) Time History
 Acceleration data in cm/sec**2
    
[...]
       1.690
       1.956
       2.156
       2.292
       2.361
       2.342
       2.200
       1.897
       1.418
       0.778
       0.025
      -0.775
      -1.549
      -2.238
      -2.798
      -3.189
      -3.358
      -3.256
      -2.864
      -2.220
      -1.405
      -0.530
       0.291
       0.959
       1.424
       1.699
       1.846
       1.941
       2.030
       2.119
       2.192
       2.214
       2.136
       1.903
       1.495
       0.952
       0.359
      -0.195
      -0.667
      -1.057
      -1.377
      -1.619
      -1.750
      -1.733
      -1.549
      -1.223
      -0.826
      -0.456
      -0.194
      -0.065
      -0.035
      -0.036
      -0.009
       0.069
       0.179
       0.273
       0.292
       0.189
      -0.062
      -0.449
      -0.946
      -1.531
      -2.187
      -2.875
      -3.490
      -3.872
      -3.878
      -3.475
      -2.789
      -2.043
      -1.445
      -1.081
      -0.897
      -0.768
      -0.580
      -0.289
       0.091
       0.528
       0.999
       1.491
       1.987
       2.462
       2.873
       3.159
       3.260
       3.140
       2.813
       2.327
       1.736
       1.079
       0.399
      -0.233
      -0.731
      -1.041
      -1.172
      -1.188
      -1.164
      -1.156
      -1.185
      -1.251
      -1.339
      -1.421
      -1.459
      -1.413
      -1.255
      -0.978
      -0.590
      -0.103
       0.473
       1.107
       1.730
       2.251
       2.615
       2.826
       2.938
       2.997
       3.025
       3.034
       3.044
       3.067
       3.077
       3.007
       2.788
       2.389
       1.840
       1.231
       0.666
       0.210
      -0.141
      -0.444
      -0.751
      -1.070
      -1.362
      -1.578
      -1.684
      -1.681
      -1.602
      -1.497
      -1.400
      -1.321
      -1.257
      -1.216
      -1.213
      -1.255
      -1.325
      -1.375
      -1.347
      -1.196
      -0.917
      -0.562
      -0.221
       0.024
       0.148
       0.192
       0.237
       0.361
       0.601
       0.953
       1.370
       1.782
       2.110
       2.297
       2.320
       2.192
       1.940
       1.599
       1.205
       0.791
       0.388
       0.023
      -0.294
      -0.584
      -0.901
      -1.312
      -1.858
      -2.528
      -3.253
      -3.917
      -4.380
      -4.526
      -4.307
      -3.765
      -3.007
      -2.157
      -1.314
      -0.550
       0.096
       0.604
       0.973
       1.223
       1.396
       1.543
       1.688
       1.810
       1.858
       1.785
       1.591
       1.322
       1.041
       0.792
       0.580
       0.384
       0.186
       0.005
      -0.101
      -0.076
       0.084
       0.327
       0.582
       0.820
       1.061
       1.329
       1.597
       1.772
       1.753
       1.510
       1.110
       0.670
       0.287
      -0.001
      -0.191
      -0.283
      -0.274
      -0.174
      -0.015
       0.157
       0.292
       0.348
       0.310
       0.196
       0.055
      -0.057
      -0.108
      -0.097
      -0.039
       0.046
       0.140
       0.223
       0.273
       0.264
       0.168
      -0.029
      -0.313
      -0.641
      -0.959
      -1.215
      -1.367
      -1.400
      -1.337
      -1.241
      -1.175
      -1.176
      -1.244
      -1.372
      -1.557
      -1.785
      -2.024
      -2.229
      -2.363
      -2.396
      -2.310
      -2.108
      -1.830
      -1.554
      -1.351
      -1.252
      -1.223
      -1.188
      -1.073
      -0.824
      -0.425
       0.114
       0.753
       1.412
       1.973
       2.306
       2.332
       2.061
       1.569
       0.944
       0.245
      -0.485
      -1.189
      -1.797
      -2.253
      -2.517
      -2.563
      -2.380
      -1.997
      -1.484
      -0.937
      -0.435
      -0.019
       0.315
       0.598
       0.852
       1.067
       1.213
       1.272
       1.263
       1.233
       1.233
       1.291
       1.387
       1.459
       1.437
       1.288
       1.033
       0.736
       0.469
       0.286
       0.202
       0.205
       0.287
       0.460
       0.734
       1.076
       1.405
       1.635
       1.731
       1.724
       1.669
       1.612
       1.572
       1.544
       1.519
       1.495
       1.473
       1.441
       1.364
       1.205
       0.952
       0.637
       0.313
       0.019
      -0.250
      -0.520
      -0.799
      -1.042
      -1.182
      -1.179
      -1.055
      -0.874
      -0.714
      -0.629
      -0.630
      -0.695
      -0.783
      -0.853
      -0.862
      -0.768
      -0.552
      -0.242
       0.081
       0.317
       0.399
       0.315
       0.101
      -0.183
      -0.473
      -0.726
      -0.929
      -1.088
      -1.201
      -1.249
      -1.205
      -1.060
      -0.832
      -0.554
      -0.244
       0.104
       0.508
       0.976
       1.491
       2.020
       2.514
       2.928
       3.233
       3.414
       3.453
       3.316
       2.973
       2.445
       1.818
       1.197
       0.654
       0.200
      -0.182
      -0.513
      -0.816
      -1.117
      -1.448
      -1.823
      -2.229
      -2.633
      -2.990
      -3.244
      -3.343
      -3.249
      -2.954
      -2.479
      -1.878
      -1.235
      -0.652
      -0.219
       0.017
       0.057
      -0.065
      -0.300
      -0.590
      -0.873
      -1.101
      -1.260
      -1.365
      -1.445
      -1.505
      -1.526
      -1.480
      -1.350
      -1.144
      -0.885
      -0.598
      -0.293
       0.043
       0.425
       0.831
       1.182
       1.372
       1.332
       1.081
       0.706
       0.309
      -0.046
      -0.343
      -0.601
      -0.835
      -1.036
      -1.163
      -1.157
      -0.960
      -0.548
       0.054
       0.772
       1.500
       2.141
       2.632
       2.971
       3.201
       3.377
       3.524
       3.610
       3.558
       3.289
       2.772
       2.051
       1.221
       0.400
      -0.307
      -0.813
      -1.067
      -1.070
      -0.881
      -0.599
      -0.307
      -0.039
       0.204
       0.421
       0.580
       0.639
       0.584
       0.445
       0.270
       0.073
      -0.166
      -0.470
      -0.816
      -1.134
      -1.356
      -1.463
      -1.496
      -1.495
      -1.460
      -1.342
      -1.083
      -0.673
      -0.152
       0.401
       0.908
       1.316
       1.617
       1.834
       1.996
       2.096
       2.090
       1.919
       1.556
       1.034
       0.437
      -0.120
      -0.530
      -0.731
      -0.726
      -0.575
      -0.357
      -0.123
       0.130
       0.444
       0.849
       1.309
       1.702
       1.880
       1.768
       1.430
       1.027
       0.715
       0.551
       0.495
       0.462
       0.382
       0.230
       0.018
      -0.223
      -0.466
      -0.710
      -0.970
      -1.266
      -1.604
      -1.973
      -2.353
      -2.719
      -3.058
      -3.378
      -3.711
      -4.078
      -4.456
      -4.772
      -4.935
      -4.882
      -4.605
      -4.149
      -3.601
      -3.062
      -2.605
      -2.248
      -1.965
      -1.716
      -1.475
      -1.238
      -1.001
      -0.755
      -0.486
      -0.183
       0.162
       0.559
       1.025
       1.568
       2.173
       2.794
       3.366
       3.809
       4.035
       3.964
       3.574
       2.935
       2.205
       1.571
       1.166
       1.027
       1.098
       1.282
       1.486
       1.656
       1.768
       1.805
       1.744
       1.574
       1.322
       1.062
       0.898
       0.925
       1.177
       1.599
       2.044
       2.314
       2.245
       1.782
       1.012
       0.121
      -0.676
      -1.205
      -1.377
      -1.214
      -0.840
      -0.427
      -0.111
       0.078
       0.196
       0.314
       0.441
       0.502
       0.384
       0.000
      -0.654
      -1.484
      -2.329
      -3.038
      -3.531
      -3.819
      -3.968
      -4.036
      -4.031
      -3.893
      -3.531
      -2.889
      -1.990
      -0.946
       0.092
       0.990
       1.674
       2.157
       2.516
       2.840
       3.156
       3.415
       3.525
       3.425
       3.132
       2.708
       2.210
       1.647
       1.013
       0.325
      -0.349
      -0.922
      -1.318
      -1.497
      -1.461
      -1.257
      -0.960
      -0.641
      -0.321
       0.019
       0.392
       0.765
       1.079
       1.294
       1.414
       1.466
       1.460
       1.377
       1.178
       0.822
       0.289
      -0.391
      -1.117
      -1.723
      -2.042
      -1.974
      -1.539
      -0.862
      -0.117
       0.548
       1.036
       1.301
       1.339
       1.192
       0.947
       0.711
       0.547
       0.439
       0.307
       0.079
      -0.245
      -0.595
      -0.888
      -1.067
      -1.118
      -1.045
      -0.861
      -0.588
      -0.259
       0.086
       0.412
       0.709
       1.000
       1.317
       1.667
       1.996
       2.213
       2.238
       2.056
       1.734
       1.370
       1.027
       0.692
       0.310
      -0.149
      -0.658
      -1.153
      -1.582
      -1.943
      -2.287
      -2.682
      -3.153
      -3.625
      -3.940
      -3.941
      -3.576
      -2.925
      -2.139
      -1.366
      -0.687
      -0.108
       0.413
       0.927
       1.456
       1.985
       2.473
       2.863
       3.095
       3.125
       2.949
       2.618
       2.234
       1.908
       1.714
       1.647
       1.622
       1.533
       1.319
       1.000
       0.638
       0.288
      -0.028
      -0.314
      -0.578
      -0.827
      -1.052
      -1.239
      -1.374
      -1.451
      -1.455
      -1.371
      -1.202
      -0.987
      -0.779
      -0.606
      -0.461
      -0.322
      -0.190
      -0.084
      -0.024
      -0.008
       0.007
       0.084
       0.258
       0.492
       0.684
       0.734
       0.607
       0.343
       0.022
      -0.272
      -0.476
      -0.563
      -0.537
      -0.424
      -0.250
      -0.051
       0.107
       0.133
      -0.048
      -0.453
      -1.041
      -1.731
      -2.430
      -3.037
      -3.466
      -3.660
      -3.608
      -3.343
      -2.928
      -2.422
      -1.868
      -1.289
      -0.728
      -0.259
       0.034
       0.102
      -0.038
      -0.303
      -0.569
      -0.712
      -0.647
      -0.362
       0.083
       0.593
       1.087
       1.540
       1.992
       2.503
       3.096
       3.715
       4.260
       4.653
       4.888
       5.010
       5.054
       5.008
       4.812
       4.406
       3.767
       2.931
       1.987
       1.053
       0.247
      -0.358
      -0.747
      -0.962
      -1.065
      -1.107
      -1.115
      -1.110
      -1.133
      -1.244
      -1.490
      -1.865
      -2.292
      -2.653
      -2.844
      -2.811
      -2.558
      -2.121
      -1.536
      -0.829
      -0.021
       0.837
       1.640
       2.250
       2.540
       2.449
       2.005
       1.306
       0.488
      -0.321
      -1.034
      -1.610
      -2.022
      -2.231
      -2.169
      -1.781
      -1.071
      -0.131
       0.862
       1.702
       2.218
       2.345
       2.131
       1.706
       1.224
       0.804
       0.493
       0.265
       0.061
      -0.158
      -0.367
      -0.495
      -0.492
      -0.384
      -0.263
      -0.233
      -0.354
      -0.630
      -1.023
      -1.462
      -1.863
      -2.173
      -2.404
      -2.623
      -2.889
      -3.206
      -3.523
      -3.778
      -3.940
      -4.037
      -4.142
      -4.318
      -4.545
      -4.683
      -4.538
      -3.977
      -3.018
      -1.812
      -0.559
       0.581
       1.532
       2.305
       2.951
       3.509
       3.975
       4.322
       4.545
       4.666
       4.694
       4.586
       4.277
       3.761
       3.151
       2.651
       2.460
       2.659
       3.181
       3.872
       4.613
       5.387
       6.236
       7.136
       7.923
       8.336
       8.165
       7.384
       6.171
       4.812
       3.549
       2.475
       1.541
       0.627
      -0.367
      -1.485
      -2.727
      -4.082
      -5.527
      -7.013
      -8.440
      -9.647
     -10.449
     -10.724
     -10.492
      -9.928
      -9.275
      -8.722
      -8.328
      -8.026
      -7.683
      -7.184
      -6.487
      -5.619
      -4.642
      -3.616
      -2.592
      -1.613
      -0.715
       0.091
       0.822
       1.499
       2.123
       2.668
       3.090
       3.359
       3.479
       3.510
       3.537
       3.631
       3.805
       4.018
       4.222
       4.392
       4.545
       4.712
       4.914
       5.157
       5.441
       5.769
       6.158
       6.615
       7.107
       7.542
       7.787
       7.708
       7.227
       6.346
       5.132
       3.678
       2.071
       0.391
      -1.277
      -2.850
      -4.251
      -5.413
      -6.260
      -6.704
      -6.695
      -6.299
      -5.721
      -5.221
      -4.992
      -5.073
      -5.377
      -5.762
      -6.099
      -6.321
      -6.423
      -6.445
      -6.433
      -6.393
      -6.277
      -6.006
      -5.525
      -4.836
      -4.029
      -3.251
      -2.654
      -2.308
      -2.157
      -2.042
      -1.786
      -1.283
      -0.537
       0.352
       1.240
       2.004
       2.586
       3.012
       3.359
       3.704
       4.116
       4.655
       5.377
       6.311
       7.437
       8.658
       9.797
      10.610
      10.856
      10.397
       9.274
       7.685
       5.891
       4.103
       2.439
       0.944
      -0.349
      -1.376
      -2.052
      -2.327
      -2.245
      -1.953
      -1.632
      -1.413
      -1.341
      -1.409
      -1.601
      -1.902
      -2.278
      -2.672
      -3.031
      -3.358
      -3.718
      -4.192
      -4.808
      -5.505
      -6.143
      -6.551
      -6.595
      -6.244
      -5.592
      -4.807
      -4.035
      -3.344
      -2.744
      -2.216
      -1.727
      -1.243
      -0.737
      -0.212
       0.318
       0.860
       1.446
       2.100
       2.787
       3.418
       3.888
       4.146
       4.239
       4.289
       4.413
       4.627
       4.817
       4.794
       4.425
       3.731
       2.872
       2.047
       1.380
       0.896
       0.553
       0.298
       0.084
      -0.121
      -0.320
      -0.489
      -0.584
      -0.557
      -0.352
       0.082
       0.759
       1.631
       2.591
       3.490
       4.158
       4.416
       4.144
       3.342
       2.149
       0.790
      -0.514
      -1.613
      -2.462
      -3.093
      -3.555
      -3.833
      -3.840
      -3.477
      -2.722
      -1.672
      -0.509
       0.567
       1.385
       1.820
       1.792
       1.292
       0.410
      -0.661
      -1.680
      -2.434
      -2.813
      -2.842
      -2.655
      -2.407
      -2.163
      -1.874
      -1.455
      -0.883
      -0.209
       0.492
       1.160
       1.744
       2.189
       2.483
       2.673
       2.828
       2.975
       3.080
       3.087
       2.942
       2.609
       2.054
       1.264
       0.269
      -0.844
      -1.928
      -2.828
      -3.448
      -3.811
      -4.035
      -4.231
      -4.402
      -4.437
      -4.209
      -3.680
      -2.930
      -2.095
      -1.297
      -0.615
      -0.070
       0.389
       0.871
       1.476
       2.188
       2.830
       3.137
       2.940
       2.316
       1.553
       0.958
       0.673
       0.654
       0.770
       0.894
       0.921
       0.781
       0.480
       0.125
      -0.144
      -0.249
      -0.202
      -0.048
       0.191
       0.511
       0.900
       1.321
       1.710
       1.981
       2.041
       1.832
       1.367
       0.719
      -0.016
      -0.752
      -1.390
      -1.811
      -1.925
      -1.761
      -1.481
      -1.280
      -1.239
      -1.255
      -1.123
      -0.718
      -0.109
       0.470
       0.796
       0.807
       0.629
       0.468
       0.480
       0.702
       1.038
       1.316
       1.365
       1.094
       0.541
      -0.161
      -0.844
      -1.380
      -1.733
      -1.957
      -2.152
      -2.395
      -2.695
      -3.013
      -3.291
      -3.489
      -3.593
      -3.623
      -3.612
      -3.573
      -3.480
      -3.291
      -2.971
      -2.487
      -1.797
      -0.884
       0.197
       1.334
       2.424
       3.408
       4.260
       4.942
       5.406
       5.607
       5.502
       5.054
       4.285
       3.324
       2.372
       1.593
       1.031
       0.626
       0.295
      -0.009
      -0.281
      -0.480
      -0.554
      -0.485
      -0.322
      -0.180
      -0.165
      -0.306
      -0.523
      -0.674
      -0.630
      -0.330
       0.197
       0.835
       1.405
       1.707
       1.577
       0.957
      -0.063
      -1.283
      -2.480
      -3.492
      -4.233
      -4.648
      -4.668
      -4.215
      -3.269
      -1.935
      -0.458
       0.838
       1.688
       2.007
       1.920
       1.662
       1.402
       1.142
       0.751
       0.114
      -0.752
      -1.675
      -2.429
      -2.858
      -2.949
      -2.801
      -2.545
      -2.268
      -1.986
      -1.672
      -1.299
      -0.872
      -0.426
      -0.015
       0.305
       0.485
       0.514
       0.448
       0.394
       0.427
       0.525
       0.579
       0.487
       0.226
      -0.141
      -0.500
      -0.705
      -0.635
      -0.263
       0.307
       0.889
       1.313
       1.495
       1.473
       1.407
       1.512
       1.918
       2.575
       3.287
       3.859
       4.188
       4.242
       4.012
       3.518
       2.830
       2.015
       1.084
       0.010
      -1.176
      -2.338
      -3.287
      -3.877
      -4.059
      -3.870
      -3.390
      -2.714
      -1.936
      -1.163
      -0.511
      -0.071
       0.157
       0.268
       0.392
       0.593
       0.830
       1.004
       1.054
       1.011
       0.982
       1.081
       1.365
       1.808
       2.313
       2.741
       2.968
       2.923
       2.601
       2.056
       1.383
       0.713
       0.164
      -0.218
      -0.477
      -0.681
      -0.847
      -0.933
      -0.921
      -0.881
      -0.927
      -1.120
      -1.415
      -1.693
      -1.851
      -1.857
      -1.730
      -1.507
      -1.214
      -0.882
      -0.565
      -0.322
      -0.188
      -0.150
      -0.151
      -0.122
      -0.013
       0.176
       0.407
       0.638
       0.843
       1.006
       1.116
       1.170
       1.173
       1.101
       0.899
       0.513
      -0.044
      -0.681
      -1.255
      -1.625
      -1.693
      -1.433
      -0.906
      -0.231
       0.486
       1.183
       1.837
       2.422
       2.891
       3.197
       3.318
       3.267
       3.069
       2.744
       2.304
       1.779
       1.215
       0.661
       0.147
      -0.299
      -0.637
      -0.815
      -0.813
      -0.656
      -0.396
      -0.071
       0.302
       0.693
       1.045
       1.276
       1.317
       1.139
       0.761
       0.241
      -0.338
      -0.889
      -1.340
      -1.654
      -1.840
      -1.942
      -2.015
      -2.068
      -2.044
      -1.864
      -1.507
      -1.049
      -0.635
      -0.395
