Origin Time       3/10/2009 5:20:54	  UTC
Lat.              30.0°N	
Long.             79.9°E	
Depth (Km)         15.0
Magnitude         4.3
 Region           BAGESHWAR-UTTRAKHAND                                             
 Above details taken from IMD 
    
Station Code      BAG
Station Lat.       29.831  N
Station Long.      79.770  E
Station Height(m)  972.0
Site Class        A   Vs30 between 700 m/sec to 1400 m/sec * 
Record Time       03.10.2009 05:17:29.249 UTC
Sampling Rate     200. Hz
 Record Duration   66.960 Sec.
 Direction         N-S (N positive)
Max. Acceleration     11.681 cm/sec**2
     
  * For reference see Site Classification link of website 
     
 Base Line Corrected and Low Pass Filtered (Cut Off at 35 Hz) Time History
 Acceleration data in cm/sec**2
    
[...]
       0.005
      -0.013
      -0.020
      -0.003
       0.022
       0.033
       0.016
      -0.014
      -0.031
      -0.021
       0.006
       0.024
       0.016
      -0.010
      -0.024
      -0.009
       0.024
       0.044
       0.032
      -0.002
      -0.030
      -0.027
       0.001
       0.027
       0.026
       0.000
      -0.026
      -0.026
      -0.001
       0.023
       0.020
      -0.006
      -0.030
      -0.027
       0.001
       0.029
       0.031
       0.007
      -0.018
      -0.017
       0.012
       0.040
       0.040
       0.008
      -0.028
      -0.036
      -0.008
       0.031
       0.047
       0.029
      -0.003
      -0.017
      -0.002
       0.026
       0.036
       0.017
      -0.016
      -0.032
      -0.018
       0.011
       0.027
       0.017
      -0.004
      -0.011
       0.006
       0.032
       0.038
       0.014
      -0.023
      -0.041
      -0.027
       0.006
       0.028
       0.022
      -0.004
      -0.021
      -0.009
       0.021
       0.038
       0.024
      -0.009
      -0.031
      -0.019
       0.015
       0.038
       0.029
      -0.004
      -0.027
      -0.018
       0.014
       0.036
       0.024
      -0.014
      -0.044
      -0.040
      -0.004
       0.029
       0.030
      -0.003
      -0.036
      -0.036
      -0.002
       0.035
       0.040
       0.009
      -0.029
      -0.038
      -0.013
       0.021
       0.033
       0.014
      -0.014
      -0.022
      -0.003
       0.022
       0.024
      -0.001
      -0.031
      -0.037
      -0.013
       0.019
       0.031
       0.013
      -0.016
      -0.025
      -0.005
       0.026
       0.037
       0.016
      -0.018
      -0.034
      -0.019
       0.011
       0.027
       0.012
      -0.017
      -0.031
      -0.012
       0.024
       0.046
       0.035
       0.003
      -0.021
      -0.019
       0.001
       0.017
       0.012
      -0.003
      -0.009
       0.005
       0.029
       0.039
       0.023
      -0.011
      -0.036
      -0.033
      -0.008
       0.016
       0.019
       0.001
      -0.016
      -0.011
       0.015
       0.035
       0.025
      -0.010
      -0.040
      -0.039
      -0.008
       0.024
       0.027
       0.002
      -0.024
      -0.020
       0.014
       0.050
       0.052
       0.017
      -0.024
      -0.035
      -0.006
       0.033
       0.048
       0.027
      -0.006
      -0.015
       0.009
       0.041
       0.048
       0.019
      -0.020
      -0.037
      -0.020
       0.012
       0.026
       0.011
      -0.016
      -0.027
      -0.009
       0.021
       0.034
       0.016
      -0.017
      -0.037
      -0.027
       0.000
       0.017
       0.007
      -0.019
      -0.031
      -0.013
       0.022
       0.042
       0.028
      -0.011
      -0.041
      -0.039
      -0.013
       0.012
       0.010
      -0.014
      -0.033
      -0.025
       0.006
       0.032
       0.029
      -0.002
      -0.034
      -0.039
      -0.017
       0.010
       0.016
      -0.002
      -0.025
      -0.027
      -0.004
       0.022
       0.024
       0.001
      -0.027
      -0.032
      -0.010
       0.019
       0.027
       0.009
      -0.017
      -0.023
      -0.005
       0.019
       0.022
      -0.002
      -0.031
      -0.037
      -0.014
       0.014
       0.020
      -0.002
      -0.031
      -0.036
      -0.009
       0.025
       0.034
       0.009
      -0.029
      -0.048
      -0.037
      -0.010
       0.005
      -0.005
      -0.024
      -0.029
      -0.006
       0.025
       0.036
       0.014
      -0.024
      -0.043
      -0.027
       0.007
       0.028
       0.016
      -0.015
      -0.034
      -0.020
       0.015
       0.043
       0.038
       0.006
      -0.022
      -0.020
       0.008
       0.037
       0.041
       0.020
       0.002
       0.016
       0.061
       0.105
       0.117
       0.096
       0.073
       0.082
       0.125
       0.171
       0.187
       0.167
       0.141
       0.139
       0.159
       0.174
       0.155
       0.101
       0.040
      -0.002
      -0.022
      -0.041
      -0.080
      -0.140
      -0.201
      -0.245
      -0.275
      -0.313
      -0.374
      -0.441
      -0.475
      -0.444
      -0.359
      -0.267
      -0.218
      -0.218
      -0.222
      -0.178
      -0.075
       0.041
       0.113
       0.118
       0.083
       0.057
       0.076
       0.148
       0.247
       0.330
       0.352
       0.301
       0.209
       0.133
       0.105
       0.108
       0.098
       0.056
       0.011
       0.007
       0.059
       0.144
       0.238
       0.340
       0.450
       0.535
       0.536
       0.428
       0.249
       0.072
      -0.060
      -0.171
      -0.304
      -0.464
      -0.595
      -0.636
      -0.586
      -0.516
      -0.497
      -0.536
      -0.575
      -0.552
      -0.471
      -0.406
      -0.435
      -0.572
      -0.742
      -0.832
      -0.767
      -0.559
      -0.289
      -0.046
       0.137
       0.294
       0.492
       0.762
       1.053
       1.250
       1.247
       1.039
       0.737
       0.505
       0.437
       0.492
       0.538
       0.482
       0.346
       0.236
       0.228
       0.305
       0.388
       0.411
       0.358
       0.231
       0.017
      -0.290
      -0.630
      -0.888
      -0.972
      -0.897
      -0.767
      -0.672
      -0.610
      -0.520
      -0.371
      -0.218
      -0.139
      -0.149
      -0.168
      -0.088
       0.132
       0.422
       0.642
       0.683
       0.549
       0.350
       0.208
       0.164
       0.168
       0.130
       0.003
      -0.193
      -0.381
      -0.473
      -0.419
      -0.247
      -0.056
       0.053
       0.061
       0.051
       0.119
       0.262
       0.365
       0.318
       0.127
      -0.084
      -0.179
      -0.100
       0.128
       0.432
       0.715
       0.865
       0.803
       0.543
       0.195
      -0.105
      -0.295
      -0.415
      -0.531
      -0.659
      -0.756
      -0.786
      -0.758
      -0.703
      -0.640
      -0.554
      -0.400
      -0.138
       0.219
       0.574
       0.795
       0.805
       0.647
       0.438
       0.284
       0.213
       0.201
       0.213
       0.239
       0.277
       0.318
       0.357
       0.406
       0.467
       0.508
       0.477
       0.362
       0.210
       0.072
      -0.068
      -0.273
      -0.569
      -0.876
      -1.063
      -1.049
      -0.872
      -0.644
      -0.445
      -0.273
      -0.090
       0.094
       0.198
       0.141
      -0.076
      -0.339
      -0.498
      -0.460
      -0.252
       0.001
       0.163
       0.175
       0.093
       0.044
       0.119
       0.300
       0.481
       0.564
       0.529
       0.423
       0.305
       0.194
       0.083
      -0.032
      -0.131
      -0.184
      -0.178
      -0.136
      -0.110
      -0.150
      -0.255
      -0.366
      -0.397
      -0.299
      -0.104
       0.098
       0.221
       0.247
       0.220
       0.184
       0.136
       0.033
      -0.142
      -0.345
      -0.491
      -0.519
      -0.429
      -0.268
      -0.085
       0.103
       0.308
       0.542
       0.794
       1.022
       1.165
       1.152
       0.940
       0.554
       0.086
      -0.347
      -0.648
      -0.772
      -0.720
      -0.529
      -0.251
       0.054
       0.333
       0.534
       0.620
       0.580
       0.436
       0.240
       0.052
      -0.082
      -0.153
      -0.178
      -0.184
      -0.192
      -0.206
      -0.220
      -0.230
      -0.248
      -0.285
      -0.325
      -0.317
      -0.214
      -0.032
       0.133
       0.179
       0.079
      -0.101
      -0.275
      -0.402
      -0.502
      -0.594
      -0.651
      -0.624
      -0.494
      -0.307
      -0.138
      -0.037
       0.004
       0.028
       0.082
       0.194
       0.362
       0.551
       0.692
       0.700
       0.521
       0.183
      -0.196
      -0.465
      -0.530
      -0.411
      -0.207
      -0.027
       0.070
       0.094
       0.106
       0.177
       0.335
       0.536
       0.689
       0.720
       0.627
       0.463
       0.283
       0.097
      -0.120
      -0.390
      -0.695
      -0.970
      -1.130
      -1.114
      -0.932
      -0.684
      -0.515
      -0.510
      -0.611
      -0.650
      -0.489
      -0.144
       0.233
       0.491
       0.591
       0.610
       0.654
       0.771
       0.934
       1.085
       1.192
       1.261
       1.307
       1.326
       1.281
       1.141
       0.909
       0.641
       0.398
       0.203
       0.025
      -0.170
      -0.372
      -0.547
      -0.705
      -0.907
      -1.175
      -1.414
      -1.449
      -1.168
      -0.637
      -0.066
       0.339
       0.508
       0.516
       0.471
       0.405
       0.280
       0.066
      -0.209
      -0.485
      -0.722
      -0.901
      -0.982
      -0.890
      -0.575
      -0.105
       0.337
       0.562
       0.502
       0.240
      -0.076
      -0.335
      -0.494
      -0.546
      -0.479
      -0.294
      -0.045
       0.163
       0.253
       0.246
       0.257
       0.375
       0.563
       0.677
       0.606
       0.385
       0.173
       0.103
       0.157
       0.193
       0.099
      -0.097
      -0.264
      -0.309
      -0.269
      -0.253
      -0.310
      -0.383
      -0.382
      -0.310
      -0.276
      -0.376
      -0.561
      -0.640
      -0.455
      -0.033
       0.406
       0.627
       0.546
       0.258
      -0.081
      -0.363
      -0.557
      -0.661
      -0.669
      -0.593
      -0.485
      -0.404
      -0.360
      -0.283
      -0.074
       0.301
       0.749
       1.082
       1.127
       0.854
       0.394
      -0.037
      -0.273
      -0.272
      -0.094
       0.163
       0.426
       0.663
       0.873
       1.056
       1.211
       1.328
       1.382
       1.336
       1.171
       0.915
       0.620
       0.303
      -0.090
      -0.618
      -1.231
      -1.746
      -1.967
      -1.841
      -1.508
      -1.183
      -0.979
      -0.846
      -0.665
      -0.385
      -0.067
       0.200
       0.382
       0.482
       0.478
       0.323
       0.033
      -0.249
      -0.340
      -0.162
       0.187
       0.518
       0.700
       0.733
       0.697
       0.658
       0.624
       0.568
       0.488
       0.410
       0.361
       0.354
       0.403
       0.528
       0.720
       0.915
       1.015
       0.965
       0.788
       0.568
       0.372
       0.213
       0.066
      -0.099
      -0.302
      -0.560
      -0.875
      -1.191
      -1.394
      -1.391
      -1.204
      -0.973
      -0.858
      -0.921
      -1.102
      -1.303
      -1.471
      -1.595
      -1.661
      -1.634
      -1.494
      -1.256
      -0.958
      -0.628
      -0.286
       0.032
       0.279
       0.446
       0.583
       0.748
       0.918
       0.985
       0.845
       0.508
       0.112
      -0.186
      -0.307
      -0.256
      -0.061
       0.288
       0.807
       1.438
       2.030
       2.407
       2.468
       2.230
       1.780
       1.209
       0.593
       0.019
      -0.408
      -0.609
      -0.585
      -0.423
      -0.252
      -0.157
      -0.125
      -0.060
       0.133
       0.447
       0.748
       0.859
       0.683
       0.272
      -0.225
      -0.677
      -1.034
      -1.291
      -1.419
      -1.373
      -1.169
      -0.926
      -0.787
      -0.779
      -0.773
      -0.608
      -0.259
       0.125
       0.363
       0.398
       0.308
       0.184
       0.037
      -0.171
      -0.437
      -0.688
      -0.835
      -0.827
      -0.660
      -0.363
       0.002
       0.334
       0.528
       0.537
       0.410
       0.254
       0.153
       0.121
       0.110
       0.061
      -0.039
      -0.155
      -0.252
      -0.327
      -0.388
      -0.404
      -0.314
      -0.074
       0.286
       0.675
       1.003
       1.241
       1.428
       1.616
       1.816
       1.980
       2.036
       1.921
       1.619
       1.179
       0.712
       0.344
       0.147
       0.109
       0.147
       0.176
       0.140
       0.011
      -0.226
      -0.566
      -0.950
      -1.274
      -1.456
      -1.506
      -1.510
      -1.525
      -1.499
      -1.315
      -0.905
      -0.338
       0.231
       0.679
       1.007
       1.311
       1.668
       2.062
       2.400
       2.597
       2.639
       2.564
       2.405
       2.153
       1.769
       1.238
       0.610
      -0.012
      -0.549
      -1.016
      -1.503
      -2.080
      -2.717
      -3.286
      -3.657
      -3.790
      -3.745
      -3.623
      -3.495
      -3.388
      -3.330
      -3.380
      -3.594
      -3.963
      -4.385
      -4.701
      -4.762
      -4.486
      -3.884
      -3.053
      -2.140
      -1.302
      -0.643
      -0.195
       0.059
       0.111
      -0.113
      -0.698
      -1.632
      -2.748
      -3.804
      -4.626
      -5.179
      -5.495
      -5.556
      -5.247
      -4.456
      -3.196
      -1.636
      -0.002
       1.541
       2.924
       4.131
       5.160
       6.034
       6.790
       7.419
       7.809
       7.788
       7.272
       6.387
       5.452
       4.802
       4.584
       4.696
       4.919
       5.114
       5.328
       5.707
       6.329
       7.123
       7.958
       8.793
       9.698
      10.688
      11.515
      11.681
      10.728
       8.590
       5.693
       2.698
       0.117
      -1.875
      -3.354
      -4.430
      -5.119
      -5.351
      -5.051
      -4.207
      -2.908
      -1.343
       0.227
       1.534
       2.335
       2.446
       1.775
       0.382
      -1.485
      -3.436
      -5.063
      -6.087
      -6.434
      -6.200
      -5.563
      -4.696
      -3.731
      -2.788
      -1.999
      -1.487
      -1.314
      -1.447
      -1.800
      -2.311
      -2.986
      -3.875
      -4.987
      -6.237
      -7.459
      -8.496
      -9.255
      -9.683
      -9.697
      -9.148
      -7.889
      -5.886
      -3.304
      -0.476
       2.196
       4.378
       5.894
       6.752
       7.107
       7.155
       7.012
       6.645
       5.902
       4.645
       2.860
       0.696
      -1.576
      -3.637
      -5.204
      -6.099
      -6.294
      -5.900
      -5.110
      -4.123
      -3.081
      -2.067
      -1.135
      -0.366
       0.138
       0.304
       0.136
      -0.281
      -0.836
      -1.426
      -1.939
      -2.214
      -2.055
      -1.326
      -0.057
       1.534
       3.132
       4.447
       5.298
       5.629
       5.497
       5.028
       4.374
       3.665
       2.982
       2.362
       1.830
       1.436
       1.244
       1.297
       1.544
       1.820
       1.913
       1.682
       1.154
       0.506
      -0.050
      -0.416
      -0.637
      -0.820
      -0.997
      -1.068
      -0.875
      -0.340
       0.458
       1.294
       1.921
       2.187
       2.086
       1.724
       1.248
       0.791
       0.429
       0.150
      -0.134
      -0.507
      -0.982
      -1.486
      -1.932
      -2.289
      -2.570
      -2.758
      -2.746
      -2.394
      -1.635
      -0.556
       0.644
       1.769
       2.715
       3.482
       4.115
       4.636
       5.005
       5.127
       4.890
       4.222
       3.158
       1.881
       0.676
      -0.208
      -0.705
      -0.966
      -1.237
      -1.681
      -2.266
      -2.809
      -3.120
      -3.158
      -3.053
      -2.997
      -3.097
      -3.320
      -3.567
      -3.781
      -3.993
      -4.256
      -4.550
      -4.741
      -4.658
      -4.213
      -3.471
      -2.599
      -1.743
      -0.940
      -0.152
       0.632
       1.330
       1.818
       2.037
       2.033
       1.905
       1.735
       1.563
       1.405
       1.278
       1.203
       1.204
       1.315
       1.569
       1.965
       2.449
       2.934
       3.342
       3.625
       3.750
       3.689
       3.432
       3.010
       2.482
       1.888
       1.215
       0.423
      -0.474
      -1.358
      -2.041
      -2.370
      -2.322
      -2.008
      -1.596
      -1.197
      -0.822
      -0.433
      -0.023
       0.344
       0.585
       0.682
       0.713
       0.799
       1.007
       1.294
       1.531
       1.579
       1.353
       0.843
       0.107
      -0.750
      -1.602
      -2.342
      -2.922
      -3.372
      -3.745
      -4.040
      -4.178
      -4.057
      -3.647
      -3.027
      -2.332
      -1.673
      -1.094
      -0.594
      -0.147
       0.276
       0.710
       1.178
       1.673
       2.137
       2.459
       2.521
       2.266
       1.752
       1.130
       0.566
       0.157
      -0.094
      -0.240
      -0.342
      -0.451
      -0.602
      -0.793
      -0.963
      -1.016
      -0.881
      -0.564
      -0.145
       0.291
       0.703
       1.094
       1.466
       1.803
       2.096
       2.378
       2.708
       3.104
       3.506
       3.816
       3.975
       4.007
       3.974
       3.913
       3.787
       3.511
       3.006
       2.261
       1.353
       0.414
      -0.437
      -1.151
      -1.740
      -2.214
      -2.540
      -2.662
      -2.566
      -2.324
      -2.061
      -1.888
      -1.847
      -1.930
      -2.127
      -2.457
      -2.925
      -3.456
      -3.898
      -4.118
      -4.106
      -3.980
      -3.879
      -3.841
      -3.771
      -3.521
      -3.030
      -2.378
      -1.726
      -1.182
      -0.738
      -0.310
       0.160
       0.637
       1.023
       1.243
       1.326
       1.398
       1.595
       1.958
       2.395
       2.740
       2.869
       2.771
       2.533
       2.261
       2.010
       1.781
       1.576
       1.429
       1.378
       1.411
       1.452
       1.416
       1.282
       1.115
       1.006
       0.983
       0.981
       0.907
       0.723
       0.472
       0.217
      -0.017
      -0.257
      -0.542
      -0.868
      -1.174
      -1.366
      -1.370
      -1.188
      -0.904
      -0.654
      -0.552
      -0.647
      -0.911
      -1.282
      -1.688
      -2.049
      -2.268
      -2.269
      -2.053
      -1.705
      -1.334
      -0.982
      -0.595
      -0.099
       0.477
       0.950
       1.053
       0.627
      -0.227
      -1.161
      -1.766
      -1.810
      -1.341
      -0.587
       0.220
       0.972
       1.673
       2.356
       3.011
       3.573
       3.947
       4.055
       3.881
       3.499
       3.055
       2.682
       2.427
       2.241
       2.040
       1.767
       1.416
       1.018
       0.616
       0.243
      -0.093
      -0.411
      -0.730
      -1.025
      -1.213
      -1.198
      -0.951
      -0.569
      -0.242
      -0.143
      -0.324
      -0.710
      -1.173
      -1.625
      -2.033
      -2.394
      -2.671
      -2.785
      -2.665
      -2.310
      -1.821
      -1.340
      -0.962
      -0.698
      -0.497
      -0.296
      -0.050
       0.246
       0.554
       0.791
       0.874
       0.767
       0.527
       0.297
       0.221
       0.334
       0.517
       0.572
       0.376
      -0.030
      -0.475
      -0.780
      -0.865
