Origin Time       14/12/2005 07:09:48
Lat.              30.9 N 
Long.             79.3 E 
Depth (Km)         25.7
Magnitude         5.2
 Region           Chamoli-Uttarakhand                                              
 Above details taken from IMD 
     
Station Code      BAG
Station Lat.       29.831  N
Station Long.      79.770  E
Station Height(m)  872.0
Site Class        A   Vs30 between 700 m/sec to 1400 m/sec * 
Record Time       14.12.2005 07:09:58.869
Sampling Rate     200. Hz
 Record Duration   29.995 Sec.
 Direction         E-W (E positive)
Max. Acceleration     -7.182 cm/sec**2
     
  * For reference see Site Classification link of website 
     
 Base Line Corrected and Low Pass Filtered (Cut Off at 35 Hz) Time History
 Acceleration data in cm/sec**2
    
[...]
      -0.289
      -0.121
      -0.031
      -0.042
      -0.128
      -0.218
      -0.235
      -0.135
       0.073
       0.343
       0.621
       0.855
       1.004
       1.038
       0.957
       0.790
       0.586
       0.388
       0.219
       0.078
      -0.043
      -0.154
      -0.254
      -0.337
      -0.392
      -0.408
      -0.376
      -0.301
      -0.214
      -0.171
      -0.215
      -0.341
      -0.501
      -0.636
      -0.705
      -0.688
      -0.584
      -0.411
      -0.221
      -0.087
      -0.056
      -0.125
      -0.236
      -0.318
      -0.319
      -0.219
      -0.033
       0.198
       0.417
       0.576
       0.655
       0.669
       0.634
       0.538
       0.354
       0.090
      -0.183
      -0.367
      -0.408
      -0.336
      -0.232
      -0.166
      -0.155
      -0.176
      -0.201
      -0.215
      -0.217
      -0.207
      -0.181
      -0.135
      -0.053
       0.095
       0.337
       0.662
       0.988
       1.197
       1.205
       1.016
       0.716
       0.404
       0.143
      -0.056
      -0.200
      -0.296
      -0.342
      -0.341
      -0.306
      -0.256
      -0.203
      -0.160
      -0.140
      -0.152
      -0.177
      -0.180
      -0.139
      -0.071
      -0.021
      -0.013
      -0.033
      -0.055
      -0.086
      -0.169
      -0.347
      -0.614
      -0.911
      -1.155
      -1.276
      -1.240
      -1.045
      -0.714
      -0.291
       0.165
       0.595
       0.965
       1.256
       1.447
       1.497
       1.374
       1.103
       0.779
       0.521
       0.405
       0.410
       0.440
       0.382
       0.167
      -0.199
      -0.655
      -1.110
      -1.465
      -1.643
      -1.602
      -1.356
      -0.961
      -0.500
      -0.060
       0.277
       0.446
       0.434
       0.289
       0.102
      -0.049
      -0.136
      -0.177
      -0.192
      -0.168
      -0.072
       0.105
       0.310
       0.465
       0.525
       0.512
       0.485
       0.486
       0.519
       0.565
       0.611
       0.646
       0.666
       0.674
       0.678
       0.671
       0.615
       0.449
       0.138
      -0.281
      -0.705
      -1.020
      -1.165
      -1.148
      -1.009
      -0.777
      -0.476
      -0.142
       0.164
       0.387
       0.502
       0.515
       0.437
       0.291
       0.122
       0.001
      -0.004
       0.119
       0.312
       0.478
       0.526
       0.416
       0.162
      -0.178
      -0.505
      -0.710
      -0.721
      -0.564
      -0.351
      -0.205
      -0.160
      -0.161
      -0.133
      -0.056
       0.026
       0.065
       0.059
       0.039
       0.029
       0.022
      -0.006
      -0.070
      -0.173
      -0.315
      -0.478
      -0.597
      -0.577
      -0.358
      -0.003
       0.318
       0.447
       0.365
       0.202
       0.107
       0.126
       0.183
       0.177
       0.078
      -0.069
      -0.206
      -0.307
      -0.371
      -0.384
      -0.335
      -0.252
      -0.217
      -0.297
      -0.475
      -0.662
      -0.771
      -0.785
      -0.738
      -0.646
      -0.475
      -0.184
       0.207
       0.615
       0.939
       1.125
       1.174
       1.109
       0.958
       0.762
       0.589
       0.492
       0.468
       0.454
       0.399
       0.312
       0.244
       0.215
       0.180
       0.089
      -0.042
      -0.123
      -0.076
       0.082
       0.251
       0.331
       0.309
       0.243
       0.192
       0.168
       0.145
       0.109
       0.054
      -0.037
      -0.203
      -0.462
      -0.778
      -1.068
      -1.256
      -1.310
      -1.233
      -1.032
      -0.715
      -0.327
       0.037
       0.266
       0.312
       0.239
       0.175
       0.221
       0.381
       0.582
       0.730
       0.764
       0.661
       0.436
       0.136
      -0.174
      -0.428
      -0.593
      -0.667
      -0.670
      -0.618
      -0.520
      -0.390
      -0.251
      -0.125
      -0.014
       0.097
       0.215
       0.316
       0.351
       0.291
       0.158
       0.017
      -0.058
      -0.024
       0.117
       0.324
       0.521
       0.615
       0.538
       0.295
      -0.010
      -0.218
      -0.202
       0.046
       0.420
       0.766
       0.974
       1.011
       0.904
       0.703
       0.467
       0.245
       0.063
      -0.089
      -0.246
      -0.433
      -0.638
      -0.815
      -0.922
      -0.951
      -0.920
      -0.845
      -0.711
      -0.505
      -0.247
       0.009
       0.221
       0.387
       0.526
       0.629
       0.643
       0.515
       0.247
      -0.094
      -0.421
      -0.682
      -0.869
      -0.993
      -1.056
      -1.060
      -1.030
      -1.007
      -1.011
      -1.013
      -0.933
      -0.689
      -0.247
       0.351
       0.999
       1.565
       1.959
       2.163
       2.221
       2.182
       2.053
       1.804
       1.409
       0.898
       0.359
      -0.106
      -0.435
      -0.637
      -0.759
      -0.841
      -0.882
      -0.860
      -0.752
      -0.563
      -0.325
      -0.095
       0.067
       0.127
       0.099
       0.043
       0.023
       0.061
       0.126
       0.160
       0.124
       0.028
      -0.087
      -0.197
      -0.314
      -0.469
      -0.665
      -0.856
      -0.970
      -0.954
      -0.791
      -0.507
      -0.156
       0.185
       0.436
       0.549
       0.534
       0.451
       0.368
       0.303
       0.221
       0.079
      -0.108
      -0.275
      -0.362
      -0.370
      -0.349
      -0.349
      -0.382
      -0.431
      -0.486
      -0.543
      -0.583
      -0.561
      -0.426
      -0.165
       0.170
       0.474
       0.652
       0.670
       0.564
       0.399
       0.226
       0.068
      -0.056
      -0.115
      -0.077
       0.055
       0.227
       0.360
       0.408
       0.383
       0.330
       0.279
       0.228
       0.171
       0.129
       0.131
       0.174
       0.194
       0.102
      -0.140
      -0.479
      -0.792
      -0.958
      -0.919
      -0.690
      -0.335
       0.066
       0.427
       0.681
       0.796
       0.784
       0.688
       0.548
       0.401
       0.286
       0.240
       0.280
       0.372
       0.449
       0.443
       0.325
       0.119
      -0.117
      -0.322
      -0.449
      -0.475
      -0.401
      -0.266
      -0.131
      -0.048
      -0.016
       0.014
       0.085
       0.189
       0.273
       0.290
       0.237
       0.141
       0.027
      -0.100
      -0.243
      -0.389
      -0.508
      -0.580
      -0.606
      -0.593
      -0.537
      -0.415
      -0.221
       0.012
       0.223
       0.358
       0.385
       0.300
       0.123
      -0.102
      -0.314
      -0.469
      -0.564
      -0.627
      -0.687
      -0.743
      -0.771
      -0.753
      -0.696
      -0.620
      -0.519
      -0.348
      -0.054
       0.362
       0.826
       1.229
       1.478
       1.543
       1.442
       1.223
       0.936
       0.630
       0.352
       0.146
       0.038
       0.024
       0.079
       0.164
       0.252
       0.321
       0.356
       0.359
       0.361
       0.411
       0.542
       0.736
       0.917
       0.989
       0.885
       0.604
       0.215
      -0.177
      -0.478
      -0.646
      -0.705
      -0.725
      -0.775
      -0.883
      -1.012
      -1.097
      -1.088
      -0.987
      -0.824
      -0.633
      -0.424
      -0.193
       0.056
       0.294
       0.467
       0.508
       0.377
       0.078
      -0.347
      -0.836
      -1.323
      -1.734
      -1.993
      -2.045
      -1.880
      -1.550
      -1.138
      -0.727
      -0.359
      -0.032
       0.289
       0.640
       1.039
       1.477
       1.914
       2.285
       2.520
       2.559
       2.378
       1.991
       1.460
       0.885
       0.363
      -0.048
      -0.350
      -0.581
      -0.765
      -0.896
      -0.951
      -0.915
      -0.783
      -0.548
      -0.199
       0.252
       0.742
       1.158
       1.390
       1.390
       1.200
       0.896
       0.527
       0.090
      -0.437
      -1.044
      -1.681
      -2.283
      -2.790
      -3.152
      -3.322
      -3.270
      -3.002
      -2.580
      -2.108
      -1.689
      -1.366
      -1.107
      -0.833
      -0.471
      -0.004
       0.523
       1.029
       1.440
       1.721
       1.881
       1.945
       1.928
       1.834
       1.680
       1.513
       1.401
       1.395
       1.503
       1.687
       1.887
       2.051
       2.150
       2.168
       2.086
       1.886
       1.568
       1.170
       0.750
       0.359
       0.020
      -0.277
      -0.553
      -0.820
      -1.069
      -1.269
      -1.388
      -1.403
      -1.301
      -1.079
      -0.752
      -0.358
       0.044
       0.384
       0.605
       0.675
       0.595
       0.399
       0.137
      -0.143
      -0.409
      -0.649
      -0.859
      -1.039
      -1.180
      -1.260
      -1.261
      -1.173
      -1.002
      -0.753
      -0.417
       0.010
       0.512
       1.025
       1.455
       1.715
       1.772
       1.661
       1.451
       1.188
       0.875
       0.497
       0.061
      -0.394
      -0.823
      -1.194
      -1.485
      -1.665
      -1.690
      -1.524
      -1.173
      -0.689
      -0.157
       0.335
       0.728
       0.990
       1.121
       1.146
       1.108
       1.056
       1.028
       1.040
       1.073
       1.078
       0.990
       0.747
       0.321
      -0.268
      -0.964
      -1.692
      -2.374
      -2.946
      -3.357
      -3.578
      -3.605
      -3.459
      -3.188
      -2.862
      -2.542
      -2.264
      -2.022
      -1.781
      -1.500
      -1.153
      -0.746
      -0.311
       0.125
       0.552
       0.980
       1.422
       1.895
       2.426
       3.031
       3.675
       4.251
       4.600
       4.602
       4.244
       3.630
       2.914
       2.208
       1.555
       0.957
       0.439
       0.049
      -0.189
      -0.304
      -0.368
      -0.444
      -0.575
      -0.790
      -1.124
      -1.588
      -2.125
      -2.591
      -2.814
      -2.694
      -2.271
      -1.696
      -1.135
      -0.679
      -0.329
      -0.029
       0.293
       0.704
       1.242
       1.900
       2.626
       3.356
       4.054
       4.701
       5.252
       5.607
       5.645
       5.304
       4.625
       3.713
       2.646
       1.431
       0.053
      -1.455
      -2.978
      -4.374
      -5.534
      -6.393
      -6.902
      -7.023
      -6.754
      -6.149
      -5.292
      -4.254
      -3.092
      -1.880
      -0.752
       0.127
       0.641
       0.797
       0.723
       0.578
       0.470
       0.437
       0.477
       0.566
       0.641
       0.602
       0.359
      -0.077
      -0.570
      -0.916
      -0.956
      -0.635
       0.012
       0.898
       1.895
       2.825
       3.482
       3.716
       3.504
       2.948
       2.177
       1.258
       0.206
      -0.940
      -2.059
      -2.991
      -3.614
      -3.895
      -3.862
      -3.552
      -2.999
      -2.254
      -1.396
      -0.513
       0.337
       1.127
       1.830
       2.393
       2.766
       2.927
       2.882
       2.622
       2.111
       1.326
       0.327
      -0.736
      -1.689
      -2.432
      -2.962
      -3.318
      -3.507
      -3.485
      -3.223
      -2.753
      -2.155
      -1.488
      -0.766
      -0.002
       0.741
       1.361
       1.797
       2.076
       2.280
       2.451
       2.548
       2.490
       2.242
       1.858
       1.450
       1.118
       0.913
       0.859
       0.968
       1.225
       1.553
       1.836
       1.988
       2.010
       1.970
       1.930
       1.898
       1.846
       1.755
       1.637
       1.510
       1.370
       1.197
       0.981
       0.735
       0.472
       0.182
      -0.163
      -0.564
      -0.972
      -1.314
      -1.547
      -1.675
      -1.733
      -1.761
      -1.803
      -1.911
      -2.120
      -2.406
      -2.678
      -2.826
      -2.800
      -2.642
      -2.430
      -2.200
      -1.917
      -1.548
      -1.126
      -0.746
      -0.482
      -0.321
      -0.191
      -0.033
       0.151
       0.330
       0.493
       0.654
       0.823
       0.978
       1.074
       1.086
       1.011
       0.848
       0.564
       0.124
      -0.442
      -1.013
      -1.436
      -1.612
      -1.547
      -1.312
      -0.976
      -0.573
      -0.123
       0.348
       0.800
       1.206
       1.549
       1.819
       1.995
       2.053
       1.988
       1.813
       1.545
       1.192
       0.774
       0.349
       0.002
      -0.217
      -0.340
      -0.467
      -0.692
      -1.036
      -1.441
      -1.817
      -2.097
      -2.240
      -2.223
      -2.035
      -1.698
      -1.281
      -0.865
      -0.491
      -0.135
       0.244
       0.648
       1.033
       1.348
       1.575
       1.722
       1.784
       1.735
       1.547
       1.211
       0.732
       0.107
      -0.680
      -1.618
      -2.612
      -3.474
      -3.975
      -3.933
      -3.290
      -2.141
      -0.689
       0.839
       2.271
       3.526
       4.589
       5.463
       6.140
       6.612
       6.880
       6.938
       6.748
       6.246
       5.378
       4.143
       2.600
       0.840
      -1.032
      -2.894
      -4.592
      -5.947
      -6.821
      -7.182
      -7.129
      -6.817
      -6.366
      -5.801
      -5.086
      -4.181
      -3.087
      -1.858
      -0.586
       0.610
       1.612
       2.336
       2.769
       2.963
       2.994
       2.921
       2.764
       2.516
       2.168
       1.724
       1.205
       0.650
       0.127
      -0.269
      -0.452
      -0.390
      -0.125
       0.244
       0.604
       0.865
       0.975
       0.922
       0.721
       0.419
       0.075
      -0.254
      -0.550
      -0.827
      -1.098
      -1.323
      -1.411
      -1.275
      -0.906
      -0.386
       0.160
       0.635
       0.993
       1.226
       1.328
       1.284
       1.089
       0.768
       0.380
      -0.005
      -0.331
      -0.564
      -0.694
      -0.749
      -0.799
      -0.927
      -1.187
      -1.561
      -1.959
      -2.251
      -2.325
      -2.124
      -1.660
      -1.001
      -0.241
       0.519
       1.188
       1.701
       2.025
       2.150
       2.070
       1.774
       1.275
       0.635
      -0.031
      -0.589
      -0.929
      -1.012
      -0.883
      -0.660
      -0.488
      -0.465
      -0.589
      -0.750
      -0.811
      -0.701
      -0.468
      -0.223
      -0.047
       0.050
       0.093
       0.076
      -0.045
      -0.299
      -0.652
      -1.022
      -1.329
      -1.517
      -1.538
      -1.336
      -0.884
      -0.234
       0.483
       1.119
       1.605
       1.967
       2.266
       2.526
       2.716
       2.803
       2.800
       2.745
       2.652
       2.502
       2.270
       1.977
       1.690
       1.474
       1.341
       1.222
       0.995
       0.546
      -0.165
      -1.069
      -2.000
      -2.767
      -3.235
      -3.364
      -3.190
      -2.772
      -2.172
      -1.475
      -0.813
      -0.331
      -0.113
      -0.133
      -0.283
      -0.429
      -0.471
      -0.359
      -0.108
       0.203
       0.453
       0.536
       0.427
       0.193
      -0.055
      -0.248
      -0.395
      -0.533
      -0.664
      -0.728
      -0.652
      -0.418
      -0.070
       0.315
       0.669
       0.930
       1.043
       0.967
       0.696
       0.277
      -0.213
      -0.698
      -1.131
      -1.487
      -1.741
      -1.856
      -1.805
      -1.585
      -1.221
      -0.736
      -0.147
       0.529
       1.253
       1.970
       2.626
       3.180
       3.595
       3.813
       3.758
       3.369
       2.652
       1.699
       0.646
      -0.385
      -1.325
      -2.126
      -2.742
      -3.128
      -3.273
      -3.215
      -3.022
      -2.750
      -2.430
      -2.072
      -1.691
      -1.302
      -0.915
      -0.529
      -0.144
       0.222
       0.524
       0.713
       0.761
       0.678
       0.493
       0.233
      -0.087
      -0.448
      -0.792
      -1.011
      -0.984
      -0.653
      -0.064
       0.668
       1.454
       2.287
       3.192
       4.146
       5.028
       5.668
       5.935
       5.801
       5.324
       4.589
       3.667
       2.610
       1.474
       0.316
      -0.826
      -1.942
      -3.009
      -3.954
      -4.667
      -5.058
      -5.103
      -4.845
      -4.373
      -3.789
      -3.177
      -2.587
      -2.013
      -1.419
      -0.796
      -0.214
       0.195
       0.305
       0.086
      -0.390
      -1.017
      -1.712
      -2.402
      -2.974
      -3.265
      -3.148
      -2.612
      -1.780
      -0.822
       0.117
       0.950
       1.622
       2.095
       2.376
       2.535
       2.684
       2.897
       3.153
       3.341
       3.337
       3.076
       2.574
       1.894
       1.113
       0.306
      -0.446
      -1.052
      -1.431
      -1.537
      -1.382
      -1.027
      -0.558
      -0.046
       0.473
       0.983
       1.472
       1.905
       2.231
       2.403
       2.398
       2.224
       1.898
       1.420
       0.783
      -0.007
      -0.902
      -1.814
      -2.645
      -3.305
      -3.730
      -3.877
      -3.717
      -3.242
      -2.484
      -1.543
      -0.575
       0.257
       0.851
       1.210
       1.414
       1.556
       1.678
       1.747
       1.686
       1.433
       0.977
       0.361
      -0.342
      -1.055
      -1.703
      -2.219
      -2.553
      -2.679
      -2.599
      -2.321
      -1.855
      -1.213
      -0.432
       0.415
       1.220
       1.871
       2.287
       2.452
       2.407
       2.228
       1.999
       1.785
       1.616
       1.483
       1.340
       1.124
       0.779
       0.297
      -0.263
      -0.787
      -1.159
      -1.317
      -1.263
      -1.048
      -0.755
      -0.483
      -0.320
      -0.292
      -0.337
      -0.339
      -0.207
       0.068
       0.407
       0.710
       0.901
       0.937
       0.782
       0.404
      -0.185
      -0.891
      -1.542
      -1.959
      -2.026
      -1.723
      -1.114
      -0.324
       0.471
       1.084
       1.377
       1.323
       1.019
       0.630
       0.304
       0.101
       0.002
      -0.047
      -0.080
      -0.095
      -0.078
      -0.012
       0.111
       0.284
       0.467
       0.603
       0.655
       0.638
       0.619
       0.663
       0.789
       0.952
       1.065
       1.034
       0.791
       0.323
      -0.303
      -0.951
      -1.454
      -1.694
      -1.655
      -1.420
      -1.111
      -0.822
      -0.592
      -0.417
      -0.266
      -0.084
       0.201
       0.628
       1.159
       1.669
       2.011
       2.097
       1.936
       1.594
       1.116
       0.498
      -0.281
      -1.193
      -2.150
      -3.040
      -3.771
      -4.277
      -4.514
      -4.482
      -4.248
      -3.927
      -3.617
      -3.326
      -2.963
      -2.397
      -1.539
      -0.385
       0.977
       2.404
