Origin Time       01/05/2009 22:36:25 UTC
Lat.              29.9 N 
Long.             80.1 E 
Depth (Km)         10.0
Magnitude         4.6
 Region           Bageshwar-Uttarakhand                                            
 Above details taken from IMD 
    
Station Code      BAG
Station Lat.       29.831  N
Station Long.      79.770  E
Station Height(m)  972.0
Site Class        A   Vs30 between 700 m/sec to 1400 m/sec * 
Record Time       01.05.2010 22:29:50.564 UTC
Sampling Rate     200. Hz
 Record Duration   86.280 Sec.
 Direction         N-S (N positive)
Max. Acceleration    -11.289 cm/sec**2
     
  * For reference see Site Classification link of website 
     
 Base Line Corrected and Low Pass Filtered (Cut Off at 35 Hz) Time History
 Acceleration data in cm/sec**2
    
[...]
       0.024
       0.047
       0.050
       0.019
      -0.034
      -0.073
      -0.077
      -0.052
      -0.025
      -0.012
      -0.010
      -0.004
       0.011
       0.031
       0.041
       0.031
       0.005
      -0.026
      -0.047
      -0.050
      -0.033
      -0.004
       0.019
       0.023
       0.010
       0.000
       0.010
       0.037
       0.053
       0.033
      -0.020
      -0.075
      -0.097
      -0.081
      -0.051
      -0.029
      -0.019
      -0.011
       0.007
       0.032
       0.049
       0.043
       0.016
      -0.022
      -0.054
      -0.068
      -0.060
      -0.035
      -0.004
       0.017
       0.021
       0.017
       0.022
       0.039
       0.054
       0.045
       0.006
      -0.044
      -0.074
      -0.070
      -0.046
      -0.022
      -0.009
      -0.001
       0.012
       0.031
       0.049
       0.052
       0.032
      -0.005
      -0.044
      -0.068
      -0.068
      -0.045
      -0.011
       0.016
       0.023
       0.016
       0.013
       0.028
       0.054
       0.066
       0.040
      -0.017
      -0.072
      -0.091
      -0.072
      -0.038
      -0.013
      -0.004
       0.001
       0.014
       0.036
       0.052
       0.049
       0.022
      -0.015
      -0.045
      -0.055
      -0.044
      -0.018
       0.008
       0.023
       0.025
       0.022
       0.027
       0.040
       0.047
       0.029
      -0.013
      -0.060
      -0.084
      -0.077
      -0.051
      -0.028
      -0.015
      -0.003
       0.013
       0.034
       0.051
       0.052
       0.031
      -0.006
      -0.044
      -0.067
      -0.065
      -0.039
      -0.002
       0.026
       0.033
       0.027
       0.026
       0.041
       0.062
       0.064
       0.031
      -0.023
      -0.068
      -0.078
      -0.057
      -0.029
      -0.011
      -0.003
       0.006
       0.023
       0.042
       0.052
       0.044
       0.020
      -0.012
      -0.039
      -0.052
      -0.046
      -0.022
       0.005
       0.021
       0.020
       0.011
       0.015
       0.032
       0.047
       0.034
      -0.013
      -0.070
      -0.107
      -0.114
      -0.107
      -0.107
      -0.121
      -0.139
      -0.152
      -0.161
      -0.174
      -0.199
      -0.233
      -0.267
      -0.292
      -0.307
      -0.318
      -0.334
      -0.367
      -0.433
      -0.538
      -0.672
      -0.805
      -0.903
      -0.942
      -0.917
      -0.833
      -0.687
      -0.473
      -0.192
       0.132
       0.453
       0.717
       0.873
       0.892
       0.780
       0.588
       0.402
       0.319
       0.425
       0.774
       1.369
       2.149
       2.978
       3.674
       4.061
       4.021
       3.531
       2.634
       1.408
      -0.039
      -1.546
      -2.886
      -3.835
      -4.261
      -4.177
      -3.710
      -3.013
      -2.203
      -1.377
      -0.643
      -0.106
       0.185
       0.270
       0.252
       0.243
       0.318
       0.506
       0.782
       1.072
       1.266
       1.267
       1.041
       0.648
       0.214
      -0.150
      -0.403
      -0.574
      -0.705
      -0.795
      -0.792
      -0.640
      -0.338
       0.038
       0.393
       0.682
       0.961
       1.339
       1.892
       2.579
       3.254
       3.731
       3.878
       3.651
       3.082
       2.247
       1.235
       0.137
      -0.948
      -1.918
      -2.672
      -3.145
      -3.333
      -3.299
      -3.144
      -2.958
      -2.797
      -2.674
      -2.571
      -2.466
      -2.359
      -2.277
      -2.236
      -2.193
      -2.052
      -1.721
      -1.167
      -0.434
       0.392
       1.218
       1.935
       2.398
       2.464
       2.096
       1.433
       0.730
       0.194
      -0.127
      -0.328
      -0.525
      -0.739
      -0.864
      -0.754
      -0.339
       0.317
       1.068
       1.763
       2.309
       2.669
       2.846
       2.864
       2.756
       2.565
       2.343
       2.131
       1.951
       1.790
       1.611
       1.348
       0.919
       0.264
      -0.593
      -1.504
      -2.255
      -2.684
      -2.784
      -2.704
      -2.634
      -2.676
      -2.791
      -2.865
      -2.799
      -2.565
      -2.184
      -1.690
      -1.114
      -0.490
       0.121
       0.657
       1.090
       1.442
       1.756
       2.027
       2.180
       2.117
       1.795
       1.279
       0.737
       0.382
       0.380
       0.774
       1.450
       2.180
       2.725
       2.929
       2.750
       2.230
       1.451
       0.542
      -0.334
      -1.014
      -1.401
      -1.502
      -1.420
      -1.300
      -1.256
      -1.307
      -1.371
      -1.336
      -1.158
      -0.929
      -0.832
      -1.016
      -1.476
      -2.026
      -2.409
      -2.455
      -2.179
      -1.744
      -1.346
      -1.100
      -1.001
      -0.967
      -0.914
      -0.830
      -0.764
      -0.786
      -0.932
      -1.178
      -1.446
      -1.629
      -1.635
      -1.417
      -0.993
      -0.423
       0.239
       0.962
       1.705
       2.375
       2.830
       2.978
       2.881
       2.736
       2.751
       2.989
       3.341
       3.627
       3.730
       3.632
       3.363
       2.944
       2.397
       1.780
       1.177
       0.647
       0.176
      -0.307
      -0.866
      -1.483
      -2.042
      -2.388
      -2.434
      -2.213
      -1.864
      -1.528
      -1.272
      -1.066
      -0.844
      -0.584
      -0.330
      -0.143
      -0.043
      -0.009
      -0.006
      -0.005
       0.038
       0.173
       0.427
       0.757
       1.045
       1.147
       0.977
       0.564
       0.036
      -0.448
      -0.764
      -0.856
      -0.745
      -0.524
      -0.319
      -0.229
      -0.305
      -0.552
      -0.938
      -1.390
      -1.792
      -2.034
      -2.068
      -1.925
      -1.667
      -1.304
      -0.779
      -0.037
       0.881
       1.814
       2.560
       2.966
       2.977
       2.627
       2.012
       1.280
       0.620
       0.220
       0.189
       0.481
       0.909
       1.241
       1.333
       1.181
       0.885
       0.551
       0.219
      -0.146
      -0.606
      -1.184
      -1.829
      -2.429
      -2.846
      -2.973
      -2.770
      -2.264
      -1.532
      -0.686
       0.128
       0.739
       0.992
       0.812
       0.268
      -0.452
      -1.134
      -1.655
      -2.023
      -2.305
      -2.535
      -2.666
      -2.595
      -2.227
      -1.539
      -0.604
       0.426
       1.374
       2.104
       2.569
       2.826
       2.990
       3.146
       3.301
       3.399
       3.374
       3.198
       2.875
       2.432
       1.914
       1.390
       0.932
       0.570
       0.256
      -0.111
      -0.617
      -1.274
      -2.015
      -2.733
      -3.319
      -3.681
      -3.751
      -3.507
      -2.998
      -2.337
      -1.655
      -1.048
      -0.560
      -0.200
       0.045
       0.221
       0.389
       0.574
       0.738
       0.817
       0.804
       0.786
       0.880
       1.122
       1.430
       1.656
       1.702
       1.561
       1.291
       0.946
       0.564
       0.187
      -0.117
      -0.290
      -0.330
      -0.293
      -0.240
      -0.174
      -0.044
       0.195
       0.536
       0.919
       1.276
       1.561
       1.736
       1.756
       1.587
       1.229
       0.733
       0.186
      -0.324
      -0.741
      -1.051
      -1.276
      -1.445
      -1.566
      -1.618
      -1.572
      -1.430
      -1.258
      -1.160
      -1.203
      -1.356
      -1.488
      -1.446
      -1.162
      -0.710
      -0.262
       0.035
       0.148
       0.158
       0.181
       0.287
       0.468
       0.669
       0.829
       0.918
       0.921
       0.821
       0.614
       0.332
       0.050
      -0.162
      -0.279
      -0.317
      -0.304
      -0.252
      -0.152
       0.009
       0.234
       0.510
       0.806
       1.069
       1.235
       1.254
       1.114
       0.859
       0.575
       0.347
       0.196
       0.059
      -0.163
      -0.506
      -0.885
      -1.138
      -1.140
      -0.894
      -0.528
      -0.201
       0.013
       0.164
       0.385
       0.771
       1.298
       1.810
       2.100
       2.036
       1.639
       1.077
       0.565
       0.246
       0.139
       0.162
       0.209
       0.210
       0.140
      -0.018
      -0.287
      -0.673
      -1.129
      -1.565
      -1.886
      -2.028
      -1.962
      -1.700
      -1.306
      -0.886
      -0.544
      -0.324
      -0.194
      -0.090
       0.019
       0.115
       0.176
       0.216
       0.271
       0.350
       0.410
       0.386
       0.242
       0.014
      -0.194
      -0.270
      -0.155
       0.118
       0.445
       0.703
       0.792
       0.658
       0.307
      -0.194
      -0.734
      -1.195
      -1.499
      -1.638
      -1.658
      -1.608
      -1.503
      -1.344
      -1.158
      -0.994
      -0.886
      -0.810
      -0.696
      -0.489
      -0.195
       0.119
       0.382
       0.574
       0.734
       0.923
       1.176
       1.472
       1.747
       1.933
       2.002
       1.981
       1.912
       1.817
       1.689
       1.500
       1.231
       0.890
       0.522
       0.173
      -0.135
      -0.416
      -0.692
      -0.956
      -1.157
      -1.222
      -1.094
      -0.770
      -0.318
       0.148
       0.516
       0.730
       0.822
       0.879
       0.967
       1.068
       1.086
       0.913
       0.507
      -0.066
      -0.650
      -1.084
      -1.295
      -1.334
      -1.328
      -1.384
      -1.515
      -1.636
      -1.634
      -1.449
      -1.107
      -0.703
      -0.353
      -0.145
      -0.104
      -0.176
      -0.238
      -0.163
       0.116
       0.570
       1.092
       1.546
       1.819
       1.850
       1.642
       1.251
       0.765
       0.276
      -0.144
      -0.459
      -0.670
      -0.793
      -0.841
      -0.814
      -0.709
      -0.544
      -0.362
      -0.202
      -0.075
       0.029
       0.116
       0.179
       0.222
       0.271
       0.367
       0.518
       0.674
       0.741
       0.637
       0.344
      -0.089
      -0.569
      -0.992
      -1.254
      -1.282
      -1.071
      -0.700
      -0.314
      -0.061
      -0.026
      -0.194
      -0.448
      -0.634
      -0.634
      -0.432
      -0.122
       0.143
       0.237
       0.142
      -0.041
      -0.162
      -0.128
       0.044
       0.258
       0.409
       0.452
       0.405
       0.315
       0.220
       0.141
       0.107
       0.160
       0.325
       0.579
       0.858
       1.103
       1.318
       1.576
       1.945
       2.398
       2.785
       2.913
       2.677
       2.135
       1.475
       0.888
       0.460
       0.138
      -0.204
      -0.674
      -1.321
      -2.127
      -3.017
      -3.861
      -4.488
      -4.742
      -4.538
      -3.904
      -2.968
      -1.901
      -0.856
       0.059
       0.774
       1.244
       1.448
       1.416
       1.241
       1.043
       0.887
       0.734
       0.497
       0.145
      -0.256
      -0.604
      -0.854
      -1.055
      -1.280
      -1.540
      -1.738
      -1.715
      -1.360
      -0.698
       0.113
       0.884
       1.505
       1.973
       2.338
       2.629
       2.828
       2.900
       2.842
       2.679
       2.452
       2.184
       1.880
       1.518
       1.060
       0.481
      -0.189
      -0.865
      -1.441
      -1.849
      -2.098
      -2.256
      -2.401
      -2.575
      -2.758
      -2.887
      -2.871
      -2.622
      -2.096
      -1.339
      -0.490
       0.275
       0.825
       1.102
       1.109
       0.881
       0.478
      -0.008
      -0.446
      -0.686
      -0.612
      -0.185
       0.535
       1.398
       2.219
       2.851
       3.245
       3.459
       3.606
       3.785
       4.009
       4.203
       4.269
       4.176
       3.991
       3.816
       3.673
       3.462
       3.028
       2.278
       1.250
       0.087
      -1.055
      -2.074
      -2.925
      -3.596
      -4.078
      -4.364
      -4.459
      -4.377
      -4.136
      -3.739
      -3.187
      -2.504
      -1.775
      -1.146
      -0.779
      -0.779
      -1.140
      -1.747
      -2.437
      -3.081
      -3.610
      -3.997
      -4.214
      -4.220
      -3.971
      -3.462
      -2.757
      -1.991
      -1.318
      -0.840
      -0.549
      -0.346
      -0.110
       0.223
       0.627
       1.021
       1.351
       1.644
       1.995
       2.483
       3.082
       3.625
       3.884
       3.703
       3.098
       2.244
       1.347
       0.521
      -0.230
      -0.944
      -1.606
      -2.124
      -2.380
      -2.315
      -1.962
      -1.425
      -0.812
      -0.205
       0.356
       0.853
       1.291
       1.676
       2.023
       2.358
       2.727
       3.168
       3.677
       4.187
       4.591
       4.780
       4.702
       4.384
       3.914
       3.382
       2.855
       2.396
       2.108
       2.122
       2.506
       3.175
       3.904
       4.460
       4.751
       4.854
       4.916
       5.003
       5.052
       4.939
       4.589
       4.003
       3.208
       2.192
       0.928
      -0.558
      -2.151
      -3.708
      -5.128
      -6.393
      -7.526
      -8.548
      -9.457
     -10.236
     -10.857
     -11.249
     -11.289
     -10.842
      -9.852
      -8.398
      -6.671
      -4.884
      -3.174
      -1.572
      -0.041
       1.433
       2.766
       3.768
       4.216
       3.978
       3.104
       1.815
       0.400
      -0.914
      -2.019
      -2.911
      -3.647
      -4.335
      -5.110
      -6.045
      -7.038
      -7.796
      -7.966
      -7.363
      -6.097
      -4.484
      -2.831
      -1.279
       0.174
       1.531
       2.704
       3.541
       3.952
       3.991
       3.839
       3.685
       3.618
       3.614
       3.592
       3.488
       3.279
       2.983
       2.624
       2.208
       1.723
       1.171
       0.607
       0.128
      -0.179
      -0.296
      -0.275
      -0.169
       0.028
       0.386
       0.977
       1.782
       2.671
       3.462
       4.014
       4.273
       4.266
       4.076
       3.823
       3.639
       3.627
       3.817
       4.144
       4.466
       4.628
       4.535
       4.177
       3.609
       2.917
       2.206
       1.604
       1.222
       1.092
       1.124
       1.140
       0.984
       0.610
       0.100
      -0.412
      -0.831
      -1.151
      -1.429
      -1.725
      -2.047
      -2.320
      -2.405
      -2.147
      -1.462
      -0.392
       0.889
       2.163
       3.275
       4.159
       4.790
       5.107
       5.018
       4.471
       3.527
       2.334
       1.027
      -0.342
      -1.773
      -3.240
      -4.656
      -5.902
      -6.893
      -7.594
      -7.989
      -8.058
      -7.785
      -7.199
      -6.393
      -5.484
      -4.561
      -3.675
      -2.885
      -2.263
      -1.849
      -1.588
      -1.333
      -0.925
      -0.300
       0.463
       1.187
       1.695
       1.889
       1.771
       1.411
       0.915
       0.407
       0.005
      -0.212
      -0.231
      -0.105
       0.080
       0.239
       0.323
       0.338
       0.362
       0.530
       0.964
       1.684
       2.580
       3.460
       4.158
       4.611
       4.858
       4.967
       4.975
       4.880
       4.674
       4.381
       4.034
       3.634
       3.123
       2.422
       1.495
       0.390
      -0.787
      -1.940
      -3.023
      -4.046
      -5.018
      -5.929
      -6.741
      -7.407
      -7.860
      -8.004
      -7.738
      -7.007
      -5.840
      -4.350
      -2.693
      -1.020
       0.549
       1.929
       3.067
       3.929
       4.490
       4.744
       4.711
       4.453
       4.038
       3.504
       2.836
       1.988
       0.932
      -0.285
      -1.536
      -2.647
      -3.456
      -3.851
      -3.782
      -3.272
      -2.420
      -1.385
      -0.334
       0.598
       1.333
       1.834
       2.097
       2.143
       2.022
       1.799
       1.515
       1.163
       0.719
       0.202
      -0.302
      -0.694
      -0.929
      -1.039
      -1.075
      -1.050
      -0.936
      -0.718
      -0.442
      -0.178
       0.055
       0.317
       0.707
       1.270
       1.944
       2.588
       3.034
       3.165
       2.973
       2.586
       2.217
       2.040
       2.076
       2.178
       2.135
       1.808
       1.203
       0.431
      -0.383
      -1.173
      -1.936
      -2.689
      -3.428
      -4.107
      -4.646
      -4.956
      -4.982
      -4.717
      -4.206
      -3.510
      -2.683
      -1.755
      -0.747
       0.288
       1.236
       1.939
       2.272
       2.219
       1.901
       1.511
       1.194
       0.972
       0.752
       0.426
      -0.018
      -0.465
      -0.743
      -0.737
      -0.453
       0.012
       0.552
       1.109
       1.668
       2.203
       2.652
       2.936
       3.018
       2.947
       2.832
       2.767
       2.752
       2.689
       2.435
       1.891
       1.050
      -0.010
      -1.181
      -2.375
      -3.537
      -4.612
      -5.521
      -6.150
      -6.381
      -6.134
      -5.421
      -4.350
      -3.085
      -1.786
      -0.556
       0.569
       1.597
       2.543
       3.408
       4.181
       4.858
       5.434
       5.880
       6.118
       6.041
       5.569
       4.717
       3.609
       2.436
       1.381
       0.566
       0.040
      -0.220
      -0.290
      -0.275
      -0.286
      -0.413
      -0.694
      -1.106
      -1.567
      -1.982
      -2.283
      -2.459
      -2.550
      -2.624
      -2.724
      -2.827
      -2.850
      -2.704
      -2.364
      -1.898
      -1.434
      -1.101
      -0.963
      -0.997
      -1.094
      -1.108
      -0.916
      -0.483
       0.105
       0.673
       1.035
       1.086
       0.866
       0.557
       0.388
       0.503
       0.871
       1.316
       1.641
       1.745
       1.649
       1.453
       1.275
       1.194
       1.220
       1.286
       1.280
       1.102
       0.722
       0.189
      -0.417
      -1.024
      -1.580
      -2.027
      -2.312
      -2.427
      -2.442
      -2.486
      -2.656
      -2.941
      -3.219
      -3.342
      -3.241
      -2.962
      -2.622
      -2.357
      -2.267
      -2.388
      -2.669
      -2.986
      -3.186
      -3.152
      -2.857
      -2.359
      -1.745
      -1.073
      -0.355
       0.409
       1.195
       1.958
       2.647
       3.227
       3.673
       3.961
       4.077
       4.025
       3.846
       3.614
       3.417
       3.323
       3.355
       3.469
       3.576
       3.579
       3.417
       3.089
       2.646
       2.173
       1.762
       1.478
       1.341
       1.326
       1.360
       1.353
       1.257
       1.096
       0.940
       0.836
       0.768
       0.685
       0.545
       0.336
       0.054
      -0.321
      -0.809
      -1.382
      -1.950
      -2.390
      -2.628
      -2.683
      -2.645
      -2.601
      -2.582
