Origin Time       04/04/2011 11:31:40 UTC
Lat.              29.6 N	
Long.             80.8 E	
Depth (Km)         10.0
Magnitude         5.7
 Region           NEPAL-INDIA-BORDER-REGION                                        
 Above details taken from IMD 
    
Station Code      BAG
Station Lat.       29.831  N
Station Long.      79.770  E
Station Height(m)  972.0
Site Class        A   Vs30 between 700 m/sec to 1400 m/sec * 
Record Time       04.04.2011 11:31:42.214 UTC
Sampling Rate     200. Hz
 Record Duration   92.220 Sec.
 Direction         N-S (N positive)
Max. Acceleration      9.857 cm/sec**2
     
  * For reference see Site Classification link of website 
     
 Base Line Corrected and Low Pass Filtered (Cut Off at 35 Hz) Time History
 Acceleration data in cm/sec**2
    
[...]
      -2.767
      -2.664
      -2.553
      -2.372
      -2.094
      -1.737
      -1.372
      -1.099
      -1.005
      -1.120
      -1.400
      -1.748
      -2.072
      -2.336
      -2.571
      -2.848
      -3.224
      -3.691
      -4.180
      -4.592
      -4.863
      -4.985
      -4.995
      -4.930
      -4.792
      -4.555
      -4.199
      -3.743
      -3.234
      -2.711
      -2.162
      -1.542
      -0.826
      -0.070
       0.613
       1.126
       1.456
       1.680
       1.895
       2.150
       2.432
       2.698
       2.916
       3.074
       3.168
       3.204
       3.201
       3.206
       3.267
       3.402
       3.588
       3.768
       3.893
       3.945
       3.952
       3.977
       4.076
       4.262
       4.488
       4.675
       4.746
       4.669
       4.460
       4.170
       3.856
       3.558
       3.298
       3.074
       2.870
       2.654
       2.390
       2.058
       1.669
       1.256
       0.860
       0.523
       0.284
       0.174
       0.196
       0.312
       0.442
       0.502
       0.442
       0.273
       0.042
      -0.195
      -0.403
      -0.576
      -0.719
      -0.840
      -0.944
      -1.032
      -1.106
      -1.172
      -1.248
      -1.358
      -1.531
      -1.782
      -2.114
      -2.514
      -2.949
      -3.364
      -3.699
      -3.916
      -4.028
      -4.086
      -4.143
      -4.207
      -4.235
      -4.163
      -3.961
      -3.654
      -3.308
      -2.992
      -2.749
      -2.591
      -2.519
      -2.536
      -2.650
      -2.855
      -3.126
      -3.417
      -3.677
      -3.852
      -3.896
      -3.783
      -3.516
      -3.128
      -2.669
      -2.187
      -1.728
      -1.333
      -1.026
      -0.791
      -0.568
      -0.268
       0.182
       0.800
       1.540
       2.307
       2.998
       3.535
       3.891
       4.097
       4.222
       4.346
       4.523
       4.762
       5.030
       5.284
       5.488
       5.630
       5.712
       5.734
       5.690
       5.575
       5.399
       5.177
       4.926
       4.640
       4.294
       3.867
       3.363
       2.818
       2.281
       1.792
       1.376
       1.051
       0.840
       0.760
       0.808
       0.950
       1.133
       1.304
       1.434
       1.514
       1.549
       1.545
       1.515
       1.474
       1.441
       1.424
       1.414
       1.382
       1.281
       1.055
       0.657
       0.078
      -0.628
      -1.357
      -2.000
      -2.505
      -2.886
      -3.200
      -3.494
      -3.774
      -4.005
      -4.135
      -4.117
      -3.928
      -3.569
      -3.069
      -2.473
      -1.830
      -1.168
      -0.490
       0.202
       0.893
       1.536
       2.077
       2.472
       2.705
       2.782
       2.721
       2.547
       2.302
       2.050
       1.863
       1.783
       1.790
       1.807
       1.737
       1.516
       1.146
       0.680
       0.174
      -0.347
      -0.880
      -1.424
      -1.959
      -2.456
      -2.903
      -3.335
      -3.821
      -4.429
      -5.170
      -5.980
      -6.745
      -7.351
      -7.733
      -7.892
      -7.885
      -7.788
      -7.652
      -7.488
      -7.276
      -6.994
      -6.632
      -6.189
      -5.673
      -5.108
      -4.532
      -3.995
      -3.528
      -3.120
      -2.727
      -2.295
      -1.797
      -1.231
      -0.605
       0.090
       0.876
       1.759
       2.715
       3.698
       4.662
       5.581
       6.436
       7.201
       7.839
       8.312
       8.609
       8.738
       8.715
       8.549
       8.253
       7.859
       7.408
       6.917
       6.363
       5.695
       4.871
       3.903
       2.854
       1.818
       0.871
       0.047
      -0.662
      -1.291
      -1.869
      -2.412
      -2.908
      -3.325
      -3.620
      -3.746
      -3.662
      -3.348
      -2.827
      -2.174
      -1.499
      -0.899
      -0.433
      -0.112
       0.077
       0.158
       0.165
       0.144
       0.137
       0.167
       0.219
       0.254
       0.234
       0.150
       0.027
      -0.089
      -0.148
      -0.116
       0.005
       0.170
       0.314
       0.383
       0.362
       0.271
       0.137
      -0.024
      -0.218
      -0.448
      -0.709
      -0.990
      -1.283
      -1.569
      -1.810
      -1.951
      -1.951
      -1.814
      -1.597
      -1.382
      -1.229
      -1.153
      -1.126
      -1.102
      -1.031
      -0.876
      -0.618
      -0.261
       0.168
       0.635
       1.097
       1.503
       1.800
       1.957
       1.994
       1.994
       2.050
       2.208
       2.435
       2.659
       2.840
       3.007
       3.219
       3.502
       3.809
       4.049
       4.144
       4.064
       3.824
       3.465
       3.040
       2.616
       2.266
       2.041
       1.932
       1.874
       1.772
       1.565
       1.248
       0.859
       0.445
       0.026
      -0.406
      -0.862
      -1.335
      -1.791
      -2.186
      -2.493
      -2.719
      -2.897
      -3.069
      -3.262
      -3.491
      -3.754
      -4.017
      -4.213
      -4.249
      -4.062
      -3.663
      -3.129
      -2.555
      -1.998
      -1.467
      -0.968
      -0.527
      -0.177
       0.088
       0.327
       0.618
       1.013
       1.513
       2.093
       2.727
       3.386
       4.011
       4.484
       4.662
       4.458
       3.902
       3.141
       2.361
       1.692
       1.187
       0.844
       0.638
       0.518
       0.390
       0.128
      -0.375
      -1.150
      -2.133
      -3.190
      -4.171
      -4.944
      -5.429
      -5.601
      -5.489
      -5.171
      -4.739
      -4.280
      -3.865
      -3.542
      -3.340
      -3.266
      -3.304
      -3.427
      -3.607
      -3.818
      -4.029
      -4.212
      -4.343
      -4.399
      -4.356
      -4.196
      -3.913
      -3.539
      -3.134
      -2.752
      -2.394
      -1.980
      -1.380
      -0.466
       0.812
       2.388
       4.078
       5.640
       6.855
       7.596
       7.871
       7.803
       7.569
       7.335
       7.205
       7.208
       7.305
       7.413
       7.435
       7.274
       6.854
       6.138
       5.140
       3.929
       2.614
       1.320
       0.159
      -0.799
      -1.537
      -2.074
      -2.436
      -2.645
      -2.719
      -2.682
      -2.558
      -2.359
      -2.086
      -1.741
      -1.340
      -0.906
      -0.454
       0.019
       0.511
       0.991
       1.400
       1.676
       1.789
       1.740
       1.547
       1.220
       0.758
       0.156
      -0.574
      -1.385
      -2.196
      -2.915
      -3.483
      -3.898
      -4.207
      -4.472
      -4.725
      -4.953
      -5.112
      -5.160
      -5.080
      -4.895
      -4.657
      -4.414
      -4.183
      -3.933
      -3.613
      -3.196
      -2.702
      -2.185
      -1.702
      -1.280
      -0.914
      -0.579
      -0.249
       0.099
       0.486
       0.933
       1.445
       2.000
       2.550
       3.043
       3.452
       3.780
       4.048
       4.280
       4.491
       4.685
       4.841
       4.904
       4.796
       4.444
       3.826
       2.996
       2.078
       1.216
       0.523
       0.039
      -0.261
      -0.442
      -0.571
      -0.701
      -0.855
      -1.039
      -1.244
      -1.465
      -1.703
      -1.962
      -2.243
      -2.527
      -2.768
      -2.897
      -2.840
      -2.542
      -1.983
      -1.199
      -0.280
       0.661
       1.523
       2.257
       2.862
       3.349
       3.697
       3.832
       3.661
       3.132
       2.288
       1.283
       0.330
      -0.369
      -0.693
      -0.632
      -0.283
       0.196
       0.634
       0.898
       0.918
       0.701
       0.316
      -0.138
      -0.571
      -0.933
      -1.216
      -1.433
      -1.591
      -1.671
      -1.624
      -1.403
      -0.994
      -0.443
       0.154
       0.695
       1.127
       1.460
       1.742
       2.013
       2.266
       2.455
       2.522
       2.440
       2.231
       1.967
       1.729
       1.571
       1.489
       1.420
       1.268
       0.937
       0.354
      -0.511
      -1.628
      -2.904
      -4.200
      -5.356
      -6.222
      -6.683
      -6.691
      -6.283
      -5.564
      -4.661
      -3.669
      -2.637
      -1.594
      -0.581
       0.340
       1.114
       1.725
       2.202
       2.600
       2.985
       3.416
       3.946
       4.592
       5.303
       5.948
       6.345
       6.335
       5.850
       4.951
       3.807
       2.635
       1.621
       0.878
       0.434
       0.245
       0.237
       0.331
       0.458
       0.550
       0.531
       0.335
      -0.061
      -0.615
      -1.230
      -1.810
      -2.302
      -2.707
      -3.045
      -3.311
      -3.452
      -3.383
      -3.050
      -2.479
      -1.790
      -1.151
      -0.698
      -0.489
      -0.517
      -0.744
      -1.138
      -1.660
      -2.253
      -2.841
      -3.357
      -3.767
      -4.081
      -4.332
      -4.552
      -4.740
      -4.854
      -4.836
      -4.657
      -4.345
      -3.976
      -3.630
      -3.329
      -3.027
      -2.637
      -2.086
      -1.351
      -0.468
       0.496
       1.462
       2.362
       3.141
       3.767
       4.227
       4.529
       4.691
       4.733
       4.669
       4.508
       4.270
       3.992
       3.727
       3.522
       3.398
       3.345
       3.327
       3.301
       3.230
       3.098
       2.913
       2.721
       2.587
       2.581
       2.734
       3.020
       3.355
       3.630
       3.748
       3.653
       3.323
       2.764
       2.006
       1.116
       0.205
      -0.594
      -1.176
      -1.500
      -1.600
      -1.552
      -1.439
      -1.334
      -1.305
      -1.425
      -1.755
      -2.305
      -3.006
      -3.718
      -4.278
      -4.570
      -4.554
      -4.259
      -3.731
      -3.004
      -2.089
      -1.015
       0.137
       1.215
       2.034
       2.441
       2.381
       1.943
       1.331
       0.791
       0.503
       0.517
       0.776
       1.198
       1.741
       2.389
       3.089
       3.701
       4.015
       3.846
       3.127
       1.954
       0.545
      -0.858
      -2.079
      -3.055
      -3.804
      -4.371
      -4.777
      -5.020
      -5.118
      -5.146
      -5.226
      -5.466
      -5.893
      -6.427
      -6.903
      -7.141
      -7.015
      -6.509
      -5.718
      -4.812
      -3.969
      -3.304
      -2.845
      -2.544
      -2.322
      -2.097
      -1.810
      -1.445
      -1.030
      -0.620
      -0.249
       0.101
       0.494
       0.987
       1.583
       2.219
       2.812
       3.321
       3.783
       4.281
       4.861
       5.468
       5.937
       6.070
       5.759
       5.074
       4.239
       3.507
       3.014
       2.711
       2.433
       2.025
       1.444
       0.752
       0.048
      -0.608
      -1.223
      -1.840
      -2.491
      -3.163
      -3.803
      -4.350
      -4.758
      -5.002
      -5.044
      -4.822
      -4.276
      -3.395
      -2.246
      -0.956
       0.348
       1.591
       2.756
       3.853
       4.874
       5.782
       6.537
       7.133
       7.615
       8.047
       8.470
       8.867
       9.171
       9.300
       9.197
       8.859
       8.328
       7.661
       6.890
       5.996
       4.939
       3.711
       2.383
       1.095
       0.001
      -0.801
      -1.319
      -1.653
      -1.945
      -2.313
      -2.804
      -3.384
      -3.970
      -4.478
      -4.869
      -5.153
      -5.363
      -5.535
      -5.693
      -5.855
      -6.027
      -6.194
      -6.314
      -6.330
      -6.202
      -5.936
      -5.596
      -5.284
      -5.103
      -5.112
      -5.305
      -5.619
      -5.960
      -6.232
      -6.341
      -6.206
      -5.767
      -5.023
      -4.040
      -2.931
      -1.800
      -0.692
       0.403
       1.508
       2.609
       3.640
       4.527
       5.238
       5.811
       6.332
       6.875
       7.457
       8.024
       8.468
       8.666
       8.517
       7.982
       7.111
       6.018
       4.823
       3.587
       2.290
       0.873
      -0.681
      -2.306
      -3.883
      -5.293
      -6.461
      -7.340
      -7.890
      -8.074
      -7.887
      -7.385
      -6.669
      -5.828
      -4.896
      -3.862
      -2.714
      -1.490
      -0.283
       0.785
       1.613
       2.167
       2.483
       2.659
       2.814
       3.062
       3.474
       4.067
       4.787
       5.526
       6.152
       6.546
       6.641
       6.430
       5.968
       5.366
       4.769
       4.293
       3.964
       3.682
       3.289
       2.676
       1.870
       1.014
       0.272
      -0.267
      -0.604
      -0.789
      -0.875
      -0.908
      -0.947
      -1.079
      -1.404
      -1.992
      -2.853
      -3.925
      -5.079
      -6.157
      -6.999
      -7.487
      -7.568
      -7.252
      -6.603
      -5.725
      -4.764
      -3.890
      -3.264
      -2.977
      -3.018
      -3.292
      -3.663
      -3.991
      -4.145
      -4.011
      -3.514
      -2.641
      -1.459
      -0.103
       1.258
       2.486
       3.523
       4.396
       5.181
       5.944
       6.704
       7.435
       8.094
       8.647
       9.074
       9.366
       9.538
       9.634
       9.707
       9.783
       9.846
       9.857
       9.804
       9.719
       9.666
       9.688
       9.744
       9.684
       9.298
       8.408
       6.964
       5.070
       2.922
       0.718
      -1.396
      -3.325
      -5.001
      -6.380
      -7.450
      -8.232
      -8.752
      -9.021
      -9.033
      -8.803
      -8.392
      -7.907
      -7.478
      -7.223
      -7.230
      -7.521
      -8.033
      -8.624
      -9.119
      -9.377
      -9.340
      -9.040
      -8.565
      -8.008
      -7.426
      -6.829
      -6.199
      -5.517
      -4.800
      -4.094
      -3.453
      -2.898
      -2.399
      -1.890
      -1.297
      -0.577
       0.253
       1.102
       1.818
       2.246
       2.283
       1.920
       1.236
       0.350
      -0.625
      -1.603
      -2.506
      -3.230
      -3.643
      -3.626
      -3.144
      -2.274
      -1.163
       0.036
       1.190
       2.172
       2.853
       3.129
       3.005
       2.627
       2.238
       2.058
       2.181
       2.564
       3.091
       3.656
       4.204
       4.715
       5.168
       5.532
       5.769
       5.855
       5.777
       5.529
       5.111
       4.536
       3.837
       3.057
       2.254
       1.492
       0.840
       0.355
       0.071
       0.005
       0.181
       0.630
       1.362
       2.318
       3.344
       4.213
       4.689
       4.615
       3.961
       2.836
       1.438
      -0.029
      -1.409
      -2.600
      -3.534
      -4.159
      -4.459
      -4.478
      -4.318
      -4.085
      -3.832
      -3.547
      -3.188
      -2.731
      -2.191
      -1.610
      -1.044
      -0.558
      -0.218
      -0.044
       0.035
       0.174
       0.545
       1.226
       2.128
       3.020
       3.629
       3.785
       3.509
       2.994
       2.501
       2.206
       2.119
       2.100
       1.967
       1.619
       1.095
       0.542
       0.105
      -0.162
      -0.317
      -0.491
      -0.809
      -1.327
      -2.002
      -2.722
      -3.364
      -3.851
      -4.165
      -4.330
      -4.385
      -4.357
      -4.253
      -4.056
      -3.750
      -3.343
      -2.882
      -2.430
      -2.032
      -1.688
      -1.360
      -0.984
      -0.501
       0.129
       0.898
       1.734
       2.497
       3.034
       3.247
       3.153
       2.873
       2.559
       2.322
       2.196
       2.158
       2.159
       2.142
       2.043
       1.792
       1.353
       0.752
       0.076
      -0.568
      -1.110
      -1.541
      -1.871
      -2.073
      -2.067
      -1.777
      -1.202
      -0.439
       0.370
       1.104
       1.687
       2.063
       2.171
       1.954
       1.411
       0.626
      -0.254
      -1.070
      -1.694
      -2.058
      -2.152
      -2.034
      -1.816
      -1.628
      -1.559
      -1.616
      -1.727
      -1.805
      -1.812
      -1.779
      -1.744
      -1.676
      -1.460
      -0.969
      -0.167
       0.843
       1.861
       2.681
       3.166
       3.288
       3.143
       2.914
       2.790
       2.854
       3.019
       3.090
       2.907
       2.446
       1.816
       1.170
       0.619
       0.214
      -0.046
      -0.198
      -0.292
      -0.387
      -0.539
      -0.784
      -1.105
      -1.417
      -1.602
      -1.592
      -1.430
      -1.230
      -1.077
      -0.948
      -0.731
      -0.328
       0.250
       0.876
       1.408
       1.798
       2.115
       2.475
       2.938
       3.460
       3.936
       4.279
       4.473
       4.556
       4.552
       4.422
       4.059
       3.356
       2.284
       0.935
      -0.514
      -1.894
      -3.133
      -4.253
      -5.292
      -6.215
      -6.901
      -7.213
      -7.095
      -6.618
      -5.948
      -5.251
      -4.623
      -4.071
      -3.558
      -3.050
      -2.523
      -1.946
      -1.272
      -0.469
       0.436
       1.348
       2.130
       2.653
       2.851
       2.731
       2.366
       1.858
       1.321
       0.871
       0.605
       0.571
       0.737
       1.005
       1.257
       1.425
       1.513
       1.582
       1.695
       1.874
       2.083
       2.258
       2.344
       2.316
       2.177
       1.934
       1.593
       1.166
       0.701
       0.297
       0.060
       0.044
       0.214
       0.483
       0.768
       1.032
       1.278
       1.503
       1.668
       1.692
       1.497
       1.058
       0.439
      -0.234
      -0.820
      -1.221
      -1.405
      -1.401
      -1.270
      -1.086
      -0.933
      -0.904
      -1.067
      -1.430
      -1.920
      -2.406
      -2.766
      -2.953
      -3.015
      -3.058
      -3.176
      -3.404
      -3.711
      -4.021
      -4.241
      -4.290
      -4.127
      -3.780
      -3.345
      -2.934
      -2.584
      -2.232
      -1.749
      -1.043
      -0.128
       0.879
       1.820
       2.564
       3.041
       3.248
       3.237
       3.098
       2.930
       2.809
       2.772
       2.817
       2.919
       3.043
       3.147
       3.188
       3.135
       2.989
       2.787
       2.589
       2.446
       2.369
       2.307
       2.163
       1.833
       1.270
       0.512
      -0.330
      -1.129
      -1.802
      -2.344
      -2.797
      -3.202
      -3.555
      -3.804
      -3.875
      -3.722
      -3.354
      -2.832
      -2.251
      -1.705
      -1.269
      -0.981
      -0.837
      -0.797
      -0.807
      -0.827
      -0.850
      -0.888
      -0.931
      -0.926
      -0.793
      -0.482
      -0.024
       0.479
       0.916
       1.215
       1.358
       1.351
       1.214
       0.991
       0.756
       0.575
       0.464
       0.379
       0.272
       0.153
       0.105
       0.233
       0.586
       1.111
       1.662
       2.069
       2.216
