Origin Time       22/02/2010 17:23:43
Lat.              30.0 N	
Long.             80.1 E	
Depth (Km)          2.0
Magnitude         4.7
 Region           BAGESHWER-UTTARAKHAND                                            
 Above details taken from IMD 
   
Station Code      BAG
Station Lat.       29.831
Station Long.      79.770
Station Height(m)  972.0
Site Class        A   Vs30 between 700 m/sec to 1400 m/sec * 
Record Time       22.02.2010 17:18:12.759
Sampling Rate     200. Hz
 Record Duration   82.165 Sec.
 Direction         Vert. (Up positive)
Max. Acceleration      5.806 cm/sec**2
     
  * For reference see Site Classification link of website 
     
 Base Line Corrected and Low Pass Filtered (Cut Off at 35 Hz) Time History
 Acceleration data in cm/sec**2
    
[...]
       0.130
       0.111
       0.019
      -0.133
      -0.284
      -0.350
      -0.292
      -0.150
      -0.022
       0.020
      -0.021
      -0.082
      -0.119
      -0.144
      -0.197
      -0.287
      -0.375
      -0.431
      -0.468
      -0.526
      -0.592
      -0.583
      -0.424
      -0.145
       0.098
       0.141
      -0.051
      -0.360
      -0.614
      -0.710
      -0.638
      -0.442
      -0.187
       0.021
       0.052
      -0.160
      -0.512
      -0.749
      -0.660
      -0.265
       0.176
       0.387
       0.303
       0.085
      -0.066
      -0.076
      -0.002
       0.094
       0.215
       0.376
       0.518
       0.527
       0.352
       0.086
      -0.089
      -0.056
       0.144
       0.383
       0.567
       0.688
       0.761
       0.759
       0.644
       0.417
       0.129
      -0.167
      -0.411
      -0.487
      -0.240
       0.353
       1.030
       1.337
       1.007
       0.268
      -0.267
      -0.115
       0.624
       1.347
       1.480
       0.959
       0.189
      -0.396
      -0.667
      -0.704
      -0.511
       0.023
       0.859
       1.623
       1.806
       1.197
       0.089
      -0.961
      -1.548
      -1.611
      -1.289
      -0.714
      -0.010
       0.595
       0.820
       0.557
       0.024
      -0.395
      -0.489
      -0.382
      -0.345
      -0.477
      -0.625
      -0.613
      -0.483
      -0.424
      -0.496
      -0.503
      -0.236
       0.212
       0.453
       0.171
      -0.540
      -1.224
      -1.439
      -1.106
      -0.528
      -0.124
      -0.112
      -0.403
      -0.704
      -0.740
      -0.435
       0.048
       0.412
       0.452
       0.205
      -0.113
      -0.368
      -0.643
      -1.068
      -1.493
      -1.456
      -0.613
       0.760
       1.801
       1.773
       0.786
      -0.248
      -0.457
       0.199
       0.979
       1.157
       0.679
       0.050
      -0.305
      -0.414
      -0.496
      -0.488
      -0.033
       0.996
       2.119
       2.571
       2.032
       0.966
       0.177
       0.071
       0.399
       0.662
       0.648
       0.535
       0.542
       0.618
       0.527
       0.177
      -0.242
      -0.468
      -0.451
      -0.358
      -0.322
      -0.295
      -0.171
       0.038
       0.206
       0.234
       0.129
      -0.072
      -0.343
      -0.623
      -0.766
      -0.651
      -0.373
      -0.258
      -0.559
      -1.106
      -1.346
      -0.858
       0.139
       0.896
       0.822
       0.048
      -0.752
      -1.101
      -1.172
      -1.451
      -2.005
      -2.257
      -1.571
      -0.041
       1.429
       1.878
       1.157
       0.025
      -0.596
      -0.442
      -0.006
       0.094
      -0.243
      -0.595
      -0.527
      -0.036
       0.501
       0.717
       0.581
       0.356
       0.305
       0.447
       0.596
       0.585
       0.442
       0.357
       0.485
       0.781
       1.020
       1.002
       0.748
       0.490
       0.432
       0.508
       0.432
       0.020
      -0.533
      -0.767
      -0.420
       0.232
       0.588
       0.327
      -0.230
      -0.423
       0.058
       0.823
       1.175
       0.814
       0.100
      -0.378
      -0.424
      -0.351
      -0.496
      -0.762
      -0.731
      -0.206
       0.482
       0.782
       0.500
      -0.021
      -0.299
      -0.204
      -0.018
      -0.044
      -0.275
      -0.467
      -0.467
      -0.371
      -0.359
      -0.461
      -0.542
      -0.498
      -0.378
      -0.297
      -0.267
      -0.195
      -0.038
       0.089
       0.030
      -0.231
      -0.535
      -0.726
      -0.790
      -0.788
      -0.717
      -0.514
      -0.212
       0.017
       0.037
      -0.056
       0.006
       0.364
       0.833
       1.040
       0.780
       0.220
      -0.247
      -0.356
      -0.164
       0.089
       0.241
       0.335
       0.502
       0.776
       1.033
       1.091
       0.867
       0.456
       0.054
      -0.188
      -0.263
      -0.262
      -0.236
      -0.131
       0.134
       0.490
       0.669
       0.380
      -0.380
      -1.218
      -1.611
      -1.342
      -0.670
      -0.066
       0.211
       0.271
       0.345
       0.448
       0.358
      -0.068
      -0.601
      -0.777
      -0.352
       0.397
       0.895
       0.812
       0.376
       0.108
       0.277
       0.637
       0.710
       0.290
      -0.356
      -0.771
      -0.739
      -0.432
      -0.171
      -0.090
      -0.077
       0.044
       0.298
       0.543
       0.624
       0.508
       0.295
       0.097
      -0.075
      -0.303
      -0.616
      -0.885
      -0.907
      -0.588
      -0.064
       0.404
       0.633
       0.645
       0.588
       0.543
       0.416
       0.045
      -0.565
      -1.142
      -1.314
      -0.913
      -0.132
       0.613
       0.979
       0.892
       0.507
       0.024
      -0.440
      -0.826
      -1.027
      -0.890
      -0.361
       0.357
       0.863
       0.836
       0.335
      -0.220
      -0.383
      -0.067
       0.405
       0.623
       0.451
       0.069
      -0.284
      -0.546
      -0.787
      -0.989
      -0.954
      -0.500
       0.292
       1.058
       1.428
       1.321
       0.965
       0.646
       0.466
       0.346
       0.195
       0.029
      -0.093
      -0.177
      -0.280
      -0.396
      -0.418
      -0.278
      -0.090
      -0.083
      -0.357
      -0.734
      -0.921
      -0.814
      -0.589
      -0.459
      -0.396
      -0.180
       0.270
       0.705
       0.757
       0.354
      -0.163
      -0.364
      -0.168
       0.104
       0.121
      -0.073
      -0.135
       0.111
       0.392
       0.255
      -0.395
      -1.108
      -1.292
      -0.784
       0.005
       0.506
       0.502
       0.245
       0.135
       0.339
       0.700
       0.957
       0.979
       0.787
       0.435
      -0.041
      -0.537
      -0.838
      -0.751
      -0.298
       0.241
       0.519
       0.375
      -0.067
      -0.505
      -0.693
      -0.581
      -0.292
       0.008
       0.214
       0.289
       0.229
       0.045
      -0.202
      -0.377
      -0.308
       0.110
       0.788
       1.422
       1.638
       1.230
       0.325
      -0.654
      -1.232
      -1.175
      -0.627
       0.039
       0.516
       0.737
       0.793
       0.729
       0.499
       0.112
      -0.241
      -0.304
      -0.021
       0.357
       0.487
       0.279
      -0.001
      -0.001
       0.340
       0.721
       0.787
       0.488
       0.117
      -0.008
       0.151
       0.356
       0.355
       0.101
      -0.251
      -0.516
      -0.620
      -0.586
      -0.443
      -0.201
       0.089
       0.297
       0.282
       0.001
      -0.448
      -0.875
      -1.085
      -0.960
      -0.508
       0.127
       0.711
       1.013
       0.910
       0.463
      -0.109
      -0.549
      -0.725
      -0.706
      -0.685
      -0.807
      -1.051
      -1.240
      -1.195
      -0.863
      -0.342
       0.199
       0.605
       0.760
       0.588
       0.110
      -0.497
      -0.941
      -1.007
      -0.727
      -0.362
      -0.166
      -0.169
      -0.200
      -0.105
       0.071
       0.143
      -0.005
      -0.292
      -0.527
      -0.579
      -0.456
      -0.236
       0.032
       0.353
       0.725
       1.086
       1.346
       1.441
       1.364
       1.132
       0.764
       0.312
      -0.107
      -0.353
      -0.351
      -0.163
       0.055
       0.161
       0.122
       0.007
      -0.099
      -0.184
      -0.309
      -0.526
      -0.777
      -0.893
      -0.714
      -0.232
       0.364
       0.807
       0.918
       0.720
       0.394
       0.141
       0.061
       0.157
       0.405
       0.780
       1.191
       1.438
       1.287
       0.679
      -0.146
      -0.745
      -0.785
      -0.312
       0.254
       0.426
       0.026
      -0.680
      -1.179
      -1.102
      -0.485
       0.284
       0.788
       0.860
       0.619
       0.273
      -0.062
      -0.356
      -0.543
      -0.489
      -0.126
       0.389
       0.712
       0.561
      -0.036
      -0.738
      -1.156
      -1.140
      -0.833
      -0.476
      -0.210
      -0.060
      -0.046
      -0.225
      -0.608
      -1.055
      -1.312
      -1.175
      -0.640
       0.080
       0.691
       1.004
       1.025
       0.898
       0.764
       0.665
       0.571
       0.479
       0.459
       0.575
       0.771
       0.867
       0.709
       0.342
       0.009
      -0.066
       0.092
       0.228
       0.122
      -0.173
      -0.398
      -0.388
      -0.257
      -0.267
      -0.522
      -0.843
      -0.966
      -0.829
      -0.608
      -0.457
      -0.291
       0.093
       0.687
       1.157
       1.129
       0.579
      -0.112
      -0.495
      -0.443
      -0.205
      -0.120
      -0.316
      -0.668
      -0.975
      -1.122
      -1.077
      -0.821
      -0.355
       0.203
       0.607
       0.616
       0.170
      -0.542
      -1.199
      -1.523
      -1.400
      -0.894
      -0.194
       0.449
       0.795
       0.733
       0.358
      -0.056
      -0.226
      -0.058
       0.299
       0.567
       0.541
       0.226
      -0.173
      -0.395
      -0.297
       0.058
       0.454
       0.675
       0.651
       0.491
       0.389
       0.463
       0.675
       0.878
       0.965
       0.943
       0.888
       0.836
       0.769
       0.699
       0.708
       0.852
       1.032
       1.008
       0.621
      -0.016
      -0.557
      -0.705
      -0.462
      -0.115
       0.036
      -0.072
      -0.284
      -0.438
      -0.500
      -0.500
      -0.408
      -0.182
       0.076
       0.095
      -0.328
      -1.051
      -1.618
      -1.628
      -1.108
      -0.490
      -0.207
      -0.318
      -0.534
      -0.571
      -0.432
      -0.334
      -0.421
      -0.608
      -0.709
      -0.658
      -0.567
      -0.566
      -0.648
      -0.683
      -0.559
      -0.294
      -0.002
       0.223
       0.392
       0.586
       0.847
       1.093
       1.152
       0.911
       0.468
       0.131
       0.211
       0.764
       1.511
       2.047
       2.166
       1.994
       1.788
       1.637
       1.404
       0.968
       0.450
       0.125
       0.113
       0.217
       0.145
      -0.148
      -0.380
      -0.268
       0.114
       0.359
       0.145
      -0.411
      -0.856
      -0.849
      -0.480
      -0.130
      -0.059
      -0.210
      -0.394
      -0.587
      -0.926
      -1.426
      -1.807
      -1.725
      -1.176
      -0.602
      -0.526
      -1.058
      -1.775
      -2.111
      -1.849
      -1.211
      -0.526
       0.095
       0.707
       1.249
       1.463
       1.139
       0.411
      -0.293
      -0.603
      -0.496
      -0.224
      -0.010
       0.118
       0.195
       0.132
      -0.232
      -0.860
      -1.415
      -1.501
      -1.028
      -0.299
       0.270
       0.504
       0.540
       0.598
       0.738
       0.867
       0.950
       1.120
       1.500
       1.946
       2.058
       1.562
       0.655
      -0.091
      -0.230
       0.145
       0.523
       0.501
       0.185
       0.030
       0.318
       0.827
       1.055
       0.748
       0.158
      -0.237
      -0.238
      -0.091
      -0.162
      -0.488
      -0.708
      -0.439
       0.315
       1.140
       1.573
       1.484
       1.099
       0.721
       0.454
       0.188
      -0.187
      -0.625
      -0.979
      -1.175
      -1.286
      -1.420
      -1.569
      -1.596
      -1.384
      -0.973
      -0.539
      -0.233
      -0.036
       0.226
       0.716
       1.409
       2.061
       2.364
       2.152
       1.493
       0.636
      -0.131
      -0.601
      -0.701
      -0.489
      -0.100
       0.320
       0.686
       0.998
       1.316
       1.693
       2.094
       2.369
       2.314
       1.812
       0.955
       0.025
      -0.685
      -1.067
      -1.224
      -1.301
      -1.297
      -1.076
      -0.533
       0.267
       1.118
       1.819
       2.276
       2.470
       2.385
       2.009
       1.427
       0.881
       0.651
       0.849
       1.306
       1.700
       1.788
       1.522
       0.969
       0.160
      -0.918
      -2.196
      -3.430
      -4.304
      -4.666
      -4.662
      -4.593
      -4.645
      -4.732
      -4.611
      -4.144
      -3.416
      -2.619
      -1.831
      -0.954
       0.126
       1.325
       2.307
       2.653
       2.119
       0.818
      -0.814
      -2.230
      -3.032
      -3.143
      -2.808
      -2.419
      -2.288
      -2.484
      -2.842
      -3.088
      -3.001
      -2.497
      -1.634
      -0.554
       0.598
       1.718
       2.702
       3.418
       3.723
       3.551
       2.987
       2.240
       1.530
       0.937
       0.353
      -0.407
      -1.395
      -2.433
      -3.238
      -3.664
      -3.787
      -3.762
      -3.598
      -3.115
      -2.125
      -0.658
       0.993
       2.473
       3.604
       4.436
       5.090
       5.561
       5.691
       5.301
       4.372
       3.121
       1.912
       1.065
       0.689
       0.634
       0.608
       0.347
      -0.245
      -1.074
      -1.923
      -2.578
      -2.924
      -2.987
      -2.852
      -2.529
      -1.875
      -0.692
       1.057
       3.087
       4.850
       5.806
       5.705
       4.687
       3.159
       1.594
       0.394
      -0.177
      -0.092
       0.354
       0.629
       0.302
      -0.575
      -1.423
      -1.563
      -0.813
       0.290
       0.896
       0.546
      -0.446
      -1.279
      -1.371
      -0.826
      -0.273
      -0.284
      -0.964
      -2.021
      -3.128
      -4.137
      -4.993
      -5.537
      -5.460
      -4.493
      -2.658
      -0.368
       1.752
       3.216
       3.949
       4.240
       4.407
       4.497
       4.306
       3.699
       2.886
       2.280
       2.025
       1.711
       0.690
      -1.211
      -3.288
      -4.390
      -3.873
      -2.152
      -0.295
       0.917
       1.520
       2.023
       2.697
       3.308
       3.496
       3.279
       3.045
       3.062
       3.114
       2.717
       1.694
       0.475
      -0.234
      -0.059
       0.757
       1.612
       2.004
       1.756
       0.921
      -0.345
      -1.765
      -2.910
      -3.371
      -3.054
      -2.284
      -1.577
      -1.263
      -1.316
      -1.504
      -1.617
      -1.531
      -1.109
      -0.213
       1.090
       2.334
       2.860
       2.338
       1.135
       0.096
      -0.125
       0.410
       1.018
       1.007
       0.225
      -0.924
      -1.906
      -2.468
      -2.667
      -2.620
      -2.332
      -1.783
      -1.129
      -0.706
      -0.782
      -1.304
      -1.920
      -2.279
      -2.283
      -2.052
      -1.683
      -1.147
      -0.458
       0.124
       0.190
      -0.434
      -1.397
      -1.995
      -1.729
      -0.752
       0.246
       0.613
       0.252
      -0.399
      -0.827
      -0.867
      -0.709
      -0.599
      -0.584
      -0.545
      -0.397
      -0.181
       0.016
       0.166
       0.267
       0.249
       0.019
      -0.350
      -0.526
      -0.134
       0.867
       2.005
       2.580
       2.183
       1.016
      -0.290
      -1.173
      -1.502
      -1.532
      -1.564
      -1.651
      -1.619
      -1.331
      -0.893
      -0.567
      -0.469
      -0.413
      -0.094
       0.576
       1.345
       1.843
       1.914
       1.725
       1.539
       1.411
       1.116
       0.398
      -0.718
      -1.897
      -2.744
      -3.070
      -2.896
      -2.286
      -1.250
       0.129
       1.520
       2.411
       2.449
       1.756
       0.878
       0.406
       0.587
       1.243
       1.959
       2.334
       2.153
       1.476
       0.596
      -0.130
      -0.493
      -0.505
      -0.296
       0.053
       0.548
       1.158
       1.699
       1.917
       1.727
       1.348
       1.145
       1.300
       1.650
       1.838
       1.649
       1.179
       0.690
       0.342
       0.076
      -0.252
      -0.668
      -1.043
      -1.233
      -1.218
      -1.087
      -0.936
      -0.788
      -0.643
      -0.569
      -0.707
      -1.170
      -1.892
      -2.608
      -2.979
      -2.820
      -2.224
      -1.497
      -0.926
      -0.572
      -0.278
       0.145
       0.724
       1.313
       1.736
       1.919
       1.887
       1.683
       1.342
       0.969
       0.748
       0.814
       1.071
       1.207
       0.946
       0.338
      -0.218
      -0.303
       0.158
       0.825
       1.257
       1.267
       1.006
       0.734
       0.556
       0.380
       0.084
      -0.302
      -0.599
      -0.646
      -0.464
      -0.267
      -0.293
      -0.613
      -1.051
      -1.316
      -1.241
      -0.951
      -0.775
      -0.971
      -1.478
      -1.964
      -2.139
      -2.036
      -1.938
      -2.028
      -2.147
      -1.954
      -1.350
      -0.649
      -0.300
      -0.413
      -0.620
      -0.448
       0.168
       0.776
       0.845
       0.316
      -0.293
      -0.365
       0.204
       0.881
       1.013
       0.476
      -0.197
      -0.329
       0.257
       1.117
       1.656
       1.687
       1.497
       1.415
       1.406
       1.161
       0.562
      -0.054
      -0.167
       0.363
       1.087
       1.347
       0.889
       0.071
      -0.533
      -0.712
      -0.747
      -0.985
      -1.357
      -1.395
      -0.746
       0.369
       1.261
       1.350
       0.656
      -0.243
      -0.723
      -0.583
      -0.078
       0.421
       0.756
       0.987
       1.173
       1.213
       0.938
       0.347
      -0.291
      -0.592
      -0.365
       0.214
       0.743
       0.929
       0.813
       0.674
       0.714
       0.864
       0.872
       0.576
       0.059
      -0.441
      -0.764
      -0.926
      -1.025
      -1.081
      -1.013
      -0.783
      -0.514
      -0.410
      -0.544
      -0.744
      -0.742
      -0.432
       0.024
       0.375
       0.521
       0.551
       0.578
       0.580
       0.449
       0.146
      -0.203
      -0.393
      -0.308
      -0.010
       0.333
       0.588
       0.718
       0.722
       0.574
       0.270
      -0.061
      -0.158
       0.202
       0.994
       1.905
       2.498
       2.472
       1.833
       0.856
      -0.084
      -0.715
      -0.957
      -0.895
      -0.698
      -0.532
      -0.504
      -0.646
      -0.922
      -1.253
      -1.531
      -1.636
      -1.469
      -0.996
      -0.286
       0.497
       1.141
       1.451
       1.308
       0.737
      -0.052
      -0.708
      -0.913
      -0.606
      -0.047
       0.360
       0.384
       0.129
      -0.096
      -0.064
       0.195
       0.480
       0.633
       0.652
       0.621
       0.588
       0.532
       0.413
       0.217
      -0.031
      -0.283
      -0.497
      -0.669
      -0.851
      -1.112
      -1.440
      -1.694
      -1.689
      -1.388
      -0.999
      -0.818
      -0.916
      -1.022
      -0.769
      -0.080
       0.712
