Origin Time       27/8/2009 16:54:15 
Lat.              30.0 N 
Long.             80.0 E 
Depth (Km)         14.0
Magnitude         3.9
 Region           UTTARAKHAND-INDIA                                                
 Above details taken from IMD 
   
Station Code      BAG
Station Lat.       29.831
Station Long.      79.770
Station Height(m)  872.0
Site Class        A   Vs30 between 700 m/sec to 1400 m/sec * 
Record Time       27.08.2009 16:32:35.404
Sampling Rate     200. Hz
 Record Duration   66.380 Sec.
 Direction         Vert. (Up positive)
Max. Acceleration     -6.277 cm/sec**2
     
  * For reference see Site Classification link of website 
     
 Base Line Corrected and Low Pass Filtered (Cut Off at 35 Hz) Time History
 Acceleration data in cm/sec**2
    
[...]
       0.018
       0.036
       0.043
       0.030
       0.001
      -0.030
      -0.045
      -0.045
      -0.040
      -0.039
      -0.039
      -0.028
      -0.007
       0.017
       0.030
       0.028
       0.020
       0.012
       0.005
      -0.003
      -0.012
      -0.018
      -0.018
      -0.019
      -0.032
      -0.053
      -0.068
      -0.057
      -0.022
       0.021
       0.048
       0.049
       0.031
       0.009
      -0.003
       0.000
       0.013
       0.028
       0.032
       0.019
      -0.009
      -0.034
      -0.046
      -0.046
      -0.044
      -0.042
      -0.035
      -0.016
       0.008
       0.025
       0.030
       0.027
       0.022
       0.016
       0.005
      -0.011
      -0.025
      -0.026
      -0.018
      -0.017
      -0.035
      -0.064
      -0.077
      -0.057
      -0.013
       0.029
       0.048
       0.040
       0.019
       0.002
      -0.004
       0.002
       0.014
       0.025
       0.026
       0.011
      -0.013
      -0.032
      -0.039
      -0.039
      -0.040
      -0.041
      -0.032
      -0.010
       0.017
       0.036
       0.040
       0.032
       0.020
       0.010
       0.001
      -0.004
      -0.002
       0.010
       0.023
       0.024
       0.010
      -0.004
       0.002
       0.035
       0.084
       0.125
       0.141
       0.132
       0.110
       0.086
       0.065
       0.045
       0.025
      -0.001
      -0.037
      -0.085
      -0.134
      -0.167
      -0.176
      -0.164
      -0.142
      -0.112
      -0.074
      -0.032
      -0.001
       0.003
      -0.024
      -0.073
      -0.128
      -0.175
      -0.205
      -0.214
      -0.203
      -0.176
      -0.149
      -0.144
      -0.165
      -0.191
      -0.189
      -0.134
      -0.031
       0.095
       0.211
       0.286
       0.298
       0.239
       0.127
       0.017
      -0.027
       0.034
       0.169
       0.300
       0.352
       0.306
       0.197
       0.076
      -0.028
      -0.114
      -0.185
      -0.224
      -0.204
      -0.116
       0.007
       0.116
       0.188
       0.245
       0.323
       0.412
       0.445
       0.349
       0.121
      -0.142
      -0.303
      -0.293
      -0.167
      -0.052
      -0.042
      -0.115
      -0.167
      -0.109
       0.050
       0.212
       0.265
       0.165
      -0.047
      -0.280
      -0.444
      -0.488
      -0.403
      -0.226
      -0.031
       0.105
       0.147
       0.120
       0.081
       0.073
       0.100
       0.138
       0.159
       0.140
       0.057
      -0.093
      -0.272
      -0.391
      -0.354
      -0.143
       0.138
       0.309
       0.252
       0.004
      -0.264
      -0.377
      -0.276
      -0.053
       0.145
       0.235
       0.247
       0.261
       0.308
       0.333
       0.259
       0.071
      -0.150
      -0.288
      -0.291
      -0.208
      -0.120
      -0.055
       0.028
       0.165
       0.303
       0.337
       0.215
       0.013
      -0.125
      -0.128
      -0.060
      -0.041
      -0.111
      -0.191
      -0.174
      -0.047
       0.095
       0.139
       0.049
      -0.123
      -0.293
      -0.402
      -0.413
      -0.300
      -0.068
       0.223
       0.470
       0.598
       0.592
       0.488
       0.325
       0.143
      -0.008
      -0.060
       0.005
       0.106
       0.088
      -0.128
      -0.432
      -0.582
      -0.419
      -0.032
       0.298
       0.332
       0.069
      -0.272
      -0.451
      -0.389
      -0.178
       0.042
       0.208
       0.322
       0.386
       0.367
       0.252
       0.090
      -0.031
      -0.064
      -0.047
      -0.066
      -0.154
      -0.244
      -0.232
      -0.089
       0.080
       0.118
      -0.045
      -0.327
      -0.555
      -0.609
      -0.499
      -0.321
      -0.154
      -0.004
       0.161
       0.333
       0.455
       0.482
       0.436
       0.384
       0.355
       0.305
       0.178
      -0.009
      -0.147
      -0.131
       0.025
       0.181
       0.187
       0.025
      -0.178
      -0.271
      -0.216
      -0.106
      -0.055
      -0.084
      -0.115
      -0.057
       0.105
       0.299
       0.427
       0.442
       0.365
       0.245
       0.111
      -0.026
      -0.146
      -0.213
      -0.208
      -0.161
      -0.133
      -0.170
      -0.257
      -0.319
      -0.283
      -0.155
      -0.018
       0.043
       0.023
      -0.002
       0.041
       0.147
       0.234
       0.227
       0.128
       0.007
      -0.072
      -0.106
      -0.125
      -0.129
      -0.077
       0.051
       0.199
       0.260
       0.165
      -0.057
      -0.301
      -0.468
      -0.508
      -0.420
      -0.227
       0.020
       0.232
       0.318
       0.259
       0.143
       0.099
       0.172
       0.273
       0.276
       0.156
       0.020
      -0.004
       0.084
       0.141
       0.015
      -0.283
      -0.555
      -0.577
      -0.293
       0.122
       0.399
       0.379
       0.116
      -0.186
      -0.329
      -0.251
      -0.040
       0.162
       0.279
       0.340
       0.408
       0.481
       0.470
       0.292
      -0.021
      -0.313
      -0.428
      -0.358
      -0.255
      -0.280
      -0.436
      -0.558
      -0.479
      -0.199
       0.106
       0.238
       0.142
      -0.064
      -0.197
      -0.154
       0.035
       0.280
       0.508
       0.681
       0.754
       0.668
       0.404
       0.042
      -0.265
      -0.393
      -0.332
      -0.179
      -0.048
       0.019
       0.047
       0.070
       0.071
      -0.001
      -0.162
      -0.355
      -0.486
      -0.489
      -0.364
      -0.164
       0.029
       0.138
       0.113
      -0.034
      -0.217
      -0.298
      -0.180
       0.104
       0.366
       0.398
       0.140
      -0.243
      -0.481
      -0.409
      -0.088
       0.265
       0.462
       0.467
       0.374
       0.273
       0.178
       0.071
      -0.022
      -0.038
       0.046
       0.151
       0.156
       0.013
      -0.186
      -0.277
      -0.161
       0.102
       0.329
       0.348
       0.117
      -0.249
      -0.551
      -0.623
      -0.439
      -0.117
       0.158
       0.270
       0.236
       0.171
       0.177
       0.250
       0.299
       0.237
       0.064
      -0.129
      -0.246
      -0.258
      -0.207
      -0.147
      -0.093
      -0.032
       0.035
       0.067
       0.014
      -0.128
      -0.297
      -0.388
      -0.327
      -0.128
       0.112
       0.263
       0.247
       0.082
      -0.131
      -0.276
      -0.280
      -0.141
       0.083
       0.306
       0.439
       0.410
       0.209
      -0.092
      -0.356
      -0.458
      -0.366
      -0.153
       0.063
       0.204
       0.258
       0.252
       0.208
       0.137
       0.050
      -0.022
      -0.053
      -0.043
      -0.012
       0.023
       0.073
       0.153
       0.255
       0.345
       0.378
       0.328
       0.209
       0.055
      -0.089
      -0.190
      -0.225
      -0.182
      -0.070
       0.064
       0.146
       0.111
      -0.057
      -0.307
      -0.546
      -0.667
      -0.609
      -0.382
      -0.070
       0.226
       0.434
       0.529
       0.522
       0.423
       0.240
      -0.013
      -0.284
      -0.493
      -0.576
      -0.525
      -0.388
      -0.222
      -0.052
       0.133
       0.321
       0.446
       0.430
       0.265
       0.042
      -0.114
      -0.153
      -0.119
      -0.086
      -0.070
      -0.022
       0.098
       0.260
       0.373
       0.358
       0.207
      -0.014
      -0.211
      -0.307
      -0.269
      -0.126
       0.041
       0.149
       0.162
       0.105
       0.045
       0.044
       0.110
       0.185
       0.176
       0.015
      -0.285
      -0.600
      -0.744
      -0.588
      -0.168
       0.315
       0.640
       0.724
       0.639
       0.487
       0.265
      -0.094
      -0.563
      -0.923
      -0.896
      -0.407
       0.296
       0.823
       0.957
       0.773
       0.492
       0.227
      -0.083
      -0.518
      -0.985
      -1.223
      -1.018
      -0.430
       0.203
       0.496
       0.308
      -0.170
      -0.578
      -0.655
      -0.398
      -0.005
       0.310
       0.464
       0.499
       0.496
       0.493
       0.496
       0.496
       0.456
       0.310
       0.002
      -0.409
      -0.716
      -0.673
      -0.193
       0.517
       1.050
       1.062
       0.507
      -0.327
      -1.014
      -1.235
      -0.924
      -0.268
       0.409
       0.782
       0.679
       0.187
      -0.368
      -0.619
      -0.408
       0.102
       0.578
       0.760
       0.606
       0.238
      -0.195
      -0.580
      -0.809
      -0.761
      -0.401
       0.100
       0.403
       0.255
      -0.251
      -0.714
      -0.737
      -0.264
       0.385
       0.782
       0.730
       0.374
       0.021
      -0.123
      -0.065
       0.067
       0.173
       0.226
       0.226
       0.166
       0.038
      -0.124
      -0.243
      -0.250
      -0.128
       0.061
       0.215
       0.232
       0.065
      -0.257
      -0.625
      -0.886
      -0.906
      -0.626
      -0.084
       0.588
       1.184
       1.473
       1.300
       0.691
      -0.106
      -0.731
      -0.944
      -0.767
      -0.425
      -0.140
       0.029
       0.152
       0.290
       0.421
       0.485
       0.472
       0.413
       0.297
       0.026
      -0.477
      -1.115
      -1.601
      -1.630
      -1.103
      -0.200
       0.746
       1.429
       1.669
       1.406
       0.700
      -0.238
      -1.068
      -1.466
      -1.320
      -0.804
      -0.231
       0.177
       0.391
       0.484
       0.497
       0.425
       0.307
       0.254
       0.331
       0.425
       0.311
      -0.100
      -0.590
      -0.783
      -0.469
       0.191
       0.812
       1.103
       1.032
       0.726
       0.285
      -0.254
      -0.785
      -1.072
      -0.912
      -0.363
       0.234
       0.536
       0.491
       0.344
       0.335
       0.422
       0.325
      -0.129
      -0.741
      -1.062
      -0.819
      -0.205
       0.268
       0.220
      -0.279
      -0.803
      -0.960
      -0.698
      -0.270
       0.050
       0.193
       0.270
       0.381
       0.502
       0.539
       0.455
       0.292
       0.102
      -0.102
      -0.309
      -0.440
      -0.371
      -0.050
       0.434
       0.888
       1.137
       1.088
       0.722
       0.081
      -0.697
      -1.348
      -1.575
      -1.250
      -0.537
       0.198
       0.644
       0.731
       0.614
       0.488
       0.431
       0.369
       0.182
      -0.167
      -0.579
      -0.854
      -0.809
      -0.407
       0.189
       0.689
       0.875
       0.754
       0.515
       0.310
       0.097
      -0.261
      -0.749
      -1.105
      -1.018
      -0.446
       0.296
       0.786
       0.845
       0.638
       0.445
       0.361
       0.234
      -0.119
      -0.667
      -1.157
      -1.320
      -1.076
      -0.546
       0.084
       0.675
       1.136
       1.373
       1.311
       0.960
       0.437
      -0.112
      -0.608
      -1.030
      -1.321
      -1.352
      -1.036
      -0.475
       0.046
       0.229
      -0.033
      -0.583
      -1.110
      -1.323
      -1.085
      -0.436
       0.460
       1.373
       2.067
       2.368
       2.235
       1.768
       1.141
       0.521
       0.023
      -0.281
      -0.371
      -0.289
      -0.162
      -0.158
      -0.385
      -0.795
      -1.190
      -1.352
      -1.186
      -0.756
      -0.219
       0.259
       0.532
       0.477
       0.056
      -0.590
      -1.131
      -1.197
      -0.613
       0.451
       1.556
       2.256
       2.341
       1.898
       1.169
       0.375
      -0.368
      -0.998
      -1.437
      -1.585
      -1.396
      -0.959
      -0.477
      -0.170
      -0.156
      -0.401
      -0.749
      -0.998
      -0.981
      -0.628
      -0.006
       0.701
       1.261
       1.513
       1.458
       1.247
       1.057
       0.957
       0.879
       0.714
       0.430
       0.095
      -0.206
      -0.452
      -0.677
      -0.872
      -0.974
      -0.949
      -0.880
      -0.887
      -0.947
      -0.843
      -0.341
       0.538
       1.444
       1.906
       1.668
       0.864
      -0.084
      -0.762
      -0.980
      -0.798
      -0.416
      -0.068
       0.045
      -0.176
      -0.635
      -1.046
      -1.101
      -0.692
      -0.013
       0.563
       0.730
       0.457
      -0.012
      -0.345
      -0.339
      -0.021
       0.406
       0.697
       0.694
       0.397
      -0.029
      -0.336
      -0.324
       0.036
       0.577
       1.009
       1.100
       0.829
       0.427
       0.237
       0.480
       1.077
       1.672
       1.857
       1.456
       0.645
      -0.182
      -0.675
      -0.727
      -0.471
      -0.147
       0.051
       0.042
      -0.155
      -0.467
      -0.809
      -1.137
      -1.496
      -1.997
      -2.738
      -3.680
      -4.584
      -5.064
      -4.755
      -3.521
      -1.544
       0.757
       2.907
       4.501
       5.234
       4.928
       3.639
       1.749
      -0.086
      -1.173
      -1.096
       0.094
       1.933
       3.762
       4.962
       5.068
       3.841
       1.388
      -1.732
      -4.592
      -6.264
      -6.277
      -4.831
      -2.621
      -0.418
       1.278
       2.312
       2.721
       2.557
       1.858
       0.749
      -0.451
      -1.297
      -1.451
      -0.962
      -0.324
      -0.198
      -0.935
      -2.277
      -3.484
      -3.812
      -2.966
      -1.197
       0.929
       2.877
       4.311
       5.075
       5.090
       4.354
       3.009
       1.361
      -0.248
      -1.605
      -2.632
      -3.220
      -3.136
      -2.221
      -0.704
       0.725
       1.284
       0.680
      -0.613
      -1.645
      -1.667
      -0.640
       0.857
       2.169
       3.028
       3.511
       3.651
       3.202
       1.872
      -0.230
      -2.440
      -3.909
      -4.163
      -3.362
      -2.093
      -0.948
      -0.259
      -0.101
      -0.416
      -1.062
      -1.792
      -2.256
      -2.141
      -1.367
      -0.168
       1.039
       1.892
       2.246
       2.166
       1.838
       1.472
       1.269
       1.372
       1.784
       2.311
       2.636
       2.526
       1.969
       1.132
       0.191
      -0.771
      -1.716
      -2.519
      -2.936
      -2.729
      -1.854
      -0.547
       0.753
       1.586
       1.650
       0.931
      -0.289
      -1.585
      -2.626
      -3.291
      -3.585
      -3.456
      -2.771
      -1.511
       0.003
       1.164
       1.481
       1.004
       0.320
       0.064
       0.392
       0.929
       1.202
       1.090
       0.859
       0.802
       0.942
       1.069
       1.040
       0.966
       1.094
       1.500
       1.924
       1.926
       1.225
      -0.056
      -1.442
      -2.360
      -2.437
      -1.661
      -0.346
       1.040
       2.090
       2.588
       2.523
       2.029
       1.298
       0.494
      -0.290
      -1.013
      -1.601
      -1.892
      -1.704
      -1.018
      -0.129
       0.438
       0.272
      -0.589
      -1.641
      -2.281
      -2.242
      -1.731
      -1.157
      -0.756
      -0.459
      -0.079
       0.432
       0.937
       1.266
       1.368
       1.296
       1.110
       0.836
       0.518
       0.274
       0.246
       0.470
       0.781
       0.866
       0.483
      -0.337
      -1.260
      -1.865
      -1.923
      -1.525
      -0.955
      -0.430
       0.014
       0.418
       0.724
       0.769
       0.484
       0.063
      -0.126
       0.150
       0.748
       1.254
       1.338
       1.027
       0.611
       0.338
       0.208
       0.072
      -0.148
      -0.364
      -0.437
      -0.350
      -0.234
      -0.212
      -0.244
      -0.141
       0.225
       0.753
       1.148
       1.156
       0.783
       0.290
      -0.025
      -0.078
      -0.051
      -0.192
      -0.560
      -0.947
      -1.090
      -0.942
      -0.728
      -0.697
      -0.839
      -0.875
      -0.578
      -0.073
       0.221
      -0.006
      -0.620
      -1.115
      -1.039
      -0.360
       0.550
       1.250
       1.526
       1.426
       1.085
       0.603
       0.062
      -0.405
      -0.651
      -0.642
      -0.507
      -0.434
      -0.499
      -0.619
      -0.679
      -0.658
      -0.620
      -0.600
      -0.537
      -0.351
      -0.056
       0.221
       0.358
       0.372
       0.417
       0.624
       0.932
       1.109
       0.978
       0.597
       0.208
      -0.006
      -0.089
      -0.236
      -0.537
      -0.835
      -0.838
      -0.408
       0.286
       0.916
       1.273
       1.387
       1.366
       1.211
       0.825
       0.202
      -0.467
      -0.912
      -1.016
      -0.885
      -0.688
      -0.451
      -0.067
       0.473
       0.928
       0.959
       0.468
      -0.248
      -0.716
      -0.689
      -0.348
      -0.089
      -0.131
      -0.340
      -0.415
      -0.232
       0.027
       0.070
      -0.203
      -0.601
      -0.816
      -0.693
      -0.325
       0.061
       0.292
       0.321
       0.188
      -0.047
      -0.330
      -0.588
      -0.713
      -0.626
      -0.356
      -0.051
       0.141
       0.200
       0.223
       0.295
       0.385
       0.396
       0.305
       0.224
       0.305
       0.570
       0.838
       0.857
       0.522
      -0.024
      -0.484
      -0.614
      -0.368
       0.116
       0.628
       1.007
       1.195
       1.206
       1.072
       0.806
       0.425
      -0.021
      -0.422
      -0.644
      -0.622
      -0.441
      -0.315
      -0.419
      -0.730
      -1.033
      -1.123
      -0.993
      -0.810
      -0.726
      -0.711
      -0.590
      -0.231
       0.312
       0.830
       1.113
       1.078
       0.768
       0.292
      -0.214
      -0.587
      -0.683
      -0.465
      -0.066
       0.268
       0.341
       0.143
      -0.161
      -0.370
      -0.376
      -0.180
       0.154
       0.528
       0.809
       0.847
       0.563
       0.042
      -0.481
      -0.761
      -0.713
      -0.460
      -0.223
      -0.141
      -0.191
      -0.266
      -0.291
      -0.278
      -0.274
      -0.296
      -0.320
      -0.311
      -0.245
      -0.111
       0.095
       0.351
       0.605
       0.789
       0.858
       0.815
       0.689
       0.504
       0.280
       0.060
      -0.077
      -0.068
       0.064
       0.212
       0.280
       0.274
       0.281
       0.353
       0.414
       0.329
       0.050
      -0.297
      -0.499
      -0.427
      -0.144
       0.145
       0.267
       0.193
       0.018
      -0.162
      -0.308
      -0.400
      -0.383
      -0.219
       0.020
       0.155
       0.048
      -0.256
      -0.529
      -0.535
      -0.227
       0.231
       0.606
       0.762
       0.689
       0.423
      -0.003
      -0.505
      -0.901
      -0.991
      -0.722
      -0.262
       0.121
       0.259
       0.178
