Origin Time       27/8/2009 16:54:15  UTC
Lat.              30.0 N 
Long.             80.0 E 
Depth (Km)         14.0
Magnitude         3.9
 Region           UTTARAKHAND-INDIA                                                
 Above details taken from IMD 
    
Station Code      BAG
Station Lat.       29.831  N
Station Long.      79.770  E
Station Height(m)  872.0
Site Class        A   Vs30 between 700 m/sec to 1400 m/sec * 
Record Time       27.08.2009 16:32:35.404 UTC
Sampling Rate     200. Hz
 Record Duration   66.380 Sec.
 Direction         N-S (N positive)
Max. Acceleration     10.872 cm/sec**2
     
  * For reference see Site Classification link of website 
     
 Base Line Corrected and Low Pass Filtered (Cut Off at 35 Hz) Time History
 Acceleration data in cm/sec**2
    
[...]
       0.096
       0.086
       0.034
      -0.029
      -0.068
      -0.069
      -0.043
      -0.015
      -0.001
      -0.002
      -0.015
      -0.032
      -0.045
      -0.042
      -0.019
       0.013
       0.038
       0.049
       0.052
       0.052
       0.044
       0.023
      -0.009
      -0.038
      -0.054
      -0.054
      -0.045
      -0.034
      -0.021
      -0.004
       0.012
       0.020
       0.018
       0.020
       0.041
       0.076
       0.097
       0.080
       0.027
      -0.035
      -0.073
      -0.074
      -0.050
      -0.022
      -0.005
      -0.005
      -0.018
      -0.034
      -0.039
      -0.024
       0.009
       0.040
       0.055
       0.054
       0.050
       0.047
       0.037
       0.013
      -0.020
      -0.048
      -0.060
      -0.056
      -0.043
      -0.028
      -0.013
      -0.001
       0.005
       0.003
       0.002
       0.014
       0.046
       0.081
       0.095
       0.071
       0.017
      -0.040
      -0.072
      -0.068
      -0.042
      -0.013
       0.000
      -0.007
      -0.027
      -0.045
      -0.046
      -0.021
       0.017
       0.046
       0.054
       0.051
       0.049
       0.048
       0.036
       0.007
      -0.028
      -0.052
      -0.058
      -0.051
      -0.040
      -0.026
      -0.006
       0.019
       0.037
       0.037
       0.029
       0.034
       0.063
       0.099
       0.110
       0.079
       0.019
      -0.037
      -0.063
      -0.052
      -0.022
       0.006
       0.018
       0.014
       0.000
      -0.009
       0.001
       0.035
       0.081
       0.117
       0.131
       0.134
       0.137
       0.135
       0.112
       0.062
      -0.002
      -0.059
      -0.102
      -0.137
      -0.171
      -0.202
      -0.219
      -0.214
      -0.193
      -0.161
      -0.115
      -0.041
       0.057
       0.152
       0.206
       0.197
       0.135
       0.049
      -0.030
      -0.094
      -0.146
      -0.196
      -0.245
      -0.282
      -0.293
      -0.266
      -0.189
      -0.068
       0.073
       0.203
       0.304
       0.377
       0.418
       0.413
       0.350
       0.241
       0.124
       0.042
       0.012
       0.019
       0.042
       0.063
       0.078
       0.082
       0.066
       0.026
      -0.028
      -0.078
      -0.120
      -0.169
      -0.235
      -0.302
      -0.329
      -0.282
      -0.167
      -0.024
       0.098
       0.182
       0.238
       0.282
       0.308
       0.288
       0.199
       0.042
      -0.159
      -0.352
      -0.476
      -0.484
      -0.377
      -0.210
      -0.056
       0.039
       0.084
       0.117
       0.166
       0.226
       0.266
       0.262
       0.213
       0.139
       0.060
      -0.004
      -0.031
      -0.005
       0.062
       0.136
       0.187
       0.209
       0.229
       0.269
       0.325
       0.362
       0.340
       0.239
       0.068
      -0.145
      -0.357
      -0.516
      -0.586
      -0.569
      -0.506
      -0.441
      -0.383
      -0.310
      -0.210
      -0.101
      -0.005
       0.075
       0.156
       0.236
       0.277
       0.246
       0.150
       0.044
      -0.015
      -0.015
       0.012
       0.032
       0.045
       0.071
       0.117
       0.167
       0.206
       0.230
       0.240
       0.217
       0.132
      -0.023
      -0.204
      -0.342
      -0.386
      -0.340
      -0.249
      -0.159
      -0.092
      -0.051
      -0.033
      -0.026
       0.002
       0.081
       0.211
       0.353
       0.458
       0.497
       0.467
       0.379
       0.249
       0.096
      -0.049
      -0.161
      -0.235
      -0.284
      -0.318
      -0.320
      -0.262
      -0.144
      -0.022
       0.032
      -0.018
      -0.131
      -0.225
      -0.228
      -0.126
       0.037
       0.198
       0.319
       0.397
       0.453
       0.499
       0.522
       0.495
       0.394
       0.231
       0.052
      -0.078
      -0.130
      -0.133
      -0.145
      -0.203
      -0.293
      -0.372
      -0.403
      -0.385
      -0.334
      -0.265
      -0.187
      -0.115
      -0.065
      -0.028
       0.034
       0.157
       0.322
       0.460
       0.498
       0.424
       0.288
       0.152
       0.038
      -0.074
      -0.206
      -0.357
      -0.495
      -0.579
      -0.581
      -0.494
      -0.333
      -0.148
      -0.008
       0.027
      -0.045
      -0.163
      -0.251
      -0.263
      -0.197
      -0.079
       0.058
       0.168
       0.208
       0.169
       0.096
       0.071
       0.143
       0.284
       0.412
       0.456
       0.420
       0.350
       0.277
       0.177
       0.018
      -0.181
      -0.342
      -0.378
      -0.261
      -0.036
       0.213
       0.421
       0.561
       0.627
       0.610
       0.499
       0.299
       0.042
      -0.216
      -0.413
      -0.496
      -0.449
      -0.310
      -0.164
      -0.091
      -0.124
      -0.230
      -0.332
      -0.357
      -0.272
      -0.100
       0.100
       0.262
       0.344
       0.347
       0.303
       0.253
       0.222
       0.199
       0.154
       0.071
      -0.042
      -0.157
      -0.256
      -0.332
      -0.378
      -0.380
      -0.327
      -0.233
      -0.132
      -0.058
      -0.022
      -0.016
      -0.028
      -0.051
      -0.065
      -0.028
       0.094
       0.276
       0.430
       0.459
       0.329
       0.097
      -0.133
      -0.282
      -0.335
      -0.330
      -0.307
      -0.271
      -0.195
      -0.055
       0.145
       0.356
       0.506
       0.529
       0.407
       0.190
      -0.033
      -0.183
      -0.237
      -0.216
      -0.154
      -0.067
       0.036
       0.137
       0.208
       0.240
       0.258
       0.299
       0.360
       0.385
       0.320
       0.162
      -0.026
      -0.175
      -0.261
      -0.295
      -0.300
      -0.284
      -0.248
      -0.205
      -0.168
      -0.138
      -0.100
      -0.045
       0.007
       0.020
      -0.016
      -0.071
      -0.101
      -0.085
      -0.041
       0.000
       0.023
       0.028
       0.023
       0.007
      -0.022
      -0.054
      -0.066
      -0.046
       0.002
       0.067
       0.148
       0.255
       0.373
       0.452
       0.433
       0.292
       0.052
      -0.227
      -0.476
      -0.635
      -0.671
      -0.586
      -0.425
      -0.248
      -0.101
       0.011
       0.106
       0.194
       0.252
       0.246
       0.171
       0.069
       0.000
      -0.008
       0.017
       0.024
      -0.017
      -0.078
      -0.099
      -0.032
       0.111
       0.259
       0.324
       0.256
       0.083
      -0.112
      -0.243
      -0.272
      -0.222
      -0.141
      -0.059
       0.028
       0.135
       0.263
       0.400
       0.533
       0.645
       0.711
       0.698
       0.585
       0.378
       0.111
      -0.167
      -0.410
      -0.578
      -0.645
      -0.603
      -0.478
      -0.338
      -0.253
      -0.254
      -0.311
      -0.357
      -0.346
      -0.284
      -0.215
      -0.180
      -0.185
      -0.201
      -0.190
      -0.129
      -0.008
       0.171
       0.387
       0.594
       0.730
       0.749
       0.648
       0.463
       0.249
       0.049
      -0.119
      -0.261
      -0.394
      -0.530
      -0.662
      -0.752
      -0.747
      -0.607
      -0.338
      -0.003
       0.309
       0.525
       0.614
       0.578
       0.445
       0.260
       0.082
      -0.037
      -0.070
      -0.026
       0.067
       0.186
       0.310
       0.407
       0.429
       0.336
       0.132
      -0.136
      -0.401
      -0.605
      -0.706
      -0.675
      -0.519
      -0.294
      -0.076
       0.090
       0.220
       0.345
       0.448
       0.453
       0.301
       0.023
      -0.243
      -0.349
      -0.239
       0.010
       0.264
       0.428
       0.487
       0.463
       0.371
       0.213
       0.017
      -0.162
      -0.274
      -0.309
      -0.292
      -0.240
      -0.155
      -0.050
       0.026
       0.016
      -0.093
      -0.246
      -0.350
      -0.344
      -0.224
      -0.032
       0.167
       0.317
       0.390
       0.393
       0.343
       0.245
       0.095
      -0.090
      -0.265
      -0.381
      -0.412
      -0.368
      -0.277
      -0.160
      -0.026
       0.117
       0.241
       0.306
       0.285
       0.195
       0.082
      -0.005
      -0.055
      -0.094
      -0.161
      -0.269
      -0.394
      -0.492
      -0.525
      -0.473
      -0.334
      -0.114
       0.156
       0.429
       0.659
       0.825
       0.922
       0.934
       0.836
       0.621
       0.326
       0.014
      -0.253
      -0.437
      -0.506
      -0.430
      -0.207
       0.094
       0.338
       0.396
       0.238
      -0.033
      -0.263
      -0.363
      -0.360
      -0.357
      -0.435
      -0.590
      -0.742
      -0.789
      -0.666
      -0.378
      -0.003
       0.333
       0.518
       0.512
       0.371
       0.206
       0.096
       0.036
      -0.040
      -0.184
      -0.379
      -0.552
      -0.624
      -0.553
      -0.349
      -0.057
       0.268
       0.578
       0.831
       0.998
       1.052
       0.969
       0.747
       0.431
       0.122
      -0.059
      -0.060
       0.057
       0.150
       0.100
      -0.094
      -0.314
      -0.413
      -0.329
      -0.127
       0.044
       0.050
      -0.150
      -0.481
      -0.792
      -0.945
      -0.889
      -0.681
      -0.423
      -0.170
       0.101
       0.442
       0.834
       1.151
       1.225
       0.968
       0.444
      -0.159
      -0.635
      -0.862
      -0.834
      -0.626
      -0.323
       0.018
       0.370
       0.713
       1.007
       1.170
       1.099
       0.728
       0.108
      -0.578
      -1.085
      -1.238
      -1.038
      -0.649
      -0.279
      -0.047
       0.060
       0.128
       0.215
       0.303
       0.320
       0.208
      -0.025
      -0.297
      -0.499
      -0.572
      -0.524
      -0.404
      -0.248
      -0.060
       0.154
       0.356
       0.478
       0.472
       0.353
       0.194
       0.070
       0.011
       0.000
       0.018
       0.069
       0.169
       0.313
       0.458
       0.544
       0.531
       0.420
       0.253
       0.090
      -0.007
      -0.007
       0.061
       0.105
       0.032
      -0.171
      -0.406
      -0.534
      -0.490
      -0.336
      -0.197
      -0.156
      -0.203
      -0.268
      -0.287
      -0.255
      -0.218
      -0.238
      -0.345
      -0.508
      -0.637
      -0.627
      -0.419
      -0.052
       0.354
       0.659
       0.782
       0.729
       0.557
       0.341
       0.148
       0.031
       0.020
       0.107
       0.258
       0.429
       0.587
       0.695
       0.695
       0.534
       0.208
      -0.202
      -0.567
      -0.788
      -0.846
      -0.774
      -0.605
      -0.360
      -0.068
       0.217
       0.432
       0.545
       0.553
       0.469
       0.311
       0.107
      -0.100
      -0.260
      -0.343
      -0.367
      -0.394
      -0.488
      -0.661
      -0.862
      -0.998
      -0.987
      -0.790
      -0.431
       0.017
       0.462
       0.826
       1.064
       1.157
       1.090
       0.850
       0.444
      -0.054
      -0.501
      -0.742
      -0.694
      -0.380
       0.091
       0.583
       0.970
       1.168
       1.161
       0.997
       0.756
       0.498
       0.243
      -0.017
      -0.282
      -0.527
      -0.717
      -0.826
      -0.864
      -0.865
      -0.865
      -0.878
      -0.879
      -0.824
      -0.668
      -0.403
      -0.052
       0.348
       0.768
       1.183
       1.559
       1.838
       1.952
       1.845
       1.504
       0.969
       0.320
      -0.347
      -0.955
      -1.467
      -1.873
      -2.179
      -2.376
      -2.421
      -2.230
      -1.724
      -0.904
       0.092
       1.023
       1.646
       1.837
       1.630
       1.174
       0.632
       0.122
      -0.295
      -0.591
      -0.751
      -0.775
      -0.678
      -0.487
      -0.234
       0.045
       0.303
       0.484
       0.539
       0.458
       0.297
       0.162
       0.147
       0.269
       0.446
       0.552
       0.502
       0.312
       0.079
      -0.078
      -0.092
       0.014
       0.163
       0.294
       0.402
       0.513
       0.644
       0.769
       0.849
       0.858
       0.791
       0.634
       0.364
      -0.040
      -0.556
      -1.101
      -1.554
      -1.805
      -1.790
      -1.501
      -0.991
      -0.363
       0.253
       0.734
       1.019
       1.121
       1.109
       1.046
       0.940
       0.758
       0.463
       0.060
      -0.391
      -0.795
      -1.065
      -1.151
      -1.065
      -0.874
      -0.660
      -0.475
      -0.321
      -0.170
       0.006
       0.210
       0.428
       0.651
       0.885
       1.136
       1.369
       1.501
       1.423
       1.067
       0.429
      -0.433
      -1.432
      -2.475
      -3.496
      -4.472
      -5.397
      -6.219
      -6.785
      -6.877
      -6.345
      -5.228
      -3.757
      -2.213
      -0.776
       0.516
       1.695
       2.773
       3.717
       4.451
       4.855
       4.809
       4.305
       3.549
       2.928
       2.836
       3.481
       4.804
       6.535
       8.314
       9.790
      10.693
      10.872
      10.303
       9.048
       7.200
       4.862
       2.196
      -0.519
      -2.911
      -4.622
      -5.443
      -5.391
      -4.701
      -3.760
      -3.005
      -2.808
      -3.363
      -4.601
      -6.213
      -7.761
      -8.842
      -9.217
      -8.844
      -7.852
      -6.483
      -5.032
      -3.762
      -2.799
      -2.086
      -1.435
      -0.647
       0.367
       1.537
       2.656
       3.473
       3.801
       3.583
       2.898
       1.919
       0.873
      -0.003
      -0.545
      -0.750
      -0.777
      -0.827
      -0.981
      -1.132
      -1.058
      -0.568
       0.379
       1.650
       2.987
       4.086
       4.685
       4.661
       4.110
       3.335
       2.727
       2.564
       2.876
       3.444
       3.927
       4.036
       3.642
       2.803
       1.712
       0.612
      -0.308
      -0.981
      -1.468
      -1.911
      -2.437
      -3.072
      -3.725
      -4.239
      -4.485
      -4.430
      -4.151
      -3.812
      -3.608
      -3.680
      -4.038
      -4.549
      -4.997
      -5.189
      -5.010
      -4.419
      -3.413
      -2.006
      -0.274
       1.600
       3.349
       4.731
       5.641
       6.137
       6.367
       6.465
       6.500
       6.471
       6.321
       5.952
       5.279
       4.313
       3.199
       2.157
       1.350
       0.780
       0.297
      -0.295
      -1.104
      -2.085
      -3.071
      -3.865
      -4.322
      -4.404
      -4.188
      -3.844
      -3.554
      -3.409
      -3.346
      -3.198
      -2.788
      -2.020
      -0.904
       0.463
       1.923
       3.272
       4.295
       4.803
       4.685
       3.945
       2.731
       1.312
       0.005
      -0.923
      -1.351
      -1.345
      -1.107
      -0.862
      -0.741
      -0.749
      -0.818
      -0.895
      -0.973
      -1.092
      -1.292
      -1.592
      -1.961
      -2.306
      -2.488
      -2.369
      -1.896
      -1.146
      -0.301
       0.444
       0.980
       1.296
       1.443
       1.473
       1.407
       1.244
       0.978
       0.615
       0.180
      -0.279
      -0.694
      -1.023
      -1.277
      -1.518
      -1.776
      -1.978
      -1.950
      -1.519
      -0.655
       0.480
       1.607
       2.476
       2.980
       3.173
       3.183
       3.105
       2.956
       2.702
       2.335
       1.917
       1.556
       1.327
       1.200
       1.025
       0.612
      -0.141
      -1.162
      -2.224
      -3.056
      -3.461
      -3.380
      -2.881
      -2.110
      -1.226
      -0.362
       0.406
       1.047
       1.541
       1.841
       1.860
       1.527
       0.867
       0.026
      -0.778
      -1.362
      -1.653
      -1.703
      -1.644
      -1.616
      -1.696
      -1.859
      -1.997
      -1.988
      -1.760
      -1.323
      -0.748
      -0.110
       0.548
       1.207
       1.834
       2.370
       2.754
       2.969
       3.050
       3.050
       3.010
       2.924
       2.751
       2.429
       1.897
       1.113
       0.078
      -1.138
      -2.384
      -3.454
      -4.154
      -4.374
      -4.121
      -3.517
      -2.761
      -2.063
      -1.562
      -1.288
      -1.157
      -1.032
      -0.778
      -0.327
       0.309
       1.035
       1.714
       2.224
       2.500
       2.555
       2.467
       2.341
       2.258
       2.245
       2.265
       2.254
       2.168
       2.015
       1.850
       1.719
       1.611
       1.447
       1.129
       0.602
      -0.125
      -0.983
      -1.865
      -2.653
      -3.246
      -3.577
      -3.619
      -3.391
      -2.952
      -2.386
      -1.778
      -1.205
      -0.726
      -0.381
      -0.172
      -0.054
       0.045
       0.188
       0.397
       0.642
       0.855
       0.975
       0.980
       0.894
       0.752
       0.571
       0.350
       0.101
      -0.119
      -0.223
      -0.147
       0.103
       0.434
       0.712
       0.825
       0.738
       0.489
       0.164
      -0.147
      -0.382
      -0.513
      -0.538
      -0.454
      -0.266
      -0.008
       0.237
       0.378
       0.379
       0.296
       0.228
       0.242
       0.315
       0.350
       0.248
      -0.024
      -0.419
      -0.841
      -1.190
      -1.394
      -1.419
      -1.292
      -1.091
      -0.904
      -0.763
      -0.621
      -0.379
       0.038
       0.615
       1.244
       1.775
       2.082
       2.106
       1.868
       1.451
       0.968
       0.522
       0.178
      -0.029
      -0.079
       0.034
       0.269
       0.539
       0.746
       0.840
       0.831
       0.757
       0.631
       0.429
       0.112
      -0.324
      -0.825
      -1.294
      -1.623
      -1.732
      -1.586
      -1.220
      -0.748
      -0.332
      -0.106
      -0.095
      -0.195
      -0.243
      -0.118
       0.181
       0.546
       0.839
       0.969
       0.937
       0.821
       0.717
       0.677
       0.676
       0.641
       0.515
       0.314
       0.108
      -0.043
      -0.127
      -0.169
      -0.189
      -0.181
      -0.134
      -0.061
      -0.007
      -0.022
      -0.131
      -0.315
      -0.520
      -0.678
      -0.741
      -0.700
      -0.592
      -0.480
      -0.419
      -0.433
      -0.504
      -0.599
      -0.695
      -0.784
      -0.871
      -0.949
      -0.990
      -0.956
      -0.827
      -0.610
      -0.342
      -0.070
       0.158
       0.310
       0.387
       0.431
       0.488
       0.564
       0.618
       0.613
       0.568
       0.541
       0.573
       0.647
       0.715
       0.743
       0.738
       0.721
       0.688
       0.611
       0.467
       0.264
       0.024
      -0.240
      -0.522
      -0.787
      -0.974
      -1.029
