Origin Time       10/07/2010 03:16:20
Lat.              29.9 N 
Long.             79.6 E 
Depth (Km)         10.0
Magnitude         4.1
 Region           ALMORA-UTTARAKHAND                                               
 Above details taken from IMD 
     
Station Code      BAG
Station Lat.       29.831  N
Station Long.      79.770  E
Station Height(m)  972.0
Site Class        A   Vs30 between 700 m/sec to 1400 m/sec * 
Record Time       10.07.2010 03:08:38.314
Sampling Rate     200. Hz
 Record Duration   81.960 Sec.
 Direction         E-W (E positive)
Max. Acceleration      6.462 cm/sec**2
     
  * For reference see Site Classification link of website 
     
 Base Line Corrected and Low Pass Filtered (Cut Off at 35 Hz) Time History
 Acceleration data in cm/sec**2
    
[...]
       0.272
       0.226
       0.111
      -0.068
      -0.242
      -0.334
      -0.324
      -0.269
      -0.238
      -0.248
      -0.259
      -0.233
      -0.184
      -0.164
      -0.199
      -0.246
      -0.234
      -0.124
       0.060
       0.255
       0.409
       0.497
       0.504
       0.423
       0.263
       0.065
      -0.111
      -0.213
      -0.218
      -0.135
       0.007
       0.168
       0.289
       0.314
       0.234
       0.103
      -0.003
      -0.045
      -0.045
      -0.050
      -0.070
      -0.080
      -0.052
       0.003
       0.042
       0.022
      -0.067
      -0.203
      -0.333
      -0.392
      -0.333
      -0.161
       0.050
       0.192
       0.196
       0.093
      -0.005
      -0.009
       0.078
       0.170
       0.185
       0.114
       0.022
      -0.021
       0.005
       0.057
       0.074
       0.031
      -0.045
      -0.109
      -0.136
      -0.145
      -0.170
      -0.219
      -0.249
      -0.190
      -0.006
       0.246
       0.446
       0.490
       0.371
       0.175
      -0.002
      -0.121
      -0.211
      -0.304
      -0.386
      -0.400
      -0.304
      -0.112
       0.099
       0.245
       0.284
       0.226
       0.111
      -0.031
      -0.175
      -0.291
      -0.328
      -0.244
      -0.045
       0.201
       0.383
       0.423
       0.324
       0.162
       0.039
       0.020
       0.097
       0.191
       0.209
       0.106
      -0.075
      -0.240
      -0.314
      -0.301
      -0.262
      -0.247
      -0.249
      -0.220
      -0.126
       0.019
       0.159
       0.237
       0.226
       0.145
       0.044
      -0.012
       0.023
       0.138
       0.263
       0.300
       0.193
      -0.039
      -0.302
      -0.481
      -0.507
      -0.384
      -0.176
       0.046
       0.226
       0.322
       0.304
       0.169
      -0.028
      -0.195
      -0.254
      -0.204
      -0.115
      -0.054
      -0.021
       0.030
       0.132
       0.256
       0.332
       0.318
       0.227
       0.108
       0.002
      -0.075
      -0.106
      -0.079
      -0.010
       0.050
       0.047
      -0.036
      -0.160
      -0.253
      -0.256
      -0.155
       0.018
       0.202
       0.329
       0.341
       0.214
      -0.009
      -0.229
      -0.332
      -0.271
      -0.094
       0.091
       0.190
       0.174
       0.081
      -0.029
      -0.109
      -0.148
      -0.152
      -0.139
      -0.118
      -0.087
      -0.026
       0.084
       0.224
       0.331
       0.342
       0.247
       0.098
      -0.034
      -0.120
      -0.182
      -0.239
      -0.280
      -0.276
      -0.222
      -0.139
      -0.049
       0.046
       0.138
       0.188
       0.148
       0.026
      -0.082
      -0.060
       0.121
       0.360
       0.506
       0.473
       0.286
       0.045
      -0.167
      -0.319
      -0.409
      -0.430
      -0.361
      -0.210
      -0.027
       0.113
       0.170
       0.158
       0.125
       0.105
       0.099
       0.078
       0.013
      -0.102
      -0.239
      -0.345
      -0.374
      -0.316
      -0.203
      -0.084
       0.005
       0.063
       0.119
       0.196
       0.276
       0.310
       0.267
       0.163
       0.050
      -0.030
      -0.062
      -0.047
       0.015
       0.107
       0.175
       0.145
      -0.024
      -0.292
      -0.540
      -0.642
      -0.545
      -0.299
      -0.006
       0.238
       0.386
       0.431
       0.386
       0.275
       0.133
       0.010
      -0.048
      -0.027
       0.043
       0.105
       0.116
       0.072
       0.005
      -0.041
      -0.040
       0.012
       0.096
       0.174
       0.196
       0.120
      -0.059
      -0.284
      -0.455
      -0.491
      -0.379
      -0.175
       0.045
       0.233
       0.362
       0.402
       0.325
       0.134
      -0.104
      -0.291
      -0.352
      -0.275
      -0.104
       0.105
       0.299
       0.421
       0.416
       0.264
       0.019
      -0.211
      -0.334
      -0.336
      -0.257
      -0.136
       0.025
       0.219
       0.391
       0.453
       0.349
       0.117
      -0.135
      -0.296
      -0.320
      -0.226
      -0.070
       0.085
       0.177
       0.168
       0.074
      -0.019
      -0.013
       0.117
       0.281
       0.329
       0.181
      -0.106
      -0.386
      -0.533
      -0.526
      -0.430
      -0.325
      -0.241
      -0.172
      -0.109
      -0.036
       0.077
       0.262
       0.494
       0.673
       0.670
       0.433
       0.040
      -0.342
      -0.565
      -0.592
      -0.484
      -0.338
      -0.216
      -0.127
      -0.045
       0.062
       0.206
       0.365
       0.479
       0.489
       0.389
       0.234
       0.087
      -0.037
      -0.168
      -0.318
      -0.436
      -0.438
      -0.279
      -0.006
       0.271
       0.452
       0.500
       0.443
       0.334
       0.227
       0.157
       0.127
       0.110
       0.063
      -0.049
      -0.218
      -0.396
      -0.513
      -0.523
      -0.435
      -0.307
      -0.203
      -0.138
      -0.081
       0.009
       0.138
       0.275
       0.382
       0.442
       0.448
       0.396
       0.280
       0.105
      -0.096
      -0.268
      -0.346
      -0.292
      -0.126
       0.076
       0.222
       0.249
       0.156
      -0.015
      -0.196
      -0.330
      -0.385
      -0.369
      -0.310
      -0.238
      -0.155
      -0.044
       0.103
       0.245
       0.315
       0.270
       0.122
      -0.071
      -0.243
      -0.348
      -0.364
      -0.283
      -0.111
       0.118
       0.353
       0.538
       0.632
       0.617
       0.496
       0.305
       0.097
      -0.070
      -0.164
      -0.189
      -0.171
      -0.123
      -0.050
       0.033
       0.090
       0.084
       0.007
      -0.105
      -0.188
      -0.190
      -0.114
      -0.013
       0.047
       0.035
      -0.048
      -0.201
      -0.417
      -0.650
      -0.793
      -0.721
      -0.400
       0.050
       0.426
       0.581
       0.525
       0.391
       0.308
       0.301
       0.291
       0.189
      -0.012
      -0.234
      -0.374
      -0.381
      -0.283
      -0.153
      -0.052
       0.010
       0.060
       0.127
       0.216
       0.300
       0.351
       0.352
       0.305
       0.209
       0.063
      -0.117
      -0.277
      -0.344
      -0.281
      -0.130
       0.004
       0.038
      -0.025
      -0.104
      -0.105
       0.015
       0.215
       0.385
       0.419
       0.294
       0.089
      -0.070
      -0.115
      -0.093
      -0.116
      -0.251
      -0.443
      -0.560
      -0.507
      -0.301
      -0.050
       0.141
       0.232
       0.246
       0.211
       0.134
       0.030
      -0.053
      -0.056
       0.040
       0.186
       0.297
       0.309
       0.217
       0.060
      -0.116
      -0.276
      -0.382
      -0.398
      -0.305
      -0.130
       0.075
       0.271
       0.451
       0.602
       0.672
       0.594
       0.358
       0.061
      -0.147
      -0.185
      -0.118
      -0.109
      -0.263
      -0.528
      -0.746
      -0.792
      -0.658
      -0.430
      -0.204
      -0.040
       0.044
       0.053
       0.013
      -0.027
      -0.031
      -0.001
       0.035
       0.067
       0.123
       0.225
       0.346
       0.414
       0.374
       0.239
       0.081
      -0.022
      -0.037
       0.028
       0.146
       0.271
       0.351
       0.340
       0.230
       0.054
      -0.130
      -0.280
      -0.378
      -0.423
      -0.406
      -0.319
      -0.168
       0.012
       0.175
       0.289
       0.339
       0.323
       0.250
       0.151
       0.072
       0.048
       0.061
       0.050
      -0.042
      -0.207
      -0.358
      -0.378
      -0.216
       0.053
       0.274
       0.316
       0.161
      -0.098
      -0.327
      -0.423
      -0.350
      -0.143
       0.099
       0.257
       0.258
       0.125
      -0.029
      -0.084
      -0.011
       0.117
       0.183
       0.138
       0.024
      -0.073
      -0.108
      -0.108
      -0.128
      -0.197
      -0.287
      -0.322
      -0.230
       0.001
       0.296
       0.520
       0.553
       0.362
       0.020
      -0.337
      -0.582
      -0.653
      -0.543
      -0.269
       0.135
       0.603
       1.006
       1.186
       1.031
       0.573
      -0.016
      -0.508
      -0.759
      -0.781
      -0.695
      -0.610
      -0.546
      -0.462
      -0.348
      -0.249
      -0.218
      -0.247
      -0.268
      -0.218
      -0.099
       0.032
       0.120
       0.165
       0.213
       0.304
       0.431
       0.538
       0.560
       0.462
       0.264
       0.029
      -0.164
      -0.254
      -0.225
      -0.099
       0.087
       0.293
       0.472
       0.574
       0.571
       0.472
       0.322
       0.176
       0.064
      -0.019
      -0.096
      -0.181
      -0.271
      -0.343
      -0.374
      -0.353
      -0.302
      -0.261
      -0.257
      -0.283
      -0.301
      -0.272
      -0.203
      -0.134
      -0.109
      -0.145
      -0.229
      -0.332
      -0.422
      -0.475
      -0.488
      -0.476
      -0.461
      -0.457
      -0.454
      -0.422
      -0.342
      -0.225
      -0.117
      -0.062
      -0.062
      -0.077
      -0.053
       0.040
       0.193
       0.370
       0.529
       0.618
       0.583
       0.395
       0.102
      -0.168
      -0.262
      -0.097
       0.265
       0.650
       0.889
       0.914
       0.777
       0.577
       0.378
       0.197
       0.045
      -0.041
      -0.015
       0.121
       0.301
       0.444
       0.519
       0.546
       0.554
       0.532
       0.443
       0.272
       0.061
      -0.110
      -0.176
      -0.133
      -0.034
       0.059
       0.125
       0.179
       0.247
       0.341
       0.444
       0.511
       0.480
       0.307
      -0.008
      -0.406
      -0.793
      -1.072
      -1.187
      -1.129
      -0.932
      -0.655
      -0.375
      -0.167
      -0.085
      -0.127
      -0.227
      -0.272
      -0.178
       0.044
       0.289
       0.436
       0.427
       0.305
       0.169
       0.110
       0.171
       0.350
       0.635
       0.997
       1.375
       1.676
       1.806
       1.717
       1.423
       0.985
       0.496
       0.058
      -0.229
      -0.302
      -0.178
       0.047
       0.252
       0.361
       0.370
       0.300
       0.163
      -0.049
      -0.323
      -0.629
      -0.954
      -1.317
      -1.745
      -2.222
      -2.675
      -3.002
      -3.126
      -3.027
      -2.753
      -2.396
      -2.058
      -1.789
      -1.548
      -1.220
      -0.703
       0.002
       0.749
       1.317
       1.537
       1.417
       1.146
       0.971
       1.024
       1.242
       1.442
       1.473
       1.332
       1.138
       0.996
       0.895
       0.735
       0.442
       0.066
      -0.227
      -0.252
       0.084
       0.733
       1.523
       2.219
       2.587
       2.471
       1.851
       0.845
      -0.341
      -1.488
      -2.419
      -3.005
      -3.154
      -2.830
      -2.099
      -1.158
      -0.280
       0.324
       0.601
       0.639
       0.559
       0.420
       0.221
      -0.040
      -0.335
      -0.609
      -0.807
      -0.865
      -0.699
      -0.240
       0.489
       1.320
       2.002
       2.330
       2.244
       1.827
       1.224
       0.555
      -0.128
      -0.846
      -1.647
      -2.528
      -3.366
      -3.906
      -3.875
      -3.148
      -1.853
      -0.312
       1.145
       2.349
       3.297
       4.030
       4.492
       4.513
       3.938
       2.780
       1.287
      -0.172
      -1.299
      -2.012
      -2.427
      -2.711
      -2.934
      -3.038
      -2.921
      -2.531
      -1.890
      -1.040
      -0.018
       1.104
       2.187
       3.048
       3.542
       3.616
       3.307
       2.715
       1.970
       1.196
       0.471
      -0.193
      -0.817
      -1.395
      -1.872
      -2.198
      -2.382
      -2.476
      -2.490
      -2.301
      -1.698
      -0.545
       1.062
       2.794
       4.234
       5.058
       5.121
       4.449
       3.181
       1.529
      -0.242
      -1.865
      -3.132
      -3.946
      -4.320
      -4.333
      -4.083
      -3.656
      -3.118
      -2.537
      -1.985
      -1.512
      -1.104
      -0.665
      -0.057
       0.826
       1.982
       3.243
       4.289
       4.756
       4.423
       3.344
       1.832
       0.283
      -1.026
      -2.023
      -2.792
      -3.449
      -4.046
      -4.538
      -4.790
      -4.632
      -3.931
      -2.654
      -0.896
       1.133
       3.144
       4.814
       5.852
       6.099
       5.609
       4.643
       3.544
       2.545
       1.665
       0.768
      -0.281
      -1.502
      -2.784
      -3.946
      -4.796
      -5.167
      -4.941
      -4.094
      -2.736
      -1.107
       0.487
       1.780
       2.617
       2.969
       2.923
       2.657
       2.420
       2.449
       2.835
       3.426
       3.874
       3.835
       3.186
       2.084
       0.817
      -0.388
      -1.463
      -2.439
      -3.340
      -4.139
      -4.783
      -5.226
      -5.420
      -5.290
      -4.707
      -3.543
      -1.775
       0.427
       2.704
       4.635
       5.919
       6.462
       6.332
       5.646
       4.510
       3.057
       1.486
       0.045
      -1.091
      -1.899
      -2.486
      -2.974
      -3.396
      -3.677
      -3.700
      -3.390
      -2.774
      -1.962
      -1.074
      -0.174
       0.729
       1.619
       2.399
       2.894
       2.933
       2.455
       1.574
       0.557
      -0.271
      -0.664
      -0.573
      -0.173
       0.231
       0.379
       0.222
      -0.072
      -0.264
      -0.233
      -0.049
       0.095
       0.017
      -0.356
      -0.952
      -1.579
      -2.004
      -2.053
      -1.676
      -0.948
      -0.017
       0.944
       1.755
       2.245
       2.309
       1.954
       1.291
       0.481
      -0.318
      -0.975
      -1.371
      -1.404
      -1.034
      -0.357
       0.389
       0.904
       0.967
       0.539
      -0.215
      -1.007
      -1.572
      -1.792
      -1.729
      -1.541
      -1.371
      -1.274
      -1.228
      -1.187
      -1.114
      -0.979
      -0.757
      -0.446
      -0.087
       0.244
       0.484
       0.622
       0.689
       0.733
       0.800
       0.937
       1.179
       1.505
       1.833
       2.052
       2.086
       1.929
       1.622
       1.216
       0.764
       0.345
       0.044
      -0.094
      -0.127
      -0.193
      -0.424
      -0.848
      -1.377
      -1.871
      -2.238
      -2.464
      -2.583
      -2.603
      -2.453
      -1.998
      -1.121
       0.178
       1.726
       3.213
       4.288
       4.690
       4.359
       3.448
       2.243
       1.013
      -0.088
      -1.039
      -1.878
      -2.619
      -3.204
      -3.524
      -3.469
      -2.986
      -2.121
      -1.012
       0.171
       1.299
       2.322
       3.224
       3.929
       4.252
       3.973
       2.986
       1.408
      -0.450
      -2.213
      -3.576
      -4.374
      -4.588
      -4.314
      -3.712
      -2.947
      -2.115
      -1.222
      -0.225
       0.863
       1.921
       2.764
       3.241
       3.309
       3.011
       2.419
       1.602
       0.636
      -0.358
      -1.216
      -1.769
      -1.893
      -1.563
      -0.878
      -0.054
       0.634
       0.966
       0.889
       0.536
       0.132
      -0.165
      -0.351
      -0.518
      -0.722
      -0.897
      -0.900
      -0.645
      -0.187
       0.308
       0.669
       0.804
       0.733
       0.579
       0.519
       0.693
       1.082
       1.478
       1.604
       1.317
       0.714
       0.071
      -0.351
      -0.436
      -0.240
       0.088
       0.384
       0.515
       0.406
       0.069
      -0.384
      -0.792
      -1.038
      -1.112
      -1.078
      -0.982
      -0.803
      -0.490
      -0.055
       0.396
       0.721
       0.841
       0.779
       0.625
       0.467
       0.347
       0.267
       0.216
       0.164
       0.056
      -0.166
      -0.513
      -0.913
      -1.241
      -1.383
      -1.294
      -0.995
      -0.536
       0.025
       0.619
       1.151
       1.508
       1.598
       1.405
       1.003
       0.524
       0.086
      -0.245
      -0.471
      -0.617
      -0.696
      -0.695
      -0.613
      -0.492
      -0.413
      -0.440
      -0.583
      -0.789
      -0.986
      -1.126
      -1.197
      -1.205
      -1.140
      -0.974
      -0.683
      -0.270
       0.223
       0.730
       1.168
       1.457
       1.528
       1.353
       0.974
       0.500
       0.072
      -0.200
      -0.285
      -0.225
      -0.091
       0.068
       0.234
       0.384
       0.488
       0.522
       0.502
       0.469
       0.456
       0.456
       0.424
       0.316
       0.115
      -0.150
      -0.418
      -0.617
      -0.692
      -0.635
      -0.496
      -0.359
      -0.285
      -0.268
      -0.259
      -0.224
      -0.177
      -0.157
      -0.172
      -0.169
      -0.061
       0.210
       0.620
       1.056
       1.388
       1.532
       1.487
       1.308
       1.071
       0.843
       0.657
       0.497
       0.303
       0.018
      -0.350
      -0.727
      -1.030
      -1.236
      -1.381
      -1.494
      -1.544
      -1.449
      -1.176
      -0.809
      -0.502
      -0.367
      -0.390
      -0.465
      -0.487
      -0.415
      -0.270
      -0.083
       0.123
       0.313
       0.434
       0.447
       0.362
       0.234
       0.118
       0.031
      -0.023
      -0.016
       0.101
       0.336
       0.621
       0.838
       0.894
       0.778
       0.557
       0.331
       0.177
       0.140
       0.233
       0.432
       0.661
       0.809
       0.794
       0.616
       0.354
       0.089
      -0.153
      -0.410
      -0.713
      -1.022
      -1.229
      -1.223
      -0.959
      -0.495
       0.018
       0.401
       0.524
       0.383
       0.098
      -0.162
      -0.293
      -0.317
      -0.328
      -0.401
      -0.534
      -0.670
      -0.765
      -0.824
      -0.870
      -0.887
      -0.803
      -0.553
      -0.151
       0.300
       0.676
       0.918
       1.041
       1.084
       1.060
       0.964
       0.809
       0.625
       0.434
       0.226
      -0.023
      -0.304
      -0.551
      -0.682
      -0.674
      -0.588
      -0.521
      -0.521
      -0.552
      -0.529
      -0.397
      -0.178
       0.041
       0.172
       0.200
       0.207
       0.311
       0.567
       0.900
       1.144
       1.161
       0.933
       0.566
       0.214
      -0.015
      -0.096
      -0.077
      -0.035
      -0.046
      -0.146
      -0.327
      -0.528
      -0.677
      -0.722
      -0.654
      -0.501
      -0.304
      -0.102
       0.065
       0.164
       0.169
       0.093
      -0.010
      -0.069
      -0.050
       0.014
       0.048
       0.004
      -0.089
