Origin Time       21/9/2009 9:43:47	  UTC
Lat.              30.9 N	
Long.             79.1 E	
Depth (Km)         13.0
Magnitude         4.7
 Region           UTTARKASHI-UTTARAKHAND                                           
 Above details taken from IMD 
    
Station Code      BAG
Station Lat.       29.831  N
Station Long.      79.770  E
Station Height(m)  972.0
Site Class        A   Vs30 between 700 m/sec to 1400 m/sec * 
Record Time       21.09.2009 09:41:12.079 UTC
Sampling Rate     200. Hz
 Record Duration   65.025 Sec.
 Direction         N-S (N positive)
Max. Acceleration     -5.808 cm/sec**2
     
  * For reference see Site Classification link of website 
     
 Base Line Corrected and Low Pass Filtered (Cut Off at 35 Hz) Time History
 Acceleration data in cm/sec**2
    
[...]
       0.000
       0.012
       0.013
       0.033
       0.084
       0.157
       0.228
       0.282
       0.310
       0.303
       0.249
       0.145
       0.019
      -0.081
      -0.115
      -0.075
       0.008
       0.096
       0.158
       0.173
       0.129
       0.025
      -0.121
      -0.276
      -0.402
      -0.476
      -0.497
      -0.470
      -0.403
      -0.302
      -0.184
      -0.077
      -0.002
       0.034
       0.041
       0.023
      -0.019
      -0.077
      -0.132
      -0.161
      -0.154
      -0.112
      -0.046
       0.032
       0.111
       0.181
       0.233
       0.258
       0.254
       0.222
       0.162
       0.085
       0.009
      -0.040
      -0.044
      -0.010
       0.037
       0.065
       0.066
       0.045
       0.013
      -0.028
      -0.080
      -0.147
      -0.222
      -0.287
      -0.321
      -0.310
      -0.248
      -0.145
      -0.034
       0.043
       0.055
       0.004
      -0.070
      -0.126
      -0.145
      -0.133
      -0.103
      -0.056
       0.009
       0.089
       0.173
       0.250
       0.320
       0.389
       0.456
       0.509
       0.531
       0.517
       0.471
       0.400
       0.311
       0.216
       0.131
       0.073
       0.042
       0.027
       0.012
      -0.016
      -0.057
      -0.107
      -0.154
      -0.189
      -0.205
      -0.205
      -0.196
      -0.181
      -0.162
      -0.143
      -0.134
      -0.151
      -0.202
      -0.276
      -0.337
      -0.350
      -0.303
      -0.214
      -0.110
      -0.007
       0.091
       0.177
       0.231
       0.235
       0.189
       0.118
       0.056
       0.021
       0.008
      -0.002
      -0.025
      -0.061
      -0.101
      -0.137
      -0.159
      -0.163
      -0.148
      -0.122
      -0.100
      -0.094
      -0.107
      -0.138
      -0.176
      -0.210
      -0.228
      -0.220
      -0.178
      -0.097
       0.022
       0.173
       0.337
       0.484
       0.583
       0.606
       0.545
       0.412
       0.232
       0.042
      -0.109
      -0.170
      -0.114
       0.033
       0.210
       0.351
       0.425
       0.446
       0.437
       0.409
       0.356
       0.270
       0.160
       0.047
      -0.053
      -0.139
      -0.212
      -0.267
      -0.293
      -0.286
      -0.256
      -0.216
      -0.176
      -0.148
      -0.144
      -0.179
      -0.253
      -0.344
      -0.417
      -0.444
      -0.412
      -0.332
      -0.223
      -0.114
      -0.029
       0.014
       0.012
      -0.014
      -0.040
      -0.052
      -0.050
      -0.038
      -0.010
       0.034
       0.075
       0.081
       0.033
      -0.052
      -0.125
      -0.142
      -0.093
      -0.007
       0.077
       0.134
       0.164
       0.179
       0.186
       0.192
       0.199
       0.208
       0.210
       0.199
       0.184
       0.179
       0.188
       0.193
       0.170
       0.107
       0.024
      -0.046
      -0.069
      -0.040
       0.026
       0.097
       0.138
       0.127
       0.057
      -0.054
      -0.175
      -0.277
      -0.351
      -0.405
      -0.432
      -0.411
      -0.325
      -0.190
      -0.047
       0.060
       0.117
       0.143
       0.168
       0.207
       0.256
       0.305
       0.346
       0.378
       0.393
       0.380
       0.338
       0.278
       0.218
       0.166
       0.125
       0.091
       0.063
       0.032
      -0.015
      -0.090
      -0.186
      -0.282
      -0.348
      -0.363
      -0.327
      -0.253
      -0.165
      -0.080
      -0.010
       0.047
       0.101
       0.162
       0.228
       0.277
       0.294
       0.280
       0.252
       0.221
       0.173
       0.087
      -0.043
      -0.190
      -0.316
      -0.395
      -0.423
      -0.407
      -0.354
      -0.265
      -0.153
      -0.051
       0.014
       0.033
       0.018
      -0.007
      -0.022
      -0.014
       0.021
       0.077
       0.133
       0.168
       0.169
       0.146
       0.118
       0.100
       0.097
       0.101
       0.107
       0.108
       0.093
       0.051
      -0.021
      -0.106
      -0.184
      -0.245
      -0.300
      -0.362
      -0.424
      -0.462
      -0.451
      -0.388
      -0.288
      -0.175
      -0.073
       0.006
       0.057
       0.079
       0.081
       0.072
       0.062
       0.056
       0.056
       0.067
       0.094
       0.141
       0.198
       0.248
       0.277
       0.275
       0.236
       0.158
       0.049
      -0.072
      -0.185
      -0.272
      -0.321
      -0.320
      -0.256
      -0.124
       0.059
       0.249
       0.392
       0.456
       0.447
       0.393
       0.319
       0.232
       0.139
       0.053
      -0.011
      -0.050
      -0.070
      -0.081
      -0.082
      -0.068
      -0.048
      -0.042
      -0.069
      -0.129
      -0.201
      -0.261
      -0.300
      -0.325
      -0.346
      -0.361
      -0.359
      -0.317
      -0.212
      -0.038
       0.179
       0.382
       0.515
       0.552
       0.513
       0.440
       0.361
       0.277
       0.174
       0.050
      -0.078
      -0.187
      -0.269
      -0.333
      -0.392
      -0.441
      -0.465
      -0.450
      -0.394
      -0.298
      -0.170
      -0.023
       0.118
       0.228
       0.292
       0.314
       0.313
       0.306
       0.299
       0.289
       0.275
       0.259
       0.237
       0.202
       0.155
       0.105
       0.066
       0.037
       0.005
      -0.032
      -0.061
      -0.064
      -0.048
      -0.038
      -0.060
      -0.114
      -0.174
      -0.209
      -0.200
      -0.147
      -0.065
       0.022
       0.087
       0.113
       0.108
       0.101
       0.125
       0.181
       0.237
       0.249
       0.194
       0.078
      -0.075
      -0.236
      -0.378
      -0.475
      -0.508
      -0.467
      -0.361
      -0.208
      -0.033
       0.139
       0.283
       0.368
       0.371
       0.299
       0.191
       0.095
       0.036
       0.008
      -0.010
      -0.030
      -0.053
      -0.081
      -0.121
      -0.175
      -0.230
      -0.262
      -0.256
      -0.213
      -0.149
      -0.079
      -0.013
       0.032
       0.036
      -0.012
      -0.096
      -0.181
      -0.238
      -0.260
      -0.253
      -0.221
      -0.164
      -0.091
      -0.020
       0.027
       0.044
       0.049
       0.066
       0.107
       0.159
       0.206
       0.234
       0.242
       0.237
       0.229
       0.224
       0.218
       0.190
       0.111
      -0.027
      -0.192
      -0.328
      -0.388
      -0.366
      -0.294
      -0.214
      -0.153
      -0.103
      -0.043
       0.041
       0.140
       0.225
       0.266
       0.246
       0.174
       0.083
       0.015
      -0.005
       0.010
       0.023
       0.005
      -0.052
      -0.135
      -0.223
      -0.297
      -0.338
      -0.335
      -0.286
      -0.204
      -0.104
       0.007
       0.128
       0.248
       0.338
       0.362
       0.315
       0.233
       0.166
       0.137
       0.132
       0.128
       0.120
       0.122
       0.148
       0.188
       0.210
       0.189
       0.124
       0.044
      -0.016
      -0.032
       0.000
       0.058
       0.112
       0.126
       0.090
       0.026
      -0.027
      -0.041
      -0.018
       0.020
       0.055
       0.081
       0.101
       0.113
       0.110
       0.087
       0.048
       0.004
      -0.032
      -0.047
      -0.037
      -0.008
       0.015
       0.003
      -0.062
      -0.164
      -0.265
      -0.332
      -0.359
      -0.359
      -0.339
      -0.293
      -0.214
      -0.113
      -0.018
       0.044
       0.057
       0.032
      -0.009
      -0.035
      -0.023
       0.034
       0.123
       0.208
       0.254
       0.253
       0.232
       0.224
       0.238
       0.254
       0.246
       0.211
       0.164
       0.114
       0.056
      -0.024
      -0.132
      -0.253
      -0.358
      -0.424
      -0.440
      -0.409
      -0.344
      -0.265
      -0.197
      -0.153
      -0.122
      -0.081
      -0.007
       0.105
       0.247
       0.400
       0.546
       0.659
       0.714
       0.699
       0.623
       0.508
       0.374
       0.234
       0.095
      -0.035
      -0.146
      -0.230
      -0.294
      -0.348
      -0.395
      -0.424
      -0.425
      -0.397
      -0.347
      -0.275
      -0.177
      -0.060
       0.047
       0.110
       0.116
       0.083
       0.044
       0.022
       0.005
      -0.029
      -0.096
      -0.192
      -0.296
      -0.383
      -0.432
      -0.425
      -0.355
      -0.242
      -0.122
      -0.025
       0.036
       0.075
       0.108
       0.136
       0.143
       0.113
       0.045
      -0.040
      -0.111
      -0.148
      -0.149
      -0.128
      -0.105
      -0.092
      -0.090
      -0.091
      -0.093
      -0.101
      -0.121
      -0.139
      -0.130
      -0.084
      -0.019
       0.029
       0.034
       0.005
      -0.019
      -0.004
       0.062
       0.159
       0.260
       0.346
       0.410
       0.448
       0.458
       0.439
       0.394
       0.321
       0.217
       0.089
      -0.038
      -0.133
      -0.181
      -0.197
      -0.204
      -0.207
      -0.188
      -0.119
       0.009
       0.175
       0.340
       0.472
       0.557
       0.591
       0.572
       0.510
       0.422
       0.334
       0.261
       0.200
       0.148
       0.102
       0.063
       0.023
      -0.032
      -0.114
      -0.221
      -0.338
      -0.445
      -0.525
      -0.564
      -0.554
      -0.493
      -0.396
      -0.291
      -0.204
      -0.137
      -0.072
       0.012
       0.118
       0.229
       0.323
       0.377
       0.378
       0.326
       0.239
       0.153
       0.108
       0.125
       0.188
       0.253
       0.282
       0.266
       0.218
       0.153
       0.072
      -0.031
      -0.151
      -0.268
      -0.358
      -0.401
      -0.386
      -0.313
      -0.199
      -0.077
       0.024
       0.092
       0.135
       0.169
       0.199
       0.214
       0.200
       0.153
       0.079
      -0.017
      -0.130
      -0.253
      -0.370
      -0.461
      -0.516
      -0.533
      -0.520
      -0.482
      -0.434
      -0.405
      -0.428
      -0.524
      -0.674
      -0.826
      -0.918
      -0.917
      -0.831
      -0.698
      -0.565
      -0.461
      -0.397
      -0.359
      -0.317
      -0.236
      -0.102
       0.077
       0.274
       0.456
       0.595
       0.670
       0.673
       0.611
       0.504
       0.373
       0.232
       0.091
      -0.028
      -0.088
      -0.055
       0.076
       0.269
       0.471
       0.642
       0.777
       0.889
       0.984
       1.057
       1.100
       1.110
       1.085
       1.029
       0.943
       0.840
       0.733
       0.640
       0.565
       0.501
       0.438
       0.373
       0.306
       0.238
       0.164
       0.082
       0.002
      -0.057
      -0.080
      -0.065
      -0.019
       0.044
       0.112
       0.181
       0.252
       0.330
       0.421
       0.531
       0.662
       0.810
       0.959
       1.087
       1.167
       1.182
       1.125
       1.003
       0.834
       0.627
       0.387
       0.122
      -0.148
      -0.398
      -0.623
      -0.842
      -1.079
      -1.330
      -1.558
      -1.718
      -1.792
      -1.802
      -1.785
      -1.767
      -1.747
      -1.718
      -1.688
      -1.679
      -1.712
      -1.790
      -1.905
      -2.039
      -2.166
      -2.245
      -2.245
      -2.160
      -2.015
      -1.846
      -1.666
      -1.462
      -1.211
      -0.913
      -0.600
      -0.310
      -0.068
       0.127
       0.286
       0.426
       0.565
       0.728
       0.933
       1.186
       1.477
       1.800
       2.145
       2.486
       2.776
       2.958
       2.996
       2.892
       2.682
       2.409
       2.097
       1.754
       1.381
       0.983
       0.578
       0.192
      -0.141
      -0.394
      -0.554
      -0.631
      -0.643
      -0.598
      -0.489
      -0.318
      -0.116
       0.069
       0.207
       0.297
       0.371
       0.458
       0.570
       0.702
       0.841
       0.971
       1.062
       1.069
       0.960
       0.736
       0.432
       0.087
      -0.272
      -0.625
      -0.943
      -1.191
      -1.350
      -1.427
      -1.444
      -1.412
      -1.319
      -1.158
      -0.942
      -0.705
      -0.478
      -0.270
      -0.081
       0.088
       0.225
       0.328
       0.410
       0.492
       0.585
       0.692
       0.814
       0.955
       1.099
       1.211
       1.248
       1.195
       1.073
       0.925
       0.781
       0.645
       0.510
       0.370
       0.235
       0.114
       0.008
      -0.088
      -0.178
      -0.261
      -0.336
      -0.406
      -0.463
      -0.495
      -0.501
      -0.508
      -0.559
      -0.676
      -0.831
      -0.954
      -0.970
      -0.844
      -0.589
      -0.246
       0.137
       0.521
       0.875
       1.182
       1.444
       1.664
       1.833
       1.930
       1.948
       1.911
       1.862
       1.825
       1.785
       1.699
       1.538
       1.302
       1.017
       0.696
       0.327
      -0.123
      -0.675
      -1.327
      -2.056
      -2.828
      -3.597
      -4.311
      -4.922
      -5.393
      -5.697
      -5.808
      -5.711
      -5.415
      -4.968
      -4.440
      -3.895
      -3.365
      -2.856
      -2.363
      -1.891
      -1.451
      -1.052
      -0.696
      -0.378
      -0.092
       0.177
       0.449
       0.738
       1.035
       1.304
       1.510
       1.637
       1.695
       1.705
       1.688
       1.661
       1.643
       1.660
       1.734
       1.871
       2.057
       2.259
       2.439
       2.565
       2.612
       2.565
       2.426
       2.209
       1.939
       1.642
       1.347
       1.089
       0.898
       0.788
       0.749
       0.757
       0.789
       0.833
       0.888
       0.954
       1.031
       1.124
       1.241
       1.385
       1.536
       1.665
       1.743
       1.771
       1.771
       1.755
       1.710
       1.605
       1.414
       1.141
       0.807
       0.436
       0.048
      -0.340
      -0.698
      -0.987
      -1.173
      -1.247
      -1.236
      -1.194
      -1.192
      -1.289
      -1.514
      -1.839
      -2.189
      -2.480
      -2.654
      -2.685
      -2.556
      -2.248
      -1.758
      -1.122
      -0.420
       0.256
       0.828
       1.252
       1.509
       1.589
       1.492
       1.231
       0.841
       0.362
      -0.167
      -0.715
      -1.239
      -1.682
      -1.981
      -2.103
      -2.056
      -1.891
      -1.684
      -1.514
      -1.436
      -1.460
      -1.543
      -1.609
      -1.587
      -1.445
      -1.201
      -0.901
      -0.588
      -0.291
      -0.026
       0.197
       0.368
       0.492
       0.583
       0.657
       0.724
       0.804
       0.928
       1.128
       1.400
       1.698
       1.954
       2.117
       2.169
       2.114
       1.958
       1.705
       1.371
       0.989
       0.608
       0.275
       0.031
      -0.089
      -0.058
       0.123
       0.417
       0.760
       1.096
       1.391
       1.613
       1.714
       1.636
       1.350
       0.891
       0.341
      -0.216
      -0.733
      -1.193
      -1.581
      -1.861
      -1.990
      -1.936
      -1.696
      -1.293
      -0.776
      -0.222
       0.276
       0.645
       0.847
       0.882
       0.775
       0.561
       0.280
      -0.026
      -0.305
      -0.514
      -0.625
      -0.635
      -0.565
      -0.453
      -0.349
      -0.302
      -0.341
      -0.464
      -0.634
      -0.806
      -0.949
      -1.048
      -1.096
      -1.097
      -1.065
      -1.025
      -0.999
      -0.979
      -0.935
      -0.835
      -0.664
      -0.424
      -0.121
       0.246
       0.663
       1.084
       1.431
       1.632
       1.660
       1.536
       1.306
       1.011
       0.683
       0.347
       0.028
      -0.241
      -0.427
      -0.500
      -0.436
      -0.230
       0.099
       0.498
       0.897
       1.239
       1.493
       1.663
       1.768
       1.820
       1.818
       1.752
       1.605
       1.365
       1.040
       0.656
       0.246
      -0.157
      -0.532
      -0.851
      -1.080
      -1.184
      -1.149
      -0.992
      -0.761
      -0.510
      -0.280
      -0.091
       0.051
       0.134
       0.141
       0.062
      -0.106
      -0.355
      -0.673
      -1.038
      -1.430
      -1.829
      -2.221
      -2.583
      -2.870
      -3.019
      -2.979
      -2.738
      -2.333
      -1.837
      -1.320
      -0.829
      -0.393
      -0.026
       0.266
       0.493
       0.681
       0.851
       1.011
       1.160
       1.295
       1.417
       1.517
       1.572
       1.555
       1.451
       1.275
       1.065
       0.854
       0.653
       0.451
       0.238
       0.018
      -0.180
      -0.322
      -0.381
      -0.351
      -0.255
      -0.139
      -0.047
      -0.003
      -0.008
      -0.047
      -0.090
      -0.098
      -0.039
       0.095
       0.278
       0.467
       0.628
       0.752
       0.840
       0.891
       0.894
       0.846
       0.759
       0.672
       0.624
       0.634
       0.699
       0.795
       0.894
       0.965
       0.981
       0.935
       0.832
       0.691
       0.523
       0.327
       0.092
      -0.194
      -0.532
      -0.908
      -1.302
      -1.687
      -2.034
      -2.312
      -2.501
      -2.603
      -2.624
      -2.559
      -2.383
      -2.079
      -1.663
      -1.188
      -0.715
      -0.288
       0.083
       0.409
       0.703
       0.972
       1.217
       1.430
       1.594
       1.694
       1.720
       1.679
       1.586
       1.455
       1.294
       1.110
       0.922
       0.745
       0.582
       0.417
       0.238
       0.051
      -0.109
      -0.208
      -0.231
      -0.189
      -0.105
       0.003
       0.120
       0.231
       0.316
       0.361
       0.355
       0.284
       0.127
      -0.135
      -0.487
      -0.887
      -1.277
      -1.612
      -1.860
      -1.983
      -1.929
      -1.652
      -1.149
      -0.487
       0.217
       0.845
       1.309
       1.570
       1.630
       1.526
       1.325
       1.111
       0.950
       0.862
       0.828
       0.813
       0.789
       0.739
       0.647
       0.490
       0.250
      -0.064
      -0.406
      -0.713
      -0.933
      -1.050
      -1.083
      -1.072
      -1.054
      -1.042
      -1.019
      -0.948
      -0.801
      -0.583
      -0.326
      -0.066
       0.168
       0.352
       0.457
       0.463
       0.377
       0.245
       0.133
       0.102
       0.173
       0.329
       0.524
       0.695
       0.782
       0.744
       0.583
       0.351
       0.131
      -0.009
      -0.046
       0.005
       0.113
       0.255
       0.420
       0.596
       0.770
       0.921
       1.028
       1.064
       1.002
       0.824
       0.537
       0.171
      -0.235
      -0.649
