Origin Time       27/8/2009 16:54:15 
Lat.              30.0 N 
Long.             80.0 E 
Depth (Km)         14.0
Magnitude         3.9
 Region           UTTARAKHAND-INDIA                                                
 Above details taken from IMD 
     
Station Code      BAG
Station Lat.       29.831  N
Station Long.      79.770  E
Station Height(m)  872.0
Site Class        A   Vs30 between 700 m/sec to 1400 m/sec * 
Record Time       27.08.2009 16:32:35.404
Sampling Rate     200. Hz
 Record Duration   66.380 Sec.
 Direction         E-W (E positive)
Max. Acceleration     10.745 cm/sec**2
     
  * For reference see Site Classification link of website 
     
 Base Line Corrected and Low Pass Filtered (Cut Off at 35 Hz) Time History
 Acceleration data in cm/sec**2
    
[...]
       0.080
       0.047
      -0.001
      -0.039
      -0.052
      -0.040
      -0.015
       0.008
       0.015
       0.005
      -0.014
      -0.028
      -0.023
       0.000
       0.026
       0.041
       0.045
       0.046
       0.048
       0.045
       0.029
       0.002
      -0.023
      -0.038
      -0.039
      -0.031
      -0.018
      -0.005
       0.006
       0.012
       0.010
       0.007
       0.015
       0.038
       0.070
       0.089
       0.079
       0.043
      -0.001
      -0.032
      -0.038
      -0.025
      -0.004
       0.012
       0.015
       0.004
      -0.013
      -0.022
      -0.014
       0.009
       0.031
       0.041
       0.040
       0.037
       0.036
       0.028
       0.008
      -0.017
      -0.033
      -0.034
      -0.026
      -0.019
      -0.017
      -0.016
      -0.008
       0.003
       0.010
       0.011
       0.017
       0.038
       0.068
       0.086
       0.076
       0.038
      -0.006
      -0.034
      -0.037
      -0.025
      -0.010
      -0.004
      -0.007
      -0.017
      -0.028
      -0.029
      -0.017
       0.005
       0.025
       0.037
       0.041
       0.042
       0.039
       0.028
       0.006
      -0.018
      -0.032
      -0.033
      -0.024
      -0.012
      -0.002
       0.007
       0.017
       0.026
       0.030
       0.031
       0.040
       0.063
       0.090
       0.101
       0.085
       0.049
       0.012
      -0.007
      -0.003
       0.017
       0.037
       0.045
       0.037
       0.018
       0.000
      -0.007
       0.003
       0.020
       0.029
       0.028
       0.022
       0.021
       0.021
       0.008
      -0.023
      -0.066
      -0.101
      -0.119
      -0.117
      -0.102
      -0.079
      -0.054
      -0.034
      -0.029
      -0.042
      -0.067
      -0.086
      -0.090
      -0.085
      -0.087
      -0.105
      -0.132
      -0.156
      -0.165
      -0.160
      -0.142
      -0.110
      -0.065
      -0.008
       0.059
       0.133
       0.208
       0.274
       0.308
       0.295
       0.247
       0.194
       0.158
       0.130
       0.082
       0.011
      -0.052
      -0.058
       0.008
       0.113
       0.193
       0.204
       0.156
       0.090
       0.038
       0.001
      -0.038
      -0.080
      -0.108
      -0.101
      -0.056
       0.009
       0.074
       0.127
       0.160
       0.163
       0.120
       0.024
      -0.112
      -0.255
      -0.355
      -0.375
      -0.310
      -0.197
      -0.098
      -0.059
      -0.071
      -0.087
      -0.058
       0.015
       0.090
       0.116
       0.076
      -0.001
      -0.063
      -0.069
      -0.019
       0.056
       0.122
       0.159
       0.176
       0.193
       0.216
       0.234
       0.226
       0.184
       0.124
       0.070
       0.032
       0.001
      -0.040
      -0.097
      -0.155
      -0.192
      -0.203
      -0.211
      -0.244
      -0.301
      -0.339
      -0.304
      -0.180
      -0.005
       0.149
       0.233
       0.247
       0.228
       0.208
       0.182
       0.124
       0.017
      -0.122
      -0.253
      -0.334
      -0.343
      -0.272
      -0.131
       0.046
       0.212
       0.322
       0.356
       0.319
       0.230
       0.106
      -0.027
      -0.123
      -0.132
      -0.033
       0.131
       0.272
       0.314
       0.241
       0.096
      -0.050
      -0.151
      -0.199
      -0.208
      -0.186
      -0.131
      -0.040
       0.066
       0.144
       0.164
       0.124
       0.057
      -0.002
      -0.030
      -0.027
      -0.008
       0.004
      -0.009
      -0.046
      -0.087
      -0.095
      -0.042
       0.066
       0.172
       0.197
       0.094
      -0.112
      -0.331
      -0.462
      -0.457
      -0.337
      -0.171
      -0.023
       0.076
       0.125
       0.143
       0.149
       0.161
       0.184
       0.209
       0.210
       0.177
       0.124
       0.083
       0.072
       0.083
       0.090
       0.078
       0.049
       0.020
       0.004
       0.005
       0.011
       0.007
      -0.027
      -0.105
      -0.214
      -0.308
      -0.333
      -0.269
      -0.155
      -0.065
      -0.047
      -0.085
      -0.110
      -0.057
       0.083
       0.251
       0.362
       0.364
       0.266
       0.128
       0.017
      -0.031
      -0.019
       0.014
       0.026
       0.006
      -0.027
      -0.049
      -0.057
      -0.072
      -0.111
      -0.157
      -0.162
      -0.091
       0.044
       0.180
       0.248
       0.222
       0.121
      -0.013
      -0.136
      -0.198
      -0.151
       0.011
       0.213
       0.328
       0.272
       0.080
      -0.111
      -0.173
      -0.089
       0.037
       0.071
      -0.043
      -0.250
      -0.438
      -0.515
      -0.456
      -0.285
      -0.047
       0.217
       0.468
       0.650
       0.701
       0.588
       0.346
       0.067
      -0.145
      -0.236
      -0.223
      -0.175
      -0.159
      -0.199
      -0.264
      -0.294
      -0.250
      -0.135
       0.008
       0.126
       0.183
       0.172
       0.108
       0.030
      -0.023
      -0.029
      -0.005
       0.007
      -0.023
      -0.071
      -0.074
       0.005
       0.133
       0.217
       0.188
       0.050
      -0.116
      -0.220
      -0.218
      -0.134
      -0.029
       0.045
       0.065
       0.036
      -0.030
      -0.117
      -0.192
      -0.205
      -0.115
       0.071
       0.278
       0.407
       0.406
       0.314
       0.221
       0.189
       0.194
       0.158
       0.025
      -0.179
      -0.364
      -0.440
      -0.370
      -0.184
       0.051
       0.262
       0.398
       0.431
       0.361
       0.210
       0.021
      -0.169
      -0.325
      -0.417
      -0.419
      -0.323
      -0.165
      -0.009
       0.082
       0.093
       0.054
       0.008
      -0.023
      -0.046
      -0.062
      -0.046
       0.025
       0.131
       0.202
       0.171
       0.047
      -0.087
      -0.136
      -0.079
       0.018
       0.064
       0.023
      -0.054
      -0.073
       0.027
       0.221
       0.411
       0.485
       0.392
       0.179
      -0.042
      -0.165
      -0.166
      -0.114
      -0.111
      -0.201
      -0.335
      -0.404
      -0.329
      -0.121
       0.132
       0.318
       0.367
       0.277
       0.093
      -0.121
      -0.308
      -0.428
      -0.466
      -0.425
      -0.316
      -0.149
       0.057
       0.263
       0.414
       0.466
       0.413
       0.287
       0.134
      -0.010
      -0.129
      -0.210
      -0.238
      -0.201
      -0.110
      -0.002
       0.081
       0.111
       0.091
       0.046
       0.014
       0.026
       0.080
       0.134
       0.137
       0.071
      -0.030
      -0.104
      -0.108
      -0.051
       0.024
       0.078
       0.103
       0.119
       0.137
       0.149
       0.142
       0.126
       0.124
       0.151
       0.180
       0.165
       0.073
      -0.072
      -0.203
      -0.257
      -0.218
      -0.132
      -0.060
      -0.044
      -0.072
      -0.103
      -0.095
      -0.047
       0.005
       0.019
      -0.012
      -0.059
      -0.094
      -0.120
      -0.165
      -0.230
      -0.271
      -0.219
      -0.031
       0.266
       0.575
       0.784
       0.824
       0.694
       0.438
       0.110
      -0.250
      -0.602
      -0.879
      -0.996
      -0.889
      -0.571
      -0.152
       0.211
       0.400
       0.402
       0.296
       0.177
       0.087
       0.010
      -0.081
      -0.163
      -0.171
      -0.051
       0.173
       0.403
       0.527
       0.490
       0.319
       0.088
      -0.126
      -0.278
      -0.359
      -0.382
      -0.360
      -0.304
      -0.225
      -0.141
      -0.058
       0.034
       0.140
       0.248
       0.332
       0.369
       0.365
       0.340
       0.303
       0.247
       0.167
       0.084
       0.029
       0.011
       0.002
      -0.027
      -0.065
      -0.078
      -0.052
      -0.029
      -0.070
      -0.183
      -0.290
      -0.281
      -0.112
       0.148
       0.356
       0.392
       0.242
      -0.012
      -0.265
      -0.452
      -0.568
      -0.625
      -0.610
      -0.488
      -0.252
       0.039
       0.276
       0.380
       0.365
       0.313
       0.289
       0.291
       0.256
       0.138
      -0.052
      -0.250
      -0.387
      -0.424
      -0.348
      -0.175
       0.051
       0.263
       0.398
       0.437
       0.422
       0.406
       0.403
       0.371
       0.262
       0.072
      -0.143
      -0.311
      -0.395
      -0.405
      -0.371
      -0.309
      -0.223
      -0.112
       0.020
       0.177
       0.352
       0.500
       0.536
       0.405
       0.155
      -0.073
      -0.150
      -0.065
       0.067
       0.114
       0.048
      -0.044
      -0.062
      -0.004
       0.026
      -0.076
      -0.307
      -0.537
      -0.599
      -0.413
      -0.048
       0.318
       0.504
       0.443
       0.204
      -0.059
      -0.208
      -0.189
      -0.043
       0.124
       0.210
       0.175
       0.055
      -0.070
      -0.132
      -0.115
      -0.056
      -0.018
      -0.051
      -0.162
      -0.301
      -0.385
      -0.354
      -0.218
      -0.052
       0.065
       0.123
       0.183
       0.312
       0.498
       0.644
       0.644
       0.475
       0.212
      -0.033
      -0.196
      -0.275
      -0.290
      -0.250
      -0.146
       0.010
       0.163
       0.237
       0.182
       0.002
      -0.250
      -0.506
      -0.691
      -0.732
      -0.590
      -0.283
       0.105
       0.460
       0.694
       0.771
       0.698
       0.508
       0.240
      -0.049
      -0.288
      -0.415
      -0.409
      -0.289
      -0.081
       0.193
       0.484
       0.681
       0.635
       0.261
      -0.352
      -0.951
      -1.265
      -1.178
      -0.783
      -0.278
       0.175
       0.512
       0.724
       0.806
       0.765
       0.650
       0.531
       0.440
       0.339
       0.170
      -0.056
      -0.247
      -0.306
      -0.221
      -0.077
       0.030
       0.066
       0.069
       0.081
       0.091
       0.040
      -0.121
      -0.376
      -0.640
      -0.803
      -0.797
      -0.620
      -0.333
      -0.018
       0.249
       0.415
       0.468
       0.443
       0.407
       0.407
       0.436
       0.434
       0.340
       0.138
      -0.126
      -0.371
      -0.525
      -0.542
      -0.412
      -0.176
       0.072
       0.220
       0.203
       0.057
      -0.113
      -0.218
      -0.243
      -0.226
      -0.182
      -0.078
       0.125
       0.401
       0.655
       0.782
       0.728
       0.500
       0.141
      -0.278
      -0.659
      -0.905
      -0.960
      -0.842
      -0.594
      -0.228
       0.264
       0.834
       1.315
       1.488
       1.236
       0.651
      -0.014
      -0.514
      -0.759
      -0.811
      -0.766
      -0.647
      -0.418
      -0.076
       0.284
       0.518
       0.528
       0.325
       0.012
      -0.288
      -0.487
      -0.544
      -0.460
      -0.263
      -0.010
       0.223
       0.369
       0.388
       0.271
       0.043
      -0.238
      -0.490
      -0.636
      -0.638
      -0.520
      -0.333
      -0.118
       0.131
       0.441
       0.804
       1.143
       1.333
       1.286
       1.016
       0.624
       0.227
      -0.111
      -0.382
      -0.591
      -0.711
      -0.700
      -0.549
      -0.315
      -0.108
      -0.035
      -0.136
      -0.360
      -0.578
      -0.645
      -0.484
      -0.135
       0.258
       0.533
       0.612
       0.533
       0.396
       0.271
       0.162
       0.041
      -0.105
      -0.248
      -0.354
      -0.413
      -0.424
      -0.364
      -0.184
       0.136
       0.541
       0.909
       1.128
       1.159
       1.021
       0.732
       0.275
      -0.369
      -1.133
      -1.838
      -2.264
      -2.266
      -1.846
      -1.130
      -0.288
       0.530
       1.207
       1.654
       1.807
       1.648
       1.227
       0.674
       0.162
      -0.155
      -0.209
      -0.039
       0.242
       0.490
       0.577
       0.415
      -0.002
      -0.569
      -1.078
      -1.317
      -1.194
      -0.798
      -0.317
       0.104
       0.428
       0.672
       0.820
       0.813
       0.627
       0.335
       0.077
      -0.040
      -0.008
       0.101
       0.204
       0.249
       0.214
       0.085
      -0.128
      -0.362
      -0.498
      -0.427
      -0.134
       0.270
       0.601
       0.710
       0.571
       0.296
       0.059
      -0.012
       0.081
       0.209
       0.190
      -0.086
      -0.589
      -1.150
      -1.576
      -1.755
      -1.701
      -1.507
      -1.269
      -1.048
      -0.877
      -0.771
      -0.722
      -0.695
      -0.635
      -0.495
      -0.268
       0.011
       0.277
       0.463
       0.536
       0.519
       0.496
       0.585
       0.886
       1.421
       2.114
       2.806
       3.316
       3.497
       3.255
       2.557
       1.432
      -0.019
      -1.608
      -3.076
      -4.157
      -4.668
      -4.584
      -4.036
      -3.258
      -2.508
      -1.997
      -1.817
      -1.897
      -2.015
      -1.873
      -1.204
       0.151
       2.196
       4.743
       7.390
       9.575
      10.745
      10.597
       9.233
       7.106
       4.777
       2.649
       0.851
      -0.702
      -2.157
      -3.605
      -5.018
      -6.252
      -7.088
      -7.309
      -6.799
      -5.606
      -3.950
      -2.164
      -0.617
       0.353
       0.509
      -0.188
      -1.516
      -3.029
      -4.200
      -4.591
      -3.973
      -2.369
      -0.057
       2.449
       4.514
       5.593
       5.457
       4.305
       2.665
       1.150
       0.187
      -0.110
       0.104
       0.565
       1.041
       1.360
       1.381
       0.991
       0.173
      -0.929
      -2.009
      -2.706
      -2.739
      -2.027
      -0.708
       0.914
       2.470
       3.638
       4.229
       4.218
       3.701
       2.817
       1.696
       0.448
      -0.811
      -1.952
      -2.849
      -3.416
      -3.630
      -3.519
      -3.117
      -2.446
      -1.534
      -0.466
       0.593
       1.444
       1.922
       1.960
       1.611
       1.028
       0.399
      -0.113
      -0.428
      -0.555
      -0.565
      -0.557
      -0.644
      -0.928
      -1.451
      -2.150
      -2.861
      -3.385
      -3.538
      -3.193
      -2.318
      -1.009
       0.494
       1.868
       2.819
       3.205
       3.085
       2.662
       2.171
       1.779
       1.549
       1.447
       1.382
       1.259
       1.027
       0.692
       0.307
      -0.055
      -0.321
      -0.428
      -0.347
      -0.111
       0.164
       0.331
       0.279
      -0.025
      -0.543
      -1.196
      -1.862
      -2.353
      -2.449
      -2.004
      -1.071
       0.087
       1.120
       1.753
       1.867
       1.479
       0.688
      -0.350
      -1.413
      -2.227
      -2.526
      -2.158
      -1.156
       0.256
       1.735
       2.911
       3.497
       3.379
       2.667
       1.667
       0.749
       0.196
       0.104
       0.378
       0.809
       1.169
       1.287
       1.095
       0.618
      -0.062
      -0.851
      -1.652
      -2.369
      -2.926
      -3.313
      -3.576
      -3.747
      -3.753
      -3.425
      -2.626
      -1.415
      -0.063
       1.079
       1.787
       2.044
       1.988
       1.775
       1.506
       1.226
       0.969
       0.788
       0.754
       0.912
       1.235
       1.616
       1.904
       1.970
       1.774
       1.380
       0.914
       0.501
       0.228
       0.139
       0.223
       0.403
       0.532
       0.465
       0.142
      -0.372
      -0.937
      -1.429
      -1.792
      -2.018
      -2.099
      -2.025
      -1.825
      -1.592
      -1.432
      -1.393
      -1.429
      -1.442
      -1.362
      -1.171
      -0.888
      -0.536
      -0.130
       0.320
       0.812
       1.332
       1.834
       2.218
       2.359
       2.190
       1.749
       1.162
       0.559
       0.030
      -0.371
      -0.594
      -0.602
      -0.434
      -0.214
      -0.084
      -0.093
      -0.169
      -0.188
      -0.078
       0.143
       0.400
       0.619
       0.740
       0.719
       0.536
       0.232
      -0.098
      -0.355
      -0.503
      -0.578
      -0.637
      -0.710
      -0.800
      -0.914
      -1.057
      -1.195
      -1.222
      -0.997
      -0.448
       0.355
       1.203
       1.868
       2.213
       2.238
       2.039
       1.747
       1.476
       1.301
       1.242
       1.252
       1.235
       1.076
       0.688
       0.053
      -0.761
      -1.613
      -2.333
      -2.769
      -2.839
      -2.538
      -1.936
      -1.158
      -0.379
       0.216
       0.499
       0.458
       0.195
      -0.148
      -0.465
      -0.701
      -0.821
      -0.779
      -0.551
      -0.178
       0.235
       0.575
       0.785
       0.865
       0.839
       0.717
       0.506
       0.239
      -0.002
      -0.133
      -0.116
       0.018
       0.199
       0.365
       0.470
       0.484
       0.391
       0.199
      -0.048
      -0.289
      -0.476
      -0.588
      -0.623
      -0.574
      -0.431
      -0.211
       0.017
       0.157
       0.157
       0.055
      -0.049
      -0.062
       0.048
       0.246
       0.472
       0.686
       0.878
       1.053
       1.209
       1.328
       1.394
       1.402
       1.344
       1.193
       0.912
       0.490
      -0.025
      -0.528
      -0.909
      -1.117
      -1.182
      -1.177
      -1.171
      -1.189
      -1.215
      -1.206
      -1.130
      -0.984
      -0.812
      -0.681
      -0.627
      -0.622
      -0.579
      -0.411
      -0.092
       0.314
       0.687
       0.909
       0.930
       0.777
       0.530
       0.280
       0.096
       0.003
      -0.017
      -0.009
      -0.011
      -0.028
      -0.035
      -0.011
       0.036
       0.065
       0.031
      -0.079
      -0.237
      -0.396
      -0.517
      -0.569
      -0.522
      -0.355
      -0.078
       0.251
       0.541
       0.714
       0.743
       0.659
       0.526
       0.399
       0.304
       0.238
       0.200
       0.202
       0.251
       0.335
       0.416
       0.458
       0.432
       0.326
       0.138
      -0.114
      -0.368
      -0.545
      -0.591
      -0.518
      -0.397
      -0.299
      -0.248
      -0.228
      -0.211
      -0.194
      -0.185
      -0.190
      -0.204
      -0.220
      -0.235
      -0.238
      -0.206
      -0.113
       0.048
       0.254
       0.460
       0.612
       0.669
       0.605
       0.421
       0.158
      -0.110
      -0.298
      -0.369
      -0.346
      -0.287
      -0.228
      -0.147
       0.007
       0.234
       0.455
       0.547
       0.447
       0.206
      -0.053
      -0.220
      -0.256
      -0.182
      -0.046
       0.093
       0.167
       0.129
      -0.012
      -0.183
      -0.298
