Origin Time       22/02/2010 17:23:43 UTC
Lat.              30.0 N	
Long.             80.1 E	
Depth (Km)          2.0
Magnitude         4.7
 Region           BAGESHWER-UTTARAKHAND                                            
 Above details taken from IMD 
    
Station Code      BAG
Station Lat.       29.831  N
Station Long.      79.770  E
Station Height(m)  972.0
Site Class        A   Vs30 between 700 m/sec to 1400 m/sec * 
Record Time       22.02.2010 17:18:12.759 UTC
Sampling Rate     200. Hz
 Record Duration   82.165 Sec.
 Direction         N-S (N positive)
Max. Acceleration     20.054 cm/sec**2
     
  * For reference see Site Classification link of website 
     
 Base Line Corrected and Low Pass Filtered (Cut Off at 35 Hz) Time History
 Acceleration data in cm/sec**2
    
[...]
       0.004
       0.003
       0.000
      -0.003
      -0.005
      -0.004
      -0.002
       0.001
       0.004
       0.005
       0.007
       0.008
       0.008
       0.006
       0.002
      -0.005
      -0.010
      -0.009
      -0.002
       0.007
       0.012
       0.009
       0.001
      -0.008
      -0.011
      -0.006
       0.001
       0.007
       0.006
       0.001
      -0.005
      -0.008
      -0.008
      -0.005
      -0.003
      -0.003
      -0.006
      -0.010
      -0.012
      -0.012
      -0.011
      -0.008
      -0.006
      -0.004
      -0.003
      -0.001
       0.002
       0.004
       0.004
       0.004
       0.006
       0.009
       0.012
       0.013
       0.014
       0.014
       0.016
       0.017
       0.017
       0.015
       0.014
       0.016
       0.025
       0.040
       0.058
       0.076
       0.089
       0.096
       0.097
       0.092
       0.084
       0.074
       0.063
       0.055
       0.050
       0.050
       0.055
       0.065
       0.077
       0.089
       0.097
       0.100
       0.096
       0.081
       0.054
       0.017
      -0.021
      -0.050
      -0.066
      -0.074
      -0.083
      -0.096
      -0.104
      -0.090
      -0.040
       0.040
       0.126
       0.187
       0.199
       0.160
       0.089
       0.004
      -0.080
      -0.161
      -0.234
      -0.282
      -0.289
      -0.247
      -0.167
      -0.070
       0.018
       0.083
       0.118
       0.114
       0.061
      -0.052
      -0.220
      -0.402
      -0.534
      -0.558
      -0.460
      -0.284
      -0.109
       0.003
       0.030
       0.004
      -0.022
      -0.005
       0.059
       0.127
       0.141
       0.063
      -0.095
      -0.281
      -0.439
      -0.530
      -0.541
      -0.471
      -0.333
      -0.160
       0.006
       0.133
       0.225
       0.318
       0.451
       0.629
       0.794
       0.843
       0.688
       0.328
      -0.124
      -0.495
      -0.647
      -0.555
      -0.299
       0.000
       0.258
       0.452
       0.600
       0.717
       0.775
       0.713
       0.489
       0.133
      -0.242
      -0.509
      -0.615
      -0.604
      -0.566
      -0.534
      -0.458
      -0.256
       0.091
       0.509
       0.878
       1.106
       1.172
       1.104
       0.932
       0.672
       0.342
      -0.013
      -0.322
      -0.520
      -0.570
      -0.478
      -0.283
      -0.033
       0.234
       0.483
       0.669
       0.711
       0.531
       0.124
      -0.400
      -0.853
      -1.088
      -1.088
      -0.953
      -0.791
      -0.630
      -0.427
      -0.157
       0.117
       0.278
       0.246
       0.054
      -0.177
      -0.321
      -0.333
      -0.278
      -0.274
      -0.385
      -0.548
      -0.605
      -0.443
      -0.123
       0.130
       0.097
      -0.250
      -0.708
      -0.995
      -0.936
      -0.548
       0.005
       0.512
       0.802
       0.793
       0.525
       0.130
      -0.229
      -0.418
      -0.380
      -0.158
       0.113
       0.262
       0.184
      -0.072
      -0.312
      -0.339
      -0.118
       0.201
       0.425
       0.501
       0.537
       0.655
       0.823
       0.866
       0.643
       0.216
      -0.180
      -0.327
      -0.191
       0.096
       0.388
       0.641
       0.892
       1.171
       1.459
       1.719
       1.902
       1.925
       1.669
       1.070
       0.215
      -0.667
      -1.326
      -1.620
      -1.539
      -1.169
      -0.639
      -0.094
       0.345
       0.638
       0.832
       0.994
       1.118
       1.107
       0.858
       0.360
      -0.270
      -0.851
      -1.225
      -1.305
      -1.080
      -0.607
      -0.024
       0.473
       0.716
       0.668
       0.444
       0.206
       0.030
      -0.146
      -0.436
      -0.883
      -1.414
      -1.901
      -2.236
      -2.339
      -2.137
      -1.602
      -0.816
       0.010
       0.634
       0.916
       0.866
       0.593
       0.218
      -0.173
      -0.537
      -0.866
      -1.164
      -1.418
      -1.563
      -1.506
      -1.202
      -0.705
      -0.153
       0.317
       0.638
       0.812
       0.853
       0.742
       0.457
       0.034
      -0.408
      -0.725
      -0.833
      -0.752
      -0.556
      -0.318
      -0.084
       0.114
       0.263
       0.385
       0.542
       0.779
       1.060
       1.285
       1.384
       1.388
       1.390
       1.421
       1.400
       1.209
       0.823
       0.363
       0.027
      -0.032
       0.215
       0.662
       1.113
       1.365
       1.317
       1.028
       0.679
       0.445
       0.383
       0.421
       0.448
       0.391
       0.245
       0.038
      -0.175
      -0.316
      -0.300
      -0.096
       0.240
       0.590
       0.827
       0.869
       0.697
       0.379
       0.048
      -0.164
      -0.211
      -0.161
      -0.149
      -0.276
      -0.547
      -0.882
      -1.171
      -1.339
      -1.370
      -1.303
      -1.182
      -1.022
      -0.808
      -0.544
      -0.305
      -0.199
      -0.294
      -0.553
      -0.867
      -1.118
      -1.236
      -1.209
      -1.079
      -0.918
      -0.792
      -0.710
      -0.611
      -0.414
      -0.100
       0.249
       0.491
       0.502
       0.235
      -0.260
      -0.859
      -1.394
      -1.716
      -1.763
      -1.584
      -1.299
      -1.003
      -0.715
      -0.398
      -0.037
       0.314
       0.582
       0.742
       0.843
       0.949
       1.074
       1.170
       1.192
       1.141
       1.057
       0.974
       0.915
       0.907
       0.966
       1.071
       1.166
       1.210
       1.219
       1.242
       1.301
       1.347
       1.302
       1.128
       0.866
       0.603
       0.413
       0.311
       0.267
       0.244
       0.243
       0.297
       0.435
       0.633
       0.806
       0.847
       0.701
       0.392
       0.006
      -0.366
      -0.668
      -0.871
      -0.938
      -0.827
      -0.538
      -0.161
       0.137
       0.203
       0.008
      -0.325
      -0.599
      -0.685
      -0.597
      -0.452
      -0.358
      -0.330
      -0.295
      -0.175
       0.042
       0.272
       0.391
       0.324
       0.092
      -0.211
      -0.499
      -0.757
      -1.022
      -1.298
      -1.512
      -1.560
      -1.416
      -1.173
      -0.976
      -0.894
      -0.873
      -0.811
      -0.673
      -0.522
      -0.442
      -0.439
      -0.420
      -0.277
       0.034
       0.460
       0.884
       1.174
       1.228
       1.021
       0.613
       0.119
      -0.349
      -0.721
      -0.964
      -1.056
      -0.987
      -0.778
      -0.505
      -0.272
      -0.144
      -0.088
       0.022
       0.322
       0.837
       1.431
       1.865
       1.931
       1.574
       0.925
       0.228
      -0.288
      -0.525
      -0.531
      -0.428
      -0.313
      -0.202
      -0.065
       0.119
       0.324
       0.505
       0.644
       0.762
       0.882
       0.986
       1.021
       0.954
       0.816
       0.697
       0.685
       0.819
       1.066
       1.338
       1.521
       1.522
       1.301
       0.878
       0.323
      -0.260
      -0.757
      -1.071
      -1.158
      -1.059
      -0.877
      -0.720
      -0.634
      -0.587
      -0.528
      -0.438
      -0.331
      -0.222
      -0.123
      -0.064
      -0.103
      -0.273
      -0.520
      -0.707
      -0.696
      -0.460
      -0.111
       0.173
       0.268
       0.180
       0.015
      -0.124
      -0.208
      -0.279
      -0.377
      -0.485
      -0.546
      -0.524
      -0.461
      -0.448
      -0.537
      -0.686
      -0.794
      -0.794
      -0.708
      -0.610
      -0.554
      -0.519
      -0.435
      -0.252
       0.002
       0.219
       0.272
       0.093
      -0.270
      -0.657
      -0.870
      -0.788
      -0.445
      -0.003
       0.363
       0.574
       0.670
       0.751
       0.893
       1.115
       1.385
       1.621
       1.707
       1.531
       1.063
       0.405
      -0.222
      -0.586
      -0.576
      -0.265
       0.147
       0.453
       0.539
       0.401
       0.117
      -0.208
      -0.501
      -0.734
      -0.910
      -1.019
      -1.012
      -0.836
      -0.494
      -0.065
       0.343
       0.665
       0.897
       1.055
       1.123
       1.058
       0.831
       0.464
       0.025
      -0.401
      -0.755
      -1.012
      -1.170
      -1.225
      -1.165
      -0.980
      -0.671
      -0.250
       0.248
       0.767
       1.224
       1.523
       1.590
       1.424
       1.109
       0.789
       0.602
       0.610
       0.770
       0.940
       0.950
       0.687
       0.175
      -0.431
      -0.928
      -1.183
      -1.193
      -1.055
      -0.877
      -0.726
      -0.617
      -0.545
      -0.496
      -0.452
      -0.408
      -0.389
      -0.431
      -0.553
      -0.713
      -0.818
      -0.789
      -0.607
      -0.336
      -0.082
       0.066
       0.093
       0.070
       0.110
       0.287
       0.590
       0.933
       1.222
       1.410
       1.498
       1.507
       1.451
       1.327
       1.109
       0.763
       0.277
      -0.309
      -0.887
      -1.306
      -1.442
      -1.274
      -0.906
      -0.522
      -0.284
      -0.250
      -0.356
      -0.463
      -0.440
      -0.241
       0.076
       0.376
       0.530
       0.476
       0.255
      -0.037
      -0.315
      -0.550
      -0.751
      -0.915
      -1.013
      -1.019
      -0.964
      -0.903
      -0.842
      -0.690
      -0.329
       0.252
       0.901
       1.384
       1.548
       1.415
       1.146
       0.931
       0.883
       1.015
       1.265
       1.531
       1.705
       1.706
       1.511
       1.147
       0.660
       0.096
      -0.491
      -1.024
      -1.421
      -1.635
      -1.678
      -1.604
      -1.455
      -1.237
      -0.945
      -0.610
      -0.331
      -0.241
      -0.420
      -0.826
      -1.292
      -1.605
      -1.609
      -1.267
      -0.660
       0.074
       0.799
       1.414
       1.845
       2.044
       2.004
       1.774
       1.439
       1.065
       0.651
       0.154
      -0.434
      -1.017
      -1.412
      -1.440
      -1.032
      -0.275
       0.629
       1.442
       1.979
       2.176
       2.088
       1.824
       1.475
       1.069
       0.594
       0.050
      -0.516
      -1.013
      -1.342
      -1.434
      -1.277
      -0.920
      -0.467
      -0.051
       0.211
       0.262
       0.116
      -0.141
      -0.388
      -0.511
      -0.463
      -0.308
      -0.201
      -0.294
      -0.613
      -1.013
      -1.272
      -1.252
      -0.973
      -0.561
      -0.129
       0.279
       0.640
       0.906
       1.007
       0.914
       0.673
       0.375
       0.083
      -0.192
      -0.466
      -0.731
      -0.933
      -0.991
      -0.852
      -0.544
      -0.181
       0.083
       0.146
       0.012
      -0.234
      -0.497
      -0.723
      -0.894
      -0.995
      -0.997
      -0.887
      -0.689
      -0.449
      -0.208
       0.021
       0.246
       0.478
       0.703
       0.871
       0.906
       0.757
       0.436
       0.016
      -0.395
      -0.696
      -0.820
      -0.755
      -0.543
      -0.247
       0.090
       0.469
       0.908
       1.391
       1.843
       2.168
       2.315
       2.307
       2.188
       1.956
       1.559
       0.993
       0.375
      -0.088
      -0.234
      -0.058
       0.299
       0.657
       0.900
       1.001
       0.979
       0.853
       0.633
       0.346
       0.056
      -0.141
      -0.177
      -0.060
       0.119
       0.245
       0.253
       0.161
       0.033
      -0.060
      -0.072
       0.018
       0.199
       0.406
       0.526
       0.453
       0.173
      -0.209
      -0.540
      -0.728
      -0.795
      -0.834
      -0.920
      -1.070
      -1.250
      -1.409
      -1.483
      -1.392
      -1.057
      -0.441
       0.419
       1.420
       2.422
       3.258
       3.745
       3.736
       3.197
       2.259
       1.156
       0.090
      -0.854
      -1.701
      -2.505
      -3.280
      -3.973
      -4.481
      -4.679
      -4.458
      -3.783
      -2.745
      -1.561
      -0.499
       0.236
       0.571
       0.558
       0.315
      -0.029
      -0.358
      -0.577
      -0.637
      -0.560
      -0.441
      -0.389
      -0.447
      -0.553
      -0.587
      -0.464
      -0.198
       0.133
       0.461
       0.770
       1.060
       1.291
       1.380
       1.253
       0.916
       0.474
       0.083
      -0.114
      -0.049
       0.259
       0.716
       1.197
       1.590
       1.807
       1.766
       1.393
       0.676
      -0.280
      -1.265
      -2.065
      -2.580
      -2.854
      -3.008
      -3.133
      -3.238
      -3.293
      -3.300
      -3.334
      -3.504
      -3.877
      -4.424
      -5.034
      -5.588
      -6.033
      -6.397
      -6.738
      -7.072
      -7.344
      -7.474
      -7.438
      -7.298
      -7.154
      -7.052
      -6.940
      -6.721
      -6.345
      -5.837
      -5.263
      -4.661
      -4.019
      -3.301
      -2.485
      -1.567
      -0.538
       0.639
       2.013
       3.610
       5.416
       7.388
       9.466
      11.587
      13.670
      15.622
      17.338
      18.714
      19.648
      20.054
      19.883
      19.172
      18.070
      16.800
      15.545
      14.366
      13.207
      12.001
      10.778
       9.678
       8.863
       8.419
       8.306
       8.401
       8.563
       8.681
       8.677
       8.503
       8.121
       7.498
       6.615
       5.493
       4.194
       2.796
       1.334
      -0.218
      -1.903
      -3.708
      -5.503
      -7.068
      -8.191
      -8.791
      -8.996
      -9.087
      -9.334
      -9.816
     -10.385
     -10.796
     -10.892
     -10.676
     -10.239
      -9.660
      -8.993
      -8.334
      -7.855
      -7.745
      -8.100
      -8.850
      -9.792
     -10.694
     -11.395
     -11.830
     -11.986
     -11.832
     -11.307
     -10.370
      -9.062
      -7.527
      -5.965
      -4.554
      -3.397
      -2.509
      -1.828
      -1.247
      -0.660
      -0.003
       0.730
       1.499
       2.254
       2.962
       3.605
       4.153
       4.540
       4.667
       4.430
       3.762
       2.676
       1.282
      -0.253
      -1.788
      -3.292
      -4.834
      -6.492
      -8.239
      -9.898
     -11.224
     -12.032
     -12.279
     -12.043
     -11.426
     -10.467
      -9.155
      -7.515
      -5.690
      -3.913
      -2.386
      -1.177
      -0.226
       0.541
       1.130
       1.490
       1.626
       1.689
       1.937
       2.596
       3.703
       5.072
       6.406
       7.475
       8.225
       8.756
       9.196
       9.598
       9.944
      10.217
      10.454
      10.726
      11.075
      11.472
      11.845
      12.156
      12.443
      12.783
      13.206
      13.631
      13.906
      13.910
      13.635
      13.166
      12.580
      11.859
      10.897
       9.591
       7.949
       6.118
       4.323
       2.741
       1.406
       0.218
      -0.942
      -2.088
      -3.101
      -3.828
      -4.235
      -4.469
      -4.781
      -5.373
      -6.289
      -7.410
      -8.529
      -9.433
      -9.969
     -10.065
      -9.710
      -8.913
      -7.679
      -6.054
      -4.210
      -2.466
      -1.189
      -0.627
      -0.810
      -1.604
      -2.843
      -4.423
      -6.289
      -8.324
     -10.269
     -11.755
     -12.459
     -12.267
     -11.352
     -10.068
      -8.770
      -7.638
      -6.625
      -5.526
      -4.149
      -2.461
      -0.603
       1.216
       2.851
       4.261
       5.419
       6.219
       6.509
       6.222
       5.497
       4.647
       3.999
       3.726
       3.796
       4.061
       4.379
       4.691
       4.998
       5.289
       5.503
       5.572
       5.489
       5.325
       5.166
       5.048
       4.947
       4.822
       4.649
       4.412
       4.084
       3.610
       2.941
       2.069
       1.059
       0.043
      -0.842
      -1.538
      -2.121
      -2.750
      -3.533
      -4.390
      -5.064
      -5.271
      -4.891
      -4.042
      -2.992
      -1.992
      -1.158
      -0.464
       0.164
       0.757
       1.263
       1.584
       1.635
       1.405
       0.962
       0.403
      -0.193
      -0.772
      -1.263
      -1.556
      -1.547
      -1.216
      -0.672
      -0.107
       0.304
       0.475
       0.419
       0.192
      -0.138
      -0.493
      -0.763
      -0.830
      -0.615
      -0.126
       0.529
       1.168
       1.595
       1.683
       1.429
       0.935
       0.343
      -0.249
      -0.817
      -1.391
      -1.992
      -2.613
      -3.216
      -3.765
      -4.235
      -4.617
      -4.928
      -5.190
      -5.397
      -5.494
      -5.407
      -5.108
      -4.662
      -4.201
      -3.828
      -3.543
      -3.227
      -2.716
      -1.910
      -0.848
       0.305
       1.351
       2.181
       2.817
       3.347
       3.807
       4.127
       4.193
       3.955
       3.496
       3.002
       2.653
       2.524
       2.536
       2.509
       2.280
       1.829
       1.318
       1.008
       1.106
       1.639
       2.441
       3.243
       3.790
       3.916
       3.566
       2.791
       1.717
       0.501
      -0.733
      -1.934
      -3.082
      -4.116
      -4.890
      -5.230
      -5.045
      -4.405
      -3.517
      -2.600
      -1.757
      -0.934
      -0.016
       1.040
       2.129
       3.056
       3.656
       3.893
       3.865
       3.725
       3.588
       3.489
       3.427
       3.412
       3.484
       3.687
       4.026
       4.444
       4.847
       5.139
       5.247
       5.120
       4.729
       4.091
       3.292
       2.448
       1.649
       0.924
       0.270
      -0.289
      -0.690
      -0.896
      -0.960
      -1.020
      -1.208
      -1.560
      -2.022
      -2.533
      -3.089
      -3.732
      -4.471
      -5.223
      -5.851
      -6.248
      -6.384
      -6.261
      -5.851
      -5.110
      -4.067
      -2.904
      -1.904
      -1.278
      -1.016
      -0.896
      -0.650
      -0.171
       0.422
       0.884
       1.027
       0.838
       0.467
       0.117
      -0.068
      -0.046
       0.145
       0.441
       0.783
       1.120
       1.408
       1.614
       1.737
       1.820
       1.915
       2.040
       2.137
       2.095
       1.822
       1.317
       0.680
       0.055
      -0.442
      -0.769
      -0.953
      -1.055
      -1.133
      -1.208
      -1.236
      -1.127
      -0.810
      -0.317
       0.187
       0.482
       0.421
       0.003
      -0.649
      -1.392
      -2.130
      -2.821
      -3.438
      -3.937
      -4.271
      -4.413
      -4.364
      -4.132
      -3.705
      -3.049
      -2.148
      -1.039
       0.176
       1.357
       2.363
       3.092
       3.512
       3.677
       3.706
       3.724
       3.785
       3.846
       3.817
       3.637
       3.318
