Origin Time       25/11/2007 23:12:20 UTC
Lat.              28.6 N 
Long.             77.0 E 
Depth (Km)         20.3
Magnitude         4.3
 Region           DELHI-HARYANA-BORDER-REGION                                      
 Above details taken from IMD 
    
Station Code      HGR
Station Lat.       28.688  N
Station Long.      76.939  E
Station Height(m)  216.5
Site Class        C   Vs30 between 200 m/sec to 375 m/sec *  
Record Time       25.11.2007 23:12:16.775 UTC
Sampling Rate     200. Hz
 Record Duration   81.370 Sec.
 Direction         N-S (N positive)
Max. Acceleration    -91.026 cm/sec**2
     
  * For reference see Site Classification link of website 
     
 Base Line Corrected and Low Pass Filtered (Cut Off at 35 Hz) Time History
 Acceleration data in cm/sec**2
    
[...]
      -0.010
       0.018
       0.038
       0.032
       0.006
      -0.025
      -0.045
      -0.051
      -0.040
      -0.014
       0.017
       0.036
       0.034
       0.014
      -0.010
      -0.024
      -0.024
      -0.017
      -0.008
       0.001
       0.011
       0.016
       0.010
      -0.007
      -0.020
      -0.023
      -0.019
      -0.012
       0.000
       0.021
       0.041
       0.038
       0.008
      -0.030
      -0.047
      -0.029
       0.008
       0.034
       0.031
       0.004
      -0.022
      -0.021
       0.006
       0.035
       0.041
       0.016
      -0.021
      -0.040
      -0.028
       0.004
       0.024
       0.011
      -0.025
      -0.052
      -0.048
      -0.020
       0.008
       0.015
       0.003
      -0.016
      -0.024
      -0.015
       0.008
       0.022
       0.015
      -0.002
       0.002
       0.044
       0.105
       0.145
       0.137
       0.090
       0.040
       0.027
       0.058
       0.101
       0.104
       0.066
       0.080
       0.281
       0.681
       1.048
       1.001
       0.345
      -0.642
      -1.307
      -1.158
      -0.353
       0.368
       0.351
      -0.357
      -1.092
      -1.296
      -1.095
      -1.063
      -1.415
      -1.522
      -0.368
       2.376
       5.648
       7.394
       5.918
       1.227
      -4.651
      -8.674
      -8.594
      -4.439
       1.342
       5.324
       5.281
       1.625
      -2.923
      -5.194
      -3.690
       0.472
       4.371
       5.251
       2.343
      -2.616
      -6.412
      -6.281
      -1.707
       4.954
       9.652
       9.264
       3.982
      -2.645
      -6.472
      -6.058
      -3.421
      -1.535
      -1.168
      -0.383
       2.771
       7.254
       9.160
       5.265
      -3.364
     -11.410
     -13.287
      -7.628
       1.554
       7.903
       7.529
       1.855
      -3.746
      -4.510
      -0.255
       4.809
       6.294
       3.719
       0.398
      -0.496
       0.751
       1.161
      -1.271
      -5.144
      -6.916
      -4.280
       1.726
       7.530
       9.580
       6.504
      -0.247
      -7.129
     -10.105
      -6.739
       2.001
      11.545
      15.976
      11.836
       0.943
     -10.205
     -14.564
      -9.520
       1.067
       9.558
      10.074
       2.596
      -7.450
     -13.473
     -12.302
      -5.804
       1.110
       4.246
       2.850
      -0.535
      -2.681
      -2.360
      -0.712
       0.706
       1.778
       3.414
       5.552
       6.281
       3.547
      -2.235
      -7.643
      -8.728
      -4.395
       2.426
       6.883
       5.866
       0.336
      -5.407
      -6.919
      -2.939
       3.530
       7.219
       4.479
      -3.598
     -11.383
     -12.579
      -5.082
       7.008
      16.082
      16.448
       8.293
      -2.838
     -10.375
     -11.049
      -5.888
       1.907
       9.216
      13.471
      12.536
       5.893
      -3.638
     -10.480
     -10.089
      -2.923
       5.459
       8.766
       5.074
      -1.864
      -6.137
      -4.725
       0.312
       4.020
       2.810
      -2.837
      -8.999
     -11.250
      -7.641
       0.067
       7.491
      10.336
       7.078
      -0.184
      -7.260
     -10.529
      -8.757
      -3.183
       3.457
       8.011
       7.953
       2.750
      -4.936
      -9.874
      -7.605
       1.520
      11.410
      14.242
       6.702
      -6.847
     -17.182
     -16.794
      -5.126
      11.066
      21.958
      20.713
       7.947
      -8.135
     -16.812
     -12.428
       1.135
      13.246
      14.842
       5.449
      -7.079
     -13.563
     -10.760
      -2.776
       3.630
       4.834
       2.244
      -0.330
      -0.542
       0.801
       1.117
      -1.132
      -4.609
      -5.980
      -3.104
       2.251
       5.228
       2.246
      -5.023
     -10.379
      -8.471
       0.042
       8.548
       9.955
       2.739
      -7.583
     -12.668
      -7.765
       4.552
      15.995
      18.377
       9.586
      -4.591
     -14.317
     -12.637
      -0.520
      13.713
      20.204
      14.444
       0.315
     -12.833
     -16.868
     -10.369
       1.073
       9.526
      10.293
       4.227
      -4.067
      -9.819
     -10.715
      -7.312
      -1.822
       3.401
       6.656
       6.921
       3.879
      -1.552
      -6.759
      -8.280
      -4.134
       4.074
      11.452
      12.975
       7.328
      -1.733
      -7.968
      -7.333
      -1.007
       5.663
       7.326
       2.563
      -5.227
     -10.428
      -9.316
      -2.775
       4.380
       7.103
       3.969
      -1.989
      -6.062
      -5.670
      -1.858
       2.389
       4.908
       5.561
       5.178
       3.927
       1.159
      -3.078
      -6.750
      -6.803
      -2.082
       4.621
       8.036
       4.792
      -3.143
      -9.458
      -8.549
      -0.422
       8.901
      12.012
       6.044
      -4.890
     -12.709
     -11.512
      -2.159
       8.291
      12.043
       6.697
      -2.953
      -8.962
      -6.715
       1.557
       8.957
       9.682
       3.363
      -5.376
     -11.149
     -11.747
      -8.638
      -4.461
      -0.627
       2.692
       4.957
       4.684
       1.058
      -4.036
      -6.420
      -2.908
       5.344
      12.908
      14.030
       7.309
      -2.863
      -9.444
      -8.028
      -0.131
       8.047
      10.359
       5.276
      -3.139
      -8.468
      -6.914
      -0.242
       5.558
       5.024
      -2.217
     -10.786
     -13.606
      -7.604
       3.525
      11.955
      11.774
       3.526
      -6.406
     -10.819
      -6.888
       2.285
      10.404
      12.511
       8.024
       0.510
      -5.238
      -6.469
      -3.647
       0.822
       4.569
       6.222
       5.282
       1.969
      -2.595
      -6.451
      -7.580
      -4.980
       0.503
       6.059
       8.032
       4.368
      -3.123
      -9.186
      -8.911
      -2.108
       5.897
       8.376
       2.918
      -6.271
     -11.669
      -8.608
       0.864
       9.666
      11.420
       5.402
      -3.354
      -8.488
      -7.215
      -1.786
       3.003
       3.668
       0.212
      -4.508
      -7.218
      -6.465
      -3.177
       0.504
       2.909
       3.730
       3.649
       3.342
       2.898
       2.173
       1.527
       1.809
       3.337
       5.017
       4.951
       2.235
      -1.828
      -4.528
      -3.880
      -0.168
       4.241
       6.419
       4.707
      -0.108
      -5.073
      -7.079
      -5.406
      -2.477
      -1.611
      -3.693
      -6.157
      -5.446
      -0.548
       5.757
       9.016
       6.727
       0.541
      -4.768
      -4.897
       0.505
       7.341
      10.145
       6.317
      -1.879
      -8.978
     -10.204
      -4.722
       3.930
      10.385
      11.048
       6.154
      -1.007
      -6.737
      -9.200
      -8.826
      -7.115
      -5.133
      -2.886
       0.030
       3.269
       5.353
       4.728
       1.439
      -2.216
      -3.084
       0.169
       5.416
       8.371
       6.181
       0.158
      -5.206
      -6.245
      -3.284
       0.174
       1.223
       0.214
      -0.359
       0.794
       2.100
       0.945
      -3.187
      -7.748
      -9.212
      -5.991
       0.383
       6.329
       8.513
       6.060
       1.339
      -1.626
      -0.328
       4.103
       7.972
       8.361
       5.448
       1.625
      -1.349
      -3.931
      -7.400
     -11.174
     -12.113
      -7.146
       2.989
      12.609
      14.360
       4.970
     -11.063
     -23.482
     -23.355
      -9.989
       8.089
      19.199
      16.874
       4.067
      -9.518
     -14.341
      -7.127
       7.446
      20.027
      22.611
      13.644
      -1.016
     -11.978
     -12.618
      -3.578
       7.778
      12.761
       7.741
      -3.327
     -12.146
     -12.488
      -4.823
       4.267
       7.315
       1.746
      -8.283
     -15.390
     -14.916
      -8.296
      -1.077
       2.310
       2.061
       1.687
       3.713
       7.027
       8.534
       7.025
       4.876
       5.495
       9.017
      10.970
       6.177
      -5.196
     -15.665
     -15.790
      -2.976
      14.598
      23.614
      16.535
      -1.824
     -17.982
     -20.479
      -8.485
       8.264
      17.248
      12.131
      -3.361
     -18.547
     -23.178
     -14.172
       2.557
      16.278
      18.731
       9.365
      -5.016
     -15.311
     -15.839
      -7.196
       4.684
      12.305
      11.257
       3.015
      -6.274
     -10.356
      -7.281
      -0.276
       5.213
       5.644
       1.634
      -3.037
      -4.712
      -2.754
       0.365
       1.668
       0.311
      -2.189
      -3.760
      -3.372
      -1.203
       1.862
       4.529
       5.549
       4.577
       2.562
       0.836
      -0.236
      -1.367
      -3.091
      -4.785
      -5.178
      -3.640
      -0.767
       2.177
       4.191
       5.076
       5.302
       5.307
       4.813
       3.036
      -0.177
      -3.521
      -4.946
      -3.477
      -0.258
       2.371
       2.834
       1.423
      -0.288
      -0.946
      -0.509
      -0.079
      -0.595
      -1.567
      -1.311
       1.141
       4.311
       5.026
       1.504
      -4.284
      -7.794
      -5.918
       0.009
       5.246
       5.884
       2.291
      -1.504
      -1.870
       0.948
       3.317
       1.948
      -2.958
      -8.002
      -9.547
      -6.495
      -0.873
       3.799
       5.066
       3.309
       1.285
       1.505
       3.562
       4.272
       1.011
      -4.912
      -8.580
      -5.755
       2.728
      10.745
      11.525
       3.467
      -7.808
     -13.256
      -7.484
       6.372
      18.199
      18.231
       4.771
     -13.824
     -24.907
     -20.926
      -5.150
      10.939
      16.476
       9.164
      -3.836
     -12.167
     -10.212
      -0.570
       8.859
      11.186
       5.370
      -3.660
      -9.235
      -8.031
      -1.979
       4.165
       6.973
       6.404
       4.482
       2.725
       1.219
      -0.262
      -1.114
      -0.426
       1.519
       2.791
       1.354
      -2.786
      -7.040
      -8.057
      -4.421
       1.989
       7.021
       6.979
       1.352
      -6.282
     -10.250
      -6.902
       2.097
      10.410
      11.729
       4.826
      -5.369
     -11.612
      -9.790
      -1.575
       7.400
      11.712
       9.225
       1.566
      -7.093
     -11.779
      -8.985
       0.739
      11.889
      16.860
      11.409
      -1.684
     -14.159
     -18.045
     -11.097
       2.021
      13.181
      16.001
       9.408
      -2.182
     -11.620
     -13.100
      -5.686
       5.705
      13.220
      11.603
       2.161
      -8.399
     -13.220
      -9.956
      -1.505
       6.458
       8.634
       2.800
      -8.288
     -17.354
     -16.861
      -5.053
      11.423
      21.648
      18.616
       4.653
     -10.491
     -17.008
     -11.713
       0.731
      11.952
      15.613
      10.838
       1.812
      -5.414
      -6.680
      -2.033
       4.449
       7.267
       3.298
      -5.593
     -13.354
     -13.955
      -5.999
       5.952
      14.427
      14.051
       4.982
      -7.323
     -15.640
     -15.528
      -8.020
       1.349
       6.529
       5.161
      -0.037
      -3.600
      -1.522
       5.836
      14.168
      18.302
      15.362
       6.066
      -5.838
     -15.254
     -18.027
     -13.218
      -3.972
       4.212
       7.104
       4.608
       0.478
      -0.868
       2.182
       7.255
       9.837
       6.705
      -1.442
     -10.010
     -13.317
      -8.471
       2.467
      13.946
      20.985
      22.228
      19.388
      14.472
       8.402
       2.174
      -2.021
      -2.236
       0.487
       1.800
      -2.297
     -10.980
     -18.158
     -17.437
      -8.330
       2.487
       6.631
       1.183
      -9.347
     -17.797
     -20.731
     -20.457
     -21.778
     -27.222
     -34.714
     -38.899
     -34.851
     -21.722
      -3.766
      12.271
      21.625
      24.267
      23.769
      23.728
      25.305
      27.790
      30.694
      34.598
      39.941
      45.426
      48.023
      44.802
      35.003
      20.564
       4.832
      -9.243
     -20.045
     -27.258
     -31.685
     -35.202
     -40.087
     -47.307
     -55.074
     -59.613
     -57.948
     -49.998
     -37.741
     -22.567
      -4.178
      17.336
      38.514
      52.274
      51.433
      33.668
       4.640
     -22.909
     -34.600
     -22.467
       9.106
      44.480
      65.398
      61.537
      35.673
       0.586
     -28.973
     -43.476
     -41.436
     -28.025
     -11.419
       1.272
       6.919
       6.811
       4.525
       2.915
       2.527
       2.290
       1.338
       0.251
       1.015
       5.871
      15.420
      26.979
      34.979
      34.203
      23.821
       8.566
      -4.681
     -12.323
     -16.484
     -21.912
     -30.314
     -37.856
     -38.483
     -30.011
     -17.220
      -8.755
      -9.940
     -17.397
     -20.621
     -10.422
      12.039
      33.791
      39.044
      22.331
      -5.303
     -23.293
     -16.906
      11.170
      42.428
      56.501
      46.875
      25.905
      14.335
      22.970
      41.867
      47.432
      22.628
     -26.783
     -74.209
     -91.026
     -66.913
     -16.265
      32.648
      56.039
      47.069
      15.770
     -20.122
     -45.227
     -51.898
     -40.671
     -18.209
       5.551
      20.794
      21.531
       8.231
     -12.277
     -29.955
     -36.241
     -28.023
      -9.136
      11.313
      23.380
      21.713
       9.143
      -4.352
      -7.680
       3.715
      24.177
      41.293
      44.005
      29.387
       3.923
     -20.492
     -32.824
     -28.295
     -10.636
       9.921
      22.231
      20.499
       7.459
      -7.587
     -14.851
     -10.508
       0.897
      10.083
      10.045
       0.896
     -11.048
     -18.497
     -18.127
     -11.908
      -4.936
      -1.966
      -4.765
     -11.322
     -16.962
     -16.752
      -8.227
       6.726
      22.028
      30.089
      26.005
      11.080
      -6.772
     -16.882
     -12.419
       4.537
      23.582
      32.600
      26.077
       9.049
      -6.490
     -10.348
      -1.620
      10.700
      14.361
       2.775
     -20.171
     -42.478
     -51.496
     -41.417
     -16.415
      11.907
      31.033
      34.332
      24.178
       9.404
      -1.067
      -3.688
      -1.110
       1.403
       0.624
      -2.469
      -4.353
      -2.824
       0.363
       0.704
      -4.666
     -13.348
     -18.544
     -14.271
      -0.660
      15.175
      23.503
      18.348
       1.433
     -18.648
     -31.285
     -29.820
     -15.284
       4.130
      17.560
      17.552
       4.329
     -14.373
     -27.986
     -29.437
     -19.024
      -3.357
       9.624
      15.819
      16.643
      16.510
      18.717
      23.034
      26.264
      24.748
      17.071
       5.609
      -4.118
      -6.396
       0.832
      13.927
      25.303
      28.280
      21.592
       9.916
      -0.102
      -5.041
      -6.829
     -10.189
     -17.837
     -27.660
     -34.167
     -32.703
     -22.799
      -8.374
       4.620
      11.104
       9.027
       0.395
      -9.282
     -13.699
      -9.743
       0.008
       8.812
      10.608
       4.355
      -5.601
     -13.017
     -13.811
      -7.675
       2.932
      14.551
      23.786
      27.783
      24.917
      15.810
       3.850
      -5.659
      -7.846
      -1.226
      10.437
      19.227
      17.626
       4.112
     -14.567
     -27.176
     -25.839
     -12.134
       3.785
      10.798
       5.062
      -7.962
     -18.832
     -21.404
     -15.856
      -6.425
       2.314
       7.267
       7.114
       2.786
      -2.297
      -3.948
      -0.500
       5.481
       9.239
       7.988
       3.290
      -0.453
       0.181
       5.095
      11.338
      15.630
      15.997
      11.699
       2.952
      -8.324
     -17.844
     -20.410
     -13.417
       0.539
      14.770
      22.797
      22.251
      15.337
       6.244
      -1.671
      -6.898
      -9.381
     -10.047
     -10.542
     -12.475
     -16.024
     -19.163
     -18.795
     -13.241
      -3.991
       4.778
       8.530
       5.032
      -3.986
     -13.162
     -16.337
     -10.811
      -0.045
       8.114
       7.318
      -1.630
     -10.485
      -9.852
       2.630
      19.423
      28.693
      23.952
       9.369
      -3.788
      -6.225
       2.474
      14.257
      19.273
      13.277
       0.364
     -10.522
     -12.392
      -5.218
       4.537
       9.373
       6.601
      -0.334
      -5.851
      -7.408
      -6.880
      -7.459
     -10.004
     -12.641
     -13.309
     -11.845
      -9.490
      -7.027
      -4.034
       0.086
       4.748
       8.150
       8.725
       6.694
       4.186
       3.733
       6.266
      10.146
      12.144
       9.931
       4.263
      -1.068
      -1.936
       2.539
       8.569
      10.204
       4.250
      -6.475
     -14.818
     -15.006
      -7.575
       1.024
       3.926
      -0.497
      -7.731
     -11.409
      -8.695
      -2.263
       2.293
       1.091
      -5.014
     -11.129
     -12.116
      -6.553
       2.193
       8.549
       8.774
       3.385
      -3.467
      -6.937
      -4.742
       1.348
       6.801
       7.663
       3.625
      -1.490
      -2.402
       3.514
      13.610
      21.176
      20.231
      10.548
      -1.448
      -7.313
      -3.332
       6.319
      12.894
      10.191
      -0.412
     -11.017
     -13.420
      -5.616
       6.386
      12.856
       7.637
      -7.018
     -21.816
     -27.053
     -19.584
      -4.949
       6.775
       8.134
      -0.780
     -12.873
     -19.170
     -14.659
      -1.065
      14.644
      24.492
      23.857
      13.891
       1.018
      -6.490
      -3.646
       7.397
      18.281
      20.514
      12.181
      -0.530
      -8.457
      -6.842
       1.259
       7.970
       7.029
      -1.615
     -12.207
     -17.789
     -15.402
      -8.155
      -2.747
      -4.195
     -11.614
     -18.425
     -17.277
      -6.156
       9.260
      19.344
      17.819
       6.767
      -4.988
      -8.924
      -3.295
       6.264
      11.962
       9.918
       2.226
      -5.687
      -9.366
      -7.980
      -4.106
      -1.422
      -1.993
      -5.009
      -7.842
      -8.524
      -7.433
      -6.710
      -8.040
     -10.971
     -13.295
     -12.903
      -9.332
      -3.798
       1.849
       6.122
       8.280
       8.466
       7.938
       8.903
      13.222
      20.387
      26.586
      26.564
      17.706
       3.220
      -8.886
     -11.104
      -2.208
      11.279
      19.571
      16.897
       5.757
      -5.392
      -9.128
      -4.781
       1.791
       3.685
      -1.294
      -9.350
     -14.498
     -13.837
      -9.666
      -6.824
      -7.991
     -11.322
     -12.408
      -8.406
      -0.496
       7.110
      10.179
       7.023
