Origin Time       25/11/2007 23:12:20
Lat.              28.6 N 
Long.             77.0 E 
Depth (Km)         20.3
Magnitude         4.3
 Region           DELHI-HARYANA-BORDER-REGION                                      
 Above details taken from IMD 
     
Station Code      HGR
Station Lat.       28.688  N
Station Long.      76.939  E
Station Height(m)  216.5
Site Class        C   Vs30 between 200 m/sec to 375 m/sec *  
Record Time       25.11.2007 23:12:16.775
Sampling Rate     200. Hz
 Record Duration   81.370 Sec.
 Direction         E-W (E positive)
Max. Acceleration   -117.605 cm/sec**2
     
  * For reference see Site Classification link of website 
     
 Base Line Corrected and Low Pass Filtered (Cut Off at 35 Hz) Time History
 Acceleration data in cm/sec**2
    
[...]
       0.019
       0.016
       0.008
       0.005
       0.003
      -0.006
      -0.022
      -0.030
      -0.016
       0.019
       0.050
       0.055
       0.031
      -0.001
      -0.016
      -0.010
       0.007
       0.018
       0.017
       0.006
      -0.006
      -0.012
      -0.009
       0.001
       0.011
       0.017
       0.020
       0.022
       0.020
       0.013
       0.000
      -0.011
      -0.013
      -0.005
       0.005
       0.008
       0.003
      -0.002
      -0.003
       0.001
       0.008
       0.015
       0.018
       0.011
      -0.009
      -0.036
      -0.052
      -0.044
      -0.014
       0.018
       0.028
       0.009
      -0.025
      -0.047
      -0.041
      -0.012
       0.020
       0.036
       0.027
       0.005
      -0.010
      -0.006
       0.013
       0.030
       0.029
       0.012
      -0.006
      -0.010
      -0.001
       0.010
       0.014
       0.009
       0.001
      -0.004
      -0.002
       0.007
       0.016
       0.018
       0.010
      -0.003
      -0.010
      -0.008
       0.001
       0.010
       0.014
       0.013
       0.012
       0.013
       0.017
       0.020
       0.018
       0.010
      -0.002
      -0.012
      -0.013
      -0.006
       0.004
       0.007
       0.003
      -0.003
      -0.002
       0.005
       0.016
       0.023
       0.023
       0.015
       0.005
      -0.001
       0.003
       0.012
       0.018
       0.011
      -0.007
      -0.024
      -0.023
      -0.005
       0.014
       0.019
       0.004
      -0.018
      -0.029
      -0.022
      -0.003
       0.013
       0.019
       0.015
       0.009
       0.013
       0.032
       0.057
       0.070
       0.062
       0.038
       0.019
       0.016
       0.022
       0.015
      -0.011
      -0.039
      -0.040
      -0.003
       0.044
       0.082
       0.149
       0.341
       0.673
       0.930
       0.708
      -0.256
      -1.679
      -2.713
      -2.495
      -0.893
       1.246
       2.679
       2.696
       1.553
       0.060
      -1.189
      -2.126
      -2.805
      -2.842
      -1.485
       1.606
       5.560
       8.295
       7.548
       2.427
      -5.473
     -12.316
     -13.881
      -8.192
       2.669
      13.042
      16.674
      10.755
      -1.699
     -13.191
     -16.438
      -9.313
       3.542
      13.697
      14.543
       5.725
      -6.652
     -14.212
     -12.057
      -2.093
       8.425
      12.165
       7.053
      -2.367
      -8.753
      -7.920
      -1.911
       3.402
       3.847
       0.475
      -1.993
      -0.035
       5.146
       8.588
       5.968
      -2.428
     -11.444
     -14.684
      -9.268
       1.842
      11.748
      14.428
       8.854
      -0.655
      -7.868
      -8.930
      -4.372
       2.036
       6.160
       6.055
       2.784
      -0.848
      -2.675
      -2.770
      -2.760
      -3.460
      -3.436
      -0.455
       5.366
      10.211
       9.162
       0.939
      -9.624
     -14.386
      -8.432
       5.073
      16.502
      17.250
       6.860
      -6.677
     -13.786
     -11.048
      -2.934
       3.283
       3.962
       0.907
      -2.035
      -3.038
      -2.904
      -2.750
      -2.360
      -1.074
       0.538
       0.776
      -1.215
      -3.970
      -4.597
      -1.363
       4.429
       9.072
       9.131
       4.013
      -3.523
      -9.207
      -9.941
      -5.441
       1.950
       8.649
      11.474
       9.042
       2.530
      -4.807
      -9.407
      -9.372
      -5.243
       0.709
       5.745
       7.620
       5.332
      -0.089
      -5.480
      -7.116
      -3.446
       3.262
       8.175
       7.339
       0.672
      -7.742
     -12.188
      -9.011
       0.786
      11.706
      16.934
      12.825
       1.703
      -9.371
     -13.372
      -8.262
       1.715
       9.413
      10.098
       4.527
      -2.322
      -5.487
      -3.704
       0.198
       2.094
      -0.027
      -4.675
      -8.139
      -7.211
      -1.489
       6.128
      11.099
      10.105
       3.211
      -6.072
     -12.728
     -12.907
      -5.962
       4.990
      14.228
      16.116
       8.441
      -5.379
     -17.269
     -19.174
      -8.984
       6.934
      17.557
      15.201
       1.460
     -13.859
     -19.938
     -12.598
       3.128
      16.751
      19.411
       9.661
      -5.551
     -15.469
     -13.051
      -0.359
      12.580
      15.294
       5.225
      -9.934
     -18.120
     -12.385
       3.671
      18.751
      22.430
      12.614
      -3.547
     -15.364
     -16.218
      -7.452
       3.730
      10.014
       8.811
       2.983
      -2.396
      -4.287
      -3.549
      -3.200
      -4.955
      -7.338
      -7.056
      -2.342
       4.769
       9.403
       7.544
      -0.386
      -9.110
     -11.935
      -5.649
       6.787
      17.791
      20.003
      11.218
      -3.851
     -16.231
     -18.162
      -7.994
       8.440
      20.926
      20.909
       7.164
     -12.546
     -25.604
     -22.717
      -4.973
      15.739
      24.453
      14.166
      -8.187
     -26.162
     -25.942
      -6.928
      17.568
      30.106
      21.814
      -1.457
     -23.625
     -29.804
     -16.487
       6.445
      22.961
      22.204
       5.896
     -13.444
     -22.030
     -14.807
       1.640
      15.020
      16.880
       8.187
      -2.777
      -7.674
      -4.368
       2.521
       6.493
       4.835
       0.271
      -2.293
      -0.481
       3.688
       6.029
       3.963
      -1.609
      -7.446
     -10.480
      -9.513
      -5.382
      -0.171
       3.766
       4.585
       1.665
      -3.647
      -7.929
      -7.262
      -0.213
      10.057
      17.044
      15.301
       4.863
      -8.021
     -14.904
     -11.206
       0.267
      11.277
      14.259
       7.861
      -2.451
      -9.108
      -8.401
      -2.773
       2.046
       2.089
      -1.990
      -6.178
      -6.805
      -3.446
       1.009
       2.905
       1.000
      -2.253
      -2.727
       1.391
       7.284
       9.536
       5.172
      -3.001
      -8.293
      -5.871
       2.848
      11.160
      12.458
       5.362
      -5.400
     -12.592
     -11.579
      -3.381
       6.117
      10.125
       5.532
      -4.797
     -13.670
     -14.403
      -5.740
       6.774
      14.468
      11.961
       1.442
      -8.790
     -10.629
      -2.334
      10.220
      17.854
      14.527
       1.397
     -13.884
     -21.931
     -17.496
      -2.915
      13.079
      20.727
      15.423
       0.623
     -14.390
     -20.346
     -13.754
       0.933
      14.202
      17.784
      10.182
      -2.675
     -12.097
     -12.727
      -5.455
       4.172
       9.926
       8.454
       0.888
      -7.895
     -12.118
      -8.870
      -0.494
       6.601
       6.602
      -0.850
      -9.791
     -12.303
      -4.884
       8.361
      18.494
      18.376
       7.972
      -5.733
     -13.850
     -11.629
      -1.187
      10.371
      15.612
      11.212
      -0.145
     -11.380
     -15.421
      -9.941
       0.861
       9.200
       9.631
       3.261
      -3.571
      -5.111
      -1.217
       2.978
       2.251
      -3.566
      -9.092
      -7.983
       1.239
      13.037
      18.501
      12.187
      -3.285
     -18.575
     -23.915
     -15.588
       1.849
      18.507
      24.928
      17.353
       0.017
     -16.865
     -22.931
     -14.262
       3.701
      19.411
      22.789
      11.934
      -5.709
     -18.501
     -18.512
      -6.693
       8.269
      16.406
      13.325
       2.493
      -8.152
     -12.156
      -8.568
      -1.587
       3.211
       2.996
      -0.692
      -3.740
      -3.188
       0.156
       2.504
       0.745
      -4.359
      -8.486
      -7.421
      -0.808
       7.275
      11.366
       8.763
       1.482
      -5.389
      -7.440
      -3.792
       2.761
       7.885
       8.483
       4.465
      -1.475
      -5.844
      -6.624
      -4.268
      -1.055
       0.511
      -0.611
      -3.066
      -3.808
      -0.592
       5.364
       9.314
       6.625
      -2.476
     -11.726
     -13.277
      -4.467
       9.154
      17.661
      14.475
       1.514
     -12.306
     -17.611
     -10.940
       3.327
      16.126
      19.399
      10.832
      -4.869
     -18.603
     -21.934
     -12.083
       5.761
      20.682
      22.577
       9.352
     -10.740
     -24.316
     -22.268
      -6.267
      12.541
      21.537
      15.372
      -0.757
     -15.230
     -18.185
      -7.968
       8.185
      19.223
      17.651
       4.522
     -11.087
     -18.030
     -10.810
       6.166
      21.266
      23.917
      12.574
      -4.081
     -14.053
     -11.485
      -0.734
       8.052
       7.562
      -1.290
     -11.214
     -15.180
     -11.757
      -4.998
      -0.021
       1.132
       0.052
      -0.535
       0.559
       2.291
       2.732
       1.091
      -1.203
      -1.464
       1.730
       6.636
       9.231
       6.646
       0.111
      -5.590
      -6.010
      -0.849
       5.708
       8.272
       4.302
      -4.154
     -11.914
     -14.035
      -8.992
       0.205
       7.723
       8.601
       2.174
      -7.182
     -12.799
     -10.249
      -0.521
      10.441
      15.554
      11.317
       0.399
      -9.921
     -12.744
      -6.470
       4.271
      12.401
      13.582
       8.624
       1.723
      -3.234
      -5.052
      -4.822
      -3.847
      -2.285
       0.178
       2.734
       3.342
       0.760
      -3.596
      -6.564
      -6.272
      -3.791
      -1.495
      -0.292
       0.817
       2.577
       3.835
       2.757
      -0.554
      -3.391
      -2.755
       1.699
       7.031
       9.285
       6.743
       1.504
      -2.010
      -0.677
       4.516
       8.995
       8.163
       1.101
      -8.388
     -14.054
     -11.385
      -1.251
       9.638
      12.806
       4.554
     -10.113
     -20.333
     -17.726
      -3.548
      11.793
      16.911
       8.495
      -6.250
     -15.521
     -12.149
       1.073
      13.806
      16.233
       6.557
      -7.714
     -15.562
     -10.897
       2.678
      14.464
      14.933
       3.387
     -11.237
     -17.393
     -10.212
       4.584
      15.343
      13.845
       1.736
     -11.039
     -14.336
      -5.780
       7.702
      15.702
      12.538
       1.239
      -9.495
     -12.345
      -6.619
       2.022
       6.446
       3.453
      -4.269
     -10.679
     -11.099
      -5.340
       2.797
       8.622
       9.589
       6.424
       2.134
      -0.266
       0.152
       1.773
       2.051
      -0.106
      -3.146
      -3.943
      -0.424
       6.224
      11.704
      11.478
       4.391
      -5.954
     -13.524
     -14.134
      -8.186
       0.121
       5.963
       6.725
       2.833
      -3.068
      -7.461
      -7.381
      -1.952
       6.523
      13.227
      13.651
       6.974
      -2.758
      -9.104
      -7.878
      -0.456
       7.021
       8.219
       1.555
      -8.311
     -13.709
      -9.651
       2.174
      14.091
      17.475
       8.841
      -7.129
     -20.020
     -20.539
      -7.444
      10.771
      21.394
      16.534
      -1.071
     -19.773
     -26.874
     -17.200
       3.148
      20.371
      22.060
       6.277
     -15.949
     -27.692
     -18.635
       6.321
      29.701
      34.162
      15.629
     -13.432
     -33.118
     -30.307
      -7.394
      20.134
      34.507
      27.059
       3.215
     -21.319
     -30.625
     -18.965
       5.206
      24.903
      26.603
       9.948
     -12.324
     -24.198
     -18.264
      -0.591
      14.588
      15.839
       2.882
     -13.583
     -20.222
     -11.268
       7.108
      21.505
      21.362
       6.705
     -12.056
     -21.767
     -15.831
       1.425
      18.097
      23.089
      13.525
      -3.784
     -17.378
     -18.889
      -8.256
       6.750
      16.074
      14.096
       3.035
      -9.013
     -13.822
      -8.638
       2.104
      10.043
       8.929
      -0.764
     -12.010
     -16.186
      -9.313
       4.778
      16.634
      17.492
       5.654
     -11.595
     -22.418
     -18.593
      -1.575
      18.195
      28.363
      22.878
       5.562
     -12.956
     -22.206
     -17.882
      -3.619
      11.612
      18.670
      13.487
      -0.380
     -13.866
     -18.433
     -11.931
       0.168
       9.094
       9.166
       1.429
      -7.811
     -12.050
      -9.368
      -3.315
       0.713
       0.441
      -1.611
      -1.392
       1.677
       3.196
      -2.138
     -14.410
     -26.466
     -28.932
     -18.447
      -1.672
       9.207
       6.283
      -7.157
     -18.692
     -16.460
       1.283
      24.360
      37.868
      32.701
      11.822
     -11.634
     -22.621
     -13.454
      11.482
      38.510
      53.582
      51.653
      39.731
      30.975
      34.164
      46.603
      55.811
      48.635
      21.139
     -17.869
     -52.246
     -68.952
     -65.887
     -51.707
     -38.525
     -33.354
     -34.275
     -33.368
     -23.779
      -5.691
      13.052
      22.116
      15.838
      -2.682
     -23.060
     -33.106
     -24.663
       2.828
      41.827
      79.293
     101.998
     102.551
      82.408
      49.470
      12.139
     -25.123
     -61.161
     -93.665
    -115.750
    -117.605
     -92.897
     -45.334
      10.055
      53.055
      68.748
      55.733
      26.461
      -0.751
     -12.827
      -8.785
       1.905
       7.527
       2.614
      -8.957
     -17.653
     -15.835
      -3.978
       8.885
      11.284
      -1.874
     -24.294
     -41.569
     -41.042
     -20.977
       7.845
      29.075
      31.034
      13.459
     -12.877
     -32.645
     -34.397
     -16.552
      11.839
      36.101
      44.606
      36.276
      21.314
      13.371
      18.365
      29.031
      30.185
      10.741
     -26.674
     -65.221
     -82.638
     -64.231
     -12.888
      50.074
      95.116
     100.826
      66.429
      11.928
     -34.597
     -54.101
     -46.687
     -28.407
     -17.702
     -21.300
     -29.469
     -24.104
       5.934
      53.383
      94.139
     101.871
      65.895
      -0.379
     -66.446
    -102.201
     -94.416
     -52.360
      -0.340
      37.018
      47.262
      33.824
      10.690
      -7.169
     -11.896
      -5.709
       1.965
       1.362
     -10.528
     -27.169
     -36.492
     -29.400
      -6.559
      21.714
      42.169
      46.656
      35.907
      17.345
      -0.516
     -12.713
     -18.607
     -19.279
     -14.955
      -5.599
       6.128
      13.843
      11.266
      -1.784
     -17.377
     -24.706
     -18.966
      -6.003
       2.302
      -1.317
     -12.443
     -18.556
     -10.276
      10.280
      31.460
      41.714
      37.803
      25.132
      11.411
       0.190
     -10.054
     -21.344
     -31.519
     -34.720
     -26.970
     -11.585
       1.236
       1.417
     -12.589
     -31.164
     -39.554
     -28.396
      -0.747
      29.686
      47.653
      45.941
      28.776
       7.580
      -6.769
      -9.410
      -1.957
      10.491
      22.427
      29.395
      28.635
      20.082
       7.190
      -4.100
      -8.666
      -5.609
       1.217
       6.223
       6.057
       1.146
      -5.982
     -13.230
     -19.623
     -24.017
     -24.129
     -17.722
      -5.252
       8.694
      17.074
      14.390
       0.191
     -20.125
     -37.356
     -42.309
     -30.205
      -4.007
      25.710
      45.536
      46.575
      29.863
       6.060
     -10.874
     -12.177
       0.461
      16.322
      22.811
      13.724
      -6.556
     -25.471
     -29.964
     -15.147
      11.295
      32.563
      33.169
      10.108
     -23.497
     -46.193
     -42.758
     -15.044
      18.991
      37.429
      29.128
       0.829
     -28.043
     -38.935
     -26.432
      -0.831
      20.171
      24.070
      11.298
      -6.716
     -16.673
     -12.652
       0.706
      12.570
      14.127
       4.543
      -9.425
     -19.244
     -20.843
     -16.531
     -11.965
     -11.298
     -14.159
     -16.010
     -11.314
       2.288
      21.247
      36.889
      39.992
      26.848
       2.933
     -18.868
     -25.415
     -11.809
      14.621
      38.254
      44.926
      30.925
       5.040
     -17.424
     -24.147
     -12.603
       9.235
      27.720
      31.040
      15.793
     -10.933
     -35.796
     -47.503
     -43.421
     -29.662
     -15.125
      -4.842
       2.029
       8.754
      15.995
      20.181
      16.818
       5.522
      -8.044
     -15.383
     -11.109
       2.996
      19.065
      28.578
      27.885
      19.751
      10.403
       5.008
       4.864
       7.489
       8.790
       5.695
      -2.097
     -11.852
     -18.920
     -18.818
      -9.754
       5.345
      19.018
      22.835
      12.934
      -6.472
     -25.058
     -33.093
     -27.890
     -14.833
      -2.560
       3.128
       1.742
      -3.706
      -9.783
     -14.087
     -14.889
     -10.890
      -2.312
       7.779
      14.220
      13.126
       5.351
      -3.393
      -6.522
      -1.602
       7.726
      14.557
      14.059
       7.123
      -0.556
      -3.219
       0.258
       5.544
       6.399
      -0.396
     -12.386
     -22.778
     -24.802
     -16.257
      -1.194
      12.537
      18.182
      14.055
       4.074
      -5.194
      -8.870
      -6.612
      -2.022
       0.837
       0.833
       0.129
       1.459
       5.224
       9.215
      10.892
       9.565
       6.414
       3.014
       0.429
      -0.467
       1.245
       5.594
      10.516
      12.269
       8.055
      -0.952
      -9.195
     -10.324
      -2.478
       9.302
      16.230
      12.419
      -0.404
     -14.159
     -20.628
     -17.408
      -8.857
      -1.834
      -0.190
      -2.379
      -3.601
      -0.423
       5.950
      10.591
       9.376
       3.175
      -2.389
      -1.738
       5.476
      13.512
      14.985
       7.044
      -5.790
     -14.599
     -12.730
      -1.051
      12.252
      17.299
       9.489
      -7.157
     -22.516
     -27.032
     -18.170
      -2.383
       9.051
       7.848
      -5.175
     -20.363
     -26.067
     -17.317
       0.154
      13.894
      14.059
       1.087
     -14.438
     -19.939
     -10.671
       6.642
      19.283
      18.538
       6.135
      -7.726
     -12.478
      -4.729
      10.043
      21.845
      22.878
      12.281
      -3.605
     -15.215
     -15.462
      -3.878
      13.036
      25.403
      25.595
      12.878
      -5.780
     -19.673
     -20.934
      -9.427
       7.369
      19.134
      18.810
       6.464
     -10.914
     -23.384
     -23.793
     -12.172
       4.076
      14.757
      13.489
       1.859
     -11.718
     -17.612
     -11.322
       3.586
      17.792
      22.353
      14.738
       0.643
      -9.974
     -10.086
      -0.781
       9.650
      12.271
       4.744
      -6.617
     -12.046
      -6.690
       5.078
      13.378
      11.406
       1.230
      -8.363
