Origin Time       25/11/2007 23:12:20
Lat.              28.6 N 
Long.             77.0 E 
Depth (Km)         20.3
Magnitude         4.3
 Region           DELHI-HARYANA-BORDER-REGION                                      
 Above details taken from IMD 
   
Station Code      HGR
Station Lat.       28.688
Station Long.      76.939
Station Height(m)  216.5
Site Class        C   Vs30 between 200 m/sec to 375 m/sec *  
Record Time       25.11.2007 23:12:16.775
Sampling Rate     200. Hz
 Record Duration   81.370 Sec.
 Direction         Vert. (Up positive)
Max. Acceleration    -34.698 cm/sec**2
     
  * For reference see Site Classification link of website 
     
 Base Line Corrected and Low Pass Filtered (Cut Off at 35 Hz) Time History
 Acceleration data in cm/sec**2
    
[...]
      -0.024
      -0.025
      -0.022
      -0.012
      -0.001
       0.001
      -0.007
      -0.016
      -0.017
      -0.015
      -0.013
      -0.011
      -0.004
       0.012
       0.026
       0.029
       0.018
       0.002
      -0.009
      -0.014
      -0.015
      -0.009
       0.003
       0.015
       0.016
       0.003
      -0.013
      -0.018
      -0.013
      -0.008
      -0.010
      -0.017
      -0.019
      -0.011
       0.001
       0.008
       0.002
      -0.015
      -0.036
      -0.048
      -0.042
      -0.018
       0.014
       0.038
       0.041
       0.024
       0.003
      -0.011
      -0.017
      -0.017
      -0.015
      -0.010
      -0.004
      -0.001
      -0.001
      -0.001
       0.002
       0.003
      -0.001
      -0.005
      -0.005
      -0.003
      -0.005
      -0.008
      -0.008
      -0.004
      -0.007
      -0.019
      -0.033
      -0.034
      -0.021
      -0.003
       0.005
       0.000
      -0.010
      -0.013
      -0.004
       0.016
       0.044
       0.082
       0.138
       0.217
       0.331
       0.491
       0.692
       0.906
       1.092
       1.230
       1.330
       1.408
       1.437
       1.367
       1.231
       1.270
       1.899
       3.413
       5.607
       7.662
       8.562
       7.742
       5.386
       2.057
      -1.912
      -6.528
     -11.522
     -15.744
     -17.476
     -15.699
     -11.176
      -6.172
      -2.865
      -1.809
      -1.768
      -0.974
       1.323
       4.270
       6.203
       6.110
       4.525
       3.119
       3.336
       5.191
       7.154
       7.203
       4.313
      -0.734
      -5.868
      -9.150
      -9.911
      -8.722
      -6.517
      -3.838
      -0.834
       2.246
       4.868
       6.604
       7.524
       7.829
       7.090
       4.355
      -0.453
      -5.340
      -7.171
      -4.479
       0.700
       4.331
       4.100
       1.547
       0.235
       1.825
       4.192
       3.562
      -1.495
      -8.212
     -11.732
      -9.301
      -2.770
       2.859
       3.723
       0.444
      -2.638
      -1.812
       2.243
       5.146
       3.403
      -1.790
      -5.599
      -4.414
       0.657
       5.214
       6.042
       3.830
       1.826
       2.491
       5.529
       8.538
       9.028
       6.044
       0.661
      -4.575
      -6.953
      -5.252
      -0.836
       2.902
       2.839
      -1.385
      -6.815
      -9.400
      -7.297
      -2.404
       1.417
       1.854
       0.063
      -0.903
       0.532
       2.872
       3.376
       1.210
      -1.543
      -2.051
       0.418
       3.955
       5.958
       5.226
       2.357
      -1.113
      -3.556
      -3.841
      -2.036
       0.252
       0.825
      -1.199
      -4.290
      -5.559
      -3.244
       1.619
       5.966
       7.247
       5.397
       2.507
       0.726
       0.524
       0.823
       0.420
      -1.008
      -3.059
      -5.184
      -6.809
      -7.186
      -5.698
      -2.595
       0.730
       2.590
       2.412
       1.293
       1.004
       2.373
       4.584
       5.922
       5.105
       2.096
      -1.889
      -4.930
      -5.391
      -3.159
      -0.179
       0.730
      -1.778
      -6.157
      -9.070
      -8.208
      -4.144
       0.520
       3.740
       5.612
       7.472
       9.775
      11.244
      10.206
       6.579
       2.283
      -0.457
      -1.215
      -1.727
      -4.142
      -8.735
     -13.097
     -13.657
      -8.629
      -0.124
       6.689
       7.365
       2.099
      -3.915
      -4.718
       0.993
       8.357
      10.566
       5.064
      -4.068
      -9.675
      -7.538
       0.540
       8.651
      11.343
       7.089
      -1.183
      -8.130
      -9.410
      -4.741
       1.672
       4.398
       1.567
      -3.237
      -4.310
       0.460
       7.246
       9.844
       5.632
      -2.000
      -6.898
      -5.676
      -0.370
       3.791
       3.074
      -1.759
      -6.352
      -6.491
      -1.595
       4.759
       7.757
       5.368
      -0.039
      -3.929
      -3.564
      -0.035
       3.260
       3.862
       2.097
       0.198
       0.007
       1.456
       2.893
       2.666
       0.558
      -2.031
      -3.297
      -2.714
      -1.662
      -2.087
      -4.225
      -5.826
      -4.202
       0.604
       4.976
       4.723
      -0.593
      -6.435
      -6.894
      -0.129
       9.390
      14.180
       9.924
      -0.750
     -10.205
     -11.854
      -5.295
       3.642
       7.781
       4.284
      -3.441
      -8.886
      -7.816
      -1.493
       4.676
       5.762
       1.349
      -4.297
      -5.919
      -1.595
       5.947
      11.806
      12.683
       8.805
       2.961
      -1.942
      -4.650
      -5.700
      -6.368
      -7.498
      -8.935
      -9.732
      -8.806
      -5.623
      -0.569
       5.103
       9.661
      11.540
      10.163
       6.447
       2.345
      -0.424
      -1.451
      -1.613
      -2.064
      -3.169
      -4.226
      -4.090
      -2.112
       1.236
       4.410
       5.555
       3.792
       0.142
      -2.950
      -3.415
      -1.258
       1.428
       2.222
       0.400
      -2.538
      -4.212
      -3.284
      -0.372
       2.553
       3.609
       2.206
      -0.667
      -3.134
      -3.698
      -2.376
      -0.805
      -0.899
      -2.916
      -4.730
      -3.400
       1.993
       8.825
      12.609
      10.756
       4.934
      -0.455
      -2.296
      -1.330
      -0.843
      -3.068
      -6.967
      -9.351
      -7.910
      -3.186
       2.053
       5.071
       4.917
       2.508
      -0.486
      -2.698
      -3.450
      -2.735
      -1.169
       0.241
       0.777
       0.658
       0.835
       1.991
       3.766
       5.091
       5.188
       4.054
       2.005
      -0.821
      -4.096
      -6.604
      -6.565
      -3.249
       1.695
       5.017
       4.531
       1.239
      -1.409
      -0.759
       2.325
       4.122
       1.692
      -4.050
      -8.958
      -9.321
      -4.937
       1.199
       5.734
       7.248
       6.201
       3.639
       0.651
      -1.326
      -0.914
       1.723
       4.199
       3.637
      -0.465
      -5.290
      -7.068
      -4.595
      -0.387
       1.679
      -0.058
      -3.607
      -5.242
      -2.906
       1.994
       5.857
       5.931
       2.467
      -1.705
      -3.489
      -1.654
       2.669
       6.904
       8.410
       5.850
       0.178
      -5.573
      -8.193
      -6.698
      -3.069
      -0.485
      -0.666
      -2.747
      -4.436
      -4.069
      -1.697
       1.401
       3.869
       4.987
       4.643
       3.067
       0.841
      -0.927
      -0.895
       1.370
       4.325
       5.027
       1.625
      -4.298
      -8.266
      -6.601
      -0.125
       5.958
       6.415
       0.690
      -6.524
      -9.444
      -6.178
      -0.030
       3.724
       2.412
      -1.997
      -4.791
      -2.524
       4.160
      11.069
      13.755
      10.791
       4.545
      -0.867
      -2.711
      -1.478
      -0.125
      -1.361
      -5.210
      -8.912
      -9.213
      -5.111
       1.161
       5.701
       5.864
       2.250
      -1.888
      -3.284
      -1.103
       2.628
       4.645
       2.896
      -1.814
      -6.192
      -6.839
      -2.941
       2.977
       7.038
       7.066
       3.987
       0.457
      -1.548
      -1.823
      -1.248
      -0.830
      -1.415
      -3.470
      -6.379
      -8.137
      -6.599
      -1.579
       4.477
       8.292
       8.316
       5.500
       1.902
      -1.021
      -2.760
      -3.138
      -2.165
      -0.632
      -0.200
      -2.097
      -5.313
      -6.452
      -2.305
       6.547
      14.680
      15.346
       6.335
      -7.063
     -15.496
     -13.182
      -3.036
       5.825
       6.244
      -0.738
      -7.359
      -6.606
       1.592
      10.923
      14.640
      10.840
       2.819
      -4.426
      -7.708
      -6.834
      -3.838
      -1.490
      -1.662
      -4.011
      -5.972
      -4.698
       0.340
       6.471
       9.756
       8.179
       3.303
      -1.084
      -2.200
      -0.522
       0.945
      -0.316
      -3.885
      -6.829
      -6.482
      -2.831
       1.642
       4.191
       3.857
       1.761
      -0.087
      -0.208
       1.478
       3.475
       3.457
       0.071
      -5.222
      -8.460
      -6.360
       0.220
       6.342
       7.171
       2.416
      -3.384
      -5.082
      -1.583
       3.411
       5.032
       1.683
      -3.735
      -6.594
      -4.582
       0.565
       4.912
       5.802
       3.699
       1.118
       0.133
       0.946
       2.361
       3.035
       2.176
      -0.362
      -3.861
      -6.573
      -6.537
      -3.354
       0.865
       2.996
       1.850
      -0.478
      -0.686
       2.105
       5.100
       4.679
       0.479
      -3.888
      -4.547
      -1.513
       1.411
       0.964
      -1.916
      -3.339
      -1.175
       2.289
       2.938
      -0.302
      -3.963
      -3.663
       1.137
       6.325
       6.998
       2.050
      -4.883
      -8.657
      -6.790
      -1.021
       4.512
       6.455
       4.280
       0.212
      -2.422
      -1.409
       2.629
       6.245
       5.586
      -0.068
      -6.766
      -8.608
      -3.114
       5.758
      10.548
       7.030
      -1.739
      -8.199
      -7.251
      -0.632
       5.225
       5.229
      -0.345
      -6.965
     -10.076
      -8.354
      -3.846
       0.208
       1.781
       1.155
       0.305
       1.142
       3.877
       6.748
       7.412
       4.904
       0.517
      -3.153
      -4.145
      -2.493
      -0.028
       1.153
       0.390
      -1.016
      -1.057
       0.904
       3.163
       3.053
      -0.416
      -5.244
      -7.937
      -6.469
      -1.876
       2.853
       5.256
       4.925
       3.176
       1.701
       1.390
       1.852
       1.736
      -0.113
      -3.288
      -5.595
      -4.774
      -0.892
       3.223
       4.473
       2.509
      -0.081
      -0.670
       0.727
       1.820
       0.705
      -2.272
      -5.124
      -6.113
      -4.886
      -2.363
      -0.063
       0.745
      -0.032
      -0.953
      -0.079
       3.053
       6.448
       7.123
       4.015
      -0.527
      -2.417
       0.613
       6.767
      11.261
       9.931
       2.611
      -6.393
     -11.327
      -9.400
      -3.126
       1.537
       0.106
      -6.404
     -12.029
     -10.914
      -2.583
       7.448
      12.383
       9.732
       2.716
      -3.188
      -4.695
      -2.249
       1.634
       4.606
       5.295
       3.178
      -1.091
      -5.042
      -5.204
      -0.009
       7.664
      11.703
       7.806
      -2.150
     -11.168
     -13.119
      -7.966
      -1.210
       1.441
      -1.292
      -6.165
      -8.723
      -6.422
       0.306
       8.468
      13.701
      12.427
       4.587
      -5.339
     -10.965
      -8.827
      -1.138
       6.186
       8.447
       5.537
       1.199
      -0.523
       1.661
       5.825
       8.586
       7.442
       2.274
      -4.589
      -9.679
     -10.405
      -6.624
      -0.697
       3.989
       4.965
       1.957
      -3.065
      -7.138
      -8.379
      -7.486
      -7.116
      -9.287
     -13.138
     -15.305
     -12.666
      -4.782
       6.052
      16.551
      23.894
      26.073
      22.108
      12.947
       2.050
      -5.982
      -8.438
      -6.582
      -4.440
      -4.981
      -7.118
      -6.581
      -0.181
      10.399
      18.994
      19.564
      11.139
      -1.316
     -10.891
     -13.819
     -11.236
      -6.802
      -3.135
      -0.266
       3.289
       8.536
      14.844
      20.039
      21.320
      16.605
       5.881
      -8.191
     -21.094
     -28.550
     -28.778
     -23.382
     -16.051
      -9.845
      -5.110
       0.273
       8.232
      17.391
      22.609
      18.677
       5.645
      -9.377
     -16.760
     -12.154
      -0.415
       8.643
       9.198
       4.468
       2.849
       9.115
      19.433
      24.825
      19.312
       5.060
      -9.641
     -17.016
     -15.151
      -8.312
      -2.958
      -2.920
      -7.039
     -10.621
      -9.496
      -3.602
       2.793
       4.418
      -0.848
     -10.348
     -18.706
     -21.696
     -18.740
     -12.382
      -5.863
      -1.073
       2.029
       4.825
       8.832
      14.338
      19.717
      22.367
      20.866
      16.353
      11.560
       8.369
       6.379
       3.828
      -0.317
      -5.325
      -9.570
     -12.027
     -12.625
     -11.374
      -7.812
      -1.947
       4.178
       6.499
       1.601
      -9.806
     -21.975
     -27.287
     -21.452
      -6.722
       9.654
      20.785
      25.053
      26.305
      29.046
      33.057
      32.901
      23.243
       4.909
     -14.644
     -27.296
     -30.793
     -29.376
     -28.277
     -28.087
     -24.625
     -13.834
       3.429
      20.888
      30.540
      27.617
      13.635
      -4.394
     -18.113
     -22.558
     -18.173
      -9.107
       0.298
       8.047
      14.631
      21.080
      26.592
      27.979
      21.918
       8.243
      -8.839
     -22.959
     -29.397
     -27.299
     -18.692
      -5.917
       9.347
      24.511
      34.425
      32.990
      18.008
      -5.151
     -25.692
     -34.698
     -31.413
     -22.749
     -16.637
     -15.467
     -15.244
     -10.306
       1.100
      14.920
      24.197
      24.370
      16.979
       8.711
       6.237
      10.926
      17.892
      20.157
      14.225
       2.427
      -9.466
     -16.797
     -18.673
     -16.980
     -13.798
     -10.263
      -7.373
      -6.519
      -8.326
     -11.222
     -11.973
      -8.105
       0.097
       9.909
      18.332
      23.921
      26.775
      27.277
      25.205
      19.977
      11.590
       1.260
      -8.896
     -16.917
     -22.009
     -24.752
     -26.107
     -25.806
     -21.749
     -11.789
       3.088
      17.423
      24.157
      19.963
       8.205
      -3.510
      -9.099
      -8.120
      -5.056
      -4.809
      -8.308
     -11.786
     -10.130
      -1.381
      11.304
      21.782
      25.260
      21.169
      12.509
       3.017
      -4.821
      -9.680
     -10.593
      -7.181
      -0.763
       5.555
       8.834
       8.705
       7.517
       7.745
       9.113
       8.358
       2.229
      -8.784
     -19.648
     -24.218
     -20.209
     -11.223
      -3.798
      -2.036
      -4.595
      -6.557
      -4.178
       1.892
       7.545
       8.960
       5.667
       0.646
      -2.134
      -0.711
       3.449
       6.679
       6.180
       2.477
      -1.013
      -1.113
       2.076
       5.226
       5.014
       1.321
      -2.865
      -4.589
      -3.527
      -1.393
       0.593
       2.867
       6.131
       9.493
      10.589
       7.710
       1.695
      -4.453
      -7.857
      -7.764
      -5.624
      -3.723
      -3.903
      -7.016
     -12.549
     -18.210
     -20.319
     -15.683
      -4.081
      10.705
      22.671
      27.225
      23.988
      16.628
       9.901
       6.171
       4.091
       0.427
      -6.492
     -14.657
     -19.542
     -17.814
     -10.456
      -2.405
       1.241
      -0.698
      -4.643
      -5.373
      -0.453
       7.677
      13.606
      13.265
       7.196
       0.121
      -2.880
      -0.448
       4.189
       6.259
       3.597
      -1.786
      -5.824
      -5.884
      -2.458
       1.969
       5.122
       5.996
       4.488
       0.909
      -3.781
      -7.776
      -9.227
      -7.622
      -4.312
      -1.420
      -0.070
       0.359
       1.278
       3.240
       5.190
       5.250
       2.253
      -3.205
      -8.840
     -11.806
     -10.407
      -5.450
       0.040
       2.967
       2.563
       0.864
       0.746
       3.264
       6.733
       8.460
       7.349
       4.737
       2.838
       2.745
       4.044
       5.735
       6.882
       6.444
       3.379
      -2.333
      -8.850
     -13.303
     -13.941
     -11.418
      -7.814
      -4.568
      -1.685
       1.158
       3.304
       3.468
       1.434
      -1.077
      -1.682
       0.386
       3.461
       5.114
       4.684
       3.893
       4.763
       7.147
       8.674
       7.189
       3.054
      -1.099
      -2.826
      -2.016
      -0.627
      -0.499
      -1.578
      -2.330
      -1.677
      -0.252
       0.360
      -0.526
      -1.806
      -1.667
       0.365
       2.452
       1.744
      -2.909
      -9.285
     -13.099
     -11.575
      -6.010
      -0.663
       1.226
       0.485
       1.012
       5.583
      12.669
      17.512
      16.358
       9.650
       1.374
      -4.188
      -5.131
      -2.459
       0.917
       1.773
      -1.556
      -7.746
     -12.856
     -13.023
      -7.755
      -0.681
       3.497
       3.184
       1.018
       0.775
       3.384
       6.199
       5.970
       2.156
      -2.666
      -5.299
      -4.589
      -1.847
       0.779
       2.069
       2.232
       2.108
       1.965
       1.057
      -1.489
      -5.277
      -8.290
      -8.359
      -5.280
      -1.438
       0.065
      -1.704
      -4.342
      -4.028
       0.970
       8.415
      13.640
      13.199
       7.510
       0.447
      -3.636
      -3.030
       0.341
       2.686
       1.428
      -2.775
      -6.635
      -6.955
      -3.261
       1.798
       4.517
       2.897
      -2.028
      -7.065
      -9.063
      -6.867
      -1.885
       2.866
       4.589
       2.487
      -1.499
      -3.735
      -1.463
       4.725
      10.666
      11.497
       5.811
      -2.463
      -6.726
      -3.266
       5.113
      11.044
       8.800
      -0.717
     -10.643
     -13.789
      -8.314
       1.192
       7.749
       7.562
       2.543
      -1.984
      -2.032
       2.046
       6.522
       7.828
       5.316
       1.160
      -1.930
      -2.863
      -2.437
      -1.946
      -1.838
      -1.737
      -1.444
      -1.467
      -2.297
      -3.274
      -2.740
       0.108
       3.455
       3.571
      -1.861
     -10.684
     -16.948
     -15.560
      -6.836
       3.493
       9.038
       7.906
       3.683
       1.734
       4.460
       9.671
      12.930
      11.249
       5.101
      -2.211
      -6.776
      -6.448
      -2.234
       2.256
       3.406
       0.592
      -3.048
      -3.222
       1.518
       8.002
      10.814
       6.909
      -1.593
      -8.973
     -10.484
      -6.002
       0.189
       3.066
       0.886
      -3.670
      -6.018
      -3.661
       1.801
       6.313
       7.012
       4.393
       1.203
      -0.426
      -0.645
      -0.989
      -2.252
      -3.616
      -3.872
      -3.039
      -2.336
      -2.706
      -3.889
      -5.058
      -5.924
      -6.769
      -7.500
      -7.185
      -4.910
      -1.032
       2.673
       4.366
       3.768
       2.489
       2.678
       5.165
       8.756
      11.221
      11.035
       8.454
       5.211
       3.115
       2.550
       2.148
       0.201
      -3.277
