Origin Time       25/11/2007 23:12:20 UTC
Lat.              28.6 N 
Long.             77.0 E 
Depth (Km)         20.3
Magnitude         4.3
 Region           DELHI-HARYANA-BORDER-REGION                                      
 Above details taken from IMD 
    
Station Code      BAL
Station Lat.       28.342  N
Station Long.      77.321  E
Station Height(m)    0.0
Site Class        C   Vs30 between 200 m/sec to 375 m/sec *  
Record Time       25.11.2007 23:12:19.379 UTC
Sampling Rate     200. Hz
 Record Duration   35.645 Sec.
 Direction         N-S (N positive)
Max. Acceleration     16.182 cm/sec**2
     
  * For reference see Site Classification link of website 
     
 Base Line Corrected and Low Pass Filtered (Cut Off at 35 Hz) Time History
 Acceleration data in cm/sec**2
    
[...]
       0.657
       0.818
       0.875
       0.860
       0.831
       0.836
       0.887
       0.959
       0.997
       0.927
       0.698
       0.318
      -0.139
      -0.561
      -0.858
      -0.996
      -0.992
      -0.885
      -0.712
      -0.505
      -0.300
      -0.117
       0.065
       0.288
       0.577
       0.892
       1.144
       1.256
       1.210
       1.045
       0.824
       0.598
       0.399
       0.233
       0.085
      -0.070
      -0.250
      -0.444
      -0.627
      -0.774
      -0.879
      -0.956
      -1.024
      -1.089
      -1.130
      -1.110
      -0.998
      -0.797
      -0.546
      -0.306
      -0.134
      -0.051
      -0.045
      -0.089
      -0.160
      -0.242
      -0.309
      -0.328
      -0.265
      -0.114
       0.092
       0.289
       0.437
       0.553
       0.710
       0.962
       1.268
       1.479
       1.434
       1.087
       0.573
       0.134
      -0.029
       0.107
       0.368
       0.490
       0.291
      -0.224
      -0.860
      -1.362
      -1.561
      -1.457
      -1.190
      -0.932
      -0.772
      -0.662
      -0.487
      -0.172
       0.228
       0.576
       0.768
       0.823
       0.841
       0.889
       0.931
       0.870
       0.653
       0.339
       0.055
      -0.102
      -0.123
      -0.067
       0.013
       0.110
       0.248
       0.423
       0.588
       0.683
       0.677
       0.585
       0.444
       0.281
       0.102
      -0.091
      -0.282
      -0.458
      -0.624
      -0.784
      -0.911
      -0.943
      -0.841
      -0.650
      -0.494
      -0.480
      -0.591
      -0.679
      -0.579
      -0.250
       0.171
       0.479
       0.554
       0.440
       0.273
       0.164
       0.137
       0.170
       0.250
       0.375
       0.524
       0.635
       0.656
       0.598
       0.524
       0.474
       0.399
       0.209
      -0.135
      -0.550
      -0.885
      -1.023
      -0.947
      -0.712
      -0.394
      -0.070
       0.175
       0.259
       0.157
      -0.056
      -0.243
      -0.297
      -0.225
      -0.135
      -0.131
      -0.228
      -0.349
      -0.413
      -0.399
      -0.353
      -0.325
      -0.327
      -0.323
      -0.277
      -0.177
      -0.038
       0.117
       0.261
       0.353
       0.353
       0.264
       0.169
       0.176
       0.329
       0.544
       0.671
       0.612
       0.402
       0.171
       0.037
       0.021
       0.059
       0.082
       0.082
       0.115
       0.244
       0.477
       0.741
       0.922
       0.932
       0.773
       0.541
       0.360
       0.298
       0.324
       0.345
       0.280
       0.112
      -0.103
      -0.289
      -0.392
      -0.421
      -0.433
      -0.490
      -0.598
      -0.696
      -0.697
      -0.555
      -0.303
      -0.031
       0.168
       0.250
       0.234
       0.168
       0.094
       0.031
      -0.030
      -0.111
      -0.235
      -0.406
      -0.589
      -0.722
      -0.761
      -0.714
      -0.637
      -0.588
      -0.560
      -0.476
      -0.241
       0.157
       0.613
       0.963
       1.090
       0.991
       0.756
       0.499
       0.311
       0.234
       0.238
       0.219
       0.060
      -0.275
      -0.679
      -0.961
      -0.985
      -0.760
      -0.418
      -0.102
       0.116
       0.243
       0.315
       0.376
       0.464
       0.577
       0.631
       0.486
       0.056
      -0.571
      -1.153
      -1.448
      -1.382
      -1.088
      -0.788
      -0.628
      -0.598
      -0.576
      -0.436
      -0.145
       0.220
       0.521
       0.652
       0.594
       0.429
       0.282
       0.253
       0.344
       0.462
       0.485
       0.359
       0.158
       0.029
       0.069
       0.233
       0.376
       0.385
       0.265
       0.112
      -0.008
      -0.108
      -0.239
      -0.403
      -0.544
      -0.584
      -0.479
      -0.215
       0.190
       0.682
       1.142
       1.418
       1.416
       1.165
       0.787
       0.392
      -0.004
      -0.430
      -0.860
      -1.162
      -1.188
      -0.898
      -0.409
       0.082
       0.433
       0.616
       0.682
       0.678
       0.616
       0.487
       0.301
       0.083
      -0.144
      -0.358
      -0.530
      -0.605
      -0.525
      -0.285
       0.031
       0.270
       0.287
       0.053
      -0.300
      -0.557
      -0.567
      -0.362
      -0.119
      -0.029
      -0.168
      -0.466
      -0.767
      -0.915
      -0.816
      -0.485
      -0.049
       0.307
       0.433
       0.299
       0.015
      -0.240
      -0.340
      -0.279
      -0.145
      -0.026
       0.053
       0.125
       0.222
       0.332
       0.411
       0.426
       0.394
       0.368
       0.398
       0.508
       0.686
       0.870
       0.964
       0.884
       0.627
       0.293
       0.027
      -0.091
      -0.109
      -0.170
      -0.380
      -0.710
      -0.985
      -1.012
      -0.732
      -0.280
       0.105
       0.243
       0.125
      -0.102
      -0.254
      -0.209
       0.041
       0.411
       0.768
       0.983
       0.974
       0.733
       0.343
      -0.051
      -0.299
      -0.327
      -0.170
       0.041
       0.147
       0.036
      -0.301
      -0.753
      -1.144
      -1.323
      -1.245
      -0.978
      -0.650
      -0.366
      -0.167
      -0.045
       0.021
       0.034
      -0.030
      -0.183
      -0.392
      -0.585
      -0.686
      -0.669
      -0.568
      -0.446
      -0.354
      -0.305
      -0.278
      -0.227
      -0.104
       0.120
       0.419
       0.710
       0.899
       0.967
       0.985
       1.050
       1.181
       1.301
       1.309
       1.166
       0.911
       0.611
       0.323
       0.089
      -0.060
      -0.128
      -0.162
      -0.227
      -0.327
      -0.389
      -0.331
      -0.162
      -0.018
      -0.073
      -0.388
      -0.835
      -1.154
      -1.126
      -0.722
      -0.124
       0.389
       0.626
       0.595
       0.460
       0.404
       0.499
       0.677
       0.810
       0.804
       0.642
       0.383
       0.120
      -0.062
      -0.136
      -0.135
      -0.124
      -0.145
      -0.190
      -0.212
      -0.166
      -0.055
       0.053
       0.063
      -0.081
      -0.327
      -0.542
      -0.611
      -0.536
      -0.443
      -0.480
      -0.688
      -0.954
      -1.101
      -1.018
      -0.735
      -0.385
      -0.093
       0.113
       0.289
       0.488
       0.685
       0.783
       0.690
       0.381
      -0.093
      -0.637
      -1.134
      -1.458
      -1.492
      -1.184
      -0.591
       0.129
       0.798
       1.292
       1.569
       1.648
       1.560
       1.315
       0.913
       0.391
      -0.128
      -0.472
      -0.520
      -0.300
       0.025
       0.280
       0.393
       0.414
       0.425
       0.460
       0.498
       0.510
       0.483
       0.409
       0.259
       0.019
      -0.253
      -0.435
      -0.442
      -0.329
      -0.266
      -0.414
      -0.799
      -1.308
      -1.765
      -2.008
      -1.951
      -1.603
      -1.073
      -0.520
      -0.103
       0.090
       0.080
       0.005
       0.052
       0.345
       0.831
       1.299
       1.507
       1.348
       0.903
       0.379
      -0.015
      -0.175
      -0.111
       0.089
       0.321
       0.498
       0.566
       0.519
       0.396
       0.251
       0.128
       0.035
      -0.034
      -0.062
       0.017
       0.274
       0.701
       1.157
       1.417
       1.304
       0.824
       0.172
      -0.379
      -0.641
      -0.602
      -0.393
      -0.190
      -0.102
      -0.128
      -0.177
      -0.141
       0.032
       0.297
       0.533
       0.597
       0.413
       0.027
      -0.414
      -0.762
      -0.965
      -1.080
      -1.187
      -1.295
      -1.327
      -1.220
      -1.020
      -0.880
      -0.930
      -1.161
      -1.412
      -1.480
      -1.249
      -0.762
      -0.187
       0.289
       0.570
       0.692
       0.767
       0.892
       1.076
       1.250
       1.310
       1.173
       0.821
       0.347
      -0.043
      -0.123
       0.203
       0.799
       1.356
       1.570
       1.315
       0.698
      -0.010
      -0.523
      -0.675
      -0.499
      -0.192
       0.010
      -0.002
      -0.141
      -0.203
      -0.044
       0.301
       0.641
       0.769
       0.585
       0.141
      -0.392
      -0.809
      -0.976
      -0.900
      -0.708
      -0.537
      -0.424
      -0.287
      -0.019
       0.402
       0.862
       1.175
       1.211
       0.981
       0.625
       0.307
       0.111
      -0.002
      -0.129
      -0.349
      -0.673
      -1.039
      -1.340
      -1.453
      -1.285
      -0.843
      -0.282
       0.155
       0.291
       0.141
      -0.096
      -0.222
      -0.213
      -0.230
      -0.447
      -0.880
      -1.360
      -1.677
      -1.724
      -1.509
      -1.085
      -0.508
       0.129
       0.669
       0.974
       1.046
       1.051
       1.168
       1.415
       1.618
       1.571
       1.227
       0.743
       0.341
       0.139
       0.090
       0.075
       0.001
      -0.142
      -0.297
      -0.370
      -0.275
       0.013
       0.417
       0.780
       0.964
       0.947
       0.837
       0.759
       0.744
       0.718
       0.596
       0.387
       0.204
       0.151
       0.230
       0.329
       0.315
       0.126
      -0.217
      -0.644
      -1.063
      -1.358
      -1.418
      -1.206
      -0.823
      -0.482
      -0.352
      -0.428
      -0.560
      -0.627
      -0.671
      -0.847
      -1.228
      -1.675
      -1.929
      -1.822
      -1.395
      -0.828
      -0.268
       0.237
       0.682
       1.017
       1.144
       1.023
       0.750
       0.531
       0.546
       0.813
       1.167
       1.393
       1.395
       1.255
       1.129
       1.091
       1.079
       0.981
       0.740
       0.378
      -0.056
      -0.520
      -0.939
      -1.180
      -1.106
      -0.701
      -0.140
       0.293
       0.400
       0.217
      -0.027
      -0.097
       0.069
       0.341
       0.513
       0.435
       0.064
      -0.548
      -1.268
      -1.907
      -2.257
      -2.171
      -1.648
      -0.850
      -0.053
       0.480
       0.614
       0.408
       0.062
      -0.210
      -0.298
      -0.225
      -0.092
      -0.001
       0.007
      -0.019
       0.030
       0.231
       0.539
       0.795
       0.848
       0.703
       0.521
       0.478
       0.594
       0.715
       0.659
       0.373
      -0.035
      -0.411
      -0.664
      -0.775
      -0.739
      -0.527
      -0.131
       0.368
       0.806
       1.037
       1.050
       0.974
       0.942
       0.931
       0.764
       0.308
      -0.338
      -0.847
      -0.904
      -0.467
       0.186
       0.664
       0.735
       0.450
       0.049
      -0.241
      -0.343
      -0.310
      -0.233
      -0.162
      -0.093
       0.013
       0.191
       0.415
       0.575
       0.513
       0.128
      -0.531
      -1.265
      -1.830
      -2.077
      -2.019
      -1.779
      -1.477
      -1.147
      -0.745
      -0.236
       0.329
       0.809
       1.044
       0.965
       0.643
       0.251
      -0.032
      -0.126
      -0.079
       0.004
       0.047
       0.064
       0.118
       0.246
       0.416
       0.538
       0.526
       0.360
       0.109
      -0.101
      -0.145
       0.026
       0.368
       0.769
       1.107
       1.288
       1.262
       1.031
       0.678
       0.358
       0.239
       0.385
       0.687
       0.926
       0.938
       0.739
       0.505
       0.403
       0.441
       0.463
       0.315
      -0.013
      -0.371
      -0.597
      -0.662
      -0.657
      -0.661
      -0.630
      -0.452
      -0.100
       0.291
       0.506
       0.424
       0.096
      -0.327
      -0.723
      -1.061
      -1.381
      -1.730
      -2.121
      -2.508
      -2.784
      -2.806
      -2.484
      -1.864
      -1.131
      -0.492
      -0.041
       0.274
       0.561
       0.873
       1.174
       1.397
       1.503
       1.500
       1.445
       1.421
       1.488
       1.630
       1.747
       1.709
       1.445
       1.007
       0.552
       0.256
       0.192
       0.273
       0.290
       0.031
      -0.598
      -1.534
      -2.589
      -3.514
      -4.063
      -4.067
      -3.495
      -2.493
      -1.338
      -0.321
       0.379
       0.769
       1.005
       1.286
       1.735
       2.334
       2.915
       3.222
       3.055
       2.432
       1.656
       1.172
       1.310
       2.078
       3.182
       4.211
       4.833
       4.913
       4.540
       3.990
       3.618
       3.682
       4.192
       4.918
       5.576
       6.029
       6.328
       6.560
       6.680
       6.507
       5.872
       4.737
       3.174
       1.274
      -0.871
      -3.111
      -5.200
      -6.873
      -7.972
      -8.514
      -8.649
      -8.589
      -8.571
      -8.824
      -9.491
     -10.539
     -11.738
     -12.737
     -13.208
     -12.996
     -12.212
     -11.203
     -10.357
      -9.848
      -9.498
      -8.873
      -7.582
      -5.596
      -3.333
      -1.448
      -0.421
      -0.223
      -0.272
       0.283
       2.103
       5.268
       9.193
      12.881
      15.382
      16.182
      15.341
      13.344
      10.819
       8.318
       6.199
       4.597
       3.403
       2.286
       0.864
      -1.005
      -3.036
      -4.629
      -5.236
      -4.721
      -3.413
      -1.827
      -0.271
       1.309
       3.098
       4.955
       6.140
       5.578
       2.602
      -2.351
      -7.693
     -11.447
     -12.325
     -10.361
      -6.686
      -2.691
       0.742
       3.445
       5.644
       7.522
       9.022
       9.914
       9.953
       8.976
       6.950
       4.035
       0.667
      -2.468
      -4.629
      -5.348
      -4.684
      -3.216
      -1.725
      -0.767
      -0.405
      -0.266
       0.108
       0.870
       1.720
       2.102
       1.638
       0.486
      -0.667
      -1.027
      -0.252
       1.262
       2.634
       3.125
       2.659
       1.803
       1.255
       1.311
       1.774
       2.317
       2.886
       3.714
       4.947
       6.279
       6.980
       6.331
       4.108
       0.723
      -3.032
      -6.388
      -8.838
     -10.142
     -10.272
      -9.444
      -8.151
      -7.022
      -6.494
      -6.503
      -6.494
      -5.799
      -4.139
      -1.846
       0.331
       1.660
       1.767
       0.712
      -1.085
      -2.931
      -3.991
      -3.564
      -1.439
       1.943
       5.699
       8.948
      11.148
      12.116
      11.862
      10.463
       8.111
       5.200
       2.259
      -0.269
      -2.230
      -3.756
      -5.059
      -6.203
      -7.067
      -7.491
      -7.450
      -7.056
      -6.419
      -5.552
      -4.442
      -3.205
      -2.116
      -1.427
      -1.151
      -1.032
      -0.750
      -0.178
       0.542
       1.151
       1.511
       1.684
       1.804
       1.918
       2.013
       2.195
       2.757
       3.987
       5.848
       7.841
       9.241
       9.528
       8.658
       6.998
       5.006
       2.944
       0.839
      -1.316
      -3.354
      -4.932
      -5.760
      -5.855
      -5.557
      -5.293
      -5.275
      -5.429
      -5.605
      -5.813
      -6.246
      -7.047
      -8.096
      -9.016
      -9.369
      -8.855
      -7.396
      -5.126
      -2.386
       0.318
       2.458
       3.699
       4.022
       3.676
       3.004
       2.281
       1.685
       1.356
       1.431
       1.976
       2.888
       3.885
       4.664
       5.148
       5.587
       6.360
       7.585
       8.871
       9.456
       8.695
       6.562
       3.761
       1.361
       0.205
       0.508
       1.845
       3.458
       4.660
       5.119
       4.930
       4.504
       4.320
       4.671
       5.531
       6.629
       7.618
       8.185
       8.057
       7.001
       4.940
       2.127
      -0.819
      -3.167
      -4.474
      -4.835
      -4.750
      -4.694
      -4.749
      -4.600
      -3.880
      -2.548
      -0.972
       0.351
       1.129
       1.351
       1.107
       0.411
      -0.749
      -2.219
      -3.616
      -4.545
      -4.888
      -4.912
      -5.052
      -5.580
      -6.414
      -7.200
      -7.563
      -7.341
      -6.638
      -5.708
      -4.762
      -3.848
      -2.901
      -1.903
      -1.013
      -0.511
      -0.590
      -1.140
      -1.727
      -1.793
      -0.993
       0.563
       2.338
       3.684
       4.232
       4.084
       3.660
       3.336
       3.178
       2.962
       2.417
       1.454
       0.236
      -0.925
      -1.732
      -2.049
      -1.975
      -1.819
      -1.960
      -2.638
      -3.789
      -5.043
      -5.909
      -6.037
      -5.403
      -4.294
      -3.122
      -2.185
      -1.525
      -0.979
      -0.355
       0.408
       1.220
       1.925
       2.445
       2.847
       3.302
       3.956
       4.768
       5.453
       5.595
       4.913
       3.495
       1.814
       0.456
      -0.264
      -0.509
      -0.732
      -1.257
      -1.987
      -2.519
      -2.558
      -2.236
      -2.005
      -2.201
      -2.709
      -3.057
      -2.852
      -2.151
      -1.400
      -1.024
      -1.056
      -1.151
      -0.923
      -0.273
       0.591
       1.375
       1.921
       2.237
       2.403
       2.477
       2.478
       2.397
       2.190
       1.780
       1.118
       0.308
      -0.357
      -0.520
      -0.007
       1.018
       2.147
       2.963
       3.249
       3.028
       2.479
       1.840
       1.349
       1.194
       1.425
       1.877
       2.203
       2.057
       1.330
       0.290
      -0.521
      -0.601
       0.156
       1.338
       2.240
       2.305
       1.463
       0.112
      -1.219
      -2.233
      -2.961
      -3.560
      -4.011
      -4.021
      -3.224
      -1.526
       0.694
       2.700
       3.804
       3.784
       3.004
       2.143
       1.712
       1.724
       1.744
       1.271
       0.136
      -1.372
      -2.703
      -3.378
      -3.226
      -2.430
      -1.423
      -0.702
      -0.612
      -1.173
      -2.064
      -2.840
      -3.238
      -3.344
      -3.459
      -3.787
      -4.243
      -4.537
      -4.435
      -3.949
      -3.312
      -2.785
      -2.471
      -2.286
      -2.064
      -1.701
      -1.219
      -0.740
      -0.389
      -0.221
      -0.187
      -0.160
       0.012
       0.452
       1.174
       2.014
       2.640
       2.708
       2.113
       1.117
       0.222
      -0.146
       0.126
       0.865
       1.818
       2.821
       3.776
       4.557
       4.993
       4.952
       4.446
       3.635
       2.758
       2.055
       1.703
       1.752
       2.074
       2.389
       2.385
       1.889
       0.954
      -0.181
      -1.194
      -1.765
      -1.641
      -0.723
       0.819
       2.517
       3.759
       4.097
       3.524
       2.491
       1.652
