Origin Time       25/11/2007 23:12:20
Lat.              28.6 N 
Long.             77.0 E 
Depth (Km)         20.3
Magnitude         4.3
 Region           DELHI-HARYANA-BORDER-REGION                                      
 Above details taken from IMD 
   
Station Code      BAL
Station Lat.       28.342
Station Long.      77.321
Station Height(m)    0.0
Site Class        C   Vs30 between 200 m/sec to 375 m/sec *  
Record Time       25.11.2007 23:12:19.379
Sampling Rate     200. Hz
 Record Duration   35.645 Sec.
 Direction         Vert. (Up positive)
Max. Acceleration    -13.015 cm/sec**2
     
  * For reference see Site Classification link of website 
     
 Base Line Corrected and Low Pass Filtered (Cut Off at 35 Hz) Time History
 Acceleration data in cm/sec**2
    
[...]
      -0.037
       0.064
       0.288
       0.410
       0.320
       0.002
      -0.527
      -1.226
      -1.971
      -2.534
      -2.687
      -2.362
      -1.737
      -1.135
      -0.811
      -0.813
      -1.007
      -1.215
      -1.331
      -1.310
      -1.107
      -0.655
       0.056
       0.882
       1.537
       1.756
       1.499
       1.012
       0.687
       0.806
       1.361
       2.068
       2.561
       2.584
       2.094
       1.225
       0.217
      -0.678
      -1.278
      -1.528
      -1.517
      -1.419
      -1.389
      -1.485
      -1.649
      -1.769
      -1.771
      -1.652
      -1.457
      -1.224
      -0.959
      -0.645
      -0.271
       0.147
       0.556
       0.867
       0.992
       0.897
       0.655
       0.422
       0.356
       0.522
       0.837
       1.113
       1.155
       0.877
       0.358
      -0.196
      -0.573
      -0.668
      -0.530
      -0.300
      -0.110
       0.005
       0.100
       0.240
       0.406
       0.480
       0.334
      -0.043
      -0.495
      -0.790
      -0.774
      -0.469
      -0.040
       0.320
       0.508
       0.523
       0.418
       0.238
       0.006
      -0.240
      -0.412
      -0.402
      -0.167
       0.200
       0.507
       0.569
       0.325
      -0.117
      -0.539
      -0.744
      -0.681
      -0.474
      -0.323
      -0.340
      -0.477
      -0.593
      -0.610
      -0.579
      -0.598
      -0.655
      -0.592
      -0.228
       0.450
       1.229
       1.810
       2.033
       1.989
       1.913
       1.948
       2.006
       1.850
       1.338
       0.591
      -0.067
      -0.374
      -0.346
      -0.272
      -0.469
      -1.011
      -1.650
      -2.007
      -1.867
      -1.339
      -0.754
      -0.403
      -0.351
      -0.444
      -0.500
      -0.456
      -0.382
      -0.357
      -0.372
      -0.335
      -0.174
       0.089
       0.369
       0.582
       0.681
       0.642
       0.451
       0.117
      -0.300
      -0.691
      -0.925
      -0.901
      -0.608
      -0.152
       0.294
       0.579
       0.652
       0.570
       0.450
       0.397
       0.452
       0.572
       0.651
       0.594
       0.394
       0.156
       0.010
      -0.005
       0.041
       0.050
       0.025
       0.058
       0.209
       0.388
       0.401
       0.119
      -0.379
      -0.840
      -1.045
      -0.980
      -0.824
      -0.755
      -0.780
      -0.767
      -0.620
      -0.389
      -0.179
      -0.009
       0.212
       0.540
       0.857
       0.933
       0.650
       0.168
      -0.161
      -0.088
       0.315
       0.720
       0.824
       0.596
       0.248
       0.019
      -0.015
       0.064
       0.169
       0.313
       0.545
       0.809
       0.929
       0.780
       0.451
       0.185
       0.138
       0.210
       0.144
      -0.194
      -0.670
      -1.004
      -1.032
      -0.826
      -0.580
      -0.397
      -0.237
      -0.040
       0.135
       0.145
      -0.068
      -0.365
      -0.507
      -0.381
      -0.115
       0.034
      -0.085
      -0.364
      -0.527
      -0.373
       0.049
       0.482
       0.668
       0.534
       0.233
       0.007
       0.018
       0.236
       0.473
       0.496
       0.186
      -0.383
      -0.977
      -1.347
      -1.368
      -1.086
      -0.662
      -0.255
       0.048
       0.240
       0.349
       0.409
       0.453
       0.512
       0.592
       0.646
       0.604
       0.434
       0.188
      -0.030
      -0.137
      -0.135
      -0.092
      -0.087
      -0.151
      -0.264
      -0.380
      -0.444
      -0.399
      -0.204
       0.128
       0.507
       0.788
       0.861
       0.730
       0.501
       0.291
       0.139
       0.006
      -0.147
      -0.289
      -0.348
      -0.293
      -0.184
      -0.125
      -0.157
      -0.204
      -0.143
       0.062
       0.298
       0.378
       0.184
      -0.214
      -0.580
      -0.676
      -0.432
       0.007
       0.399
       0.552
       0.411
       0.060
      -0.328
      -0.565
      -0.540
      -0.295
      -0.016
       0.085
      -0.095
      -0.468
      -0.818
      -0.958
      -0.876
      -0.726
      -0.676
      -0.754
      -0.822
      -0.686
      -0.229
       0.495
       1.262
       1.771
       1.829
       1.488
       1.006
       0.661
       0.550
       0.566
       0.533
       0.370
       0.130
      -0.091
      -0.256
      -0.400
      -0.550
      -0.659
      -0.657
      -0.547
      -0.412
      -0.324
      -0.275
      -0.220
      -0.183
      -0.257
      -0.479
      -0.709
      -0.680
      -0.214
       0.577
       1.338
       1.726
       1.659
       1.319
       0.940
       0.604
       0.251
      -0.153
      -0.514
      -0.670
      -0.531
      -0.157
       0.283
       0.612
       0.709
       0.541
       0.182
      -0.179
      -0.330
      -0.194
       0.075
       0.182
      -0.064
      -0.576
      -1.070
      -1.316
      -1.307
      -1.191
      -1.076
      -0.921
      -0.626
      -0.197
       0.209
       0.434
       0.488
       0.536
       0.692
       0.859
       0.828
       0.531
       0.171
       0.045
       0.249
       0.565
       0.651
       0.356
      -0.156
      -0.569
      -0.691
      -0.590
      -0.487
      -0.546
      -0.739
      -0.887
      -0.822
      -0.534
      -0.162
       0.113
       0.168
      -0.022
      -0.401
      -0.841
      -1.135
      -1.064
      -0.549
       0.236
       0.931
       1.209
       1.013
       0.598
       0.331
       0.407
       0.717
       0.969
       0.943
       0.674
       0.386
       0.271
       0.342
       0.476
       0.543
       0.491
       0.323
       0.061
      -0.243
      -0.478
      -0.516
      -0.323
      -0.020
       0.161
       0.041
      -0.347
      -0.761
      -0.938
      -0.786
      -0.424
      -0.070
       0.146
       0.267
       0.416
       0.642
       0.869
       0.975
       0.901
       0.691
       0.440
       0.240
       0.164
       0.230
       0.361
       0.397
       0.190
      -0.284
      -0.869
      -1.313
      -1.418
      -1.168
      -0.738
      -0.390
      -0.307
      -0.505
      -0.858
      -1.182
      -1.294
      -1.084
      -0.561
       0.125
       0.737
       1.063
       1.050
       0.823
       0.595
       0.513
       0.554
       0.555
       0.355
      -0.042
      -0.447
      -0.610
      -0.390
       0.139
       0.719
       1.068
       1.062
       0.817
       0.589
       0.548
       0.644
       0.672
       0.485
       0.129
      -0.227
      -0.460
      -0.610
      -0.818
      -1.173
      -1.611
      -1.949
      -2.019
      -1.769
      -1.264
      -0.630
      -0.002
       0.489
       0.744
       0.753
       0.625
       0.536
       0.604
       0.801
       0.971
       0.974
       0.795
       0.550
       0.391
       0.402
       0.555
       0.733
       0.803
       0.676
       0.346
      -0.094
      -0.485
      -0.688
      -0.691
      -0.659
      -0.841
      -1.357
      -2.045
      -2.515
      -2.417
      -1.706
      -0.688
       0.201
       0.719
       0.944
       1.118
       1.382
       1.637
       1.669
       1.388
       0.937
       0.572
       0.443
       0.506
       0.630
       0.741
       0.835
       0.882
       0.768
       0.392
      -0.201
      -0.783
      -1.099
      -1.073
      -0.875
      -0.754
      -0.796
      -0.817
      -0.540
       0.119
       0.922
       1.498
       1.653
       1.494
       1.252
       1.035
       0.777
       0.388
      -0.076
      -0.433
      -0.581
      -0.645
      -0.877
      -1.383
      -1.942
      -2.154
      -1.805
      -1.094
      -0.483
      -0.285
      -0.404
      -0.480
      -0.273
       0.097
       0.300
       0.166
      -0.106
      -0.134
       0.232
       0.730
       0.930
       0.667
       0.200
      -0.043
       0.126
       0.506
       0.725
       0.596
       0.280
       0.101
       0.225
       0.527
       0.739
       0.703
       0.461
       0.156
      -0.123
      -0.379
      -0.637
      -0.848
      -0.901
      -0.718
      -0.368
      -0.054
       0.028
      -0.166
      -0.500
      -0.767
      -0.828
      -0.687
      -0.471
      -0.349
      -0.415
      -0.625
      -0.805
      -0.741
      -0.294
       0.489
       1.320
       1.780
       1.607
       0.934
       0.266
       0.124
       0.619
       1.335
       1.661
       1.271
       0.354
      -0.579
      -1.081
      -1.013
      -0.501
       0.227
       0.905
       1.230
       0.954
       0.097
      -0.943
      -1.549
      -1.312
      -0.395
       0.509
       0.663
      -0.143
      -1.389
      -2.201
      -2.014
      -0.981
       0.190
       0.784
       0.551
      -0.216
      -0.980
      -1.321
      -1.122
      -0.535
       0.172
       0.755
       1.048
       0.997
       0.703
       0.427
       0.471
       0.965
       1.726
       2.366
       2.576
       2.343
       1.922
       1.604
       1.459
       1.294
       0.866
       0.157
      -0.571
      -0.975
      -0.902
      -0.537
      -0.289
      -0.490
      -1.155
      -1.984
      -2.595
      -2.786
      -2.614
      -2.279
      -1.955
      -1.719
      -1.559
      -1.408
      -1.169
      -0.783
      -0.289
       0.191
       0.543
       0.772
       0.989
       1.297
       1.657
       1.878
       1.781
       1.404
       1.000
       0.818
       0.862
       0.889
       0.635
       0.079
      -0.499
      -0.742
      -0.511
       0.007
       0.463
       0.613
       0.459
       0.156
      -0.152
      -0.383
      -0.478
      -0.375
      -0.065
       0.335
       0.605
       0.521
       0.000
      -0.793
      -1.490
      -1.723
      -1.355
      -0.571
       0.220
       0.621
       0.482
      -0.028
      -0.550
      -0.789
      -0.705
      -0.471
      -0.242
       0.006
       0.386
       0.864
       1.170
       1.020
       0.462
      -0.065
      -0.089
       0.455
       1.139
       1.426
       1.147
       0.626
       0.335
       0.459
       0.777
       0.927
       0.761
       0.454
       0.276
       0.288
       0.280
      -0.020
      -0.668
      -1.420
      -1.920
      -1.992
      -1.768
      -1.571
      -1.659
      -1.985
      -2.180
      -1.821
      -0.770
       0.665
       1.918
       2.581
       2.689
       2.588
       2.548
       2.505
       2.172
       1.385
       0.363
      -0.414
      -0.611
      -0.322
       0.047
       0.171
       0.058
      -0.091
      -0.210
      -0.466
      -1.002
      -1.657
      -2.002
      -1.705
      -0.897
      -0.136
       0.062
      -0.335
      -0.872
      -1.031
      -0.701
      -0.244
      -0.092
      -0.275
      -0.392
      -0.041
       0.740
       1.432
       1.470
       0.737
      -0.351
      -1.230
      -1.603
      -1.528
      -1.199
      -0.722
      -0.117
       0.517
       0.939
       0.920
       0.441
      -0.248
      -0.806
      -1.053
      -1.043
      -0.921
      -0.759
      -0.525
      -0.209
       0.103
       0.308
       0.430
       0.599
       0.866
       1.095
       1.069
       0.689
       0.097
      -0.381
      -0.442
      -0.005
       0.744
       1.474
       1.934
       2.114
       2.195
       2.349
       2.571
       2.662
       2.366
       1.586
       0.503
      -0.516
      -1.163
      -1.369
      -1.294
      -1.129
      -0.957
      -0.792
      -0.744
      -1.033
      -1.770
      -2.718
      -3.327
      -3.146
      -2.265
      -1.319
      -0.969
      -1.319
      -1.783
      -1.581
      -0.452
       1.087
       2.181
       2.350
       1.819
       1.231
       1.063
       1.302
       1.626
       1.800
       1.825
       1.759
       1.515
       0.940
       0.104
      -0.617
      -0.829
      -0.541
      -0.234
      -0.452
      -1.270
      -2.128
      -2.261
      -1.386
      -0.010
       0.954
       0.911
       0.000
      -1.104
      -1.747
      -1.704
      -1.174
      -0.488
       0.141
       0.659
       1.073
       1.351
       1.443
       1.366
       1.202
       1.010
       0.784
       0.510
       0.261
       0.196
       0.419
       0.833
       1.135
       1.010
       0.371
      -0.548
      -1.369
      -1.860
      -2.050
      -2.074
      -1.959
      -1.602
      -0.944
      -0.116
       0.626
       1.120
       1.448
       1.829
       2.356
       2.852
       2.982
       2.555
       1.732
       0.970
       0.702
       0.994
       1.462
       1.552
       0.952
      -0.169
      -1.302
      -2.017
      -2.287
      -2.421
      -2.721
      -3.219
      -3.710
      -4.002
      -4.099
      -4.131
      -4.114
      -3.856
      -3.141
      -2.050
      -1.073
      -0.787
      -1.315
      -2.095
      -2.263
      -1.370
       0.215
       1.604
       2.115
       1.778
       1.228
       1.152
       1.773
       2.745
       3.491
       3.680
       3.466
       3.326
       3.651
       4.414
       5.203
       5.592
       5.510
       5.302
       5.434
       6.071
       6.896
       7.353
       7.090
       6.173
       4.897
       3.451
       1.760
      -0.329
      -2.726
      -5.022
      -6.804
      -8.027
      -9.074
     -10.378
     -11.903
     -13.015
     -12.945
     -11.463
      -9.118
      -6.868
      -5.417
      -4.773
      -4.342
      -3.429
      -1.713
       0.627
       3.134
       5.405
       7.250
       8.599
       9.346
       9.344
       8.556
       7.208
       5.774
       4.716
       4.190
       3.982
       3.742
       3.265
       2.556
       1.666
       0.517
      -1.044
      -2.990
      -4.932
      -6.235
      -6.384
      -5.338
      -3.604
      -1.988
      -1.224
      -1.639
      -2.973
      -4.430
      -5.036
      -4.194
      -2.103
       0.294
       1.877
       2.021
       0.860
      -0.926
      -2.545
      -3.412
      -3.239
      -1.990
       0.098
       2.491
       4.485
       5.506
       5.412
       4.555
       3.510
       2.673
       2.061
       1.460
       0.752
       0.127
      -0.024
       0.546
       1.678
       2.855
       3.508
       3.326
       2.388
       1.057
      -0.222
      -1.079
      -1.271
      -0.715
       0.388
       1.455
       1.713
       0.678
      -1.467
      -3.938
      -5.821
      -6.599
      -6.387
      -5.753
      -5.276
      -5.162
      -5.152
      -4.763
      -3.717
      -2.210
      -0.798
       0.052
       0.320
       0.436
       0.964
       2.237
       4.154
       6.238
       7.873
       8.572
       8.156
       6.754
       4.688
       2.363
       0.241
      -1.222
      -1.765
      -1.505
      -0.903
      -0.493
      -0.565
      -1.023
      -1.524
      -1.723
      -1.439
      -0.700
       0.323
       1.386
       2.265
       2.817
       2.986
       2.747
       2.071
       0.989
      -0.269
      -1.228
      -1.360
      -0.441
       1.172
       2.653
       3.157
       2.361
       0.682
      -0.992
      -1.902
      -1.877
      -1.322
      -0.800
      -0.597
      -0.661
      -0.891
      -1.437
      -2.644
      -4.657
      -7.014
      -8.721
      -8.885
      -7.450
      -5.334
      -3.769
      -3.333
      -3.543
      -3.380
      -2.223
      -0.296
       1.684
       3.232
       4.451
       5.723
       7.158
       8.415
       9.051
       8.947
       8.352
       7.496
       6.295
       4.554
       2.517
       1.031
       0.969
       2.377
       4.159
       4.684
       2.896
      -0.957
      -5.514
      -9.182
     -11.031
     -11.103
     -10.092
      -8.765
      -7.583
      -6.694
      -6.111
      -5.812
      -5.664
      -5.324
      -4.290
      -2.155
       1.065
       4.807
       8.214
      10.597
      11.737
      11.801
      11.056
       9.693
       7.898
       6.014
       4.555
       3.955
       4.256
       4.987
       5.300
       4.363
       1.828
      -1.925
      -5.974
      -9.314
     -11.318
     -11.964
     -11.728
     -11.235
     -10.920
     -10.888
     -10.948
     -10.738
      -9.877
      -8.129
      -5.588
      -2.756
      -0.365
       1.088
       1.706
       2.129
       3.051
       4.643
       6.375
       7.421
       7.361
       6.544
       5.802
       5.798
       6.565
       7.608
       8.371
       8.615
       8.354
       7.562
       6.063
       3.773
       1.030
      -1.383
      -2.689
      -2.711
      -2.068
      -1.723
      -2.259
      -3.477
      -4.606
      -4.912
      -4.220
      -2.950
      -1.708
      -0.840
      -0.291
       0.213
       0.859
       1.568
       2.082
       2.200
       1.937
       1.524
       1.261
       1.286
       1.418
       1.253
       0.472
      -0.871
      -2.321
      -3.306
      -3.537
      -3.152
      -2.520
      -1.918
      -1.391
      -0.867
      -0.374
      -0.122
      -0.288
      -0.724
      -0.967
      -0.645
       0.094
       0.594
       0.220
      -0.983
      -2.146
      -2.217
      -0.896
       1.047
       2.379
       2.414
       1.494
       0.545
       0.186
       0.265
       0.179
      -0.412
      -1.205
      -1.534
      -0.965
       0.357
       1.840
       2.878
       3.208
       2.962
       2.463
       1.967
       1.507
       0.933
       0.119
      -0.808
      -1.484
      -1.568
      -1.014
      -0.132
       0.594
       0.792
       0.384
      -0.427
      -1.314
      -1.996
      -2.342
      -2.343
      -2.025
      -1.433
      -0.665
       0.111
       0.740
       1.188
       1.535
       1.833
       2.005
       1.936
       1.646
       1.339
       1.264
       1.514
       1.973
       2.425
       2.676
       2.558
       1.904
       0.625
      -1.137
      -2.915
      -4.049
      -4.026
      -2.816
      -0.920
       0.920
       2.133
       2.520
       2.159
       1.211
      -0.101
      -1.376
      -2.040
      -1.637
      -0.235
       1.487
       2.641
       2.770
       2.168
       1.593
       1.610
       2.133
       2.573
       2.420
       1.692
       0.841
       0.241
      -0.188
      -0.835
      -1.883
      -3.016
      -3.682
      -3.646
      -3.217
      -2.922
      -3.014
      -3.333
      -3.602
      -3.745
      -3.892
      -4.141
      -4.419
      -4.604
      -4.743
      -5.076
      -5.754
      -6.542
      -6.892
      -6.348
      -4.907
      -2.989
      -1.083
       0.550
       1.851
       2.804
       3.440
       3.989
       4.887
       6.439
       8.358
       9.715
       9.560
       7.763
       5.284
       3.478
       2.996
       3.273
       3.089
       1.676
      -0.625
      -2.655
      -3.353
      -2.526
      -0.902
       0.477
       0.961
       0.559
      -0.304
      -1.170
      -1.712
      -1.725
      -1.175
      -0.309
       0.351
       0.278
      -0.659
      -2.017
      -3.034
      -3.141
      -2.342
      -1.165
      -0.221
       0.250
       0.469
       0.781
       1.277
