Origin Time       25/11/2007 23:12:20
Lat.              28.6 N 
Long.             77.0 E 
Depth (Km)         20.3
Magnitude         4.3
 Region           DELHI-HARYANA-BORDER-REGION                                      
 Above details taken from IMD 
     
Station Code      BAL
Station Lat.       28.342  N
Station Long.      77.321  E
Station Height(m)    0.0
Site Class        C   Vs30 between 200 m/sec to 375 m/sec *  
Record Time       25.11.2007 23:12:19.379
Sampling Rate     200. Hz
 Record Duration   35.645 Sec.
 Direction         E-W (E positive)
Max. Acceleration     23.794 cm/sec**2
     
  * For reference see Site Classification link of website 
     
 Base Line Corrected and Low Pass Filtered (Cut Off at 35 Hz) Time History
 Acceleration data in cm/sec**2
    
[...]
      -0.264
      -0.441
      -0.553
      -0.495
      -0.287
      -0.059
       0.061
       0.043
      -0.025
      -0.009
       0.151
       0.390
       0.569
       0.585
       0.457
       0.310
       0.270
       0.360
       0.491
       0.547
       0.488
       0.369
       0.273
       0.224
       0.174
       0.049
      -0.180
      -0.477
      -0.763
      -0.963
      -1.035
      -0.972
      -0.793
      -0.528
      -0.216
       0.095
       0.349
       0.515
       0.593
       0.618
       0.622
       0.608
       0.549
       0.414
       0.204
      -0.039
      -0.235
      -0.307
      -0.218
       0.003
       0.266
       0.465
       0.543
       0.516
       0.446
       0.366
       0.258
       0.086
      -0.134
      -0.311
      -0.349
      -0.229
      -0.036
       0.102
       0.109
       0.001
      -0.144
      -0.251
      -0.289
      -0.271
      -0.217
      -0.146
      -0.077
      -0.028
      -0.004
       0.022
       0.099
       0.246
       0.417
       0.511
       0.435
       0.173
      -0.197
      -0.554
      -0.815
      -0.972
      -1.063
      -1.112
      -1.095
      -0.974
      -0.739
      -0.428
      -0.105
       0.173
       0.369
       0.462
       0.466
       0.433
       0.436
       0.512
       0.628
       0.703
       0.684
       0.590
       0.490
       0.421
       0.346
       0.199
      -0.030
      -0.262
      -0.388
      -0.369
      -0.270
      -0.204
      -0.239
      -0.355
      -0.481
      -0.562
      -0.600
      -0.630
      -0.671
      -0.703
      -0.680
      -0.573
      -0.391
      -0.179
       0.001
       0.083
       0.035
      -0.114
      -0.271
      -0.330
      -0.251
      -0.089
       0.057
       0.141
       0.214
       0.370
       0.642
       0.947
       1.142
       1.131
       0.938
       0.692
       0.528
       0.501
       0.570
       0.638
       0.631
       0.536
       0.396
       0.263
       0.171
       0.122
       0.108
       0.126
       0.184
       0.277
       0.367
       0.394
       0.309
       0.116
      -0.120
      -0.324
      -0.464
      -0.559
      -0.643
      -0.713
      -0.725
      -0.648
      -0.498
      -0.332
      -0.208
      -0.148
      -0.139
      -0.146
      -0.128
      -0.064
       0.038
       0.147
       0.243
       0.325
       0.391
       0.407
       0.312
       0.074
      -0.258
      -0.566
      -0.731
      -0.708
      -0.558
      -0.403
      -0.346
      -0.409
      -0.523
      -0.585
      -0.525
      -0.352
      -0.154
      -0.044
      -0.083
      -0.224
      -0.337
      -0.294
      -0.062
       0.274
       0.567
       0.711
       0.690
       0.571
       0.432
       0.309
       0.196
       0.075
      -0.060
      -0.201
      -0.325
      -0.401
      -0.389
      -0.278
      -0.108
       0.049
       0.147
       0.205
       0.284
       0.420
       0.584
       0.698
       0.689
       0.541
       0.295
       0.031
      -0.175
      -0.266
      -0.227
      -0.087
       0.097
       0.269
       0.405
       0.503
       0.558
       0.550
       0.468
       0.329
       0.166
      -0.011
      -0.222
      -0.486
      -0.768
      -0.981
      -1.044
      -0.958
      -0.806
      -0.693
      -0.659
      -0.675
      -0.685
      -0.653
      -0.565
      -0.404
      -0.159
       0.147
       0.432
       0.604
       0.634
       0.596
       0.604
       0.705
       0.819
       0.810
       0.618
       0.320
       0.063
      -0.057
      -0.050
       0.026
       0.141
       0.309
       0.524
       0.707
       0.740
       0.547
       0.162
      -0.276
      -0.603
      -0.715
      -0.611
      -0.380
      -0.138
       0.039
       0.150
       0.234
       0.317
       0.372
       0.339
       0.185
      -0.044
      -0.241
      -0.309
      -0.236
      -0.117
      -0.090
      -0.247
      -0.558
      -0.876
      -1.011
      -0.843
      -0.408
       0.122
       0.552
       0.776
       0.812
       0.734
       0.587
       0.370
       0.100
      -0.140
      -0.236
      -0.121
       0.162
       0.478
       0.681
       0.688
       0.504
       0.199
      -0.119
      -0.339
      -0.383
      -0.251
      -0.034
       0.133
       0.154
       0.031
      -0.139
      -0.240
      -0.228
      -0.167
      -0.172
      -0.315
      -0.566
      -0.820
      -0.959
      -0.914
      -0.687
      -0.351
      -0.038
       0.120
       0.070
      -0.109
      -0.242
      -0.161
       0.159
       0.568
       0.829
       0.782
       0.461
       0.061
      -0.206
      -0.254
      -0.152
      -0.042
      -0.021
      -0.088
      -0.173
      -0.196
      -0.125
       0.030
       0.228
       0.403
       0.478
       0.396
       0.168
      -0.100
      -0.255
      -0.181
       0.130
       0.560
       0.923
       1.058
       0.916
       0.580
       0.199
      -0.129
      -0.407
      -0.683
      -0.938
      -1.045
      -0.857
      -0.373
       0.206
       0.580
       0.566
       0.230
      -0.174
      -0.396
      -0.343
      -0.097
       0.191
       0.395
       0.448
       0.331
       0.055
      -0.330
      -0.731
      -1.025
      -1.105
      -0.929
      -0.542
      -0.069
       0.336
       0.555
       0.560
       0.412
       0.218
       0.061
      -0.038
      -0.094
      -0.100
      -0.018
       0.158
       0.342
       0.387
       0.208
      -0.113
      -0.364
      -0.375
      -0.160
       0.095
       0.197
       0.104
      -0.047
      -0.068
       0.126
       0.439
       0.661
       0.628
       0.337
      -0.051
      -0.320
      -0.342
      -0.139
       0.155
       0.393
       0.499
       0.489
       0.423
       0.346
       0.262
       0.144
      -0.020
      -0.209
      -0.383
      -0.504
      -0.545
      -0.482
      -0.320
      -0.130
      -0.027
      -0.098
      -0.313
      -0.520
      -0.543
      -0.309
       0.093
       0.484
       0.720
       0.783
       0.741
       0.651
       0.503
       0.263
      -0.043
      -0.318
      -0.476
      -0.526
      -0.560
      -0.645
      -0.741
      -0.729
      -0.534
      -0.222
       0.029
       0.079
      -0.050
      -0.184
      -0.134
       0.148
       0.520
       0.746
       0.657
       0.268
      -0.247
      -0.685
      -0.940
      -1.031
      -1.026
      -0.952
      -0.784
      -0.509
      -0.169
       0.152
       0.391
       0.548
       0.671
       0.787
       0.872
       0.861
       0.719
       0.484
       0.269
       0.204
       0.353
       0.645
       0.904
       0.954
       0.738
       0.349
      -0.042
      -0.297
      -0.378
      -0.320
      -0.181
      -0.009
       0.159
       0.283
       0.326
       0.266
       0.113
      -0.083
      -0.269
      -0.430
      -0.604
      -0.843
      -1.135
      -1.370
      -1.408
      -1.183
      -0.771
      -0.330
       0.018
       0.259
       0.461
       0.684
       0.921
       1.121
       1.234
       1.239
       1.124
       0.861
       0.429
      -0.130
      -0.681
      -1.029
      -1.038
      -0.731
      -0.298
       0.013
       0.038
      -0.213
      -0.578
      -0.846
      -0.890
      -0.736
      -0.530
      -0.421
      -0.439
      -0.473
      -0.367
      -0.051
       0.385
       0.733
       0.809
       0.582
       0.202
      -0.094
      -0.126
       0.138
       0.571
       0.964
       1.125
       0.983
       0.622
       0.233
      -0.009
      -0.050
       0.030
       0.104
       0.103
       0.059
       0.044
       0.093
       0.179
       0.244
       0.256
       0.216
       0.149
       0.088
       0.053
       0.040
       0.013
      -0.064
      -0.184
      -0.295
      -0.347
      -0.349
      -0.363
      -0.450
      -0.603
      -0.747
      -0.785
      -0.657
      -0.384
      -0.065
       0.167
       0.211
       0.067
      -0.159
      -0.329
      -0.363
      -0.277
      -0.145
      -0.033
       0.026
       0.015
      -0.075
      -0.224
      -0.364
      -0.404
      -0.290
      -0.046
       0.241
       0.473
       0.586
       0.565
       0.452
       0.322
       0.247
       0.259
       0.322
       0.354
       0.290
       0.133
      -0.036
      -0.124
      -0.103
      -0.044
      -0.046
      -0.134
      -0.216
      -0.160
       0.075
       0.379
       0.569
       0.527
       0.284
      -0.032
      -0.301
      -0.477
      -0.569
      -0.582
      -0.496
      -0.295
       0.002
       0.331
       0.618
       0.806
       0.866
       0.794
       0.615
       0.378
       0.137
      -0.070
      -0.235
      -0.366
      -0.466
      -0.531
      -0.570
      -0.607
      -0.640
      -0.610
      -0.439
      -0.124
       0.195
       0.308
       0.111
      -0.268
      -0.543
      -0.515
      -0.262
      -0.070
      -0.158
      -0.470
      -0.737
      -0.736
      -0.492
      -0.229
      -0.151
      -0.271
      -0.419
      -0.402
      -0.147
       0.261
       0.659
       0.919
       1.001
       0.925
       0.730
       0.472
       0.235
       0.124
       0.205
       0.450
       0.737
       0.926
       0.947
       0.828
       0.666
       0.551
       0.502
       0.462
       0.345
       0.108
      -0.212
      -0.518
      -0.708
      -0.737
      -0.621
      -0.412
      -0.149
       0.163
       0.521
       0.853
       1.003
       0.808
       0.242
      -0.504
      -1.083
      -1.206
      -0.833
      -0.196
       0.383
       0.698
       0.733
       0.571
       0.288
      -0.065
      -0.415
      -0.676
      -0.812
      -0.874
      -0.936
      -0.988
      -0.929
      -0.679
      -0.299
       0.023
       0.106
      -0.098
      -0.500
      -0.962
      -1.378
      -1.670
      -1.767
      -1.608
      -1.194
      -0.621
      -0.053
       0.381
       0.669
       0.900
       1.161
       1.436
       1.614
       1.604
       1.427
       1.207
       1.063
       1.023
       1.031
       1.012
       0.910
       0.688
       0.318
      -0.183
      -0.708
      -1.072
      -1.114
      -0.820
      -0.381
      -0.090
      -0.158
      -0.560
      -1.049
      -1.310
      -1.163
      -0.657
      -0.023
       0.479
       0.686
       0.607
       0.397
       0.270
       0.360
       0.631
       0.888
       0.931
       0.734
       0.479
       0.406
       0.606
       0.940
       1.146
       1.030
       0.592
       0.011
      -0.482
      -0.751
      -0.806
      -0.776
      -0.817
      -1.041
      -1.459
      -1.953
      -2.301
      -2.287
      -1.841
      -1.109
      -0.377
       0.092
       0.205
       0.062
      -0.132
      -0.193
      -0.043
       0.286
       0.698
       1.110
       1.479
       1.790
       2.008
       2.067
       1.905
       1.527
       1.016
       0.502
       0.104
      -0.105
      -0.111
       0.045
       0.264
       0.416
       0.391
       0.183
      -0.093
      -0.257
      -0.194
       0.049
       0.262
       0.191
      -0.292
      -1.076
      -1.840
      -2.222
      -2.029
      -1.354
      -0.522
       0.095
       0.297
       0.157
      -0.080
      -0.194
      -0.147
      -0.062
      -0.079
      -0.227
      -0.423
      -0.573
      -0.669
      -0.786
      -0.975
      -1.185
      -1.299
      -1.271
      -1.201
      -1.241
      -1.397
      -1.455
      -1.125
      -0.302
       0.791
       1.703
       2.048
       1.756
       1.109
       0.543
       0.337
       0.449
       0.593
       0.526
       0.271
       0.091
       0.242
       0.730
       1.288
       1.605
       1.581
       1.382
       1.260
       1.310
       1.407
       1.337
       1.005
       0.519
       0.086
      -0.154
      -0.218
      -0.219
      -0.232
      -0.223
      -0.125
       0.045
       0.178
       0.187
       0.117
       0.133
       0.362
       0.731
       0.977
       0.827
       0.220
      -0.610
      -1.255
      -1.380
      -0.944
      -0.236
       0.306
       0.388
       0.055
      -0.368
      -0.546
      -0.382
      -0.062
       0.115
      -0.061
      -0.605
      -1.356
      -2.051
      -2.431
      -2.348
      -1.831
      -1.044
      -0.160
       0.730
       1.611
       2.456
       3.209
       3.852
       4.446
       5.078
       5.743
       6.342
       6.818
       7.298
       8.067
       9.337
      11.028
      12.730
      13.846
      13.813
      12.317
       9.456
       5.764
       2.018
      -1.134
      -3.508
      -5.422
      -7.416
      -9.856
     -12.716
     -15.643
     -18.176
     -19.937
     -20.694
     -20.339
     -18.879
     -16.486
     -13.568
     -10.697
      -8.345
      -6.595
      -5.074
      -3.239
      -0.828
       1.880
       4.207
       5.502
       5.520
       4.530
       3.132
       1.954
       1.401
       1.552
       2.163
       2.812
       3.107
       2.862
       2.116
       1.002
      -0.369
      -1.885
      -3.315
      -4.277
      -4.402
      -3.620
      -2.327
      -1.282
      -1.253
      -2.620
      -5.180
      -8.245
     -10.908
     -12.309
     -11.874
      -9.494
      -5.579
      -0.896
       3.773
       7.983
      11.730
      15.247
      18.636
      21.609
      23.537
      23.794
      22.202
      19.243
      15.852
      12.906
      10.771
       9.191
       7.572
       5.387
       2.492
      -0.801
      -3.850
      -5.961
      -6.731
      -6.305
      -5.364
      -4.785
      -5.165
      -6.498
      -8.239
      -9.658
     -10.218
      -9.760
      -8.478
      -6.772
      -5.092
      -3.814
      -3.156
      -3.123
      -3.532
      -4.094
      -4.510
      -4.531
      -3.995
      -2.857
      -1.228
       0.654
       2.493
       4.006
       4.934
       5.034
       4.176
       2.505
       0.520
      -1.090
      -1.796
      -1.508
      -0.587
       0.395
       0.951
       0.830
      -0.005
      -1.441
      -3.201
      -4.788
      -5.553
      -4.984
      -3.070
      -0.455
       1.806
       2.826
       2.382
       0.987
      -0.524
      -1.545
      -1.933
      -1.822
      -1.291
      -0.259
       1.306
       3.108
       4.494
       4.767
       3.613
       1.322
      -1.363
      -3.632
      -4.964
      -5.244
      -4.674
      -3.617
      -2.465
      -1.527
      -0.921
      -0.513
      -0.002
       0.879
       2.167
       3.658
       5.099
       6.363
       7.479
       8.489
       9.342
       9.930
      10.201
      10.204
       9.987
       9.457
       8.375
       6.493
       3.757
       0.435
      -2.902
      -5.555
      -7.000
      -7.153
      -6.472
      -5.752
      -5.706
      -6.569
      -7.973
      -9.173
      -9.455
      -8.508
      -6.528
      -4.076
      -1.807
      -0.214
       0.536
       0.608
       0.366
       0.177
       0.246
       0.573
       1.011
       1.380
       1.581
       1.628
       1.625
       1.707
       1.986
       2.517
       3.290
       4.206
       5.025
       5.381
       4.912
       3.491
       1.384
      -0.815
      -2.472
      -3.221
      -3.111
      -2.506
      -1.879
      -1.604
      -1.837
      -2.512
      -3.441
      -4.456
      -5.525
      -6.718
      -8.024
      -9.143
      -9.459
      -8.305
      -5.404
      -1.181
       3.341
       7.044
       9.275
      10.049
       9.822
       9.090
       8.177
       7.312
       6.796
       6.961
       7.878
       9.124
       9.886
       9.441
       7.672
       5.215
       3.111
       2.186
       2.588
       3.736
       4.659
       4.512
       2.998
       0.508
      -2.060
      -3.741
      -3.992
      -3.028
      -1.765
      -1.361
      -2.548
      -5.178
      -8.250
     -10.441
     -10.828
      -9.372
      -6.879
      -4.460
      -2.870
      -2.117
      -1.600
      -0.650
       0.889
       2.490
       3.293
       2.753
       1.086
      -0.812
      -1.927
      -1.737
      -0.451
       1.233
       2.603
       3.267
       3.207
       2.617
       1.757
       0.883
       0.215
      -0.141
      -0.290
      -0.516
      -1.090
      -2.042
      -3.120
      -3.996
      -4.540
      -4.907
      -5.332
      -5.825
      -6.066
      -5.605
      -4.221
      -2.151
      -0.027
       1.433
       1.761
       0.935
      -0.636
      -2.290
      -3.366
      -3.451
      -2.521
      -0.929
       0.779
       2.102
       2.775
       2.817
       2.479
       2.120
       2.070
       2.461
       3.107
       3.517
       3.133
       1.691
      -0.530
      -2.785
      -4.259
      -4.529
      -3.750
      -2.458
      -1.177
      -0.139
       0.691
       1.407
       2.007
       2.421
       2.634
       2.697
       2.605
       2.188
       1.218
      -0.308
      -1.989
      -3.174
      -3.367
      -2.595
      -1.416
      -0.558
      -0.473
      -1.090
      -1.925
      -2.407
      -2.201
      -1.358
      -0.219
       0.811
       1.491
       1.816
       1.910
       1.843
       1.576
       1.080
       0.512
       0.228
       0.539
       1.417
       2.409
       2.912
       2.597
       1.661
       0.674
       0.152
       0.214
       0.590
       0.926
       1.081
       1.154
       1.286
       1.479
       1.617
       1.648
       1.689
       1.916
       2.340
       2.718
       2.700
       2.089
       0.995
      -0.234
      -1.229
      -1.811
      -2.032
      -2.069
      -2.067
      -2.043
      -1.912
      -1.587
      -1.081
      -0.520
      -0.085
       0.079
      -0.094
      -0.591
      -1.337
      -2.181
      -2.890
      -3.181
      -2.810
      -1.708
      -0.082
       1.627
       2.942
       3.551
       3.388
       2.561
       1.270
      -0.211
      -1.502
      -2.191
      -2.024
      -1.093
       0.185
       1.330
       2.104
       2.596
       2.991
       3.254
       3.018
       1.836
      -0.383
      -3.105
      -5.331
      -6.146
      -5.310
      -3.462
      -1.752
      -1.128
      -1.766
      -3.028
      -3.924
      -3.740
      -2.414
      -0.469
       1.347
       2.471
       2.750
       2.394
       1.771
       1.194
       0.827
       0.685
       0.687
       0.691
       0.555
       0.223
      -0.185
      -0.413
      -0.239
       0.336
       1.060
       1.605
       1.801
       1.723
       1.551
       1.369
       1.101
       0.639
      -0.007
      -0.690
      -1.217
      -1.441
      -1.248
      -0.538
       0.694
       2.212
       3.499
       3.970
       3.363
       1.973
       0.517
      -0.323
      -0.306
       0.290
       0.945
       1.254
       1.120
       0.693
       0.189
      -0.256
      -0.597
      -0.812
      -0.855
      -0.716
      -0.514
      -0.517
      -0.994
      -1.994
      -3.224
      -4.182
      -4.457
      -3.967
      -2.970
      -1.837
      -0.800
       0.134
       1.068
       2.029
       2.886
       3.428
       3.557
       3.431
       3.397
       3.754
