Origin Time       12/9/2014 07:56:44	
Lat.              26.1 N	
Long.             90.2 E	
Depth (Km)         10.0
Magnitude         4.2
 Region           Golpara-Assam                                                    
 Above details taken from IMD 
   
Station Code      BAR
Station Lat.       26.332
Station Long.      91.006
Station Height(m)   47.0
Site Class        C   Vs30 between 200 m/sec to 375 m/sec *  
Record Time       12.09.2014 07:54:16.899
Sampling Rate     200. Hz
 Record Duration   87.650 Sec.
 Direction         Vert. (Up positive)
Max. Acceleration     -6.555 cm/sec**2
     
  * For reference see Site Classification link of website 
     
 Base Line Corrected and Low Pass Filtered (Cut Off at 35 Hz) Time History
 Acceleration data in cm/sec**2
    
[...]
      -0.422
      -0.507
      -0.562
      -0.546
      -0.407
      -0.120
       0.267
       0.623
       0.791
       0.684
       0.356
      -0.025
      -0.269
      -0.286
      -0.136
       0.027
       0.087
       0.059
       0.065
       0.193
       0.400
       0.541
       0.496
       0.260
      -0.066
      -0.361
      -0.545
      -0.589
      -0.500
      -0.317
      -0.113
       0.021
       0.025
      -0.070
      -0.163
      -0.164
      -0.071
       0.042
       0.108
       0.128
       0.151
       0.201
       0.246
       0.224
       0.105
      -0.065
      -0.199
      -0.232
      -0.178
      -0.109
      -0.087
      -0.120
      -0.168
      -0.190
      -0.163
      -0.084
       0.040
       0.184
       0.309
       0.374
       0.366
       0.321
       0.298
       0.324
       0.351
       0.292
       0.119
      -0.098
      -0.250
      -0.292
      -0.265
      -0.232
      -0.207
      -0.160
      -0.076
       0.002
       0.006
      -0.066
      -0.118
      -0.032
       0.192
       0.406
       0.433
       0.227
      -0.092
      -0.361
      -0.503
      -0.552
      -0.570
      -0.572
      -0.527
      -0.406
      -0.225
      -0.032
       0.153
       0.354
       0.595
       0.825
       0.923
       0.797
       0.483
       0.147
      -0.042
      -0.047
       0.008
      -0.043
      -0.248
      -0.487
      -0.579
      -0.450
      -0.194
       0.034
       0.151
       0.173
       0.141
       0.071
      -0.036
      -0.154
      -0.250
      -0.317
      -0.361
      -0.358
      -0.254
      -0.025
       0.269
       0.501
       0.567
       0.463
       0.283
       0.133
       0.049
       0.002
      -0.031
      -0.045
      -0.039
      -0.057
      -0.146
      -0.270
      -0.307
      -0.153
       0.151
       0.403
       0.395
       0.095
      -0.309
      -0.541
      -0.463
      -0.160
       0.152
       0.317
       0.341
       0.324
       0.339
       0.373
       0.357
       0.235
       0.004
      -0.281
      -0.520
      -0.623
      -0.562
      -0.393
      -0.222
      -0.142
      -0.175
      -0.262
      -0.299
      -0.207
       0.006
       0.240
       0.371
       0.336
       0.179
       0.026
       0.000
       0.118
       0.271
       0.306
       0.159
      -0.069
      -0.192
      -0.096
       0.169
       0.436
       0.542
       0.436
       0.191
      -0.057
      -0.207
      -0.247
      -0.219
      -0.163
      -0.096
      -0.039
      -0.020
      -0.037
      -0.021
       0.108
       0.340
       0.548
       0.568
       0.336
      -0.059
      -0.446
      -0.698
      -0.794
      -0.783
      -0.715
      -0.612
      -0.484
      -0.335
      -0.144
       0.127
       0.475
       0.809
       0.969
       0.835
       0.427
      -0.071
      -0.410
      -0.432
      -0.194
       0.077
       0.155
       0.007
      -0.194
      -0.240
      -0.073
       0.180
       0.347
       0.371
       0.329
       0.316
       0.321
       0.240
       0.014
      -0.278
      -0.473
      -0.485
      -0.384
      -0.311
      -0.321
      -0.337
      -0.249
      -0.038
       0.200
       0.338
       0.317
       0.175
      -0.004
      -0.149
      -0.228
      -0.229
      -0.151
      -0.018
       0.119
       0.213
       0.270
       0.330
       0.416
       0.497
       0.501
       0.371
       0.100
      -0.239
      -0.517
      -0.617
      -0.520
      -0.317
      -0.121
       0.036
       0.210
       0.438
       0.660
       0.739
       0.574
       0.200
      -0.221
      -0.523
      -0.653
      -0.681
      -0.671
      -0.590
      -0.353
       0.032
       0.414
       0.606
       0.545
       0.336
       0.143
       0.057
       0.039
      -0.007
      -0.139
      -0.316
      -0.441
      -0.445
      -0.334
      -0.164
       0.020
       0.207
       0.393
       0.543
       0.600
       0.531
       0.365
       0.167
      -0.026
      -0.222
      -0.435
      -0.622
      -0.700
      -0.621
      -0.420
      -0.178
       0.050
       0.253
       0.418
       0.500
       0.449
       0.275
       0.056
      -0.117
      -0.215
      -0.270
      -0.332
      -0.410
      -0.458
      -0.413
      -0.238
       0.056
       0.413
       0.749
       0.980
       1.055
       0.971
       0.764
       0.468
       0.116
      -0.243
      -0.540
      -0.732
      -0.829
      -0.863
      -0.830
      -0.694
      -0.451
      -0.171
       0.054
       0.190
       0.279
       0.379
       0.482
       0.517
       0.418
       0.185
      -0.120
      -0.429
      -0.685
      -0.820
      -0.747
      -0.447
      -0.042
       0.262
       0.349
       0.301
       0.314
       0.497
       0.765
       0.919
       0.820
       0.496
       0.088
      -0.278
      -0.565
      -0.793
      -0.950
      -0.965
      -0.768
      -0.372
       0.106
       0.515
       0.754
       0.812
       0.746
       0.628
       0.489
       0.301
       0.029
      -0.319
      -0.664
      -0.882
      -0.862
      -0.564
      -0.071
       0.427
       0.725
       0.729
       0.506
       0.211
      -0.044
      -0.234
      -0.375
      -0.452
      -0.427
      -0.293
      -0.095
       0.115
       0.309
       0.473
       0.563
       0.504
       0.267
      -0.063
      -0.318
      -0.379
      -0.262
      -0.097
       0.000
       0.011
      -0.006
       0.003
       0.028
       0.013
      -0.094
      -0.289
      -0.500
      -0.630
      -0.610
      -0.424
      -0.095
       0.331
       0.761
       1.050
       1.065
       0.791
       0.366
      -0.009
      -0.212
      -0.273
      -0.316
      -0.437
      -0.609
      -0.717
      -0.662
      -0.461
      -0.250
      -0.167
      -0.242
      -0.359
      -0.346
      -0.106
       0.301
       0.697
       0.919
       0.938
       0.844
       0.735
       0.606
       0.383
       0.033
      -0.364
      -0.658
      -0.739
      -0.622
      -0.432
      -0.304
      -0.273
      -0.245
      -0.104
       0.162
       0.426
       0.538
       0.465
       0.336
       0.306
       0.392
       0.430
       0.223
      -0.246
      -0.753
      -1.000
      -0.863
      -0.481
      -0.119
       0.058
       0.093
       0.140
       0.291
       0.496
       0.624
       0.582
       0.363
       0.021
      -0.357
      -0.661
      -0.785
      -0.693
      -0.472
      -0.283
      -0.220
      -0.223
      -0.141
       0.104
       0.422
       0.621
       0.579
       0.341
       0.072
      -0.092
      -0.124
      -0.070
       0.049
       0.260
       0.568
       0.872
       0.996
       0.820
       0.383
      -0.143
      -0.572
      -0.814
      -0.889
      -0.869
      -0.787
      -0.604
      -0.263
       0.221
       0.711
       1.024
       1.052
       0.831
       0.493
       0.179
      -0.033
      -0.161
      -0.292
      -0.507
      -0.811
      -1.118
      -1.302
      -1.264
      -0.967
      -0.468
       0.088
       0.519
       0.733
       0.795
       0.854
       0.976
       1.052
       0.895
       0.434
      -0.186
      -0.687
      -0.866
      -0.731
      -0.463
      -0.247
      -0.136
      -0.069
       0.022
       0.140
       0.248
       0.327
       0.396
       0.462
       0.482
       0.393
       0.180
      -0.074
      -0.246
      -0.270
      -0.203
      -0.162
      -0.214
      -0.316
      -0.362
      -0.293
      -0.147
      -0.037
      -0.063
      -0.221
      -0.387
      -0.392
      -0.169
       0.172
       0.415
       0.422
       0.258
       0.125
       0.163
       0.310
       0.374
       0.238
      -0.006
      -0.144
      -0.054
       0.168
       0.302
       0.203
      -0.084
      -0.393
      -0.580
      -0.603
      -0.500
      -0.333
      -0.142
       0.058
       0.264
       0.449
       0.561
       0.550
       0.422
       0.254
       0.138
       0.085
       0.008
      -0.196
      -0.515
      -0.795
      -0.854
      -0.649
      -0.307
      -0.005
       0.174
       0.276
       0.383
       0.510
       0.584
       0.513
       0.275
      -0.052
      -0.327
      -0.426
      -0.312
      -0.044
       0.260
       0.480
       0.532
       0.387
       0.091
      -0.241
      -0.493
      -0.627
      -0.677
      -0.660
      -0.524
      -0.218
       0.206
       0.570
       0.698
       0.564
       0.328
       0.209
       0.306
       0.519
       0.644
       0.540
       0.228
      -0.148
      -0.426
      -0.527
      -0.476
      -0.368
      -0.307
      -0.346
      -0.461
      -0.564
      -0.533
      -0.278
       0.168
       0.611
       0.789
       0.575
       0.113
      -0.281
      -0.368
      -0.157
       0.142
       0.309
       0.264
       0.076
      -0.131
      -0.260
      -0.288
      -0.270
      -0.305
      -0.469
      -0.705
      -0.809
      -0.575
      -0.002
       0.656
       1.064
       1.064
       0.749
       0.343
       0.017
      -0.196
      -0.361
      -0.556
      -0.799
      -1.008
      -1.038
      -0.775
      -0.218
       0.489
       1.130
       1.508
       1.523
       1.213
       0.728
       0.260
      -0.070
      -0.279
      -0.477
      -0.732
      -0.971
      -1.039
      -0.851
      -0.492
      -0.140
       0.089
       0.209
       0.294
       0.369
       0.395
       0.339
       0.228
       0.122
       0.066
       0.073
       0.140
       0.260
       0.412
       0.559
       0.668
       0.733
       0.754
       0.721
       0.609
       0.403
       0.127
      -0.147
      -0.323
      -0.320
      -0.130
       0.173
       0.484
       0.754
       1.016
       1.303
       1.538
       1.521
       1.082
       0.259
      -0.688
      -1.467
      -1.965
      -2.285
      -2.578
      -2.856
      -2.971
      -2.753
      -2.171
      -1.354
      -0.507
       0.192
       0.654
       0.888
       0.982
       1.050
       1.168
       1.322
       1.444
       1.484
       1.472
       1.489
       1.592
       1.767
       1.946
       2.033
       1.922
       1.535
       0.893
       0.167
      -0.396
      -0.668
      -0.778
      -1.035
      -1.651
      -2.528
      -3.298
      -3.624
      -3.455
      -3.002
      -2.481
      -1.899
      -1.103
      -0.030
       1.126
       2.006
       2.334
       2.081
       1.425
       0.577
      -0.344
      -1.304
      -2.263
      -3.101
      -3.634
      -3.703
      -3.244
      -2.297
      -0.981
       0.509
       1.923
       3.017
       3.673
       3.952
       4.031
       4.044
       3.994
       3.795
       3.371
       2.712
       1.849
       0.830
      -0.269
      -1.323
      -2.198
      -2.830
      -3.237
      -3.436
      -3.353
      -2.874
      -1.991
      -0.885
       0.173
       1.016
       1.641
       2.086
       2.275
       2.035
       1.273
       0.136
      -1.023
      -1.844
      -2.152
      -1.991
      -1.511
      -0.853
      -0.131
       0.524
       0.975
       1.165
       1.160
       1.081
       1.003
       0.915
       0.786
       0.645
       0.581
       0.643
       0.755
       0.748
       0.499
       0.057
      -0.360
      -0.508
      -0.292
       0.157
       0.557
       0.643
       0.340
      -0.195
      -0.686
      -0.935
      -0.946
      -0.865
      -0.796
      -0.703
      -0.493
      -0.172
       0.107
       0.175
      -0.026
      -0.416
      -0.856
      -1.205
      -1.340
      -1.174
      -0.693
       0.013
       0.755
       1.291
       1.418
       1.088
       0.467
      -0.152
      -0.528
      -0.615
      -0.508
      -0.293
       0.054
       0.597
       1.287
       1.893
       2.122
       1.840
       1.182
       0.432
      -0.214
      -0.765
      -1.312
      -1.832
      -2.125
      -1.969
      -1.326
      -0.415
       0.417
       0.912
       1.034
       0.937
       0.815
       0.758
       0.695
       0.468
      -0.022
      -0.684
      -1.243
      -1.418
      -1.143
      -0.657
      -0.336
      -0.400
      -0.741
      -1.037
      -1.016
      -0.655
      -0.152
       0.272
       0.554
       0.808
       1.169
       1.605
       1.882
       1.729
       1.090
       0.219
      -0.472
      -0.701
      -0.522
      -0.259
      -0.243
      -0.539
      -0.907
      -1.019
      -0.721
      -0.145
       0.420
       0.761
       0.877
       0.921
       1.025
       1.181
       1.266
       1.162
       0.838
       0.359
      -0.125
      -0.431
      -0.431
      -0.159
       0.174
       0.296
       0.074
      -0.356
      -0.645
      -0.477
       0.191
       1.101
       1.893
       2.346
       2.436
       2.217
       1.697
       0.835
      -0.358
      -1.762
      -3.183
      -4.416
      -5.282
      -5.642
      -5.456
      -4.852
      -4.100
      -3.453
      -2.965
      -2.474
      -1.792
      -0.894
       0.084
       0.994
       1.795
       2.506
       3.109
       3.542
       3.814
       4.041
       4.330
       4.634
       4.756
       4.551
       4.081
       3.558
       3.155
       2.873
       2.616
       2.336
       2.092
       1.933
       1.765
       1.375
       0.630
      -0.356
      -1.289
      -1.965
      -2.470
      -3.102
      -4.065
      -5.227
      -6.181
      -6.555
      -6.312
      -5.744
      -5.184
      -4.703
      -4.102
      -3.177
      -1.986
      -0.826
       0.021
       0.507
       0.787
       1.028
       1.268
       1.444
       1.524
       1.595
       1.819
       2.290
       2.923
       3.486
       3.756
       3.663
       3.293
       2.794
       2.289
       1.874
       1.638
       1.635
       1.807
       1.967
       1.910
       1.576
       1.084
       0.600
       0.173
      -0.276
      -0.818
      -1.400
      -1.872
      -2.100
      -2.059
      -1.818
      -1.501
      -1.258
      -1.236
      -1.500
      -1.929
      -2.228
      -2.117
      -1.581
      -0.936
      -0.601
      -0.733
      -1.067
      -1.139
      -0.710
       0.013
       0.596
       0.783
       0.683
       0.551
       0.469
       0.280
      -0.176
      -0.809
      -1.321
      -1.469
      -1.282
      -0.980
      -0.736
      -0.535
      -0.264
       0.134
       0.624
       1.146
       1.635
       2.007
       2.184
       2.188
       2.186
       2.382
       2.814
       3.273
       3.436
       3.112
       2.389
       1.544
       0.836
       0.347
      -0.015
      -0.395
      -0.850
      -1.309
      -1.656
      -1.844
      -1.923
      -1.960
      -1.958
      -1.873
      -1.714
      -1.582
      -1.563
      -1.608
      -1.554
      -1.312
      -0.992
      -0.813
      -0.868
      -1.024
      -1.081
      -0.994
      -0.896
      -0.917
      -1.003
      -0.934
      -0.523
       0.211
       1.057
       1.780
       2.276
       2.584
       2.778
       2.851
       2.716
       2.291
       1.611
       0.838
       0.179
      -0.238
      -0.439
      -0.559
      -0.726
      -0.960
      -1.181
      -1.284
      -1.201
      -0.908
      -0.444
       0.061
       0.414
       0.505
       0.431
       0.446
       0.722
       1.160
       1.432
       1.242
       0.597
      -0.144
      -0.523
      -0.339
       0.186
       0.612
       0.667
       0.449
       0.273
       0.313
       0.425
       0.306
      -0.175
      -0.833
      -1.358
      -1.621
      -1.760
      -1.981
      -2.330
      -2.698
      -2.995
      -3.226
      -3.362
      -3.207
      -2.486
      -1.113
       0.624
       2.195
       3.183
       3.564
       3.637
       3.693
       3.743
       3.561
       2.938
       1.899
       0.688
      -0.389
      -1.129
      -1.507
      -1.652
      -1.720
      -1.738
      -1.555
      -0.984
      -0.022
       1.074
       1.950
       2.399
       2.465
       2.311
       2.004
       1.449
       0.555
      -0.554
      -1.537
      -2.076
      -2.137
      -1.975
      -1.888
      -1.934
      -1.907
      -1.563
      -0.873
      -0.089
       0.433
       0.465
       0.055
      -0.520
      -0.925
      -0.961
      -0.653
      -0.181
       0.279
       0.665
       1.005
       1.299
       1.436
       1.271
       0.788
       0.176
      -0.269
      -0.357
      -0.111
       0.299
       0.726
       1.125
       1.477
       1.686
       1.580
       1.069
       0.285
      -0.457
      -0.896
      -1.031
      -1.094
      -1.318
      -1.707
      -2.050
      -2.138
      -1.958
      -1.658
      -1.360
      -1.049
      -0.666
      -0.248
       0.088
       0.325
       0.628
       1.185
       1.920
       2.426
       2.251
       1.298
      -0.032
      -1.122
      -1.570
      -1.409
      -0.967
      -0.558
      -0.277
      -0.019
       0.376
       0.989
       1.760
       2.510
       3.023
       3.144
       2.850
       2.238
       1.444
       0.575
      -0.313
      -1.183
      -1.977
      -2.599
      -2.938
      -2.899
      -2.459
      -1.699
      -0.801
       0.017
       0.602
       0.921
       1.040
       1.039
       0.946
       0.735
       0.362
      -0.194
      -0.888
      -1.591
      -2.096
      -2.217
      -1.915
      -1.351
      -0.783
      -0.365
      -0.037
       0.379
       0.964
       1.599
       2.072
       2.279
       2.269
       2.117
       1.796
       1.236
       0.474
      -0.284
      -0.820
      -1.085
      -1.220
      -1.374
      -1.530
      -1.549
      -1.346
      -0.983
      -0.556
      -0.046
       0.649
       1.524
       2.328
       2.688
       2.414
       1.656
       0.771
       0.004
      -0.669
      -1.393
      -2.170
      -2.776
      -2.949
      -2.616
      -1.939
      -1.133
      -0.303
       0.539
       1.314
       1.825
       1.915
       1.645
       1.268
       0.992
       0.813
       0.582
       0.220
      -0.180
      -0.446
      -0.485
      -0.347
      -0.162
      -0.036
       0.005
       0.006
       0.032
       0.110
       0.206
       0.244
       0.163
      -0.013
      -0.177
      -0.203
      -0.060
       0.138
       0.196
      -0.026
      -0.508
      -1.072
      -1.490
      -1.612
      -1.431
      -1.044
      -0.572
      -0.106
       0.298
       0.603
       0.811
       0.977
       1.184
       1.458
       1.722
       1.863
       1.846
       1.761
       1.723
       1.717
       1.568
       1.089
       0.269
      -0.674
      -1.433
      -1.814
      -1.814
      -1.565
      -1.213
      -0.838
      -0.479
      -0.193
      -0.078
      -0.207
      -0.535
      -0.904
      -1.165
      -1.317
      -1.508
      -1.865
      -2.344
      -2.729
      -2.799
      -2.479
      -1.865
      -1.117
      -0.368
       0.310
       0.877
       1.296
       1.543
       1.637
       1.675
       1.798
       2.096
       2.506
       2.823
       2.844
       2.516
       1.981
       1.469
       1.153
       1.084
       1.221
       1.475
       1.722
       1.801
       1.577
       1.025
