Origin Time       04/04/2011 11:31:40
Lat.              29.6 N	
Long.             80.8 E	
Depth (Km)         10.0
Magnitude         5.7
 Region           NEPAL-INDIA-BORDER-REGION                                        
 Above details taken from IMD 
   
Station Code      BAR
Station Lat.       30.809
Station Long.      78.205
Station Height(m) 1305.0
Site Class        A   Vs30 between 700 m/sec to 1400 m/sec * 
Record Time       04.04.2011 11:32:25.894
Sampling Rate     200. Hz
 Record Duration  104.270 Sec.
 Direction         Vert. (Up positive)
Max. Acceleration     -2.512 cm/sec**2
     
  * For reference see Site Classification link of website 
     
 Base Line Corrected and Low Pass Filtered (Cut Off at 35 Hz) Time History
 Acceleration data in cm/sec**2
    
[...]
       0.035
       0.034
       0.064
       0.089
       0.093
       0.092
       0.096
       0.102
       0.116
       0.153
       0.210
       0.269
       0.325
       0.388
       0.450
       0.484
       0.477
       0.441
       0.381
       0.292
       0.185
       0.080
      -0.020
      -0.130
      -0.245
      -0.340
      -0.398
      -0.415
      -0.385
      -0.301
      -0.188
      -0.092
      -0.028
       0.019
       0.058
       0.084
       0.101
       0.122
       0.144
       0.151
       0.147
       0.153
       0.166
       0.163
       0.139
       0.108
       0.079
       0.040
      -0.010
      -0.054
      -0.086
      -0.106
      -0.107
      -0.076
      -0.025
       0.018
       0.047
       0.084
       0.132
       0.168
       0.175
       0.152
       0.104
       0.035
      -0.031
      -0.069
      -0.085
      -0.107
      -0.137
      -0.158
      -0.176
      -0.223
      -0.305
      -0.396
      -0.476
      -0.547
      -0.613
      -0.663
      -0.694
      -0.705
      -0.682
      -0.609
      -0.504
      -0.405
      -0.325
      -0.238
      -0.127
       0.006
       0.154
       0.314
       0.469
       0.593
       0.682
       0.752
       0.800
       0.809
       0.772
       0.704
       0.607
       0.478
       0.334
       0.201
       0.080
      -0.052
      -0.202
      -0.356
      -0.507
      -0.650
      -0.764
      -0.814
      -0.805
      -0.767
      -0.720
      -0.657
      -0.576
      -0.490
      -0.398
      -0.283
      -0.140
       0.021
       0.201
       0.412
       0.640
       0.847
       1.018
       1.163
       1.289
       1.390
       1.467
       1.523
       1.543
       1.507
       1.423
       1.318
       1.193
       1.027
       0.816
       0.590
       0.373
       0.166
      -0.034
      -0.223
      -0.410
      -0.602
      -0.777
      -0.901
      -0.964
      -0.990
      -0.990
      -0.966
      -0.927
      -0.893
      -0.866
      -0.826
      -0.770
      -0.712
      -0.654
      -0.586
      -0.516
      -0.460
      -0.416
      -0.362
      -0.301
      -0.252
      -0.218
      -0.179
      -0.124
      -0.059
       0.020
       0.117
       0.213
       0.276
       0.307
       0.341
       0.399
       0.472
       0.550
       0.634
       0.713
       0.771
       0.814
       0.862
       0.912
       0.936
       0.920
       0.865
       0.766
       0.615
       0.424
       0.229
       0.045
      -0.135
      -0.314
      -0.483
      -0.638
      -0.784
      -0.906
      -0.989
      -1.047
      -1.113
      -1.194
      -1.268
      -1.320
      -1.351
      -1.349
      -1.296
      -1.197
      -1.075
      -0.934
      -0.762
      -0.561
      -0.359
      -0.172
       0.003
       0.163
       0.296
       0.410
       0.524
       0.638
       0.731
       0.800
       0.859
       0.910
       0.944
       0.963
       0.981
       0.999
       1.002
       0.998
       1.011
       1.043
       1.073
       1.090
       1.094
       1.071
       1.002
       0.894
       0.777
       0.667
       0.554
       0.436
       0.316
       0.182
       0.016
      -0.173
      -0.350
      -0.493
      -0.602
      -0.669
      -0.682
      -0.652
      -0.608
      -0.560
      -0.495
      -0.407
      -0.311
      -0.218
      -0.131
      -0.068
      -0.050
      -0.074
      -0.119
      -0.174
      -0.243
      -0.314
      -0.361
      -0.377
      -0.373
      -0.341
      -0.264
      -0.150
      -0.034
       0.068
       0.160
       0.240
       0.293
       0.312
       0.305
       0.273
       0.210
       0.132
       0.068
       0.018
      -0.039
      -0.106
      -0.162
      -0.197
      -0.221
      -0.242
      -0.256
      -0.278
      -0.333
      -0.422
      -0.519
      -0.604
      -0.667
      -0.695
      -0.673
      -0.613
      -0.539
      -0.457
      -0.354
      -0.238
      -0.134
      -0.045
       0.048
       0.152
       0.249
       0.332
       0.405
       0.467
       0.507
       0.526
       0.534
       0.526
       0.490
       0.440
       0.412
       0.413
       0.420
       0.419
       0.411
       0.394
       0.353
       0.295
       0.243
       0.202
       0.153
       0.084
       0.004
      -0.082
      -0.174
      -0.262
      -0.340
      -0.423
      -0.528
      -0.637
      -0.710
      -0.731
      -0.720
      -0.689
      -0.637
      -0.573
      -0.515
      -0.462
      -0.396
      -0.311
      -0.219
      -0.121
      -0.010
       0.103
       0.191
       0.254
       0.314
       0.378
       0.432
       0.474
       0.516
       0.555
       0.571
       0.561
       0.540
       0.513
       0.470
       0.416
       0.366
       0.315
       0.251
       0.178
       0.116
       0.063
       0.007
      -0.044
      -0.064
      -0.050
      -0.022
       0.005
       0.028
       0.031
      -0.009
      -0.090
      -0.184
      -0.282
      -0.389
      -0.500
      -0.594
      -0.666
      -0.727
      -0.776
      -0.799
      -0.801
      -0.804
      -0.811
      -0.803
      -0.775
      -0.735
      -0.682
      -0.588
      -0.440
      -0.242
      -0.001
       0.264
       0.512
       0.695
       0.801
       0.849
       0.841
       0.763
       0.620
       0.437
       0.236
       0.028
      -0.168
      -0.330
      -0.457
      -0.561
      -0.633
      -0.649
      -0.617
      -0.565
      -0.502
      -0.409
      -0.278
      -0.124
       0.040
       0.207
       0.351
       0.441
       0.474
       0.474
       0.454
       0.404
       0.319
       0.208
       0.075
      -0.073
      -0.208
      -0.293
      -0.328
      -0.340
      -0.340
      -0.314
      -0.256
      -0.173
      -0.063
       0.084
       0.243
       0.371
       0.445
       0.479
       0.488
       0.481
       0.467
       0.457
       0.439
       0.395
       0.329
       0.262
       0.195
       0.112
       0.024
      -0.042
      -0.077
      -0.099
      -0.111
      -0.102
      -0.077
      -0.053
      -0.025
       0.032
       0.127
       0.238
       0.350
       0.458
       0.544
       0.588
       0.592
       0.576
       0.540
       0.469
       0.367
       0.260
       0.160
       0.061
      -0.038
      -0.130
      -0.223
      -0.330
      -0.438
      -0.516
      -0.556
      -0.576
      -0.582
      -0.557
      -0.498
      -0.419
      -0.325
      -0.218
      -0.114
      -0.042
      -0.011
      -0.006
      -0.019
      -0.050
      -0.082
      -0.091
      -0.081
      -0.076
      -0.077
      -0.065
      -0.030
       0.029
       0.124
       0.272
       0.447
       0.597
       0.699
       0.773
       0.844
       0.914
       0.969
       0.993
       0.963
       0.868
       0.734
       0.598
       0.467
       0.316
       0.141
      -0.040
      -0.214
      -0.376
      -0.507
      -0.580
      -0.595
      -0.582
      -0.556
      -0.509
      -0.436
      -0.354
      -0.275
      -0.206
      -0.156
      -0.130
      -0.098
      -0.017
       0.126
       0.306
       0.499
       0.687
       0.836
       0.915
       0.930
       0.912
       0.875
       0.810
       0.719
       0.619
       0.515
       0.398
       0.281
       0.190
       0.129
       0.084
       0.058
       0.069
       0.111
       0.147
       0.153
       0.128
       0.072
      -0.011
      -0.104
      -0.185
      -0.253
      -0.325
      -0.404
      -0.484
      -0.576
      -0.693
      -0.821
      -0.922
      -0.983
      -1.022
      -1.047
      -1.043
      -1.002
      -0.931
      -0.835
      -0.714
      -0.584
      -0.463
      -0.345
      -0.210
      -0.059
       0.084
       0.212
       0.333
       0.435
       0.500
       0.537
       0.580
       0.643
       0.714
       0.776
       0.822
       0.835
       0.801
       0.735
       0.665
       0.596
       0.512
       0.414
       0.321
       0.230
       0.116
      -0.030
      -0.192
      -0.359
      -0.526
      -0.677
      -0.786
      -0.848
      -0.877
      -0.870
      -0.816
      -0.729
      -0.640
      -0.563
      -0.488
      -0.413
      -0.343
      -0.268
      -0.175
      -0.075
       0.000
       0.041
       0.060
       0.067
       0.057
       0.037
       0.023
       0.014
      -0.004
      -0.030
      -0.045
      -0.047
      -0.052
      -0.058
      -0.059
      -0.065
      -0.095
      -0.146
      -0.192
      -0.233
      -0.287
      -0.358
      -0.426
      -0.479
      -0.518
      -0.539
      -0.531
      -0.507
      -0.485
      -0.461
      -0.412
      -0.336
      -0.253
      -0.169
      -0.074
       0.030
       0.124
       0.196
       0.248
       0.270
       0.253
       0.216
       0.192
       0.192
       0.202
       0.221
       0.264
       0.324
       0.370
       0.382
       0.369
       0.341
       0.302
       0.261
       0.222
       0.170
       0.084
      -0.022
      -0.117
      -0.189
      -0.251
      -0.300
      -0.329
      -0.344
      -0.367
      -0.398
      -0.414
      -0.415
      -0.415
      -0.414
      -0.391
      -0.338
      -0.264
      -0.166
      -0.034
       0.117
       0.253
       0.365
       0.464
       0.553
       0.618
       0.656
       0.674
       0.665
       0.615
       0.542
       0.480
       0.441
       0.408
       0.370
       0.330
       0.282
       0.211
       0.127
       0.053
      -0.004
      -0.056
      -0.105
      -0.141
      -0.167
      -0.196
      -0.228
      -0.247
      -0.256
      -0.269
      -0.282
      -0.278
      -0.265
      -0.260
      -0.258
      -0.243
      -0.224
      -0.232
      -0.272
      -0.321
      -0.365
      -0.411
      -0.457
      -0.483
      -0.484
      -0.472
      -0.446
      -0.401
      -0.342
      -0.285
      -0.225
      -0.147
      -0.056
       0.025
       0.099
       0.187
       0.291
       0.397
       0.510
       0.646
       0.802
       0.945
       1.052
       1.113
       1.112
       1.038
       0.905
       0.750
       0.596
       0.448
       0.321
       0.226
       0.149
       0.063
      -0.029
      -0.100
      -0.146
      -0.191
      -0.253
      -0.328
      -0.415
      -0.518
      -0.628
      -0.731
      -0.838
      -0.963
      -1.083
      -1.141
      -1.107
      -0.993
      -0.822
      -0.609
      -0.374
      -0.136
       0.105
       0.354
       0.588
       0.770
       0.886
       0.948
       0.959
       0.908
       0.808
       0.690
       0.569
       0.434
       0.277
       0.104
      -0.083
      -0.279
      -0.457
      -0.581
      -0.651
      -0.686
      -0.686
      -0.633
      -0.522
      -0.369
      -0.179
       0.044
       0.281
       0.497
       0.687
       0.861
       1.016
       1.124
       1.175
       1.178
       1.138
       1.049
       0.925
       0.793
       0.662
       0.530
       0.415
       0.343
       0.317
       0.319
       0.341
       0.381
       0.419
       0.419
       0.375
       0.314
       0.251
       0.179
       0.096
       0.009
      -0.087
      -0.198
      -0.310
      -0.396
      -0.455
      -0.506
      -0.548
      -0.566
      -0.562
      -0.551
      -0.532
      -0.486
      -0.409
      -0.315
      -0.206
      -0.082
       0.030
       0.089
       0.086
       0.039
      -0.034
      -0.133
      -0.247
      -0.361
      -0.484
      -0.635
      -0.804
      -0.958
      -1.078
      -1.162
      -1.203
      -1.193
      -1.141
      -1.061
      -0.945
      -0.775
      -0.573
      -0.387
      -0.243
      -0.134
      -0.051
       0.003
       0.037
       0.068
       0.095
       0.106
       0.107
       0.117
       0.136
       0.145
       0.139
       0.130
       0.119
       0.096
       0.071
       0.059
       0.052
       0.027
      -0.011
      -0.033
      -0.019
       0.024
       0.095
       0.195
       0.311
       0.425
       0.544
       0.685
       0.845
       0.998
       1.136
       1.263
       1.371
       1.443
       1.479
       1.498
       1.499
       1.464
       1.397
       1.317
       1.228
       1.121
       0.999
       0.874
       0.734
       0.557
       0.344
       0.122
      -0.096
      -0.312
      -0.521
      -0.712
      -0.893
      -1.080
      -1.262
      -1.410
      -1.515
      -1.594
      -1.653
      -1.677
      -1.661
      -1.605
      -1.501
      -1.340
      -1.139
      -0.925
      -0.705
      -0.471
      -0.234
      -0.019
       0.167
       0.341
       0.505
       0.641
       0.738
       0.797
       0.812
       0.778
       0.715
       0.654
       0.596
       0.515
       0.406
       0.291
       0.184
       0.084
      -0.006
      -0.081
      -0.158
      -0.259
      -0.372
      -0.463
      -0.522
      -0.562
      -0.588
      -0.596
      -0.588
      -0.574
      -0.543
      -0.474
      -0.371
      -0.259
      -0.143
      -0.011
       0.136
       0.279
       0.412
       0.545
       0.671
       0.775
       0.866
       0.964
       1.074
       1.182
       1.287
       1.399
       1.510
       1.597
       1.654
       1.688
       1.688
       1.628
       1.498
       1.305
       1.051
       0.732
       0.363
      -0.027
      -0.430
      -0.845
      -1.248
      -1.602
      -1.898
      -2.151
      -2.356
      -2.482
      -2.512
      -2.455
      -2.326
      -2.140
      -1.927
      -1.714
      -1.507
      -1.296
      -1.096
      -0.936
      -0.821
      -0.735
      -0.678
      -0.657
      -0.664
      -0.673
      -0.670
      -0.654
      -0.602
      -0.485
      -0.300
      -0.069
       0.190
       0.473
       0.764
       1.032
       1.261
       1.441
       1.550
       1.567
       1.506
       1.399
       1.255
       1.065
       0.838
       0.601
       0.371
       0.149
      -0.046
      -0.187
      -0.275
      -0.335
      -0.380
      -0.411
      -0.438
      -0.481
      -0.536
      -0.579
      -0.605
      -0.617
      -0.605
      -0.550
      -0.450
      -0.320
      -0.161
       0.030
       0.241
       0.450
       0.654
       0.865
       1.067
       1.224
       1.323
       1.369
       1.363
       1.293
       1.167
       1.006
       0.808
       0.561
       0.273
      -0.025
      -0.318
      -0.608
      -0.884
      -1.130
      -1.346
      -1.541
      -1.707
      -1.816
      -1.863
      -1.858
      -1.806
      -1.699
      -1.543
      -1.348
      -1.108
      -0.814
      -0.490
      -0.176
       0.112
       0.392
       0.665
       0.917
       1.138
       1.330
       1.488
       1.610
       1.712
       1.818
       1.915
       1.961
       1.929
       1.822
       1.642
       1.391
       1.092
       0.779
       0.459
       0.125
      -0.211
      -0.520
      -0.792
      -1.031
      -1.225
      -1.353
      -1.410
      -1.412
      -1.366
      -1.267
      -1.129
      -0.976
      -0.812
      -0.630
      -0.448
      -0.296
      -0.177
      -0.069
       0.040
       0.146
       0.259
       0.393
       0.543
       0.689
       0.831
       0.980
       1.126
       1.242
       1.321
       1.384
       1.442
       1.489
       1.526
       1.549
       1.537
       1.469
       1.354
       1.221
       1.076
       0.904
       0.705
       0.499
       0.292
       0.079
      -0.130
      -0.313
      -0.466
      -0.601
      -0.708
      -0.769
      -0.785
      -0.776
      -0.750
      -0.703
      -0.643
      -0.583
      -0.518
      -0.438
      -0.363
      -0.335
      -0.371
      -0.456
      -0.571
      -0.709
      -0.846
      -0.951
      -1.020
      -1.066
      -1.093
      -1.088
      -1.053
      -0.994
      -0.906
      -0.789
      -0.664
      -0.561
      -0.467
      -0.350
      -0.205
      -0.060
       0.068
       0.185
       0.286
       0.360
       0.414
       0.473
       0.547
       0.625
       0.692
       0.738
       0.740
       0.685
       0.591
       0.492
       0.401
       0.304
       0.205
       0.115
       0.033
      -0.058
      -0.157
      -0.248
      -0.336
      -0.430
      -0.518
      -0.569
      -0.582
      -0.579
      -0.569
      -0.546
      -0.515
      -0.484
      -0.440
      -0.359
      -0.245
      -0.124
      -0.007
       0.113
       0.240
       0.370
       0.516
       0.692
       0.880
       1.040
       1.149
       1.208
       1.212
       1.157
       1.063
       0.966
       0.878
       0.788
       0.690
       0.596
       0.505
       0.405
       0.296
       0.185
       0.057
      -0.108
      -0.304
      -0.514
      -0.734
      -0.964
      -1.175
      -1.321
      -1.394
      -1.419
      -1.416
      -1.381
      -1.315
      -1.231
      -1.131
      -1.012
      -0.884
      -0.759
      -0.625
      -0.459
      -0.265
      -0.071
       0.113
       0.295
       0.475
       0.640
       0.794
       0.947
       1.096
       1.227
       1.339
       1.436
       1.505
       1.524
       1.494
       1.434
       1.344
       1.210
       1.036
       0.848
       0.662
       0.485
       0.334
       0.236
       0.185
       0.160
       0.155
       0.185
       0.247
       0.323
       0.405
       0.487
       0.545
       0.542
       0.477
       0.380
       0.266
       0.127
      -0.048
      -0.255
      -0.497
      -0.774
      -1.062
      -1.332
      -1.582
      -1.821
      -2.030
      -2.167
      -2.208
      -2.160
      -2.034
      -1.840
      -1.604
      -1.354
      -1.095
      -0.820
      -0.545
      -0.299
      -0.090
       0.090
       0.242
       0.357
       0.450
       0.545
       0.649
       0.751
       0.856
       0.982
       1.125
       1.263
       1.395
       1.528
       1.652
       1.729
       1.742
       1.691
       1.574
       1.386
       1.137
       0.855
       0.546
       0.212
      -0.120
      -0.408
      -0.633
      -0.802
      -0.922
      -0.995
      -1.037
      -1.070
      -1.091
      -1.076
      -1.024
      -0.953
      -0.868
      -0.764
      -0.649
      -0.541
      -0.439
      -0.330
      -0.215
      -0.111
      -0.010
       0.104
       0.226
       0.331
       0.410
       0.470
       0.508
       0.513
       0.492
       0.463
       0.424
       0.354
       0.246
       0.116
      -0.030
      -0.185
      -0.324
      -0.413
      -0.452
      -0.465
      -0.467
      -0.453
      -0.431
      -0.411
      -0.378
      -0.305
      -0.191
      -0.062
       0.066
       0.195
       0.322
       0.432
       0.522
       0.593
       0.633
       0.624
       0.574
       0.504
       0.414
       0.292
       0.148
       0.009
      -0.114
      -0.226
      -0.324
      -0.394
      -0.437
      -0.462
      -0.454
      -0.394
      -0.290
      -0.174
      -0.056
       0.071
       0.205
       0.326
       0.426
       0.507
       0.565
       0.590
       0.595
       0.594
       0.568
       0.483
       0.340
       0.178
       0.024
      -0.118
      -0.239
      -0.324
      -0.372
      -0.401
      -0.412
      -0.394
