Origin Time       21/09/2011 02:24:36 UTC
Lat.              30.9 N	
Long.             78.3 E	
Depth (Km)         10.0
Magnitude         3.1
 Region           Uttarkashi-Distt.                                                
 Above details taken from IMD 
    
Station Code      BAR
Station Lat.       30.809  N
Station Long.      78.205  E
Station Height(m) 1305.0
Site Class        A   Vs30 between 700 m/sec to 1400 m/sec * 
Record Time       21.09.2011 02:24:12.049 UTC
Sampling Rate     200. Hz
 Record Duration   83.110 Sec.
 Direction         N-S (N positive)
Max. Acceleration      3.957 cm/sec**2
     
  * For reference see Site Classification link of website 
     
 Base Line Corrected and Low Pass Filtered (Cut Off at 35 Hz) Time History
 Acceleration data in cm/sec**2
    
[...]
      -0.007
      -0.012
      -0.018
      -0.018
      -0.010
       0.000
       0.002
      -0.003
      -0.009
      -0.013
      -0.015
      -0.013
      -0.007
      -0.004
      -0.008
      -0.014
      -0.017
      -0.015
      -0.011
      -0.007
      -0.004
      -0.006
      -0.014
      -0.020
      -0.020
      -0.016
      -0.014
      -0.012
      -0.010
      -0.007
      -0.005
      -0.001
       0.005
       0.008
       0.003
      -0.006
      -0.014
      -0.016
      -0.016
      -0.012
      -0.007
      -0.005
      -0.008
      -0.011
      -0.007
      -0.002
      -0.003
      -0.008
      -0.013
      -0.016
      -0.016
      -0.012
      -0.006
      -0.003
      -0.004
      -0.007
      -0.005
      -0.002
      -0.003
      -0.006
      -0.006
      -0.005
      -0.006
      -0.007
      -0.008
      -0.011
      -0.017
      -0.018
      -0.014
      -0.009
      -0.007
      -0.006
      -0.003
      -0.002
      -0.006
      -0.011
      -0.009
      -0.003
       0.003
       0.003
      -0.001
      -0.009
      -0.018
      -0.022
      -0.017
      -0.010
      -0.009
      -0.013
      -0.018
      -0.020
      -0.019
      -0.012
      -0.002
       0.005
       0.003
      -0.005
      -0.010
      -0.011
      -0.012
      -0.012
      -0.010
      -0.008
      -0.007
      -0.004
       0.001
       0.003
      -0.003
      -0.009
      -0.011
      -0.008
      -0.006
      -0.007
      -0.009
      -0.011
      -0.013
      -0.013
      -0.011
      -0.012
      -0.019
      -0.026
      -0.024
      -0.015
      -0.007
      -0.005
      -0.005
      -0.005
      -0.006
      -0.007
      -0.006
      -0.009
      -0.015
      -0.021
      -0.023
      -0.020
      -0.018
      -0.014
      -0.010
      -0.011
      -0.019
      -0.029
      -0.032
      -0.029
      -0.025
      -0.019
      -0.011
      -0.004
      -0.001
      -0.004
      -0.010
      -0.019
      -0.027
      -0.028
      -0.021
      -0.012
      -0.009
      -0.010
      -0.010
      -0.007
      -0.005
      -0.005
      -0.005
      -0.009
      -0.016
      -0.023
      -0.023
      -0.019
      -0.014
      -0.008
       0.000
       0.004
      -0.001
      -0.010
      -0.014
      -0.011
      -0.008
      -0.008
      -0.009
      -0.012
      -0.014
      -0.012
      -0.005
       0.001
       0.000
      -0.003
      -0.002
       0.001
       0.002
       0.000
      -0.002
      -0.007
      -0.017
      -0.027
      -0.030
      -0.026
      -0.020
      -0.017
      -0.017
      -0.018
      -0.021
      -0.021
      -0.013
      -0.004
       0.002
       0.004
       0.006
       0.007
       0.004
      -0.002
      -0.004
      -0.003
      -0.003
      -0.003
      -0.004
      -0.007
      -0.015
      -0.024
      -0.027
      -0.024
      -0.019
      -0.016
      -0.014
      -0.013
      -0.017
      -0.021
      -0.021
      -0.018
      -0.019
      -0.022
      -0.023
      -0.022
      -0.021
      -0.021
      -0.020
      -0.019
      -0.020
      -0.019
      -0.012
      -0.007
      -0.009
      -0.016
      -0.014
      -0.004
       0.007
       0.009
       0.002
      -0.007
      -0.013
      -0.010
      -0.001
       0.005
      -0.002
      -0.015
      -0.021
      -0.016
      -0.005
       0.004
       0.009
       0.008
       0.001
      -0.008
      -0.014
      -0.016
      -0.017
      -0.016
      -0.012
      -0.008
      -0.012
      -0.019
      -0.024
      -0.023
      -0.020
      -0.018
      -0.013
      -0.008
      -0.005
      -0.007
      -0.011
      -0.016
      -0.022
      -0.023
      -0.016
      -0.005
      -0.003
      -0.011
      -0.022
      -0.029
      -0.032
      -0.031
      -0.025
      -0.018
      -0.014
      -0.012
      -0.008
      -0.005
      -0.006
      -0.011
      -0.015
      -0.016
      -0.015
      -0.013
      -0.008
      -0.005
      -0.008
      -0.016
      -0.021
      -0.019
      -0.015
      -0.011
      -0.009
      -0.010
      -0.015
      -0.019
      -0.017
      -0.010
      -0.007
      -0.012
      -0.022
      -0.032
      -0.040
      -0.040
      -0.031
      -0.018
      -0.010
      -0.011
      -0.017
      -0.024
      -0.031
      -0.035
      -0.030
      -0.018
      -0.009
      -0.006
      -0.009
      -0.019
      -0.035
      -0.047
      -0.047
      -0.033
      -0.013
       0.004
       0.012
       0.011
      -0.002
      -0.020
      -0.030
      -0.030
      -0.022
      -0.012
      -0.002
       0.006
       0.005
      -0.001
      -0.007
      -0.010
      -0.011
      -0.012
      -0.010
      -0.007
      -0.010
      -0.018
      -0.023
      -0.023
      -0.022
      -0.021
      -0.017
      -0.012
      -0.010
      -0.013
      -0.015
      -0.015
      -0.013
      -0.010
      -0.005
      -0.003
      -0.007
      -0.014
      -0.018
      -0.016
      -0.013
      -0.012
      -0.012
      -0.012
      -0.015
      -0.022
      -0.026
      -0.025
      -0.022
      -0.016
      -0.009
      -0.003
      -0.003
      -0.007
      -0.009
      -0.005
      -0.001
      -0.001
      -0.004
      -0.010
      -0.017
      -0.021
      -0.017
      -0.008
      -0.003
      -0.003
      -0.004
      -0.005
      -0.008
      -0.015
      -0.021
      -0.023
      -0.024
      -0.023
      -0.017
      -0.008
      -0.003
      -0.003
      -0.005
      -0.005
      -0.008
      -0.013
      -0.016
      -0.015
      -0.011
      -0.007
      -0.005
      -0.004
      -0.010
      -0.018
      -0.020
      -0.014
      -0.006
      -0.001
       0.000
      -0.002
      -0.008
      -0.012
      -0.011
      -0.005
      -0.004
      -0.009
      -0.014
      -0.013
      -0.010
      -0.009
      -0.007
      -0.003
       0.002
       0.011
       0.028
       0.051
       0.071
       0.084
       0.098
       0.114
       0.117
       0.089
       0.028
      -0.054
      -0.144
      -0.231
      -0.315
      -0.396
      -0.471
      -0.534
      -0.585
      -0.634
      -0.674
      -0.665
      -0.549
      -0.308
       0.008
       0.318
       0.554
       0.693
       0.745
       0.734
       0.678
       0.587
       0.483
       0.402
       0.380
       0.418
       0.473
       0.494
       0.458
       0.377
       0.280
       0.199
       0.149
       0.109
       0.033
      -0.115
      -0.324
      -0.544
      -0.715
      -0.805
      -0.816
      -0.775
      -0.689
      -0.537
      -0.292
       0.022
       0.316
       0.489
       0.495
       0.361
       0.163
      -0.043
      -0.243
      -0.448
      -0.634
      -0.723
      -0.643
      -0.413
      -0.148
       0.033
       0.105
       0.131
       0.186
       0.277
       0.350
       0.347
       0.255
       0.108
      -0.048
      -0.175
      -0.237
      -0.203
      -0.084
       0.056
       0.155
       0.225
       0.341
       0.541
       0.745
       0.801
       0.618
       0.273
      -0.030
      -0.123
       0.002
       0.197
       0.320
       0.363
       0.409
       0.494
       0.534
       0.412
       0.122
      -0.216
      -0.466
      -0.602
      -0.698
      -0.830
      -0.987
      -1.087
      -1.060
      -0.909
      -0.689
      -0.446
      -0.194
       0.053
       0.269
       0.428
       0.516
       0.513
       0.378
       0.100
      -0.238
      -0.471
      -0.459
      -0.215
       0.084
       0.211
       0.064
      -0.250
      -0.509
      -0.550
      -0.387
      -0.162
      -0.008
       0.046
       0.049
       0.049
       0.045
       0.026
       0.014
       0.071
       0.245
       0.517
       0.808
       1.036
       1.157
       1.158
       1.046
       0.837
       0.556
       0.224
      -0.135
      -0.465
      -0.681
      -0.715
      -0.576
      -0.350
      -0.147
      -0.043
      -0.045
      -0.097
      -0.130
      -0.118
      -0.098
      -0.123
      -0.197
      -0.256
      -0.222
      -0.086
       0.073
       0.148
       0.113
       0.069
       0.152
       0.382
       0.615
       0.659
       0.465
       0.161
      -0.080
      -0.204
      -0.293
      -0.448
      -0.658
      -0.802
      -0.779
      -0.624
      -0.480
      -0.448
      -0.498
      -0.522
      -0.464
      -0.377
      -0.345
      -0.384
      -0.415
      -0.337
      -0.110
       0.208
       0.509
       0.705
       0.788
       0.815
       0.852
       0.909
       0.923
       0.809
       0.547
       0.210
      -0.094
      -0.304
      -0.434
      -0.509
      -0.517
      -0.427
      -0.250
      -0.051
       0.094
       0.148
       0.132
       0.102
       0.097
       0.105
       0.089
       0.039
      -0.010
      -0.029
      -0.039
      -0.089
      -0.187
      -0.275
      -0.288
      -0.224
      -0.154
      -0.147
      -0.193
      -0.197
      -0.072
       0.168
       0.403
       0.518
       0.506
       0.454
       0.428
       0.398
       0.294
       0.122
      -0.013
      -0.003
       0.142
       0.280
       0.261
       0.067
      -0.183
      -0.370
      -0.499
      -0.662
      -0.880
      -1.032
      -0.978
      -0.714
      -0.395
      -0.178
      -0.068
       0.055
       0.268
       0.481
       0.524
       0.338
       0.066
      -0.086
      -0.063
      -0.001
      -0.066
      -0.256
      -0.407
      -0.365
      -0.152
       0.060
       0.110
       0.003
      -0.107
      -0.077
       0.085
       0.231
       0.221
       0.058
      -0.112
      -0.113
       0.108
       0.431
       0.655
       0.668
       0.540
       0.446
       0.483
       0.574
       0.544
       0.293
      -0.091
      -0.397
      -0.467
      -0.318
      -0.109
       0.038
       0.148
       0.334
       0.624
       0.882
       0.911
       0.634
       0.168
      -0.273
      -0.559
      -0.725
      -0.894
      -1.121
      -1.333
      -1.412
      -1.302
      -1.048
      -0.733
      -0.418
      -0.143
       0.055
       0.148
       0.147
       0.121
       0.145
       0.228
       0.291
       0.252
       0.132
       0.067
       0.185
       0.463
       0.739
       0.857
       0.780
       0.575
       0.307
      -0.011
      -0.366
      -0.681
      -0.840
      -0.787
      -0.601
      -0.410
      -0.256
      -0.057
       0.273
       0.685
       1.009
       1.106
       0.988
       0.791
       0.632
       0.512
       0.335
       0.040
      -0.321
      -0.621
      -0.781
      -0.824
      -0.813
      -0.766
      -0.655
      -0.478
      -0.284
      -0.142
      -0.081
      -0.089
      -0.136
      -0.190
      -0.208
      -0.151
      -0.017
       0.152
       0.291
       0.374
       0.448
       0.584
       0.776
       0.905
       0.817
       0.472
       0.009
      -0.339
      -0.419
      -0.277
      -0.124
      -0.138
      -0.284
      -0.342
      -0.158
       0.150
       0.272
       0.020
      -0.467
      -0.840
      -0.867
      -0.626
      -0.400
      -0.388
      -0.539
      -0.641
      -0.537
      -0.247
       0.106
       0.435
       0.734
       1.017
       1.268
       1.457
       1.588
       1.698
       1.801
       1.849
       1.752
       1.465
       1.040
       0.597
       0.229
      -0.060
      -0.314
      -0.536
      -0.673
      -0.690
      -0.644
      -0.669
      -0.869
      -1.236
      -1.655
      -1.988
      -2.172
      -2.236
      -2.226
      -2.116
      -1.816
      -1.274
      -0.562
       0.124
       0.580
       0.729
       0.665
       0.572
       0.564
       0.596
       0.546
       0.358
       0.110
      -0.057
      -0.060
       0.065
       0.197
       0.216
       0.091
      -0.098
      -0.222
      -0.212
      -0.120
      -0.080
      -0.195
      -0.444
      -0.687
      -0.767
      -0.605
      -0.245
       0.178
       0.481
       0.514
       0.264
      -0.091
      -0.268
      -0.108
       0.282
       0.629
       0.756
       0.712
       0.663
       0.692
       0.728
       0.667
       0.511
       0.380
       0.403
       0.600
       0.873
       1.095
       1.206
       1.226
       1.194
       1.110
       0.936
       0.662
       0.345
       0.064
      -0.166
      -0.422
      -0.776
      -1.188
      -1.524
      -1.687
      -1.705
      -1.662
      -1.581
      -1.415
      -1.149
      -0.844
      -0.564
      -0.284
       0.075
       0.501
       0.808
       0.761
       0.294
      -0.378
      -0.886
      -0.981
      -0.698
      -0.263
       0.114
       0.375
       0.572
       0.748
       0.892
       0.965
       0.958
       0.914
       0.884
       0.884
       0.892
       0.896
       0.903
       0.886
       0.728
       0.296
      -0.398
      -1.118
      -1.515
      -1.386
      -0.824
      -0.130
       0.440
       0.852
       1.235
       1.675
       2.087
       2.294
       2.184
       1.779
       1.179
       0.474
      -0.259
      -0.934
      -1.452
      -1.758
      -1.902
      -2.023
      -2.260
      -2.634
      -3.033
      -3.305
      -3.383
      -3.310
      -3.147
      -2.893
      -2.498
      -1.946
      -1.311
      -0.729
      -0.309
      -0.067
       0.068
       0.200
       0.401
       0.698
       1.090
       1.560
       2.068
       2.559
       2.988
       3.335
       3.600
       3.787
       3.902
       3.957
       3.940
       3.798
       3.448
       2.857
       2.096
       1.325
       0.703
       0.277
      -0.065
      -0.501
      -1.117
      -1.823
      -2.428
      -2.814
      -3.023
      -3.173
      -3.299
      -3.282
      -2.971
      -2.367
      -1.686
      -1.194
      -0.984
      -0.926
      -0.827
      -0.637
      -0.491
      -0.560
      -0.874
      -1.287
      -1.582
      -1.626
      -1.423
      -1.049
      -0.557
       0.030
       0.656
       1.222
       1.651
       1.957
       2.218
       2.480
       2.707
       2.829
       2.803
       2.628
       2.298
       1.782
       1.082
       0.311
      -0.321
      -0.665
      -0.756
      -0.769
      -0.838
      -0.940
      -0.974
      -0.906
      -0.820
      -0.824
      -0.928
      -1.024
      -0.976
      -0.740
      -0.402
      -0.097
       0.116
       0.286
       0.484
       0.693
       0.808
       0.730
       0.466
       0.147
      -0.070
      -0.108
      -0.027
       0.038
      -0.011
      -0.177
      -0.389
      -0.578
      -0.729
      -0.872
      -1.033
      -1.186
      -1.269
      -1.242
      -1.134
      -1.015
      -0.920
      -0.815
      -0.651
      -0.439
      -0.250
      -0.144
      -0.102
      -0.019
       0.216
       0.640
       1.177
       1.681
       2.033
       2.198
       2.220
       2.172
       2.112
       2.062
       1.995
       1.846
       1.551
       1.108
       0.596
       0.133
      -0.193
      -0.373
      -0.458
      -0.496
      -0.498
      -0.467
      -0.439
      -0.462
      -0.538
      -0.600
      -0.589
      -0.532
      -0.519
      -0.617
      -0.800
      -0.993
      -1.142
      -1.259
      -1.379
      -1.508
      -1.597
      -1.590
      -1.468
      -1.261
      -1.001
      -0.702
      -0.373
      -0.041
       0.262
       0.520
       0.734
       0.896
       0.980
       0.957
       0.822
       0.606
       0.359
       0.133
      -0.044
      -0.161
      -0.230
      -0.284
      -0.365
      -0.493
      -0.638
      -0.743
      -0.774
      -0.738
      -0.646
      -0.475
      -0.185
       0.216
       0.640
       0.962
       1.106
       1.094
       1.018
       0.947
       0.872
       0.733
       0.499
       0.193
      -0.137
      -0.442
      -0.675
      -0.781
      -0.723
      -0.520
      -0.247
       0.009
       0.209
       0.362
       0.498
       0.629
       0.743
       0.840
       0.940
       1.061
       1.183
       1.250
       1.218
       1.077
       0.836
       0.495
       0.062
      -0.413
      -0.849
      -1.172
      -1.360
      -1.436
      -1.443
      -1.416
      -1.377
      -1.331
      -1.262
      -1.133
      -0.906
      -0.578
      -0.199
       0.146
       0.401
       0.567
       0.690
       0.812
       0.951
       1.097
       1.221
       1.299
       1.326
       1.318
       1.285
       1.208
       1.060
       0.845
       0.599
       0.363
       0.148
      -0.061
      -0.278
      -0.490
      -0.663
      -0.775
      -0.846
      -0.924
      -1.033
      -1.139
      -1.189
      -1.163
      -1.096
      -1.027
      -0.958
      -0.855
      -0.693
      -0.500
      -0.347
      -0.298
      -0.363
      -0.498
      -0.660
      -0.841
      -1.038
      -1.207
      -1.278
      -1.223
      -1.092
      -0.966
      -0.865
      -0.725
      -0.469
      -0.106
       0.245
       0.454
       0.512
       0.537
       0.657
       0.894
       1.173
       1.430
       1.662
       1.890
       2.095
       2.228
       2.262
       2.211
       2.106
       1.951
       1.724
       1.427
       1.119
       0.870
       0.693
       0.520
       0.282
      -0.026
      -0.358
      -0.694
      -1.053
      -1.440
      -1.800
      -2.042
      -2.122
      -2.073
      -1.961
      -1.814
      -1.600
      -1.292
      -0.935
      -0.624
      -0.408
      -0.238
      -0.027
       0.248
       0.518
       0.713
       0.842
       0.975
       1.150
       1.319
       1.378
       1.268
       1.037
       0.801
       0.634
       0.509
       0.341
       0.085
      -0.211
      -0.453
      -0.592
      -0.658
      -0.721
      -0.816
      -0.915
      -0.953
      -0.902
      -0.794
      -0.687
      -0.595
      -0.487
      -0.329
      -0.137
       0.028
       0.104
       0.065
      -0.061
      -0.205
      -0.294
      -0.293
      -0.223
      -0.146
      -0.130
      -0.200
      -0.311
      -0.357
      -0.258
      -0.030
       0.232
       0.446
       0.612
       0.781
       0.967
       1.107
       1.108
       0.950
       0.731
       0.592
       0.587
       0.635
       0.615
       0.503
       0.391
       0.372
       0.429
       0.449
       0.342
       0.128
      -0.083
      -0.201
      -0.233
      -0.269
      -0.389
      -0.603
      -0.865
      -1.127
      -1.352
      -1.501
      -1.543
      -1.487
      -1.392
      -1.317
      -1.269
      -1.181
      -0.978
      -0.654
      -0.298
      -0.030
       0.108
       0.192
       0.331
       0.563
       0.824
       1.024
       1.130
       1.173
       1.197
       1.207
       1.180
       1.106
       1.012
       0.935
       0.880
       0.824
       0.751
       0.684
       0.654
       0.656
       0.655
       0.629
       0.584
       0.528
       0.446
       0.314
       0.128
      -0.090
      -0.314
      -0.529
      -0.732
      -0.913
      -1.060
      -1.170
      -1.275
      -1.423
      -1.623
      -1.824
      -1.957
      -2.004
      -2.004
      -1.990
      -1.944
      -1.815
      -1.580
      -1.270
      -0.948
      -0.648
      -0.347
       0.005
       0.421
       0.845
       1.198
