Origin Time       16/4/2013 01:23:19	
Lat.              26.3 N	
Long.             92.0 E	
Depth (Km)         16.0
Magnitude         4.6
 Region           Assam-Darrang                                                    
 Above details taken from IMD 
   
Station Code      BAR
Station Lat.       26.332
Station Long.      91.006
Station Height(m)   47.0
Site Class        C   Vs30 between 200 m/sec to 375 m/sec *  
Record Time       16.04.2013 01:23:24.404
Sampling Rate     200. Hz
 Record Duration   93.255 Sec.
 Direction         Vert. (Up positive)
Max. Acceleration     -5.877 cm/sec**2
     
  * For reference see Site Classification link of website 
     
 Base Line Corrected and Low Pass Filtered (Cut Off at 35 Hz) Time History
 Acceleration data in cm/sec**2
    
[...]
      -3.119
      -2.938
      -2.621
      -2.098
      -1.406
      -0.708
      -0.178
       0.130
       0.311
       0.504
       0.755
       1.006
       1.181
       1.281
       1.378
       1.526
       1.685
       1.750
       1.642
       1.387
       1.086
       0.833
       0.639
       0.456
       0.266
       0.126
       0.104
       0.161
       0.138
      -0.124
      -0.615
      -1.125
      -1.405
      -1.373
      -1.184
      -1.075
      -1.143
      -1.260
      -1.214
      -0.926
      -0.526
      -0.218
      -0.086
      -0.040
       0.078
       0.347
       0.717
       1.060
       1.260
       1.266
       1.100
       0.837
       0.554
       0.305
       0.122
       0.054
       0.155
       0.432
       0.806
       1.142
       1.342
       1.414
       1.425
       1.404
       1.301
       1.041
       0.629
       0.160
      -0.271
      -0.647
      -1.000
      -1.309
      -1.469
      -1.414
      -1.236
      -1.135
      -1.192
      -1.242
      -1.027
      -0.509
       0.014
       0.159
      -0.163
      -0.640
      -0.856
      -0.688
      -0.396
      -0.342
      -0.626
      -1.006
      -1.135
      -0.862
      -0.315
       0.252
       0.668
       0.924
       1.091
       1.220
       1.294
       1.271
       1.139
       0.933
       0.700
       0.470
       0.253
       0.074
      -0.027
      -0.041
      -0.035
      -0.110
      -0.292
      -0.482
      -0.546
      -0.453
      -0.332
      -0.356
      -0.574
      -0.865
      -1.040
      -1.019
      -0.874
      -0.741
      -0.688
      -0.674
      -0.623
      -0.496
      -0.281
       0.044
       0.505
       1.063
       1.585
       1.924
       2.045
       2.063
       2.129
       2.262
       2.295
       2.013
       1.341
       0.412
      -0.542
      -1.353
      -1.978
      -2.429
      -2.688
      -2.703
      -2.443
      -1.941
      -1.285
      -0.595
      -0.029
       0.261
       0.224
      -0.004
      -0.164
      -0.080
       0.184
       0.380
       0.331
       0.118
       0.007
       0.184
       0.558
       0.841
       0.823
       0.554
       0.266
       0.111
       0.040
      -0.086
      -0.260
      -0.289
       0.009
       0.570
       1.088
       1.273
       1.099
       0.810
       0.689
       0.816
       1.024
       1.043
       0.711
       0.105
      -0.496
      -0.796
      -0.699
      -0.389
      -0.198
      -0.345
      -0.767
      -1.176
      -1.298
      -1.083
      -0.700
      -0.365
      -0.170
      -0.068
       0.029
       0.164
       0.338
       0.532
       0.708
       0.792
       0.723
       0.527
       0.304
       0.129
      -0.038
      -0.303
      -0.676
      -0.997
      -1.057
      -0.811
      -0.433
      -0.156
      -0.028
       0.123
       0.487
       1.028
       1.487
       1.634
       1.493
       1.296
       1.211
       1.149
       0.856
       0.201
      -0.665
      -1.429
      -1.893
      -2.107
      -2.256
      -2.434
      -2.565
      -2.499
      -2.166
      -1.602
      -0.882
      -0.051
       0.849
       1.712
       2.359
       2.611
       2.413
       1.877
       1.226
       0.661
       0.276
       0.036
      -0.171
      -0.446
      -0.810
      -1.162
      -1.331
      -1.196
      -0.782
      -0.255
       0.188
       0.431
       0.468
       0.350
       0.138
      -0.101
      -0.281
      -0.334
      -0.276
      -0.232
      -0.353
      -0.679
      -1.071
      -1.272
      -1.078
      -0.467
       0.374
       1.170
       1.713
       1.947
       1.924
       1.686
       1.208
       0.464
      -0.451
      -1.299
      -1.851
      -2.044
      -1.989
      -1.789
      -1.396
      -0.667
       0.404
       1.566
       2.445
       2.826
       2.784
       2.561
       2.326
       2.051
       1.607
       0.953
       0.227
      -0.345
      -0.623
      -0.671
      -0.697
      -0.860
      -1.128
      -1.321
      -1.287
      -1.042
      -0.727
      -0.460
      -0.250
      -0.057
       0.096
       0.117
      -0.063
      -0.404
      -0.783
      -1.083
      -1.259
      -1.347
      -1.418
      -1.527
      -1.662
      -1.716
      -1.534
      -1.029
      -0.296
       0.409
       0.849
       0.994
       1.037
       1.206
       1.546
       1.874
       1.950
       1.691
       1.232
       0.790
       0.482
       0.260
       0.008
      -0.305
      -0.577
      -0.654
      -0.454
      -0.007
       0.580
       1.186
       1.707
       2.051
       2.151
       1.985
       1.603
       1.112
       0.604
       0.080
      -0.552
      -1.367
      -2.280
      -3.029
      -3.342
      -3.146
      -2.628
      -2.069
      -1.610
      -1.194
      -0.713
      -0.176
       0.272
       0.511
       0.567
       0.585
       0.667
       0.761
       0.687
       0.299
      -0.362
      -1.051
      -1.451
      -1.379
      -0.892
      -0.244
       0.312
       0.709
       1.107
       1.722
       2.590
       3.459
       3.957
       3.876
       3.333
       2.643
       2.027
       1.436
       0.638
      -0.509
      -1.882
      -3.168
      -4.094
      -4.586
      -4.726
      -4.599
      -4.208
      -3.535
      -2.620
      -1.561
      -0.436
       0.737
       1.954
       3.136
       4.117
       4.722
       4.853
       4.521
       3.803
       2.794
       1.581
       0.265
      -1.028
      -2.154
      -2.981
      -3.421
      -3.439
      -3.052
      -2.310
      -1.286
      -0.072
       1.202
       2.357
       3.202
       3.630
       3.671
       3.440
       2.993
       2.251
       1.124
      -0.291
      -1.668
      -2.658
      -3.161
      -3.357
      -3.493
      -3.641
      -3.696
      -3.552
      -3.241
      -2.850
      -2.344
      -1.546
      -0.333
       1.134
       2.436
       3.186
       3.340
       3.214
       3.175
       3.302
       3.296
       2.734
       1.463
      -0.196
      -1.594
      -2.177
      -1.854
      -1.028
      -0.265
       0.102
       0.130
       0.080
       0.131
       0.253
       0.290
       0.104
      -0.347
      -0.997
      -1.688
      -2.198
      -2.343
      -2.092
      -1.585
      -1.001
      -0.420
       0.190
       0.844
       1.445
       1.850
       2.002
       1.966
       1.816
       1.526
       1.013
       0.296
      -0.427
      -0.882
      -0.915
      -0.599
      -0.166
       0.182
       0.392
       0.549
       0.732
       0.900
       0.924
       0.741
       0.462
       0.310
       0.413
       0.676
       0.862
       0.821
       0.620
       0.445
       0.369
       0.253
      -0.111
      -0.742
      -1.369
      -1.611
      -1.300
      -0.663
      -0.193
      -0.280
      -0.925
      -1.765
      -2.357
      -2.473
      -2.176
      -1.686
      -1.210
      -0.861
      -0.659
      -0.541
      -0.398
      -0.157
       0.115
       0.239
       0.092
      -0.219
      -0.399
      -0.219
       0.260
       0.757
       1.072
       1.302
       1.716
       2.424
       3.200
       3.650
       3.559
       3.050
       2.423
       1.873
       1.374
       0.812
       0.166
      -0.460
      -0.952
      -1.287
      -1.526
      -1.738
      -1.958
      -2.192
      -2.410
      -2.536
      -2.498
      -2.309
      -2.091
      -1.974
      -1.943
      -1.818
      -1.422
      -0.771
      -0.095
       0.343
       0.474
       0.474
       0.616
       1.057
       1.721
       2.351
       2.680
       2.578
       2.107
       1.448
       0.789
       0.241
      -0.184
      -0.535
      -0.865
      -1.170
      -1.354
      -1.284
      -0.917
      -0.417
      -0.111
      -0.260
      -0.811
      -1.376
      -1.521
      -1.117
      -0.430
       0.168
       0.564
       0.970
       1.617
       2.421
       3.016
       3.095
       2.701
       2.137
       1.657
       1.269
       0.842
       0.333
      -0.149
      -0.487
      -0.699
      -0.901
      -1.126
      -1.242
      -1.071
      -0.617
      -0.127
       0.090
      -0.062
      -0.383
      -0.569
      -0.508
      -0.386
      -0.506
      -0.986
      -1.619
      -2.008
      -1.870
      -1.255
      -0.503
       0.013
       0.175
       0.194
       0.396
       0.907
       1.499
       1.761
       1.469
       0.780
       0.084
      -0.362
      -0.651
      -1.086
      -1.823
      -2.648
      -3.104
      -2.844
      -1.879
      -0.537
       0.796
       1.901
       2.777
       3.537
       4.267
       4.913
       5.266
       5.059
       4.175
       2.804
       1.383
       0.322
      -0.258
      -0.563
      -0.915
      -1.504
      -2.285
      -3.062
      -3.618
      -3.811
      -3.597
      -3.037
      -2.304
      -1.630
      -1.189
      -0.980
      -0.852
      -0.629
      -0.249
       0.223
       0.690
       1.098
       1.408
       1.528
       1.322
       0.732
      -0.094
      -0.835
      -1.200
      -1.140
      -0.862
      -0.618
      -0.470
      -0.270
       0.127
       0.656
       1.053
       1.097
       0.804
       0.390
       0.048
      -0.194
      -0.404
      -0.585
      -0.617
      -0.375
       0.137
       0.765
       1.299
       1.574
       1.532
       1.237
       0.847
       0.527
       0.332
       0.183
      -0.016
      -0.239
      -0.343
      -0.245
      -0.086
      -0.157
      -0.624
      -1.316
      -1.833
      -1.894
      -1.577
      -1.227
      -1.114
      -1.185
      -1.126
      -0.653
       0.232
       1.220
       1.904
       2.023
       1.601
       0.915
       0.348
       0.196
       0.506
       1.051
       1.478
       1.547
       1.286
       0.936
       0.728
       0.680
       0.581
       0.181
      -0.588
      -1.513
      -2.214
      -2.379
      -1.947
      -1.123
      -0.243
       0.373
       0.525
       0.198
      -0.391
      -0.847
      -0.829
      -0.342
       0.194
       0.240
      -0.400
      -1.358
      -1.964
      -1.782
      -0.932
       0.065
       0.763
       1.119
       1.399
       1.821
       2.325
       2.667
       2.686
       2.427
       2.035
       1.584
       1.065
       0.496
      -0.005
      -0.302
      -0.353
      -0.229
      -0.026
       0.184
       0.314
       0.255
      -0.041
      -0.468
      -0.837
      -1.079
      -1.332
      -1.768
      -2.319
      -2.640
      -2.415
      -1.719
      -1.046
      -0.913
      -1.400
      -2.062
      -2.312
      -1.928
      -1.194
      -0.570
      -0.213
       0.168
       1.001
       2.378
       3.882
       4.866
       4.932
       4.206
       3.188
       2.337
       1.760
       1.217
       0.404
      -0.750
      -2.001
      -2.971
      -3.415
      -3.372
      -3.076
      -2.725
      -2.331
      -1.768
      -0.957
      -0.001
       0.830
       1.257
       1.180
       0.753
       0.305
       0.115
       0.193
       0.272
       0.051
      -0.493
      -1.018
      -1.079
      -0.549
       0.221
       0.675
       0.559
       0.183
       0.165
       0.894
       2.203
       3.543
       4.400
       4.563
       4.067
       3.026
       1.595
       0.016
      -1.408
      -2.486
      -3.219
      -3.686
      -3.837
      -3.489
      -2.567
      -1.291
      -0.050
       0.921
       1.657
       2.232
       2.465
       1.997
       0.675
      -1.160
      -2.861
      -3.954
      -4.415
      -4.503
      -4.369
      -3.891
      -2.849
      -1.229
       0.688
       2.494
       3.895
       4.798
       5.224
       5.169
       4.565
       3.374
       1.716
      -0.106
      -1.749
      -3.002
      -3.821
      -4.207
      -4.089
      -3.367
      -2.085
      -0.526
       0.909
       1.923
       2.469
       2.673
       2.672
       2.542
       2.356
       2.245
       2.337
       2.590
       2.716
       2.318
       1.194
      -0.432
      -1.993
      -2.950
      -3.176
      -3.006
      -2.905
      -3.046
      -3.185
      -2.930
      -2.123
      -1.013
      -0.050
       0.484
       0.695
       0.935
       1.437
       2.074
       2.459
       2.294
       1.626
       0.801
       0.177
      -0.140
      -0.314
      -0.556
      -0.875
      -1.032
      -0.754
      -0.006
       0.929
       1.637
       1.852
       1.584
       1.013
       0.289
      -0.552
      -1.504
      -2.456
      -3.146
      -3.280
      -2.715
      -1.552
      -0.108
       1.234
       2.190
       2.665
       2.726
       2.485
       1.987
       1.219
       0.212
      -0.870
      -1.763
      -2.252
      -2.288
      -1.983
      -1.475
      -0.820
       0.001
       0.974
       1.977
       2.795
       3.237
       3.223
       2.802
       2.108
       1.297
       0.499
      -0.207
      -0.809
      -1.330
      -1.763
      -2.019
      -1.945
      -1.466
      -0.734
      -0.118
       0.034
      -0.323
      -0.863
      -1.157
      -1.034
      -0.705
      -0.517
      -0.590
      -0.702
      -0.537
      -0.031
       0.544
       0.825
       0.690
       0.328
       0.028
      -0.055
       0.067
       0.338
       0.755
       1.314
       1.920
       2.391
       2.582
       2.478
       2.157
       1.681
       1.046
       0.214
      -0.835
      -2.084
      -3.461
      -4.780
      -5.716
      -5.877
      -5.019
      -3.248
      -1.040
       1.000
       2.458
       3.281
       3.676
       3.880
       3.988
       3.926
       3.535
       2.698
       1.453
       0.023
      -1.292
      -2.267
      -2.841
      -3.057
      -2.949
      -2.492
      -1.667
      -0.558
       0.635
       1.676
       2.406
       2.773
       2.787
       2.468
       1.847
       0.999
       0.071
      -0.724
      -1.185
      -1.260
      -1.131
      -1.117
      -1.407
      -1.868
      -2.148
      -2.013
      -1.575
      -1.180
      -1.052
      -1.062
      -0.860
      -0.248
       0.578
       1.148
       1.122
       0.592
       0.005
      -0.199
       0.097
       0.649
       1.076
       1.113
       0.740
       0.139
      -0.422
      -0.725
      -0.704
      -0.460
      -0.188
      -0.047
      -0.046
      -0.056
       0.060
       0.286
       0.450
       0.369
       0.036
      -0.337
      -0.464
      -0.190
       0.404
       1.088
       1.652
       2.016
       2.178
       2.107
       1.733
       1.063
       0.283
      -0.288
      -0.410
      -0.106
       0.331
       0.542
       0.371
      -0.026
      -0.333
      -0.366
      -0.246
      -0.271
      -0.597
      -1.045
      -1.228
      -0.890
      -0.148
       0.557
       0.763
       0.282
      -0.699
      -1.762
      -2.524
      -2.837
      -2.807
      -2.602
      -2.280
      -1.788
      -1.129
      -0.457
       0.052
       0.390
       0.728
       1.169
       1.561
       1.608
       1.203
       0.605
       0.246
       0.344
       0.700
       0.872
       0.552
      -0.181
      -0.918
      -1.209
      -0.862
      -0.040
       0.890
       1.643
       2.180
       2.622
       3.024
       3.260
       3.136
       2.585
       1.730
       0.773
      -0.140
      -0.946
      -1.600
      -2.042
      -2.211
      -2.081
      -1.673
      -1.055
      -0.342
       0.336
       0.881
       1.270
       1.530
       1.667
       1.611
       1.266
       0.612
      -0.241
      -1.100
      -1.819
      -2.367
      -2.788
      -3.069
      -3.086
      -2.719
      -2.057
      -1.453
      -1.281
      -1.565
      -1.868
      -1.617
      -0.610
       0.750
       1.743
       1.918
       1.459
       1.025
       1.183
       1.925
       2.689
       2.844
       2.206
       1.158
       0.301
      -0.028
       0.038
       0.105
      -0.084
      -0.438
      -0.668
      -0.602
      -0.329
      -0.054
       0.116
       0.233
       0.375
       0.531
       0.623
       0.590
       0.429
       0.170
      -0.137
      -0.416
      -0.572
      -0.557
      -0.432
      -0.332
      -0.359
      -0.482
      -0.556
      -0.444
      -0.155
       0.120
       0.150
      -0.138
      -0.580
      -0.913
      -1.006
      -0.934
      -0.822
      -0.666
      -0.349
       0.188
       0.828
       1.382
       1.763
       2.019
       2.184
       2.158
       1.773
       1.000
       0.050
      -0.765
      -1.257
      -1.467
      -1.569
      -1.710
      -1.940
      -2.221
      -2.464
      -2.548
      -2.388
      -2.003
      -1.504
      -0.973
      -0.378
       0.361
       1.190
       1.855
       2.066
       1.765
       1.214
       0.791
       0.700
       0.842
       0.980
       0.978
       0.912
       0.939
       1.117
       1.339
       1.434
       1.303
       0.977
       0.564
       0.174
      -0.134
      -0.351
      -0.508
      -0.640
      -0.756
      -0.831
      -0.838
      -0.787
      -0.705
      -0.598
      -0.438
      -0.200
       0.112
       0.465
       0.802
       1.038
       1.078
       0.906
       0.669
       0.611
       0.870
       1.312
       1.597
       1.444
       0.855
       0.112
      -0.445
      -0.647
      -0.563
      -0.395
      -0.303
      -0.321
      -0.377
      -0.388
      -0.326
      -0.232
      -0.187
      -0.275
      -0.535
      -0.945
      -1.427
      -1.886
      -2.244
      -2.476
      -2.598
      -2.630
      -2.523
      -2.152
      -1.408
      -0.353
       0.733
       1.519
       1.878
       1.984
       2.114
       2.344
       2.448
       2.122
       1.312
       0.305
      -0.488
      -0.830
      -0.765
      -0.479
      -0.133
       0.185
       0.413
       0.498
       0.424
       0.239
       0.013
      -0.206
      -0.386
      -0.479
      -0.432
      -0.264
      -0.092
      -0.063
      -0.216
      -0.420
      -0.487
      -0.341
      -0.095
       0.055
       0.016
      -0.128
      -0.200
      -0.093
       0.147
       0.357
       0.377
       0.147
      -0.266
      -0.724
      -1.077
      -1.203
      -1.031
      -0.586
      -0.010
       0.494
       0.774
       0.811
       0.700
       0.558
       0.469
       0.493
       0.681
       1.038
       1.465
       1.792
       1.893
       1.806
       1.704
       1.743
       1.913
       2.038
       1.905
       1.412
       0.644
      -0.173
      -0.793
      -1.097
      -1.178
      -1.288
      -1.648
      -2.252
      -2.836
      -3.067
      -2.796
      -2.168
      -1.486
      -0.995
      -0.739
      -0.594
      -0.389
      -0.033
       0.396
       0.657
       0.499
      -0.111
      -0.864
      -1.277
      -1.059
      -0.351
       0.399
       0.817
       0.869
       0.789
       0.778
       0.819
       0.762
       0.546
       0.304
       0.236
       0.402
       0.651
       0.732
       0.496
       0.028
      -0.393
      -0.486
      -0.179
       0.325
       0.709
       0.788
       0.643
       0.506
       0.527
       0.655
       0.726
       0.663
       0.555
       0.558
       0.700
       0.821
       0.696
       0.241
