Origin Time       18/03/2009 11:22:42
Lat.              30.9°N 
Long.             78.2°E 
Depth (Km)         10.0
Magnitude         3.3
 Region           Uttarakhand                                                      
 Above details taken from IMD 
     
Station Code      BAR
Station Lat.       30.809  N
Station Long.      78.656  E
Station Height(m) 1305.0
Site Class        A   Vs30 between 700 m/sec to 1400 m/sec * 
Record Time       18.03.2009 11:23:35.954
Sampling Rate     200. Hz
 Record Duration   65.480 Sec.
 Direction         E-W (E positive)
Max. Acceleration      5.679 cm/sec**2
     
  * For reference see Site Classification link of website 
     
 Base Line Corrected and Low Pass Filtered (Cut Off at 35 Hz) Time History
 Acceleration data in cm/sec**2
    
[...]
      -0.009
      -0.003
      -0.001
       0.001
       0.002
       0.003
      -0.001
      -0.007
      -0.012
      -0.013
      -0.008
      -0.003
       0.001
       0.002
       0.002
       0.001
       0.001
       0.003
       0.006
       0.008
       0.006
       0.001
      -0.005
      -0.009
      -0.010
      -0.006
       0.003
       0.016
       0.026
       0.027
       0.018
       0.008
       0.004
       0.007
       0.011
       0.012
       0.010
       0.008
       0.008
       0.009
       0.007
       0.003
      -0.004
      -0.010
      -0.013
      -0.012
      -0.008
      -0.001
       0.004
       0.007
       0.005
       0.001
      -0.003
      -0.005
      -0.002
       0.005
       0.010
       0.010
       0.006
       0.003
       0.004
       0.006
       0.006
       0.003
      -0.001
      -0.003
      -0.002
       0.002
       0.006
       0.007
       0.002
      -0.006
      -0.014
      -0.014
      -0.008
       0.000
       0.001
      -0.002
      -0.005
      -0.002
       0.000
      -0.004
      -0.012
      -0.016
      -0.009
       0.005
       0.018
       0.021
       0.011
      -0.007
      -0.023
      -0.028
      -0.017
      -0.001
       0.010
       0.010
       0.002
      -0.006
      -0.010
      -0.012
      -0.012
      -0.012
      -0.010
      -0.007
      -0.004
      -0.002
       0.000
       0.002
       0.004
       0.006
       0.009
       0.014
       0.016
       0.015
       0.011
       0.008
       0.008
       0.011
       0.011
       0.008
       0.002
      -0.003
      -0.005
      -0.007
      -0.012
      -0.016
      -0.017
      -0.013
      -0.007
      -0.001
       0.000
      -0.002
      -0.005
      -0.006
      -0.005
      -0.002
       0.000
      -0.001
      -0.003
      -0.005
      -0.007
      -0.008
      -0.006
      -0.003
      -0.001
      -0.001
      -0.004
      -0.006
      -0.004
       0.000
       0.003
       0.004
       0.002
      -0.001
      -0.006
      -0.011
      -0.016
      -0.021
      -0.023
      -0.022
      -0.019
      -0.011
      -0.003
       0.003
       0.007
       0.011
       0.020
       0.031
       0.036
       0.027
       0.009
      -0.005
      -0.008
       0.000
       0.009
       0.010
       0.006
       0.001
       0.000
       0.001
       0.001
       0.001
       0.002
       0.006
       0.009
       0.008
       0.000
      -0.012
      -0.021
      -0.022
      -0.015
      -0.004
       0.009
       0.019
       0.023
       0.019
       0.008
      -0.005
      -0.012
      -0.009
      -0.001
       0.003
      -0.001
      -0.008
      -0.012
      -0.010
      -0.002
       0.006
       0.011
       0.012
       0.011
       0.011
       0.015
       0.020
       0.021
       0.016
       0.008
       0.004
       0.005
       0.009
       0.012
       0.016
       0.020
       0.022
       0.015
       0.001
      -0.015
      -0.023
      -0.021
      -0.014
      -0.007
      -0.005
      -0.008
      -0.014
      -0.017
      -0.015
      -0.007
       0.000
       0.002
      -0.002
      -0.007
      -0.007
       0.000
       0.011
       0.017
       0.014
       0.005
      -0.002
       0.000
       0.008
       0.016
       0.015
       0.009
       0.002
       0.004
       0.010
       0.013
       0.009
       0.000
      -0.006
      -0.007
      -0.005
      -0.004
      -0.004
      -0.003
      -0.001
       0.001
       0.003
       0.004
       0.006
       0.007
       0.005
       0.002
      -0.001
      -0.001
       0.003
       0.008
       0.014
       0.019
       0.021
       0.016
       0.008
       0.001
      -0.001
       0.003
       0.007
       0.009
       0.007
       0.003
       0.001
       0.000
       0.000
       0.001
       0.002
       0.003
       0.006
       0.010
       0.014
       0.014
       0.008
      -0.002
      -0.009
      -0.010
      -0.003
       0.006
       0.013
       0.014
       0.012
       0.010
       0.011
       0.013
       0.013
       0.008
       0.001
      -0.002
       0.003
       0.014
       0.023
       0.026
       0.025
       0.023
       0.021
       0.015
       0.006
      -0.005
      -0.012
      -0.013
      -0.010
      -0.007
      -0.006
      -0.005
      -0.004
      -0.001
       0.002
       0.006
       0.010
       0.014
       0.019
       0.022
       0.021
       0.015
       0.009
       0.007
       0.012
       0.020
       0.024
       0.024
       0.022
       0.021
       0.020
       0.017
       0.011
       0.004
       0.000
       0.000
       0.004
       0.007
       0.010
       0.008
       0.001
      -0.007
      -0.011
      -0.005
       0.006
       0.017
       0.022
       0.021
       0.017
       0.012
       0.008
       0.004
       0.003
       0.004
       0.008
       0.013
       0.017
       0.018
       0.016
       0.011
       0.007
       0.006
       0.008
       0.010
       0.008
       0.004
       0.000
      -0.001
       0.001
       0.003
       0.003
      -0.002
      -0.009
      -0.013
      -0.012
      -0.003
       0.009
       0.016
       0.017
       0.012
       0.005
      -0.002
      -0.008
      -0.014
      -0.018
      -0.018
      -0.013
      -0.004
       0.005
       0.010
       0.010
       0.004
      -0.002
      -0.005
      -0.002
       0.004
       0.010
       0.013
       0.012
       0.008
       0.004
       0.003
       0.007
       0.014
       0.021
       0.023
       0.019
       0.013
       0.008
       0.006
       0.002
      -0.005
      -0.015
      -0.021
      -0.022
      -0.017
      -0.009
      -0.003
      -0.002
      -0.005
      -0.008
      -0.008
      -0.001
       0.006
       0.010
       0.010
       0.009
       0.011
       0.013
       0.012
       0.008
       0.005
       0.005
       0.006
       0.005
       0.003
       0.005
       0.011
       0.020
       0.025
       0.025
       0.020
       0.013
       0.007
       0.008
       0.013
       0.018
       0.016
       0.008
       0.001
       0.000
       0.002
       0.001
      -0.003
      -0.008
      -0.008
      -0.003
       0.002
       0.003
       0.005
       0.008
       0.014
       0.015
       0.009
      -0.001
      -0.007
      -0.003
       0.009
       0.018
       0.017
       0.008
      -0.001
      -0.002
       0.006
       0.017
       0.024
       0.022
       0.014
       0.008
       0.007
       0.009
       0.010
       0.009
       0.006
       0.002
      -0.001
      -0.002
      -0.001
      -0.001
      -0.003
      -0.007
      -0.011
      -0.013
      -0.013
      -0.012
      -0.008
      -0.003
       0.003
       0.004
      -0.001
      -0.008
      -0.011
      -0.011
      -0.008
      -0.003
       0.003
       0.010
       0.015
       0.015
       0.012
       0.012
       0.018
       0.025
       0.027
       0.024
       0.019
       0.016
       0.016
       0.016
       0.013
       0.006
      -0.001
      -0.007
      -0.014
      -0.021
      -0.028
      -0.035
      -0.042
      -0.049
      -0.054
      -0.048
      -0.032
      -0.019
      -0.020
      -0.034
      -0.048
      -0.057
      -0.067
      -0.078
      -0.072
      -0.029
       0.043
       0.108
       0.133
       0.121
       0.103
       0.108
       0.133
       0.139
       0.100
       0.026
      -0.035
      -0.038
       0.029
       0.134
       0.216
       0.217
       0.114
      -0.057
      -0.221
      -0.311
      -0.306
      -0.238
      -0.159
      -0.102
      -0.073
      -0.067
      -0.073
      -0.074
      -0.042
       0.041
       0.150
       0.211
       0.151
      -0.027
      -0.219
      -0.281
      -0.137
       0.153
       0.430
       0.543
       0.438
       0.181
      -0.100
      -0.290
      -0.343
      -0.282
      -0.176
      -0.095
      -0.070
      -0.086
      -0.094
      -0.044
       0.056
       0.134
       0.101
      -0.060
      -0.250
      -0.312
      -0.155
       0.152
       0.429
       0.522
       0.402
       0.165
      -0.051
      -0.150
      -0.130
      -0.060
      -0.009
      -0.009
      -0.060
      -0.167
      -0.318
      -0.449
      -0.457
      -0.286
      -0.004
       0.228
       0.285
       0.186
       0.073
       0.099
       0.298
       0.572
       0.764
       0.765
       0.560
       0.202
      -0.216
      -0.581
      -0.774
      -0.726
      -0.471
      -0.142
       0.109
       0.212
       0.195
       0.123
       0.041
      -0.048
      -0.168
      -0.342
      -0.548
      -0.702
      -0.690
      -0.474
      -0.148
       0.112
       0.189
       0.117
       0.054
       0.139
       0.375
       0.635
       0.779
       0.746
       0.563
       0.298
       0.026
      -0.167
      -0.204
      -0.089
       0.065
       0.098
      -0.056
      -0.300
      -0.443
      -0.368
      -0.123
       0.133
       0.271
       0.281
       0.225
       0.136
      -0.014
      -0.243
      -0.469
      -0.540
      -0.386
      -0.117
       0.061
       0.027
      -0.142
      -0.241
      -0.134
       0.121
       0.326
       0.325
       0.151
      -0.019
      -0.050
       0.018
       0.031
      -0.102
      -0.308
      -0.422
      -0.336
      -0.083
       0.223
       0.485
       0.677
       0.799
       0.821
       0.700
       0.464
       0.225
       0.088
       0.041
      -0.038
      -0.253
      -0.581
      -0.880
      -1.012
      -0.962
      -0.832
      -0.733
      -0.673
      -0.570
      -0.364
      -0.116
       0.041
       0.054
       0.028
       0.127
       0.400
       0.713
       0.867
       0.785
       0.569
       0.397
       0.365
       0.433
       0.508
       0.544
       0.550
       0.523
       0.416
       0.192
      -0.112
      -0.384
      -0.527
      -0.555
      -0.571
      -0.662
      -0.799
      -0.866
      -0.780
      -0.585
      -0.400
      -0.291
      -0.208
      -0.052
       0.207
       0.492
       0.686
       0.720
       0.599
       0.377
       0.112
      -0.141
      -0.337
      -0.448
      -0.459
      -0.372
      -0.195
       0.044
       0.294
       0.495
       0.601
       0.596
       0.495
       0.324
       0.116
      -0.087
      -0.220
      -0.222
      -0.075
       0.172
       0.431
       0.624
       0.712
       0.686
       0.544
       0.277
      -0.099
      -0.508
      -0.825
      -0.955
      -0.905
      -0.768
      -0.643
      -0.563
      -0.510
      -0.474
      -0.462
      -0.468
      -0.444
      -0.325
      -0.081
       0.248
       0.557
       0.732
       0.723
       0.586
       0.440
       0.373
       0.382
       0.409
       0.417
       0.431
       0.483
       0.536
       0.493
       0.296
       0.026
      -0.144
      -0.112
       0.040
       0.106
      -0.050
      -0.376
      -0.699
      -0.890
      -0.930
      -0.848
      -0.651
      -0.344
       0.001
       0.269
       0.390
       0.399
       0.386
       0.381
       0.339
       0.204
       0.002
      -0.167
      -0.206
      -0.099
       0.076
       0.209
       0.233
       0.155
       0.048
      -0.008
       0.012
       0.067
       0.092
       0.056
      -0.011
      -0.060
      -0.069
      -0.053
      -0.038
      -0.033
      -0.035
      -0.031
      -0.014
       0.019
       0.058
       0.069
       0.015
      -0.113
      -0.261
      -0.325
      -0.214
       0.053
       0.341
       0.479
       0.383
       0.116
      -0.170
      -0.365
      -0.464
      -0.531
      -0.601
      -0.633
      -0.557
      -0.364
      -0.109
       0.147
       0.388
       0.619
       0.822
       0.961
       1.030
       1.076
       1.141
       1.182
       1.090
       0.784
       0.310
      -0.187
      -0.570
      -0.817
      -0.999
      -1.176
      -1.325
      -1.365
      -1.241
      -0.967
      -0.616
      -0.276
      -0.025
       0.097
       0.106
       0.084
       0.148
       0.380
       0.761
       1.167
       1.423
       1.397
       1.062
       0.505
      -0.109
      -0.591
      -0.798
      -0.688
      -0.326
       0.137
       0.525
       0.686
       0.535
       0.093
      -0.501
      -1.030
      -1.300
      -1.243
      -0.951
      -0.603
      -0.340
      -0.201
      -0.139
      -0.092
      -0.014
       0.129
       0.360
       0.682
       1.040
       1.301
       1.305
       0.970
       0.392
      -0.184
      -0.519
      -0.546
      -0.388
      -0.225
      -0.143
      -0.103
      -0.026
       0.120
       0.295
       0.437
       0.522
       0.589
       0.713
       0.947
       1.257
       1.507
       1.544
       1.316
       0.925
       0.533
       0.220
      -0.074
      -0.440
      -0.850
      -1.141
      -1.179
      -1.018
      -0.903
      -1.072
      -1.549
      -2.104
      -2.439
      -2.389
      -1.978
      -1.314
      -0.492
       0.382
       1.144
       1.627
       1.800
       1.801
       1.771
       1.672
       1.320
       0.637
      -0.159
      -0.687
      -0.764
      -0.609
      -0.646
      -1.064
      -1.620
      -1.871
      -1.654
      -1.294
      -1.343
      -2.074
      -3.191
      -4.014
      -3.990
      -3.103
      -1.825
      -0.674
       0.226
       1.173
       2.488
       4.071
       5.344
       5.679
       4.942
       3.659
       2.643
       2.368
       2.664
       2.969
       2.909
       2.615
       2.495
       2.699
       2.850
       2.330
       0.888
      -1.037
      -2.604
      -3.251
      -3.122
      -2.869
      -3.025
      -3.558
      -3.991
      -3.915
      -3.384
      -2.809
      -2.535
      -2.535
      -2.507
      -2.200
      -1.601
      -0.851
      -0.055
       0.759
       1.536
       2.142
       2.471
       2.589
       2.725
       3.073
       3.605
       4.081
       4.220
       3.876
       3.081
       1.999
       0.878
       0.001
      -0.427
      -0.424
      -0.273
      -0.352
      -0.861
      -1.691
      -2.565
      -3.289
      -3.829
      -4.186
      -4.254
      -3.875
      -3.028
      -1.945
      -0.999
      -0.472
      -0.395
      -0.583
      -0.780
      -0.787
      -0.525
      -0.026
       0.597
       1.209
       1.725
       2.156
       2.571
       3.002
       3.360
       3.465
       3.176
       2.538
       1.792
       1.220
       0.956
       0.895
       0.782
       0.390
      -0.338
      -1.259
      -2.113
      -2.654
      -2.757
      -2.469
      -1.976
      -1.500
      -1.184
      -1.043
      -0.974
      -0.829
      -0.491
       0.069
       0.777
       1.478
       2.007
       2.263
       2.236
       1.993
       1.622
       1.196
       0.790
       0.504
       0.442
       0.634
       0.964
       1.204
       1.159
       0.796
       0.251
      -0.315
      -0.865
      -1.488
      -2.264
      -3.103
      -3.750
      -3.940
      -3.611
      -2.966
      -2.340
      -1.969
      -1.864
      -1.872
      -1.842
      -1.743
      -1.647
      -1.601
      -1.526
      -1.233
      -0.561
       0.472
       1.641
       2.670
       3.431
       4.014
       4.579
       5.135
       5.483
       5.391
       4.836
       4.061
       3.368
       2.860
       2.378
       1.694
       0.739
      -0.353
      -1.392
      -2.289
      -3.067
      -3.738
      -4.216
      -4.361
      -4.093
      -3.468
      -2.640
      -1.762
      -0.918
      -0.119
       0.640
       1.336
       1.912
       2.315
       2.528
       2.579
       2.514
       2.374
       2.196
       2.016
       1.858
       1.713
       1.524
       1.199
       0.637
      -0.221
      -1.331
      -2.502
      -3.452
      -3.956
      -3.986
      -3.725
      -3.414
      -3.176
      -2.963
      -2.661
      -2.225
      -1.706
      -1.179
      -0.661
      -0.117
       0.466
       1.042
       1.533
       1.888
       2.107
       2.212
       2.220
       2.133
       1.950
       1.673
       1.325
       0.956
       0.644
       0.452
       0.402
       0.469
       0.616
       0.807
       0.983
       1.049
       0.933
       0.643
       0.264
      -0.113
      -0.461
      -0.807
      -1.175
      -1.543
      -1.863
      -2.104
      -2.267
      -2.360
      -2.364
      -2.244
      -1.987
      -1.628
      -1.243
      -0.908
      -0.659
      -0.463
      -0.228
       0.150
       0.725
       1.458
       2.211
       2.801
       3.092
       3.063
       2.824
       2.546
       2.349
       2.237
       2.110
       1.845
       1.384
       0.744
      -0.012
      -0.825
      -1.633
      -2.352
      -2.875
      -3.129
      -3.122
      -2.930
      -2.613
      -2.162
      -1.546
      -0.810
      -0.107
       0.415
       0.747
       1.033
       1.450
       2.051
       2.724
       3.270
       3.531
       3.466
       3.143
       2.672
       2.137
       1.558
       0.924
       0.232
      -0.486
      -1.188
      -1.843
      -2.427
      -2.892
      -3.162
      -3.175
      -2.933
      -2.517
      -2.033
      -1.545
      -1.057
      -0.560
      -0.085
       0.306
       0.572
       0.727
       0.799
       0.787
       0.656
       0.397
       0.068
      -0.223
      -0.394
      -0.456
      -0.506
      -0.635
      -0.837
      -0.993
      -0.957
      -0.681
      -0.252
       0.181
       0.520
       0.771
       0.984
       1.169
       1.280
       1.287
       1.239
       1.246
       1.393
       1.662
       1.937
       2.082
       2.019
       1.738
       1.260
       0.602
      -0.201
      -1.047
      -1.765
      -2.174
      -2.187
      -1.862
      -1.363
      -0.861
      -0.456
      -0.162
       0.058
       0.247
       0.430
       0.602
       0.731
       0.770
       0.694
       0.513
       0.271
       0.016
      -0.215
      -0.390
      -0.478
      -0.472
      -0.411
      -0.378
      -0.451
      -0.658
      -0.958
      -1.274
      -1.537
      -1.710
      -1.788
      -1.768
      -1.633
      -1.360
      -0.952
      -0.471
      -0.020
       0.323
       0.575
       0.838
       1.203
       1.654
       2.071
       2.326
       2.374
       2.258
       2.037
       1.740
       1.388
       1.032
       0.748
       0.586
       0.521
       0.470
       0.338
       0.084
      -0.271
      -0.661
      -1.002
      -1.220
      -1.264
      -1.146
      -0.947
      -0.778
      -0.715
      -0.747
      -0.806
      -0.829
      -0.794
      -0.700
      -0.536
      -0.282
       0.047
       0.389
       0.661
       0.818
       0.864
       0.821
       0.680
       0.406
       0.000
      -0.443
      -0.751
      -0.766
      -0.443
       0.111
       0.678
       1.031
       1.051
       0.786
       0.431
       0.209
       0.215
       0.362
       0.457
       0.363
       0.100
      -0.209
      -0.474
      -0.727
      -1.058
      -1.477
      -1.848
      -1.962
      -1.707
      -1.169
      -0.579
      -0.154
       0.040
       0.077
       0.064
       0.054
       0.071
