Origin Time       03/5/2010 17:15:08	
Lat.              30.4 N	
Long.             78.4 E	
Depth (Km)          8.0
Magnitude         3.5
 Region           Uttarakhand                                                      
 Above details taken from IMD 
     
Station Code      BAR
Station Lat.       30.809  N
Station Long.      78.205  E
Station Height(m) 1305.0
Site Class        A   Vs30 between 700 m/sec to 1400 m/sec * 
Record Time       03.05.2010 17:15:20.894
Sampling Rate     200. Hz
 Record Duration   89.890 Sec.
 Direction         E-W (E positive)
Max. Acceleration     -2.782 cm/sec**2
     
  * For reference see Site Classification link of website 
     
 Base Line Corrected and Low Pass Filtered (Cut Off at 35 Hz) Time History
 Acceleration data in cm/sec**2
    
[...]
      -1.037
      -1.043
      -1.012
      -0.965
      -0.909
      -0.839
      -0.745
      -0.634
      -0.514
      -0.393
      -0.263
      -0.120
       0.034
       0.182
       0.312
       0.427
       0.536
       0.646
       0.752
       0.836
       0.881
       0.878
       0.825
       0.723
       0.583
       0.426
       0.279
       0.158
       0.067
       0.001
      -0.043
      -0.059
      -0.051
      -0.041
      -0.066
      -0.154
      -0.302
      -0.471
      -0.619
      -0.722
      -0.779
      -0.796
      -0.770
      -0.692
      -0.565
      -0.407
      -0.250
      -0.117
      -0.010
       0.096
       0.227
       0.390
       0.556
       0.678
       0.722
       0.685
       0.590
       0.471
       0.356
       0.263
       0.203
       0.178
       0.178
       0.189
       0.193
       0.181
       0.151
       0.106
       0.050
      -0.008
      -0.050
      -0.058
      -0.026
       0.025
       0.054
       0.020
      -0.093
      -0.265
      -0.462
      -0.649
      -0.807
      -0.926
      -0.997
      -1.010
      -0.963
      -0.869
      -0.743
      -0.598
      -0.434
      -0.250
      -0.055
       0.135
       0.307
       0.459
       0.603
       0.740
       0.855
       0.929
       0.955
       0.946
       0.919
       0.877
       0.807
       0.696
       0.550
       0.394
       0.248
       0.115
      -0.014
      -0.143
      -0.257
      -0.338
      -0.378
      -0.389
      -0.390
      -0.388
      -0.381
      -0.364
      -0.348
      -0.349
      -0.371
      -0.396
      -0.391
      -0.338
      -0.244
      -0.142
      -0.070
      -0.056
      -0.114
      -0.234
      -0.381
      -0.507
      -0.564
      -0.533
      -0.435
      -0.307
      -0.178
      -0.050
       0.087
       0.242
       0.409
       0.577
       0.731
       0.856
       0.928
       0.929
       0.856
       0.728
       0.579
       0.447
       0.364
       0.342
       0.371
       0.416
       0.424
       0.354
       0.200
      -0.003
      -0.199
      -0.342
      -0.420
      -0.446
      -0.447
      -0.444
      -0.451
      -0.472
      -0.494
      -0.499
      -0.467
      -0.400
      -0.320
      -0.260
      -0.244
      -0.265
      -0.297
      -0.309
      -0.286
      -0.230
      -0.153
      -0.072
      -0.002
       0.046
       0.073
       0.094
       0.126
       0.181
       0.256
       0.329
       0.376
       0.376
       0.323
       0.233
       0.129
       0.039
      -0.030
      -0.085
      -0.144
      -0.217
      -0.297
      -0.371
      -0.422
      -0.440
      -0.417
      -0.351
      -0.246
      -0.117
       0.017
       0.143
       0.258
       0.368
       0.471
       0.558
       0.623
       0.675
       0.735
       0.814
       0.895
       0.940
       0.922
       0.846
       0.736
       0.611
       0.469
       0.290
       0.064
      -0.196
      -0.460
      -0.700
      -0.906
      -1.084
      -1.241
      -1.376
      -1.481
      -1.545
      -1.556
      -1.510
      -1.403
      -1.231
      -0.996
      -0.709
      -0.396
      -0.086
       0.200
       0.459
       0.695
       0.913
       1.105
       1.254
       1.345
       1.370
       1.328
       1.223
       1.065
       0.869
       0.658
       0.456
       0.273
       0.103
      -0.076
      -0.283
      -0.516
      -0.749
      -0.943
      -1.069
      -1.117
      -1.093
      -1.007
      -0.864
      -0.666
      -0.428
      -0.177
       0.061
       0.278
       0.477
       0.664
       0.835
       0.975
       1.073
       1.125
       1.133
       1.095
       1.009
       0.881
       0.727
       0.557
       0.373
       0.172
      -0.040
      -0.243
      -0.412
      -0.542
      -0.650
      -0.760
      -0.879
      -0.987
      -1.051
      -1.051
      -0.992
      -0.896
      -0.791
      -0.695
      -0.615
      -0.541
      -0.452
      -0.327
      -0.155
       0.057
       0.282
       0.478
       0.612
       0.668
       0.650
       0.581
       0.501
       0.445
       0.426
       0.425
       0.406
       0.342
       0.237
       0.120
       0.028
      -0.022
      -0.035
      -0.027
      -0.018
      -0.018
      -0.030
      -0.041
      -0.034
       0.007
       0.074
       0.137
       0.162
       0.131
       0.060
      -0.019
      -0.075
      -0.098
      -0.092
      -0.072
      -0.057
      -0.067
      -0.120
      -0.229
      -0.381
      -0.543
      -0.668
      -0.723
      -0.700
      -0.617
      -0.510
      -0.411
      -0.331
      -0.259
      -0.169
      -0.042
       0.123
       0.313
       0.507
       0.683
       0.819
       0.900
       0.924
       0.905
       0.861
       0.802
       0.721
       0.605
       0.455
       0.287
       0.127
      -0.015
      -0.150
      -0.296
      -0.454
      -0.602
      -0.709
      -0.753
      -0.734
      -0.670
      -0.584
      -0.492
      -0.408
      -0.341
      -0.297
      -0.274
      -0.259
      -0.229
      -0.171
      -0.089
      -0.003
       0.069
       0.120
       0.157
       0.187
       0.209
       0.217
       0.211
       0.194
       0.170
       0.135
       0.085
       0.020
      -0.049
      -0.102
      -0.120
      -0.092
      -0.019
       0.087
       0.204
       0.309
       0.385
       0.429
       0.448
       0.446
       0.425
       0.377
       0.298
       0.192
       0.076
      -0.027
      -0.096
      -0.123
      -0.111
      -0.071
      -0.011
       0.061
       0.133
       0.184
       0.197
       0.162
       0.085
      -0.016
      -0.125
      -0.235
      -0.339
      -0.423
      -0.464
      -0.452
      -0.395
      -0.324
      -0.271
      -0.252
      -0.268
      -0.312
      -0.371
      -0.424
      -0.444
      -0.412
      -0.330
      -0.217
      -0.099
       0.009
       0.105
       0.192
       0.272
       0.343
       0.407
       0.462
       0.503
       0.518
       0.499
       0.440
       0.343
       0.220
       0.101
       0.019
      -0.002
       0.038
       0.104
       0.148
       0.138
       0.081
       0.018
      -0.008
       0.024
       0.102
       0.197
       0.276
       0.315
       0.305
       0.249
       0.157
       0.043
      -0.075
      -0.182
      -0.266
      -0.331
      -0.389
      -0.458
      -0.546
      -0.648
      -0.746
      -0.821
      -0.860
      -0.861
      -0.820
      -0.735
      -0.614
      -0.477
      -0.345
      -0.225
      -0.110
       0.012
       0.133
       0.237
       0.310
       0.362
       0.412
       0.475
       0.547
       0.617
       0.679
       0.739
       0.800
       0.854
       0.879
       0.858
       0.795
       0.707
       0.616
       0.535
       0.467
       0.413
       0.381
       0.372
       0.380
       0.385
       0.373
       0.338
       0.280
       0.192
       0.055
      -0.146
      -0.413
      -0.721
      -1.032
      -1.308
      -1.516
      -1.631
      -1.637
      -1.537
      -1.359
      -1.153
      -0.966
      -0.817
      -0.693
      -0.565
      -0.414
      -0.244
      -0.074
       0.081
       0.224
       0.365
       0.511
       0.654
       0.779
       0.874
       0.937
       0.975
       0.989
       0.973
       0.913
       0.806
       0.669
       0.537
       0.438
       0.378
       0.336
       0.285
       0.216
       0.145
       0.096
       0.077
       0.074
       0.057
       0.004
      -0.089
      -0.215
      -0.360
      -0.506
      -0.629
      -0.707
      -0.725
      -0.686
      -0.605
      -0.508
      -0.409
      -0.311
      -0.203
      -0.074
       0.075
       0.232
       0.379
       0.506
       0.605
       0.672
       0.691
       0.650
       0.551
       0.415
       0.273
       0.142
       0.015
      -0.127
      -0.293
      -0.470
      -0.633
      -0.760
      -0.845
      -0.895
      -0.920
      -0.925
      -0.909
      -0.873
      -0.819
      -0.740
      -0.628
      -0.475
      -0.283
      -0.060
       0.180
       0.428
       0.674
       0.912
       1.121
       1.271
       1.334
       1.301
       1.192
       1.040
       0.870
       0.686
       0.484
       0.273
       0.073
      -0.099
      -0.245
      -0.389
      -0.545
      -0.696
      -0.812
      -0.873
      -0.890
      -0.883
      -0.855
      -0.778
      -0.629
      -0.412
      -0.164
       0.076
       0.296
       0.508
       0.724
       0.929
       1.086
       1.163
       1.154
       1.069
       0.922
       0.715
       0.452
       0.153
      -0.138
      -0.369
      -0.511
      -0.576
      -0.603
      -0.633
      -0.681
      -0.733
      -0.768
      -0.774
      -0.754
      -0.707
      -0.620
      -0.482
      -0.302
      -0.115
       0.044
       0.171
       0.285
       0.406
       0.518
       0.585
       0.578
       0.504
       0.400
       0.309
       0.255
       0.242
       0.263
       0.303
       0.342
       0.356
       0.341
       0.311
       0.289
       0.282
       0.270
       0.221
       0.115
      -0.050
      -0.259
      -0.487
      -0.697
      -0.853
      -0.941
      -0.982
      -1.006
      -1.027
      -1.021
      -0.956
      -0.819
      -0.628
      -0.411
      -0.186
       0.046
       0.276
       0.486
       0.660
       0.802
       0.929
       1.044
       1.120
       1.115
       1.002
       0.793
       0.534
       0.276
       0.053
      -0.116
      -0.228
      -0.288
      -0.312
      -0.322
      -0.337
      -0.364
      -0.397
      -0.424
      -0.435
      -0.429
      -0.408
      -0.382
      -0.357
      -0.346
      -0.357
      -0.387
      -0.429
      -0.473
      -0.511
      -0.537
      -0.540
      -0.513
      -0.455
      -0.366
      -0.248
      -0.094
       0.096
       0.311
       0.527
       0.715
       0.856
       0.950
       1.008
       1.041
       1.054
       1.047
       1.025
       0.997
       0.967
       0.921
       0.828
       0.662
       0.424
       0.151
      -0.103
      -0.297
      -0.424
      -0.504
      -0.566
      -0.628
      -0.699
      -0.776
      -0.845
      -0.877
      -0.841
      -0.722
      -0.533
      -0.313
      -0.104
       0.065
       0.189
       0.276
       0.341
       0.398
       0.455
       0.514
       0.573
       0.620
       0.645
       0.639
       0.597
       0.519
       0.408
       0.267
       0.102
      -0.079
      -0.269
      -0.456
      -0.631
      -0.789
      -0.924
      -1.029
      -1.095
      -1.115
      -1.082
      -0.998
      -0.873
      -0.719
      -0.544
      -0.354
      -0.151
       0.058
       0.262
       0.443
       0.589
       0.689
       0.738
       0.737
       0.699
       0.639
       0.566
       0.473
       0.348
       0.186
       0.009
      -0.148
      -0.259
      -0.323
      -0.360
      -0.387
      -0.407
      -0.411
      -0.397
      -0.370
      -0.339
      -0.296
      -0.220
      -0.095
       0.071
       0.255
       0.430
       0.582
       0.709
       0.807
       0.868
       0.882
       0.843
       0.744
       0.576
       0.338
       0.043
      -0.272
      -0.560
      -0.785
      -0.943
      -1.053
      -1.140
      -1.225
      -1.313
      -1.394
      -1.445
      -1.431
      -1.317
      -1.093
      -0.775
      -0.405
      -0.021
       0.348
       0.694
       1.014
       1.308
       1.571
       1.792
       1.958
       2.052
       2.062
       1.985
       1.830
       1.615
       1.351
       1.048
       0.714
       0.364
       0.029
      -0.266
      -0.509
      -0.714
      -0.903
      -1.093
      -1.279
      -1.442
      -1.566
      -1.644
      -1.680
      -1.680
      -1.650
      -1.592
      -1.503
      -1.372
      -1.193
      -0.968
      -0.709
      -0.432
      -0.145
       0.153
       0.461
       0.765
       1.045
       1.278
       1.456
       1.582
       1.658
       1.681
       1.650
       1.571
       1.462
       1.337
       1.195
       1.013
       0.767
       0.453
       0.088
      -0.299
      -0.690
      -1.073
      -1.430
      -1.733
      -1.955
      -2.080
      -2.106
      -2.027
      -1.835
      -1.516
      -1.074
      -0.540
       0.026
       0.555
       0.994
       1.327
       1.565
       1.728
       1.827
       1.864
       1.840
       1.766
       1.660
       1.530
       1.366
       1.148
       0.860
       0.507
       0.112
      -0.288
      -0.664
      -0.999
      -1.288
      -1.527
      -1.711
      -1.829
      -1.868
      -1.818
      -1.671
      -1.430
      -1.114
      -0.759
      -0.410
      -0.104
       0.136
       0.312
       0.438
       0.530
       0.591
       0.610
       0.579
       0.500
       0.395
       0.291
       0.202
       0.121
       0.025
      -0.101
      -0.257
      -0.434
      -0.623
      -0.811
      -0.977
      -1.086
      -1.104
      -1.013
      -0.821
      -0.553
      -0.246
       0.072
       0.382
       0.670
       0.921
       1.120
       1.254
       1.322
       1.330
       1.295
       1.236
       1.177
       1.140
       1.144
       1.190
       1.262
       1.329
       1.357
       1.323
       1.211
       1.002
       0.676
       0.222
      -0.337
      -0.949
      -1.538
      -2.041
      -2.422
      -2.670
      -2.782
      -2.758
      -2.605
      -2.343
      -2.005
      -1.615
      -1.188
      -0.733
      -0.264
       0.197
       0.630
       1.024
       1.378
       1.692
       1.965
       2.191
       2.357
       2.447
       2.442
       2.319
       2.065
       1.677
       1.178
       0.609
       0.029
      -0.514
      -0.988
      -1.387
      -1.718
      -1.983
      -2.178
      -2.289
      -2.302
      -2.208
      -2.010
      -1.730
      -1.400
      -1.046
      -0.678
      -0.293
       0.109
       0.512
       0.878
       1.165
       1.344
       1.416
       1.400
       1.322
       1.212
       1.098
       1.012
       0.971
       0.974
       0.992
       0.987
       0.925
       0.801
       0.637
       0.469
       0.325
       0.213
       0.121
       0.033
      -0.062
      -0.167
      -0.283
      -0.418
      -0.579
      -0.764
      -0.953
      -1.122
      -1.255
      -1.356
      -1.439
      -1.515
      -1.578
      -1.603
      -1.555
      -1.407
      -1.152
      -0.807
      -0.403
       0.020
       0.419
       0.754
       0.996
       1.146
       1.226
       1.265
       1.270
       1.225
       1.108
       0.918
       0.673
       0.403
       0.126
      -0.146
      -0.391
      -0.576
      -0.669
      -0.657
      -0.565
      -0.435
      -0.304
      -0.189
      -0.082
       0.026
       0.141
       0.259
       0.369
       0.460
       0.518
       0.527
       0.483
       0.389
       0.257
       0.106
      -0.042
      -0.168
      -0.252
      -0.278
      -0.234
      -0.120
       0.045
       0.234
       0.422
       0.598
       0.765
       0.930
       1.096
       1.251
       1.367
       1.410
       1.356
       1.195
       0.935
       0.595
       0.204
      -0.205
      -0.602
      -0.965
      -1.284
      -1.565
      -1.818
      -2.044
      -2.223
      -2.318
      -2.290
      -2.121
      -1.821
      -1.423
      -0.970
      -0.502
      -0.049
       0.373
       0.758
       1.100
       1.384
       1.588
       1.689
       1.680
       1.570
       1.380
       1.133
       0.855
       0.565
       0.282
       0.018
      -0.225
      -0.442
      -0.624
      -0.754
      -0.818
      -0.812
      -0.745
      -0.631
      -0.478
      -0.290
      -0.074
       0.150
       0.356
       0.528
       0.663
       0.757
       0.794
       0.747
       0.604
       0.381
       0.110
      -0.174
      -0.451
      -0.708
      -0.927
      -1.085
      -1.165
      -1.170
      -1.128
      -1.069
      -1.017
      -0.971
      -0.912
      -0.814
      -0.658
      -0.445
      -0.185
       0.103
       0.409
       0.718
       1.010
       1.255
       1.437
       1.567
       1.681
       1.809
       1.942
       2.028
       2.007
       1.858
       1.612
       1.324
       1.036
       0.759
       0.486
       0.209
      -0.069
      -0.344
      -0.609
      -0.855
      -1.067
      -1.223
      -1.317
      -1.364
      -1.393
      -1.430
      -1.485
      -1.551
      -1.615
      -1.665
      -1.694
      -1.696
      -1.664
      -1.584
      -1.439
      -1.223
      -0.948
      -0.639
      -0.338
      -0.084
       0.092
       0.179
       0.196
       0.186
       0.192
       0.238
       0.323
       0.426
       0.529
       0.630
       0.731
       0.831
       0.920
       0.992
       1.047
       1.094
       1.142
       1.197
       1.255
       1.313
       1.361
       1.390
       1.395
       1.387
       1.375
       1.357
       1.311
       1.197
       0.988
       0.683
       0.304
      -0.111
      -0.532
      -0.932
      -1.282
      -1.559
      -1.746
      -1.842
      -1.855
      -1.800
      -1.689
      -1.533
      -1.333
      -1.086
      -0.785
      -0.428
      -0.026
       0.394
       0.798
       1.159
       1.463
       1.699
       1.859
       1.936
       1.926
       1.826
       1.626
       1.317
       0.901
       0.402
      -0.133
      -0.652
      -1.121
      -1.535
      -1.904
      -2.222
      -2.463
      -2.593
      -2.596
      -2.477
      -2.264
      -1.982
      -1.652
      -1.296
      -0.943
      -0.623
      -0.357
      -0.140
       0.043
       0.205
       0.341
       0.442
       0.515
       0.586
       0.684
       0.821
       0.983
       1.144
       1.291
       1.429
       1.570
       1.716
       1.864
       2.005
       2.136
       2.249
       2.325
       2.335
       2.253
       2.067
       1.785
       1.430
       1.031
       0.614
       0.198
      -0.207
      -0.597
      -0.974
      -1.336
      -1.672
      -1.960
      -2.178
      -2.312
      -2.359
      -2.326
      -2.220
      -2.052
      -1.837
      -1.595
      -1.346
      -1.104
      -0.866
      -0.617
      -0.343
      -0.043
       0.261
       0.535
       0.746
       0.885
       0.958
       0.985
       0.981
       0.957
       0.917
       0.853
       0.747
       0.581
       0.358
       0.111
      -0.116
      -0.284
      -0.382
      -0.424
      -0.429
      -0.414
      -0.386
      -0.351
      -0.324
      -0.317
      -0.332
      -0.355
      -0.363
      -0.341
      -0.286
      -0.207
      -0.107
       0.026
       0.208
       0.435
       0.676
       0.885
       1.031
       1.108
       1.129
       1.114
       1.076
       1.019
       0.942
       0.831
       0.676
       0.469
       0.224
      -0.032
      -0.262
      -0.441
      -0.557
      -0.614
      -0.630
      -0.629
      -0.640
      -0.680
      -0.741
      -0.798
      -0.820
      -0.798
      -0.744
      -0.682
      -0.624
      -0.565
      -0.488
      -0.383
      -0.251
      -0.104
       0.043
       0.175
       0.284
