Origin Time       21/09/2011 02:24:36
Lat.              30.9 N	
Long.             78.3 E	
Depth (Km)         10.0
Magnitude         3.1
 Region           Uttarkashi-Distt.                                                
 Above details taken from IMD 
     
Station Code      BAR
Station Lat.       30.809  N
Station Long.      78.205  E
Station Height(m) 1305.0
Site Class        A   Vs30 between 700 m/sec to 1400 m/sec * 
Record Time       21.09.2011 02:24:12.049
Sampling Rate     200. Hz
 Record Duration   83.110 Sec.
 Direction         E-W (E positive)
Max. Acceleration     -2.986 cm/sec**2
     
  * For reference see Site Classification link of website 
     
 Base Line Corrected and Low Pass Filtered (Cut Off at 35 Hz) Time History
 Acceleration data in cm/sec**2
    
[...]
      -0.016
      -0.011
      -0.010
      -0.011
      -0.011
      -0.009
      -0.004
       0.002
       0.003
      -0.002
      -0.008
      -0.011
      -0.008
      -0.004
       0.001
       0.004
       0.001
      -0.006
      -0.012
      -0.014
      -0.011
      -0.007
      -0.004
      -0.003
      -0.008
      -0.015
      -0.017
      -0.011
       0.001
       0.009
       0.011
       0.006
      -0.002
      -0.008
      -0.010
      -0.006
      -0.002
      -0.002
      -0.005
      -0.006
      -0.005
      -0.005
      -0.004
      -0.003
      -0.003
      -0.005
      -0.005
      -0.002
       0.001
       0.002
       0.000
      -0.002
      -0.005
      -0.008
      -0.010
      -0.010
      -0.012
      -0.020
      -0.027
      -0.027
      -0.017
      -0.003
       0.008
       0.012
       0.006
      -0.005
      -0.012
      -0.010
      -0.003
       0.001
       0.001
       0.001
       0.002
       0.001
      -0.003
      -0.007
      -0.009
      -0.006
       0.001
       0.007
       0.006
      -0.004
      -0.015
      -0.020
      -0.017
      -0.015
      -0.013
      -0.011
      -0.007
      -0.006
      -0.009
      -0.011
      -0.010
      -0.005
       0.000
       0.001
      -0.004
      -0.010
      -0.010
      -0.004
       0.001
      -0.002
      -0.010
      -0.015
      -0.014
      -0.008
      -0.004
      -0.002
      -0.004
      -0.010
      -0.014
      -0.012
      -0.006
       0.000
       0.005
       0.006
       0.003
      -0.005
      -0.013
      -0.016
      -0.015
      -0.012
      -0.008
      -0.002
       0.001
      -0.002
      -0.008
      -0.010
      -0.007
      -0.002
       0.003
       0.005
       0.003
      -0.003
      -0.009
      -0.012
      -0.014
      -0.016
      -0.016
      -0.012
      -0.008
      -0.007
      -0.009
      -0.009
      -0.006
      -0.003
      -0.002
      -0.002
      -0.002
      -0.004
      -0.005
      -0.006
      -0.005
      -0.005
      -0.006
      -0.006
      -0.007
      -0.010
      -0.011
      -0.009
      -0.006
      -0.003
      -0.001
       0.006
       0.014
       0.018
       0.016
       0.009
       0.002
      -0.004
      -0.005
      -0.002
       0.002
       0.005
       0.005
       0.004
      -0.001
      -0.008
      -0.009
      -0.002
       0.010
       0.015
       0.012
       0.003
      -0.004
      -0.007
      -0.006
      -0.004
      -0.005
      -0.009
      -0.010
      -0.004
       0.005
       0.008
       0.003
      -0.004
      -0.006
      -0.004
       0.000
       0.003
       0.002
      -0.001
      -0.003
      -0.004
      -0.007
      -0.013
      -0.014
      -0.008
       0.001
       0.007
       0.004
      -0.001
      -0.002
       0.002
       0.007
       0.010
       0.009
       0.007
       0.008
       0.013
       0.014
       0.008
      -0.003
      -0.007
      -0.003
       0.007
       0.013
       0.015
       0.012
       0.008
       0.005
       0.004
       0.001
      -0.004
      -0.009
      -0.008
      -0.003
       0.000
       0.000
      -0.002
      -0.002
       0.000
       0.002
       0.005
       0.005
       0.002
      -0.003
      -0.006
      -0.006
      -0.004
       0.002
       0.009
       0.013
       0.010
       0.003
      -0.001
       0.000
       0.005
       0.009
       0.011
       0.010
       0.006
       0.003
       0.001
       0.001
      -0.002
      -0.005
      -0.006
      -0.004
      -0.003
      -0.005
      -0.007
      -0.007
      -0.005
      -0.002
      -0.001
      -0.003
      -0.007
      -0.008
      -0.004
       0.000
      -0.003
      -0.011
      -0.017
      -0.015
      -0.008
      -0.001
       0.003
       0.002
      -0.004
      -0.009
      -0.008
      -0.003
       0.000
      -0.001
      -0.006
      -0.012
      -0.015
      -0.014
      -0.008
      -0.003
       0.000
      -0.001
      -0.001
      -0.002
      -0.007
      -0.016
      -0.022
      -0.023
      -0.018
      -0.010
      -0.003
      -0.001
      -0.005
      -0.008
      -0.005
       0.001
       0.004
       0.001
      -0.003
      -0.004
      -0.001
       0.002
       0.003
       0.002
      -0.003
      -0.008
      -0.011
      -0.012
      -0.012
      -0.008
      -0.001
       0.007
       0.009
       0.004
      -0.003
      -0.008
      -0.010
      -0.009
      -0.003
       0.004
       0.008
       0.008
       0.005
       0.005
       0.006
       0.010
       0.015
       0.018
       0.016
       0.010
       0.003
       0.000
       0.001
       0.003
       0.006
       0.007
       0.004
      -0.001
      -0.004
      -0.003
      -0.002
      -0.002
      -0.002
      -0.001
       0.000
       0.002
       0.006
       0.009
       0.009
       0.006
       0.006
       0.007
       0.004
      -0.003
      -0.007
      -0.006
      -0.002
       0.000
      -0.001
      -0.001
       0.001
       0.006
       0.013
       0.016
       0.010
       0.000
      -0.007
      -0.006
      -0.003
      -0.002
      -0.002
      -0.002
      -0.002
      -0.003
      -0.005
      -0.006
      -0.006
      -0.003
       0.000
       0.000
      -0.003
      -0.007
      -0.008
      -0.004
       0.002
       0.006
       0.008
       0.008
       0.007
       0.007
       0.011
       0.016
       0.016
       0.008
      -0.003
      -0.014
      -0.020
      -0.022
      -0.015
      -0.004
       0.006
       0.007
       0.000
      -0.009
      -0.015
      -0.015
      -0.010
      -0.005
      -0.005
      -0.011
      -0.015
      -0.014
      -0.010
      -0.007
      -0.006
      -0.006
      -0.009
      -0.014
      -0.017
      -0.018
      -0.019
      -0.019
      -0.018
      -0.014
      -0.013
      -0.017
      -0.024
      -0.028
      -0.026
      -0.017
      -0.005
       0.004
       0.004
      -0.002
      -0.008
      -0.009
      -0.007
      -0.006
      -0.005
      -0.002
       0.002
       0.005
       0.005
       0.001
      -0.006
      -0.011
      -0.009
       0.000
       0.009
       0.013
       0.013
       0.010
       0.004
      -0.003
      -0.007
      -0.007
      -0.005
      -0.002
       0.004
       0.010
       0.010
       0.005
      -0.002
      -0.005
      -0.004
      -0.001
       0.002
       0.005
       0.006
       0.004
       0.002
       0.000
      -0.001
       0.001
       0.008
       0.016
       0.019
       0.014
       0.004
      -0.007
      -0.015
      -0.017
      -0.012
      -0.001
       0.009
       0.012
       0.006
      -0.006
      -0.019
      -0.027
      -0.021
      -0.006
       0.008
       0.013
       0.010
       0.004
      -0.001
      -0.005
      -0.005
      -0.002
       0.003
       0.007
       0.009
       0.009
       0.008
       0.004
      -0.001
      -0.003
      -0.002
       0.003
       0.008
       0.011
       0.007
       0.000
      -0.004
       0.001
       0.009
       0.015
       0.015
       0.011
       0.006
       0.002
       0.000
       0.001
       0.003
       0.005
       0.007
       0.007
       0.003
      -0.004
      -0.005
       0.003
       0.014
       0.018
       0.014
       0.006
      -0.001
      -0.004
      -0.003
      -0.002
      -0.004
      -0.008
      -0.011
      -0.010
      -0.007
      -0.003
       0.002
       0.008
       0.011
       0.011
       0.009
       0.006
       0.000
      -0.006
      -0.010
      -0.008
      -0.004
      -0.002
      -0.001
      -0.003
      -0.010
      -0.021
      -0.033
      -0.043
      -0.053
      -0.066
      -0.080
      -0.096
      -0.108
      -0.111
      -0.095
      -0.060
      -0.017
       0.018
       0.034
       0.026
      -0.007
      -0.061
      -0.124
      -0.176
      -0.197
      -0.162
      -0.062
       0.079
       0.211
       0.283
       0.282
       0.233
       0.172
       0.131
       0.128
       0.167
       0.235
       0.299
       0.313
       0.252
       0.131
       0.006
      -0.064
      -0.057
      -0.006
       0.036
       0.035
      -0.003
      -0.047
      -0.071
      -0.074
      -0.080
      -0.115
      -0.186
      -0.266
      -0.315
      -0.296
      -0.205
      -0.074
       0.038
       0.089
       0.092
       0.098
       0.148
       0.228
       0.287
       0.283
       0.221
       0.136
       0.062
       0.007
      -0.052
      -0.144
      -0.269
      -0.403
      -0.521
      -0.624
      -0.712
      -0.753
      -0.683
      -0.465
      -0.145
       0.167
       0.378
       0.474
       0.507
       0.525
       0.519
       0.452
       0.309
       0.123
      -0.065
      -0.237
      -0.375
      -0.418
      -0.283
       0.031
       0.393
       0.625
       0.654
       0.569
       0.519
       0.562
       0.618
       0.557
       0.334
       0.033
      -0.209
      -0.309
      -0.274
      -0.174
      -0.078
      -0.031
      -0.034
      -0.050
      -0.033
       0.043
       0.154
       0.239
       0.223
       0.073
      -0.175
      -0.431
      -0.614
      -0.699
      -0.718
      -0.715
      -0.712
      -0.698
      -0.649
      -0.563
      -0.461
      -0.359
      -0.244
      -0.095
       0.072
       0.210
       0.295
       0.356
       0.426
       0.481
       0.459
       0.348
       0.220
       0.173
       0.230
       0.328
       0.399
       0.434
       0.471
       0.520
       0.541
       0.487
       0.364
       0.235
       0.149
       0.084
      -0.021
      -0.194
      -0.379
      -0.483
      -0.456
      -0.326
      -0.167
      -0.047
      -0.002
      -0.027
      -0.081
      -0.103
      -0.058
       0.045
       0.167
       0.279
       0.372
       0.427
       0.402
       0.270
       0.061
      -0.152
      -0.317
      -0.436
      -0.521
      -0.554
      -0.505
      -0.396
      -0.300
      -0.271
      -0.289
      -0.279
      -0.192
      -0.056
       0.046
       0.049
      -0.035
      -0.135
      -0.187
      -0.181
      -0.136
      -0.058
       0.073
       0.265
       0.478
       0.630
       0.650
       0.532
       0.338
       0.154
       0.032
      -0.025
      -0.037
      -0.014
       0.036
       0.087
       0.103
       0.066
       0.003
      -0.037
      -0.020
       0.054
       0.145
       0.196
       0.162
       0.048
      -0.084
      -0.167
      -0.189
      -0.193
      -0.215
      -0.236
      -0.197
      -0.075
       0.080
       0.184
       0.199
       0.174
       0.188
       0.268
       0.363
       0.395
       0.335
       0.219
       0.099
      -0.013
      -0.145
      -0.313
      -0.476
      -0.557
      -0.510
      -0.368
      -0.201
      -0.041
       0.130
       0.318
       0.465
       0.470
       0.293
       0.016
      -0.187
      -0.188
      -0.033
       0.076
      -0.028
      -0.309
      -0.558
      -0.599
      -0.448
      -0.265
      -0.180
      -0.183
      -0.172
      -0.078
       0.069
       0.198
       0.276
       0.317
       0.318
       0.247
       0.102
      -0.034
      -0.062
       0.018
       0.085
       0.008
      -0.209
      -0.420
      -0.463
      -0.300
      -0.049
       0.116
       0.117
       0.016
      -0.056
      -0.017
       0.106
       0.218
       0.242
       0.182
       0.121
       0.152
       0.291
       0.446
       0.493
       0.387
       0.205
       0.070
       0.059
       0.153
       0.274
       0.347
       0.347
       0.289
       0.197
       0.079
      -0.050
      -0.155
      -0.189
      -0.141
      -0.044
       0.059
       0.147
       0.220
       0.274
       0.277
       0.175
      -0.054
      -0.358
      -0.611
      -0.719
      -0.702
      -0.674
      -0.715
      -0.787
      -0.784
      -0.671
      -0.529
      -0.458
      -0.458
      -0.421
      -0.242
       0.063
       0.363
       0.523
       0.516
       0.431
       0.377
       0.381
       0.391
       0.356
       0.299
       0.294
       0.365
       0.436
       0.397
       0.218
      -0.021
      -0.209
      -0.305
      -0.344
      -0.372
      -0.394
      -0.372
      -0.258
      -0.033
       0.278
       0.597
       0.831
       0.920
       0.866
       0.713
       0.509
       0.290
       0.093
      -0.026
      -0.027
       0.068
       0.173
       0.185
       0.060
      -0.164
      -0.402
      -0.587
      -0.704
      -0.776
      -0.822
      -0.832
      -0.788
      -0.695
      -0.599
      -0.548
      -0.541
      -0.520
      -0.420
      -0.232
      -0.019
       0.135
       0.206
       0.255
       0.368
       0.555
       0.705
       0.669
       0.417
       0.120
       0.021
       0.215
       0.541
       0.717
       0.600
       0.308
       0.097
       0.096
       0.189
       0.139
      -0.163
      -0.594
      -0.914
      -0.995
      -0.907
      -0.806
      -0.771
      -0.744
      -0.619
      -0.344
       0.051
       0.507
       0.972
       1.395
       1.700
       1.814
       1.732
       1.546
       1.390
       1.348
       1.397
       1.451
       1.439
       1.353
       1.239
       1.139
       1.035
       0.853
       0.529
       0.078
      -0.418
      -0.883
      -1.294
      -1.651
      -1.930
      -2.069
      -2.021
      -1.825
      -1.629
      -1.621
      -1.896
      -2.362
      -2.794
      -2.986
      -2.881
      -2.557
      -2.114
      -1.580
      -0.934
      -0.204
       0.465
       0.882
       0.964
       0.835
       0.742
       0.843
       1.055
       1.120
       0.865
       0.421
       0.180
       0.478
       1.281
       2.175
       2.691
       2.649
       2.212
       1.635
       1.018
       0.313
      -0.484
      -1.211
      -1.618
      -1.568
      -1.139
      -0.573
      -0.105
       0.172
       0.325
       0.480
       0.691
       0.874
       0.871
       0.584
       0.069
      -0.482
      -0.865
      -0.995
      -0.919
      -0.723
      -0.439
      -0.058
       0.391
       0.779
       0.939
       0.782
       0.362
      -0.161
      -0.621
      -0.917
      -1.001
      -0.849
      -0.464
       0.079
       0.624
       1.001
       1.129
       1.044
       0.827
       0.532
       0.177
      -0.187
      -0.448
      -0.492
      -0.318
      -0.055
       0.133
       0.187
       0.194
       0.287
       0.512
       0.766
       0.882
       0.769
       0.490
       0.205
       0.035
      -0.033
      -0.099
      -0.246
      -0.477
      -0.759
      -1.087
      -1.484
      -1.925
      -2.294
      -2.456
      -2.378
      -2.167
      -1.953
      -1.738
      -1.393
      -0.821
      -0.108
       0.519
       0.906
       1.127
       1.381
       1.753
       2.097
       2.196
       2.024
       1.819
       1.867
       2.215
       2.599
       2.663
       2.250
       1.509
       0.713
       0.017
      -0.623
      -1.305
      -1.993
      -2.490
      -2.587
      -2.250
      -1.649
      -1.036
      -0.568
      -0.227
       0.096
       0.454
       0.758
       0.859
       0.719
       0.484
       0.390
       0.564
       0.927
       1.266
       1.423
       1.393
       1.284
       1.167
       0.995
       0.650
       0.083
      -0.589
      -1.139
      -1.393
      -1.375
      -1.281
      -1.301
      -1.460
      -1.607
      -1.557
      -1.246
      -0.766
      -0.277
       0.125
       0.448
       0.715
       0.853
       0.717
       0.252
      -0.385
      -0.902
      -1.100
      -1.012
      -0.835
      -0.720
      -0.641
      -0.462
      -0.110
       0.330
       0.695
       0.883
       0.903
       0.811
       0.630
       0.378
       0.122
      -0.019
       0.020
       0.174
       0.278
       0.210
       0.000
      -0.211
      -0.310
      -0.307
      -0.299
      -0.343
      -0.388
      -0.332
      -0.136
       0.148
       0.431
       0.659
       0.834
       0.968
       1.051
       1.059
       0.993
       0.900
       0.846
       0.856
       0.876
       0.818
       0.634
       0.364
       0.103
      -0.081
      -0.202
      -0.336
      -0.550
      -0.846
      -1.182
      -1.503
      -1.751
      -1.838
      -1.683
      -1.276
      -0.721
      -0.193
       0.161
       0.308
       0.323
       0.323
       0.370
       0.432
       0.419
       0.282
       0.062
      -0.138
      -0.226
      -0.173
      -0.009
       0.195
       0.352
       0.387
       0.262
      -0.011
      -0.363
      -0.691
      -0.901
      -0.945
      -0.839
      -0.628
      -0.355
      -0.044
       0.285
       0.604
       0.869
       1.021
       1.010
       0.848
       0.618
       0.444
       0.409
       0.509
       0.655
       0.724
       0.633
       0.398
       0.121
      -0.077
      -0.144
      -0.097
       0.029
       0.214
       0.442
       0.667
       0.833
       0.921
       0.961
       0.990
       0.987
       0.876
       0.606
       0.219
      -0.173
      -0.482
      -0.707
      -0.880
      -0.991
      -0.989
      -0.874
      -0.756
      -0.780
      -0.988
      -1.251
      -1.368
      -1.241
      -0.954
      -0.680
      -0.529
      -0.480
      -0.460
      -0.441
      -0.454
      -0.525
      -0.627
      -0.697
      -0.692
      -0.617
      -0.514
      -0.433
      -0.406
      -0.428
      -0.466
      -0.477
      -0.442
      -0.373
      -0.285
      -0.156
       0.070
       0.423
       0.842
       1.191
       1.362
       1.364
       1.308
       1.304
       1.366
       1.436
       1.459
       1.442
       1.423
       1.415
       1.384
       1.280
       1.093
       0.852
       0.590
       0.313
       0.024
      -0.253
      -0.472
      -0.612
      -0.679
      -0.678
      -0.594
      -0.429
      -0.244
      -0.147
      -0.218
      -0.454
      -0.777
      -1.093
      -1.338
      -1.472
      -1.467
      -1.321
      -1.081
      -0.833
      -0.635
      -0.480
      -0.317
      -0.116
       0.102
       0.302
       0.478
       0.650
       0.816
       0.936
       0.955
       0.850
       0.653
       0.436
       0.270
       0.180
       0.137
       0.082
      -0.030
      -0.187
      -0.321
      -0.363
      -0.308
      -0.222
      -0.177
      -0.176
      -0.156
      -0.063
       0.086
       0.224
       0.308
       0.353
       0.409
       0.500
       0.592
       0.624
       0.557
       0.403
       0.198
      -0.028
      -0.248
      -0.423
      -0.528
      -0.583
      -0.654
      -0.796
      -0.986
      -1.128
      -1.129
      -0.970
      -0.720
      -0.475
      -0.282
      -0.114
       0.079
       0.311
       0.540
       0.697
       0.745
       0.707
       0.650
       0.645
       0.721
       0.848
       0.954
       0.976
       0.910
       0.823
       0.806
       0.886
       0.980
       0.950
       0.721
       0.359
       0.020
      -0.181
      -0.252
      -0.290
      -0.375
      -0.512
      -0.659
      -0.798
      -0.950
      -1.130
      -1.291
      -1.348
      -1.253
      -1.049
      -0.837
      -0.686
