Origin Time       30/05/2014 06:37:50
Lat.              26.5 N	
Long.             90.4 E	
Depth (Km)         10.0
Magnitude         4.5
 Region           Kokhrajhar-Assam                                                 
 Above details taken from IMD 
   
Station Code      BAR
Station Lat.       26.332
Station Long.      91.006
Station Height(m)   47.0
Site Class        C   Vs30 between 200 m/sec to 375 m/sec *  
Record Time       30.05.2014 06:36:38.044
Sampling Rate     200. Hz
 Record Duration   80.750 Sec.
 Direction         Vert. (Up positive)
Max. Acceleration      2.838 cm/sec**2
     
  * For reference see Site Classification link of website 
     
 Base Line Corrected and Low Pass Filtered (Cut Off at 35 Hz) Time History
 Acceleration data in cm/sec**2
    
[...]
      -0.876
      -0.775
      -0.458
      -0.283
      -0.333
      -0.360
      -0.100
       0.424
       0.941
       1.225
       1.263
       1.138
       0.846
       0.332
      -0.335
      -0.920
      -1.197
      -1.144
      -0.921
      -0.693
      -0.515
      -0.346
      -0.146
       0.083
       0.288
       0.379
       0.260
      -0.086
      -0.532
      -0.848
      -0.853
      -0.552
      -0.144
       0.104
       0.026
      -0.330
      -0.713
      -0.830
      -0.547
       0.006
       0.527
       0.768
       0.733
       0.657
       0.777
       1.098
       1.372
       1.301
       0.793
       0.033
      -0.646
      -0.975
      -0.900
      -0.585
      -0.288
      -0.165
      -0.168
      -0.121
       0.063
       0.272
       0.314
       0.142
      -0.089
      -0.168
      -0.023
       0.246
       0.498
       0.658
       0.714
       0.637
       0.385
      -0.027
      -0.474
      -0.788
      -0.884
      -0.805
      -0.665
      -0.557
      -0.506
      -0.460
      -0.321
      -0.017
       0.394
       0.696
       0.639
       0.166
      -0.503
      -1.014
      -1.132
      -0.869
      -0.401
       0.110
       0.598
       1.034
       1.355
       1.468
       1.322
       0.959
       0.497
       0.067
      -0.236
      -0.400
      -0.477
      -0.518
      -0.496
      -0.310
       0.100
       0.637
       1.078
       1.219
       1.029
       0.640
       0.236
      -0.056
      -0.197
      -0.239
      -0.307
      -0.530
      -0.920
      -1.313
      -1.454
      -1.215
      -0.711
      -0.218
       0.040
       0.039
      -0.074
      -0.129
      -0.060
       0.071
       0.137
       0.060
      -0.106
      -0.195
      -0.067
       0.251
       0.573
       0.732
       0.728
       0.675
       0.627
       0.494
       0.181
      -0.259
      -0.650
      -0.868
      -0.944
      -0.946
      -0.843
      -0.525
       0.008
       0.559
       0.868
       0.842
       0.624
       0.447
       0.440
       0.550
       0.625
       0.534
       0.255
      -0.096
      -0.326
      -0.288
      -0.003
       0.324
       0.436
       0.229
      -0.164
      -0.470
      -0.487
      -0.210
       0.189
       0.492
       0.564
       0.385
       0.023
      -0.430
      -0.888
      -1.260
      -1.453
      -1.405
      -1.123
      -0.685
      -0.199
       0.240
       0.571
       0.777
       0.900
       1.013
       1.151
       1.227
       1.073
       0.609
      -0.025
      -0.522
      -0.655
      -0.495
      -0.361
      -0.536
      -1.007
      -1.464
      -1.563
      -1.199
      -0.559
       0.072
       0.552
       0.944
       1.357
       1.742
       1.885
       1.596
       0.917
       0.109
      -0.559
      -1.030
      -1.455
      -1.963
      -2.440
      -2.547
      -2.014
      -0.926
       0.276
       1.122
       1.467
       1.530
       1.621
       1.847
       2.064
       2.079
       1.818
       1.343
       0.746
       0.104
      -0.486
      -0.904
      -1.056
      -0.953
      -0.697
      -0.419
      -0.225
      -0.162
      -0.209
      -0.279
      -0.269
      -0.165
      -0.091
      -0.207
      -0.505
      -0.727
      -0.556
       0.075
       0.848
       1.281
       1.110
       0.489
      -0.173
      -0.555
      -0.626
      -0.564
      -0.529
      -0.525
      -0.451
      -0.240
       0.067
       0.346
       0.482
       0.436
       0.267
       0.082
      -0.043
      -0.128
      -0.244
      -0.431
      -0.642
      -0.786
      -0.794
      -0.654
      -0.394
      -0.069
       0.258
       0.534
       0.738
       0.871
       0.930
       0.894
       0.755
       0.556
       0.371
       0.248
       0.149
      -0.019
      -0.316
      -0.697
      -1.032
      -1.167
      -1.003
      -0.535
       0.110
       0.683
       0.919
       0.721
       0.255
      -0.169
      -0.347
      -0.307
      -0.200
      -0.098
       0.054
       0.319
       0.646
       0.885
       0.917
       0.731
       0.400
       0.012
      -0.363
      -0.654
      -0.788
      -0.729
      -0.507
      -0.189
       0.154
       0.463
       0.670
       0.693
       0.489
       0.102
      -0.324
      -0.631
      -0.756
      -0.776
      -0.834
      -0.977
      -1.076
      -0.920
      -0.444
       0.146
       0.505
       0.444
       0.105
      -0.174
      -0.175
       0.032
       0.199
       0.167
      -0.003
      -0.120
      -0.050
       0.187
       0.453
       0.611
       0.617
       0.522
       0.417
       0.374
       0.432
       0.609
       0.880
       1.155
       1.275
       1.087
       0.546
      -0.239
      -1.066
      -1.766
      -2.261
      -2.509
      -2.444
      -2.031
      -1.359
      -0.628
       0.004
       0.520
       0.959
       1.252
       1.248
       0.938
       0.585
       0.538
       0.873
       1.259
       1.227
       0.610
      -0.284
      -0.910
      -0.930
      -0.453
       0.092
       0.317
       0.142
      -0.201
      -0.395
      -0.288
       0.019
       0.267
       0.256
      -0.004
      -0.298
      -0.381
      -0.148
       0.327
       0.874
       1.305
       1.458
       1.248
       0.740
       0.162
      -0.218
      -0.276
      -0.117
       0.030
       0.005
      -0.166
      -0.318
      -0.308
      -0.139
       0.040
       0.053
      -0.179
      -0.580
      -0.968
      -1.166
      -1.114
      -0.882
      -0.605
      -0.386
      -0.274
      -0.289
      -0.396
      -0.465
      -0.338
       0.009
       0.368
       0.437
       0.101
      -0.418
      -0.710
      -0.506
       0.108
       0.755
       1.049
       0.850
       0.349
      -0.077
      -0.120
       0.269
       0.857
       1.312
       1.430
       1.257
       0.992
       0.783
       0.616
       0.386
       0.044
      -0.348
      -0.667
      -0.809
      -0.727
      -0.445
      -0.081
       0.172
       0.142
      -0.182
      -0.612
      -0.885
      -0.858
      -0.606
      -0.311
      -0.081
       0.124
       0.365
       0.561
       0.513
       0.116
      -0.448
      -0.813
      -0.748
      -0.393
      -0.138
      -0.249
      -0.603
      -0.823
      -0.671
      -0.274
       0.034
       0.067
      -0.071
      -0.163
      -0.131
      -0.051
       0.027
       0.187
       0.531
       0.994
       1.326
       1.283
       0.858
       0.314
      -0.002
       0.060
       0.329
       0.470
       0.288
      -0.089
      -0.336
      -0.254
       0.027
       0.175
       0.010
      -0.304
      -0.414
      -0.135
       0.368
       0.759
       0.851
       0.740
       0.633
       0.605
       0.521
       0.186
      -0.453
      -1.229
      -1.832
      -1.974
      -1.565
      -0.785
      -0.010
       0.399
       0.330
      -0.020
      -0.310
      -0.317
      -0.072
       0.236
       0.468
       0.641
       0.848
       1.078
       1.165
       0.937
       0.417
      -0.146
      -0.465
      -0.450
      -0.268
      -0.179
      -0.315
      -0.610
      -0.888
      -1.008
      -0.912
      -0.620
      -0.217
       0.145
       0.304
       0.211
      -0.001
      -0.124
      -0.069
       0.066
       0.152
       0.198
       0.314
       0.524
       0.695
       0.671
       0.455
       0.204
       0.069
       0.077
       0.169
       0.296
       0.434
       0.534
       0.523
       0.374
       0.169
       0.028
      -0.015
      -0.067
      -0.271
      -0.672
      -1.181
      -1.626
      -1.832
      -1.675
      -1.163
      -0.486
       0.079
       0.365
       0.454
       0.575
       0.854
       1.174
       1.290
       1.073
       0.619
       0.141
      -0.206
      -0.380
      -0.395
      -0.266
      -0.031
       0.215
       0.346
       0.277
       0.035
      -0.262
      -0.476
      -0.525
      -0.408
      -0.176
       0.105
       0.386
       0.627
       0.796
       0.868
       0.827
       0.663
       0.388
       0.058
      -0.233
      -0.412
      -0.490
      -0.540
      -0.613
      -0.684
      -0.684
      -0.576
      -0.372
      -0.097
       0.230
       0.549
       0.751
       0.747
       0.571
       0.368
       0.271
       0.282
       0.263
       0.062
      -0.366
      -0.917
      -1.393
      -1.601
      -1.438
      -0.956
      -0.354
       0.111
       0.288
       0.247
       0.203
       0.307
       0.490
       0.532
       0.308
      -0.053
      -0.258
      -0.123
       0.243
       0.519
       0.477
       0.203
       0.014
       0.132
       0.456
       0.666
       0.558
       0.263
       0.114
       0.315
       0.716
       0.920
       0.614
      -0.157
      -1.007
      -1.477
      -1.361
      -0.839
      -0.324
      -0.139
      -0.283
      -0.467
      -0.404
      -0.072
       0.285
       0.400
       0.229
      -0.041
      -0.201
      -0.208
      -0.171
      -0.194
      -0.258
      -0.255
      -0.100
       0.185
       0.476
       0.627
       0.565
       0.345
       0.118
       0.023
       0.077
       0.169
       0.177
       0.093
       0.024
       0.083
       0.267
       0.455
       0.516
       0.422
       0.265
       0.178
       0.236
       0.400
       0.539
       0.516
       0.278
      -0.101
      -0.460
      -0.663
      -0.696
      -0.657
      -0.641
      -0.638
      -0.565
      -0.380
      -0.162
      -0.035
      -0.028
      -0.017
       0.155
       0.509
       0.881
       1.037
       0.848
       0.374
      -0.191
      -0.668
      -1.005
      -1.257
      -1.464
      -1.547
      -1.345
      -0.774
       0.039
       0.798
       1.221
       1.214
       0.897
       0.485
       0.126
      -0.167
      -0.461
      -0.785
      -1.057
      -1.119
      -0.850
      -0.280
       0.399
       0.943
       1.217
       1.271
       1.265
       1.310
       1.376
       1.325
       1.027
       0.460
      -0.262
      -0.908
      -1.236
      -1.145
      -0.779
      -0.446
      -0.368
      -0.491
      -0.556
      -0.360
       0.028
       0.326
       0.300
      -0.044
      -0.485
      -0.781
      -0.824
      -0.638
      -0.304
       0.115
       0.579
       1.031
       1.374
       1.490
       1.300
       0.845
       0.292
      -0.157
      -0.392
      -0.434
      -0.362
      -0.218
      -0.012
       0.211
       0.334
       0.255
      -0.006
      -0.308
      -0.516
      -0.622
      -0.730
      -0.912
      -1.118
      -1.199
      -1.037
      -0.647
      -0.177
       0.193
       0.366
       0.376
       0.365
       0.488
       0.806
       1.217
       1.492
       1.422
       1.004
       0.476
       0.161
       0.210
       0.473
       0.612
       0.377
      -0.178
      -0.736
      -0.977
      -0.846
      -0.559
      -0.380
      -0.392
      -0.484
      -0.519
      -0.461
      -0.366
      -0.280
      -0.185
      -0.027
       0.212
       0.466
       0.599
       0.514
       0.251
      -0.001
      -0.047
       0.123
       0.265
       0.055
      -0.592
      -1.370
      -1.775
      -1.541
      -0.897
      -0.371
      -0.293
      -0.492
      -0.495
      -0.040
       0.651
       1.097
       1.043
       0.707
       0.546
       0.816
       1.337
       1.671
       1.504
       0.882
       0.133
      -0.401
      -0.584
      -0.525
      -0.456
      -0.540
      -0.750
      -0.875
      -0.685
      -0.152
       0.473
       0.841
       0.811
       0.581
       0.478
       0.631
       0.854
       0.874
       0.626
       0.301
       0.115
       0.070
      -0.047
      -0.445
      -1.123
      -1.852
      -2.318
      -2.303
      -1.817
      -1.118
      -0.552
      -0.303
      -0.249
      -0.109
       0.236
       0.599
       0.676
       0.366
      -0.114
      -0.422
      -0.352
       0.060
       0.610
       1.060
       1.266
       1.243
       1.123
       1.027
       0.939
       0.741
       0.390
       0.041
      -0.047
       0.214
       0.603
       0.741
       0.429
      -0.188
      -0.766
      -1.067
      -1.093
      -0.976
      -0.798
      -0.538
      -0.166
       0.259
       0.579
       0.640
       0.409
       0.018
      -0.329
      -0.496
      -0.496
      -0.424
      -0.346
      -0.244
      -0.082
       0.121
       0.295
       0.391
       0.410
       0.364
       0.215
      -0.104
      -0.575
      -1.018
      -1.188
      -0.977
      -0.539
      -0.192
      -0.168
      -0.421
      -0.665
      -0.589
      -0.109
       0.558
       1.042
       1.105
       0.824
       0.520
       0.479
       0.721
       1.001
       1.057
       0.836
       0.525
       0.359
       0.404
       0.513
       0.482
       0.237
      -0.120
      -0.438
      -0.662
      -0.850
      -1.060
      -1.228
      -1.197
      -0.858
      -0.269
       0.359
       0.790
       0.880
       0.610
       0.084
      -0.489
      -0.852
      -0.841
      -0.518
      -0.164
      -0.066
      -0.276
      -0.544
      -0.517
      -0.024
       0.781
       1.545
       1.962
       1.947
       1.615
       1.125
       0.525
      -0.237
      -1.166
      -2.078
      -2.643
      -2.608
      -2.008
      -1.133
      -0.280
       0.469
       1.202
       1.959
       2.587
       2.838
       2.573
       1.866
       0.932
      -0.019
      -0.856
      -1.513
      -1.937
      -2.071
      -1.880
      -1.397
      -0.745
      -0.108
       0.347
       0.551
       0.575
       0.549
       0.546
       0.511
       0.338
      -0.008
      -0.436
      -0.805
      -1.000
      -0.959
      -0.658
      -0.131
       0.489
       0.984
       1.175
       1.049
       0.758
       0.478
       0.266
       0.058
      -0.205
      -0.463
      -0.574
      -0.457
      -0.189
       0.070
       0.214
       0.267
       0.311
       0.372
       0.397
       0.334
       0.208
       0.100
       0.051
       0.007
      -0.142
      -0.470
      -0.931
      -1.333
      -1.423
      -1.054
      -0.333
       0.394
       0.774
       0.700
       0.385
       0.161
       0.194
       0.367
       0.426
       0.239
      -0.086
      -0.315
      -0.320
      -0.178
      -0.072
      -0.097
      -0.176
      -0.144
       0.070
       0.358
       0.533
       0.506
       0.378
       0.331
       0.431
       0.535
       0.422
       0.012
      -0.529
      -0.891
      -0.860
      -0.476
       0.011
       0.356
       0.502
       0.563
       0.642
       0.668
       0.416
      -0.267
      -1.213
      -1.939
      -1.960
      -1.180
      -0.001
       0.984
       1.415
       1.348
       1.072
       0.798
       0.520
       0.129
      -0.402
      -0.938
      -1.289
      -1.355
      -1.178
      -0.872
      -0.526
      -0.163
       0.223
       0.617
       0.952
       1.129
       1.095
       0.898
       0.664
       0.505
       0.422
       0.316
       0.071
      -0.335
      -0.789
      -1.110
      -1.177
      -1.008
      -0.715
      -0.384
      -0.010
       0.442
       0.914
       1.236
       1.234
       0.892
       0.394
       0.012
      -0.086
       0.052
       0.223
       0.233
       0.037
      -0.237
      -0.396
      -0.342
      -0.165
      -0.079
      -0.236
      -0.575
      -0.855
      -0.853
      -0.545
      -0.120
       0.182
       0.259
       0.187
       0.118
       0.154
       0.284
       0.404
       0.377
       0.130
      -0.256
      -0.573
      -0.636
      -0.445
      -0.176
      -0.016
      -0.015
      -0.090
      -0.133
      -0.076
       0.111
       0.425
       0.784
       1.017
       0.958
       0.590
       0.087
      -0.312
      -0.488
      -0.509
      -0.527
      -0.629
      -0.782
      -0.887
      -0.857
      -0.677
      -0.393
      -0.070
       0.262
       0.596
       0.898
       1.064
       0.980
       0.651
       0.259
       0.051
       0.113
       0.278
       0.279
       0.018
      -0.335
      -0.519
      -0.434
      -0.217
      -0.062
      -0.028
       0.001
       0.163
       0.469
       0.772
       0.890
       0.764
       0.487
       0.195
      -0.071
      -0.350
      -0.632
      -0.782
      -0.675
      -0.391
      -0.227
      -0.438
      -0.950
      -1.354
      -1.250
      -0.617
       0.154
       0.614
       0.645
       0.504
       0.519
       0.765
       1.026
       1.012
       0.606
      -0.053
      -0.655
      -0.917
      -0.761
      -0.366
      -0.031
       0.065
      -0.011
      -0.047
       0.089
       0.333
       0.518
       0.539
       0.426
       0.266
       0.104
      -0.075
      -0.297
      -0.563
      -0.851
      -1.118
      -1.281
      -1.251
      -0.999
      -0.600
      -0.167
       0.244
       0.650
       1.072
       1.472
       1.769
       1.900
       1.845
       1.626
       1.287
       0.876
       0.433
      -0.008
      -0.417
      -0.773
      -1.078
      -1.351
      -1.588
      -1.728
      -1.678
      -1.406
      -1.006
      -0.641
      -0.395
      -0.186
       0.149
       0.633
       1.041
       1.059
       0.606
      -0.024
      -0.394
      -0.317
      -0.003
       0.187
       0.095
      -0.132
      -0.267
      -0.244
      -0.176
      -0.177
      -0.232
      -0.226
      -0.069
       0.231
       0.578
       0.850
       0.967
       0.938
       0.846
       0.775
       0.723
       0.605
       0.344
      -0.032
      -0.408
      -0.669
      -0.782
      -0.767
      -0.629
      -0.364
      -0.029
       0.216
       0.202
      -0.099
      -0.526
      -0.840
      -0.889
      -0.696
      -0.413
      -0.179
      -0.005
       0.209
       0.535
       0.887
       1.063
       0.944
       0.633
       0.384
       0.363
       0.495
       0.547
       0.372
       0.044
      -0.230
      -0.335
      -0.353
      -0.451
      -0.683
      -0.907
      -0.907
      -0.587
      -0.057
       0.450
       0.738
       0.763
       0.620
       0.433
       0.247
       0.009
      -0.327
      -0.697
      -0.949
      -0.981
      -0.837
      -0.653
      -0.513
      -0.379
      -0.180
       0.061
       0.214
       0.179
       0.011
      -0.109
      -0.037
       0.197
       0.423
       0.475
       0.331
       0.109
      -0.035
      -0.021
       0.120
       0.302
       0.458
       0.591
       0.752
       0.960
       1.130
       1.108
       0.794
       0.250
      -0.317
      -0.697
      -0.822
      -0.775
      -0.683
      -0.613
      -0.558
      -0.493
      -0.414
      -0.349
      -0.333
      -0.383
      -0.451
      -0.433
      -0.241
       0.104
       0.458
       0.666
       0.694
       0.640
       0.606
       0.577
       0.441
       0.139
      -0.223
      -0.438
      -0.383
      -0.153
       0.006
      -0.097
      -0.422
      -0.746
      -0.876
      -0.834
      -0.815
      -0.952
      -1.140
      -1.108
      -0.681
       0.035
       0.750
       1.239
       1.494
       1.624
