Origin Time       16/4/2013 01:23:19	
Lat.              26.3 N	
Long.             92.0 E	
Depth (Km)         16.0
Magnitude         4.6
 Region           Assam-Darrang                                                    
 Above details taken from IMD 
     
Station Code      BAR
Station Lat.       26.332  N
Station Long.      91.006  E
Station Height(m)   47.0
Site Class        C   Vs30 between 200 m/sec to 375 m/sec *  
Record Time       16.04.2013 01:23:24.404
Sampling Rate     200. Hz
 Record Duration   93.255 Sec.
 Direction         E-W (E positive)
Max. Acceleration     -5.420 cm/sec**2
     
  * For reference see Site Classification link of website 
     
 Base Line Corrected and Low Pass Filtered (Cut Off at 35 Hz) Time History
 Acceleration data in cm/sec**2
    
[...]
       1.903
       1.846
       1.731
       1.573
       1.395
       1.228
       1.108
       1.054
       1.062
       1.109
       1.173
       1.244
       1.317
       1.384
       1.425
       1.414
       1.336
       1.200
       1.036
       0.878
       0.741
       0.609
       0.452
       0.249
       0.012
      -0.223
      -0.412
      -0.533
      -0.597
      -0.635
      -0.685
      -0.774
      -0.909
      -1.077
      -1.248
      -1.381
      -1.444
      -1.431
      -1.373
      -1.318
      -1.302
      -1.332
      -1.373
      -1.376
      -1.294
      -1.106
      -0.815
      -0.445
      -0.024
       0.427
       0.890
       1.335
       1.722
       2.013
       2.194
       2.278
       2.296
       2.267
       2.197
       2.076
       1.898
       1.666
       1.391
       1.089
       0.772
       0.452
       0.138
      -0.159
      -0.431
      -0.670
      -0.861
      -0.994
      -1.072
      -1.122
      -1.187
      -1.296
      -1.439
      -1.574
      -1.645
      -1.624
      -1.516
      -1.350
      -1.147
      -0.906
      -0.619
      -0.287
       0.061
       0.381
       0.633
       0.795
       0.866
       0.852
       0.769
       0.634
       0.477
       0.332
       0.227
       0.159
       0.094
      -0.020
      -0.222
      -0.514
      -0.863
      -1.216
      -1.528
      -1.765
      -1.907
      -1.942
      -1.866
      -1.677
      -1.380
      -0.989
      -0.535
      -0.072
       0.340
       0.661
       0.888
       1.050
       1.193
       1.346
       1.503
       1.630
       1.685
       1.646
       1.522
       1.349
       1.168
       1.014
       0.904
       0.838
       0.786
       0.700
       0.535
       0.274
      -0.052
      -0.388
      -0.671
      -0.856
      -0.919
      -0.858
      -0.687
      -0.438
      -0.154
       0.118
       0.338
       0.476
       0.525
       0.494
       0.413
       0.321
       0.254
       0.229
       0.242
       0.269
       0.287
       0.280
       0.244
       0.185
       0.100
      -0.019
      -0.186
      -0.403
      -0.651
      -0.886
      -1.052
      -1.101
      -1.012
      -0.798
      -0.500
      -0.178
       0.112
       0.335
       0.467
       0.501
       0.440
       0.305
       0.139
      -0.010
      -0.108
      -0.143
      -0.133
      -0.109
      -0.100
      -0.123
      -0.178
      -0.257
      -0.357
      -0.488
      -0.656
      -0.846
      -1.020
      -1.133
      -1.169
      -1.141
      -1.078
      -0.999
      -0.899
      -0.757
      -0.560
      -0.314
      -0.045
       0.218
       0.463
       0.693
       0.921
       1.156
       1.396
       1.625
       1.813
       1.925
       1.926
       1.795
       1.528
       1.150
       0.707
       0.261
      -0.130
      -0.430
      -0.634
      -0.766
      -0.869
      -0.987
      -1.147
      -1.351
      -1.572
      -1.765
      -1.877
      -1.872
      -1.742
      -1.504
      -1.190
      -0.831
      -0.458
      -0.104
       0.190
       0.393
       0.499
       0.538
       0.559
       0.598
       0.650
       0.671
       0.616
       0.483
       0.337
       0.276
       0.373
       0.631
       0.983
       1.337
       1.620
       1.800
       1.877
       1.868
       1.798
       1.694
       1.586
       1.505
       1.473
       1.495
       1.567
       1.673
       1.797
       1.915
       1.994
       1.990
       1.865
       1.599
       1.208
       0.745
       0.275
      -0.156
      -0.545
      -0.915
      -1.292
      -1.670
      -2.021
      -2.315
      -2.551
      -2.758
      -2.974
      -3.208
      -3.425
      -3.564
      -3.563
      -3.389
      -3.046
      -2.570
      -2.018
      -1.456
      -0.943
      -0.511
      -0.169
       0.093
       0.297
       0.467
       0.623
       0.769
       0.886
       0.941
       0.898
       0.736
       0.464
       0.121
      -0.235
      -0.553
      -0.800
      -0.961
      -1.027
      -0.983
      -0.816
      -0.536
      -0.181
       0.188
       0.504
       0.726
       0.860
       0.946
       1.030
       1.133
       1.238
       1.315
       1.344
       1.326
       1.274
       1.205
       1.131
       1.059
       1.000
       0.951
       0.897
       0.810
       0.670
       0.488
       0.292
       0.098
      -0.111
      -0.362
      -0.654
      -0.926
      -1.080
      -1.035
      -0.771
      -0.348
       0.122
       0.520
       0.760
       0.819
       0.734
       0.579
       0.424
       0.314
       0.253
       0.225
       0.212
       0.201
       0.186
       0.148
       0.061
      -0.086
      -0.277
      -0.455
      -0.545
      -0.500
      -0.330
      -0.098
       0.119
       0.280
       0.384
       0.447
       0.478
       0.470
       0.421
       0.345
       0.270
       0.224
       0.218
       0.239
       0.250
       0.196
       0.024
      -0.299
      -0.767
      -1.315
      -1.834
      -2.209
      -2.366
      -2.294
      -2.036
      -1.659
      -1.242
      -0.869
      -0.633
      -0.600
      -0.770
      -1.055
      -1.307
      -1.375
      -1.173
      -0.695
      -0.005
       0.811
       1.668
       2.489
       3.194
       3.698
       3.924
       3.833
       3.446
       2.840
       2.122
       1.396
       0.744
       0.216
      -0.169
      -0.434
      -0.640
      -0.870
      -1.200
      -1.668
      -2.254
      -2.883
      -3.449
      -3.844
      -3.978
      -3.784
      -3.233
      -2.351
      -1.237
      -0.059
       0.998
       1.788
       2.251
       2.420
       2.387
       2.254
       2.093
       1.931
       1.766
       1.591
       1.404
       1.209
       0.992
       0.723
       0.367
      -0.086
      -0.607
      -1.116
      -1.499
      -1.649
      -1.514
      -1.112
      -0.531
       0.117
       0.729
       1.240
       1.622
       1.877
       2.018
       2.055
       1.988
       1.816
       1.557
       1.254
       0.963
       0.719
       0.518
       0.316
       0.068
      -0.240
      -0.577
      -0.888
      -1.133
      -1.316
      -1.482
      -1.693
      -1.992
      -2.384
      -2.832
      -3.266
      -3.598
      -3.746
      -3.649
      -3.284
      -2.664
      -1.826
      -0.824
       0.273
       1.369
       2.347
       3.094
       3.548
       3.717
       3.668
       3.482
       3.219
       2.905
       2.551
       2.162
       1.739
       1.275
       0.758
       0.188
      -0.407
      -0.961
      -1.378
      -1.580
      -1.548
      -1.337
      -1.046
      -0.769
      -0.556
      -0.420
      -0.347
      -0.306
      -0.247
      -0.114
       0.130
       0.485
       0.900
       1.288
       1.550
       1.603
       1.408
       0.975
       0.365
      -0.318
      -0.948
      -1.416
      -1.664
      -1.704
      -1.606
      -1.471
      -1.388
      -1.397
      -1.467
      -1.512
      -1.442
      -1.204
      -0.810
      -0.318
       0.190
       0.622
       0.898
       0.965
       0.809
       0.463
      -0.015
      -0.556
      -1.106
      -1.623
      -2.077
      -2.431
      -2.632
      -2.622
      -2.351
      -1.805
      -1.014
      -0.058
       0.953
       1.890
       2.633
       3.079
       3.172
       2.921
       2.414
       1.795
       1.215
       0.785
       0.546
       0.474
       0.514
       0.618
       0.778
       1.020
       1.356
       1.742
       2.064
       2.175
       1.952
       1.354
       0.433
      -0.680
      -1.825
      -2.857
      -3.682
      -4.268
      -4.621
      -4.756
      -4.663
      -4.312
      -3.691
      -2.836
      -1.846
      -0.847
       0.049
       0.789
       1.380
       1.867
       2.302
       2.716
       3.104
       3.432
       3.643
       3.692
       3.567
       3.299
       2.945
       2.551
       2.130
       1.667
       1.138
       0.549
      -0.052
      -0.590
      -1.005
      -1.282
      -1.452
      -1.557
      -1.618
      -1.623
      -1.540
      -1.345
      -1.040
      -0.657
      -0.241
       0.168
       0.541
       0.856
       1.084
       1.187
       1.131
       0.911
       0.562
       0.146
      -0.271
      -0.632
      -0.892
      -1.007
      -0.945
      -0.718
      -0.403
      -0.133
      -0.046
      -0.228
      -0.665
      -1.244
      -1.801
      -2.187
      -2.319
      -2.183
      -1.796
      -1.180
      -0.362
       0.592
       1.553
       2.343
       2.784
       2.755
       2.230
       1.298
       0.147
      -0.980
      -1.861
      -2.360
      -2.474
      -2.307
      -1.998
      -1.637
      -1.226
      -0.702
      -0.016
       0.787
       1.550
       2.061
       2.156
       1.816
       1.187
       0.511
       0.017
      -0.162
      -0.009
       0.416
       1.016
       1.672
       2.247
       2.597
       2.611
       2.256
       1.607
       0.824
       0.094
      -0.438
      -0.719
      -0.780
      -0.703
      -0.577
      -0.478
      -0.465
      -0.575
      -0.811
      -1.132
      -1.466
      -1.728
      -1.848
      -1.793
      -1.575
      -1.245
      -0.879
      -0.549
      -0.287
      -0.081
       0.122
       0.369
       0.677
       1.005
       1.275
       1.401
       1.326
       1.059
       0.672
       0.284
       0.020
      -0.031
       0.153
       0.514
       0.934
       1.272
       1.410
       1.279
       0.863
       0.203
      -0.603
      -1.417
      -2.094
      -2.536
      -2.725
      -2.710
      -2.568
      -2.355
      -2.081
      -1.716
      -1.226
      -0.608
       0.089
       0.781
       1.377
       1.826
       2.123
       2.304
       2.416
       2.497
       2.553
       2.551
       2.421
       2.086
       1.512
       0.748
      -0.075
      -0.779
      -1.190
      -1.199
      -0.799
      -0.114
       0.634
       1.204
       1.433
       1.291
       0.871
       0.322
      -0.208
      -0.612
      -0.842
      -0.916
      -0.891
      -0.835
      -0.791
      -0.774
      -0.784
      -0.822
      -0.892
      -0.979
      -1.043
      -1.029
      -0.914
      -0.737
      -0.597
      -0.596
      -0.780
      -1.104
      -1.459
      -1.724
      -1.808
      -1.666
      -1.297
      -0.743
      -0.096
       0.515
       0.964
       1.179
       1.169
       1.005
       0.781
       0.571
       0.415
       0.338
       0.375
       0.569
       0.922
       1.366
       1.774
       2.025
       2.074
       1.966
       1.796
       1.644
       1.532
       1.433
       1.307
       1.146
       0.977
       0.835
       0.724
       0.610
       0.446
       0.203
      -0.112
      -0.469
      -0.820
      -1.104
      -1.260
      -1.250
      -1.089
      -0.857
      -0.674
      -0.633
      -0.741
      -0.920
      -1.072
      -1.151
      -1.193
      -1.271
      -1.430
      -1.645
      -1.842
      -1.963
      -2.007
      -2.027
      -2.080
      -2.170
      -2.254
      -2.269
      -2.178
      -1.973
      -1.651
      -1.210
      -0.659
      -0.055
       0.495
       0.873
       1.013
       0.940
       0.770
       0.644
       0.666
       0.856
       1.153
       1.450
       1.644
       1.685
       1.592
       1.432
       1.287
       1.203
       1.176
       1.157
       1.088
       0.942
       0.749
       0.573
       0.463
       0.409
       0.344
       0.205
      -0.006
      -0.202
      -0.260
      -0.096
       0.282
       0.782
       1.277
       1.667
       1.910
       2.014
       2.008
       1.921
       1.779
       1.603
       1.407
       1.180
       0.898
       0.532
       0.073
      -0.467
      -1.061
      -1.661
      -2.201
      -2.597
      -2.781
      -2.728
      -2.486
      -2.158
      -1.858
      -1.655
      -1.554
      -1.513
      -1.483
      -1.437
      -1.370
      -1.284
      -1.177
      -1.037
      -0.862
      -0.665
      -0.465
      -0.264
      -0.038
       0.253
       0.610
       0.963
       1.185
       1.160
       0.858
       0.372
      -0.127
      -0.466
      -0.547
      -0.369
      -0.004
       0.451
       0.909
       1.298
       1.557
       1.634
       1.505
       1.189
       0.762
       0.333
       0.003
      -0.170
      -0.175
      -0.039
       0.192
       0.457
       0.690
       0.833
       0.844
       0.707
       0.425
       0.010
      -0.514
      -1.109
      -1.707
      -2.206
      -2.492
      -2.476
      -2.135
      -1.522
      -0.755
       0.031
       0.723
       1.266
       1.660
       1.940
       2.134
       2.233
       2.198
       2.001
       1.675
       1.339
       1.162
       1.265
       1.637
       2.114
       2.453
       2.452
       2.048
       1.336
       0.509
      -0.247
      -0.836
      -1.272
      -1.638
      -2.018
      -2.436
      -2.851
      -3.180
      -3.350
      -3.325
      -3.111
      -2.738
      -2.236
      -1.625
      -0.922
      -0.157
       0.623
       1.353
       1.977
       2.470
       2.841
       3.119
       3.319
       3.436
       3.459
       3.400
       3.281
       3.107
       2.853
       2.478
       1.970
       1.376
       0.797
       0.342
       0.062
      -0.093
      -0.261
      -0.609
      -1.243
      -2.145
      -3.178
      -4.147
      -4.882
      -5.303
      -5.420
      -5.295
      -4.980
      -4.478
      -3.763
      -2.840
      -1.798
      -0.817
      -0.100
       0.222
       0.164
      -0.114
      -0.379
      -0.434
      -0.197
       0.280
       0.871
       1.456
       1.965
       2.357
       2.596
       2.644
       2.497
       2.206
       1.861
       1.534
       1.238
       0.930
       0.561
       0.141
      -0.244
      -0.475
      -0.482
      -0.288
       0.004
       0.278
       0.466
       0.562
       0.590
       0.562
       0.476
       0.327
       0.138
      -0.032
      -0.107
      -0.039
       0.162
       0.437
       0.711
       0.931
       1.060
       1.063
       0.904
       0.569
       0.109
      -0.367
      -0.727
      -0.887
      -0.840
      -0.648
      -0.405
      -0.193
      -0.068
      -0.053
      -0.140
      -0.294
      -0.465
      -0.595
      -0.644
      -0.602
      -0.502
      -0.410
      -0.389
      -0.457
      -0.581
      -0.695
      -0.750
      -0.737
      -0.676
      -0.592
      -0.497
      -0.386
      -0.250
      -0.095
       0.055
       0.171
       0.243
       0.285
       0.329
       0.404
       0.537
       0.749
       1.042
       1.379
       1.668
       1.793
       1.673
       1.308
       0.793
       0.274
      -0.114
      -0.303
      -0.302
      -0.172
       0.003
       0.147
       0.198
       0.114
      -0.123
      -0.501
      -0.970
      -1.438
      -1.789
      -1.918
      -1.779
      -1.413
      -0.932
      -0.468
      -0.111
       0.109
       0.219
       0.264
       0.284
       0.309
       0.354
       0.417
       0.471
       0.477
       0.407
       0.275
       0.138
       0.068
       0.109
       0.246
       0.404
       0.487
       0.427
       0.212
      -0.111
      -0.476
      -0.830
      -1.157
      -1.458
      -1.727
      -1.941
      -2.065
      -2.069
      -1.928
      -1.634
      -1.195
      -0.647
      -0.048
       0.546
       1.100
       1.612
       2.104
       2.605
       3.109
       3.562
       3.866
       3.931
       3.729
       3.321
       2.838
       2.405
       2.078
       1.807
       1.473
       0.967
       0.276
      -0.500
      -1.210
      -1.737
      -2.068
      -2.274
      -2.436
      -2.575
      -2.646
      -2.597
      -2.436
      -2.246
      -2.142
      -2.189
      -2.363
      -2.547
      -2.590
      -2.373
      -1.868
      -1.142
      -0.323
       0.461
       1.126
       1.645
       2.025
       2.281
       2.414
       2.409
       2.255
       1.969
       1.611
       1.269
       1.017
       0.875
       0.805
       0.742
       0.643
       0.510
       0.371
       0.247
       0.127
      -0.011
      -0.186
      -0.393
      -0.624
      -0.875
      -1.154
      -1.466
      -1.790
      -2.073
      -2.250
      -2.283
      -2.193
      -2.048
      -1.918
      -1.822
      -1.711
      -1.492
      -1.100
      -0.551
       0.053
       0.575
       0.920
       1.069
       1.075
       1.018
       0.963
       0.936
       0.928
       0.915
       0.867
       0.764
       0.605
       0.420
       0.261
       0.175
       0.172
       0.213
       0.235
       0.192
       0.096
       0.012
       0.030
       0.214
       0.575
       1.061
       1.574
       2.005
       2.277
       2.370
       2.320
       2.182
       1.984
       1.710
       1.323
       0.822
       0.269
      -0.221
      -0.546
      -0.668
      -0.629
      -0.521
      -0.439
      -0.441
      -0.533
      -0.689
      -0.886
      -1.128
      -1.424
      -1.761
      -2.080
      -2.302
      -2.375
      -2.301
      -2.132
      -1.936
      -1.764
      -1.637
      -1.547
      -1.465
      -1.364
      -1.227
      -1.062
      -0.896
      -0.754
      -0.641
      -0.537
      -0.405
      -0.214
       0.046
       0.369
       0.730
       1.100
       1.448
       1.755
       2.016
       2.238
       2.424
       2.563
       2.629
       2.606
       2.505
       2.362
       2.213
       2.071
       1.935
       1.811
       1.725
       1.700
       1.719
       1.706
       1.550
       1.168
       0.563
      -0.163
      -0.850
      -1.369
      -1.679
      -1.827
      -1.897
      -1.948
      -2.002
      -2.052
      -2.083
      -2.071
      -1.988
      -1.806
      -1.508
      -1.094
      -0.587
      -0.025
       0.542
       1.062
       1.481
       1.749
       1.825
       1.694
       1.375
       0.926
       0.429
      -0.036
      -0.407
      -0.647
      -0.749
      -0.728
      -0.628
      -0.513
      -0.447
      -0.463
      -0.539
      -0.618
      -0.648
      -0.607
      -0.501
      -0.333
      -0.090
       0.229
       0.577
       0.859
       0.983
       0.928
       0.764
       0.611
       0.562
       0.619
       0.704
       0.702
       0.538
       0.205
      -0.249
      -0.755
      -1.240
      -1.638
      -1.894
      -1.987
      -1.943
      -1.829
      -1.713
      -1.625
      -1.544
      -1.416
      -1.205
      -0.917
      -0.599
      -0.300
      -0.046
       0.176
       0.389
       0.594
       0.762
       0.847
       0.818
       0.685
       0.494
       0.304
       0.165
       0.099
       0.098
       0.130
       0.150
       0.125
       0.052
      -0.037
      -0.102
      -0.117
      -0.088
      -0.034
       0.037
       0.144
       0.319
       0.559
       0.806
       0.956
       0.927
       0.707
       0.362
      -0.004
      -0.299
      -0.470
      -0.509
      -0.452
      -0.359
      -0.294
      -0.291
      -0.347
      -0.439
      -0.541
      -0.640
      -0.724
      -0.788
      -0.832
      -0.862
      -0.880
      -0.870
      -0.791
