Origin Time       21/3/2011 09:48:59 
Lat.              36.5 N 
Long.             70.9 E 
Depth (Km)        166.0
Magnitude         5.7
 Region           Hindukush-Region-Afganistan                                      
 Above details taken from IMD 
   
Station Code      BAR
Station Lat.       30.809
Station Long.      78.205
Station Height(m) 1305.0
Site Class        A   Vs30 between 700 m/sec to 1400 m/sec * 
Record Time       21.03.2011 09:52:01.424
Sampling Rate     200. Hz
 Record Duration   80.015 Sec.
 Direction         Vert. (Up positive)
Max. Acceleration     -0.513 cm/sec**2
     
  * For reference see Site Classification link of website 
     
 Base Line Corrected and Low Pass Filtered (Cut Off at 35 Hz) Time History
 Acceleration data in cm/sec**2
    
[...]
      -0.030
      -0.036
      -0.043
      -0.039
      -0.015
       0.018
       0.038
       0.038
       0.039
       0.063
       0.100
       0.112
       0.083
       0.033
      -0.002
      -0.016
      -0.023
      -0.035
      -0.047
      -0.058
      -0.073
      -0.090
      -0.096
      -0.084
      -0.063
      -0.047
      -0.040
      -0.038
      -0.038
      -0.045
      -0.052
      -0.045
      -0.019
       0.012
       0.024
       0.015
       0.006
       0.018
       0.041
       0.048
       0.030
       0.005
      -0.007
      -0.008
      -0.011
      -0.014
      -0.004
       0.017
       0.029
       0.025
       0.023
       0.037
       0.054
       0.054
       0.033
       0.012
       0.004
       0.001
      -0.011
      -0.028
      -0.036
      -0.035
      -0.037
      -0.052
      -0.073
      -0.085
      -0.085
      -0.076
      -0.055
      -0.017
       0.032
       0.067
       0.072
       0.062
       0.063
       0.079
       0.095
       0.100
       0.100
       0.105
       0.109
       0.103
       0.089
       0.079
       0.072
       0.055
       0.025
       0.001
       0.001
       0.011
       0.005
      -0.028
      -0.063
      -0.074
      -0.063
      -0.057
      -0.067
      -0.075
      -0.064
      -0.040
      -0.026
      -0.024
      -0.022
      -0.013
      -0.009
      -0.014
      -0.018
      -0.009
       0.002
      -0.002
      -0.016
      -0.020
       0.001
       0.034
       0.056
       0.061
       0.060
       0.063
       0.069
       0.070
       0.070
       0.073
       0.072
       0.054
       0.021
      -0.002
       0.000
       0.015
       0.019
       0.007
      -0.009
      -0.018
      -0.023
      -0.025
      -0.016
       0.002
       0.006
      -0.023
      -0.069
      -0.097
      -0.087
      -0.060
      -0.044
      -0.045
      -0.047
      -0.035
      -0.017
      -0.008
      -0.004
       0.006
       0.019
       0.017
      -0.001
      -0.014
      -0.002
       0.021
       0.027
       0.009
      -0.013
      -0.022
      -0.023
      -0.025
      -0.021
      -0.007
       0.004
      -0.006
      -0.031
      -0.036
      -0.003
       0.050
       0.084
       0.086
       0.075
       0.073
       0.078
       0.078
       0.075
       0.083
       0.102
       0.110
       0.089
       0.055
       0.033
       0.032
       0.035
       0.027
       0.008
      -0.015
      -0.041
      -0.062
      -0.070
      -0.058
      -0.041
      -0.036
      -0.041
      -0.041
      -0.027
      -0.010
      -0.005
      -0.012
      -0.013
       0.001
       0.020
       0.030
       0.031
       0.033
       0.040
       0.039
       0.022
       0.000
      -0.013
      -0.017
      -0.026
      -0.043
      -0.056
      -0.055
      -0.043
      -0.031
      -0.021
      -0.010
       0.002
       0.012
       0.019
       0.031
       0.049
       0.064
       0.068
       0.062
       0.057
       0.058
       0.058
       0.049
       0.037
       0.028
       0.020
       0.000
      -0.031
      -0.055
      -0.058
      -0.052
      -0.061
      -0.089
      -0.118
      -0.134
      -0.143
      -0.155
      -0.161
      -0.153
      -0.138
      -0.135
      -0.150
      -0.165
      -0.162
      -0.145
      -0.130
      -0.120
      -0.102
      -0.070
      -0.034
      -0.011
       0.001
       0.013
       0.025
       0.028
       0.019
       0.016
       0.035
       0.065
       0.084
       0.081
       0.071
       0.071
       0.078
       0.083
       0.088
       0.102
       0.121
       0.133
       0.137
       0.148
       0.174
       0.199
       0.199
       0.169
       0.132
       0.109
       0.099
       0.088
       0.071
       0.054
       0.039
       0.017
      -0.014
      -0.037
      -0.041
      -0.034
      -0.039
      -0.058
      -0.071
      -0.060
      -0.043
      -0.042
      -0.061
      -0.077
      -0.071
      -0.052
      -0.038
      -0.032
      -0.027
      -0.017
      -0.005
       0.005
       0.013
       0.024
       0.034
       0.042
       0.051
       0.063
       0.075
       0.078
       0.074
       0.076
       0.092
       0.108
       0.106
       0.083
       0.055
       0.035
       0.018
      -0.004
      -0.022
      -0.025
      -0.021
      -0.028
      -0.051
      -0.072
      -0.073
      -0.059
      -0.054
      -0.069
      -0.085
      -0.080
      -0.051
      -0.018
       0.006
       0.022
       0.037
       0.044
       0.035
       0.018
       0.013
       0.026
       0.041
       0.046
       0.048
       0.061
       0.078
       0.078
       0.054
       0.024
       0.009
       0.008
       0.012
       0.012
       0.014
       0.017
       0.014
       0.003
      -0.002
       0.012
       0.037
       0.048
       0.034
       0.014
       0.010
       0.027
       0.050
       0.072
       0.094
       0.110
       0.110
       0.092
       0.077
       0.079
       0.090
       0.081
       0.049
       0.015
       0.001
       0.000
      -0.008
      -0.029
      -0.049
      -0.059
      -0.070
      -0.088
      -0.099
      -0.086
      -0.054
      -0.037
      -0.056
      -0.100
      -0.134
      -0.147
      -0.151
      -0.154
      -0.148
      -0.124
      -0.090
      -0.065
      -0.052
      -0.041
      -0.028
      -0.016
      -0.009
      -0.005
       0.001
       0.003
      -0.004
      -0.016
      -0.027
      -0.033
      -0.033
      -0.028
      -0.016
       0.001
       0.010
       0.004
      -0.009
      -0.006
       0.018
       0.050
       0.068
       0.078
       0.099
       0.135
       0.164
       0.164
       0.147
       0.140
       0.151
       0.160
       0.147
       0.119
       0.095
       0.081
       0.065
       0.041
       0.020
       0.015
       0.022
       0.022
       0.007
      -0.010
      -0.019
      -0.023
      -0.033
      -0.046
      -0.056
      -0.064
      -0.081
      -0.103
      -0.112
      -0.104
      -0.094
      -0.096
      -0.100
      -0.086
      -0.054
      -0.022
      -0.004
       0.006
       0.020
       0.040
       0.053
       0.055
       0.055
       0.056
       0.053
       0.040
       0.024
       0.021
       0.034
       0.042
       0.030
       0.009
       0.002
       0.010
       0.013
      -0.001
      -0.023
      -0.038
      -0.046
      -0.054
      -0.060
      -0.055
      -0.041
      -0.031
      -0.031
      -0.036
      -0.034
      -0.027
      -0.023
      -0.022
      -0.010
       0.016
       0.043
       0.050
       0.042
       0.045
       0.070
       0.097
       0.098
       0.072
       0.053
       0.064
       0.097
       0.131
       0.155
       0.172
       0.179
       0.168
       0.145
       0.132
       0.138
       0.147
       0.137
       0.106
       0.073
       0.051
       0.033
       0.013
       0.000
       0.006
       0.019
       0.012
      -0.023
      -0.060
      -0.068
      -0.050
      -0.033
      -0.030
      -0.031
      -0.026
      -0.026
      -0.042
      -0.068
      -0.086
      -0.096
      -0.110
      -0.134
      -0.155
      -0.161
      -0.155
      -0.148
      -0.144
      -0.140
      -0.136
      -0.141
      -0.156
      -0.167
      -0.162
      -0.147
      -0.136
      -0.134
      -0.129
      -0.116
      -0.108
      -0.118
      -0.137
      -0.143
      -0.129
      -0.112
      -0.106
      -0.101
      -0.081
      -0.050
      -0.025
      -0.013
       0.004
       0.037
       0.072
       0.085
       0.069
       0.048
       0.047
       0.072
       0.107
       0.140
       0.165
       0.179
       0.181
       0.178
       0.183
       0.196
       0.203
       0.189
       0.165
       0.153
       0.158
       0.161
       0.146
       0.121
       0.101
       0.086
       0.062
       0.030
       0.005
      -0.002
      -0.004
      -0.024
      -0.061
      -0.093
      -0.096
      -0.071
      -0.040
      -0.022
      -0.024
      -0.040
      -0.063
      -0.081
      -0.082
      -0.069
      -0.055
      -0.050
      -0.053
      -0.054
      -0.053
      -0.066
      -0.101
      -0.143
      -0.173
      -0.188
      -0.199
      -0.212
      -0.223
      -0.226
      -0.227
      -0.234
      -0.240
      -0.239
      -0.232
      -0.229
      -0.234
      -0.233
      -0.214
      -0.182
      -0.153
      -0.135
      -0.115
      -0.079
      -0.034
       0.004
       0.033
       0.069
       0.119
       0.167
       0.195
       0.208
       0.228
       0.260
       0.282
       0.272
       0.235
       0.189
       0.146
       0.105
       0.068
       0.043
       0.032
       0.018
      -0.016
      -0.058
      -0.083
      -0.083
      -0.078
      -0.089
      -0.109
      -0.116
      -0.103
      -0.088
      -0.079
      -0.062
      -0.027
       0.012
       0.032
       0.035
       0.042
       0.061
       0.075
       0.066
       0.039
       0.014
      -0.003
      -0.022
      -0.045
      -0.059
      -0.058
      -0.055
      -0.070
      -0.100
      -0.127
      -0.139
      -0.147
      -0.164
      -0.181
      -0.186
      -0.182
      -0.188
      -0.205
      -0.210
      -0.183
      -0.141
      -0.109
      -0.088
      -0.057
      -0.006
       0.046
       0.075
       0.078
       0.070
       0.062
       0.055
       0.049
       0.046
       0.047
       0.042
       0.027
       0.013
       0.017
       0.034
       0.039
       0.017
      -0.022
      -0.056
      -0.085
      -0.118
      -0.150
      -0.161
      -0.144
      -0.122
      -0.114
      -0.109
      -0.076
      -0.011
       0.055
       0.091
       0.101
       0.110
       0.133
       0.159
       0.178
       0.192
       0.211
       0.229
       0.233
       0.218
       0.194
       0.173
       0.153
       0.129
       0.108
       0.099
       0.100
       0.093
       0.070
       0.048
       0.042
       0.046
       0.036
       0.008
      -0.017
      -0.029
      -0.039
      -0.064
      -0.098
      -0.122
      -0.132
      -0.139
      -0.153
      -0.165
      -0.166
      -0.164
      -0.176
      -0.201
      -0.222
      -0.225
      -0.221
      -0.225
      -0.232
      -0.224
      -0.197
      -0.170
      -0.155
      -0.144
      -0.121
      -0.092
      -0.073
      -0.065
      -0.048
      -0.014
       0.022
       0.042
       0.051
       0.069
       0.100
       0.128
       0.142
       0.152
       0.177
       0.210
       0.229
       0.219
       0.197
       0.183
       0.177
       0.160
       0.123
       0.081
       0.048
       0.024
      -0.001
      -0.025
      -0.045
      -0.064
      -0.088
      -0.109
      -0.114
      -0.102
      -0.097
      -0.116
      -0.148
      -0.165
      -0.155
      -0.131
      -0.111
      -0.092
      -0.061
      -0.022
       0.008
       0.023
       0.042
       0.077
       0.117
       0.142
       0.153
       0.173
       0.217
       0.263
       0.282
       0.267
       0.233
       0.194
       0.152
       0.116
       0.094
       0.081
       0.057
       0.009
      -0.046
      -0.077
      -0.068
      -0.036
      -0.010
       0.000
       0.006
       0.017
       0.030
       0.040
       0.056
       0.083
       0.106
       0.110
       0.100
       0.098
       0.111
       0.120
       0.105
       0.075
       0.052
       0.042
       0.027
      -0.001
      -0.033
      -0.058
      -0.081
      -0.108
      -0.131
      -0.137
      -0.128
      -0.124
      -0.137
      -0.152
      -0.145
      -0.118
      -0.097
      -0.100
      -0.113
      -0.110
      -0.083
      -0.048
      -0.014
       0.017
       0.045
       0.053
       0.040
       0.025
       0.031
       0.050
       0.055
       0.037
       0.017
       0.018
       0.034
       0.035
       0.013
      -0.017
      -0.037
      -0.050
      -0.068
      -0.093
      -0.107
      -0.102
      -0.090
      -0.085
      -0.083
      -0.070
      -0.044
      -0.020
      -0.006
       0.006
       0.025
       0.043
       0.044
       0.030
       0.018
       0.013
       0.007
      -0.003
      -0.008
       0.000
       0.015
       0.021
       0.021
       0.033
       0.065
       0.104
       0.132
       0.148
       0.169
       0.197
       0.217
       0.213
       0.198
       0.196
       0.206
       0.205
       0.181
       0.150
       0.134
       0.130
       0.116
       0.085
       0.048
       0.012
      -0.024
      -0.060
      -0.083
      -0.079
      -0.055
      -0.032
      -0.016
       0.003
       0.037
       0.075
       0.101
       0.111
       0.119
       0.135
       0.147
       0.140
       0.117
       0.097
       0.090
       0.085
       0.071
       0.057
       0.057
       0.070
       0.083
       0.096
       0.121
       0.162
       0.201
       0.220
       0.219
       0.212
       0.208
       0.198
       0.173
       0.134
       0.092
       0.050
       0.007
      -0.036
      -0.066
      -0.079
      -0.090
      -0.118
      -0.158
      -0.187
      -0.190
      -0.173
      -0.152
      -0.129
      -0.097
      -0.058
      -0.017
       0.028
       0.080
       0.126
       0.142
       0.119
       0.078
       0.048
       0.033
       0.009
      -0.045
      -0.122
      -0.201
      -0.275
      -0.352
      -0.431
      -0.491
      -0.513
      -0.500
      -0.477
      -0.460
      -0.447
      -0.425
      -0.393
      -0.351
      -0.296
      -0.226
      -0.154
      -0.095
      -0.050
      -0.006
       0.041
       0.082
       0.104
       0.112
       0.119
       0.131
       0.139
       0.134
       0.125
       0.128
       0.143
       0.162
       0.176
       0.193
       0.223
       0.259
       0.283
       0.287
       0.286
       0.295
       0.309
       0.313
       0.303
       0.287
       0.268
       0.240
       0.201
       0.158
       0.121
       0.089
       0.060
       0.037
       0.026
       0.020
       0.006
      -0.020
      -0.046
      -0.062
      -0.070
      -0.082
      -0.095
      -0.091
      -0.061
      -0.023
      -0.002
      -0.003
      -0.002
       0.017
       0.041
       0.047
       0.032
       0.010
      -0.008
      -0.027
      -0.049
      -0.063
      -0.064
      -0.060
      -0.064
      -0.074
      -0.072
      -0.044
       0.002
       0.047
       0.078
       0.099
       0.111
       0.109
       0.087
       0.055
       0.022
      -0.012
      -0.060
      -0.117
      -0.154
      -0.151
      -0.121
      -0.096
      -0.092
      -0.094
      -0.092
      -0.090
      -0.094
      -0.094
      -0.073
      -0.036
      -0.006
      -0.002
      -0.016
      -0.026
      -0.022
      -0.009
       0.003
       0.012
       0.010
      -0.012
      -0.046
      -0.067
      -0.056
      -0.028
      -0.019
      -0.037
      -0.053
      -0.044
      -0.021
      -0.010
      -0.014
      -0.011
       0.009
       0.032
       0.043
       0.053
       0.079
       0.115
       0.135
       0.130
       0.113
       0.102
       0.096
       0.079
       0.047
       0.016
      -0.003
      -0.018
      -0.045
      -0.075
      -0.086
      -0.067
      -0.039
      -0.025
      -0.022
      -0.011
       0.013
       0.027
       0.018
      -0.005
      -0.020
      -0.025
      -0.037
      -0.068
      -0.114
      -0.162
      -0.200
      -0.225
      -0.236
      -0.232
      -0.221
      -0.218
      -0.224
      -0.225
      -0.207
      -0.178
      -0.155
      -0.135
      -0.095
      -0.030
       0.036
       0.079
       0.104
       0.136
       0.179
       0.212
       0.223
       0.229
       0.249
       0.275
       0.286
       0.277
       0.263
       0.257
       0.247
       0.219
       0.172
       0.123
       0.084
       0.049
       0.014
      -0.019
      -0.039
      -0.053
      -0.073
      -0.097
      -0.109
      -0.099
      -0.080
      -0.070
      -0.063
      -0.042
      -0.008
       0.018
       0.027
       0.035
       0.058
       0.092
       0.115
       0.117
       0.111
       0.111
       0.121
       0.134
       0.147
       0.163
       0.177
       0.179
       0.169
       0.161
       0.167
       0.176
       0.169
       0.144
       0.119
       0.107
       0.094
       0.065
       0.025
      -0.008
      -0.034
      -0.066
      -0.111
      -0.150
      -0.166
      -0.164
      -0.164
      -0.176
      -0.186
      -0.186
      -0.183
      -0.187
      -0.193
      -0.181
      -0.144
      -0.101
      -0.076
      -0.067
      -0.057
      -0.042
      -0.029
      -0.023
      -0.011
       0.016
       0.043
       0.049
       0.037
       0.025
       0.016
      -0.005
      -0.049
      -0.099
      -0.132
      -0.145
      -0.157
      -0.178
      -0.196
      -0.197
      -0.190
      -0.190
      -0.196
      -0.185
      -0.143
      -0.086
      -0.044
      -0.025
      -0.007
       0.025
       0.069
       0.113
       0.157
       0.200
       0.230
       0.237
       0.230
       0.237
       0.262
       0.282
       0.276
       0.253
       0.240
       0.247
       0.255
       0.243
       0.217
       0.193
       0.182
       0.179
       0.176
       0.174
       0.172
       0.158
       0.121
       0.071
       0.027
      -0.006
      -0.038
      -0.074
      -0.101
      -0.109
      -0.113
      -0.133
      -0.162
      -0.169
      -0.139
      -0.094
      -0.065
      -0.057
      -0.052
      -0.043
      -0.041
      -0.057
      -0.085
      -0.108
      -0.126
      -0.149
      -0.176
      -0.190
      -0.181
      -0.163
      -0.154
      -0.146
      -0.115
      -0.059
      -0.007
       0.021
       0.040
       0.078
       0.132
       0.172
       0.179
       0.171
       0.166
       0.158
       0.129
       0.083
       0.041
       0.016
      -0.004
      -0.039
      -0.089
      -0.132
      -0.152
      -0.150
      -0.139
      -0.125
      -0.111
      -0.102
      -0.099
      -0.091
      -0.068
      -0.033
      -0.008
      -0.008
      -0.020
      -0.021
      -0.008
       0.007
       0.015
       0.021
       0.025
       0.018
      -0.003
      -0.031
      -0.048
      -0.054
      -0.060
      -0.075
      -0.086
      -0.078
      -0.052
      -0.023
      -0.005
       0.010
       0.034
       0.063
       0.088
       0.108
       0.133
       0.165
       0.187
       0.183
       0.164
       0.156
       0.163
       0.161
       0.136
       0.102
       0.076
       0.055
       0.021
      -0.029
      -0.076
      -0.104
      -0.119
      -0.133
      -0.150
      -0.164
      -0.183
      -0.220
      -0.279
      -0.331
      -0.348
      -0.331
      -0.309
      -0.304
      -0.308
      -0.304
      -0.291
      -0.272
      -0.239
      -0.184
      -0.120
      -0.071
      -0.041
      -0.004
       0.065
       0.154
       0.234
       0.296
       0.354
       0.412
       0.450
       0.450
       0.425
       0.404
       0.396
       0.382
       0.342
       0.283
       0.229
       0.186
       0.137
       0.072
