Origin Time       21/9/2009 9:43:47	 
Lat.              30.9 N	
Long.             79.1 E	
Depth (Km)         13.0
Magnitude         4.7
 Region           UTTARKASHI-UTTARAKHAND                                           
 Above details taken from IMD 
   
Station Code      BAR
Station Lat.       30.809
Station Long.      78.656
Station Height(m) 1305.0
Site Class        A   Vs30 between 700 m/sec to 1400 m/sec * 
Record Time       21.09.2009 09:44:03.484
Sampling Rate     200. Hz
 Record Duration   71.575 Sec.
 Direction         Vert. (Up positive)
Max. Acceleration    -10.436 cm/sec**2
     
  * For reference see Site Classification link of website 
     
 Base Line Corrected and Low Pass Filtered (Cut Off at 35 Hz) Time History
 Acceleration data in cm/sec**2
    
[...]
       1.293
       1.375
       1.397
       1.310
       1.099
       0.776
       0.376
      -0.056
      -0.477
      -0.850
      -1.131
      -1.269
      -1.223
      -1.011
      -0.727
      -0.490
      -0.367
      -0.327
      -0.286
      -0.200
      -0.104
      -0.077
      -0.167
      -0.348
      -0.543
      -0.669
      -0.685
      -0.610
      -0.518
      -0.486
      -0.546
      -0.639
      -0.653
      -0.502
      -0.217
       0.072
       0.237
       0.269
       0.276
       0.376
       0.584
       0.810
       0.957
       0.988
       0.923
       0.782
       0.561
       0.276
       0.002
      -0.154
      -0.149
      -0.052
       0.011
      -0.022
      -0.108
      -0.160
      -0.155
      -0.157
      -0.241
      -0.410
      -0.590
      -0.680
      -0.617
      -0.396
      -0.059
       0.314
       0.608
       0.720
       0.640
       0.488
       0.423
       0.494
       0.594
       0.601
       0.540
       0.562
       0.749
       0.979
       1.018
       0.753
       0.296
      -0.156
      -0.512
      -0.843
      -1.249
      -1.735
      -2.210
      -2.573
      -2.767
      -2.752
      -2.485
      -1.952
      -1.235
      -0.493
       0.130
       0.610
       1.029
       1.470
       1.925
       2.321
       2.611
       2.817
       2.961
       2.993
       2.805
       2.338
       1.654
       0.898
       0.195
      -0.415
      -0.943
      -1.394
      -1.740
      -1.953
      -2.034
      -2.029
      -1.990
      -1.936
      -1.834
      -1.625
      -1.275
      -0.811
      -0.322
       0.085
       0.334
       0.421
       0.428
       0.490
       0.691
       0.989
       1.223
       1.241
       1.025
       0.711
       0.478
       0.418
       0.487
       0.575
       0.585
       0.477
       0.259
      -0.037
      -0.358
      -0.634
      -0.818
      -0.915
      -0.975
      -1.035
      -1.065
      -0.996
      -0.798
      -0.528
      -0.284
      -0.105
       0.066
       0.325
       0.702
       1.109
       1.394
       1.439
       1.223
       0.833
       0.412
       0.090
      -0.084
      -0.158
      -0.240
      -0.419
      -0.702
      -1.015
      -1.259
      -1.360
      -1.282
      -1.026
      -0.621
      -0.132
       0.351
       0.750
       1.034
       1.208
       1.278
       1.231
       1.050
       0.752
       0.409
       0.120
      -0.055
      -0.148
      -0.276
      -0.535
      -0.900
      -1.231
      -1.378
      -1.303
      -1.093
      -0.875
      -0.717
      -0.605
      -0.480
      -0.292
      -0.036
       0.262
       0.564
       0.845
       1.094
       1.309
       1.497
       1.669
       1.830
       1.962
       2.017
       1.928
       1.664
       1.269
       0.863
       0.560
       0.378
       0.218
      -0.059
      -0.520
      -1.108
      -1.671
      -2.028
      -2.060
      -1.776
      -1.344
      -1.005
      -0.917
      -1.028
      -1.116
      -0.974
      -0.593
      -0.163
       0.090
       0.088
      -0.063
      -0.174
      -0.117
       0.113
       0.410
       0.630
       0.660
       0.484
       0.191
      -0.070
      -0.177
      -0.094
       0.124
       0.380
       0.613
       0.828
       1.066
       1.319
       1.489
       1.428
       1.054
       0.443
      -0.200
      -0.666
      -0.857
      -0.792
      -0.543
      -0.184
       0.188
       0.433
       0.410
       0.081
      -0.435
      -0.926
      -1.214
      -1.236
      -1.015
      -0.610
      -0.108
       0.353
       0.609
       0.577
       0.325
       0.044
      -0.094
      -0.059
       0.034
       0.027
      -0.156
      -0.474
      -0.799
      -1.014
      -1.090
      -1.101
      -1.161
      -1.311
      -1.479
      -1.543
      -1.443
      -1.220
      -0.952
      -0.670
      -0.341
       0.085
       0.616
       1.202
       1.757
       2.187
       2.410
       2.411
       2.268
       2.133
       2.124
       2.230
       2.312
       2.212
       1.859
       1.294
       0.609
      -0.107
      -0.781
      -1.335
      -1.700
      -1.864
      -1.890
      -1.854
      -1.767
      -1.551
      -1.148
      -0.628
      -0.192
      -0.033
      -0.186
      -0.498
      -0.751
      -0.802
      -0.659
      -0.444
      -0.289
      -0.248
      -0.251
      -0.156
       0.139
       0.591
       0.997
       1.132
       0.922
       0.522
       0.198
       0.118
       0.209
       0.217
      -0.086
      -0.708
      -1.406
      -1.848
      -1.820
      -1.342
      -0.622
       0.094
       0.652
       1.042
       1.354
       1.668
       1.967
       2.142
       2.087
       1.812
       1.449
       1.155
       0.985
       0.869
       0.696
       0.426
       0.109
      -0.186
      -0.435
      -0.651
      -0.836
      -0.962
      -1.009
      -0.997
      -0.986
      -1.040
      -1.187
      -1.397
      -1.578
      -1.605
      -1.382
      -0.912
      -0.306
       0.277
       0.738
       1.089
       1.396
       1.662
       1.787
       1.649
       1.237
       0.672
       0.116
      -0.353
      -0.763
      -1.162
      -1.529
      -1.769
      -1.779
      -1.532
      -1.083
      -0.547
      -0.053
       0.264
       0.294
       0.031
      -0.361
      -0.583
      -0.400
       0.154
       0.771
       1.107
       1.076
       0.900
       0.880
       1.117
       1.437
       1.580
       1.425
       1.064
       0.703
       0.512
       0.532
       0.667
       0.745
       0.608
       0.214
      -0.338
      -0.872
      -1.259
      -1.494
      -1.657
      -1.792
      -1.833
      -1.656
      -1.200
      -0.551
       0.103
       0.574
       0.745
       0.601
       0.221
      -0.243
      -0.621
      -0.813
      -0.824
      -0.724
      -0.567
      -0.355
      -0.069
       0.260
       0.540
       0.664
       0.611
       0.478
       0.414
       0.491
       0.647
       0.745
       0.698
       0.518
       0.272
       0.016
      -0.224
      -0.425
      -0.553
      -0.578
      -0.496
      -0.326
      -0.084
       0.237
       0.649
       1.123
       1.541
       1.733
       1.599
       1.219
       0.822
       0.615
       0.612
       0.643
       0.530
       0.241
      -0.115
      -0.404
      -0.557
      -0.557
      -0.434
      -0.284
      -0.269
      -0.533
      -1.070
      -1.689
      -2.132
      -2.252
      -2.091
      -1.821
      -1.615
      -1.547
      -1.566
      -1.531
      -1.312
      -0.883
      -0.355
       0.090
       0.321
       0.332
       0.230
       0.161
       0.219
       0.401
       0.633
       0.848
       1.044
       1.267
       1.536
       1.788
       1.914
       1.832
       1.531
       1.072
       0.561
       0.107
      -0.207
      -0.353
      -0.365
      -0.314
      -0.260
      -0.192
      -0.034
       0.289
       0.763
       1.263
       1.628
       1.767
       1.703
       1.521
       1.290
       1.043
       0.793
       0.545
       0.278
      -0.047
      -0.454
      -0.910
      -1.350
      -1.727
      -2.055
      -2.390
      -2.785
      -3.238
      -3.662
      -3.917
      -3.892
      -3.596
      -3.160
      -2.736
      -2.369
      -1.963
      -1.372
      -0.537
       0.460
       1.464
       2.366
       3.140
       3.778
       4.221
       4.388
       4.269
       3.966
       3.625
       3.321
       3.022
       2.625
       2.048
       1.284
       0.431
      -0.337
      -0.840
      -0.977
      -0.796
      -0.483
      -0.291
      -0.397
      -0.778
      -1.186
      -1.296
      -0.957
      -0.345
       0.154
       0.252
      -0.005
      -0.292
      -0.287
       0.081
       0.631
       1.111
       1.378
       1.416
       1.260
       0.930
       0.433
      -0.207
      -0.944
      -1.718
      -2.463
      -3.100
      -3.539
      -3.712
      -3.592
      -3.218
      -2.683
      -2.078
      -1.437
      -0.714
       0.151
       1.136
       2.106
       2.906
       3.475
       3.859
       4.115
       4.222
       4.120
       3.804
       3.337
       2.761
       2.013
       0.984
      -0.337
      -1.777
      -3.038
      -3.864
      -4.163
      -4.022
      -3.609
      -3.056
      -2.401
      -1.612
      -0.681
       0.301
       1.150
       1.682
       1.800
       1.533
       1.001
       0.344
      -0.343
      -1.034
      -1.732
      -2.408
      -2.978
      -3.330
      -3.367
      -3.038
      -2.355
      -1.419
      -0.425
       0.426
       1.049
       1.514
       1.948
       2.386
       2.725
       2.821
       2.623
       2.201
       1.671
       1.116
       0.568
       0.052
      -0.385
      -0.691
      -0.848
      -0.875
      -0.812
      -0.720
      -0.688
      -0.815
      -1.123
      -1.476
      -1.609
      -1.297
      -0.529
       0.456
       1.321
       1.829
       1.945
       1.798
       1.568
       1.389
       1.297
       1.221
       1.017
       0.555
      -0.179
      -1.037
      -1.775
      -2.176
      -2.140
      -1.680
      -0.869
       0.192
       1.351
       2.403
       3.156
       3.546
       3.683
       3.757
       3.869
       3.920
       3.680
       2.974
       1.831
       0.469
      -0.844
      -1.919
      -2.673
      -3.084
      -3.160
      -2.961
      -2.608
      -2.240
      -1.934
      -1.663
      -1.345
      -0.966
      -0.633
      -0.500
      -0.618
      -0.890
      -1.168
      -1.406
      -1.683
      -2.106
      -2.696
      -3.357
      -3.908
      -4.130
      -3.831
      -2.931
      -1.550
      -0.010
       1.284
       2.051
       2.286
       2.242
       2.265
       2.585
       3.224
       4.045
       4.845
       5.411
       5.542
       5.099
       4.113
       2.840
       1.666
       0.886
       0.537
       0.439
       0.403
       0.395
       0.509
       0.791
       1.118
       1.247
       0.973
       0.255
      -0.797
      -2.019
      -3.261
      -4.390
      -5.278
      -5.863
      -6.229
      -6.571
      -6.995
      -7.324
      -7.149
      -6.142
      -4.358
      -2.228
      -0.248
       1.349
       2.622
       3.713
       4.642
       5.309
       5.628
       5.599
       5.253
       4.596
       3.649
       2.523
       1.404
       0.442
      -0.362
      -1.128
      -1.969
      -2.874
      -3.713
      -4.343
      -4.708
      -4.845
      -4.810
      -4.592
      -4.106
      -3.264
      -2.064
      -0.596
       1.027
       2.718
       4.388
       5.858
       6.884
       7.292
       7.119
       6.589
       5.940
       5.275
       4.547
       3.645
       2.486
       1.070
      -0.490
      -1.959
      -3.046
      -3.537
      -3.429
      -2.950
      -2.409
      -1.993
      -1.665
      -1.253
      -0.660
       0.013
       0.518
       0.659
       0.445
       0.059
      -0.312
      -0.638
      -1.040
      -1.648
      -2.477
      -3.409
      -4.260
      -4.837
      -4.975
      -4.550
      -3.534
      -2.036
      -0.282
       1.485
       3.115
       4.608
       6.032
       7.380
       8.489
       9.123
       9.129
       8.507
       7.329
       5.655
       3.586
       1.392
      -0.504
      -1.750
      -2.324
      -2.543
      -2.788
      -3.190
      -3.558
      -3.605
      -3.236
      -2.640
      -2.141
      -1.974
      -2.178
      -2.645
      -3.235
      -3.830
      -4.342
      -4.717
      -4.966
      -5.142
      -5.258
      -5.217
      -4.853
      -4.076
      -2.964
      -1.707
      -0.456
       0.764
       2.006
       3.262
       4.375
       5.092
       5.232
       4.835
       4.179
       3.616
       3.352
       3.329
       3.302
       3.053
       2.585
       2.153
       2.107
       2.621
       3.530
       4.386
       4.737
       4.401
       3.555
       2.552
       1.646
       0.812
      -0.213
      -1.695
      -3.663
      -5.837
      -7.765
      -9.053
      -9.522
      -9.228
      -8.388
      -7.286
      -6.174
      -5.189
      -4.326
      -3.489
      -2.577
      -1.546
      -0.432
       0.657
       1.588
       2.266
       2.691
       2.930
       3.077
       3.231
       3.507
       3.990
       4.627
       5.186
       5.401
       5.201
       4.775
       4.393
       4.162
       3.953
       3.556
       2.856
       1.889
       0.794
      -0.265
      -1.137
      -1.726
      -2.037
      -2.173
      -2.277
      -2.440
      -2.670
      -2.918
      -3.115
      -3.196
      -3.096
      -2.759
      -2.139
      -1.227
      -0.094
       1.078
       2.036
       2.586
       2.706
       2.536
       2.241
       1.871
       1.334
       0.503
      -0.659
      -2.050
      -3.490
      -4.829
      -6.002
      -6.974
      -7.654
      -7.880
      -7.519
      -6.567
      -5.146
      -3.431
      -1.578
       0.275
       1.996
       3.486
       4.715
       5.728
       6.581
       7.280
       7.777
       8.044
       8.143
       8.186
       8.195
       8.012
       7.395
       6.260
       4.842
       3.588
       2.840
       2.576
       2.414
       1.881
       0.739
      -0.851
      -2.432
      -3.521
      -3.893
      -3.697
      -3.368
      -3.371
      -3.960
      -5.071
      -6.416
      -7.685
      -8.714
      -9.501
     -10.088
     -10.436
     -10.402
      -9.834
      -8.675
      -6.992
      -4.929
      -2.657
      -0.344
       1.854
       3.802
       5.400
       6.579
       7.307
       7.605
       7.572
       7.363
       7.127
       6.938
       6.765
       6.502
       6.049
       5.383
       4.580
       3.772
       3.072
       2.513
       2.018
       1.440
       0.626
      -0.488
      -1.823
      -3.183
      -4.373
      -5.310
      -6.039
      -6.613
      -6.949
      -6.832
      -6.091
      -4.820
      -3.411
      -2.349
      -1.883
      -1.853
      -1.810
      -1.344
      -0.357
       0.921
       2.145
       3.073
       3.630
       3.846
       3.802
       3.622
       3.447
       3.340
       3.226
       2.966
       2.510
       2.000
       1.691
       1.749
       2.094
       2.435
       2.463
       2.053
       1.309
       0.421
      -0.497
      -1.463
      -2.532
      -3.680
      -4.759
      -5.572
      -5.963
      -5.875
      -5.322
      -4.347
      -3.024
      -1.508
      -0.042
       1.140
       1.971
       2.602
       3.253
       3.976
       4.557
       4.676
       4.172
       3.191
       2.066
       1.076
       0.318
      -0.224
      -0.550
      -0.630
      -0.512
      -0.382
      -0.443
      -0.727
      -1.075
      -1.315
      -1.459
      -1.683
      -2.131
      -2.741
      -3.269
      -3.486
      -3.345
      -2.997
      -2.634
      -2.312
      -1.896
      -1.151
       0.074
       1.725
       3.531
       5.118
       6.187
       6.657
       6.681
       6.500
       6.243
       5.844
       5.143
       4.080
       2.786
       1.510
       0.457
      -0.317
      -0.888
      -1.381
      -1.883
      -2.397
      -2.839
      -3.077
      -3.014
      -2.678
      -2.244
      -1.961
      -2.025
      -2.464
      -3.133
      -3.809
      -4.338
      -4.719
      -5.042
      -5.329
      -5.433
      -5.106
      -4.197
      -2.793
      -1.182
       0.312
       1.505
       2.411
       3.185
       3.982
       4.798
       5.433
       5.635
       5.334
       4.730
       4.129
       3.661
       3.153
       2.267
       0.791
      -1.182
      -3.289
      -5.092
      -6.291
      -6.828
      -6.873
      -6.695
      -6.498
      -6.292
      -5.861
      -4.895
      -3.204
      -0.890
       1.661
       3.986
       5.801
       7.133
       8.205
       9.171
       9.929
      10.186
       9.736
       8.694
       7.434
       6.299
       5.338
       4.319
       2.978
       1.252
      -0.678
      -2.530
      -4.093
      -5.301
      -6.229
      -7.024
      -7.811
      -8.585
      -9.163
      -9.262
      -8.689
      -7.499
      -5.985
      -4.493
      -3.211
      -2.084
      -0.924
       0.388
       1.777
       3.032
       3.965
       4.515
       4.717
       4.607
       4.200
       3.541
       2.738
       1.922
       1.204
       0.663
       0.368
       0.358
       0.606
       1.026
       1.530
       2.059
       2.542
       2.835
       2.762
       2.251
       1.441
       0.601
      -0.072
      -0.603
      -1.174
      -1.909
      -2.736
      -3.440
      -3.832
      -3.843
      -3.510
      -2.942
      -2.304
      -1.756
      -1.339
      -0.898
      -0.186
       0.917
       2.260
       3.500
       4.308
       4.542
       4.264
       3.636
       2.793
       1.774
       0.576
      -0.736
      -1.968
      -2.894
      -3.426
      -3.665
      -3.782
      -3.861
      -3.865
      -3.729
      -3.432
      -2.960
      -2.273
      -1.360
      -0.328
       0.615
       1.304
       1.766
       2.216
       2.879
       3.788
       4.732
       5.394
       5.575
       5.314
       4.820
       4.274
       3.721
       3.122
       2.466
       1.806
       1.156
       0.415
      -0.586
      -1.941
      -3.543
      -5.093
      -6.247
      -6.772
      -6.638
      -5.980
      -4.999
      -3.873
      -2.743
      -1.719
      -0.863
      -0.167
       0.422
       0.920
       1.240
       1.262
       0.968
       0.518
       0.156
       0.022
       0.049
       0.059
      -0.042
      -0.136
       0.022
       0.604
       1.560
       2.660
       3.641
       4.314
       4.562
       4.301
       3.507
       2.278
       0.825
      -0.634
      -1.960
      -3.072
      -3.864
      -4.198
      -4.013
      -3.432
      -2.697
      -1.990
      -1.323
      -0.610
       0.169
       0.883
       1.330
       1.383
       1.093
       0.666
       0.341
       0.257
       0.390
       0.615
       0.804
       0.903
       0.921
       0.880
       0.786
       0.645
       0.502
       0.450
       0.587
       0.943
       1.450
       1.971
       2.386
       2.652
       2.786
       2.806
       2.677
       2.328
       1.716
       0.871
      -0.096
      -1.051
      -1.889
      -2.573
      -3.130
      -3.612
      -4.062
      -4.473
      -4.783
      -4.890
      -4.700
      -4.182
      -3.406
      -2.531
      -1.741
      -1.133
      -0.678
      -0.283
       0.096
       0.421
       0.649
       0.826
       1.063
       1.433
       1.895
       2.348
       2.744
       3.136
       3.614
       4.192
       4.748
       5.081
       5.053
       4.676
       4.099
       3.486
       2.920
       2.371
       1.739
       0.920
      -0.132
      -1.370
      -2.661
      -3.837
      -4.751
      -5.300
      -5.453
      -5.274
      -4.904
      -4.497
      -4.127
      -3.746
      -3.235
      -2.500
      -1.552
      -0.523
       0.394
       1.034
       1.359
       1.462
       1.507
       1.617
       1.818
       2.055
       2.266
       2.415
       2.484
       2.434
       2.217
       1.834
