Origin Time       17/9/2010 19:21:09	 UTC
Lat.              36.5 N	
Long.             70.8 E	
Depth (Km)        167.0
Magnitude         6.5
 Region           Hindukush                                                        
 Above details taken from IMD 
    
Station Code      BAR
Station Lat.       30.809  N
Station Long.      78.205  E
Station Height(m) 1305.0
Site Class        A   Vs30 between 700 m/sec to 1400 m/sec * 
Record Time       17.09.2010 19:24:14.449 UTC
Sampling Rate     200. Hz
 Record Duration   88.725 Sec.
 Direction         N-S (N positive)
Max. Acceleration     -2.676 cm/sec**2
     
  * For reference see Site Classification link of website 
     
 Base Line Corrected and Low Pass Filtered (Cut Off at 35 Hz) Time History
 Acceleration data in cm/sec**2
    
[...]
      -0.544
      -0.583
      -0.614
      -0.637
      -0.656
      -0.674
      -0.687
      -0.688
      -0.675
      -0.653
      -0.618
      -0.570
      -0.514
      -0.457
      -0.400
      -0.342
      -0.285
      -0.234
      -0.185
      -0.134
      -0.086
      -0.051
      -0.031
      -0.017
      -0.007
       0.000
       0.006
       0.014
       0.021
       0.027
       0.032
       0.037
       0.039
       0.033
       0.026
       0.028
       0.039
       0.055
       0.074
       0.096
       0.117
       0.134
       0.150
       0.168
       0.187
       0.204
       0.221
       0.242
       0.261
       0.270
       0.272
       0.272
       0.268
       0.259
       0.250
       0.246
       0.247
       0.248
       0.244
       0.236
       0.221
       0.203
       0.188
       0.184
       0.190
       0.201
       0.213
       0.226
       0.236
       0.239
       0.238
       0.242
       0.250
       0.264
       0.286
       0.314
       0.340
       0.358
       0.373
       0.389
       0.404
       0.415
       0.422
       0.429
       0.434
       0.431
       0.418
       0.397
       0.369
       0.335
       0.302
       0.269
       0.230
       0.180
       0.123
       0.064
       0.004
      -0.059
      -0.122
      -0.183
      -0.248
      -0.316
      -0.380
      -0.433
      -0.475
      -0.509
      -0.535
      -0.552
      -0.567
      -0.581
      -0.590
      -0.587
      -0.577
      -0.565
      -0.553
      -0.537
      -0.519
      -0.494
      -0.460
      -0.417
      -0.373
      -0.335
      -0.300
      -0.263
      -0.225
      -0.188
      -0.148
      -0.102
      -0.051
       0.004
       0.065
       0.130
       0.190
       0.236
       0.272
       0.304
       0.337
       0.370
       0.402
       0.432
       0.455
       0.471
       0.487
       0.502
       0.507
       0.499
       0.483
       0.465
       0.441
       0.408
       0.366
       0.320
       0.268
       0.213
       0.164
       0.124
       0.090
       0.061
       0.043
       0.043
       0.058
       0.081
       0.106
       0.130
       0.153
       0.179
       0.219
       0.269
       0.315
       0.348
       0.366
       0.372
       0.365
       0.343
       0.310
       0.267
       0.216
       0.159
       0.101
       0.045
      -0.016
      -0.082
      -0.148
      -0.209
      -0.266
      -0.320
      -0.366
      -0.405
      -0.439
      -0.471
      -0.497
      -0.515
      -0.533
      -0.555
      -0.574
      -0.589
      -0.598
      -0.607
      -0.620
      -0.640
      -0.674
      -0.712
      -0.744
      -0.764
      -0.779
      -0.793
      -0.804
      -0.808
      -0.804
      -0.786
      -0.747
      -0.687
      -0.611
      -0.528
      -0.435
      -0.335
      -0.233
      -0.132
      -0.031
       0.071
       0.170
       0.269
       0.369
       0.468
       0.559
       0.636
       0.701
       0.749
       0.776
       0.783
       0.778
       0.765
       0.742
       0.709
       0.671
       0.629
       0.580
       0.531
       0.485
       0.444
       0.400
       0.352
       0.305
       0.263
       0.223
       0.182
       0.141
       0.099
       0.059
       0.024
      -0.001
      -0.023
      -0.051
      -0.081
      -0.104
      -0.118
      -0.130
      -0.142
      -0.152
      -0.154
      -0.148
      -0.133
      -0.102
      -0.056
       0.003
       0.072
       0.147
       0.222
       0.291
       0.355
       0.422
       0.494
       0.563
       0.627
       0.685
       0.730
       0.756
       0.764
       0.763
       0.759
       0.754
       0.745
       0.732
       0.710
       0.678
       0.639
       0.600
       0.560
       0.518
       0.482
       0.458
       0.444
       0.425
       0.396
       0.360
       0.321
       0.284
       0.256
       0.238
       0.218
       0.183
       0.130
       0.064
      -0.013
      -0.103
      -0.207
      -0.323
      -0.451
      -0.589
      -0.730
      -0.868
      -1.003
      -1.139
      -1.268
      -1.378
      -1.464
      -1.531
      -1.579
      -1.610
      -1.626
      -1.626
      -1.604
      -1.554
      -1.482
      -1.399
      -1.312
      -1.219
      -1.122
      -1.021
      -0.915
      -0.801
      -0.685
      -0.570
      -0.455
      -0.340
      -0.232
      -0.136
      -0.051
       0.028
       0.102
       0.167
       0.224
       0.273
       0.310
       0.332
       0.350
       0.373
       0.404
       0.433
       0.457
       0.474
       0.486
       0.494
       0.501
       0.505
       0.495
       0.470
       0.437
       0.403
       0.366
       0.317
       0.255
       0.186
       0.111
       0.031
      -0.051
      -0.130
      -0.203
      -0.264
      -0.303
      -0.319
      -0.319
      -0.308
      -0.283
      -0.240
      -0.182
      -0.116
      -0.044
       0.037
       0.128
       0.224
       0.325
       0.428
       0.525
       0.612
       0.693
       0.774
       0.852
       0.922
       0.978
       1.017
       1.033
       1.026
       1.002
       0.966
       0.915
       0.844
       0.758
       0.660
       0.547
       0.422
       0.293
       0.166
       0.040
      -0.090
      -0.223
      -0.351
      -0.471
      -0.581
      -0.680
      -0.767
      -0.850
      -0.926
      -0.988
      -1.031
      -1.060
      -1.081
      -1.093
      -1.093
      -1.083
      -1.065
      -1.036
      -0.994
      -0.940
      -0.877
      -0.807
      -0.733
      -0.663
      -0.603
      -0.547
      -0.491
      -0.436
      -0.382
      -0.327
      -0.272
      -0.222
      -0.177
      -0.128
      -0.070
      -0.011
       0.046
       0.101
       0.159
       0.225
       0.300
       0.389
       0.485
       0.573
       0.649
       0.717
       0.783
       0.849
       0.909
       0.964
       1.010
       1.044
       1.063
       1.072
       1.070
       1.052
       1.016
       0.967
       0.910
       0.843
       0.765
       0.680
       0.591
       0.497
       0.401
       0.311
       0.225
       0.138
       0.047
      -0.040
      -0.117
      -0.184
      -0.245
      -0.299
      -0.348
      -0.388
      -0.416
      -0.423
      -0.414
      -0.402
      -0.395
      -0.390
      -0.386
      -0.387
      -0.393
      -0.402
      -0.411
      -0.421
      -0.430
      -0.429
      -0.417
      -0.398
      -0.373
      -0.339
      -0.298
      -0.257
      -0.220
      -0.190
      -0.167
      -0.151
      -0.138
      -0.123
      -0.108
      -0.101
      -0.108
      -0.125
      -0.148
      -0.179
      -0.214
      -0.250
      -0.286
      -0.323
      -0.357
      -0.378
      -0.383
      -0.379
      -0.368
      -0.348
      -0.321
      -0.292
      -0.260
      -0.215
      -0.156
      -0.089
      -0.021
       0.047
       0.111
       0.170
       0.223
       0.272
       0.315
       0.345
       0.361
       0.367
       0.368
       0.364
       0.360
       0.364
       0.376
       0.390
       0.402
       0.414
       0.425
       0.433
       0.438
       0.447
       0.456
       0.455
       0.442
       0.415
       0.372
       0.309
       0.226
       0.129
       0.020
      -0.104
      -0.241
      -0.387
      -0.544
      -0.712
      -0.887
      -1.059
      -1.222
      -1.372
      -1.501
      -1.598
      -1.662
      -1.699
      -1.712
      -1.696
      -1.652
      -1.583
      -1.490
      -1.376
      -1.244
      -1.100
      -0.943
      -0.775
      -0.603
      -0.437
      -0.281
      -0.135
       0.000
       0.116
       0.214
       0.297
       0.367
       0.423
       0.469
       0.513
       0.557
       0.597
       0.633
       0.665
       0.690
       0.707
       0.719
       0.731
       0.739
       0.743
       0.750
       0.768
       0.798
       0.833
       0.870
       0.913
       0.965
       1.021
       1.079
       1.134
       1.175
       1.194
       1.198
       1.195
       1.183
       1.157
       1.114
       1.059
       0.995
       0.925
       0.855
       0.787
       0.720
       0.653
       0.593
       0.546
       0.511
       0.484
       0.468
       0.465
       0.470
       0.475
       0.475
       0.474
       0.467
       0.449
       0.417
       0.372
       0.314
       0.241
       0.160
       0.077
      -0.009
      -0.100
      -0.197
      -0.299
      -0.412
      -0.531
      -0.647
      -0.751
      -0.844
      -0.931
      -1.014
      -1.087
      -1.150
      -1.202
      -1.237
      -1.252
      -1.253
      -1.242
      -1.216
      -1.172
      -1.112
      -1.039
      -0.956
      -0.867
      -0.781
      -0.703
      -0.627
      -0.545
      -0.457
      -0.365
      -0.268
      -0.164
      -0.058
       0.047
       0.157
       0.281
       0.420
       0.565
       0.705
       0.829
       0.930
       1.017
       1.108
       1.213
       1.320
       1.415
       1.486
       1.534
       1.556
       1.550
       1.511
       1.437
       1.325
       1.180
       1.013
       0.832
       0.645
       0.461
       0.285
       0.110
      -0.077
      -0.276
      -0.468
      -0.633
      -0.771
      -0.886
      -0.982
      -1.054
      -1.108
      -1.151
      -1.187
      -1.220
      -1.246
      -1.260
      -1.253
      -1.226
      -1.192
      -1.167
      -1.152
      -1.138
      -1.121
      -1.093
      -1.047
      -0.982
      -0.902
      -0.813
      -0.720
      -0.628
      -0.537
      -0.440
      -0.318
      -0.169
      -0.006
       0.150
       0.283
       0.391
       0.476
       0.556
       0.656
       0.797
       0.983
       1.192
       1.377
       1.485
       1.491
       1.428
       1.364
       1.350
       1.387
       1.444
       1.489
       1.505
       1.486
       1.432
       1.354
       1.264
       1.173
       1.093
       1.031
       0.981
       0.920
       0.826
       0.693
       0.532
       0.367
       0.222
       0.108
       0.012
      -0.089
      -0.207
      -0.335
      -0.461
      -0.577
      -0.674
      -0.746
      -0.792
      -0.818
      -0.829
      -0.825
      -0.811
      -0.795
      -0.777
      -0.753
      -0.719
      -0.679
      -0.632
      -0.578
      -0.523
      -0.481
      -0.456
      -0.446
      -0.449
      -0.467
      -0.503
      -0.554
      -0.621
      -0.704
      -0.798
      -0.893
      -0.983
      -1.067
      -1.138
      -1.191
      -1.226
      -1.245
      -1.243
      -1.209
      -1.148
      -1.069
      -0.982
      -0.885
      -0.779
      -0.666
      -0.541
      -0.396
      -0.225
      -0.035
       0.161
       0.351
       0.520
       0.661
       0.779
       0.889
       0.995
       1.092
       1.171
       1.226
       1.252
       1.245
       1.213
       1.169
       1.115
       1.049
       0.969
       0.879
       0.780
       0.673
       0.564
       0.463
       0.378
       0.312
       0.269
       0.249
       0.243
       0.241
       0.245
       0.262
       0.297
       0.349
       0.416
       0.498
       0.588
       0.675
       0.751
       0.816
       0.864
       0.890
       0.894
       0.877
       0.836
       0.763
       0.659
       0.530
       0.380
       0.213
       0.038
      -0.140
      -0.320
      -0.506
      -0.690
      -0.864
      -1.024
      -1.171
      -1.302
      -1.409
      -1.489
      -1.545
      -1.574
      -1.572
      -1.539
      -1.480
      -1.396
      -1.286
      -1.157
      -1.019
      -0.872
      -0.712
      -0.541
      -0.366
      -0.191
      -0.020
       0.144
       0.295
       0.435
       0.565
       0.685
       0.790
       0.884
       0.965
       1.026
       1.057
       1.056
       1.024
       0.957
       0.856
       0.724
       0.570
       0.397
       0.204
       0.004
      -0.191
      -0.371
      -0.537
      -0.688
      -0.824
      -0.951
      -1.068
      -1.164
      -1.234
      -1.278
      -1.302
      -1.304
      -1.281
      -1.233
      -1.164
      -1.078
      -0.976
      -0.863
      -0.741
      -0.605
      -0.447
      -0.269
      -0.078
       0.120
       0.323
       0.519
       0.698
       0.854
       0.984
       1.086
       1.160
       1.214
       1.253
       1.268
       1.249
       1.197
       1.118
       1.019
       0.907
       0.792
       0.677
       0.556
       0.422
       0.275
       0.122
      -0.037
      -0.198
      -0.352
      -0.492
      -0.617
      -0.732
      -0.839
      -0.942
      -1.045
      -1.146
      -1.234
      -1.299
      -1.341
      -1.358
      -1.347
      -1.306
      -1.240
      -1.152
      -1.038
      -0.899
      -0.744
      -0.585
      -0.428
      -0.271
      -0.119
       0.024
       0.160
       0.287
       0.400
       0.495
       0.576
       0.645
       0.703
       0.755
       0.813
       0.884
       0.966
       1.054
       1.147
       1.244
       1.342
       1.439
       1.540
       1.644
       1.743
       1.825
       1.887
       1.927
       1.940
       1.921
       1.872
       1.792
       1.680
       1.539
       1.373
       1.184
       0.967
       0.723
       0.459
       0.177
      -0.125
      -0.445
      -0.769
      -1.083
      -1.382
      -1.662
      -1.919
      -2.148
      -2.346
      -2.508
      -2.618
      -2.672
      -2.676
      -2.636
      -2.556
      -2.439
      -2.290
      -2.113
      -1.909
      -1.680
      -1.434
      -1.180
      -0.920
      -0.664
      -0.422
      -0.197
       0.014
       0.214
       0.399
       0.567
       0.718
       0.852
       0.961
       1.043
       1.099
       1.131
       1.136
       1.117
       1.084
       1.043
       0.995
       0.940
       0.887
       0.837
       0.785
       0.734
       0.691
       0.664
       0.656
       0.666
       0.695
       0.734
       0.770
       0.799
       0.821
       0.834
       0.830
       0.804
       0.760
       0.703
       0.631
       0.546
       0.449
       0.338
       0.213
       0.080
      -0.047
      -0.163
      -0.269
      -0.365
      -0.444
      -0.504
      -0.543
      -0.561
      -0.557
      -0.535
      -0.505
      -0.469
      -0.422
      -0.363
      -0.300
      -0.238
      -0.174
      -0.108
      -0.044
       0.020
       0.084
       0.150
       0.216
       0.285
       0.362
       0.443
       0.518
       0.586
       0.647
       0.698
       0.730
       0.742
       0.739
       0.726
       0.703
       0.665
       0.611
       0.534
       0.432
       0.315
       0.197
       0.081
      -0.037
      -0.159
      -0.280
      -0.400
      -0.516
      -0.625
      -0.714
      -0.778
      -0.819
      -0.836
      -0.833
      -0.815
      -0.786
      -0.745
      -0.687
      -0.615
      -0.537
      -0.455
      -0.364
      -0.265
      -0.166
      -0.072
       0.012
       0.079
       0.123
       0.148
       0.158
       0.153
       0.129
       0.087
       0.031
      -0.041
      -0.131
      -0.234
      -0.343
      -0.458
      -0.584
      -0.720
      -0.857
      -0.990
      -1.113
      -1.221
      -1.309
      -1.381
      -1.440
      -1.480
      -1.494
      -1.478
      -1.432
      -1.352
      -1.236
      -1.088
      -0.916
      -0.726
      -0.520
      -0.300
      -0.070
       0.175
       0.437
       0.708
       0.977
       1.234
       1.475
       1.690
       1.868
       2.003
       2.095
       2.135
       2.119
       2.048
       1.925
       1.750
       1.525
       1.254
       0.947
       0.610
       0.246
      -0.131
      -0.503
      -0.855
      -1.179
      -1.468
      -1.715
      -1.921
      -2.079
      -2.178
      -2.205
      -2.164
      -2.064
      -1.917
      -1.733
      -1.521
      -1.288
      -1.036
      -0.767
      -0.491
      -0.220
       0.044
       0.306
       0.561
       0.804
       1.033
       1.245
       1.436
       1.603
       1.747
       1.868
       1.961
       2.019
       2.043
       2.032
       1.981
       1.892
       1.776
       1.643
       1.493
       1.319
       1.123
       0.911
       0.686
       0.455
       0.221
      -0.020
      -0.278
      -0.554
      -0.838
      -1.114
      -1.372
      -1.608
      -1.815
      -1.990
      -2.135
      -2.251
      -2.332
      -2.373
      -2.370
      -2.318
      -2.212
      -2.051
      -1.846
      -1.608
      -1.338
      -1.037
      -0.713
      -0.379
      -0.044
       0.285
       0.597
       0.883
       1.144
       1.381
       1.590
       1.767
       1.909
       2.011
       2.067
       2.079
       2.058
       2.010
       1.934
       1.827
       1.692
       1.532
       1.348
       1.142
       0.926
       0.716
       0.518
       0.338
       0.181
       0.048
      -0.063
      -0.151
      -0.212
      -0.246
      -0.260
      -0.266
      -0.268
      -0.270
      -0.279
      -0.303
      -0.338
      -0.387
      -0.452
      -0.534
      -0.622
      -0.709
      -0.796
      -0.881
      -0.955
      -1.012
      -1.048
      -1.063
      -1.056
      -1.032
      -0.998
      -0.954
      -0.891
      -0.807
      -0.705
      -0.591
      -0.462
      -0.318
      -0.164
      -0.009
       0.145
       0.293
       0.423
       0.527
       0.601
       0.646
       0.663
       0.662
       0.654
       0.641
       0.616
       0.574
       0.518
       0.454
       0.382
       0.306
       0.231
       0.153
       0.066
      -0.027
      -0.111
      -0.178
      -0.231
      -0.273
      -0.303
      -0.316
      -0.310
      -0.284
      -0.239
      -0.185
      -0.134
      -0.093
      -0.061
      -0.039
      -0.031
      -0.035
      -0.042
      -0.050
      -0.068
      -0.103
      -0.153
      -0.217
      -0.292
      -0.374
      -0.451
      -0.516
      -0.566
      -0.600
      -0.613
      -0.609
      -0.593
      -0.567
      -0.525
      -0.463
      -0.380
      -0.271
      -0.132
       0.031
       0.207
       0.387
       0.567
       0.740
       0.896
       1.036
       1.163
       1.276
       1.367
       1.433
       1.478
       1.504
       1.510
       1.499
       1.479
       1.449
       1.409
       1.360
       1.308
       1.255
       1.200
       1.142
       1.081
       1.010
       0.925
       0.828
       0.729
       0.627
       0.516
       0.394
       0.266
       0.132
      -0.008
      -0.155
      -0.304
      -0.453
      -0.606
      -0.761
      -0.914
      -1.062
      -1.203
      -1.328
      -1.430
      -1.509
      -1.571
      -1.618
      -1.646
      -1.658
      -1.661
      -1.656
      -1.634
      -1.589
      -1.518
      -1.425
      -1.317
      -1.205
      -1.098
      -0.992
      -0.879
      -0.759
      -0.638
      -0.517
      -0.391
      -0.259
      -0.119
       0.030
       0.191
       0.360
       0.529
       0.695
       0.861
       1.028
       1.193
       1.358
       1.519
       1.666
       1.787
       1.884
       1.961
       2.015
       2.036
       2.023
       1.974
       1.890
       1.773
