Origin Time       01/05/2009 22:36:25
Lat.              29.9 N 
Long.             80.1 E 
Depth (Km)         10.0
Magnitude         4.6
 Region           Bageshwar-Uttarakhand                                            
 Above details taken from IMD 
   
Station Code      BAR
Station Lat.       30.809
Station Long.      78.205
Station Height(m) 1305.0
Site Class        A   Vs30 between 700 m/sec to 1400 m/sec * 
Record Time       01.05.2010 22:37:27.369
Sampling Rate     200. Hz
 Record Duration   82.385 Sec.
 Direction         Vert. (Up positive)
Max. Acceleration      1.305 cm/sec**2
     
  * For reference see Site Classification link of website 
     
 Base Line Corrected and Low Pass Filtered (Cut Off at 35 Hz) Time History
 Acceleration data in cm/sec**2
    
[...]
       0.009
      -0.003
      -0.018
      -0.044
      -0.077
      -0.100
      -0.109
      -0.116
      -0.122
      -0.117
      -0.098
      -0.075
      -0.048
      -0.016
       0.010
       0.013
      -0.002
      -0.007
       0.013
       0.056
       0.116
       0.192
       0.268
       0.319
       0.340
       0.343
       0.330
       0.292
       0.235
       0.179
       0.129
       0.073
       0.007
      -0.058
      -0.113
      -0.165
      -0.212
      -0.240
      -0.245
      -0.240
      -0.234
      -0.225
      -0.216
      -0.213
      -0.208
      -0.184
      -0.140
      -0.098
      -0.064
      -0.028
       0.015
       0.054
       0.085
       0.114
       0.142
       0.153
       0.146
       0.135
       0.128
       0.115
       0.086
       0.046
      -0.003
      -0.057
      -0.098
      -0.104
      -0.073
      -0.030
       0.006
       0.036
       0.058
       0.060
       0.043
       0.028
       0.023
       0.018
       0.003
      -0.019
      -0.049
      -0.095
      -0.148
      -0.186
      -0.195
      -0.182
      -0.151
      -0.096
      -0.026
       0.030
       0.050
       0.041
       0.018
      -0.013
      -0.041
      -0.046
      -0.023
       0.015
       0.058
       0.107
       0.154
       0.181
       0.177
       0.152
       0.116
       0.061
      -0.008
      -0.070
      -0.105
      -0.118
      -0.115
      -0.095
      -0.065
      -0.039
      -0.018
       0.011
       0.045
       0.062
       0.047
       0.020
       0.004
       0.007
       0.022
       0.050
       0.084
       0.109
       0.117
       0.117
       0.111
       0.090
       0.057
       0.032
       0.024
       0.019
       0.002
      -0.023
      -0.051
      -0.094
      -0.153
      -0.210
      -0.249
      -0.275
      -0.291
      -0.285
      -0.247
      -0.192
      -0.132
      -0.066
       0.004
       0.068
       0.121
       0.177
       0.239
       0.295
       0.330
       0.349
       0.356
       0.342
       0.303
       0.252
       0.203
       0.150
       0.089
       0.026
      -0.033
      -0.094
      -0.158
      -0.205
      -0.225
      -0.228
      -0.230
      -0.226
      -0.208
      -0.186
      -0.164
      -0.133
      -0.089
      -0.047
      -0.023
      -0.013
      -0.007
      -0.008
      -0.017
      -0.025
      -0.032
      -0.049
      -0.085
      -0.126
      -0.152
      -0.164
      -0.167
      -0.152
      -0.112
      -0.058
      -0.001
       0.061
       0.127
       0.176
       0.193
       0.186
       0.171
       0.151
       0.124
       0.100
       0.089
       0.085
       0.083
       0.093
       0.120
       0.148
       0.163
       0.173
       0.182
       0.179
       0.150
       0.100
       0.044
      -0.017
      -0.089
      -0.162
      -0.218
      -0.253
      -0.270
      -0.265
      -0.243
      -0.222
      -0.212
      -0.195
      -0.155
      -0.104
      -0.062
      -0.032
      -0.007
       0.012
       0.021
       0.029
       0.043
       0.055
       0.054
       0.046
       0.043
       0.047
       0.056
       0.078
       0.111
       0.133
       0.123
       0.088
       0.048
       0.007
      -0.033
      -0.060
      -0.060
      -0.040
      -0.015
       0.017
       0.059
       0.096
       0.107
       0.087
       0.047
      -0.008
      -0.066
      -0.108
      -0.125
      -0.141
      -0.177
      -0.224
      -0.258
      -0.268
      -0.262
      -0.238
      -0.186
      -0.116
      -0.045
       0.019
       0.076
       0.117
       0.140
       0.157
       0.178
       0.193
       0.188
       0.172
       0.163
       0.157
       0.145
       0.128
       0.119
       0.115
       0.104
       0.091
       0.087
       0.089
       0.083
       0.068
       0.054
       0.037
       0.008
      -0.025
      -0.047
      -0.053
      -0.045
      -0.021
       0.016
       0.041
       0.032
      -0.007
      -0.051
      -0.098
      -0.162
      -0.248
      -0.346
      -0.445
      -0.541
      -0.615
      -0.642
      -0.616
      -0.543
      -0.426
      -0.273
      -0.109
       0.040
       0.178
       0.319
       0.459
       0.573
       0.645
       0.672
       0.652
       0.587
       0.497
       0.406
       0.320
       0.233
       0.157
       0.108
       0.078
       0.044
      -0.001
      -0.049
      -0.096
      -0.148
      -0.197
      -0.227
      -0.238
      -0.237
      -0.220
      -0.178
      -0.123
      -0.075
      -0.044
      -0.020
      -0.004
      -0.008
      -0.025
      -0.035
      -0.033
      -0.027
      -0.019
      -0.005
       0.006
       0.002
      -0.012
      -0.021
      -0.020
      -0.021
      -0.030
      -0.042
      -0.067
      -0.114
      -0.170
      -0.211
      -0.229
      -0.238
      -0.238
      -0.216
      -0.165
      -0.090
       0.002
       0.110
       0.213
       0.288
       0.332
       0.362
       0.382
       0.385
       0.371
       0.358
       0.347
       0.322
       0.274
       0.212
       0.133
       0.030
      -0.089
      -0.200
      -0.285
      -0.344
      -0.380
      -0.398
      -0.415
      -0.442
      -0.469
      -0.460
      -0.401
      -0.303
      -0.183
      -0.054
       0.060
       0.136
       0.178
       0.208
       0.237
       0.250
       0.238
       0.206
       0.160
       0.097
       0.029
      -0.022
      -0.048
      -0.061
      -0.068
      -0.060
      -0.034
      -0.001
       0.031
       0.063
       0.084
       0.081
       0.063
       0.051
       0.055
       0.066
       0.081
       0.105
       0.133
       0.142
       0.122
       0.088
       0.048
      -0.002
      -0.058
      -0.098
      -0.104
      -0.083
      -0.045
       0.000
       0.042
       0.062
       0.064
       0.060
       0.054
       0.027
      -0.028
      -0.096
      -0.161
      -0.217
      -0.256
      -0.264
      -0.238
      -0.193
      -0.132
      -0.050
       0.044
       0.124
       0.175
       0.209
       0.233
       0.239
       0.224
       0.198
       0.161
       0.101
       0.018
      -0.063
      -0.120
      -0.146
      -0.148
      -0.135
      -0.124
      -0.140
      -0.184
      -0.228
      -0.253
      -0.263
      -0.266
      -0.255
      -0.227
      -0.191
      -0.153
      -0.109
      -0.062
      -0.026
       0.000
       0.032
       0.079
       0.127
       0.163
       0.189
       0.204
       0.193
       0.155
       0.114
       0.088
       0.079
       0.079
       0.092
       0.111
       0.122
       0.115
       0.103
       0.094
       0.083
       0.067
       0.062
       0.080
       0.109
       0.137
       0.164
       0.183
       0.181
       0.151
       0.104
       0.043
      -0.040
      -0.139
      -0.227
      -0.280
      -0.306
      -0.316
      -0.304
      -0.263
      -0.195
      -0.112
      -0.017
       0.074
       0.133
       0.143
       0.115
       0.068
       0.008
      -0.051
      -0.084
      -0.076
      -0.041
       0.000
       0.041
       0.083
       0.114
       0.130
       0.137
       0.139
       0.123
       0.083
       0.035
      -0.007
      -0.048
      -0.090
      -0.121
      -0.131
      -0.130
      -0.132
      -0.129
      -0.109
      -0.077
      -0.042
      -0.009
       0.014
       0.013
      -0.013
      -0.041
      -0.050
      -0.046
      -0.042
      -0.039
      -0.032
      -0.029
      -0.034
      -0.034
      -0.022
      -0.009
      -0.007
      -0.007
       0.006
       0.029
       0.051
       0.074
       0.103
       0.133
       0.160
       0.191
       0.224
       0.231
       0.187
       0.102
       0.002
      -0.093
      -0.171
      -0.211
      -0.201
      -0.149
      -0.079
      -0.002
       0.076
       0.142
       0.192
       0.233
       0.266
       0.268
       0.224
       0.146
       0.061
      -0.027
      -0.122
      -0.213
      -0.288
      -0.346
      -0.395
      -0.430
      -0.445
      -0.447
      -0.439
      -0.412
      -0.354
      -0.276
      -0.189
      -0.089
       0.026
       0.134
       0.211
       0.258
       0.289
       0.307
       0.309
       0.304
       0.307
       0.314
       0.316
       0.318
       0.325
       0.325
       0.308
       0.282
       0.255
       0.221
       0.169
       0.107
       0.044
      -0.024
      -0.107
      -0.192
      -0.259
      -0.302
      -0.330
      -0.348
      -0.353
      -0.356
      -0.362
      -0.360
      -0.336
      -0.301
      -0.273
      -0.252
      -0.223
      -0.188
      -0.150
      -0.106
      -0.048
       0.008
       0.042
       0.056
       0.065
       0.082
       0.112
       0.172
       0.269
       0.386
       0.493
       0.581
       0.646
       0.671
       0.640
       0.558
       0.446
       0.312
       0.163
       0.016
      -0.109
      -0.214
      -0.315
      -0.409
      -0.482
      -0.532
      -0.569
      -0.588
      -0.576
      -0.536
      -0.481
      -0.419
      -0.355
      -0.303
      -0.267
      -0.231
      -0.171
      -0.096
      -0.034
       0.003
       0.022
       0.028
       0.021
       0.016
       0.032
       0.072
       0.127
       0.194
       0.277
       0.357
       0.410
       0.427
       0.420
       0.390
       0.336
       0.271
       0.214
       0.170
       0.133
       0.108
       0.107
       0.125
       0.144
       0.153
       0.156
       0.142
       0.098
       0.024
      -0.064
      -0.160
      -0.260
      -0.348
      -0.399
      -0.410
      -0.394
      -0.355
      -0.283
      -0.184
      -0.080
       0.015
       0.100
       0.167
       0.208
       0.232
       0.256
       0.278
       0.288
       0.291
       0.302
       0.324
       0.338
       0.337
       0.326
       0.303
       0.260
       0.201
       0.143
       0.088
       0.027
      -0.040
      -0.098
      -0.147
      -0.190
      -0.219
      -0.215
      -0.183
      -0.148
      -0.126
      -0.111
      -0.103
      -0.108
      -0.127
      -0.145
      -0.159
      -0.179
      -0.209
      -0.242
      -0.276
      -0.313
      -0.342
      -0.343
      -0.317
      -0.283
      -0.250
      -0.207
      -0.157
      -0.115
      -0.077
      -0.025
       0.052
       0.147
       0.246
       0.341
       0.413
       0.437
       0.417
       0.379
       0.341
       0.304
       0.269
       0.240
       0.215
       0.178
       0.131
       0.091
       0.059
       0.016
      -0.052
      -0.138
      -0.228
      -0.309
      -0.360
      -0.362
      -0.327
      -0.290
      -0.271
      -0.257
      -0.235
      -0.206
      -0.173
      -0.134
      -0.096
      -0.072
      -0.056
      -0.028
       0.020
       0.076
       0.128
       0.179
       0.222
       0.241
       0.235
       0.222
       0.206
       0.169
       0.096
      -0.001
      -0.106
      -0.206
      -0.293
      -0.352
      -0.383
      -0.393
      -0.374
      -0.308
      -0.190
      -0.047
       0.098
       0.240
       0.373
       0.480
       0.553
       0.601
       0.623
       0.601
       0.530
       0.422
       0.286
       0.121
      -0.063
      -0.231
      -0.361
      -0.453
      -0.509
      -0.517
      -0.472
      -0.388
      -0.287
      -0.179
      -0.082
      -0.017
       0.008
       0.009
      -0.001
      -0.025
      -0.056
      -0.071
      -0.055
      -0.012
       0.049
       0.131
       0.230
       0.325
       0.401
       0.458
       0.492
       0.487
       0.433
       0.342
       0.220
       0.063
      -0.121
      -0.299
      -0.439
      -0.534
      -0.590
      -0.605
      -0.580
      -0.526
      -0.452
      -0.358
      -0.256
      -0.175
      -0.125
      -0.089
      -0.052
      -0.017
       0.011
       0.046
       0.096
       0.155
       0.211
       0.259
       0.293
       0.294
       0.263
       0.228
       0.218
       0.237
       0.276
       0.327
       0.373
       0.382
       0.343
       0.278
       0.218
       0.176
       0.154
       0.158
       0.183
       0.209
       0.215
       0.198
       0.159
       0.088
      -0.013
      -0.117
      -0.204
      -0.278
      -0.352
      -0.420
      -0.473
      -0.514
      -0.545
      -0.555
      -0.540
      -0.512
      -0.483
      -0.442
      -0.381
      -0.315
      -0.262
      -0.218
      -0.172
      -0.120
      -0.058
       0.030
       0.150
       0.288
       0.427
       0.559
       0.678
       0.757
       0.775
       0.739
       0.662
       0.543
       0.378
       0.176
      -0.049
      -0.289
      -0.526
      -0.717
      -0.830
      -0.862
      -0.822
      -0.707
      -0.512
      -0.258
       0.017
       0.280
       0.502
       0.655
       0.731
       0.751
       0.734
       0.674
       0.558
       0.396
       0.211
       0.019
      -0.170
      -0.336
      -0.467
      -0.568
      -0.648
      -0.691
      -0.676
      -0.597
      -0.460
      -0.269
      -0.037
       0.200
       0.408
       0.574
       0.696
       0.757
       0.736
       0.629
       0.447
       0.197
      -0.105
      -0.415
      -0.688
      -0.903
      -1.048
      -1.107
      -1.067
      -0.941
      -0.755
      -0.518
      -0.232
       0.086
       0.409
       0.721
       1.000
       1.207
       1.305
       1.288
       1.173
       0.970
       0.697
       0.386
       0.074
      -0.225
      -0.497
      -0.709
      -0.817
      -0.807
      -0.690
      -0.489
      -0.238
       0.014
       0.219
       0.358
       0.437
       0.459
       0.427
       0.355
       0.259
       0.135
      -0.021
      -0.194
      -0.357
      -0.494
      -0.603
      -0.670
      -0.684
      -0.652
      -0.593
      -0.514
      -0.411
      -0.294
      -0.179
      -0.063
       0.062
       0.189
       0.302
       0.392
       0.457
       0.482
       0.455
       0.390
       0.315
       0.242
       0.167
       0.094
       0.027
      -0.038
      -0.110
      -0.176
      -0.217
      -0.232
      -0.232
      -0.211
      -0.151
      -0.055
       0.054
       0.163
       0.267
       0.357
       0.418
       0.450
       0.455
       0.424
       0.346
       0.238
       0.129
       0.035
      -0.046
      -0.108
      -0.142
      -0.158
      -0.176
      -0.203
      -0.229
      -0.255
      -0.287
      -0.314
      -0.314
      -0.282
      -0.231
      -0.171
      -0.111
      -0.072
      -0.077
      -0.120
      -0.175
      -0.220
      -0.249
      -0.253
      -0.225
      -0.176
      -0.130
      -0.090
      -0.046
       0.004
       0.052
       0.101
       0.167
       0.251
       0.341
       0.435
       0.528
       0.598
       0.616
       0.581
       0.519
       0.453
       0.390
       0.340
       0.307
       0.278
       0.224
       0.139
       0.039
      -0.063
      -0.167
      -0.264
      -0.341
      -0.391
      -0.419
      -0.417
      -0.372
      -0.292
      -0.205
      -0.129
      -0.075
      -0.053
      -0.073
      -0.123
      -0.170
      -0.199
      -0.216
      -0.221
      -0.207
      -0.178
      -0.154
      -0.139
      -0.118
      -0.083
      -0.035
       0.025
       0.100
       0.177
       0.234
       0.256
       0.245
       0.195
       0.099
      -0.024
      -0.132
      -0.200
      -0.236
      -0.252
      -0.255
      -0.253
      -0.255
      -0.249
      -0.210
      -0.128
      -0.016
       0.114
       0.261
       0.406
       0.521
       0.591
       0.624
       0.621
       0.574
       0.485
       0.375
       0.258
       0.130
      -0.002
      -0.121
      -0.219
      -0.307
      -0.388
      -0.449
      -0.479
      -0.478
      -0.448
      -0.390
      -0.322
      -0.275
      -0.258
      -0.249
      -0.231
      -0.202
      -0.163
      -0.104
      -0.023
       0.066
       0.152
       0.236
       0.312
       0.367
       0.403
       0.438
       0.476
       0.500
       0.500
       0.486
       0.469
       0.444
       0.418
       0.412
       0.437
       0.473
       0.494
       0.487
       0.443
       0.350
       0.207
       0.026
      -0.182
      -0.418
      -0.662
      -0.875
      -1.030
      -1.125
      -1.151
      -1.092
      -0.942
      -0.730
      -0.495
      -0.264
      -0.056
       0.113
       0.241
       0.340
       0.411
       0.439
       0.416
       0.352
       0.252
       0.110
      -0.062
      -0.225
      -0.338
      -0.386
      -0.365
      -0.269
      -0.105
       0.098
       0.309
       0.511
       0.684
       0.801
       0.851
       0.843
       0.790
       0.686
       0.532
       0.347
       0.149
      -0.055
      -0.251
      -0.416
      -0.546
      -0.664
      -0.788
      -0.908
      -1.002
      -1.056
      -1.053
      -0.971
      -0.800
      -0.556
      -0.266
       0.050
       0.369
       0.656
       0.882
       1.037
       1.110
       1.084
       0.961
       0.770
       0.546
       0.298
       0.035
      -0.219
      -0.428
      -0.569
      -0.625
      -0.586
      -0.470
      -0.325
      -0.192
      -0.084
       0.003
       0.062
       0.092
       0.108
       0.118
       0.110
       0.068
       0.003
      -0.062
      -0.109
      -0.129
      -0.113
      -0.066
      -0.011
       0.040
       0.101
       0.179
       0.255
       0.307
       0.333
       0.344
       0.338
       0.316
       0.293
       0.275
       0.252
       0.211
       0.158
       0.102
       0.038
      -0.044
      -0.136
      -0.226
      -0.312
      -0.387
      -0.424
      -0.401
      -0.326
      -0.222
      -0.104
       0.013
       0.100
       0.140
       0.140
       0.118
       0.075
       0.013
      -0.046
      -0.075
      -0.066
      -0.031
       0.022
       0.077
       0.110
       0.116
       0.114
       0.126
       0.136
       0.119
       0.070
       0.004
      -0.063
      -0.112
      -0.121
      -0.082
      -0.021
       0.024
       0.044
       0.048
       0.043
       0.037
       0.045
       0.076
       0.106
       0.107
       0.074
       0.022
      -0.040
      -0.104
      -0.153
      -0.178
      -0.195
      -0.222
      -0.248
      -0.252
      -0.224
      -0.174
      -0.107
      -0.034
       0.027
       0.068
       0.104
       0.160
       0.232
       0.300
       0.350
       0.370
       0.340
       0.258
       0.154
       0.071
       0.024
      -0.006
      -0.034
      -0.069
      -0.116
      -0.175
      -0.225
      -0.253
      -0.271
      -0.298
      -0.338
      -0.381
      -0.429
      -0.486
      -0.535
      -0.545
      -0.501
      -0.407
      -0.265
      -0.079
       0.119
       0.288
       0.410
       0.494
       0.554
       0.602
       0.647
       0.681
       0.673
       0.599
       0.476
       0.341
       0.217
       0.104
       0.003
      -0.080
      -0.147
      -0.206
      -0.240
      -0.226
      -0.164
      -0.081
       0.003
       0.076
       0.127
       0.153
       0.171
       0.200
