Origin Time       28/5/2010 07:25:06	 UTC
Lat.              31.2 N	
Long.             77.9 E	
Depth (Km)         43.0
Magnitude         4.8
 Region           Himachal                                                         
 Above details taken from USGS
    
Station Code      BAR
Station Lat.       30.809  N
Station Long.      78.205  E
Station Height(m) 1305.0
Site Class        A   Vs30 between 700 m/sec to 1400 m/sec * 
Record Time       28.05.2010 07:25:22.739 UTC
Sampling Rate     200. Hz
 Record Duration   81.985 Sec.
 Direction         N-S (N positive)
Max. Acceleration     -2.899 cm/sec**2
     
  * For reference see Site Classification link of website 
     
 Base Line Corrected and Low Pass Filtered (Cut Off at 35 Hz) Time History
 Acceleration data in cm/sec**2
    
[...]
      -0.151
      -0.072
       0.030
       0.118
       0.164
       0.162
       0.137
       0.110
       0.080
       0.026
      -0.056
      -0.139
      -0.165
      -0.101
       0.035
       0.178
       0.268
       0.284
       0.239
       0.157
       0.069
       0.017
       0.035
       0.117
       0.206
       0.238
       0.187
       0.079
      -0.036
      -0.129
      -0.206
      -0.287
      -0.378
      -0.461
      -0.520
      -0.549
      -0.546
      -0.504
      -0.415
      -0.293
      -0.166
      -0.067
      -0.006
       0.031
       0.070
       0.137
       0.238
       0.354
       0.456
       0.517
       0.523
       0.467
       0.364
       0.255
       0.189
       0.187
       0.218
       0.226
       0.176
       0.090
       0.032
       0.051
       0.137
       0.234
       0.281
       0.257
       0.187
       0.110
       0.058
       0.046
       0.063
       0.083
       0.077
       0.040
      -0.015
      -0.071
      -0.127
      -0.200
      -0.307
      -0.447
      -0.591
      -0.690
      -0.703
      -0.622
      -0.467
      -0.269
      -0.052
       0.157
       0.321
       0.408
       0.405
       0.331
       0.225
       0.136
       0.094
       0.108
       0.160
       0.217
       0.233
       0.165
       0.002
      -0.208
      -0.383
      -0.452
      -0.405
      -0.291
      -0.177
      -0.105
      -0.077
      -0.062
      -0.031
       0.020
       0.073
       0.112
       0.132
       0.129
       0.104
       0.072
       0.065
       0.105
       0.187
       0.272
       0.321
       0.317
       0.275
       0.222
       0.179
       0.147
       0.116
       0.075
       0.014
      -0.072
      -0.182
      -0.288
      -0.352
      -0.348
      -0.282
      -0.177
      -0.058
       0.055
       0.150
       0.222
       0.279
       0.338
       0.409
       0.475
       0.492
       0.414
       0.229
      -0.021
      -0.261
      -0.436
      -0.534
      -0.580
      -0.601
      -0.610
      -0.607
      -0.596
      -0.585
      -0.580
      -0.568
      -0.525
      -0.435
      -0.301
      -0.142
       0.027
       0.202
       0.373
       0.516
       0.601
       0.618
       0.580
       0.507
       0.412
       0.299
       0.177
       0.065
      -0.024
      -0.092
      -0.160
      -0.233
      -0.284
      -0.270
      -0.176
      -0.037
       0.081
       0.130
       0.108
       0.039
      -0.040
      -0.104
      -0.140
      -0.147
      -0.125
      -0.080
      -0.012
       0.079
       0.192
       0.306
       0.375
       0.350
       0.232
       0.088
       0.019
       0.079
       0.239
       0.405
       0.491
       0.478
       0.404
       0.324
       0.265
       0.217
       0.158
       0.085
       0.015
      -0.029
      -0.032
      -0.005
       0.019
       0.006
      -0.043
      -0.098
      -0.134
      -0.168
      -0.232
      -0.334
      -0.443
      -0.516
      -0.533
      -0.505
      -0.457
      -0.411
      -0.377
      -0.353
      -0.325
      -0.270
      -0.166
      -0.016
       0.131
       0.216
       0.217
       0.171
       0.134
       0.128
       0.122
       0.075
      -0.023
      -0.138
      -0.217
      -0.224
      -0.168
      -0.092
      -0.042
      -0.031
      -0.037
      -0.022
       0.040
       0.138
       0.234
       0.284
       0.269
       0.214
       0.163
       0.146
       0.160
       0.169
       0.139
       0.063
      -0.027
      -0.089
      -0.107
      -0.105
      -0.115
      -0.140
      -0.161
      -0.164
      -0.147
      -0.112
      -0.051
       0.039
       0.157
       0.287
       0.413
       0.517
       0.589
       0.629
       0.636
       0.605
       0.534
       0.422
       0.273
       0.094
      -0.097
      -0.277
      -0.428
      -0.545
      -0.624
      -0.656
      -0.642
      -0.598
      -0.548
      -0.508
      -0.479
      -0.463
      -0.461
      -0.468
      -0.464
      -0.426
      -0.336
      -0.196
      -0.023
       0.151
       0.298
       0.414
       0.511
       0.609
       0.719
       0.841
       0.958
       1.046
       1.075
       1.012
       0.838
       0.569
       0.261
      -0.007
      -0.185
      -0.278
      -0.333
      -0.397
      -0.486
      -0.582
      -0.639
      -0.616
      -0.510
      -0.371
      -0.271
      -0.256
      -0.320
      -0.428
      -0.538
      -0.619
      -0.648
      -0.615
      -0.534
      -0.443
      -0.378
      -0.348
      -0.329
      -0.286
      -0.206
      -0.100
       0.028
       0.186
       0.380
       0.578
       0.728
       0.793
       0.776
       0.716
       0.655
       0.617
       0.598
       0.582
       0.563
       0.555
       0.570
       0.590
       0.572
       0.483
       0.323
       0.123
      -0.083
      -0.272
      -0.432
      -0.559
      -0.648
      -0.693
      -0.690
      -0.634
      -0.519
      -0.345
      -0.135
       0.067
       0.219
       0.307
       0.347
       0.356
       0.328
       0.248
       0.119
      -0.021
      -0.124
      -0.171
      -0.198
      -0.266
      -0.412
      -0.606
      -0.784
      -0.892
      -0.919
      -0.888
      -0.821
      -0.724
      -0.590
      -0.420
      -0.226
      -0.029
       0.154
       0.310
       0.423
       0.485
       0.515
       0.559
       0.663
       0.838
       1.057
       1.274
       1.450
       1.558
       1.583
       1.521
       1.380
       1.175
       0.919
       0.630
       0.332
       0.061
      -0.150
      -0.283
      -0.348
      -0.384
      -0.438
      -0.541
      -0.692
      -0.864
      -1.021
      -1.137
      -1.203
      -1.223
      -1.204
      -1.149
      -1.064
      -0.967
      -0.873
      -0.781
      -0.673
      -0.532
      -0.358
      -0.167
       0.024
       0.193
       0.314
       0.359
       0.317
       0.208
       0.084
       0.010
       0.027
       0.128
       0.264
       0.374
       0.419
       0.401
       0.350
       0.307
       0.295
       0.312
       0.348
       0.396
       0.452
       0.497
       0.509
       0.483
       0.439
       0.411
       0.422
       0.468
       0.523
       0.552
       0.533
       0.470
       0.384
       0.298
       0.216
       0.124
      -0.001
      -0.174
      -0.392
      -0.630
      -0.855
      -1.043
      -1.184
      -1.279
      -1.336
      -1.364
      -1.358
      -1.300
      -1.178
      -1.003
      -0.811
      -0.635
      -0.484
      -0.348
      -0.204
      -0.032
       0.166
       0.357
       0.488
       0.528
       0.503
       0.478
       0.505
       0.589
       0.693
       0.776
       0.810
       0.781
       0.691
       0.558
       0.426
       0.346
       0.338
       0.368
       0.380
       0.346
       0.281
       0.209
       0.141
       0.072
       0.012
      -0.024
      -0.029
      -0.019
      -0.023
      -0.064
      -0.149
      -0.266
      -0.391
      -0.507
      -0.604
      -0.669
      -0.687
      -0.651
      -0.571
      -0.466
      -0.344
      -0.193
      -0.001
       0.216
       0.414
       0.550
       0.622
       0.681
       0.784
       0.929
       1.053
       1.077
       0.971
       0.759
       0.501
       0.262
       0.085
      -0.017
      -0.051
      -0.030
       0.037
       0.133
       0.214
       0.240
       0.202
       0.139
       0.101
       0.106
       0.125
       0.105
       0.016
      -0.133
      -0.315
      -0.519
      -0.734
      -0.926
      -1.038
      -1.035
      -0.945
      -0.840
      -0.781
      -0.779
      -0.800
      -0.808
      -0.798
      -0.795
      -0.821
      -0.853
      -0.840
      -0.739
      -0.557
      -0.330
      -0.087
       0.161
       0.409
       0.641
       0.827
       0.947
       0.997
       0.981
       0.901
       0.756
       0.560
       0.354
       0.186
       0.077
       0.016
      -0.016
      -0.021
       0.005
       0.057
       0.117
       0.162
       0.180
       0.177
       0.168
       0.164
       0.171
       0.193
       0.243
       0.328
       0.434
       0.518
       0.533
       0.467
       0.348
       0.227
       0.137
       0.084
       0.053
       0.023
      -0.024
      -0.105
      -0.242
      -0.441
      -0.683
      -0.921
      -1.114
      -1.242
      -1.300
      -1.278
      -1.174
      -1.008
      -0.812
      -0.611
      -0.401
      -0.161
       0.115
       0.401
       0.640
       0.778
       0.791
       0.704
       0.568
       0.441
       0.359
       0.312
       0.251
       0.120
      -0.097
      -0.349
      -0.560
      -0.684
      -0.718
      -0.684
      -0.593
      -0.438
      -0.213
       0.065
       0.354
       0.610
       0.817
       0.998
       1.178
       1.355
       1.508
       1.620
       1.699
       1.755
       1.768
       1.696
       1.512
       1.241
       0.954
       0.709
       0.494
       0.228
      -0.163
      -0.678
      -1.234
      -1.720
      -2.057
      -2.219
      -2.230
      -2.133
      -1.974
      -1.789
      -1.603
      -1.432
      -1.275
      -1.124
      -0.985
      -0.888
      -0.868
      -0.921
      -0.994
      -1.021
      -0.966
      -0.831
      -0.637
      -0.403
      -0.141
       0.127
       0.365
       0.551
       0.708
       0.890
       1.133
       1.416
       1.681
       1.873
       1.972
       1.978
       1.903
       1.756
       1.558
       1.340
       1.145
       1.002
       0.908
       0.810
       0.639
       0.353
      -0.036
      -0.463
      -0.840
      -1.090
      -1.171
      -1.084
      -0.874
      -0.606
      -0.342
      -0.130
       0.015
       0.097
       0.133
       0.143
       0.152
       0.180
       0.217
       0.225
       0.175
       0.069
      -0.059
      -0.187
      -0.318
      -0.466
      -0.631
      -0.798
      -0.941
      -1.038
      -1.079
      -1.070
      -1.028
      -0.975
      -0.929
      -0.897
      -0.865
      -0.788
      -0.613
      -0.315
       0.068
       0.446
       0.712
       0.805
       0.746
       0.627
       0.556
       0.597
       0.737
       0.910
       1.030
       1.033
       0.901
       0.672
       0.421
       0.233
       0.178
       0.292
       0.558
       0.910
       1.253
       1.507
       1.626
       1.604
       1.452
       1.186
       0.833
       0.437
       0.056
      -0.254
      -0.470
      -0.611
      -0.723
      -0.843
      -0.988
      -1.158
      -1.350
      -1.564
      -1.804
      -2.069
      -2.340
      -2.571
      -2.694
      -2.647
      -2.413
      -2.043
      -1.645
      -1.325
      -1.113
      -0.944
      -0.710
      -0.342
       0.145
       0.675
       1.169
       1.580
       1.887
       2.087
       2.179
       2.179
       2.130
       2.083
       2.063
       2.053
       2.016
       1.935
       1.809
       1.632
       1.394
       1.113
       0.853
       0.679
       0.598
       0.551
       0.463
       0.309
       0.124
      -0.041
      -0.168
      -0.285
      -0.431
      -0.635
      -0.912
      -1.261
      -1.649
      -1.995
      -2.204
      -2.233
      -2.128
      -1.992
      -1.903
      -1.866
      -1.815
      -1.678
      -1.436
      -1.139
      -0.853
      -0.607
      -0.389
      -0.171
       0.059
       0.300
       0.551
       0.803
       1.028
       1.186
       1.241
       1.182
       1.038
       0.870
       0.745
       0.700
       0.720
       0.756
       0.764
       0.750
       0.772
       0.884
       1.078
       1.268
       1.354
       1.289
       1.094
       0.818
       0.495
       0.149
      -0.188
      -0.486
      -0.740
      -0.970
      -1.204
      -1.450
      -1.693
      -1.891
      -1.993
      -1.958
      -1.767
      -1.438
      -1.021
      -0.587
      -0.209
       0.069
       0.249
       0.373
       0.491
       0.635
       0.798
       0.938
       1.003
       0.959
       0.796
       0.521
       0.155
      -0.258
      -0.650
      -0.952
      -1.106
      -1.094
      -0.947
      -0.738
      -0.543
      -0.389
      -0.242
      -0.041
       0.245
       0.593
       0.951
       1.271
       1.530
       1.720
       1.819
       1.798
       1.645
       1.396
       1.125
       0.899
       0.743
       0.648
       0.585
       0.526
       0.446
       0.331
       0.188
       0.051
      -0.033
      -0.044
      -0.012
      -0.010
      -0.098
      -0.269
      -0.444
      -0.546
      -0.563
      -0.559
      -0.611
      -0.736
      -0.873
      -0.944
      -0.934
      -0.920
      -0.999
      -1.206
      -1.475
      -1.689
      -1.759
      -1.672
      -1.482
      -1.271
      -1.108
      -1.018
      -0.984
      -0.957
      -0.886
      -0.734
      -0.496
      -0.200
       0.094
       0.345
       0.558
       0.785
       1.069
       1.392
       1.673
       1.827
       1.829
       1.738
       1.641
       1.591
       1.574
       1.537
       1.438
       1.277
       1.102
       0.972
       0.915
       0.908
       0.897
       0.849
       0.768
       0.672
       0.569
       0.454
       0.320
       0.158
      -0.056
      -0.343
      -0.688
      -1.019
      -1.249
      -1.357
      -1.423
      -1.575
      -1.889
      -2.312
      -2.696
      -2.899
      -2.871
      -2.657
      -2.347
      -2.026
      -1.743
      -1.511
      -1.307
      -1.088
      -0.810
      -0.454
      -0.046
       0.351
       0.682
       0.937
       1.150
       1.365
       1.595
       1.832
       2.060
       2.265
       2.416
       2.481
       2.448
       2.341
       2.210
       2.090
       1.980
       1.861
       1.724
       1.586
       1.466
       1.349
       1.188
       0.947
       0.624
       0.249
      -0.146
      -0.536
      -0.893
      -1.193
      -1.422
      -1.594
      -1.737
      -1.880
      -2.033
      -2.184
      -2.297
      -2.335
      -2.278
      -2.135
      -1.945
      -1.755
      -1.608
      -1.519
      -1.457
      -1.365
      -1.193
      -0.929
      -0.604
      -0.271
       0.028
       0.283
       0.502
       0.693
       0.855
       0.990
       1.110
       1.222
       1.311
       1.358
       1.358
       1.331
       1.301
       1.280
       1.264
       1.236
       1.176
       1.080
       0.974
       0.888
       0.825
       0.740
       0.579
       0.341
       0.100
      -0.047
      -0.060
       0.011
       0.077
       0.096
       0.102
       0.148
       0.229
       0.266
       0.170
      -0.076
      -0.400
      -0.682
      -0.829
      -0.813
      -0.679
      -0.514
      -0.408
      -0.425
      -0.570
      -0.776
      -0.929
      -0.941
      -0.821
      -0.669
      -0.592
      -0.633
      -0.766
      -0.943
      -1.129
      -1.293
      -1.383
      -1.324
      -1.074
      -0.671
      -0.230
       0.132
       0.360
       0.472
       0.516
       0.527
       0.534
       0.558
       0.618
       0.726
       0.884
       1.077
       1.268
       1.399
       1.416
       1.300
       1.088
       0.856
       0.685
       0.606
       0.575
       0.513
       0.370
       0.169
      -0.012
      -0.096
      -0.054
       0.078
       0.230
       0.336
       0.365
       0.318
       0.216
       0.095
      -0.004
      -0.052
      -0.062
      -0.077
      -0.133
      -0.221
      -0.299
      -0.334
      -0.335
      -0.350
      -0.443
      -0.645
      -0.930
      -1.221
      -1.434
      -1.531
      -1.547
      -1.560
      -1.628
      -1.734
      -1.786
      -1.681
      -1.377
      -0.909
      -0.367
       0.151
       0.559
       0.804
       0.890
       0.885
       0.890
       0.976
       1.142
       1.325
       1.439
       1.443
       1.365
       1.275
       1.224
       1.201
       1.160
       1.063
       0.922
       0.785
       0.692
       0.638
       0.581
       0.483
       0.348
       0.200
       0.056
      -0.087
      -0.227
      -0.343
      -0.424
      -0.499
      -0.630
      -0.854
      -1.139
      -1.393
      -1.525
      -1.513
      -1.418
      -1.326
      -1.279
      -1.255
      -1.211
      -1.130
      -1.020
      -0.888
      -0.727
      -0.537
      -0.338
      -0.159
      -0.002
       0.172
       0.407
       0.697
       0.974
       1.160
       1.234
       1.249
       1.270
       1.311
       1.331
       1.277
       1.140
       0.970
       0.831
       0.763
       0.752
       0.751
       0.723
       0.650
       0.538
       0.394
       0.235
       0.092
       0.007
      -0.001
       0.036
       0.037
      -0.075
      -0.313
      -0.602
      -0.843
      -0.985
      -1.050
      -1.092
      -1.131
      -1.140
      -1.085
      -0.964
      -0.815
      -0.683
      -0.584
      -0.491
      -0.375
      -0.245
      -0.153
      -0.143
      -0.196
      -0.239
      -0.206
      -0.087
       0.062
       0.170
       0.210
       0.207
       0.205
       0.218
       0.234
       0.235
       0.227
       0.232
       0.264
       0.319
       0.377
       0.426
       0.467
       0.516
       0.581
       0.653
       0.720
       0.783
       0.852
       0.924
       0.949
       0.863
       0.634
       0.310
      -0.008
      -0.236
      -0.365
      -0.445
      -0.524
      -0.600
      -0.640
      -0.620
      -0.551
      -0.450
      -0.330
      -0.202
      -0.095
      -0.032
      -0.014
      -0.008
       0.029
       0.117
       0.242
       0.356
       0.415
       0.402
       0.318
       0.164
      -0.073
      -0.393
      -0.750
      -1.064
      -1.274
      -1.369
      -1.382
      -1.340
      -1.236
      -1.045
      -0.775
      -0.478
      -0.214
      -0.010
       0.148
       0.281
       0.397
       0.490
       0.559
       0.611
       0.654
       0.694
       0.731
       0.754
       0.740
       0.674
       0.562
       0.434
       0.317
       0.218
       0.127
       0.026
      -0.098
      -0.247
      -0.402
      -0.523
      -0.552
      -0.440
      -0.184
       0.147
       0.436
       0.594
       0.611
       0.553
       0.501
       0.484
       0.475
       0.426
       0.313
       0.160
       0.012
      -0.097
      -0.166
      -0.218
      -0.281
      -0.370
      -0.470
      -0.544
      -0.549
      -0.466
      -0.314
      -0.140
       0.018
       0.147
       0.254
       0.357
       0.480
       0.638
       0.809
       0.938
       0.961
       0.861
       0.673
       0.460
       0.263
       0.072
      -0.139
      -0.367
      -0.564
      -0.679
      -0.705
      -0.682
      -0.653
      -0.642
      -0.642
      -0.642
      -0.631
      -0.607
      -0.573
      -0.528
      -0.479
      -0.427
      -0.371
      -0.294
      -0.183
      -0.042
       0.102
       0.221
       0.310
       0.377
       0.424
       0.429
       0.363
       0.212
       0.004
      -0.198
      -0.314
      -0.302
      -0.182
      -0.016
       0.141
       0.266
       0.369
       0.455
