Origin Time       15/2/2009 07:35:55 
Lat.              26.0 N 
Long.             90.2 E 
Depth (Km)         39.3
Magnitude         4.4
 Region           Assam-Meghalaya-Border                                           
 Above details taken from IMD 
     
Station Code      BAR
Station Lat.       26.332  N
Station Long.      91.006  E
Station Height(m)   47.0
Site Class        C   Vs30 between 200 m/sec to 375 m/sec *  
Record Time       15.02.2009 19:36:08.064
Sampling Rate     200. Hz
 Record Duration   65.905 Sec.
 Direction         E-W (E positive)
Max. Acceleration      6.395 cm/sec**2
     
  * For reference see Site Classification link of website 
     
 Base Line Corrected and Low Pass Filtered (Cut Off at 35 Hz) Time History
 Acceleration data in cm/sec**2
    
[...]
      -0.113
      -0.076
      -0.074
      -0.075
      -0.057
      -0.015
       0.035
       0.077
       0.103
       0.116
       0.123
       0.127
       0.129
       0.139
       0.170
       0.227
       0.290
       0.325
       0.307
       0.235
       0.133
       0.024
      -0.090
      -0.216
      -0.351
      -0.467
      -0.532
      -0.529
      -0.474
      -0.398
      -0.325
      -0.263
      -0.210
      -0.178
      -0.184
      -0.235
      -0.303
      -0.337
      -0.298
      -0.187
      -0.039
       0.109
       0.248
       0.392
       0.552
       0.707
       0.811
       0.819
       0.722
       0.558
       0.386
       0.252
       0.169
       0.119
       0.082
       0.048
       0.026
       0.025
       0.037
       0.034
      -0.013
      -0.110
      -0.233
      -0.343
      -0.413
      -0.445
      -0.456
      -0.460
      -0.444
      -0.380
      -0.256
      -0.090
       0.071
       0.179
       0.213
       0.179
       0.106
       0.021
      -0.052
      -0.097
      -0.095
      -0.032
       0.094
       0.255
       0.394
       0.453
       0.405
       0.276
       0.129
       0.020
      -0.033
      -0.056
      -0.086
      -0.137
      -0.190
      -0.217
      -0.199
      -0.143
      -0.069
       0.002
       0.046
       0.042
      -0.021
      -0.130
      -0.245
      -0.312
      -0.294
      -0.195
      -0.049
       0.097
       0.209
       0.264
       0.256
       0.194
       0.109
       0.043
       0.032
       0.074
       0.131
       0.154
       0.117
       0.036
      -0.044
      -0.085
      -0.072
      -0.024
       0.030
       0.064
       0.067
       0.045
       0.010
      -0.025
      -0.049
      -0.049
      -0.019
       0.038
       0.096
       0.116
       0.072
      -0.027
      -0.136
      -0.207
      -0.227
      -0.224
      -0.235
      -0.265
      -0.276
      -0.226
      -0.108
       0.032
       0.132
       0.159
       0.130
       0.091
       0.076
       0.083
       0.089
       0.075
       0.050
       0.038
       0.058
       0.108
       0.164
       0.199
       0.198
       0.167
       0.122
       0.078
       0.045
       0.026
       0.014
       0.002
      -0.025
      -0.077
      -0.154
      -0.234
      -0.285
      -0.281
      -0.219
      -0.127
      -0.047
      -0.020
      -0.060
      -0.145
      -0.230
      -0.276
      -0.270
      -0.225
      -0.162
      -0.091
      -0.016
       0.056
       0.107
       0.129
       0.134
       0.141
       0.154
       0.143
       0.068
      -0.078
      -0.251
      -0.377
      -0.408
      -0.345
      -0.222
      -0.078
       0.060
       0.167
       0.219
       0.199
       0.114
      -0.004
      -0.106
      -0.157
      -0.149
      -0.102
      -0.040
       0.026
       0.103
       0.201
       0.317
       0.424
       0.486
       0.480
       0.416
       0.334
       0.278
       0.274
       0.311
       0.347
       0.341
       0.278
       0.174
       0.067
      -0.011
      -0.050
      -0.060
      -0.062
      -0.074
      -0.099
      -0.134
      -0.166
      -0.186
      -0.180
      -0.141
      -0.069
       0.014
       0.073
       0.079
       0.026
      -0.064
      -0.151
      -0.200
      -0.200
      -0.163
      -0.119
      -0.091
      -0.088
      -0.106
      -0.130
      -0.148
      -0.155
      -0.154
      -0.152
      -0.148
      -0.137
      -0.120
      -0.105
      -0.106
      -0.126
      -0.152
      -0.159
      -0.129
      -0.061
       0.023
       0.097
       0.138
       0.142
       0.118
       0.081
       0.051
       0.042
       0.063
       0.108
       0.157
       0.183
       0.159
       0.085
      -0.019
      -0.114
      -0.170
      -0.174
      -0.131
      -0.058
       0.023
       0.092
       0.132
       0.135
       0.101
       0.038
      -0.038
      -0.106
      -0.146
      -0.145
      -0.106
      -0.049
       0.007
       0.043
       0.047
       0.017
      -0.038
      -0.096
      -0.126
      -0.113
      -0.059
       0.018
       0.097
       0.163
       0.200
       0.201
       0.165
       0.106
       0.052
       0.027
       0.040
       0.078
       0.114
       0.126
       0.110
       0.075
       0.027
      -0.035
      -0.113
      -0.202
      -0.284
      -0.333
      -0.331
      -0.284
      -0.217
      -0.152
      -0.100
      -0.055
      -0.013
       0.023
       0.047
       0.056
       0.052
       0.036
       0.010
      -0.020
      -0.046
      -0.050
      -0.018
       0.058
       0.166
       0.274
       0.336
       0.315
       0.204
       0.039
      -0.126
      -0.249
      -0.316
      -0.334
      -0.308
      -0.235
      -0.119
       0.009
       0.102
       0.125
       0.085
       0.029
       0.007
       0.038
       0.103
       0.167
       0.212
       0.246
       0.291
       0.351
       0.408
       0.427
       0.392
       0.318
       0.239
       0.186
       0.159
       0.132
       0.077
      -0.007
      -0.102
      -0.183
      -0.242
      -0.279
      -0.298
      -0.299
      -0.287
      -0.278
      -0.285
      -0.307
      -0.320
      -0.301
      -0.246
      -0.174
      -0.110
      -0.065
      -0.027
       0.023
       0.100
       0.194
       0.274
       0.308
       0.281
       0.212
       0.138
       0.091
       0.073
       0.065
       0.055
       0.048
       0.061
       0.096
       0.132
       0.138
       0.101
       0.037
      -0.022
      -0.062
      -0.088
      -0.114
      -0.144
      -0.165
      -0.160
      -0.120
      -0.045
       0.053
       0.155
       0.237
       0.277
       0.267
       0.220
       0.160
       0.102
       0.044
      -0.024
      -0.098
      -0.158
      -0.174
      -0.140
      -0.076
      -0.020
      -0.001
      -0.020
      -0.057
      -0.093
      -0.123
      -0.152
      -0.184
      -0.207
      -0.214
      -0.204
      -0.194
      -0.200
      -0.219
      -0.230
      -0.212
      -0.155
      -0.070
       0.029
       0.127
       0.212
       0.270
       0.287
       0.256
       0.191
       0.129
       0.110
       0.147
       0.222
       0.300
       0.347
       0.347
       0.307
       0.240
       0.168
       0.117
       0.110
       0.152
       0.208
       0.222
       0.156
       0.019
      -0.130
      -0.233
      -0.270
      -0.258
      -0.225
      -0.179
      -0.119
      -0.055
      -0.020
      -0.049
      -0.143
      -0.260
      -0.348
      -0.379
      -0.357
      -0.303
      -0.220
      -0.103
       0.042
       0.173
       0.230
       0.179
       0.043
      -0.111
      -0.211
      -0.227
      -0.172
      -0.077
       0.026
       0.117
       0.181
       0.210
       0.205
       0.179
       0.154
       0.143
       0.137
       0.112
       0.052
      -0.037
      -0.120
      -0.158
      -0.133
      -0.062
       0.009
       0.042
       0.028
      -0.006
      -0.018
       0.014
       0.078
       0.141
       0.167
       0.139
       0.062
      -0.042
      -0.144
      -0.214
      -0.232
      -0.192
      -0.104
       0.009
       0.110
       0.164
       0.149
       0.077
      -0.014
      -0.075
      -0.084
      -0.053
      -0.018
      -0.006
      -0.013
      -0.012
       0.025
       0.110
       0.223
       0.328
       0.386
       0.378
       0.309
       0.201
       0.074
      -0.055
      -0.165
      -0.229
      -0.220
      -0.137
      -0.006
       0.126
       0.216
       0.242
       0.203
       0.109
      -0.023
      -0.162
      -0.267
      -0.297
      -0.244
      -0.134
      -0.013
       0.082
       0.142
       0.183
       0.226
       0.274
       0.306
       0.290
       0.213
       0.096
      -0.010
      -0.065
      -0.066
      -0.050
      -0.057
      -0.097
      -0.147
      -0.175
      -0.169
      -0.145
      -0.127
      -0.128
      -0.153
      -0.203
      -0.275
      -0.349
      -0.383
      -0.340
      -0.218
      -0.068
       0.034
       0.043
      -0.029
      -0.124
      -0.185
      -0.193
      -0.166
      -0.129
      -0.094
      -0.056
      -0.018
       0.001
      -0.021
      -0.069
      -0.096
      -0.054
       0.064
       0.206
       0.303
       0.315
       0.251
       0.155
       0.067
       0.003
      -0.032
      -0.036
      -0.012
       0.026
       0.059
       0.075
       0.078
       0.078
       0.078
       0.067
       0.037
      -0.010
      -0.052
      -0.064
      -0.034
       0.030
       0.108
       0.179
       0.221
       0.227
       0.199
       0.152
       0.101
       0.056
       0.016
      -0.013
      -0.015
       0.030
       0.121
       0.227
       0.297
       0.294
       0.227
       0.142
       0.082
       0.054
       0.021
      -0.057
      -0.183
      -0.322
      -0.430
      -0.485
      -0.495
      -0.471
      -0.411
      -0.301
      -0.146
       0.019
       0.144
       0.195
       0.179
       0.132
       0.085
       0.044
      -0.001
      -0.045
      -0.061
      -0.020
       0.076
       0.190
       0.278
       0.328
       0.355
       0.374
       0.369
       0.309
       0.180
       0.010
      -0.140
      -0.223
      -0.238
      -0.222
      -0.217
      -0.238
      -0.265
      -0.266
      -0.228
      -0.165
      -0.107
      -0.071
      -0.048
      -0.013
       0.055
       0.163
       0.302
       0.449
       0.573
       0.642
       0.636
       0.554
       0.424
       0.282
       0.166
       0.096
       0.073
       0.076
       0.079
       0.064
       0.022
      -0.044
      -0.130
      -0.233
      -0.339
      -0.429
      -0.475
      -0.455
      -0.373
      -0.262
      -0.168
      -0.121
      -0.116
      -0.116
      -0.086
      -0.007
       0.114
       0.261
       0.417
       0.557
       0.652
       0.667
       0.588
       0.436
       0.265
       0.136
       0.089
       0.123
       0.207
       0.302
       0.373
       0.400
       0.369
       0.271
       0.110
      -0.089
      -0.275
      -0.399
      -0.436
      -0.397
      -0.320
      -0.238
      -0.165
      -0.096
      -0.032
       0.007
      -0.008
      -0.090
      -0.214
      -0.324
      -0.365
      -0.323
      -0.234
      -0.160
      -0.153
      -0.220
      -0.328
      -0.425
      -0.461
      -0.411
      -0.277
      -0.097
       0.068
       0.163
       0.162
       0.090
       0.004
      -0.035
       0.000
       0.098
       0.220
       0.335
       0.428
       0.491
       0.512
       0.478
       0.397
       0.316
       0.296
       0.378
       0.542
       0.716
       0.811
       0.773
       0.613
       0.395
       0.194
       0.056
      -0.011
      -0.031
      -0.035
      -0.049
      -0.093
      -0.182
      -0.325
      -0.527
      -0.784
      -1.088
      -1.423
      -1.767
      -2.090
      -2.367
      -2.583
      -2.740
      -2.852
      -2.941
      -3.025
      -3.109
      -3.186
      -3.239
      -3.249
      -3.192
      -3.049
      -2.808
      -2.469
      -2.050
      -1.583
      -1.105
      -0.650
      -0.229
       0.178
       0.626
       1.176
       1.850
       2.610
       3.364
       4.007
       4.477
       4.774
       4.938
       5.006
       4.990
       4.894
       4.742
       4.576
       4.418
       4.248
       4.009
       3.660
       3.207
       2.695
       2.163
       1.615
       1.029
       0.391
      -0.278
      -0.934
      -1.545
      -2.107
      -2.640
      -3.153
      -3.633
      -4.055
      -4.393
      -4.631
      -4.750
      -4.725
      -4.536
      -4.187
      -3.717
      -3.170
      -2.576
      -1.941
      -1.273
      -0.608
      -0.014
       0.442
       0.738
       0.918
       1.078
       1.323
       1.734
       2.339
       3.097
       3.907
       4.630
       5.139
       5.354
       5.247
       4.828
       4.136
       3.234
       2.215
       1.185
       0.254
      -0.490
      -0.990
      -1.223
      -1.206
      -0.992
      -0.651
      -0.260
       0.105
       0.363
       0.435
       0.272
      -0.110
      -0.632
      -1.177
      -1.628
      -1.902
      -1.950
      -1.753
      -1.319
      -0.683
       0.087
       0.887
       1.587
       2.051
       2.164
       1.878
       1.249
       0.437
      -0.355
      -0.970
      -1.348
      -1.520
      -1.558
      -1.524
      -1.465
      -1.420
      -1.435
      -1.568
      -1.874
      -2.390
      -3.099
      -3.907
      -4.646
      -5.125
      -5.201
      -4.836
      -4.105
      -3.160
      -2.171
      -1.266
      -0.500
       0.138
       0.690
       1.186
       1.628
       1.993
       2.259
       2.437
       2.577
       2.759
       3.055
       3.493
       4.027
       4.553
       4.951
       5.132
       5.060
       4.741
       4.190
       3.418
       2.456
       1.373
       0.280
      -0.719
      -1.576
      -2.312
      -2.981
      -3.616
      -4.217
      -4.748
      -5.156
      -5.374
      -5.352
      -5.093
      -4.686
      -4.275
      -3.981
      -3.818
      -3.679
      -3.392
      -2.817
      -1.906
      -0.720
       0.615
       1.947
       3.133
       4.064
       4.696
       5.066
       5.292
       5.516
       5.815
       6.151
       6.393
       6.395
       6.080
       5.459
       4.611
       3.632
       2.602
       1.577
       0.590
      -0.326
      -1.132
      -1.780
      -2.241
      -2.537
      -2.749
      -2.978
      -3.268
      -3.563
      -3.741
      -3.704
      -3.464
      -3.140
      -2.886
      -2.786
      -2.817
      -2.875
      -2.844
      -2.643
      -2.228
      -1.590
      -0.772
       0.120
       0.925
       1.479
       1.698
       1.629
       1.431
       1.293
       1.329
       1.525
       1.765
       1.914
       1.881
       1.657
       1.308
       0.947
       0.700
       0.646
       0.771
       0.963
       1.065
       0.965
       0.670
       0.301
       0.013
      -0.110
      -0.098
      -0.069
      -0.135
      -0.341
      -0.653
      -0.984
      -1.241
      -1.349
      -1.277
      -1.045
      -0.727
      -0.433
      -0.274
      -0.307
      -0.501
      -0.753
      -0.946
      -1.008
      -0.918
      -0.688
      -0.337
       0.096
       0.536
       0.882
       1.048
       1.012
       0.826
       0.578
       0.350
       0.181
       0.073
       0.005
      -0.055
      -0.146
      -0.291
      -0.480
      -0.658
      -0.750
      -0.701
      -0.516
      -0.268
      -0.059
       0.036
       0.017
      -0.043
      -0.030
       0.140
       0.470
       0.862
       1.174
       1.301
       1.236
       1.070
       0.935
       0.922
       1.037
       1.208
       1.337
       1.355
       1.249
       1.045
       0.768
       0.427
       0.020
      -0.449
      -0.958
      -1.466
      -1.914
      -2.249
      -2.438
      -2.496
      -2.467
      -2.389
      -2.261
      -2.048
      -1.730
      -1.342
      -0.978
      -0.723
      -0.586
      -0.494
      -0.351
      -0.121
       0.154
       0.405
       0.601
       0.774
       0.978
       1.233
       1.499
       1.708
       1.800
       1.755
       1.590
       1.339
       1.047
       0.763
       0.536
       0.390
       0.318
       0.287
       0.274
       0.285
       0.339
       0.442
       0.567
       0.655
       0.653
       0.535
       0.320
       0.069
      -0.143
      -0.263
      -0.288
      -0.274
      -0.310
      -0.461
      -0.712
      -0.956
      -1.049
      -0.906
      -0.564
      -0.173
       0.099
       0.178
       0.124
       0.066
       0.099
       0.202
       0.271
       0.204
      -0.017
      -0.307
      -0.537
      -0.610
      -0.505
      -0.268
       0.023
       0.284
       0.458
       0.527
       0.518
       0.479
       0.456
       0.468
       0.504
       0.538
       0.549
       0.528
       0.463
       0.333
       0.116
      -0.185
      -0.520
      -0.799
      -0.924
      -0.831
      -0.524
      -0.086
       0.344
       0.622
       0.666
       0.485
       0.166
      -0.184
      -0.485
      -0.700
      -0.813
      -0.811
      -0.678
      -0.423
      -0.087
       0.256
       0.529
       0.693
       0.751
       0.743
       0.712
       0.686
       0.673
       0.674
       0.689
       0.718
       0.759
       0.799
       0.820
       0.802
       0.733
       0.614
       0.471
       0.345
       0.271
       0.250
       0.229
       0.123
      -0.123
      -0.498
      -0.923
      -1.291
      -1.525
      -1.598
      -1.537
      -1.409
      -1.289
      -1.236
      -1.272
      -1.376
      -1.501
      -1.591
      -1.604
      -1.514
      -1.319
      -1.038
      -0.709
      -0.382
      -0.099
       0.133
       0.351
       0.622
       0.991
       1.437
       1.869
       2.170
       2.267
       2.171
       1.980
       1.818
       1.759
       1.779
       1.774
       1.642
       1.360
       1.004
       0.685
       0.464
       0.312
       0.142
      -0.109
      -0.443
      -0.802
      -1.124
      -1.382
      -1.580
      -1.732
      -1.845
      -1.920
      -1.970
      -2.019
      -2.088
      -2.164
      -2.191
      -2.103
      -1.869
      -1.523
      -1.151
      -0.835
      -0.615
      -0.482
      -0.417
      -0.418
      -0.491
      -0.616
      -0.714
      -0.669
      -0.401
       0.066
       0.600
       1.040
       1.295
       1.390
       1.414
       1.433
       1.445
       1.409
       1.304
       1.155
       1.006
       0.886
       0.795
       0.732
       0.723
       0.807
       0.999
       1.269
       1.555
       1.801
       1.978
       2.068
       2.042
       1.857
       1.484
       0.939
       0.295
      -0.346
      -0.880
      -1.227
      -1.349
      -1.264
      -1.052
      -0.834
      -0.721
      -0.757
      -0.911
      -1.106
      -1.273
      -1.376
      -1.415
      -1.406
      -1.358
      -1.262
      -1.105
      -0.891
      -0.660
      -0.476
      -0.387
      -0.398
      -0.467
      -0.535
      -0.571
      -0.573
      -0.547
      -0.472
      -0.304
      -0.006
       0.405
       0.845
       1.198
       1.382
       1.389
       1.280
       1.137
       1.033
       1.015
       1.097
       1.255
       1.418
       1.507
       1.482
       1.382
       1.296
       1.277
       1.283
       1.199
       0.924
       0.473
      -0.035
      -0.460
      -0.751
      -0.970
      -1.212
      -1.505
      -1.779
      -1.924
      -1.886
      -1.713
      -1.520
      -1.405
      -1.384
      -1.404
      -1.403
      -1.362
      -1.298
      -1.225
      -1.112
      -0.904
      -0.577
      -0.174
       0.210
       0.488
       0.636
       0.689
       0.710
       0.742
       0.799
       0.880
       0.982
       1.097
       1.195
       1.237
       1.191
       1.062
       0.886
       0.701
       0.524
       0.356
       0.203
       0.082
       0.005
      -0.040
