Origin Time       06/11/2013 04:16:16
Lat.              26.5 N	
Long.             93.5 E	
Depth (Km)         20.0
Magnitude         5.5
 Region           Karbi-Assam                                                      
 Above details taken from IMD 
   
Station Code      BAR
Station Lat.       26.332
Station Long.      91.006
Station Height(m)   47.0
Site Class        C   Vs30 between 200 m/sec to 375 m/sec *  
Record Time       06.11.2013 04:16:48.119
Sampling Rate     200. Hz
 Record Duration   85.660 Sec.
 Direction         Vert. (Up positive)
Max. Acceleration      3.126 cm/sec**2
     
  * For reference see Site Classification link of website 
     
 Base Line Corrected and Low Pass Filtered (Cut Off at 35 Hz) Time History
 Acceleration data in cm/sec**2
    
[...]
       0.764
       0.684
       0.531
       0.384
       0.264
       0.123
      -0.089
      -0.354
      -0.556
      -0.562
      -0.322
       0.067
       0.407
       0.516
       0.335
      -0.032
      -0.370
      -0.484
      -0.327
      -0.045
       0.136
       0.084
      -0.147
      -0.386
      -0.508
      -0.519
      -0.508
      -0.540
      -0.598
      -0.608
      -0.497
      -0.239
       0.115
       0.437
       0.579
       0.491
       0.287
       0.172
       0.273
       0.529
       0.757
       0.817
       0.719
       0.569
       0.437
       0.296
       0.087
      -0.166
      -0.338
      -0.311
      -0.103
       0.114
       0.160
       0.004
      -0.211
      -0.308
      -0.244
      -0.123
      -0.077
      -0.131
      -0.212
      -0.247
      -0.240
      -0.260
      -0.371
      -0.565
      -0.767
      -0.866
      -0.780
      -0.500
      -0.118
       0.211
       0.352
       0.274
       0.075
      -0.093
      -0.132
      -0.069
      -0.035
      -0.161
      -0.456
      -0.771
      -0.885
      -0.675
      -0.231
       0.195
       0.393
       0.359
       0.274
       0.317
       0.494
       0.651
       0.625
       0.389
       0.056
      -0.220
      -0.343
      -0.296
      -0.129
       0.073
       0.215
       0.239
       0.168
       0.081
       0.036
      -0.004
      -0.144
      -0.441
      -0.798
      -1.001
      -0.871
      -0.418
       0.149
       0.576
       0.740
       0.712
       0.681
       0.797
       1.040
       1.218
       1.077
       0.500
      -0.366
      -1.167
      -1.571
      -1.512
      -1.216
      -0.967
      -0.818
      -0.543
       0.094
       1.034
       1.905
       2.328
       2.230
       1.861
       1.501
       1.189
       0.742
       0.026
      -0.831
      -1.509
      -1.750
      -1.548
      -1.100
      -0.619
      -0.206
       0.137
       0.421
       0.622
       0.703
       0.667
       0.572
       0.486
       0.434
       0.379
       0.278
       0.144
       0.040
      -0.006
      -0.069
      -0.254
      -0.557
      -0.803
      -0.786
      -0.482
      -0.109
       0.059
      -0.049
      -0.241
      -0.280
      -0.134
       0.010
      -0.019
      -0.167
      -0.223
      -0.072
       0.155
       0.220
       0.037
      -0.233
      -0.360
      -0.290
      -0.190
      -0.256
      -0.496
      -0.720
      -0.721
      -0.455
      -0.042
       0.378
       0.766
       1.160
       1.547
       1.795
       1.755
       1.430
       1.025
       0.791
       0.782
       0.786
       0.514
      -0.108
      -0.809
      -1.179
      -1.025
      -0.562
      -0.222
      -0.270
      -0.568
      -0.723
      -0.456
       0.153
       0.748
       1.008
       0.884
       0.576
       0.306
       0.127
      -0.054
      -0.319
      -0.633
      -0.903
      -1.075
      -1.148
      -1.112
      -0.915
      -0.547
      -0.121
       0.154
       0.142
      -0.104
      -0.381
      -0.529
      -0.552
      -0.576
      -0.671
      -0.772
      -0.769
      -0.641
      -0.473
      -0.332
      -0.175
       0.092
       0.479
       0.867
       1.101
       1.103
       0.900
       0.580
       0.224
      -0.109
      -0.398
      -0.657
      -0.907
      -1.115
      -1.161
      -0.903
      -0.308
       0.446
       1.049
       1.266
       1.121
       0.865
       0.745
       0.778
       0.748
       0.421
      -0.212
      -0.895
      -1.277
      -1.169
      -0.656
      -0.018
       0.479
       0.738
       0.839
       0.927
       1.063
       1.189
       1.205
       1.096
       0.958
       0.888
       0.859
       0.741
       0.438
       0.000
      -0.434
      -0.775
      -1.034
      -1.242
      -1.355
      -1.287
      -1.033
      -0.722
      -0.524
      -0.486
      -0.485
      -0.343
      -0.008
       0.387
       0.654
       0.710
       0.641
       0.603
       0.679
       0.830
       0.948
       0.945
       0.801
       0.561
       0.303
       0.100
      -0.025
      -0.114
      -0.268
      -0.576
      -1.023
      -1.458
      -1.663
      -1.518
      -1.114
      -0.720
      -0.570
      -0.674
      -0.819
      -0.777
      -0.539
      -0.315
      -0.310
      -0.501
      -0.646
      -0.516
      -0.104
       0.363
       0.625
       0.590
       0.396
       0.286
       0.428
       0.790
       1.162
       1.304
       1.111
       0.698
       0.331
       0.244
       0.471
       0.824
       1.025
       0.910
       0.551
       0.198
       0.086
       0.257
       0.537
       0.672
       0.500
       0.032
      -0.591
      -1.188
      -1.612
      -1.792
      -1.755
      -1.610
      -1.467
      -1.350
      -1.189
      -0.909
      -0.529
      -0.167
       0.064
       0.148
       0.165
       0.205
       0.296
       0.406
       0.504
       0.599
       0.722
       0.886
       1.037
       1.081
       0.955
       0.700
       0.439
       0.260
       0.110
      -0.169
      -0.668
      -1.262
      -1.664
      -1.648
      -1.234
      -0.651
      -0.133
       0.229
       0.448
       0.515
       0.378
       0.057
      -0.267
      -0.346
      -0.070
       0.421
       0.849
       1.030
       0.994
       0.905
       0.889
       0.908
       0.792
       0.379
      -0.332
      -1.116
      -1.620
      -1.575
      -0.995
      -0.194
       0.414
       0.599
       0.461
       0.329
       0.473
       0.875
       1.237
       1.217
       0.711
      -0.052
      -0.665
      -0.822
      -0.506
       0.016
       0.384
       0.387
       0.094
      -0.211
      -0.244
       0.046
       0.423
       0.513
       0.084
      -0.756
      -1.591
      -1.953
      -1.637
      -0.833
       0.038
       0.642
       0.937
       1.102
       1.287
       1.454
       1.430
       1.113
       0.608
       0.180
       0.068
       0.315
       0.737
       1.046
       1.029
       0.656
       0.062
      -0.584
      -1.186
      -1.712
      -2.101
      -2.218
      -1.939
      -1.305
      -0.562
      -0.005
       0.248
       0.324
       0.440
       0.682
       0.933
       1.007
       0.832
       0.495
       0.145
      -0.137
      -0.355
      -0.549
      -0.718
      -0.823
      -0.818
      -0.686
      -0.468
      -0.250
      -0.122
      -0.111
      -0.138
      -0.066
       0.203
       0.647
       1.138
       1.521
       1.694
       1.629
       1.326
       0.800
       0.112
      -0.581
      -1.078
      -1.264
      -1.200
      -1.041
      -0.863
      -0.606
      -0.186
       0.347
       0.812
       1.058
       1.079
       0.977
       0.821
       0.608
       0.331
       0.041
      -0.193
      -0.372
      -0.548
      -0.712
      -0.731
      -0.463
       0.050
       0.554
       0.771
       0.624
       0.287
       0.005
      -0.122
      -0.168
      -0.258
      -0.432
      -0.631
      -0.776
      -0.828
      -0.780
      -0.640
      -0.434
      -0.209
       0.000
       0.184
       0.336
       0.410
       0.369
       0.254
       0.172
       0.182
       0.203
       0.088
      -0.207
      -0.552
      -0.770
      -0.802
      -0.755
      -0.761
      -0.818
      -0.763
      -0.411
       0.269
       1.089
       1.739
       1.984
       1.821
       1.472
       1.198
       1.057
       0.838
       0.271
      -0.638
      -1.501
      -1.823
      -1.426
      -0.632
       0.037
       0.332
       0.468
       0.814
       1.413
       1.830
       1.530
       0.405
      -1.075
      -2.234
      -2.721
      -2.683
      -2.484
      -2.306
      -2.033
      -1.471
      -0.598
       0.357
       1.060
       1.265
       0.966
       0.428
       0.057
       0.117
       0.502
       0.809
       0.703
       0.249
      -0.151
      -0.149
       0.230
       0.673
       0.918
       0.976
       1.032
       1.187
       1.358
       1.390
       1.199
       0.800
       0.234
      -0.475
      -1.269
      -2.000
      -2.452
      -2.467
      -2.062
      -1.433
      -0.833
      -0.421
      -0.210
      -0.134
      -0.127
      -0.109
       0.048
       0.455
       1.058
       1.597
       1.800
       1.649
       1.422
       1.416
       1.632
       1.772
       1.544
       0.949
       0.249
      -0.321
      -0.755
      -1.180
      -1.617
      -1.893
      -1.800
      -1.326
      -0.682
      -0.120
       0.260
       0.530
       0.772
       0.945
       0.891
       0.480
      -0.241
      -1.035
      -1.625
      -1.899
      -1.984
      -2.101
      -2.311
      -2.421
      -2.164
      -1.475
      -0.556
       0.320
       1.032
       1.600
       2.012
       2.154
       1.932
       1.439
       0.944
       0.694
       0.750
       0.986
       1.209
       1.272
       1.109
       0.725
       0.174
      -0.462
      -1.100
      -1.644
      -1.972
      -1.961
      -1.566
      -0.866
      -0.021
       0.834
       1.620
       2.238
       2.505
       2.233
       1.390
       0.187
      -1.004
      -1.820
      -2.055
      -1.722
      -1.058
      -0.429
      -0.126
      -0.163
      -0.265
      -0.109
       0.387
       0.998
       1.403
       1.448
       1.217
       0.888
       0.568
       0.258
      -0.077
      -0.432
      -0.733
      -0.869
      -0.783
      -0.550
      -0.374
      -0.444
      -0.753
      -1.082
      -1.183
      -1.009
      -0.725
      -0.512
      -0.369
      -0.146
       0.263
       0.785
       1.223
       1.422
       1.374
       1.190
       1.001
       0.873
       0.775
       0.636
       0.424
       0.194
       0.040
      -0.008
      -0.004
       0.005
       0.060
       0.233
       0.488
       0.642
       0.538
       0.229
      -0.062
      -0.194
      -0.282
      -0.580
      -1.168
      -1.790
      -2.047
      -1.741
      -1.057
      -0.398
      -0.075
      -0.120
      -0.361
      -0.603
      -0.736
      -0.722
      -0.552
      -0.270
       0.005
       0.141
       0.114
       0.053
       0.111
       0.310
       0.505
       0.559
       0.530
       0.648
       1.069
       1.645
       1.981
       1.782
       1.159
       0.585
       0.489
       0.868
       1.292
       1.296
       0.793
       0.104
      -0.374
      -0.544
      -0.639
      -0.926
      -1.375
      -1.628
      -1.331
      -0.497
       0.434
       0.928
       0.787
       0.259
      -0.238
      -0.514
      -0.710
      -1.031
      -1.436
      -1.629
      -1.385
      -0.826
      -0.341
      -0.207
      -0.351
      -0.462
      -0.335
      -0.048
       0.167
       0.177
       0.058
      -0.021
       0.039
       0.200
       0.352
       0.407
       0.369
       0.337
       0.449
       0.768
       1.197
       1.522
       1.568
       1.340
       0.987
       0.645
       0.321
      -0.041
      -0.407
      -0.614
      -0.515
      -0.157
       0.203
       0.277
      -0.041
      -0.593
      -1.067
      -1.176
      -0.809
      -0.079
       0.739
       1.340
       1.563
       1.475
       1.304
       1.232
       1.222
       1.037
       0.465
      -0.464
      -1.457
      -2.164
      -2.404
      -2.237
      -1.870
      -1.512
      -1.266
      -1.100
      -0.877
      -0.458
       0.135
       0.648
       0.720
       0.194
      -0.698
      -1.467
      -1.756
      -1.594
      -1.291
      -1.080
      -0.908
      -0.561
       0.043
       0.722
       1.189
       1.323
       1.277
       1.303
       1.513
       1.786
       1.898
       1.730
       1.357
       0.964
       0.685
       0.519
       0.364
       0.143
      -0.116
      -0.302
      -0.321
      -0.167
       0.087
       0.349
       0.546
       0.626
       0.557
       0.334
      -0.002
      -0.368
      -0.659
      -0.794
      -0.767
      -0.666
      -0.632
      -0.745
      -0.934
      -1.001
      -0.768
      -0.250
       0.320
       0.651
       0.612
       0.314
      -0.027
      -0.278
      -0.458
      -0.645
      -0.873
      -1.115
      -1.329
      -1.475
      -1.492
      -1.309
      -0.927
      -0.456
      -0.049
       0.245
       0.522
       0.907
       1.386
       1.797
       1.998
       2.026
       2.063
       2.228
       2.425
       2.420
       2.068
       1.448
       0.782
       0.225
      -0.257
      -0.798
      -1.446
      -2.067
      -2.457
      -2.546
      -2.478
      -2.453
      -2.485
      -2.359
      -1.831
      -0.889
       0.211
       1.141
       1.710
       1.894
       1.725
       1.247
       0.574
      -0.064
      -0.443
      -0.519
      -0.452
      -0.408
      -0.356
      -0.117
       0.395
       1.018
       1.464
       1.586
       1.462
       1.261
       1.048
       0.776
       0.425
       0.090
      -0.099
      -0.116
      -0.077
      -0.137
      -0.350
      -0.640
      -0.868
      -0.930
      -0.825
      -0.658
      -0.588
      -0.734
      -1.071
      -1.409
      -1.489
      -1.151
      -0.450
       0.355
       0.937
       1.090
       0.843
       0.442
       0.176
       0.161
       0.241
       0.122
      -0.368
      -1.108
      -1.763
      -2.033
      -1.868
      -1.463
      -1.064
      -0.762
      -0.446
       0.076
       0.887
       1.858
       2.699
       3.126
       3.011
       2.440
       1.651
       0.903
       0.357
       0.021
      -0.194
      -0.347
      -0.389
      -0.217
       0.181
       0.648
       0.939
       0.897
       0.560
       0.111
      -0.258
      -0.435
      -0.395
      -0.185
       0.075
       0.210
       0.101
      -0.193
      -0.445
      -0.448
      -0.214
       0.018
      -0.019
      -0.406
      -0.982
      -1.466
      -1.638
      -1.447
      -1.044
      -0.712
      -0.710
      -1.089
      -1.602
      -1.838
      -1.505
      -0.664
       0.294
       0.905
       0.940
       0.525
       0.032
      -0.192
      -0.057
       0.232
       0.362
       0.198
      -0.085
      -0.171
       0.090
       0.546
       0.917
       1.078
       1.132
       1.237
       1.408
       1.535
       1.545
       1.483
       1.433
       1.396
       1.290
       1.044
       0.661
       0.187
      -0.343
      -0.907
      -1.437
      -1.806
      -1.889
      -1.634
      -1.105
      -0.465
       0.068
       0.321
       0.260
       0.020
      -0.216
      -0.379
      -0.548
      -0.802
      -1.053
      -1.085
      -0.770
      -0.256
       0.116
       0.068
      -0.395
      -0.993
      -1.363
      -1.265
      -0.708
       0.074
       0.753
       1.114
       1.173
       1.130
       1.169
       1.302
       1.414
       1.427
       1.388
       1.356
       1.258
       0.922
       0.290
      -0.429
      -0.872
      -0.829
      -0.430
      -0.037
       0.062
      -0.119
      -0.311
      -0.246
       0.103
       0.491
       0.616
       0.393
       0.049
      -0.051
       0.289
       0.930
       1.507
       1.693
       1.380
       0.677
      -0.205
      -1.038
      -1.629
      -1.897
      -1.963
      -2.087
      -2.437
      -2.876
      -3.042
      -2.679
      -1.902
      -1.095
      -0.561
      -0.287
      -0.046
       0.327
       0.779
       1.115
       1.192
       1.034
       0.813
       0.720
       0.831
       1.065
       1.250
       1.255
       1.078
       0.816
       0.592
       0.509
       0.645
       1.021
       1.537
       1.964
       2.075
       1.823
       1.383
       0.977
       0.651
       0.250
      -0.371
      -1.135
      -1.782
      -2.107
      -2.140
      -2.090
      -2.138
      -2.287
      -2.384
      -2.269
      -1.901
      -1.380
      -0.836
      -0.322
       0.177
       0.631
       0.917
       0.934
       0.782
       0.747
       1.025
       1.477
       1.711
       1.464
       0.890
       0.419
       0.310
       0.404
       0.357
       0.075
      -0.145
       0.044
       0.623
       1.175
       1.279
       0.891
       0.341
      -0.027
      -0.169
      -0.310
      -0.653
      -1.135
      -1.492
      -1.525
      -1.280
      -0.961
      -0.690
      -0.403
       0.011
       0.520
       0.915
       0.983
       0.698
       0.231
      -0.193
      -0.460
      -0.582
      -0.593
      -0.461
      -0.126
       0.377
       0.846
       1.017
       0.779
       0.312
      -0.022
       0.011
       0.295
       0.466
       0.273
      -0.163
      -0.472
      -0.404
      -0.053
       0.283
       0.420
       0.445
       0.552
       0.778
       0.924
       0.744
       0.192
      -0.502
      -1.011
      -1.166
      -1.067
      -0.970
      -1.048
      -1.253
      -1.370
      -1.233
      -0.898
      -0.587
      -0.462
      -0.449
      -0.320
       0.060
       0.596
       1.057
       1.271
       1.201
       0.886
       0.400
      -0.122
      -0.456
      -0.409
      -0.008
       0.445
       0.576
       0.238
      -0.364
      -0.848
      -0.978
      -0.830
      -0.677
      -0.715
      -0.881
      -0.924
      -0.635
      -0.028
       0.686
       1.277
       1.643
       1.797
       1.785
       1.650
       1.438
       1.210
       0.991
       0.740
       0.382
      -0.106
      -0.642
      -1.052
      -1.158
      -0.876
      -0.297
       0.308
       0.627
       0.508
       0.087
      -0.318
      -0.476
      -0.431
      -0.436
      -0.697
      -1.188
      -1.680
      -1.929
      -1.824
      -1.421
      -0.891
      -0.439
      -0.179
      -0.054
       0.117
       0.452
       0.848
       1.049
       0.881
       0.425
      -0.049
      -0.304
      -0.266
       0.004
       0.417
       0.890
       1.320
       1.577
       1.584
       1.386
       1.117
       0.869
       0.622
       0.287
      -0.164
      -0.635
      -0.956
      -1.010
      -0.820
      -0.536
      -0.333
      -0.286
      -0.331
      -0.360
      -0.327
      -0.276
      -0.265
      -0.303
      -0.373
      -0.481
      -0.635
      -0.794
      -0.860
      -0.769
      -0.560
      -0.354
      -0.237
      -0.171
      -0.040
       0.220
       0.530
       0.721
       0.708
       0.592
       0.589
       0.833
       1.243
       1.574
       1.613
       1.335
       0.899
       0.524
       0.336
       0.307
       0.287
       0.102
      -0.328
      -0.904
      -1.380
      -1.514
      -1.246
      -0.742
      -0.245
       0.113
       0.361
       0.565
       0.696
       0.627
       0.262
      -0.358
      -1.071
      -1.676
      -2.024
      -2.059
      -1.837
      -1.485
      -1.117
      -0.760
      -0.376
       0.035
       0.391
       0.597
       0.661
       0.688
       0.752
       0.806
       0.769
       0.666
       0.625
       0.728
       0.893
       0.943
       0.782
       0.479
       0.182
      -0.014
      -0.104
      -0.137
      -0.166
      -0.237
      -0.366
      -0.498
      -0.523
      -0.371
      -0.105
       0.111
       0.161
       0.077
      -0.019
      -0.054
