Origin Time       28/5/2010 07:25:06	
Lat.              31.2 N	
Long.             77.9 E	
Depth (Km)         43.0
Magnitude         4.8
 Region           Himachal                                                         
 Above details taken from USGS
   
Station Code      BAR
Station Lat.       30.809
Station Long.      78.205
Station Height(m) 1305.0
Site Class        A   Vs30 between 700 m/sec to 1400 m/sec * 
Record Time       28.05.2010 07:25:22.739
Sampling Rate     200. Hz
 Record Duration   81.985 Sec.
 Direction         Vert. (Up positive)
Max. Acceleration     -1.881 cm/sec**2
     
  * For reference see Site Classification link of website 
     
 Base Line Corrected and Low Pass Filtered (Cut Off at 35 Hz) Time History
 Acceleration data in cm/sec**2
    
[...]
       0.545
       0.595
       0.552
       0.421
       0.181
      -0.107
      -0.284
      -0.230
       0.010
       0.252
       0.333
       0.228
       0.022
      -0.183
      -0.334
      -0.400
      -0.349
      -0.196
      -0.036
       0.019
      -0.035
      -0.083
      -0.025
       0.100
       0.161
       0.086
      -0.060
      -0.138
      -0.075
       0.072
       0.155
       0.068
      -0.149
      -0.335
      -0.358
      -0.224
      -0.052
       0.064
       0.132
       0.216
       0.340
       0.452
       0.475
       0.378
       0.215
       0.079
       0.016
       0.005
      -0.013
      -0.076
      -0.185
      -0.303
      -0.363
      -0.309
      -0.149
       0.029
       0.123
       0.098
       0.007
      -0.069
      -0.072
       0.000
       0.086
       0.112
       0.055
      -0.027
      -0.061
      -0.049
      -0.051
      -0.089
      -0.100
      -0.018
       0.123
       0.202
       0.138
      -0.022
      -0.144
      -0.152
      -0.100
      -0.085
      -0.121
      -0.114
      -0.001
       0.159
       0.245
       0.202
       0.088
       0.000
       0.002
       0.107
       0.271
       0.407
       0.412
       0.242
      -0.043
      -0.300
      -0.394
      -0.288
      -0.075
       0.088
       0.097
      -0.024
      -0.159
      -0.198
      -0.124
      -0.005
       0.061
       0.036
      -0.019
      -0.007
       0.103
       0.222
       0.227
       0.083
      -0.130
      -0.277
      -0.257
      -0.060
       0.215
       0.399
       0.364
       0.130
      -0.141
      -0.284
      -0.265
      -0.194
      -0.212
      -0.358
      -0.525
      -0.546
      -0.351
      -0.046
       0.166
       0.156
      -0.022
      -0.183
      -0.154
       0.089
       0.406
       0.598
       0.566
       0.377
       0.198
       0.148
       0.216
       0.281
       0.200
      -0.087
      -0.483
      -0.769
      -0.750
      -0.413
       0.059
       0.434
       0.592
       0.555
       0.418
       0.266
       0.145
       0.074
       0.057
       0.080
       0.099
       0.062
      -0.047
      -0.194
      -0.334
      -0.451
      -0.535
      -0.540
      -0.409
      -0.150
       0.141
       0.344
       0.395
       0.320
       0.206
       0.143
       0.167
       0.226
       0.221
       0.094
      -0.114
      -0.284
      -0.310
      -0.169
       0.042
       0.170
       0.107
      -0.127
      -0.400
      -0.561
      -0.526
      -0.315
      -0.035
       0.177
       0.240
       0.189
       0.137
       0.166
       0.258
       0.326
       0.300
       0.191
       0.084
       0.059
       0.116
       0.167
       0.125
      -0.007
      -0.142
      -0.197
      -0.161
      -0.089
      -0.053
      -0.095
      -0.199
      -0.297
      -0.310
      -0.215
      -0.063
       0.059
       0.088
       0.023
      -0.065
      -0.076
       0.036
       0.216
       0.362
       0.426
       0.447
       0.466
       0.462
       0.373
       0.189
      -0.018
      -0.135
      -0.103
       0.034
       0.147
       0.125
      -0.036
      -0.239
      -0.382
      -0.430
      -0.410
      -0.360
      -0.299
      -0.238
      -0.185
      -0.135
      -0.074
       0.009
       0.105
       0.188
       0.232
       0.249
       0.276
       0.311
       0.284
       0.126
      -0.131
      -0.350
      -0.410
      -0.308
      -0.144
      -0.015
       0.042
       0.045
       0.036
       0.056
       0.121
       0.212
       0.279
       0.270
       0.164
      -0.012
      -0.190
      -0.313
      -0.374
      -0.407
      -0.426
      -0.401
      -0.298
      -0.126
       0.052
       0.154
       0.128
      -0.007
      -0.162
      -0.236
      -0.195
      -0.088
       0.021
       0.106
       0.169
       0.199
       0.183
       0.139
       0.118
       0.156
       0.222
       0.238
       0.147
      -0.018
      -0.148
      -0.154
      -0.054
       0.051
       0.083
       0.044
      -0.014
      -0.058
      -0.079
      -0.084
      -0.102
      -0.175
      -0.315
      -0.456
      -0.479
      -0.303
       0.044
       0.422
       0.677
       0.735
       0.651
       0.532
       0.436
       0.335
       0.172
      -0.052
      -0.265
      -0.372
      -0.329
      -0.178
      -0.041
      -0.043
      -0.213
      -0.448
      -0.587
      -0.530
      -0.311
      -0.067
       0.066
       0.053
      -0.012
       0.000
       0.123
       0.277
       0.374
       0.414
       0.455
       0.524
       0.576
       0.547
       0.403
       0.160
      -0.140
      -0.439
      -0.671
      -0.789
      -0.795
      -0.746
      -0.705
      -0.664
      -0.536
      -0.262
       0.085
       0.340
       0.402
       0.347
       0.343
       0.480
       0.702
       0.878
       0.909
       0.779
       0.543
       0.288
       0.079
      -0.070
      -0.179
      -0.273
      -0.357
      -0.412
      -0.396
      -0.282
      -0.099
       0.063
       0.108
       0.007
      -0.184
      -0.356
      -0.420
      -0.363
      -0.261
      -0.212
      -0.243
      -0.297
      -0.304
      -0.251
      -0.164
      -0.054
       0.080
       0.198
       0.234
       0.169
       0.064
       0.010
       0.038
       0.103
       0.141
       0.136
       0.130
       0.156
       0.186
       0.151
       0.025
      -0.142
      -0.270
      -0.314
      -0.257
      -0.105
       0.105
       0.292
       0.367
       0.302
       0.154
       0.022
      -0.014
       0.059
       0.176
       0.229
       0.149
      -0.036
      -0.223
      -0.310
      -0.266
      -0.138
      -0.019
       0.000
      -0.105
      -0.270
      -0.386
      -0.374
      -0.243
      -0.062
       0.104
       0.242
       0.375
       0.495
       0.527
       0.389
       0.109
      -0.168
      -0.297
      -0.259
      -0.166
      -0.161
      -0.320
      -0.610
      -0.893
      -0.981
      -0.757
      -0.274
       0.274
       0.683
       0.868
       0.878
       0.826
       0.817
       0.885
       0.978
       0.985
       0.809
       0.443
      -0.018
      -0.438
      -0.739
      -0.947
      -1.131
      -1.292
      -1.343
      -1.204
      -0.903
      -0.550
      -0.238
       0.016
       0.253
       0.518
       0.826
       1.128
       1.325
       1.328
       1.141
       0.874
       0.655
       0.530
       0.449
       0.323
       0.098
      -0.207
      -0.511
      -0.730
      -0.827
      -0.825
      -0.791
      -0.787
      -0.833
      -0.880
      -0.850
      -0.711
      -0.514
      -0.327
      -0.140
       0.125
       0.493
       0.849
       0.999
       0.839
       0.465
       0.116
      -0.010
       0.089
       0.242
       0.279
       0.175
       0.045
       0.005
       0.081
       0.225
       0.377
       0.507
       0.608
       0.689
       0.753
       0.789
       0.765
       0.633
       0.349
      -0.071
      -0.513
      -0.797
      -0.813
      -0.618
      -0.396
      -0.309
      -0.387
      -0.553
      -0.706
      -0.769
      -0.706
      -0.526
      -0.286
      -0.064
       0.080
       0.132
       0.127
       0.131
       0.186
       0.279
       0.356
       0.370
       0.314
       0.228
       0.174
       0.182
       0.209
       0.156
      -0.026
      -0.272
      -0.462
      -0.542
      -0.565
      -0.607
      -0.678
      -0.730
      -0.719
      -0.638
      -0.500
      -0.325
      -0.131
       0.058
       0.210
       0.301
       0.347
       0.409
       0.548
       0.761
       0.967
       1.063
       0.981
       0.733
       0.408
       0.129
      -0.025
      -0.062
      -0.049
      -0.047
      -0.079
      -0.149
      -0.258
      -0.387
      -0.510
      -0.617
      -0.709
      -0.753
      -0.691
      -0.499
      -0.245
      -0.055
      -0.021
      -0.128
      -0.280
      -0.370
      -0.354
      -0.265
      -0.160
      -0.077
      -0.030
      -0.022
      -0.052
      -0.091
      -0.117
      -0.132
      -0.152
      -0.149
      -0.062
       0.119
       0.321
       0.454
       0.492
       0.482
       0.489
       0.544
       0.634
       0.714
       0.731
       0.674
       0.580
       0.499
       0.436
       0.348
       0.192
      -0.015
      -0.210
      -0.344
      -0.425
      -0.485
      -0.516
      -0.466
      -0.324
      -0.171
      -0.124
      -0.210
      -0.346
      -0.446
      -0.497
      -0.520
      -0.511
      -0.442
      -0.312
      -0.156
       0.006
       0.172
       0.333
       0.447
       0.468
       0.385
       0.227
       0.033
      -0.190
      -0.457
      -0.766
      -1.053
      -1.215
      -1.177
      -0.921
      -0.486
       0.055
       0.600
       1.057
       1.387
       1.603
       1.720
       1.725
       1.605
       1.379
       1.080
       0.738
       0.379
       0.023
      -0.320
      -0.642
      -0.902
      -1.016
      -0.930
      -0.687
      -0.411
      -0.201
      -0.071
       0.024
       0.101
       0.129
       0.085
       0.028
       0.071
       0.259
       0.490
       0.602
       0.520
       0.304
       0.046
      -0.225
      -0.518
      -0.806
      -1.022
      -1.110
      -1.066
      -0.927
      -0.741
      -0.554
      -0.392
      -0.262
      -0.154
      -0.046
       0.102
       0.332
       0.644
       0.974
       1.220
       1.314
       1.264
       1.138
       0.997
       0.847
       0.644
       0.378
       0.123
      -0.035
      -0.120
      -0.272
      -0.593
      -0.998
      -1.271
      -1.258
      -0.996
      -0.659
      -0.417
      -0.326
      -0.334
      -0.337
      -0.268
      -0.124
       0.043
       0.176
       0.247
       0.264
       0.255
       0.234
       0.176
       0.043
      -0.162
      -0.372
      -0.502
      -0.512
      -0.425
      -0.298
      -0.175
      -0.062
       0.079
       0.280
       0.520
       0.710
       0.771
       0.689
       0.502
       0.245
      -0.070
      -0.430
      -0.792
      -1.092
      -1.270
      -1.288
      -1.150
      -0.893
      -0.568
      -0.220
       0.119
       0.446
       0.777
       1.109
       1.379
       1.486
       1.381
       1.125
       0.836
       0.600
       0.438
       0.328
       0.236
       0.124
      -0.031
      -0.219
      -0.407
      -0.561
      -0.650
      -0.641
      -0.529
      -0.370
      -0.253
      -0.231
      -0.271
      -0.296
      -0.253
      -0.144
      -0.007
       0.126
       0.239
       0.293
       0.221
      -0.012
      -0.332
      -0.580
      -0.643
      -0.546
      -0.394
      -0.252
      -0.114
       0.038
       0.182
       0.277
       0.302
       0.271
       0.238
       0.284
       0.477
       0.806
       1.168
       1.425
       1.483
       1.343
       1.067
       0.715
       0.316
      -0.106
      -0.492
      -0.768
      -0.905
      -0.947
      -0.945
      -0.898
      -0.788
      -0.644
      -0.533
      -0.486
      -0.460
      -0.387
      -0.241
      -0.041
       0.176
       0.371
       0.513
       0.587
       0.604
       0.593
       0.578
       0.556
       0.487
       0.341
       0.152
       0.019
       0.000
       0.028
      -0.047
      -0.310
      -0.684
      -0.976
      -1.022
      -0.803
      -0.455
      -0.165
      -0.047
      -0.086
      -0.183
      -0.244
      -0.223
      -0.134
      -0.054
      -0.092
      -0.303
      -0.603
      -0.816
      -0.815
      -0.623
      -0.376
      -0.192
      -0.086
       0.026
       0.230
       0.536
       0.865
       1.118
       1.247
       1.269
       1.233
       1.186
       1.157
       1.135
       1.062
       0.873
       0.554
       0.163
      -0.220
      -0.538
      -0.786
      -0.988
      -1.171
      -1.331
      -1.428
      -1.436
      -1.369
      -1.271
      -1.149
      -0.959
      -0.641
      -0.186
       0.346
       0.838
       1.168
       1.276
       1.205
       1.061
       0.927
       0.801
       0.621
       0.331
      -0.069
      -0.515
      -0.909
      -1.176
      -1.286
      -1.237
      -1.022
      -0.651
      -0.198
       0.207
       0.463
       0.578
       0.669
       0.868
       1.196
       1.524
       1.644
       1.438
       0.968
       0.426
      -0.031
      -0.371
      -0.650
      -0.928
      -1.213
      -1.464
      -1.611
      -1.574
      -1.305
      -0.817
      -0.208
       0.348
       0.679
       0.755
       0.729
       0.806
       1.023
       1.195
       1.099
       0.702
       0.183
      -0.241
      -0.482
      -0.588
      -0.643
      -0.683
      -0.701
      -0.674
      -0.578
      -0.373
      -0.037
       0.365
       0.674
       0.750
       0.608
       0.406
       0.295
       0.286
       0.272
       0.150
      -0.096
      -0.386
      -0.621
      -0.749
      -0.793
      -0.806
      -0.802
      -0.746
      -0.599
      -0.373
      -0.126
       0.066
       0.148
       0.109
       0.015
      -0.026
       0.054
       0.219
       0.366
       0.433
       0.455
       0.526
       0.702
       0.944
       1.162
       1.312
       1.408
       1.451
       1.376
       1.126
       0.762
       0.421
       0.159
      -0.123
      -0.549
      -1.099
      -1.604
      -1.881
      -1.860
      -1.578
      -1.127
      -0.622
      -0.188
       0.071
       0.135
       0.103
       0.120
       0.246
       0.392
       0.401
       0.221
      -0.049
      -0.258
      -0.342
      -0.355
      -0.399
      -0.537
      -0.750
      -0.938
      -0.969
      -0.767
      -0.366
       0.094
       0.454
       0.635
       0.692
       0.765
       0.942
       1.167
       1.292
       1.227
       1.025
       0.800
       0.606
       0.406
       0.148
      -0.143
      -0.368
      -0.421
      -0.270
       0.013
       0.287
       0.408
       0.294
      -0.049
      -0.502
      -0.863
      -0.957
      -0.784
      -0.542
      -0.477
      -0.676
      -1.016
      -1.271
      -1.275
      -1.007
      -0.578
      -0.148
       0.166
       0.347
       0.468
       0.616
       0.807
       0.966
       0.995
       0.893
       0.781
       0.804
       0.982
       1.190
       1.259
       1.099
       0.722
       0.218
      -0.282
      -0.652
      -0.852
      -0.951
      -1.050
      -1.187
      -1.331
      -1.434
      -1.457
      -1.338
      -1.002
      -0.434
       0.262
       0.901
       1.337
       1.537
       1.553
       1.438
       1.198
       0.847
       0.450
       0.097
      -0.180
      -0.426
      -0.687
      -0.945
      -1.128
      -1.179
      -1.091
      -0.904
      -0.684
      -0.465
      -0.224
       0.087
       0.444
       0.732
       0.856
       0.863
       0.898
       1.033
       1.167
       1.127
       0.849
       0.438
       0.061
      -0.203
      -0.407
      -0.642
      -0.913
      -1.134
      -1.219
      -1.152
      -0.967
      -0.701
      -0.386
      -0.074
       0.172
       0.325
       0.409
       0.463
       0.497
       0.482
       0.379
       0.205
       0.058
       0.039
       0.146
       0.252
       0.241
       0.141
       0.086
       0.148
       0.240
       0.217
       0.026
      -0.238
      -0.426
      -0.468
      -0.398
      -0.290
      -0.169
      -0.025
       0.125
       0.231
       0.262
       0.251
       0.247
       0.264
       0.288
       0.314
       0.328
       0.274
       0.100
      -0.158
      -0.372
      -0.440
      -0.387
      -0.337
      -0.390
      -0.528
      -0.639
      -0.614
      -0.425
      -0.129
       0.187
       0.450
       0.609
       0.642
       0.576
       0.479
       0.419
       0.418
       0.444
       0.449
       0.380
       0.211
      -0.021
      -0.224
      -0.319
      -0.315
      -0.300
      -0.365
      -0.539
      -0.777
      -0.975
      -1.013
      -0.841
      -0.535
      -0.247
      -0.065
       0.052
       0.200
       0.397
       0.549
       0.554
       0.432
       0.320
       0.325
       0.393
       0.350
       0.098
      -0.267
      -0.541
      -0.610
      -0.520
      -0.380
      -0.242
      -0.093
       0.074
       0.213
       0.278
       0.282
       0.290
       0.348
       0.411
       0.396
       0.298
       0.226
       0.283
       0.423
       0.472
       0.301
      -0.041
      -0.382
      -0.569
      -0.572
      -0.463
      -0.331
      -0.231
      -0.186
      -0.213
      -0.312
      -0.429
      -0.474
      -0.396
      -0.246
      -0.126
      -0.066
       0.002
       0.151
       0.357
       0.502
       0.490
       0.327
       0.117
      -0.041
      -0.134
      -0.223
      -0.356
      -0.509
      -0.604
      -0.581
      -0.421
      -0.147
       0.183
       0.478
       0.654
       0.695
       0.667
       0.665
       0.747
       0.901
       1.037
       1.019
       0.756
       0.288
      -0.228
      -0.629
      -0.857
      -0.954
      -0.985
      -0.972
      -0.887
      -0.701
      -0.432
      -0.158
       0.043
       0.148
       0.204
       0.283
       0.428
       0.614
       0.765
       0.795
       0.685
       0.505
       0.351
       0.250
       0.151
      -0.007
      -0.224
      -0.454
      -0.644
      -0.758
      -0.777
      -0.707
      -0.582
      -0.437
      -0.285
      -0.121
       0.051
       0.199
       0.274
       0.243
       0.121
      -0.029
      -0.136
      -0.160
      -0.099
       0.027
       0.171
       0.263
       0.264
       0.213
       0.198
       0.263
       0.360
       0.408
       0.370
       0.260
       0.091
      -0.147
      -0.448
      -0.738
      -0.877
      -0.747
      -0.363
       0.108
       0.459
       0.595
       0.569
       0.491
       0.426
       0.379
       0.341
       0.308
       0.275
       0.220
       0.112
      -0.059
      -0.260
      -0.432
      -0.554
      -0.661
      -0.782
      -0.863
      -0.801
      -0.560
      -0.221
       0.102
       0.359
       0.562
       0.706
       0.738
       0.620
       0.389
       0.144
      -0.018
      -0.064
      -0.024
       0.042
       0.086
       0.093
       0.087
       0.131
       0.263
       0.419
       0.439
       0.212
      -0.182
      -0.514
      -0.612
      -0.499
      -0.324
      -0.196
      -0.105
       0.017
       0.211
       0.449
       0.652
       0.741
       0.700
       0.596
       0.521
       0.499
       0.461
       0.300
      -0.031
      -0.474
      -0.902
      -1.214
      -1.382
      -1.431
      -1.379
      -1.225
      -0.980
      -0.683
      -0.380
      -0.105
       0.108
       0.235
       0.294
       0.348
       0.444
       0.568
       0.664
       0.687
       0.629
       0.509
       0.368
       0.268
       0.250
       0.287
       0.287
       0.165
      -0.077
      -0.334
      -0.483
      -0.488
      -0.416
      -0.350
      -0.295
      -0.209
      -0.083
       0.051
       0.197
       0.405
