Origin Time       01/05/2009 22:36:25 UTC
Lat.              29.9 N 
Long.             80.1 E 
Depth (Km)         10.0
Magnitude         4.6
 Region           Bageshwar-Uttarakhand                                            
 Above details taken from IMD 
    
Station Code      BAR
Station Lat.       30.809  N
Station Long.      78.205  E
Station Height(m) 1305.0
Site Class        A   Vs30 between 700 m/sec to 1400 m/sec * 
Record Time       01.05.2010 22:37:27.369 UTC
Sampling Rate     200. Hz
 Record Duration   82.385 Sec.
 Direction         N-S (N positive)
Max. Acceleration      1.750 cm/sec**2
     
  * For reference see Site Classification link of website 
     
 Base Line Corrected and Low Pass Filtered (Cut Off at 35 Hz) Time History
 Acceleration data in cm/sec**2
    
[...]
      -0.519
      -0.515
      -0.490
      -0.459
      -0.429
      -0.401
      -0.370
      -0.337
      -0.301
      -0.260
      -0.216
      -0.168
      -0.111
      -0.032
       0.071
       0.195
       0.331
       0.471
       0.601
       0.707
       0.782
       0.826
       0.836
       0.809
       0.748
       0.662
       0.563
       0.459
       0.356
       0.259
       0.165
       0.071
      -0.021
      -0.104
      -0.170
      -0.217
      -0.247
      -0.260
      -0.261
      -0.256
      -0.246
      -0.227
      -0.195
      -0.157
      -0.120
      -0.094
      -0.088
      -0.108
      -0.153
      -0.214
      -0.284
      -0.357
      -0.421
      -0.462
      -0.475
      -0.468
      -0.448
      -0.418
      -0.383
      -0.348
      -0.317
      -0.284
      -0.243
      -0.192
      -0.133
      -0.073
      -0.021
       0.013
       0.030
       0.046
       0.078
       0.130
       0.200
       0.277
       0.347
       0.397
       0.426
       0.441
       0.450
       0.448
       0.432
       0.404
       0.367
       0.320
       0.263
       0.198
       0.125
       0.050
      -0.017
      -0.064
      -0.087
      -0.092
      -0.087
      -0.077
      -0.064
      -0.052
      -0.044
      -0.036
      -0.026
      -0.014
       0.000
       0.020
       0.044
       0.058
       0.048
       0.012
      -0.046
      -0.117
      -0.191
      -0.261
      -0.329
      -0.403
      -0.484
      -0.559
      -0.613
      -0.634
      -0.616
      -0.557
      -0.465
      -0.355
      -0.239
      -0.121
      -0.002
       0.120
       0.240
       0.360
       0.472
       0.569
       0.640
       0.682
       0.691
       0.665
       0.606
       0.525
       0.427
       0.311
       0.177
       0.035
      -0.100
      -0.218
      -0.317
      -0.393
      -0.446
      -0.474
      -0.476
      -0.451
      -0.405
      -0.356
      -0.313
      -0.274
      -0.234
      -0.191
      -0.147
      -0.102
      -0.057
      -0.019
       0.001
      -0.001
      -0.023
      -0.064
      -0.116
      -0.171
      -0.222
      -0.269
      -0.309
      -0.328
      -0.317
      -0.273
      -0.205
      -0.119
      -0.021
       0.084
       0.189
       0.290
       0.378
       0.447
       0.496
       0.533
       0.563
       0.580
       0.576
       0.553
       0.515
       0.468
       0.414
       0.357
       0.299
       0.239
       0.176
       0.114
       0.057
       0.007
      -0.034
      -0.063
      -0.074
      -0.071
      -0.062
      -0.052
      -0.042
      -0.033
      -0.026
      -0.016
      -0.010
      -0.024
      -0.069
      -0.144
      -0.235
      -0.327
      -0.410
      -0.471
      -0.504
      -0.512
      -0.502
      -0.481
      -0.451
      -0.416
      -0.378
      -0.334
      -0.282
      -0.226
      -0.176
      -0.134
      -0.097
      -0.063
      -0.032
       0.000
       0.040
       0.086
       0.136
       0.190
       0.243
       0.291
       0.332
       0.371
       0.413
       0.450
       0.466
       0.456
       0.424
       0.375
       0.315
       0.249
       0.180
       0.115
       0.057
       0.014
      -0.011
      -0.024
      -0.033
      -0.046
      -0.063
      -0.087
      -0.114
      -0.134
      -0.141
      -0.141
      -0.140
      -0.134
      -0.118
      -0.092
      -0.068
      -0.056
      -0.059
      -0.074
      -0.089
      -0.092
      -0.078
      -0.052
      -0.025
       0.005
       0.043
       0.091
       0.145
       0.200
       0.248
       0.279
       0.286
       0.271
       0.242
       0.200
       0.144
       0.078
       0.008
      -0.057
      -0.110
      -0.143
      -0.152
      -0.140
      -0.119
      -0.099
      -0.085
      -0.084
      -0.101
      -0.131
      -0.167
      -0.205
      -0.243
      -0.277
      -0.306
      -0.335
      -0.369
      -0.405
      -0.431
      -0.441
      -0.435
      -0.410
      -0.358
      -0.272
      -0.153
      -0.004
       0.165
       0.337
       0.498
       0.641
       0.770
       0.884
       0.982
       1.060
       1.115
       1.136
       1.113
       1.045
       0.940
       0.810
       0.660
       0.498
       0.328
       0.151
      -0.028
      -0.200
      -0.355
      -0.490
      -0.602
      -0.681
      -0.713
      -0.696
      -0.640
      -0.562
      -0.474
      -0.391
      -0.323
      -0.275
      -0.249
      -0.250
      -0.278
      -0.324
      -0.374
      -0.419
      -0.461
      -0.503
      -0.541
      -0.577
      -0.612
      -0.646
      -0.676
      -0.703
      -0.726
      -0.742
      -0.749
      -0.745
      -0.730
      -0.694
      -0.630
      -0.538
      -0.428
      -0.312
      -0.194
      -0.080
       0.027
       0.123
       0.214
       0.305
       0.398
       0.497
       0.601
       0.708
       0.810
       0.901
       0.969
       0.997
       0.973
       0.902
       0.805
       0.701
       0.600
       0.510
       0.436
       0.377
       0.329
       0.288
       0.254
       0.225
       0.202
       0.184
       0.173
       0.165
       0.144
       0.102
       0.039
      -0.040
      -0.131
      -0.232
      -0.336
      -0.445
      -0.556
      -0.662
      -0.749
      -0.808
      -0.833
      -0.819
      -0.764
      -0.673
      -0.562
      -0.447
      -0.338
      -0.241
      -0.156
      -0.077
       0.006
       0.098
       0.194
       0.285
       0.366
       0.431
       0.472
       0.491
       0.494
       0.484
       0.458
       0.420
       0.383
       0.355
       0.340
       0.333
       0.328
       0.317
       0.288
       0.237
       0.167
       0.088
       0.008
      -0.066
      -0.132
      -0.192
      -0.251
      -0.302
      -0.333
      -0.337
      -0.318
      -0.283
      -0.235
      -0.173
      -0.100
      -0.018
       0.069
       0.155
       0.231
       0.294
       0.344
       0.372
       0.370
       0.338
       0.287
       0.230
       0.172
       0.115
       0.065
       0.030
       0.016
       0.024
       0.045
       0.059
       0.042
      -0.018
      -0.114
      -0.237
      -0.374
      -0.510
      -0.625
      -0.700
      -0.725
      -0.698
      -0.619
      -0.498
      -0.348
      -0.186
      -0.023
       0.132
       0.268
       0.381
       0.470
       0.536
       0.573
       0.579
       0.560
       0.523
       0.470
       0.405
       0.338
       0.278
       0.231
       0.195
       0.171
       0.152
       0.128
       0.096
       0.063
       0.035
       0.012
      -0.008
      -0.027
      -0.050
      -0.083
      -0.133
      -0.200
      -0.286
      -0.396
      -0.528
      -0.673
      -0.817
      -0.941
      -1.026
      -1.056
      -1.027
      -0.950
      -0.836
      -0.693
      -0.526
      -0.341
      -0.148
       0.051
       0.252
       0.444
       0.609
       0.736
       0.813
       0.833
       0.798
       0.717
       0.597
       0.442
       0.257
       0.059
      -0.125
      -0.269
      -0.350
      -0.348
      -0.260
      -0.110
       0.069
       0.243
       0.387
       0.481
       0.525
       0.530
       0.510
       0.468
       0.400
       0.302
       0.170
       0.004
      -0.189
      -0.391
      -0.577
      -0.730
      -0.835
      -0.880
      -0.866
      -0.806
      -0.717
      -0.605
      -0.470
      -0.312
      -0.134
       0.059
       0.258
       0.447
       0.611
       0.746
       0.846
       0.903
       0.915
       0.887
       0.832
       0.762
       0.684
       0.608
       0.537
       0.469
       0.397
       0.324
       0.253
       0.190
       0.139
       0.103
       0.082
       0.065
       0.039
       0.002
      -0.044
      -0.099
      -0.160
      -0.219
      -0.266
      -0.302
      -0.330
      -0.352
      -0.371
      -0.394
      -0.421
      -0.445
      -0.456
      -0.448
      -0.426
      -0.397
      -0.374
      -0.370
      -0.394
      -0.445
      -0.511
      -0.585
      -0.657
      -0.715
      -0.748
      -0.757
      -0.744
      -0.712
      -0.664
      -0.607
      -0.544
      -0.472
      -0.377
      -0.255
      -0.103
       0.078
       0.284
       0.508
       0.733
       0.948
       1.142
       1.308
       1.438
       1.532
       1.583
       1.575
       1.491
       1.324
       1.085
       0.796
       0.483
       0.176
      -0.099
      -0.333
      -0.522
      -0.666
      -0.768
      -0.837
      -0.886
      -0.917
      -0.925
      -0.908
      -0.866
      -0.805
      -0.728
      -0.644
      -0.560
      -0.474
      -0.384
      -0.293
      -0.204
      -0.111
      -0.006
       0.111
       0.232
       0.346
       0.443
       0.510
       0.541
       0.540
       0.516
       0.473
       0.412
       0.334
       0.247
       0.162
       0.086
       0.032
       0.011
       0.022
       0.055
       0.099
       0.150
       0.203
       0.256
       0.312
       0.367
       0.413
       0.445
       0.469
       0.497
       0.533
       0.571
       0.610
       0.646
       0.674
       0.683
       0.661
       0.596
       0.477
       0.304
       0.091
      -0.134
      -0.352
      -0.546
      -0.705
      -0.818
      -0.884
      -0.917
      -0.929
      -0.932
      -0.934
      -0.938
      -0.942
      -0.942
      -0.936
      -0.924
      -0.900
      -0.853
      -0.781
      -0.688
      -0.581
      -0.463
      -0.340
      -0.216
      -0.094
       0.025
       0.135
       0.228
       0.310
       0.386
       0.457
       0.518
       0.563
       0.592
       0.602
       0.590
       0.561
       0.525
       0.494
       0.472
       0.465
       0.476
       0.496
       0.509
       0.507
       0.489
       0.456
       0.413
       0.364
       0.316
       0.269
       0.217
       0.156
       0.090
       0.018
      -0.063
      -0.158
      -0.267
      -0.391
      -0.528
      -0.668
      -0.795
      -0.895
      -0.965
      -1.000
      -0.996
      -0.952
      -0.870
      -0.753
      -0.602
      -0.427
      -0.244
      -0.068
       0.092
       0.226
       0.328
       0.399
       0.448
       0.491
       0.536
       0.591
       0.653
       0.713
       0.752
       0.762
       0.744
       0.700
       0.629
       0.533
       0.418
       0.291
       0.157
       0.026
      -0.093
      -0.194
      -0.277
      -0.336
      -0.357
      -0.329
      -0.249
      -0.125
       0.027
       0.186
       0.330
       0.445
       0.522
       0.556
       0.541
       0.487
       0.414
       0.340
       0.270
       0.198
       0.115
       0.011
      -0.119
      -0.268
      -0.419
      -0.555
      -0.663
      -0.740
      -0.792
      -0.834
      -0.885
      -0.948
      -1.012
      -1.061
      -1.088
      -1.091
      -1.066
      -1.016
      -0.941
      -0.846
      -0.731
      -0.601
      -0.465
      -0.327
      -0.185
      -0.033
       0.128
       0.300
       0.482
       0.664
       0.835
       0.987
       1.127
       1.260
       1.386
       1.502
       1.596
       1.654
       1.658
       1.607
       1.509
       1.376
       1.212
       1.015
       0.790
       0.544
       0.287
       0.033
      -0.206
      -0.422
      -0.614
      -0.782
      -0.922
      -1.028
      -1.102
      -1.140
      -1.134
      -1.079
      -0.973
      -0.823
      -0.638
      -0.439
      -0.256
      -0.112
      -0.016
       0.036
       0.050
       0.036
       0.002
      -0.052
      -0.133
      -0.245
      -0.382
      -0.538
      -0.709
      -0.885
      -1.042
      -1.151
      -1.191
      -1.154
      -1.040
      -0.861
      -0.641
      -0.403
      -0.165
       0.064
       0.273
       0.461
       0.631
       0.786
       0.926
       1.050
       1.162
       1.259
       1.328
       1.355
       1.332
       1.260
       1.148
       1.010
       0.867
       0.728
       0.593
       0.461
       0.337
       0.227
       0.132
       0.055
       0.000
      -0.031
      -0.041
      -0.033
      -0.006
       0.037
       0.084
       0.118
       0.125
       0.096
       0.024
      -0.087
      -0.225
      -0.378
      -0.537
      -0.702
      -0.866
      -1.021
      -1.156
      -1.259
      -1.322
      -1.344
      -1.333
      -1.288
      -1.202
      -1.075
      -0.922
      -0.768
      -0.631
      -0.518
      -0.423
      -0.335
      -0.238
      -0.124
       0.005
       0.146
       0.303
       0.479
       0.668
       0.857
       1.033
       1.185
       1.304
       1.385
       1.432
       1.455
       1.456
       1.430
       1.373
       1.278
       1.133
       0.936
       0.694
       0.424
       0.143
      -0.132
      -0.383
      -0.592
      -0.748
      -0.844
      -0.879
      -0.863
      -0.812
      -0.742
      -0.658
      -0.560
      -0.449
      -0.331
      -0.215
      -0.114
      -0.042
      -0.008
      -0.006
      -0.022
      -0.043
      -0.063
      -0.079
      -0.100
      -0.141
      -0.219
      -0.332
      -0.466
      -0.602
      -0.724
      -0.820
      -0.884
      -0.913
      -0.903
      -0.843
      -0.727
      -0.559
      -0.352
      -0.117
       0.138
       0.403
       0.667
       0.925
       1.169
       1.385
       1.558
       1.679
       1.744
       1.750
       1.695
       1.585
       1.425
       1.212
       0.945
       0.635
       0.310
      -0.006
      -0.293
      -0.539
      -0.738
      -0.887
      -0.986
      -1.032
      -1.028
      -0.988
      -0.933
      -0.880
      -0.839
      -0.814
      -0.804
      -0.797
      -0.785
      -0.766
      -0.744
      -0.720
      -0.692
      -0.661
      -0.633
      -0.603
      -0.566
      -0.515
      -0.442
      -0.338
      -0.202
      -0.044
       0.119
       0.278
       0.432
       0.581
       0.717
       0.829
       0.906
       0.932
       0.900
       0.815
       0.695
       0.562
       0.437
       0.340
       0.280
       0.252
       0.246
       0.254
       0.278
       0.321
       0.383
       0.467
       0.566
       0.669
       0.757
       0.817
       0.843
       0.830
       0.775
       0.685
       0.569
       0.432
       0.274
       0.101
      -0.078
      -0.260
      -0.448
      -0.644
      -0.847
      -1.053
      -1.255
      -1.439
      -1.587
      -1.688
      -1.733
      -1.719
      -1.649
      -1.531
      -1.377
      -1.188
      -0.958
      -0.695
      -0.418
      -0.154
       0.077
       0.259
       0.391
       0.485
       0.559
       0.622
       0.671
       0.701
       0.712
       0.704
       0.682
       0.656
       0.632
       0.608
       0.574
       0.526
       0.469
       0.413
       0.362
       0.321
       0.298
       0.296
       0.316
       0.356
       0.413
       0.481
       0.547
       0.604
       0.646
       0.658
       0.624
       0.537
       0.412
       0.268
       0.122
      -0.017
      -0.145
      -0.259
      -0.351
      -0.409
      -0.429
      -0.428
      -0.440
      -0.491
      -0.586
      -0.714
      -0.856
      -0.989
      -1.100
      -1.188
      -1.261
      -1.321
      -1.360
      -1.363
      -1.318
      -1.217
      -1.056
      -0.844
      -0.602
      -0.349
      -0.096
       0.152
       0.388
       0.611
       0.825
       1.030
       1.218
       1.378
       1.502
       1.577
       1.596
       1.558
       1.465
       1.322
       1.136
       0.927
       0.723
       0.549
       0.414
       0.317
       0.251
       0.201
       0.145
       0.073
      -0.012
      -0.094
      -0.161
      -0.206
      -0.230
      -0.244
      -0.256
      -0.266
      -0.263
      -0.243
      -0.215
      -0.197
      -0.201
      -0.232
      -0.291
      -0.372
      -0.465
      -0.566
      -0.671
      -0.769
      -0.839
      -0.869
      -0.859
      -0.817
      -0.749
      -0.666
      -0.579
      -0.495
      -0.409
      -0.310
      -0.193
      -0.056
       0.097
       0.248
       0.370
       0.447
       0.478
       0.479
       0.463
       0.446
       0.436
       0.437
       0.446
       0.467
       0.506
       0.564
       0.624
       0.668
       0.675
       0.635
       0.545
       0.414
       0.264
       0.112
      -0.032
      -0.159
      -0.255
      -0.312
      -0.329
      -0.313
      -0.275
      -0.228
      -0.186
      -0.160
      -0.147
      -0.146
      -0.155
      -0.169
      -0.180
      -0.183
      -0.183
      -0.186
      -0.197
      -0.215
      -0.245
      -0.285
      -0.330
      -0.376
      -0.424
      -0.469
      -0.505
      -0.523
      -0.524
      -0.505
      -0.460
      -0.382
      -0.276
      -0.148
      -0.006
       0.139
       0.274
       0.391
       0.487
       0.559
       0.603
       0.614
       0.600
       0.568
       0.526
       0.482
       0.450
       0.438
       0.443
       0.457
       0.473
       0.484
       0.484
       0.473
       0.455
       0.431
       0.394
       0.335
       0.252
       0.147
       0.014
      -0.153
      -0.353
      -0.575
      -0.803
      -1.009
      -1.163
      -1.244
      -1.247
      -1.181
      -1.060
      -0.900
      -0.721
      -0.541
      -0.372
      -0.219
      -0.086
       0.029
       0.133
       0.227
       0.307
       0.368
       0.414
       0.449
       0.476
       0.494
       0.508
       0.526
       0.548
       0.570
       0.586
       0.593
       0.583
       0.553
       0.511
       0.469
       0.429
       0.388
       0.340
       0.281
       0.212
       0.140
       0.077
       0.031
       0.001
      -0.014
      -0.011
       0.008
       0.025
       0.015
      -0.041
      -0.147
      -0.294
      -0.465
      -0.638
      -0.796
      -0.934
      -1.046
      -1.126
      -1.168
      -1.176
      -1.154
      -1.099
      -1.004
      -0.867
      -0.694
      -0.486
      -0.249
       0.011
       0.279
       0.540
       0.778
       0.979
       1.137
       1.255
       1.334
       1.364
       1.336
       1.254
       1.132
       0.983
       0.814
       0.632
       0.446
       0.258
       0.071
      -0.107
      -0.270
      -0.414
      -0.540
      -0.643
      -0.715
      -0.756
      -0.771
      -0.767
      -0.749
      -0.718
      -0.670
      -0.598
      -0.497
      -0.377
      -0.245
      -0.106
       0.040
       0.178
       0.284
       0.343
       0.355
       0.334
       0.295
       0.257
       0.231
       0.217
       0.211
       0.206
       0.194
       0.166
       0.124
       0.085
       0.070
       0.089
       0.129
       0.172
       0.204
       0.219
       0.223
       0.227
       0.235
       0.238
       0.225
       0.190
       0.137
       0.066
      -0.019
      -0.112
      -0.203
      -0.287
      -0.357
      -0.404
      -0.423
      -0.411
      -0.378
      -0.328
      -0.261
      -0.181
      -0.094
       0.000
       0.101
       0.207
       0.314
       0.411
       0.488
       0.530
       0.526
       0.480
