Origin Time       04/04/2011 11:31:40 UTC
Lat.              29.6 N	
Long.             80.8 E	
Depth (Km)         10.0
Magnitude         5.7
 Region           NEPAL-INDIA-BORDER-REGION                                        
 Above details taken from IMD 
    
Station Code      BAR
Station Lat.       30.809  N
Station Long.      78.205  E
Station Height(m) 1305.0
Site Class        A   Vs30 between 700 m/sec to 1400 m/sec * 
Record Time       04.04.2011 11:32:25.894 UTC
Sampling Rate     200. Hz
 Record Duration  104.270 Sec.
 Direction         N-S (N positive)
Max. Acceleration      6.078 cm/sec**2
     
  * For reference see Site Classification link of website 
     
 Base Line Corrected and Low Pass Filtered (Cut Off at 35 Hz) Time History
 Acceleration data in cm/sec**2
    
[...]
       1.267
       0.985
       0.687
       0.372
       0.050
      -0.261
      -0.551
      -0.818
      -1.064
      -1.290
      -1.494
      -1.676
      -1.828
      -1.937
      -2.001
      -2.022
      -2.003
      -1.953
      -1.890
      -1.838
      -1.801
      -1.764
      -1.709
      -1.626
      -1.514
      -1.381
      -1.246
      -1.128
      -1.032
      -0.950
      -0.868
      -0.778
      -0.673
      -0.549
      -0.410
      -0.262
      -0.105
       0.066
       0.245
       0.420
       0.589
       0.758
       0.928
       1.095
       1.257
       1.416
       1.572
       1.720
       1.855
       1.972
       2.057
       2.093
       2.080
       2.028
       1.949
       1.849
       1.736
       1.617
       1.493
       1.359
       1.218
       1.079
       0.946
       0.813
       0.681
       0.550
       0.417
       0.279
       0.132
      -0.021
      -0.184
      -0.361
      -0.547
      -0.734
      -0.914
      -1.080
      -1.222
      -1.329
      -1.407
      -1.471
      -1.532
      -1.589
      -1.641
      -1.688
      -1.727
      -1.745
      -1.727
      -1.665
      -1.555
      -1.399
      -1.215
      -1.019
      -0.814
      -0.596
      -0.369
      -0.147
       0.059
       0.252
       0.441
       0.628
       0.810
       0.978
       1.117
       1.215
       1.273
       1.298
       1.293
       1.256
       1.194
       1.116
       1.029
       0.930
       0.826
       0.723
       0.623
       0.517
       0.402
       0.282
       0.158
       0.039
      -0.067
      -0.144
      -0.191
      -0.213
      -0.213
      -0.189
      -0.150
      -0.113
      -0.093
      -0.098
      -0.136
      -0.211
      -0.314
      -0.431
      -0.551
      -0.679
      -0.814
      -0.951
      -1.086
      -1.213
      -1.317
      -1.382
      -1.402
      -1.387
      -1.351
      -1.301
      -1.237
      -1.160
      -1.063
      -0.947
      -0.819
      -0.697
      -0.588
      -0.494
      -0.414
      -0.351
      -0.301
      -0.258
      -0.215
      -0.171
      -0.117
      -0.050
       0.025
       0.096
       0.160
       0.223
       0.282
       0.330
       0.361
       0.379
       0.388
       0.393
       0.399
       0.405
       0.403
       0.391
       0.378
       0.372
       0.373
       0.367
       0.354
       0.340
       0.336
       0.342
       0.363
       0.403
       0.460
       0.531
       0.614
       0.713
       0.823
       0.933
       1.033
       1.122
       1.194
       1.241
       1.262
       1.259
       1.225
       1.152
       1.035
       0.884
       0.708
       0.513
       0.305
       0.091
      -0.124
      -0.335
      -0.529
      -0.690
      -0.819
      -0.927
      -1.017
      -1.080
      -1.103
      -1.083
      -1.023
      -0.935
      -0.834
      -0.727
      -0.608
      -0.469
      -0.313
      -0.157
      -0.019
       0.087
       0.146
       0.147
       0.092
      -0.003
      -0.119
      -0.243
      -0.363
      -0.463
      -0.535
      -0.580
      -0.603
      -0.606
      -0.595
      -0.578
      -0.552
      -0.514
      -0.466
      -0.414
      -0.357
      -0.295
      -0.232
      -0.187
      -0.172
      -0.184
      -0.214
      -0.249
      -0.273
      -0.274
      -0.253
      -0.217
      -0.162
      -0.078
       0.037
       0.181
       0.354
       0.554
       0.772
       0.994
       1.212
       1.428
       1.644
       1.852
       2.040
       2.197
       2.304
       2.350
       2.334
       2.269
       2.167
       2.036
       1.888
       1.731
       1.565
       1.383
       1.190
       0.994
       0.792
       0.572
       0.328
       0.071
      -0.181
      -0.412
      -0.612
      -0.781
      -0.924
      -1.045
      -1.141
      -1.207
      -1.249
      -1.279
      -1.299
      -1.304
      -1.287
      -1.251
      -1.196
      -1.121
      -1.035
      -0.947
      -0.869
      -0.801
      -0.747
      -0.707
      -0.674
      -0.641
      -0.609
      -0.589
      -0.586
      -0.596
      -0.619
      -0.660
      -0.720
      -0.790
      -0.858
      -0.914
      -0.944
      -0.935
      -0.881
      -0.783
      -0.642
      -0.459
      -0.239
       0.003
       0.256
       0.516
       0.772
       1.016
       1.250
       1.479
       1.704
       1.917
       2.106
       2.263
       2.379
       2.451
       2.486
       2.489
       2.449
       2.345
       2.164
       1.912
       1.601
       1.248
       0.878
       0.512
       0.155
      -0.202
      -0.564
      -0.921
      -1.261
      -1.573
      -1.848
      -2.076
      -2.259
      -2.398
      -2.493
      -2.541
      -2.549
      -2.529
      -2.483
      -2.408
      -2.309
      -2.194
      -2.066
      -1.923
      -1.769
      -1.618
      -1.479
      -1.354
      -1.236
      -1.116
      -0.983
      -0.828
      -0.652
      -0.470
      -0.294
      -0.126
       0.036
       0.194
       0.355
       0.520
       0.685
       0.842
       0.993
       1.138
       1.267
       1.367
       1.429
       1.455
       1.446
       1.401
       1.323
       1.216
       1.080
       0.913
       0.725
       0.531
       0.342
       0.166
       0.009
      -0.119
      -0.210
      -0.263
      -0.274
      -0.239
      -0.168
      -0.078
       0.016
       0.103
       0.175
       0.230
       0.284
       0.354
       0.447
       0.550
       0.649
       0.737
       0.804
       0.842
       0.849
       0.829
       0.785
       0.717
       0.626
       0.510
       0.358
       0.162
      -0.072
      -0.324
      -0.575
      -0.817
      -1.043
      -1.247
      -1.423
      -1.560
      -1.644
      -1.662
      -1.610
      -1.498
      -1.334
      -1.124
      -0.881
      -0.619
      -0.347
      -0.072
       0.192
       0.428
       0.626
       0.787
       0.908
       0.986
       1.022
       1.024
       0.998
       0.945
       0.868
       0.772
       0.656
       0.520
       0.373
       0.233
       0.111
       0.006
      -0.079
      -0.141
      -0.173
      -0.170
      -0.122
      -0.016
       0.146
       0.349
       0.573
       0.800
       1.017
       1.219
       1.412
       1.608
       1.805
       1.987
       2.136
       2.235
       2.277
       2.261
       2.202
       2.110
       1.983
       1.808
       1.580
       1.309
       1.005
       0.678
       0.343
       0.018
      -0.283
      -0.558
      -0.806
      -1.021
      -1.202
      -1.354
      -1.480
      -1.584
      -1.665
      -1.724
      -1.749
      -1.727
      -1.661
      -1.565
      -1.449
      -1.311
      -1.154
      -0.991
      -0.826
      -0.657
      -0.483
      -0.315
      -0.160
      -0.022
       0.099
       0.201
       0.289
       0.366
       0.428
       0.464
       0.467
       0.434
       0.365
       0.263
       0.140
       0.012
      -0.116
      -0.252
      -0.400
      -0.558
      -0.724
      -0.897
      -1.073
      -1.245
      -1.407
      -1.553
      -1.672
      -1.755
      -1.809
      -1.843
      -1.859
      -1.844
      -1.797
      -1.729
      -1.653
      -1.574
      -1.496
      -1.422
      -1.351
      -1.280
      -1.211
      -1.148
      -1.091
      -1.037
      -0.988
      -0.951
      -0.920
      -0.884
      -0.837
      -0.772
      -0.684
      -0.561
      -0.402
      -0.212
       0.004
       0.243
       0.496
       0.748
       0.997
       1.246
       1.505
       1.774
       2.056
       2.349
       2.638
       2.906
       3.141
       3.340
       3.497
       3.607
       3.677
       3.716
       3.729
       3.708
       3.653
       3.571
       3.464
       3.327
       3.157
       2.954
       2.720
       2.461
       2.186
       1.904
       1.611
       1.300
       0.973
       0.638
       0.297
      -0.050
      -0.399
      -0.740
      -1.069
      -1.392
      -1.713
      -2.032
      -2.352
      -2.670
      -2.976
      -3.260
      -3.523
      -3.771
      -3.997
      -4.185
      -4.318
      -4.391
      -4.401
      -4.355
      -4.261
      -4.127
      -3.942
      -3.690
      -3.365
      -2.977
      -2.536
      -2.049
      -1.531
      -0.999
      -0.463
       0.073
       0.604
       1.119
       1.608
       2.066
       2.484
       2.853
       3.166
       3.429
       3.643
       3.807
       3.922
       3.989
       4.007
       3.975
       3.897
       3.786
       3.651
       3.490
       3.303
       3.092
       2.857
       2.597
       2.320
       2.038
       1.759
       1.482
       1.210
       0.944
       0.682
       0.416
       0.144
      -0.132
      -0.413
      -0.705
      -1.008
      -1.318
      -1.641
      -1.983
      -2.337
      -2.686
      -3.013
      -3.306
      -3.558
      -3.767
      -3.938
      -4.073
      -4.164
      -4.194
      -4.158
      -4.062
      -3.910
      -3.700
      -3.438
      -3.136
      -2.806
      -2.459
      -2.110
      -1.771
      -1.444
      -1.128
      -0.830
      -0.560
      -0.319
      -0.094
       0.122
       0.328
       0.524
       0.718
       0.922
       1.144
       1.390
       1.658
       1.933
       2.198
       2.444
       2.672
       2.876
       3.045
       3.170
       3.245
       3.264
       3.220
       3.112
       2.945
       2.724
       2.454
       2.146
       1.815
       1.463
       1.085
       0.687
       0.283
      -0.113
      -0.491
      -0.839
      -1.146
      -1.414
      -1.653
      -1.864
      -2.043
      -2.183
      -2.276
      -2.306
      -2.257
      -2.122
      -1.906
      -1.614
      -1.253
      -0.836
      -0.385
       0.085
       0.562
       1.033
       1.486
       1.910
       2.292
       2.614
       2.849
       2.979
       3.001
       2.913
       2.722
       2.441
       2.090
       1.685
       1.239
       0.770
       0.298
      -0.165
      -0.619
      -1.061
      -1.478
      -1.858
      -2.185
      -2.439
      -2.605
      -2.688
      -2.708
      -2.683
      -2.618
      -2.518
      -2.389
      -2.238
      -2.069
      -1.888
      -1.698
      -1.492
      -1.265
      -1.021
      -0.771
      -0.521
      -0.267
      -0.008
       0.251
       0.505
       0.744
       0.953
       1.118
       1.247
       1.361
       1.467
       1.558
       1.625
       1.669
       1.700
       1.734
       1.790
       1.886
       2.022
       2.185
       2.356
       2.516
       2.643
       2.724
       2.758
       2.757
       2.727
       2.665
       2.569
       2.436
       2.259
       2.034
       1.774
       1.499
       1.225
       0.952
       0.676
       0.395
       0.103
      -0.202
      -0.516
      -0.827
      -1.127
      -1.410
      -1.672
      -1.906
      -2.114
      -2.302
      -2.480
      -2.655
      -2.838
      -3.034
      -3.232
      -3.421
      -3.600
      -3.775
      -3.949
      -4.110
      -4.246
      -4.348
      -4.406
      -4.415
      -4.376
      -4.293
      -4.158
      -3.956
      -3.680
      -3.340
      -2.957
      -2.557
      -2.162
      -1.783
      -1.416
      -1.050
      -0.689
      -0.340
      -0.003
       0.328
       0.659
       0.989
       1.321
       1.660
       2.009
       2.360
       2.709
       3.045
       3.353
       3.620
       3.846
       4.044
       4.213
       4.341
       4.413
       4.419
       4.360
       4.247
       4.102
       3.946
       3.787
       3.616
       3.423
       3.206
       2.960
       2.682
       2.381
       2.066
       1.743
       1.410
       1.067
       0.716
       0.349
      -0.038
      -0.447
      -0.869
      -1.298
      -1.733
      -2.171
      -2.608
      -3.036
      -3.439
      -3.790
      -4.060
      -4.241
      -4.341
      -4.367
      -4.322
      -4.208
      -4.021
      -3.751
      -3.389
      -2.940
      -2.420
      -1.844
      -1.227
      -0.592
       0.030
       0.608
       1.119
       1.548
       1.893
       2.162
       2.369
       2.507
       2.556
       2.499
       2.337
       2.085
       1.762
       1.393
       1.001
       0.600
       0.200
      -0.186
      -0.544
      -0.865
      -1.139
      -1.351
      -1.480
      -1.516
      -1.459
      -1.311
      -1.074
      -0.758
      -0.381
       0.037
       0.478
       0.918
       1.337
       1.724
       2.071
       2.367
       2.595
       2.754
       2.852
       2.898
       2.898
       2.858
       2.786
       2.681
       2.536
       2.351
       2.136
       1.907
       1.679
       1.469
       1.283
       1.116
       0.956
       0.808
       0.687
       0.601
       0.546
       0.514
       0.496
       0.485
       0.474
       0.464
       0.453
       0.426
       0.366
       0.265
       0.129
      -0.037
      -0.231
      -0.450
      -0.688
      -0.949
      -1.242
      -1.568
      -1.925
      -2.305
      -2.696
      -3.075
      -3.418
      -3.718
      -3.985
      -4.227
      -4.440
      -4.621
      -4.767
      -4.868
      -4.910
      -4.884
      -4.782
      -4.598
      -4.328
      -3.971
      -3.530
      -3.009
      -2.411
      -1.753
      -1.057
      -0.341
       0.385
       1.106
       1.807
       2.479
       3.118
       3.718
       4.269
       4.766
       5.204
       5.569
       5.842
       6.013
       6.078
       6.026
       5.851
       5.556
       5.161
       4.685
       4.143
       3.547
       2.915
       2.263
       1.602
       0.940
       0.280
      -0.384
      -1.054
      -1.714
      -2.336
      -2.902
      -3.411
      -3.872
      -4.287
      -4.656
      -4.974
      -5.222
      -5.382
      -5.447
      -5.424
      -5.324
      -5.153
      -4.917
      -4.621
      -4.267
      -3.857
      -3.401
      -2.912
      -2.392
      -1.842
      -1.264
      -0.664
      -0.043
       0.603
       1.268
       1.936
       2.587
       3.201
       3.754
       4.222
       4.600
       4.892
       5.108
       5.254
       5.337
       5.367
       5.342
       5.255
       5.106
       4.899
       4.641
       4.332
       3.981
       3.603
       3.210
       2.805
       2.391
       1.971
       1.540
       1.094
       0.630
       0.151
      -0.347
      -0.866
      -1.400
      -1.933
      -2.454
      -2.952
      -3.417
      -3.833
      -4.190
      -4.486
      -4.724
      -4.912
      -5.066
      -5.198
      -5.297
      -5.337
      -5.299
      -5.175
      -4.966
      -4.673
      -4.301
      -3.850
      -3.324
      -2.727
      -2.083
      -1.419
      -0.752
      -0.089
       0.563
       1.186
       1.763
       2.275
       2.702
       3.023
       3.233
       3.340
       3.357
       3.291
       3.160
       2.978
       2.750
       2.469
       2.133
       1.755
       1.352
       0.943
       0.548
       0.180
      -0.155
      -0.459
      -0.733
      -0.974
      -1.183
      -1.359
      -1.494
      -1.575
      -1.597
      -1.563
      -1.470
      -1.312
      -1.094
      -0.826
      -0.521
      -0.192
       0.146
       0.478
       0.800
       1.112
       1.406
       1.663
       1.870
       2.027
       2.138
       2.206
       2.238
       2.235
       2.189
       2.089
       1.934
       1.731
       1.482
       1.190
       0.864
       0.520
       0.166
      -0.199
      -0.570
      -0.929
      -1.260
      -1.552
      -1.799
      -2.002
      -2.164
      -2.290
      -2.376
      -2.414
      -2.407
      -2.366
      -2.296
      -2.195
      -2.065
      -1.910
      -1.732
      -1.531
      -1.308
      -1.062
      -0.785
      -0.470
      -0.123
       0.242
       0.616
       0.992
       1.357
       1.691
       1.977
       2.210
       2.386
       2.508
       2.586
       2.639
       2.678
       2.707
       2.728
       2.737
       2.729
       2.700
       2.658
       2.609
       2.543
       2.438
       2.284
       2.088
       1.866
       1.631
       1.386
       1.132
       0.862
       0.575
       0.282
       0.002
      -0.253
      -0.482
      -0.683
      -0.857
      -1.011
      -1.146
      -1.261
      -1.346
      -1.405
      -1.449
      -1.486
      -1.518
      -1.544
      -1.569
      -1.597
      -1.629
      -1.674
      -1.736
      -1.812
      -1.890
      -1.968
      -2.051
      -2.141
      -2.228
      -2.305
      -2.363
      -2.397
      -2.398
      -2.369
      -2.314
      -2.232
      -2.116
      -1.959
      -1.760
      -1.510
      -1.201
      -0.842
      -0.449
      -0.032
       0.406
       0.859
       1.313
       1.750
       2.159
       2.525
       2.836
       3.090
       3.290
       3.433
       3.515
       3.539
       3.510
       3.430
       3.299
       3.124
       2.922
       2.700
       2.451
       2.174
       1.871
       1.556
       1.247
       0.966
       0.725
       0.521
       0.339
       0.174
       0.026
      -0.105
      -0.226
      -0.337
      -0.427
      -0.494
      -0.545
      -0.593
      -0.650
      -0.725
      -0.817
      -0.918
      -1.018
      -1.125
      -1.255
      -1.410
      -1.577
      -1.742
      -1.895
      -2.036
      -2.164
      -2.282
      -2.389
      -2.475
      -2.533
      -2.563
      -2.569
      -2.545
      -2.476
      -2.352
      -2.172
      -1.934
      -1.640
      -1.301
      -0.932
      -0.550
      -0.169
       0.188
       0.499
       0.754
       0.958
       1.115
       1.227
       1.291
       1.307
       1.266
       1.158
       0.981
       0.743
       0.453
       0.125
      -0.214
      -0.533
      -0.811
      -1.045
      -1.232
      -1.370
      -1.458
      -1.496
      -1.481
      -1.409
      -1.280
      -1.096
      -0.857
      -0.560
      -0.216
       0.159
       0.554
       0.965
       1.379
       1.782
       2.158
       2.499
       2.796
       3.040
       3.231
       3.371
       3.450
       3.453
       3.371
       3.203
       2.954
       2.629
       2.247
       1.825
       1.376
       0.907
       0.427
      -0.049
      -0.512
      -0.959
      -1.379
      -1.759
      -2.085
      -2.349
      -2.538
      -2.640
      -2.652
      -2.583
      -2.443
      -2.245
      -2.004
      -1.742
      -1.470
      -1.191
      -0.911
      -0.640
      -0.386
      -0.153
       0.054
       0.226
       0.356
       0.441
       0.476
       0.454
       0.381
       0.272
       0.138
      -0.015
      -0.179
      -0.352
      -0.539
      -0.741
      -0.944
      -1.124
      -1.268
      -1.379
      -1.463
      -1.520
      -1.544
      -1.532
      -1.478
      -1.381
      -1.247
      -1.085
      -0.898
      -0.688
      -0.470
      -0.259
      -0.065
       0.117
       0.286
       0.437
       0.566
       0.670
       0.743
       0.785
       0.804
       0.816
       0.827
       0.835
       0.844
       0.864
       0.904
       0.961
       1.033
       1.117
       1.209
       1.303
       1.398
       1.502
       1.613
       1.721
       1.816
       1.892
       1.938
       1.947
       1.914
