Origin Time       21/9/2009 9:43:47	  UTC
Lat.              30.9 N	
Long.             79.1 E	
Depth (Km)         13.0
Magnitude         4.7
 Region           UTTARKASHI-UTTARAKHAND                                           
 Above details taken from IMD 
    
Station Code      BAR
Station Lat.       30.809  N
Station Long.      78.656  E
Station Height(m) 1305.0
Site Class        A   Vs30 between 700 m/sec to 1400 m/sec * 
Record Time       21.09.2009 09:44:03.484 UTC
Sampling Rate     200. Hz
 Record Duration   71.575 Sec.
 Direction         N-S (N positive)
Max. Acceleration    -19.343 cm/sec**2
     
  * For reference see Site Classification link of website 
     
 Base Line Corrected and Low Pass Filtered (Cut Off at 35 Hz) Time History
 Acceleration data in cm/sec**2
    
[...]
      -0.589
      -0.474
      -0.222
       0.153
       0.558
       0.889
       1.099
       1.202
       1.227
       1.170
       0.998
       0.704
       0.338
      -0.023
      -0.322
      -0.553
      -0.739
      -0.910
      -1.079
      -1.235
      -1.343
      -1.354
      -1.235
      -0.995
      -0.678
      -0.332
       0.022
       0.385
       0.750
       1.075
       1.290
       1.338
       1.216
       0.981
       0.713
       0.471
       0.268
       0.084
      -0.116
      -0.361
      -0.666
      -1.003
      -1.289
      -1.408
      -1.288
      -0.955
      -0.517
      -0.079
       0.322
       0.714
       1.131
       1.565
       1.964
       2.261
       2.413
       2.395
       2.188
       1.786
       1.225
       0.598
       0.029
      -0.398
      -0.686
      -0.906
      -1.128
      -1.367
      -1.580
      -1.716
      -1.767
      -1.766
      -1.762
      -1.780
      -1.798
      -1.756
      -1.590
      -1.268
      -0.817
      -0.297
       0.227
       0.716
       1.153
       1.520
       1.779
       1.888
       1.822
       1.605
       1.297
       0.953
       0.596
       0.216
      -0.190
      -0.601
      -0.963
      -1.218
      -1.327
      -1.284
      -1.119
      -0.890
      -0.654
      -0.450
      -0.284
      -0.134
       0.030
       0.227
       0.449
       0.668
       0.846
       0.954
       0.981
       0.935
       0.827
       0.668
       0.470
       0.254
       0.049
      -0.122
      -0.251
      -0.345
      -0.407
      -0.427
      -0.390
      -0.292
      -0.160
      -0.045
       0.011
      -0.006
      -0.081
      -0.191
      -0.326
      -0.482
      -0.643
      -0.771
      -0.825
      -0.790
      -0.694
      -0.573
      -0.443
      -0.288
      -0.093
       0.132
       0.363
       0.584
       0.801
       1.015
       1.207
       1.331
       1.345
       1.247
       1.089
       0.949
       0.876
       0.850
       0.797
       0.648
       0.397
       0.111
      -0.118
      -0.233
      -0.240
      -0.181
      -0.101
      -0.033
       0.002
      -0.016
      -0.095
      -0.211
      -0.318
      -0.372
      -0.365
      -0.333
      -0.338
      -0.427
      -0.608
      -0.851
      -1.115
      -1.367
      -1.584
      -1.742
      -1.812
      -1.774
      -1.633
      -1.420
      -1.172
      -0.905
      -0.616
      -0.296
       0.058
       0.433
       0.812
       1.172
       1.483
       1.724
       1.895
       2.017
       2.113
       2.180
       2.188
       2.106
       1.914
       1.612
       1.214
       0.754
       0.291
      -0.106
      -0.400
      -0.623
      -0.861
      -1.186
      -1.599
      -2.021
      -2.353
      -2.532
      -2.555
      -2.442
      -2.207
      -1.857
      -1.412
      -0.916
      -0.427
       0.016
       0.405
       0.754
       1.087
       1.422
       1.759
       2.064
       2.258
       2.238
       1.937
       1.376
       0.681
       0.027
      -0.456
      -0.744
      -0.910
      -1.046
      -1.186
      -1.286
      -1.280
      -1.135
      -0.885
      -0.600
      -0.345
      -0.148
       0.001
       0.147
       0.345
       0.626
       0.970
       1.307
       1.553
       1.659
       1.641
       1.577
       1.551
       1.604
       1.707
       1.780
       1.745
       1.563
       1.258
       0.878
       0.462
       0.017
      -0.472
      -1.017
      -1.604
      -2.186
      -2.692
      -3.049
      -3.217
      -3.208
      -3.081
      -2.889
      -2.644
      -2.317
      -1.881
      -1.343
      -0.760
      -0.202
       0.289
       0.711
       1.088
       1.449
       1.810
       2.162
       2.470
       2.677
       2.723
       2.581
       2.275
       1.880
       1.485
       1.154
       0.921
       0.797
       0.776
       0.825
       0.882
       0.869
       0.719
       0.405
      -0.060
      -0.629
      -1.238
      -1.821
      -2.327
      -2.724
      -2.995
      -3.128
      -3.108
      -2.921
      -2.570
      -2.089
      -1.533
      -0.954
      -0.383
       0.167
       0.680
       1.117
       1.435
       1.614
       1.671
       1.646
       1.564
       1.426
       1.220
       0.942
       0.609
       0.250
      -0.105
      -0.429
      -0.692
      -0.876
      -0.980
      -1.023
      -1.029
      -1.008
      -0.942
      -0.807
      -0.588
      -0.302
       0.012
       0.320
       0.623
       0.951
       1.344
       1.808
       2.283
       2.667
       2.866
       2.848
       2.644
       2.312
       1.899
       1.445
       0.994
       0.591
       0.238
      -0.110
      -0.515
      -0.995
      -1.508
      -1.985
      -2.380
      -2.684
      -2.898
      -3.007
      -2.980
      -2.797
      -2.467
      -2.029
      -1.532
      -1.015
      -0.492
       0.025
       0.512
       0.915
       1.177
       1.270
       1.217
       1.069
       0.884
       0.707
       0.564
       0.459
       0.380
       0.305
       0.226
       0.157
       0.128
       0.160
       0.245
       0.338
       0.385
       0.350
       0.237
       0.084
      -0.057
      -0.143
      -0.159
      -0.124
      -0.077
      -0.035
       0.020
       0.130
       0.310
       0.527
       0.719
       0.834
       0.857
       0.805
       0.705
       0.584
       0.462
       0.354
       0.266
       0.190
       0.108
       0.009
      -0.098
      -0.194
      -0.285
      -0.402
      -0.569
      -0.759
      -0.889
      -0.879
      -0.722
      -0.501
      -0.315
      -0.212
      -0.164
      -0.116
      -0.044
       0.035
       0.097
       0.134
       0.161
       0.185
       0.191
       0.149
       0.047
      -0.080
      -0.170
      -0.182
      -0.146
      -0.145
      -0.250
      -0.460
      -0.706
      -0.902
      -1.000
      -0.999
      -0.919
      -0.790
      -0.642
      -0.492
      -0.331
      -0.122
       0.164
       0.535
       0.966
       1.419
       1.847
       2.195
       2.415
       2.483
       2.417
       2.255
       2.028
       1.734
       1.351
       0.874
       0.342
      -0.172
      -0.591
      -0.871
      -1.013
      -1.063
      -1.100
      -1.198
      -1.380
      -1.589
      -1.710
      -1.641
      -1.346
      -0.867
      -0.278
       0.371
       1.047
       1.705
       2.261
       2.616
       2.708
       2.539
       2.171
       1.676
       1.106
       0.476
      -0.212
      -0.938
      -1.648
      -2.269
      -2.724
      -2.952
      -2.923
      -2.649
      -2.197
      -1.670
      -1.163
      -0.713
      -0.279
       0.217
       0.821
       1.481
       2.071
       2.472
       2.655
       2.694
       2.692
       2.697
       2.670
       2.535
       2.254
       1.852
       1.376
       0.840
       0.217
      -0.506
      -1.296
      -2.086
      -2.821
      -3.468
      -3.983
      -4.294
      -4.334
      -4.104
      -3.692
      -3.214
      -2.736
      -2.245
      -1.689
      -1.037
      -0.306
       0.459
       1.217
       1.947
       2.637
       3.271
       3.823
       4.261
       4.542
       4.624
       4.457
       3.997
       3.230
       2.198
       1.007
      -0.205
      -1.340
      -2.372
      -3.332
      -4.259
      -5.168
      -6.047
      -6.873
      -7.597
      -8.134
      -8.380
      -8.253
      -7.746
      -6.942
      -5.977
      -4.980
      -4.032
      -3.154
      -2.324
      -1.508
      -0.689
       0.116
       0.862
       1.502
       2.021
       2.453
       2.863
       3.317
       3.840
       4.397
       4.924
       5.369
       5.731
       6.045
       6.341
       6.602
       6.779
       6.820
       6.718
       6.517
       6.296
       6.121
       5.998
       5.852
       5.562
       5.037
       4.276
       3.372
       2.447
       1.591
       0.826
       0.120
      -0.572
      -1.259
      -1.903
      -2.429
      -2.755
      -2.823
      -2.627
      -2.234
      -1.774
      -1.400
      -1.215
      -1.237
      -1.417
      -1.691
      -2.028
      -2.425
      -2.881
      -3.375
      -3.862
      -4.292
      -4.631
      -4.863
      -4.998
      -5.055
      -5.044
      -4.942
      -4.687
      -4.207
      -3.474
      -2.546
      -1.549
      -0.617
       0.182
       0.862
       1.492
       2.139
       2.836
       3.560
       4.240
       4.774
       5.074
       5.106
       4.913
       4.582
       4.188
       3.750
       3.236
       2.600
       1.823
       0.927
      -0.017
      -0.892
      -1.566
      -1.941
      -2.010
      -1.863
      -1.646
      -1.491
      -1.469
      -1.588
      -1.818
      -2.117
      -2.445
      -2.758
      -3.025
      -3.243
      -3.441
      -3.645
      -3.844
      -3.974
      -3.944
      -3.667
      -3.100
      -2.260
      -1.217
      -0.072
       1.072
       2.116
       2.980
       3.620
       4.047
       4.307
       4.441
       4.450
       4.312
       4.014
       3.576
       3.023
       2.358
       1.563
       0.635
      -0.385
      -1.409
      -2.337
      -3.087
      -3.605
      -3.875
      -3.916
      -3.778
      -3.517
      -3.155
      -2.667
      -2.018
      -1.209
      -0.313
       0.539
       1.204
       1.568
       1.561
       1.160
       0.390
      -0.659
      -1.832
      -2.952
      -3.875
      -4.522
      -4.870
      -4.923
      -4.697
      -4.220
      -3.543
      -2.736
      -1.873
      -1.003
      -0.144
       0.700
       1.525
       2.330
       3.128
       3.956
       4.831
       5.706
       6.459
       6.951
       7.117
       7.004
       6.734
       6.408
       6.056
       5.660
       5.215
       4.756
       4.334
       3.995
       3.796
       3.820
       4.150
       4.803
       5.687
       6.627
       7.452
       8.046
       8.332
       8.231
       7.654
       6.542
       4.899
       2.792
       0.343
      -2.289
      -4.907
      -7.315
      -9.354
     -10.942
     -12.071
     -12.795
     -13.186
     -13.310
     -13.202
     -12.876
     -12.342
     -11.627
     -10.771
      -9.808
      -8.772
      -7.695
      -6.617
      -5.565
      -4.526
      -3.451
      -2.286
      -0.986
       0.493
       2.205
       4.180
       6.378
       8.661
      10.839
      12.755
      14.340
      15.608
      16.585
      17.246
      17.507
      17.267
      16.462
      15.072
      13.094
      10.536
       7.456
       4.002
       0.388
      -3.182
      -6.560
      -9.650
     -12.351
     -14.557
     -16.197
     -17.283
     -17.902
     -18.143
     -18.019
     -17.473
     -16.457
     -15.033
     -13.387
     -11.739
     -10.221
      -8.825
      -7.459
      -6.047
      -4.588
      -3.138
      -1.761
      -0.501
       0.617
       1.601
       2.505
       3.430
       4.486
       5.729
       7.124
       8.560
       9.914
      11.109
      12.134
      13.017
      13.783
      14.425
      14.893
      15.103
      14.951
      14.366
      13.340
      11.952
      10.335
       8.643
       7.005
       5.497
       4.118
       2.809
       1.496
       0.143
      -1.235
      -2.587
      -3.859
      -5.012
      -6.040
      -6.974
      -7.883
      -8.858
      -9.992
     -11.340
     -12.884
     -14.508
     -16.024
     -17.241
     -18.027
     -18.338
     -18.175
     -17.533
     -16.371
     -14.621
     -12.236
      -9.244
      -5.763
      -1.981
       1.885
       5.619
       9.017
      11.918
      14.242
      16.010
      17.311
      18.228
      18.793
      18.987
      18.767
      18.093
      16.947
      15.349
      13.387
      11.210
       8.991
       6.866
       4.891
       3.035
       1.214
      -0.643
      -2.541
      -4.395
      -6.065
      -7.420
      -8.377
      -8.900
      -8.966
      -8.562
      -7.711
      -6.502
      -5.082
      -3.614
      -2.253
      -1.126
      -0.326
       0.102
       0.178
      -0.031
      -0.450
      -1.037
      -1.791
      -2.731
      -3.849
      -5.095
      -6.397
      -7.701
      -8.967
     -10.131
     -11.056
     -11.561
     -11.502
     -10.839
      -9.642
      -8.011
      -6.011
      -3.658
      -0.988
       1.887
       4.775
       7.499
       9.967
      12.172
      14.111
      15.720
      16.894
      17.539
      17.613
      17.100
      15.980
      14.225
      11.837
       8.904
       5.619
       2.250
      -0.942
      -3.769
      -6.146
      -8.062
      -9.538
     -10.585
     -11.202
     -11.381
     -11.113
     -10.409
      -9.329
      -8.004
      -6.626
      -5.396
      -4.474
      -3.942
      -3.799
      -3.975
      -4.341
      -4.748
      -5.080
      -5.295
      -5.409
      -5.430
      -5.289
      -4.854
      -4.019
      -2.799
      -1.348
       0.112
       1.405
       2.449
       3.236
       3.802
       4.211
       4.555
       4.921
       5.350
       5.811
       6.227
       6.537
       6.727
       6.818
       6.822
       6.743
       6.606
       6.494
       6.538
       6.853
       7.460
       8.262
       9.093
       9.806
      10.308
      10.533
      10.386
       9.736
       8.477
       6.606
       4.243
       1.564
      -1.292
      -4.265
      -7.325
     -10.388
     -13.272
     -15.750
     -17.639
     -18.846
     -19.343
     -19.134
     -18.238
     -16.709
     -14.638
     -12.130
      -9.292
      -6.227
      -3.045
       0.145
       3.247
       6.196
       8.943
      11.424
      13.524
      15.067
      15.869
      15.824
      14.962
      13.443
      11.498
       9.362
       7.233
       5.263
       3.550
       2.118
       0.908
      -0.208
      -1.361
      -2.615
      -3.943
      -5.272
      -6.550
      -7.772
      -8.927
      -9.945
     -10.693
     -11.047
     -10.978
     -10.570
      -9.942
      -9.142
      -8.106
      -6.722
      -4.943
      -2.834
      -0.538
       1.800
       4.051
       6.083
       7.751
       8.943
       9.641
       9.931
       9.934
       9.722
       9.296
       8.635
       7.761
       6.743
       5.639
       4.437
       3.066
       1.474
      -0.313
      -2.191
      -4.032
      -5.741
      -7.263
      -8.563
      -9.606
     -10.346
     -10.747
     -10.778
     -10.412
      -9.618
      -8.373
      -6.696
      -4.674
      -2.471
      -0.302
       1.620
       3.135
       4.170
       4.733
       4.887
       4.709
       4.263
       3.592
       2.728
       1.706
       0.575
      -0.607
      -1.763
      -2.799
      -3.595
      -4.038
      -4.059
      -3.659
      -2.884
      -1.783
      -0.399
       1.221
       3.002
       4.845
       6.636
       8.252
       9.563
      10.466
      10.937
      11.046
      10.914
      10.645
      10.273
       9.761
       9.053
       8.123
       7.001
       5.747
       4.412
       3.021
       1.579
       0.081
      -1.477
      -3.086
      -4.710
      -6.284
      -7.750
      -9.098
     -10.380
     -11.659
     -12.940
     -14.138
     -15.122
     -15.784
     -16.070
     -15.923
     -15.245
     -13.909
     -11.865
      -9.196
      -6.094
      -2.759
       0.674
       4.105
       7.393
      10.312
      12.597
      14.056
      14.673
      14.614
      14.135
      13.449
      12.619
      11.556
      10.104
       8.168
       5.799
       3.205
       0.691
      -1.443
      -3.002
      -3.967
      -4.483
      -4.756
      -4.922
      -4.957
      -4.717
      -4.059
      -2.960
      -1.552
      -0.066
       1.279
       2.352
       3.128
       3.638
       3.911
       3.949
       3.742
       3.294
       2.630
       1.790
       0.811
      -0.277
      -1.451
      -2.683
      -3.915
      -5.048
      -5.956
      -6.532
      -6.736
      -6.615
      -6.277
      -5.844
      -5.405
      -5.002
      -4.640
      -4.300
      -3.952
      -3.582
      -3.221
      -2.932
      -2.758
      -2.655
      -2.485
      -2.088
      -1.379
      -0.411
       0.642
       1.576
       2.271
       2.773
       3.282
       4.036
       5.167
       6.626
       8.222
       9.732
      10.984
      11.881
      12.376
      12.473
      12.223
      11.693
      10.927
       9.913
       8.605
       6.978
       5.080
       3.024
       0.939
      -1.092
      -3.058
      -4.968
      -6.788
      -8.426
      -9.783
     -10.835
     -11.664
     -12.391
     -13.077
     -13.661
     -13.982
     -13.876
     -13.285
     -12.280
     -11.009
      -9.611
      -8.163
      -6.697
      -5.222
      -3.728
      -2.175
      -0.513
       1.265
       3.087
       4.819
       6.318
       7.490
       8.303
       8.785
       9.017
       9.108
       9.146
       9.147
       9.047
       8.759
       8.252
       7.602
       6.954
       6.418
       6.000
       5.591
       5.048
       4.259
       3.167
       1.770
       0.118
      -1.681
      -3.485
      -5.157
      -6.613
      -7.815
      -8.750
      -9.399
      -9.754
      -9.817
      -9.596
      -9.075
      -8.222
      -7.049
      -5.669
      -4.292
      -3.136
      -2.315
      -1.797
      -1.431
      -1.038
      -0.483
       0.286
       1.259
       2.395
       3.643
       4.935
       6.171
       7.237
       8.031
       8.496
       8.620
       8.409
       7.875
       7.035
       5.937
       4.678
       3.396
       2.230
       1.265
       0.509
      -0.090
      -0.595
      -1.017
      -1.293
      -1.339
      -1.122
      -0.708
      -0.237
       0.174
       0.488
       0.747
       1.002
       1.253
       1.441
       1.495
       1.376
       1.080
       0.625
       0.032
      -0.664
      -1.409
      -2.142
      -2.827
      -3.465
      -4.089
      -4.740
      -5.433
      -6.129
      -6.734
      -7.124
      -7.200
      -6.934
      -6.375
      -5.623
      -4.786
      -3.947
      -3.139
      -2.354
      -1.576
      -0.811
      -0.102
       0.495
       0.953
       1.299
       1.614
       1.985
       2.457
       3.016
       3.605
       4.158
       4.626
       4.976
       5.216
       5.397
       5.594
       5.852
       6.149
       6.412
       6.573
       6.613
       6.566
       6.474
       6.346
       6.149
       5.832
       5.358
       4.713
       3.895
       2.918
       1.814
       0.642
      -0.525
      -1.613
      -2.567
      -3.373
      -4.072
      -4.738
      -5.433
      -6.152
      -6.809
      -7.286
      -7.532
      -7.619
      -7.698
      -7.899
      -8.241
      -8.646
      -9.016
      -9.284
      -9.408
      -9.339
      -9.023
      -8.447
      -7.652
      -6.700
      -5.610
      -4.350
      -2.888
      -1.247
       0.478
       2.144
       3.605
       4.749
       5.537
       6.018
       6.319
       6.579
       6.888
       7.265
       7.674
       8.072
       8.425
       8.698
       8.844
       8.825
       8.654
       8.419
       8.236
       8.170
       8.162
       8.069
       7.746
       7.128
       6.234
       5.137
       3.933
