Origin Time       17/9/2010 19:21:09	
Lat.              36.5 N	
Long.             70.8 E	
Depth (Km)        167.0
Magnitude         6.5
 Region           Hindukush                                                        
 Above details taken from IMD 
     
Station Code      BAR
Station Lat.       30.809  N
Station Long.      78.205  E
Station Height(m) 1305.0
Site Class        A   Vs30 between 700 m/sec to 1400 m/sec * 
Record Time       17.09.2010 19:24:14.449
Sampling Rate     200. Hz
 Record Duration   88.725 Sec.
 Direction         E-W (E positive)
Max. Acceleration     -2.273 cm/sec**2
     
  * For reference see Site Classification link of website 
     
 Base Line Corrected and Low Pass Filtered (Cut Off at 35 Hz) Time History
 Acceleration data in cm/sec**2
    
[...]
       0.328
       0.345
       0.356
       0.362
       0.365
       0.366
       0.368
       0.372
       0.378
       0.383
       0.386
       0.391
       0.404
       0.429
       0.462
       0.493
       0.515
       0.532
       0.549
       0.572
       0.596
       0.611
       0.610
       0.592
       0.566
       0.539
       0.517
       0.497
       0.474
       0.443
       0.404
       0.358
       0.308
       0.257
       0.206
       0.158
       0.113
       0.074
       0.043
       0.020
       0.008
       0.006
       0.009
       0.015
       0.023
       0.031
       0.037
       0.037
       0.031
       0.021
       0.011
       0.004
      -0.006
      -0.020
      -0.039
      -0.059
      -0.081
      -0.108
      -0.147
      -0.198
      -0.255
      -0.308
      -0.350
      -0.383
      -0.407
      -0.426
      -0.440
      -0.450
      -0.457
      -0.461
      -0.459
      -0.446
      -0.424
      -0.393
      -0.356
      -0.312
      -0.260
      -0.204
      -0.150
      -0.105
      -0.072
      -0.046
      -0.027
      -0.014
      -0.011
      -0.014
      -0.019
      -0.020
      -0.016
      -0.012
      -0.014
      -0.020
      -0.025
      -0.023
      -0.013
       0.001
       0.018
       0.039
       0.061
       0.083
       0.101
       0.117
       0.128
       0.134
       0.135
       0.132
       0.125
       0.111
       0.092
       0.068
       0.042
       0.017
      -0.007
      -0.025
      -0.039
      -0.048
      -0.055
      -0.063
      -0.073
      -0.080
      -0.081
      -0.077
      -0.072
      -0.073
      -0.080
      -0.087
      -0.090
      -0.090
      -0.089
      -0.089
      -0.092
      -0.097
      -0.101
      -0.103
      -0.099
      -0.089
      -0.073
      -0.055
      -0.037
      -0.018
       0.005
       0.038
       0.082
       0.135
       0.190
       0.242
       0.285
       0.319
       0.345
       0.369
       0.392
       0.412
       0.427
       0.437
       0.440
       0.434
       0.415
       0.378
       0.325
       0.263
       0.202
       0.147
       0.094
       0.036
      -0.032
      -0.110
      -0.189
      -0.263
      -0.330
      -0.390
      -0.443
      -0.486
      -0.519
      -0.541
      -0.556
      -0.563
      -0.561
      -0.548
      -0.523
      -0.489
      -0.445
      -0.394
      -0.339
      -0.285
      -0.234
      -0.186
      -0.139
      -0.093
      -0.049
      -0.012
       0.014
       0.032
       0.048
       0.067
       0.090
       0.112
       0.125
       0.127
       0.121
       0.110
       0.099
       0.089
       0.082
       0.082
       0.094
       0.114
       0.136
       0.156
       0.173
       0.189
       0.205
       0.221
       0.235
       0.248
       0.261
       0.278
       0.297
       0.314
       0.323
       0.321
       0.312
       0.303
       0.295
       0.289
       0.280
       0.266
       0.247
       0.225
       0.205
       0.188
       0.172
       0.154
       0.136
       0.116
       0.094
       0.068
       0.038
       0.006
      -0.026
      -0.056
      -0.085
      -0.118
      -0.156
      -0.197
      -0.235
      -0.268
      -0.300
      -0.334
      -0.367
      -0.393
      -0.408
      -0.409
      -0.397
      -0.376
      -0.348
      -0.315
      -0.281
      -0.247
      -0.214
      -0.178
      -0.136
      -0.089
      -0.040
       0.006
       0.048
       0.083
       0.113
       0.141
       0.169
       0.196
       0.221
       0.244
       0.266
       0.288
       0.309
       0.328
       0.341
       0.348
       0.349
       0.348
       0.352
       0.359
       0.369
       0.377
       0.383
       0.387
       0.390
       0.389
       0.380
       0.360
       0.331
       0.297
       0.261
       0.224
       0.185
       0.141
       0.093
       0.043
      -0.008
      -0.058
      -0.102
      -0.141
      -0.177
      -0.209
      -0.240
      -0.268
      -0.293
      -0.314
      -0.331
      -0.342
      -0.348
      -0.352
      -0.358
      -0.366
      -0.377
      -0.387
      -0.392
      -0.397
      -0.404
      -0.417
      -0.432
      -0.440
      -0.438
      -0.427
      -0.411
      -0.392
      -0.370
      -0.339
      -0.297
      -0.243
      -0.180
      -0.110
      -0.037
       0.036
       0.110
       0.183
       0.252
       0.311
       0.357
       0.394
       0.427
       0.457
       0.477
       0.481
       0.464
       0.433
       0.394
       0.353
       0.312
       0.267
       0.217
       0.163
       0.112
       0.066
       0.029
       0.000
      -0.022
      -0.034
      -0.037
      -0.031
      -0.018
       0.002
       0.026
       0.056
       0.093
       0.132
       0.172
       0.210
       0.244
       0.270
       0.281
       0.272
       0.246
       0.206
       0.163
       0.118
       0.069
       0.008
      -0.067
      -0.150
      -0.231
      -0.301
      -0.359
      -0.412
      -0.460
      -0.504
      -0.538
      -0.557
      -0.562
      -0.555
      -0.540
      -0.518
      -0.487
      -0.447
      -0.395
      -0.332
      -0.257
      -0.176
      -0.090
      -0.005
       0.075
       0.147
       0.209
       0.259
       0.300
       0.331
       0.351
       0.361
       0.359
       0.344
       0.317
       0.279
       0.233
       0.186
       0.142
       0.102
       0.064
       0.021
      -0.028
      -0.083
      -0.137
      -0.184
      -0.218
      -0.237
      -0.244
      -0.246
      -0.249
      -0.257
      -0.266
      -0.270
      -0.264
      -0.244
      -0.216
      -0.188
      -0.171
      -0.165
      -0.167
      -0.170
      -0.171
      -0.172
      -0.177
      -0.190
      -0.206
      -0.218
      -0.218
      -0.205
      -0.182
      -0.150
      -0.111
      -0.064
      -0.011
       0.044
       0.097
       0.146
       0.195
       0.249
       0.303
       0.350
       0.383
       0.400
       0.406
       0.402
       0.390
       0.368
       0.336
       0.296
       0.250
       0.197
       0.134
       0.059
      -0.026
      -0.114
      -0.201
      -0.284
      -0.363
      -0.435
      -0.496
      -0.545
      -0.578
      -0.597
      -0.607
      -0.610
      -0.608
      -0.598
      -0.576
      -0.541
      -0.494
      -0.440
      -0.382
      -0.324
      -0.269
      -0.217
      -0.171
      -0.133
      -0.104
      -0.081
      -0.063
      -0.056
      -0.064
      -0.089
      -0.130
      -0.182
      -0.240
      -0.300
      -0.359
      -0.417
      -0.476
      -0.537
      -0.598
      -0.651
      -0.685
      -0.688
      -0.657
      -0.599
      -0.525
      -0.448
      -0.371
      -0.293
      -0.209
      -0.113
      -0.008
       0.100
       0.201
       0.290
       0.367
       0.440
       0.511
       0.583
       0.651
       0.711
       0.756
       0.786
       0.800
       0.804
       0.801
       0.796
       0.792
       0.789
       0.786
       0.781
       0.779
       0.781
       0.790
       0.802
       0.813
       0.817
       0.815
       0.809
       0.797
       0.773
       0.731
       0.668
       0.588
       0.497
       0.402
       0.306
       0.204
       0.092
      -0.031
      -0.159
      -0.283
      -0.392
      -0.482
      -0.555
      -0.619
      -0.677
      -0.728
      -0.768
      -0.792
      -0.800
      -0.790
      -0.760
      -0.708
      -0.637
      -0.550
      -0.451
      -0.346
      -0.237
      -0.123
      -0.004
       0.119
       0.240
       0.356
       0.463
       0.560
       0.644
       0.713
       0.766
       0.802
       0.819
       0.818
       0.795
       0.753
       0.695
       0.631
       0.564
       0.489
       0.403
       0.306
       0.203
       0.101
       0.004
      -0.089
      -0.176
      -0.256
      -0.324
      -0.376
      -0.408
      -0.420
      -0.416
      -0.400
      -0.370
      -0.327
      -0.271
      -0.203
      -0.130
      -0.058
       0.007
       0.063
       0.111
       0.148
       0.175
       0.189
       0.187
       0.166
       0.123
       0.060
      -0.016
      -0.098
      -0.187
      -0.283
      -0.386
      -0.491
      -0.589
      -0.677
      -0.754
      -0.825
      -0.891
      -0.949
      -0.995
      -1.024
      -1.032
      -1.024
      -1.001
      -0.967
      -0.922
      -0.862
      -0.786
      -0.693
      -0.587
      -0.473
      -0.357
      -0.245
      -0.140
      -0.044
       0.040
       0.113
       0.174
       0.225
       0.268
       0.302
       0.327
       0.343
       0.348
       0.344
       0.334
       0.326
       0.327
       0.339
       0.363
       0.392
       0.424
       0.457
       0.491
       0.529
       0.570
       0.616
       0.665
       0.722
       0.788
       0.863
       0.943
       1.021
       1.091
       1.154
       1.215
       1.277
       1.340
       1.398
       1.444
       1.478
       1.503
       1.525
       1.546
       1.566
       1.581
       1.588
       1.580
       1.554
       1.509
       1.445
       1.364
       1.264
       1.142
       0.998
       0.836
       0.660
       0.478
       0.290
       0.098
      -0.092
      -0.274
      -0.442
      -0.595
      -0.734
      -0.866
      -0.989
      -1.101
      -1.197
      -1.280
      -1.354
      -1.421
      -1.480
      -1.530
      -1.571
      -1.605
      -1.633
      -1.654
      -1.669
      -1.684
      -1.703
      -1.729
      -1.760
      -1.790
      -1.813
      -1.823
      -1.819
      -1.802
      -1.770
      -1.725
      -1.665
      -1.585
      -1.481
      -1.352
      -1.203
      -1.039
      -0.861
      -0.670
      -0.463
      -0.247
      -0.029
       0.181
       0.378
       0.558
       0.722
       0.866
       0.988
       1.087
       1.167
       1.228
       1.272
       1.297
       1.302
       1.290
       1.267
       1.235
       1.197
       1.154
       1.109
       1.065
       1.022
       0.981
       0.939
       0.897
       0.857
       0.824
       0.803
       0.796
       0.800
       0.808
       0.814
       0.817
       0.822
       0.828
       0.827
       0.808
       0.768
       0.710
       0.638
       0.559
       0.473
       0.378
       0.278
       0.178
       0.082
      -0.005
      -0.082
      -0.152
      -0.215
      -0.273
      -0.326
      -0.371
      -0.406
      -0.436
      -0.465
      -0.498
      -0.530
      -0.555
      -0.563
      -0.554
      -0.532
      -0.506
      -0.485
      -0.477
      -0.486
      -0.511
      -0.545
      -0.568
      -0.565
      -0.533
      -0.488
      -0.453
      -0.436
      -0.433
      -0.436
      -0.435
      -0.423
      -0.395
      -0.346
      -0.283
      -0.216
      -0.157
      -0.114
      -0.086
      -0.072
      -0.072
      -0.084
      -0.103
      -0.128
      -0.159
      -0.201
      -0.250
      -0.296
      -0.326
      -0.336
      -0.332
      -0.320
      -0.304
      -0.283
      -0.256
      -0.222
      -0.183
      -0.138
      -0.080
      -0.008
       0.072
       0.142
       0.195
       0.236
       0.282
       0.349
       0.437
       0.535
       0.632
       0.726
       0.820
       0.914
       0.999
       1.063
       1.106
       1.143
       1.190
       1.254
       1.318
       1.361
       1.367
       1.337
       1.278
       1.201
       1.115
       1.028
       0.944
       0.855
       0.741
       0.578
       0.358
       0.097
      -0.176
      -0.432
      -0.657
      -0.857
      -1.052
      -1.258
      -1.476
      -1.687
      -1.862
      -1.982
      -2.043
      -2.060
      -2.057
      -2.047
      -2.027
      -1.988
      -1.924
      -1.833
      -1.716
      -1.575
      -1.409
      -1.216
      -0.998
      -0.766
      -0.532
      -0.308
      -0.104
       0.077
       0.236
       0.382
       0.528
       0.677
       0.823
       0.946
       1.033
       1.082
       1.098
       1.095
       1.079
       1.051
       1.011
       0.951
       0.868
       0.761
       0.633
       0.489
       0.335
       0.176
       0.011
      -0.157
      -0.323
      -0.478
      -0.613
      -0.720
      -0.798
      -0.854
      -0.898
      -0.931
      -0.946
      -0.933
      -0.889
      -0.821
      -0.739
      -0.645
      -0.537
      -0.415
      -0.286
      -0.162
      -0.052
       0.039
       0.113
       0.175
       0.223
       0.257
       0.276
       0.285
       0.288
       0.285
       0.275
       0.250
       0.205
       0.142
       0.072
       0.002
      -0.066
      -0.133
      -0.197
      -0.251
      -0.285
      -0.296
      -0.286
      -0.258
      -0.218
      -0.167
      -0.104
      -0.031
       0.053
       0.147
       0.253
       0.366
       0.479
       0.583
       0.673
       0.746
       0.801
       0.841
       0.870
       0.891
       0.905
       0.910
       0.905
       0.894
       0.881
       0.871
       0.862
       0.853
       0.838
       0.820
       0.801
       0.785
       0.768
       0.744
       0.711
       0.669
       0.617
       0.555
       0.483
       0.399
       0.301
       0.183
       0.042
      -0.121
      -0.299
      -0.482
      -0.664
      -0.846
      -1.030
      -1.213
      -1.390
      -1.555
      -1.711
      -1.860
      -1.998
      -2.118
      -2.207
      -2.260
      -2.273
      -2.250
      -2.197
      -2.117
      -2.011
      -1.876
      -1.718
      -1.544
      -1.361
      -1.170
      -0.969
      -0.757
      -0.542
      -0.336
      -0.144
       0.037
       0.212
       0.387
       0.558
       0.720
       0.873
       1.019
       1.156
       1.280
       1.383
       1.461
       1.514
       1.546
       1.564
       1.568
       1.558
       1.537
       1.508
       1.475
       1.439
       1.399
       1.356
       1.309
       1.259
       1.208
       1.154
       1.101
       1.050
       1.004
       0.965
       0.931
       0.904
       0.885
       0.876
       0.874
       0.874
       0.869
       0.855
       0.832
       0.802
       0.772
       0.744
       0.718
       0.690
       0.654
       0.610
       0.559
       0.500
       0.432
       0.358
       0.283
       0.215
       0.156
       0.102
       0.050
      -0.005
      -0.059
      -0.109
      -0.153
      -0.194
      -0.239
      -0.290
      -0.352
      -0.423
      -0.502
      -0.586
      -0.672
      -0.755
      -0.835
      -0.916
      -1.004
      -1.105
      -1.219
      -1.341
      -1.466
      -1.587
      -1.697
      -1.793
      -1.871
      -1.932
      -1.975
      -2.004
      -2.017
      -2.011
      -1.981
      -1.921
      -1.831
      -1.719
      -1.590
      -1.446
      -1.284
      -1.110
      -0.929
      -0.749
      -0.572
      -0.393
      -0.210
      -0.027
       0.145
       0.298
       0.429
       0.547
       0.657
       0.760
       0.852
       0.927
       0.987
       1.034
       1.070
       1.097
       1.113
       1.119
       1.120
       1.123
       1.131
       1.146
       1.166
       1.189
       1.216
       1.247
       1.281
       1.316
       1.349
       1.378
       1.402
       1.425
       1.446
       1.466
       1.488
       1.516
       1.547
       1.572
       1.578
       1.557
       1.511
       1.448
       1.376
       1.299
       1.215
       1.120
       1.009
       0.879
       0.729
       0.559
       0.375
       0.183
      -0.011
      -0.205
      -0.397
      -0.588
      -0.777
      -0.963
      -1.142
      -1.306
      -1.449
      -1.568
      -1.663
      -1.734
      -1.779
      -1.793
      -1.777
      -1.737
      -1.684
      -1.625
      -1.558
      -1.476
      -1.375
      -1.255
      -1.123
      -0.990
      -0.862
      -0.744
      -0.637
      -0.542
      -0.461
      -0.399
      -0.355
      -0.332
      -0.330
      -0.348
      -0.387
      -0.442
      -0.513
      -0.594
      -0.681
      -0.767
      -0.842
      -0.896
      -0.918
      -0.901
      -0.849
      -0.771
      -0.674
      -0.563
      -0.439
      -0.299
      -0.139
       0.038
       0.224
       0.412
       0.598
       0.785
       0.969
       1.144
       1.299
       1.429
       1.533
       1.617
       1.678
       1.710
       1.710
       1.682
       1.639
       1.593
       1.551
       1.507
       1.456
       1.396
       1.327
       1.255
       1.182
       1.106
       1.025
       0.938
       0.850
       0.763
       0.678
       0.592
       0.503
       0.412
       0.320
       0.227
       0.131
       0.030
      -0.077
      -0.188
      -0.301
      -0.412
      -0.521
      -0.631
      -0.746
      -0.865
      -0.984
      -1.097
      -1.196
      -1.276
      -1.332
      -1.359
      -1.355
      -1.318
      -1.253
      -1.161
      -1.047
      -0.910
      -0.752
      -0.572
      -0.373
      -0.162
       0.045
       0.235
       0.394
       0.518
       0.605
       0.661
       0.690
       0.696
       0.680
       0.639
       0.576
       0.495
       0.404
       0.309
       0.215
       0.126
       0.041
      -0.041
      -0.120
      -0.199
      -0.278
      -0.354
      -0.425
      -0.488
      -0.541
      -0.583
      -0.608
      -0.615
      -0.605
      -0.580
      -0.544
      -0.498
      -0.441
      -0.373
      -0.299
      -0.231
      -0.180
      -0.155
      -0.153
      -0.163
      -0.178
      -0.197
      -0.219
      -0.245
      -0.273
      -0.293
      -0.301
      -0.295
      -0.280
      -0.265
      -0.254
      -0.251
      -0.255
      -0.267
      -0.283
      -0.300
      -0.313
      -0.318
      -0.314
      -0.305
      -0.294
      -0.281
      -0.263
      -0.238
      -0.211
      -0.189
      -0.177
      -0.176
      -0.181
      -0.185
      -0.184
      -0.178
      -0.173
      -0.169
      -0.163
      -0.144
      -0.103
      -0.036
       0.049
       0.144
       0.243
       0.346
       0.455
       0.562
       0.658
       0.733
       0.786
       0.821
       0.843
       0.854
       0.854
       0.843
       0.826
       0.811
       0.806
       0.813
       0.829
       0.849
       0.870
       0.892
       0.911
       0.922
       0.918
       0.897
       0.860
       0.811
       0.750
       0.675
       0.586
       0.485
       0.376
       0.259
       0.129
      -0.017
      -0.182
      -0.358
      -0.540
      -0.721
      -0.898
      -1.072
      -1.239
      -1.392
      -1.517
      -1.602
      -1.642
      -1.636
      -1.588
      -1.504
      -1.386
      -1.240
      -1.076
      -0.907
      -0.743
      -0.586
      -0.433
      -0.284
      -0.141
      -0.012
       0.099
       0.191
       0.262
       0.309
       0.327
       0.311
       0.262
       0.190
       0.104
       0.013
      -0.082
      -0.180
      -0.275
      -0.361
      -0.427
      -0.467
      -0.476
      -0.454
      -0.400
      -0.315
      -0.201
      -0.066
       0.082
       0.237
       0.393
       0.541
       0.676
       0.792
       0.890
       0.968
       1.022
       1.044
       1.033
