Origin Time       06/11/2013 04:16:16 UTC
Lat.              26.5 N	
Long.             93.5 E	
Depth (Km)         20.0
Magnitude         5.5
 Region           Karbi-Assam                                                      
 Above details taken from IMD 
    
Station Code      BAR
Station Lat.       26.332  N
Station Long.      91.006  E
Station Height(m)   47.0
Site Class        C   Vs30 between 200 m/sec to 375 m/sec *  
Record Time       06.11.2013 04:16:48.119 UTC
Sampling Rate     200. Hz
 Record Duration   85.660 Sec.
 Direction         N-S (N positive)
Max. Acceleration      4.330 cm/sec**2
     
  * For reference see Site Classification link of website 
     
 Base Line Corrected and Low Pass Filtered (Cut Off at 35 Hz) Time History
 Acceleration data in cm/sec**2
    
[...]
       1.253
       1.190
       1.106
       1.051
       1.028
       0.999
       0.914
       0.747
       0.507
       0.222
      -0.075
      -0.343
      -0.526
      -0.561
      -0.423
      -0.149
       0.186
       0.524
       0.857
       1.205
       1.560
       1.860
       2.021
       2.013
       1.889
       1.751
       1.676
       1.673
       1.678
       1.605
       1.384
       0.985
       0.421
      -0.252
      -0.945
      -1.548
      -1.968
      -2.154
      -2.110
      -1.883
      -1.553
      -1.214
      -0.957
      -0.844
      -0.895
      -1.075
      -1.309
      -1.495
      -1.536
      -1.384
      -1.057
      -0.631
      -0.199
       0.172
       0.452
       0.639
       0.742
       0.782
       0.795
       0.823
       0.899
       1.023
       1.156
       1.228
       1.179
       1.005
       0.782
       0.634
       0.655
       0.830
       1.025
       1.059
       0.818
       0.339
      -0.209
      -0.611
      -0.731
      -0.579
      -0.296
      -0.078
      -0.092
      -0.415
      -1.011
      -1.739
      -2.391
      -2.768
      -2.772
      -2.443
      -1.933
      -1.408
      -0.975
      -0.664
      -0.469
      -0.383
      -0.399
      -0.472
      -0.506
      -0.394
      -0.084
       0.373
       0.833
       1.141
       1.241
       1.226
       1.284
       1.571
       2.087
       2.663
       3.066
       3.136
       2.876
       2.425
       1.957
       1.577
       1.267
       0.920
       0.428
      -0.237
      -0.996
      -1.704
      -2.220
      -2.469
      -2.454
      -2.231
      -1.880
      -1.485
      -1.117
      -0.817
      -0.589
      -0.426
      -0.337
      -0.344
      -0.450
      -0.611
      -0.732
      -0.718
      -0.512
      -0.127
       0.374
       0.898
       1.354
       1.671
       1.812
       1.772
       1.566
       1.223
       0.794
       0.351
      -0.020
      -0.250
      -0.320
      -0.274
      -0.196
      -0.168
      -0.236
      -0.408
      -0.669
      -0.990
      -1.317
      -1.563
      -1.637
      -1.503
      -1.205
      -0.847
      -0.518
      -0.244
       0.007
       0.275
       0.580
       0.925
       1.314
       1.757
       2.244
       2.712
       3.053
       3.163
       3.004
       2.621
       2.112
       1.567
       1.029
       0.484
      -0.097
      -0.706
      -1.280
      -1.718
      -1.945
      -1.958
      -1.826
      -1.634
      -1.436
      -1.253
      -1.109
      -1.052
      -1.124
      -1.304
      -1.496
      -1.577
      -1.482
      -1.247
      -0.973
      -0.750
      -0.595
      -0.442
      -0.196
       0.210
       0.768
       1.381
       1.890
       2.135
       2.023
       1.570
       0.900
       0.196
      -0.369
      -0.690
      -0.761
      -0.651
      -0.468
      -0.296
      -0.178
      -0.110
      -0.077
      -0.078
      -0.122
      -0.208
      -0.311
      -0.394
      -0.446
      -0.489
      -0.555
      -0.639
      -0.687
      -0.643
      -0.500
      -0.315
      -0.168
      -0.093
      -0.042
       0.084
       0.361
       0.785
       1.252
       1.602
       1.712
       1.552
       1.199
       0.771
       0.356
      -0.009
      -0.307
      -0.506
      -0.561
      -0.461
      -0.263
      -0.063
       0.073
       0.147
       0.206
       0.279
       0.342
       0.344
       0.250
       0.074
      -0.129
      -0.292
      -0.354
      -0.288
      -0.112
       0.113
       0.304
       0.400
       0.400
       0.353
       0.322
       0.343
       0.399
       0.438
       0.409
       0.292
       0.105
      -0.110
      -0.313
      -0.485
      -0.619
      -0.711
      -0.742
      -0.680
      -0.500
      -0.210
       0.149
       0.505
       0.776
       0.884
       0.771
       0.427
      -0.088
      -0.638
      -1.060
      -1.232
      -1.122
      -0.795
      -0.373
       0.020
       0.297
       0.423
       0.417
       0.325
       0.200
       0.070
      -0.058
      -0.183
      -0.284
      -0.310
      -0.205
       0.053
       0.434
       0.864
       1.263
       1.569
       1.736
       1.720
       1.480
       1.012
       0.385
      -0.251
      -0.719
      -0.899
      -0.787
      -0.483
      -0.133
       0.146
       0.305
       0.344
       0.273
       0.099
      -0.158
      -0.433
      -0.627
      -0.657
      -0.530
      -0.355
      -0.292
      -0.459
      -0.856
      -1.370
      -1.837
      -2.122
      -2.183
      -2.071
      -1.886
      -1.727
      -1.651
      -1.667
      -1.739
      -1.800
      -1.769
      -1.583
      -1.234
      -0.786
      -0.354
      -0.035
       0.147
       0.250
       0.365
       0.548
       0.793
       1.059
       1.309
       1.531
       1.718
       1.855
       1.931
       1.957
       1.973
       2.015
       2.080
       2.127
       2.108
       2.012
       1.863
       1.697
       1.530
       1.349
       1.130
       0.857
       0.529
       0.143
      -0.305
      -0.804
      -1.323
      -1.812
      -2.221
      -2.512
      -2.658
      -2.638
      -2.445
      -2.098
      -1.653
      -1.199
      -0.819
      -0.548
      -0.351
      -0.149
       0.127
       0.486
       0.880
       1.247
       1.570
       1.882
       2.223
       2.570
       2.829
       2.871
       2.613
       2.058
       1.291
       0.449
      -0.320
      -0.895
      -1.210
      -1.274
      -1.153
      -0.925
      -0.658
      -0.399
      -0.182
      -0.029
       0.058
       0.094
       0.092
       0.054
      -0.020
      -0.107
      -0.150
      -0.097
       0.060
       0.260
       0.410
       0.446
       0.372
       0.255
       0.176
       0.177
       0.227
       0.232
       0.079
      -0.302
      -0.893
      -1.584
      -2.204
      -2.598
      -2.681
      -2.476
      -2.096
      -1.709
      -1.467
      -1.450
      -1.625
      -1.864
      -1.996
      -1.898
      -1.540
      -0.996
      -0.392
       0.160
       0.604
       0.954
       1.246
       1.498
       1.684
       1.778
       1.794
       1.806
       1.890
       2.062
       2.248
       2.328
       2.211
       1.890
       1.429
       0.918
       0.430
       0.007
      -0.323
      -0.545
      -0.659
      -0.695
      -0.703
      -0.724
      -0.769
      -0.819
      -0.849
      -0.846
      -0.808
      -0.727
      -0.595
      -0.419
      -0.232
      -0.069
       0.063
       0.199
       0.378
       0.596
       0.794
       0.898
       0.885
       0.809
       0.767
       0.836
       1.022
       1.263
       1.463
       1.550
       1.503
       1.341
       1.102
       0.811
       0.484
       0.126
      -0.248
      -0.616
      -0.952
      -1.230
      -1.426
      -1.519
      -1.500
      -1.379
      -1.198
      -1.013
      -0.870
      -0.785
      -0.730
      -0.646
      -0.467
      -0.160
       0.250
       0.674
       1.008
       1.192
       1.256
       1.308
       1.468
       1.787
       2.211
       2.616
       2.875
       2.925
       2.784
       2.513
       2.162
       1.737
       1.217
       0.602
      -0.054
      -0.657
      -1.124
      -1.423
      -1.590
      -1.705
      -1.861
      -2.125
      -2.504
      -2.943
      -3.349
      -3.637
      -3.752
      -3.667
      -3.381
      -2.916
      -2.328
      -1.704
      -1.137
      -0.694
      -0.403
      -0.243
      -0.164
      -0.099
       0.014
       0.210
       0.492
       0.834
       1.208
       1.607
       2.025
       2.438
       2.786
       2.988
       2.995
       2.820
       2.545
       2.289
       2.147
       2.144
       2.224
       2.278
       2.197
       1.911
       1.423
       0.815
       0.228
      -0.205
      -0.426
      -0.478
      -0.475
      -0.530
      -0.706
      -1.006
      -1.388
      -1.786
      -2.125
      -2.343
      -2.426
      -2.425
      -2.434
      -2.523
      -2.686
      -2.844
      -2.897
      -2.785
      -2.526
      -2.188
      -1.843
      -1.526
      -1.230
      -0.931
      -0.613
      -0.270
       0.101
       0.506
       0.932
       1.330
       1.629
       1.768
       1.744
       1.622
       1.496
       1.438
       1.452
       1.476
       1.424
       1.241
       0.939
       0.582
       0.243
      -0.035
      -0.250
      -0.426
      -0.591
      -0.755
      -0.896
      -0.964
      -0.897
      -0.662
      -0.287
       0.148
       0.550
       0.864
       1.074
       1.176
       1.156
       0.997
       0.717
       0.390
       0.116
      -0.034
      -0.061
      -0.033
      -0.037
      -0.138
      -0.351
      -0.651
      -0.987
      -1.295
      -1.520
      -1.624
      -1.608
      -1.498
      -1.336
      -1.140
      -0.898
      -0.577
      -0.178
       0.242
       0.577
       0.740
       0.727
       0.615
       0.512
       0.482
       0.516
       0.565
       0.586
       0.581
       0.591
       0.667
       0.832
       1.061
       1.270
       1.343
       1.173
       0.724
       0.080
      -0.571
      -1.015
      -1.114
      -0.871
      -0.399
       0.154
       0.672
       1.089
       1.378
       1.531
       1.559
       1.483
       1.339
       1.162
       0.975
       0.784
       0.587
       0.384
       0.201
       0.083
       0.064
       0.134
       0.234
       0.290
       0.256
       0.120
      -0.111
      -0.427
      -0.819
      -1.252
      -1.661
      -1.966
      -2.101
      -2.051
      -1.864
      -1.626
      -1.426
      -1.306
      -1.240
      -1.160
      -0.998
      -0.727
      -0.375
      -0.004
       0.317
       0.538
       0.635
       0.614
       0.520
       0.429
       0.418
       0.519
       0.695
       0.862
       0.949
       0.946
       0.900
       0.870
       0.885
       0.945
       1.050
       1.214
       1.447
       1.719
       1.944
       2.023
       1.901
       1.615
       1.268
       0.966
       0.753
       0.595
       0.421
       0.186
      -0.088
      -0.331
      -0.481
      -0.538
      -0.575
      -0.693
      -0.963
      -1.394
      -1.935
      -2.493
      -2.957
      -3.222
      -3.206
      -2.868
      -2.220
      -1.329
      -0.312
       0.683
       1.517
       2.102
       2.434
       2.570
       2.591
       2.551
       2.460
       2.302
       2.071
       1.801
       1.557
       1.394
       1.308
       1.220
       1.022
       0.635
       0.052
      -0.668
      -1.448
      -2.224
      -2.942
      -3.551
      -3.998
      -4.241
      -4.276
      -4.140
      -3.904
      -3.646
      -3.423
      -3.252
      -3.098
      -2.903
      -2.619
      -2.233
      -1.771
      -1.264
      -0.729
      -0.166
       0.423
       1.022
       1.586
       2.045
       2.326
       2.396
       2.293
       2.135
       2.068
       2.199
       2.533
       2.969
       3.346
       3.520
       3.427
       3.099
       2.629
       2.130
       1.689
       1.345
       1.091
       0.884
       0.669
       0.398
       0.049
      -0.361
      -0.786
      -1.163
      -1.435
      -1.561
      -1.524
      -1.333
      -1.025
      -0.657
      -0.302
      -0.035
       0.089
       0.069
      -0.028
      -0.093
      -0.046
       0.111
       0.285
       0.361
       0.288
       0.107
      -0.093
      -0.240
      -0.313
      -0.322
      -0.269
      -0.136
       0.093
       0.411
       0.767
       1.082
       1.276
       1.301
       1.157
       0.892
       0.581
       0.292
       0.066
      -0.098
      -0.227
      -0.358
      -0.526
      -0.755
      -1.038
      -1.329
      -1.540
      -1.582
      -1.426
      -1.123
      -0.785
      -0.505
      -0.311
      -0.164
      -0.013
       0.151
       0.285
       0.339
       0.302
       0.208
       0.107
       0.024
      -0.044
      -0.106
      -0.159
      -0.191
      -0.206
      -0.224
      -0.273
      -0.369
      -0.509
      -0.679
      -0.864
      -1.039
      -1.157
      -1.169
      -1.050
      -0.827
      -0.575
      -0.381
      -0.297
      -0.312
      -0.361
      -0.367
      -0.289
      -0.150
      -0.032
      -0.035
      -0.218
      -0.548
      -0.909
      -1.167
      -1.259
      -1.238
      -1.231
      -1.332
      -1.521
      -1.682
      -1.687
      -1.481
      -1.090
      -0.585
      -0.044
       0.453
       0.824
       1.004
       0.982
       0.828
       0.657
       0.577
       0.639
       0.825
       1.077
       1.342
       1.591
       1.816
       2.006
       2.125
       2.129
       2.006
       1.800
       1.610
       1.542
       1.643
       1.871
       2.114
       2.252
       2.226
       2.068
       1.865
       1.695
       1.575
       1.475
       1.364
       1.251
       1.168
       1.130
       1.098
       0.989
       0.729
       0.312
      -0.179
      -0.605
      -0.847
      -0.886
      -0.811
      -0.770
      -0.869
      -1.119
      -1.453
      -1.794
      -2.106
      -2.398
      -2.692
      -2.990
      -3.269
      -3.499
      -3.657
      -3.727
      -3.693
      -3.542
      -3.267
      -2.870
      -2.353
      -1.718
      -0.977
      -0.157
       0.692
       1.513
       2.255
       2.874
       3.343
       3.667
       3.889
       4.067
       4.226
       4.330
       4.299
       4.057
       3.584
       2.921
       2.131
       1.271
       0.379
      -0.500
      -1.310
      -1.986
      -2.476
      -2.752
      -2.818
      -2.719
      -2.538
      -2.375
      -2.295
      -2.300
      -2.333
      -2.319
      -2.211
      -2.007
      -1.746
      -1.490
      -1.290
      -1.161
      -1.069
      -0.952
      -0.754
      -0.456
      -0.085
       0.299
       0.630
       0.859
       0.964
       0.960
       0.906
       0.885
       0.972
       1.181
       1.456
       1.707
       1.868
       1.923
       1.878
       1.729
       1.454
       1.061
       0.622
       0.259
       0.077
       0.100
       0.260
       0.440
       0.548
       0.560
       0.522
       0.506
       0.563
       0.690
       0.841
       0.956
       0.997
       0.969
       0.909
       0.860
       0.844
       0.849
       0.844
       0.799
       0.692
       0.516
       0.279
       0.000
      -0.300
      -0.608
      -0.933
      -1.292
      -1.691
      -2.109
      -2.499
      -2.808
      -2.982
      -2.975
      -2.762
      -2.361
      -1.847
      -1.342
      -0.961
      -0.765
      -0.734
      -0.781
      -0.795
      -0.694
      -0.443
      -0.071
       0.350
       0.734
       1.012
       1.161
       1.198
       1.156
       1.062
       0.939
       0.811
       0.710
       0.656
       0.642
       0.634
       0.593
       0.503
       0.387
       0.289
       0.248
       0.271
       0.337
       0.425
       0.532
       0.669
       0.828
       0.966
       1.017
       0.945
       0.777
       0.595
       0.471
       0.416
       0.370
       0.253
       0.030
      -0.265
      -0.542
      -0.719
      -0.760
      -0.692
      -0.579
      -0.478
      -0.420
      -0.411
      -0.440
      -0.488
      -0.524
      -0.520
      -0.464
      -0.363
      -0.233
      -0.076
       0.113
       0.330
       0.555
       0.757
       0.914
       1.008
       1.030
       0.968
       0.811
       0.559
       0.235
      -0.114
      -0.425
      -0.646
      -0.751
      -0.747
      -0.668
      -0.566
      -0.497
      -0.499
      -0.587
      -0.740
      -0.909
      -1.034
      -1.064
      -0.981
      -0.806
      -0.586
      -0.369
      -0.189
      -0.058
       0.024
       0.066
       0.083
       0.092
       0.106
       0.144
       0.226
       0.375
       0.597
       0.857
       1.084
       1.205
       1.178
       1.020
       0.788
       0.556
       0.387
       0.314
       0.330
       0.385
       0.412
       0.355
       0.204
      -0.005
      -0.213
      -0.360
      -0.399
      -0.308
      -0.100
       0.173
       0.435
       0.614
       0.678
       0.639
       0.539
       0.425
       0.328
       0.258
       0.204
       0.141
       0.033
      -0.145
      -0.398
      -0.699
      -1.004
      -1.273
      -1.472
      -1.581
      -1.587
      -1.505
      -1.384
      -1.297
      -1.281
      -1.297
      -1.244
      -1.034
      -0.670
      -0.255
       0.081
       0.257
       0.278
       0.195
       0.064
      -0.087
      -0.249
      -0.413
      -0.560
      -0.646
      -0.618
      -0.437
      -0.100
       0.349
       0.827
       1.243
       1.527
       1.654
       1.650
       1.574
       1.495
       1.457
       1.466
       1.502
       1.532
       1.516
       1.410
       1.178
       0.815
       0.367
      -0.082
      -0.454
      -0.715
      -0.889
      -1.031
      -1.185
      -1.359
      -1.516
      -1.600
      -1.575
      -1.447
      -1.257
      -1.044
      -0.824
      -0.593
      -0.345
      -0.087
       0.166
       0.406
       0.633
       0.854
       1.068
       1.261
       1.401
       1.446
       1.360
       1.143
       0.842
       0.540
       0.304
       0.151
       0.046
      -0.061
      -0.198
      -0.358
      -0.526
      -0.696
      -0.874
      -1.047
      -1.173
      -1.207
      -1.137
      -1.004
      -0.873
      -0.787
      -0.734
      -0.659
      -0.506
      -0.253
       0.080
       0.446
       0.799
       1.107
       1.359
       1.552
       1.695
       1.794
       1.850
       1.851
       1.789
       1.673
       1.535
       1.409
       1.302
       1.187
       1.016
       0.746
       0.357
      -0.148
      -0.741
      -1.369
      -1.945
      -2.380
      -2.614
      -2.657
      -2.583
      -2.482
      -2.402
      -2.324
      -2.189
      -1.953
      -1.638
      -1.322
      -1.091
      -0.975
      -0.924
      -0.834
      -0.621
      -0.273
       0.145
       0.539
       0.850
       1.077
       1.260
       1.429
       1.574
       1.651
       1.625
       1.500
       1.326
       1.164
       1.048
       0.981
       0.952
       0.953
       0.986
       1.037
       1.074
       1.065
       1.000
       0.892
       0.759
       0.604
       0.414
       0.183
      -0.077
      -0.324
      -0.505
      -0.590
      -0.588
      -0.538
      -0.485
      -0.449
      -0.437
      -0.444
      -0.471
      -0.512
      -0.551
      -0.572
      -0.568
      -0.549
      -0.518
      -0.466
      -0.373
      -0.235
      -0.083
       0.031
       0.064
       0.007
      -0.114
      -0.273
      -0.460
      -0.681
      -0.939
      -1.214
      -1.453
      -1.585
      -1.558
      -1.378
      -1.104
      -0.822
      -0.591
      -0.433
      -0.337
      -0.287
      -0.271
      -0.271
      -0.260
      -0.199
      -0.058
       0.173
       0.480
       0.831
       1.189
       1.517
       1.769
       1.897
       1.865
       1.689
       1.448
       1.260
       1.218
       1.329
       1.522
       1.698
       1.790
       1.778
