Origin Time       03/5/2010 17:15:08	 UTC
Lat.              30.4 N	
Long.             78.4 E	
Depth (Km)          8.0
Magnitude         3.5
 Region           Uttarakhand                                                      
 Above details taken from IMD 
    
Station Code      BAR
Station Lat.       30.809  N
Station Long.      78.205  E
Station Height(m) 1305.0
Site Class        A   Vs30 between 700 m/sec to 1400 m/sec * 
Record Time       03.05.2010 17:15:20.894 UTC
Sampling Rate     200. Hz
 Record Duration   89.890 Sec.
 Direction         N-S (N positive)
Max. Acceleration     -2.995 cm/sec**2
     
  * For reference see Site Classification link of website 
     
 Base Line Corrected and Low Pass Filtered (Cut Off at 35 Hz) Time History
 Acceleration data in cm/sec**2
    
[...]
      -0.265
      -0.265
      -0.268
      -0.265
      -0.268
      -0.302
      -0.386
      -0.507
      -0.630
      -0.719
      -0.763
      -0.778
      -0.781
      -0.768
      -0.702
      -0.549
      -0.316
      -0.049
       0.199
       0.410
       0.603
       0.808
       1.030
       1.243
       1.407
       1.496
       1.506
       1.443
       1.315
       1.127
       0.896
       0.647
       0.395
       0.143
      -0.123
      -0.414
      -0.719
      -1.004
      -1.227
      -1.366
      -1.432
      -1.450
      -1.435
      -1.380
      -1.276
      -1.132
      -0.965
      -0.790
      -0.602
      -0.389
      -0.144
       0.123
       0.388
       0.636
       0.868
       1.080
       1.250
       1.349
       1.357
       1.285
       1.156
       0.997
       0.819
       0.624
       0.411
       0.184
      -0.044
      -0.254
      -0.432
      -0.570
      -0.670
      -0.741
      -0.796
      -0.842
      -0.871
      -0.861
      -0.790
      -0.648
      -0.442
      -0.198
       0.048
       0.268
       0.455
       0.618
       0.768
       0.902
       1.000
       1.032
       0.981
       0.856
       0.694
       0.540
       0.418
       0.326
       0.248
       0.167
       0.064
      -0.078
      -0.262
      -0.475
      -0.691
      -0.877
      -1.012
      -1.087
      -1.106
      -1.073
      -0.986
      -0.851
      -0.687
      -0.524
      -0.387
      -0.288
      -0.221
      -0.170
      -0.117
      -0.053
       0.017
       0.084
       0.148
       0.217
       0.300
       0.394
       0.489
       0.569
       0.620
       0.635
       0.620
       0.589
       0.562
       0.552
       0.568
       0.604
       0.633
       0.624
       0.556
       0.434
       0.280
       0.124
      -0.015
      -0.142
      -0.283
      -0.455
      -0.642
      -0.801
      -0.889
      -0.889
      -0.817
      -0.708
      -0.597
      -0.509
      -0.457
      -0.441
      -0.448
      -0.449
      -0.407
      -0.297
      -0.129
       0.064
       0.240
       0.375
       0.466
       0.523
       0.557
       0.576
       0.574
       0.548
       0.501
       0.434
       0.341
       0.218
       0.074
      -0.062
      -0.159
      -0.203
      -0.207
      -0.195
      -0.185
      -0.181
      -0.172
      -0.150
      -0.112
      -0.061
       0.005
       0.085
       0.164
       0.216
       0.218
       0.168
       0.083
      -0.020
      -0.133
      -0.263
      -0.417
      -0.583
      -0.735
      -0.841
      -0.887
      -0.868
      -0.776
      -0.600
      -0.344
      -0.038
       0.270
       0.535
       0.732
       0.857
       0.915
       0.917
       0.871
       0.791
       0.687
       0.561
       0.401
       0.202
      -0.019
      -0.224
      -0.369
      -0.431
      -0.414
      -0.343
      -0.253
      -0.169
      -0.093
      -0.008
       0.103
       0.253
       0.431
       0.605
       0.726
       0.754
       0.684
       0.550
       0.402
       0.280
       0.196
       0.139
       0.084
       0.007
      -0.104
      -0.249
      -0.408
      -0.550
      -0.642
      -0.668
      -0.636
      -0.572
      -0.494
      -0.403
      -0.290
      -0.150
       0.011
       0.171
       0.308
       0.405
       0.461
       0.483
       0.476
       0.441
       0.383
       0.313
       0.241
       0.172
       0.102
       0.029
      -0.052
      -0.141
      -0.229
      -0.311
      -0.381
      -0.445
      -0.507
      -0.570
      -0.637
      -0.700
      -0.741
      -0.736
      -0.668
      -0.539
      -0.361
      -0.147
       0.088
       0.341
       0.608
       0.885
       1.151
       1.375
       1.527
       1.594
       1.574
       1.467
       1.268
       0.967
       0.569
       0.098
      -0.394
      -0.849
      -1.229
      -1.518
      -1.719
      -1.843
      -1.908
      -1.934
      -1.938
      -1.938
      -1.939
      -1.931
      -1.883
      -1.758
      -1.535
      -1.217
      -0.829
      -0.402
       0.037
       0.470
       0.887
       1.284
       1.649
       1.967
       2.222
       2.397
       2.483
       2.474
       2.374
       2.198
       1.960
       1.670
       1.340
       0.982
       0.614
       0.255
      -0.084
      -0.402
      -0.705
      -0.997
      -1.264
      -1.486
      -1.642
      -1.723
      -1.722
      -1.628
      -1.441
      -1.179
      -0.873
      -0.562
      -0.261
       0.038
       0.357
       0.704
       1.048
       1.334
       1.515
       1.569
       1.503
       1.334
       1.081
       0.764
       0.399
       0.010
      -0.374
      -0.724
      -1.020
      -1.256
      -1.436
      -1.564
      -1.642
      -1.667
      -1.629
      -1.515
      -1.325
      -1.074
      -0.784
      -0.475
      -0.162
       0.138
       0.411
       0.650
       0.860
       1.051
       1.231
       1.394
       1.507
       1.538
       1.474
       1.334
       1.153
       0.959
       0.762
       0.559
       0.347
       0.132
      -0.070
      -0.255
      -0.434
      -0.621
      -0.807
      -0.961
      -1.051
      -1.062
      -1.002
      -0.884
      -0.715
      -0.500
      -0.248
       0.017
       0.265
       0.463
       0.595
       0.656
       0.652
       0.598
       0.521
       0.452
       0.408
       0.387
       0.376
       0.365
       0.358
       0.367
       0.399
       0.445
       0.479
       0.471
       0.403
       0.270
       0.076
      -0.169
      -0.445
      -0.723
      -0.969
      -1.159
      -1.277
      -1.318
      -1.282
      -1.168
      -0.975
      -0.714
      -0.414
      -0.122
       0.122
       0.291
       0.381
       0.405
       0.390
       0.371
       0.375
       0.413
       0.478
       0.553
       0.616
       0.653
       0.666
       0.672
       0.688
       0.713
       0.733
       0.723
       0.672
       0.584
       0.477
       0.367
       0.248
       0.106
      -0.062
      -0.238
      -0.396
      -0.521
      -0.623
      -0.724
      -0.839
      -0.965
      -1.079
      -1.151
      -1.170
      -1.144
      -1.093
      -1.030
      -0.959
      -0.874
      -0.772
      -0.649
      -0.500
      -0.318
      -0.091
       0.191
       0.522
       0.883
       1.250
       1.594
       1.879
       2.064
       2.111
       2.011
       1.787
       1.484
       1.143
       0.789
       0.429
       0.065
      -0.290
      -0.621
      -0.919
      -1.179
      -1.397
      -1.557
      -1.640
      -1.639
      -1.562
      -1.427
      -1.257
      -1.062
      -0.835
      -0.571
      -0.275
       0.028
       0.304
       0.525
       0.671
       0.738
       0.736
       0.691
       0.634
       0.588
       0.555
       0.518
       0.448
       0.315
       0.099
      -0.197
      -0.545
      -0.895
      -1.186
      -1.365
      -1.404
      -1.304
      -1.077
      -0.751
      -0.358
       0.057
       0.455
       0.806
       1.095
       1.314
       1.462
       1.541
       1.553
       1.504
       1.406
       1.269
       1.092
       0.869
       0.605
       0.329
       0.079
      -0.120
      -0.256
      -0.324
      -0.321
      -0.256
      -0.157
      -0.072
      -0.039
      -0.066
      -0.124
      -0.179
      -0.220
      -0.268
      -0.349
      -0.461
      -0.581
      -0.678
      -0.740
      -0.775
      -0.808
      -0.864
      -0.944
      -1.027
      -1.084
      -1.087
      -1.024
      -0.896
      -0.716
      -0.498
      -0.259
      -0.014
       0.203
       0.356
       0.419
       0.397
       0.325
       0.242
       0.178
       0.142
       0.141
       0.185
       0.292
       0.472
       0.707
       0.958
       1.177
       1.336
       1.429
       1.467
       1.473
       1.463
       1.430
       1.353
       1.212
       1.002
       0.730
       0.413
       0.068
      -0.285
      -0.633
      -0.966
      -1.283
      -1.584
      -1.861
      -2.094
      -2.252
      -2.308
      -2.253
      -2.096
      -1.852
      -1.531
      -1.143
      -0.711
      -0.261
       0.176
       0.577
       0.926
       1.220
       1.459
       1.639
       1.746
       1.772
       1.714
       1.574
       1.355
       1.070
       0.747
       0.425
       0.128
      -0.139
      -0.394
      -0.658
      -0.928
      -1.180
      -1.380
      -1.511
      -1.581
      -1.604
      -1.585
      -1.519
      -1.403
      -1.236
      -1.010
      -0.717
      -0.352
       0.078
       0.548
       1.017
       1.442
       1.795
       2.067
       2.263
       2.388
       2.446
       2.435
       2.340
       2.144
       1.835
       1.426
       0.955
       0.475
       0.037
      -0.325
      -0.606
      -0.818
      -0.985
      -1.133
      -1.289
      -1.462
      -1.627
      -1.732
      -1.727
      -1.606
      -1.402
      -1.163
      -0.924
      -0.697
      -0.473
      -0.246
      -0.023
       0.175
       0.329
       0.430
       0.486
       0.515
       0.541
       0.575
       0.619
       0.668
       0.728
       0.813
       0.929
       1.061
       1.178
       1.247
       1.238
       1.131
       0.913
       0.586
       0.168
      -0.305
      -0.785
      -1.223
      -1.590
      -1.879
      -2.089
      -2.214
      -2.239
      -2.158
      -1.974
      -1.702
      -1.365
      -0.995
      -0.620
      -0.262
       0.066
       0.365
       0.648
       0.921
       1.172
       1.369
       1.487
       1.519
       1.480
       1.393
       1.283
       1.165
       1.047
       0.937
       0.842
       0.763
       0.688
       0.591
       0.446
       0.249
       0.019
      -0.216
      -0.426
      -0.592
      -0.707
      -0.770
      -0.784
      -0.752
      -0.685
      -0.592
      -0.482
      -0.352
      -0.206
      -0.056
       0.079
       0.181
       0.240
       0.256
       0.242
       0.218
       0.200
       0.194
       0.193
       0.190
       0.170
       0.117
       0.021
      -0.116
      -0.287
      -0.479
      -0.675
      -0.857
      -1.010
      -1.128
      -1.212
      -1.268
      -1.304
      -1.321
      -1.308
      -1.252
      -1.144
      -0.987
      -0.784
      -0.537
      -0.245
       0.084
       0.437
       0.798
       1.154
       1.489
       1.781
       2.009
       2.153
       2.209
       2.196
       2.149
       2.098
       2.049
       1.989
       1.896
       1.752
       1.541
       1.252
       0.877
       0.417
      -0.114
      -0.676
      -1.221
      -1.701
      -2.087
      -2.361
      -2.519
      -2.565
      -2.522
      -2.420
      -2.283
      -2.120
      -1.930
      -1.709
      -1.463
      -1.208
      -0.960
      -0.714
      -0.447
      -0.138
       0.211
       0.579
       0.932
       1.243
       1.494
       1.686
       1.827
       1.933
       2.023
       2.107
       2.176
       2.195
       2.112
       1.896
       1.558
       1.142
       0.705
       0.294
      -0.064
      -0.362
      -0.608
      -0.808
      -0.960
      -1.063
      -1.122
      -1.145
      -1.144
      -1.128
      -1.115
      -1.122
      -1.157
      -1.204
      -1.230
      -1.198
      -1.088
      -0.905
      -0.666
      -0.394
      -0.107
       0.172
       0.418
       0.621
       0.779
       0.894
       0.957
       0.952
       0.874
       0.738
       0.571
       0.394
       0.220
       0.055
      -0.097
      -0.230
      -0.341
      -0.436
      -0.520
      -0.583
      -0.597
      -0.536
      -0.394
      -0.191
       0.045
       0.286
       0.516
       0.723
       0.898
       1.031
       1.123
       1.179
       1.209
       1.213
       1.178
       1.097
       0.970
       0.804
       0.602
       0.364
       0.085
      -0.237
      -0.600
      -0.990
      -1.374
      -1.709
      -1.954
      -2.087
      -2.105
      -2.021
      -1.853
      -1.619
      -1.335
      -1.019
      -0.700
      -0.402
      -0.132
       0.108
       0.320
       0.502
       0.645
       0.747
       0.810
       0.845
       0.865
       0.882
       0.900
       0.925
       0.962
       1.009
       1.044
       1.043
       0.991
       0.894
       0.779
       0.670
       0.572
       0.465
       0.326
       0.155
      -0.024
      -0.187
      -0.334
      -0.480
      -0.628
      -0.761
      -0.855
      -0.895
      -0.893
      -0.870
      -0.840
      -0.792
      -0.701
      -0.555
      -0.368
      -0.178
      -0.024
       0.068
       0.091
       0.062
       0.007
      -0.045
      -0.075
      -0.072
      -0.037
       0.013
       0.052
       0.060
       0.037
       0.001
      -0.036
      -0.072
      -0.113
      -0.157
      -0.179
      -0.146
      -0.041
       0.114
       0.269
       0.382
       0.448
       0.489
       0.531
       0.582
       0.632
       0.666
       0.669
       0.635
       0.557
       0.422
       0.223
      -0.021
      -0.273
      -0.500
      -0.695
      -0.875
      -1.043
      -1.172
      -1.206
      -1.093
      -0.818
      -0.413
       0.066
       0.564
       1.049
       1.496
       1.873
       2.148
       2.299
       2.327
       2.245
       2.060
       1.764
       1.337
       0.775
       0.106
      -0.603
      -1.280
      -1.874
      -2.356
      -2.708
      -2.922
      -2.995
      -2.942
      -2.786
      -2.545
      -2.225
      -1.824
      -1.346
      -0.818
      -0.288
       0.195
       0.604
       0.931
       1.175
       1.331
       1.403
       1.401
       1.350
       1.275
       1.196
       1.113
       1.019
       0.906
       0.781
       0.650
       0.509
       0.349
       0.167
      -0.023
      -0.190
      -0.304
      -0.350
      -0.336
      -0.289
      -0.235
      -0.183
      -0.133
      -0.086
      -0.049
      -0.021
       0.005
       0.040
       0.081
       0.111
       0.099
       0.028
      -0.090
      -0.216
      -0.311
      -0.357
      -0.355
      -0.313
      -0.243
      -0.157
      -0.072
      -0.001
       0.052
       0.096
       0.149
       0.227
       0.335
       0.455
       0.558
       0.614
       0.605
       0.528
       0.396
       0.233
       0.063
      -0.095
      -0.234
      -0.347
      -0.434
      -0.496
      -0.535
      -0.543
      -0.510
      -0.427
      -0.297
      -0.136
       0.022
       0.136
       0.181
       0.160
       0.096
       0.010
      -0.089
      -0.195
      -0.297
      -0.373
      -0.400
      -0.373
      -0.301
      -0.204
      -0.096
       0.015
       0.120
       0.201
       0.242
       0.244
       0.225
       0.205
       0.201
       0.212
       0.234
       0.257
       0.276
       0.280
       0.253
       0.178
       0.057
      -0.088
      -0.220
      -0.313
      -0.362
      -0.377
      -0.377
      -0.379
      -0.388
      -0.390
      -0.364
      -0.298
      -0.187
      -0.038
       0.145
       0.350
       0.559
       0.743
       0.872
       0.924
       0.898
       0.807
       0.671
       0.511
       0.348
       0.211
       0.121
       0.078
       0.062
       0.051
       0.027
      -0.012
      -0.058
      -0.096
      -0.118
      -0.129
      -0.145
      -0.181
      -0.240
      -0.315
      -0.394
      -0.461
      -0.505
      -0.506
      -0.448
      -0.322
      -0.152
       0.016
       0.135
       0.184
       0.176
       0.136
       0.091
       0.056
       0.043
       0.059
       0.106
       0.176
       0.244
       0.278
       0.263
       0.207
       0.133
       0.054
      -0.040
      -0.163
      -0.320
      -0.494
      -0.658
      -0.789
      -0.877
      -0.922
      -0.919
      -0.862
      -0.754
      -0.619
      -0.480
      -0.344
      -0.192
       0.002
       0.249
       0.535
       0.820
       1.061
       1.231
       1.322
       1.341
       1.297
       1.200
       1.072
       0.937
       0.817
       0.711
       0.604
       0.472
       0.301
       0.093
      -0.141
      -0.395
      -0.668
      -0.955
      -1.231
      -1.456
      -1.598
      -1.642
      -1.602
      -1.503
      -1.365
      -1.187
      -0.957
      -0.673
      -0.356
      -0.039
       0.254
       0.511
       0.723
       0.878
       0.966
       0.987
       0.950
       0.872
       0.765
       0.632
       0.470
       0.283
       0.088
      -0.090
      -0.233
      -0.335
      -0.396
      -0.419
      -0.401
      -0.336
      -0.219
      -0.060
       0.109
       0.246
       0.320
       0.324
       0.272
       0.195
       0.127
       0.096
       0.111
       0.162
       0.224
       0.267
       0.269
       0.227
       0.162
       0.109
       0.086
       0.091
       0.102
       0.099
       0.076
       0.042
       0.007
      -0.028
      -0.070
      -0.122
      -0.176
      -0.229
      -0.287
      -0.358
      -0.440
      -0.512
      -0.552
      -0.546
      -0.495
      -0.409
      -0.295
      -0.153
       0.015
       0.194
       0.352
       0.460
       0.519
       0.555
       0.594
       0.637
       0.661
       0.636
       0.548
       0.400
       0.212
       0.005
      -0.202
      -0.386
      -0.525
      -0.607
      -0.639
      -0.638
      -0.615
      -0.569
      -0.494
      -0.395
      -0.284
      -0.175
      -0.070
       0.033
       0.139
       0.245
       0.346
       0.434
       0.508
       0.567
       0.607
       0.620
       0.605
       0.563
       0.493
       0.391
       0.256
       0.093
      -0.084
      -0.255
      -0.397
      -0.495
      -0.545
      -0.558
      -0.547
      -0.522
      -0.484
      -0.428
      -0.352
      -0.261
      -0.178
      -0.126
      -0.115
      -0.128
      -0.134
      -0.113
      -0.072
      -0.036
      -0.031
      -0.057
      -0.092
      -0.113
      -0.122
      -0.132
      -0.144
      -0.140
      -0.099
      -0.013
       0.098
       0.206
       0.279
       0.311
       0.317
       0.321
       0.343
       0.384
       0.436
       0.488
       0.526
       0.545
       0.545
       0.525
       0.479
       0.396
       0.274
       0.124
      -0.035
      -0.182
      -0.297
      -0.370
      -0.393
      -0.361
      -0.274
      -0.146
      -0.003
       0.125
       0.222
       0.285
       0.320
       0.330
       0.319
       0.279
       0.195
       0.056
      -0.142
      -0.383
      -0.637
      -0.866
      -1.029
      -1.098
      -1.071
      -0.973
      -0.838
      -0.695
      -0.553
      -0.397
      -0.203
       0.038
       0.306
       0.568
       0.788
       0.943
       1.019
       1.009
       0.918
       0.769
       0.595
       0.431
       0.302
       0.207
       0.128
       0.045
      -0.043
      -0.116
      -0.154
      -0.148
      -0.108
      -0.051
       0.006
       0.050
       0.079
       0.097
       0.105
       0.104
       0.095
       0.080
       0.057
       0.030
       0.004
      -0.014
      -0.018
      -0.013
      -0.005
      -0.009
      -0.039
      -0.102
      -0.186
      -0.273
