Origin Time       30/05/2014 06:37:50
Lat.              26.5 N	
Long.             90.4 E	
Depth (Km)         10.0
Magnitude         4.5
 Region           Kokhrajhar-Assam                                                 
 Above details taken from IMD 
     
Station Code      BAR
Station Lat.       26.332  N
Station Long.      91.006  E
Station Height(m)   47.0
Site Class        C   Vs30 between 200 m/sec to 375 m/sec *  
Record Time       30.05.2014 06:36:38.044
Sampling Rate     200. Hz
 Record Duration   80.750 Sec.
 Direction         E-W (E positive)
Max. Acceleration      1.447 cm/sec**2
     
  * For reference see Site Classification link of website 
     
 Base Line Corrected and Low Pass Filtered (Cut Off at 35 Hz) Time History
 Acceleration data in cm/sec**2
    
[...]
       0.084
       0.068
       0.011
      -0.096
      -0.211
      -0.257
      -0.186
      -0.020
       0.155
       0.255
       0.259
       0.215
       0.189
       0.208
       0.242
       0.235
       0.153
       0.011
      -0.131
      -0.209
      -0.199
      -0.135
      -0.090
      -0.127
      -0.264
      -0.447
      -0.575
      -0.565
      -0.399
      -0.146
       0.088
       0.222
       0.229
       0.144
       0.029
      -0.049
      -0.046
       0.052
       0.224
       0.425
       0.594
       0.667
       0.598
       0.386
       0.073
      -0.271
      -0.573
      -0.777
      -0.859
      -0.831
      -0.729
      -0.596
      -0.466
      -0.364
      -0.310
      -0.311
      -0.352
      -0.392
      -0.394
      -0.343
      -0.255
      -0.172
      -0.135
      -0.157
      -0.218
      -0.265
      -0.238
      -0.100
       0.144
       0.439
       0.704
       0.863
       0.875
       0.742
       0.499
       0.198
      -0.104
      -0.347
      -0.481
      -0.470
      -0.311
      -0.044
       0.246
       0.467
       0.563
       0.536
       0.423
       0.254
       0.041
      -0.204
      -0.439
      -0.595
      -0.620
      -0.516
      -0.347
      -0.198
      -0.110
      -0.063
       0.005
       0.133
       0.301
       0.443
       0.493
       0.426
       0.275
       0.104
      -0.024
      -0.075
      -0.046
       0.036
       0.130
       0.186
       0.171
       0.091
      -0.010
      -0.082
      -0.099
      -0.070
      -0.026
       0.002
      -0.006
      -0.046
      -0.090
      -0.098
      -0.048
       0.056
       0.194
       0.345
       0.490
       0.606
       0.666
       0.651
       0.561
       0.412
       0.221
      -0.001
      -0.238
      -0.460
      -0.621
      -0.689
      -0.677
      -0.641
      -0.633
      -0.664
      -0.688
      -0.640
      -0.490
      -0.267
      -0.038
       0.139
       0.254
       0.338
       0.433
       0.553
       0.678
       0.763
       0.772
       0.686
       0.522
       0.329
       0.163
       0.060
       0.016
      -0.006
      -0.051
      -0.139
      -0.256
      -0.356
      -0.391
      -0.336
      -0.210
      -0.059
       0.060
       0.102
       0.044
      -0.104
      -0.293
      -0.445
      -0.480
      -0.351
      -0.065
       0.304
       0.638
       0.825
       0.816
       0.638
       0.369
       0.085
      -0.158
      -0.320
      -0.368
      -0.290
      -0.111
       0.106
       0.288
       0.380
       0.360
       0.231
       0.022
      -0.208
      -0.374
      -0.408
      -0.303
      -0.133
      -0.009
      -0.004
      -0.112
      -0.264
      -0.382
      -0.421
      -0.385
      -0.309
      -0.236
      -0.201
      -0.226
      -0.309
      -0.420
      -0.510
      -0.540
      -0.510
      -0.451
      -0.394
      -0.341
      -0.268
      -0.166
      -0.052
       0.031
       0.052
       0.010
      -0.055
      -0.080
      -0.004
       0.191
       0.461
       0.714
       0.867
       0.891
       0.820
       0.700
       0.546
       0.349
       0.119
      -0.088
      -0.199
      -0.180
      -0.066
       0.065
       0.156
       0.196
       0.201
       0.172
       0.084
      -0.081
      -0.299
      -0.496
      -0.591
      -0.542
      -0.365
      -0.119
       0.132
       0.340
       0.477
       0.529
       0.492
       0.387
       0.251
       0.138
       0.100
       0.167
       0.327
       0.528
       0.696
       0.764
       0.694
       0.477
       0.138
      -0.265
      -0.633
      -0.860
      -0.869
      -0.661
      -0.313
       0.043
       0.277
       0.307
       0.127
      -0.200
      -0.571
      -0.880
      -1.037
      -1.002
      -0.805
      -0.542
      -0.336
      -0.262
      -0.301
      -0.347
      -0.276
      -0.031
       0.335
       0.684
       0.876
       0.837
       0.596
       0.263
      -0.023
      -0.158
      -0.109
       0.062
       0.227
       0.256
       0.090
      -0.214
      -0.516
      -0.669
      -0.608
      -0.374
      -0.068
       0.211
       0.408
       0.505
       0.498
       0.399
       0.253
       0.137
       0.130
       0.271
       0.541
       0.873
       1.178
       1.375
       1.401
       1.221
       0.843
       0.336
      -0.173
      -0.549
      -0.702
      -0.628
      -0.394
      -0.107
       0.128
       0.234
       0.189
       0.020
      -0.222
      -0.489
      -0.749
      -0.978
      -1.150
      -1.235
      -1.209
      -1.066
      -0.828
      -0.538
      -0.252
      -0.027
       0.092
       0.077
      -0.061
      -0.269
      -0.461
      -0.553
      -0.488
      -0.259
       0.088
       0.459
       0.743
       0.853
       0.772
       0.554
       0.297
       0.099
       0.024
       0.077
       0.214
       0.362
       0.452
       0.446
       0.359
       0.250
       0.196
       0.243
       0.376
       0.529
       0.623
       0.621
       0.534
       0.410
       0.305
       0.256
       0.267
       0.315
       0.355
       0.343
       0.251
       0.091
      -0.082
      -0.200
      -0.229
      -0.184
      -0.115
      -0.072
      -0.082
      -0.157
      -0.301
      -0.514
      -0.781
      -1.058
      -1.276
      -1.357
      -1.256
      -0.991
      -0.638
      -0.299
      -0.057
       0.051
       0.040
      -0.033
      -0.088
      -0.063
       0.053
       0.207
       0.308
       0.283
       0.129
      -0.071
      -0.193
      -0.153
       0.046
       0.308
       0.506
       0.544
       0.407
       0.162
      -0.078
      -0.219
      -0.233
      -0.158
      -0.049
       0.056
       0.149
       0.226
       0.275
       0.275
       0.220
       0.134
       0.069
       0.082
       0.189
       0.355
       0.511
       0.593
       0.568
       0.445
       0.268
       0.085
      -0.068
      -0.175
      -0.231
      -0.235
      -0.192
      -0.127
      -0.077
      -0.077
      -0.138
      -0.236
      -0.326
      -0.369
      -0.352
      -0.300
      -0.258
      -0.254
      -0.287
      -0.331
      -0.355
      -0.326
      -0.223
      -0.043
       0.187
       0.411
       0.577
       0.668
       0.712
       0.753
       0.799
       0.807
       0.720
       0.532
       0.305
       0.130
       0.056
       0.060
       0.085
       0.088
       0.067
       0.040
       0.011
      -0.040
      -0.143
      -0.301
      -0.479
      -0.611
      -0.640
      -0.546
      -0.351
      -0.109
       0.118
       0.271
       0.315
       0.243
       0.075
      -0.155
      -0.394
      -0.576
      -0.641
      -0.560
      -0.363
      -0.130
       0.048
       0.112
       0.070
      -0.014
      -0.054
      -0.005
       0.118
       0.247
       0.310
       0.268
       0.131
      -0.055
      -0.241
      -0.405
      -0.550
      -0.680
      -0.775
      -0.790
      -0.686
      -0.454
      -0.129
       0.222
       0.511
       0.656
       0.603
       0.362
       0.019
      -0.288
      -0.432
      -0.363
      -0.139
       0.107
       0.253
       0.254
       0.157
       0.045
      -0.021
      -0.029
       0.002
       0.054
       0.128
       0.233
       0.355
       0.446
       0.447
       0.321
       0.095
      -0.148
      -0.307
      -0.317
      -0.190
      -0.008
       0.127
       0.152
       0.067
      -0.074
      -0.213
      -0.313
      -0.361
      -0.355
      -0.302
      -0.218
      -0.125
      -0.035
       0.061
       0.189
       0.363
       0.569
       0.769
       0.918
       0.989
       0.970
       0.866
       0.698
       0.509
       0.343
       0.214
       0.094
      -0.053
      -0.223
      -0.358
      -0.400
      -0.344
      -0.251
      -0.203
      -0.250
      -0.382
      -0.542
      -0.658
      -0.667
      -0.530
      -0.245
       0.137
       0.511
       0.751
       0.779
       0.615
       0.363
       0.150
       0.049
       0.053
       0.101
       0.130
       0.112
       0.058
      -0.002
      -0.046
      -0.079
      -0.129
      -0.225
      -0.369
      -0.525
      -0.631
      -0.644
      -0.573
      -0.481
      -0.440
      -0.480
      -0.564
      -0.598
      -0.484
      -0.183
       0.237
       0.623
       0.816
       0.747
       0.477
       0.162
      -0.047
      -0.076
       0.050
       0.242
       0.412
       0.501
       0.490
       0.384
       0.207
       0.002
      -0.186
      -0.332
      -0.440
      -0.515
      -0.541
      -0.488
      -0.344
      -0.141
       0.061
       0.205
       0.268
       0.268
       0.245
       0.235
       0.247
       0.260
       0.247
       0.199
       0.130
       0.065
       0.018
      -0.019
      -0.069
      -0.147
      -0.243
      -0.324
      -0.357
      -0.327
      -0.245
      -0.142
      -0.057
      -0.025
      -0.072
      -0.207
      -0.423
      -0.676
      -0.886
      -0.955
      -0.822
      -0.513
      -0.131
       0.199
       0.404
       0.489
       0.506
       0.507
       0.505
       0.485
       0.440
       0.391
       0.357
       0.332
       0.280
       0.181
       0.062
      -0.021
      -0.024
       0.059
       0.201
       0.365
       0.518
       0.632
       0.685
       0.652
       0.519
       0.302
       0.053
      -0.146
      -0.230
      -0.177
      -0.024
       0.146
       0.248
       0.241
       0.146
       0.031
      -0.037
      -0.020
       0.083
       0.250
       0.438
       0.587
       0.630
       0.528
       0.292
      -0.014
      -0.296
      -0.474
      -0.521
      -0.471
      -0.387
      -0.328
      -0.320
      -0.364
      -0.452
      -0.578
      -0.731
      -0.879
      -0.959
      -0.901
      -0.682
      -0.360
      -0.042
       0.181
       0.294
       0.345
       0.402
       0.495
       0.594
       0.635
       0.572
       0.412
       0.205
       0.005
      -0.157
      -0.271
      -0.334
      -0.338
      -0.286
      -0.201
      -0.123
      -0.096
      -0.150
      -0.282
      -0.459
      -0.637
      -0.784
      -0.888
      -0.933
      -0.890
      -0.730
      -0.449
      -0.086
       0.275
       0.536
       0.631
       0.565
       0.409
       0.261
       0.198
       0.249
       0.404
       0.631
       0.890
       1.126
       1.270
       1.255
       1.048
       0.684
       0.269
      -0.064
      -0.227
      -0.211
      -0.074
       0.113
       0.299
       0.458
       0.559
       0.556
       0.407
       0.108
      -0.286
      -0.683
      -0.996
      -1.177
      -1.225
      -1.166
      -1.044
      -0.898
      -0.760
      -0.643
      -0.550
      -0.480
      -0.426
      -0.375
      -0.312
      -0.226
      -0.116
       0.021
       0.189
       0.391
       0.614
       0.829
       0.993
       1.076
       1.074
       1.023
       0.978
       0.975
       0.999
       0.977
       0.818
       0.475
      -0.013
      -0.526
      -0.920
      -1.101
      -1.065
      -0.879
      -0.633
      -0.399
      -0.215
      -0.090
      -0.018
       0.024
       0.064
       0.126
       0.218
       0.317
       0.378
       0.359
       0.250
       0.089
      -0.057
      -0.133
      -0.129
      -0.074
      -0.006
       0.051
       0.085
       0.077
      -0.001
      -0.162
      -0.380
      -0.586
      -0.696
      -0.653
      -0.447
      -0.118
       0.266
       0.620
       0.867
       0.954
       0.866
       0.628
       0.293
      -0.056
      -0.327
      -0.443
      -0.390
      -0.228
      -0.064
       0.001
      -0.079
      -0.277
      -0.504
      -0.654
      -0.648
      -0.462
      -0.123
       0.299
       0.713
       1.023
       1.154
       1.076
       0.817
       0.457
       0.090
      -0.210
      -0.407
      -0.483
      -0.421
      -0.210
       0.125
       0.492
       0.759
       0.816
       0.634
       0.264
      -0.193
      -0.642
      -1.015
      -1.277
      -1.408
      -1.398
      -1.253
      -1.006
      -0.722
      -0.466
      -0.266
      -0.109
       0.032
       0.156
       0.234
       0.234
       0.168
       0.100
       0.114
       0.260
       0.512
       0.786
       0.989
       1.068
       1.030
       0.927
       0.821
       0.748
       0.710
       0.678
       0.613
       0.485
       0.290
       0.052
      -0.186
      -0.389
      -0.545
      -0.654
      -0.707
      -0.679
      -0.555
      -0.369
      -0.186
      -0.064
      -0.009
       0.006
       0.007
      -0.003
      -0.036
      -0.090
      -0.125
      -0.092
       0.038
       0.242
       0.451
       0.598
       0.646
       0.593
       0.448
       0.230
      -0.026
      -0.255
      -0.386
      -0.368
      -0.206
       0.033
       0.244
       0.337
       0.293
       0.171
       0.071
       0.052
       0.093
       0.112
       0.041
      -0.105
      -0.234
      -0.241
      -0.101
       0.099
       0.215
       0.141
      -0.123
      -0.475
      -0.776
      -0.919
      -0.877
      -0.692
      -0.443
      -0.215
      -0.077
      -0.068
      -0.176
      -0.337
      -0.468
      -0.516
      -0.497
      -0.476
      -0.506
      -0.592
      -0.673
      -0.662
      -0.488
      -0.139
       0.336
       0.837
       1.243
       1.447
       1.399
       1.135
       0.764
       0.409
       0.147
      -0.017
      -0.113
      -0.167
      -0.183
      -0.160
      -0.108
      -0.056
      -0.023
       0.005
       0.071
       0.206
       0.376
       0.480
       0.415
       0.146
      -0.261
      -0.684
      -1.009
      -1.172
      -1.154
      -0.966
      -0.636
      -0.231
       0.146
       0.388
       0.434
       0.307
       0.096
      -0.093
      -0.186
      -0.159
      -0.034
       0.136
       0.289
       0.382
       0.403
       0.377
       0.345
       0.345
       0.385
       0.442
       0.482
       0.486
       0.462
       0.429
       0.397
       0.359
       0.307
       0.240
       0.162
       0.067
      -0.051
      -0.188
      -0.307
      -0.348
      -0.270
      -0.097
       0.081
       0.157
       0.081
      -0.110
      -0.317
      -0.440
      -0.415
      -0.234
       0.062
       0.399
       0.682
       0.820
       0.759
       0.506
       0.135
      -0.246
      -0.535
      -0.674
      -0.656
      -0.512
      -0.296
      -0.075
       0.091
       0.162
       0.133
       0.033
      -0.087
      -0.182
      -0.244
      -0.298
      -0.372
      -0.465
      -0.540
      -0.540
      -0.420
      -0.174
       0.147
       0.432
       0.542
       0.389
       0.001
      -0.473
      -0.834
      -0.934
      -0.736
      -0.318
       0.172
       0.586
       0.829
       0.896
       0.856
       0.795
       0.748
       0.673
       0.489
       0.157
      -0.263
      -0.631
      -0.808
      -0.738
      -0.476
      -0.151
       0.113
       0.250
       0.274
       0.242
       0.214
       0.220
       0.260
       0.314
       0.349
       0.326
       0.211
      -0.001
      -0.280
      -0.563
      -0.778
      -0.865
      -0.792
      -0.569
      -0.244
       0.109
       0.410
       0.592
       0.620
       0.506
       0.294
       0.042
      -0.200
      -0.392
      -0.508
      -0.536
      -0.473
      -0.338
      -0.158
       0.030
       0.199
       0.341
       0.472
       0.613
       0.765
       0.891
       0.927
       0.834
       0.634
       0.407
       0.236
       0.135
       0.038
      -0.134
      -0.391
      -0.638
      -0.735
      -0.605
      -0.293
       0.056
       0.283
       0.311
       0.168
      -0.040
      -0.200
      -0.251
      -0.203
      -0.122
      -0.090
      -0.161
      -0.329
      -0.528
      -0.655
      -0.632
      -0.448
      -0.176
       0.065
       0.175
       0.124
      -0.029
      -0.174
      -0.213
      -0.107
       0.113
       0.374
       0.597
       0.739
       0.805
       0.834
       0.854
       0.845
       0.742
       0.499
       0.143
      -0.222
      -0.480
      -0.570
      -0.520
      -0.410
      -0.317
      -0.270
      -0.259
      -0.256
      -0.258
      -0.283
      -0.350
      -0.446
      -0.512
      -0.480
      -0.333
      -0.137
      -0.007
      -0.029
      -0.196
      -0.409
      -0.551
      -0.555
      -0.421
      -0.201
       0.029
       0.198
       0.257
       0.196
       0.038
      -0.170
      -0.371
      -0.498
      -0.497
      -0.350
      -0.100
       0.157
       0.322
       0.341
       0.234
       0.082
      -0.024
      -0.040
       0.010
       0.067
       0.087
       0.073
       0.064
       0.099
       0.195
       0.340
       0.508
       0.676
       0.824
       0.932
       0.969
       0.904
       0.727
       0.468
       0.198
       0.010
      -0.025
       0.106
       0.346
       0.598
       0.768
       0.797
       0.681
       0.453
       0.170
      -0.118
      -0.386
      -0.628
      -0.834
      -0.973
      -1.009
      -0.939
      -0.797
      -0.633
      -0.485
      -0.360
      -0.254
      -0.168
      -0.120
      -0.129
      -0.192
      -0.275
      -0.342
      -0.376
      -0.394
      -0.420
      -0.459
      -0.484
      -0.445
      -0.294
      -0.016
       0.352
       0.726
       1.010
       1.139
       1.092
       0.895
       0.604
       0.284
      -0.003
      -0.218
      -0.350
      -0.410
      -0.409
      -0.349
      -0.220
      -0.020
       0.217
       0.422
       0.519
       0.470
       0.290
       0.037
      -0.231
      -0.473
      -0.651
      -0.722
      -0.636
      -0.375
       0.011
       0.395
       0.628
       0.615
       0.366
      -0.012
      -0.380
      -0.637
      -0.750
      -0.748
      -0.685
      -0.599
      -0.505
      -0.391
      -0.241
      -0.043
       0.195
       0.425
       0.564
       0.528
       0.291
      -0.087
      -0.464
      -0.687
      -0.658
      -0.383
       0.033
       0.450
       0.756
       0.908
       0.920
       0.829
       0.664
       0.442
       0.177
      -0.104
      -0.358
      -0.542
      -0.627
      -0.607
      -0.498
      -0.317
      -0.087
       0.160
       0.381
       0.535
       0.593
       0.550
       0.422
       0.251
       0.099
       0.020
       0.037
       0.118
       0.196
       0.211
       0.160
       0.099
       0.102
       0.190
       0.317
       0.400
       0.389
       0.288
       0.138
      -0.021
      -0.172
      -0.309
      -0.415
      -0.452
      -0.390
      -0.236
      -0.048
       0.096
       0.149
       0.112
       0.020
      -0.090
      -0.183
      -0.220
      -0.176
      -0.059
       0.075
       0.157
       0.152
       0.080
      -0.005
      -0.059
      -0.079
      -0.088
      -0.101
      -0.109
      -0.094
      -0.049
       0.012
       0.072
       0.119
       0.147
       0.147
       0.115
       0.064
       0.023
       0.017
       0.047
       0.090
       0.119
       0.122
