Origin Time       24/09/2011 14:32:18 UTC
Lat.              30.9 N	
Long.             78.3 E	
Depth (Km)         10.0
Magnitude         3.0
 Region           Uttarkashi-Distt.                                                
 Above details taken from IMD 
    
Station Code      BAR
Station Lat.       30.809  N
Station Long.      78.205  E
Station Height(m) 1305.0
Site Class        A   Vs30 between 700 m/sec to 1400 m/sec * 
Record Time       24.09.2011 14:31:54.724 UTC
Sampling Rate     200. Hz
 Record Duration   80.010 Sec.
 Direction         N-S (N positive)
Max. Acceleration      2.885 cm/sec**2
     
  * For reference see Site Classification link of website 
     
 Base Line Corrected and Low Pass Filtered (Cut Off at 35 Hz) Time History
 Acceleration data in cm/sec**2
    
[...]
       0.010
       0.012
       0.011
       0.008
       0.007
       0.006
       0.002
      -0.004
      -0.006
      -0.003
       0.004
       0.012
       0.015
       0.014
       0.008
       0.003
       0.000
       0.000
       0.001
       0.002
       0.005
       0.009
       0.012
       0.012
       0.008
       0.003
       0.000
       0.002
       0.007
       0.012
       0.013
       0.011
       0.007
       0.003
       0.000
      -0.002
      -0.004
      -0.004
      -0.004
      -0.004
      -0.004
      -0.004
      -0.003
       0.000
       0.005
       0.008
       0.006
       0.002
      -0.003
      -0.004
       0.000
       0.005
       0.008
       0.009
       0.005
      -0.001
      -0.007
      -0.008
      -0.004
       0.002
       0.003
       0.001
      -0.002
       0.000
       0.005
       0.006
       0.001
      -0.006
      -0.010
      -0.007
      -0.001
       0.004
       0.005
       0.003
       0.002
       0.005
       0.011
       0.018
       0.023
       0.024
       0.021
       0.014
       0.006
       0.000
      -0.001
       0.000
       0.002
       0.004
       0.006
       0.011
       0.016
       0.016
       0.012
       0.007
       0.004
       0.004
       0.005
       0.005
       0.006
       0.006
       0.007
       0.009
       0.011
       0.011
       0.009
       0.005
       0.001
       0.000
       0.001
       0.003
       0.002
       0.002
       0.004
       0.007
       0.008
       0.006
       0.003
       0.001
       0.002
       0.005
       0.008
       0.010
       0.012
       0.011
       0.007
       0.000
      -0.006
      -0.008
      -0.007
      -0.003
      -0.001
      -0.001
      -0.001
       0.001
       0.004
       0.004
       0.000
      -0.006
      -0.009
      -0.007
      -0.001
       0.005
       0.006
       0.002
      -0.006
      -0.011
      -0.010
      -0.003
       0.006
       0.011
       0.010
       0.004
      -0.003
      -0.007
      -0.006
       0.000
       0.006
       0.010
       0.008
       0.003
      -0.004
      -0.007
      -0.007
      -0.001
       0.006
       0.012
       0.011
       0.004
      -0.007
      -0.014
      -0.015
      -0.011
      -0.006
      -0.004
      -0.005
      -0.006
      -0.006
      -0.004
       0.000
       0.003
       0.002
      -0.001
      -0.005
      -0.007
      -0.008
      -0.008
      -0.004
       0.004
       0.012
       0.016
       0.014
       0.007
      -0.002
      -0.007
      -0.007
      -0.004
       0.001
       0.004
       0.005
       0.004
       0.004
       0.007
       0.010
       0.011
       0.006
      -0.003
      -0.012
      -0.014
      -0.011
      -0.005
      -0.002
      -0.001
      -0.002
      -0.003
      -0.004
      -0.004
      -0.004
      -0.005
      -0.006
      -0.007
      -0.008
      -0.006
       0.000
       0.007
       0.012
       0.011
       0.006
      -0.001
      -0.005
      -0.007
      -0.007
      -0.007
      -0.007
      -0.006
      -0.005
      -0.003
      -0.002
      -0.004
      -0.007
      -0.010
      -0.011
      -0.009
      -0.007
      -0.007
      -0.010
      -0.012
      -0.011
      -0.006
       0.000
       0.003
       0.002
      -0.002
      -0.006
      -0.008
      -0.007
      -0.005
      -0.003
      -0.003
      -0.003
      -0.002
       0.000
       0.001
      -0.001
      -0.006
      -0.014
      -0.019
      -0.020
      -0.016
      -0.012
      -0.009
      -0.007
      -0.007
      -0.005
      -0.002
       0.001
       0.005
       0.006
       0.004
      -0.001
      -0.008
      -0.011
      -0.010
      -0.006
      -0.001
       0.001
       0.000
      -0.003
      -0.006
      -0.007
      -0.004
       0.001
       0.004
       0.002
      -0.005
      -0.012
      -0.014
      -0.010
      -0.005
      -0.004
      -0.006
      -0.009
      -0.010
      -0.010
      -0.008
      -0.006
      -0.002
       0.001
       0.005
       0.006
       0.006
       0.004
       0.001
      -0.002
      -0.002
       0.000
       0.004
       0.005
       0.006
       0.007
       0.010
       0.013
       0.012
       0.004
      -0.006
      -0.010
      -0.006
       0.004
       0.009
       0.005
      -0.004
      -0.010
      -0.007
       0.000
       0.003
      -0.001
      -0.008
      -0.012
      -0.010
      -0.004
       0.003
       0.006
       0.005
       0.002
       0.000
      -0.001
       0.001
       0.003
       0.006
       0.008
       0.007
       0.005
       0.002
      -0.001
      -0.003
      -0.003
       0.000
       0.005
       0.007
       0.007
       0.005
       0.002
       0.000
      -0.001
      -0.001
       0.001
       0.005
       0.007
       0.005
      -0.001
      -0.006
      -0.007
      -0.003
       0.001
       0.004
       0.003
       0.002
       0.000
      -0.001
      -0.004
      -0.006
      -0.004
      -0.001
       0.003
       0.003
       0.000
      -0.004
      -0.006
      -0.003
       0.002
       0.007
       0.009
       0.008
       0.006
       0.005
       0.007
       0.009
       0.009
       0.006
       0.001
      -0.003
      -0.005
      -0.004
      -0.002
      -0.001
      -0.001
      -0.004
      -0.007
      -0.010
      -0.012
      -0.014
      -0.017
      -0.018
      -0.016
      -0.011
      -0.005
      -0.001
      -0.001
      -0.002
      -0.002
       0.002
       0.008
       0.012
       0.012
       0.008
       0.002
      -0.004
      -0.008
      -0.009
      -0.006
      -0.001
       0.002
       0.004
       0.006
       0.008
       0.009
       0.007
       0.002
      -0.001
      -0.001
      -0.001
      -0.001
      -0.003
      -0.004
      -0.005
      -0.003
      -0.001
      -0.001
      -0.002
       0.000
       0.007
       0.020
       0.036
       0.050
       0.056
       0.047
       0.026
       0.005
      -0.001
       0.014
       0.033
       0.026
      -0.024
      -0.102
      -0.173
      -0.208
      -0.209
      -0.199
      -0.203
      -0.221
      -0.229
      -0.200
      -0.136
      -0.069
      -0.036
      -0.044
      -0.046
       0.011
       0.134
       0.257
       0.295
       0.225
       0.121
       0.095
       0.194
       0.351
       0.439
       0.382
       0.231
       0.116
       0.120
       0.204
       0.247
       0.164
      -0.009
      -0.156
      -0.192
      -0.141
      -0.101
      -0.138
      -0.225
      -0.267
      -0.201
      -0.058
       0.062
       0.076
      -0.009
      -0.114
      -0.161
      -0.137
      -0.097
      -0.108
      -0.182
      -0.269
      -0.296
      -0.237
      -0.133
      -0.061
      -0.065
      -0.124
      -0.165
      -0.133
      -0.032
       0.070
       0.101
       0.044
      -0.053
      -0.108
      -0.069
       0.052
       0.191
       0.285
       0.319
       0.330
       0.351
       0.370
       0.330
       0.186
      -0.029
      -0.206
      -0.227
      -0.070
       0.151
       0.264
       0.183
      -0.009
      -0.125
      -0.047
       0.157
       0.290
       0.218
       0.003
      -0.162
      -0.158
      -0.059
      -0.044
      -0.193
      -0.393
      -0.447
      -0.283
      -0.019
       0.163
       0.198
       0.167
       0.152
       0.123
      -0.010
      -0.242
      -0.424
      -0.409
      -0.220
      -0.038
      -0.012
      -0.100
      -0.140
      -0.057
       0.040
      -0.009
      -0.207
      -0.371
      -0.328
      -0.122
       0.026
      -0.039
      -0.232
      -0.319
      -0.180
       0.062
       0.184
       0.118
       0.026
       0.113
       0.385
       0.631
       0.648
       0.454
       0.262
       0.251
       0.369
       0.398
       0.189
      -0.162
      -0.386
      -0.290
       0.064
       0.412
       0.510
       0.318
       0.002
      -0.219
      -0.243
      -0.139
      -0.060
      -0.103
      -0.225
      -0.297
      -0.235
      -0.077
       0.056
       0.092
       0.073
       0.091
       0.176
       0.260
       0.257
       0.154
       0.017
      -0.083
      -0.131
      -0.162
      -0.204
      -0.244
      -0.255
      -0.229
      -0.183
      -0.130
      -0.061
       0.026
       0.095
       0.092
      -0.007
      -0.160
      -0.288
      -0.336
      -0.312
      -0.264
      -0.230
      -0.208
      -0.162
      -0.058
       0.109
       0.292
       0.405
       0.376
       0.221
       0.053
       0.001
       0.086
       0.182
       0.145
      -0.019
      -0.129
      -0.021
       0.256
       0.462
       0.396
       0.117
      -0.111
      -0.083
       0.139
       0.311
       0.263
       0.068
      -0.064
      -0.026
       0.081
       0.071
      -0.115
      -0.350
      -0.448
      -0.338
      -0.115
       0.059
       0.081
      -0.041
      -0.223
      -0.377
      -0.446
      -0.418
      -0.300
      -0.104
       0.163
       0.468
       0.726
       0.822
       0.702
       0.452
       0.255
       0.249
       0.389
       0.491
       0.391
       0.090
      -0.257
      -0.484
      -0.544
      -0.515
      -0.496
      -0.507
      -0.479
      -0.351
      -0.147
       0.022
       0.050
      -0.067
      -0.213
      -0.252
      -0.145
       0.020
       0.113
       0.087
       0.005
      -0.025
       0.045
       0.175
       0.287
       0.334
       0.318
       0.250
       0.136
      -0.009
      -0.140
      -0.223
      -0.278
      -0.367
      -0.503
      -0.602
      -0.545
      -0.307
      -0.003
       0.214
       0.296
       0.338
       0.452
       0.626
       0.721
       0.621
       0.376
       0.157
       0.083
       0.113
       0.124
       0.079
       0.067
       0.169
       0.327
       0.385
       0.273
       0.096
       0.019
       0.063
       0.066
      -0.129
      -0.471
      -0.726
      -0.709
      -0.478
      -0.269
      -0.243
      -0.313
      -0.254
       0.017
       0.313
       0.358
       0.075
      -0.317
      -0.520
      -0.443
      -0.250
      -0.156
      -0.198
      -0.233
      -0.128
       0.097
       0.303
       0.385
       0.352
       0.279
       0.212
       0.148
       0.078
       0.022
      -0.007
      -0.051
      -0.172
      -0.355
      -0.470
      -0.368
      -0.036
       0.360
       0.612
       0.648
       0.567
       0.496
       0.450
       0.348
       0.137
      -0.128
      -0.326
      -0.374
      -0.288
      -0.154
      -0.070
      -0.082
      -0.166
      -0.247
      -0.251
      -0.179
      -0.110
      -0.134
      -0.246
      -0.334
      -0.296
      -0.166
      -0.098
      -0.184
      -0.324
      -0.308
      -0.049
       0.306
       0.515
       0.508
       0.445
       0.519
       0.708
       0.791
       0.611
       0.281
       0.066
       0.084
       0.172
       0.084
      -0.203
      -0.457
      -0.458
      -0.259
      -0.140
      -0.294
      -0.619
      -0.835
      -0.786
      -0.577
      -0.412
      -0.347
      -0.251
      -0.008
       0.315
       0.522
       0.509
       0.378
       0.318
       0.405
       0.538
       0.564
       0.446
       0.284
       0.198
       0.218
       0.291
       0.364
       0.420
       0.452
       0.440
       0.385
       0.352
       0.414
       0.561
       0.668
       0.607
       0.384
       0.152
       0.051
       0.057
       0.008
      -0.222
      -0.574
      -0.864
      -0.975
      -0.970
      -1.001
      -1.121
      -1.223
      -1.164
      -0.944
      -0.722
      -0.650
      -0.711
      -0.757
      -0.692
      -0.587
      -0.571
      -0.647
      -0.657
      -0.455
      -0.098
       0.192
       0.259
       0.185
       0.215
       0.499
       0.937
       1.270
       1.313
       1.083
       0.740
       0.448
       0.297
       0.318
       0.495
       0.733
       0.847
       0.674
       0.215
      -0.335
      -0.734
      -0.876
      -0.836
      -0.771
      -0.778
      -0.849
      -0.904
      -0.871
      -0.726
      -0.492
      -0.216
       0.068
       0.355
       0.663
       0.994
       1.290
       1.439
       1.344
       1.025
       0.643
       0.396
       0.365
       0.446
       0.449
       0.258
      -0.083
      -0.407
      -0.538
      -0.387
       0.008
       0.479
       0.791
       0.755
       0.358
      -0.199
      -0.626
      -0.752
      -0.660
      -0.607
      -0.787
      -1.152
      -1.445
      -1.401
      -0.965
      -0.343
       0.151
       0.309
       0.157
      -0.094
      -0.203
      -0.041
       0.343
       0.761
       0.994
       0.913
       0.563
       0.145
      -0.121
      -0.145
      -0.008
       0.134
       0.182
       0.139
       0.068
       0.018
       0.008
       0.061
       0.205
       0.435
       0.670
       0.804
       0.807
       0.787
       0.904
       1.190
       1.458
       1.414
       0.919
       0.147
      -0.525
      -0.812
      -0.726
      -0.510
      -0.397
      -0.441
      -0.566
      -0.718
      -0.933
      -1.259
      -1.650
      -1.980
      -2.149
      -2.161
      -2.079
      -1.945
      -1.745
      -1.483
      -1.230
      -1.076
      -1.025
      -0.963
      -0.755
      -0.379
       0.060
       0.454
       0.809
       1.225
       1.755
       2.315
       2.731
       2.885
       2.789
       2.543
       2.253
       1.992
       1.815
       1.753
       1.777
       1.768
       1.578
       1.139
       0.522
      -0.103
      -0.576
      -0.816
      -0.833
      -0.706
      -0.568
      -0.561
      -0.763
      -1.110
      -1.416
      -1.508
      -1.382
      -1.218
      -1.220
      -1.428
      -1.688
      -1.804
      -1.721
      -1.549
      -1.426
      -1.375
      -1.290
      -1.055
      -0.662
      -0.222
       0.128
       0.330
       0.439
       0.561
       0.763
       1.015
       1.234
       1.361
       1.411
       1.431
       1.424
       1.346
       1.187
       1.040
       1.042
       1.235
       1.488
       1.583
       1.388
       0.956
       0.459
       0.036
      -0.294
      -0.583
      -0.856
      -1.091
      -1.281
      -1.471
      -1.699
      -1.906
      -1.939
      -1.675
      -1.157
      -0.581
      -0.142
       0.110
       0.274
       0.462
       0.678
       0.840
       0.886
       0.842
       0.772
       0.693
       0.562
       0.353
       0.122
      -0.024
      -0.041
      -0.010
      -0.080
      -0.333
      -0.698
      -0.997
      -1.088
      -0.975
      -0.790
      -0.673
      -0.665
      -0.711
      -0.724
      -0.655
      -0.504
      -0.294
      -0.057
       0.166
       0.334
       0.427
       0.470
       0.519
       0.617
       0.755
       0.886
       0.975
       1.031
       1.088
       1.155
       1.199
       1.171
       1.057
       0.898
       0.756
       0.672
       0.629
       0.571
       0.437
       0.216
      -0.034
      -0.211
      -0.238
      -0.122
       0.035
       0.101
       0.004
      -0.220
      -0.478
      -0.698
      -0.863
      -0.985
      -1.050
      -1.025
      -0.921
      -0.819
      -0.826
      -0.970
      -1.156
      -1.228
      -1.109
      -0.872
      -0.683
      -0.641
      -0.686
      -0.654
      -0.432
      -0.066
       0.275
       0.465
       0.530
       0.612
       0.806
       1.062
       1.227
       1.198
       1.009
       0.775
       0.571
       0.389
       0.198
       0.020
      -0.091
      -0.125
      -0.140
      -0.190
      -0.255
      -0.267
      -0.214
      -0.179
      -0.255
      -0.422
      -0.543
      -0.502
      -0.332
      -0.184
      -0.160
      -0.211
      -0.191
      -0.039
       0.142
       0.195
       0.096
      -0.003
       0.071
       0.319
       0.560
       0.606
       0.440
       0.223
       0.135
       0.227
       0.412
       0.568
       0.635
       0.621
       0.554
       0.441
       0.281
       0.105
      -0.027
      -0.066
      -0.026
       0.017
      -0.017
      -0.143
      -0.305
      -0.430
      -0.486
      -0.487
      -0.467
      -0.452
      -0.464
      -0.512
      -0.577
      -0.593
      -0.489
      -0.252
       0.043
       0.279
       0.391
       0.411
       0.431
       0.509
       0.610
       0.647
       0.579
       0.459
       0.394
       0.441
       0.553
       0.633
       0.620
       0.531
       0.419
       0.305
       0.169
       0.002
      -0.165
      -0.277
      -0.314
      -0.326
      -0.398
      -0.573
      -0.804
      -0.980
      -1.015
      -0.917
      -0.784
      -0.717
      -0.742
      -0.802
      -0.829
      -0.810
      -0.779
      -0.760
      -0.732
      -0.649
      -0.498
      -0.317
      -0.167
      -0.088
      -0.080
      -0.126
      -0.195
      -0.251
      -0.244
      -0.138
       0.053
       0.271
       0.463
       0.617
       0.758
       0.899
       1.023
       1.105
       1.158
       1.213
       1.270
       1.275
       1.174
       0.997
       0.855
       0.838
       0.916
       0.942
       0.778
       0.424
       0.013
      -0.311
      -0.505
      -0.631
      -0.757
      -0.889
      -0.973
      -0.963
      -0.867
      -0.736
      -0.619
      -0.538
      -0.477
      -0.405
      -0.299
      -0.168
      -0.052
       0.008
       0.003
      -0.026
      -0.023
       0.043
       0.147
       0.238
       0.278
       0.265
       0.231
       0.208
       0.209
       0.223
       0.219
       0.171
       0.077
      -0.025
      -0.088
      -0.091
      -0.069
      -0.078
      -0.145
      -0.231
      -0.259
      -0.192
      -0.077
      -0.009
      -0.032
      -0.090
      -0.086
       0.001
       0.092
       0.088
      -0.024
      -0.165
      -0.256
      -0.294
      -0.326
      -0.364
      -0.351
      -0.239
      -0.070
       0.037
      -0.001
      -0.136
      -0.234
      -0.200
      -0.064
       0.065
       0.131
       0.180
       0.292
       0.474
       0.636
       0.691
       0.645
       0.591
       0.598
       0.645
       0.654
       0.594
       0.503
       0.428
       0.357
       0.237
       0.050
      -0.150
      -0.299
      -0.392
      -0.491
      -0.640
      -0.806
      -0.911
      -0.915
      -0.861
      -0.811
      -0.783
      -0.741
      -0.661
      -0.570
      -0.509
      -0.469
      -0.390
      -0.237
      -0.050
       0.079
       0.089
       0.015
      -0.044
      -0.018
       0.094
       0.240
       0.387
       0.534
       0.678
       0.788
       0.823
       0.790
       0.749
       0.767
       0.849
       0.932
       0.949
       0.890
       0.805
       0.742
       0.694
       0.616
       0.485
       0.319
       0.152
      -0.012
      -0.188
      -0.375
      -0.542
      -0.665
      -0.759
      -0.864
      -0.994
      -1.117
      -1.187
      -1.196
      -1.172
      -1.136
      -1.076
      -0.969
      -0.829
      -0.714
      -0.665
      -0.654
      -0.606
      -0.463
      -0.246
      -0.026
       0.135
