Origin Time       21/3/2011 09:48:59  UTC
Lat.              36.5 N 
Long.             70.9 E 
Depth (Km)        166.0
Magnitude         5.7
 Region           Hindukush-Region-Afganistan                                      
 Above details taken from IMD 
    
Station Code      BAR
Station Lat.       30.809  N
Station Long.      78.205  E
Station Height(m) 1305.0
Site Class        A   Vs30 between 700 m/sec to 1400 m/sec * 
Record Time       21.03.2011 09:52:01.424 UTC
Sampling Rate     200. Hz
 Record Duration   80.015 Sec.
 Direction         N-S (N positive)
Max. Acceleration     -1.955 cm/sec**2
     
  * For reference see Site Classification link of website 
     
 Base Line Corrected and Low Pass Filtered (Cut Off at 35 Hz) Time History
 Acceleration data in cm/sec**2
    
[...]
      -0.046
      -0.057
      -0.058
      -0.052
      -0.047
      -0.051
      -0.070
      -0.099
      -0.128
      -0.148
      -0.156
      -0.160
      -0.163
      -0.166
      -0.170
      -0.174
      -0.181
      -0.188
      -0.190
      -0.180
      -0.159
      -0.137
      -0.121
      -0.111
      -0.097
      -0.070
      -0.031
       0.013
       0.051
       0.079
       0.102
       0.128
       0.163
       0.202
       0.239
       0.272
       0.299
       0.321
       0.337
       0.352
       0.367
       0.379
       0.381
       0.369
       0.345
       0.317
       0.296
       0.286
       0.282
       0.271
       0.242
       0.191
       0.127
       0.062
       0.009
      -0.029
      -0.057
      -0.085
      -0.118
      -0.154
      -0.182
      -0.202
      -0.219
      -0.237
      -0.251
      -0.249
      -0.233
      -0.217
      -0.211
      -0.214
      -0.211
      -0.193
      -0.160
      -0.120
      -0.084
      -0.060
      -0.050
      -0.048
      -0.043
      -0.030
      -0.010
       0.007
       0.019
       0.030
       0.047
       0.066
       0.081
       0.089
       0.094
       0.100
       0.103
       0.097
       0.084
       0.069
       0.051
       0.030
       0.004
      -0.026
      -0.053
      -0.078
      -0.104
      -0.134
      -0.169
      -0.205
      -0.236
      -0.260
      -0.274
      -0.278
      -0.278
      -0.280
      -0.287
      -0.294
      -0.296
      -0.296
      -0.297
      -0.293
      -0.273
      -0.233
      -0.180
      -0.126
      -0.075
      -0.021
       0.039
       0.101
       0.158
       0.208
       0.253
       0.295
       0.337
       0.378
       0.417
       0.454
       0.486
       0.514
       0.534
       0.542
       0.541
       0.537
       0.535
       0.538
       0.537
       0.516
       0.471
       0.411
       0.355
       0.310
       0.268
       0.215
       0.149
       0.076
       0.008
      -0.055
      -0.111
      -0.159
      -0.195
      -0.218
      -0.240
      -0.270
      -0.309
      -0.348
      -0.373
      -0.379
      -0.369
      -0.353
      -0.344
      -0.347
      -0.362
      -0.379
      -0.387
      -0.381
      -0.368
      -0.356
      -0.344
      -0.329
      -0.312
      -0.294
      -0.275
      -0.249
      -0.219
      -0.191
      -0.168
      -0.147
      -0.118
      -0.078
      -0.031
       0.020
       0.075
       0.136
       0.200
       0.261
       0.316
       0.364
       0.408
       0.450
       0.485
       0.513
       0.535
       0.549
       0.553
       0.545
       0.528
       0.502
       0.467
       0.421
       0.366
       0.308
       0.254
       0.206
       0.157
       0.105
       0.052
       0.006
      -0.032
      -0.066
      -0.097
      -0.125
      -0.148
      -0.172
      -0.197
      -0.219
      -0.231
      -0.231
      -0.227
      -0.227
      -0.231
      -0.231
      -0.221
      -0.199
      -0.166
      -0.128
      -0.092
      -0.063
      -0.038
      -0.010
       0.023
       0.056
       0.085
       0.110
       0.132
       0.148
       0.158
       0.162
       0.168
       0.176
       0.186
       0.188
       0.178
       0.160
       0.141
       0.122
       0.099
       0.072
       0.040
       0.006
      -0.031
      -0.074
      -0.125
      -0.182
      -0.245
      -0.308
      -0.370
      -0.427
      -0.476
      -0.517
      -0.549
      -0.570
      -0.579
      -0.577
      -0.568
      -0.556
      -0.541
      -0.515
      -0.471
      -0.412
      -0.346
      -0.276
      -0.200
      -0.117
      -0.028
       0.061
       0.151
       0.245
       0.343
       0.439
       0.527
       0.600
       0.655
       0.693
       0.719
       0.740
       0.755
       0.761
       0.751
       0.728
       0.697
       0.664
       0.627
       0.580
       0.522
       0.458
       0.393
       0.327
       0.260
       0.195
       0.137
       0.078
       0.010
      -0.069
      -0.151
      -0.226
      -0.293
      -0.359
      -0.427
      -0.488
      -0.538
      -0.581
      -0.622
      -0.661
      -0.692
      -0.711
      -0.720
      -0.720
      -0.717
      -0.712
      -0.708
      -0.701
      -0.683
      -0.645
      -0.587
      -0.519
      -0.455
      -0.403
      -0.362
      -0.325
      -0.282
      -0.227
      -0.161
      -0.092
      -0.032
       0.017
       0.063
       0.116
       0.179
       0.242
       0.295
       0.335
       0.368
       0.403
       0.445
       0.489
       0.530
       0.561
       0.581
       0.593
       0.602
       0.608
       0.610
       0.603
       0.584
       0.560
       0.539
       0.525
       0.513
       0.493
       0.457
       0.410
       0.360
       0.311
       0.266
       0.222
       0.176
       0.128
       0.076
       0.026
      -0.019
      -0.058
      -0.090
      -0.115
      -0.136
      -0.158
      -0.189
      -0.229
      -0.270
      -0.297
      -0.303
      -0.296
      -0.291
      -0.295
      -0.299
      -0.295
      -0.284
      -0.275
      -0.272
      -0.275
      -0.281
      -0.288
      -0.290
      -0.282
      -0.266
      -0.249
      -0.242
      -0.244
      -0.249
      -0.249
      -0.244
      -0.241
      -0.240
      -0.237
      -0.227
      -0.210
      -0.190
      -0.167
      -0.139
      -0.107
      -0.077
      -0.057
      -0.045
      -0.034
      -0.015
       0.013
       0.042
       0.063
       0.071
       0.070
       0.067
       0.067
       0.065
       0.054
       0.031
       0.003
      -0.021
      -0.034
      -0.035
      -0.027
      -0.016
      -0.010
      -0.013
      -0.024
      -0.036
      -0.038
      -0.025
      -0.003
       0.020
       0.039
       0.060
       0.087
       0.116
       0.140
       0.156
       0.167
       0.177
       0.187
       0.192
       0.197
       0.207
       0.222
       0.237
       0.243
       0.239
       0.225
       0.207
       0.188
       0.170
       0.152
       0.130
       0.099
       0.062
       0.027
       0.001
      -0.014
      -0.026
      -0.042
      -0.066
      -0.098
      -0.141
      -0.188
      -0.233
      -0.271
      -0.303
      -0.338
      -0.379
      -0.422
      -0.459
      -0.482
      -0.492
      -0.490
      -0.482
      -0.470
      -0.459
      -0.449
      -0.434
      -0.403
      -0.352
      -0.284
      -0.210
      -0.140
      -0.079
      -0.030
       0.008
       0.038
       0.073
       0.119
       0.172
       0.221
       0.263
       0.302
       0.342
       0.380
       0.409
       0.426
       0.436
       0.443
       0.451
       0.459
       0.470
       0.481
       0.491
       0.494
       0.489
       0.481
       0.476
       0.472
       0.466
       0.455
       0.443
       0.435
       0.429
       0.422
       0.413
       0.407
       0.405
       0.399
       0.381
       0.347
       0.299
       0.244
       0.187
       0.134
       0.089
       0.046
       0.000
      -0.051
      -0.107
      -0.164
      -0.221
      -0.273
      -0.316
      -0.350
      -0.379
      -0.413
      -0.451
      -0.489
      -0.523
      -0.552
      -0.582
      -0.609
      -0.632
      -0.649
      -0.665
      -0.683
      -0.700
      -0.714
      -0.723
      -0.731
      -0.735
      -0.731
      -0.717
      -0.695
      -0.673
      -0.647
      -0.611
      -0.555
      -0.478
      -0.386
      -0.289
      -0.195
      -0.107
      -0.025
       0.051
       0.119
       0.181
       0.242
       0.305
       0.369
       0.433
       0.488
       0.528
       0.553
       0.569
       0.588
       0.614
       0.639
       0.652
       0.648
       0.634
       0.622
       0.619
       0.625
       0.634
       0.642
       0.641
       0.628
       0.606
       0.585
       0.570
       0.556
       0.534
       0.501
       0.465
       0.433
       0.401
       0.364
       0.320
       0.269
       0.214
       0.157
       0.102
       0.055
       0.015
      -0.024
      -0.063
      -0.101
      -0.133
      -0.155
      -0.173
      -0.191
      -0.213
      -0.241
      -0.274
      -0.308
      -0.335
      -0.351
      -0.360
      -0.370
      -0.387
      -0.404
      -0.410
      -0.404
      -0.392
      -0.385
      -0.385
      -0.382
      -0.365
      -0.333
      -0.289
      -0.239
      -0.190
      -0.144
      -0.104
      -0.067
      -0.026
       0.023
       0.076
       0.125
       0.161
       0.184
       0.199
       0.212
       0.225
       0.236
       0.237
       0.220
       0.189
       0.157
       0.141
       0.138
       0.133
       0.108
       0.064
       0.017
      -0.015
      -0.026
      -0.025
      -0.023
      -0.031
      -0.049
      -0.068
      -0.081
      -0.086
      -0.088
      -0.091
      -0.097
      -0.106
      -0.119
      -0.144
      -0.185
      -0.232
      -0.271
      -0.288
      -0.290
      -0.290
      -0.299
      -0.309
      -0.311
      -0.299
      -0.275
      -0.244
      -0.207
      -0.168
      -0.130
      -0.092
      -0.054
      -0.014
       0.026
       0.067
       0.108
       0.151
       0.196
       0.241
       0.281
       0.317
       0.352
       0.389
       0.425
       0.456
       0.482
       0.502
       0.516
       0.521
       0.515
       0.502
       0.488
       0.473
       0.455
       0.430
       0.395
       0.351
       0.304
       0.260
       0.222
       0.189
       0.157
       0.126
       0.101
       0.086
       0.080
       0.076
       0.072
       0.073
       0.090
       0.128
       0.178
       0.232
       0.284
       0.337
       0.389
       0.432
       0.464
       0.489
       0.512
       0.525
       0.518
       0.484
       0.434
       0.379
       0.326
       0.272
       0.209
       0.131
       0.037
      -0.072
      -0.190
      -0.306
      -0.412
      -0.505
      -0.588
      -0.669
      -0.749
      -0.827
      -0.897
      -0.956
      -1.000
      -1.028
      -1.044
      -1.054
      -1.062
      -1.060
      -1.042
      -1.009
      -0.968
      -0.921
      -0.867
      -0.809
      -0.752
      -0.698
      -0.639
      -0.568
      -0.484
      -0.395
      -0.305
      -0.218
      -0.131
      -0.046
       0.036
       0.115
       0.194
       0.277
       0.359
       0.436
       0.500
       0.550
       0.584
       0.603
       0.605
       0.590
       0.560
       0.514
       0.455
       0.388
       0.321
       0.258
       0.193
       0.123
       0.051
      -0.017
      -0.078
      -0.132
      -0.177
      -0.211
      -0.228
      -0.229
      -0.217
      -0.197
      -0.170
      -0.140
      -0.109
      -0.081
      -0.051
      -0.012
       0.039
       0.098
       0.156
       0.213
       0.275
       0.345
       0.424
       0.507
       0.589
       0.664
       0.727
       0.778
       0.822
       0.866
       0.913
       0.962
       1.005
       1.034
       1.044
       1.035
       1.011
       0.976
       0.935
       0.890
       0.836
       0.766
       0.679
       0.581
       0.477
       0.367
       0.245
       0.114
      -0.020
      -0.146
      -0.265
      -0.381
      -0.500
      -0.622
      -0.746
      -0.867
      -0.982
      -1.085
      -1.175
      -1.250
      -1.311
      -1.358
      -1.388
      -1.404
      -1.411
      -1.411
      -1.397
      -1.364
      -1.309
      -1.240
      -1.159
      -1.064
      -0.950
      -0.817
      -0.671
      -0.519
      -0.368
      -0.222
      -0.083
       0.049
       0.174
       0.286
       0.383
       0.468
       0.548
       0.626
       0.696
       0.748
       0.778
       0.796
       0.812
       0.829
       0.840
       0.836
       0.811
       0.767
       0.709
       0.644
       0.579
       0.518
       0.457
       0.384
       0.290
       0.181
       0.071
      -0.028
      -0.111
      -0.182
      -0.242
      -0.296
      -0.345
      -0.392
      -0.434
      -0.465
      -0.479
      -0.481
      -0.478
      -0.476
      -0.468
      -0.450
      -0.420
      -0.381
      -0.336
      -0.283
      -0.226
      -0.169
      -0.111
      -0.042
       0.048
       0.156
       0.273
       0.388
       0.497
       0.597
       0.682
       0.747
       0.794
       0.829
       0.858
       0.880
       0.891
       0.887
       0.866
       0.830
       0.783
       0.725
       0.652
       0.563
       0.456
       0.334
       0.204
       0.072
      -0.063
      -0.201
      -0.342
      -0.475
      -0.591
      -0.693
      -0.793
      -0.897
      -0.996
      -1.075
      -1.128
      -1.160
      -1.177
      -1.182
      -1.170
      -1.134
      -1.078
      -1.003
      -0.916
      -0.815
      -0.696
      -0.555
      -0.393
      -0.220
      -0.052
       0.101
       0.245
       0.392
       0.547
       0.701
       0.841
       0.962
       1.065
       1.152
       1.217
       1.259
       1.283
       1.300
       1.315
       1.324
       1.317
       1.284
       1.224
       1.149
       1.072
       1.000
       0.929
       0.848
       0.745
       0.620
       0.487
       0.355
       0.223
       0.077
      -0.089
      -0.270
      -0.455
      -0.640
      -0.829
      -1.019
      -1.199
      -1.359
      -1.497
      -1.616
      -1.723
      -1.816
      -1.891
      -1.939
      -1.955
      -1.936
      -1.889
      -1.820
      -1.736
      -1.635
      -1.512
      -1.366
      -1.199
      -1.015
      -0.816
      -0.607
      -0.397
      -0.196
      -0.003
       0.191
       0.390
       0.583
       0.757
       0.905
       1.037
       1.158
       1.268
       1.365
       1.446
       1.510
       1.552
       1.563
       1.543
       1.499
       1.443
       1.386
       1.326
       1.260
       1.181
       1.084
       0.970
       0.843
       0.713
       0.579
       0.439
       0.284
       0.119
      -0.046
      -0.206
      -0.362
      -0.516
      -0.661
      -0.791
      -0.905
      -1.008
      -1.098
      -1.170
      -1.217
      -1.241
      -1.239
      -1.207
      -1.139
      -1.035
      -0.903
      -0.752
      -0.589
      -0.414
      -0.226
      -0.028
       0.174
       0.374
       0.566
       0.747
       0.912
       1.059
       1.185
       1.287
       1.358
       1.397
       1.411
       1.408
       1.389
       1.346
       1.273
       1.174
       1.063
       0.949
       0.832
       0.704
       0.565
       0.422
       0.280
       0.142
       0.003
      -0.137
      -0.274
      -0.408
      -0.535
      -0.655
      -0.764
      -0.860
      -0.945
      -1.020
      -1.087
      -1.148
      -1.208
      -1.269
      -1.324
      -1.362
      -1.378
      -1.377
      -1.368
      -1.353
      -1.324
      -1.277
      -1.216
      -1.148
      -1.075
      -0.992
      -0.899
      -0.802
      -0.706
      -0.611
      -0.514
      -0.414
      -0.312
      -0.206
      -0.100
       0.001
       0.092
       0.178
       0.271
       0.373
       0.471
       0.548
       0.602
       0.644
       0.687
       0.730
       0.764
       0.780
       0.778
       0.766
       0.752
       0.738
       0.725
       0.713
       0.700
       0.689
       0.679
       0.672
       0.668
       0.666
       0.659
       0.644
       0.620
       0.589
       0.550
       0.504
       0.454
       0.407
       0.361
       0.303
       0.224
       0.123
       0.015
      -0.089
      -0.185
      -0.272
      -0.346
      -0.404
      -0.444
      -0.475
      -0.505
      -0.533
      -0.550
      -0.544
      -0.511
      -0.458
      -0.398
      -0.342
      -0.291
      -0.234
      -0.160
      -0.072
       0.018
       0.094
       0.154
       0.203
       0.244
       0.277
       0.309
       0.346
       0.385
       0.418
       0.434
       0.432
       0.418
       0.398
       0.375
       0.348
       0.315
       0.279
       0.240
       0.204
       0.174
       0.154
       0.140
       0.125
       0.100
       0.063
       0.018
      -0.031
      -0.081
      -0.135
      -0.194
      -0.255
      -0.321
      -0.393
      -0.469
      -0.539
      -0.597
      -0.643
      -0.682
      -0.719
      -0.750
      -0.772
      -0.779
      -0.771
      -0.745
      -0.698
      -0.633
      -0.559
      -0.488
      -0.424
      -0.364
      -0.299
      -0.226
      -0.145
      -0.061
       0.018
       0.087
       0.141
       0.184
       0.219
       0.243
       0.250
       0.239
       0.223
       0.213
       0.210
       0.210
       0.212
       0.219
       0.229
       0.233
       0.223
       0.196
       0.157
       0.113
       0.067
       0.018
      -0.033
      -0.084
      -0.135
      -0.188
      -0.240
      -0.293
      -0.346
      -0.400
      -0.449
      -0.483
      -0.493
      -0.479
      -0.448
      -0.401
      -0.331
      -0.231
      -0.104
       0.040
       0.193
       0.352
       0.513
       0.672
       0.822
       0.958
       1.083
       1.201
       1.311
       1.401
       1.464
       1.497
       1.503
       1.488
       1.453
       1.398
       1.322
       1.224
       1.107
       0.980
       0.856
       0.735
       0.611
       0.481
       0.351
       0.227
       0.109
      -0.012
      -0.138
      -0.261
      -0.372
      -0.470
      -0.563
      -0.655
      -0.742
      -0.819
      -0.888
      -0.951
      -1.009
      -1.060
      -1.102
      -1.139
      -1.169
      -1.183
      -1.171
      -1.130
      -1.063
      -0.978
      -0.886
      -0.795
      -0.712
      -0.632
      -0.543
      -0.443
      -0.340
      -0.250
      -0.183
      -0.145
      -0.131
      -0.132
      -0.134
      -0.126
      -0.107
      -0.088
      -0.074
      -0.066
      -0.055
      -0.034
      -0.003
       0.036
       0.078
       0.122
       0.164
       0.201
       0.231
       0.256
       0.286
       0.318
       0.349
       0.373
       0.395
       0.422
       0.456
       0.489
       0.513
       0.527
       0.535
       0.543
       0.554
       0.570
       0.588
       0.605
       0.616
       0.615
       0.597
       0.564
       0.518
       0.463
       0.406
       0.357
       0.320
       0.291
       0.264
       0.237
       0.208
       0.178
       0.142
       0.102
       0.063
       0.033
       0.009
      -0.018
      -0.056
      -0.103
      -0.147
      -0.182
      -0.209
      -0.230
      -0.246
      -0.255
      -0.257
      -0.261
      -0.269
      -0.279
      -0.285
      -0.284
      -0.277
      -0.260
      -0.235
      -0.205
      -0.178
      -0.155
      -0.131
      -0.109
      -0.093
      -0.088
      -0.085
      -0.076
      -0.060
      -0.050
      -0.055
      -0.074
      -0.096
      -0.114
      -0.124
      -0.132
      -0.141
      -0.156
      -0.176
      -0.203
      -0.234
      -0.269
      -0.312
      -0.367
      -0.432
      -0.497
      -0.554
      -0.603
      -0.643
      -0.669
      -0.675
      -0.658
      -0.627
      -0.589
      -0.545
      -0.487
      -0.412
      -0.322
