Origin Time       24/09/2011 14:32:18
Lat.              30.9 N	
Long.             78.3 E	
Depth (Km)         10.0
Magnitude         3.0
 Region           Uttarkashi-Distt.                                                
 Above details taken from IMD 
     
Station Code      BAR
Station Lat.       30.809  N
Station Long.      78.205  E
Station Height(m) 1305.0
Site Class        A   Vs30 between 700 m/sec to 1400 m/sec * 
Record Time       24.09.2011 14:31:54.724
Sampling Rate     200. Hz
 Record Duration   80.010 Sec.
 Direction         E-W (E positive)
Max. Acceleration     -1.496 cm/sec**2
     
  * For reference see Site Classification link of website 
     
 Base Line Corrected and Low Pass Filtered (Cut Off at 35 Hz) Time History
 Acceleration data in cm/sec**2
    
[...]
      -0.014
      -0.006
       0.001
       0.002
       0.001
      -0.001
       0.000
       0.001
       0.001
      -0.001
      -0.003
      -0.003
       0.001
       0.005
       0.005
       0.002
       0.001
       0.003
       0.009
       0.013
       0.012
       0.006
      -0.001
      -0.004
      -0.003
      -0.001
      -0.003
      -0.010
      -0.015
      -0.013
      -0.002
       0.010
       0.016
       0.011
       0.000
      -0.012
      -0.017
      -0.016
      -0.008
       0.001
       0.007
       0.007
       0.003
       0.001
       0.005
       0.014
       0.022
       0.023
       0.015
       0.004
      -0.002
       0.002
       0.011
       0.017
       0.017
       0.011
       0.006
       0.004
       0.004
       0.002
      -0.003
      -0.008
      -0.011
      -0.011
      -0.009
      -0.006
      -0.004
      -0.002
       0.000
       0.002
       0.005
       0.008
       0.009
       0.006
       0.000
      -0.004
      -0.005
      -0.002
       0.000
       0.002
       0.003
       0.005
       0.006
       0.006
       0.004
       0.002
       0.001
       0.001
       0.003
       0.006
       0.011
       0.015
       0.016
       0.011
       0.005
      -0.001
      -0.003
      -0.002
       0.002
       0.008
       0.013
       0.013
       0.007
      -0.002
      -0.007
      -0.007
      -0.005
      -0.006
      -0.011
      -0.014
      -0.012
      -0.007
      -0.003
      -0.002
      -0.005
      -0.007
      -0.005
       0.000
       0.005
       0.005
       0.003
       0.001
       0.002
       0.005
       0.007
       0.006
       0.002
      -0.001
       0.001
       0.007
       0.014
       0.016
       0.015
       0.010
       0.006
       0.004
       0.006
       0.009
       0.011
       0.010
       0.005
      -0.001
      -0.004
      -0.004
      -0.002
       0.001
       0.005
       0.008
       0.010
       0.009
       0.006
       0.005
       0.006
       0.008
       0.010
       0.009
       0.005
      -0.001
      -0.006
      -0.006
      -0.001
       0.010
       0.018
       0.019
       0.012
       0.003
      -0.001
      -0.001
       0.001
       0.002
       0.000
       0.000
       0.004
       0.013
       0.020
       0.021
       0.015
       0.007
       0.002
       0.002
       0.004
       0.005
       0.001
      -0.004
      -0.006
      -0.003
       0.003
       0.010
       0.013
       0.010
       0.005
       0.000
       0.000
       0.004
       0.010
       0.013
       0.012
       0.007
       0.003
       0.003
       0.007
       0.012
       0.015
       0.015
       0.012
       0.008
       0.003
      -0.003
      -0.007
      -0.009
      -0.008
      -0.004
       0.000
       0.003
       0.006
       0.007
       0.006
       0.004
       0.003
       0.004
       0.004
       0.004
       0.001
      -0.002
      -0.004
      -0.003
       0.000
       0.002
       0.000
      -0.006
      -0.010
      -0.008
       0.000
       0.009
       0.013
       0.012
       0.007
       0.004
       0.006
       0.012
       0.016
       0.016
       0.012
       0.010
       0.012
       0.016
       0.019
       0.016
       0.012
       0.008
       0.006
       0.007
       0.010
       0.014
       0.017
       0.016
       0.013
       0.011
       0.011
       0.013
       0.012
       0.009
       0.003
      -0.002
      -0.003
      -0.002
       0.000
       0.001
      -0.002
      -0.005
      -0.005
       0.000
       0.006
       0.012
       0.012
       0.008
       0.002
       0.000
       0.003
       0.011
       0.016
       0.016
       0.011
       0.005
       0.000
      -0.001
      -0.001
       0.001
       0.002
       0.005
       0.008
       0.010
       0.009
       0.003
      -0.003
      -0.006
      -0.005
       0.000
       0.005
       0.007
       0.006
       0.002
      -0.003
      -0.004
      -0.002
       0.002
       0.004
       0.001
      -0.005
      -0.010
      -0.010
      -0.005
       0.001
       0.002
      -0.001
      -0.001
       0.006
       0.019
       0.028
       0.027
       0.014
      -0.001
      -0.008
      -0.006
       0.001
       0.003
      -0.002
      -0.010
      -0.013
      -0.009
      -0.003
       0.000
      -0.003
      -0.011
      -0.018
      -0.021
      -0.018
      -0.010
       0.000
       0.007
       0.006
      -0.001
      -0.010
      -0.016
      -0.017
      -0.014
      -0.010
      -0.005
      -0.001
       0.004
       0.007
       0.005
      -0.001
      -0.008
      -0.011
      -0.007
       0.000
       0.004
       0.003
      -0.001
      -0.004
      -0.003
       0.001
       0.003
       0.002
      -0.003
      -0.009
      -0.012
      -0.009
      -0.001
       0.006
       0.008
       0.008
       0.007
       0.010
       0.013
       0.013
       0.008
       0.001
      -0.004
      -0.003
       0.003
       0.009
       0.009
       0.003
      -0.005
      -0.007
      -0.004
       0.002
       0.006
       0.006
       0.005
       0.005
       0.006
       0.007
       0.007
       0.004
      -0.001
      -0.007
      -0.011
      -0.011
      -0.011
      -0.013
      -0.016
      -0.019
      -0.019
      -0.016
      -0.013
      -0.010
      -0.006
      -0.001
       0.004
       0.006
       0.004
      -0.002
      -0.008
      -0.010
      -0.009
      -0.009
      -0.011
      -0.014
      -0.015
      -0.010
      -0.003
       0.002
       0.003
       0.001
       0.001
       0.003
       0.008
       0.010
       0.007
       0.000
      -0.006
      -0.008
      -0.003
       0.005
       0.012
       0.015
       0.013
       0.007
       0.001
      -0.002
      -0.001
       0.003
       0.005
       0.003
      -0.003
      -0.010
      -0.013
      -0.010
      -0.003
       0.004
       0.009
       0.010
       0.008
       0.006
       0.005
       0.007
       0.010
       0.011
       0.010
       0.009
       0.008
       0.007
       0.004
       0.001
      -0.003
      -0.003
       0.001
       0.006
       0.009
       0.006
       0.000
      -0.006
      -0.007
      -0.003
       0.001
       0.003
       0.001
      -0.003
      -0.006
      -0.007
      -0.005
       0.001
       0.009
       0.015
       0.016
       0.011
       0.003
      -0.005
      -0.007
      -0.006
      -0.003
       0.000
       0.002
       0.001
      -0.002
      -0.005
      -0.006
      -0.004
       0.000
       0.002
      -0.002
      -0.009
      -0.016
      -0.019
      -0.020
      -0.018
      -0.016
      -0.014
      -0.013
      -0.012
      -0.012
      -0.009
      -0.005
       0.000
       0.003
       0.001
      -0.003
      -0.008
      -0.009
      -0.007
      -0.005
      -0.006
      -0.010
      -0.012
      -0.010
      -0.006
      -0.002
      -0.002
      -0.004
      -0.009
      -0.012
      -0.013
      -0.011
      -0.007
      -0.003
      -0.001
      -0.002
      -0.004
      -0.005
      -0.006
      -0.007
      -0.010
      -0.013
      -0.013
      -0.011
      -0.009
      -0.009
      -0.010
      -0.011
      -0.010
      -0.009
      -0.007
      -0.006
      -0.002
       0.002
       0.004
       0.004
       0.000
      -0.004
      -0.007
      -0.008
      -0.006
      -0.001
       0.004
       0.005
       0.003
       0.000
       0.000
       0.005
       0.010
       0.010
       0.005
      -0.004
      -0.014
      -0.024
      -0.034
      -0.041
      -0.041
      -0.030
      -0.013
      -0.001
      -0.004
      -0.023
      -0.047
      -0.064
      -0.067
      -0.058
      -0.046
      -0.035
      -0.025
      -0.020
      -0.024
      -0.034
      -0.036
      -0.013
       0.039
       0.099
       0.136
       0.128
       0.079
       0.024
       0.004
       0.045
       0.129
       0.198
       0.191
       0.097
      -0.021
      -0.072
      -0.013
       0.108
       0.188
       0.156
       0.027
      -0.109
      -0.157
      -0.096
       0.006
       0.050
      -0.008
      -0.118
      -0.190
      -0.164
      -0.065
       0.031
       0.065
       0.033
      -0.019
      -0.044
      -0.028
       0.013
       0.046
       0.052
       0.037
       0.017
       0.002
      -0.020
      -0.058
      -0.102
      -0.128
      -0.127
      -0.116
      -0.126
      -0.169
      -0.220
      -0.236
      -0.194
      -0.114
      -0.033
       0.024
       0.062
       0.102
       0.150
       0.180
       0.143
       0.020
      -0.143
      -0.247
      -0.212
      -0.042
       0.164
       0.278
       0.235
       0.076
      -0.078
      -0.113
      -0.001
       0.180
       0.300
       0.270
       0.112
      -0.056
      -0.107
      -0.010
       0.153
       0.259
       0.250
       0.167
       0.098
       0.102
       0.162
       0.216
       0.203
       0.104
      -0.064
      -0.248
      -0.376
      -0.387
      -0.275
      -0.117
      -0.029
      -0.083
      -0.244
      -0.396
      -0.447
      -0.398
      -0.334
      -0.324
      -0.351
      -0.344
      -0.261
      -0.131
      -0.007
       0.091
       0.178
       0.251
       0.269
       0.202
       0.091
       0.037
       0.097
       0.221
       0.292
       0.249
       0.158
       0.134
       0.216
       0.315
       0.311
       0.181
       0.025
      -0.032
       0.033
       0.127
       0.149
       0.084
      -0.006
      -0.069
      -0.110
      -0.153
      -0.191
      -0.194
      -0.150
      -0.079
      -0.009
       0.058
       0.129
       0.191
       0.198
       0.119
      -0.008
      -0.101
      -0.109
      -0.066
      -0.044
      -0.078
      -0.143
      -0.192
      -0.204
      -0.185
      -0.142
      -0.078
      -0.002
       0.061
       0.092
       0.091
       0.077
       0.061
       0.035
      -0.017
      -0.081
      -0.120
      -0.110
      -0.074
      -0.062
      -0.094
      -0.132
      -0.121
      -0.050
       0.036
       0.081
       0.072
       0.027
      -0.030
      -0.080
      -0.099
      -0.057
       0.048
       0.169
       0.250
       0.282
       0.310
       0.359
       0.377
       0.278
       0.056
      -0.159
      -0.205
      -0.052
       0.146
       0.194
       0.051
      -0.123
      -0.139
       0.019
       0.189
       0.196
       0.029
      -0.165
      -0.225
      -0.111
       0.084
       0.217
       0.197
       0.019
      -0.246
      -0.479
      -0.561
      -0.447
      -0.201
       0.046
       0.188
       0.207
       0.158
       0.111
       0.113
       0.173
       0.254
       0.285
       0.204
       0.009
      -0.212
      -0.338
      -0.309
      -0.181
      -0.070
      -0.049
      -0.087
      -0.102
      -0.057
       0.007
       0.032
       0.001
      -0.051
      -0.083
      -0.086
      -0.072
      -0.059
      -0.054
      -0.050
      -0.035
      -0.012
       0.008
       0.011
      -0.010
      -0.038
      -0.043
      -0.006
       0.059
       0.112
       0.119
       0.074
      -0.006
      -0.100
      -0.177
      -0.195
      -0.129
      -0.017
       0.039
      -0.059
      -0.289
      -0.480
      -0.444
      -0.146
       0.245
       0.497
       0.520
       0.423
       0.379
       0.445
       0.527
       0.503
       0.353
       0.173
       0.061
       0.024
      -0.007
      -0.088
      -0.208
      -0.311
      -0.352
      -0.314
      -0.198
      -0.028
       0.124
       0.166
       0.058
      -0.127
      -0.232
      -0.146
       0.099
       0.324
       0.343
       0.114
      -0.214
      -0.427
      -0.422
      -0.279
      -0.160
      -0.155
      -0.214
      -0.223
      -0.130
       0.008
       0.089
       0.058
      -0.063
      -0.210
      -0.323
      -0.351
      -0.280
      -0.148
      -0.038
      -0.016
      -0.062
      -0.081
       0.011
       0.199
       0.369
       0.408
       0.318
       0.211
       0.185
       0.207
       0.151
      -0.049
      -0.291
      -0.376
      -0.193
       0.170
       0.494
       0.605
       0.485
       0.245
       0.025
      -0.094
      -0.101
      -0.039
       0.025
       0.033
      -0.016
      -0.060
      -0.017
       0.126
       0.271
       0.273
       0.066
      -0.266
      -0.549
      -0.658
      -0.595
      -0.448
      -0.299
      -0.203
      -0.197
      -0.290
      -0.419
      -0.455
      -0.310
      -0.036
       0.198
       0.260
       0.161
       0.036
       0.007
       0.084
       0.192
       0.270
       0.309
       0.316
       0.266
       0.138
      -0.015
      -0.084
      -0.011
       0.136
       0.215
       0.155
       0.024
      -0.060
      -0.051
      -0.018
      -0.044
      -0.127
      -0.185
      -0.172
      -0.139
      -0.175
      -0.285
      -0.370
      -0.320
      -0.127
       0.124
       0.338
       0.471
       0.532
       0.543
       0.523
       0.502
       0.524
       0.615
       0.743
       0.842
       0.864
       0.813
       0.727
       0.633
       0.527
       0.409
       0.296
       0.211
       0.141
       0.023
      -0.199
      -0.506
      -0.788
      -0.931
      -0.907
      -0.794
      -0.699
      -0.675
      -0.686
      -0.669
      -0.615
      -0.586
      -0.658
      -0.845
      -1.089
      -1.306
      -1.448
      -1.496
      -1.434
      -1.232
      -0.878
      -0.421
       0.028
       0.352
       0.475
       0.402
       0.210
       0.015
      -0.077
      -0.011
       0.203
       0.506
       0.815
       1.057
       1.183
       1.187
       1.114
       1.047
       1.054
       1.131
       1.178
       1.071
       0.767
       0.367
       0.045
      -0.102
      -0.130
      -0.182
      -0.318
      -0.441
      -0.408
      -0.216
      -0.055
      -0.141
      -0.498
      -0.897
      -1.048
      -0.846
      -0.453
      -0.155
      -0.122
      -0.309
      -0.533
      -0.625
      -0.539
      -0.347
      -0.176
      -0.102
      -0.081
       0.020
       0.309
       0.750
       1.172
       1.409
       1.430
       1.332
       1.215
       1.073
       0.828
       0.438
      -0.014
      -0.363
      -0.488
      -0.411
      -0.295
      -0.323
      -0.543
      -0.806
      -0.877
      -0.651
      -0.282
      -0.082
      -0.260
      -0.729
      -1.158
      -1.232
      -0.896
      -0.394
      -0.059
      -0.040
      -0.198
      -0.246
      -0.016
       0.382
       0.649
       0.573
       0.220
      -0.104
      -0.126
       0.149
       0.444
       0.459
       0.148
      -0.247
      -0.425
      -0.295
      -0.021
       0.166
       0.201
       0.210
       0.330
       0.528
       0.626
       0.496
       0.222
       0.028
       0.043
       0.156
       0.133
      -0.144
      -0.537
      -0.784
      -0.732
      -0.457
      -0.148
       0.086
       0.281
       0.508
       0.729
       0.803
       0.633
       0.303
       0.039
       0.034
       0.284
       0.586
       0.704
       0.558
       0.274
       0.066
       0.054
       0.197
       0.368
       0.474
       0.498
       0.460
       0.359
       0.174
      -0.099
      -0.403
      -0.626
      -0.676
      -0.568
      -0.444
      -0.470
      -0.702
      -1.029
      -1.254
      -1.244
      -1.019
      -0.719
      -0.495
      -0.424
      -0.495
      -0.644
      -0.791
      -0.864
      -0.813
      -0.619
      -0.308
       0.051
       0.369
       0.579
       0.669
       0.702
       0.775
       0.939
       1.144
       1.258
       1.170
       0.899
       0.596
       0.434
       0.464
       0.586
       0.640
       0.550
       0.356
       0.147
      -0.041
      -0.239
      -0.484
      -0.744
      -0.941
      -1.012
      -0.960
      -0.830
      -0.665
      -0.501
      -0.379
      -0.331
      -0.337
      -0.305
      -0.137
       0.180
       0.544
       0.815
       0.936
       0.971
       1.020
       1.101
       1.118
       0.963
       0.649
       0.319
       0.131
       0.106
       0.117
       0.020
      -0.212
      -0.469
      -0.626
      -0.654
      -0.627
      -0.625
      -0.651
      -0.644
      -0.566
      -0.452
      -0.388
      -0.427
      -0.544
      -0.666
      -0.722
      -0.687
      -0.578
      -0.432
      -0.289
      -0.177
      -0.099
      -0.019
       0.109
       0.279
       0.414
       0.415
       0.255
       0.025
      -0.119
      -0.065
       0.175
       0.487
       0.736
       0.854
       0.852
       0.775
       0.656
       0.504
       0.334
       0.174
       0.065
       0.029
       0.061
       0.122
       0.164
       0.161
       0.132
       0.132
       0.210
       0.346
       0.456
       0.455
       0.346
       0.238
       0.244
       0.365
       0.474
       0.434
       0.236
       0.020
      -0.050
       0.061
       0.213
       0.211
      -0.034
      -0.425
      -0.768
      -0.934
      -0.945
      -0.926
      -0.963
      -1.035
      -1.056
      -0.975
      -0.826
      -0.683
      -0.583
      -0.494
      -0.371
      -0.205
      -0.030
       0.120
       0.237
       0.324
       0.366
       0.340
       0.243
       0.107
      -0.030
      -0.162
      -0.311
      -0.478
      -0.609
      -0.634
      -0.530
      -0.353
      -0.193
      -0.095
      -0.028
       0.072
       0.230
       0.415
       0.582
       0.718
       0.828
       0.907
       0.929
       0.898
       0.870
       0.917
       1.041
       1.145
       1.109
       0.898
       0.603
       0.360
       0.234
       0.173
       0.081
      -0.078
      -0.246
      -0.349
      -0.388
      -0.444
      -0.597
      -0.831
      -1.036
      -1.104
      -1.021
      -0.863
      -0.713
      -0.592
      -0.471
      -0.334
      -0.217
      -0.167
      -0.184
      -0.204
      -0.163
      -0.049
       0.094
       0.227
       0.348
       0.470
       0.582
       0.647
       0.648
       0.603
       0.552
       0.507
       0.451
       0.364
       0.251
       0.141
       0.045
      -0.057
      -0.182
      -0.309
      -0.372
      -0.316
      -0.147
       0.055
       0.185
       0.177
       0.041
      -0.144
      -0.279
      -0.304
      -0.237
      -0.151
      -0.117
      -0.146
      -0.199
      -0.242
      -0.279
      -0.343
      -0.438
      -0.521
      -0.530
      -0.441
      -0.297
      -0.171
      -0.106
      -0.085
      -0.057
       0.021
       0.151
       0.293
       0.389
       0.401
       0.351
       0.320
       0.391
       0.570
       0.776
       0.904
       0.921
       0.871
       0.806
       0.725
       0.597
       0.429
       0.280
       0.210
       0.200
       0.161
       0.017
      -0.213
      -0.413
      -0.472
      -0.395
      -0.303
      -0.319
      -0.456
      -0.605
      -0.644
      -0.546
      -0.393
      -0.293
      -0.296
      -0.372
      -0.451
      -0.469
      -0.403
      -0.279
      -0.152
      -0.078
      -0.087
      -0.161
      -0.256
      -0.327
      -0.353
