Origin Time       03/5/2010 17:15:08	
Lat.              30.4 N	
Long.             78.4 E	
Depth (Km)          8.0
Magnitude         3.5
 Region           Uttarakhand                                                      
 Above details taken from IMD 
   
Station Code      BAR
Station Lat.       30.809
Station Long.      78.205
Station Height(m) 1305.0
Site Class        A   Vs30 between 700 m/sec to 1400 m/sec * 
Record Time       03.05.2010 17:15:20.894
Sampling Rate     200. Hz
 Record Duration   89.890 Sec.
 Direction         Vert. (Up positive)
Max. Acceleration      2.358 cm/sec**2
     
  * For reference see Site Classification link of website 
     
 Base Line Corrected and Low Pass Filtered (Cut Off at 35 Hz) Time History
 Acceleration data in cm/sec**2
    
[...]
       0.012
       0.010
       0.009
       0.008
       0.004
      -0.005
      -0.010
      -0.005
       0.002
       0.005
       0.006
       0.005
       0.004
       0.000
       0.001
       0.005
       0.006
       0.002
       0.000
       0.002
       0.002
      -0.004
      -0.010
      -0.010
      -0.007
      -0.004
       0.000
       0.005
       0.005
      -0.001
      -0.004
      -0.001
       0.002
       0.001
      -0.003
      -0.007
      -0.011
      -0.013
      -0.007
       0.007
       0.017
       0.017
       0.013
       0.012
       0.013
       0.012
       0.010
       0.009
       0.005
      -0.002
      -0.007
      -0.006
      -0.002
       0.000
       0.002
       0.003
      -0.001
      -0.010
      -0.014
      -0.009
       0.000
       0.005
       0.005
       0.004
       0.000
      -0.005
      -0.003
       0.005
       0.011
       0.008
       0.004
       0.003
       0.003
       0.001
       0.001
       0.004
       0.005
       0.004
       0.005
       0.012
       0.016
       0.015
       0.011
       0.010
       0.009
       0.007
       0.007
       0.013
       0.015
       0.011
       0.005
       0.002
       0.001
      -0.002
      -0.002
       0.002
       0.006
       0.005
       0.004
       0.005
       0.005
       0.004
       0.005
       0.008
       0.009
       0.006
       0.004
       0.006
       0.004
      -0.004
      -0.009
      -0.005
       0.002
       0.005
       0.007
       0.009
       0.010
       0.008
       0.008
       0.010
       0.011
       0.008
       0.004
       0.004
       0.001
      -0.004
      -0.006
       0.000
       0.007
       0.011
       0.012
       0.013
       0.009
      -0.001
      -0.008
      -0.007
      -0.003
      -0.002
       0.000
       0.005
       0.011
       0.013
       0.013
       0.013
       0.010
       0.003
      -0.001
       0.001
       0.001
      -0.002
      -0.004
      -0.002
       0.000
      -0.004
      -0.007
      -0.006
      -0.005
      -0.007
      -0.011
      -0.011
      -0.012
      -0.014
      -0.013
      -0.010
      -0.010
      -0.017
      -0.023
      -0.021
      -0.016
      -0.013
      -0.008
       0.001
       0.005
       0.001
      -0.006
      -0.007
      -0.004
      -0.004
      -0.005
      -0.005
      -0.008
      -0.013
      -0.015
      -0.011
      -0.008
      -0.009
      -0.009
      -0.004
       0.000
      -0.001
      -0.004
      -0.002
      -0.001
      -0.001
      -0.002
      -0.001
       0.000
      -0.002
      -0.002
       0.001
       0.003
       0.000
      -0.003
       0.000
       0.003
       0.000
      -0.005
      -0.009
      -0.014
      -0.019
      -0.018
      -0.009
      -0.002
      -0.004
      -0.009
      -0.012
      -0.012
      -0.012
      -0.011
      -0.008
      -0.008
      -0.014
      -0.018
      -0.015
      -0.010
      -0.009
      -0.009
      -0.006
      -0.004
      -0.005
      -0.006
      -0.006
      -0.007
      -0.011
      -0.011
      -0.004
       0.000
      -0.004
      -0.010
      -0.008
      -0.001
       0.006
       0.010
       0.012
       0.009
       0.001
      -0.004
       0.000
       0.006
       0.009
       0.009
       0.010
       0.010
       0.006
       0.003
       0.006
       0.010
       0.010
       0.008
       0.006
       0.003
      -0.003
      -0.006
      -0.001
       0.004
       0.004
       0.004
       0.009
       0.013
       0.010
       0.004
       0.001
       0.003
       0.004
       0.005
       0.006
       0.003
      -0.004
      -0.007
      -0.003
       0.001
       0.001
      -0.002
      -0.001
       0.002
       0.002
       0.003
       0.010
       0.018
       0.020
       0.019
       0.018
       0.014
       0.006
       0.000
       0.001
       0.007
       0.010
       0.010
       0.008
       0.003
      -0.003
      -0.005
       0.002
       0.008
       0.007
       0.003
       0.004
       0.008
       0.009
       0.008
       0.011
       0.012
       0.010
       0.007
       0.008
       0.008
       0.004
       0.000
       0.001
       0.002
       0.000
      -0.002
       0.002
       0.006
       0.005
       0.000
      -0.004
      -0.008
      -0.013
      -0.014
      -0.008
      -0.001
       0.001
       0.003
       0.007
       0.011
       0.008
       0.006
       0.008
       0.014
       0.015
       0.013
       0.011
       0.007
       0.001
      -0.001
       0.002
       0.004
       0.000
      -0.004
      -0.003
       0.000
      -0.001
      -0.003
      -0.001
       0.001
      -0.003
      -0.008
      -0.009
      -0.005
      -0.002
       0.000
       0.000
      -0.001
      -0.003
       0.000
       0.011
       0.019
       0.016
       0.008
       0.002
      -0.001
      -0.007
      -0.011
      -0.008
      -0.002
       0.001
       0.003
       0.006
       0.007
       0.003
       0.000
       0.000
       0.000
      -0.004
      -0.006
      -0.002
       0.002
       0.001
      -0.001
       0.001
       0.005
       0.004
       0.003
       0.005
       0.006
       0.001
      -0.007
      -0.010
      -0.009
      -0.009
      -0.007
      -0.002
       0.001
      -0.002
      -0.004
       0.001
       0.010
       0.014
       0.013
       0.009
       0.003
      -0.004
      -0.005
       0.003
       0.012
       0.013
       0.006
      -0.001
      -0.004
      -0.006
      -0.005
       0.001
       0.004
       0.000
      -0.008
      -0.012
      -0.014
      -0.016
      -0.014
      -0.007
       0.000
       0.000
      -0.005
      -0.007
      -0.008
      -0.008
      -0.007
      -0.002
       0.002
      -0.001
      -0.008
      -0.012
      -0.014
      -0.017
      -0.017
      -0.011
      -0.006
      -0.009
      -0.015
      -0.017
      -0.011
      -0.004
       0.003
       0.008
       0.006
      -0.004
      -0.013
      -0.013
      -0.006
      -0.003
      -0.002
      -0.001
       0.000
      -0.002
      -0.004
      -0.004
      -0.006
      -0.010
      -0.012
      -0.005
       0.001
       0.000
      -0.007
      -0.011
      -0.010
      -0.007
      -0.002
       0.006
       0.011
       0.007
      -0.001
      -0.005
      -0.007
      -0.010
      -0.012
      -0.008
       0.000
       0.003
       0.002
       0.002
       0.001
      -0.002
      -0.005
      -0.003
      -0.001
      -0.005
      -0.008
      -0.004
       0.002
       0.001
      -0.004
      -0.006
      -0.004
      -0.001
       0.001
       0.005
       0.007
       0.002
      -0.004
      -0.005
      -0.001
       0.000
       0.001
       0.004
       0.007
       0.005
       0.004
       0.008
       0.010
       0.005
      -0.003
      -0.007
      -0.005
      -0.003
       0.000
       0.004
       0.006
       0.002
      -0.002
       0.000
       0.003
       0.001
      -0.003
      -0.004
      -0.001
      -0.001
      -0.001
       0.003
       0.009
       0.011
       0.011
       0.011
       0.009
       0.001
      -0.007
      -0.007
      -0.002
       0.000
      -0.001
      -0.001
      -0.002
      -0.006
      -0.009
      -0.007
      -0.005
      -0.007
      -0.012
      -0.013
      -0.011
      -0.011
      -0.009
      -0.003
       0.004
       0.006
       0.005
       0.008
       0.010
       0.007
       0.000
      -0.005
      -0.007
      -0.007
      -0.005
       0.004
       0.011
       0.009
       0.004
       0.006
       0.011
       0.012
       0.006
       0.002
       0.002
       0.001
       0.002
       0.006
       0.009
       0.005
      -0.002
      -0.004
      -0.004
      -0.005
      -0.006
       0.000
       0.010
       0.015
       0.014
       0.010
       0.001
      -0.010
      -0.017
      -0.011
       0.001
       0.006
       0.002
      -0.002
      -0.005
      -0.008
      -0.009
      -0.004
       0.000
      -0.002
      -0.008
      -0.011
      -0.011
      -0.011
      -0.011
      -0.009
      -0.008
      -0.012
      -0.014
      -0.007
       0.002
       0.003
      -0.005
      -0.014
      -0.018
      -0.016
      -0.010
      -0.001
       0.001
      -0.006
      -0.011
      -0.006
       0.005
       0.008
       0.002
      -0.004
      -0.008
      -0.011
      -0.010
      -0.005
       0.001
       0.000
      -0.005
      -0.008
      -0.008
      -0.008
      -0.007
      -0.004
      -0.001
      -0.004
      -0.009
      -0.007
      -0.002
      -0.003
      -0.008
      -0.008
      -0.003
       0.000
       0.000
       0.000
      -0.001
      -0.005
      -0.009
      -0.008
      -0.004
      -0.002
      -0.002
       0.002
       0.008
       0.010
       0.009
       0.010
       0.010
       0.005
       0.000
       0.002
       0.007
       0.009
       0.007
       0.006
       0.006
       0.002
      -0.003
      -0.003
       0.002
       0.006
       0.005
       0.003
      -0.001
      -0.006
      -0.007
      -0.001
       0.006
       0.004
      -0.001
       0.001
       0.008
       0.010
       0.004
      -0.002
      -0.004
      -0.005
      -0.005
      -0.002
       0.000
      -0.004
      -0.007
      -0.005
       0.001
       0.002
       0.001
       0.002
       0.004
       0.003
       0.000
       0.002
       0.008
       0.011
       0.010
       0.012
       0.014
       0.011
       0.007
       0.005
       0.003
      -0.003
      -0.011
      -0.012
      -0.008
      -0.006
      -0.006
      -0.003
       0.000
      -0.001
      -0.003
      -0.001
       0.002
      -0.001
      -0.005
      -0.001
       0.009
       0.017
       0.018
       0.016
       0.010
       0.001
      -0.006
      -0.005
       0.000
       0.001
      -0.003
      -0.007
      -0.007
      -0.007
      -0.005
       0.003
       0.010
       0.008
      -0.001
      -0.008
      -0.008
      -0.005
       0.000
       0.007
       0.011
       0.008
      -0.001
      -0.006
      -0.008
      -0.008
      -0.007
       0.000
       0.007
       0.006
      -0.001
      -0.006
      -0.007
      -0.009
      -0.010
      -0.008
      -0.005
      -0.007
      -0.009
      -0.007
      -0.003
      -0.004
      -0.009
      -0.008
      -0.001
       0.003
       0.004
       0.004
       0.004
       0.002
      -0.002
      -0.001
       0.001
      -0.002
      -0.007
      -0.005
       0.000
       0.003
       0.002
       0.003
       0.004
       0.001
      -0.005
      -0.005
      -0.002
      -0.003
      -0.009
      -0.013
      -0.014
      -0.017
      -0.019
      -0.016
      -0.009
      -0.002
       0.002
       0.006
       0.008
       0.004
      -0.002
      -0.002
       0.005
       0.009
       0.010
       0.012
       0.014
       0.008
      -0.004
      -0.011
      -0.010
      -0.005
       0.003
       0.011
       0.014
       0.008
      -0.002
      -0.006
      -0.007
      -0.008
      -0.008
      -0.002
       0.006
       0.007
       0.001
      -0.004
      -0.006
      -0.009
      -0.012
      -0.011
      -0.004
       0.000
       0.000
       0.002
       0.005
       0.005
       0.003
       0.005
       0.009
       0.009
       0.007
       0.009
       0.015
       0.016
       0.012
       0.008
       0.004
      -0.002
      -0.009
      -0.009
      -0.004
       0.000
       0.001
       0.004
       0.008
       0.007
       0.004
       0.007
       0.013
       0.013
       0.007
       0.001
      -0.001
      -0.004
      -0.008
      -0.008
      -0.006
      -0.006
      -0.007
      -0.004
       0.002
       0.004
       0.004
       0.006
       0.008
       0.003
      -0.006
      -0.012
      -0.010
      -0.007
      -0.004
       0.000
       0.004
       0.004
       0.002
       0.004
       0.009
       0.009
       0.006
       0.003
       0.002
      -0.002
      -0.006
      -0.003
       0.005
       0.009
       0.006
       0.001
      -0.001
      -0.002
      -0.002
       0.001
       0.005
       0.006
       0.006
       0.010
       0.014
       0.011
       0.003
       0.001
       0.007
       0.012
       0.011
       0.008
       0.005
       0.001
      -0.002
      -0.001
       0.002
       0.001
      -0.004
      -0.005
      -0.004
      -0.005
      -0.008
      -0.006
      -0.003
      -0.004
      -0.011
      -0.013
      -0.009
      -0.005
      -0.006
      -0.009
      -0.013
      -0.017
      -0.017
      -0.011
      -0.001
       0.002
      -0.003
      -0.007
      -0.006
      -0.005
      -0.006
      -0.005
       0.000
       0.002
       0.002
       0.003
       0.006
       0.003
      -0.004
      -0.009
      -0.010
      -0.013
      -0.018
      -0.018
      -0.011
      -0.005
      -0.003
      -0.004
      -0.008
      -0.015
      -0.021
      -0.017
      -0.006
       0.000
       0.000
       0.004
       0.018
       0.045
       0.083
       0.135
       0.193
       0.244
       0.281
       0.304
       0.304
       0.273
       0.217
       0.152
       0.089
       0.031
      -0.014
      -0.038
      -0.043
      -0.042
      -0.050
      -0.077
      -0.133
      -0.231
      -0.374
      -0.562
      -0.798
      -1.068
      -1.329
      -1.511
      -1.552
      -1.426
      -1.140
      -0.724
      -0.225
       0.313
       0.857
       1.379
       1.840
       2.184
       2.358
       2.336
       2.121
       1.749
       1.285
       0.796
       0.325
      -0.104
      -0.460
      -0.703
      -0.814
      -0.818
      -0.778
      -0.763
      -0.819
      -0.955
      -1.137
      -1.319
      -1.470
      -1.573
      -1.614
      -1.568
      -1.414
      -1.145
      -0.768
      -0.308
       0.176
       0.608
       0.931
       1.129
       1.224
       1.244
       1.208
       1.113
       0.949
       0.717
       0.463
       0.256
       0.145
       0.109
       0.078
      -0.014
      -0.173
      -0.331
      -0.395
      -0.315
      -0.123
       0.108
       0.329
       0.521
       0.660
       0.707
       0.649
       0.536
       0.449
       0.439
       0.491
       0.538
       0.511
       0.381
       0.174
      -0.065
      -0.303
      -0.523
      -0.693
      -0.768
      -0.734
      -0.638
      -0.557
      -0.546
      -0.598
      -0.650
      -0.633
      -0.522
      -0.359
      -0.215
      -0.130
      -0.098
      -0.096
      -0.113
      -0.144
      -0.185
      -0.236
      -0.303
      -0.385
      -0.470
      -0.536
      -0.566
      -0.540
      -0.449
      -0.307
      -0.148
      -0.013
       0.067
       0.081
       0.049
       0.028
       0.095
       0.297
       0.627
       1.036
       1.460
       1.832
       2.086
       2.181
       2.100
       1.853
       1.475
       1.028
       0.588
       0.205
      -0.116
      -0.401
      -0.676
      -0.939
      -1.162
      -1.302
      -1.335
      -1.283
      -1.187
      -1.084
      -0.983
      -0.875
      -0.731
      -0.511
      -0.204
       0.130
       0.378
       0.452
       0.347
       0.124
      -0.152
      -0.443
      -0.731
      -1.001
      -1.224
      -1.367
      -1.409
      -1.355
      -1.218
      -0.994
      -0.671
      -0.256
       0.216
       0.701
       1.160
       1.557
       1.865
       2.076
       2.199
       2.245
       2.208
       2.077
       1.838
       1.479
       1.011
       0.494
       0.015
      -0.358
      -0.618
      -0.797
      -0.921
      -0.991
      -0.993
      -0.921
      -0.798
      -0.675
      -0.614
      -0.656
      -0.805
      -1.031
      -1.266
      -1.416
      -1.400
      -1.209
      -0.905
      -0.566
      -0.224
       0.135
       0.524
       0.924
       1.284
       1.555
       1.716
       1.769
       1.720
       1.556
       1.285
       0.960
       0.646
       0.358
       0.046
      -0.340
      -0.789
      -1.235
      -1.608
      -1.866
      -1.985
      -1.953
      -1.769
      -1.452
      -1.046
      -0.609
      -0.197
       0.170
       0.491
       0.767
       0.984
       1.120
       1.156
       1.077
       0.897
       0.659
       0.426
       0.228
       0.061
      -0.089
      -0.215
      -0.300
      -0.345
      -0.362
      -0.364
      -0.349
      -0.305
      -0.213
      -0.060
       0.142
       0.358
       0.545
       0.662
       0.674
       0.574
       0.407
       0.250
       0.161
       0.143
       0.155
       0.149
       0.096
       0.004
      -0.087
      -0.132
      -0.125
      -0.107
      -0.140
      -0.254
      -0.431
      -0.614
      -0.734
      -0.751
      -0.681
      -0.578
      -0.473
      -0.355
      -0.195
       0.010
       0.223
       0.403
       0.519
       0.567
       0.561
       0.528
       0.498
       0.503
       0.568
       0.678
       0.772
       0.778
       0.671
       0.483
       0.256
       0.004
      -0.274
      -0.568
      -0.844
      -1.067
      -1.215
      -1.287
      -1.297
      -1.250
      -1.135
      -0.943
      -0.703
      -0.474
      -0.289
      -0.135
       0.018
       0.179
       0.339
       0.502
       0.683
       0.875
       1.028
       1.077
       1.003
       0.866
       0.775
       0.796
       0.890
       0.951
       0.905
       0.759
       0.564
       0.355
       0.137
      -0.085
      -0.285
      -0.427
      -0.493
      -0.492
      -0.466
      -0.449
      -0.447
      -0.451
      -0.461
      -0.497
      -0.562
      -0.631
      -0.679
      -0.708
      -0.740
      -0.790
      -0.848
      -0.890
      -0.885
      -0.817
      -0.687
      -0.502
      -0.250
       0.078
       0.449
       0.783
       0.999
       1.076
       1.074
       1.074
       1.126
       1.212
       1.266
       1.230
       1.099
       0.904
       0.670
       0.399
       0.103
      -0.186
      -0.441
      -0.660
      -0.859
      -1.037
      -1.172
      -1.242
      -1.235
      -1.160
      -1.031
      -0.854
      -0.623
      -0.340
      -0.053
       0.165
       0.275
       0.302
       0.312
       0.342
       0.385
       0.404
       0.370
       0.287
       0.191
       0.128
       0.127
       0.188
       0.294
       0.418
       0.518
       0.552
       0.517
       0.452
       0.400
       0.368
       0.332
       0.267
       0.176
       0.086
       0.029
       0.017
       0.014
      -0.036
      -0.163
      -0.340
      -0.503
      -0.602
      -0.624
      -0.595
      -0.557
      -0.544
      -0.552
      -0.546
      -0.491
      -0.380
      -0.238
      -0.107
      -0.040
      -0.062
      -0.143
      -0.199
      -0.152
       0.018
       0.266
       0.525
       0.749
       0.930
       1.082
       1.212
       1.287
       1.259
       1.105
       0.848
       0.522
       0.147
      -0.262
      -0.668
      -1.016
      -1.250
      -1.342
      -1.298
      -1.162
      -0.987
      -0.801
      -0.600
      -0.381
      -0.173
      -0.017
       0.070
       0.103
       0.106
       0.091
       0.067
       0.052
       0.084
       0.198
       0.377
       0.543
       0.607
