Origin Time       21/3/2011 09:48:59 
Lat.              36.5 N 
Long.             70.9 E 
Depth (Km)        166.0
Magnitude         5.7
 Region           Hindukush-Region-Afganistan                                      
 Above details taken from IMD 
     
Station Code      BAR
Station Lat.       30.809  N
Station Long.      78.205  E
Station Height(m) 1305.0
Site Class        A   Vs30 between 700 m/sec to 1400 m/sec * 
Record Time       21.03.2011 09:52:01.424
Sampling Rate     200. Hz
 Record Duration   80.015 Sec.
 Direction         E-W (E positive)
Max. Acceleration     -1.068 cm/sec**2
     
  * For reference see Site Classification link of website 
     
 Base Line Corrected and Low Pass Filtered (Cut Off at 35 Hz) Time History
 Acceleration data in cm/sec**2
    
[...]
      -0.178
      -0.218
      -0.263
      -0.296
      -0.308
      -0.303
      -0.296
      -0.296
      -0.305
      -0.311
      -0.304
      -0.283
      -0.256
      -0.228
      -0.198
      -0.163
      -0.123
      -0.080
      -0.037
       0.006
       0.048
       0.086
       0.120
       0.155
       0.196
       0.237
       0.268
       0.282
       0.280
       0.274
       0.271
       0.270
       0.267
       0.254
       0.230
       0.196
       0.157
       0.121
       0.093
       0.073
       0.055
       0.035
       0.009
      -0.021
      -0.050
      -0.076
      -0.094
      -0.106
      -0.113
      -0.119
      -0.127
      -0.134
      -0.139
      -0.137
      -0.132
      -0.124
      -0.111
      -0.092
      -0.069
      -0.048
      -0.034
      -0.029
      -0.029
      -0.031
      -0.029
      -0.022
      -0.010
       0.000
       0.004
       0.003
       0.001
       0.005
       0.013
       0.020
       0.025
       0.029
       0.035
       0.041
       0.040
       0.032
       0.026
       0.030
       0.046
       0.063
       0.070
       0.065
       0.058
       0.057
       0.067
       0.081
       0.090
       0.092
       0.087
       0.083
       0.086
       0.097
       0.113
       0.127
       0.136
       0.139
       0.136
       0.126
       0.113
       0.101
       0.089
       0.072
       0.048
       0.023
       0.003
      -0.009
      -0.020
      -0.034
      -0.051
      -0.065
      -0.072
      -0.071
      -0.065
      -0.059
      -0.057
      -0.060
      -0.067
      -0.072
      -0.073
      -0.071
      -0.075
      -0.091
      -0.114
      -0.135
      -0.145
      -0.144
      -0.138
      -0.131
      -0.128
      -0.132
      -0.143
      -0.154
      -0.161
      -0.160
      -0.159
      -0.162
      -0.172
      -0.182
      -0.185
      -0.181
      -0.168
      -0.148
      -0.121
      -0.089
      -0.058
      -0.031
      -0.009
       0.009
       0.025
       0.041
       0.058
       0.074
       0.083
       0.083
       0.071
       0.053
       0.035
       0.016
      -0.006
      -0.028
      -0.046
      -0.059
      -0.070
      -0.084
      -0.097
      -0.106
      -0.109
      -0.112
      -0.120
      -0.131
      -0.134
      -0.122
      -0.098
      -0.069
      -0.040
      -0.010
       0.020
       0.050
       0.079
       0.111
       0.148
       0.190
       0.233
       0.272
       0.303
       0.328
       0.349
       0.363
       0.366
       0.355
       0.337
       0.322
       0.316
       0.311
       0.296
       0.265
       0.227
       0.191
       0.159
       0.125
       0.083
       0.036
      -0.005
      -0.033
      -0.057
      -0.086
      -0.121
      -0.151
      -0.165
      -0.165
      -0.163
      -0.167
      -0.174
      -0.176
      -0.169
      -0.156
      -0.141
      -0.127
      -0.119
      -0.116
      -0.118
      -0.118
      -0.110
      -0.098
      -0.088
      -0.086
      -0.095
      -0.110
      -0.126
      -0.139
      -0.149
      -0.158
      -0.169
      -0.183
      -0.199
      -0.209
      -0.210
      -0.201
      -0.187
      -0.174
      -0.166
      -0.164
      -0.163
      -0.157
      -0.143
      -0.123
      -0.106
      -0.095
      -0.089
      -0.080
      -0.063
      -0.040
      -0.018
      -0.002
       0.012
       0.026
       0.045
       0.068
       0.093
       0.117
       0.136
       0.150
       0.156
       0.157
       0.155
       0.152
       0.149
       0.146
       0.140
       0.127
       0.103
       0.076
       0.054
       0.043
       0.038
       0.029
       0.011
      -0.010
      -0.028
      -0.044
      -0.061
      -0.075
      -0.077
      -0.061
      -0.035
      -0.013
      -0.002
       0.001
       0.003
       0.011
       0.022
       0.035
       0.048
       0.058
       0.064
       0.064
       0.064
       0.068
       0.076
       0.080
       0.074
       0.061
       0.048
       0.040
       0.035
       0.028
       0.019
       0.011
       0.005
       0.000
      -0.004
      -0.008
      -0.010
      -0.009
      -0.005
       0.003
       0.008
       0.007
      -0.002
      -0.014
      -0.020
      -0.021
      -0.021
      -0.025
      -0.037
      -0.054
      -0.072
      -0.086
      -0.091
      -0.086
      -0.075
      -0.062
      -0.052
      -0.041
      -0.031
      -0.025
      -0.024
      -0.025
      -0.021
      -0.011
      -0.001
       0.005
       0.010
       0.026
       0.054
       0.086
       0.110
       0.123
       0.131
       0.141
       0.150
       0.155
       0.156
       0.155
       0.156
       0.158
       0.160
       0.161
       0.158
       0.148
       0.132
       0.111
       0.091
       0.076
       0.062
       0.048
       0.033
       0.016
      -0.004
      -0.027
      -0.051
      -0.072
      -0.092
      -0.113
      -0.140
      -0.170
      -0.197
      -0.218
      -0.235
      -0.255
      -0.280
      -0.308
      -0.332
      -0.348
      -0.354
      -0.355
      -0.355
      -0.356
      -0.357
      -0.356
      -0.348
      -0.331
      -0.305
      -0.270
      -0.228
      -0.181
      -0.129
      -0.076
      -0.022
       0.036
       0.099
       0.164
       0.226
       0.281
       0.327
       0.364
       0.388
       0.401
       0.404
       0.402
       0.391
       0.374
       0.353
       0.335
       0.318
       0.294
       0.258
       0.214
       0.174
       0.140
       0.108
       0.072
       0.034
       0.002
      -0.017
      -0.019
      -0.009
       0.007
       0.022
       0.032
       0.038
       0.044
       0.056
       0.074
       0.089
       0.091
       0.080
       0.065
       0.054
       0.054
       0.060
       0.064
       0.061
       0.053
       0.041
       0.030
       0.023
       0.017
       0.008
      -0.005
      -0.017
      -0.025
      -0.029
      -0.035
      -0.041
      -0.038
      -0.021
       0.007
       0.037
       0.064
       0.090
       0.116
       0.138
       0.155
       0.167
       0.176
       0.178
       0.170
       0.151
       0.125
       0.097
       0.068
       0.037
       0.005
      -0.030
      -0.070
      -0.122
      -0.184
      -0.248
      -0.305
      -0.350
      -0.389
      -0.426
      -0.452
      -0.455
      -0.433
      -0.394
      -0.350
      -0.306
      -0.254
      -0.192
      -0.119
      -0.036
       0.057
       0.157
       0.258
       0.349
       0.426
       0.490
       0.549
       0.609
       0.669
       0.726
       0.770
       0.800
       0.814
       0.818
       0.812
       0.796
       0.769
       0.734
       0.695
       0.652
       0.600
       0.533
       0.450
       0.359
       0.270
       0.186
       0.107
       0.031
      -0.046
      -0.125
      -0.206
      -0.288
      -0.366
      -0.438
      -0.500
      -0.553
      -0.596
      -0.632
      -0.662
      -0.687
      -0.705
      -0.712
      -0.706
      -0.688
      -0.664
      -0.640
      -0.614
      -0.581
      -0.544
      -0.507
      -0.471
      -0.431
      -0.385
      -0.339
      -0.299
      -0.267
      -0.234
      -0.195
      -0.153
      -0.119
      -0.097
      -0.082
      -0.064
      -0.039
      -0.012
       0.011
       0.024
       0.026
       0.020
       0.010
       0.001
      -0.009
      -0.020
      -0.028
      -0.025
      -0.009
       0.014
       0.034
       0.045
       0.051
       0.058
       0.068
       0.080
       0.089
       0.094
       0.098
       0.101
       0.105
       0.109
       0.116
       0.128
       0.142
       0.157
       0.176
       0.200
       0.230
       0.263
       0.297
       0.333
       0.369
       0.406
       0.440
       0.473
       0.511
       0.554
       0.597
       0.631
       0.652
       0.662
       0.667
       0.677
       0.696
       0.722
       0.741
       0.735
       0.702
       0.654
       0.609
       0.570
       0.531
       0.479
       0.415
       0.342
       0.267
       0.192
       0.118
       0.043
      -0.037
      -0.124
      -0.214
      -0.302
      -0.381
      -0.454
      -0.525
      -0.598
      -0.671
      -0.736
      -0.790
      -0.833
      -0.867
      -0.891
      -0.905
      -0.911
      -0.905
      -0.884
      -0.845
      -0.790
      -0.727
      -0.661
      -0.592
      -0.520
      -0.444
      -0.368
      -0.294
      -0.223
      -0.161
      -0.112
      -0.077
      -0.052
      -0.029
      -0.001
       0.029
       0.056
       0.074
       0.081
       0.081
       0.079
       0.079
       0.081
       0.076
       0.063
       0.045
       0.030
       0.024
       0.026
       0.029
       0.031
       0.032
       0.036
       0.046
       0.061
       0.081
       0.101
       0.115
       0.119
       0.113
       0.105
       0.095
       0.078
       0.049
       0.011
      -0.023
      -0.044
      -0.056
      -0.068
      -0.086
      -0.103
      -0.109
      -0.099
      -0.078
      -0.050
      -0.016
       0.023
       0.065
       0.105
       0.146
       0.189
       0.236
       0.285
       0.334
       0.378
       0.419
       0.452
       0.476
       0.488
       0.488
       0.476
       0.456
       0.427
       0.392
       0.350
       0.300
       0.245
       0.190
       0.143
       0.104
       0.072
       0.042
       0.014
      -0.010
      -0.029
      -0.049
      -0.074
      -0.103
      -0.132
      -0.160
      -0.188
      -0.218
      -0.249
      -0.280
      -0.313
      -0.345
      -0.372
      -0.390
      -0.401
      -0.413
      -0.433
      -0.456
      -0.469
      -0.466
      -0.447
      -0.418
      -0.378
      -0.323
      -0.252
      -0.171
      -0.088
      -0.007
       0.072
       0.148
       0.221
       0.288
       0.345
       0.390
       0.421
       0.440
       0.450
       0.454
       0.449
       0.432
       0.403
       0.366
       0.325
       0.283
       0.239
       0.188
       0.126
       0.055
      -0.022
      -0.097
      -0.163
      -0.217
      -0.260
      -0.297
      -0.334
      -0.367
      -0.393
      -0.406
      -0.408
      -0.401
      -0.387
      -0.370
      -0.348
      -0.321
      -0.293
      -0.266
      -0.248
      -0.237
      -0.227
      -0.212
      -0.191
      -0.171
      -0.152
      -0.129
      -0.094
      -0.046
       0.008
       0.058
       0.100
       0.143
       0.190
       0.242
       0.288
       0.321
       0.342
       0.355
       0.363
       0.367
       0.367
       0.362
       0.350
       0.331
       0.308
       0.280
       0.248
       0.208
       0.161
       0.106
       0.042
      -0.029
      -0.106
      -0.190
      -0.278
      -0.365
      -0.446
      -0.513
      -0.566
      -0.610
      -0.645
      -0.672
      -0.683
      -0.674
      -0.647
      -0.609
      -0.560
      -0.496
      -0.413
      -0.309
      -0.194
      -0.075
       0.044
       0.164
       0.286
       0.408
       0.527
       0.637
       0.734
       0.817
       0.886
       0.941
       0.982
       1.005
       1.005
       0.982
       0.941
       0.884
       0.811
       0.716
       0.600
       0.471
       0.340
       0.217
       0.104
       0.004
      -0.086
      -0.167
      -0.240
      -0.305
      -0.354
      -0.384
      -0.398
      -0.409
      -0.424
      -0.441
      -0.448
      -0.437
      -0.410
      -0.378
      -0.349
      -0.326
      -0.300
      -0.264
      -0.217
      -0.166
      -0.124
      -0.096
      -0.076
      -0.052
      -0.018
       0.021
       0.056
       0.079
       0.092
       0.101
       0.111
       0.125
       0.145
       0.171
       0.201
       0.230
       0.253
       0.268
       0.276
       0.275
       0.269
       0.260
       0.248
       0.233
       0.210
       0.179
       0.144
       0.110
       0.078
       0.043
       0.004
      -0.035
      -0.065
      -0.085
      -0.101
      -0.118
      -0.135
      -0.147
      -0.156
      -0.165
      -0.180
      -0.197
      -0.212
      -0.223
      -0.230
      -0.232
      -0.230
      -0.231
      -0.245
      -0.277
      -0.315
      -0.346
      -0.365
      -0.379
      -0.395
      -0.415
      -0.433
      -0.449
      -0.463
      -0.475
      -0.477
      -0.466
      -0.440
      -0.406
      -0.369
      -0.331
      -0.293
      -0.258
      -0.221
      -0.174
      -0.114
      -0.041
       0.036
       0.108
       0.172
       0.232
       0.297
       0.370
       0.448
       0.524
       0.585
       0.626
       0.650
       0.664
       0.669
       0.661
       0.633
       0.588
       0.534
       0.473
       0.404
       0.326
       0.250
       0.186
       0.137
       0.102
       0.076
       0.060
       0.054
       0.060
       0.078
       0.112
       0.163
       0.228
       0.299
       0.365
       0.423
       0.476
       0.525
       0.568
       0.601
       0.623
       0.634
       0.631
       0.612
       0.577
       0.533
       0.491
       0.455
       0.421
       0.382
       0.335
       0.283
       0.226
       0.165
       0.098
       0.026
      -0.045
      -0.114
      -0.180
      -0.247
      -0.320
      -0.402
      -0.491
      -0.583
      -0.678
      -0.773
      -0.864
      -0.944
      -1.005
      -1.044
      -1.064
      -1.068
      -1.052
      -1.017
      -0.964
      -0.896
      -0.816
      -0.726
      -0.624
      -0.517
      -0.412
      -0.310
      -0.210
      -0.109
      -0.014
       0.069
       0.132
       0.173
       0.192
       0.191
       0.172
       0.137
       0.091
       0.038
      -0.015
      -0.068
      -0.118
      -0.166
      -0.213
      -0.260
      -0.302
      -0.332
      -0.347
      -0.347
      -0.338
      -0.320
      -0.289
      -0.241
      -0.182
      -0.121
      -0.063
      -0.006
       0.056
       0.126
       0.204
       0.283
       0.358
       0.427
       0.491
       0.558
       0.628
       0.691
       0.732
       0.746
       0.737
       0.712
       0.674
       0.623
       0.562
       0.500
       0.443
       0.389
       0.335
       0.278
       0.222
       0.171
       0.129
       0.099
       0.083
       0.078
       0.085
       0.102
       0.130
       0.165
       0.197
       0.216
       0.221
       0.222
       0.234
       0.257
       0.281
       0.297
       0.305
       0.308
       0.306
       0.290
       0.254
       0.198
       0.126
       0.042
      -0.053
      -0.151
      -0.241
      -0.312
      -0.367
      -0.417
      -0.472
      -0.535
      -0.600
      -0.665
      -0.725
      -0.779
      -0.825
      -0.858
      -0.877
      -0.880
      -0.864
      -0.831
      -0.788
      -0.741
      -0.695
      -0.645
      -0.591
      -0.534
      -0.473
      -0.402
      -0.318
      -0.227
      -0.144
      -0.079
      -0.027
       0.024
       0.078
       0.127
       0.160
       0.176
       0.181
       0.181
       0.179
       0.173
       0.168
       0.166
       0.168
       0.173
       0.176
       0.176
       0.171
       0.169
       0.177
       0.204
       0.252
       0.315
       0.385
       0.456
       0.524
       0.591
       0.659
       0.728
       0.793
       0.843
       0.868
       0.865
       0.841
       0.806
       0.765
       0.717
       0.656
       0.582
       0.495
       0.394
       0.279
       0.156
       0.039
      -0.061
      -0.148
      -0.229
      -0.308
      -0.380
      -0.437
      -0.476
      -0.499
      -0.511
      -0.509
      -0.494
      -0.463
      -0.417
      -0.359
      -0.295
      -0.242
      -0.210
      -0.197
      -0.194
      -0.187
      -0.173
      -0.154
      -0.133
      -0.109
      -0.084
      -0.059
      -0.036
      -0.012
       0.014
       0.042
       0.069
       0.093
       0.117
       0.140
       0.160
       0.172
       0.175
       0.169
       0.158
       0.145
       0.129
       0.106
       0.075
       0.035
      -0.006
      -0.047
      -0.088
      -0.137
      -0.202
      -0.280
      -0.360
      -0.426
      -0.474
      -0.505
      -0.527
      -0.542
      -0.548
      -0.540
      -0.514
      -0.473
      -0.420
      -0.365
      -0.311
      -0.257
      -0.196
      -0.130
      -0.069
      -0.022
       0.011
       0.038
       0.070
       0.107
       0.139
       0.162
       0.172
       0.168
       0.145
       0.103
       0.051
      -0.002
      -0.046
      -0.079
      -0.100
      -0.110
      -0.111
      -0.107
      -0.103
      -0.094
      -0.071
      -0.027
       0.031
       0.093
       0.154
       0.219
       0.295
       0.379
       0.458
       0.525
       0.576
       0.615
       0.643
       0.658
       0.660
       0.654
       0.643
       0.630
       0.615
       0.597
       0.575
       0.550
       0.520
       0.485
       0.441
       0.384
       0.319
       0.252
       0.189
       0.129
       0.071
       0.015
      -0.039
      -0.090
      -0.144
      -0.206
      -0.272
      -0.333
      -0.386
      -0.439
      -0.504
      -0.577
      -0.639
      -0.672
      -0.676
      -0.666
      -0.659
      -0.658
      -0.656
      -0.647
      -0.627
      -0.594
      -0.542
      -0.467
      -0.375
      -0.283
      -0.208
      -0.156
      -0.113
      -0.067
      -0.015
       0.036
       0.077
       0.109
       0.140
       0.179
       0.225
       0.265
       0.291
       0.302
       0.308
       0.316
       0.328
       0.344
       0.363
       0.383
       0.410
       0.446
       0.498
       0.559
       0.615
       0.646
       0.645
       0.619
       0.583
       0.542
       0.487
       0.412
       0.315
       0.206
       0.092
      -0.027
      -0.152
      -0.280
      -0.399
      -0.501
      -0.580
      -0.640
      -0.687
      -0.723
      -0.751
      -0.768
      -0.771
      -0.753
      -0.712
      -0.651
      -0.576
      -0.494
      -0.410
      -0.332
      -0.267
      -0.215
      -0.168
      -0.117
      -0.062
      -0.011
       0.025
       0.046
       0.058
       0.067
       0.077
       0.085
       0.087
       0.082
       0.071
       0.059
       0.049
       0.040
       0.027
       0.009
      -0.011
      -0.020
      -0.013
       0.010
       0.034
       0.047
       0.045
       0.033
       0.019
       0.009
       0.003
       0.000
      -0.003
      -0.011
      -0.030
      -0.060
      -0.090
      -0.112
      -0.121
      -0.117
      -0.097
      -0.059
       0.001
       0.076
       0.155
       0.228
       0.289
       0.347
       0.411
       0.488
       0.570
       0.642
       0.689
       0.710
       0.714
       0.706
       0.690
       0.667
       0.644
       0.621
       0.595
       0.558
       0.507
       0.449
       0.391
       0.335
       0.273
       0.201
       0.117
       0.028
      -0.058
      -0.140
      -0.221
      -0.300
      -0.374
      -0.438
      -0.488
      -0.526
      -0.558
      -0.593
      -0.637
      -0.686
      -0.725
      -0.739
