Origin Time       05/3/2012 07:41:05	
Lat.              28.7 N	
Long.             76.6 E	
Depth (Km)         14.0
Magnitude         4.9
 Region           Haryana-Delhi-Border-Region                                      
 Above details taken from IMD 
   
Station Code      BAR
Station Lat.       29.097
Station Long.      77.255
Station Height(m)  232.0
Site Class        C   Vs30 between 200 m/sec to 375 m/sec *  
Record Time       05.03.2012 07:43:44.389
Sampling Rate     200. Hz
 Record Duration   65.070 Sec.
 Direction         Vert. (Up positive)
Max. Acceleration     -6.358 cm/sec**2
     
  * For reference see Site Classification link of website 
     
 Base Line Corrected and Low Pass Filtered (Cut Off at 35 Hz) Time History
 Acceleration data in cm/sec**2
    
[...]
       0.576
       1.113
       1.491
       1.538
       1.226
       0.701
       0.198
      -0.111
      -0.190
      -0.114
       0.012
       0.112
       0.150
       0.119
       0.042
      -0.055
      -0.168
      -0.331
      -0.569
      -0.841
      -1.024
      -1.001
      -0.748
      -0.349
       0.078
       0.468
       0.828
       1.185
       1.521
       1.765
       1.827
       1.654
       1.257
       0.690
       0.032
      -0.631
      -1.204
      -1.597
      -1.745
      -1.650
      -1.403
      -1.153
      -1.026
      -1.031
      -1.064
      -0.989
      -0.726
      -0.274
       0.310
       0.920
       1.413
       1.648
       1.568
       1.228
       0.753
       0.257
      -0.194
      -0.563
      -0.808
      -0.892
      -0.825
      -0.678
      -0.547
      -0.485
      -0.469
      -0.436
      -0.334
      -0.160
       0.057
       0.284
       0.503
       0.704
       0.872
       0.987
       1.040
       1.025
       0.918
       0.680
       0.296
      -0.172
      -0.600
      -0.884
      -1.013
      -1.062
      -1.111
      -1.171
      -1.187
      -1.084
      -0.824
      -0.430
       0.019
       0.426
       0.730
       0.924
       1.033
       1.066
       1.017
       0.897
       0.759
       0.647
       0.535
       0.340
       0.003
      -0.443
      -0.890
      -1.218
      -1.350
      -1.261
      -0.971
      -0.553
      -0.121
       0.203
       0.343
       0.313
       0.195
       0.076
       0.001
       0.002
       0.131
       0.442
       0.893
       1.318
       1.503
       1.333
       0.848
       0.202
      -0.438
      -0.951
      -1.287
      -1.464
      -1.550
      -1.612
      -1.660
      -1.630
      -1.425
      -0.987
      -0.350
       0.366
       1.017
       1.489
       1.735
       1.768
       1.635
       1.390
       1.077
       0.739
       0.422
       0.157
      -0.054
      -0.242
      -0.437
      -0.648
      -0.855
      -1.030
      -1.132
      -1.100
      -0.862
      -0.386
       0.261
       0.910
       1.368
       1.528
       1.416
       1.155
       0.885
       0.700
       0.639
       0.684
       0.762
       0.751
       0.535
       0.063
      -0.587
      -1.216
      -1.586
      -1.560
      -1.191
      -0.685
      -0.276
      -0.093
      -0.117
      -0.225
      -0.263
      -0.115
       0.263
       0.812
       1.374
       1.737
       1.736
       1.353
       0.721
       0.030
      -0.569
      -0.994
      -1.191
      -1.135
      -0.873
      -0.543
      -0.311
      -0.262
      -0.341
      -0.391
      -0.267
       0.061
       0.499
       0.893
       1.126
       1.157
       0.996
       0.676
       0.259
      -0.146
      -0.413
      -0.475
      -0.366
      -0.191
      -0.052
      -0.009
      -0.090
      -0.296
      -0.594
      -0.892
      -1.056
      -0.974
      -0.640
      -0.183
       0.188
       0.319
       0.207
      -0.007
      -0.159
      -0.174
      -0.083
       0.037
       0.136
       0.204
       0.242
       0.216
       0.072
      -0.207
      -0.545
      -0.804
      -0.857
      -0.674
      -0.335
       0.005
       0.201
       0.206
       0.097
       0.005
       0.008
       0.086
       0.181
       0.265
       0.342
       0.395
       0.374
       0.244
       0.052
      -0.083
      -0.053
       0.153
       0.431
       0.636
       0.669
       0.535
       0.306
       0.054
      -0.185
      -0.405
      -0.595
      -0.730
      -0.792
      -0.789
      -0.748
      -0.685
      -0.597
      -0.479
      -0.365
      -0.308
      -0.337
      -0.412
      -0.427
      -0.283
       0.044
       0.474
       0.858
       1.044
       0.944
       0.579
       0.084
      -0.334
      -0.501
      -0.365
      -0.017
       0.366
       0.626
       0.683
       0.545
       0.288
       0.009
      -0.208
      -0.322
      -0.345
      -0.331
      -0.338
      -0.392
      -0.458
      -0.453
      -0.303
       0.001
       0.398
       0.795
       1.112
       1.294
       1.299
       1.104
       0.729
       0.256
      -0.188
      -0.496
      -0.641
      -0.692
      -0.755
      -0.889
      -1.048
      -1.097
      -0.914
      -0.491
       0.043
       0.514
       0.819
       0.945
       0.919
       0.756
       0.488
       0.205
       0.046
       0.085
       0.248
       0.336
       0.186
      -0.185
      -0.573
      -0.740
      -0.593
      -0.235
       0.119
       0.291
       0.229
       0.000
      -0.259
      -0.402
      -0.310
       0.066
       0.656
       1.256
       1.581
       1.429
       0.823
       0.029
      -0.605
      -0.857
      -0.729
      -0.378
       0.018
       0.335
       0.507
       0.497
       0.308
       0.000
      -0.316
      -0.545
      -0.666
      -0.735
      -0.793
      -0.815
      -0.749
      -0.599
      -0.442
      -0.353
      -0.318
      -0.253
      -0.088
       0.164
       0.428
       0.635
       0.759
       0.804
       0.760
       0.610
       0.377
       0.149
       0.038
       0.072
       0.147
       0.094
      -0.178
      -0.581
      -0.886
      -0.859
      -0.408
       0.363
       1.197
       1.801
       1.969
       1.676
       1.055
       0.302
      -0.419
      -0.998
      -1.367
      -1.504
      -1.454
      -1.313
      -1.166
      -1.032
      -0.888
      -0.700
      -0.432
      -0.063
       0.378
       0.778
       1.006
       1.007
       0.846
       0.643
       0.475
       0.343
       0.211
       0.065
      -0.077
      -0.182
      -0.235
      -0.243
      -0.232
      -0.219
      -0.189
      -0.090
       0.107
       0.354
       0.511
       0.442
       0.113
      -0.366
      -0.805
      -1.038
      -0.999
      -0.739
      -0.390
      -0.105
       0.006
      -0.070
      -0.232
      -0.328
      -0.262
      -0.066
       0.142
       0.260
       0.275
       0.235
       0.184
       0.131
       0.061
      -0.023
      -0.087
      -0.081
       0.016
       0.162
       0.269
       0.271
       0.183
       0.079
       0.023
       0.016
       0.006
      -0.064
      -0.208
      -0.383
      -0.511
      -0.525
      -0.403
      -0.162
       0.167
       0.549
       0.935
       1.254
       1.421
       1.367
       1.092
       0.683
       0.273
      -0.058
      -0.328
      -0.588
      -0.823
      -0.942
      -0.874
      -0.632
      -0.297
       0.043
       0.326
       0.509
       0.576
       0.544
       0.460
       0.361
       0.252
       0.118
      -0.044
      -0.197
      -0.287
      -0.289
      -0.238
      -0.201
      -0.225
      -0.306
      -0.426
      -0.592
      -0.831
      -1.138
      -1.433
      -1.592
      -1.528
      -1.247
      -0.841
      -0.417
      -0.024
       0.343
       0.688
       0.978
       1.166
       1.243
       1.243
       1.206
       1.139
       1.037
       0.912
       0.795
       0.699
       0.581
       0.354
      -0.045
      -0.564
      -1.005
      -1.133
      -0.850
      -0.287
       0.303
       0.731
       0.967
       1.072
       1.073
       0.910
       0.515
      -0.055
      -0.581
      -0.814
      -0.674
      -0.342
      -0.115
      -0.146
      -0.308
      -0.310
       0.048
       0.710
       1.404
       1.827
       1.805
       1.337
       0.546
      -0.380
      -1.238
      -1.846
      -2.090
      -1.961
      -1.575
      -1.151
      -0.906
      -0.925
      -1.106
      -1.240
      -1.165
      -0.836
      -0.319
       0.272
       0.806
       1.163
       1.266
       1.127
       0.848
       0.574
       0.416
       0.389
       0.417
       0.394
       0.256
       0.018
      -0.262
      -0.515
      -0.678
      -0.693
      -0.521
      -0.171
       0.285
       0.723
       1.016
       1.082
       0.920
       0.594
       0.186
      -0.243
      -0.634
      -0.911
      -0.998
      -0.879
      -0.613
      -0.305
      -0.041
       0.133
       0.193
       0.111
      -0.122
      -0.449
      -0.730
      -0.816
      -0.640
      -0.259
       0.200
       0.626
       0.933
       1.050
       0.927
       0.594
       0.177
      -0.158
      -0.323
      -0.360
      -0.373
      -0.411
      -0.417
      -0.306
      -0.054
       0.279
       0.604
       0.851
       0.986
       1.012
       0.971
       0.913
       0.846
       0.711
       0.447
       0.095
      -0.184
      -0.221
       0.004
       0.300
       0.386
       0.082
      -0.595
      -1.478
      -2.343
      -2.950
      -3.073
      -2.596
      -1.639
      -0.557
       0.242
       0.543
       0.450
       0.282
       0.345
       0.739
       1.345
       1.933
       2.305
       2.336
       1.966
       1.221
       0.262
      -0.621
      -1.140
      -1.204
      -0.985
      -0.764
      -0.694
      -0.694
      -0.578
      -0.265
       0.165
       0.586
       0.952
       1.266
       1.474
       1.432
       1.025
       0.303
      -0.500
      -1.098
      -1.318
      -1.155
      -0.737
      -0.236
       0.184
       0.413
       0.439
       0.349
       0.276
       0.318
       0.487
       0.723
       0.914
       0.942
       0.758
       0.442
       0.169
       0.087
       0.220
       0.470
       0.692
       0.749
       0.541
       0.044
      -0.635
      -1.270
      -1.637
      -1.655
      -1.425
      -1.129
      -0.903
      -0.763
      -0.632
      -0.422
      -0.103
       0.279
       0.638
       0.928
       1.149
       1.289
       1.264
       0.968
       0.405
      -0.236
      -0.689
      -0.810
      -0.676
      -0.483
      -0.384
      -0.414
      -0.544
      -0.740
      -0.949
      -1.054
      -0.902
      -0.424
       0.250
       0.836
       1.083
       0.956
       0.643
       0.394
       0.347
       0.493
       0.753
       1.024
       1.169
       1.037
       0.554
      -0.182
      -0.937
      -1.498
      -1.795
      -1.883
      -1.807
      -1.529
      -0.997
      -0.286
       0.385
       0.798
       0.907
       0.876
       0.915
       1.086
       1.237
       1.133
       0.661
      -0.048
      -0.694
      -1.002
      -0.869
      -0.368
       0.342
       1.077
       1.631
       1.791
       1.434
       0.642
      -0.293
      -1.025
      -1.345
      -1.278
      -1.028
      -0.839
      -0.881
      -1.174
      -1.579
      -1.867
      -1.859
      -1.553
      -1.118
      -0.752
      -0.512
      -0.293
       0.047
       0.537
       1.073
       1.510
       1.758
       1.794
       1.636
       1.340
       1.028
       0.849
       0.872
       0.999
       1.032
       0.858
       0.571
       0.386
       0.419
       0.567
       0.603
       0.391
      -0.011
      -0.432
      -0.753
      -0.971
      -1.134
      -1.236
      -1.207
      -1.001
      -0.676
      -0.355
      -0.141
      -0.081
      -0.202
      -0.524
      -0.987
      -1.409
      -1.575
      -1.402
      -1.007
      -0.604
      -0.340
      -0.216
      -0.141
      -0.042
       0.085
       0.204
       0.301
       0.399
       0.509
       0.594
       0.604
       0.554
       0.535
       0.636
       0.845
       1.051
       1.129
       1.014
       0.715
       0.295
      -0.135
      -0.441
      -0.531
      -0.414
      -0.198
      -0.025
       0.002
      -0.146
      -0.427
      -0.757
      -1.053
      -1.257
      -1.331
      -1.229
      -0.917
      -0.431
       0.092
       0.489
       0.675
       0.675
       0.565
       0.404
       0.247
       0.158
       0.199
       0.374
       0.622
       0.862
       1.057
       1.229
       1.410
       1.577
       1.630
       1.450
       0.990
       0.328
      -0.367
      -0.918
      -1.205
      -1.175
      -0.833
      -0.232
       0.512
       1.231
       1.746
       1.944
       1.814
       1.427
       0.864
       0.179
      -0.568
      -1.271
      -1.820
      -2.179
      -2.398
      -2.520
      -2.490
      -2.185
      -1.554
      -0.729
       0.039
       0.550
       0.804
       0.950
       1.096
       1.164
       0.949
       0.322
      -0.629
      -1.658
      -2.546
      -3.202
      -3.614
      -3.733
      -3.455
      -2.720
      -1.618
      -0.360
       0.851
       1.919
       2.831
       3.566
       4.063
       4.269
       4.189
       3.863
       3.327
       2.608
       1.768
       0.918
       0.186
      -0.346
      -0.668
      -0.795
      -0.719
      -0.416
       0.058
       0.502
       0.647
       0.370
      -0.155
      -0.557
      -0.572
      -0.260
       0.055
       0.062
      -0.309
      -0.870
      -1.347
      -1.582
      -1.606
      -1.550
      -1.501
      -1.458
      -1.400
      -1.356
      -1.369
      -1.407
      -1.353
      -1.093
      -0.622
      -0.063
       0.403
       0.639
       0.636
       0.504
       0.398
       0.429
       0.626
       0.947
       1.294
       1.514
       1.443
       0.998
       0.244
      -0.614
      -1.311
      -1.621
      -1.423
      -0.744
       0.251
       1.321
       2.252
       2.926
       3.327
       3.504
       3.531
       3.474
       3.348
       3.081
       2.567
       1.767
       0.781
      -0.223
      -1.173
      -2.166
      -3.324
      -4.577
      -5.630
      -6.217
      -6.358
      -6.318
      -6.260
      -6.019
      -5.244
      -3.758
      -1.726
       0.460
       2.434
       3.995
       5.089
       5.737
       5.967
       5.790
       5.221
       4.340
       3.333
       2.445
       1.855
       1.559
       1.368
       1.030
       0.409
      -0.425
      -1.256
      -1.884
      -2.247
      -2.409
      -2.442
      -2.340
      -2.047
      -1.544
      -0.870
      -0.090
       0.710
       1.354
       1.548
       1.044
      -0.123
      -1.543
      -2.635
      -3.016
      -2.730
      -2.147
      -1.654
      -1.377
      -1.164
      -0.789
      -0.157
       0.666
       1.552
       2.407
       3.153
       3.673
       3.801
       3.415
       2.535
       1.366
       0.229
      -0.572
      -0.892
      -0.802
      -0.537
      -0.360
      -0.427
      -0.716
      -1.071
      -1.299
      -1.257
      -0.888
      -0.216
       0.648
       1.516
       2.154
       2.365
       2.096
       1.477
       0.758
       0.150
      -0.294
      -0.665
      -1.054
      -1.438
      -1.704
      -1.766
      -1.625
      -1.310
      -0.820
      -0.160
       0.551
       1.076
       1.199
       0.901
       0.378
      -0.108
      -0.425
      -0.625
      -0.815
      -0.987
      -0.982
      -0.655
      -0.058
       0.555
       0.896
       0.842
       0.505
       0.138
      -0.028
       0.078
       0.339
       0.538
       0.493
       0.161
      -0.340
      -0.782
      -0.914
      -0.587
       0.139
       0.976
       1.551
       1.640
       1.313
       0.858
       0.540
       0.396
       0.254
      -0.073
      -0.620
      -1.283
      -1.953
      -2.582
      -3.098
      -3.328
      -3.071
      -2.296
      -1.242
      -0.280
       0.341
       0.641
       0.826
       1.062
       1.336
       1.492
       1.380
       0.971
       0.358
      -0.312
      -0.918
      -1.390
      -1.678
      -1.722
      -1.446
      -0.824
       0.067
       1.039
       1.870
       2.380
       2.478
       2.179
       1.574
       0.767
      -0.165
      -1.140
      -2.009
      -2.582
      -2.745
      -2.527
      -2.047
      -1.408
      -0.669
       0.096
       0.782
       1.321
       1.739
       2.132
       2.562
       2.982
       3.258
       3.264
       2.983
       2.507
       1.955
       1.367
       0.682
      -0.163
      -1.137
      -2.105
      -2.922
      -3.508
      -3.829
      -3.828
      -3.418
      -2.573
      -1.433
      -0.295
       0.544
       0.986
       1.190
       1.423
       1.845
       2.403
       2.914
       3.214
       3.199
       2.787
       1.924
       0.674
      -0.733
      -1.991
      -2.898
      -3.417
      -3.589
      -3.408
      -2.809
      -1.792
      -0.526
       0.675
       1.504
       1.825
       1.716
       1.377
       0.981
       0.610
       0.284
      -0.004
      -0.289
      -0.635
      -1.060
      -1.449
      -1.592
      -1.367
      -0.893
      -0.453
      -0.241
      -0.192
      -0.081
       0.234
       0.684
       1.093
       1.363
       1.539
       1.707
       1.865
       1.904
       1.706
       1.262
       0.673
       0.067
      -0.478
      -0.916
      -1.178
      -1.180
      -0.920
      -0.541
      -0.267
      -0.239
      -0.409
      -0.583
      -0.551
      -0.214
       0.382
       1.105
       1.827
       2.454
       2.884
       2.957
       2.521
       1.556
       0.246
      -1.122
      -2.335
      -3.334
      -4.119
      -4.618
      -4.677
      -4.198
      -3.267
      -2.118
      -0.971
       0.105
       1.175
       2.305
       3.437
       4.383
       4.899
       4.803
       4.081
       2.909
       1.574
       0.324
      -0.731
      -1.595
      -2.279
      -2.743
      -2.935
      -2.879
      -2.686
      -2.461
      -2.194
      -1.774
      -1.156
      -0.501
      -0.109
      -0.172
      -0.581
      -0.984
      -1.057
      -0.710
      -0.069
       0.677
       1.396
       2.019
       2.498
       2.794
       2.910
       2.895
       2.824
       2.726
       2.547
       2.190
       1.630
       0.985
       0.422
      -0.011
      -0.435
      -0.984
      -1.635
      -2.217
      -2.556
      -2.583
      -2.319
      -1.806
      -1.093
      -0.265
       0.543
       1.157
       1.425
       1.306
       0.903
       0.411
      -0.025
      -0.382
      -0.725
      -1.088
      -1.442
      -1.739
      -1.971
      -2.146
      -2.209
      -2.014
      -1.410
      -0.395
       0.802
       1.825
       2.404
       2.484
       2.187
       1.701
       1.235
       1.001
       1.108
       1.447
       1.727
       1.710
       1.407
       1.027
       0.765
       0.652
       0.594
       0.474
       0.199
      -0.307
      -1.104
      -2.182
      -3.402
      -4.460
      -4.954
      -4.592
      -3.421
      -1.852
      -0.401
       0.632
       1.239
       1.524
       1.538
       1.313
       0.955
       0.628
       0.452
       0.443
       0.551
       0.707
       0.839
       0.889
       0.861
       0.840
       0.943
       1.231
       1.667
       2.104
       2.313
       2.064
       1.276
       0.129
      -1.011
      -1.832
      -2.253
      -2.387
      -2.379
      -2.311
      -2.223
      -2.154
      -2.088
      -1.903
      -1.403
      -0.441
       0.948
       2.478
       3.669
       4.049
       3.420
       2.016
       0.420
      -0.742
      -1.145
      -0.915
      -0.508
      -0.397
      -0.772
      -1.470
      -2.158
      -2.611
      -2.830
      -2.935
      -2.965
      -2.826
      -2.415
      -1.743
      -0.931
      -0.085
       0.797
       1.780
       2.878
       3.986
