Origin Time       15/2/2009 07:35:55  UTC
Lat.              26.0 N 
Long.             90.2 E 
Depth (Km)         39.3
Magnitude         4.4
 Region           Assam-Meghalaya-Border                                           
 Above details taken from IMD 
    
Station Code      BAR
Station Lat.       26.332  N
Station Long.      91.006  E
Station Height(m)   47.0
Site Class        C   Vs30 between 200 m/sec to 375 m/sec *  
Record Time       15.02.2009 19:36:08.064 UTC
Sampling Rate     200. Hz
 Record Duration   65.905 Sec.
 Direction         N-S (N positive)
Max. Acceleration     -6.005 cm/sec**2
     
  * For reference see Site Classification link of website 
     
 Base Line Corrected and Low Pass Filtered (Cut Off at 35 Hz) Time History
 Acceleration data in cm/sec**2
    
[...]
      -0.019
      -0.027
      -0.052
      -0.082
      -0.105
      -0.113
      -0.110
      -0.103
      -0.101
      -0.106
      -0.111
      -0.103
      -0.070
      -0.010
       0.066
       0.147
       0.220
       0.283
       0.329
       0.343
       0.305
       0.209
       0.081
      -0.033
      -0.084
      -0.055
       0.037
       0.149
       0.235
       0.269
       0.248
       0.187
       0.113
       0.050
       0.014
      -0.001
      -0.019
      -0.062
      -0.131
      -0.197
      -0.221
      -0.183
      -0.101
      -0.019
       0.022
       0.005
      -0.059
      -0.147
      -0.237
      -0.305
      -0.333
      -0.310
      -0.242
      -0.147
      -0.040
       0.067
       0.165
       0.236
       0.264
       0.245
       0.195
       0.140
       0.093
       0.045
      -0.016
      -0.091
      -0.158
      -0.192
      -0.183
      -0.145
      -0.103
      -0.070
      -0.045
      -0.023
       0.000
       0.019
       0.035
       0.053
       0.080
       0.116
       0.147
       0.153
       0.124
       0.067
       0.006
      -0.037
      -0.046
      -0.024
       0.016
       0.061
       0.098
       0.119
       0.121
       0.110
       0.092
       0.070
       0.039
      -0.014
      -0.101
      -0.216
      -0.329
      -0.403
      -0.413
      -0.361
      -0.272
      -0.178
      -0.103
      -0.053
      -0.026
      -0.014
      -0.007
       0.004
       0.022
       0.039
       0.039
       0.015
      -0.020
      -0.038
      -0.018
       0.038
       0.107
       0.162
       0.190
       0.200
       0.207
       0.219
       0.224
       0.211
       0.175
       0.124
       0.071
       0.023
      -0.019
      -0.054
      -0.073
      -0.062
      -0.017
       0.050
       0.110
       0.138
       0.119
       0.065
      -0.002
      -0.055
      -0.078
      -0.069
      -0.033
       0.015
       0.053
       0.061
       0.029
      -0.038
      -0.123
      -0.202
      -0.260
      -0.284
      -0.273
      -0.229
      -0.166
      -0.100
      -0.041
       0.008
       0.053
       0.087
       0.088
       0.036
      -0.063
      -0.165
      -0.217
      -0.185
      -0.083
       0.045
       0.156
       0.233
       0.284
       0.316
       0.320
       0.279
       0.189
       0.071
      -0.038
      -0.111
      -0.143
      -0.142
      -0.113
      -0.050
       0.042
       0.138
       0.198
       0.194
       0.131
       0.044
      -0.032
      -0.086
      -0.131
      -0.178
      -0.224
      -0.247
      -0.226
      -0.160
      -0.067
       0.029
       0.107
       0.154
       0.163
       0.132
       0.060
      -0.046
      -0.166
      -0.266
      -0.302
      -0.250
      -0.123
       0.024
       0.129
       0.162
       0.144
       0.119
       0.121
       0.143
       0.154
       0.128
       0.073
       0.022
       0.007
       0.032
       0.076
       0.111
       0.131
       0.150
       0.180
       0.214
       0.226
       0.197
       0.141
       0.098
       0.098
       0.131
       0.152
       0.117
       0.025
      -0.083
      -0.163
      -0.198
      -0.206
      -0.209
      -0.206
      -0.180
      -0.123
      -0.054
      -0.010
      -0.013
      -0.054
      -0.096
      -0.105
      -0.076
      -0.038
      -0.027
      -0.056
      -0.112
      -0.164
      -0.185
      -0.166
      -0.117
      -0.057
      -0.008
       0.020
       0.031
       0.032
       0.032
       0.033
       0.034
       0.036
       0.042
       0.053
       0.063
       0.069
       0.071
       0.078
       0.095
       0.118
       0.132
       0.123
       0.097
       0.065
       0.039
       0.017
      -0.002
      -0.014
      -0.001
       0.046
       0.111
       0.161
       0.164
       0.115
       0.031
      -0.060
      -0.138
      -0.190
      -0.210
      -0.200
      -0.172
      -0.143
      -0.129
      -0.129
      -0.126
      -0.098
      -0.040
       0.024
       0.057
       0.033
      -0.037
      -0.116
      -0.162
      -0.157
      -0.108
      -0.040
       0.020
       0.052
       0.045
       0.005
      -0.042
      -0.059
      -0.024
       0.057
       0.150
       0.217
       0.241
       0.219
       0.161
       0.074
      -0.026
      -0.116
      -0.169
      -0.164
      -0.111
      -0.036
       0.028
       0.063
       0.071
       0.063
       0.055
       0.056
       0.076
       0.110
       0.142
       0.149
       0.123
       0.080
       0.048
       0.042
       0.053
       0.062
       0.056
       0.034
       0.000
      -0.047
      -0.111
      -0.180
      -0.235
      -0.257
      -0.248
      -0.221
      -0.192
      -0.165
      -0.138
      -0.113
      -0.095
      -0.088
      -0.094
      -0.103
      -0.104
      -0.082
      -0.032
       0.043
       0.127
       0.197
       0.241
       0.258
       0.255
       0.240
       0.211
       0.162
       0.096
       0.029
      -0.015
      -0.023
      -0.001
       0.030
       0.057
       0.080
       0.110
       0.154
       0.197
       0.211
       0.171
       0.078
      -0.035
      -0.124
      -0.160
      -0.154
      -0.141
      -0.148
      -0.174
      -0.200
      -0.210
      -0.204
      -0.188
      -0.161
      -0.116
      -0.054
       0.011
       0.059
       0.080
       0.078
       0.059
       0.022
      -0.030
      -0.081
      -0.104
      -0.083
      -0.036
       0.006
       0.019
       0.014
       0.013
       0.023
       0.023
      -0.007
      -0.061
      -0.103
      -0.102
      -0.051
       0.022
       0.084
       0.113
       0.108
       0.079
       0.040
       0.006
      -0.006
       0.018
       0.079
       0.157
       0.219
       0.239
       0.209
       0.148
       0.088
       0.059
       0.077
       0.128
       0.181
       0.201
       0.164
       0.081
      -0.010
      -0.061
      -0.050
       0.008
       0.068
       0.087
       0.052
      -0.019
      -0.093
      -0.147
      -0.176
      -0.185
      -0.179
      -0.158
      -0.126
      -0.097
      -0.090
      -0.116
      -0.165
      -0.219
      -0.258
      -0.273
      -0.263
      -0.236
      -0.206
      -0.182
      -0.154
      -0.106
      -0.031
       0.052
       0.113
       0.133
       0.117
       0.093
       0.088
       0.117
       0.174
       0.246
       0.313
       0.349
       0.333
       0.258
       0.146
       0.041
      -0.019
      -0.022
       0.011
       0.043
       0.043
       0.000
      -0.076
      -0.160
      -0.217
      -0.227
      -0.194
      -0.144
      -0.109
      -0.101
      -0.117
      -0.146
      -0.182
      -0.213
      -0.219
      -0.185
      -0.118
      -0.049
      -0.013
      -0.020
      -0.043
      -0.041
       0.012
       0.109
       0.218
       0.300
       0.338
       0.334
       0.303
       0.258
       0.201
       0.137
       0.074
       0.025
      -0.004
      -0.020
      -0.041
      -0.072
      -0.101
      -0.106
      -0.079
      -0.031
       0.012
       0.032
       0.037
       0.046
       0.071
       0.104
       0.121
       0.105
       0.060
       0.007
      -0.035
      -0.056
      -0.064
      -0.067
      -0.067
      -0.054
      -0.019
       0.030
       0.075
       0.093
       0.082
       0.055
       0.027
      -0.005
      -0.054
      -0.121
      -0.182
      -0.202
      -0.173
      -0.120
      -0.086
      -0.089
      -0.111
      -0.118
      -0.091
      -0.038
       0.023
       0.083
       0.142
       0.189
       0.198
       0.149
       0.046
      -0.074
      -0.172
      -0.230
      -0.255
      -0.255
      -0.233
      -0.186
      -0.127
      -0.078
      -0.058
      -0.058
      -0.059
      -0.047
      -0.031
      -0.031
      -0.056
      -0.089
      -0.098
      -0.060
       0.024
       0.127
       0.220
       0.285
       0.325
       0.349
       0.353
       0.317
       0.222
       0.079
      -0.070
      -0.169
      -0.190
      -0.139
      -0.052
       0.040
       0.116
       0.164
       0.173
       0.135
       0.064
      -0.010
      -0.054
      -0.058
      -0.032
       0.003
       0.027
       0.030
       0.009
      -0.031
      -0.073
      -0.091
      -0.063
       0.008
       0.089
       0.143
       0.149
       0.121
       0.081
       0.040
      -0.017
      -0.100
      -0.195
      -0.260
      -0.261
      -0.205
      -0.139
      -0.112
      -0.136
      -0.188
      -0.231
      -0.250
      -0.253
      -0.246
      -0.221
      -0.164
      -0.078
       0.019
       0.101
       0.163
       0.208
       0.242
       0.260
       0.255
       0.233
       0.209
       0.191
       0.169
       0.130
       0.072
       0.012
      -0.033
      -0.056
      -0.065
      -0.066
      -0.067
      -0.078
      -0.112
      -0.174
      -0.251
      -0.312
      -0.328
      -0.295
      -0.244
      -0.208
      -0.197
      -0.190
      -0.165
      -0.119
      -0.069
      -0.030
       0.004
       0.049
       0.107
       0.166
       0.215
       0.261
       0.327
       0.423
       0.526
       0.589
       0.579
       0.498
       0.377
       0.245
       0.114
      -0.008
      -0.097
      -0.121
      -0.074
       0.006
       0.062
       0.054
      -0.005
      -0.071
      -0.101
      -0.082
      -0.035
       0.017
       0.057
       0.072
       0.054
       0.001
      -0.071
      -0.129
      -0.149
      -0.129
      -0.088
      -0.045
      -0.003
       0.044
       0.092
       0.122
       0.108
       0.043
      -0.051
      -0.136
      -0.188
      -0.208
      -0.204
      -0.175
      -0.112
      -0.015
       0.088
       0.149
       0.139
       0.072
      -0.009
      -0.066
      -0.100
      -0.139
      -0.202
      -0.270
      -0.307
      -0.291
      -0.235
      -0.170
      -0.120
      -0.090
      -0.072
      -0.065
      -0.073
      -0.097
      -0.126
      -0.140
      -0.121
      -0.059
       0.036
       0.143
       0.234
       0.284
       0.285
       0.250
       0.197
       0.146
       0.112
       0.108
       0.138
       0.196
       0.262
       0.309
       0.321
       0.304
       0.273
       0.239
       0.204
       0.164
       0.110
       0.034
      -0.067
      -0.181
      -0.281
      -0.333
      -0.320
      -0.254
      -0.170
      -0.100
      -0.065
      -0.074
      -0.136
      -0.246
      -0.378
      -0.478
      -0.494
      -0.410
      -0.262
      -0.107
       0.013
       0.091
       0.135
       0.151
       0.146
       0.138
       0.156
       0.206
       0.257
       0.259
       0.191
       0.083
      -0.004
      -0.029
       0.000
       0.049
       0.092
       0.128
       0.161
       0.178
       0.156
       0.091
       0.013
      -0.035
      -0.032
      -0.002
       0.009
      -0.021
      -0.071
      -0.085
      -0.016
       0.138
       0.328
       0.481
       0.547
       0.515
       0.413
       0.279
       0.141
       0.023
      -0.060
      -0.098
      -0.100
      -0.095
      -0.111
      -0.153
      -0.195
      -0.212
      -0.199
      -0.180
      -0.184
      -0.229
      -0.313
      -0.420
      -0.521
      -0.588
      -0.597
      -0.542
      -0.446
      -0.342
      -0.260
      -0.210
      -0.189
      -0.194
      -0.216
      -0.234
      -0.218
      -0.146
      -0.023
       0.115
       0.232
       0.314
       0.369
       0.408
       0.420
       0.380
       0.277
       0.131
      -0.009
      -0.099
      -0.137
      -0.152
      -0.185
      -0.250
      -0.331
      -0.403
      -0.458
      -0.504
      -0.556
      -0.615
      -0.670
      -0.706
      -0.715
      -0.700
      -0.662
      -0.606
      -0.543
      -0.489
      -0.451
      -0.416
      -0.352
      -0.231
      -0.046
       0.179
       0.405
       0.589
       0.698
       0.719
       0.671
       0.609
       0.599
       0.682
       0.848
       1.036
       1.175
       1.218
       1.155
       0.995
       0.763
       0.504
       0.274
       0.123
       0.057
       0.030
      -0.029
      -0.166
      -0.369
      -0.578
      -0.736
      -0.823
      -0.857
      -0.857
      -0.828
      -0.761
      -0.658
      -0.539
      -0.431
      -0.346
      -0.274
      -0.186
      -0.057
       0.120
       0.330
       0.548
       0.738
       0.867
       0.918
       0.895
       0.824
       0.731
       0.630
       0.517
       0.391
       0.267
       0.166
       0.091
       0.017
      -0.092
      -0.247
      -0.414
      -0.538
      -0.594
      -0.609
      -0.644
      -0.745
      -0.916
      -1.125
      -1.334
      -1.522
      -1.680
      -1.795
      -1.853
      -1.847
      -1.788
      -1.702
      -1.614
      -1.542
      -1.488
      -1.432
      -1.338
      -1.165
      -0.890
      -0.517
      -0.079
       0.381
       0.838
       1.298
       1.788
       2.328
       2.906
       3.483
       4.018
       4.491
       4.899
       5.239
       5.503
       5.686
       5.792
       5.831
       5.797
       5.655
       5.349
       4.835
       4.113
       3.244
       2.318
       1.411
       0.550
      -0.280
      -1.106
      -1.943
      -2.776
      -3.575
      -4.305
      -4.934
      -5.436
      -5.786
      -5.970
      -6.005
      -5.937
      -5.812
      -5.632
      -5.339
      -4.861
      -4.157
      -3.246
      -2.191
      -1.064
       0.068
       1.142
       2.100
       2.904
       3.554
       4.084
       4.525
       4.879
       5.118
       5.213
       5.151
       4.930
       4.539
       3.965
       3.221
       2.362
       1.470
       0.594
      -0.264
      -1.122
      -1.968
      -2.747
      -3.405
      -3.920
      -4.320
      -4.653
      -4.945
      -5.184
      -5.332
      -5.338
      -5.160
      -4.773
      -4.185
      -3.450
      -2.664
      -1.920
      -1.264
      -0.672
      -0.072
       0.604
       1.360
       2.121
       2.752
       3.120
       3.153
       2.880
       2.412
       1.897
       1.465
       1.180
       1.028
       0.931
       0.775
       0.461
      -0.047
      -0.704
      -1.401
      -2.023
      -2.491
      -2.787
      -2.948
      -3.036
      -3.102
      -3.147
      -3.115
      -2.918
      -2.492
      -1.842
      -1.044
      -0.203
       0.615
       1.407
       2.200
       2.992
       3.716
       4.276
       4.608
       4.721
       4.686
       4.593
       4.517
       4.511
       4.598
       4.743
       4.837
       4.718
       4.249
       3.400
       2.273
       1.053
      -0.096
      -1.092
      -1.942
      -2.681
      -3.318
      -3.824
      -4.157
      -4.305
      -4.296
      -4.179
      -4.001
      -3.782
      -3.509
      -3.154
      -2.697
      -2.158
      -1.600
      -1.099
      -0.693
      -0.364
      -0.054
       0.273
       0.608
       0.908
       1.142
       1.310
       1.431
       1.521
       1.570
       1.557
       1.468
       1.318
       1.151
       1.014
       0.934
       0.904
       0.885
       0.821
       0.667
       0.400
       0.028
      -0.408
      -0.854
      -1.242
      -1.505
      -1.583
      -1.445
      -1.106
      -0.642
      -0.175
       0.168
       0.316
       0.279
       0.150
       0.047
       0.055
       0.186
       0.384
       0.575
       0.709
       0.781
       0.806
       0.799
       0.768
       0.718
       0.645
       0.522
       0.291
      -0.093
      -0.619
      -1.191
      -1.675
      -1.964
      -2.023
      -1.883
      -1.612
      -1.287
      -0.989
      -0.805
      -0.796
      -0.945
      -1.135
      -1.188
      -0.963
      -0.454
       0.202
       0.797
       1.163
       1.246
       1.113
       0.895
       0.712
       0.619
       0.614
       0.658
       0.712
       0.741
       0.729
       0.688
       0.663
       0.708
       0.845
       1.037
       1.192
       1.213
       1.055
       0.753
       0.413
       0.164
       0.091
       0.203
       0.432
       0.674
       0.840
       0.883
       0.813
       0.666
       0.488
       0.312
       0.165
       0.080
       0.076
       0.144
       0.244
       0.336
       0.399
       0.440
       0.473
       0.500
       0.496
       0.423
       0.243
      -0.044
      -0.396
      -0.750
      -1.057
      -1.300
      -1.482
      -1.589
      -1.585
      -1.424
      -1.096
      -0.660
      -0.235
       0.045
       0.089
      -0.116
      -0.506
      -0.976
      -1.413
      -1.716
      -1.805
      -1.633
      -1.205
      -0.599
       0.048
       0.580
       0.882
       0.926
       0.779
       0.562
       0.395
       0.352
       0.445
       0.626
       0.807
       0.899
       0.864
       0.745
       0.651
       0.696
       0.927
       1.281
       1.612
       1.761
       1.637
       1.275
       0.816
       0.432
       0.232
       0.213
       0.293
       0.380
       0.427
       0.441
       0.443
       0.425
       0.348
       0.162
      -0.149
      -0.550
      -0.969
      -1.324
      -1.545
      -1.600
      -1.500
      -1.314
      -1.142
      -1.080
      -1.168
      -1.378
      -1.631
      -1.840
      -1.937
      -1.892
      -1.710
      -1.414
      -1.031
      -0.577
      -0.066
       0.472
       0.959
       1.280
       1.334
       1.112
       0.728
       0.367
       0.179
       0.201
       0.368
       0.587
       0.814
       1.052
       1.307
       1.535
       1.664
       1.645
       1.486
       1.240
       0.965
       0.693
       0.423
       0.139
      -0.158
      -0.440
      -0.652
      -0.737
      -0.664
      -0.448
      -0.152
       0.128
       0.296
       0.289
       0.097
      -0.223
      -0.567
      -0.817
      -0.906
      -0.854
      -0.751
      -0.695
      -0.735
      -0.843
      -0.947
      -0.976
      -0.896
      -0.719
      -0.501
      -0.315
      -0.221
      -0.228
      -0.272
      -0.255
      -0.115
       0.125
       0.379
       0.560
       0.635
       0.619
       0.546
       0.456
       0.401
       0.430
       0.555
       0.730
       0.879
       0.956
       0.963
       0.923
       0.836
       0.677
       0.424
       0.096
      -0.252
      -0.559
      -0.781
      -0.900
      -0.917
      -0.839
      -0.691
      -0.524
      -0.404
      -0.388
      -0.488
      -0.667
      -0.853
      -0.974
      -0.984
      -0.893
      -0.765
      -0.693
      -0.734
      -0.879
      -1.056
      -1.188
      -1.232
      -1.197
      -1.112
      -0.987
      -0.801
      -0.526
      -0.171
       0.209
       0.540
       0.772
       0.915
       1.006
       1.078
       1.130
       1.154
       1.158
       1.169
       1.199
       1.226
       1.203
       1.096
       0.912
       0.690
       0.468
       0.263
       0.087
      -0.046
      -0.123
      -0.150
      -0.166
      -0.215
      -0.315
      -0.443
      -0.549
      -0.568
      -0.446
      -0.165
       0.234
       0.641
