Origin Time       12/9/2014 07:56:44	 UTC
Lat.              26.1 N	
Long.             90.2 E	
Depth (Km)         10.0
Magnitude         4.2
 Region           Golpara-Assam                                                    
 Above details taken from IMD 
    
Station Code      BAR
Station Lat.       26.332  N
Station Long.      91.006  E
Station Height(m)   47.0
Site Class        C   Vs30 between 200 m/sec to 375 m/sec *  
Record Time       12.09.2014 07:54:16.899 UTC
Sampling Rate     200. Hz
 Record Duration   87.650 Sec.
 Direction         N-S (N positive)
Max. Acceleration    -12.626 cm/sec**2
     
  * For reference see Site Classification link of website 
     
 Base Line Corrected and Low Pass Filtered (Cut Off at 35 Hz) Time History
 Acceleration data in cm/sec**2
    
[...]
       0.045
       0.059
       0.064
       0.044
      -0.008
      -0.077
      -0.130
      -0.138
      -0.096
      -0.021
       0.060
       0.126
       0.164
       0.169
       0.143
       0.096
       0.046
       0.016
       0.020
       0.058
       0.113
       0.161
       0.184
       0.176
       0.134
       0.060
      -0.039
      -0.147
      -0.241
      -0.303
      -0.320
      -0.297
      -0.248
      -0.191
      -0.139
      -0.098
      -0.066
      -0.044
      -0.038
      -0.055
      -0.102
      -0.165
      -0.213
      -0.210
      -0.143
      -0.036
       0.071
       0.149
       0.196
       0.228
       0.260
       0.292
       0.310
       0.298
       0.249
       0.171
       0.085
       0.010
      -0.040
      -0.062
      -0.054
      -0.022
       0.020
       0.056
       0.064
       0.031
      -0.038
      -0.120
      -0.186
      -0.217
      -0.219
      -0.208
      -0.202
      -0.201
      -0.199
      -0.190
      -0.172
      -0.144
      -0.104
      -0.056
      -0.005
       0.046
       0.097
       0.152
       0.208
       0.250
       0.258
       0.225
       0.160
       0.090
       0.033
      -0.003
      -0.016
      -0.007
       0.025
       0.071
       0.107
       0.110
       0.066
      -0.011
      -0.090
      -0.136
      -0.138
      -0.112
      -0.088
      -0.083
      -0.087
      -0.075
      -0.031
       0.037
       0.108
       0.153
       0.156
       0.112
       0.025
      -0.088
      -0.195
      -0.263
      -0.270
      -0.223
      -0.145
      -0.060
       0.013
       0.059
       0.066
       0.031
      -0.032
      -0.091
      -0.114
      -0.085
      -0.014
       0.074
       0.147
       0.187
       0.191
       0.168
       0.130
       0.090
       0.053
       0.018
      -0.026
      -0.081
      -0.135
      -0.163
      -0.150
      -0.100
      -0.038
       0.004
       0.002
      -0.049
      -0.136
      -0.223
      -0.270
      -0.242
      -0.134
       0.023
       0.176
       0.271
       0.276
       0.199
       0.075
      -0.043
      -0.116
      -0.133
      -0.107
      -0.063
      -0.022
       0.006
       0.018
       0.009
      -0.019
      -0.053
      -0.070
      -0.059
      -0.028
       0.000
       0.012
       0.011
       0.007
       0.004
       0.000
      -0.010
      -0.018
      -0.012
       0.023
       0.084
       0.152
       0.197
       0.195
       0.145
       0.068
      -0.003
      -0.044
      -0.052
      -0.043
      -0.036
      -0.041
      -0.052
      -0.054
      -0.044
      -0.033
      -0.042
      -0.086
      -0.155
      -0.220
      -0.248
      -0.223
      -0.156
      -0.075
      -0.014
       0.007
      -0.007
      -0.030
      -0.033
      -0.003
       0.048
       0.100
       0.139
       0.161
       0.174
       0.183
       0.189
       0.186
       0.170
       0.147
       0.124
       0.110
       0.103
       0.099
       0.092
       0.071
       0.022
      -0.057
      -0.149
      -0.223
      -0.252
      -0.232
      -0.186
      -0.143
      -0.115
      -0.098
      -0.076
      -0.043
      -0.014
      -0.009
      -0.041
      -0.097
      -0.148
      -0.159
      -0.107
      -0.004
       0.111
       0.189
       0.202
       0.160
       0.102
       0.076
       0.104
       0.170
       0.233
       0.256
       0.230
       0.171
       0.105
       0.044
      -0.009
      -0.061
      -0.116
      -0.176
      -0.236
      -0.282
      -0.299
      -0.287
      -0.259
      -0.234
      -0.225
      -0.228
      -0.230
      -0.218
      -0.187
      -0.139
      -0.079
      -0.010
       0.056
       0.105
       0.127
       0.123
       0.109
       0.099
       0.103
       0.117
       0.131
       0.132
       0.118
       0.101
       0.099
       0.120
       0.152
       0.173
       0.168
       0.141
       0.103
       0.065
       0.029
      -0.012
      -0.065
      -0.133
      -0.206
      -0.273
      -0.321
      -0.340
      -0.325
      -0.278
      -0.213
      -0.150
      -0.102
      -0.073
      -0.061
      -0.061
      -0.070
      -0.079
      -0.081
      -0.067
      -0.032
       0.027
       0.107
       0.201
       0.301
       0.394
       0.463
       0.489
       0.462
       0.387
       0.285
       0.180
       0.086
       0.002
      -0.083
      -0.173
      -0.258
      -0.309
      -0.302
      -0.236
      -0.141
      -0.058
      -0.016
      -0.020
      -0.063
      -0.137
      -0.239
      -0.357
      -0.457
      -0.488
      -0.422
      -0.272
      -0.094
       0.057
       0.153
       0.196
       0.203
       0.191
       0.168
       0.141
       0.115
       0.096
       0.089
       0.100
       0.139
       0.207
       0.291
       0.359
       0.374
       0.312
       0.181
       0.024
      -0.107
      -0.177
      -0.189
      -0.176
      -0.168
      -0.177
      -0.189
      -0.187
      -0.163
      -0.125
      -0.083
      -0.045
      -0.017
      -0.004
      -0.012
      -0.041
      -0.079
      -0.111
      -0.119
      -0.102
      -0.067
      -0.025
       0.016
       0.057
       0.098
       0.136
       0.166
       0.181
       0.177
       0.148
       0.092
       0.004
      -0.106
      -0.220
      -0.307
      -0.333
      -0.285
      -0.177
      -0.048
       0.059
       0.118
       0.124
       0.091
       0.045
       0.010
      -0.004
      -0.011
      -0.030
      -0.061
      -0.081
      -0.065
      -0.005
       0.080
       0.159
       0.202
       0.195
       0.142
       0.062
      -0.020
      -0.073
      -0.078
      -0.034
       0.036
       0.098
       0.130
       0.131
       0.107
       0.067
       0.010
      -0.056
      -0.119
      -0.169
      -0.200
      -0.219
      -0.229
      -0.228
      -0.214
      -0.190
      -0.167
      -0.153
      -0.146
      -0.132
      -0.102
      -0.058
      -0.012
       0.025
       0.058
       0.096
       0.137
       0.165
       0.161
       0.122
       0.073
       0.041
       0.040
       0.064
       0.099
       0.142
       0.195
       0.253
       0.294
       0.284
       0.210
       0.091
      -0.032
      -0.122
      -0.161
      -0.150
      -0.097
      -0.014
       0.080
       0.159
       0.195
       0.178
       0.120
       0.046
      -0.028
      -0.104
      -0.195
      -0.295
      -0.376
      -0.401
      -0.349
      -0.236
      -0.107
      -0.010
       0.027
       0.014
      -0.024
      -0.054
      -0.060
      -0.041
      -0.012
       0.011
       0.021
       0.021
       0.022
       0.033
       0.062
       0.113
       0.175
       0.227
       0.241
       0.203
       0.126
       0.039
      -0.034
      -0.087
      -0.123
      -0.146
      -0.152
      -0.128
      -0.072
       0.006
       0.078
       0.122
       0.125
       0.096
       0.046
      -0.008
      -0.059
      -0.107
      -0.159
      -0.218
      -0.278
      -0.324
      -0.337
      -0.306
      -0.233
      -0.130
      -0.017
       0.084
       0.154
       0.187
       0.188
       0.178
       0.173
       0.175
       0.173
       0.152
       0.118
       0.095
       0.105
       0.150
       0.209
       0.250
       0.253
       0.214
       0.140
       0.045
      -0.057
      -0.153
      -0.225
      -0.265
      -0.276
      -0.272
      -0.261
      -0.243
      -0.206
      -0.146
      -0.077
      -0.020
       0.010
       0.013
      -0.002
      -0.026
      -0.051
      -0.069
      -0.065
      -0.026
       0.046
       0.125
       0.172
       0.161
       0.095
       0.008
      -0.061
      -0.089
      -0.078
      -0.044
      -0.006
       0.028
       0.062
       0.100
       0.139
       0.166
       0.169
       0.142
       0.090
       0.025
      -0.036
      -0.081
      -0.100
      -0.089
      -0.058
      -0.023
       0.002
       0.017
       0.030
       0.052
       0.078
       0.096
       0.100
       0.091
       0.070
       0.034
      -0.014
      -0.059
      -0.071
      -0.033
       0.042
       0.108
       0.124
       0.083
       0.018
      -0.025
      -0.034
      -0.034
      -0.059
      -0.117
      -0.179
      -0.208
      -0.192
      -0.146
      -0.096
      -0.049
       0.003
       0.073
       0.148
       0.197
       0.193
       0.138
       0.066
       0.019
       0.014
       0.032
       0.040
       0.018
      -0.020
      -0.041
      -0.031
      -0.014
      -0.031
      -0.103
      -0.209
      -0.307
      -0.363
      -0.372
      -0.353
      -0.323
      -0.289
      -0.242
      -0.171
      -0.073
       0.046
       0.167
       0.266
       0.320
       0.323
       0.286
       0.231
       0.171
       0.109
       0.053
       0.018
       0.024
       0.070
       0.126
       0.153
       0.129
       0.065
      -0.008
      -0.062
      -0.080
      -0.064
      -0.030
      -0.003
      -0.007
      -0.048
      -0.109
      -0.160
      -0.172
      -0.134
      -0.063
       0.011
       0.067
       0.093
       0.090
       0.064
       0.026
      -0.011
      -0.044
      -0.077
      -0.113
      -0.148
      -0.167
      -0.153
      -0.096
      -0.008
       0.083
       0.151
       0.188
       0.208
       0.220
       0.219
       0.189
       0.118
       0.017
      -0.080
      -0.135
      -0.123
      -0.047
       0.067
       0.185
       0.277
       0.324
       0.318
       0.258
       0.157
       0.034
      -0.090
      -0.203
      -0.297
      -0.361
      -0.377
      -0.339
      -0.258
      -0.165
      -0.088
      -0.037
      -0.004
       0.017
       0.017
      -0.019
      -0.090
      -0.164
      -0.201
      -0.177
      -0.100
      -0.004
       0.075
       0.114
       0.112
       0.086
       0.063
       0.065
       0.093
       0.133
       0.167
       0.185
       0.193
       0.198
       0.200
       0.194
       0.173
       0.135
       0.085
       0.031
      -0.024
      -0.082
      -0.149
      -0.226
      -0.303
      -0.351
      -0.339
      -0.254
      -0.119
       0.017
       0.106
       0.130
       0.097
       0.030
      -0.043
      -0.103
      -0.135
      -0.130
      -0.089
      -0.021
       0.054
       0.114
       0.146
       0.147
       0.120
       0.068
       0.004
      -0.052
      -0.071
      -0.037
       0.046
       0.144
       0.208
       0.201
       0.114
      -0.018
      -0.144
      -0.220
      -0.227
      -0.169
      -0.065
       0.064
       0.198
       0.319
       0.413
       0.458
       0.439
       0.355
       0.230
       0.105
       0.007
      -0.060
      -0.111
      -0.156
      -0.191
      -0.202
      -0.185
      -0.158
      -0.142
      -0.148
      -0.163
      -0.170
      -0.156
      -0.126
      -0.093
      -0.066
      -0.045
      -0.018
       0.027
       0.094
       0.166
       0.209
       0.198
       0.136
       0.051
      -0.022
      -0.066
      -0.087
      -0.102
      -0.124
      -0.151
      -0.174
      -0.182
      -0.174
      -0.157
      -0.147
      -0.163
      -0.213
      -0.280
      -0.329
      -0.328
      -0.278
      -0.215
      -0.174
      -0.169
      -0.181
      -0.183
      -0.157
      -0.109
      -0.055
      -0.013
       0.008
       0.001
      -0.040
      -0.110
      -0.190
      -0.250
      -0.274
      -0.262
      -0.229
      -0.182
      -0.116
      -0.030
       0.069
       0.159
       0.215
       0.226
       0.204
       0.176
       0.167
       0.176
       0.190
       0.193
       0.189
       0.187
       0.190
       0.183
       0.139
       0.040
      -0.107
      -0.261
      -0.373
      -0.407
      -0.364
      -0.278
      -0.195
      -0.154
      -0.165
      -0.220
      -0.300
      -0.376
      -0.420
      -0.405
      -0.316
      -0.164
       0.018
       0.185
       0.312
       0.395
       0.447
       0.475
       0.474
       0.439
       0.375
       0.300
       0.235
       0.188
       0.154
       0.127
       0.109
       0.104
       0.102
       0.077
       0.000
      -0.146
      -0.356
      -0.611
      -0.891
      -1.181
      -1.484
      -1.808
      -2.153
      -2.496
      -2.792
      -2.996
      -3.090
      -3.091
      -3.029
      -2.918
      -2.742
      -2.472
      -2.086
      -1.582
      -0.974
      -0.275
       0.499
       1.330
       2.201
       3.092
       3.969
       4.787
       5.497
       6.068
       6.497
       6.802
       7.003
       7.114
       7.132
       7.047
       6.863
       6.600
       6.294
       5.982
       5.684
       5.381
       5.013
       4.495
       3.758
       2.771
       1.552
       0.154
      -1.357
      -2.921
      -4.492
      -6.031
      -7.495
      -8.821
      -9.932
     -10.754
     -11.242
     -11.397
     -11.251
     -10.848
     -10.212
      -9.343
      -8.232
      -6.895
      -5.387
      -3.791
      -2.192
      -0.642
       0.851
       2.309
       3.756
       5.175
       6.503
       7.657
       8.568
       9.211
       9.610
       9.815
       9.878
       9.829
       9.660
       9.327
       8.770
       7.927
       6.758
       5.254
       3.445
       1.403
      -0.767
      -2.956
      -5.061
      -6.997
      -8.694
     -10.110
     -11.224
     -12.026
     -12.503
     -12.626
     -12.354
     -11.643
     -10.480
      -8.910
      -7.055
      -5.079
      -3.128
      -1.289
       0.419
       2.020
       3.532
       4.933
       6.158
       7.141
       7.856
       8.328
       8.599
       8.693
       8.598
       8.287
       7.734
       6.927
       5.868
       4.580
       3.113
       1.552
       0.007
      -1.404
      -2.585
      -3.481
      -4.092
      -4.466
      -4.675
      -4.796
      -4.883
      -4.946
      -4.955
      -4.852
      -4.587
      -4.134
      -3.509
      -2.766
      -1.976
      -1.187
      -0.415
       0.351
       1.110
       1.835
       2.480
       3.012
       3.427
       3.746
       3.988
       4.142
       4.182
       4.092
       3.887
       3.601
       3.246
       2.793
       2.190
       1.400
       0.442
      -0.603
      -1.624
      -2.517
      -3.226
      -3.739
      -4.062
      -4.188
      -4.103
      -3.797
      -3.285
      -2.612
      -1.842
      -1.055
      -0.335
       0.238
       0.623
       0.840
       0.967
       1.104
       1.305
       1.547
       1.744
       1.808
       1.711
       1.503
       1.282
       1.115
       0.998
       0.868
       0.674
       0.420
       0.159
      -0.066
      -0.256
      -0.437
      -0.624
      -0.806
      -0.956
      -1.057
      -1.121
      -1.188
      -1.288
      -1.415
      -1.523
      -1.550
      -1.446
      -1.183
      -0.768
      -0.242
       0.329
       0.879
       1.343
       1.659
       1.765
       1.635
       1.311
       0.912
       0.591
       0.458
       0.525
       0.718
       0.911
       0.983
       0.844
       0.461
      -0.122
      -0.778
      -1.335
      -1.652
      -1.688
      -1.501
      -1.192
      -0.836
      -0.462
      -0.081
       0.274
       0.545
       0.669
       0.622
       0.448
       0.252
       0.150
       0.218
       0.458
       0.815
       1.209
       1.574
       1.865
       2.052
       2.109
       2.011
       1.750
       1.352
       0.882
       0.420
       0.030
      -0.266
      -0.493
      -0.700
      -0.935
      -1.233
      -1.614
      -2.075
      -2.571
      -3.016
      -3.310
      -3.391
      -3.258
      -2.959
      -2.547
      -2.055
      -1.503
      -0.920
      -0.356
       0.138
       0.533
       0.846
       1.126
       1.437
       1.823
       2.295
       2.823
       3.340
       3.763
       4.025
       4.099
       3.990
       3.719
       3.313
       2.804
       2.219
       1.583
       0.915
       0.248
      -0.378
      -0.930
      -1.412
      -1.876
      -2.394
      -3.015
      -3.715
      -4.391
      -4.897
      -5.109
      -4.972
      -4.513
      -3.821
      -3.017
      -2.222
      -1.536
      -1.022
      -0.711
      -0.597
      -0.642
      -0.760
      -0.822
      -0.679
      -0.231
       0.519
       1.437
       2.313
       2.954
       3.271
       3.309
       3.192
       3.043
       2.918
       2.807
       2.675
       2.508
       2.329
       2.184
       2.105
       2.072
       2.004
       1.799
       1.385
       0.772
       0.053
      -0.643
      -1.208
      -1.592
      -1.798
      -1.851
      -1.783
      -1.624
      -1.412
      -1.187
      -0.979
      -0.801
      -0.653
      -0.530
      -0.418
      -0.300
      -0.162
      -0.020
       0.092
       0.143
       0.137
       0.106
       0.079
       0.065
       0.056
       0.039
      -0.001
      -0.100
      -0.304
      -0.639
      -1.061
      -1.448
      -1.662
      -1.627
      -1.377
      -1.034
      -0.726
      -0.514
      -0.359
      -0.155
       0.206
       0.764
       1.457
       2.141
       2.646
       2.855
       2.744
       2.382
       1.891
       1.398
       1.003
       0.756
       0.654
       0.648
       0.660
       0.621
       0.501
       0.321
       0.139
       0.005
      -0.086
      -0.207
      -0.449
      -0.852
      -1.374
      -1.910
      -2.358
      -2.657
      -2.789
      -2.755
      -2.558
      -2.201
      -1.724
      -1.207
      -0.764
      -0.500
      -0.455
      -0.570
      -0.702
      -0.684
      -0.416
       0.093
       0.737
       1.388
       1.946
       2.357
       2.594
       2.643
       2.503
       2.196
       1.768
       1.271
       0.747
       0.219
      -0.286
      -0.716
      -1.002
      -1.099
      -1.012
      -0.810
      -0.581
      -0.396
      -0.270
      -0.174
      -0.065
       0.067
       0.177
       0.197
       0.071
      -0.202
      -0.566
      -0.939
      -1.256
      -1.491
      -1.662
      -1.786
      -1.855
      -1.823
      -1.636
      -1.270
      -0.758
      -0.197
       0.274
       0.516
       0.447
       0.097
      -0.396
      -0.834
      -1.057
      -1.012
      -0.770
      -0.472
      -0.245
      -0.135
      -0.094
      -0.027
       0.149
       0.458
       0.852
       1.229
       1.483
       1.560
       1.491
       1.373
       1.321
       1.392
       1.546
       1.657
       1.580
       1.237
       0.675
       0.036
      -0.501
      -0.817
      -0.892
      -0.811
      -0.699
      -0.649
      -0.682
      -0.768
      -0.875
      -0.998
      -1.154
      -1.356
      -1.594
      -1.823
      -1.952
      -1.868
      -1.483
      -0.788
       0.121
       1.071
       1.886
       2.453
       2.742
       2.777
       2.603
       2.273
       1.854
       1.428
       1.078
       0.873
       0.841
       0.953
       1.125
       1.240
       1.190
       0.914
       0.420
      -0.212
      -0.854
      -1.367
      -1.643
      -1.638
      -1.380
      -0.950
      -0.446
       0.042
       0.454
       0.750
       0.898
       0.870
