Origin Time       01/05/2009 22:36:25
Lat.              29.9 N 
Long.             80.1 E 
Depth (Km)         10.0
Magnitude         4.6
 Region           Bageshwar-Uttarakhand                                            
 Above details taken from IMD 
     
Station Code      BAR
Station Lat.       30.809  N
Station Long.      78.205  E
Station Height(m) 1305.0
Site Class        A   Vs30 between 700 m/sec to 1400 m/sec * 
Record Time       01.05.2010 22:37:27.369
Sampling Rate     200. Hz
 Record Duration   82.385 Sec.
 Direction         E-W (E positive)
Max. Acceleration      1.876 cm/sec**2
     
  * For reference see Site Classification link of website 
     
 Base Line Corrected and Low Pass Filtered (Cut Off at 35 Hz) Time History
 Acceleration data in cm/sec**2
    
[...]
       0.053
       0.060
       0.062
       0.054
       0.031
      -0.006
      -0.054
      -0.107
      -0.158
      -0.205
      -0.246
      -0.283
      -0.320
      -0.361
      -0.406
      -0.443
      -0.459
      -0.447
      -0.408
      -0.351
      -0.283
      -0.205
      -0.119
      -0.023
       0.079
       0.185
       0.286
       0.377
       0.449
       0.501
       0.532
       0.549
       0.557
       0.560
       0.559
       0.554
       0.547
       0.536
       0.518
       0.493
       0.464
       0.431
       0.396
       0.361
       0.332
       0.312
       0.298
       0.285
       0.263
       0.227
       0.179
       0.127
       0.075
       0.025
      -0.028
      -0.086
      -0.149
      -0.216
      -0.283
      -0.343
      -0.387
      -0.411
      -0.413
      -0.399
      -0.373
      -0.343
      -0.315
      -0.292
      -0.273
      -0.255
      -0.234
      -0.211
      -0.186
      -0.163
      -0.142
      -0.125
      -0.115
      -0.113
      -0.121
      -0.135
      -0.151
      -0.172
      -0.202
      -0.245
      -0.296
      -0.348
      -0.395
      -0.434
      -0.462
      -0.478
      -0.483
      -0.474
      -0.453
      -0.424
      -0.387
      -0.344
      -0.291
      -0.230
      -0.166
      -0.103
      -0.040
       0.028
       0.105
       0.191
       0.287
       0.391
       0.503
       0.621
       0.737
       0.837
       0.911
       0.955
       0.971
       0.962
       0.927
       0.867
       0.785
       0.688
       0.580
       0.467
       0.349
       0.226
       0.102
      -0.019
      -0.127
      -0.215
      -0.284
      -0.336
      -0.370
      -0.382
      -0.368
      -0.329
      -0.277
      -0.225
      -0.186
      -0.160
      -0.137
      -0.106
      -0.067
      -0.029
      -0.005
      -0.004
      -0.024
      -0.059
      -0.105
      -0.166
      -0.241
      -0.325
      -0.403
      -0.465
      -0.509
      -0.545
      -0.583
      -0.626
      -0.667
      -0.692
      -0.684
      -0.634
      -0.544
      -0.421
      -0.281
      -0.139
      -0.006
       0.115
       0.230
       0.344
       0.458
       0.567
       0.663
       0.743
       0.806
       0.854
       0.889
       0.910
       0.915
       0.901
       0.874
       0.839
       0.797
       0.748
       0.686
       0.606
       0.506
       0.389
       0.266
       0.146
       0.037
      -0.061
      -0.149
      -0.235
      -0.326
      -0.421
      -0.514
      -0.596
      -0.660
      -0.708
      -0.741
      -0.756
      -0.753
      -0.731
      -0.694
      -0.647
      -0.598
      -0.550
      -0.502
      -0.453
      -0.404
      -0.355
      -0.307
      -0.263
      -0.223
      -0.190
      -0.166
      -0.152
      -0.147
      -0.145
      -0.140
      -0.132
      -0.125
      -0.124
      -0.133
      -0.152
      -0.178
      -0.203
      -0.221
      -0.227
      -0.219
      -0.201
      -0.173
      -0.132
      -0.076
      -0.002
       0.086
       0.177
       0.259
       0.327
       0.386
       0.441
       0.499
       0.561
       0.624
       0.686
       0.744
       0.796
       0.842
       0.882
       0.915
       0.936
       0.945
       0.937
       0.913
       0.871
       0.807
       0.718
       0.597
       0.445
       0.262
       0.054
      -0.174
      -0.412
      -0.646
      -0.861
      -1.049
      -1.208
      -1.340
      -1.447
      -1.526
      -1.573
      -1.585
      -1.556
      -1.484
      -1.365
      -1.198
      -0.987
      -0.740
      -0.473
      -0.196
       0.085
       0.367
       0.648
       0.920
       1.168
       1.377
       1.535
       1.637
       1.683
       1.674
       1.614
       1.507
       1.358
       1.171
       0.953
       0.712
       0.462
       0.211
      -0.032
      -0.260
      -0.464
      -0.632
      -0.756
      -0.831
      -0.862
      -0.857
      -0.826
      -0.772
      -0.696
      -0.608
      -0.517
      -0.432
      -0.352
      -0.272
      -0.191
      -0.109
      -0.032
       0.032
       0.083
       0.123
       0.159
       0.194
       0.223
       0.246
       0.266
       0.287
       0.311
       0.333
       0.344
       0.338
       0.320
       0.299
       0.277
       0.250
       0.212
       0.155
       0.079
      -0.011
      -0.106
      -0.194
      -0.272
      -0.340
      -0.405
      -0.471
      -0.538
      -0.608
      -0.682
      -0.757
      -0.826
      -0.884
      -0.923
      -0.935
      -0.914
      -0.857
      -0.766
      -0.650
      -0.518
      -0.375
      -0.223
      -0.066
       0.094
       0.250
       0.395
       0.525
       0.639
       0.742
       0.838
       0.932
       1.019
       1.088
       1.129
       1.135
       1.108
       1.045
       0.944
       0.806
       0.642
       0.471
       0.315
       0.191
       0.100
       0.030
      -0.033
      -0.099
      -0.170
      -0.246
      -0.320
      -0.386
      -0.438
      -0.474
      -0.491
      -0.492
      -0.479
      -0.455
      -0.425
      -0.387
      -0.343
      -0.292
      -0.232
      -0.164
      -0.088
      -0.006
       0.080
       0.168
       0.256
       0.340
       0.417
       0.487
       0.546
       0.586
       0.599
       0.577
       0.520
       0.429
       0.308
       0.163
       0.003
      -0.159
      -0.312
      -0.449
      -0.566
      -0.664
      -0.743
      -0.804
      -0.844
      -0.860
      -0.849
      -0.806
      -0.730
      -0.624
      -0.494
      -0.351
      -0.201
      -0.057
       0.068
       0.162
       0.218
       0.234
       0.221
       0.191
       0.153
       0.108
       0.056
       0.001
      -0.046
      -0.075
      -0.080
      -0.058
      -0.015
       0.046
       0.117
       0.187
       0.245
       0.275
       0.268
       0.218
       0.134
       0.033
      -0.063
      -0.134
      -0.171
      -0.177
      -0.163
      -0.141
      -0.120
      -0.099
      -0.076
      -0.047
      -0.008
       0.043
       0.109
       0.193
       0.289
       0.384
       0.460
       0.506
       0.516
       0.493
       0.443
       0.377
       0.309
       0.252
       0.211
       0.186
       0.165
       0.137
       0.095
       0.042
      -0.011
      -0.048
      -0.057
      -0.032
       0.027
       0.109
       0.202
       0.287
       0.351
       0.381
       0.368
       0.311
       0.210
       0.071
      -0.101
      -0.295
      -0.499
      -0.699
      -0.885
      -1.046
      -1.169
      -1.242
      -1.257
      -1.209
      -1.108
      -0.967
      -0.804
      -0.627
      -0.435
      -0.230
      -0.019
       0.185
       0.370
       0.529
       0.663
       0.770
       0.848
       0.889
       0.895
       0.873
       0.837
       0.800
       0.769
       0.742
       0.709
       0.659
       0.585
       0.491
       0.387
       0.284
       0.188
       0.099
       0.012
      -0.078
      -0.177
      -0.293
      -0.435
      -0.605
      -0.795
      -0.985
      -1.149
      -1.266
      -1.325
      -1.317
      -1.233
      -1.068
      -0.825
      -0.520
      -0.178
       0.178
       0.524
       0.845
       1.132
       1.380
       1.580
       1.720
       1.788
       1.773
       1.674
       1.500
       1.265
       0.981
       0.661
       0.316
      -0.041
      -0.397
      -0.740
      -1.057
      -1.335
      -1.561
      -1.723
      -1.813
      -1.828
      -1.775
      -1.663
      -1.503
      -1.305
      -1.076
      -0.831
      -0.579
      -0.327
      -0.079
       0.164
       0.396
       0.608
       0.787
       0.924
       1.013
       1.059
       1.068
       1.052
       1.019
       0.981
       0.947
       0.924
       0.912
       0.904
       0.885
       0.842
       0.765
       0.652
       0.505
       0.327
       0.124
      -0.094
      -0.312
      -0.511
      -0.673
      -0.788
      -0.859
      -0.900
      -0.922
      -0.931
      -0.926
      -0.903
      -0.856
      -0.782
      -0.677
      -0.541
      -0.377
      -0.191
       0.007
       0.202
       0.384
       0.544
       0.675
       0.776
       0.849
       0.896
       0.919
       0.921
       0.905
       0.874
       0.829
       0.769
       0.690
       0.589
       0.466
       0.322
       0.163
      -0.002
      -0.165
      -0.320
      -0.458
      -0.575
      -0.670
      -0.752
      -0.829
      -0.909
      -0.990
      -1.067
      -1.134
      -1.185
      -1.218
      -1.233
      -1.223
      -1.182
      -1.101
      -0.979
      -0.819
      -0.631
      -0.425
      -0.217
      -0.018
       0.163
       0.319
       0.441
       0.519
       0.549
       0.536
       0.499
       0.465
       0.454
       0.475
       0.523
       0.587
       0.651
       0.703
       0.733
       0.739
       0.719
       0.672
       0.597
       0.497
       0.381
       0.260
       0.139
       0.019
      -0.099
      -0.205
      -0.284
      -0.326
      -0.332
      -0.316
      -0.291
      -0.258
      -0.209
      -0.140
      -0.053
       0.037
       0.118
       0.182
       0.228
       0.259
       0.282
       0.305
       0.339
       0.391
       0.463
       0.541
       0.605
       0.634
       0.625
       0.586
       0.534
       0.476
       0.415
       0.346
       0.266
       0.170
       0.059
      -0.066
      -0.201
      -0.343
      -0.485
      -0.625
      -0.758
      -0.881
      -0.988
      -1.073
      -1.130
      -1.152
      -1.137
      -1.083
      -0.993
      -0.867
      -0.710
      -0.528
      -0.337
      -0.155
       0.004
       0.138
       0.253
       0.355
       0.444
       0.512
       0.547
       0.540
       0.491
       0.406
       0.294
       0.159
       0.007
      -0.152
      -0.304
      -0.432
      -0.517
      -0.550
      -0.532
      -0.471
      -0.377
      -0.257
      -0.121
       0.020
       0.150
       0.261
       0.354
       0.440
       0.529
       0.628
       0.732
       0.828
       0.902
       0.946
       0.960
       0.951
       0.927
       0.890
       0.844
       0.788
       0.723
       0.647
       0.555
       0.441
       0.302
       0.134
      -0.065
      -0.292
      -0.534
      -0.772
      -0.989
      -1.174
      -1.323
      -1.432
      -1.497
      -1.515
      -1.485
      -1.412
      -1.308
      -1.184
      -1.043
      -0.885
      -0.709
      -0.517
      -0.313
      -0.102
       0.115
       0.331
       0.541
       0.731
       0.892
       1.015
       1.101
       1.150
       1.160
       1.127
       1.055
       0.956
       0.847
       0.738
       0.630
       0.517
       0.395
       0.265
       0.136
       0.012
      -0.109
      -0.231
      -0.355
      -0.468
      -0.548
      -0.581
      -0.564
      -0.509
      -0.436
      -0.362
      -0.298
      -0.248
      -0.214
      -0.196
      -0.183
      -0.162
      -0.125
      -0.073
      -0.019
       0.021
       0.038
       0.033
       0.013
      -0.015
      -0.042
      -0.057
      -0.047
      -0.007
       0.057
       0.133
       0.206
       0.270
       0.322
       0.362
       0.391
       0.409
       0.420
       0.429
       0.436
       0.438
       0.427
       0.398
       0.348
       0.277
       0.184
       0.068
      -0.070
      -0.222
      -0.376
      -0.521
      -0.646
      -0.746
      -0.822
      -0.875
      -0.906
      -0.913
      -0.893
      -0.845
      -0.773
      -0.681
      -0.580
      -0.479
      -0.381
      -0.283
      -0.178
      -0.061
       0.071
       0.216
       0.358
       0.476
       0.545
       0.554
       0.509
       0.428
       0.337
       0.253
       0.185
       0.132
       0.091
       0.055
       0.019
      -0.024
      -0.076
      -0.129
      -0.164
      -0.162
      -0.106
       0.010
       0.177
       0.382
       0.607
       0.840
       1.070
       1.283
       1.460
       1.582
       1.632
       1.597
       1.472
       1.261
       0.975
       0.631
       0.253
      -0.131
      -0.492
      -0.809
      -1.067
      -1.265
      -1.410
      -1.514
      -1.581
      -1.608
      -1.586
      -1.507
      -1.373
      -1.199
      -1.003
      -0.805
      -0.613
      -0.426
      -0.238
      -0.046
       0.144
       0.316
       0.449
       0.521
       0.518
       0.436
       0.285
       0.089
      -0.120
      -0.309
      -0.451
      -0.533
      -0.558
      -0.531
      -0.461
      -0.350
      -0.199
      -0.019
       0.171
       0.351
       0.501
       0.610
       0.670
       0.686
       0.668
       0.639
       0.617
       0.609
       0.615
       0.624
       0.622
       0.596
       0.542
       0.463
       0.369
       0.271
       0.177
       0.088
       0.007
      -0.063
      -0.112
      -0.132
      -0.118
      -0.071
       0.001
       0.083
       0.162
       0.224
       0.255
       0.243
       0.176
       0.046
      -0.142
      -0.378
      -0.645
      -0.919
      -1.174
      -1.382
      -1.522
      -1.586
      -1.582
      -1.528
      -1.441
      -1.332
      -1.197
      -1.030
      -0.828
      -0.599
      -0.355
      -0.108
       0.131
       0.356
       0.571
       0.787
       1.014
       1.247
       1.469
       1.657
       1.792
       1.864
       1.876
       1.833
       1.739
       1.595
       1.403
       1.173
       0.925
       0.679
       0.451
       0.252
       0.090
      -0.033
      -0.119
      -0.180
      -0.231
      -0.289
      -0.359
      -0.437
      -0.512
      -0.573
      -0.615
      -0.637
      -0.643
      -0.639
      -0.633
      -0.632
      -0.636
      -0.640
      -0.636
      -0.618
      -0.588
      -0.553
      -0.525
      -0.511
      -0.507
      -0.500
      -0.475
      -0.428
      -0.368
      -0.312
      -0.277
      -0.266
      -0.273
      -0.290
      -0.311
      -0.333
      -0.348
      -0.346
      -0.316
      -0.259
      -0.183
      -0.103
      -0.035
       0.013
       0.037
       0.034
       0.011
      -0.026
      -0.062
      -0.083
      -0.081
      -0.058
      -0.022
       0.016
       0.052
       0.089
       0.129
       0.177
       0.234
       0.305
       0.394
       0.499
       0.615
       0.737
       0.864
       0.995
       1.123
       1.234
       1.313
       1.345
       1.329
       1.266
       1.160
       1.012
       0.826
       0.608
       0.370
       0.121
      -0.133
      -0.382
      -0.611
      -0.805
      -0.951
      -1.044
      -1.086
      -1.087
      -1.058
      -1.010
      -0.947
      -0.870
      -0.771
      -0.647
      -0.499
      -0.335
      -0.166
       0.002
       0.163
       0.313
       0.446
       0.552
       0.622
       0.652
       0.640
       0.586
       0.492
       0.361
       0.204
       0.035
      -0.132
      -0.286
      -0.420
      -0.527
      -0.607
      -0.663
      -0.702
      -0.729
      -0.748
      -0.753
      -0.735
      -0.688
      -0.613
      -0.518
      -0.410
      -0.293
      -0.166
      -0.031
       0.110
       0.250
       0.383
       0.501
       0.600
       0.679
       0.739
       0.780
       0.800
       0.796
       0.767
       0.714
       0.641
       0.553
       0.456
       0.349
       0.228
       0.090
      -0.061
      -0.213
      -0.351
      -0.462
      -0.540
      -0.583
      -0.596
      -0.583
      -0.549
      -0.504
      -0.460
      -0.425
      -0.402
      -0.392
      -0.396
      -0.411
      -0.432
      -0.445
      -0.439
      -0.409
      -0.356
      -0.285
      -0.202
      -0.114
      -0.025
       0.059
       0.136
       0.205
       0.261
       0.298
       0.310
       0.297
       0.271
       0.243
       0.224
       0.217
       0.228
       0.258
       0.305
       0.364
       0.425
       0.479
       0.522
       0.552
       0.565
       0.561
       0.539
       0.503
       0.458
       0.406
       0.344
       0.275
       0.205
       0.142
       0.095
       0.063
       0.043
       0.029
       0.015
      -0.011
      -0.062
      -0.149
      -0.266
      -0.393
      -0.504
      -0.581
      -0.619
      -0.626
      -0.611
      -0.582
      -0.545
      -0.502
      -0.454
      -0.401
      -0.347
      -0.298
      -0.258
      -0.232
      -0.217
      -0.205
      -0.184
      -0.144
      -0.087
      -0.022
       0.040
       0.093
       0.139
       0.185
       0.234
       0.286
       0.334
       0.369
       0.388
       0.388
       0.368
       0.329
       0.271
       0.192
       0.089
      -0.035
      -0.176
      -0.323
      -0.461
      -0.574
      -0.651
      -0.690
      -0.692
      -0.659
      -0.590
      -0.484
      -0.347
      -0.189
      -0.023
       0.144
       0.308
       0.468
       0.615
       0.733
       0.797
       0.794
       0.727
       0.616
       0.480
       0.339
       0.204
       0.083
      -0.020
      -0.099
      -0.151
      -0.180
      -0.189
      -0.184
      -0.168
      -0.141
      -0.103
      -0.054
       0.008
       0.082
       0.165
       0.249
       0.328
       0.398
       0.457
       0.510
       0.554
       0.583
       0.583
       0.540
       0.447
       0.309
       0.139
      -0.044
      -0.225
      -0.394
      -0.546
      -0.678
      -0.790
      -0.879
      -0.944
      -0.977
      -0.975
      -0.937
      -0.874
      -0.797
      -0.710
      -0.615
      -0.506
      -0.378
      -0.230
      -0.070
       0.091
       0.244
       0.381
       0.497
       0.591
       0.660
       0.705
       0.728
       0.730
       0.712
       0.674
       0.616
       0.541
       0.452
       0.351
       0.241
       0.120
      -0.008
      -0.140
      -0.272
      -0.405
      -0.538
      -0.667
      -0.781
      -0.865
      -0.908
      -0.908
      -0.870
      -0.803
      -0.717
      -0.622
      -0.523
      -0.424
      -0.326
      -0.222
      -0.103
       0.036
       0.193
       0.355
       0.502
       0.618
       0.689
       0.717
       0.709
       0.677
       0.636
       0.598
       0.569
       0.548
       0.530
       0.507
       0.472
       0.422
       0.361
       0.299
       0.248
       0.212
       0.183
       0.145
       0.079
      -0.026
      -0.168
      -0.332
      -0.493
      -0.630
      -0.726
      -0.772
      -0.766
      -0.712
      -0.619
      -0.496
      -0.354
      -0.202
      -0.053
       0.083
       0.196
       0.282
       0.337
       0.362
       0.353
       0.312
       0.247
       0.172
       0.104
       0.050
       0.008
      -0.032
      -0.082
      -0.150
      -0.234
      -0.327
      -0.416
      -0.487
      -0.529
      -0.532
      -0.492
      -0.406
      -0.278
      -0.116
       0.068
       0.257
       0.433
       0.583
       0.696
       0.764
       0.786
       0.765
       0.708
       0.622
       0.513
       0.384
       0.245
       0.102
      -0.030
      -0.141
      -0.222
      -0.273
      -0.297
      -0.304
      -0.304
