Origin Time       2/3/2013 01:30:40	 
Lat.              24.8 N	
Long.             92.2 E	
Depth (Km)         10.0
Magnitude         5.2
 Region           India-Bangladesh-Border                                          
 Above details taken from IMD 
   
Station Code      BAR
Station Lat.       26.332
Station Long.      91.006
Station Height(m)   47.0
Site Class        C   Vs30 between 200 m/sec to 375 m/sec *  
Record Time       02.03.2013 01:31:03.759
Sampling Rate     200. Hz
 Record Duration   83.155 Sec.
 Direction         Vert. (Up positive)
Max. Acceleration      3.808 cm/sec**2
     
  * For reference see Site Classification link of website 
     
 Base Line Corrected and Low Pass Filtered (Cut Off at 35 Hz) Time History
 Acceleration data in cm/sec**2
    
[...]
       0.012
      -0.208
      -0.293
      -0.123
       0.241
       0.599
       0.762
       0.665
       0.372
       0.022
      -0.231
      -0.276
      -0.112
       0.136
       0.295
       0.292
       0.209
       0.184
       0.256
       0.326
       0.291
       0.156
       0.012
      -0.088
      -0.188
      -0.328
      -0.455
      -0.461
      -0.305
      -0.076
       0.104
       0.192
       0.230
       0.264
       0.286
       0.266
       0.191
       0.063
      -0.119
      -0.332
      -0.489
      -0.465
      -0.207
       0.166
       0.425
       0.420
       0.207
      -0.012
      -0.094
      -0.081
      -0.107
      -0.226
      -0.349
      -0.370
      -0.303
      -0.266
      -0.329
      -0.415
      -0.391
      -0.233
      -0.073
      -0.059
      -0.191
      -0.309
      -0.247
      -0.010
       0.222
       0.237
      -0.001
      -0.303
      -0.392
      -0.152
       0.242
       0.456
       0.279
      -0.175
      -0.569
      -0.634
      -0.395
      -0.110
      -0.007
      -0.082
      -0.150
      -0.063
       0.125
       0.214
       0.073
      -0.210
      -0.389
      -0.290
       0.026
       0.303
       0.316
       0.074
      -0.179
      -0.159
       0.211
       0.724
       1.034
       0.920
       0.446
      -0.105
      -0.444
      -0.463
      -0.271
      -0.076
      -0.015
      -0.072
      -0.113
      -0.006
       0.258
       0.549
       0.696
       0.618
       0.386
       0.162
       0.065
       0.092
       0.140
       0.105
      -0.048
      -0.294
      -0.568
      -0.775
      -0.805
      -0.609
      -0.297
      -0.109
      -0.213
      -0.511
      -0.674
      -0.443
       0.089
       0.516
       0.492
       0.076
      -0.324
      -0.352
      -0.053
       0.215
       0.181
      -0.057
      -0.179
      -0.017
       0.261
       0.367
       0.213
      -0.009
      -0.062
       0.083
       0.253
       0.287
       0.204
       0.142
       0.197
       0.339
       0.473
       0.523
       0.455
       0.273
       0.017
      -0.235
      -0.415
      -0.521
      -0.606
      -0.688
      -0.684
      -0.476
      -0.055
       0.414
       0.698
       0.697
       0.530
       0.414
       0.431
       0.453
       0.284
      -0.108
      -0.534
      -0.735
      -0.602
      -0.246
       0.119
       0.348
       0.431
       0.435
       0.417
       0.378
       0.274
       0.071
      -0.203
      -0.434
      -0.487
      -0.322
      -0.054
       0.151
       0.239
       0.318
       0.498
       0.709
       0.723
       0.408
      -0.079
      -0.394
      -0.343
      -0.090
       0.003
      -0.265
      -0.739
      -1.058
      -0.979
      -0.561
      -0.103
       0.098
      -0.058
      -0.415
      -0.668
      -0.579
      -0.150
       0.364
       0.642
       0.549
       0.217
      -0.096
      -0.247
      -0.288
      -0.328
      -0.364
      -0.275
       0.009
       0.378
       0.608
       0.550
       0.270
       0.006
      -0.017
       0.241
       0.605
       0.820
       0.748
       0.458
       0.142
      -0.061
      -0.141
      -0.147
      -0.095
       0.035
       0.209
       0.312
       0.249
       0.079
      -0.002
       0.145
       0.416
       0.505
       0.197
      -0.384
      -0.833
      -0.824
      -0.411
       0.023
       0.127
      -0.112
      -0.408
      -0.485
      -0.323
      -0.106
      -0.005
      -0.039
      -0.131
      -0.213
      -0.252
      -0.214
      -0.078
       0.110
       0.240
       0.229
       0.103
      -0.019
      -0.041
       0.047
       0.189
       0.316
       0.369
       0.305
       0.107
      -0.187
      -0.511
      -0.803
      -1.019
      -1.103
      -0.987
      -0.660
      -0.233
       0.116
       0.291
       0.367
       0.498
       0.732
       0.950
       0.987
       0.809
       0.525
       0.261
       0.035
      -0.208
      -0.466
      -0.639
      -0.636
      -0.485
      -0.316
      -0.223
      -0.179
      -0.091
       0.068
       0.215
       0.243
       0.147
       0.051
       0.094
       0.287
       0.499
       0.574
       0.474
       0.285
       0.119
       0.007
      -0.091
      -0.217
      -0.347
      -0.410
      -0.352
      -0.193
      -0.009
       0.144
       0.285
       0.474
       0.716
       0.911
       0.907
       0.624
       0.126
      -0.410
      -0.800
      -0.949
      -0.876
      -0.673
      -0.439
      -0.243
      -0.121
      -0.082
      -0.089
      -0.051
       0.114
       0.372
       0.539
       0.410
      -0.031
      -0.545
      -0.820
      -0.736
      -0.446
      -0.206
      -0.141
      -0.170
      -0.136
       0.023
       0.237
       0.402
       0.483
       0.515
       0.513
       0.442
       0.282
       0.116
       0.088
       0.255
       0.482
       0.550
       0.381
       0.124
      -0.004
       0.032
       0.038
      -0.187
      -0.604
      -0.956
      -1.012
      -0.767
      -0.393
      -0.048
       0.219
       0.414
       0.511
       0.475
       0.326
       0.164
       0.081
       0.076
       0.057
      -0.040
      -0.155
      -0.148
       0.044
       0.294
       0.359
       0.104
      -0.339
      -0.644
      -0.558
      -0.133
       0.302
       0.421
       0.183
      -0.134
      -0.178
       0.164
       0.671
       0.968
       0.837
       0.373
      -0.116
      -0.368
      -0.353
      -0.256
      -0.281
      -0.485
      -0.750
      -0.900
      -0.842
      -0.628
      -0.388
      -0.207
      -0.065
       0.101
       0.293
       0.420
       0.403
       0.269
       0.140
       0.116
       0.191
       0.273
       0.284
       0.206
       0.060
      -0.128
      -0.330
      -0.504
      -0.601
      -0.609
      -0.553
      -0.445
      -0.248
       0.083
       0.504
       0.845
       0.906
       0.651
       0.274
       0.060
       0.139
       0.372
       0.488
       0.348
       0.059
      -0.149
      -0.149
      -0.006
       0.130
       0.179
       0.164
       0.120
       0.041
      -0.090
      -0.237
      -0.311
      -0.267
      -0.164
      -0.122
      -0.210
      -0.383
      -0.534
      -0.590
      -0.562
      -0.495
      -0.408
      -0.281
      -0.095
       0.132
       0.349
       0.504
       0.562
       0.525
       0.440
       0.372
       0.343
       0.288
       0.123
      -0.148
      -0.400
      -0.512
      -0.505
      -0.522
      -0.645
      -0.770
      -0.698
      -0.347
       0.138
       0.518
       0.662
       0.626
       0.551
       0.518
       0.534
       0.596
       0.704
       0.796
       0.727
       0.387
      -0.136
      -0.572
      -0.700
      -0.571
      -0.477
      -0.656
      -1.036
      -1.281
      -1.127
      -0.640
      -0.145
       0.104
       0.159
       0.264
       0.540
       0.829
       0.881
       0.659
       0.419
       0.442
       0.698
       0.825
       0.481
      -0.269
      -0.947
      -1.069
      -0.599
       0.007
       0.190
      -0.226
      -0.905
      -1.304
      -1.119
      -0.480
       0.218
       0.658
       0.803
       0.840
       0.968
       1.222
       1.456
       1.455
       1.077
       0.365
      -0.445
      -1.027
      -1.166
      -0.906
      -0.510
      -0.237
      -0.132
      -0.041
       0.166
       0.403
       0.424
       0.093
      -0.443
      -0.854
      -0.908
      -0.654
      -0.321
      -0.083
       0.076
       0.275
       0.548
       0.767
       0.751
       0.458
       0.064
      -0.160
      -0.083
       0.180
       0.390
       0.405
       0.290
       0.204
       0.220
       0.263
       0.209
       0.011
      -0.271
      -0.521
      -0.626
      -0.527
      -0.257
       0.040
       0.175
       0.058
      -0.205
      -0.369
      -0.258
       0.061
       0.326
       0.319
       0.061
      -0.220
      -0.314
      -0.218
      -0.113
      -0.167
      -0.381
      -0.602
      -0.672
      -0.534
      -0.227
       0.174
       0.588
       0.915
       1.061
       1.008
       0.843
       0.695
       0.614
       0.530
       0.331
      -0.013
      -0.417
      -0.747
      -0.899
      -0.837
      -0.595
      -0.279
      -0.038
       0.032
      -0.043
      -0.138
      -0.143
      -0.048
       0.071
       0.119
       0.049
      -0.122
      -0.328
      -0.485
      -0.542
      -0.515
      -0.449
      -0.349
      -0.157
       0.171
       0.557
       0.796
       0.715
       0.352
      -0.040
      -0.213
      -0.163
      -0.119
      -0.288
      -0.611
      -0.830
      -0.765
      -0.492
      -0.223
      -0.055
       0.101
       0.366
       0.713
       0.980
       1.025
       0.832
       0.484
       0.085
      -0.267
      -0.473
      -0.453
      -0.221
       0.102
       0.354
       0.450
       0.423
       0.364
       0.342
       0.358
       0.353
       0.246
       0.001
      -0.313
      -0.531
      -0.515
      -0.302
      -0.101
      -0.117
      -0.338
      -0.533
      -0.476
      -0.189
       0.074
       0.080
      -0.146
      -0.363
      -0.379
      -0.243
      -0.167
      -0.270
      -0.445
      -0.462
      -0.193
       0.265
       0.665
       0.804
       0.658
       0.378
       0.161
       0.104
       0.150
       0.160
       0.044
      -0.158
      -0.324
      -0.364
      -0.282
      -0.142
       0.007
       0.150
       0.264
       0.307
       0.256
       0.147
       0.040
      -0.052
      -0.161
      -0.269
      -0.253
       0.009
       0.470
       0.879
       0.978
       0.738
       0.398
       0.237
       0.313
       0.418
       0.291
      -0.123
      -0.631
      -0.978
      -1.060
      -0.971
      -0.865
      -0.810
      -0.759
      -0.627
      -0.376
      -0.049
       0.252
       0.420
       0.405
       0.244
       0.048
      -0.061
      -0.016
       0.166
       0.381
       0.503
       0.465
       0.307
       0.142
       0.067
       0.090
       0.153
       0.206
       0.247
       0.275
       0.247
       0.098
      -0.158
      -0.395
      -0.463
      -0.333
      -0.130
      -0.003
       0.018
       0.027
       0.116
       0.272
       0.403
       0.471
       0.549
       0.701
       0.831
       0.698
       0.162
      -0.593
      -1.159
      -1.256
      -0.987
      -0.708
      -0.665
      -0.782
      -0.800
      -0.592
      -0.295
      -0.131
      -0.136
      -0.109
       0.162
       0.644
       1.074
       1.211
       1.056
       0.795
       0.566
       0.331
      -0.005
      -0.397
      -0.628
      -0.506
      -0.089
       0.323
       0.429
       0.195
      -0.128
      -0.233
      -0.042
       0.242
       0.333
       0.127
      -0.213
      -0.419
      -0.352
      -0.094
       0.166
       0.306
       0.345
       0.364
       0.396
       0.409
       0.351
       0.204
      -0.023
      -0.308
      -0.623
      -0.924
      -1.153
      -1.254
      -1.180
      -0.903
      -0.434
       0.150
       0.710
       1.084
       1.173
       1.007
       0.723
       0.463
       0.258
       0.047
      -0.195
      -0.365
      -0.314
      -0.036
       0.282
       0.433
       0.398
       0.337
       0.383
       0.485
       0.502
       0.392
       0.243
       0.109
      -0.088
      -0.431
      -0.818
      -0.992
      -0.811
      -0.428
      -0.152
      -0.123
      -0.185
      -0.077
       0.281
       0.715
       0.981
       0.960
       0.692
       0.282
      -0.180
      -0.618
      -0.959
      -1.165
      -1.248
      -1.236
      -1.112
      -0.815
      -0.344
       0.162
       0.481
       0.485
       0.250
      -0.016
      -0.137
      -0.070
       0.133
       0.381
       0.575
       0.635
       0.569
       0.491
       0.519
       0.638
       0.689
       0.521
       0.141
      -0.288
      -0.582
      -0.661
      -0.580
      -0.491
      -0.569
      -0.909
      -1.405
      -1.750
      -1.624
      -0.973
      -0.108
       0.530
       0.726
       0.659
       0.688
       1.001
       1.430
       1.603
       1.267
       0.506
      -0.307
      -0.781
      -0.780
      -0.499
      -0.289
      -0.350
      -0.574
      -0.661
      -0.416
       0.053
       0.441
       0.516
       0.306
       0.017
      -0.185
      -0.290
      -0.390
      -0.540
      -0.712
      -0.837
      -0.869
      -0.792
      -0.597
      -0.285
       0.098
       0.461
       0.725
       0.882
       0.970
       0.972
       0.796
       0.388
      -0.109
      -0.403
      -0.305
       0.051
       0.299
       0.181
      -0.201
      -0.488
      -0.414
      -0.043
       0.302
       0.341
       0.064
      -0.295
      -0.472
      -0.361
      -0.062
       0.222
       0.333
       0.284
       0.256
       0.417
       0.725
       0.924
       0.797
       0.412
       0.055
      -0.090
      -0.136
      -0.326
      -0.694
      -0.978
      -0.867
      -0.323
       0.358
       0.802
       0.853
       0.660
       0.505
       0.552
       0.722
       0.781
       0.531
      -0.045
      -0.811
      -1.595
      -2.275
      -2.768
      -2.971
      -2.744
      -1.992
      -0.765
       0.721
       2.154
       3.242
       3.802
       3.808
       3.378
       2.699
       1.913
       1.035
       0.002
      -1.179
      -2.296
      -2.992
      -3.029
      -2.540
      -1.980
      -1.738
      -1.730
      -1.441
      -0.446
       1.071
       2.369
       2.751
       2.157
       1.158
       0.421
       0.188
       0.225
       0.180
      -0.078
      -0.439
      -0.753
      -0.979
      -1.133
      -1.188
      -1.102
      -0.951
      -0.924
      -1.116
      -1.334
      -1.199
      -0.518
       0.476
       1.300
       1.653
       1.626
       1.500
       1.408
       1.261
       0.959
       0.595
       0.388
       0.446
       0.622
       0.619
       0.255
      -0.353
      -0.848
      -0.915
      -0.534
       0.009
       0.375
       0.462
       0.457
       0.601
       0.893
       1.048
       0.760
       0.013
      -0.882
      -1.561
      -1.888
      -1.977
      -1.964
      -1.842
      -1.527
      -1.012
      -0.398
       0.228
       0.853
       1.454
       1.901
       2.050
       1.907
       1.642
       1.396
       1.113
       0.620
      -0.140
      -1.009
      -1.760
      -2.286
      -2.591
      -2.636
      -2.263
      -1.334
       0.058
       1.533
       2.589
       2.891
       2.444
       1.571
       0.712
       0.167
      -0.046
      -0.162
      -0.453
      -1.019
      -1.720
      -2.286
      -2.495
      -2.264
      -1.635
      -0.727
       0.296
       1.251
       1.987
       2.458
       2.726
       2.867
       2.842
       2.500
       1.739
       0.697
      -0.255
      -0.765
      -0.776
      -0.548
      -0.420
      -0.531
      -0.766
      -0.916
      -0.858
      -0.581
      -0.124
       0.407
       0.770
       0.639
      -0.120
      -1.202
      -1.980
      -1.989
      -1.335
      -0.599
      -0.295
      -0.407
      -0.478
      -0.124
       0.538
       0.999
       0.866
       0.242
      -0.383
      -0.569
      -0.265
       0.242
       0.646
       0.858
       0.986
       1.114
       1.156
       0.932
       0.390
      -0.271
      -0.736
      -0.851
      -0.761
      -0.747
      -0.888
      -0.924
      -0.508
       0.362
       1.220
       1.527
       1.206
       0.734
       0.652
       1.022
       1.390
       1.296
       0.735
       0.123
      -0.160
      -0.128
      -0.121
      -0.419
      -0.956
      -1.411
      -1.527
      -1.324
      -1.039
      -0.903
      -1.013
      -1.313
      -1.639
      -1.746
      -1.417
      -0.637
       0.323
       1.076
       1.418
       1.473
       1.492
       1.546
       1.447
       0.993
       0.258
      -0.396
      -0.616
      -0.374
       0.000
       0.100
      -0.209
      -0.686
      -0.914
      -0.629
       0.089
       0.895
       1.418
       1.487
       1.196
       0.797
       0.487
       0.263
      -0.042
      -0.549
      -1.171
      -1.663
      -1.839
      -1.716
      -1.439
      -1.126
      -0.798
      -0.453
      -0.117
       0.189
       0.509
       0.898
       1.306
       1.530
       1.356
       0.758
      -0.037
      -0.699
      -1.020
      -1.009
      -0.821
      -0.622
      -0.509
      -0.494
      -0.502
      -0.408
      -0.121
       0.302
       0.662
       0.763
       0.586
       0.310
       0.149
       0.167
       0.252
       0.231
       0.010
      -0.368
      -0.734
      -0.841
      -0.478
       0.333
       1.244
       1.750
       1.584
       0.980
       0.496
       0.497
       0.802
       0.853
       0.257
      -0.819
      -1.783
      -2.138
      -1.898
      -1.517
      -1.433
      -1.684
      -1.929
      -1.793
      -1.172
      -0.256
       0.645
       1.278
       1.531
       1.453
       1.236
       1.120
       1.219
       1.411
       1.423
       1.080
       0.497
       0.007
      -0.133
       0.032
       0.229
       0.251
       0.124
      -0.033
      -0.258
      -0.758
      -1.617
      -2.548
      -3.042
      -2.811
      -2.061
      -1.274
      -0.714
      -0.205
       0.594
       1.733
       2.846
       3.467
       3.439
       2.985
       2.418
       1.854
       1.200
       0.377
      -0.514
      -1.249
      -1.661
      -1.737
      -1.566
      -1.257
      -0.903
      -0.600
      -0.420
      -0.355
      -0.324
      -0.271
      -0.238
      -0.322
      -0.529
      -0.736
      -0.787
      -0.636
      -0.385
      -0.185
      -0.112
      -0.096
       0.030
       0.373
       0.832
       1.129
       1.027
       0.565
       0.045
      -0.205
      -0.078
       0.294
       0.707
       1.050
       1.292
       1.383
       1.238
       0.842
       0.356
       0.037
       0.020
       0.178
       0.211
      -0.100
      -0.710
      -1.324
      -1.604
      -1.413
      -0.906
      -0.404
      -0.121
      -0.023
       0.074
       0.260
       0.430
       0.404
       0.121
      -0.295
      -0.631
      -0.729
      -0.578
      -0.307
      -0.089
      -0.006
       0.015
       0.125
       0.380
       0.653
       0.723
       0.457
      -0.080
      -0.687
      -1.148
      -1.310
      -1.116
      -0.641
      -0.121
       0.125
      -0.095
      -0.635
      -1.035
      -0.835
       0.022
       1.086
       1.766
       1.866
       1.766
       2.002
       2.652
       3.183
       2.941
       1.799
       0.312
      -0.754
      -1.022
      -0.730
      -0.446
      -0.623
      -1.318
      -2.228
      -2.919
      -3.085
      -2.687
      -1.932
      -1.125
      -0.507
      -0.146
       0.063
       0.281
       0.562
       0.761
       0.625
       0.049
      -0.745
      -1.291
      -1.215
      -0.524
       0.406
       1.129
       1.421
       1.350
       1.127
