Origin Time       06/11/2013 04:16:16
Lat.              26.5 N	
Long.             93.5 E	
Depth (Km)         20.0
Magnitude         5.5
 Region           Karbi-Assam                                                      
 Above details taken from IMD 
     
Station Code      BAR
Station Lat.       26.332  N
Station Long.      91.006  E
Station Height(m)   47.0
Site Class        C   Vs30 between 200 m/sec to 375 m/sec *  
Record Time       06.11.2013 04:16:48.119
Sampling Rate     200. Hz
 Record Duration   85.660 Sec.
 Direction         E-W (E positive)
Max. Acceleration      3.805 cm/sec**2
     
  * For reference see Site Classification link of website 
     
 Base Line Corrected and Low Pass Filtered (Cut Off at 35 Hz) Time History
 Acceleration data in cm/sec**2
    
[...]
       0.622
       0.457
       0.349
       0.289
       0.248
       0.195
       0.123
       0.048
       0.000
       0.004
       0.069
       0.181
       0.317
       0.452
       0.560
       0.622
       0.632
       0.591
       0.506
       0.379
       0.214
       0.036
      -0.112
      -0.187
      -0.177
      -0.111
      -0.043
      -0.014
      -0.037
      -0.091
      -0.149
      -0.190
      -0.207
      -0.188
      -0.125
      -0.014
       0.130
       0.281
       0.420
       0.551
       0.689
       0.841
       0.993
       1.119
       1.209
       1.271
       1.323
       1.371
       1.400
       1.376
       1.274
       1.087
       0.829
       0.526
       0.200
      -0.132
      -0.452
      -0.740
      -0.974
      -1.136
      -1.219
      -1.233
      -1.205
      -1.174
      -1.178
      -1.243
      -1.379
      -1.565
      -1.753
      -1.885
      -1.926
      -1.876
      -1.763
      -1.616
      -1.452
      -1.278
      -1.107
      -0.964
      -0.874
      -0.840
      -0.830
      -0.791
      -0.675
      -0.464
      -0.175
       0.158
       0.496
       0.813
       1.090
       1.319
       1.495
       1.609
       1.654
       1.635
       1.569
       1.484
       1.402
       1.322
       1.223
       1.079
       0.884
       0.660
       0.443
       0.269
       0.157
       0.112
       0.121
       0.159
       0.186
       0.160
       0.055
      -0.137
      -0.407
      -0.735
      -1.096
      -1.450
      -1.743
      -1.916
      -1.929
      -1.771
      -1.468
      -1.066
      -0.610
      -0.116
       0.423
       1.017
       1.646
       2.251
       2.753
       3.082
       3.197
       3.089
       2.772
       2.279
       1.659
       0.971
       0.278
      -0.369
      -0.920
      -1.340
      -1.612
      -1.749
      -1.792
      -1.795
      -1.806
      -1.853
      -1.945
      -2.080
      -2.255
      -2.460
      -2.677
      -2.868
      -2.980
      -2.957
      -2.759
      -2.372
      -1.810
      -1.111
      -0.321
       0.513
       1.341
       2.107
       2.744
       3.188
       3.399
       3.378
       3.172
       2.857
       2.510
       2.185
       1.902
       1.658
       1.442
       1.255
       1.094
       0.940
       0.749
       0.466
       0.068
      -0.417
      -0.921
      -1.365
      -1.693
      -1.883
      -1.939
      -1.881
      -1.730
      -1.508
      -1.237
      -0.952
      -0.694
      -0.511
      -0.438
      -0.483
      -0.619
      -0.778
      -0.871
      -0.821
      -0.593
      -0.203
       0.292
       0.827
       1.354
       1.846
       2.294
       2.681
       2.977
       3.132
       3.094
       2.837
       2.381
       1.796
       1.174
       0.598
       0.112
      -0.286
      -0.635
      -0.973
      -1.318
      -1.652
      -1.939
      -2.144
      -2.252
      -2.271
      -2.217
      -2.111
      -1.974
      -1.824
      -1.683
      -1.577
      -1.526
      -1.539
      -1.599
      -1.673
      -1.724
      -1.714
      -1.610
      -1.382
      -1.014
      -0.514
       0.067
       0.648
       1.139
       1.485
       1.679
       1.762
       1.797
       1.839
       1.912
       2.017
       2.135
       2.239
       2.298
       2.283
       2.170
       1.954
       1.649
       1.284
       0.887
       0.473
       0.039
      -0.426
      -0.915
      -1.388
      -1.765
      -1.956
      -1.901
      -1.613
      -1.180
      -0.718
      -0.318
      -0.016
       0.194
       0.321
       0.351
       0.264
       0.065
      -0.194
      -0.432
      -0.567
      -0.544
      -0.354
      -0.026
       0.386
       0.816
       1.193
       1.445
       1.516
       1.394
       1.114
       0.746
       0.361
      -0.003
      -0.344
      -0.679
      -1.004
      -1.279
      -1.435
      -1.419
      -1.231
      -0.939
      -0.648
      -0.459
      -0.424
      -0.532
      -0.716
      -0.880
      -0.934
      -0.813
      -0.498
      -0.011
       0.580
       1.174
       1.659
       1.950
       2.021
       1.918
       1.731
       1.543
       1.395
       1.283
       1.179
       1.063
       0.931
       0.784
       0.618
       0.415
       0.149
      -0.193
      -0.604
      -1.046
      -1.465
      -1.809
      -2.048
      -2.170
      -2.181
      -2.085
      -1.881
      -1.572
      -1.178
      -0.739
      -0.314
       0.029
       0.228
       0.244
       0.089
      -0.164
      -0.397
      -0.488
      -0.376
      -0.098
       0.226
       0.454
       0.493
       0.347
       0.106
      -0.102
      -0.166
      -0.031
       0.294
       0.735
       1.180
       1.512
       1.643
       1.540
       1.233
       0.805
       0.358
      -0.021
      -0.285
      -0.439
      -0.528
      -0.603
      -0.688
      -0.748
      -0.708
      -0.507
      -0.156
       0.249
       0.568
       0.682
       0.548
       0.201
      -0.277
      -0.800
      -1.291
      -1.687
      -1.929
      -1.962
      -1.760
      -1.350
      -0.825
      -0.322
       0.030
       0.162
       0.094
      -0.087
      -0.258
      -0.317
      -0.210
       0.058
       0.450
       0.922
       1.437
       1.962
       2.449
       2.833
       3.037
       2.997
       2.691
       2.156
       1.478
       0.754
       0.060
      -0.562
      -1.085
      -1.475
      -1.696
      -1.726
      -1.588
      -1.352
      -1.101
      -0.902
      -0.786
      -0.758
      -0.822
      -0.973
      -1.193
      -1.436
      -1.635
      -1.728
      -1.682
      -1.494
      -1.177
      -0.746
      -0.216
       0.380
       0.986
       1.522
       1.909
       2.079
       2.005
       1.710
       1.271
       0.795
       0.388
       0.116
      -0.005
      -0.009
       0.037
       0.062
       0.025
      -0.069
      -0.180
      -0.267
      -0.315
      -0.326
      -0.307
      -0.255
      -0.161
      -0.022
       0.151
       0.313
       0.386
       0.277
      -0.077
      -0.646
      -1.295
      -1.818
      -2.027
      -1.832
      -1.288
      -0.567
       0.107
       0.550
       0.670
       0.482
       0.068
      -0.459
      -0.975
      -1.352
      -1.466
      -1.238
      -0.659
       0.194
       1.187
       2.156
       2.941
       3.407
       3.475
       3.154
       2.551
       1.848
       1.229
       0.802
       0.564
       0.430
       0.306
       0.143
      -0.054
      -0.271
      -0.506
      -0.767
      -1.045
      -1.305
      -1.502
      -1.602
      -1.592
      -1.483
      -1.300
      -1.081
      -0.869
      -0.705
      -0.607
      -0.560
      -0.523
      -0.459
      -0.362
      -0.249
      -0.130
       0.012
       0.215
       0.495
       0.816
       1.105
       1.300
       1.396
       1.446
       1.508
       1.589
       1.633
       1.553
       1.297
       0.884
       0.378
      -0.145
      -0.635
      -1.054
      -1.360
      -1.508
      -1.464
      -1.239
      -0.898
      -0.548
      -0.298
      -0.216
      -0.296
      -0.458
      -0.590
      -0.606
      -0.496
      -0.316
      -0.151
      -0.059
      -0.034
      -0.020
       0.059
       0.253
       0.547
       0.859
       1.079
       1.126
       1.003
       0.790
       0.601
       0.513
       0.534
       0.616
       0.704
       0.779
       0.860
       0.983
       1.148
       1.304
       1.363
       1.247
       0.941
       0.503
       0.035
      -0.382
      -0.726
      -1.017
      -1.268
      -1.443
      -1.472
      -1.310
      -0.998
      -0.666
      -0.475
      -0.523
      -0.789
      -1.140
      -1.391
      -1.407
      -1.158
      -0.731
      -0.276
       0.066
       0.242
       0.300
       0.357
       0.518
       0.800
       1.119
       1.338
       1.366
       1.214
       0.998
       0.855
       0.859
       0.981
       1.117
       1.159
       1.055
       0.808
       0.455
       0.046
      -0.359
      -0.691
      -0.899
      -0.975
      -0.964
      -0.933
      -0.938
      -0.997
      -1.087
      -1.153
      -1.131
      -0.978
      -0.694
      -0.336
       0.000
       0.217
       0.271
       0.188
       0.050
      -0.072
      -0.159
      -0.244
      -0.372
      -0.551
      -0.744
      -0.893
      -0.949
      -0.899
      -0.776
      -0.652
      -0.597
      -0.636
      -0.722
      -0.757
      -0.659
      -0.428
      -0.168
      -0.038
      -0.147
      -0.477
      -0.874
      -1.138
      -1.143
      -0.906
      -0.556
      -0.233
       0.009
       0.228
       0.523
       0.936
       1.404
       1.794
       2.002
       2.009
       1.873
       1.661
       1.406
       1.102
       0.742
       0.351
      -0.013
      -0.286
      -0.427
      -0.434
      -0.338
      -0.190
      -0.036
       0.092
       0.182
       0.230
       0.244
       0.246
       0.257
       0.287
       0.321
       0.337
       0.335
       0.346
       0.415
       0.554
       0.713
       0.796
       0.713
       0.432
       0.009
      -0.429
      -0.733
      -0.789
      -0.569
      -0.139
       0.361
       0.773
       0.989
       0.985
       0.824
       0.614
       0.439
       0.326
       0.250
       0.188
       0.146
       0.162
       0.264
       0.447
       0.670
       0.880
       1.023
       1.054
       0.937
       0.668
       0.291
      -0.115
      -0.474
      -0.755
      -0.987
      -1.235
      -1.556
      -1.962
      -2.402
      -2.778
      -2.980
      -2.942
      -2.674
      -2.250
      -1.768
      -1.308
      -0.913
      -0.601
      -0.370
      -0.213
      -0.123
      -0.093
      -0.110
      -0.145
      -0.159
      -0.115
      -0.001
       0.170
       0.377
       0.605
       0.846
       1.087
       1.297
       1.442
       1.490
       1.417
       1.201
       0.839
       0.366
      -0.113
      -0.456
      -0.547
      -0.360
       0.018
       0.437
       0.760
       0.925
       0.948
       0.893
       0.830
       0.820
       0.906
       1.104
       1.398
       1.735
       2.028
       2.177
       2.106
       1.802
       1.340
       0.856
       0.477
       0.253
       0.134
       0.014
      -0.191
      -0.495
      -0.834
      -1.122
      -1.307
      -1.402
      -1.464
      -1.546
      -1.667
      -1.815
      -1.957
      -2.059
      -2.087
      -2.017
      -1.867
      -1.708
      -1.631
      -1.668
      -1.745
      -1.718
      -1.480
      -1.042
      -0.524
      -0.066
       0.261
       0.470
       0.613
       0.709
       0.731
       0.635
       0.423
       0.172
       0.007
       0.039
       0.296
       0.700
       1.105
       1.380
       1.472
       1.415
       1.298
       1.193
       1.127
       1.081
       1.018
       0.901
       0.705
       0.425
       0.086
      -0.244
      -0.478
      -0.537
      -0.392
      -0.069
       0.367
       0.835
       1.253
       1.539
       1.618
       1.437
       1.004
       0.402
      -0.225
      -0.721
      -0.979
      -0.975
      -0.770
      -0.470
      -0.184
       0.007
       0.077
       0.056
       0.024
       0.057
       0.181
       0.346
       0.454
       0.429
       0.263
       0.009
      -0.266
      -0.517
      -0.729
      -0.886
      -0.956
      -0.886
      -0.644
      -0.244
       0.237
       0.695
       1.044
       1.257
       1.361
       1.402
       1.403
       1.360
       1.253
       1.078
       0.846
       0.574
       0.273
      -0.044
      -0.348
      -0.592
      -0.728
      -0.737
      -0.655
      -0.571
      -0.591
      -0.788
      -1.153
      -1.588
      -1.953
      -2.132
      -2.079
      -1.817
      -1.408
      -0.930
      -0.470
      -0.114
       0.079
       0.104
       0.019
      -0.087
      -0.151
      -0.166
      -0.174
      -0.224
      -0.338
      -0.501
      -0.677
      -0.812
      -0.847
      -0.731
      -0.448
      -0.045
       0.379
       0.695
       0.800
       0.648
       0.274
      -0.219
      -0.699
      -1.051
      -1.228
      -1.258
      -1.217
      -1.174
      -1.149
      -1.110
      -0.998
      -0.765
      -0.399
       0.074
       0.607
       1.149
       1.661
       2.095
       2.385
       2.451
       2.240
       1.777
       1.178
       0.609
       0.212
       0.045
       0.075
       0.218
       0.393
       0.559
       0.714
       0.873
       1.029
       1.139
       1.153
       1.053
       0.863
       0.619
       0.322
      -0.073
      -0.613
      -1.264
      -1.885
      -2.282
      -2.314
      -1.982
      -1.437
      -0.900
      -0.550
      -0.432
      -0.455
      -0.463
      -0.346
      -0.109
       0.143
       0.301
       0.335
       0.309
       0.322
       0.431
       0.613
       0.801
       0.928
       0.959
       0.891
       0.737
       0.520
       0.272
       0.037
      -0.148
      -0.266
      -0.338
      -0.406
      -0.511
      -0.659
      -0.822
      -0.959
      -1.045
      -1.080
      -1.075
      -1.045
      -1.008
      -0.989
      -1.012
      -1.072
      -1.137
      -1.159
      -1.109
      -0.986
      -0.794
      -0.525
      -0.163
       0.284
       0.777
       1.264
       1.716
       2.141
       2.566
       2.995
       3.391
       3.684
       3.805
       3.711
       3.395
       2.893
       2.272
       1.612
       0.980
       0.412
      -0.087
      -0.526
      -0.914
      -1.259
      -1.574
      -1.875
      -2.165
      -2.432
      -2.653
      -2.802
      -2.857
      -2.796
      -2.599
      -2.260
      -1.812
      -1.338
      -0.949
      -0.731
      -0.694
      -0.750
      -0.759
      -0.598
      -0.230
       0.276
       0.800
       1.238
       1.558
       1.800
       2.027
       2.270
       2.505
       2.665
       2.677
       2.496
       2.124
       1.603
       1.000
       0.385
      -0.181
      -0.665
      -1.065
      -1.401
      -1.688
      -1.904
      -1.989
      -1.888
      -1.608
      -1.236
      -0.894
      -0.663
      -0.545
      -0.475
      -0.381
      -0.234
      -0.052
       0.132
       0.296
       0.439
       0.566
       0.670
       0.738
       0.755
       0.720
       0.643
       0.536
       0.406
       0.258
       0.116
       0.027
       0.025
       0.095
       0.165
       0.153
       0.030
      -0.151
      -0.291
      -0.317
      -0.241
      -0.154
      -0.164
      -0.318
      -0.578
      -0.838
      -0.981
      -0.929
      -0.670
      -0.257
       0.210
       0.619
       0.882
       0.962
       0.878
       0.688
       0.457
       0.233
       0.036
      -0.128
      -0.261
      -0.370
      -0.470
      -0.575
      -0.693
      -0.816
      -0.926
      -0.999
      -1.013
      -0.944
      -0.772
      -0.491
      -0.113
       0.325
       0.771
       1.158
       1.423
       1.528
       1.478
       1.327
       1.147
       0.988
       0.861
       0.750
       0.642
       0.537
       0.436
       0.340
       0.248
       0.168
       0.107
       0.059
      -0.003
      -0.108
      -0.263
      -0.442
      -0.600
      -0.696
      -0.720
      -0.699
      -0.680
      -0.698
      -0.757
      -0.823
      -0.846
      -0.792
      -0.665
      -0.513
      -0.413
      -0.427
      -0.569
      -0.797
      -1.049
      -1.268
      -1.418
      -1.476
      -1.419
      -1.245
      -0.988
      -0.725
      -0.545
      -0.507
      -0.597
      -0.732
      -0.789
      -0.661
      -0.308
       0.223
       0.811
       1.319
       1.645
       1.758
       1.701
       1.559
       1.412
       1.292
       1.189
       1.079
       0.967
       0.894
       0.892
       0.959
       1.056
       1.151
       1.234
       1.299
       1.307
       1.193
       0.903
       0.456
      -0.052
      -0.486
      -0.742
      -0.793
      -0.678
      -0.467
      -0.242
      -0.085
      -0.067
      -0.215
      -0.488
      -0.786
      -1.002
      -1.076
      -1.022
      -0.903
      -0.795
      -0.741
      -0.737
      -0.744
      -0.717
      -0.645
      -0.553
      -0.482
      -0.443
      -0.393
      -0.259
      -0.008
       0.316
       0.604
       0.768
       0.806
       0.795
       0.825
       0.928
       1.054
       1.106
       1.008
       0.750
       0.401
       0.068
      -0.156
      -0.236
      -0.204
      -0.136
      -0.095
      -0.102
      -0.124
      -0.110
      -0.028
       0.103
       0.223
       0.256
       0.153
      -0.081
      -0.385
      -0.673
      -0.859
      -0.896
      -0.786
      -0.587
      -0.393
      -0.281
      -0.277
      -0.345
      -0.431
      -0.506
      -0.582
      -0.680
      -0.784
      -0.824
      -0.717
      -0.422
       0.024
       0.527
       0.982
       1.322
       1.524
       1.593
       1.533
       1.347
       1.048
       0.681
       0.342
       0.146
       0.183
       0.464
       0.905
       1.357
       1.673
       1.763
       1.621
       1.296
       0.853
       0.348
      -0.160
      -0.607
      -0.929
      -1.093
      -1.118
      -1.060
      -0.981
      -0.921
      -0.904
      -0.949
      -1.077
      -1.286
      -1.536
      -1.751
      -1.862
      -1.838
      -1.693
      -1.463
      -1.187
      -0.888
      -0.572
      -0.234
       0.128
       0.499
       0.847
       1.138
       1.357
       1.505
       1.590
       1.610
       1.552
       1.403
       1.172
       0.901
       0.651
       0.480
       0.422
       0.468
       0.569
       0.657
       0.674
       0.598
       0.451
       0.269
       0.075
      -0.125
      -0.323
      -0.484
      -0.546
      -0.471
      -0.287
      -0.087
       0.030
       0.017
      -0.109
      -0.297
      -0.512
      -0.754
      -1.035
      -1.342
      -1.625
      -1.813
      -1.851
      -1.723
      -1.461
      -1.124
      -0.780
      -0.487
      -0.269
      -0.111
       0.028
       0.187
       0.369
       0.532
       0.623
       0.614
       0.521
       0.391
       0.269
       0.181
       0.133
       0.127
       0.168
       0.254
       0.367
       0.473
       0.542
       0.554
       0.508
       0.417
       0.305
       0.210
       0.165
       0.193
       0.289
       0.427
       0.569
       0.684
       0.747
       0.734
       0.630
       0.441
       0.199
      -0.050
      -0.271
      -0.458
      -0.630
      -0.808
      -0.997
      -1.179
      -1.328
      -1.423
      -1.462
      -1.458
      -1.417
      -1.336
      -1.199
      -0.996
      -0.734
      -0.436
      -0.136
       0.127
       0.317
       0.405
       0.388
       0.290
       0.167
       0.080
       0.080
       0.194
       0.423
       0.740
       1.103
       1.466
       1.790
       2.042
       2.186
       2.190
       2.040
       1.749
       1.361
       0.937
       0.535
       0.192
      -0.077
      -0.275
      -0.420
      -0.541
      -0.666
      -0.808
      -0.955
      -1.073
      -1.126
      -1.090
