Origin Time       21/09/2011 02:24:36
Lat.              30.9 N	
Long.             78.3 E	
Depth (Km)         10.0
Magnitude         3.1
 Region           Uttarkashi-Distt.                                                
 Above details taken from IMD 
   
Station Code      BAR
Station Lat.       30.809
Station Long.      78.205
Station Height(m) 1305.0
Site Class        A   Vs30 between 700 m/sec to 1400 m/sec * 
Record Time       21.09.2011 02:24:12.049
Sampling Rate     200. Hz
 Record Duration   83.110 Sec.
 Direction         Vert. (Up positive)
Max. Acceleration     -4.050 cm/sec**2
     
  * For reference see Site Classification link of website 
     
 Base Line Corrected and Low Pass Filtered (Cut Off at 35 Hz) Time History
 Acceleration data in cm/sec**2
    
[...]
      -0.006
      -0.005
       0.001
       0.007
       0.003
      -0.004
      -0.004
      -0.002
      -0.006
      -0.010
      -0.005
      -0.001
      -0.005
      -0.009
      -0.002
       0.010
       0.015
       0.013
       0.012
       0.011
       0.003
      -0.002
       0.003
       0.008
       0.002
      -0.006
      -0.006
      -0.002
      -0.003
      -0.006
      -0.002
       0.004
       0.005
       0.005
       0.010
       0.013
       0.005
      -0.006
      -0.005
       0.001
       0.001
      -0.001
       0.004
       0.009
       0.007
       0.003
       0.009
       0.016
       0.012
       0.003
       0.000
       0.002
       0.001
       0.001
       0.007
       0.011
       0.003
      -0.009
      -0.012
      -0.007
      -0.002
       0.003
       0.010
       0.012
       0.002
      -0.006
       0.001
       0.015
       0.020
       0.013
       0.007
       0.004
       0.001
       0.001
       0.008
       0.012
       0.004
      -0.006
      -0.004
       0.002
       0.000
      -0.006
      -0.006
      -0.001
      -0.002
      -0.007
      -0.010
      -0.013
      -0.021
      -0.025
      -0.016
      -0.002
       0.001
      -0.003
      -0.001
       0.009
       0.013
       0.013
       0.013
       0.011
      -0.001
      -0.013
      -0.015
      -0.010
      -0.010
      -0.013
      -0.007
       0.001
      -0.001
      -0.009
      -0.010
      -0.005
      -0.002
       0.001
       0.008
       0.012
       0.003
      -0.011
      -0.014
      -0.007
      -0.003
      -0.004
      -0.004
      -0.005
      -0.012
      -0.018
      -0.012
      -0.001
       0.001
      -0.003
      -0.003
       0.000
      -0.002
      -0.008
      -0.006
       0.001
       0.003
      -0.001
      -0.001
       0.001
      -0.004
      -0.008
      -0.002
       0.007
       0.004
      -0.006
      -0.008
       0.000
       0.006
       0.005
       0.004
       0.002
      -0.005
      -0.011
      -0.005
       0.006
       0.008
       0.005
       0.007
       0.010
       0.006
      -0.002
       0.001
       0.010
       0.012
       0.005
       0.000
       0.000
       0.001
       0.004
       0.012
       0.016
       0.005
      -0.013
      -0.018
      -0.009
      -0.002
      -0.001
       0.003
       0.008
       0.004
      -0.006
      -0.014
      -0.015
      -0.016
      -0.013
      -0.003
       0.007
       0.005
      -0.002
       0.000
       0.007
       0.004
      -0.006
      -0.012
      -0.008
      -0.004
      -0.004
      -0.002
       0.001
      -0.001
      -0.003
       0.003
       0.010
       0.007
      -0.002
      -0.002
       0.006
       0.007
       0.001
      -0.001
       0.000
      -0.003
      -0.010
      -0.012
      -0.006
      -0.005
      -0.007
      -0.003
       0.003
       0.002
      -0.004
      -0.002
       0.005
       0.007
       0.004
       0.004
       0.007
       0.003
      -0.004
      -0.004
       0.001
       0.001
      -0.005
      -0.006
      -0.002
      -0.004
      -0.011
      -0.009
      -0.001
       0.003
       0.001
       0.002
       0.006
       0.003
      -0.006
      -0.010
      -0.008
      -0.010
      -0.013
      -0.008
       0.003
       0.010
       0.011
       0.012
       0.011
      -0.001
      -0.017
      -0.017
      -0.001
       0.012
       0.011
       0.005
      -0.002
      -0.010
      -0.017
      -0.012
      -0.001
       0.004
       0.002
       0.002
       0.006
       0.002
      -0.007
      -0.009
      -0.004
      -0.002
      -0.003
       0.000
       0.010
       0.013
       0.009
       0.006
       0.005
      -0.001
      -0.009
      -0.006
       0.006
       0.010
       0.004
      -0.003
      -0.005
      -0.006
      -0.005
       0.003
       0.014
       0.015
       0.007
       0.003
       0.005
       0.001
      -0.012
      -0.020
      -0.017
      -0.012
      -0.009
      -0.002
       0.008
       0.011
       0.008
       0.011
       0.021
       0.025
       0.020
       0.019
       0.021
       0.017
       0.004
      -0.005
      -0.006
      -0.008
      -0.013
      -0.013
      -0.010
      -0.011
      -0.018
      -0.016
      -0.002
       0.009
       0.014
       0.029
       0.066
       0.125
       0.213
       0.335
       0.482
       0.623
       0.730
       0.782
       0.749
       0.597
       0.315
      -0.081
      -0.551
      -1.029
      -1.400
      -1.533
      -1.362
      -0.944
      -0.431
       0.011
       0.259
       0.272
       0.108
      -0.111
      -0.245
      -0.204
      -0.003
       0.212
       0.215
      -0.128
      -0.696
      -1.141
      -1.127
      -0.582
       0.250
       0.976
       1.310
       1.241
       1.001
       0.849
       0.858
       0.866
       0.648
       0.126
      -0.545
      -1.064
      -1.172
      -0.829
      -0.255
       0.227
       0.437
       0.457
       0.504
       0.702
       0.956
       1.039
       0.792
       0.281
      -0.247
      -0.565
      -0.655
      -0.658
      -0.677
      -0.647
      -0.449
      -0.104
       0.179
       0.180
      -0.108
      -0.432
      -0.476
      -0.160
       0.254
       0.378
       0.058
      -0.480
      -0.827
      -0.724
      -0.239
       0.291
       0.482
       0.139
      -0.594
      -1.260
      -1.345
      -0.650
       0.494
       1.390
       1.480
       0.799
      -0.024
      -0.287
       0.182
       0.907
       1.231
       0.896
       0.230
      -0.206
      -0.109
       0.343
       0.687
       0.598
       0.130
      -0.401
      -0.714
      -0.741
      -0.548
      -0.217
       0.156
       0.414
       0.410
       0.153
      -0.160
      -0.296
      -0.181
       0.056
       0.226
       0.256
       0.198
       0.101
      -0.078
      -0.376
      -0.684
      -0.804
      -0.669
      -0.434
      -0.284
      -0.218
      -0.085
       0.159
       0.331
       0.193
      -0.255
      -0.696
      -0.749
      -0.321
       0.282
       0.610
       0.464
       0.042
      -0.267
      -0.208
       0.180
       0.637
       0.886
       0.786
       0.387
      -0.135
      -0.583
      -0.809
      -0.748
      -0.426
       0.036
       0.479
       0.800
       0.990
       1.072
       1.038
       0.861
       0.553
       0.192
      -0.141
      -0.419
      -0.678
      -0.938
      -1.129
      -1.122
      -0.876
      -0.540
      -0.346
      -0.371
      -0.447
      -0.347
      -0.039
       0.284
       0.417
       0.364
       0.334
       0.532
       0.937
       1.278
       1.263
       0.852
       0.297
      -0.095
      -0.241
      -0.308
      -0.504
      -0.840
      -1.104
      -1.041
      -0.597
       0.005
       0.439
       0.537
       0.380
       0.141
      -0.082
      -0.273
      -0.389
      -0.329
      -0.046
       0.329
       0.525
       0.344
      -0.135
      -0.566
      -0.591
      -0.144
       0.475
       0.829
       0.682
       0.178
      -0.271
      -0.294
       0.138
       0.674
       0.864
       0.566
       0.072
      -0.181
      -0.031
       0.269
       0.320
      -0.043
      -0.593
      -0.915
      -0.764
      -0.274
       0.180
       0.312
       0.129
      -0.156
      -0.358
      -0.440
      -0.470
      -0.536
      -0.692
      -0.919
      -1.099
      -1.045
      -0.626
       0.095
       0.829
       1.230
       1.158
       0.813
       0.557
       0.569
       0.693
       0.639
       0.322
      -0.064
      -0.272
      -0.250
      -0.145
      -0.113
      -0.150
      -0.125
       0.041
       0.268
       0.410
       0.441
       0.469
       0.529
       0.457
       0.071
      -0.508
      -0.829
      -0.522
       0.246
       0.790
       0.506
      -0.500
      -1.398
      -1.377
      -0.447
       0.524
       0.632
      -0.195
      -1.154
      -1.349
      -0.606
       0.439
       0.970
       0.699
       0.044
      -0.309
      -0.002
       0.729
       1.296
       1.218
       0.443
      -0.648
      -1.491
      -1.704
      -1.312
      -0.686
      -0.225
      -0.059
      -0.040
       0.038
       0.247
       0.508
       0.720
       0.864
       1.011
       1.209
       1.384
       1.377
       1.119
       0.730
       0.396
       0.163
      -0.096
      -0.480
      -0.904
      -1.162
      -1.139
      -0.939
      -0.777
      -0.763
      -0.797
      -0.719
      -0.520
      -0.367
      -0.381
      -0.460
      -0.362
       0.037
       0.619
       1.133
       1.406
       1.432
       1.299
       1.063
       0.699
       0.171
      -0.473
      -1.085
      -1.504
      -1.644
      -1.511
      -1.181
      -0.787
      -0.461
      -0.225
       0.066
       0.583
       1.273
       1.774
       1.665
       0.900
      -0.018
      -0.366
       0.150
       1.046
       1.429
       0.810
      -0.415
      -1.333
      -1.344
      -0.655
      -0.006
       0.032
      -0.485
      -0.994
      -0.965
      -0.368
       0.337
       0.618
       0.306
      -0.309
      -0.747
      -0.694
      -0.198
       0.397
       0.710
       0.600
       0.266
       0.070
       0.220
       0.584
       0.799
       0.614
       0.139
      -0.213
      -0.115
       0.322
       0.608
       0.343
      -0.347
      -0.873
      -0.732
       0.005
       0.711
       0.743
       0.016
      -0.894
      -1.240
      -0.786
      -0.016
       0.327
      -0.063
      -0.834
      -1.360
      -1.294
      -0.762
      -0.116
       0.379
       0.665
       0.806
       0.905
       1.088
       1.464
       1.971
       2.278
       1.983
       1.014
      -0.169
      -0.893
      -0.844
      -0.350
      -0.076
      -0.432
      -1.232
      -1.873
      -1.859
      -1.187
      -0.311
       0.272
       0.384
       0.201
       0.005
      -0.052
       0.011
       0.082
       0.030
      -0.222
      -0.635
      -1.024
      -1.157
      -0.928
      -0.479
      -0.134
      -0.123
      -0.334
      -0.379
       0.025
       0.748
       1.347
       1.473
       1.129
       0.598
       0.191
       0.093
       0.326
       0.762
       1.142
       1.173
       0.711
      -0.076
      -0.768
      -0.987
      -0.726
      -0.385
      -0.408
      -0.854
      -1.306
      -1.217
      -0.368
       0.925
       2.030
       2.421
       1.992
       1.044
       0.004
      -0.819
      -1.288
      -1.383
      -1.198
      -0.954
      -0.880
      -1.010
      -1.137
      -1.022
      -0.648
      -0.243
      -0.060
      -0.150
      -0.339
      -0.402
      -0.267
      -0.039
       0.149
       0.279
       0.426
       0.639
       0.878
       1.071
       1.183
       1.184
       1.014
       0.615
       0.044
      -0.480
      -0.704
      -0.562
      -0.255
      -0.055
      -0.020
       0.061
       0.404
       0.960
       1.474
       1.759
       1.798
       1.582
       0.979
      -0.096
      -1.407
      -2.405
      -2.641
      -2.180
      -1.552
      -1.249
      -1.248
      -1.088
      -0.433
       0.483
       1.027
       0.773
      -0.086
      -0.917
      -1.191
      -0.857
      -0.263
       0.235
       0.574
       0.923
       1.389
       1.838
       2.042
       1.948
       1.710
       1.449
       1.078
       0.429
      -0.426
      -1.096
      -1.185
      -0.704
      -0.133
       0.014
      -0.310
      -0.643
      -0.502
       0.121
       0.785
       1.074
       0.980
       0.780
       0.640
       0.399
      -0.236
      -1.318
      -2.496
      -3.238
      -3.243
      -2.655
      -1.878
      -1.190
      -0.559
       0.200
       1.138
       2.077
       2.759
       3.056
       3.034
       2.831
       2.514
       2.046
       1.379
       0.541
      -0.367
      -1.234
      -1.965
      -2.478
      -2.720
      -2.697
      -2.446
      -1.977
      -1.295
      -0.492
       0.230
       0.659
       0.734
       0.580
       0.414
       0.371
       0.397
       0.310
       0.004
      -0.375
      -0.501
      -0.163
       0.505
       1.103
       1.315
       1.180
       1.014
       1.049
       1.142
       0.894
       0.098
      -0.968
      -1.742
      -1.899
      -1.599
      -1.242
      -1.049
      -0.921
      -0.667
      -0.259
       0.148
       0.421
       0.594
       0.782
       0.966
       0.945
       0.565
      -0.040
      -0.519
      -0.642
      -0.512
      -0.405
      -0.438
      -0.469
      -0.307
       0.046
       0.420
       0.709
       1.006
       1.437
       1.905
       2.099
       1.840
       1.358
       1.106
       1.255
       1.467
       1.232
       0.401
      -0.665
      -1.464
      -1.826
      -2.020
      -2.412
      -3.029
      -3.471
      -3.278
      -2.395
      -1.253
      -0.368
       0.121
       0.520
       1.206
       2.200
       3.102
       3.443
       3.104
       2.403
       1.781
       1.408
       1.106
       0.591
      -0.236
      -1.221
      -2.088
      -2.614
      -2.740
      -2.569
      -2.257
      -1.868
      -1.345
      -0.628
       0.221
       1.036
       1.662
       2.053
       2.261
       2.353
       2.319
       2.077
       1.576
       0.902
       0.241
      -0.283
      -0.729
      -1.276
      -2.037
      -2.933
      -3.702
      -4.050
      -3.844
      -3.213
      -2.452
      -1.797
      -1.255
      -0.646
       0.202
       1.264
       2.286
       2.934
       3.050
       2.790
       2.490
       2.359
       2.315
       2.139
       1.743
       1.255
       0.845
       0.542
       0.252
      -0.083
      -0.388
      -0.542
      -0.530
      -0.466
      -0.450
      -0.441
      -0.342
      -0.171
      -0.073
      -0.156
      -0.354
      -0.523
      -0.610
      -0.695
      -0.854
      -1.057
      -1.206
      -1.258
      -1.261
      -1.261
      -1.193
      -0.922
      -0.407
       0.187
       0.628
       0.843
       0.969
       1.161
       1.398
       1.527
       1.452
       1.233
       1.000
       0.814
       0.641
       0.426
       0.190
       0.022
      -0.032
      -0.051
      -0.189
      -0.520
      -0.945
      -1.260
      -1.309
      -1.081
      -0.693
      -0.311
      -0.048
       0.109
       0.261
       0.476
       0.708
       0.847
       0.842
       0.743
       0.643
       0.579
       0.511
       0.375
       0.167
      -0.048
      -0.215
      -0.366
      -0.575
      -0.835
      -1.021
      -1.028
      -0.901
      -0.803
      -0.845
      -0.986
      -1.084
      -1.033
      -0.832
      -0.563
      -0.323
      -0.181
      -0.158
      -0.219
      -0.267
      -0.178
       0.092
       0.438
       0.679
       0.732
       0.687
       0.701
       0.831
       1.005
       1.130
       1.171
       1.150
       1.100
       1.031
       0.915
       0.698
       0.353
      -0.080
      -0.496
      -0.794
      -0.923
      -0.911
      -0.832
      -0.751
      -0.659
      -0.505
      -0.268
      -0.001
       0.225
       0.375
       0.435
       0.382
       0.211
      -0.004
      -0.130
      -0.078
       0.119
       0.318
       0.372
       0.248
       0.064
      -0.023
       0.015
       0.045
      -0.071
      -0.298
      -0.454
      -0.410
      -0.253
      -0.211
      -0.419
      -0.759
      -0.948
      -0.807
      -0.441
      -0.125
      -0.002
       0.048
       0.233
       0.582
       0.919
       1.072
       1.048
       0.972
       0.919
       0.835
       0.633
       0.320
       0.004
      -0.226
      -0.386
      -0.533
      -0.648
      -0.647
      -0.518
      -0.381
      -0.346
      -0.357
      -0.251
       0.024
       0.323
       0.448
       0.372
       0.260
       0.277
       0.392
       0.391
       0.128
      -0.287
      -0.568
      -0.550
      -0.356
      -0.241
      -0.299
      -0.391
      -0.332
      -0.109
       0.116
       0.192
       0.132
       0.088
       0.160
       0.263
       0.215
      -0.037
      -0.317
      -0.376
      -0.153
       0.156
       0.289
       0.162
      -0.075
      -0.192
      -0.102
       0.070
       0.107
      -0.088
      -0.410
      -0.675
      -0.780
      -0.736
      -0.594
      -0.408
      -0.238
      -0.131
      -0.053
       0.105
       0.428
       0.873
       1.252
       1.352
       1.105
       0.662
       0.297
       0.187
       0.278
       0.373
       0.335
       0.186
       0.024
      -0.105
      -0.247
      -0.460
      -0.717
      -0.889
      -0.865
      -0.669
      -0.449
      -0.318
      -0.242
      -0.115
       0.089
       0.285
       0.408
       0.502
       0.662
       0.895
       1.076
       1.043
       0.742
       0.275
      -0.182
      -0.523
      -0.747
      -0.885
      -0.937
      -0.903
      -0.827
      -0.745
      -0.614
      -0.361
      -0.012
       0.279
       0.354
       0.216
       0.045
       0.032
       0.192
       0.321
       0.179
      -0.254
      -0.703
      -0.815
      -0.484
       0.061
       0.471
       0.580
       0.498
       0.457
       0.565
       0.728
       0.787
       0.705
       0.590
       0.545
       0.552
       0.541
       0.517
       0.541
       0.600
       0.568
       0.350
       0.010
      -0.283
      -0.420
      -0.451
      -0.513
      -0.676
      -0.876
      -0.990
      -0.964
      -0.851
      -0.717
      -0.563
      -0.372
      -0.174
      -0.039
       0.015
       0.041
       0.080
       0.109
       0.082
       0.012
      -0.017
       0.070
       0.256
       0.408
       0.382
       0.163
      -0.089
      -0.170
      -0.021
       0.222
       0.363
       0.316
       0.149
      -0.008
      -0.079
      -0.087
      -0.084
      -0.077
      -0.032
       0.026
      -0.017
      -0.236
      -0.523
      -0.652
      -0.509
      -0.240
      -0.113
      -0.245
      -0.472
      -0.505
      -0.220
       0.205
       0.466
       0.442
       0.298
       0.272
       0.406
       0.528
       0.488
       0.317
       0.149
       0.055
       0.011
      -0.003
       0.051
       0.190
       0.326
       0.312
       0.110
      -0.116
      -0.138
       0.064
       0.220
       0.044
      -0.432
      -0.854
      -0.899
      -0.599
      -0.278
      -0.204
      -0.347
      -0.449
      -0.302
       0.046
       0.358
       0.448
       0.340
       0.192
       0.117
       0.102
       0.090
       0.068
       0.050
       0.046
       0.062
       0.127
       0.266
       0.459
       0.628
       0.690
       0.619
       0.482
       0.381
       0.345
       0.301
       0.161
      -0.061
      -0.261
      -0.375
      -0.452
      -0.575
      -0.744
      -0.846
      -0.757
      -0.454
      -0.065
       0.206
       0.226
       0.038
      -0.177
      -0.255
      -0.164
       0.000
       0.093
       0.022
      -0.184
      -0.370
      -0.365
      -0.140
       0.160
       0.333
       0.285
       0.096
      -0.056
      -0.034
       0.148
       0.335
