Origin Time       20/06/2011 06:27:18
Lat.              30.5 N	
Long.             79.4 E	
Depth (Km)         12.0
Magnitude         4.6
 Region           Chamoli-Uttarakhand                                              
 Above details taken from IMD 
   
Station Code      BAR
Station Lat.       30.809
Station Long.      78.205
Station Height(m) 1305.0
Site Class        A   Vs30 between 700 m/sec to 1400 m/sec * 
Record Time       20.06.2011 06:27:20.604
Sampling Rate     200. Hz
 Record Duration   95.415 Sec.
 Direction         Vert. (Up positive)
Max. Acceleration      3.396 cm/sec**2
     
  * For reference see Site Classification link of website 
     
 Base Line Corrected and Low Pass Filtered (Cut Off at 35 Hz) Time History
 Acceleration data in cm/sec**2
    
[...]
      -1.188
      -1.227
      -1.265
      -1.261
      -1.186
      -1.047
      -0.892
      -0.752
      -0.615
      -0.449
      -0.237
       0.023
       0.311
       0.574
       0.753
       0.833
       0.867
       0.921
       1.015
       1.135
       1.260
       1.366
       1.423
       1.414
       1.344
       1.233
       1.098
       0.958
       0.825
       0.677
       0.471
       0.187
      -0.150
      -0.493
      -0.796
      -1.014
      -1.107
      -1.083
      -0.998
      -0.908
      -0.830
      -0.763
      -0.704
      -0.643
      -0.556
      -0.440
      -0.326
      -0.251
      -0.228
      -0.245
      -0.282
      -0.309
      -0.292
      -0.216
      -0.091
       0.073
       0.264
       0.454
       0.604
       0.705
       0.788
       0.889
       1.017
       1.168
       1.332
       1.485
       1.593
       1.648
       1.669
       1.664
       1.609
       1.481
       1.294
       1.076
       0.848
       0.620
       0.395
       0.158
      -0.120
      -0.442
      -0.767
      -1.039
      -1.226
      -1.323
      -1.347
      -1.332
      -1.312
      -1.295
      -1.273
      -1.252
      -1.246
      -1.238
      -1.168
      -0.991
      -0.714
      -0.379
      -0.038
       0.254
       0.451
       0.553
       0.619
       0.707
       0.830
       0.959
       1.060
       1.106
       1.080
       0.981
       0.823
       0.619
       0.383
       0.147
      -0.046
      -0.181
      -0.280
      -0.370
      -0.466
      -0.572
      -0.687
      -0.773
      -0.779
      -0.689
      -0.544
      -0.395
      -0.267
      -0.162
      -0.083
      -0.021
       0.045
       0.125
       0.196
       0.225
       0.193
       0.090
      -0.082
      -0.295
      -0.504
      -0.681
      -0.830
      -0.966
      -1.089
      -1.189
      -1.250
      -1.239
      -1.130
      -0.938
      -0.725
      -0.541
      -0.387
      -0.233
      -0.056
       0.148
       0.365
       0.553
       0.667
       0.714
       0.754
       0.842
       0.977
       1.122
       1.237
       1.293
       1.267
       1.157
       0.980
       0.756
       0.496
       0.226
      -0.020
      -0.216
      -0.354
      -0.432
      -0.454
      -0.454
      -0.480
      -0.544
      -0.610
      -0.636
      -0.613
      -0.555
      -0.483
      -0.423
      -0.397
      -0.386
      -0.346
      -0.250
      -0.121
       0.011
       0.143
       0.281
       0.413
       0.518
       0.583
       0.600
       0.566
       0.496
       0.417
       0.356
       0.321
       0.315
       0.328
       0.319
       0.235
       0.074
      -0.111
      -0.257
      -0.342
      -0.371
      -0.365
      -0.353
      -0.365
      -0.390
      -0.384
      -0.314
      -0.204
      -0.100
      -0.028
       0.011
       0.022
       0.008
      -0.037
      -0.127
      -0.264
      -0.419
      -0.540
      -0.600
      -0.597
      -0.530
      -0.393
      -0.203
       0.004
       0.208
       0.411
       0.604
       0.753
       0.836
       0.870
       0.880
       0.873
       0.844
       0.793
       0.718
       0.617
       0.506
       0.415
       0.356
       0.306
       0.235
       0.134
       0.020
      -0.079
      -0.124
      -0.088
       0.012
       0.120
       0.196
       0.233
       0.238
       0.205
       0.138
       0.056
      -0.016
      -0.068
      -0.106
      -0.154
      -0.251
      -0.411
      -0.586
      -0.707
      -0.758
      -0.786
      -0.817
      -0.824
      -0.776
      -0.701
      -0.658
      -0.664
      -0.676
      -0.642
      -0.538
      -0.385
      -0.223
      -0.083
       0.023
       0.076
       0.039
      -0.098
      -0.279
      -0.433
      -0.551
      -0.680
      -0.830
      -0.931
      -0.907
      -0.757
      -0.538
      -0.306
      -0.093
       0.082
       0.201
       0.268
       0.315
       0.385
       0.506
       0.668
       0.831
       0.969
       1.116
       1.317
       1.560
       1.775
       1.903
       1.923
       1.832
       1.624
       1.330
       1.020
       0.752
       0.521
       0.283
       0.008
      -0.303
      -0.625
      -0.923
      -1.166
      -1.350
      -1.483
      -1.556
      -1.557
      -1.498
      -1.413
      -1.317
      -1.188
      -1.004
      -0.765
      -0.482
      -0.165
       0.155
       0.434
       0.635
       0.751
       0.785
       0.741
       0.628
       0.463
       0.249
      -0.005
      -0.259
      -0.451
      -0.552
      -0.585
      -0.580
      -0.542
      -0.470
      -0.373
      -0.253
      -0.092
       0.119
       0.359
       0.594
       0.799
       0.965
       1.092
       1.199
       1.311
       1.425
       1.514
       1.540
       1.469
       1.268
       0.930
       0.513
       0.117
      -0.192
      -0.421
      -0.600
      -0.747
      -0.863
      -0.944
      -0.980
      -0.964
      -0.921
      -0.896
      -0.915
      -0.957
      -0.986
      -0.988
      -0.961
      -0.899
      -0.793
      -0.633
      -0.402
      -0.098
       0.237
       0.535
       0.756
       0.908
       1.020
       1.116
       1.215
       1.317
       1.392
       1.406
       1.363
       1.298
       1.217
       1.081
       0.853
       0.531
       0.132
      -0.328
      -0.817
      -1.279
      -1.665
      -1.956
      -2.154
      -2.263
      -2.286
      -2.227
      -2.086
      -1.868
      -1.598
      -1.305
      -0.991
      -0.641
      -0.264
       0.099
       0.409
       0.650
       0.813
       0.903
       0.959
       1.040
       1.162
       1.285
       1.361
       1.383
       1.374
       1.347
       1.308
       1.263
       1.208
       1.135
       1.048
       0.947
       0.819
       0.648
       0.439
       0.226
       0.029
      -0.150
      -0.309
      -0.440
      -0.561
      -0.708
      -0.900
      -1.115
      -1.326
      -1.515
      -1.665
      -1.763
      -1.817
      -1.843
      -1.839
      -1.773
      -1.637
      -1.446
      -1.209
      -0.911
      -0.536
      -0.104
       0.341
       0.749
       1.068
       1.264
       1.353
       1.389
       1.429
       1.506
       1.627
       1.768
       1.865
       1.854
       1.713
       1.478
       1.194
       0.891
       0.604
       0.365
       0.175
       0.010
      -0.138
      -0.249
      -0.309
      -0.345
      -0.391
      -0.463
      -0.553
      -0.646
      -0.724
      -0.779
      -0.824
      -0.878
      -0.938
      -0.980
      -1.001
      -1.017
      -1.034
      -1.032
      -0.988
      -0.881
      -0.700
      -0.445
      -0.162
       0.090
       0.288
       0.459
       0.640
       0.837
       1.041
       1.225
       1.350
       1.375
       1.299
       1.157
       0.975
       0.751
       0.481
       0.187
      -0.092
      -0.326
      -0.499
      -0.607
      -0.665
      -0.675
      -0.607
      -0.436
      -0.186
       0.069
       0.257
       0.338
       0.292
       0.127
      -0.095
      -0.283
      -0.386
      -0.421
      -0.440
      -0.479
      -0.548
      -0.642
      -0.733
      -0.779
      -0.750
      -0.634
      -0.427
      -0.147
       0.162
       0.446
       0.689
       0.905
       1.088
       1.195
       1.175
       1.001
       0.675
       0.237
      -0.230
      -0.636
      -0.940
      -1.153
      -1.285
      -1.327
      -1.271
      -1.127
      -0.904
      -0.608
      -0.269
       0.061
       0.351
       0.613
       0.877
       1.159
       1.446
       1.696
       1.844
       1.835
       1.655
       1.334
       0.913
       0.441
      -0.028
      -0.456
      -0.860
      -1.271
      -1.682
      -2.030
      -2.265
      -2.375
      -2.368
      -2.241
      -1.999
      -1.657
      -1.233
      -0.755
      -0.279
       0.119
       0.405
       0.604
       0.776
       0.970
       1.208
       1.482
       1.744
       1.939
       2.038
       2.049
       1.989
       1.871
       1.705
       1.493
       1.214
       0.856
       0.457
       0.084
      -0.226
      -0.483
      -0.694
      -0.841
      -0.920
      -0.953
      -0.972
      -0.991
      -1.017
      -1.050
      -1.070
      -1.050
      -0.980
      -0.877
      -0.762
      -0.641
      -0.517
      -0.400
      -0.297
      -0.216
      -0.174
      -0.174
      -0.180
      -0.144
      -0.060
       0.036
       0.120
       0.201
       0.297
       0.410
       0.535
       0.662
       0.760
       0.782
       0.706
       0.551
       0.359
       0.183
       0.083
       0.104
       0.238
       0.426
       0.611
       0.773
       0.902
       0.981
       0.991
       0.915
       0.752
       0.522
       0.279
       0.071
      -0.090
      -0.215
      -0.303
      -0.340
      -0.341
      -0.348
      -0.386
      -0.454
      -0.559
      -0.727
      -0.961
      -1.219
      -1.443
      -1.598
      -1.669
      -1.660
      -1.579
      -1.420
      -1.161
      -0.784
      -0.323
       0.152
       0.582
       0.940
       1.219
       1.416
       1.543
       1.614
       1.615
       1.526
       1.356
       1.132
       0.861
       0.529
       0.160
      -0.177
      -0.401
      -0.474
      -0.403
      -0.236
      -0.052
       0.075
       0.126
       0.136
       0.146
       0.169
       0.185
       0.161
       0.056
      -0.139
      -0.374
      -0.563
      -0.653
      -0.644
      -0.564
      -0.436
      -0.277
      -0.093
       0.119
       0.349
       0.545
       0.648
       0.647
       0.580
       0.476
       0.342
       0.190
       0.049
      -0.066
      -0.181
      -0.329
      -0.520
      -0.739
      -0.962
      -1.160
      -1.321
      -1.454
      -1.567
      -1.633
      -1.604
      -1.459
      -1.211
      -0.886
      -0.514
      -0.140
       0.191
       0.475
       0.736
       0.981
       1.185
       1.322
       1.387
       1.384
       1.327
       1.246
       1.168
       1.088
       0.972
       0.798
       0.579
       0.336
       0.083
      -0.162
      -0.381
      -0.562
      -0.695
      -0.748
      -0.687
      -0.512
      -0.263
       0.008
       0.250
       0.413
       0.469
       0.436
       0.362
       0.273
       0.167
       0.043
      -0.085
      -0.211
      -0.335
      -0.442
      -0.498
      -0.485
      -0.409
      -0.274
      -0.072
       0.192
       0.487
       0.762
       0.964
       1.041
       0.971
       0.789
       0.560
       0.331
       0.109
      -0.123
      -0.395
      -0.737
      -1.145
      -1.535
      -1.797
      -1.877
      -1.803
      -1.626
      -1.369
      -1.037
      -0.643
      -0.207
       0.244
       0.669
       1.033
       1.342
       1.626
       1.889
       2.096
       2.195
       2.154
       1.973
       1.681
       1.319
       0.914
       0.460
      -0.043
      -0.543
      -0.966
      -1.273
      -1.475
      -1.593
      -1.635
      -1.611
      -1.538
      -1.419
      -1.263
      -1.110
      -1.020
      -1.015
      -1.057
      -1.086
      -1.058
      -0.955
      -0.789
      -0.591
      -0.394
      -0.196
       0.027
       0.275
       0.517
       0.725
       0.895
       1.047
       1.216
       1.440
       1.713
       1.960
       2.082
       2.032
       1.835
       1.542
       1.201
       0.859
       0.548
       0.256
      -0.059
      -0.422
      -0.812
      -1.192
      -1.517
      -1.739
      -1.821
      -1.773
      -1.635
      -1.439
      -1.180
      -0.844
      -0.429
       0.046
       0.544
       1.012
       1.410
       1.732
       1.986
       2.154
       2.210
       2.148
       1.978
       1.701
       1.316
       0.855
       0.369
      -0.123
      -0.641
      -1.186
      -1.711
      -2.145
      -2.434
      -2.548
      -2.485
      -2.271
      -1.953
      -1.569
      -1.143
      -0.701
      -0.265
       0.153
       0.535
       0.846
       1.052
       1.158
       1.177
       1.096
       0.891
       0.576
       0.202
      -0.184
      -0.552
      -0.854
      -1.028
      -1.040
      -0.900
      -0.639
      -0.281
       0.151
       0.632
       1.148
       1.682
       2.187
       2.580
       2.776
       2.721
       2.404
       1.864
       1.186
       0.461
      -0.259
      -0.946
      -1.558
      -2.040
      -2.357
      -2.495
      -2.446
      -2.220
      -1.871
      -1.468
      -1.048
      -0.614
      -0.180
       0.203
       0.488
       0.651
       0.690
       0.618
       0.476
       0.308
       0.140
      -0.023
      -0.172
      -0.295
      -0.388
      -0.452
      -0.469
      -0.413
      -0.283
      -0.096
       0.134
       0.395
       0.661
       0.905
       1.122
       1.326
       1.506
       1.635
       1.702
       1.707
       1.635
       1.462
       1.193
       0.872
       0.535
       0.185
      -0.185
      -0.571
      -0.958
      -1.320
      -1.622
      -1.844
      -1.991
      -2.071
      -2.066
      -1.943
      -1.689
      -1.323
      -0.882
      -0.438
      -0.089
       0.081
       0.064
      -0.081
      -0.283
      -0.492
      -0.658
      -0.747
      -0.761
      -0.731
      -0.663
      -0.527
      -0.288
       0.065
       0.527
       1.077
       1.673
       2.257
       2.776
       3.174
       3.393
       3.396
       3.196
       2.833
       2.338
       1.735
       1.069
       0.386
      -0.286
      -0.939
      -1.540
      -2.043
      -2.418
      -2.652
      -2.725
      -2.610
      -2.319
      -1.909
      -1.450
      -1.000
      -0.606
      -0.300
      -0.096
      -0.005
      -0.054
      -0.249
      -0.539
      -0.818
      -0.986
      -0.986
      -0.810
      -0.492
      -0.094
       0.334
       0.779
       1.230
       1.643
       1.954
       2.132
       2.183
       2.120
       1.961
       1.740
       1.491
       1.203
       0.838
       0.382
      -0.121
      -0.601
      -0.993
      -1.264
      -1.425
      -1.532
      -1.641
      -1.757
      -1.837
      -1.839
      -1.745
      -1.564
      -1.334
      -1.111
      -0.919
      -0.720
      -0.454
      -0.112
       0.250
       0.564
       0.782
       0.886
       0.901
       0.895
       0.939
       1.038
       1.141
       1.194
       1.184
       1.123
       1.028
       0.919
       0.807
       0.685
       0.537
       0.363
       0.171
      -0.028
      -0.212
      -0.329
      -0.334
      -0.223
      -0.034
       0.188
       0.392
       0.522
       0.550
       0.503
       0.433
       0.362
       0.267
       0.123
      -0.092
      -0.407
      -0.836
      -1.331
      -1.781
      -2.079
      -2.176
      -2.079
      -1.825
      -1.458
      -1.007
      -0.498
       0.027
       0.503
       0.880
       1.161
       1.369
       1.504
       1.544
       1.479
       1.317
       1.064
       0.742
       0.421
       0.185
       0.071
       0.052
       0.080
       0.114
       0.134
       0.151
       0.206
       0.336
       0.519
       0.683
       0.767
       0.751
       0.641
       0.450
       0.205
      -0.073
      -0.376
      -0.695
      -1.001
      -1.262
      -1.469
      -1.633
      -1.765
      -1.867
      -1.936
      -1.950
      -1.856
      -1.614
      -1.244
      -0.802
      -0.330
       0.154
       0.631
       1.066
       1.440
       1.740
       1.944
       2.028
       1.993
       1.863
       1.650
       1.352
       0.977
       0.561
       0.151
      -0.210
      -0.499
      -0.731
      -0.938
      -1.117
      -1.201
      -1.118
      -0.872
      -0.542
      -0.226
       0.008
       0.125
       0.128
       0.052
      -0.067
      -0.231
      -0.456
      -0.714
      -0.939
      -1.066
      -1.066
      -0.939
      -0.704
      -0.400
      -0.068
       0.272
       0.612
       0.937
       1.232
       1.491
       1.704
       1.841
       1.873
       1.797
       1.611
       1.303
       0.877
       0.397
      -0.037
      -0.358
      -0.550
      -0.628
      -0.626
      -0.593
      -0.564
      -0.531
      -0.461
      -0.345
      -0.207
      -0.075
       0.042
       0.136
       0.199
       0.214
       0.160
       0.010
      -0.230
      -0.504
      -0.739
      -0.891
      -0.947
      -0.911
      -0.817
      -0.727
      -0.690
      -0.696
      -0.690
      -0.640
      -0.545
      -0.407
      -0.226
      -0.009
       0.228
       0.490
       0.796
       1.140
       1.481
       1.768
       1.951
       1.978
       1.824
       1.506
       1.076
       0.582
       0.065
      -0.439
      -0.905
      -1.314
      -1.640
      -1.846
      -1.927
      -1.927
      -1.887
      -1.793
      -1.595
      -1.278
      -0.872
      -0.425
       0.012
       0.382
       0.641
       0.799
       0.915
       1.029
       1.129
       1.160
       1.067
       0.833
       0.503
       0.170
      -0.088
      -0.251
      -0.341
      -0.371
      -0.340
      -0.254
      -0.131
       0.011
       0.157
       0.286
       0.391
       0.487
       0.585
       0.656
       0.656
       0.576
       0.430
       0.226
      -0.026
      -0.282
      -0.476
      -0.578
      -0.608
      -0.602
      -0.579
      -0.536
      -0.466
      -0.361
      -0.233
      -0.109
      -0.005
       0.090
       0.200
       0.329
       0.479
       0.652
       0.834
       0.983
       1.061
       1.072
       1.038
       0.947
       0.771
       0.510
       0.192
      -0.161
      -0.539
      -0.916
      -1.247
      -1.508
      -1.697
      -1.818
      -1.862
      -1.819
      -1.674
      -1.420
      -1.075
      -0.685
      -0.296
       0.071
       0.404
       0.675
       0.866
       0.996
       1.098
       1.177
       1.210
       1.182
       1.099
       0.977
       0.842
       0.731
       0.663
       0.612
       0.542
       0.440
       0.320
       0.188
       0.040
      -0.113
      -0.254
      -0.382
      -0.501
      -0.594
      -0.647
      -0.672
      -0.706
      -0.765
      -0.831
      -0.865
      -0.830
      -0.712
      -0.548
      -0.410
      -0.342
      -0.316
      -0.264
      -0.141
       0.053
       0.293
       0.528
       0.692
       0.740
       0.700
       0.642
       0.621
       0.647
       0.709
       0.793
       0.867
       0.896
       0.863
       0.781
       0.676
       0.573
       0.493
       0.426
       0.348
       0.252
       0.173
       0.147
       0.168
       0.198
       0.204
       0.159
       0.037
      -0.157
      -0.372
      -0.554
      -0.706
      -0.874
      -1.072
      -1.259
      -1.371
      -1.376
      -1.283
      -1.139
      -0.999
      -0.886
      -0.768
      -0.588
      -0.318
       0.021
       0.366
       0.639
       0.769
       0.745
       0.610
       0.417
       0.197
      -0.012
      -0.140
      -0.137
      -0.033
       0.081
       0.138
       0.135
       0.102
       0.077
       0.091
       0.156
       0.252
       0.344
       0.421
       0.491
       0.556
