Origin Time       16/4/2013 01:23:19	 UTC
Lat.              26.3 N	
Long.             92.0 E	
Depth (Km)         16.0
Magnitude         4.6
 Region           Assam-Darrang                                                    
 Above details taken from IMD 
    
Station Code      BAR
Station Lat.       26.332  N
Station Long.      91.006  E
Station Height(m)   47.0
Site Class        C   Vs30 between 200 m/sec to 375 m/sec *  
Record Time       16.04.2013 01:23:24.404 UTC
Sampling Rate     200. Hz
 Record Duration   93.255 Sec.
 Direction         N-S (N positive)
Max. Acceleration     -5.738 cm/sec**2
     
  * For reference see Site Classification link of website 
     
 Base Line Corrected and Low Pass Filtered (Cut Off at 35 Hz) Time History
 Acceleration data in cm/sec**2
    
[...]
       0.197
       0.193
       0.175
       0.140
       0.098
       0.062
       0.040
       0.026
      -0.003
      -0.070
      -0.180
      -0.313
      -0.444
      -0.548
      -0.615
      -0.636
      -0.613
      -0.556
      -0.486
      -0.418
      -0.357
      -0.297
      -0.226
      -0.139
      -0.038
       0.060
       0.133
       0.166
       0.157
       0.125
       0.101
       0.107
       0.149
       0.213
       0.277
       0.322
       0.334
       0.305
       0.233
       0.134
       0.032
      -0.054
      -0.119
      -0.177
      -0.237
      -0.295
      -0.328
      -0.313
      -0.245
      -0.140
      -0.026
       0.072
       0.131
       0.144
       0.118
       0.084
       0.075
       0.106
       0.164
       0.216
       0.235
       0.214
       0.164
       0.110
       0.075
       0.070
       0.087
       0.104
       0.099
       0.054
      -0.035
      -0.150
      -0.263
      -0.343
      -0.371
      -0.347
      -0.280
      -0.188
      -0.090
      -0.015
       0.012
      -0.017
      -0.090
      -0.176
      -0.246
      -0.278
      -0.266
      -0.209
      -0.112
       0.015
       0.154
       0.279
       0.370
       0.415
       0.412
       0.377
       0.330
       0.287
       0.256
       0.234
       0.209
       0.175
       0.128
       0.074
       0.025
      -0.008
      -0.026
      -0.042
      -0.073
      -0.129
      -0.206
      -0.291
      -0.374
      -0.444
      -0.486
      -0.488
      -0.439
      -0.345
      -0.216
      -0.074
       0.057
       0.150
       0.190
       0.177
       0.135
       0.095
       0.071
       0.063
       0.057
       0.050
       0.051
       0.072
       0.114
       0.161
       0.191
       0.191
       0.162
       0.115
       0.061
       0.012
      -0.018
      -0.012
       0.034
       0.104
       0.163
       0.182
       0.150
       0.090
       0.042
       0.039
       0.088
       0.165
       0.229
       0.249
       0.220
       0.155
       0.069
      -0.025
      -0.119
      -0.203
      -0.268
      -0.315
      -0.351
      -0.377
      -0.386
      -0.370
      -0.332
      -0.287
      -0.256
      -0.250
      -0.257
      -0.251
      -0.203
      -0.113
      -0.005
       0.083
       0.130
       0.135
       0.112
       0.082
       0.061
       0.061
       0.087
       0.131
       0.177
       0.209
       0.217
       0.195
       0.140
       0.054
      -0.051
      -0.149
      -0.207
      -0.211
      -0.176
      -0.145
      -0.152
      -0.196
      -0.242
      -0.253
      -0.220
      -0.165
      -0.119
      -0.095
      -0.083
      -0.066
      -0.041
      -0.020
      -0.015
      -0.019
      -0.011
       0.026
       0.085
       0.145
       0.191
       0.232
       0.282
       0.338
       0.369
       0.337
       0.232
       0.087
      -0.045
      -0.125
      -0.148
      -0.139
      -0.129
      -0.126
      -0.123
      -0.108
      -0.080
      -0.053
      -0.042
      -0.052
      -0.079
      -0.114
      -0.148
      -0.164
      -0.141
      -0.057
       0.084
       0.243
       0.367
       0.414
       0.379
       0.290
       0.186
       0.091
       0.004
      -0.089
      -0.195
      -0.301
      -0.383
      -0.413
      -0.378
      -0.289
      -0.179
      -0.091
      -0.050
      -0.056
      -0.088
      -0.117
      -0.127
      -0.114
      -0.082
      -0.043
      -0.009
       0.010
       0.013
       0.018
       0.050
       0.124
       0.229
       0.328
       0.379
       0.357
       0.271
       0.148
       0.025
      -0.074
      -0.141
      -0.177
      -0.182
      -0.148
      -0.069
       0.044
       0.163
       0.248
       0.270
       0.227
       0.144
       0.062
       0.016
       0.013
       0.034
       0.055
       0.063
       0.057
       0.043
       0.023
       0.000
      -0.028
      -0.062
      -0.101
      -0.145
      -0.191
      -0.230
      -0.253
      -0.245
      -0.189
      -0.088
       0.030
       0.116
       0.130
       0.071
      -0.022
      -0.098
      -0.134
      -0.145
      -0.169
      -0.230
      -0.319
      -0.400
      -0.431
      -0.387
      -0.274
      -0.126
       0.000
       0.056
       0.031
      -0.040
      -0.099
      -0.098
      -0.021
       0.115
       0.279
       0.438
       0.565
       0.641
       0.656
       0.612
       0.527
       0.426
       0.338
       0.277
       0.240
       0.210
       0.178
       0.145
       0.114
       0.081
       0.029
      -0.059
      -0.176
      -0.293
      -0.374
      -0.400
      -0.379
      -0.338
      -0.298
      -0.276
      -0.278
      -0.299
      -0.324
      -0.323
      -0.276
      -0.185
      -0.078
       0.016
       0.087
       0.145
       0.207
       0.278
       0.343
       0.377
       0.357
       0.280
       0.166
       0.050
      -0.035
      -0.064
      -0.028
       0.071
       0.217
       0.384
       0.542
       0.668
       0.751
       0.800
       0.835
       0.869
       0.898
       0.902
       0.866
       0.801
       0.734
       0.689
       0.669
       0.665
       0.676
       0.720
       0.811
       0.935
       1.049
       1.110
       1.098
       1.015
       0.878
       0.702
       0.499
       0.288
       0.088
      -0.097
      -0.278
      -0.471
      -0.681
      -0.883
      -1.039
      -1.125
      -1.154
      -1.172
      -1.219
      -1.297
      -1.370
      -1.392
      -1.338
      -1.227
      -1.098
      -0.988
      -0.914
      -0.878
      -0.867
      -0.861
      -0.845
      -0.818
      -0.798
      -0.801
      -0.823
      -0.835
      -0.798
      -0.703
      -0.590
      -0.535
      -0.599
      -0.781
      -1.014
      -1.207
      -1.306
      -1.309
      -1.246
      -1.143
      -1.007
      -0.842
      -0.661
      -0.481
      -0.314
      -0.154
       0.010
       0.176
       0.321
       0.409
       0.416
       0.350
       0.242
       0.129
       0.037
      -0.028
      -0.068
      -0.086
      -0.082
      -0.055
      -0.006
       0.060
       0.140
       0.229
       0.322
       0.408
       0.483
       0.547
       0.607
       0.667
       0.726
       0.777
       0.818
       0.843
       0.842
       0.796
       0.701
       0.571
       0.442
       0.342
       0.279
       0.240
       0.204
       0.157
       0.093
       0.012
      -0.079
      -0.165
      -0.220
      -0.212
      -0.113
       0.079
       0.337
       0.615
       0.866
       1.055
       1.167
       1.198
       1.159
       1.071
       0.962
       0.855
       0.751
       0.639
       0.502
       0.342
       0.172
       0.010
      -0.142
      -0.302
      -0.489
      -0.705
      -0.923
      -1.104
      -1.218
      -1.255
      -1.221
      -1.130
      -0.994
      -0.838
      -0.692
      -0.593
      -0.557
      -0.576
      -0.620
      -0.656
      -0.660
      -0.620
      -0.535
      -0.415
      -0.286
      -0.185
      -0.133
      -0.119
      -0.104
      -0.052
       0.043
       0.163
       0.288
       0.419
       0.578
       0.778
       1.002
       1.210
       1.366
       1.462
       1.508
       1.514
       1.483
       1.419
       1.337
       1.269
       1.243
       1.262
       1.292
       1.277
       1.167
       0.945
       0.628
       0.258
      -0.116
      -0.447
      -0.698
      -0.846
      -0.894
      -0.864
      -0.793
      -0.721
      -0.682
      -0.691
      -0.738
      -0.793
      -0.818
      -0.797
      -0.745
      -0.701
      -0.697
      -0.740
      -0.800
      -0.836
      -0.820
      -0.755
      -0.656
      -0.540
      -0.408
      -0.259
      -0.098
       0.054
       0.179
       0.271
       0.342
       0.407
       0.482
       0.576
       0.693
       0.831
       0.970
       1.076
       1.123
       1.106
       1.051
       0.986
       0.924
       0.851
       0.755
       0.638
       0.518
       0.411
       0.311
       0.190
       0.016
      -0.229
      -0.532
      -0.867
      -1.206
      -1.529
      -1.810
      -2.006
      -2.073
      -1.996
      -1.816
      -1.606
      -1.429
      -1.296
      -1.172
      -1.008
      -0.777
      -0.479
      -0.129
       0.250
       0.631
       0.979
       1.253
       1.422
       1.489
       1.484
       1.452
       1.417
       1.370
       1.277
       1.098
       0.819
       0.448
       0.019
      -0.432
      -0.875
      -1.285
      -1.630
      -1.878
      -2.001
      -2.001
      -1.911
      -1.785
      -1.671
      -1.586
      -1.506
      -1.385
      -1.183
      -0.886
      -0.508
      -0.088
       0.332
       0.722
       1.069
       1.370
       1.613
       1.776
       1.836
       1.784
       1.628
       1.394
       1.124
       0.880
       0.722
       0.683
       0.746
       0.860
       0.968
       1.046
       1.097
       1.126
       1.112
       1.014
       0.800
       0.479
       0.109
      -0.224
      -0.445
      -0.523
      -0.481
      -0.381
      -0.303
      -0.313
      -0.452
      -0.733
      -1.135
      -1.608
      -2.073
      -2.436
      -2.619
      -2.568
      -2.258
      -1.683
      -0.867
       0.112
       1.119
       1.991
       2.594
       2.872
       2.868
       2.695
       2.484
       2.325
       2.240
       2.204
       2.180
       2.148
       2.105
       2.055
       1.990
       1.885
       1.710
       1.437
       1.052
       0.552
      -0.056
      -0.748
      -1.479
      -2.180
      -2.771
      -3.186
      -3.395
      -3.426
      -3.351
      -3.248
      -3.158
      -3.073
      -2.951
      -2.755
      -2.479
      -2.141
      -1.780
      -1.428
      -1.089
      -0.730
      -0.289
       0.275
       0.937
       1.601
       2.140
       2.467
       2.563
       2.468
       2.243
       1.940
       1.594
       1.237
       0.912
       0.663
       0.514
       0.462
       0.480
       0.531
       0.569
       0.548
       0.431
       0.211
      -0.089
      -0.421
      -0.739
      -1.017
      -1.250
      -1.446
      -1.608
      -1.728
      -1.803
      -1.844
      -1.872
      -1.893
      -1.877
      -1.776
      -1.554
      -1.217
      -0.803
      -0.349
       0.117
       0.573
       0.982
       1.297
       1.480
       1.538
       1.528
       1.528
       1.595
       1.730
       1.885
       1.987
       1.985
       1.875
       1.697
       1.493
       1.282
       1.045
       0.753
       0.392
      -0.025
      -0.460
      -0.863
      -1.196
      -1.445
      -1.622
      -1.745
      -1.819
      -1.836
      -1.793
      -1.703
      -1.584
      -1.445
      -1.281
      -1.088
      -0.871
      -0.651
      -0.453
      -0.297
      -0.209
      -0.226
      -0.390
      -0.718
      -1.169
      -1.640
      -2.004
      -2.178
      -2.164
      -2.025
      -1.837
      -1.632
      -1.412
      -1.185
      -0.995
      -0.897
      -0.900
      -0.945
      -0.924
      -0.741
      -0.360
       0.183
       0.808
       1.416
       1.915
       2.235
       2.354
       2.303
       2.149
       1.961
       1.779
       1.615
       1.468
       1.349
       1.272
       1.231
       1.184
       1.069
       0.844
       0.522
       0.179
      -0.081
      -0.168
      -0.036
       0.309
       0.817
       1.409
       1.986
       2.454
       2.747
       2.847
       2.791
       2.650
       2.482
       2.300
       2.072
       1.759
       1.360
       0.911
       0.444
      -0.046
      -0.591
      -1.212
      -1.867
      -2.452
      -2.837
      -2.912
      -2.624
      -1.999
      -1.145
      -0.234
       0.551
       1.082
       1.328
       1.359
       1.302
       1.272
       1.329
       1.471
       1.664
       1.886
       2.143
       2.449
       2.788
       3.096
       3.266
       3.194
       2.830
       2.202
       1.407
       0.569
      -0.207
      -0.878
      -1.466
      -2.042
      -2.662
      -3.325
      -3.960
      -4.468
      -4.783
      -4.899
      -4.854
      -4.691
      -4.429
      -4.061
      -3.566
      -2.932
      -2.163
      -1.277
      -0.309
       0.686
       1.624
       2.409
       2.965
       3.267
       3.343
       3.247
       3.027
       2.712
       2.321
       1.873
       1.389
       0.868
       0.285
      -0.387
      -1.146
      -1.937
      -2.672
      -3.273
      -3.702
      -3.964
      -4.075
      -4.028
      -3.781
      -3.293
      -2.572
      -1.706
      -0.840
      -0.106
       0.441
       0.841
       1.183
       1.534
       1.901
       2.237
       2.484
       2.617
       2.645
       2.581
       2.412
       2.108
       1.651
       1.063
       0.402
      -0.269
      -0.905
      -1.467
      -1.895
      -2.094
      -1.966
      -1.468
      -0.656
       0.315
       1.246
       1.959
       2.351
       2.407
       2.190
       1.806
       1.379
       1.027
       0.847
       0.902
       1.206
       1.720
       2.350
       2.952
       3.360
       3.416
       3.015
       2.150
       0.931
      -0.427
      -1.676
      -2.622
      -3.199
      -3.469
      -3.571
      -3.638
      -3.748
      -3.914
      -4.117
      -4.337
      -4.576
      -4.845
      -5.151
      -5.464
      -5.699
      -5.738
      -5.471
      -4.847
      -3.888
      -2.679
      -1.344
      -0.020
       1.178
       2.184
       2.987
       3.619
       4.118
       4.490
       4.704
       4.708
       4.459
       3.960
       3.280
       2.551
       1.945
       1.623
       1.663
       2.016
       2.503
       2.892
       2.982
       2.682
       2.027
       1.140
       0.175
      -0.736
      -1.511
      -2.111
      -2.511
      -2.682
      -2.585
      -2.206
      -1.591
      -0.860
      -0.175
       0.328
       0.586
       0.635
       0.585
       0.580
       0.736
       1.100
       1.627
       2.210
       2.715
       3.024
       3.062
       2.809
       2.309
       1.655
       0.958
       0.318
      -0.193
      -0.542
      -0.751
      -0.883
      -1.020
      -1.225
      -1.518
      -1.872
      -2.236
      -2.555
      -2.771
      -2.823
      -2.642
      -2.197
      -1.532
      -0.777
      -0.086
       0.438
       0.784
       1.008
       1.174
       1.319
       1.462
       1.626
       1.838
       2.113
       2.426
       2.716
       2.897
       2.880
       2.609
       2.089
       1.408
       0.701
       0.077
      -0.445
      -0.930
      -1.467
      -2.091
      -2.746
      -3.306
      -3.646
      -3.702
      -3.498
      -3.120
      -2.663
      -2.209
      -1.825
      -1.577
      -1.522
      -1.661
      -1.915
      -2.127
      -2.119
      -1.766
      -1.050
      -0.062
       1.024
       2.013
       2.737
       3.109
       3.141
       2.924
       2.573
       2.165
       1.713
       1.201
       0.628
       0.053
      -0.419
      -0.686
      -0.696
      -0.477
      -0.122
       0.241
       0.487
       0.521
       0.310
      -0.114
      -0.647
      -1.140
      -1.439
      -1.436
      -1.122
      -0.590
      -0.002
       0.482
       0.772
       0.870
       0.852
       0.800
       0.760
       0.725
       0.661
       0.539
       0.348
       0.088
      -0.230
      -0.587
      -0.957
      -1.308
      -1.609
      -1.836
      -1.965
      -1.982
      -1.892
      -1.716
      -1.475
      -1.164
      -0.748
      -0.194
       0.481
       1.194
       1.840
       2.347
       2.711
       2.964
       3.124
       3.158
       3.013
       2.660
       2.133
       1.512
       0.885
       0.301
      -0.235
      -0.738
      -1.200
      -1.573
      -1.800
      -1.853
      -1.753
      -1.556
      -1.315
      -1.064
      -0.822
      -0.607
      -0.445
      -0.362
      -0.369
      -0.454
      -0.590
      -0.749
      -0.911
      -1.050
      -1.121
      -1.065
      -0.831
      -0.413
       0.143
       0.760
       1.357
       1.875
       2.278
       2.553
       2.704
       2.751
       2.708
       2.571
       2.322
       1.965
       1.544
       1.134
       0.806
       0.588
       0.466
       0.393
       0.323
       0.228
       0.093
      -0.096
      -0.344
      -0.634
      -0.904
      -1.069
      -1.066
      -0.895
      -0.620
      -0.316
      -0.022
       0.275
       0.610
       0.982
       1.318
       1.496
       1.411
       1.038
       0.451
      -0.217
      -0.831
      -1.304
      -1.605
      -1.752
      -1.789
      -1.767
      -1.728
      -1.705
      -1.723
      -1.799
      -1.942
      -2.144
      -2.371
      -2.565
      -2.667
      -2.640
      -2.479
      -2.207
      -1.850
      -1.431
      -0.966
      -0.479
      -0.002
       0.423
       0.762
       0.996
       1.136
       1.221
       1.313
       1.481
       1.775
       2.191
       2.663
       3.075
       3.304
       3.278
       3.004
       2.558
       2.050
       1.566
       1.144
       0.766
       0.388
      -0.025
      -0.472
      -0.918
      -1.323
      -1.667
      -1.963
      -2.234
      -2.483
      -2.671
      -2.755
      -2.720
      -2.605
      -2.463
      -2.319
      -2.151
      -1.924
      -1.631
      -1.305
      -0.993
      -0.720
      -0.482
      -0.261
      -0.050
       0.137
       0.282
       0.368
       0.384
       0.328
       0.213
       0.079
      -0.010
       0.007
       0.143
       0.351
       0.534
       0.605
       0.523
       0.316
       0.061
      -0.137
      -0.194
      -0.070
       0.207
       0.562
       0.900
       1.149
       1.275
       1.293
       1.260
       1.245
       1.305
       1.455
       1.664
       1.862
       1.969
       1.920
       1.691
       1.296
       0.789
       0.248
      -0.251
      -0.651
      -0.935
      -1.113
      -1.211
      -1.271
      -1.346
      -1.498
      -1.768
      -2.152
      -2.581
      -2.927
      -3.037
      -2.801
      -2.198
      -1.322
      -0.350
       0.523
       1.150
       1.475
       1.540
       1.447
       1.301
       1.182
       1.148
       1.247
       1.514
       1.943
       2.459
       2.926
       3.192
       3.144
       2.740
       2.023
       1.099
       0.119
      -0.745
      -1.337
      -1.573
      -1.479
      -1.178
      -0.831
      -0.565
      -0.424
      -0.378
      -0.363
      -0.318
      -0.211
      -0.037
       0.186
       0.435
       0.693
       0.949
       1.181
       1.336
       1.335
       1.121
       0.707
       0.188
      -0.287
      -0.587
      -0.645
      -0.466
      -0.102
       0.380
       0.916
       1.442
       1.884
       2.175
       2.275
       2.195
       1.979
       1.675
       1.307
       0.875
       0.379
      -0.150
      -0.644
      -1.016
      -1.212
      -1.260
      -1.264
      -1.348
      -1.570
      -1.887
      -2.207
      -2.451
      -2.598
      -2.660
      -2.652
      -2.594
      -2.530
      -2.528
      -2.640
      -2.850
