Origin Time       2/3/2013 01:30:40	 
Lat.              24.8 N	
Long.             92.2 E	
Depth (Km)         10.0
Magnitude         5.2
 Region           India-Bangladesh-Border                                          
 Above details taken from IMD 
     
Station Code      BAR
Station Lat.       26.332  N
Station Long.      91.006  E
Station Height(m)   47.0
Site Class        C   Vs30 between 200 m/sec to 375 m/sec *  
Record Time       02.03.2013 01:31:03.759
Sampling Rate     200. Hz
 Record Duration   83.155 Sec.
 Direction         E-W (E positive)
Max. Acceleration      2.814 cm/sec**2
     
  * For reference see Site Classification link of website 
     
 Base Line Corrected and Low Pass Filtered (Cut Off at 35 Hz) Time History
 Acceleration data in cm/sec**2
    
[...]
       0.076
       0.064
       0.057
       0.052
       0.053
       0.074
       0.119
       0.178
       0.226
       0.237
       0.203
       0.133
       0.059
       0.012
       0.007
       0.031
       0.051
       0.038
      -0.008
      -0.058
      -0.075
      -0.037
       0.047
       0.144
       0.216
       0.240
       0.211
       0.138
       0.043
      -0.048
      -0.110
      -0.134
      -0.124
      -0.091
      -0.047
       0.001
       0.044
       0.075
       0.092
       0.097
       0.094
       0.082
       0.060
       0.021
      -0.040
      -0.118
      -0.190
      -0.227
      -0.205
      -0.127
      -0.026
       0.055
       0.085
       0.065
       0.021
      -0.020
      -0.043
      -0.056
      -0.069
      -0.080
      -0.078
      -0.050
       0.004
       0.063
       0.106
       0.118
       0.107
       0.091
       0.088
       0.093
       0.082
       0.039
      -0.030
      -0.092
      -0.116
      -0.095
      -0.047
       0.003
       0.036
       0.046
       0.028
      -0.018
      -0.075
      -0.116
      -0.108
      -0.046
       0.049
       0.138
       0.186
       0.187
       0.157
       0.127
       0.123
       0.150
       0.189
       0.211
       0.191
       0.128
       0.044
      -0.034
      -0.088
      -0.112
      -0.110
      -0.084
      -0.044
      -0.009
       0.001
      -0.028
      -0.085
      -0.140
      -0.166
      -0.154
      -0.123
      -0.096
      -0.085
      -0.085
      -0.092
      -0.108
      -0.137
      -0.175
      -0.201
      -0.200
      -0.175
      -0.154
      -0.165
      -0.214
      -0.279
      -0.330
      -0.346
      -0.327
      -0.297
      -0.281
      -0.289
      -0.305
      -0.292
      -0.223
      -0.094
       0.069
       0.233
       0.375
       0.485
       0.555
       0.577
       0.547
       0.478
       0.397
       0.336
       0.301
       0.273
       0.223
       0.134
       0.021
      -0.093
      -0.193
      -0.278
      -0.349
      -0.398
      -0.417
      -0.404
      -0.369
      -0.323
      -0.271
      -0.212
      -0.138
      -0.048
       0.050
       0.146
       0.228
       0.297
       0.350
       0.386
       0.397
       0.380
       0.338
       0.284
       0.231
       0.195
       0.179
       0.174
       0.163
       0.130
       0.078
       0.030
       0.005
       0.008
       0.018
       0.011
      -0.030
      -0.099
      -0.179
      -0.249
      -0.289
      -0.290
      -0.256
      -0.206
      -0.158
      -0.129
      -0.123
      -0.135
      -0.149
      -0.147
      -0.119
      -0.078
      -0.044
      -0.031
      -0.036
      -0.045
      -0.047
      -0.040
      -0.021
       0.015
       0.073
       0.149
       0.223
       0.270
       0.280
       0.263
       0.250
       0.266
       0.308
       0.348
       0.346
       0.286
       0.181
       0.072
       0.004
      -0.004
       0.041
       0.105
       0.152
       0.156
       0.115
       0.044
      -0.035
      -0.105
      -0.150
      -0.163
      -0.143
      -0.101
      -0.051
      -0.006
       0.024
       0.036
       0.032
       0.019
       0.003
      -0.009
      -0.012
      -0.001
       0.024
       0.049
       0.051
       0.015
      -0.052
      -0.123
      -0.166
      -0.172
      -0.154
      -0.136
      -0.140
      -0.171
      -0.216
      -0.249
      -0.249
      -0.209
      -0.144
      -0.076
      -0.022
       0.013
       0.033
       0.041
       0.034
       0.005
      -0.049
      -0.117
      -0.172
      -0.183
      -0.136
      -0.046
       0.048
       0.104
       0.103
       0.056
      -0.005
      -0.045
      -0.054
      -0.046
      -0.045
      -0.061
      -0.084
      -0.095
      -0.078
      -0.034
       0.030
       0.098
       0.159
       0.209
       0.250
       0.284
       0.308
       0.315
       0.309
       0.297
       0.285
       0.260
       0.202
       0.107
      -0.002
      -0.084
      -0.110
      -0.081
      -0.027
       0.009
       0.000
      -0.060
      -0.153
      -0.244
      -0.298
      -0.293
      -0.232
      -0.142
      -0.052
       0.023
       0.094
       0.174
       0.259
       0.328
       0.350
       0.318
       0.246
       0.163
       0.092
       0.037
      -0.010
      -0.049
      -0.064
      -0.040
       0.017
       0.075
       0.096
       0.069
       0.020
      -0.007
       0.009
       0.052
       0.085
       0.086
       0.065
       0.055
       0.076
       0.115
       0.129
       0.083
      -0.021
      -0.137
      -0.206
      -0.197
      -0.125
      -0.036
       0.028
       0.047
       0.034
       0.011
      -0.011
      -0.036
      -0.072
      -0.104
      -0.105
      -0.049
       0.053
       0.149
       0.183
       0.133
       0.027
      -0.080
      -0.144
      -0.160
      -0.153
      -0.153
      -0.170
      -0.191
      -0.198
      -0.185
      -0.169
      -0.171
      -0.198
      -0.229
      -0.226
      -0.167
      -0.063
       0.050
       0.131
       0.162
       0.153
       0.125
       0.102
       0.095
       0.101
       0.106
       0.102
       0.092
       0.082
       0.074
       0.057
       0.024
      -0.023
      -0.068
      -0.101
      -0.122
      -0.140
      -0.160
      -0.174
      -0.163
      -0.117
      -0.050
       0.007
       0.030
       0.019
      -0.002
      -0.006
       0.014
       0.047
       0.074
       0.081
       0.066
       0.033
      -0.006
      -0.035
      -0.036
      -0.001
       0.061
       0.122
       0.163
       0.179
       0.182
       0.185
       0.185
       0.170
       0.123
       0.043
      -0.051
      -0.120
      -0.127
      -0.072
       0.012
       0.076
       0.089
       0.053
      -0.008
      -0.066
      -0.100
      -0.103
      -0.087
      -0.072
      -0.073
      -0.089
      -0.110
      -0.124
      -0.126
      -0.117
      -0.099
      -0.075
      -0.048
      -0.019
       0.010
       0.036
       0.054
       0.063
       0.064
       0.058
       0.044
       0.030
       0.026
       0.037
       0.057
       0.070
       0.067
       0.048
       0.023
       0.003
       0.002
       0.030
       0.087
       0.160
       0.225
       0.258
       0.241
       0.174
       0.072
      -0.042
      -0.143
      -0.220
      -0.268
      -0.288
      -0.282
      -0.254
      -0.216
      -0.179
      -0.155
      -0.141
      -0.123
      -0.083
      -0.021
       0.044
       0.082
       0.080
       0.054
       0.037
       0.052
       0.094
       0.142
       0.181
       0.215
       0.261
       0.326
       0.397
       0.441
       0.430
       0.356
       0.239
       0.111
      -0.002
      -0.086
      -0.137
      -0.149
      -0.121
      -0.064
      -0.008
       0.018
       0.001
      -0.047
      -0.101
      -0.144
      -0.178
      -0.208
      -0.231
      -0.237
      -0.222
      -0.193
      -0.157
      -0.117
      -0.070
      -0.020
       0.019
       0.031
       0.009
      -0.037
      -0.084
      -0.113
      -0.120
      -0.117
      -0.117
      -0.123
      -0.122
      -0.096
      -0.044
       0.016
       0.054
       0.055
       0.031
       0.018
       0.049
       0.126
       0.228
       0.320
       0.388
       0.433
       0.464
       0.483
       0.479
       0.444
       0.379
       0.298
       0.223
       0.171
       0.141
       0.115
       0.070
       0.002
      -0.073
      -0.132
      -0.158
      -0.158
      -0.148
      -0.148
      -0.175
      -0.238
      -0.335
      -0.449
      -0.548
      -0.603
      -0.600
      -0.542
      -0.443
      -0.319
      -0.185
      -0.056
       0.048
       0.112
       0.132
       0.131
       0.141
       0.182
       0.245
       0.299
       0.320
       0.310
       0.289
       0.275
       0.269
       0.261
       0.240
       0.210
       0.180
       0.150
       0.107
       0.033
      -0.068
      -0.165
      -0.212
      -0.183
      -0.092
       0.013
       0.081
       0.085
       0.030
      -0.052
      -0.121
      -0.144
      -0.107
      -0.018
       0.094
       0.184
       0.214
       0.172
       0.083
      -0.005
      -0.058
      -0.078
      -0.095
      -0.136
      -0.199
      -0.255
      -0.265
      -0.216
      -0.132
      -0.054
      -0.021
      -0.040
      -0.090
      -0.139
      -0.161
      -0.151
      -0.115
      -0.065
      -0.010
       0.040
       0.076
       0.094
       0.097
       0.092
       0.086
       0.082
       0.079
       0.074
       0.062
       0.044
       0.027
       0.010
      -0.015
      -0.060
      -0.124
      -0.185
      -0.220
      -0.216
      -0.182
      -0.138
      -0.106
      -0.102
      -0.126
      -0.162
      -0.179
      -0.153
      -0.082
       0.008
       0.078
       0.101
       0.071
       0.005
      -0.071
      -0.124
      -0.133
      -0.093
      -0.025
       0.044
       0.095
       0.122
       0.132
       0.130
       0.119
       0.100
       0.075
       0.038
      -0.013
      -0.078
      -0.146
      -0.197
      -0.216
      -0.202
      -0.169
      -0.135
      -0.112
      -0.099
      -0.086
      -0.063
      -0.023
       0.038
       0.116
       0.196
       0.260
       0.297
       0.314
       0.325
       0.339
       0.353
       0.366
       0.380
       0.398
       0.416
       0.424
       0.420
       0.409
       0.394
       0.359
       0.282
       0.152
      -0.016
      -0.187
      -0.327
      -0.422
      -0.484
      -0.534
      -0.584
      -0.621
      -0.613
      -0.543
      -0.424
      -0.305
      -0.225
      -0.190
      -0.161
      -0.097
       0.016
       0.160
       0.305
       0.433
       0.538
       0.617
       0.665
       0.682
       0.673
       0.641
       0.585
       0.500
       0.379
       0.215
       0.006
      -0.231
      -0.455
      -0.614
      -0.681
      -0.672
      -0.636
      -0.617
      -0.631
      -0.655
      -0.653
      -0.604
      -0.520
      -0.425
      -0.341
      -0.265
      -0.187
      -0.101
      -0.009
       0.085
       0.186
       0.306
       0.454
       0.623
       0.788
       0.908
       0.943
       0.879
       0.736
       0.566
       0.417
       0.314
       0.249
       0.199
       0.147
       0.090
       0.028
      -0.043
      -0.119
      -0.185
      -0.221
      -0.227
      -0.227
      -0.251
      -0.308
      -0.383
      -0.446
      -0.474
      -0.460
      -0.417
      -0.371
      -0.342
      -0.330
      -0.320
      -0.304
      -0.299
      -0.331
      -0.407
      -0.512
      -0.614
      -0.685
      -0.715
      -0.718
      -0.716
      -0.719
      -0.713
      -0.662
      -0.535
      -0.325
      -0.066
       0.187
       0.387
       0.521
       0.608
       0.687
       0.783
       0.894
       1.003
       1.092
       1.155
       1.200
       1.225
       1.227
       1.211
       1.200
       1.220
       1.276
       1.338
       1.350
       1.265
       1.066
       0.783
       0.476
       0.206
       0.000
      -0.155
      -0.296
      -0.448
      -0.609
      -0.743
      -0.807
      -0.768
      -0.632
      -0.453
      -0.316
      -0.300
      -0.434
      -0.684
      -0.979
      -1.247
      -1.440
      -1.542
      -1.558
      -1.498
      -1.363
      -1.149
      -0.860
      -0.522
      -0.173
       0.155
       0.442
       0.682
       0.874
       1.030
       1.177
       1.346
       1.549
       1.773
       1.979
       2.120
       2.158
       2.074
       1.859
       1.521
       1.090
       0.622
       0.184
      -0.178
      -0.462
      -0.699
      -0.926
      -1.161
      -1.399
      -1.617
      -1.786
      -1.888
      -1.926
      -1.919
      -1.874
      -1.764
      -1.548
      -1.204
      -0.763
      -0.299
       0.106
       0.396
       0.553
       0.594
       0.551
       0.459
       0.348
       0.244
       0.165
       0.122
       0.107
       0.091
       0.043
      -0.058
      -0.206
      -0.371
      -0.523
      -0.652
      -0.771
      -0.889
      -0.985
      -1.007
      -0.893
      -0.611
      -0.173
       0.358
       0.887
       1.311
       1.541
       1.529
       1.288
       0.893
       0.458
       0.082
      -0.189
      -0.368
      -0.500
      -0.631
      -0.779
      -0.942
      -1.103
      -1.247
      -1.358
      -1.430
      -1.471
      -1.495
      -1.505
      -1.485
      -1.400
      -1.223
      -0.936
      -0.536
      -0.034
       0.530
       1.082
       1.518
       1.760
       1.800
       1.720
       1.636
       1.636
       1.734
       1.883
       2.007
       2.046
       1.982
       1.835
       1.649
       1.448
       1.216
       0.905
       0.477
      -0.060
      -0.635
      -1.140
      -1.477
      -1.604
      -1.540
      -1.350
      -1.101
      -0.827
      -0.519
      -0.150
       0.265
       0.644
       0.869
       0.859
       0.622
       0.235
      -0.207
      -0.630
      -0.996
      -1.282
      -1.469
      -1.539
      -1.491
      -1.358
      -1.205
      -1.102
      -1.086
      -1.136
      -1.182
      -1.146
      -0.977
      -0.662
      -0.213
       0.336
       0.938
       1.531
       2.049
       2.436
       2.676
       2.792
       2.814
       2.751
       2.586
       2.318
       1.987
       1.667
       1.419
       1.250
       1.113
       0.938
       0.670
       0.298
      -0.142
      -0.593
      -1.001
      -1.333
      -1.575
      -1.718
      -1.755
      -1.686
      -1.532
      -1.341
      -1.179
      -1.093
      -1.073
      -1.047
      -0.925
      -0.675
      -0.356
      -0.082
       0.055
       0.042
      -0.054
      -0.139
      -0.156
      -0.108
      -0.036
       0.022
       0.053
       0.061
       0.039
      -0.033
      -0.163
      -0.325
      -0.469
      -0.548
      -0.543
      -0.466
      -0.349
      -0.221
      -0.099
       0.014
       0.126
       0.256
       0.439
       0.698
       1.014
       1.304
       1.452
       1.385
       1.134
       0.833
       0.639
       0.647
       0.849
       1.150
       1.415
       1.521
       1.386
       1.002
       0.433
      -0.206
      -0.807
      -1.309
      -1.699
      -1.980
      -2.147
      -2.180
      -2.069
      -1.832
      -1.522
      -1.202
      -0.923
      -0.713
      -0.574
      -0.479
      -0.373
      -0.205
       0.043
       0.345
       0.643
       0.880
       1.025
       1.067
       1.002
       0.836
       0.590
       0.310
       0.054
      -0.135
      -0.250
      -0.320
      -0.375
      -0.411
      -0.391
      -0.280
      -0.084
       0.153
       0.380
       0.568
       0.712
       0.815
       0.889
       0.950
       1.016
       1.084
       1.125
       1.089
       0.941
       0.674
       0.316
      -0.084
      -0.461
      -0.743
      -0.875
      -0.844
      -0.699
      -0.537
      -0.449
      -0.476
      -0.589
      -0.721
      -0.809
      -0.815
      -0.722
      -0.515
      -0.190
       0.218
       0.633
       0.956
       1.109
       1.061
       0.850
       0.561
       0.288
       0.077
      -0.077
      -0.202
      -0.310
      -0.382
      -0.392
      -0.339
      -0.254
      -0.192
      -0.198
      -0.286
      -0.426
      -0.559
      -0.632
      -0.622
      -0.549
      -0.456
      -0.384
      -0.360
      -0.383
      -0.435
      -0.483
      -0.497
      -0.453
      -0.329
      -0.104
       0.230
       0.641
       1.035
       1.282
       1.282
       1.034
       0.633
       0.215
      -0.124
      -0.356
      -0.504
      -0.593
      -0.630
      -0.607
      -0.523
      -0.408
      -0.310
      -0.267
      -0.276
      -0.298
      -0.293
      -0.236
      -0.121
       0.048
       0.257
       0.459
       0.573
       0.523
       0.297
      -0.032
      -0.333
      -0.491
      -0.471
      -0.323
      -0.131
       0.031
       0.116
       0.085
      -0.086
      -0.373
      -0.684
      -0.884
      -0.876
      -0.657
      -0.321
      -0.005
       0.192
       0.248
       0.220
       0.200
       0.243
       0.343
       0.451
       0.532
       0.592
       0.662
       0.749
       0.808
       0.765
       0.567
       0.228
      -0.180
      -0.565
      -0.874
      -1.109
      -1.308
      -1.488
      -1.612
      -1.602
      -1.393
      -0.996
      -0.511
      -0.094
       0.126
       0.101
      -0.111
      -0.378
      -0.560
      -0.556
      -0.329
       0.095
       0.645
       1.221
       1.722
       2.066
       2.200
       2.112
       1.833
       1.428
       0.985
       0.579
       0.255
       0.021
      -0.134
      -0.218
      -0.244
      -0.239
      -0.256
      -0.349
      -0.536
      -0.768
      -0.943
      -0.964
      -0.789
      -0.454
      -0.054
       0.301
       0.525
       0.588
       0.526
       0.423
       0.368
       0.414
       0.547
       0.701
       0.801
       0.792
       0.652
       0.398
       0.083
      -0.215
      -0.427
      -0.522
      -0.516
      -0.461
      -0.432
      -0.504
      -0.719
      -1.046
      -1.379
      -1.586
      -1.583
      -1.374
      -1.040
      -0.671
      -0.312
       0.042
       0.404
       0.754
       1.033
       1.192
       1.233
       1.209
       1.185
       1.192
       1.222
       1.247
       1.240
       1.194
       1.115
       0.996
       0.803
       0.489
       0.050
      -0.446
      -0.886
      -1.181
      -1.312
      -1.323
      -1.262
      -1.141
      -0.941
      -0.648
      -0.290
       0.066
       0.348
       0.518
       0.584
       0.579
       0.546
       0.517
       0.515
       0.553
       0.619
       0.676
       0.678
       0.588
       0.408
       0.170
      -0.081
      -0.305
      -0.473
      -0.567
      -0.586
      -0.552
      -0.512
      -0.525
      -0.635
      -0.844
      -1.099
      -1.314
      -1.400
      -1.307
      -1.048
      -0.691
      -0.325
      -0.025
       0.162
       0.218
       0.147
      -0.016
      -0.213
      -0.376
      -0.466
      -0.490
      -0.484
      -0.470
      -0.435
      -0.339
      -0.161
       0.081
       0.329
       0.521
       0.626
       0.659
       0.669
       0.694
       0.734
       0.750
       0.701
       0.593
       0.479
       0.434
       0.499
       0.666
       0.877
       1.060
       1.151
       1.123
       0.986
       0.773
       0.525
       0.272
       0.034
      -0.173
      -0.332
      -0.430
      -0.481
      -0.531
      -0.642
      -0.847
      -1.106
      -1.308
      -1.332
      -1.126
      -0.749
      -0.351
      -0.092
      -0.062
      -0.236
      -0.492
      -0.679
      -0.687
      -0.488
      -0.130
       0.301
       0.719
       1.061
       1.286
       1.367
       1.287
       1.057
       0.729
       0.390
       0.121
      -0.039
      -0.111
      -0.138
      -0.149
      -0.148
      -0.137
      -0.136
      -0.170
