Origin Time       28/5/2010 07:25:06	
Lat.              31.2 N	
Long.             77.9 E	
Depth (Km)         43.0
Magnitude         4.8
 Region           Himachal                                                         
 Above details taken from USGS
     
Station Code      BAR
Station Lat.       30.809  N
Station Long.      78.205  E
Station Height(m) 1305.0
Site Class        A   Vs30 between 700 m/sec to 1400 m/sec * 
Record Time       28.05.2010 07:25:22.739
Sampling Rate     200. Hz
 Record Duration   81.985 Sec.
 Direction         E-W (E positive)
Max. Acceleration     -3.040 cm/sec**2
     
  * For reference see Site Classification link of website 
     
 Base Line Corrected and Low Pass Filtered (Cut Off at 35 Hz) Time History
 Acceleration data in cm/sec**2
    
[...]
      -0.012
      -0.004
       0.064
       0.164
       0.266
       0.349
       0.393
       0.378
       0.300
       0.184
       0.077
       0.024
       0.034
       0.079
       0.115
       0.115
       0.076
       0.015
      -0.044
      -0.083
      -0.095
      -0.081
      -0.043
       0.018
       0.095
       0.172
       0.233
       0.263
       0.257
       0.218
       0.162
       0.113
       0.087
       0.077
       0.064
       0.041
       0.021
       0.025
       0.053
       0.075
       0.053
      -0.020
      -0.113
      -0.187
      -0.226
      -0.240
      -0.235
      -0.202
      -0.126
      -0.024
       0.054
       0.056
      -0.029
      -0.166
      -0.302
      -0.405
      -0.464
      -0.464
      -0.391
      -0.254
      -0.104
      -0.001
       0.034
       0.037
       0.057
       0.112
       0.175
       0.220
       0.241
       0.246
       0.233
       0.193
       0.144
       0.127
       0.179
       0.284
       0.374
       0.375
       0.267
       0.094
      -0.076
      -0.191
      -0.234
      -0.208
      -0.135
      -0.058
      -0.023
      -0.053
      -0.131
      -0.212
      -0.258
      -0.259
      -0.223
      -0.163
      -0.085
      -0.003
       0.058
       0.080
       0.067
       0.045
       0.043
       0.073
       0.126
       0.187
       0.244
       0.288
       0.313
       0.318
       0.306
       0.291
       0.290
       0.309
       0.338
       0.354
       0.336
       0.280
       0.201
       0.116
       0.039
      -0.030
      -0.087
      -0.120
      -0.116
      -0.079
      -0.042
      -0.046
      -0.107
      -0.207
      -0.311
      -0.400
      -0.469
      -0.506
      -0.484
      -0.387
      -0.240
      -0.101
      -0.026
      -0.022
      -0.053
      -0.081
      -0.091
      -0.093
      -0.094
      -0.087
      -0.063
      -0.033
      -0.016
      -0.022
      -0.042
      -0.062
      -0.082
      -0.111
      -0.151
      -0.184
      -0.188
      -0.143
      -0.046
       0.091
       0.248
       0.392
       0.489
       0.524
       0.509
       0.482
       0.476
       0.500
       0.529
       0.528
       0.470
       0.346
       0.173
      -0.021
      -0.202
      -0.342
      -0.424
      -0.443
      -0.412
      -0.352
      -0.285
      -0.228
      -0.187
      -0.165
      -0.163
      -0.184
      -0.216
      -0.238
      -0.221
      -0.156
      -0.056
       0.043
       0.113
       0.147
       0.158
       0.161
       0.161
       0.156
       0.145
       0.136
       0.134
       0.131
       0.114
       0.070
       0.000
      -0.083
      -0.161
      -0.209
      -0.202
      -0.132
      -0.017
       0.103
       0.189
       0.233
       0.253
       0.264
       0.253
       0.201
       0.109
       0.005
      -0.073
      -0.115
      -0.135
      -0.152
      -0.166
      -0.163
      -0.135
      -0.091
      -0.052
      -0.035
      -0.041
      -0.051
      -0.040
       0.011
       0.101
       0.206
       0.285
       0.306
       0.259
       0.171
       0.084
       0.031
       0.008
      -0.019
      -0.087
      -0.199
      -0.326
      -0.427
      -0.474
      -0.470
      -0.432
      -0.371
      -0.288
      -0.176
      -0.049
       0.065
       0.138
       0.177
       0.221
       0.305
       0.435
       0.576
       0.679
       0.704
       0.633
       0.482
       0.301
       0.154
       0.088
       0.101
       0.144
       0.163
       0.131
       0.061
      -0.022
      -0.103
      -0.177
      -0.230
      -0.237
      -0.184
      -0.089
       0.001
       0.036
      -0.004
      -0.094
      -0.191
      -0.261
      -0.295
      -0.297
      -0.269
      -0.215
      -0.147
      -0.085
      -0.047
      -0.035
      -0.039
      -0.053
      -0.071
      -0.083
      -0.070
      -0.018
       0.062
       0.138
       0.167
       0.130
       0.045
      -0.054
      -0.144
      -0.214
      -0.261
      -0.273
      -0.250
      -0.211
      -0.178
      -0.156
      -0.124
      -0.059
       0.030
       0.101
       0.121
       0.103
       0.102
       0.176
       0.327
       0.499
       0.617
       0.635
       0.561
       0.442
       0.323
       0.217
       0.110
      -0.019
      -0.177
      -0.345
      -0.493
      -0.596
      -0.647
      -0.657
      -0.638
      -0.591
      -0.502
      -0.367
      -0.206
      -0.051
       0.073
       0.173
       0.274
       0.393
       0.518
       0.617
       0.648
       0.587
       0.442
       0.250
       0.063
      -0.070
      -0.128
      -0.120
      -0.082
      -0.056
      -0.072
      -0.129
      -0.204
      -0.259
      -0.271
      -0.236
      -0.164
      -0.058
       0.078
       0.225
       0.350
       0.423
       0.440
       0.422
       0.386
       0.326
       0.224
       0.081
      -0.079
      -0.223
      -0.335
      -0.429
      -0.518
      -0.597
      -0.642
      -0.633
      -0.566
      -0.454
      -0.309
      -0.141
       0.026
       0.160
       0.235
       0.255
       0.245
       0.238
       0.257
       0.316
       0.415
       0.528
       0.609
       0.607
       0.500
       0.312
       0.095
      -0.103
      -0.253
      -0.343
      -0.371
      -0.350
      -0.310
      -0.286
      -0.291
      -0.303
      -0.288
      -0.231
      -0.134
      -0.016
       0.103
       0.199
       0.247
       0.247
       0.229
       0.236
       0.286
       0.346
       0.352
       0.260
       0.082
      -0.118
      -0.264
      -0.313
      -0.270
      -0.168
      -0.050
       0.041
       0.079
       0.054
      -0.011
      -0.081
      -0.122
      -0.115
      -0.057
       0.039
       0.143
       0.214
       0.219
       0.156
       0.064
      -0.003
      -0.016
       0.013
       0.041
       0.031
      -0.021
      -0.084
      -0.122
      -0.121
      -0.092
      -0.058
      -0.033
      -0.015
      -0.004
      -0.009
      -0.029
      -0.053
      -0.059
      -0.037
       0.001
       0.033
       0.051
       0.059
       0.060
       0.036
      -0.040
      -0.177
      -0.345
      -0.488
      -0.551
      -0.518
      -0.412
      -0.270
      -0.119
       0.033
       0.189
       0.344
       0.480
       0.575
       0.611
       0.593
       0.543
       0.481
       0.419
       0.355
       0.285
       0.212
       0.147
       0.091
       0.027
      -0.073
      -0.219
      -0.392
      -0.550
      -0.654
      -0.683
      -0.634
      -0.524
      -0.385
      -0.255
      -0.167
      -0.121
      -0.089
      -0.039
       0.034
       0.108
       0.151
       0.145
       0.091
       0.000
      -0.119
      -0.256
      -0.390
      -0.493
      -0.537
      -0.509
      -0.413
      -0.275
      -0.114
       0.060
       0.249
       0.446
       0.620
       0.727
       0.738
       0.666
       0.559
       0.480
       0.466
       0.511
       0.572
       0.595
       0.543
       0.408
       0.205
      -0.035
      -0.277
      -0.478
      -0.603
      -0.630
      -0.562
      -0.429
      -0.284
      -0.182
      -0.150
      -0.175
      -0.215
      -0.223
      -0.180
      -0.097
      -0.001
       0.082
       0.135
       0.154
       0.141
       0.110
       0.078
       0.063
       0.065
       0.060
       0.009
      -0.110
      -0.271
      -0.391
      -0.378
      -0.196
       0.089
       0.345
       0.457
       0.403
       0.257
       0.131
       0.094
       0.139
       0.217
       0.272
       0.270
       0.189
       0.021
      -0.209
      -0.445
      -0.617
      -0.675
      -0.598
      -0.403
      -0.137
       0.126
       0.306
       0.354
       0.284
       0.165
       0.080
       0.072
       0.124
       0.188
       0.231
       0.265
       0.324
       0.422
       0.532
       0.597
       0.578
       0.476
       0.327
       0.169
       0.018
      -0.128
      -0.272
      -0.407
      -0.515
      -0.586
      -0.625
      -0.648
      -0.668
      -0.683
      -0.669
      -0.595
      -0.443
      -0.230
      -0.009
       0.153
       0.211
       0.176
       0.110
       0.089
       0.148
       0.259
       0.353
       0.373
       0.312
       0.213
       0.129
       0.082
       0.053
       0.010
      -0.055
      -0.118
      -0.140
      -0.095
       0.005
       0.119
       0.206
       0.245
       0.245
       0.235
       0.237
       0.262
       0.302
       0.343
       0.370
       0.363
       0.303
       0.184
       0.022
      -0.143
      -0.263
      -0.316
      -0.315
      -0.302
      -0.316
      -0.371
      -0.454
      -0.542
      -0.608
      -0.633
      -0.605
      -0.525
      -0.415
      -0.306
      -0.223
      -0.164
      -0.109
      -0.031
       0.083
       0.222
       0.370
       0.509
       0.625
       0.716
       0.786
       0.838
       0.869
       0.868
       0.824
       0.737
       0.627
       0.515
       0.417
       0.335
       0.260
       0.181
       0.087
      -0.026
      -0.156
      -0.300
      -0.455
      -0.615
      -0.764
      -0.869
      -0.910
      -0.903
      -0.909
      -0.996
      -1.184
      -1.421
      -1.600
      -1.619
      -1.425
      -1.041
      -0.554
      -0.090
       0.242
       0.394
       0.399
       0.338
       0.295
       0.325
       0.441
       0.631
       0.860
       1.083
       1.254
       1.348
       1.372
       1.356
       1.339
       1.335
       1.324
       1.264
       1.124
       0.903
       0.631
       0.351
       0.100
      -0.103
      -0.253
      -0.357
      -0.426
      -0.483
      -0.565
      -0.706
      -0.918
      -1.173
      -1.405
      -1.546
      -1.558
      -1.451
      -1.265
      -1.046
      -0.828
      -0.642
      -0.510
      -0.431
      -0.381
      -0.319
      -0.224
      -0.107
      -0.003
       0.068
       0.117
       0.173
       0.262
       0.383
       0.513
       0.637
       0.763
       0.919
       1.114
       1.316
       1.469
       1.527
       1.484
       1.369
       1.223
       1.079
       0.949
       0.820
       0.654
       0.411
       0.074
      -0.324
      -0.717
      -1.037
      -1.244
      -1.344
      -1.374
      -1.376
      -1.374
      -1.358
      -1.294
      -1.153
      -0.935
      -0.666
      -0.380
      -0.100
       0.164
       0.412
       0.646
       0.858
       1.031
       1.142
       1.179
       1.138
       1.024
       0.846
       0.608
       0.323
       0.020
      -0.253
      -0.457
      -0.594
      -0.710
      -0.857
      -1.042
      -1.201
      -1.235
      -1.070
      -0.706
      -0.220
       0.268
       0.645
       0.832
       0.811
       0.626
       0.376
       0.172
       0.080
       0.096
       0.163
       0.206
       0.174
       0.046
      -0.163
      -0.416
      -0.669
      -0.881
      -1.021
      -1.068
      -1.014
      -0.864
      -0.646
      -0.394
      -0.137
       0.120
       0.391
       0.677
       0.950
       1.172
       1.331
       1.452
       1.571
       1.694
       1.788
       1.798
       1.687
       1.437
       1.054
       0.574
       0.080
      -0.320
      -0.544
      -0.597
      -0.580
      -0.628
      -0.821
      -1.128
      -1.434
      -1.618
      -1.633
      -1.518
      -1.358
      -1.220
      -1.116
      -1.012
      -0.871
      -0.675
      -0.434
      -0.163
       0.127
       0.430
       0.729
       0.992
       1.178
       1.261
       1.247
       1.159
       1.018
       0.824
       0.570
       0.267
      -0.048
      -0.318
      -0.488
      -0.524
      -0.427
      -0.238
      -0.026
       0.138
       0.210
       0.184
       0.094
      -0.015
      -0.102
      -0.145
      -0.145
      -0.127
      -0.127
      -0.183
      -0.306
      -0.468
      -0.611
      -0.682
      -0.667
      -0.601
      -0.540
      -0.517
      -0.528
      -0.534
      -0.490
      -0.365
      -0.142
       0.168
       0.515
       0.825
       1.033
       1.122
       1.126
       1.101
       1.085
       1.081
       1.067
       1.015
       0.906
       0.733
       0.497
       0.224
      -0.045
      -0.262
      -0.407
      -0.500
      -0.592
      -0.722
      -0.897
      -1.088
      -1.244
      -1.311
      -1.250
      -1.047
      -0.724
      -0.338
       0.035
       0.325
       0.498
       0.560
       0.539
       0.463
       0.350
       0.226
       0.137
       0.137
       0.268
       0.532
       0.879
       1.215
       1.446
       1.513
       1.417
       1.206
       0.949
       0.697
       0.478
       0.288
       0.108
      -0.085
      -0.305
      -0.543
      -0.783
      -1.012
      -1.228
      -1.427
      -1.605
      -1.759
      -1.895
      -2.013
      -2.092
      -2.093
      -1.996
      -1.822
      -1.630
      -1.469
      -1.343
      -1.206
      -0.998
      -0.698
      -0.336
       0.031
       0.379
       0.733
       1.134
       1.577
       1.988
       2.279
       2.421
       2.469
       2.512
       2.598
       2.706
       2.778
       2.784
       2.737
       2.664
       2.556
       2.359
       2.016
       1.521
       0.934
       0.349
      -0.162
      -0.575
      -0.908
      -1.206
      -1.526
      -1.910
      -2.356
      -2.779
      -3.040
      -3.023
      -2.729
      -2.283
      -1.853
      -1.541
      -1.339
      -1.177
      -0.996
      -0.785
      -0.555
      -0.317
      -0.086
       0.100
       0.193
       0.174
       0.081
      -0.015
      -0.052
      -0.007
       0.112
       0.285
       0.486
       0.677
       0.811
       0.863
       0.850
       0.828
       0.858
       0.976
       1.177
       1.417
       1.633
       1.757
       1.737
       1.562
       1.271
       0.920
       0.545
       0.148
      -0.285
      -0.746
      -1.195
      -1.579
      -1.848
      -1.981
      -1.996
      -1.949
      -1.900
      -1.868
      -1.799
      -1.614
      -1.269
      -0.805
      -0.316
       0.118
       0.461
       0.706
       0.829
       0.797
       0.615
       0.362
       0.166
       0.126
       0.243
       0.433
       0.598
       0.689
       0.720
       0.728
       0.740
       0.768
       0.824
       0.907
       0.997
       1.055
       1.060
       1.022
       0.970
       0.920
       0.860
       0.767
       0.624
       0.432
       0.206
      -0.024
      -0.233
      -0.414
      -0.591
      -0.787
      -0.999
      -1.185
      -1.304
      -1.356
      -1.373
      -1.385
      -1.393
      -1.377
      -1.324
      -1.233
      -1.100
      -0.917
      -0.681
      -0.407
      -0.133
       0.109
       0.322
       0.544
       0.819
       1.147
       1.475
       1.729
       1.874
       1.919
       1.889
       1.783
       1.578
       1.269
       0.899
       0.548
       0.282
       0.096
      -0.085
      -0.372
      -0.833
      -1.442
      -2.074
      -2.565
      -2.793
      -2.738
      -2.472
      -2.091
      -1.661
      -1.213
      -0.765
      -0.342
       0.036
       0.383
       0.736
       1.119
       1.509
       1.832
       2.000
       1.963
       1.738
       1.390
       1.000
       0.639
       0.362
       0.204
       0.167
       0.204
       0.237
       0.196
       0.066
      -0.102
      -0.225
      -0.251
      -0.193
      -0.107
      -0.046
      -0.014
       0.021
       0.101
       0.238
       0.407
       0.555
       0.626
       0.581
       0.421
       0.188
      -0.044
      -0.204
      -0.268
      -0.269
      -0.265
      -0.284
      -0.305
      -0.299
      -0.280
      -0.307
      -0.436
      -0.659
      -0.894
      -1.041
      -1.053
      -0.968
      -0.874
      -0.837
      -0.868
      -0.932
      -0.985
      -0.982
      -0.885
      -0.679
      -0.393
      -0.100
       0.132
       0.287
       0.405
       0.536
       0.685
       0.807
       0.859
       0.848
       0.830
       0.860
       0.944
       1.026
       1.033
       0.915
       0.683
       0.398
       0.137
      -0.042
      -0.125
      -0.136
      -0.111
      -0.077
      -0.044
      -0.022
      -0.031
      -0.098
      -0.221
      -0.351
      -0.414
      -0.361
      -0.209
      -0.023
       0.128
       0.211
       0.227
       0.190
       0.114
       0.021
      -0.058
      -0.093
      -0.069
       0.011
       0.131
       0.267
       0.389
       0.458
       0.456
       0.399
       0.330
       0.292
       0.296
       0.320
       0.323
       0.266
       0.127
      -0.095
      -0.362
      -0.604
      -0.748
      -0.776
      -0.746
      -0.755
      -0.865
      -1.048
      -1.206
      -1.246
      -1.132
      -0.891
      -0.575
      -0.239
       0.075
       0.334
       0.525
       0.666
       0.785
       0.902
       1.007
       1.080
       1.118
       1.133
       1.133
       1.093
       0.973
       0.756
       0.487
       0.246
       0.088
       0.007
      -0.061
      -0.179
      -0.365
      -0.582
      -0.768
      -0.864
      -0.841
      -0.709
      -0.513
      -0.315
      -0.155
      -0.033
       0.076
       0.185
       0.278
       0.328
       0.332
       0.315
       0.294
       0.252
       0.144
      -0.050
      -0.294
      -0.505
      -0.612
      -0.610
      -0.549
      -0.497
      -0.498
      -0.560
      -0.677
      -0.839
      -1.016
      -1.152
      -1.179
      -1.049
      -0.758
      -0.339
       0.145
       0.617
       0.997
       1.215
       1.254
       1.158
       1.024
       0.946
       0.972
       1.079
       1.191
       1.228
       1.142
       0.937
       0.659
       0.375
       0.154
       0.040
       0.021
       0.022
      -0.056
      -0.270
      -0.580
      -0.869
      -1.016
      -0.972
      -0.778
      -0.521
      -0.278
      -0.082
       0.068
       0.187
       0.285
       0.365
       0.411
       0.404
       0.327
       0.183
       0.003
      -0.172
      -0.305
      -0.379
      -0.409
      -0.429
      -0.474
      -0.556
      -0.650
      -0.705
      -0.684
      -0.583
      -0.445
      -0.329
      -0.273
      -0.268
      -0.268
      -0.226
      -0.134
      -0.021
       0.074
       0.135
       0.174
       0.212
       0.256
       0.292
       0.296
       0.264
       0.214
       0.173
       0.161
       0.175
       0.203
       0.229
       0.238
       0.219
       0.178
       0.146
       0.163
       0.244
       0.347
       0.394
       0.325
       0.136
      -0.120
      -0.366
      -0.542
      -0.609
      -0.562
      -0.431
      -0.290
      -0.211
      -0.213
      -0.231
      -0.155
       0.079
       0.435
       0.791
       1.021
       1.066
       0.956
       0.768
       0.571
       0.391
       0.232
       0.103
       0.028
       0.032
       0.110
       0.216
       0.287
       0.282
       0.198
       0.061
      -0.096
      -0.248
      -0.374
      -0.445
      -0.439
      -0.355
      -0.219
      -0.077
       0.039
