Origin Time       2/3/2013 01:30:40	  UTC
Lat.              24.8 N	
Long.             92.2 E	
Depth (Km)         10.0
Magnitude         5.2
 Region           India-Bangladesh-Border                                          
 Above details taken from IMD 
    
Station Code      BAR
Station Lat.       26.332  N
Station Long.      91.006  E
Station Height(m)   47.0
Site Class        C   Vs30 between 200 m/sec to 375 m/sec *  
Record Time       02.03.2013 01:31:03.759 UTC
Sampling Rate     200. Hz
 Record Duration   83.155 Sec.
 Direction         N-S (N positive)
Max. Acceleration     -2.683 cm/sec**2
     
  * For reference see Site Classification link of website 
     
 Base Line Corrected and Low Pass Filtered (Cut Off at 35 Hz) Time History
 Acceleration data in cm/sec**2
    
[...]
       0.127
       0.175
       0.192
       0.163
       0.081
      -0.053
      -0.216
      -0.376
      -0.500
      -0.568
      -0.578
      -0.536
      -0.454
      -0.345
      -0.220
      -0.088
       0.036
       0.125
       0.160
       0.142
       0.100
       0.064
       0.046
       0.039
       0.029
       0.019
       0.019
       0.032
       0.051
       0.055
       0.024
      -0.048
      -0.147
      -0.240
      -0.301
      -0.328
      -0.355
      -0.416
      -0.520
      -0.626
      -0.673
      -0.617
      -0.459
      -0.243
      -0.024
       0.152
       0.266
       0.318
       0.321
       0.287
       0.222
       0.133
       0.027
      -0.089
      -0.215
      -0.341
      -0.443
      -0.487
      -0.451
      -0.351
      -0.236
      -0.160
      -0.151
      -0.192
      -0.235
      -0.238
      -0.192
      -0.114
      -0.028
       0.066
       0.184
       0.326
       0.462
       0.545
       0.553
       0.505
       0.449
       0.418
       0.417
       0.438
       0.466
       0.482
       0.458
       0.370
       0.217
       0.021
      -0.180
      -0.351
      -0.464
      -0.506
      -0.478
      -0.402
      -0.308
      -0.224
      -0.167
      -0.143
      -0.146
      -0.167
      -0.190
      -0.203
      -0.200
      -0.182
      -0.142
      -0.058
       0.096
       0.316
       0.556
       0.759
       0.897
       0.983
       1.032
       1.036
       0.970
       0.828
       0.638
       0.449
       0.305
       0.220
       0.176
       0.140
       0.103
       0.086
       0.121
       0.207
       0.289
       0.298
       0.202
       0.033
      -0.145
      -0.282
      -0.376
      -0.465
      -0.584
      -0.736
      -0.884
      -0.977
      -0.972
      -0.860
      -0.665
      -0.431
      -0.206
      -0.038
       0.036
      -0.008
      -0.171
      -0.431
      -0.741
      -1.039
      -1.254
      -1.330
      -1.248
      -1.026
      -0.704
      -0.312
       0.130
       0.591
       1.012
       1.325
       1.488
       1.501
       1.395
       1.209
       0.981
       0.753
       0.568
       0.453
       0.404
       0.378
       0.321
       0.201
       0.029
      -0.154
      -0.314
      -0.434
      -0.514
      -0.559
      -0.577
      -0.580
      -0.577
      -0.559
      -0.511
      -0.420
      -0.285
      -0.105
       0.124
       0.400
       0.694
       0.953
       1.114
       1.134
       1.003
       0.756
       0.462
       0.197
       0.013
      -0.086
      -0.124
      -0.126
      -0.096
      -0.030
       0.065
       0.167
       0.243
       0.266
       0.220
       0.095
      -0.117
      -0.413
      -0.768
      -1.129
      -1.435
      -1.639
      -1.714
      -1.642
      -1.410
      -1.030
      -0.552
      -0.062
       0.352
       0.635
       0.773
       0.796
       0.764
       0.743
       0.774
       0.848
       0.917
       0.932
       0.883
       0.802
       0.740
       0.731
       0.767
       0.806
       0.783
       0.650
       0.394
       0.054
      -0.296
      -0.581
      -0.755
      -0.804
      -0.736
      -0.569
      -0.319
      -0.005
       0.344
       0.688
       0.982
       1.185
       1.278
       1.260
       1.148
       0.968
       0.749
       0.524
       0.323
       0.166
       0.057
      -0.023
      -0.112
      -0.249
      -0.446
      -0.671
      -0.862
      -0.972
      -1.002
      -0.994
      -0.988
      -0.985
      -0.945
      -0.827
      -0.618
      -0.333
       0.011
       0.408
       0.853
       1.328
       1.795
       2.203
       2.501
       2.635
       2.554
       2.217
       1.620
       0.814
      -0.093
      -0.961
      -1.665
      -2.134
      -2.361
      -2.383
      -2.242
      -1.965
      -1.573
      -1.112
      -0.654
      -0.270
       0.004
       0.180
       0.301
       0.404
       0.504
       0.602
       0.685
       0.734
       0.710
       0.576
       0.330
       0.037
      -0.199
      -0.302
      -0.291
      -0.269
      -0.348
      -0.557
      -0.827
      -1.032
      -1.065
      -0.893
      -0.555
      -0.145
       0.234
       0.491
       0.575
       0.501
       0.347
       0.222
       0.199
       0.274
       0.384
       0.452
       0.434
       0.328
       0.153
      -0.057
      -0.269
      -0.455
      -0.588
      -0.638
      -0.581
      -0.415
      -0.180
       0.043
       0.166
       0.126
      -0.085
      -0.430
      -0.842
      -1.253
      -1.608
      -1.868
      -2.016
      -2.041
      -1.928
      -1.651
      -1.188
      -0.556
       0.148
       0.768
       1.156
       1.257
       1.139
       0.939
       0.774
       0.689
       0.661
       0.632
       0.543
       0.367
       0.128
      -0.100
      -0.225
      -0.184
       0.026
       0.344
       0.670
       0.894
       0.930
       0.736
       0.327
      -0.224
      -0.813
      -1.322
      -1.644
      -1.692
      -1.414
      -0.826
      -0.030
       0.799
       1.485
       1.908
       2.038
       1.920
       1.634
       1.267
       0.888
       0.532
       0.182
      -0.212
      -0.687
      -1.223
      -1.728
      -2.087
      -2.216
      -2.093
      -1.764
      -1.320
      -0.877
      -0.548
      -0.409
      -0.467
      -0.643
      -0.795
      -0.782
      -0.544
      -0.137
       0.297
       0.616
       0.758
       0.769
       0.765
       0.866
       1.120
       1.472
       1.778
       1.880
       1.690
       1.240
       0.661
       0.117
      -0.256
      -0.390
      -0.288
      -0.016
       0.307
       0.550
       0.622
       0.526
       0.366
       0.278
       0.335
       0.491
       0.625
       0.634
       0.510
       0.322
       0.139
      -0.027
      -0.212
      -0.442
      -0.693
      -0.899
      -1.002
      -0.989
      -0.883
      -0.722
      -0.536
      -0.357
      -0.224
      -0.179
      -0.245
      -0.421
      -0.679
      -0.982
      -1.278
      -1.503
      -1.576
      -1.426
      -1.017
      -0.374
       0.409
       1.194
       1.831
       2.222
       2.358
       2.313
       2.191
       2.074
       1.985
       1.890
       1.730
       1.458
       1.073
       0.637
       0.242
      -0.029
      -0.142
      -0.132
      -0.095
      -0.153
      -0.403
      -0.855
      -1.430
      -1.992
      -2.413
      -2.616
      -2.584
      -2.340
      -1.920
      -1.364
      -0.727
      -0.088
       0.462
       0.850
       1.055
       1.117
       1.102
       1.071
       1.037
       0.981
       0.893
       0.791
       0.714
       0.679
       0.657
       0.606
       0.499
       0.350
       0.191
       0.052
      -0.063
      -0.173
      -0.291
      -0.402
      -0.451
      -0.387
      -0.212
       0.008
       0.179
       0.238
       0.184
       0.071
      -0.027
      -0.050
       0.018
       0.149
       0.290
       0.397
       0.451
       0.449
       0.398
       0.305
       0.181
       0.037
      -0.120
      -0.287
      -0.459
      -0.632
      -0.803
      -0.963
      -1.078
      -1.079
      -0.894
      -0.506
       0.012
       0.509
       0.830
       0.895
       0.744
       0.511
       0.349
       0.345
       0.487
       0.703
       0.921
       1.108
       1.265
       1.399
       1.503
       1.557
       1.533
       1.398
       1.138
       0.762
       0.314
      -0.146
      -0.559
      -0.879
      -1.066
      -1.099
      -0.996
      -0.823
      -0.675
      -0.631
      -0.711
      -0.879
      -1.067
      -1.217
      -1.294
      -1.282
      -1.175
      -0.976
      -0.712
      -0.436
      -0.197
      -0.016
       0.108
       0.171
       0.146
       0.008
      -0.230
      -0.498
      -0.711
      -0.817
      -0.825
      -0.786
      -0.738
      -0.674
      -0.542
      -0.304
       0.017
       0.330
       0.536
       0.595
       0.540
       0.446
       0.377
       0.355
       0.371
       0.409
       0.470
       0.575
       0.739
       0.938
       1.107
       1.177
       1.109
       0.911
       0.616
       0.275
      -0.062
      -0.346
      -0.546
      -0.652
      -0.669
      -0.606
      -0.481
      -0.317
      -0.148
      -0.015
       0.031
      -0.062
      -0.320
      -0.715
      -1.152
      -1.506
      -1.670
      -1.614
      -1.387
      -1.089
      -0.805
      -0.566
      -0.345
      -0.101
       0.177
       0.463
       0.706
       0.852
       0.865
       0.742
       0.529
       0.308
       0.152
       0.092
       0.104
       0.139
       0.166
       0.181
       0.191
       0.193
       0.171
       0.110
       0.003
      -0.153
      -0.356
      -0.579
      -0.770
      -0.864
      -0.825
      -0.664
      -0.424
      -0.151
       0.131
       0.411
       0.676
       0.901
       1.053
       1.106
       1.046
       0.884
       0.657
       0.430
       0.256
       0.140
       0.012
      -0.219
      -0.589
      -1.034
      -1.428
      -1.673
      -1.756
      -1.729
      -1.652
      -1.542
      -1.394
      -1.203
      -0.983
      -0.744
      -0.462
      -0.095
       0.378
       0.925
       1.456
       1.872
       2.100
       2.127
       1.995
       1.776
       1.544
       1.351
       1.219
       1.147
       1.112
       1.077
       1.009
       0.900
       0.763
       0.605
       0.414
       0.166
      -0.136
      -0.448
      -0.698
      -0.820
      -0.793
      -0.652
      -0.477
      -0.362
      -0.370
      -0.504
      -0.714
      -0.920
      -1.049
      -1.068
      -0.998
      -0.901
      -0.839
      -0.828
      -0.828
      -0.788
      -0.695
      -0.596
      -0.545
      -0.548
      -0.538
      -0.426
      -0.163
       0.228
       0.675
       1.102
       1.461
       1.726
       1.871
       1.861
       1.676
       1.351
       0.987
       0.714
       0.604
       0.628
       0.671
       0.621
       0.452
       0.235
       0.080
       0.051
       0.114
       0.179
       0.171
       0.086
      -0.017
      -0.069
      -0.040
       0.045
       0.138
       0.199
       0.211
       0.177
       0.101
      -0.008
      -0.138
      -0.263
      -0.352
      -0.392
      -0.398
      -0.419
      -0.507
      -0.690
      -0.963
      -1.298
      -1.649
      -1.936
      -2.044
      -1.875
      -1.428
      -0.848
      -0.351
      -0.094
      -0.080
      -0.183
      -0.248
      -0.178
       0.052
       0.426
       0.903
       1.423
       1.908
       2.275
       2.469
       2.478
       2.335
       2.097
       1.811
       1.498
       1.151
       0.760
       0.341
      -0.062
      -0.386
      -0.582
      -0.644
      -0.631
      -0.650
      -0.794
      -1.075
      -1.400
      -1.627
      -1.659
      -1.494
      -1.208
      -0.889
      -0.592
      -0.333
      -0.106
       0.101
       0.304
       0.514
       0.727
       0.923
       1.072
       1.143
       1.116
       0.984
       0.761
       0.484
       0.195
      -0.072
      -0.305
      -0.499
      -0.640
      -0.712
      -0.711
      -0.658
      -0.600
      -0.585
      -0.641
      -0.751
      -0.860
      -0.903
      -0.834
      -0.639
      -0.326
       0.075
       0.508
       0.886
       1.119
       1.148
       0.973
       0.656
       0.289
      -0.041
      -0.278
      -0.403
      -0.429
      -0.388
      -0.320
      -0.260
      -0.235
      -0.272
      -0.384
      -0.568
      -0.788
      -0.976
      -1.052
      -0.954
      -0.674
      -0.272
       0.132
       0.415
       0.503
       0.400
       0.165
      -0.119
      -0.380
      -0.556
      -0.602
      -0.497
      -0.256
       0.074
       0.430
       0.752
       0.999
       1.156
       1.238
       1.274
       1.274
       1.229
       1.122
       0.954
       0.754
       0.558
       0.389
       0.246
       0.122
       0.008
      -0.104
      -0.229
      -0.391
      -0.624
      -0.956
      -1.379
      -1.820
      -2.159
      -2.282
      -2.146
      -1.794
      -1.328
      -0.854
      -0.446
      -0.140
       0.064
       0.189
       0.269
       0.333
       0.388
       0.429
       0.463
       0.511
       0.610
       0.776
       0.988
       1.188
       1.312
       1.323
       1.236
       1.105
       0.994
       0.955
       1.005
       1.116
       1.209
       1.192
       1.015
       0.703
       0.346
       0.042
      -0.156
      -0.245
      -0.251
      -0.213
      -0.180
      -0.216
      -0.375
      -0.666
      -1.041
      -1.418
      -1.741
      -2.003
      -2.225
      -2.404
      -2.493
      -2.416
      -2.124
      -1.632
      -1.026
      -0.418
       0.095
       0.484
       0.777
       1.027
       1.258
       1.434
       1.485
       1.358
       1.069
       0.714
       0.417
       0.267
       0.271
       0.356
       0.422
       0.387
       0.215
      -0.077
      -0.422
      -0.724
      -0.900
      -0.904
      -0.742
      -0.446
      -0.063
       0.364
       0.792
       1.183
       1.517
       1.785
       1.990
       2.128
       2.184
       2.142
       1.998
       1.772
       1.496
       1.196
       0.881
       0.534
       0.119
      -0.394
      -0.994
      -1.616
      -2.159
      -2.531
      -2.683
      -2.612
      -2.358
      -1.984
      -1.573
      -1.205
      -0.944
      -0.819
      -0.808
      -0.850
      -0.862
      -0.767
      -0.530
      -0.165
       0.269
       0.695
       1.038
       1.236
       1.266
       1.155
       0.981
       0.830
       0.747
       0.710
       0.658
       0.545
       0.385
       0.239
       0.169
       0.193
       0.273
       0.355
       0.409
       0.446
       0.492
       0.557
       0.615
       0.628
       0.576
       0.470
       0.342
       0.221
       0.107
      -0.026
      -0.214
      -0.469
      -0.764
      -1.035
      -1.210
      -1.256
      -1.193
      -1.074
      -0.943
      -0.813
      -0.684
      -0.564
      -0.471
      -0.405
      -0.327
      -0.176
       0.079
       0.411
       0.748
       1.016
       1.176
       1.230
       1.198
       1.098
       0.941
       0.747
       0.555
       0.425
       0.411
       0.522
       0.698
       0.841
       0.870
       0.766
       0.556
       0.283
      -0.015
      -0.300
      -0.516
      -0.612
      -0.569
      -0.408
      -0.172
       0.096
       0.352
       0.537
       0.589
       0.472
       0.202
      -0.164
      -0.557
      -0.925
      -1.232
      -1.435
      -1.493
      -1.386
      -1.157
      -0.896
      -0.695
      -0.594
      -0.558
      -0.519
      -0.438
      -0.347
      -0.324
      -0.420
      -0.601
      -0.749
      -0.736
      -0.508
      -0.118
       0.308
       0.634
       0.780
       0.744
       0.580
       0.371
       0.185
       0.056
      -0.008
      -0.019
       0.012
       0.085
       0.214
       0.413
       0.668
       0.923
       1.109
       1.190
       1.185
       1.137
       1.061
       0.922
       0.668
       0.303
      -0.098
      -0.432
      -0.636
      -0.726
      -0.768
      -0.827
      -0.927
      -1.048
      -1.143
      -1.163
      -1.088
      -0.939
      -0.772
      -0.659
      -0.643
      -0.715
      -0.801
      -0.795
      -0.606
      -0.221
       0.293
       0.819
       1.255
       1.550
       1.688
       1.657
       1.448
       1.076
       0.605
       0.146
      -0.197
      -0.371
      -0.398
      -0.352
      -0.301
      -0.279
      -0.286
      -0.309
      -0.342
      -0.378
      -0.388
      -0.326
      -0.156
       0.120
       0.454
       0.775
       1.024
       1.171
       1.217
       1.177
       1.052
       0.837
       0.539
       0.205
      -0.089
      -0.274
      -0.330
      -0.291
      -0.215
      -0.141
      -0.078
      -0.024
       0.011
       0.003
      -0.065
      -0.179
      -0.295
      -0.359
      -0.337
      -0.229
      -0.067
       0.101
       0.226
       0.278
       0.258
       0.190
       0.102
       0.004
      -0.108
      -0.237
      -0.368
      -0.472
      -0.526
      -0.536
      -0.533
      -0.551
      -0.592
      -0.633
      -0.653
      -0.661
      -0.692
      -0.761
      -0.830
      -0.810
      -0.623
      -0.261
       0.193
       0.613
       0.897
       1.009
       0.976
       0.848
       0.664
       0.446
       0.218
       0.024
      -0.093
      -0.107
      -0.032
       0.087
       0.193
       0.241
       0.212
       0.124
       0.023
      -0.033
      -0.003
       0.129
       0.347
       0.604
       0.830
       0.959
       0.962
       0.862
       0.724
       0.612
       0.559
       0.559
       0.584
       0.603
       0.593
       0.534
       0.404
       0.200
      -0.054
      -0.305
      -0.495
      -0.585
      -0.572
      -0.483
      -0.365
      -0.273
      -0.248
      -0.298
      -0.394
      -0.494
      -0.575
      -0.640
      -0.702
      -0.748
      -0.742
      -0.651
      -0.479
      -0.273
      -0.095
       0.020
       0.065
       0.057
       0.019
      -0.033
      -0.092
      -0.164
      -0.265
      -0.404
      -0.561
      -0.689
      -0.738
      -0.688
      -0.570
      -0.446
      -0.372
      -0.363
      -0.381
      -0.356
      -0.227
       0.014
       0.310
       0.564
       0.680
       0.615
       0.404
       0.150
      -0.024
      -0.036
       0.119
       0.363
       0.579
       0.674
       0.631
       0.510
       0.402
       0.361
       0.379
       0.400
       0.372
       0.271
       0.120
      -0.037
      -0.161
      -0.240
      -0.287
      -0.307
      -0.277
      -0.165
       0.039
       0.292
       0.510
       0.608
       0.557
       0.403
       0.232
       0.111
       0.042
      -0.013
      -0.078
      -0.131
      -0.128
      -0.057
       0.040
       0.090
       0.037
      -0.126
      -0.360
      -0.606
      -0.807
      -0.937
      -1.002
      -1.034
      -1.062
      -1.094
      -1.112
      -1.087
      -0.988
      -0.801
      -0.543
      -0.264
      -0.032
       0.110
       0.177
       0.227
       0.318
       0.458
       0.607
       0.717
       0.761
       0.747
       0.695
       0.625
       0.552
       0.485
       0.429
       0.385
       0.362
       0.373
       0.432
       0.549
       0.718
       0.916
       1.098
       1.208
       1.195
       1.037
       0.765
       0.448
       0.163
      -0.044
      -0.167
      -0.235
      -0.281
      -0.339
      -0.437
      -0.596
      -0.826
      -1.114
      -1.432
      -1.740
      -1.999
      -2.173
      -2.231
      -2.149
      -1.920
      -1.568
      -1.138
      -0.677
      -0.214
       0.236
       0.646
       0.961
       1.118
       1.090
       0.913
       0.674
       0.465
       0.347
       0.336
       0.406
       0.513
       0.618
       0.705
       0.779
       0.842
       0.869
       0.817
       0.661
       0.425
