Origin Time       21/9/2009 9:43:47	 
Lat.              30.9 N	
Long.             79.1 E	
Depth (Km)         13.0
Magnitude         4.7
 Region           UTTARKASHI-UTTARAKHAND                                           
 Above details taken from IMD 
     
Station Code      BAR
Station Lat.       30.809  N
Station Long.      78.656  E
Station Height(m) 1305.0
Site Class        A   Vs30 between 700 m/sec to 1400 m/sec * 
Record Time       21.09.2009 09:44:03.484
Sampling Rate     200. Hz
 Record Duration   71.575 Sec.
 Direction         E-W (E positive)
Max. Acceleration    -19.604 cm/sec**2
     
  * For reference see Site Classification link of website 
     
 Base Line Corrected and Low Pass Filtered (Cut Off at 35 Hz) Time History
 Acceleration data in cm/sec**2
    
[...]
       1.138
       0.972
       0.723
       0.426
       0.132
      -0.103
      -0.230
      -0.236
      -0.165
      -0.107
      -0.146
      -0.303
      -0.524
      -0.724
      -0.843
      -0.874
      -0.842
      -0.770
      -0.660
      -0.515
      -0.361
      -0.245
      -0.203
      -0.223
      -0.251
      -0.246
      -0.228
      -0.259
      -0.373
      -0.530
      -0.635
      -0.614
      -0.473
      -0.282
      -0.127
      -0.051
      -0.050
      -0.091
      -0.133
      -0.147
      -0.119
      -0.061
       0.002
       0.056
       0.116
       0.214
       0.356
       0.509
       0.624
       0.690
       0.744
       0.827
       0.940
       1.043
       1.104
       1.133
       1.158
       1.176
       1.144
       1.005
       0.740
       0.388
       0.015
      -0.313
      -0.552
      -0.688
      -0.746
      -0.775
      -0.819
      -0.871
      -0.871
      -0.765
      -0.565
      -0.352
      -0.204
      -0.139
      -0.121
      -0.128
      -0.183
      -0.314
      -0.500
      -0.661
      -0.728
      -0.701
      -0.638
      -0.587
      -0.541
      -0.455
      -0.314
      -0.163
      -0.061
      -0.027
      -0.030
      -0.035
      -0.047
      -0.087
      -0.141
      -0.142
      -0.018
       0.221
       0.481
       0.655
       0.723
       0.751
       0.800
       0.841
       0.774
       0.539
       0.202
      -0.082
      -0.188
      -0.102
       0.091
       0.281
       0.407
       0.464
       0.483
       0.493
       0.505
       0.511
       0.495
       0.450
       0.379
       0.289
       0.168
      -0.011
      -0.247
      -0.482
      -0.621
      -0.621
      -0.553
      -0.568
      -0.765
      -1.088
      -1.353
      -1.395
      -1.204
      -0.911
      -0.664
      -0.509
      -0.386
      -0.224
      -0.015
       0.189
       0.345
       0.465
       0.591
       0.743
       0.886
       0.961
       0.939
       0.846
       0.738
       0.656
       0.608
       0.580
       0.565
       0.560
       0.560
       0.543
       0.480
       0.365
       0.228
       0.124
       0.085
       0.076
       0.010
      -0.189
      -0.515
      -0.867
      -1.116
      -1.195
      -1.136
      -1.032
      -0.958
      -0.922
      -0.872
      -0.752
      -0.550
      -0.302
      -0.061
       0.136
       0.281
       0.379
       0.429
       0.427
       0.377
       0.292
       0.183
       0.059
      -0.063
      -0.153
      -0.178
      -0.127
      -0.026
       0.080
       0.147
       0.148
       0.075
      -0.058
      -0.213
      -0.325
      -0.332
      -0.211
      -0.001
       0.216
       0.370
       0.443
       0.475
       0.520
       0.602
       0.688
       0.725
       0.682
       0.581
       0.475
       0.399
       0.327
       0.197
      -0.040
      -0.370
      -0.714
      -0.974
      -1.096
      -1.098
      -1.043
      -0.982
      -0.927
      -0.846
      -0.703
      -0.483
      -0.215
       0.040
       0.221
       0.298
       0.290
       0.244
       0.202
       0.177
       0.164
       0.161
       0.177
       0.204
       0.203
       0.133
      -0.008
      -0.152
      -0.211
      -0.157
      -0.047
       0.029
       0.029
      -0.014
      -0.047
      -0.071
      -0.139
      -0.278
      -0.422
      -0.432
      -0.211
       0.202
       0.646
       0.951
       1.051
       0.996
       0.880
       0.767
       0.670
       0.591
       0.548
       0.564
       0.629
       0.673
       0.602
       0.367
       0.008
      -0.355
      -0.610
      -0.715
      -0.706
      -0.631
      -0.506
      -0.326
      -0.123
       0.034
       0.085
       0.042
      -0.023
      -0.051
      -0.058
      -0.121
      -0.291
      -0.540
      -0.781
      -0.939
      -0.997
      -0.978
      -0.906
      -0.784
      -0.603
      -0.375
      -0.142
       0.029
       0.074
      -0.033
      -0.250
      -0.467
      -0.556
      -0.439
      -0.139
       0.247
       0.607
       0.884
       1.084
       1.244
       1.383
       1.490
       1.541
       1.526
       1.450
       1.328
       1.171
       0.988
       0.780
       0.526
       0.179
      -0.285
      -0.819
      -1.288
      -1.541
      -1.514
      -1.271
      -0.960
      -0.703
      -0.533
      -0.412
      -0.300
      -0.205
      -0.170
      -0.227
      -0.361
      -0.518
      -0.641
      -0.699
      -0.700
      -0.682
      -0.685
      -0.716
      -0.727
      -0.638
      -0.389
       0.016
       0.517
       1.037
       1.512
       1.895
       2.141
       2.217
       2.124
       1.917
       1.667
       1.411
       1.140
       0.824
       0.469
       0.120
      -0.187
      -0.476
      -0.821
      -1.271
      -1.788
      -2.256
      -2.561
      -2.661
      -2.593
      -2.438
      -2.261
      -2.087
      -1.894
      -1.653
      -1.356
      -1.032
      -0.708
      -0.371
       0.030
       0.524
       1.061
       1.524
       1.818
       1.950
       2.010
       2.079
       2.156
       2.175
       2.084
       1.884
       1.601
       1.233
       0.758
       0.191
      -0.379
      -0.823
      -1.059
      -1.097
      -1.009
      -0.859
      -0.663
      -0.424
      -0.167
       0.077
       0.311
       0.576
       0.889
       1.177
       1.308
       1.195
       0.892
       0.555
       0.317
       0.172
       0.005
      -0.292
      -0.705
      -1.100
      -1.335
      -1.364
      -1.262
      -1.143
      -1.080
      -1.073
      -1.078
      -1.064
      -1.029
      -0.987
      -0.938
      -0.850
      -0.667
      -0.347
       0.100
       0.612
       1.097
       1.483
       1.737
       1.850
       1.808
       1.599
       1.252
       0.841
       0.459
       0.142
      -0.144
      -0.469
      -0.853
      -1.227
      -1.474
      -1.525
      -1.407
      -1.211
      -1.013
      -0.820
      -0.595
      -0.327
      -0.063
       0.122
       0.197
       0.206
       0.243
       0.385
       0.639
       0.941
       1.195
       1.331
       1.332
       1.236
       1.098
       0.955
       0.796
       0.586
       0.304
      -0.015
      -0.287
      -0.429
      -0.418
      -0.314
      -0.217
      -0.195
      -0.248
      -0.319
      -0.358
      -0.351
      -0.325
      -0.318
      -0.356
      -0.454
      -0.600
      -0.751
      -0.845
      -0.842
      -0.760
      -0.675
      -0.650
      -0.684
      -0.706
      -0.643
      -0.472
      -0.227
       0.039
       0.285
       0.482
       0.597
       0.607
       0.530
       0.428
       0.363
       0.339
       0.295
       0.164
      -0.064
      -0.333
      -0.569
      -0.729
      -0.809
      -0.828
      -0.799
      -0.731
      -0.622
      -0.470
      -0.275
      -0.056
       0.140
       0.260
       0.283
       0.246
       0.229
       0.287
       0.400
       0.478
       0.418
       0.175
      -0.209
      -0.639
      -1.031
      -1.352
      -1.624
      -1.882
      -2.133
      -2.333
      -2.408
      -2.297
      -1.995
      -1.550
      -1.030
      -0.495
       0.025
       0.534
       1.058
       1.632
       2.245
       2.806
       3.173
       3.246
       3.061
       2.782
       2.574
       2.478
       2.387
       2.160
       1.746
       1.212
       0.669
       0.185
      -0.221
      -0.521
      -0.654
      -0.561
      -0.253
       0.180
       0.632
       1.057
       1.472
       1.903
       2.330
       2.673
       2.840
       2.784
       2.515
       2.078
       1.519
       0.861
       0.119
      -0.692
      -1.551
      -2.430
      -3.279
      -4.015
      -4.536
      -4.769
      -4.720
      -4.478
      -4.164
      -3.857
      -3.556
      -3.201
      -2.730
      -2.132
      -1.458
      -0.793
      -0.213
       0.247
       0.596
       0.874
       1.123
       1.374
       1.628
       1.867
       2.056
       2.172
       2.210
       2.185
       2.119
       2.027
       1.934
       1.875
       1.891
       1.984
       2.102
       2.169
       2.156
       2.111
       2.114
       2.196
       2.314
       2.394
       2.413
       2.418
       2.489
       2.665
       2.910
       3.133
       3.236
       3.159
       2.890
       2.448
       1.858
       1.134
       0.279
      -0.711
      -1.828
      -3.054
      -4.357
      -5.693
      -7.013
      -8.262
      -9.378
     -10.296
     -10.950
     -11.297
     -11.330
     -11.081
     -10.612
      -9.985
      -9.243
      -8.399
      -7.433
      -6.299
      -4.946
      -3.347
      -1.542
       0.369
       2.273
       4.108
       5.868
       7.559
       9.146
      10.555
      11.714
      12.587
      13.172
      13.467
      13.452
      13.093
      12.376
      11.338
      10.064
       8.663
       7.210
       5.724
       4.176
       2.539
       0.836
      -0.858
      -2.458
      -3.912
      -5.205
      -6.319
      -7.213
      -7.847
      -8.225
      -8.395
      -8.402
      -8.229
      -7.815
      -7.135
      -6.250
      -5.295
      -4.381
      -3.520
      -2.627
      -1.597
      -0.405
       0.865
       2.069
       3.093
       3.895
       4.475
       4.834
       4.952
       4.817
       4.463
       3.956
       3.359
       2.702
       1.993
       1.251
       0.524
      -0.138
      -0.702
      -1.157
      -1.490
      -1.682
      -1.728
      -1.640
      -1.442
      -1.148
      -0.779
      -0.412
      -0.183
      -0.249
      -0.695
      -1.477
      -2.446
      -3.417
      -4.242
      -4.825
      -5.113
      -5.094
      -4.809
      -4.343
      -3.766
      -3.073
      -2.189
      -1.046
       0.338
       1.850
       3.343
       4.705
       5.885
       6.868
       7.657
       8.269
       8.731
       9.050
       9.161
       8.933
       8.243
       7.077
       5.556
       3.856
       2.086
       0.241
      -1.726
      -3.788
      -5.807
      -7.586
      -8.986
      -9.963
     -10.538
     -10.712
     -10.445
      -9.687
      -8.446
      -6.797
      -4.844
      -2.690
      -0.446
       1.739
       3.685
       5.254
       6.420
       7.264
       7.880
       8.276
       8.351
       7.964
       7.039
       5.610
       3.793
       1.733
      -0.429
      -2.574
      -4.624
      -6.565
      -8.440
     -10.280
     -12.015
     -13.446
     -14.318
     -14.435
     -13.754
     -12.379
     -10.489
      -8.254
      -5.811
      -3.282
      -0.780
       1.621
       3.902
       6.077
       8.136
      10.025
      11.683
      13.094
      14.294
      15.314
      16.127
      16.639
      16.747
      16.386
      15.553
      14.282
      12.607
      10.558
       8.170
       5.504
       2.662
      -0.215
      -2.950
      -5.355
      -7.282
      -8.701
      -9.727
     -10.565
     -11.369
     -12.135
     -12.718
     -12.944
     -12.739
     -12.147
     -11.266
     -10.166
      -8.879
      -7.442
      -5.920
      -4.388
      -2.886
      -1.426
      -0.042
       1.160
       2.047
       2.551
       2.739
       2.755
       2.687
       2.486
       2.033
       1.271
       0.280
      -0.775
      -1.743
      -2.530
      -3.069
      -3.286
      -3.117
      -2.559
      -1.681
      -0.568
       0.728
       2.194
       3.792
       5.418
       6.948
       8.317
       9.560
      10.753
      11.909
      12.919
      13.603
      13.812
      13.500
      12.708
      11.497
       9.905
       7.984
       5.855
       3.718
       1.756
       0.034
      -1.544
      -3.154
      -4.923
      -6.843
      -8.783
     -10.560
     -12.005
     -12.993
     -13.446
     -13.346
     -12.753
     -11.796
     -10.631
      -9.371
      -8.023
      -6.489
      -4.657
      -2.515
      -0.205
       2.038
       4.007
       5.599
       6.788
       7.541
       7.767
       7.358
       6.285
       4.665
       2.736
       0.767
      -1.043
      -2.601
      -3.892
      -4.917
      -5.661
      -6.098
      -6.225
      -6.069
      -5.665
      -5.025
      -4.134
      -2.992
      -1.660
      -0.240
       1.204
       2.708
       4.364
       6.198
       8.074
       9.744
      10.990
      11.744
      12.067
      12.036
      11.654
      10.864
       9.627
       7.973
       5.985
       3.769
       1.440
      -0.862
      -2.989
      -4.826
      -6.351
      -7.637
      -8.811
      -9.971
     -11.133
     -12.208
     -13.025
     -13.387
     -13.162
     -12.352
     -11.100
      -9.616
      -8.059
      -6.474
      -4.818
      -3.068
      -1.297
       0.352
       1.760
       2.933
       3.989
       5.059
       6.181
       7.268
       8.168
       8.747
       8.921
       8.643
       7.886
       6.673
       5.131
       3.488
       1.982
       0.745
      -0.268
      -1.227
      -2.293
      -3.488
      -4.668
      -5.605
      -6.102
      -6.061
      -5.456
      -4.293
      -2.609
      -0.528
       1.697
       3.738
       5.313
       6.314
       6.837
       7.129
       7.468
       8.042
       8.868
       9.782
      10.499
      10.720
      10.232
       8.967
       7.004
       4.539
       1.831
      -0.861
      -3.351
      -5.594
      -7.701
      -9.860
     -12.197
     -14.648
     -16.940
     -18.698
     -19.604
     -19.509
     -18.448
     -16.575
     -14.106
     -11.268
      -8.284
      -5.356
      -2.660
      -0.315
       1.645
       3.290
       4.763
       6.203
       7.672
       9.126
      10.460
      11.577
      12.428
      13.005
      13.304
      13.316
      13.042
      12.503
      11.728
      10.724
       9.480
       8.007
       6.386
       4.760
       3.284
       2.068
       1.175
       0.633
       0.447
       0.569
       0.871
       1.184
       1.365
       1.336
       1.066
       0.529
      -0.280
      -1.281
      -2.282
      -3.061
      -3.518
      -3.760
      -4.024
      -4.496
      -5.177
      -5.915
      -6.548
      -7.025
      -7.408
      -7.784
      -8.175
      -8.525
      -8.746
      -8.784
      -8.639
      -8.352
      -7.960
      -7.486
      -6.931
      -6.287
      -5.518
      -4.538
      -3.232
      -1.530
       0.504
       2.651
       4.627
       6.228
       7.414
       8.267
       8.872
       9.221
       9.244
       8.926
       8.373
       7.754
       7.161
       6.527
       5.673
       4.445
       2.791
       0.772
      -1.470
      -3.714
      -5.666
      -7.025
      -7.623
      -7.524
      -6.982
      -6.274
      -5.519
      -4.645
      -3.500
      -2.010
      -0.245
       1.626
       3.425
       5.021
       6.328
       7.298
       7.919
       8.209
       8.171
       7.758
       6.893
       5.542
       3.795
       1.857
      -0.051
      -1.790
      -3.335
      -4.712
      -5.920
      -6.895
      -7.533
      -7.745
      -7.505
      -6.868
      -5.954
      -4.895
      -3.772
      -2.586
      -1.310
       0.036
       1.342
       2.469
       3.339
       3.988
       4.492
       4.877
       5.092
       5.108
       5.011
       4.979
       5.139
       5.430
       5.619
       5.451
       4.825
       3.836
       2.683
       1.536
       0.452
      -0.611
      -1.718
      -2.900
      -4.135
      -5.358
      -6.493
      -7.456
      -8.156
      -8.503
      -8.449
      -8.034
      -7.403
      -6.748
      -6.194
      -5.718
      -5.154
      -4.308
      -3.086
      -1.540
       0.173
       1.893
       3.518
       4.999
       6.284
       7.290
       7.931
       8.175
       8.053
       7.629
       6.962
       6.118
       5.187
       4.256
       3.347
       2.400
       1.342
       0.203
      -0.846
      -1.589
      -1.941
      -2.041
      -2.163
      -2.505
      -3.021
      -3.464
      -3.599
      -3.395
      -3.032
      -2.717
      -2.504
      -2.266
      -1.835
      -1.158
      -0.333
       0.496
       1.251
       1.934
       2.543
       2.989
       3.118
       2.825
       2.170
       1.371
       0.677
       0.211
      -0.088
      -0.391
      -0.845
      -1.475
      -2.183
      -2.832
      -3.343
      -3.733
      -4.054
      -4.307
      -4.417
      -4.310
      -4.009
      -3.646
      -3.336
      -3.058
      -2.658
      -1.999
      -1.098
      -0.121
       0.768
       1.558
       2.398
       3.464
       4.800
       6.270
       7.629
       8.651
       9.219
       9.332
       9.033
       8.347
       7.273
       5.851
       4.239
       2.700
       1.467
       0.587
      -0.119
      -0.924
      -1.983
      -3.227
      -4.431
      -5.376
      -5.965
      -6.196
      -6.091
      -5.683
      -5.083
      -4.515
      -4.223
      -4.329
      -4.753
      -5.277
      -5.687
      -5.873
      -5.813
      -5.520
      -5.009
      -4.322
      -3.545
      -2.775
      -2.043
      -1.288
      -0.416
       0.603
       1.686
       2.688
       3.517
       4.191
       4.794
       5.368
       5.852
       6.135
       6.176
       6.073
       6.007
       6.105
       6.344
       6.563
       6.572
       6.263
       5.648
       4.811
       3.849
       2.864
       1.969
       1.285
       0.887
       0.748
       0.752
       0.775
       0.760
       0.727
       0.704
       0.667
       0.538
       0.236
      -0.283
      -1.035
      -2.043
      -3.319
      -4.814
      -6.387
      -7.848
      -9.050
      -9.934
     -10.489
     -10.698
     -10.533
     -10.024
      -9.305
      -8.558
      -7.905
      -7.332
      -6.716
      -5.929
      -4.915
      -3.697
      -2.322
      -0.828
       0.749
       2.347
       3.891
       5.324
       6.639
       7.862
       9.007
      10.034
      10.845
      11.316
      11.363
      10.998
      10.338
       9.545
       8.750
       8.000
       7.271
       6.507
       5.640
       4.593
       3.310
       1.818
       0.277
      -1.064
      -2.024
      -2.612
      -3.021
      -3.471
      -4.035
      -4.626
      -5.109
      -5.430
      -5.629
      -5.750
      -5.769
      -5.620
      -5.280
      -4.827
      -4.399
      -4.096
      -3.908
      -3.736
      -3.482
      -3.116
      -2.686
      -2.245
      -1.785
      -1.242
      -0.553
       0.263
       1.090
       1.778
       2.222
       2.405
       2.383
       2.234
       2.030
       1.842
       1.743
       1.786
       1.963
       2.197
       2.375
       2.419
       2.317
       2.095
       1.770
       1.332
       0.789
       0.219
      -0.242
      -0.474
      -0.442
      -0.206
       0.120
       0.406
       0.536
       0.426
       0.071
      -0.428
      -0.887
      -1.122
      -1.041
      -0.689
      -0.220
       0.170
       0.305
       0.079
      -0.497
      -1.279
      -2.030
      -2.537
      -2.730
      -2.717
      -2.689
      -2.792
      -3.038
      -3.321
      -3.498
      -3.463
      -3.176
      -2.669
      -2.012
      -1.278
      -0.502
       0.319
       1.191
       2.074
       2.881
