Origin Time       20/06/2011 06:27:18 UTC
Lat.              30.5 N	
Long.             79.4 E	
Depth (Km)         12.0
Magnitude         4.6
 Region           Chamoli-Uttarakhand                                              
 Above details taken from IMD 
    
Station Code      BAR
Station Lat.       30.809  N
Station Long.      78.205  E
Station Height(m) 1305.0
Site Class        A   Vs30 between 700 m/sec to 1400 m/sec * 
Record Time       20.06.2011 06:27:20.604 UTC
Sampling Rate     200. Hz
 Record Duration   95.415 Sec.
 Direction         N-S (N positive)
Max. Acceleration     -6.253 cm/sec**2
     
  * For reference see Site Classification link of website 
     
 Base Line Corrected and Low Pass Filtered (Cut Off at 35 Hz) Time History
 Acceleration data in cm/sec**2
    
[...]
       1.349
       1.690
       1.984
       2.239
       2.462
       2.648
       2.788
       2.873
       2.908
       2.893
       2.827
       2.709
       2.546
       2.354
       2.150
       1.948
       1.763
       1.605
       1.472
       1.360
       1.262
       1.160
       1.033
       0.864
       0.647
       0.380
       0.068
      -0.272
      -0.619
      -0.960
      -1.286
      -1.590
      -1.858
      -2.079
      -2.249
      -2.365
      -2.425
      -2.435
      -2.418
      -2.399
      -2.392
      -2.391
      -2.372
      -2.299
      -2.150
      -1.930
      -1.666
      -1.391
      -1.120
      -0.858
      -0.611
      -0.383
      -0.181
      -0.004
       0.159
       0.326
       0.516
       0.737
       0.990
       1.270
       1.570
       1.873
       2.148
       2.372
       2.537
       2.642
       2.684
       2.659
       2.563
       2.393
       2.149
       1.839
       1.487
       1.117
       0.750
       0.398
       0.070
      -0.237
      -0.528
      -0.807
      -1.068
      -1.300
      -1.488
      -1.615
      -1.668
      -1.652
      -1.586
      -1.485
      -1.351
      -1.182
      -0.984
      -0.772
      -0.563
      -0.375
      -0.216
      -0.086
       0.024
       0.123
       0.213
       0.298
       0.386
       0.481
       0.579
       0.674
       0.760
       0.824
       0.844
       0.801
       0.686
       0.497
       0.243
      -0.054
      -0.367
      -0.674
      -0.958
      -1.205
      -1.395
      -1.516
      -1.569
      -1.561
      -1.502
      -1.405
      -1.283
      -1.143
      -0.979
      -0.786
      -0.569
      -0.337
      -0.108
       0.104
       0.285
       0.433
       0.555
       0.667
       0.784
       0.919
       1.070
       1.222
       1.347
       1.429
       1.465
       1.455
       1.400
       1.302
       1.175
       1.030
       0.884
       0.754
       0.660
       0.605
       0.570
       0.525
       0.446
       0.321
       0.157
      -0.026
      -0.205
      -0.358
      -0.475
      -0.553
      -0.598
      -0.625
      -0.647
      -0.666
      -0.679
      -0.688
      -0.699
      -0.714
      -0.728
      -0.737
      -0.738
      -0.729
      -0.702
      -0.651
      -0.575
      -0.474
      -0.344
      -0.183
       0.006
       0.227
       0.479
       0.746
       0.998
       1.194
       1.304
       1.311
       1.223
       1.069
       0.885
       0.692
       0.498
       0.305
       0.122
      -0.036
      -0.161
      -0.248
      -0.308
      -0.359
      -0.428
      -0.534
      -0.690
      -0.901
      -1.162
      -1.452
      -1.744
      -2.017
      -2.267
      -2.483
      -2.641
      -2.715
      -2.697
      -2.603
      -2.449
      -2.247
      -1.989
      -1.657
      -1.235
      -0.724
      -0.133
       0.534
       1.278
       2.087
       2.929
       3.760
       4.527
       5.171
       5.637
       5.893
       5.937
       5.790
       5.481
       5.038
       4.483
       3.826
       3.073
       2.238
       1.347
       0.428
      -0.493
      -1.389
      -2.232
      -2.998
      -3.667
      -4.226
      -4.663
      -4.978
      -5.178
      -5.272
      -5.271
      -5.184
      -5.009
      -4.733
      -4.343
      -3.850
      -3.299
      -2.740
      -2.206
      -1.708
      -1.241
      -0.791
      -0.350
       0.080
       0.485
       0.852
       1.167
       1.420
       1.604
       1.723
       1.798
       1.851
       1.901
       1.964
       2.052
       2.175
       2.338
       2.536
       2.756
       2.973
       3.163
       3.313
       3.422
       3.485
       3.494
       3.444
       3.335
       3.167
       2.933
       2.628
       2.260
       1.842
       1.385
       0.895
       0.376
      -0.170
      -0.735
      -1.302
      -1.846
      -2.355
      -2.820
      -3.229
      -3.557
      -3.781
      -3.888
      -3.888
      -3.807
      -3.684
      -3.544
      -3.387
      -3.191
      -2.928
      -2.583
      -2.153
      -1.646
      -1.087
      -0.511
       0.046
       0.564
       1.033
       1.448
       1.812
       2.126
       2.383
       2.576
       2.702
       2.773
       2.796
       2.773
       2.693
       2.543
       2.310
       1.991
       1.601
       1.168
       0.719
       0.279
      -0.132
      -0.495
      -0.805
      -1.069
      -1.297
      -1.489
      -1.638
      -1.728
      -1.740
      -1.664
      -1.512
      -1.314
      -1.103
      -0.894
      -0.689
      -0.482
      -0.271
      -0.064
       0.117
       0.247
       0.313
       0.314
       0.258
       0.156
       0.029
      -0.092
      -0.186
      -0.242
      -0.258
      -0.243
      -0.215
      -0.196
      -0.200
      -0.230
      -0.291
      -0.385
      -0.507
      -0.640
      -0.762
      -0.859
      -0.916
      -0.925
      -0.886
      -0.801
      -0.675
      -0.513
      -0.323
      -0.110
       0.123
       0.379
       0.645
       0.901
       1.124
       1.295
       1.401
       1.435
       1.407
       1.332
       1.221
       1.074
       0.891
       0.686
       0.477
       0.294
       0.177
       0.160
       0.257
       0.453
       0.706
       0.967
       1.182
       1.310
       1.331
       1.249
       1.080
       0.846
       0.567
       0.257
      -0.075
      -0.420
      -0.758
      -1.063
      -1.321
      -1.531
      -1.697
      -1.817
      -1.890
      -1.908
      -1.860
      -1.729
      -1.510
      -1.207
      -0.833
      -0.413
       0.009
       0.376
       0.646
       0.798
       0.841
       0.799
       0.712
       0.616
       0.539
       0.487
       0.462
       0.462
       0.490
       0.545
       0.630
       0.745
       0.882
       1.030
       1.177
       1.306
       1.385
       1.379
       1.274
       1.086
       0.839
       0.551
       0.223
      -0.145
      -0.545
      -0.947
      -1.312
      -1.603
      -1.807
      -1.932
      -1.992
      -1.998
      -1.955
      -1.867
      -1.740
      -1.578
      -1.393
      -1.191
      -0.975
      -0.750
      -0.540
      -0.372
      -0.256
      -0.180
      -0.119
      -0.052
       0.034
       0.145
       0.279
       0.426
       0.582
       0.739
       0.888
       1.016
       1.116
       1.200
       1.286
       1.386
       1.505
       1.628
       1.723
       1.751
       1.693
       1.554
       1.364
       1.171
       1.018
       0.926
       0.866
       0.783
       0.627
       0.377
       0.056
      -0.282
      -0.565
      -0.729
      -0.747
      -0.639
      -0.456
      -0.256
      -0.085
       0.029
       0.087
       0.100
       0.082
       0.031
      -0.059
      -0.203
      -0.417
      -0.708
      -1.062
      -1.453
      -1.853
      -2.243
      -2.607
      -2.926
      -3.173
      -3.310
      -3.297
      -3.110
      -2.760
      -2.281
      -1.715
      -1.098
      -0.464
       0.154
       0.734
       1.260
       1.723
       2.113
       2.425
       2.656
       2.797
       2.833
       2.750
       2.545
       2.223
       1.800
       1.304
       0.769
       0.225
      -0.301
      -0.783
      -1.198
      -1.531
      -1.762
      -1.865
      -1.807
      -1.573
      -1.178
      -0.658
      -0.058
       0.576
       1.204
       1.794
       2.320
       2.748
       3.050
       3.211
       3.238
       3.147
       2.957
       2.686
       2.352
       1.961
       1.510
       0.992
       0.409
      -0.221
      -0.860
      -1.458
      -1.969
      -2.364
      -2.640
      -2.807
      -2.888
      -2.914
      -2.913
      -2.897
      -2.867
      -2.823
      -2.773
      -2.716
      -2.643
      -2.542
      -2.408
      -2.234
      -2.019
      -1.763
      -1.474
      -1.152
      -0.790
      -0.379
       0.085
       0.593
       1.119
       1.624
       2.067
       2.427
       2.702
       2.900
       3.028
       3.096
       3.121
       3.121
       3.113
       3.116
       3.139
       3.176
       3.204
       3.199
       3.140
       3.003
       2.771
       2.445
       2.046
       1.597
       1.114
       0.600
       0.064
      -0.481
      -1.012
      -1.501
      -1.932
      -2.307
      -2.642
      -2.949
      -3.232
      -3.488
      -3.710
      -3.880
      -3.977
      -3.992
      -3.929
      -3.794
      -3.595
      -3.343
      -3.053
      -2.738
      -2.408
      -2.066
      -1.711
      -1.334
      -0.928
      -0.497
      -0.057
       0.381
       0.816
       1.245
       1.668
       2.082
       2.477
       2.836
       3.137
       3.366
       3.520
       3.600
       3.615
       3.570
       3.457
       3.250
       2.918
       2.454
       1.885
       1.255
       0.606
      -0.027
      -0.616
      -1.146
      -1.615
      -2.023
      -2.368
      -2.638
      -2.811
      -2.862
      -2.776
      -2.562
      -2.246
      -1.851
      -1.388
      -0.869
      -0.313
       0.246
       0.769
       1.212
       1.539
       1.735
       1.803
       1.753
       1.602
       1.378
       1.106
       0.793
       0.446
       0.086
      -0.240
      -0.486
      -0.629
      -0.689
      -0.709
      -0.741
      -0.809
      -0.897
      -0.959
      -0.956
      -0.880
      -0.749
      -0.597
      -0.450
      -0.318
      -0.192
      -0.061
       0.077
       0.219
       0.360
       0.490
       0.591
       0.653
       0.685
       0.721
       0.799
       0.932
       1.113
       1.305
       1.461
       1.544
       1.550
       1.502
       1.428
       1.336
       1.224
       1.083
       0.916
       0.732
       0.539
       0.336
       0.106
      -0.163
      -0.463
      -0.766
      -1.043
      -1.279
      -1.478
      -1.657
      -1.836
      -2.023
      -2.203
      -2.347
      -2.428
      -2.435
      -2.357
      -2.193
      -1.948
      -1.641
      -1.289
      -0.905
      -0.498
      -0.067
       0.388
       0.866
       1.346
       1.795
       2.179
       2.470
       2.651
       2.715
       2.659
       2.482
       2.181
       1.765
       1.262
       0.710
       0.142
      -0.412
      -0.920
      -1.344
      -1.660
      -1.859
      -1.939
      -1.903
      -1.756
      -1.515
      -1.203
      -0.845
      -0.459
      -0.045
       0.413
       0.926
       1.479
       2.025
       2.500
       2.847
       3.032
       3.056
       2.942
       2.714
       2.378
       1.923
       1.346
       0.654
      -0.137
      -0.996
      -1.869
      -2.691
      -3.401
      -3.965
      -4.364
      -4.595
      -4.664
      -4.575
      -4.322
      -3.894
      -3.290
      -2.532
      -1.659
      -0.718
       0.244
       1.182
       2.054
       2.814
       3.414
       3.818
       4.018
       4.018
       3.821
       3.424
       2.835
       2.088
       1.240
       0.371
      -0.436
      -1.115
      -1.642
      -2.031
      -2.314
      -2.523
      -2.671
      -2.756
      -2.766
      -2.688
      -2.523
      -2.271
      -1.921
      -1.464
      -0.910
      -0.298
       0.323
       0.912
       1.459
       1.972
       2.454
       2.883
       3.212
       3.404
       3.458
       3.401
       3.262
       3.061
       2.812
       2.521
       2.180
       1.768
       1.276
       0.718
       0.126
      -0.459
      -1.006
      -1.493
      -1.915
      -2.265
      -2.525
      -2.670
      -2.674
      -2.525
      -2.222
      -1.778
      -1.222
      -0.585
       0.095
       0.769
       1.368
       1.831
       2.123
       2.239
       2.192
       1.999
       1.679
       1.248
       0.715
       0.088
      -0.612
      -1.343
      -2.049
      -2.663
      -3.127
      -3.413
      -3.531
      -3.508
      -3.364
      -3.091
      -2.670
      -2.097
      -1.394
      -0.617
       0.154
       0.846
       1.417
       1.855
       2.174
       2.393
       2.531
       2.590
       2.557
       2.412
       2.146
       1.766
       1.286
       0.739
       0.170
      -0.363
      -0.814
      -1.150
      -1.356
      -1.432
      -1.399
      -1.284
      -1.101
      -0.849
      -0.531
      -0.158
       0.240
       0.630
       0.985
       1.293
       1.551
       1.752
       1.876
       1.896
       1.801
       1.602
       1.322
       0.994
       0.647
       0.300
      -0.039
      -0.358
      -0.631
      -0.821
      -0.915
      -0.931
      -0.900
      -0.850
      -0.795
      -0.736
      -0.669
      -0.589
      -0.499
      -0.411
      -0.336
      -0.287
      -0.275
      -0.301
      -0.352
      -0.410
      -0.464
      -0.512
      -0.554
      -0.595
      -0.644
      -0.700
      -0.750
      -0.770
      -0.751
      -0.702
      -0.644
      -0.592
      -0.550
      -0.512
      -0.475
      -0.452
      -0.474
      -0.572
      -0.757
      -1.004
      -1.269
      -1.494
      -1.630
      -1.650
      -1.553
      -1.353
      -1.061
      -0.684
      -0.226
       0.307
       0.916
       1.590
       2.304
       3.018
       3.697
       4.317
       4.858
       5.303
       5.637
       5.840
       5.875
       5.707
       5.315
       4.707
       3.915
       2.977
       1.931
       0.805
      -0.372
      -1.558
      -2.693
      -3.717
      -4.588
      -5.282
      -5.789
      -6.109
      -6.253
      -6.229
      -6.030
      -5.647
      -5.087
      -4.389
      -3.610
      -2.810
      -2.030
      -1.279
      -0.537
       0.216
       0.970
       1.679
       2.285
       2.735
       2.997
       3.072
       2.991
       2.794
       2.517
       2.179
       1.794
       1.375
       0.951
       0.564
       0.265
       0.086
       0.022
       0.038
       0.095
       0.159
       0.203
       0.212
       0.192
       0.159
       0.128
       0.107
       0.101
       0.109
       0.118
       0.114
       0.092
       0.061
       0.033
       0.005
      -0.035
      -0.109
      -0.229
      -0.391
      -0.574
      -0.745
      -0.883
      -0.978
      -1.028
      -1.040
      -1.031
      -1.009
      -0.967
      -0.886
      -0.755
      -0.576
      -0.365
      -0.148
       0.052
       0.232
       0.403
       0.573
       0.718
       0.799
       0.789
       0.703
       0.580
       0.466
       0.387
       0.343
       0.315
       0.291
       0.275
       0.283
       0.326
       0.411
       0.535
       0.679
       0.803
       0.865
       0.843
       0.748
       0.609
       0.464
       0.342
       0.249
       0.166
       0.065
      -0.070
      -0.230
      -0.389
      -0.512
      -0.559
      -0.507
      -0.365
      -0.169
       0.029
       0.176
       0.241
       0.232
       0.196
       0.201
       0.290
       0.468
       0.700
       0.923
       1.079
       1.131
       1.078
       0.935
       0.716
       0.432
       0.102
      -0.254
      -0.623
      -0.999
      -1.371
      -1.714
      -1.996
      -2.193
      -2.297
      -2.313
      -2.251
      -2.115
      -1.894
      -1.571
      -1.145
      -0.631
      -0.063
       0.511
       1.036
       1.469
       1.790
       2.002
       2.114
       2.137
       2.077
       1.931
       1.695
       1.380
       1.021
       0.656
       0.304
      -0.038
      -0.371
      -0.684
      -0.962
      -1.196
      -1.382
      -1.521
      -1.614
      -1.658
      -1.652
      -1.597
      -1.500
      -1.371
      -1.220
      -1.064
      -0.929
      -0.836
      -0.782
      -0.743
      -0.684
      -0.579
      -0.419
      -0.212
       0.019
       0.261
       0.514
       0.784
       1.061
       1.327
       1.565
       1.767
       1.919
       2.010
       2.032
       1.992
       1.907
       1.795
       1.666
       1.516
       1.329
       1.096
       0.822
       0.529
       0.244
      -0.015
      -0.240
      -0.437
      -0.621
      -0.804
      -0.992
      -1.187
      -1.397
      -1.621
      -1.845
      -2.045
      -2.206
      -2.324
      -2.392
      -2.398
      -2.327
      -2.175
      -1.945
      -1.651
      -1.309
      -0.938
      -0.551
      -0.163
       0.210
       0.562
       0.904
       1.256
       1.629
       2.021
       2.417
       2.782
       3.070
       3.237
       3.253
       3.115
       2.837
       2.450
       1.992
       1.495
       0.978
       0.459
      -0.034
      -0.467
      -0.825
      -1.111
      -1.339
      -1.510
      -1.614
      -1.633
      -1.553
      -1.379
      -1.134
      -0.848
      -0.545
      -0.248
       0.019
       0.245
       0.435
       0.598
       0.735
       0.830
       0.862
       0.810
       0.661
       0.428
       0.146
      -0.136
      -0.377
      -0.547
      -0.639
      -0.663
      -0.651
      -0.629
      -0.597
      -0.533
      -0.417
      -0.252
      -0.058
       0.134
       0.301
       0.433
       0.532
       0.601
       0.637
       0.635
       0.585
       0.469
       0.263
      -0.034
      -0.385
      -0.728
      -1.007
      -1.201
      -1.326
      -1.426
      -1.542
      -1.688
      -1.832
      -1.925
      -1.936
      -1.867
      -1.742
      -1.585
      -1.403
      -1.190
      -0.934
      -0.637
      -0.314
       0.026
       0.386
       0.775
       1.187
       1.601
       1.985
       2.312
       2.558
       2.711
       2.770
       2.742
       2.636
       2.472
       2.279
       2.071
       1.840
       1.569
       1.253
       0.908
       0.558
       0.229
      -0.059
      -0.278
      -0.410
      -0.451
      -0.424
      -0.372
      -0.335
      -0.335
      -0.368
      -0.423
      -0.496
      -0.586
      -0.688
      -0.792
      -0.894
      -0.991
      -1.086
      -1.184
      -1.294
      -1.413
      -1.521
      -1.591
      -1.606
      -1.567
      -1.487
      -1.388
      -1.297
      -1.236
      -1.202
      -1.170
      -1.116
      -1.031
      -0.932
      -0.847
      -0.803
      -0.804
      -0.825
      -0.826
      -0.769
      -0.622
      -0.374
      -0.039
       0.349
       0.755
       1.166
       1.579
       1.984
       2.355
       2.660
       2.875
       2.986
       3.002
       2.952
       2.864
       2.754
       2.623
       2.457
       2.239
       1.947
       1.577
       1.143
       0.680
       0.223
      -0.203
      -0.578
      -0.898
      -1.173
      -1.422
      -1.666
      -1.913
      -2.151
      -2.342
      -2.438
      -2.411
      -2.272
      -2.052
      -1.780
      -1.470
      -1.128
      -0.755
      -0.353
       0.067
       0.483
       0.872
       1.222
       1.519
       1.743
       1.865
       1.860
       1.720
       1.463
       1.134
       0.789
       0.468
       0.181
      -0.083
      -0.335
      -0.583
      -0.830
      -1.068
      -1.280
      -1.444
      -1.548
      -1.590
      -1.575
      -1.522
      -1.460
      -1.410
      -1.380
      -1.359
      -1.336
      -1.299
      -1.233
      -1.122
      -0.961
      -0.761
      -0.537
      -0.306
      -0.079
       0.147
       0.378
       0.613
