Origin Time       30/05/2014 06:37:50 UTC
Lat.              26.5 N	
Long.             90.4 E	
Depth (Km)         10.0
Magnitude         4.5
 Region           Kokhrajhar-Assam                                                 
 Above details taken from IMD 
    
Station Code      BAR
Station Lat.       26.332  N
Station Long.      91.006  E
Station Height(m)   47.0
Site Class        C   Vs30 between 200 m/sec to 375 m/sec *  
Record Time       30.05.2014 06:36:38.044 UTC
Sampling Rate     200. Hz
 Record Duration   80.750 Sec.
 Direction         N-S (N positive)
Max. Acceleration      1.754 cm/sec**2
     
  * For reference see Site Classification link of website 
     
 Base Line Corrected and Low Pass Filtered (Cut Off at 35 Hz) Time History
 Acceleration data in cm/sec**2
    
[...]
       0.631
       0.655
       0.569
       0.388
       0.158
      -0.063
      -0.234
      -0.331
      -0.356
      -0.339
      -0.311
      -0.284
      -0.247
      -0.196
      -0.154
      -0.164
      -0.244
      -0.364
      -0.457
      -0.466
      -0.378
      -0.238
      -0.114
      -0.062
      -0.093
      -0.183
      -0.291
      -0.373
      -0.392
      -0.341
      -0.238
      -0.116
      -0.003
       0.086
       0.148
       0.181
       0.187
       0.168
       0.131
       0.090
       0.062
       0.061
       0.086
       0.128
       0.172
       0.210
       0.240
       0.260
       0.271
       0.268
       0.244
       0.200
       0.150
       0.124
       0.159
       0.279
       0.479
       0.714
       0.916
       1.012
       0.957
       0.755
       0.461
       0.158
      -0.069
      -0.173
      -0.167
      -0.124
      -0.132
      -0.240
      -0.431
      -0.644
      -0.822
      -0.942
      -1.002
      -0.997
      -0.911
      -0.735
      -0.489
      -0.220
       0.016
       0.175
       0.238
       0.214
       0.147
       0.102
       0.143
       0.278
       0.447
       0.559
       0.564
       0.490
       0.421
       0.431
       0.548
       0.746
       0.968
       1.154
       1.255
       1.236
       1.081
       0.795
       0.408
      -0.017
      -0.393
      -0.636
      -0.698
      -0.588
      -0.367
      -0.116
       0.086
       0.189
       0.170
       0.030
      -0.197
      -0.449
      -0.651
      -0.738
      -0.686
      -0.518
      -0.306
      -0.142
      -0.097
      -0.189
      -0.385
      -0.626
      -0.862
      -1.065
      -1.218
      -1.301
      -1.290
      -1.169
      -0.954
      -0.693
      -0.432
      -0.187
       0.058
       0.311
       0.532
       0.651
       0.633
       0.514
       0.382
       0.308
       0.289
       0.263
       0.181
       0.064
       0.001
       0.076
       0.296
       0.575
       0.786
       0.853
       0.788
       0.650
       0.494
       0.341
       0.196
       0.082
       0.035
       0.084
       0.223
       0.401
       0.545
       0.593
       0.518
       0.337
       0.089
      -0.177
      -0.424
      -0.630
      -0.794
      -0.924
      -1.029
      -1.115
      -1.173
      -1.183
      -1.125
      -0.984
      -0.751
      -0.424
      -0.029
       0.368
       0.668
       0.789
       0.716
       0.512
       0.285
       0.121
       0.059
       0.099
       0.221
       0.402
       0.608
       0.787
       0.874
       0.820
       0.619
       0.326
       0.046
      -0.107
      -0.061
       0.175
       0.513
       0.829
       1.009
       0.994
       0.793
       0.480
       0.154
      -0.101
      -0.269
      -0.403
      -0.571
      -0.785
      -0.976
      -1.048
      -0.965
      -0.776
      -0.576
      -0.445
      -0.424
      -0.508
      -0.660
      -0.821
      -0.928
      -0.941
      -0.863
      -0.736
      -0.611
      -0.516
      -0.439
      -0.334
      -0.168
       0.048
       0.251
       0.372
       0.379
       0.304
       0.217
       0.192
       0.263
       0.420
       0.621
       0.818
       0.990
       1.141
       1.274
       1.353
       1.304
       1.064
       0.637
       0.122
      -0.325
      -0.565
      -0.538
      -0.288
       0.064
       0.374
       0.540
       0.534
       0.389
       0.150
      -0.158
      -0.516
      -0.874
      -1.141
      -1.229
      -1.125
      -0.911
      -0.706
      -0.574
      -0.475
      -0.312
      -0.016
       0.384
       0.781
       1.055
       1.131
       1.009
       0.746
       0.427
       0.137
      -0.064
      -0.150
      -0.127
      -0.018
       0.150
       0.345
       0.539
       0.700
       0.792
       0.783
       0.658
       0.438
       0.177
      -0.065
      -0.243
      -0.350
      -0.404
      -0.429
      -0.429
      -0.381
      -0.253
      -0.038
       0.233
       0.490
       0.649
       0.633
       0.412
       0.017
      -0.463
      -0.914
      -1.234
      -1.370
      -1.329
      -1.163
      -0.938
      -0.713
      -0.528
      -0.412
      -0.386
      -0.448
      -0.563
      -0.669
      -0.712
      -0.673
      -0.570
      -0.437
      -0.303
      -0.179
      -0.053
       0.100
       0.301
       0.543
       0.796
       1.012
       1.158
       1.224
       1.220
       1.156
       1.020
       0.793
       0.470
       0.077
      -0.319
      -0.630
      -0.771
      -0.704
      -0.466
      -0.167
       0.070
       0.173
       0.151
       0.062
      -0.041
      -0.138
      -0.227
      -0.301
      -0.341
      -0.334
      -0.291
      -0.249
      -0.241
      -0.279
      -0.344
      -0.394
      -0.390
      -0.305
      -0.145
       0.050
       0.221
       0.317
       0.327
       0.286
       0.261
       0.308
       0.440
       0.614
       0.760
       0.826
       0.802
       0.722
       0.630
       0.552
       0.491
       0.428
       0.339
       0.200
       0.009
      -0.218
      -0.442
      -0.613
      -0.689
      -0.657
      -0.553
      -0.453
      -0.433
      -0.516
      -0.656
      -0.761
      -0.752
      -0.600
      -0.339
      -0.034
       0.254
       0.487
       0.641
       0.696
       0.649
       0.531
       0.403
       0.318
       0.283
       0.258
       0.194
       0.078
      -0.036
      -0.064
       0.050
       0.269
       0.475
       0.532
       0.373
       0.050
      -0.308
      -0.564
      -0.653
      -0.591
      -0.449
      -0.294
      -0.165
      -0.061
       0.043
       0.180
       0.369
       0.586
       0.768
       0.838
       0.756
       0.543
       0.280
       0.064
      -0.038
      -0.023
       0.041
       0.062
      -0.014
      -0.166
      -0.321
      -0.414
      -0.412
      -0.322
      -0.176
      -0.022
       0.085
       0.096
      -0.008
      -0.199
      -0.412
      -0.569
      -0.611
      -0.526
      -0.341
      -0.104
       0.138
       0.344
       0.470
       0.470
       0.320
       0.045
      -0.279
      -0.558
      -0.721
      -0.740
      -0.637
      -0.461
      -0.272
      -0.124
      -0.051
      -0.067
      -0.160
      -0.306
      -0.474
      -0.626
      -0.711
      -0.687
      -0.536
      -0.286
       0.006
       0.271
       0.453
       0.518
       0.460
       0.306
       0.113
      -0.046
      -0.099
      -0.010
       0.212
       0.499
       0.752
       0.874
       0.824
       0.636
       0.412
       0.263
       0.248
       0.339
       0.446
       0.477
       0.396
       0.233
       0.053
      -0.092
      -0.195
      -0.277
      -0.356
      -0.426
      -0.464
      -0.466
      -0.458
      -0.480
      -0.545
      -0.618
      -0.631
      -0.530
      -0.316
      -0.046
       0.193
       0.330
       0.333
       0.211
       0.001
      -0.244
      -0.471
      -0.639
      -0.724
      -0.723
      -0.646
      -0.520
      -0.391
      -0.305
      -0.272
      -0.245
      -0.137
       0.118
       0.518
       0.974
       1.357
       1.571
       1.595
       1.483
       1.326
       1.191
       1.096
       1.008
       0.875
       0.667
       0.391
       0.089
      -0.195
      -0.421
      -0.559
      -0.594
      -0.534
      -0.426
      -0.343
      -0.344
      -0.433
      -0.557
      -0.640
      -0.620
      -0.483
      -0.263
      -0.031
       0.137
       0.194
       0.138
       0.008
      -0.136
      -0.234
      -0.241
      -0.142
       0.026
       0.180
       0.230
       0.129
      -0.092
      -0.346
      -0.538
      -0.615
      -0.576
      -0.455
      -0.289
      -0.106
       0.067
       0.211
       0.314
       0.386
       0.455
       0.552
       0.690
       0.849
       0.969
       0.978
       0.821
       0.498
       0.075
      -0.332
      -0.600
      -0.649
      -0.485
      -0.203
       0.052
       0.162
       0.104
      -0.044
      -0.151
      -0.126
       0.028
       0.205
       0.259
       0.092
      -0.288
      -0.770
      -1.190
      -1.412
      -1.379
      -1.139
      -0.804
      -0.482
      -0.224
      -0.010
       0.216
       0.493
       0.808
       1.087
       1.229
       1.176
       0.964
       0.709
       0.529
       0.460
       0.449
       0.412
       0.310
       0.172
       0.059
       0.001
      -0.026
      -0.074
      -0.176
      -0.322
      -0.481
      -0.620
      -0.719
      -0.769
      -0.772
      -0.742
      -0.696
      -0.639
      -0.542
      -0.361
      -0.069
       0.303
       0.668
       0.926
       1.029
       1.010
       0.944
       0.875
       0.774
       0.563
       0.199
      -0.268
      -0.700
      -0.948
      -0.949
      -0.760
      -0.511
      -0.314
      -0.201
      -0.145
      -0.121
      -0.139
      -0.217
      -0.347
      -0.488
      -0.598
      -0.659
      -0.676
      -0.654
      -0.585
      -0.464
      -0.317
      -0.195
      -0.142
      -0.162
      -0.227
      -0.297
      -0.334
      -0.304
      -0.173
       0.070
       0.390
       0.707
       0.940
       1.045
       1.039
       0.982
       0.934
       0.920
       0.919
       0.896
       0.832
       0.734
       0.614
       0.467
       0.286
       0.083
      -0.102
      -0.224
      -0.274
      -0.294
      -0.351
      -0.486
      -0.679
      -0.860
      -0.957
      -0.936
      -0.810
      -0.611
      -0.364
      -0.074
       0.254
       0.592
       0.874
       1.015
       0.968
       0.762
       0.505
       0.318
       0.267
       0.323
       0.378
       0.316
       0.099
      -0.200
      -0.445
      -0.526
      -0.432
      -0.247
      -0.089
      -0.045
      -0.141
      -0.348
      -0.609
      -0.861
      -1.047
      -1.124
      -1.068
      -0.881
      -0.587
      -0.231
       0.130
       0.439
       0.664
       0.802
       0.868
       0.870
       0.819
       0.740
       0.684
       0.689
       0.739
       0.758
       0.665
       0.443
       0.158
      -0.081
      -0.201
      -0.215
      -0.209
      -0.288
      -0.502
      -0.815
      -1.115
      -1.283
      -1.256
      -1.054
      -0.765
      -0.488
      -0.288
      -0.175
      -0.121
      -0.083
      -0.026
       0.058
       0.155
       0.239
       0.301
       0.358
       0.444
       0.573
       0.708
       0.769
       0.688
       0.461
       0.163
      -0.085
      -0.197
      -0.160
      -0.033
       0.107
       0.206
       0.250
       0.243
       0.197
       0.131
       0.078
       0.064
       0.096
       0.150
       0.189
       0.183
       0.128
       0.042
      -0.041
      -0.087
      -0.069
       0.025
       0.186
       0.376
       0.528
       0.563
       0.426
       0.122
      -0.278
      -0.675
      -0.985
      -1.158
      -1.181
      -1.065
      -0.846
      -0.589
      -0.372
      -0.257
      -0.252
      -0.312
      -0.361
      -0.339
      -0.226
      -0.049
       0.143
       0.304
       0.412
       0.478
       0.543
       0.648
       0.808
       0.989
       1.121
       1.132
       0.990
       0.714
       0.358
      -0.004
      -0.300
      -0.471
      -0.495
      -0.406
      -0.290
      -0.233
      -0.261
      -0.325
      -0.351
      -0.311
      -0.245
      -0.227
      -0.299
      -0.424
      -0.510
      -0.468
      -0.273
       0.032
       0.363
       0.646
       0.831
       0.896
       0.832
       0.646
       0.367
       0.059
      -0.202
      -0.356
      -0.394
      -0.352
      -0.284
      -0.232
      -0.216
      -0.238
      -0.300
      -0.410
      -0.572
      -0.773
      -0.968
      -1.082
      -1.046
      -0.842
      -0.530
      -0.217
       0.001
       0.086
       0.082
       0.082
       0.174
       0.391
       0.698
       1.007
       1.220
       1.264
       1.127
       0.874
       0.621
       0.479
       0.484
       0.578
       0.640
       0.571
       0.354
       0.057
      -0.219
      -0.403
      -0.477
      -0.466
      -0.400
      -0.298
      -0.166
      -0.001
       0.181
       0.331
       0.367
       0.218
      -0.118
      -0.541
      -0.889
      -1.003
      -0.806
      -0.336
       0.255
       0.764
       1.004
       0.880
       0.427
      -0.210
      -0.825
      -1.233
      -1.333
      -1.138
      -0.749
      -0.297
       0.111
       0.411
       0.587
       0.653
       0.635
       0.551
       0.416
       0.254
       0.104
      -0.005
      -0.070
      -0.121
      -0.184
      -0.255
      -0.300
      -0.283
      -0.194
      -0.070
       0.027
       0.043
      -0.035
      -0.173
      -0.305
      -0.373
      -0.350
      -0.257
      -0.154
      -0.098
      -0.101
      -0.119
      -0.091
       0.002
       0.113
       0.151
       0.053
      -0.159
      -0.370
      -0.436
      -0.277
       0.073
       0.487
       0.822
       0.989
       0.974
       0.810
       0.547
       0.238
      -0.055
      -0.266
      -0.344
      -0.289
      -0.166
      -0.070
      -0.085
      -0.237
      -0.488
      -0.758
      -0.955
      -1.001
      -0.857
      -0.531
      -0.075
       0.425
       0.873
       1.200
       1.390
       1.487
       1.558
       1.645
       1.733
       1.754
       1.627
       1.312
       0.844
       0.319
      -0.156
      -0.520
      -0.763
      -0.904
      -0.961
      -0.950
      -0.891
      -0.822
      -0.778
      -0.766
      -0.747
      -0.659
      -0.474
      -0.225
       0.003
       0.143
       0.188
       0.179
       0.152
       0.104
       0.011
      -0.123
      -0.231
      -0.222
      -0.062
       0.172
       0.322
       0.253
      -0.056
      -0.496
      -0.891
      -1.097
      -1.049
      -0.777
      -0.373
       0.036
       0.325
       0.407
       0.262
      -0.049
      -0.404
      -0.670
      -0.765
      -0.698
      -0.543
      -0.370
      -0.201
      -0.012
       0.211
       0.439
       0.612
       0.695
       0.709
       0.720
       0.777
       0.880
       0.980
       1.015
       0.949
       0.781
       0.547
       0.297
       0.082
      -0.077
      -0.199
      -0.327
      -0.491
      -0.682
      -0.848
      -0.920
      -0.837
      -0.584
      -0.213
       0.157
       0.397
       0.446
       0.335
       0.155
      -0.024
      -0.185
      -0.339
      -0.488
      -0.609
      -0.682
      -0.709
      -0.686
      -0.587
      -0.368
      -0.026
       0.363
       0.658
       0.732
       0.554
       0.226
      -0.076
      -0.201
      -0.104
       0.149
       0.444
       0.691
       0.867
       0.992
       1.089
       1.138
       1.076
       0.843
       0.439
      -0.044
      -0.456
      -0.671
      -0.660
      -0.494
      -0.289
      -0.143
      -0.103
      -0.167
      -0.307
      -0.483
      -0.646
      -0.739
      -0.709
      -0.532
      -0.232
       0.100
       0.345
       0.417
       0.323
       0.151
      -0.005
      -0.111
      -0.214
      -0.372
      -0.580
      -0.759
      -0.813
      -0.719
      -0.556
      -0.453
      -0.485
      -0.608
      -0.681
      -0.561
      -0.206
       0.294
       0.763
       1.030
       1.015
       0.751
       0.349
      -0.065
      -0.402
      -0.621
      -0.701
      -0.621
      -0.372
       0.010
       0.426
       0.748
       0.879
       0.803
       0.578
       0.301
       0.069
      -0.050
      -0.031
       0.110
       0.325
       0.549
       0.728
       0.844
       0.908
       0.932
       0.899
       0.768
       0.512
       0.158
      -0.218
      -0.529
      -0.722
      -0.792
      -0.777
      -0.725
      -0.679
      -0.647
      -0.610
      -0.530
      -0.384
      -0.188
      -0.002
       0.098
       0.077
      -0.016
      -0.072
       0.008
       0.237
       0.520
       0.708
       0.688
       0.445
       0.063
      -0.322
      -0.587
      -0.666
      -0.559
      -0.309
       0.015
       0.333
       0.566
       0.640
       0.518
       0.225
      -0.151
      -0.482
      -0.649
      -0.580
      -0.280
       0.168
       0.618
       0.912
       0.945
       0.716
       0.329
      -0.063
      -0.342
      -0.476
      -0.501
      -0.471
      -0.416
      -0.343
      -0.259
      -0.187
      -0.169
      -0.229
      -0.362
      -0.532
      -0.697
      -0.813
      -0.839
      -0.731
      -0.469
      -0.078
       0.361
       0.738
       0.948
       0.947
       0.761
       0.480
       0.208
       0.026
      -0.028
       0.035
       0.167
       0.304
       0.393
       0.417
       0.391
       0.349
       0.320
       0.313
       0.305
       0.246
       0.082
      -0.200
      -0.558
      -0.900
      -1.129
      -1.188
      -1.085
      -0.889
      -0.691
      -0.557
      -0.503
      -0.501
      -0.496
      -0.433
      -0.266
       0.017
       0.384
       0.774
       1.120
       1.375
       1.509
       1.510
       1.375
       1.125
       0.812
       0.518
       0.329
       0.295
       0.403
       0.577
       0.705
       0.690
       0.493
       0.152
      -0.229
      -0.541
      -0.719
      -0.766
      -0.737
      -0.695
      -0.676
      -0.685
      -0.704
      -0.716
      -0.716
      -0.716
      -0.734
      -0.770
      -0.802
      -0.793
      -0.712
      -0.542
      -0.281
       0.055
       0.430
       0.793
       1.084
       1.251
       1.265
       1.129
       0.874
       0.547
       0.206
      -0.085
      -0.270
      -0.322
      -0.262
      -0.146
      -0.041
       0.009
      -0.003
      -0.053
      -0.114
      -0.172
      -0.227
      -0.267
      -0.256
      -0.159
       0.019
       0.225
       0.388
       0.461
       0.455
       0.422
       0.412
       0.424
       0.393
       0.234
      -0.087
      -0.498
      -0.850
      -0.993
      -0.861
      -0.509
      -0.079
       0.282
       0.489
       0.544
       0.515
       0.487
       0.525
       0.642
       0.797
       0.919
       0.947
       0.856
       0.670
       0.426
       0.145
      -0.171
      -0.512
      -0.829
      -1.041
      -1.082
      -0.947
      -0.703
      -0.463
      -0.329
      -0.353
      -0.518
      -0.765
      -1.013
      -1.176
      -1.173
      -0.959
      -0.560
      -0.079
       0.342
       0.585
       0.621
       0.520
       0.401
       0.360
       0.411
       0.491
       0.521
       0.463
       0.349
       0.238
       0.156
       0.069
      -0.087
      -0.338
      -0.643
      -0.920
      -1.101
      -1.166
      -1.123
      -0.982
      -0.736
      -0.394
      -0.002
       0.358
       0.622
       0.783
       0.874
       0.923
       0.909
       0.792
       0.569
       0.302
       0.095
       0.028
       0.109
       0.281
       0.458
       0.570
       0.579
       0.478
       0.274
      -0.011
      -0.342
      -0.675
      -0.977
      -1.233
      -1.430
      -1.531
      -1.475
