Origin Time       24/09/2011 14:32:18
Lat.              30.9 N	
Long.             78.3 E	
Depth (Km)         10.0
Magnitude         3.0
 Region           Uttarkashi-Distt.                                                
 Above details taken from IMD 
   
Station Code      BAR
Station Lat.       30.809
Station Long.      78.205
Station Height(m) 1305.0
Site Class        A   Vs30 between 700 m/sec to 1400 m/sec * 
Record Time       24.09.2011 14:31:54.724
Sampling Rate     200. Hz
 Record Duration   80.010 Sec.
 Direction         Vert. (Up positive)
Max. Acceleration     -2.043 cm/sec**2
     
  * For reference see Site Classification link of website 
     
 Base Line Corrected and Low Pass Filtered (Cut Off at 35 Hz) Time History
 Acceleration data in cm/sec**2
    
[...]
      -0.006
      -0.012
      -0.014
      -0.011
      -0.008
      -0.004
       0.001
       0.007
       0.012
       0.015
       0.012
       0.006
      -0.001
      -0.004
      -0.003
       0.001
       0.004
       0.003
       0.001
      -0.002
      -0.005
      -0.004
      -0.001
       0.003
       0.006
       0.004
       0.000
      -0.003
      -0.003
      -0.001
       0.002
       0.004
       0.005
       0.003
       0.002
       0.003
       0.006
       0.009
       0.009
       0.006
       0.003
       0.001
       0.002
       0.006
       0.009
       0.009
       0.006
       0.004
       0.004
       0.008
       0.015
       0.019
       0.017
       0.013
       0.009
       0.006
       0.004
       0.001
      -0.003
      -0.005
      -0.003
       0.000
       0.001
       0.001
       0.001
       0.002
       0.003
       0.005
       0.005
       0.004
       0.003
       0.003
       0.003
       0.005
       0.007
       0.008
       0.008
       0.006
       0.005
       0.007
       0.010
       0.012
       0.012
       0.009
       0.003
      -0.003
      -0.007
      -0.006
       0.000
       0.005
       0.007
       0.003
      -0.002
      -0.006
      -0.006
      -0.004
       0.000
       0.005
       0.010
       0.015
       0.017
       0.013
       0.008
       0.003
       0.002
       0.002
       0.001
      -0.004
      -0.008
      -0.009
      -0.003
       0.007
       0.013
       0.010
       0.001
      -0.007
      -0.009
      -0.005
      -0.003
      -0.003
      -0.006
      -0.006
      -0.002
       0.003
       0.005
       0.004
       0.001
       0.000
       0.000
      -0.001
      -0.003
      -0.002
       0.003
       0.007
       0.007
       0.002
      -0.003
      -0.005
      -0.004
      -0.003
      -0.002
      -0.002
      -0.002
      -0.001
      -0.001
      -0.001
      -0.001
      -0.002
      -0.003
      -0.004
      -0.004
      -0.003
      -0.001
       0.003
       0.009
       0.017
       0.023
       0.023
       0.014
       0.002
      -0.006
      -0.006
      -0.001
       0.003
       0.003
      -0.001
      -0.004
      -0.005
      -0.003
       0.001
       0.004
       0.005
       0.005
       0.002
      -0.001
      -0.003
      -0.003
      -0.001
       0.000
      -0.002
      -0.005
      -0.010
      -0.013
      -0.013
      -0.009
      -0.002
       0.005
       0.010
       0.010
       0.005
      -0.003
      -0.007
      -0.003
       0.005
       0.011
       0.012
       0.007
       0.000
      -0.007
      -0.012
      -0.013
      -0.010
      -0.007
      -0.006
      -0.010
      -0.015
      -0.017
      -0.014
      -0.008
      -0.003
      -0.002
      -0.005
      -0.010
      -0.014
      -0.015
      -0.013
      -0.007
       0.000
       0.004
       0.004
       0.002
       0.002
       0.002
       0.001
       0.000
      -0.002
      -0.002
      -0.004
      -0.007
      -0.009
      -0.007
       0.000
       0.012
       0.022
       0.024
       0.018
       0.009
       0.004
       0.004
       0.005
       0.004
      -0.003
      -0.009
      -0.013
      -0.010
      -0.006
      -0.004
      -0.004
      -0.006
      -0.006
      -0.004
      -0.002
       0.003
       0.008
       0.009
       0.003
      -0.005
      -0.011
      -0.013
      -0.011
      -0.008
      -0.005
       0.000
       0.004
       0.007
       0.004
      -0.003
      -0.011
      -0.014
      -0.012
      -0.007
      -0.003
      -0.002
      -0.001
       0.000
       0.002
       0.002
       0.000
      -0.003
      -0.005
      -0.003
       0.002
       0.004
      -0.001
      -0.011
      -0.021
      -0.023
      -0.019
      -0.011
      -0.005
      -0.002
      -0.004
      -0.006
      -0.009
      -0.010
      -0.011
      -0.011
      -0.010
      -0.007
      -0.003
       0.000
       0.001
      -0.001
      -0.003
      -0.002
       0.005
       0.012
       0.014
       0.007
      -0.004
      -0.014
      -0.017
      -0.014
      -0.009
      -0.004
      -0.003
      -0.005
      -0.007
      -0.009
      -0.007
      -0.003
      -0.001
      -0.002
      -0.007
      -0.012
      -0.012
      -0.010
      -0.009
      -0.013
      -0.022
      -0.030
      -0.031
      -0.022
      -0.007
       0.002
       0.001
      -0.007
      -0.012
      -0.008
       0.002
       0.006
       0.000
      -0.010
      -0.014
      -0.009
      -0.001
       0.003
      -0.003
      -0.016
      -0.028
      -0.032
      -0.028
      -0.020
      -0.014
      -0.014
      -0.018
      -0.022
      -0.021
      -0.014
      -0.008
      -0.007
      -0.010
      -0.014
      -0.013
      -0.008
      -0.003
      -0.001
      -0.005
      -0.011
      -0.017
      -0.019
      -0.018
      -0.015
      -0.012
      -0.008
      -0.004
       0.001
       0.004
       0.004
       0.001
      -0.003
      -0.005
      -0.004
      -0.001
      -0.002
      -0.008
      -0.014
      -0.014
      -0.010
      -0.004
      -0.002
      -0.006
      -0.012
      -0.017
      -0.018
      -0.017
      -0.016
      -0.017
      -0.017
      -0.014
      -0.010
      -0.007
      -0.006
      -0.008
      -0.011
      -0.014
      -0.017
      -0.016
      -0.011
      -0.002
       0.004
       0.006
       0.003
       0.000
       0.000
       0.002
       0.002
      -0.001
      -0.005
      -0.004
      -0.001
       0.004
       0.008
       0.007
       0.002
      -0.008
      -0.017
      -0.022
      -0.019
      -0.011
      -0.005
      -0.003
      -0.007
      -0.011
      -0.011
      -0.006
       0.000
       0.001
      -0.003
      -0.007
      -0.008
      -0.005
      -0.001
       0.000
      -0.003
      -0.008
      -0.010
      -0.009
      -0.006
      -0.002
       0.002
       0.005
       0.007
       0.006
       0.003
       0.002
       0.003
       0.005
       0.005
       0.004
      -0.001
      -0.008
      -0.016
      -0.019
      -0.018
      -0.014
      -0.009
      -0.004
      -0.001
       0.000
      -0.002
      -0.004
      -0.004
      -0.002
       0.001
       0.001
       0.000
      -0.002
      -0.002
      -0.001
       0.000
      -0.002
      -0.005
      -0.007
      -0.004
       0.001
       0.004
       0.005
       0.003
       0.001
      -0.001
      -0.002
      -0.003
      -0.005
      -0.008
      -0.009
      -0.007
      -0.005
      -0.004
      -0.005
      -0.008
      -0.008
      -0.004
       0.001
       0.004
       0.004
       0.007
       0.019
       0.046
       0.087
       0.139
       0.197
       0.251
       0.287
       0.291
       0.249
       0.157
       0.032
      -0.085
      -0.138
      -0.101
      -0.017
       0.008
      -0.111
      -0.347
      -0.544
      -0.523
      -0.239
       0.144
       0.347
       0.184
      -0.264
      -0.682
      -0.745
      -0.381
       0.144
       0.420
       0.223
      -0.283
      -0.658
      -0.554
      -0.017
       0.553
       0.736
       0.450
      -0.007
      -0.233
      -0.082
       0.231
       0.363
       0.177
      -0.148
      -0.305
      -0.162
       0.135
       0.332
       0.322
       0.226
       0.223
       0.332
       0.394
       0.265
      -0.002
      -0.191
      -0.141
       0.080
       0.224
       0.105
      -0.213
      -0.458
      -0.391
      -0.021
       0.381
       0.493
       0.197
      -0.322
      -0.713
      -0.736
      -0.450
      -0.144
      -0.079
      -0.253
      -0.405
      -0.261
       0.196
       0.660
       0.730
       0.257
      -0.487
      -0.975
      -0.821
      -0.102
       0.670
       0.928
       0.491
      -0.289
      -0.811
      -0.688
      -0.035
       0.652
       0.903
       0.631
       0.159
      -0.087
       0.040
       0.299
       0.319
      -0.027
      -0.486
      -0.667
      -0.417
       0.050
       0.394
       0.464
       0.364
       0.241
       0.102
      -0.116
      -0.341
      -0.333
       0.050
       0.593
       0.832
       0.482
      -0.227
      -0.722
      -0.632
      -0.149
       0.191
       0.085
      -0.241
      -0.330
      -0.038
       0.297
       0.262
      -0.149
      -0.527
      -0.526
      -0.242
      -0.049
      -0.128
      -0.268
      -0.180
       0.091
       0.204
      -0.025
      -0.328
      -0.259
       0.246
       0.712
       0.604
      -0.062
      -0.678
      -0.660
      -0.068
       0.453
       0.365
      -0.203
      -0.599
      -0.333
       0.419
       1.006
       0.947
       0.358
      -0.213
      -0.338
      -0.057
       0.259
       0.313
       0.108
      -0.151
      -0.272
      -0.204
      -0.015
       0.167
       0.207
       0.043
      -0.238
      -0.434
      -0.390
      -0.159
       0.033
       0.006
      -0.201
      -0.385
      -0.389
      -0.230
      -0.024
       0.156
       0.314
       0.458
       0.553
       0.563
       0.493
       0.360
       0.150
      -0.151
      -0.455
      -0.574
      -0.385
      -0.003
       0.260
       0.172
      -0.189
      -0.505
      -0.516
      -0.258
       0.003
       0.061
      -0.040
      -0.084
       0.080
       0.386
       0.615
       0.568
       0.212
      -0.278
      -0.605
      -0.536
      -0.091
       0.415
       0.590
       0.306
      -0.149
      -0.321
      -0.040
       0.390
       0.491
       0.113
      -0.390
      -0.511
      -0.100
       0.497
       0.804
       0.678
       0.360
       0.120
      -0.062
      -0.384
      -0.855
      -1.156
      -0.960
      -0.353
       0.148
       0.070
      -0.530
      -1.086
      -1.033
      -0.295
       0.692
       1.361
       1.415
       0.931
       0.230
      -0.334
      -0.536
      -0.377
      -0.075
       0.100
       0.041
      -0.116
      -0.151
      -0.003
       0.174
       0.193
       0.061
      -0.020
       0.123
       0.418
       0.590
       0.425
      -0.002
      -0.386
      -0.451
      -0.195
       0.128
       0.243
       0.111
      -0.045
       0.030
       0.360
       0.699
       0.743
       0.384
      -0.210
      -0.730
      -0.942
      -0.810
      -0.486
      -0.210
      -0.162
      -0.352
      -0.584
      -0.597
      -0.288
       0.170
       0.468
       0.448
       0.258
       0.182
       0.311
       0.424
       0.222
      -0.301
      -0.781
      -0.818
      -0.378
       0.163
       0.416
       0.356
       0.285
       0.429
       0.653
       0.649
       0.352
       0.060
       0.075
       0.303
       0.336
      -0.032
      -0.473
      -0.450
       0.131
       0.698
       0.570
      -0.272
      -1.090
      -1.116
      -0.350
       0.444
       0.523
      -0.104
      -0.738
      -0.741
      -0.163
       0.387
       0.410
      -0.003
      -0.346
      -0.263
       0.123
       0.412
       0.368
       0.091
      -0.171
      -0.281
      -0.253
      -0.124
       0.076
       0.238
       0.164
      -0.216
      -0.638
      -0.657
      -0.098
       0.656
       0.939
       0.437
      -0.456
      -0.955
      -0.606
       0.306
       1.048
       1.119
       0.637
       0.121
      -0.042
       0.115
       0.296
       0.275
       0.046
      -0.266
      -0.539
      -0.690
      -0.664
      -0.465
      -0.204
      -0.054
      -0.108
      -0.301
      -0.475
      -0.499
      -0.324
       0.026
       0.447
       0.746
       0.717
       0.331
      -0.135
      -0.269
       0.098
       0.651
       0.817
       0.311
      -0.534
      -1.036
      -0.798
      -0.077
       0.503
       0.577
       0.323
       0.141
       0.163
       0.189
       0.055
      -0.095
       0.003
       0.312
       0.447
       0.111
      -0.484
      -0.770
      -0.430
       0.219
       0.531
       0.205
      -0.431
      -0.812
      -0.712
      -0.365
      -0.093
       0.049
       0.204
       0.403
       0.488
       0.367
       0.222
       0.328
       0.663
       0.831
       0.482
      -0.239
      -0.770
      -0.694
      -0.168
       0.264
       0.245
      -0.065
      -0.252
      -0.145
       0.037
       0.012
      -0.206
      -0.344
      -0.236
      -0.038
      -0.017
      -0.211
      -0.383
      -0.329
      -0.152
      -0.128
      -0.339
      -0.540
      -0.452
      -0.123
       0.095
      -0.032
      -0.304
      -0.277
       0.238
       0.923
       1.255
       1.031
       0.537
       0.188
       0.092
       0.023
      -0.211
      -0.479
      -0.490
      -0.177
       0.158
       0.147
      -0.253
      -0.705
      -0.829
      -0.535
      -0.037
       0.391
       0.614
       0.650
       0.582
       0.524
       0.606
       0.872
       1.177
       1.238
       0.879
       0.228
      -0.389
      -0.767
      -1.002
      -1.315
      -1.732
      -2.019
      -1.940
      -1.526
      -1.008
      -0.532
      -0.028
       0.571
       1.080
       1.159
       0.728
       0.183
       0.067
       0.487
       0.947
       0.840
       0.115
      -0.643
      -0.805
      -0.344
       0.186
       0.283
       0.001
      -0.188
       0.038
       0.538
       0.945
       1.074
       1.006
       0.855
       0.616
       0.306
       0.124
       0.311
       0.810
       1.170
       0.896
      -0.066
      -1.231
      -1.976
      -2.043
      -1.674
      -1.298
      -1.134
      -1.081
      -0.925
      -0.596
      -0.227
      -0.001
       0.033
      -0.024
      -0.043
       0.027
       0.175
       0.394
       0.688
       1.011
       1.255
       1.322
       1.211
       1.003
       0.775
       0.556
       0.371
       0.280
       0.325
       0.421
       0.364
       0.010
      -0.533
      -0.931
      -0.912
      -0.553
      -0.241
      -0.292
      -0.605
      -0.745
      -0.419
       0.168
       0.480
       0.201
      -0.418
      -0.805
      -0.632
      -0.109
       0.297
       0.368
       0.295
       0.355
       0.535
       0.560
       0.252
      -0.219
      -0.524
      -0.546
      -0.479
      -0.538
      -0.652
      -0.523
      -0.007
       0.653
       1.023
       0.916
       0.567
       0.366
       0.455
       0.609
       0.509
       0.079
      -0.447
      -0.773
      -0.802
      -0.676
      -0.598
      -0.645
      -0.730
      -0.703
      -0.474
      -0.068
       0.370
       0.630
       0.569
       0.249
      -0.054
      -0.049
       0.297
       0.689
       0.755
       0.383
      -0.174
      -0.553
      -0.610
      -0.503
      -0.464
      -0.549
      -0.623
      -0.552
      -0.370
      -0.224
      -0.206
      -0.236
      -0.140
       0.181
       0.628
       0.962
       0.972
       0.658
       0.245
       0.012
       0.048
       0.172
       0.116
      -0.177
      -0.464
      -0.442
      -0.072
       0.360
       0.540
       0.446
       0.348
       0.482
       0.780
       0.955
       0.839
       0.553
       0.325
       0.197
      -0.010
      -0.410
      -0.844
      -1.019
      -0.864
      -0.662
      -0.749
      -1.119
      -1.377
      -1.155
      -0.519
       0.079
       0.266
       0.118
       0.031
       0.263
       0.662
       0.873
       0.752
       0.525
       0.510
       0.754
       0.991
       0.945
       0.631
       0.323
       0.245
       0.347
       0.382
       0.187
      -0.161
      -0.448
      -0.545
      -0.498
      -0.436
      -0.424
      -0.442
      -0.452
      -0.454
      -0.450
      -0.404
      -0.274
      -0.094
       0.008
      -0.083
      -0.326
      -0.531
      -0.522
      -0.305
      -0.071
      -0.024
      -0.194
      -0.436
      -0.578
      -0.582
      -0.560
      -0.634
      -0.794
      -0.876
      -0.689
      -0.176
       0.514
       1.099
       1.352
       1.255
       1.026
       0.949
       1.137
       1.404
       1.411
       0.967
       0.245
      -0.332
      -0.454
      -0.203
       0.033
      -0.052
      -0.374
      -0.542
      -0.265
       0.313
       0.715
       0.575
       0.000
      -0.531
      -0.625
      -0.338
      -0.092
      -0.229
      -0.658
      -0.972
      -0.885
      -0.524
      -0.265
      -0.302
      -0.440
      -0.335
       0.093
       0.553
       0.693
       0.474
       0.173
       0.055
       0.112
       0.166
       0.150
       0.188
       0.376
       0.582
       0.565
       0.275
      -0.043
      -0.116
       0.036
       0.114
      -0.092
      -0.438
      -0.560
      -0.297
       0.111
       0.279
       0.097
      -0.148
      -0.116
       0.197
       0.458
       0.389
       0.092
      -0.073
       0.092
       0.400
       0.494
       0.251
      -0.094
      -0.234
      -0.127
      -0.022
      -0.143
      -0.433
      -0.622
      -0.544
      -0.313
      -0.192
      -0.309
      -0.542
      -0.667
      -0.588
      -0.394
      -0.212
      -0.062
       0.116
       0.306
       0.360
       0.156
      -0.219
      -0.475
      -0.383
      -0.014
       0.315
       0.349
       0.141
      -0.035
       0.012
       0.201
       0.294
       0.180
      -0.007
      -0.048
       0.115
       0.318
       0.357
       0.204
       0.016
      -0.042
       0.049
       0.184
       0.272
       0.314
       0.342
       0.334
       0.227
       0.020
      -0.179
      -0.229
      -0.084
       0.164
       0.363
       0.413
       0.320
       0.171
       0.061
       0.034
       0.046
       0.006
      -0.137
      -0.318
      -0.402
      -0.308
      -0.102
       0.043
       0.001
      -0.196
      -0.391
      -0.440
      -0.331
      -0.183
      -0.141
      -0.263
      -0.476
      -0.621
      -0.553
      -0.263
       0.091
       0.293
       0.251
       0.102
       0.087
       0.304
       0.584
       0.650
       0.411
       0.068
      -0.078
       0.076
       0.351
       0.488
       0.405
       0.249
       0.201
       0.290
       0.382
       0.360
       0.241
       0.126
       0.056
      -0.033
      -0.204
      -0.403
      -0.485
      -0.382
      -0.191
      -0.086
      -0.152
      -0.316
      -0.435
      -0.422
      -0.290
      -0.106
       0.058
       0.137
       0.091
      -0.050
      -0.171
      -0.153
       0.013
       0.200
       0.256
       0.139
      -0.050
      -0.175
      -0.179
      -0.110
      -0.046
      -0.025
      -0.042
      -0.075
      -0.104
      -0.112
      -0.103
      -0.113
      -0.175
      -0.255
      -0.239
      -0.028
       0.313
       0.557
       0.505
       0.202
      -0.067
      -0.059
       0.176
       0.342
       0.220
      -0.084
      -0.258
      -0.131
       0.139
       0.249
       0.092
      -0.134
      -0.176
      -0.011
       0.150
       0.131
       0.002
      -0.037
       0.077
       0.173
       0.055
      -0.231
      -0.412
      -0.281
       0.072
       0.356
       0.389
       0.255
       0.145
       0.110
       0.036
      -0.148
      -0.316
      -0.277
      -0.030
       0.189
       0.153
      -0.092
      -0.272
