Origin Time       17/9/2010 19:21:09	
Lat.              36.5 N	
Long.             70.8 E	
Depth (Km)        167.0
Magnitude         6.5
 Region           Hindukush                                                        
 Above details taken from IMD 
   
Station Code      BAR
Station Lat.       30.809
Station Long.      78.205
Station Height(m) 1305.0
Site Class        A   Vs30 between 700 m/sec to 1400 m/sec * 
Record Time       17.09.2010 19:24:14.449
Sampling Rate     200. Hz
 Record Duration   88.725 Sec.
 Direction         Vert. (Up positive)
Max. Acceleration      0.985 cm/sec**2
     
  * For reference see Site Classification link of website 
     
 Base Line Corrected and Low Pass Filtered (Cut Off at 35 Hz) Time History
 Acceleration data in cm/sec**2
    
[...]
       0.020
       0.043
       0.057
       0.068
       0.087
       0.102
       0.099
       0.091
       0.097
       0.109
       0.116
       0.124
       0.138
       0.144
       0.132
       0.119
       0.122
       0.127
       0.118
       0.105
       0.102
       0.100
       0.088
       0.081
       0.088
       0.092
       0.073
       0.040
       0.005
      -0.034
      -0.082
      -0.126
      -0.161
      -0.200
      -0.251
      -0.296
      -0.318
      -0.326
      -0.329
      -0.312
      -0.271
      -0.228
      -0.204
      -0.188
      -0.167
      -0.147
      -0.136
      -0.123
      -0.100
      -0.082
      -0.079
      -0.075
      -0.060
      -0.043
      -0.032
      -0.016
       0.011
       0.036
       0.047
       0.060
       0.086
       0.112
       0.129
       0.149
       0.177
       0.196
       0.196
       0.193
       0.199
       0.200
       0.186
       0.171
       0.165
       0.157
       0.141
       0.128
       0.124
       0.112
       0.086
       0.064
       0.057
       0.048
       0.027
       0.008
      -0.004
      -0.024
      -0.058
      -0.085
      -0.089
      -0.079
      -0.065
      -0.044
      -0.021
      -0.015
      -0.023
      -0.024
      -0.007
       0.007
       0.004
      -0.003
      -0.010
      -0.028
      -0.055
      -0.070
      -0.064
      -0.055
      -0.052
      -0.046
      -0.038
      -0.042
      -0.057
      -0.060
      -0.042
      -0.022
      -0.012
       0.001
       0.027
       0.052
       0.068
       0.080
       0.084
       0.066
       0.032
       0.010
       0.007
      -0.001
      -0.027
      -0.054
      -0.075
      -0.096
      -0.114
      -0.116
      -0.102
      -0.091
      -0.090
      -0.081
      -0.062
      -0.050
      -0.046
      -0.038
      -0.027
      -0.028
      -0.039
      -0.035
      -0.013
       0.004
       0.002
      -0.006
      -0.013
      -0.028
      -0.046
      -0.050
      -0.045
      -0.049
      -0.060
      -0.053
      -0.022
       0.015
       0.048
       0.082
       0.113
       0.123
       0.119
       0.122
       0.134
       0.139
       0.132
       0.126
       0.116
       0.084
       0.034
      -0.012
      -0.045
      -0.078
      -0.108
      -0.119
      -0.110
      -0.097
      -0.081
      -0.045
       0.005
       0.051
       0.092
       0.139
       0.185
       0.207
       0.206
       0.203
       0.202
       0.184
       0.150
       0.114
       0.079
       0.034
      -0.012
      -0.046
      -0.076
      -0.123
      -0.181
      -0.228
      -0.260
      -0.293
      -0.326
      -0.343
      -0.343
      -0.336
      -0.316
      -0.270
      -0.211
      -0.160
      -0.115
      -0.064
      -0.011
       0.028
       0.060
       0.100
       0.138
       0.147
       0.129
       0.107
       0.092
       0.079
       0.076
       0.089
       0.104
       0.104
       0.100
       0.118
       0.155
       0.191
       0.220
       0.247
       0.260
       0.245
       0.217
       0.197
       0.182
       0.155
       0.120
       0.091
       0.063
       0.027
      -0.009
      -0.027
      -0.037
      -0.056
      -0.080
      -0.089
      -0.085
      -0.079
      -0.069
      -0.047
      -0.028
      -0.026
      -0.025
      -0.003
       0.034
       0.062
       0.083
       0.104
       0.117
       0.109
       0.089
       0.074
       0.056
       0.025
      -0.008
      -0.026
      -0.041
      -0.065
      -0.088
      -0.092
      -0.088
      -0.093
      -0.101
      -0.097
      -0.084
      -0.073
      -0.055
      -0.023
       0.008
       0.028
       0.050
       0.087
       0.121
       0.133
       0.132
       0.136
       0.141
       0.138
       0.132
       0.133
       0.127
       0.105
       0.080
       0.066
       0.051
       0.029
       0.014
       0.020
       0.026
       0.013
      -0.013
      -0.032
      -0.048
      -0.072
      -0.094
      -0.102
      -0.107
      -0.122
      -0.142
      -0.163
      -0.196
      -0.244
      -0.287
      -0.311
      -0.326
      -0.344
      -0.351
      -0.337
      -0.316
      -0.299
      -0.272
      -0.225
      -0.175
      -0.145
      -0.127
      -0.110
      -0.100
      -0.098
      -0.090
      -0.069
      -0.050
      -0.044
      -0.034
      -0.003
       0.035
       0.067
       0.100
       0.141
       0.174
       0.191
       0.203
       0.219
       0.227
       0.217
       0.205
       0.198
       0.181
       0.145
       0.105
       0.069
       0.026
      -0.032
      -0.086
      -0.124
      -0.156
      -0.191
      -0.215
      -0.221
      -0.223
      -0.233
      -0.237
      -0.231
      -0.225
      -0.226
      -0.216
      -0.185
      -0.149
      -0.116
      -0.076
      -0.029
       0.003
       0.014
       0.022
       0.039
       0.054
       0.063
       0.074
       0.089
       0.087
       0.066
       0.053
       0.060
       0.077
       0.093
       0.119
       0.154
       0.181
       0.197
       0.218
       0.246
       0.260
       0.252
       0.238
       0.228
       0.207
       0.173
       0.140
       0.118
       0.092
       0.059
       0.027
      -0.001
      -0.042
      -0.094
      -0.136
      -0.162
      -0.189
      -0.222
      -0.241
      -0.241
      -0.240
      -0.243
      -0.231
      -0.192
      -0.144
      -0.098
      -0.052
      -0.011
       0.010
       0.021
       0.041
       0.074
       0.096
       0.100
       0.101
       0.100
       0.085
       0.062
       0.059
       0.081
       0.101
       0.105
       0.101
       0.096
       0.085
       0.074
       0.077
       0.088
       0.088
       0.076
       0.074
       0.088
       0.104
       0.117
       0.138
       0.159
       0.164
       0.161
       0.175
       0.210
       0.244
       0.270
       0.294
       0.314
       0.312
       0.292
       0.277
       0.269
       0.248
       0.210
       0.168
       0.129
       0.086
       0.047
       0.021
      -0.004
      -0.046
      -0.094
      -0.115
      -0.108
      -0.095
      -0.086
      -0.072
      -0.054
      -0.044
      -0.037
      -0.020
      -0.001
      -0.001
      -0.018
      -0.033
      -0.040
      -0.050
      -0.062
      -0.067
      -0.074
      -0.101
      -0.140
      -0.167
      -0.181
      -0.199
      -0.221
      -0.235
      -0.245
      -0.260
      -0.266
      -0.242
      -0.197
      -0.156
      -0.127
      -0.101
      -0.080
      -0.072
      -0.067
      -0.054
      -0.050
      -0.074
      -0.115
      -0.146
      -0.165
      -0.184
      -0.199
      -0.196
      -0.184
      -0.179
      -0.177
      -0.161
      -0.133
      -0.111
      -0.094
      -0.076
      -0.066
      -0.077
      -0.097
      -0.103
      -0.098
      -0.092
      -0.081
      -0.053
      -0.020
       0.000
       0.014
       0.043
       0.082
       0.119
       0.161
       0.215
       0.270
       0.307
       0.332
       0.362
       0.392
       0.408
       0.417
       0.429
       0.432
       0.412
       0.384
       0.367
       0.352
       0.321
       0.280
       0.243
       0.207
       0.162
       0.121
       0.094
       0.075
       0.049
       0.030
       0.033
       0.046
       0.054
       0.065
       0.088
       0.115
       0.133
       0.154
       0.189
       0.227
       0.254
       0.276
       0.305
       0.328
       0.329
       0.317
       0.304
       0.278
       0.223
       0.151
       0.076
      -0.006
      -0.104
      -0.205
      -0.294
      -0.379
      -0.466
      -0.535
      -0.568
      -0.577
      -0.579
      -0.570
      -0.542
      -0.509
      -0.479
      -0.438
      -0.377
      -0.315
      -0.270
      -0.236
      -0.202
      -0.178
      -0.173
      -0.171
      -0.162
      -0.156
      -0.160
      -0.160
      -0.148
      -0.142
      -0.156
      -0.178
      -0.196
      -0.215
      -0.238
      -0.246
      -0.229
      -0.206
      -0.191
      -0.174
      -0.141
      -0.106
      -0.075
      -0.037
       0.020
       0.082
       0.138
       0.195
       0.254
       0.297
       0.314
       0.322
       0.333
       0.334
       0.318
       0.297
       0.278
       0.247
       0.203
       0.169
       0.157
       0.153
       0.143
       0.136
       0.140
       0.144
       0.142
       0.148
       0.163
       0.165
       0.144
       0.119
       0.106
       0.096
       0.081
       0.072
       0.068
       0.048
       0.008
      -0.034
      -0.061
      -0.085
      -0.113
      -0.136
      -0.152
      -0.174
      -0.204
      -0.224
      -0.230
      -0.245
      -0.276
      -0.304
      -0.315
      -0.320
      -0.329
      -0.334
      -0.334
      -0.343
      -0.359
      -0.360
      -0.338
      -0.312
      -0.289
      -0.260
      -0.218
      -0.180
      -0.152
      -0.119
      -0.080
      -0.053
      -0.039
      -0.017
       0.020
       0.057
       0.089
       0.127
       0.173
       0.207
       0.224
       0.242
       0.263
       0.270
       0.257
       0.239
       0.217
       0.178
       0.123
       0.072
       0.034
      -0.006
      -0.048
      -0.077
      -0.091
      -0.104
      -0.114
      -0.103
      -0.069
      -0.028
       0.017
       0.078
       0.151
       0.212
       0.254
       0.287
       0.312
       0.317
       0.304
       0.290
       0.272
       0.229
       0.163
       0.098
       0.043
      -0.014
      -0.074
      -0.126
      -0.171
      -0.223
      -0.275
      -0.308
      -0.324
      -0.344
      -0.368
      -0.381
      -0.378
      -0.377
      -0.381
      -0.376
      -0.360
      -0.347
      -0.332
      -0.302
      -0.262
      -0.226
      -0.194
      -0.151
      -0.101
      -0.067
      -0.051
      -0.036
      -0.026
      -0.035
      -0.058
      -0.080
      -0.108
      -0.159
      -0.227
      -0.289
      -0.337
      -0.383
      -0.425
      -0.450
      -0.464
      -0.486
      -0.509
      -0.514
      -0.496
      -0.471
      -0.434
      -0.375
      -0.300
      -0.221
      -0.129
      -0.007
       0.137
       0.275
       0.402
       0.528
       0.647
       0.743
       0.816
       0.876
       0.918
       0.929
       0.920
       0.910
       0.892
       0.848
       0.783
       0.714
       0.638
       0.546
       0.448
       0.365
       0.293
       0.218
       0.142
       0.083
       0.038
      -0.005
      -0.036
      -0.043
      -0.034
      -0.026
      -0.015
       0.008
       0.026
       0.017
      -0.015
      -0.050
      -0.091
      -0.147
      -0.203
      -0.236
      -0.251
      -0.266
      -0.279
      -0.283
      -0.284
      -0.290
      -0.291
      -0.278
      -0.270
      -0.290
      -0.326
      -0.355
      -0.378
      -0.412
      -0.453
      -0.492
      -0.532
      -0.577
      -0.608
      -0.611
      -0.599
      -0.596
      -0.595
      -0.579
      -0.548
      -0.503
      -0.431
      -0.322
      -0.199
      -0.090
       0.004
       0.092
       0.166
       0.212
       0.241
       0.265
       0.272
       0.246
       0.197
       0.139
       0.068
      -0.017
      -0.094
      -0.144
      -0.178
      -0.209
      -0.229
      -0.223
      -0.203
      -0.183
      -0.152
      -0.097
      -0.032
       0.031
       0.102
       0.192
       0.286
       0.366
       0.436
       0.502
       0.557
       0.595
       0.631
       0.668
       0.683
       0.659
       0.609
       0.547
       0.462
       0.353
       0.249
       0.175
       0.121
       0.064
       0.001
      -0.058
      -0.112
      -0.152
      -0.153
      -0.112
      -0.059
      -0.016
       0.024
       0.073
       0.120
       0.155
       0.189
       0.231
       0.264
       0.265
       0.231
       0.169
       0.081
      -0.018
      -0.101
      -0.167
      -0.241
      -0.328
      -0.396
      -0.430
      -0.449
      -0.472
      -0.486
      -0.476
      -0.450
      -0.418
      -0.363
      -0.273
      -0.168
      -0.075
      -0.001
       0.058
       0.099
       0.124
       0.151
       0.184
       0.203
       0.198
       0.177
       0.143
       0.088
       0.021
      -0.025
      -0.032
      -0.021
      -0.015
      -0.019
      -0.034
      -0.062
      -0.086
      -0.078
      -0.035
       0.015
       0.054
       0.090
       0.122
       0.138
       0.142
       0.160
       0.195
       0.221
       0.227
       0.220
       0.195
       0.129
       0.031
      -0.054
      -0.099
      -0.132
      -0.183
      -0.240
      -0.276
      -0.281
      -0.264
      -0.231
      -0.190
      -0.153
      -0.116
      -0.072
      -0.027
      -0.001
      -0.001
      -0.019
      -0.062
      -0.136
      -0.217
      -0.263
      -0.270
      -0.272
      -0.292
      -0.322
      -0.348
      -0.364
      -0.358
      -0.310
      -0.236
      -0.173
      -0.137
      -0.107
      -0.069
      -0.028
       0.023
       0.096
       0.177
       0.233
       0.259
       0.283
       0.324
       0.367
       0.399
       0.421
       0.431
       0.420
       0.395
       0.373
       0.351
       0.319
       0.286
       0.280
       0.311
       0.371
       0.458
       0.574
       0.696
       0.794
       0.866
       0.930
       0.977
       0.985
       0.951
       0.899
       0.830
       0.726
       0.588
       0.445
       0.320
       0.214
       0.129
       0.070
       0.023
      -0.033
      -0.092
      -0.133
      -0.151
      -0.159
      -0.156
      -0.132
      -0.099
      -0.079
      -0.073
      -0.062
      -0.046
      -0.037
      -0.030
      -0.010
       0.015
       0.021
       0.008
      -0.010
      -0.032
      -0.068
      -0.105
      -0.125
      -0.130
      -0.141
      -0.159
      -0.175
      -0.203
      -0.260
      -0.340
      -0.413
      -0.471
      -0.522
      -0.569
      -0.605
      -0.640
      -0.684
      -0.716
      -0.708
      -0.663
      -0.604
      -0.541
      -0.467
      -0.391
      -0.326
      -0.266
      -0.200
      -0.130
      -0.067
      -0.003
       0.074
       0.142
       0.178
       0.187
       0.192
       0.194
       0.179
       0.152
       0.126
       0.093
       0.038
      -0.030
      -0.090
      -0.139
      -0.184
      -0.213
      -0.212
      -0.195
      -0.183
      -0.172
      -0.142
      -0.095
      -0.037
       0.038
       0.135
       0.237
       0.320
       0.387
       0.450
       0.504
       0.539
       0.571
       0.615
       0.655
       0.670
       0.664
       0.655
       0.637
       0.605
       0.571
       0.543
       0.506
       0.442
       0.365
       0.297
       0.236
       0.171
       0.110
       0.064
       0.021
      -0.031
      -0.085
      -0.132
      -0.182
      -0.247
      -0.308
      -0.343
      -0.357
      -0.360
      -0.347
      -0.309
      -0.257
      -0.204
      -0.137
      -0.042
       0.065
       0.168
       0.263
       0.352
       0.414
       0.440
       0.451
       0.466
       0.472
       0.446
       0.391
       0.312
       0.203
       0.065
      -0.078
      -0.207
      -0.328
      -0.450
      -0.559
      -0.642
      -0.710
      -0.769
      -0.804
      -0.804
      -0.786
      -0.769
      -0.743
      -0.702
      -0.658
      -0.625
      -0.589
      -0.543
      -0.497
      -0.458
      -0.412
      -0.346
      -0.277
      -0.216
      -0.149
      -0.064
       0.026
       0.113
       0.205
       0.303
       0.386
       0.441
       0.484
       0.528
       0.560
       0.570
       0.561
       0.536
       0.479
       0.390
       0.297
       0.216
       0.139
       0.055
      -0.022
      -0.083
      -0.142
      -0.204
      -0.254
      -0.285
      -0.316
      -0.355
      -0.385
      -0.394
      -0.398
      -0.408
      -0.419
      -0.427
      -0.443
      -0.464
      -0.465
      -0.438
      -0.399
      -0.362
      -0.320
      -0.271
      -0.230
      -0.195
      -0.140
      -0.057
       0.032
       0.106
       0.174
       0.247
       0.320
       0.396
       0.489
       0.591
       0.678
       0.741
       0.801
       0.863
       0.906
       0.915
       0.894
       0.848
       0.767
       0.655
       0.540
       0.431
       0.315
       0.192
       0.082
      -0.003
      -0.076
      -0.140
      -0.180
      -0.197
      -0.205
      -0.205
      -0.179
      -0.125
      -0.070
      -0.029
       0.002
       0.023
       0.020
      -0.003
      -0.031
      -0.066
      -0.124
      -0.201
      -0.274
      -0.337
      -0.404
      -0.472
      -0.514
      -0.519
      -0.505
      -0.483
      -0.443
      -0.384
      -0.319
      -0.248
      -0.165
      -0.082
      -0.027
      -0.010
      -0.014
      -0.028
      -0.059
      -0.097
      -0.124
      -0.141
      -0.169
      -0.204
      -0.221
      -0.213
      -0.194
      -0.169
      -0.131
      -0.085
      -0.048
      -0.015
       0.027
       0.074
       0.103
       0.111
       0.117
       0.125
       0.122
       0.112
       0.112
       0.126
       0.138
       0.150
       0.172
       0.196
       0.200
       0.186
       0.175
       0.172
       0.163
       0.153
       0.161
       0.183
       0.200
       0.206
       0.210
       0.205
       0.181
       0.151
       0.142
       0.157
       0.177
       0.198
       0.230
       0.262
       0.275
       0.272
       0.271
       0.268
       0.244
       0.198
       0.146
       0.091
       0.025
      -0.041
      -0.089
      -0.125
      -0.167
      -0.210
      -0.237
      -0.248
      -0.258
      -0.261
      -0.247
      -0.231
      -0.231
      -0.240
      -0.236
      -0.219
      -0.207
      -0.196
      -0.171
      -0.138
      -0.107
      -0.069
      -0.006
       0.075
       0.153
       0.224
       0.297
       0.366
       0.419
       0.468
       0.522
       0.563
       0.567
       0.535
       0.484
       0.410
       0.302
       0.174
       0.047
      -0.077
      -0.206
      -0.330
      -0.435
      -0.529
      -0.619
      -0.683
      -0.697
      -0.667
      -0.616
      -0.551
      -0.467
      -0.370
      -0.275
      -0.175
      -0.061
       0.050
       0.143
       0.228
       0.322
       0.419
       0.502
       0.575
       0.644
       0.694
       0.710
       0.702
       0.689
       0.660
       0.599
       0.516
       0.426
       0.324
       0.196
       0.054
      -0.087
      -0.227
      -0.367
      -0.487
      -0.571
      -0.631
      -0.683
      -0.722
      -0.734
      -0.729
      -0.720
      -0.696
      -0.647
      -0.583
      -0.518
      -0.444
      -0.354
      -0.262
      -0.183
      -0.106
      -0.022
       0.050
       0.092
       0.108
       0.105
       0.078
       0.029
      -0.015
      -0.034
      -0.039
      -0.046
      -0.043
      -0.010
       0.047
       0.121
       0.216
       0.334
       0.452
       0.553
       0.641
       0.719
       0.764
       0.761
