Origin Time       04/04/2011 11:31:40
Lat.              29.6 N	
Long.             80.8 E	
Depth (Km)         10.0
Magnitude         5.7
 Region           NEPAL-INDIA-BORDER-REGION                                        
 Above details taken from IMD 
     
Station Code      BAR
Station Lat.       30.809  N
Station Long.      78.205  E
Station Height(m) 1305.0
Site Class        A   Vs30 between 700 m/sec to 1400 m/sec * 
Record Time       04.04.2011 11:32:25.894
Sampling Rate     200. Hz
 Record Duration  104.270 Sec.
 Direction         E-W (E positive)
Max. Acceleration     -7.816 cm/sec**2
     
  * For reference see Site Classification link of website 
     
 Base Line Corrected and Low Pass Filtered (Cut Off at 35 Hz) Time History
 Acceleration data in cm/sec**2
    
[...]
      -0.138
       0.063
       0.256
       0.434
       0.593
       0.726
       0.831
       0.903
       0.940
       0.944
       0.924
       0.890
       0.852
       0.813
       0.774
       0.736
       0.698
       0.662
       0.630
       0.600
       0.567
       0.526
       0.476
       0.424
       0.375
       0.331
       0.283
       0.218
       0.123
      -0.008
      -0.173
      -0.364
      -0.563
      -0.750
      -0.911
      -1.042
      -1.147
      -1.236
      -1.311
      -1.365
      -1.393
      -1.393
      -1.369
      -1.330
      -1.282
      -1.226
      -1.158
      -1.072
      -0.972
      -0.864
      -0.759
      -0.657
      -0.553
      -0.438
      -0.300
      -0.133
       0.062
       0.272
       0.483
       0.683
       0.865
       1.033
       1.195
       1.362
       1.532
       1.689
       1.817
       1.907
       1.965
       1.998
       2.009
       1.996
       1.946
       1.851
       1.715
       1.548
       1.364
       1.168
       0.957
       0.724
       0.458
       0.158
      -0.165
      -0.492
      -0.808
      -1.104
      -1.379
      -1.627
      -1.839
      -2.001
      -2.106
      -2.152
      -2.148
      -2.111
      -2.055
      -1.991
      -1.917
      -1.830
      -1.724
      -1.599
      -1.458
      -1.306
      -1.144
      -0.966
      -0.765
      -0.534
      -0.279
      -0.012
       0.243
       0.463
       0.630
       0.741
       0.804
       0.841
       0.867
       0.896
       0.927
       0.960
       0.993
       1.028
       1.064
       1.106
       1.160
       1.237
       1.336
       1.454
       1.582
       1.706
       1.809
       1.871
       1.880
       1.834
       1.739
       1.599
       1.412
       1.179
       0.902
       0.590
       0.254
      -0.094
      -0.439
      -0.773
      -1.089
      -1.388
      -1.674
      -1.949
      -2.202
      -2.412
      -2.557
      -2.628
      -2.628
      -2.567
      -2.458
      -2.309
      -2.123
      -1.905
      -1.660
      -1.398
      -1.125
      -0.852
      -0.590
      -0.353
      -0.150
       0.013
       0.140
       0.240
       0.331
       0.434
       0.559
       0.703
       0.853
       0.999
       1.134
       1.254
       1.356
       1.433
       1.483
       1.507
       1.516
       1.526
       1.551
       1.596
       1.658
       1.726
       1.793
       1.855
       1.910
       1.959
       1.995
       2.007
       1.980
       1.903
       1.772
       1.587
       1.355
       1.082
       0.779
       0.457
       0.123
      -0.216
      -0.559
      -0.906
      -1.253
      -1.591
      -1.916
      -2.220
      -2.499
      -2.745
      -2.952
      -3.110
      -3.214
      -3.261
      -3.249
      -3.181
      -3.055
      -2.875
      -2.646
      -2.381
      -2.090
      -1.779
      -1.452
      -1.112
      -0.760
      -0.398
      -0.030
       0.335
       0.682
       0.997
       1.271
       1.505
       1.714
       1.912
       2.105
       2.288
       2.451
       2.585
       2.681
       2.732
       2.731
       2.679
       2.582
       2.448
       2.293
       2.128
       1.956
       1.774
       1.573
       1.349
       1.106
       0.856
       0.613
       0.386
       0.181
      -0.004
      -0.173
      -0.327
      -0.465
      -0.584
      -0.681
      -0.756
      -0.812
      -0.850
      -0.867
      -0.867
      -0.858
      -0.854
      -0.868
      -0.901
      -0.951
      -1.015
      -1.089
      -1.171
      -1.254
      -1.329
      -1.395
      -1.456
      -1.517
      -1.574
      -1.610
      -1.608
      -1.558
      -1.463
      -1.328
      -1.167
      -0.993
      -0.818
      -0.642
      -0.453
      -0.240
       0.000
       0.254
       0.509
       0.754
       0.986
       1.205
       1.401
       1.560
       1.664
       1.709
       1.702
       1.658
       1.588
       1.499
       1.392
       1.266
       1.120
       0.960
       0.798
       0.643
       0.505
       0.390
       0.297
       0.221
       0.155
       0.092
       0.024
      -0.056
      -0.153
      -0.266
      -0.387
      -0.501
      -0.596
      -0.674
      -0.741
      -0.801
      -0.852
      -0.886
      -0.900
      -0.898
      -0.889
      -0.883
      -0.883
      -0.887
      -0.890
      -0.880
      -0.849
      -0.793
      -0.717
      -0.632
      -0.551
      -0.481
      -0.421
      -0.362
      -0.296
      -0.217
      -0.126
      -0.026
       0.081
       0.195
       0.315
       0.444
       0.582
       0.725
       0.862
       0.983
       1.081
       1.154
       1.207
       1.246
       1.271
       1.280
       1.269
       1.238
       1.190
       1.122
       1.027
       0.906
       0.760
       0.594
       0.409
       0.209
       0.002
      -0.203
      -0.394
      -0.563
      -0.703
      -0.811
      -0.886
      -0.935
      -0.966
      -0.985
      -0.992
      -0.979
      -0.940
      -0.879
      -0.808
      -0.737
      -0.671
      -0.609
      -0.551
      -0.496
      -0.446
      -0.405
      -0.381
      -0.379
      -0.399
      -0.431
      -0.462
      -0.476
      -0.464
      -0.430
      -0.382
      -0.329
      -0.277
      -0.230
      -0.188
      -0.151
      -0.116
      -0.077
      -0.032
       0.022
       0.088
       0.164
       0.248
       0.334
       0.417
       0.490
       0.553
       0.613
       0.677
       0.750
       0.826
       0.897
       0.955
       0.994
       1.010
       1.003
       0.981
       0.953
       0.924
       0.897
       0.861
       0.802
       0.714
       0.601
       0.477
       0.352
       0.227
       0.098
      -0.034
      -0.173
      -0.325
      -0.492
      -0.673
      -0.855
      -1.021
      -1.156
      -1.253
      -1.313
      -1.339
      -1.330
      -1.286
      -1.205
      -1.094
      -0.955
      -0.795
      -0.622
      -0.449
      -0.291
      -0.164
      -0.073
      -0.014
       0.030
       0.078
       0.139
       0.207
       0.270
       0.319
       0.357
       0.395
       0.444
       0.503
       0.564
       0.617
       0.658
       0.694
       0.729
       0.762
       0.785
       0.784
       0.752
       0.687
       0.600
       0.502
       0.390
       0.251
       0.075
      -0.131
      -0.350
      -0.566
      -0.774
      -0.972
      -1.161
      -1.339
      -1.499
      -1.633
      -1.728
      -1.770
      -1.745
      -1.650
      -1.496
      -1.297
      -1.064
      -0.804
      -0.517
      -0.206
       0.127
       0.476
       0.825
       1.153
       1.442
       1.684
       1.881
       2.040
       2.167
       2.267
       2.343
       2.394
       2.415
       2.398
       2.339
       2.240
       2.112
       1.963
       1.794
       1.605
       1.396
       1.173
       0.944
       0.713
       0.481
       0.250
       0.023
      -0.195
      -0.398
      -0.581
      -0.739
      -0.873
      -0.981
      -1.064
      -1.124
      -1.160
      -1.168
      -1.142
      -1.080
      -0.981
      -0.852
      -0.700
      -0.532
      -0.350
      -0.159
       0.033
       0.209
       0.357
       0.470
       0.551
       0.605
       0.638
       0.657
       0.670
       0.678
       0.676
       0.654
       0.600
       0.511
       0.391
       0.250
       0.101
      -0.045
      -0.183
      -0.309
      -0.424
      -0.535
      -0.653
      -0.781
      -0.912
      -1.032
      -1.136
      -1.218
      -1.274
      -1.304
      -1.309
      -1.299
      -1.288
      -1.286
      -1.290
      -1.291
      -1.277
      -1.238
      -1.177
      -1.100
      -1.014
      -0.928
      -0.845
      -0.759
      -0.656
      -0.535
      -0.400
      -0.267
      -0.148
      -0.048
       0.033
       0.100
       0.154
       0.200
       0.246
       0.308
       0.395
       0.506
       0.624
       0.730
       0.813
       0.872
       0.915
       0.949
       0.979
       1.003
       1.012
       0.994
       0.941
       0.855
       0.742
       0.615
       0.483
       0.346
       0.197
       0.032
      -0.145
      -0.323
      -0.492
      -0.649
      -0.795
      -0.939
      -1.086
      -1.237
      -1.385
      -1.517
      -1.621
      -1.690
      -1.719
      -1.706
      -1.649
      -1.547
      -1.402
      -1.211
      -0.972
      -0.676
      -0.324
       0.078
       0.515
       0.968
       1.416
       1.841
       2.226
       2.556
       2.820
       3.008
       3.117
       3.149
       3.105
       2.985
       2.790
       2.524
       2.194
       1.811
       1.385
       0.930
       0.459
      -0.014
      -0.477
      -0.912
      -1.303
      -1.640
      -1.922
      -2.151
      -2.322
      -2.429
      -2.466
      -2.429
      -2.315
      -2.119
      -1.842
      -1.493
      -1.095
      -0.676
      -0.269
       0.103
       0.424
       0.684
       0.876
       1.001
       1.061
       1.055
       0.982
       0.840
       0.637
       0.379
       0.070
      -0.284
      -0.672
      -1.071
      -1.453
      -1.795
      -2.087
      -2.328
      -2.516
      -2.645
      -2.707
      -2.698
      -2.620
      -2.475
      -2.264
      -1.988
      -1.645
      -1.238
      -0.779
      -0.286
       0.215
       0.707
       1.181
       1.632
       2.050
       2.418
       2.723
       2.964
       3.142
       3.258
       3.308
       3.278
       3.162
       2.960
       2.684
       2.349
       1.968
       1.552
       1.109
       0.651
       0.194
      -0.238
      -0.621
      -0.936
      -1.174
      -1.328
      -1.385
      -1.334
      -1.171
      -0.903
      -0.551
      -0.140
       0.299
       0.740
       1.164
       1.556
       1.912
       2.230
       2.506
       2.731
       2.894
       2.984
       2.995
       2.924
       2.778
       2.568
       2.306
       2.002
       1.660
       1.289
       0.899
       0.505
       0.117
      -0.257
      -0.611
      -0.936
      -1.221
      -1.459
      -1.647
      -1.795
      -1.907
      -1.982
      -2.005
      -1.967
      -1.869
      -1.725
      -1.553
      -1.370
      -1.184
      -0.998
      -0.815
      -0.643
      -0.490
      -0.360
      -0.254
      -0.167
      -0.093
      -0.033
       0.015
       0.047
       0.058
       0.045
       0.004
      -0.064
      -0.163
      -0.293
      -0.456
      -0.651
      -0.875
      -1.120
      -1.372
      -1.617
      -1.841
      -2.031
      -2.178
      -2.280
      -2.340
      -2.362
      -2.347
      -2.300
      -2.225
      -2.128
      -2.017
      -1.890
      -1.742
      -1.561
      -1.344
      -1.099
      -0.839
      -0.573
      -0.297
      -0.004
       0.312
       0.648
       0.992
       1.326
       1.637
       1.920
       2.176
       2.412
       2.629
       2.828
       3.007
       3.165
       3.295
       3.389
       3.437
       3.433
       3.382
       3.295
       3.180
       3.039
       2.860
       2.632
       2.353
       2.034
       1.690
       1.338
       0.982
       0.619
       0.243
      -0.146
      -0.540
      -0.931
      -1.309
      -1.667
      -1.999
      -2.301
      -2.572
      -2.816
      -3.037
      -3.241
      -3.426
      -3.584
      -3.705
      -3.780
      -3.806
      -3.783
      -3.706
      -3.576
      -3.398
      -3.185
      -2.952
      -2.706
      -2.451
      -2.187
      -1.916
      -1.637
      -1.348
      -1.043
      -0.722
      -0.393
      -0.077
       0.207
       0.452
       0.660
       0.833
       0.970
       1.063
       1.107
       1.101
       1.051
       0.967
       0.861
       0.745
       0.628
       0.520
       0.431
       0.371
       0.343
       0.346
       0.367
       0.392
       0.415
       0.438
       0.467
       0.505
       0.549
       0.595
       0.640
       0.681
       0.723
       0.769
       0.826
       0.899
       0.993
       1.106
       1.233
       1.364
       1.492
       1.615
       1.737
       1.860
       1.987
       2.114
       2.230
       2.328
       2.401
       2.445
       2.452
       2.413
       2.319
       2.173
       1.983
       1.761
       1.520
       1.265
       0.996
       0.711
       0.411
       0.100
      -0.221
      -0.554
      -0.900
      -1.257
      -1.618
      -1.979
      -2.330
      -2.664
      -2.965
      -3.220
      -3.414
      -3.538
      -3.594
      -3.591
      -3.535
      -3.427
      -3.266
      -3.060
      -2.819
      -2.554
      -2.268
      -1.958
      -1.621
      -1.263
      -0.900
      -0.553
      -0.233
       0.058
       0.326
       0.573
       0.794
       0.981
       1.122
       1.216
       1.270
       1.305
       1.341
       1.393
       1.467
       1.562
       1.674
       1.800
       1.934
       2.076
       2.229
       2.401
       2.600
       2.824
       3.066
       3.315
       3.557
       3.783
       3.982
       4.153
       4.303
       4.439
       4.558
       4.651
       4.704
       4.713
       4.670
       4.564
       4.382
       4.114
       3.758
       3.325
       2.832
       2.291
       1.711
       1.092
       0.431
      -0.269
      -1.004
      -1.759
      -2.516
      -3.257
      -3.968
      -4.646
      -5.290
      -5.895
      -6.449
      -6.932
      -7.321
      -7.599
      -7.762
      -7.816
      -7.766
      -7.611
      -7.343
      -6.952
      -6.433
      -5.799
      -5.069
      -4.269
      -3.420
      -2.539
      -1.641
      -0.750
       0.113
       0.924
       1.662
       2.314
       2.871
       3.327
       3.679
       3.929
       4.088
       4.165
       4.168
       4.099
       3.966
       3.773
       3.529
       3.241
       2.919
       2.574
       2.216
       1.847
       1.471
       1.097
       0.744
       0.430
       0.167
      -0.044
      -0.206
      -0.316
      -0.369
      -0.366
      -0.323
      -0.270
      -0.235
      -0.233
      -0.264
      -0.323
      -0.403
      -0.506
      -0.636
      -0.790
      -0.961
      -1.132
      -1.290
      -1.428
      -1.539
      -1.621
      -1.668
      -1.676
      -1.645
      -1.580
      -1.489
      -1.378
      -1.252
      -1.113
      -0.967
      -0.818
      -0.667
      -0.507
      -0.328
      -0.130
       0.078
       0.282
       0.467
       0.624
       0.753
       0.862
       0.961
       1.054
       1.140
       1.217
       1.281
       1.332
       1.373
       1.411
       1.445
       1.469
       1.481
       1.484
       1.482
       1.475
       1.453
       1.405
       1.321
       1.201
       1.050
       0.874
       0.674
       0.453
       0.216
      -0.026
      -0.262
      -0.485
      -0.693
      -0.891
      -1.084
      -1.279
      -1.475
      -1.668
      -1.854
      -2.028
      -2.187
      -2.325
      -2.440
      -2.525
      -2.574
      -2.580
      -2.538
      -2.448
      -2.311
      -2.129
      -1.909
      -1.656
      -1.375
      -1.072
      -0.758
      -0.447
      -0.154
       0.110
       0.339
       0.543
       0.732
       0.915
       1.093
       1.262
       1.418
       1.567
       1.716
       1.871
       2.040
       2.227
       2.429
       2.641
       2.851
       3.043
       3.203
       3.321
       3.393
       3.421
       3.409
       3.353
       3.243
       3.069
       2.822
       2.502
       2.117
       1.678
       1.201
       0.700
       0.188
      -0.325
      -0.831
      -1.319
      -1.772
      -2.174
      -2.514
      -2.791
      -3.001
      -3.142
      -3.207
      -3.199
      -3.128
      -3.010
      -2.863
      -2.697
      -2.516
      -2.321
      -2.112
      -1.894
      -1.679
      -1.481
      -1.307
      -1.158
      -1.025
      -0.896
      -0.768
      -0.645
      -0.537
      -0.446
      -0.367
      -0.289
      -0.206
      -0.121
      -0.044
       0.014
       0.047
       0.058
       0.051
       0.026
      -0.016
      -0.069
      -0.122
      -0.157
      -0.158
      -0.114
      -0.026
       0.103
       0.271
       0.480
       0.726
       0.998
       1.279
       1.552
       1.811
       2.059
       2.302
       2.540
       2.765
       2.959
       3.103
       3.193
       3.228
       3.216
       3.160
       3.061
       2.917
       2.730
       2.509
       2.261
       1.992
       1.704
       1.397
       1.082
       0.769
       0.469
       0.194
      -0.050
      -0.255
      -0.419
      -0.547
      -0.644
      -0.713
      -0.750
      -0.751
      -0.718
      -0.665
      -0.606
      -0.553
      -0.514
      -0.495
      -0.503
      -0.539
      -0.605
      -0.700
      -0.827
      -0.984
      -1.163
      -1.349
      -1.529
      -1.698
      -1.861
      -2.033
      -2.218
      -2.404
      -2.570
      -2.705
      -2.810
      -2.889
      -2.935
      -2.937
      -2.885
      -2.777
      -2.625
      -2.444
      -2.246
      -2.036
      -1.816
      -1.589
      -1.359
      -1.128
      -0.900
      -0.680
      -0.477
      -0.300
      -0.156
      -0.048
       0.031
       0.088
       0.129
       0.158
       0.187
       0.231
       0.310
       0.428
       0.574
       0.733
       0.891
       1.043
       1.186
       1.316
       1.424
       1.502
       1.547
       1.560
       1.546
       1.505
       1.442
       1.359
       1.262
       1.150
       1.026
       0.891
       0.756
       0.630
       0.519
       0.427
       0.352
       0.293
       0.251
       0.234
       0.251
       0.303
       0.385
       0.486
       0.597
       0.708
       0.818
       0.928
       1.045
       1.171
       1.306
       1.444
       1.581
       1.710
       1.826
       1.928
       2.020
       2.106
       2.187
       2.259
       2.313
       2.339
       2.323
       2.254
       2.123
       1.925
       1.664
       1.350
       1.000
       0.626
       0.234
      -0.177
      -0.602
      -1.038
      -1.475
      -1.903
      -2.315
      -2.710
      -3.083
      -3.423
      -3.715
      -3.944
      -4.100
      -4.182
      -4.193
      -4.145
      -4.045
      -3.901
      -3.716
      -3.494
      -3.237
      -2.947
      -2.617
      -2.244
      -1.828
      -1.383
      -0.926
      -0.475
      -0.042
       0.375
       0.780
       1.174
       1.554
       1.915
       2.250
       2.553
       2.820
       3.043
       3.214
       3.325
       3.368
       3.338
       3.235
       3.058
       2.809
       2.492
       2.118
       1.698
       1.244
       0.765
       0.269
      -0.236
      -0.739
      -1.224
      -1.672
      -2.070
      -2.410
      -2.685
      -2.892
      -3.025
      -3.080
      -3.051
      -2.930
      -2.716
      -2.414
      -2.036
      -1.595
      -1.105
      -0.576
      -0.017
       0.563
       1.149
       1.727
       2.283
       2.809
       3.291
       3.712
       4.054
       4.305
       4.460
       4.517
       4.478
       4.346
       4.121
       3.800
       3.383
       2.876
       2.301
       1.688
       1.068
       0.465
      -0.100
