Origin Time       12/9/2014 07:56:44	
Lat.              26.1 N	
Long.             90.2 E	
Depth (Km)         10.0
Magnitude         4.2
 Region           Golpara-Assam                                                    
 Above details taken from IMD 
     
Station Code      BAR
Station Lat.       26.332  N
Station Long.      91.006  E
Station Height(m)   47.0
Site Class        C   Vs30 between 200 m/sec to 375 m/sec *  
Record Time       12.09.2014 07:54:16.899
Sampling Rate     200. Hz
 Record Duration   87.650 Sec.
 Direction         E-W (E positive)
Max. Acceleration      7.721 cm/sec**2
     
  * For reference see Site Classification link of website 
     
 Base Line Corrected and Low Pass Filtered (Cut Off at 35 Hz) Time History
 Acceleration data in cm/sec**2
    
[...]
      -0.193
      -0.215
      -0.189
      -0.115
      -0.019
       0.067
       0.121
       0.137
       0.132
       0.125
       0.129
       0.145
       0.164
       0.174
       0.161
       0.119
       0.054
      -0.014
      -0.059
      -0.061
      -0.016
       0.063
       0.148
       0.209
       0.220
       0.169
       0.068
      -0.057
      -0.177
      -0.271
      -0.325
      -0.329
      -0.274
      -0.168
      -0.039
       0.068
       0.120
       0.109
       0.057
       0.002
      -0.029
      -0.026
       0.001
       0.034
       0.056
       0.061
       0.053
       0.045
       0.042
       0.036
       0.014
      -0.023
      -0.050
      -0.033
       0.038
       0.139
       0.214
       0.208
       0.105
      -0.063
      -0.235
      -0.350
      -0.382
      -0.342
      -0.261
      -0.178
      -0.117
      -0.089
      -0.088
      -0.099
      -0.106
      -0.094
      -0.054
       0.017
       0.106
       0.189
       0.240
       0.247
       0.218
       0.176
       0.142
       0.124
       0.117
       0.113
       0.109
       0.113
       0.133
       0.163
       0.183
       0.171
       0.121
       0.050
      -0.016
      -0.052
      -0.051
      -0.025
       0.008
       0.030
       0.030
       0.004
      -0.043
      -0.099
      -0.141
      -0.147
      -0.108
      -0.040
       0.031
       0.077
       0.084
       0.057
       0.012
      -0.031
      -0.057
      -0.055
      -0.024
       0.023
       0.059
       0.052
      -0.010
      -0.112
      -0.216
      -0.281
      -0.290
      -0.252
      -0.196
      -0.147
      -0.112
      -0.081
      -0.041
       0.010
       0.063
       0.105
       0.128
       0.134
       0.133
       0.135
       0.148
       0.171
       0.199
       0.233
       0.270
       0.305
       0.324
       0.307
       0.240
       0.133
       0.024
      -0.049
      -0.066
      -0.040
       0.002
       0.037
       0.059
       0.067
       0.055
       0.015
      -0.047
      -0.114
      -0.164
      -0.192
      -0.212
      -0.245
      -0.297
      -0.348
      -0.370
      -0.341
      -0.267
      -0.174
      -0.093
      -0.050
      -0.045
      -0.066
      -0.093
      -0.114
      -0.126
      -0.122
      -0.093
      -0.036
       0.041
       0.120
       0.189
       0.244
       0.286
       0.307
       0.294
       0.247
       0.191
       0.160
       0.180
       0.243
       0.316
       0.352
       0.319
       0.215
       0.064
      -0.098
      -0.236
      -0.333
      -0.375
      -0.355
      -0.267
      -0.126
       0.024
       0.122
       0.123
       0.034
      -0.090
      -0.180
      -0.197
      -0.156
      -0.102
      -0.071
      -0.066
      -0.063
      -0.040
       0.002
       0.040
       0.055
       0.049
       0.042
       0.045
       0.047
       0.026
      -0.024
      -0.077
      -0.089
      -0.036
       0.064
       0.155
       0.184
       0.138
       0.048
      -0.029
      -0.050
      -0.007
       0.070
       0.136
       0.160
       0.137
       0.088
       0.043
       0.025
       0.037
       0.064
       0.077
       0.051
      -0.020
      -0.116
      -0.206
      -0.260
      -0.264
      -0.213
      -0.124
      -0.028
       0.037
       0.043
      -0.009
      -0.092
      -0.165
      -0.196
      -0.173
      -0.106
      -0.015
       0.070
       0.129
       0.152
       0.146
       0.129
       0.114
       0.104
       0.094
       0.079
       0.061
       0.038
       0.010
      -0.017
      -0.030
      -0.014
       0.035
       0.104
       0.165
       0.191
       0.161
       0.077
      -0.033
      -0.133
      -0.194
      -0.212
      -0.201
      -0.182
      -0.165
      -0.149
      -0.130
      -0.101
      -0.063
      -0.023
       0.013
       0.042
       0.068
       0.100
       0.144
       0.192
       0.227
       0.234
       0.217
       0.189
       0.158
       0.118
       0.058
      -0.023
      -0.111
      -0.185
      -0.227
      -0.233
      -0.209
      -0.165
      -0.116
      -0.070
      -0.033
      -0.015
      -0.029
      -0.074
      -0.136
      -0.184
      -0.192
      -0.149
      -0.065
       0.039
       0.139
       0.219
       0.264
       0.266
       0.225
       0.156
       0.084
       0.030
      -0.001
      -0.019
      -0.035
      -0.059
      -0.089
      -0.121
      -0.149
      -0.172
      -0.184
      -0.179
      -0.153
      -0.115
      -0.086
      -0.090
      -0.123
      -0.159
      -0.163
      -0.123
      -0.056
       0.011
       0.059
       0.091
       0.115
       0.134
       0.137
       0.113
       0.073
       0.044
       0.048
       0.085
       0.127
       0.147
       0.134
       0.105
       0.083
       0.082
       0.096
       0.112
       0.117
       0.109
       0.093
       0.078
       0.074
       0.084
       0.107
       0.133
       0.139
       0.104
       0.023
      -0.087
      -0.187
      -0.237
      -0.214
      -0.132
      -0.029
       0.044
       0.057
       0.005
      -0.087
      -0.188
      -0.274
      -0.336
      -0.370
      -0.374
      -0.348
      -0.296
      -0.226
      -0.145
      -0.056
       0.035
       0.121
       0.188
       0.234
       0.262
       0.283
       0.299
       0.304
       0.286
       0.239
       0.165
       0.074
      -0.014
      -0.070
      -0.066
       0.004
       0.116
       0.226
       0.285
       0.267
       0.175
       0.035
      -0.112
      -0.227
      -0.281
      -0.260
      -0.176
      -0.054
       0.071
       0.162
       0.193
       0.157
       0.070
      -0.034
      -0.119
      -0.163
      -0.171
      -0.169
      -0.184
      -0.218
      -0.248
      -0.242
      -0.183
      -0.090
       0.005
       0.078
       0.130
       0.179
       0.226
       0.249
       0.220
       0.128
      -0.001
      -0.120
      -0.191
      -0.200
      -0.155
      -0.075
       0.018
       0.107
       0.173
       0.199
       0.179
       0.114
       0.017
      -0.093
      -0.195
      -0.267
      -0.291
      -0.259
      -0.173
      -0.050
       0.080
       0.187
       0.249
       0.264
       0.240
       0.193
       0.135
       0.079
       0.037
       0.018
       0.024
       0.040
       0.048
       0.042
       0.037
       0.050
       0.084
       0.119
       0.120
       0.065
      -0.039
      -0.160
      -0.260
      -0.317
      -0.324
      -0.283
      -0.199
      -0.084
       0.040
       0.139
       0.179
       0.148
       0.060
      -0.046
      -0.129
      -0.165
      -0.153
      -0.114
      -0.071
      -0.034
      -0.001
       0.037
       0.082
       0.124
       0.140
       0.117
       0.060
      -0.005
      -0.049
      -0.058
      -0.042
      -0.020
      -0.009
      -0.008
      -0.004
       0.019
       0.064
       0.119
       0.163
       0.181
       0.165
       0.122
       0.064
       0.009
      -0.032
      -0.050
      -0.050
      -0.047
      -0.066
      -0.127
      -0.222
      -0.312
      -0.348
      -0.299
      -0.177
      -0.026
       0.100
       0.165
       0.170
       0.133
       0.077
       0.018
      -0.037
      -0.070
      -0.062
      -0.004
       0.090
       0.189
       0.260
       0.288
       0.279
       0.243
       0.189
       0.120
       0.039
      -0.046
      -0.116
      -0.158
      -0.169
      -0.165
      -0.167
      -0.191
      -0.236
      -0.284
      -0.305
      -0.275
      -0.197
      -0.102
      -0.028
       0.001
       0.004
       0.020
       0.086
       0.198
       0.317
       0.390
       0.387
       0.313
       0.198
       0.075
      -0.034
      -0.108
      -0.126
      -0.074
       0.040
       0.173
       0.266
       0.275
       0.198
       0.078
      -0.033
      -0.104
      -0.135
      -0.146
      -0.154
      -0.162
      -0.165
      -0.159
      -0.143
      -0.116
      -0.084
      -0.052
      -0.034
      -0.037
      -0.056
      -0.074
      -0.064
      -0.013
       0.068
       0.148
       0.205
       0.231
       0.232
       0.206
       0.145
       0.043
      -0.087
      -0.213
      -0.296
      -0.309
      -0.254
      -0.155
      -0.045
       0.048
       0.106
       0.122
       0.099
       0.046
      -0.027
      -0.112
      -0.201
      -0.281
      -0.333
      -0.332
      -0.262
      -0.123
       0.058
       0.228
       0.333
       0.340
       0.260
       0.139
       0.026
      -0.048
      -0.083
      -0.087
      -0.068
      -0.027
       0.023
       0.051
       0.030
      -0.040
      -0.124
      -0.167
      -0.140
      -0.058
       0.031
       0.087
       0.100
       0.087
       0.067
       0.037
      -0.017
      -0.097
      -0.175
      -0.203
      -0.146
      -0.014
       0.141
       0.250
       0.276
       0.226
       0.144
       0.071
       0.022
      -0.016
      -0.055
      -0.093
      -0.111
      -0.098
      -0.071
      -0.068
      -0.116
      -0.216
      -0.328
      -0.405
      -0.419
      -0.379
      -0.316
      -0.256
      -0.203
      -0.151
      -0.095
      -0.042
       0.003
       0.041
       0.083
       0.137
       0.211
       0.299
       0.388
       0.450
       0.462
       0.416
       0.328
       0.236
       0.176
       0.162
       0.182
       0.212
       0.241
       0.266
       0.293
       0.316
       0.319
       0.278
       0.188
       0.063
      -0.062
      -0.159
      -0.222
      -0.266
      -0.310
      -0.363
      -0.418
      -0.459
      -0.469
      -0.438
      -0.365
      -0.269
      -0.176
      -0.111
      -0.080
      -0.073
      -0.065
      -0.037
       0.016
       0.083
       0.143
       0.178
       0.172
       0.124
       0.042
      -0.052
      -0.134
      -0.179
      -0.171
      -0.112
      -0.026
       0.051
       0.090
       0.086
       0.054
       0.019
      -0.008
      -0.024
      -0.034
      -0.042
      -0.058
      -0.086
      -0.125
      -0.156
      -0.155
      -0.109
      -0.028
       0.058
       0.120
       0.142
       0.126
       0.092
       0.067
       0.076
       0.121
       0.182
       0.233
       0.259
       0.261
       0.249
       0.222
       0.169
       0.080
      -0.045
      -0.188
      -0.320
      -0.408
      -0.428
      -0.378
      -0.276
      -0.149
      -0.027
       0.060
       0.082
       0.024
      -0.103
      -0.255
      -0.376
      -0.422
      -0.379
      -0.267
      -0.119
       0.030
       0.153
       0.232
       0.258
       0.238
       0.187
       0.126
       0.074
       0.052
       0.077
       0.153
       0.262
       0.366
       0.430
       0.442
       0.413
       0.363
       0.295
       0.201
       0.076
      -0.063
      -0.184
      -0.266
      -0.311
      -0.334
      -0.348
      -0.344
      -0.303
      -0.213
      -0.091
       0.023
       0.086
       0.079
       0.014
      -0.074
      -0.147
      -0.177
      -0.147
      -0.059
       0.069
       0.204
       0.313
       0.379
       0.406
       0.410
       0.395
       0.351
       0.261
       0.123
      -0.035
      -0.166
      -0.239
      -0.263
      -0.278
      -0.317
      -0.379
      -0.425
      -0.408
      -0.312
      -0.168
      -0.030
       0.059
       0.097
       0.107
       0.117
       0.130
       0.140
       0.148
       0.170
       0.230
       0.325
       0.424
       0.480
       0.460
       0.362
       0.221
       0.088
       0.015
       0.024
       0.104
       0.210
       0.290
       0.307
       0.249
       0.122
      -0.057
      -0.257
      -0.439
      -0.565
      -0.618
      -0.614
      -0.582
      -0.541
      -0.489
      -0.416
      -0.328
      -0.250
      -0.206
      -0.195
      -0.193
      -0.171
      -0.126
      -0.073
      -0.028
       0.011
       0.063
       0.146
       0.261
       0.395
       0.529
       0.644
       0.726
       0.760
       0.744
       0.688
       0.616
       0.546
       0.486
       0.433
       0.383
       0.343
       0.325
       0.336
       0.365
       0.383
       0.366
       0.309
       0.236
       0.187
       0.187
       0.240
       0.324
       0.412
       0.489
       0.540
       0.554
       0.514
       0.417
       0.278
       0.126
      -0.016
      -0.153
      -0.311
      -0.510
      -0.747
      -0.992
      -1.215
      -1.409
      -1.580
      -1.737
      -1.883
      -2.019
      -2.165
      -2.350
      -2.594
      -2.877
      -3.140
      -3.309
      -3.337
      -3.216
      -2.964
      -2.598
      -2.118
      -1.520
      -0.823
      -0.076
       0.658
       1.326
       1.903
       2.384
       2.772
       3.074
       3.309
       3.514
       3.740
       4.023
       4.358
       4.687
       4.920
       4.967
       4.766
       4.306
       3.628
       2.799
       1.871
       0.862
      -0.243
      -1.441
      -2.686
      -3.880
      -4.915
      -5.714
      -6.250
      -6.532
      -6.581
      -6.415
      -6.052
      -5.534
      -4.935
      -4.345
      -3.827
      -3.386
      -2.975
      -2.534
      -2.024
      -1.440
      -0.776
      -0.005
       0.916
       2.009
       3.232
       4.477
       5.613
       6.532
       7.184
       7.574
       7.721
       7.640
       7.342
       6.850
       6.216
       5.501
       4.755
       3.989
       3.176
       2.276
       1.279
       0.227
      -0.803
      -1.742
      -2.561
      -3.283
      -3.964
      -4.663
      -5.403
      -6.132
      -6.732
      -7.054
      -6.988
      -6.508
      -5.681
      -4.646
      -3.553
      -2.514
      -1.572
      -0.712
       0.104
       0.895
       1.651
       2.362
       3.047
       3.750
       4.503
       5.278
       5.980
       6.489
       6.713
       6.636
       6.307
       5.806
       5.211
       4.568
       3.878
       3.106
       2.213
       1.205
       0.165
      -0.778
      -1.517
      -2.027
      -2.375
      -2.670
      -3.005
      -3.426
      -3.927
      -4.462
      -4.958
      -5.322
      -5.456
      -5.281
      -4.779
      -4.025
      -3.177
      -2.422
      -1.888
      -1.591
      -1.432
      -1.252
      -0.901
      -0.294
       0.566
       1.588
       2.611
       3.465
       4.019
       4.225
       4.097
       3.682
       3.040
       2.252
       1.430
       0.695
       0.125
      -0.276
      -0.572
      -0.842
      -1.131
      -1.429
      -1.695
      -1.885
      -1.983
      -2.004
      -1.986
      -1.965
      -1.955
      -1.951
      -1.953
      -1.987
      -2.092
      -2.289
      -2.545
      -2.774
      -2.868
      -2.742
      -2.371
      -1.792
      -1.079
      -0.318
       0.411
       1.049
       1.561
       1.929
       2.154
       2.251
       2.246
       2.179
       2.098
       2.047
       2.048
       2.083
       2.093
       2.010
       1.803
       1.514
       1.242
       1.092
       1.101
       1.206
       1.283
       1.215
       0.962
       0.572
       0.135
      -0.276
      -0.643
      -0.985
      -1.313
      -1.600
      -1.778
      -1.778
      -1.570
      -1.198
      -0.766
      -0.396
      -0.173
      -0.117
      -0.200
      -0.369
      -0.569
      -0.744
      -0.820
      -0.730
      -0.445
      -0.011
       0.458
       0.839
       1.060
       1.135
       1.143
       1.172
       1.276
       1.454
       1.673
       1.904
       2.136
       2.350
       2.488
       2.459
       2.198
       1.731
       1.179
       0.697
       0.385
       0.237
       0.157
       0.029
      -0.214
      -0.560
      -0.938
      -1.262
      -1.467
      -1.535
      -1.494
      -1.405
      -1.338
      -1.357
      -1.506
      -1.794
      -2.181
      -2.582
      -2.885
      -2.994
      -2.855
      -2.472
      -1.903
      -1.239
      -0.570
       0.043
       0.574
       1.026
       1.407
       1.728
       2.016
       2.301
       2.597
       2.860
       2.997
       2.920
       2.605
       2.109
       1.539
       1.004
       0.571
       0.249
       0.003
      -0.234
      -0.516
      -0.855
      -1.199
      -1.463
      -1.584
      -1.574
      -1.511
      -1.492
      -1.572
      -1.733
      -1.902
      -2.006
      -2.014
      -1.952
      -1.872
      -1.798
      -1.698
      -1.508
      -1.177
      -0.708
      -0.145
       0.454
       1.037
       1.555
       1.953
       2.173
       2.190
       2.033
       1.779
       1.515
       1.301
       1.156
       1.078
       1.061
       1.094
       1.144
       1.156
       1.067
       0.832
       0.445
      -0.060
      -0.619
      -1.166
      -1.641
      -2.002
      -2.223
      -2.291
      -2.212
      -2.011
      -1.735
      -1.439
      -1.159
      -0.900
      -0.645
      -0.374
      -0.083
       0.218
       0.527
       0.859
       1.237
       1.659
       2.079
       2.418
       2.617
       2.672
       2.619
       2.489
       2.262
       1.887
       1.341
       0.676
       0.019
      -0.503
      -0.820
      -0.936
      -0.903
      -0.778
      -0.622
      -0.504
      -0.505
      -0.690
      -1.068
      -1.570
      -2.062
      -2.398
      -2.475
      -2.280
      -1.888
      -1.416
      -0.961
      -0.563
      -0.215
       0.103
       0.399
       0.664
       0.895
       1.084
       1.213
       1.254
       1.201
       1.090
       0.982
       0.925
       0.931
       0.985
       1.067
       1.163
       1.243
       1.257
       1.143
       0.867
       0.445
      -0.063
      -0.567
      -0.985
      -1.263
      -1.388
      -1.393
      -1.340
      -1.299
      -1.311
      -1.376
      -1.453
      -1.487
      -1.432
      -1.266
      -1.008
      -0.703
      -0.406
      -0.146
       0.093
       0.359
       0.695
       1.103
       1.538
       1.931
       2.230
       2.417
       2.501
       2.497
       2.406
       2.216
       1.916
       1.513
       1.051
       0.598
       0.223
      -0.030
      -0.159
      -0.198
      -0.205
      -0.237
      -0.337
      -0.523
      -0.789
      -1.100
      -1.405
      -1.657
      -1.843
      -1.982
      -2.109
      -2.237
      -2.344
      -2.374
      -2.259
      -1.942
      -1.398
      -0.652
       0.208
       1.050
       1.734
       2.177
       2.374
       2.381
       2.254
       2.020
       1.682
       1.260
       0.824
       0.477
       0.308
       0.347
       0.563
       0.888
       1.251
       1.584
       1.827
       1.930
       1.860
       1.601
       1.152
       0.533
      -0.210
      -1.004
      -1.750
      -2.351
      -2.738
      -2.901
      -2.882
      -2.762
      -2.608
      -2.449
      -2.264
      -2.003
      -1.636
      -1.184
      -0.718
      -0.325
      -0.069
       0.039
       0.046
       0.029
       0.065
       0.195
       0.410
       0.657
       0.867
       0.980
       0.977
       0.872
       0.695
       0.467
       0.203
      -0.069
