Origin Time       05/3/2012 07:41:05	
Lat.              28.7 N	
Long.             76.6 E	
Depth (Km)         14.0
Magnitude         4.9
 Region           Haryana-Delhi-Border-Region                                      
 Above details taken from IMD 
     
Station Code      BAR
Station Lat.       29.097  N
Station Long.      77.255  E
Station Height(m)  232.0
Site Class        C   Vs30 between 200 m/sec to 375 m/sec *  
Record Time       05.03.2012 07:43:44.389
Sampling Rate     200. Hz
 Record Duration   65.070 Sec.
 Direction         E-W (E positive)
Max. Acceleration      6.012 cm/sec**2
     
  * For reference see Site Classification link of website 
     
 Base Line Corrected and Low Pass Filtered (Cut Off at 35 Hz) Time History
 Acceleration data in cm/sec**2
    
[...]
       0.159
       0.257
       0.341
       0.373
       0.329
       0.205
       0.028
      -0.157
      -0.301
      -0.369
      -0.353
      -0.273
      -0.167
      -0.077
      -0.036
      -0.059
      -0.135
      -0.234
      -0.313
      -0.333
      -0.275
      -0.140
       0.047
       0.248
       0.418
       0.509
       0.498
       0.396
       0.252
       0.130
       0.072
       0.083
       0.133
       0.174
       0.168
       0.093
      -0.042
      -0.209
      -0.370
      -0.492
      -0.562
      -0.594
      -0.621
      -0.668
      -0.733
      -0.782
      -0.772
      -0.663
      -0.446
      -0.149
       0.176
       0.472
       0.702
       0.854
       0.934
       0.956
       0.936
       0.885
       0.809
       0.717
       0.617
       0.513
       0.397
       0.248
       0.060
      -0.147
      -0.330
      -0.452
      -0.507
      -0.515
      -0.501
      -0.480
      -0.451
      -0.410
      -0.357
      -0.297
      -0.237
      -0.178
      -0.121
      -0.068
      -0.025
       0.004
       0.021
       0.027
       0.014
      -0.032
      -0.114
      -0.215
      -0.295
      -0.310
      -0.242
      -0.115
       0.010
       0.075
       0.056
      -0.023
      -0.116
      -0.187
      -0.220
      -0.223
      -0.214
      -0.210
      -0.223
      -0.254
      -0.286
      -0.295
      -0.261
      -0.184
      -0.092
      -0.019
       0.021
       0.041
       0.074
       0.137
       0.226
       0.327
       0.436
       0.562
       0.705
       0.841
       0.923
       0.910
       0.793
       0.604
       0.399
       0.223
       0.092
      -0.003
      -0.071
      -0.117
      -0.143
      -0.162
      -0.198
      -0.261
      -0.334
      -0.380
      -0.358
      -0.264
      -0.129
      -0.005
       0.062
       0.053
      -0.030
      -0.164
      -0.312
      -0.426
      -0.460
      -0.384
      -0.204
       0.035
       0.265
       0.423
       0.480
       0.445
       0.355
       0.251
       0.165
       0.118
       0.123
       0.179
       0.268
       0.353
       0.388
       0.347
       0.242
       0.131
       0.087
       0.151
       0.291
       0.416
       0.428
       0.293
       0.059
      -0.174
      -0.326
      -0.372
      -0.334
      -0.250
      -0.148
      -0.041
       0.064
       0.154
       0.216
       0.239
       0.221
       0.164
       0.081
      -0.002
      -0.056
      -0.057
      -0.011
       0.049
       0.078
       0.053
      -0.017
      -0.101
      -0.181
      -0.262
      -0.368
      -0.508
      -0.656
      -0.766
      -0.804
      -0.777
      -0.720
      -0.664
      -0.603
      -0.505
      -0.340
      -0.112
       0.132
       0.325
       0.417
       0.412
       0.358
       0.316
       0.321
       0.374
       0.452
       0.524
       0.562
       0.538
       0.439
       0.265
       0.048
      -0.155
      -0.281
      -0.295
      -0.212
      -0.090
       0.007
       0.045
       0.029
      -0.007
      -0.026
      -0.013
       0.019
       0.043
       0.031
      -0.025
      -0.109
      -0.187
      -0.223
      -0.205
      -0.160
      -0.138
      -0.180
      -0.287
      -0.423
      -0.540
      -0.607
      -0.624
      -0.608
      -0.577
      -0.537
      -0.481
      -0.401
      -0.295
      -0.175
      -0.062
       0.022
       0.064
       0.065
       0.040
       0.022
       0.047
       0.136
       0.272
       0.414
       0.517
       0.560
       0.548
       0.498
       0.436
       0.386
       0.367
       0.394
       0.472
       0.591
       0.724
       0.825
       0.843
       0.744
       0.531
       0.247
      -0.046
      -0.293
      -0.470
      -0.581
      -0.649
      -0.687
      -0.699
      -0.681
      -0.631
      -0.551
      -0.443
      -0.301
      -0.122
       0.079
       0.259
       0.372
       0.387
       0.307
       0.161
      -0.021
      -0.211
      -0.386
      -0.520
      -0.585
      -0.552
      -0.415
      -0.204
       0.027
       0.225
       0.362
       0.454
       0.542
       0.663
       0.812
       0.946
       1.015
       0.990
       0.872
       0.686
       0.468
       0.244
       0.029
      -0.177
      -0.364
      -0.506
      -0.568
      -0.538
      -0.445
      -0.346
      -0.300
      -0.322
      -0.383
      -0.427
      -0.421
      -0.372
      -0.314
      -0.270
      -0.236
      -0.190
      -0.117
      -0.022
       0.073
       0.146
       0.202
       0.269
       0.367
       0.482
       0.575
       0.612
       0.588
       0.526
       0.456
       0.391
       0.322
       0.227
       0.095
      -0.054
      -0.175
      -0.227
      -0.207
      -0.155
      -0.119
      -0.127
      -0.172
      -0.233
      -0.296
      -0.361
      -0.420
      -0.455
      -0.446
      -0.394
      -0.325
      -0.270
      -0.245
      -0.246
      -0.274
      -0.333
      -0.427
      -0.530
      -0.585
      -0.533
      -0.350
      -0.078
       0.187
       0.352
       0.373
       0.267
       0.086
      -0.120
      -0.314
      -0.465
      -0.542
      -0.523
      -0.408
      -0.228
      -0.033
       0.133
       0.254
       0.341
       0.415
       0.501
       0.625
       0.809
       1.052
       1.302
       1.467
       1.454
       1.229
       0.839
       0.386
      -0.033
      -0.366
      -0.605
      -0.754
      -0.812
      -0.779
      -0.686
      -0.592
      -0.554
      -0.583
      -0.638
      -0.653
      -0.590
      -0.460
      -0.309
      -0.183
      -0.116
      -0.128
      -0.231
      -0.413
      -0.624
      -0.785
      -0.817
      -0.676
      -0.388
      -0.039
       0.265
       0.452
       0.505
       0.453
       0.343
       0.223
       0.134
       0.113
       0.179
       0.332
       0.538
       0.741
       0.874
       0.886
       0.765
       0.543
       0.292
       0.090
      -0.010
       0.001
       0.084
       0.169
       0.188
       0.100
      -0.092
      -0.341
      -0.581
      -0.759
      -0.858
      -0.888
      -0.864
      -0.789
      -0.653
      -0.445
      -0.172
       0.137
       0.443
       0.713
       0.931
       1.094
       1.194
       1.212
       1.126
       0.927
       0.636
       0.311
       0.029
      -0.142
      -0.175
      -0.100
       0.009
       0.069
       0.029
      -0.104
      -0.270
      -0.392
      -0.417
      -0.349
      -0.239
      -0.157
      -0.158
      -0.253
      -0.419
      -0.611
      -0.781
      -0.884
      -0.890
      -0.802
      -0.651
      -0.479
      -0.325
      -0.205
      -0.119
      -0.053
       0.014
       0.104
       0.225
       0.360
       0.468
       0.504
       0.456
       0.346
       0.222
       0.129
       0.090
       0.106
       0.161
       0.230
       0.292
       0.340
       0.374
       0.386
       0.361
       0.288
       0.180
       0.078
       0.032
       0.070
       0.169
       0.278
       0.345
       0.354
       0.324
       0.290
       0.276
       0.281
       0.283
       0.270
       0.246
       0.229
       0.219
       0.197
       0.131
       0.002
      -0.177
      -0.366
      -0.517
      -0.610
      -0.655
      -0.677
      -0.690
      -0.682
      -0.630
      -0.525
      -0.388
      -0.264
      -0.192
      -0.173
      -0.170
      -0.131
      -0.040
       0.075
       0.158
       0.166
       0.088
      -0.050
      -0.201
      -0.312
      -0.347
      -0.298
      -0.190
      -0.068
       0.025
       0.064
       0.044
      -0.012
      -0.061
      -0.047
       0.069
       0.275
       0.509
       0.685
       0.738
       0.658
       0.491
       0.312
       0.185
       0.126
       0.105
       0.076
       0.007
      -0.101
      -0.224
      -0.337
      -0.417
      -0.454
      -0.450
      -0.414
      -0.357
      -0.295
      -0.238
      -0.195
      -0.163
      -0.127
      -0.068
       0.026
       0.137
       0.227
       0.252
       0.190
       0.049
      -0.132
      -0.303
      -0.416
      -0.434
      -0.347
      -0.187
      -0.030
       0.034
      -0.050
      -0.253
      -0.466
      -0.561
      -0.459
      -0.187
       0.150
       0.433
       0.595
       0.642
       0.620
       0.575
       0.524
       0.462
       0.385
       0.317
       0.294
       0.338
       0.428
       0.503
       0.511
       0.443
       0.338
       0.251
       0.214
       0.218
       0.218
       0.167
       0.043
      -0.132
      -0.301
      -0.405
      -0.412
      -0.329
      -0.191
      -0.032
       0.126
       0.269
       0.381
       0.430
       0.384
       0.232
       0.007
      -0.219
      -0.370
      -0.419
      -0.403
      -0.395
      -0.442
      -0.520
      -0.559
      -0.502
      -0.358
      -0.198
      -0.101
      -0.101
      -0.177
      -0.277
      -0.356
      -0.401
      -0.422
      -0.438
      -0.465
      -0.504
      -0.541
      -0.564
      -0.574
      -0.583
      -0.597
      -0.598
      -0.565
      -0.497
      -0.421
      -0.383
      -0.413
      -0.503
      -0.604
      -0.658
      -0.631
      -0.529
      -0.386
      -0.232
      -0.074
       0.109
       0.339
       0.608
       0.867
       1.051
       1.114
       1.062
       0.953
       0.864
       0.841
       0.877
       0.919
       0.905
       0.802
       0.626
       0.443
       0.326
       0.328
       0.447
       0.636
       0.820
       0.925
       0.905
       0.770
       0.581
       0.429
       0.384
       0.456
       0.594
       0.724
       0.795
       0.799
       0.761
       0.703
       0.627
       0.509
       0.334
       0.122
      -0.073
      -0.195
      -0.224
      -0.182
      -0.122
      -0.098
      -0.141
      -0.242
      -0.362
      -0.459
      -0.517
      -0.546
      -0.571
      -0.605
      -0.640
      -0.648
      -0.604
      -0.518
      -0.444
      -0.450
      -0.578
      -0.808
      -1.070
      -1.275
      -1.354
      -1.284
      -1.094
      -0.842
      -0.587
      -0.372
      -0.218
      -0.120
      -0.063
      -0.033
      -0.030
      -0.057
      -0.109
      -0.159
      -0.165
      -0.091
       0.074
       0.308
       0.555
       0.741
       0.809
       0.749
       0.610
       0.475
       0.416
       0.459
       0.577
       0.718
       0.843
       0.938
       1.008
       1.064
       1.104
       1.107
       1.040
       0.885
       0.665
       0.438
       0.276
       0.220
       0.264
       0.355
       0.423
       0.415
       0.326
       0.192
       0.046
      -0.112
      -0.323
      -0.630
      -1.048
      -1.549
      -2.081
      -2.590
      -3.044
      -3.426
      -3.719
      -3.894
      -3.922
      -3.796
      -3.539
      -3.197
      -2.807
      -2.390
      -1.949
      -1.475
      -0.957
      -0.388
       0.231
       0.885
       1.551
       2.196
       2.777
       3.246
       3.561
       3.704
       3.699
       3.608
       3.510
       3.463
       3.478
       3.517
       3.519
       3.416
       3.147
       2.687
       2.069
       1.400
       0.820
       0.442
       0.286
       0.276
       0.282
       0.194
      -0.029
      -0.355
      -0.715
      -1.048
      -1.328
      -1.551
      -1.728
      -1.872
      -2.014
      -2.195
      -2.464
      -2.847
      -3.319
      -3.789
      -4.118
      -4.178
      -3.906
      -3.331
      -2.566
      -1.758
      -1.025
      -0.410
       0.115
       0.602
       1.073
       1.509
       1.872
       2.136
       2.301
       2.382
       2.384
       2.285
       2.039
       1.604
       0.973
       0.192
      -0.656
      -1.467
      -2.135
      -2.558
      -2.660
      -2.424
      -1.898
      -1.184
      -0.386
       0.419
       1.188
       1.891
       2.503
       3.001
       3.383
       3.659
       3.842
       3.939
       3.934
       3.802
       3.510
       3.031
       2.353
       1.487
       0.477
      -0.611
      -1.701
      -2.742
      -3.708
      -4.571
      -5.269
      -5.703
      -5.767
      -5.395
      -4.600
      -3.466
      -2.126
      -0.730
       0.587
       1.723
       2.627
       3.291
       3.735
       3.982
       4.038
       3.896
       3.540
       2.968
       2.197
       1.267
       0.239
      -0.807
      -1.773
      -2.551
      -3.054
      -3.243
      -3.138
      -2.821
      -2.410
      -2.025
      -1.737
      -1.535
      -1.337
      -1.041
      -0.598
      -0.034
       0.569
       1.139
       1.652
       2.134
       2.615
       3.070
       3.411
       3.521
       3.323
       2.818
       2.092
       1.263
       0.436
      -0.331
      -1.023
      -1.646
      -2.200
      -2.664
      -2.992
      -3.122
      -3.002
      -2.626
      -2.046
      -1.347
      -0.603
       0.146
       0.886
       1.604
       2.273
       2.856
       3.314
       3.609
       3.698
       3.542
       3.128
       2.491
       1.705
       0.863
       0.038
      -0.734
      -1.440
      -2.074
      -2.626
      -3.083
      -3.442
      -3.716
      -3.938
      -4.143
      -4.342
      -4.500
      -4.539
      -4.367
      -3.926
      -3.210
      -2.266
      -1.162
       0.041
       1.301
       2.576
       3.800
       4.872
       5.654
       6.012
       5.859
       5.204
       4.154
       2.868
       1.500
       0.153
      -1.116
      -2.261
      -3.211
      -3.872
      -4.171
      -4.092
      -3.691
      -3.056
      -2.277
      -1.421
      -0.529
       0.380
       1.305
       2.237
       3.137
       3.929
       4.516
       4.823
       4.829
       4.579
       4.153
       3.613
       2.974
       2.207
       1.297
       0.299
      -0.655
      -1.410
      -1.864
      -2.018
      -1.967
      -1.843
      -1.747
      -1.714
      -1.723
      -1.728
      -1.679
      -1.536
      -1.271
      -0.883
      -0.409
       0.086
       0.533
       0.885
       1.128
       1.268
       1.303
       1.210
       0.959
       0.539
      -0.020
      -0.666
      -1.346
      -2.022
      -2.661
      -3.219
      -3.627
      -3.805
      -3.687
      -3.255
      -2.563
      -1.723
      -0.865
      -0.086
       0.567
       1.092
       1.522
       1.906
       2.278
       2.622
       2.857
       2.878
       2.621
       2.113
       1.461
       0.800
       0.225
      -0.220
      -0.525
      -0.690
      -0.716
      -0.610
      -0.404
      -0.155
       0.060
       0.171
       0.139
      -0.029
      -0.281
      -0.538
      -0.724
      -0.803
      -0.799
      -0.784
      -0.814
      -0.883
      -0.917
      -0.829
      -0.579
      -0.203
       0.209
       0.561
       0.791
       0.877
       0.824
       0.654
       0.380
       0.012
      -0.446
      -0.977
      -1.526
      -2.002
      -2.301
      -2.348
      -2.128
      -1.680
      -1.079
      -0.406
       0.265
       0.869
       1.344
       1.636
       1.706
       1.561
       1.271
       0.958
       0.746
       0.719
       0.878
       1.150
       1.430
       1.633
       1.740
       1.785
       1.833
       1.928
       2.076
       2.246
       2.384
       2.425
       2.294
       1.915
       1.239
       0.302
      -0.761
      -1.751
      -2.481
      -2.840
      -2.824
      -2.503
      -1.988
      -1.383
      -0.774
      -0.227
       0.200
       0.460
       0.522
       0.382
       0.087
      -0.262
      -0.541
      -0.658
      -0.620
      -0.532
      -0.520
      -0.651
      -0.903
      -1.192
      -1.427
      -1.527
      -1.433
      -1.115
      -0.587
       0.107
       0.911
       1.768
       2.612
       3.356
       3.886
       4.107
       3.987
       3.595
       3.074
       2.559
       2.102
       1.660
       1.162
       0.583
      -0.027
      -0.581
      -0.996
      -1.234
      -1.303
      -1.254
      -1.162
      -1.112
      -1.186
      -1.435
      -1.851
      -2.354
      -2.817
      -3.116
      -3.176
      -2.995
      -2.646
      -2.245
      -1.891
      -1.622
      -1.402
      -1.161
      -0.838
      -0.418
       0.061
       0.514
       0.849
       1.013
       1.009
       0.861
       0.583
       0.178
      -0.309
      -0.760
      -1.019
      -0.971
      -0.613
      -0.067
       0.467
       0.793
       0.801
       0.510
       0.048
      -0.404
      -0.659
      -0.559
      -0.021
       0.919
       2.082
       3.199
       4.006
       4.331
       4.123
       3.447
       2.455
       1.341
       0.298
      -0.533
      -1.082
      -1.348
      -1.391
      -1.310
      -1.224
      -1.232
      -1.387
      -1.684
      -2.060
      -2.419
      -2.649
      -2.651
      -2.376
      -1.837
      -1.112
      -0.315
       0.428
       1.017
       1.400
       1.579
       1.582
       1.432
       1.133
       0.691
       0.134
      -0.488
      -1.127
      -1.761
      -2.407
      -3.090
      -3.794
      -4.424
      -4.817
      -4.802
      -4.290
      -3.342
      -2.157
      -0.986
      -0.009
       0.738
       1.335
       1.874
       2.365
       2.730
       2.882
       2.822
       2.648
       2.491
       2.423
       2.415
       2.359
       2.161
       1.804
       1.368
       0.973
       0.687
       0.477
       0.223
      -0.189
      -0.780
      -1.452
      -2.028
      -2.345
      -2.332
      -2.034
      -1.591
      -1.159
      -0.827
      -0.582
      -0.349
      -0.066
       0.255
       0.535
       0.695
       0.728
       0.728
       0.835
       1.142
       1.615
       2.104
       2.426
       2.466
       2.236
       1.865
       1.521
       1.327
       1.299
       1.353
       1.375
       1.295
       1.114
       0.872
       0.598
       0.300
      -0.025
      -0.353
      -0.617
      -0.723
      -0.593
      -0.224
       0.286
       0.764
       1.027
       0.963
       0.586
       0.025
      -0.527
      -0.906
      -1.026
      -0.890
      -0.552
      -0.089
       0.427
       0.934
       1.369
       1.654
       1.692
       1.398
       0.750
      -0.163
      -1.150
      -1.982
      -2.494
      -2.647
      -2.526
      -2.273
      -2.016
      -1.823
      -1.712
      -1.671
      -1.673
      -1.684
      -1.646
      -1.482
      -1.127
      -0.582
       0.053
       0.592
       0.848
       0.718
       0.238
      -0.428
      -1.063
      -1.482
      -1.588
      -1.385
      -0.936
      -0.322
       0.359
       0.984
       1.414
       1.554
       1.417
       1.148
       0.953
       0.990
       1.288
       1.749
       2.229
       2.620
       2.874
       2.976
       2.905
       2.635
       2.179
       1.602
       0.999
       0.438
      -0.082
      -0.632
      -1.297
      -2.113
      -3.018
      -3.846
      -4.382
      -4.441
      -3.955
      -3.016
      -1.851
      -0.718
       0.197
       0.826
       1.177
       1.266
       1.086
       0.638
      -0.021
      -0.762
      -1.423
      -1.868
      -2.037
