Origin Time       15/2/2009 07:35:55 
Lat.              26.0 N 
Long.             90.2 E 
Depth (Km)         39.3
Magnitude         4.4
 Region           Assam-Meghalaya-Border                                           
 Above details taken from IMD 
   
Station Code      BAR
Station Lat.       26.332
Station Long.      91.006
Station Height(m)   47.0
Site Class        C   Vs30 between 200 m/sec to 375 m/sec *  
Record Time       15.02.2009 19:36:08.064
Sampling Rate     200. Hz
 Record Duration   65.905 Sec.
 Direction         Vert. (Up positive)
Max. Acceleration     -3.188 cm/sec**2
     
  * For reference see Site Classification link of website 
     
 Base Line Corrected and Low Pass Filtered (Cut Off at 35 Hz) Time History
 Acceleration data in cm/sec**2
    
[...]
       0.432
       0.484
       0.395
       0.177
      -0.055
      -0.154
      -0.057
       0.140
       0.242
       0.111
      -0.214
      -0.535
      -0.641
      -0.455
      -0.064
       0.366
       0.709
       0.915
       0.966
       0.839
       0.525
       0.076
      -0.385
      -0.725
      -0.860
      -0.793
      -0.597
      -0.379
      -0.234
      -0.185
      -0.165
      -0.062
       0.160
       0.394
       0.451
       0.235
      -0.146
      -0.455
      -0.533
      -0.422
      -0.295
      -0.257
      -0.239
      -0.095
       0.220
       0.573
       0.763
       0.703
       0.486
       0.272
       0.127
      -0.013
      -0.213
      -0.412
      -0.464
      -0.310
      -0.075
       0.046
       0.017
       0.028
       0.289
       0.754
       1.081
       0.914
       0.224
      -0.617
      -1.121
      -1.069
      -0.652
      -0.261
      -0.142
      -0.221
      -0.238
      -0.027
       0.318
       0.548
       0.507
       0.285
       0.120
       0.163
       0.318
       0.333
       0.031
      -0.508
      -0.999
      -1.161
      -0.923
      -0.453
      -0.010
       0.254
       0.379
       0.508
       0.719
       0.940
       1.003
       0.785
       0.315
      -0.225
      -0.617
      -0.738
      -0.617
      -0.389
      -0.179
      -0.014
       0.161
       0.373
       0.539
       0.506
       0.199
      -0.260
      -0.607
      -0.644
      -0.413
      -0.158
      -0.086
      -0.165
      -0.155
       0.129
       0.607
       0.989
       1.040
       0.792
       0.472
       0.261
       0.133
      -0.060
      -0.367
      -0.649
      -0.706
      -0.489
      -0.169
       0.030
       0.033
      -0.036
      -0.027
       0.064
       0.094
      -0.055
      -0.325
      -0.528
      -0.519
      -0.316
      -0.061
       0.120
       0.188
       0.172
       0.108
       0.032
      -0.020
      -0.029
      -0.009
       0.005
      -0.012
      -0.059
      -0.124
      -0.182
      -0.178
      -0.031
       0.286
       0.648
       0.812
       0.600
       0.086
      -0.427
      -0.647
      -0.537
      -0.316
      -0.230
      -0.324
      -0.426
      -0.348
      -0.080
       0.202
       0.317
       0.251
       0.178
       0.300
       0.657
       1.073
       1.272
       1.088
       0.593
       0.023
      -0.410
      -0.646
      -0.744
      -0.770
      -0.726
      -0.591
      -0.387
      -0.173
       0.023
       0.222
       0.425
       0.552
       0.493
       0.225
      -0.130
      -0.397
      -0.474
      -0.376
      -0.175
       0.049
       0.203
       0.209
       0.079
      -0.048
      -0.006
       0.219
       0.428
       0.380
       0.035
      -0.384
      -0.590
      -0.482
      -0.206
       0.012
       0.060
      -0.006
      -0.072
      -0.064
       0.023
       0.160
       0.291
       0.327
       0.168
      -0.194
      -0.604
      -0.801
      -0.603
      -0.069
       0.506
       0.795
       0.673
       0.282
      -0.113
      -0.338
      -0.391
      -0.374
      -0.369
      -0.374
      -0.332
      -0.190
       0.049
       0.307
       0.485
       0.535
       0.503
       0.489
       0.534
       0.570
       0.473
       0.200
      -0.140
      -0.369
      -0.388
      -0.261
      -0.143
      -0.142
      -0.222
      -0.236
      -0.055
       0.322
       0.742
       0.988
       0.917
       0.556
       0.074
      -0.332
      -0.562
      -0.654
      -0.699
      -0.740
      -0.731
      -0.623
      -0.446
      -0.285
      -0.178
      -0.065
       0.130
       0.384
       0.564
       0.547
       0.333
       0.034
      -0.225
      -0.374
      -0.410
      -0.364
      -0.286
      -0.231
      -0.201
      -0.126
       0.077
       0.393
       0.662
       0.695
       0.454
       0.114
      -0.080
      -0.034
       0.114
       0.135
      -0.056
      -0.326
      -0.462
      -0.376
      -0.183
      -0.069
      -0.124
      -0.274
      -0.357
      -0.265
      -0.014
       0.281
       0.493
       0.564
       0.531
       0.488
       0.508
       0.587
       0.641
       0.568
       0.330
      -0.018
      -0.366
      -0.624
      -0.777
      -0.871
      -0.958
      -1.029
      -0.997
      -0.757
      -0.290
       0.278
       0.748
       0.983
       1.008
       0.952
       0.915
       0.882
       0.748
       0.425
      -0.070
      -0.607
      -1.006
      -1.134
      -0.974
      -0.626
      -0.250
       0.033
       0.207
       0.351
       0.534
       0.721
       0.780
       0.610
       0.246
      -0.148
      -0.413
      -0.494
      -0.432
      -0.284
      -0.084
       0.125
       0.266
       0.260
       0.102
      -0.125
      -0.298
      -0.344
      -0.280
      -0.189
      -0.144
      -0.155
      -0.163
      -0.097
       0.054
       0.208
       0.252
       0.139
      -0.047
      -0.141
      -0.044
       0.167
       0.278
       0.124
      -0.249
      -0.596
      -0.674
      -0.449
      -0.112
       0.122
       0.192
       0.201
       0.241
       0.276
       0.186
      -0.074
      -0.381
      -0.528
      -0.391
      -0.034
       0.334
       0.523
       0.493
       0.362
       0.274
       0.260
       0.234
       0.118
      -0.031
      -0.066
       0.090
       0.328
       0.436
       0.298
      -0.013
      -0.319
      -0.498
      -0.550
      -0.529
      -0.458
      -0.319
      -0.111
       0.117
       0.283
       0.326
       0.238
       0.080
      -0.053
      -0.093
      -0.060
      -0.038
      -0.073
      -0.096
       0.027
       0.338
       0.680
       0.794
       0.556
       0.119
      -0.217
      -0.291
      -0.230
      -0.288
      -0.548
      -0.822
      -0.853
      -0.588
      -0.208
       0.081
       0.243
       0.382
       0.550
       0.653
       0.567
       0.298
      -0.005
      -0.205
      -0.315
      -0.442
      -0.624
      -0.750
      -0.667
      -0.345
       0.085
       0.442
       0.640
       0.715
       0.735
       0.707
       0.583
       0.342
       0.053
      -0.163
      -0.232
      -0.204
      -0.202
      -0.298
      -0.422
      -0.413
      -0.178
       0.180
       0.424
       0.393
       0.160
      -0.040
      -0.040
       0.094
       0.141
      -0.026
      -0.306
      -0.467
      -0.377
      -0.131
       0.062
       0.079
      -0.027
      -0.131
      -0.179
      -0.222
      -0.292
      -0.311
      -0.154
       0.180
       0.488
       0.508
       0.161
      -0.353
      -0.708
      -0.714
      -0.434
      -0.078
       0.201
       0.387
       0.518
       0.580
       0.521
       0.354
       0.196
       0.162
       0.234
       0.269
       0.162
      -0.019
      -0.094
       0.030
       0.230
       0.271
       0.047
      -0.302
      -0.527
      -0.516
      -0.393
      -0.355
      -0.452
      -0.531
      -0.426
      -0.152
       0.106
       0.198
       0.155
       0.131
       0.223
       0.376
       0.469
       0.444
       0.336
       0.190
       0.008
      -0.215
      -0.428
      -0.544
      -0.511
      -0.355
      -0.137
       0.094
       0.313
       0.492
       0.594
       0.593
       0.494
       0.326
       0.117
      -0.115
      -0.350
      -0.547
      -0.643
      -0.594
      -0.437
      -0.290
      -0.257
      -0.311
      -0.271
       0.038
       0.586
       1.100
       1.255
       0.946
       0.372
      -0.143
      -0.406
      -0.449
      -0.414
      -0.393
      -0.398
      -0.412
      -0.421
      -0.383
      -0.242
      -0.013
       0.164
       0.132
      -0.106
      -0.347
      -0.369
      -0.148
       0.126
       0.258
       0.243
       0.233
       0.328
       0.437
       0.383
       0.122
      -0.181
      -0.298
      -0.167
       0.050
       0.130
       0.010
      -0.152
      -0.126
       0.159
       0.533
       0.724
       0.615
       0.345
       0.149
       0.091
      -0.001
      -0.320
      -0.810
      -1.166
      -1.133
      -0.771
      -0.395
      -0.250
      -0.282
      -0.247
      -0.010
       0.307
       0.490
       0.484
       0.456
       0.585
       0.843
       0.996
       0.836
       0.385
      -0.099
      -0.340
      -0.263
      -0.033
       0.108
       0.052
      -0.106
      -0.195
      -0.155
      -0.115
      -0.250
      -0.583
      -0.919
      -1.010
      -0.788
      -0.420
      -0.137
      -0.010
       0.071
       0.218
       0.375
       0.363
       0.091
      -0.309
      -0.571
      -0.521
      -0.200
       0.198
       0.486
       0.582
       0.529
       0.443
       0.447
       0.580
       0.752
       0.786
       0.578
       0.221
      -0.041
      -0.027
       0.193
       0.354
       0.251
      -0.048
      -0.260
      -0.154
       0.240
       0.692
       0.998
       1.118
       1.096
       0.909
       0.475
      -0.171
      -0.771
      -1.020
      -0.867
      -0.607
      -0.612
      -0.941
      -1.269
      -1.223
      -0.777
      -0.291
      -0.140
      -0.330
      -0.503
      -0.313
       0.229
       0.769
       0.955
       0.746
       0.402
       0.207
       0.216
       0.270
       0.223
       0.127
       0.166
       0.429
       0.779
       0.998
       1.046
       1.132
       1.465
       1.956
       2.207
       1.877
       1.049
       0.224
      -0.100
       0.137
       0.503
       0.465
      -0.158
      -1.067
      -1.759
      -1.933
      -1.661
      -1.273
      -1.079
      -1.181
      -1.463
      -1.723
      -1.842
      -1.851
      -1.880
      -2.024
      -2.254
      -2.435
      -2.442
      -2.242
      -1.885
      -1.423
      -0.868
      -0.239
       0.379
       0.863
       1.166
       1.369
       1.599
       1.874
       2.058
       1.958
       1.515
       0.894
       0.405
       0.300
       0.597
       1.059
       1.369
       1.363
       1.130
       0.910
       0.875
       1.012
       1.178
       1.245
       1.177
       0.986
       0.675
       0.246
      -0.245
      -0.695
      -1.023
      -1.248
      -1.451
      -1.673
      -1.846
      -1.846
      -1.605
      -1.157
      -0.599
      -0.032
       0.463
       0.816
       0.981
       0.958
       0.785
       0.479
       0.014
      -0.608
      -1.260
      -1.690
      -1.682
      -1.236
      -0.582
       0.016
       0.478
       0.921
       1.460
       2.016
       2.329
       2.161
       1.510
       0.625
      -0.174
      -0.708
      -0.997
      -1.153
      -1.248
      -1.275
      -1.211
      -1.064
      -0.847
      -0.539
      -0.098
       0.462
       1.031
       1.450
       1.633
       1.626
       1.521
       1.293
       0.789
      -0.094
      -1.192
      -2.100
      -2.445
      -2.165
      -1.522
      -0.842
      -0.250
       0.347
       1.036
       1.705
       2.101
       2.061
       1.678
       1.205
       0.831
       0.554
       0.266
      -0.082
      -0.425
      -0.670
      -0.797
      -0.860
      -0.905
      -0.927
      -0.908
      -0.878
      -0.898
      -0.971
      -1.008
      -0.881
      -0.541
      -0.085
       0.284
       0.391
       0.215
      -0.083
      -0.260
      -0.162
       0.167
       0.518
       0.653
       0.443
      -0.057
      -0.604
      -0.864
      -0.596
       0.159
       1.056
       1.652
       1.733
       1.460
       1.199
       1.179
       1.286
       1.188
       0.667
      -0.134
      -0.804
      -1.007
      -0.774
      -0.470
      -0.455
      -0.750
      -1.016
      -0.894
      -0.393
       0.059
      -0.016
      -0.682
      -1.479
      -1.796
      -1.393
      -0.590
       0.056
       0.244
       0.131
       0.068
       0.227
       0.494
       0.691
       0.802
       0.944
       1.175
       1.397
       1.495
       1.485
       1.479
       1.494
       1.366
       0.915
       0.183
      -0.541
      -0.957
      -1.007
      -0.878
      -0.782
      -0.772
      -0.785
      -0.810
      -0.927
      -1.180
      -1.466
      -1.612
      -1.528
      -1.257
      -0.858
      -0.312
       0.419
       1.257
       1.985
       2.377
       2.344
       1.970
       1.434
       0.913
       0.523
       0.275
       0.066
      -0.258
      -0.744
      -1.229
      -1.432
      -1.184
      -0.579
       0.132
       0.738
       1.153
       1.323
       1.140
       0.533
      -0.375
      -1.261
      -1.836
      -2.070
      -2.167
      -2.309
      -2.441
      -2.341
      -1.859
      -1.080
      -0.270
       0.303
       0.506
       0.386
       0.147
       0.054
       0.267
       0.700
       1.062
       1.092
       0.796
       0.438
       0.297
       0.414
       0.576
       0.545
       0.293
       0.049
       0.106
       0.575
       1.287
       1.924
       2.251
       2.245
       2.041
       1.785
       1.549
       1.370
       1.291
       1.315
       1.320
       1.088
       0.487
      -0.357
      -1.098
      -1.436
      -1.369
      -1.172
      -1.118
      -1.248
      -1.390
      -1.406
      -1.334
      -1.293
      -1.268
      -1.077
      -0.583
       0.068
       0.504
       0.445
      -0.053
      -0.682
      -1.192
      -1.579
      -1.992
      -2.499
      -2.977
      -3.188
      -2.939
      -2.193
      -1.092
       0.111
       1.162
       1.906
       2.293
       2.316
       1.990
       1.405
       0.790
       0.447
       0.565
       1.051
       1.590
       1.879
       1.850
       1.684
       1.646
       1.880
       2.315
       2.707
       2.760
       2.301
       1.411
       0.428
      -0.257
      -0.500
      -0.526
      -0.730
      -1.283
      -1.965
      -2.402
      -2.473
      -2.427
      -2.571
      -2.861
      -2.886
      -2.303
      -1.271
      -0.400
      -0.206
      -0.610
      -1.009
      -0.864
      -0.202
       0.437
       0.557
       0.175
      -0.209
      -0.104
       0.522
       1.242
       1.585
       1.469
       1.217
       1.187
       1.383
       1.455
       1.066
       0.256
      -0.562
      -0.968
      -0.898
      -0.655
      -0.582
      -0.720
      -0.777
      -0.460
       0.182
       0.760
       0.905
       0.637
       0.357
       0.461
       0.948
       1.408
       1.403
       0.861
       0.143
      -0.264
      -0.143
       0.301
       0.646
       0.618
       0.282
      -0.057
      -0.149
       0.015
       0.238
       0.313
       0.178
      -0.069
      -0.281
      -0.395
      -0.480
      -0.661
      -1.002
      -1.434
      -1.791
      -1.907
      -1.697
      -1.200
      -0.572
      -0.025
       0.263
       0.244
       0.025
      -0.187
      -0.219
      -0.054
       0.162
       0.241
       0.131
      -0.013
       0.059
       0.482
       1.154
       1.803
       2.188
       2.251
       2.112
       1.936
       1.820
       1.745
       1.621
       1.349
       0.886
       0.263
      -0.433
      -1.089
      -1.599
      -1.889
      -1.966
      -1.948
      -2.010
      -2.225
      -2.441
      -2.362
      -1.825
      -1.010
      -0.354
      -0.199
      -0.504
      -0.888
      -0.971
      -0.697
      -0.328
      -0.161
      -0.224
      -0.268
      -0.036
       0.449
       0.869
       0.887
       0.472
      -0.046
      -0.225
       0.144
       0.881
       1.577
       1.899
       1.792
       1.440
       1.074
       0.835
       0.762
       0.825
       0.925
       0.882
       0.530
      -0.106
      -0.752
      -1.050
      -0.841
      -0.292
       0.253
       0.540
       0.562
       0.515
       0.628
       1.011
       1.584
       2.073
       2.097
       1.372
      -0.042
      -1.664
      -2.810
      -3.032
      -2.440
      -1.618
      -1.171
      -1.270
      -1.565
      -1.527
      -0.911
       0.045
       0.835
       1.083
       0.812
       0.366
       0.124
       0.208
       0.417
       0.415
       0.032
      -0.571
      -1.027
      -1.064
      -0.721
      -0.280
       0.024
       0.203
       0.433
       0.778
       1.044
       0.943
       0.406
      -0.301
      -0.796
      -0.885
      -0.661
      -0.350
      -0.114
       0.009
       0.064
       0.124
       0.259
       0.481
       0.690
       0.714
       0.460
       0.036
      -0.311
      -0.410
      -0.307
      -0.166
      -0.022
       0.278
       0.857
       1.558
       1.983
       1.844
       1.237
       0.539
       0.025
      -0.354
      -0.805
      -1.363
      -1.806
      -1.890
      -1.586
      -1.061
      -0.495
       0.027
       0.455
       0.718
       0.774
       0.679
       0.532
       0.351
       0.066
      -0.344
      -0.734
      -0.876
      -0.665
      -0.234
       0.173
       0.410
       0.506
       0.538
       0.498
       0.320
       0.023
      -0.216
      -0.204
       0.051
       0.283
       0.163
      -0.404
      -1.157
      -1.643
      -1.557
      -0.976
      -0.287
       0.131
       0.214
       0.220
       0.432
       0.868
       1.251
       1.280
       0.897
       0.315
      -0.189
      -0.455
      -0.459
      -0.235
       0.173
       0.672
       1.108
       1.323
       1.225
       0.815
       0.169
      -0.555
      -1.100
      -1.185
      -0.688
       0.182
       0.951
       1.211
       0.959
       0.610
       0.615
       1.027
       1.446
       1.397
       0.778
      -0.054
      -0.600
      -0.621
      -0.259
       0.150
       0.354
       0.297
       0.064
      -0.228
      -0.488
      -0.662
      -0.744
      -0.790
      -0.880
      -1.045
      -1.215
      -1.248
      -1.045
      -0.660
      -0.291
      -0.152
      -0.289
      -0.531
      -0.644
      -0.548
      -0.403
      -0.445
      -0.747
      -1.122
      -1.271
      -1.022
      -0.452
       0.191
       0.653
       0.812
       0.711
       0.498
       0.322
       0.244
       0.210
       0.109
      -0.122
      -0.430
      -0.674
      -0.730
      -0.571
      -0.259
       0.136
       0.593
       1.144
       1.792
       2.428
       2.817
       2.699
       1.978
       0.846
      -0.296
      -1.068
      -1.325
      -1.182
      -0.869
      -0.573
      -0.369
      -0.250
      -0.168
      -0.060
       0.114
       0.321
       0.453
       0.406
       0.191
      -0.044
      -0.133
      -0.058
       0.001
      -0.176
      -0.618
      -1.062
      -1.146
      -0.727
      -0.057
       0.410
       0.413
       0.134
       0.023
       0.356
       0.953
       1.336
       1.179
       0.604
       0.026
      -0.267
      -0.371
      -0.587
      -1.029
      -1.444
      -1.454
      -0.961
      -0.273
       0.180
       0.232
       0.088
       0.088
       0.372
       0.779
       1.018
       0.918
       0.539
       0.080
      -0.309
      -0.631
      -0.995
      -1.464
      -1.959
      -2.282
      -2.255
      -1.856
      -1.228
      -0.575
      -0.011
       0.493
       1.020
       1.571
