Origin Time       18/03/2009 11:22:42 UTC
Lat.              30.9°N 
Long.             78.2°E 
Depth (Km)         10.0
Magnitude         3.3
 Region           Uttarakhand                                                      
 Above details taken from IMD 
    
Station Code      BAR
Station Lat.       30.809  N
Station Long.      78.656  E
Station Height(m) 1305.0
Site Class        A   Vs30 between 700 m/sec to 1400 m/sec * 
Record Time       18.03.2009 11:23:35.954 UTC
Sampling Rate     200. Hz
 Record Duration   65.480 Sec.
 Direction         N-S (N positive)
Max. Acceleration     -4.990 cm/sec**2
     
  * For reference see Site Classification link of website 
     
 Base Line Corrected and Low Pass Filtered (Cut Off at 35 Hz) Time History
 Acceleration data in cm/sec**2
    
[...]
      -0.012
      -0.004
       0.002
       0.004
       0.002
       0.001
      -0.001
      -0.002
      -0.001
       0.002
       0.001
      -0.003
      -0.005
       0.002
       0.016
       0.026
       0.026
       0.021
       0.016
       0.015
       0.015
       0.013
       0.010
       0.009
       0.008
       0.009
       0.011
       0.015
       0.016
       0.010
      -0.001
      -0.008
      -0.004
       0.005
       0.007
      -0.001
      -0.012
      -0.015
      -0.009
       0.000
       0.009
       0.015
       0.017
       0.014
       0.007
       0.000
      -0.003
      -0.001
       0.000
       0.000
      -0.001
      -0.003
      -0.007
      -0.013
      -0.016
      -0.011
       0.001
       0.013
       0.019
       0.019
       0.016
       0.012
       0.006
       0.001
       0.001
       0.007
       0.013
       0.017
       0.018
       0.019
       0.017
       0.012
       0.004
       0.001
       0.006
       0.013
       0.013
       0.004
      -0.009
      -0.019
      -0.022
      -0.018
      -0.006
       0.011
       0.025
       0.032
       0.028
       0.021
       0.014
       0.010
       0.004
       0.001
       0.001
       0.005
       0.007
       0.005
       0.003
       0.007
       0.011
       0.008
      -0.003
      -0.012
      -0.013
      -0.004
       0.007
       0.015
       0.017
       0.014
       0.010
       0.006
       0.009
       0.018
       0.025
       0.023
       0.013
       0.001
      -0.005
      -0.008
      -0.012
      -0.016
      -0.019
      -0.019
      -0.020
      -0.020
      -0.014
       0.000
       0.015
       0.026
       0.028
       0.024
       0.019
       0.011
       0.001
      -0.009
      -0.015
      -0.014
      -0.009
      -0.005
      -0.002
       0.002
       0.006
       0.007
       0.008
       0.011
       0.015
       0.016
       0.009
      -0.001
      -0.003
       0.004
       0.014
       0.019
       0.019
       0.016
       0.011
       0.005
      -0.003
      -0.006
      -0.003
       0.000
      -0.001
      -0.005
      -0.003
       0.003
       0.008
       0.005
      -0.001
       0.000
       0.011
       0.021
       0.022
       0.012
      -0.002
      -0.010
      -0.009
      -0.003
       0.005
       0.009
       0.007
      -0.001
      -0.006
      -0.005
      -0.002
       0.000
       0.000
       0.001
       0.007
       0.013
       0.013
       0.008
       0.004
       0.007
       0.012
       0.015
       0.015
       0.011
       0.005
      -0.003
      -0.010
      -0.010
      -0.006
      -0.003
      -0.007
      -0.010
      -0.007
       0.001
       0.007
       0.004
      -0.001
      -0.002
       0.002
       0.007
       0.010
       0.010
       0.006
      -0.003
      -0.013
      -0.016
      -0.008
       0.003
       0.009
       0.006
      -0.001
      -0.008
      -0.012
      -0.014
      -0.011
      -0.003
       0.008
       0.013
       0.008
      -0.003
      -0.013
      -0.017
      -0.017
      -0.015
      -0.010
      -0.004
      -0.001
      -0.002
      -0.005
      -0.004
       0.001
       0.004
       0.004
       0.001
      -0.001
       0.000
       0.000
       0.000
       0.000
       0.003
       0.004
       0.001
      -0.003
      -0.005
      -0.005
      -0.003
      -0.002
      -0.001
       0.001
       0.000
      -0.003
      -0.007
      -0.007
      -0.004
      -0.004
      -0.010
      -0.016
      -0.014
      -0.004
       0.006
       0.011
       0.009
       0.009
       0.010
       0.010
       0.009
       0.007
       0.005
       0.001
      -0.006
      -0.014
      -0.017
      -0.015
      -0.012
      -0.009
      -0.005
       0.000
       0.001
      -0.006
      -0.014
      -0.013
      -0.002
       0.010
       0.012
       0.004
      -0.002
       0.000
       0.005
       0.008
       0.006
       0.004
       0.002
       0.002
       0.002
       0.003
       0.002
      -0.002
      -0.009
      -0.014
      -0.013
      -0.007
      -0.003
      -0.005
      -0.009
      -0.012
      -0.015
      -0.020
      -0.023
      -0.021
      -0.012
      -0.003
      -0.001
       0.000
       0.005
       0.014
       0.021
       0.022
       0.020
       0.018
       0.015
       0.008
      -0.004
      -0.013
      -0.016
      -0.014
      -0.010
      -0.007
      -0.004
      -0.004
      -0.006
      -0.010
      -0.010
      -0.004
       0.004
       0.010
       0.009
       0.007
       0.005
       0.006
       0.010
       0.016
       0.022
       0.021
       0.011
      -0.001
      -0.006
       0.001
       0.011
       0.011
       0.000
      -0.014
      -0.021
      -0.018
      -0.012
      -0.006
      -0.001
       0.002
       0.002
       0.000
      -0.002
      -0.001
       0.001
       0.002
       0.004
       0.007
       0.010
       0.008
       0.004
       0.002
       0.008
       0.017
       0.020
       0.013
       0.005
       0.003
       0.007
       0.011
       0.012
       0.010
       0.007
       0.004
       0.002
       0.003
       0.005
       0.003
      -0.003
      -0.009
      -0.010
      -0.003
       0.004
       0.007
       0.006
       0.005
       0.004
       0.002
      -0.001
       0.000
       0.008
       0.017
       0.020
       0.015
       0.006
      -0.001
      -0.005
      -0.007
      -0.006
      -0.002
       0.005
       0.007
       0.004
       0.002
       0.003
       0.006
       0.005
       0.001
      -0.002
       0.000
       0.001
      -0.002
      -0.003
       0.001
       0.011
       0.019
       0.017
       0.007
      -0.004
      -0.008
      -0.007
      -0.005
      -0.003
      -0.001
      -0.002
      -0.008
      -0.013
      -0.013
      -0.008
      -0.005
      -0.005
      -0.007
      -0.007
      -0.006
      -0.007
      -0.007
      -0.002
       0.006
       0.012
       0.013
       0.012
       0.011
       0.006
      -0.003
      -0.014
      -0.020
      -0.016
      -0.010
      -0.009
      -0.015
      -0.022
      -0.023
      -0.021
      -0.019
      -0.018
      -0.018
      -0.015
      -0.013
      -0.010
      -0.006
      -0.001
       0.005
       0.008
       0.012
       0.019
       0.025
       0.024
       0.013
      -0.002
      -0.013
      -0.021
      -0.023
      -0.018
      -0.004
       0.014
       0.025
       0.020
       0.009
       0.014
       0.044
       0.086
       0.118
       0.136
       0.152
       0.169
       0.171
       0.143
       0.093
       0.038
      -0.013
      -0.069
      -0.129
      -0.182
      -0.220
      -0.243
      -0.262
      -0.288
      -0.330
      -0.381
      -0.416
      -0.399
      -0.323
      -0.214
      -0.104
       0.006
       0.130
       0.266
       0.383
       0.444
       0.435
       0.372
       0.295
       0.256
       0.291
       0.379
       0.443
       0.399
       0.230
       0.007
      -0.167
      -0.236
      -0.216
      -0.155
      -0.075
       0.038
       0.182
       0.300
       0.298
       0.139
      -0.111
      -0.316
      -0.386
      -0.343
      -0.279
      -0.264
      -0.289
      -0.304
      -0.274
      -0.207
      -0.128
      -0.051
       0.024
       0.085
       0.104
       0.041
      -0.108
      -0.281
      -0.385
      -0.361
      -0.224
      -0.026
       0.210
       0.476
       0.724
       0.847
       0.761
       0.502
       0.214
       0.031
      -0.030
      -0.065
      -0.169
      -0.329
      -0.433
      -0.373
      -0.159
       0.079
       0.200
       0.166
       0.068
       0.030
       0.102
       0.227
       0.314
       0.314
       0.232
       0.091
      -0.091
      -0.291
      -0.467
      -0.587
      -0.649
      -0.682
      -0.696
      -0.644
      -0.436
      -0.023
       0.525
       1.023
       1.274
       1.194
       0.859
       0.446
       0.112
      -0.085
      -0.194
      -0.300
      -0.437
      -0.556
      -0.560
      -0.392
      -0.102
       0.165
       0.267
       0.175
      -0.022
      -0.206
      -0.324
      -0.398
      -0.473
      -0.563
      -0.633
      -0.619
      -0.473
      -0.205
       0.115
       0.388
       0.536
       0.524
       0.369
       0.132
      -0.084
      -0.183
      -0.131
       0.032
       0.242
       0.466
       0.679
       0.817
       0.788
       0.572
       0.291
       0.132
       0.187
       0.373
       0.509
       0.482
       0.331
       0.190
       0.136
       0.092
      -0.101
      -0.488
      -0.909
      -1.123
      -1.025
      -0.744
      -0.503
      -0.417
      -0.415
      -0.357
      -0.201
      -0.039
       0.023
       0.002
       0.009
       0.107
       0.214
       0.189
       0.004
      -0.202
      -0.248
      -0.090
       0.134
       0.238
       0.168
       0.038
       0.000
       0.089
       0.207
       0.256
       0.244
       0.262
       0.346
       0.413
       0.336
       0.087
      -0.205
      -0.366
      -0.337
      -0.213
      -0.109
      -0.030
       0.098
       0.286
       0.419
       0.364
       0.123
      -0.146
      -0.268
      -0.196
      -0.026
       0.108
       0.143
       0.126
       0.150
       0.255
       0.385
       0.442
       0.379
       0.237
       0.089
      -0.037
      -0.168
      -0.325
      -0.468
      -0.529
      -0.483
      -0.382
      -0.308
      -0.297
      -0.315
      -0.293
      -0.179
       0.018
       0.227
       0.363
       0.388
       0.345
       0.316
       0.336
       0.341
       0.226
      -0.037
      -0.342
      -0.522
      -0.481
      -0.268
      -0.026
       0.136
       0.218
       0.301
       0.452
       0.638
       0.739
       0.639
       0.334
      -0.054
      -0.366
      -0.523
      -0.555
      -0.530
      -0.483
      -0.391
      -0.224
      -0.003
       0.208
       0.353
       0.417
       0.404
       0.304
       0.101
      -0.170
      -0.420
      -0.555
      -0.558
      -0.498
      -0.468
      -0.510
      -0.587
      -0.621
      -0.548
      -0.361
      -0.108
       0.131
       0.283
       0.301
       0.185
       0.008
      -0.080
       0.072
       0.484
       0.986
       1.310
       1.293
       0.995
       0.622
       0.346
       0.189
       0.089
       0.023
       0.037
       0.163
       0.331
       0.398
       0.272
      -0.012
      -0.322
      -0.543
      -0.645
      -0.649
      -0.571
      -0.408
      -0.174
       0.058
       0.176
       0.107
      -0.114
      -0.340
      -0.415
      -0.286
      -0.031
       0.223
       0.402
       0.500
       0.529
       0.474
       0.317
       0.072
      -0.197
      -0.416
      -0.541
      -0.575
      -0.548
      -0.502
      -0.473
      -0.487
      -0.532
      -0.566
      -0.550
      -0.495
      -0.456
      -0.484
      -0.572
      -0.653
      -0.646
      -0.515
      -0.272
       0.057
       0.473
       0.984
       1.539
       1.987
       2.134
       1.873
       1.299
       0.674
       0.260
       0.139
       0.196
       0.250
       0.203
       0.065
      -0.116
      -0.322
      -0.557
      -0.796
      -0.974
      -1.029
      -0.973
      -0.890
      -0.856
      -0.854
      -0.778
      -0.547
      -0.194
       0.144
       0.342
       0.383
       0.345
       0.316
       0.338
       0.410
       0.541
       0.755
       1.048
       1.350
       1.535
       1.478
       1.123
       0.514
      -0.209
      -0.871
      -1.341
      -1.592
      -1.708
      -1.799
      -1.902
      -1.942
      -1.791
      -1.368
      -0.701
       0.078
       0.797
       1.305
       1.520
       1.447
       1.179
       0.848
       0.558
       0.346
       0.192
       0.083
       0.045
       0.125
       0.321
       0.551
       0.683
       0.629
       0.408
       0.127
      -0.090
      -0.176
      -0.143
      -0.041
       0.080
       0.172
       0.177
       0.042
      -0.234
      -0.578
      -0.847
      -0.898
      -0.672
      -0.262
       0.114
       0.240
       0.060
      -0.276
      -0.528
      -0.529
      -0.287
       0.071
       0.418
       0.699
       0.898
       0.986
       0.922
       0.721
       0.493
       0.397
       0.519
       0.817
       1.164
       1.437
       1.555
       1.447
       1.050
       0.395
      -0.320
      -0.787
      -0.797
      -0.438
      -0.075
      -0.066
      -0.465
      -0.983
      -1.261
      -1.197
      -0.999
      -0.938
      -1.086
      -1.287
      -1.354
      -1.255
      -1.106
      -1.020
      -0.991
      -0.933
      -0.782
      -0.560
      -0.348
      -0.222
      -0.207
      -0.272
      -0.343
      -0.349
      -0.292
      -0.268
      -0.370
      -0.546
      -0.566
      -0.195
       0.542
       1.299
       1.654
       1.480
       1.070
       0.866
       1.020
       1.244
       1.096
       0.442
      -0.369
      -0.817
      -0.695
      -0.305
      -0.156
      -0.477
      -1.031
      -1.381
      -1.296
      -0.882
      -0.369
       0.148
       0.733
       1.416
       2.068
       2.488
       2.597
       2.496
       2.342
       2.179
       1.920
       1.480
       0.907
       0.364
      -0.031
      -0.328
      -0.719
      -1.382
      -2.344
      -3.450
      -4.427
      -4.990
      -4.949
      -4.299
      -3.243
      -2.100
      -1.125
      -0.380
       0.246
       0.885
       1.569
       2.242
       2.828
       3.262
       3.445
       3.258
       2.668
       1.840
       1.086
       0.676
       0.635
       0.735
       0.694
       0.396
      -0.054
      -0.475
      -0.770
      -0.954
      -1.048
      -0.981
      -0.632
       0.038
       0.905
       1.727
       2.290
       2.513
       2.436
       2.127
       1.600
       0.845
      -0.066
      -0.930
      -1.495
      -1.632
      -1.444
      -1.199
      -1.157
      -1.423
      -1.920
      -2.461
      -2.833
      -2.851
      -2.420
      -1.592
      -0.602
       0.206
       0.551
       0.397
      -0.007
      -0.286
      -0.183
       0.308
       0.995
       1.647
       2.121
       2.365
       2.366
       2.117
       1.655
       1.085
       0.545
       0.136
      -0.126
      -0.266
      -0.292
      -0.200
      -0.024
       0.129
       0.141
      -0.013
      -0.211
      -0.265
      -0.062
       0.343
       0.763
       1.002
       0.960
       0.656
       0.190
      -0.316
      -0.761
      -1.087
      -1.306
      -1.498
      -1.760
      -2.112
      -2.454
      -2.642
      -2.625
      -2.496
      -2.383
      -2.296
      -2.106
      -1.676
      -1.029
      -0.370
       0.045
       0.092
      -0.156
      -0.512
      -0.818
      -1.021
      -1.117
      -1.059
      -0.739
      -0.077
       0.845
       1.784
       2.477
       2.833
       2.958
       3.004
       3.005
       2.878
       2.572
       2.177
       1.878
       1.802
       1.925
       2.135
       2.337
       2.490
       2.556
       2.442
       2.043
       1.355
       0.549
      -0.107
      -0.424
      -0.425
      -0.309
      -0.282
      -0.411
      -0.618
      -0.777
      -0.824
      -0.787
      -0.747
      -0.786
      -0.931
      -1.135
      -1.309
      -1.380
      -1.341
      -1.242
      -1.150
      -1.095
      -1.053
      -0.995
      -0.943
      -0.994
      -1.237
      -1.650
      -2.089
      -2.388
      -2.474
      -2.399
      -2.264
      -2.135
      -2.020
      -1.894
      -1.735
      -1.514
      -1.191
      -0.714
      -0.050
       0.778
       1.680
       2.517
       3.157
       3.533
       3.663
       3.630
       3.522
       3.383
       3.205
       2.958
       2.635
       2.269
       1.904
       1.543
       1.135
       0.630
       0.048
      -0.504
      -0.924
      -1.200
      -1.417
      -1.662
      -1.935
      -2.156
      -2.245
      -2.186
      -2.005
      -1.728
      -1.378
      -1.012
      -0.736
      -0.665
      -0.824
      -1.101
      -1.301
      -1.275
      -1.030
      -0.703
      -0.440
      -0.276
      -0.145
       0.014
       0.170
       0.232
       0.164
       0.060
       0.093
       0.375
       0.875
       1.454
       1.974
       2.372
       2.648
       2.806
       2.820
       2.659
       2.334
       1.911
       1.460
       1.001
       0.490
      -0.099
      -0.689
      -1.119
      -1.277
      -1.230
      -1.209
      -1.439
      -1.944
      -2.516
      -2.862
      -2.801
      -2.372
      -1.778
      -1.235
      -0.860
      -0.644
      -0.515
      -0.404
      -0.263
      -0.038
       0.338
       0.909
       1.633
       2.366
       2.918
       3.145
       3.011
       2.585
       1.992
       1.351
       0.746
       0.216
      -0.243
      -0.670
      -1.113
      -1.585
      -2.046
      -2.420
      -2.638
      -2.663
      -2.490
      -2.135
      -1.628
      -1.021
      -0.382
       0.237
       0.824
       1.397
       1.949
       2.419
       2.718
       2.791
       2.664
       2.419
       2.133
       1.838
       1.531
       1.217
       0.931
       0.702
       0.506
       0.256
      -0.138
      -0.694
      -1.330
      -1.914
      -2.356
      -2.642
      -2.800
      -2.845
      -2.770
      -2.590
      -2.350
      -2.095
      -1.826
      -1.511
      -1.131
      -0.722
      -0.369
      -0.156
      -0.093
      -0.105
      -0.089
      -0.013
       0.053
       0.011
      -0.150
      -0.314
      -0.324
      -0.107
       0.294
       0.780
       1.266
       1.695
       2.009
       2.154
       2.125
       1.987
       1.821
       1.666
       1.501
       1.304
       1.099
       0.946
       0.875
       0.834
       0.703
       0.388
      -0.102
      -0.660
      -1.146
      -1.469
      -1.608
      -1.580
      -1.410
      -1.118
      -0.729
      -0.289
       0.146
       0.523
       0.815
       1.032
       1.204
       1.355
       1.483
       1.551
       1.514
       1.351
       1.085
       0.752
       0.366
      -0.089
      -0.609
      -1.123
      -1.509
      -1.670
      -1.607
      -1.414
      -1.207
      -1.044
      -0.911
      -0.772
      -0.635
      -0.540
      -0.501
      -0.457
      -0.310
      -0.018
       0.338
       0.603
       0.665
       0.534
       0.318
       0.130
       0.027
       0.012
       0.084
       0.236
       0.429
       0.586
       0.655
       0.670
       0.730
       0.893
       1.092
       1.176
       1.058
       0.805
       0.583
       0.492
       0.481
       0.415
       0.221
      -0.036
      -0.223
      -0.265
      -0.212
      -0.180
      -0.250
      -0.409
      -0.595
      -0.779
      -0.975
      -1.194
      -1.391
      -1.490
      -1.456
      -1.345
      -1.270
      -1.307
      -1.437
      -1.564
      -1.590
      -1.478
      -1.262
      -1.007
      -0.772
      -0.594
      -0.483
      -0.413
      -0.336
      -0.197
       0.020
       0.286
       0.539
       0.722
       0.813
