Origin Time       20/06/2011 06:27:18
Lat.              30.5 N	
Long.             79.4 E	
Depth (Km)         12.0
Magnitude         4.6
 Region           Chamoli-Uttarakhand                                              
 Above details taken from IMD 
     
Station Code      BAR
Station Lat.       30.809  N
Station Long.      78.205  E
Station Height(m) 1305.0
Site Class        A   Vs30 between 700 m/sec to 1400 m/sec * 
Record Time       20.06.2011 06:27:20.604
Sampling Rate     200. Hz
 Record Duration   95.415 Sec.
 Direction         E-W (E positive)
Max. Acceleration      5.593 cm/sec**2
     
  * For reference see Site Classification link of website 
     
 Base Line Corrected and Low Pass Filtered (Cut Off at 35 Hz) Time History
 Acceleration data in cm/sec**2
    
[...]
      -0.339
      -0.294
      -0.246
      -0.188
      -0.115
      -0.028
       0.063
       0.149
       0.224
       0.287
       0.337
       0.377
       0.408
       0.436
       0.462
       0.493
       0.529
       0.574
       0.629
       0.694
       0.761
       0.819
       0.852
       0.842
       0.783
       0.677
       0.539
       0.381
       0.213
       0.032
      -0.168
      -0.391
      -0.631
      -0.868
      -1.074
      -1.228
      -1.321
      -1.358
      -1.349
      -1.297
      -1.203
      -1.069
      -0.906
      -0.722
      -0.525
      -0.318
      -0.104
       0.112
       0.324
       0.523
       0.704
       0.860
       0.988
       1.086
       1.150
       1.170
       1.136
       1.043
       0.897
       0.713
       0.509
       0.301
       0.097
      -0.094
      -0.274
      -0.443
      -0.592
      -0.702
      -0.749
      -0.716
      -0.613
      -0.468
      -0.317
      -0.184
      -0.075
       0.015
       0.090
       0.149
       0.188
       0.206
       0.203
       0.173
       0.112
       0.020
      -0.090
      -0.197
      -0.286
      -0.353
      -0.407
      -0.462
      -0.526
      -0.593
      -0.656
      -0.705
      -0.731
      -0.723
      -0.669
      -0.565
      -0.416
      -0.232
      -0.028
       0.187
       0.403
       0.614
       0.805
       0.961
       1.070
       1.129
       1.143
       1.122
       1.069
       0.984
       0.866
       0.725
       0.580
       0.454
       0.363
       0.306
       0.265
       0.218
       0.141
       0.023
      -0.130
      -0.291
      -0.430
      -0.522
      -0.568
      -0.583
      -0.587
      -0.587
      -0.573
      -0.530
      -0.448
      -0.337
      -0.211
      -0.088
       0.024
       0.120
       0.196
       0.249
       0.276
       0.279
       0.261
       0.225
       0.176
       0.123
       0.078
       0.053
       0.044
       0.035
       0.004
      -0.051
      -0.121
      -0.186
      -0.237
      -0.274
      -0.311
      -0.361
      -0.431
      -0.513
      -0.593
      -0.656
      -0.691
      -0.697
      -0.675
      -0.629
      -0.557
      -0.461
      -0.346
      -0.220
      -0.088
       0.048
       0.190
       0.334
       0.465
       0.567
       0.625
       0.640
       0.625
       0.596
       0.562
       0.522
       0.469
       0.405
       0.339
       0.279
       0.230
       0.188
       0.144
       0.093
       0.035
      -0.023
      -0.071
      -0.103
      -0.122
      -0.132
      -0.138
      -0.143
      -0.147
      -0.150
      -0.149
      -0.139
      -0.117
      -0.086
      -0.056
      -0.034
      -0.020
      -0.004
       0.024
       0.063
       0.106
       0.143
       0.169
       0.182
       0.184
       0.181
       0.174
       0.166
       0.154
       0.136
       0.111
       0.087
       0.074
       0.078
       0.090
       0.094
       0.080
       0.052
       0.025
       0.010
       0.002
      -0.010
      -0.038
      -0.089
      -0.159
      -0.248
      -0.354
      -0.468
      -0.574
      -0.650
      -0.683
      -0.674
      -0.625
      -0.543
      -0.433
      -0.311
      -0.194
      -0.099
      -0.032
       0.009
       0.032
       0.047
       0.060
       0.074
       0.092
       0.108
       0.116
       0.113
       0.111
       0.129
       0.182
       0.273
       0.394
       0.528
       0.659
       0.766
       0.834
       0.853
       0.829
       0.781
       0.729
       0.684
       0.644
       0.596
       0.525
       0.426
       0.303
       0.168
       0.032
      -0.102
      -0.230
      -0.354
      -0.467
      -0.563
      -0.637
      -0.685
      -0.707
      -0.701
      -0.667
      -0.607
      -0.527
      -0.438
      -0.348
      -0.261
      -0.177
      -0.097
      -0.035
      -0.009
      -0.026
      -0.076
      -0.134
      -0.174
      -0.189
      -0.183
      -0.167
      -0.145
      -0.121
      -0.095
      -0.076
      -0.068
      -0.068
      -0.062
      -0.034
       0.019
       0.087
       0.148
       0.183
       0.184
       0.158
       0.121
       0.089
       0.077
       0.097
       0.155
       0.248
       0.363
       0.486
       0.603
       0.708
       0.798
       0.873
       0.928
       0.953
       0.932
       0.857
       0.730
       0.563
       0.371
       0.169
      -0.034
      -0.231
      -0.417
      -0.590
      -0.744
      -0.875
      -0.978
      -1.049
      -1.090
      -1.110
      -1.121
      -1.123
      -1.106
      -1.053
      -0.951
      -0.799
      -0.606
      -0.384
      -0.141
       0.117
       0.379
       0.625
       0.835
       0.992
       1.088
       1.119
       1.088
       1.000
       0.865
       0.696
       0.507
       0.308
       0.106
      -0.097
      -0.301
      -0.498
      -0.677
      -0.826
      -0.941
      -1.020
      -1.061
      -1.057
      -0.995
      -0.868
      -0.685
      -0.467
      -0.239
      -0.017
       0.196
       0.399
       0.585
       0.739
       0.847
       0.904
       0.914
       0.887
       0.834
       0.757
       0.661
       0.549
       0.434
       0.326
       0.232
       0.158
       0.102
       0.058
       0.011
      -0.052
      -0.137
      -0.233
      -0.323
      -0.383
      -0.400
      -0.373
      -0.316
      -0.250
      -0.195
      -0.164
      -0.156
      -0.159
      -0.154
      -0.123
      -0.053
       0.059
       0.200
       0.349
       0.484
       0.594
       0.681
       0.753
       0.819
       0.880
       0.926
       0.942
       0.915
       0.843
       0.736
       0.616
       0.508
       0.422
       0.358
       0.304
       0.241
       0.158
       0.047
      -0.088
      -0.240
      -0.392
      -0.521
      -0.608
      -0.648
      -0.653
      -0.652
      -0.669
      -0.711
      -0.768
      -0.822
      -0.865
      -0.899
      -0.930
      -0.962
      -0.992
      -1.012
      -1.018
      -1.010
      -0.997
      -0.985
      -0.976
      -0.957
      -0.917
      -0.852
      -0.771
      -0.693
      -0.627
      -0.571
      -0.505
      -0.405
      -0.261
      -0.080
       0.116
       0.300
       0.452
       0.566
       0.648
       0.713
       0.772
       0.825
       0.865
       0.879
       0.862
       0.819
       0.757
       0.679
       0.584
       0.467
       0.325
       0.161
      -0.017
      -0.196
      -0.360
      -0.491
      -0.578
      -0.623
      -0.638
      -0.634
      -0.614
      -0.580
      -0.524
      -0.438
      -0.320
      -0.177
      -0.024
       0.129
       0.277
       0.427
       0.587
       0.758
       0.925
       1.064
       1.150
       1.168
       1.119
       1.018
       0.888
       0.748
       0.606
       0.459
       0.296
       0.112
      -0.087
      -0.284
      -0.455
      -0.577
      -0.636
      -0.632
      -0.574
      -0.479
      -0.372
      -0.277
      -0.207
      -0.159
      -0.120
      -0.076
      -0.017
       0.061
       0.160
       0.280
       0.414
       0.552
       0.683
       0.799
       0.900
       0.993
       1.085
       1.186
       1.304
       1.437
       1.580
       1.723
       1.861
       1.995
       2.124
       2.237
       2.313
       2.330
       2.265
       2.108
       1.856
       1.509
       1.076
       0.570
       0.012
      -0.574
      -1.159
      -1.718
      -2.234
      -2.692
      -3.083
      -3.396
      -3.618
      -3.742
      -3.769
      -3.704
      -3.559
      -3.349
      -3.094
      -2.820
      -2.546
      -2.282
      -2.024
      -1.760
      -1.478
      -1.172
      -0.842
      -0.498
      -0.153
       0.174
       0.470
       0.726
       0.945
       1.135
       1.300
       1.434
       1.525
       1.556
       1.514
       1.397
       1.214
       0.990
       0.754
       0.536
       0.357
       0.222
       0.118
       0.024
      -0.077
      -0.194
      -0.316
      -0.423
      -0.490
      -0.501
      -0.460
      -0.388
      -0.306
      -0.221
      -0.130
      -0.026
       0.093
       0.223
       0.357
       0.491
       0.623
       0.747
       0.856
       0.938
       0.985
       0.990
       0.954
       0.882
       0.787
       0.688
       0.600
       0.529
       0.472
       0.422
       0.373
       0.322
       0.269
       0.212
       0.149
       0.077
       0.001
      -0.072
      -0.135
      -0.179
      -0.198
      -0.185
      -0.136
      -0.059
       0.035
       0.132
       0.226
       0.324
       0.436
       0.569
       0.717
       0.864
       0.989
       1.076
       1.119
       1.119
       1.088
       1.043
       1.001
       0.968
       0.936
       0.889
       0.805
       0.676
       0.508
       0.313
       0.100
      -0.128
      -0.367
      -0.607
      -0.840
      -1.065
      -1.291
      -1.530
      -1.787
      -2.054
      -2.320
      -2.575
      -2.806
      -2.999
      -3.132
      -3.186
      -3.149
      -3.028
      -2.840
      -2.606
      -2.343
      -2.059
      -1.762
      -1.459
      -1.164
      -0.886
      -0.631
      -0.398
      -0.188
       0.001
       0.167
       0.316
       0.460
       0.608
       0.766
       0.933
       1.105
       1.284
       1.476
       1.681
       1.885
       2.066
       2.204
       2.293
       2.335
       2.342
       2.323
       2.280
       2.212
       2.118
       1.999
       1.864
       1.727
       1.602
       1.500
       1.423
       1.369
       1.330
       1.300
       1.273
       1.248
       1.216
       1.165
       1.089
       0.990
       0.881
       0.771
       0.662
       0.552
       0.444
       0.347
       0.255
       0.146
      -0.010
      -0.227
      -0.490
      -0.767
      -1.028
      -1.265
      -1.480
      -1.681
      -1.865
      -2.025
      -2.154
      -2.246
      -2.296
      -2.304
      -2.277
      -2.229
      -2.167
      -2.093
      -2.002
      -1.903
      -1.812
      -1.737
      -1.668
      -1.585
      -1.483
      -1.370
      -1.262
      -1.160
      -1.048
      -0.918
      -0.776
      -0.638
      -0.517
      -0.412
      -0.312
      -0.207
      -0.085
       0.071
       0.282
       0.559
       0.903
       1.304
       1.750
       2.220
       2.686
       3.118
       3.493
       3.804
       4.047
       4.207
       4.261
       4.198
       4.021
       3.751
       3.402
       2.974
       2.458
       1.852
       1.173
       0.450
      -0.283
      -0.991
      -1.643
      -2.213
      -2.688
      -3.062
      -3.338
      -3.515
      -3.593
      -3.570
      -3.449
      -3.239
      -2.952
      -2.598
      -2.186
      -1.725
      -1.222
      -0.688
      -0.141
       0.387
       0.862
       1.258
       1.562
       1.769
       1.876
       1.875
       1.760
       1.532
       1.197
       0.774
       0.287
      -0.238
      -0.763
      -1.251
      -1.664
      -1.986
      -2.215
      -2.358
      -2.420
      -2.402
      -2.305
      -2.135
      -1.897
      -1.592
      -1.218
      -0.775
      -0.275
       0.256
       0.785
       1.281
       1.711
       2.044
       2.261
       2.360
       2.355
       2.263
       2.100
       1.872
       1.584
       1.245
       0.869
       0.482
       0.104
      -0.248
      -0.564
      -0.831
      -1.028
      -1.134
      -1.141
      -1.056
      -0.898
      -0.684
      -0.426
      -0.126
       0.213
       0.570
       0.915
       1.213
       1.444
       1.599
       1.675
       1.667
       1.568
       1.381
       1.127
       0.840
       0.551
       0.271
       0.003
      -0.251
      -0.481
      -0.680
      -0.847
      -0.985
      -1.093
      -1.160
      -1.171
      -1.119
      -1.005
      -0.840
      -0.641
      -0.424
      -0.207
      -0.004
       0.172
       0.310
       0.408
       0.472
       0.509
       0.524
       0.511
       0.455
       0.353
       0.216
       0.068
      -0.073
      -0.198
      -0.310
      -0.412
      -0.509
      -0.602
      -0.693
      -0.773
      -0.826
      -0.837
      -0.804
      -0.747
      -0.695
      -0.671
      -0.679
      -0.706
      -0.727
      -0.723
      -0.680
      -0.601
      -0.499
      -0.390
      -0.289
      -0.204
      -0.142
      -0.102
      -0.083
      -0.083
      -0.096
      -0.113
      -0.121
      -0.106
      -0.061
       0.018
       0.126
       0.257
       0.406
       0.567
       0.733
       0.892
       1.027
       1.118
       1.156
       1.143
       1.099
       1.043
       0.991
       0.954
       0.936
       0.941
       0.965
       0.995
       1.014
       1.007
       0.970
       0.907
       0.823
       0.727
       0.638
       0.577
       0.555
       0.567
       0.594
       0.615
       0.620
       0.602
       0.554
       0.468
       0.346
       0.207
       0.074
      -0.038
      -0.140
      -0.261
      -0.433
      -0.671
      -0.969
      -1.305
      -1.657
      -2.010
      -2.359
      -2.705
      -3.043
      -3.361
      -3.639
      -3.855
      -3.989
      -4.027
      -3.957
      -3.772
      -3.465
      -3.042
      -2.518
      -1.911
      -1.234
      -0.494
       0.299
       1.124
       1.949
       2.744
       3.487
       4.157
       4.727
       5.167
       5.456
       5.593
       5.593
       5.467
       5.215
       4.830
       4.321
       3.713
       3.046
       2.360
       1.686
       1.040
       0.426
      -0.160
      -0.724
      -1.260
      -1.747
      -2.159
      -2.481
      -2.714
      -2.873
      -2.976
      -3.044
      -3.093
      -3.134
      -3.170
      -3.196
      -3.204
      -3.190
      -3.152
      -3.081
      -2.954
      -2.746
      -2.442
      -2.044
      -1.573
      -1.048
      -0.476
       0.145
       0.810
       1.492
       2.157
       2.774
       3.327
       3.811
       4.213
       4.516
       4.698
       4.745
       4.649
       4.405
       4.008
       3.462
       2.788
       2.022
       1.209
       0.378
      -0.454
      -1.273
      -2.053
      -2.757
      -3.353
      -3.821
      -4.165
      -4.392
      -4.496
      -4.464
      -4.288
      -3.985
      -3.586
      -3.128
      -2.633
      -2.114
      -1.578
      -1.028
      -0.473
       0.069
       0.566
       0.979
       1.281
       1.465
       1.537
       1.510
       1.394
       1.193
       0.922
       0.607
       0.288
       0.002
      -0.218
      -0.358
      -0.411
      -0.380
      -0.271
      -0.091
       0.144
       0.409
       0.684
       0.961
       1.254
       1.581
       1.954
       2.364
       2.787
       3.184
       3.521
       3.768
       3.899
       3.895
       3.743
       3.438
       2.982
       2.383
       1.663
       0.864
       0.037
      -0.773
      -1.538
      -2.247
      -2.894
      -3.466
      -3.932
      -4.258
      -4.415
      -4.392
      -4.195
      -3.835
      -3.333
      -2.722
      -2.051
      -1.370
      -0.716
      -0.111
       0.437
       0.923
       1.337
       1.670
       1.913
       2.056
       2.088
       1.997
       1.784
       1.458
       1.039
       0.547
       0.007
      -0.555
      -1.112
      -1.640
      -2.117
      -2.515
      -2.807
      -2.971
      -2.995
      -2.881
      -2.634
      -2.267
      -1.796
      -1.243
      -0.629
       0.025
       0.695
       1.358
       1.987
       2.558
       3.050
       3.444
       3.726
       3.888
       3.933
       3.877
       3.735
       3.515
       3.217
       2.846
       2.414
       1.933
       1.415
       0.872
       0.318
      -0.230
      -0.759
      -1.261
      -1.727
      -2.144
      -2.489
      -2.738
      -2.879
      -2.920
      -2.877
      -2.763
      -2.578
      -2.321
      -2.000
      -1.633
      -1.241
      -0.836
      -0.425
      -0.016
       0.370
       0.699
       0.940
       1.082
       1.131
       1.107
       1.032
       0.930
       0.825
       0.739
       0.681
       0.648
       0.620
       0.569
       0.476
       0.331
       0.139
      -0.084
      -0.326
      -0.575
      -0.830
      -1.091
      -1.355
      -1.605
      -1.814
      -1.958
      -2.022
      -2.009
      -1.938
      -1.831
      -1.697
      -1.528
      -1.303
      -1.006
      -0.637
      -0.207
       0.261
       0.741
       1.206
       1.633
       2.006
       2.311
       2.537
       2.679
       2.741
       2.727
       2.638
       2.461
       2.183
       1.815
       1.390
       0.958
       0.557
       0.203
      -0.112
      -0.402
      -0.676
      -0.922
      -1.117
      -1.233
      -1.253
      -1.171
      -0.989
      -0.714
      -0.364
       0.031
       0.430
       0.796
       1.111
       1.367
       1.563
       1.690
       1.734
       1.680
       1.513
       1.233
       0.853
       0.406
      -0.064
      -0.515
      -0.917
      -1.261
      -1.553
      -1.801
      -2.008
      -2.172
      -2.293
      -2.371
      -2.409
      -2.408
      -2.368
      -2.282
      -2.150
      -1.979
      -1.779
      -1.555
      -1.304
      -1.023
      -0.709
      -0.360
       0.028
       0.446
       0.868
       1.246
       1.531
       1.692
       1.737
       1.703
       1.635
       1.566
       1.506
       1.446
       1.373
       1.282
       1.180
       1.083
       1.004
       0.948
       0.917
       0.908
       0.910
       0.905
       0.873
       0.803
       0.699
       0.575
       0.452
       0.353
       0.300
       0.312
       0.393
       0.525
       0.667
       0.780
       0.835
       0.822
       0.735
       0.565
       0.297
      -0.070
      -0.527
      -1.053
      -1.633
      -2.259
      -2.913
      -3.556
      -4.126
      -4.547
      -4.758
      -4.729
      -4.465
      -3.996
      -3.367
      -2.624
      -1.801
      -0.919
       0.009
       0.961
       1.897
       2.773
       3.553
       4.212
       4.734
       5.093
       5.262
       5.216
       4.944
       4.448
       3.738
       2.840
       1.805
       0.706
      -0.378
      -1.379
      -2.254
      -2.978
      -3.539
      -3.930
      -4.145
      -4.178
      -4.029
      -3.711
      -3.247
      -2.671
      -2.012
      -1.301
      -0.578
       0.108
       0.712
       1.204
       1.588
       1.892
       2.148
       2.367
       2.537
       2.634
       2.641
       2.562
       2.423
       2.264
       2.124
       2.026
       1.971
       1.937
       1.888
       1.783
       1.596
       1.330
       1.009
       0.663
       0.307
      -0.061
      -0.450
      -0.863
      -1.292
      -1.718
      -2.113
      -2.445
      -2.683
      -2.806
      -2.813
      -2.724
      -2.564
      -2.355
      -2.107
      -1.824
      -1.512
      -1.185
      -0.873
      -0.611
      -0.423
      -0.308
      -0.237
      -0.170
      -0.087
       0.008
       0.090
       0.130
       0.118
       0.064
      -0.005
      -0.067
      -0.110
      -0.132
      -0.137
      -0.124
