Origin Time       05/3/2012 07:41:05	 UTC
Lat.              28.7 N	
Long.             76.6 E	
Depth (Km)         14.0
Magnitude         4.9
 Region           Haryana-Delhi-Border-Region                                      
 Above details taken from IMD 
    
Station Code      BAR
Station Lat.       29.097  N
Station Long.      77.255  E
Station Height(m)  232.0
Site Class        C   Vs30 between 200 m/sec to 375 m/sec *  
Record Time       05.03.2012 07:43:44.389 UTC
Sampling Rate     200. Hz
 Record Duration   65.070 Sec.
 Direction         N-S (N positive)
Max. Acceleration      5.519 cm/sec**2
     
  * For reference see Site Classification link of website 
     
 Base Line Corrected and Low Pass Filtered (Cut Off at 35 Hz) Time History
 Acceleration data in cm/sec**2
    
[...]
      -0.361
      -0.640
      -0.850
      -0.973
      -1.014
      -0.993
      -0.926
      -0.813
      -0.652
      -0.447
      -0.228
      -0.038
       0.089
       0.143
       0.147
       0.141
       0.163
       0.220
       0.276
       0.272
       0.161
      -0.059
      -0.324
      -0.525
      -0.556
      -0.379
      -0.057
       0.286
       0.538
       0.664
       0.698
       0.708
       0.749
       0.833
       0.927
       0.971
       0.913
       0.740
       0.483
       0.198
      -0.073
      -0.312
      -0.509
      -0.640
      -0.668
      -0.577
      -0.408
      -0.250
      -0.187
      -0.252
      -0.419
      -0.643
      -0.881
      -1.094
      -1.233
      -1.239
      -1.075
      -0.757
      -0.363
      -0.003
       0.242
       0.354
       0.383
       0.400
       0.454
       0.549
       0.645
       0.687
       0.645
       0.539
       0.431
       0.377
       0.375
       0.366
       0.266
       0.042
      -0.249
      -0.483
      -0.537
      -0.382
      -0.099
       0.178
       0.352
       0.409
       0.396
       0.361
       0.307
       0.208
       0.053
      -0.122
      -0.255
      -0.311
      -0.321
      -0.355
      -0.472
      -0.666
      -0.880
      -1.043
      -1.108
      -1.057
      -0.889
      -0.612
      -0.257
       0.114
       0.432
       0.647
       0.750
       0.756
       0.687
       0.559
       0.383
       0.181
      -0.007
      -0.140
      -0.205
      -0.236
      -0.276
      -0.333
      -0.371
      -0.342
      -0.234
      -0.081
       0.068
       0.191
       0.293
       0.381
       0.443
       0.459
       0.426
       0.366
       0.301
       0.228
       0.117
      -0.045
      -0.220
      -0.334
      -0.328
      -0.208
      -0.049
       0.060
       0.071
       0.008
      -0.058
      -0.067
      -0.005
       0.097
       0.198
       0.275
       0.332
       0.389
       0.461
       0.546
       0.616
       0.628
       0.547
       0.368
       0.142
      -0.049
      -0.129
      -0.085
       0.025
       0.120
       0.153
       0.136
       0.109
       0.087
       0.046
      -0.048
      -0.201
      -0.374
      -0.507
      -0.558
      -0.527
      -0.440
      -0.325
      -0.192
      -0.040
       0.123
       0.261
       0.313
       0.240
       0.057
      -0.172
      -0.374
      -0.522
      -0.622
      -0.684
      -0.685
      -0.582
      -0.361
      -0.067
       0.204
       0.354
       0.332
       0.145
      -0.139
      -0.415
      -0.562
      -0.500
      -0.242
       0.106
       0.397
       0.536
       0.519
       0.418
       0.312
       0.235
       0.174
       0.111
       0.059
       0.072
       0.196
       0.423
       0.684
       0.877
       0.928
       0.819
       0.577
       0.261
      -0.050
      -0.267
      -0.332
      -0.258
      -0.127
      -0.031
      -0.006
      -0.018
      -0.014
       0.021
       0.053
       0.039
      -0.035
      -0.151
      -0.285
      -0.419
      -0.536
      -0.612
      -0.630
      -0.601
      -0.556
      -0.517
      -0.482
      -0.423
      -0.314
      -0.147
       0.043
       0.188
       0.223
       0.140
       0.002
      -0.097
      -0.107
      -0.051
       0.004
       0.009
      -0.042
      -0.121
      -0.186
      -0.188
      -0.081
       0.139
       0.406
       0.605
       0.642
       0.509
       0.289
       0.085
      -0.051
      -0.144
      -0.252
      -0.401
      -0.559
      -0.664
      -0.679
      -0.620
      -0.532
      -0.439
      -0.321
      -0.138
       0.112
       0.378
       0.576
       0.654
       0.608
       0.471
       0.280
       0.066
      -0.137
      -0.283
      -0.335
      -0.294
      -0.193
      -0.068
       0.076
       0.249
       0.452
       0.656
       0.808
       0.860
       0.776
       0.559
       0.265
       0.001
      -0.114
      -0.024
       0.223
       0.496
       0.662
       0.659
       0.514
       0.300
       0.077
      -0.129
      -0.310
      -0.451
      -0.528
      -0.523
      -0.451
      -0.367
      -0.341
      -0.408
      -0.533
      -0.629
      -0.618
      -0.479
      -0.252
      -0.009
       0.183
       0.275
       0.255
       0.151
       0.028
      -0.047
      -0.042
       0.022
       0.108
       0.197
       0.300
       0.427
       0.564
       0.675
       0.722
       0.681
       0.550
       0.350
       0.143
       0.006
      -0.003
       0.110
       0.281
       0.430
       0.500
       0.472
       0.356
       0.187
       0.023
      -0.078
      -0.089
      -0.049
      -0.032
      -0.098
      -0.239
      -0.386
      -0.471
      -0.475
      -0.435
      -0.409
      -0.426
      -0.472
      -0.501
      -0.469
      -0.366
      -0.217
      -0.070
       0.026
       0.042
      -0.010
      -0.074
      -0.085
      -0.014
       0.109
       0.217
       0.259
       0.232
       0.168
       0.103
       0.050
      -0.010
      -0.107
      -0.262
      -0.470
      -0.703
      -0.916
      -1.061
      -1.107
      -1.057
      -0.945
      -0.819
      -0.705
      -0.591
      -0.447
      -0.258
      -0.043
       0.160
       0.318
       0.414
       0.436
       0.371
       0.205
      -0.060
      -0.399
      -0.762
      -1.087
      -1.323
      -1.446
      -1.459
      -1.382
      -1.239
      -1.056
      -0.863
      -0.685
      -0.539
      -0.431
      -0.360
      -0.310
      -0.249
      -0.142
       0.018
       0.199
       0.346
       0.423
       0.435
       0.409
       0.365
       0.290
       0.152
      -0.060
      -0.300
      -0.479
      -0.513
      -0.378
      -0.129
       0.133
       0.313
       0.372
       0.341
       0.295
       0.301
       0.391
       0.554
       0.750
       0.921
       1.008
       0.976
       0.816
       0.545
       0.191
      -0.203
      -0.569
      -0.819
      -0.896
      -0.808
      -0.628
      -0.437
      -0.275
      -0.124
       0.045
       0.242
       0.459
       0.707
       1.015
       1.393
       1.782
       2.077
       2.196
       2.134
       1.955
       1.737
       1.519
       1.301
       1.089
       0.914
       0.819
       0.822
       0.891
       0.963
       0.980
       0.908
       0.743
       0.503
       0.228
      -0.021
      -0.191
      -0.267
      -0.291
      -0.343
      -0.514
      -0.852
      -1.343
      -1.916
      -2.479
      -2.934
      -3.198
      -3.214
      -2.988
      -2.609
      -2.216
      -1.926
      -1.764
      -1.672
      -1.560
      -1.364
      -1.048
      -0.583
       0.073
       0.939
       1.965
       3.009
       3.882
       4.440
       4.667
       4.668
       4.606
       4.613
       4.728
       4.893
       4.980
       4.854
       4.435
       3.718
       2.770
       1.691
       0.589
      -0.446
      -1.352
      -2.094
      -2.657
      -3.054
      -3.341
      -3.602
      -3.917
      -4.313
      -4.748
      -5.127
      -5.347
      -5.330
      -5.047
      -4.516
      -3.788
      -2.947
      -2.091
      -1.319
      -0.696
      -0.226
       0.150
       0.521
       0.956
       1.469
       2.024
       2.573
       3.083
       3.521
       3.815
       3.852
       3.538
       2.905
       2.150
       1.546
       1.271
       1.304
       1.483
       1.654
       1.759
       1.816
       1.848
       1.851
       1.792
       1.645
       1.404
       1.091
       0.729
       0.327
      -0.132
      -0.668
      -1.283
      -1.944
      -2.588
      -3.151
      -3.593
      -3.907
      -4.095
      -4.152
      -4.062
      -3.824
      -3.476
      -3.087
      -2.725
      -2.427
      -2.187
      -1.958
      -1.681
      -1.318
      -0.887
      -0.472
      -0.159
       0.041
       0.223
       0.527
       1.038
       1.724
       2.456
       3.095
       3.561
       3.856
       4.033
       4.143
       4.202
       4.189
       4.057
       3.765
       3.309
       2.736
       2.129
       1.566
       1.071
       0.599
       0.063
      -0.605
      -1.392
      -2.197
      -2.877
      -3.328
      -3.536
      -3.568
      -3.520
      -3.461
      -3.412
      -3.358
      -3.286
      -3.203
      -3.129
      -3.076
      -3.022
      -2.905
      -2.640
      -2.164
      -1.490
      -0.724
      -0.031
       0.446
       0.640
       0.582
       0.369
       0.138
       0.022
       0.109
       0.414
       0.868
       1.361
       1.791
       2.094
       2.245
       2.234
       2.067
       1.798
       1.539
       1.432
       1.567
       1.905
       2.289
       2.526
       2.486
       2.144
       1.566
       0.857
       0.118
      -0.568
      -1.118
      -1.455
      -1.522
      -1.324
      -0.939
      -0.485
      -0.072
       0.218
       0.327
       0.222
      -0.090
      -0.529
      -0.960
      -1.259
      -1.385
      -1.392
      -1.371
      -1.373
      -1.384
      -1.352
      -1.226
      -0.974
      -0.569
      -0.014
       0.627
       1.236
       1.698
       1.986
       2.167
       2.333
       2.510
       2.617
       2.519
       2.109
       1.379
       0.433
      -0.553
      -1.400
      -1.999
      -2.346
      -2.519
      -2.606
      -2.650
      -2.634
      -2.510
      -2.244
      -1.846
      -1.361
      -0.844
      -0.311
       0.260
       0.888
       1.548
       2.159
       2.619
       2.838
       2.781
       2.483
       2.054
       1.634
       1.342
       1.238
       1.328
       1.588
       1.971
       2.402
       2.774
       2.964
       2.878
       2.494
       1.866
       1.102
       0.320
      -0.392
      -0.995
      -1.490
      -1.907
      -2.277
      -2.616
      -2.915
      -3.132
      -3.209
      -3.089
      -2.739
      -2.167
      -1.416
      -0.554
       0.332
       1.132
       1.706
       1.929
       1.753
       1.249
       0.577
      -0.103
      -0.691
      -1.153
      -1.479
      -1.663
      -1.704
      -1.625
      -1.459
      -1.232
      -0.955
      -0.640
      -0.304
       0.030
       0.346
       0.654
       0.967
       1.269
       1.493
       1.529
       1.278
       0.712
      -0.103
      -1.023
      -1.875
      -2.499
      -2.779
      -2.674
      -2.230
      -1.558
      -0.778
       0.039
       0.862
       1.657
       2.342
       2.807
       2.967
       2.812
       2.422
       1.936
       1.502
       1.223
       1.119
       1.125
       1.139
       1.090
       0.988
       0.906
       0.913
       0.993
       1.029
       0.879
       0.473
      -0.124
      -0.754
      -1.265
      -1.594
      -1.803
      -2.036
      -2.412
      -2.936
      -3.490
      -3.909
      -4.078
      -3.980
      -3.663
      -3.177
      -2.538
      -1.732
      -0.760
       0.329
       1.413
       2.327
       2.910
       3.080
       2.886
       2.495
       2.112
       1.876
       1.803
       1.800
       1.731
       1.489
       1.030
       0.389
      -0.346
      -1.055
      -1.611
      -1.899
      -1.840
      -1.428
      -0.754
       0.004
       0.641
       1.006
       1.076
       0.959
       0.824
       0.801
       0.915
       1.108
       1.310
       1.485
       1.624
       1.691
       1.605
       1.268
       0.632
      -0.252
      -1.237
      -2.126
      -2.747
      -3.003
      -2.878
      -2.407
      -1.633
      -0.602
       0.612
       1.891
       3.052
       3.870
       4.147
       3.801
       2.935
       1.796
       0.676
      -0.212
      -0.790
      -1.092
      -1.220
      -1.278
      -1.343
      -1.438
      -1.537
      -1.585
      -1.553
      -1.485
      -1.501
      -1.728
      -2.188
      -2.734
      -3.101
      -3.057
      -2.549
      -1.749
      -0.951
      -0.390
      -0.099
       0.064
       0.269
       0.548
       0.773
       0.773
       0.480
      -0.006
      -0.472
      -0.707
      -0.624
      -0.298
       0.107
       0.464
       0.763
       1.072
       1.428
       1.752
       1.874
       1.634
       0.989
       0.049
      -0.956
      -1.761
      -2.137
      -1.952
      -1.196
       0.007
       1.408
       2.705
       3.650
       4.130
       4.169
       3.852
       3.266
       2.492
       1.637
       0.820
       0.134
      -0.382
      -0.751
      -1.039
      -1.347
      -1.779
      -2.392
      -3.157
      -3.954
      -4.628
      -5.059
      -5.202
      -5.079
      -4.754
      -4.296
      -3.760
      -3.175
      -2.560
      -1.928
      -1.285
      -0.608
       0.142
       0.980
       1.862
       2.708
       3.461
       4.112
       4.674
       5.134
       5.411
       5.394
       5.023
       4.371
       3.647
       3.101
       2.881
       2.928
       2.997
       2.788
       2.117
       1.040
      -0.172
      -1.174
      -1.735
      -1.839
      -1.659
      -1.431
      -1.333
      -1.423
      -1.661
      -1.952
      -2.203
      -2.361
      -2.443
      -2.517
      -2.666
      -2.931
      -3.290
      -3.670
      -3.980
      -4.132
      -4.057
      -3.728
      -3.155
      -2.378
      -1.445
      -0.411
       0.656
       1.655
       2.459
       2.969
       3.196
       3.284
       3.457
       3.870
       4.494
       5.117
       5.493
       5.519
       5.290
       5.008
       4.817
       4.709
       4.532
       4.078
       3.196
       1.870
       0.235
      -1.472
      -2.991
      -4.110
      -4.731
      -4.890
      -4.736
      -4.462
      -4.219
      -4.061
      -3.943
      -3.768
      -3.452
      -2.969
      -2.359
      -1.703
      -1.115
      -0.715
      -0.602
      -0.810
      -1.276
      -1.860
      -2.389
      -2.700
      -2.657
      -2.154
      -1.167
       0.192
       1.660
       2.915
       3.721
       4.040
       4.016
       3.864
       3.715
       3.548
       3.246
       2.730
       2.063
       1.440
       1.085
       1.127
       1.529
       2.108
       2.628
       2.901
       2.864
       2.600
       2.277
       2.031
       1.866
       1.659
       1.264
       0.637
      -0.127
      -0.869
      -1.481
      -1.969
      -2.413
      -2.886
      -3.374
      -3.768
      -3.939
      -3.824
      -3.465
      -2.978
      -2.487
      -2.085
      -1.825
      -1.735
      -1.800
      -1.940
      -2.021
      -1.904
      -1.528
      -0.943
      -0.268
       0.387
       0.979
       1.519
       2.013
       2.421
       2.677
       2.724
       2.547
       2.190
       1.770
       1.462
       1.440
       1.776
       2.376
       2.999
       3.375
       3.335
       2.887
       2.178
       1.402
       0.699
       0.112
      -0.386
      -0.834
      -1.247
      -1.619
      -1.947
      -2.241
      -2.522
      -2.818
      -3.151
      -3.537
      -3.945
      -4.266
      -4.323
      -3.951
      -3.120
      -1.988
      -0.821
       0.154
       0.836
       1.225
       1.346
       1.226
       0.926
       0.566
       0.297
       0.241
       0.454
       0.911
       1.535
       2.225
       2.876
       3.389
       3.676
       3.670
       3.358
       2.806
       2.162
       1.607
       1.266
       1.137
       1.083
       0.910
       0.469
      -0.267
      -1.193
      -2.127
      -2.880
      -3.337
      -3.482
      -3.382
      -3.124
      -2.768
      -2.341
      -1.872
      -1.429
      -1.127
      -1.080
      -1.345
      -1.876
      -2.536
      -3.142
      -3.523
      -3.563
      -3.232
      -2.585
      -1.747
      -0.864
      -0.058
       0.608
       1.114
       1.464
       1.665
       1.732
       1.702
       1.638
       1.612
       1.675
       1.837
       2.062
       2.293
       2.470
       2.568
       2.603
       2.630
       2.693
       2.788
       2.855
       2.814
       2.592
       2.139
       1.442
       0.548
      -0.417
      -1.279
      -1.903
      -2.255
      -2.384
      -2.334
      -2.089
      -1.606
      -0.921
      -0.180
       0.409
       0.683
       0.598
       0.221
      -0.337
      -0.988
      -1.699
      -2.444
      -3.157
      -3.730
      -4.067
      -4.139
      -3.963
      -3.554
      -2.888
      -1.942
      -0.755
       0.536
       1.745
       2.723
       3.405
       3.793
       3.916
       3.819
       3.564
       3.232
       2.886
       2.560
       2.263
       2.003
       1.790
       1.619
       1.460
       1.268
       1.015
       0.713
       0.415
       0.178
       0.023
      -0.080
      -0.189
      -0.354
      -0.589
      -0.869
      -1.149
      -1.392
      -1.582
      -1.707
      -1.760
      -1.747
      -1.710
      -1.720
      -1.814
      -1.939
      -1.968
      -1.781
      -1.350
      -0.756
      -0.126
       0.449
       0.954
       1.417
       1.834
       2.114
       2.112
       1.726
       0.988
       0.093
      -0.689
      -1.155
      -1.266
      -1.148
      -0.979
      -0.875
      -0.831
      -0.749
      -0.524
      -0.122
       0.390
       0.887
       1.261
       1.471
       1.545
       1.532
       1.459
       1.306
       1.021
       0.587
       0.082
      -0.345
      -0.579
      -0.638
      -0.647
      -0.726
      -0.883
      -1.013
      -0.996
      -0.796
      -0.485
      -0.183
       0.018
       0.085
       0.028
      -0.121
      -0.307
      -0.458
      -0.499
      -0.376
      -0.074
       0.382
       0.918
       1.415
       1.722
       1.715
       1.369
       0.790
       0.163
      -0.373
      -0.803
      -1.214
      -1.675
      -2.157
      -2.531
      -2.648
      -2.431
      -1.935
      -1.321
      -0.769
      -0.376
      -0.121
       0.096
       0.377
       0.756
       1.181
       1.542
       1.751
       1.810
       1.816
       1.885
       2.050
       2.225
       2.270
       2.110
       1.796
       1.462
       1.219
       1.073
       0.947
       0.756
       0.483
       0.185
      -0.066
      -0.240
      -0.373
      -0.528
      -0.742
      -0.998
      -1.243
      -1.413
      -1.456
      -1.341
      -1.063
      -0.656
      -0.189
       0.262
       0.644
       0.925
       1.064
       0.997
       0.672
       0.098
      -0.635
      -1.387
      -2.007
      -2.379
      -2.438
      -2.195
      -1.734
      -1.175
      -0.626
      -0.142
       0.278
       0.659
       1.022
       1.361
       1.671
       1.973
       2.326
       2.792
       3.375
       4.001
       4.548
       4.896
       4.950
       4.657
       4.036
       3.199
       2.330
       1.598
       1.059
       0.636
       0.169
      -0.479
      -1.348
      -2.375
      -3.418
      -4.307
      -4.897
      -5.127
      -5.053
      -4.817
      -4.552
      -4.304
      -4.023
      -3.642
      -3.147
      -2.586
      -2.010
      -1.423
      -0.798
      -0.138
       0.468
       0.866
       0.922
       0.615
       0.070
      -0.506
      -0.929
      -1.119
      -1.099
      -0.933
      -0.670
      -0.326
       0.085
