Origin Time       9/1/2009 12:40:18  
Lat.              31.7 N 
Long.             78.3 E 
Depth (Km)         16.0
Magnitude         3.8
 Region           KINNAUR-DISTRICT-HIMACHAL-PRADESH                                
 Above details taken from IMD 
   
Station Code      BHA
Station Lat.       31.552
Station Long.      77.923
Station Height(m) 1579.0
Site Class        A   Vs30 between 700 m/sec to 1400 m/sec * 
Record Time       09.01.2009 12:40:31.794
Sampling Rate     200. Hz
 Record Duration   66.505 Sec.
 Direction         Vert. (Up positive)
Max. Acceleration     -6.986 cm/sec**2
     
  * For reference see Site Classification link of website 
     
 Base Line Corrected and Low Pass Filtered (Cut Off at 35 Hz) Time History
 Acceleration data in cm/sec**2
    
[...]
       0.381
       0.705
       1.435
       2.004
       1.948
       1.335
       0.659
       0.349
       0.403
       0.481
       0.270
      -0.249
      -0.832
      -1.206
      -1.276
      -1.158
      -1.054
      -1.076
      -1.178
      -1.248
      -1.237
      -1.154
      -0.971
      -0.600
      -0.038
       0.529
       0.845
       0.841
       0.716
       0.709
       0.850
       0.966
       0.942
       0.894
       1.019
       1.299
       1.435
       1.104
       0.297
      -0.645
      -1.295
      -1.439
      -1.167
      -0.726
      -0.360
      -0.219
      -0.334
      -0.591
      -0.759
      -0.619
      -0.148
       0.406
       0.700
       0.594
       0.291
       0.146
       0.332
       0.686
       0.880
       0.711
       0.247
      -0.252
      -0.547
      -0.578
      -0.476
      -0.430
      -0.529
      -0.715
      -0.853
      -0.856
      -0.730
      -0.510
      -0.206
       0.186
       0.607
       0.923
       0.999
       0.818
       0.522
       0.303
       0.231
       0.192
       0.045
      -0.173
      -0.230
       0.051
       0.540
       0.851
       0.671
       0.051
      -0.669
      -1.164
      -1.329
      -1.205
      -0.828
      -0.248
       0.365
       0.738
       0.690
       0.317
      -0.068
      -0.207
      -0.117
      -0.020
      -0.066
      -0.164
      -0.110
       0.161
       0.483
       0.622
       0.479
       0.162
      -0.119
      -0.208
      -0.097
       0.093
       0.186
       0.045
      -0.349
      -0.848
      -1.173
      -1.062
      -0.447
       0.451
       1.244
       1.621
       1.534
       1.140
       0.604
       0.007
      -0.584
      -1.041
      -1.235
      -1.155
      -0.907
      -0.584
      -0.182
       0.329
       0.860
       1.212
       1.251
       1.029
       0.692
       0.286
      -0.266
      -0.971
      -1.621
      -1.898
      -1.627
      -0.909
      -0.034
       0.693
       1.073
       1.060
       0.759
       0.339
      -0.105
      -0.609
      -1.192
      -1.656
      -1.639
      -0.954
       0.139
       1.103
       1.595
       1.736
       1.886
       2.194
       2.411
       2.126
       1.166
      -0.208
      -1.440
      -2.049
      -1.939
      -1.433
      -0.996
      -0.895
      -1.068
      -1.256
      -1.219
      -0.868
      -0.285
       0.295
       0.580
       0.409
      -0.087
      -0.537
      -0.619
      -0.289
       0.268
       0.862
       1.443
       2.040
       2.608
       2.957
       2.819
       2.045
       0.766
      -0.622
      -1.687
      -2.230
      -2.369
      -2.361
      -2.328
      -2.158
      -1.677
      -0.933
      -0.255
       0.000
      -0.208
      -0.554
      -0.669
      -0.486
      -0.217
      -0.011
       0.284
       0.953
       2.009
       3.041
       3.512
       3.198
       2.328
       1.338
       0.530
      -0.055
      -0.542
      -1.069
      -1.698
      -2.367
      -2.869
      -2.914
      -2.324
      -1.236
      -0.104
       0.590
       0.694
       0.480
       0.342
       0.417
       0.499
       0.337
      -0.043
      -0.356
      -0.354
      -0.055
       0.322
       0.593
       0.730
       0.785
       0.754
       0.604
       0.419
       0.435
       0.812
       1.353
       1.520
       0.857
      -0.538
      -1.961
      -2.587
      -2.100
      -0.921
       0.146
       0.513
       0.144
      -0.554
      -1.080
      -1.128
      -0.684
       0.018
       0.610
       0.781
       0.479
      -0.024
      -0.339
      -0.293
      -0.041
       0.183
       0.364
       0.683
       1.193
       1.618
       1.555
       0.908
       0.048
      -0.516
      -0.603
      -0.442
      -0.321
      -0.247
      -0.046
       0.289
       0.487
       0.304
      -0.151
      -0.534
      -0.729
      -1.055
      -1.891
      -3.094
      -3.915
      -3.579
      -1.972
       0.232
       2.087
       3.036
       3.155
       2.902
       2.678
       2.581
       2.436
       2.005
       1.189
       0.132
      -0.814
      -1.266
      -1.043
      -0.337
       0.333
       0.440
      -0.186
      -1.237
      -2.146
      -2.449
      -2.049
      -1.245
      -0.528
      -0.269
      -0.494
      -0.882
      -1.008
      -0.630
       0.164
       1.048
       1.707
       2.031
       2.118
       2.078
       1.867
       1.317
       0.367
      -0.745
      -1.588
      -1.870
      -1.661
      -1.254
      -0.827
      -0.312
       0.384
       1.087
       1.380
       0.948
      -0.107
      -1.320
      -2.185
      -2.442
      -2.113
      -1.359
      -0.374
       0.642
       1.493
       2.022
       2.171
       2.009
       1.721
       1.511
       1.470
       1.477
       1.246
       0.524
      -0.659
      -1.919
      -2.733
      -2.793
      -2.184
      -1.256
      -0.351
       0.365
       0.852
       1.078
       0.968
       0.502
      -0.168
      -0.734
      -0.935
      -0.740
      -0.316
       0.172
       0.698
       1.272
       1.761
       1.894
       1.479
       0.576
      -0.550
      -1.601
      -2.341
      -2.566
      -2.124
      -1.085
       0.144
       1.012
       1.226
       0.973
       0.681
       0.593
       0.606
       0.498
       0.255
       0.100
       0.216
       0.486
       0.567
       0.220
      -0.446
      -1.047
      -1.246
      -1.011
      -0.606
      -0.326
      -0.241
      -0.160
       0.167
       0.812
       1.567
       2.046
       1.922
       1.127
      -0.099
      -1.310
      -2.066
      -2.144
      -1.660
      -0.977
      -0.423
      -0.051
       0.334
       0.885
       1.474
       1.752
       1.457
       0.677
      -0.199
      -0.774
      -0.900
      -0.710
      -0.446
      -0.254
      -0.085
       0.204
       0.658
       1.111
       1.278
       0.999
       0.390
      -0.224
      -0.556
      -0.569
      -0.479
      -0.547
      -0.855
      -1.234
      -1.401
      -1.185
      -0.665
      -0.093
       0.316
       0.541
       0.698
       0.843
       0.848
       0.526
      -0.132
      -0.861
      -1.277
      -1.157
      -0.576
       0.188
       0.851
       1.272
       1.467
       1.521
       1.463
       1.223
       0.738
       0.102
      -0.412
      -0.552
      -0.328
      -0.030
      -0.007
      -0.388
      -1.009
      -1.549
      -1.745
      -1.521
      -1.000
      -0.417
       0.015
       0.214
       0.246
       0.232
       0.229
       0.186
       0.016
      -0.270
      -0.499
      -0.428
       0.050
       0.771
       1.378
       1.583
       1.376
       1.014
       0.785
       0.784
       0.871
       0.805
       0.408
      -0.323
      -1.196
      -1.910
      -2.217
      -2.036
      -1.466
      -0.716
      -0.040
       0.322
       0.240
      -0.197
      -0.665
      -0.767
      -0.322
       0.454
       1.052
       1.026
       0.350
      -0.501
      -0.847
      -0.312
       0.836
       1.798
       1.811
       0.737
      -0.781
      -1.747
      -1.511
      -0.219
       1.326
       2.255
       2.213
       1.505
       0.778
       0.526
       0.781
       1.157
       1.138
       0.376
      -1.141
      -3.055
      -4.724
      -5.441
      -4.781
      -2.877
      -0.410
       1.766
       3.074
       3.421
       3.065
       2.345
       1.529
       0.787
       0.219
      -0.149
      -0.329
      -0.305
      -0.008
       0.587
       1.327
       1.866
       1.847
       1.177
       0.151
      -0.720
      -1.089
      -1.030
      -0.945
      -1.174
      -1.678
      -2.060
      -1.925
      -1.210
      -0.228
       0.618
       1.139
       1.388
       1.429
       1.144
       0.363
      -0.815
      -1.886
      -2.241
      -1.672
      -0.609
       0.199
       0.300
      -0.119
      -0.478
      -0.380
       0.073
       0.463
       0.497
       0.224
      -0.090
      -0.191
       0.062
       0.655
       1.328
       1.596
       1.065
      -0.103
      -1.119
      -1.127
       0.039
       1.607
       2.437
       1.917
       0.431
      -1.015
      -1.664
      -1.582
      -1.447
      -1.777
      -2.398
      -2.627
      -1.932
      -0.413
       1.276
       2.355
       2.337
       1.237
      -0.414
      -1.762
      -2.056
      -1.110
       0.560
       2.123
       3.051
       3.411
       3.568
       3.644
       3.324
       2.216
       0.397
      -1.452
      -2.520
      -2.491
      -1.741
      -0.939
      -0.520
      -0.531
      -0.847
      -1.376
      -2.017
      -2.554
      -2.737
      -2.507
      -2.042
      -1.552
      -1.053
      -0.418
       0.396
       1.253
       2.000
       2.668
       3.394
       4.114
       4.415
       3.818
       2.279
       0.402
      -0.938
      -1.290
      -0.981
      -0.782
      -1.178
      -1.978
      -2.627
      -2.842
      -2.879
      -3.158
      -3.690
      -3.929
      -3.249
      -1.569
       0.484
       2.059
       2.743
       2.803
       2.839
       3.220
       3.789
       4.020
       3.454
       2.078
       0.343
      -1.154
      -2.097
      -2.594
      -2.908
      -3.044
      -2.662
      -1.471
       0.255
       1.663
       1.963
       1.135
      -0.007
      -0.498
      -0.003
       1.034
       1.898
       2.222
       2.145
       1.972
       1.815
       1.578
       1.199
       0.744
       0.271
      -0.308
      -1.120
      -2.115
      -3.042
      -3.663
      -3.929
      -3.882
      -3.443
      -2.426
      -0.851
       0.805
       1.796
       1.658
       0.609
      -0.583
      -1.140
      -0.755
       0.339
       1.635
       2.679
       3.224
       3.205
       2.661
       1.751
       0.782
       0.105
      -0.136
      -0.160
      -0.403
      -1.136
      -2.199
      -3.106
      -3.403
      -2.936
      -1.846
      -0.413
       1.037
       2.172
       2.728
       2.617
       1.994
       1.185
       0.515
       0.127
      -0.050
      -0.165
      -0.270
      -0.306
      -0.262
      -0.301
      -0.680
      -1.480
      -2.435
      -3.082
      -3.116
      -2.551
      -1.564
      -0.298
       1.077
       2.209
       2.649
       2.236
       1.364
       0.798
       1.080
       2.051
       2.901
       2.808
       1.668
       0.280
      -0.256
       0.493
       1.799
       2.277
       1.026
      -1.603
      -4.291
      -5.794
      -5.769
      -4.741
      -3.443
      -2.233
      -1.045
       0.284
       1.734
       3.085
       4.085
       4.576
       4.444
       3.575
       1.963
      -0.080
      -1.930
      -2.972
      -2.979
      -2.202
      -1.121
      -0.151
       0.458
       0.562
       0.122
      -0.688
      -1.429
      -1.543
      -0.694
       0.936
       2.647
       3.611
       3.409
       2.308
       1.043
       0.287
       0.202
       0.402
       0.281
      -0.531
      -1.924
      -3.408
      -4.465
      -4.822
      -4.437
      -3.340
      -1.637
       0.344
       2.028
       2.907
       2.921
       2.482
       2.055
       1.729
       1.251
       0.508
      -0.135
      -0.061
       0.994
       2.576
       3.786
       3.919
       2.866
       0.999
      -1.205
      -3.327
      -4.928
      -5.561
      -5.060
      -3.800
      -2.505
      -1.694
      -1.282
      -0.740
       0.404
       2.205
       4.243
       5.767
       5.961
       4.377
       1.411
      -1.659
      -3.343
      -2.932
      -0.992
       1.084
       2.055
       1.566
       0.162
      -1.232
      -1.908
      -1.694
      -0.925
      -0.199
      -0.034
      -0.591
      -1.588
      -2.453
      -2.652
      -1.984
      -0.668
       0.823
       2.041
       2.750
       2.931
       2.656
       2.017
       1.188
       0.464
       0.134
       0.255
       0.580
       0.742
       0.495
      -0.166
      -1.030
      -1.762
      -2.080
      -1.977
      -1.814
      -2.068
      -2.850
      -3.647
      -3.639
      -2.410
      -0.385
       1.481
       2.500
       2.817
       3.157
       4.011
       5.034
       5.287
       4.089
       1.674
      -0.955
      -2.755
      -3.281
      -2.773
      -1.808
      -0.896
      -0.299
      -0.045
      -0.008
      -0.021
       0.030
       0.210
       0.603
       1.248
       1.911
       2.004
       0.955
      -1.174
      -3.457
      -4.660
      -4.188
      -2.544
      -0.845
       0.114
       0.331
       0.280
       0.346
       0.623
       1.101
       1.790
       2.607
       3.256
       3.353
       2.698
       1.383
      -0.293
      -1.932
      -3.059
      -3.267
      -2.534
      -1.412
      -0.731
      -0.947
      -1.747
      -2.332
      -2.127
      -1.186
       0.047
       1.266
       2.472
       3.656
       4.503
       4.569
       3.743
       2.454
       1.376
       0.930
       1.013
       1.146
       0.827
      -0.191
      -1.826
      -3.705
      -5.235
      -5.784
      -5.016
      -3.198
      -1.132
       0.367
       1.081
       1.463
       2.054
       2.785
       2.933
       1.820
      -0.415
      -2.759
      -4.038
      -3.731
      -2.174
      -0.118
       1.821
       3.381
       4.539
       5.314
       5.631
       5.271
       3.981
       1.728
      -1.109
      -3.871
      -5.943
      -6.986
      -6.930
      -5.858
      -3.986
      -1.751
       0.229
       1.450
       1.892
       2.028
       2.382
       3.047
       3.608
       3.515
       2.537
       0.922
      -0.805
      -2.153
      -2.816
      -2.672
      -1.806
      -0.557
       0.581
       1.244
       1.398
       1.254
       0.997
       0.643
       0.173
      -0.249
      -0.300
       0.201
       1.044
       1.779
       2.124
       2.156
       2.048
       1.686
       0.685
      -1.114
      -3.209
      -4.641
      -4.706
      -3.484
      -1.674
       0.001
       1.191
       1.832
       1.904
       1.418
       0.597
      -0.128
      -0.480
      -0.642
      -1.050
      -1.804
      -2.408
      -2.210
      -1.067
       0.488
       1.722
       2.293
       2.393
       2.406
       2.479
       2.426
       1.975
       1.037
      -0.237
      -1.542
      -2.486
      -2.695
      -2.015
      -0.695
       0.698
       1.596
       1.728
       1.168
       0.210
      -0.749
      -1.321
      -1.288
      -0.759
      -0.096
       0.393
       0.701
       1.009
       1.320
       1.294
       0.522
      -0.999
      -2.673
      -3.636
      -3.385
      -2.195
      -0.924
      -0.330
      -0.464
      -0.703
      -0.393
       0.523
       1.495
       1.961
       1.896
       1.773
       2.002
       2.464
       2.629
       2.096
       0.998
      -0.065
      -0.432
       0.197
       1.560
       2.873
       3.180
       1.920
      -0.609
      -3.357
      -5.210
      -5.700
      -5.089
      -3.870
      -2.313
      -0.531
       1.162
       2.193
       2.157
       1.273
       0.291
      -0.105
       0.185
       0.712
       0.970
       0.823
       0.485
       0.196
      -0.020
      -0.301
      -0.734
      -1.201
      -1.399
      -0.992
       0.124
       1.633
       2.931
       3.554
       3.519
       3.170
       2.695
       1.860
       0.324
      -1.783
      -3.687
      -4.490
      -3.942
      -2.712
      -1.870
      -2.026
      -2.854
      -3.398
      -2.859
      -1.192
       0.904
       2.522
       3.139
       2.903
       2.434
       2.331
       2.735
       3.281
       3.417
       2.808
       1.546
       0.074
      -1.060
      -1.486
      -1.235
      -0.787
      -0.810
      -1.666
      -3.047
      -4.109
      -4.086
      -2.891
      -1.171
       0.234
       0.919
       1.137
       1.483
       2.339
       3.514
       4.317
       4.020
       2.407
       0.019
      -2.150
      -3.315
      -3.380
      -2.847
      -2.277
      -1.812
      -1.161
       0.006
       1.624
       3.131
       3.809
       3.286
       1.802
       0.000
      -1.529
      -2.553
      -3.144
      -3.399
      -3.270
      -2.636
      -1.501
      -0.085
       1.288
       2.377
       3.089
       3.400
       3.263
       2.645
       1.669
       0.699
       0.171
       0.242
       0.564
       0.514
      -0.244
      -1.390
      -2.212
      -2.305
      -2.014
      -2.084
      -2.847
      -3.782
      -3.924
      -2.725
      -0.564
       1.530
       2.647
       2.607
       1.942
       1.370
       1.244
       1.417
       1.532
       1.406
       1.162
       1.078
       1.338
       1.887
       2.441
       2.596
       2.013
       0.662
      -1.052
      -2.453
      -3.033
      -2.807
      -2.286
      -2.070
      -2.399
      -3.025
      -3.461
      -3.345
      -2.609
      -1.409
       0.017
       1.385
       2.389
       2.839
       2.839
       2.770
       2.981
       3.433
       3.670
       3.220
       2.069
       0.784
       0.114
       0.378
       1.193
       1.773
       1.508
       0.314
      -1.460
      -3.344
      -4.990
      -6.211
      -6.897
      -6.962
      -6.383
      -5.224
      -3.569
      -1.487
       0.889
       3.265
       5.224
       6.399
       6.652
       6.142
       5.239
       4.295
       3.442
       2.606
       1.716
       0.877
       0.321
       0.121
      -0.009
      -0.580
      -1.888
      -3.662
      -5.157
      -5.662
      -5.009
      -3.691
      -2.478
      -1.845
      -1.653
      -1.324
      -0.378
       1.103
       2.504
       3.183
       3.009
       2.419
       1.959
       1.787
       1.607
       1.018
      -0.077
      -1.365
      -2.308
      -2.462
      -1.752
      -0.564
       0.466
       0.890
       0.817
       0.847
       1.526
       2.764
       3.779
       3.684
       2.224
       0.008
      -1.971
      -3.040
      -3.183
      -2.829
      -2.402
      -2.041
      -1.628
      -1.008
      -0.155
       0.795
       1.594
       1.957
       1.669
       0.746
      -0.463
      -1.380
      -1.539
      -0.909
       0.080
       0.875
       1.182
       1.094
       0.903
       0.836
       0.914
       1.029
       1.077
       1.016
       0.827
       0.512
       0.175
       0.029
       0.225
       0.640
       0.887
       0.577
      -0.388
      -1.746
      -3.046
      -3.900
      -4.116
      -3.709
      -2.841
      -1.720
      -0.479
       0.866
       2.300
       3.621
       4.415
       4.273
       3.094
       1.196
      -0.849
      -2.494
      -3.398
      -3.448
      -2.712
      -1.420
       0.063
       1.357
       2.214
       2.608
       2.673
       2.537
       2.214
       1.662
       0.935
       0.257
      -0.122
      -0.156
      -0.065
      -0.117
      -0.352
      -0.605
      -0.794
      -1.103
      -1.799
      -2.894
      -4.040
      -4.749
      -4.705
      -3.873
      -2.396
      -0.454
       1.761
       3.979
       5.814
       6.835
       6.740
       5.520
       3.491
       1.151
      -1.002
      -2.587
      -3.426
