Origin Time       9/1/2009 12:40:18  
Lat.              31.7 N 
Long.             78.3 E 
Depth (Km)         16.0
Magnitude         3.8
 Region           KINNAUR-DISTRICT-HIMACHAL-PRADESH                                
 Above details taken from IMD 
     
Station Code      BHA
Station Lat.       31.552  N
Station Long.      77.923  E
Station Height(m) 1579.0
Site Class        A   Vs30 between 700 m/sec to 1400 m/sec * 
Record Time       09.01.2009 12:40:31.794
Sampling Rate     200. Hz
 Record Duration   66.505 Sec.
 Direction         E-W (E positive)
Max. Acceleration      8.666 cm/sec**2
     
  * For reference see Site Classification link of website 
     
 Base Line Corrected and Low Pass Filtered (Cut Off at 35 Hz) Time History
 Acceleration data in cm/sec**2
    
[...]
       0.546
       0.851
       1.247
       1.627
       1.840
       1.783
       1.449
       0.916
       0.296
      -0.302
      -0.776
      -1.043
      -1.059
      -0.859
      -0.551
      -0.267
      -0.107
      -0.100
      -0.216
      -0.389
      -0.553
      -0.675
      -0.772
      -0.892
      -1.064
      -1.248
      -1.339
      -1.219
      -0.848
      -0.303
       0.251
       0.650
       0.814
       0.770
       0.610
       0.416
       0.215
      -0.007
      -0.230
      -0.343
      -0.176
       0.379
       1.236
       2.137
       2.786
       3.004
       2.777
       2.187
       1.339
       0.329
      -0.732
      -1.708
      -2.471
      -2.936
      -3.058
      -2.797
      -2.117
      -1.051
       0.215
       1.347
       1.998
       1.996
       1.443
       0.639
      -0.095
      -0.550
      -0.674
      -0.531
      -0.262
      -0.041
      -0.020
      -0.254
      -0.658
      -1.035
      -1.199
      -1.105
      -0.884
      -0.744
      -0.809
      -0.999
      -1.066
      -0.750
       0.033
       1.092
       2.036
       2.478
       2.266
       1.552
       0.686
       0.018
      -0.265
      -0.173
       0.151
       0.537
       0.856
       1.045
       1.082
       0.975
       0.756
       0.481
       0.213
      -0.040
      -0.343
      -0.776
      -1.335
      -1.884
      -2.213
      -2.185
      -1.824
      -1.285
      -0.739
      -0.278
       0.085
       0.352
       0.490
       0.469
       0.322
       0.154
       0.058
       0.034
       0.011
      -0.055
      -0.100
      -0.001
       0.305
       0.747
       1.159
       1.407
       1.466
       1.385
       1.193
       0.869
       0.419
      -0.040
      -0.328
      -0.345
      -0.173
      -0.019
      -0.038
      -0.236
      -0.520
      -0.818
      -1.120
      -1.403
      -1.547
      -1.368
      -0.759
       0.171
       1.109
       1.702
       1.760
       1.344
       0.693
       0.082
      -0.313
      -0.472
      -0.509
      -0.560
      -0.668
      -0.733
      -0.602
      -0.237
       0.217
       0.526
       0.539
       0.275
      -0.138
      -0.578
      -0.959
      -1.201
      -1.210
      -0.943
      -0.486
      -0.018
       0.321
       0.539
       0.760
       1.068
       1.388
       1.527
       1.332
       0.825
       0.196
      -0.316
      -0.542
      -0.428
      -0.022
       0.537
       1.024
       1.186
       0.867
       0.136
      -0.726
      -1.371
      -1.581
      -1.349
      -0.850
      -0.324
       0.035
       0.168
       0.165
       0.187
       0.308
       0.414
       0.258
      -0.341
      -1.294
      -2.234
      -2.707
      -2.430
      -1.415
       0.074
       1.643
       2.888
       3.495
       3.334
       2.513
       1.324
       0.103
      -0.908
      -1.605
      -1.969
      -1.990
      -1.644
      -0.944
      -0.003
       0.961
       1.700
       2.035
       1.904
       1.359
       0.534
      -0.382
      -1.171
      -1.636
      -1.656
      -1.226
      -0.466
       0.384
       1.030
       1.260
       1.062
       0.630
       0.210
      -0.099
      -0.401
      -0.849
      -1.428
      -1.891
      -1.928
      -1.399
      -0.442
       0.609
       1.410
       1.744
       1.573
       1.033
       0.382
      -0.117
      -0.334
      -0.336
      -0.303
      -0.350
      -0.414
      -0.318
       0.038
       0.552
       0.972
       1.060
       0.743
       0.137
      -0.539
      -1.064
      -1.282
      -1.126
      -0.646
      -0.018
       0.527
       0.829
       0.881
       0.776
       0.583
       0.302
      -0.078
      -0.478
      -0.744
      -0.757
      -0.548
      -0.273
      -0.081
       0.004
       0.076
       0.241
       0.487
       0.662
       0.556
       0.061
      -0.713
      -1.430
      -1.686
      -1.244
      -0.213
       0.977
       1.812
       1.998
       1.599
       0.931
       0.307
      -0.157
      -0.540
      -0.965
      -1.456
      -1.905
      -2.145
      -2.030
      -1.492
      -0.570
       0.569
       1.630
       2.276
       2.281
       1.661
       0.691
      -0.212
      -0.679
      -0.553
       0.056
       0.849
       1.519
       1.886
       1.940
       1.768
       1.459
       1.038
       0.469
      -0.300
      -1.248
      -2.234
      -3.029
      -3.426
      -3.356
      -2.904
      -2.227
      -1.465
      -0.718
      -0.057
       0.476
       0.882
       1.207
       1.486
       1.697
       1.768
       1.637
       1.313
       0.893
       0.515
       0.288
       0.236
       0.294
       0.366
       0.379
       0.327
       0.255
       0.226
       0.274
       0.374
       0.454
       0.431
       0.255
      -0.068
      -0.499
      -0.995
      -1.516
      -1.997
      -2.319
      -2.344
      -2.003
      -1.366
      -0.611
       0.090
       0.676
       1.183
       1.631
       1.933
       1.929
       1.517
       0.763
      -0.111
      -0.841
      -1.234
      -1.214
      -0.810
      -0.128
       0.656
       1.320
       1.644
       1.494
       0.878
      -0.037
      -0.970
      -1.610
      -1.744
      -1.369
      -0.709
      -0.100
       0.215
       0.208
       0.029
      -0.151
      -0.296
      -0.527
      -0.999
      -1.726
      -2.472
      -2.831
      -2.459
      -1.327
       0.222
       1.635
       2.454
       2.525
       2.023
       1.285
       0.611
       0.136
      -0.156
      -0.317
      -0.329
      -0.075
       0.578
       1.647
       2.955
       4.151
       4.847
       4.784
       3.942
       2.553
       1.000
      -0.354
      -1.332
      -1.978
      -2.455
      -2.845
      -3.052
      -2.878
      -2.238
      -1.302
      -0.449
      -0.038
      -0.179
      -0.683
      -1.209
      -1.512
      -1.581
      -1.584
      -1.682
      -1.871
      -1.991
      -1.858
      -1.413
      -0.775
      -0.170
       0.226
       0.425
       0.625
       1.044
       1.717
       2.427
       2.858
       2.839
       2.466
       2.007
       1.678
       1.491
       1.271
       0.824
       0.096
      -0.768
      -1.475
      -1.724
      -1.358
      -0.467
       0.631
       1.540
       1.981
       1.922
       1.547
       1.098
       0.712
       0.376
       0.002
      -0.469
      -1.023
      -1.615
      -2.198
      -2.687
      -2.922
      -2.727
      -2.071
      -1.188
      -0.482
      -0.257
      -0.473
      -0.761
      -0.721
      -0.245
       0.398
       0.803
       0.778
       0.490
       0.279
       0.339
       0.580
       0.769
       0.777
       0.675
       0.615
       0.657
       0.712
       0.625
       0.282
      -0.331
      -1.102
      -1.774
      -2.011
      -1.578
      -0.568
       0.558
       1.202
       1.023
       0.171
      -0.831
      -1.454
      -1.469
      -0.986
      -0.272
       0.439
       0.986
       1.245
       1.146
       0.742
       0.248
      -0.055
      -0.006
       0.319
       0.663
       0.793
       0.674
       0.478
       0.441
       0.699
       1.195
       1.695
       1.884
       1.536
       0.681
      -0.343
      -1.029
      -0.991
      -0.190
       1.074
       2.385
       3.403
       3.889
       3.629
       2.494
       0.623
      -1.480
      -3.165
      -4.029
      -4.163
      -3.995
      -3.885
      -3.845
      -3.627
      -3.062
      -2.291
      -1.693
      -1.572
      -1.907
      -2.351
      -2.470
      -2.016
      -1.032
       0.247
       1.577
       2.807
       3.835
       4.497
       4.567
       3.932
       2.781
       1.600
       0.886
       0.812
       1.131
       1.383
       1.240
       0.692
      -0.014
      -0.594
      -0.897
      -0.950
      -0.879
      -0.814
      -0.803
      -0.779
      -0.592
      -0.112
       0.661
       1.578
       2.420
       3.003
       3.200
       2.890
       1.959
       0.462
      -1.191
      -2.303
      -2.309
      -1.282
      -0.017
       0.466
      -0.354
      -2.141
      -3.978
      -5.008
      -4.939
      -4.112
      -3.178
      -2.666
      -2.687
      -2.927
      -2.890
      -2.218
      -0.897
       0.752
       2.272
       3.284
       3.614
       3.315
       2.622
       1.854
       1.291
       1.051
       1.064
       1.193
       1.407
       1.818
       2.501
       3.288
       3.786
       3.649
       2.859
       1.751
       0.771
       0.189
      -0.027
      -0.134
      -0.418
      -0.974
      -1.588
      -1.825
      -1.364
      -0.335
       0.679
       1.047
       0.577
      -0.364
      -1.194
      -1.592
      -1.698
      -1.932
      -2.624
      -3.767
      -5.005
      -5.828
      -5.824
      -4.886
      -3.264
      -1.436
       0.134
       1.184
       1.722
       1.961
       2.217
       2.781
       3.776
       5.056
       6.222
       6.818
       6.567
       5.510
       3.934
       2.200
       0.584
      -0.749
      -1.705
      -2.239
      -2.395
      -2.333
      -2.277
      -2.393
      -2.702
      -3.110
      -3.513
      -3.849
      -4.057
      -4.011
      -3.570
      -2.729
      -1.704
      -0.810
      -0.219
       0.202
       0.771
       1.708
       2.923
       4.046
       4.661
       4.565
       3.871
       2.898
       1.981
       1.334
       1.012
       0.941
       0.931
       0.713
       0.070
      -0.967
      -2.028
      -2.592
      -2.390
      -1.666
      -1.049
      -1.081
      -1.794
      -2.702
      -3.186
      -2.936
      -2.092
      -1.032
      -0.020
       0.959
       2.041
       3.179
       4.028
       4.161
       3.431
       2.080
       0.524
      -0.967
      -2.352
      -3.627
      -4.600
      -4.867
      -4.057
      -2.170
       0.266
       2.388
       3.480
       3.415
       2.716
       2.147
       2.141
       2.534
       2.779
       2.443
       1.556
       0.560
      -0.034
      -0.017
       0.393
       0.737
       0.661
       0.182
      -0.374
      -0.695
      -0.772
      -0.855
      -1.134
      -1.468
      -1.470
      -0.901
      -0.015
       0.463
      -0.202
      -2.150
      -4.655
      -6.448
      -6.498
      -4.678
      -1.830
       0.804
       2.333
       2.622
       2.166
       1.652
       1.539
       1.849
       2.215
       2.155
       1.442
       0.351
      -0.464
      -0.431
       0.504
       1.833
       2.877
       3.245
       2.959
       2.240
       1.282
       0.252
      -0.617
      -1.052
      -0.958
      -0.560
      -0.293
      -0.487
      -1.128
      -1.886
      -2.352
      -2.298
      -1.804
      -1.213
      -0.951
      -1.288
      -2.148
      -3.136
      -3.770
      -3.761
      -3.125
      -2.081
      -0.868
       0.376
       1.594
       2.732
       3.675
       4.269
       4.394
       4.040
       3.335
       2.487
       1.665
       0.927
       0.263
      -0.289
      -0.603
      -0.557
      -0.159
       0.453
       1.142
       1.848
       2.519
       3.026
       3.246
       3.243
       3.260
       3.400
       3.312
       2.311
      -0.015
      -3.260
      -6.281
      -7.939
      -7.883
      -6.702
      -5.371
      -4.520
      -4.104
      -3.632
      -2.665
      -1.173
       0.414
       1.457
       1.487
       0.487
      -1.072
      -2.484
      -3.177
      -2.969
      -2.088
      -0.944
       0.162
       1.216
       2.395
       3.789
       5.203
       6.244
       6.610
       6.294
       5.499
       4.430
       3.196
       1.921
       0.852
       0.266
       0.256
       0.632
       1.068
       1.328
       1.379
       1.349
       1.390
       1.526
       1.554
       1.090
      -0.191
      -2.276
      -4.725
      -6.872
      -8.190
      -8.520
      -8.022
      -6.953
      -5.527
      -3.946
      -2.452
      -1.267
      -0.452
       0.135
       0.726
       1.475
       2.362
       3.245
       3.960
       4.360
       4.321
       3.825
       3.075
       2.454
       2.262
       2.431
       2.541
       2.174
       1.293
       0.290
      -0.325
      -0.311
       0.175
       0.738
       0.970
       0.600
      -0.426
      -1.882
      -3.262
      -3.973
      -3.644
      -2.384
      -0.735
       0.645
       1.361
       1.438
       1.200
       1.006
       1.040
       1.218
       1.206
       0.584
      -0.869
      -2.906
      -4.826
      -5.841
      -5.545
      -4.105
      -2.073
      -0.045
       1.552
       2.509
       2.799
       2.545
       1.958
       1.266
       0.653
       0.235
       0.066
       0.159
       0.504
       1.077
       1.816
       2.581
       3.159
       3.345
       3.074
       2.492
       1.888
       1.503
       1.378
       1.361
       1.228
       0.823
       0.095
      -0.909
      -2.034
      -2.981
      -3.378
      -2.984
      -1.927
      -0.737
      -0.097
      -0.437
      -1.658
      -3.175
      -4.233
      -4.320
      -3.440
      -2.103
      -1.018
      -0.644
      -0.881
      -1.145
      -0.821
       0.242
       1.601
       2.561
       2.685
       2.071
       1.183
       0.460
       0.029
      -0.256
      -0.570
      -0.923
      -1.154
      -1.071
      -0.549
       0.455
       1.932
       3.796
       5.820
       7.607
       8.666
       8.582
       7.195
       4.708
       1.651
      -1.316
      -3.679
      -5.275
      -6.262
      -6.831
      -6.924
      -6.248
      -4.618
      -2.282
       0.077
       1.710
       2.210
       1.649
       0.379
      -1.254
      -3.011
      -4.622
      -5.655
      -5.625
      -4.318
      -2.002
       0.705
       3.206
       5.172
       6.489
       7.059
       6.748
       5.533
       3.645
       1.525
      -0.379
      -1.801
      -2.699
      -3.174
      -3.357
      -3.338
      -3.139
      -2.725
      -2.061
      -1.213
      -0.391
       0.150
       0.321
       0.325
       0.515
       1.067
       1.772
       2.187
       2.039
       1.496
       1.047
       1.087
       1.596
       2.172
       2.362
       1.987
       1.196
       0.248
      -0.713
      -1.693
      -2.695
      -3.573
      -4.056
      -3.910
      -3.110
      -1.866
      -0.513
       0.645
       1.451
       1.898
       2.035
       1.869
       1.361
       0.543
      -0.361
      -0.990
      -1.063
      -0.615
      -0.009
       0.284
      -0.002
      -0.773
      -1.646
      -2.182
      -2.092
      -1.351
      -0.158
       1.205
       2.525
       3.712
       4.712
       5.366
       5.390
       4.533
       2.830
       0.718
      -1.126
      -2.152
      -2.247
      -1.743
      -1.159
      -0.878
      -1.021
      -1.539
      -2.343
      -3.318
      -4.261
      -4.880
      -4.916
      -4.274
      -3.039
      -1.402
       0.398
       2.078
       3.319
       3.857
       3.619
       2.806
       1.788
       0.894
       0.275
      -0.037
       0.023
       0.593
       1.725
       3.184
       4.414
       4.775
       3.907
       1.952
      -0.503
      -2.710
      -4.095
      -4.463
      -4.003
      -3.110
      -2.147
      -1.294
      -0.543
       0.168
       0.806
       1.195
       1.129
       0.577
      -0.193
      -0.703
      -0.562
       0.246
       1.324
       2.120
       2.271
       1.786
       0.949
       0.065
      -0.740
      -1.529
      -2.399
      -3.308
      -4.041
      -4.310
      -3.928
      -2.922
      -1.533
      -0.097
       1.110
       1.970
       2.509
       2.791
       2.819
       2.551
       2.001
       1.334
       0.832
       0.757
       1.197
       2.008
       2.880
       3.507
       3.720
       3.492
       2.833
       1.708
       0.107
      -1.807
      -3.639
      -4.911
      -5.337
      -4.973
      -4.145
      -3.228
      -2.468
      -1.926
      -1.531
      -1.188
      -0.884
      -0.756
      -1.015
      -1.742
      -2.693
      -3.335
      -3.133
      -1.924
      -0.060
       1.786
       3.025
       3.475
       3.418
       3.365
       3.700
       4.443
       5.282
       5.822
       5.845
       5.389
       4.602
       3.565
       2.242
       0.624
      -1.119
      -2.630
      -3.555
      -3.754
      -3.370
      -2.735
      -2.206
      -2.031
      -2.279
      -2.832
      -3.419
      -3.725
      -3.547
      -2.903
      -2.028
      -1.231
      -0.680
      -0.282
       0.252
       1.160
       2.375
       3.447
       3.766
       2.934
       1.076
      -1.159
      -2.913
      -3.567
      -3.057
      -1.856
      -0.629
       0.210
       0.739
       1.358
       2.359
       3.601
       4.574
       4.795
       4.180
       3.087
       2.012
       1.223
       0.615
      -0.113
      -1.150
      -2.379
      -3.409
      -3.788
      -3.285
      -2.045
      -0.528
       0.731
       1.371
       1.324
       0.766
      -0.026
      -0.810
      -1.469
      -1.985
      -2.340
      -2.417
      -2.019
      -1.047
       0.325
       1.659
       2.487
       2.579
       2.042
       1.198
       0.380
      -0.220
      -0.583
      -0.792
      -0.921
      -0.971
      -0.901
      -0.705
      -0.441
      -0.192
      -0.012
       0.090
       0.138
       0.173
       0.238
       0.351
       0.490
       0.613
       0.702
       0.772
       0.826
       0.806
       0.609
       0.188
      -0.348
      -0.752
      -0.745
      -0.182
       0.844
       2.019
       2.957
       3.389
       3.260
       2.677
       1.765
       0.580
      -0.849
      -2.408
      -3.834
      -4.801
      -5.101
      -4.760
      -3.984
      -2.994
      -1.914
      -0.808
       0.210
       0.914
       1.061
       0.591
      -0.260
      -1.038
      -1.318
      -0.925
       0.039
       1.323
       2.685
       3.943
       4.924
       5.418
       5.208
       4.193
       2.493
       0.429
      -1.590
      -3.215
      -4.242
      -4.634
      -4.505
      -4.065
      -3.507
      -2.890
      -2.110
      -1.020
       0.349
       1.692
       2.581
       2.781
       2.474
       2.157
       2.275
       2.855
       3.456
       3.510
       2.758
       1.434
       0.046
      -1.021
      -1.730
      -2.282
      -2.807
      -3.162
      -3.018
      -2.154
      -0.699
       0.873
       1.989
       2.301
       1.855
       1.002
       0.168
      -0.379
      -0.605
      -0.642
      -0.632
      -0.613
      -0.529
      -0.323
      -0.024
       0.258
       0.384
       0.253
      -0.183
      -0.889
      -1.716
      -2.399
      -2.637
      -2.246
      -1.272
       0.024
       1.284
       2.166
       2.411
       1.898
       0.725
      -0.750
      -2.043
      -2.787
      -2.889
      -2.470
      -1.660
      -0.485
       1.046
       2.753
       4.244
       5.100
       5.135
       4.487
       3.487
       2.451
       1.560
       0.867
       0.358
       0.003
      -0.216
      -0.324
      -0.381
      -0.494
      -0.784
      -1.328
      -2.133
      -3.145
