Origin Time       22/7/2007 23:02:12 
Lat.              31.2 N 
Long.             78.2 E 
Depth (Km)         33.0
Magnitude         5.0
 Region           UTTARKASHI-UTTARANCHAL                                           
 Above details taken from IMD 
   
Station Code      BHA
Station Lat.       31.552
Station Long.      77.923
Station Height(m) 1579.0
Site Class        A   Vs30 between 700 m/sec to 1400 m/sec * 
Record Time       22.07.2007 23:02:23.679
Sampling Rate     200. Hz
 Record Duration   40.700 Sec.
 Direction         Vert. (Up positive)
Max. Acceleration     -4.903 cm/sec**2
     
  * For reference see Site Classification link of website 
     
 Base Line Corrected and Low Pass Filtered (Cut Off at 35 Hz) Time History
 Acceleration data in cm/sec**2
    
[...]
      -1.228
      -0.637
      -0.018
       0.535
       0.952
       1.186
       1.228
       1.113
       0.914
       0.702
       0.510
       0.327
       0.120
      -0.133
      -0.419
      -0.702
      -0.943
      -1.110
      -1.166
      -1.055
      -0.739
      -0.249
       0.306
       0.776
       1.042
       1.058
       0.849
       0.499
       0.130
      -0.138
      -0.246
      -0.220
      -0.135
      -0.049
       0.042
       0.174
       0.355
       0.517
       0.538
       0.330
      -0.074
      -0.511
      -0.785
      -0.796
      -0.593
      -0.329
      -0.153
      -0.117
      -0.164
      -0.171
      -0.042
       0.213
       0.474
       0.586
       0.471
       0.201
      -0.055
      -0.153
      -0.077
       0.073
       0.176
       0.173
       0.075
      -0.087
      -0.281
      -0.466
      -0.576
      -0.536
      -0.300
       0.105
       0.578
       0.983
       1.220
       1.264
       1.137
       0.864
       0.442
      -0.130
      -0.800
      -1.435
      -1.845
      -1.870
      -1.469
      -0.765
       0.001
       0.579
       0.824
       0.748
       0.490
       0.227
       0.076
       0.054
       0.109
       0.185
       0.273
       0.390
       0.538
       0.668
       0.700
       0.556
       0.216
      -0.273
      -0.803
      -1.243
      -1.477
      -1.438
      -1.127
      -0.619
      -0.036
       0.494
       0.869
       1.032
       0.980
       0.771
       0.504
       0.279
       0.150
       0.111
       0.124
       0.164
       0.235
       0.341
       0.447
       0.475
       0.346
       0.051
      -0.319
      -0.613
      -0.703
      -0.562
      -0.297
      -0.091
      -0.090
      -0.294
      -0.549
      -0.649
      -0.482
      -0.116
       0.255
       0.453
       0.445
       0.333
       0.244
       0.213
       0.175
       0.058
      -0.133
      -0.316
      -0.414
      -0.418
      -0.371
      -0.314
      -0.242
      -0.120
       0.065
       0.268
       0.411
       0.443
       0.377
       0.277
       0.203
       0.175
       0.174
       0.174
       0.183
       0.236
       0.359
       0.517
       0.622
       0.582
       0.367
       0.027
      -0.345
      -0.667
      -0.898
      -1.037
      -1.092
      -1.056
      -0.907
      -0.646
      -0.321
      -0.022
       0.173
       0.258
       0.299
       0.382
       0.534
       0.691
       0.763
       0.716
       0.602
       0.499
       0.422
       0.309
       0.104
      -0.150
      -0.321
      -0.301
      -0.123
       0.050
       0.065
      -0.093
      -0.300
      -0.416
      -0.399
      -0.324
      -0.294
      -0.358
      -0.480
      -0.580
      -0.588
      -0.486
      -0.311
      -0.131
       0.006
       0.098
       0.187
       0.324
       0.524
       0.747
       0.916
       0.972
       0.904
       0.749
       0.552
       0.328
       0.075
      -0.188
      -0.405
      -0.506
      -0.459
      -0.295
      -0.099
       0.032
       0.025
      -0.128
      -0.356
      -0.540
      -0.581
      -0.473
      -0.295
      -0.149
      -0.091
      -0.108
      -0.146
      -0.136
      -0.014
       0.243
       0.576
       0.857
       0.967
       0.892
       0.738
       0.643
       0.647
       0.647
       0.478
       0.061
      -0.514
      -1.044
      -1.371
      -1.476
      -1.447
      -1.347
      -1.152
      -0.781
      -0.205
       0.483
       1.097
       1.454
       1.463
       1.155
       0.659
       0.131
      -0.305
      -0.585
      -0.700
      -0.673
      -0.543
      -0.378
      -0.270
      -0.293
      -0.445
      -0.624
      -0.685
      -0.524
      -0.144
       0.357
       0.843
       1.212
       1.428
       1.518
       1.523
       1.449
       1.248
       0.852
       0.264
      -0.382
      -0.856
      -0.976
      -0.749
      -0.381
      -0.136
      -0.157
      -0.390
      -0.660
      -0.809
      -0.790
      -0.666
      -0.536
      -0.466
      -0.452
      -0.441
      -0.364
      -0.175
       0.104
       0.384
       0.560
       0.599
       0.565
       0.563
       0.643
       0.759
       0.812
       0.724
       0.484
       0.139
      -0.236
      -0.575
      -0.829
      -0.966
      -0.965
      -0.813
      -0.531
      -0.188
       0.121
       0.332
       0.467
       0.618
       0.856
       1.134
       1.286
       1.152
       0.714
       0.126
      -0.390
      -0.694
      -0.785
      -0.745
      -0.646
      -0.512
      -0.355
      -0.224
      -0.196
      -0.305
      -0.498
      -0.653
      -0.674
      -0.560
      -0.380
      -0.186
       0.048
       0.392
       0.849
       1.296
       1.539
       1.451
       1.052
       0.489
      -0.063
      -0.492
      -0.767
      -0.910
      -0.956
      -0.933
      -0.855
      -0.735
      -0.585
      -0.422
      -0.264
      -0.120
       0.015
       0.167
       0.357
       0.579
       0.798
       0.961
       1.023
       0.954
       0.747
       0.420
       0.042
      -0.269
      -0.375
      -0.203
       0.178
       0.564
       0.723
       0.552
       0.147
      -0.288
      -0.611
      -0.835
      -1.057
      -1.280
      -1.345
      -1.040
      -0.320
       0.592
       1.318
       1.560
       1.278
       0.667
      -0.003
      -0.549
      -0.921
      -1.147
      -1.255
      -1.244
      -1.106
      -0.865
      -0.575
      -0.296
      -0.049
       0.217
       0.591
       1.113
       1.666
       1.980
       1.793
       1.086
       0.166
      -0.520
      -0.711
      -0.508
      -0.236
      -0.136
      -0.183
      -0.173
       0.025
       0.328
       0.516
       0.423
       0.052
      -0.451
      -0.909
      -1.181
      -1.186
      -0.912
      -0.423
       0.157
       0.695
       1.111
       1.380
       1.495
       1.434
       1.184
       0.783
       0.329
      -0.075
      -0.387
      -0.635
      -0.845
      -0.995
      -1.021
      -0.892
      -0.653
      -0.403
      -0.239
      -0.200
      -0.278
      -0.440
      -0.652
      -0.877
      -1.045
      -1.049
      -0.794
      -0.274
       0.393
       1.004
       1.375
       1.427
       1.216
       0.889
       0.590
       0.392
       0.269
       0.141
      -0.058
      -0.318
      -0.551
      -0.643
      -0.534
      -0.255
       0.088
       0.377
       0.542
       0.559
       0.443
       0.233
      -0.009
      -0.217
      -0.346
      -0.390
      -0.382
      -0.361
      -0.348
      -0.327
      -0.269
      -0.170
      -0.054
       0.057
       0.162
       0.277
       0.393
       0.477
       0.493
       0.430
       0.306
       0.161
       0.039
      -0.040
      -0.085
      -0.130
      -0.203
      -0.279
      -0.287
      -0.158
       0.087
       0.320
       0.393
       0.269
       0.067
      -0.035
       0.037
       0.205
       0.331
       0.367
       0.380
       0.448
       0.537
       0.483
       0.131
      -0.517
      -1.260
      -1.822
      -2.006
      -1.786
      -1.273
      -0.630
       0.008
       0.561
       0.996
       1.283
       1.378
       1.255
       0.966
       0.654
       0.464
       0.436
       0.463
       0.386
       0.132
      -0.232
      -0.553
      -0.704
      -0.666
      -0.518
      -0.377
      -0.329
      -0.396
      -0.526
      -0.622
      -0.584
      -0.382
      -0.099
       0.103
       0.097
      -0.092
      -0.282
      -0.273
      -0.011
       0.374
       0.683
       0.817
       0.837
       0.871
       0.969
       1.046
       0.957
       0.637
       0.167
      -0.281
      -0.569
      -0.682
      -0.708
      -0.740
      -0.788
      -0.781
      -0.642
      -0.374
      -0.069
       0.158
       0.264
       0.301
       0.362
       0.481
       0.576
       0.509
       0.209
      -0.238
      -0.616
      -0.723
      -0.521
      -0.184
       0.006
      -0.147
      -0.600
      -1.084
      -1.282
      -1.053
      -0.508
       0.100
       0.580
       0.905
       1.150
       1.351
       1.430
       1.262
       0.811
       0.209
      -0.303
      -0.529
      -0.441
      -0.177
       0.056
       0.103
      -0.076
      -0.401
      -0.732
      -0.935
      -0.945
      -0.788
      -0.546
      -0.298
      -0.071
       0.146
       0.350
       0.494
       0.522
       0.432
       0.307
       0.256
       0.335
       0.510
       0.680
       0.743
       0.661
       0.476
       0.280
       0.131
       0.000
      -0.209
      -0.553
      -0.956
      -1.215
      -1.123
      -0.641
       0.051
       0.645
       0.906
       0.801
       0.485
       0.165
      -0.038
      -0.125
      -0.169
      -0.214
      -0.235
      -0.167
       0.000
       0.174
       0.209
       0.038
      -0.247
      -0.445
      -0.410
      -0.172
       0.097
       0.237
       0.227
       0.157
       0.113
       0.083
      -0.020
      -0.251
      -0.568
      -0.847
      -0.975
      -0.932
      -0.795
      -0.673
      -0.603
      -0.525
      -0.343
      -0.032
       0.328
       0.615
       0.769
       0.821
       0.830
       0.808
       0.720
       0.556
       0.374
       0.268
       0.284
       0.371
       0.404
       0.272
      -0.036
      -0.419
      -0.730
      -0.878
      -0.882
      -0.829
      -0.769
      -0.634
      -0.287
       0.346
       1.156
       1.886
       2.283
       2.252
       1.891
       1.386
       0.889
       0.462
       0.102
      -0.211
      -0.483
      -0.692
      -0.793
      -0.750
      -0.582
      -0.374
      -0.232
      -0.206
      -0.259
      -0.314
      -0.318
      -0.270
      -0.190
      -0.103
      -0.041
      -0.037
      -0.099
      -0.187
      -0.250
      -0.281
      -0.331
      -0.447
      -0.600
      -0.686
      -0.620
      -0.429
      -0.250
      -0.214
      -0.340
      -0.519
      -0.603
      -0.524
      -0.328
      -0.126
      -0.008
       0.007
      -0.042
      -0.106
      -0.153
      -0.165
      -0.122
       0.001
       0.202
       0.423
       0.574
       0.589
       0.477
       0.327
       0.248
       0.299
       0.440
       0.547
       0.498
       0.269
      -0.028
      -0.218
      -0.193
      -0.005
       0.172
       0.186
       0.031
      -0.148
      -0.171
       0.033
       0.368
       0.632
       0.651
       0.372
      -0.117
      -0.641
      -1.020
      -1.135
      -0.956
      -0.549
      -0.049
       0.387
       0.640
       0.683
       0.584
       0.454
       0.368
       0.322
       0.256
       0.128
      -0.046
      -0.206
      -0.296
      -0.313
      -0.294
      -0.290
      -0.334
      -0.429
      -0.538
      -0.585
      -0.499
      -0.264
       0.063
       0.373
       0.567
       0.589
       0.439
       0.167
      -0.120
      -0.289
      -0.242
       0.005
       0.293
       0.420
       0.291
      -0.002
      -0.252
      -0.301
      -0.156
       0.045
       0.172
       0.194
       0.182
       0.231
       0.368
       0.532
       0.614
       0.532
       0.310
       0.066
      -0.059
      -0.010
       0.140
       0.254
       0.247
       0.158
       0.093
       0.106
       0.128
       0.028
      -0.266
      -0.680
      -1.038
      -1.206
      -1.198
      -1.151
      -1.181
      -1.261
      -1.245
      -1.003
      -0.563
      -0.116
       0.123
       0.084
      -0.084
      -0.118
       0.165
       0.727
       1.329
       1.693
       1.680
       1.352
       0.914
       0.572
       0.410
       0.355
       0.245
      -0.039
      -0.479
      -0.926
      -1.203
      -1.215
      -0.987
      -0.611
      -0.173
       0.258
       0.604
       0.771
       0.704
       0.442
       0.118
      -0.133
      -0.251
      -0.268
      -0.243
      -0.202
      -0.118
       0.037
       0.252
       0.469
       0.621
       0.670
       0.608
       0.433
       0.124
      -0.332
      -0.894
      -1.447
      -1.849
      -2.026
      -2.015
      -1.925
      -1.831
      -1.698
      -1.416
      -0.907
      -0.221
       0.474
       0.999
       1.294
       1.463
       1.676
       2.021
       2.394
       2.537
       2.211
       1.380
       0.285
      -0.689
      -1.245
      -1.354
      -1.218
      -1.067
      -0.978
      -0.869
      -0.651
      -0.344
      -0.059
       0.131
       0.273
       0.499
       0.909
       1.485
       2.089
       2.547
       2.739
       2.642
       2.319
       1.858
       1.322
       0.737
       0.107
      -0.546
      -1.179
      -1.735
      -2.180
      -2.503
      -2.687
      -2.686
      -2.447
      -1.973
      -1.375
      -0.828
      -0.464
      -0.289
      -0.192
      -0.036
       0.256
       0.691
       1.232
       1.825
       2.381
       2.762
       2.824
       2.501
       1.868
       1.104
       0.372
      -0.273
      -0.887
      -1.526
      -2.139
      -2.556
      -2.608
      -2.274
      -1.731
      -1.234
      -0.923
      -0.721
      -0.422
       0.101
       0.744
       1.242
       1.394
       1.261
       1.122
       1.240
       1.656
       2.191
       2.612
       2.774
       2.646
       2.248
       1.599
       0.712
      -0.382
      -1.613
      -2.859
      -3.945
      -4.678
      -4.903
      -4.565
      -3.742
      -2.621
      -1.439
      -0.402
       0.360
       0.812
       1.010
       1.095
       1.266
       1.694
       2.412
       3.255
       3.934
       4.204
       4.004
       3.463
       2.771
       2.045
       1.285
       0.427
      -0.555
      -1.594
      -2.537
      -3.211
      -3.525
      -3.525
      -3.345
      -3.098
      -2.772
      -2.253
      -1.448
      -0.401
       0.703
       1.652
       2.327
       2.726
       2.893
       2.847
       2.586
       2.147
       1.626
       1.115
       0.616
       0.045
      -0.676
      -1.511
      -2.324
      -2.967
      -3.378
      -3.589
      -3.654
      -3.583
      -3.332
      -2.856
      -2.164
      -1.325
      -0.432
       0.432
       1.216
       1.892
       2.461
       2.953
       3.391
       3.738
       3.879
       3.696
       3.175
       2.454
       1.748
       1.209
       0.827
       0.471
       0.012
      -0.560
      -1.147
      -1.644
      -2.025
      -2.320
      -2.523
      -2.567
      -2.392
      -2.030
      -1.592
      -1.168
      -0.727
      -0.146
       0.645
       1.530
       2.226
       2.476
       2.248
       1.770
       1.350
       1.144
       1.055
       0.840
       0.313
      -0.497
      -1.352
      -1.960
      -2.166
      -2.044
      -1.807
      -1.632
      -1.536
      -1.398
      -1.088
      -0.581
       0.036
       0.652
       1.212
       1.722
       2.183
       2.541
       2.712
       2.644
       2.379
       2.026
       1.686
       1.381
       1.046
       0.591
      -0.027
      -0.760
      -1.493
      -2.099
      -2.506
      -2.718
      -2.784
      -2.730
      -2.534
      -2.156
      -1.630
      -1.102
      -0.768
      -0.724
      -0.873
      -0.978
      -0.823
      -0.364
       0.255
       0.812
       1.159
       1.285
       1.286
       1.259
       1.236
       1.177
       1.025
       0.762
       0.431
       0.112
      -0.132
      -0.279
      -0.344
      -0.327
      -0.200
       0.071
       0.471
       0.906
       1.234
       1.330
       1.152
       0.748
       0.233
      -0.259
      -0.607
      -0.742
      -0.651
      -0.368
       0.028
       0.403
       0.580
       0.415
      -0.078
      -0.682
      -1.086
      -1.075
      -0.651
       0.003
       0.652
       1.097
       1.213
       0.960
       0.401
      -0.311
      -1.002
      -1.551
      -1.899
      -2.002
      -1.815
      -1.335
      -0.687
      -0.090
       0.267
       0.355
       0.301
       0.255
       0.265
       0.260
       0.150
      -0.091
      -0.400
      -0.675
      -0.831
      -0.801
      -0.543
      -0.057
       0.583
       1.239
       1.763
       2.065
       2.119
       1.939
       1.551
       1.008
       0.400
      -0.161
      -0.589
      -0.862
      -1.013
      -1.085
      -1.120
      -1.184
      -1.361
      -1.685
      -2.046
      -2.198
      -1.914
      -1.171
      -0.184
       0.729
       1.331
       1.553
       1.437
       1.071
       0.570
       0.099
      -0.159
      -0.123
       0.099
       0.253
       0.132
      -0.251
      -0.664
      -0.828
      -0.626
      -0.185
       0.213
       0.333
       0.156
      -0.108
      -0.172
       0.101
       0.578
       0.944
       0.950
       0.621
       0.238
       0.121
       0.375
       0.827
       1.175
       1.219
       0.978
       0.624
       0.321
       0.123
       0.008
      -0.031
       0.051
       0.297
       0.697
       1.184
       1.671
       2.061
       2.235
       2.066
       1.470
       0.469
      -0.798
      -2.110
      -3.229
      -3.952
      -4.156
      -3.826
      -3.071
      -2.088
      -1.088
      -0.224
       0.434
       0.864
       1.052
       0.985
       0.683
       0.239
      -0.197
      -0.475
      -0.531
      -0.411
      -0.215
       0.016
       0.362
       0.941
       1.749
       2.563
       3.026
       2.861
       2.051
       0.852
      -0.357
      -1.253
      -1.696
      -1.738
      -1.553
      -1.296
      -1.001
      -0.575
       0.052
       0.774
       1.304
       1.371
       0.936
       0.209
      -0.523
      -1.093
      -1.480
      -1.703
      -1.727
      -1.493
      -1.021
      -0.456
       0.018
       0.313
       0.501
       0.734
       1.081
       1.435
       1.560
       1.276
       0.628
      -0.078
      -0.428
      -0.172
       0.578
       1.397
       1.802
       1.565
       0.827
      -0.029
      -0.659
      -0.963
      -1.058
      -1.090
      -1.073
      -0.897
      -0.490
       0.074
       0.599
       0.917
       0.998
       0.939
       0.853
       0.760
       0.590
       0.281
      -0.124
      -0.485
      -0.700
      -0.838
      -1.116
      -1.673
      -2.369
      -2.814
      -2.666
      -1.927
      -0.952
      -0.157
       0.303
       0.593
       0.984
       1.576
       2.202
       2.599
       2.638
       2.436
       2.230
       2.149
       2.096
       1.824
       1.156
       0.154
      -0.884
      -1.603
      -1.807
      -1.584
      -1.228
      -1.029
      -1.079
      -1.246
      -1.341
      -1.293
      -1.201
      -1.199
      -1.300
      -1.376
      -1.288
      -1.035
      -0.755
      -0.594
      -0.567
      -0.535
      -0.295
       0.277
       1.125
       2.003
       2.591
       2.692
       2.363
       1.872
       1.484
       1.255
       1.010
       0.515
      -0.294
      -1.201
      -1.840
      -1.962
      -1.641
      -1.238
      -1.117
      -1.349
      -1.653
      -1.621
      -1.057
      -0.136
       0.710
       1.110
       1.018
       0.722
       0.603
       0.821
