Origin Time       9/1/2009 12:40:18   UTC
Lat.              31.7 N 
Long.             78.3 E 
Depth (Km)         16.0
Magnitude         3.8
 Region           KINNAUR-DISTRICT-HIMACHAL-PRADESH                                
 Above details taken from IMD 
    
Station Code      BHA
Station Lat.       31.552  N
Station Long.      77.923  E
Station Height(m) 1579.0
Site Class        A   Vs30 between 700 m/sec to 1400 m/sec * 
Record Time       09.01.2009 12:40:31.794 UTC
Sampling Rate     200. Hz
 Record Duration   66.505 Sec.
 Direction         N-S (N positive)
Max. Acceleration    -13.430 cm/sec**2
     
  * For reference see Site Classification link of website 
     
 Base Line Corrected and Low Pass Filtered (Cut Off at 35 Hz) Time History
 Acceleration data in cm/sec**2
    
[...]
       1.151
       1.431
       1.223
       0.638
      -0.063
      -0.614
      -0.849
      -0.722
      -0.266
       0.429
       1.193
       1.778
       1.942
       1.596
       0.886
       0.136
      -0.349
      -0.464
      -0.344
      -0.212
      -0.194
      -0.256
      -0.292
      -0.277
      -0.296
      -0.448
      -0.710
      -0.941
      -1.002
      -0.895
      -0.745
      -0.664
      -0.620
      -0.452
      -0.020
       0.651
       1.348
       1.780
       1.740
       1.219
       0.407
      -0.414
      -1.022
      -1.346
      -1.410
      -1.238
      -0.819
      -0.179
       0.536
       1.104
       1.339
       1.197
       0.773
       0.242
      -0.221
      -0.509
      -0.600
      -0.540
      -0.379
      -0.136
       0.186
       0.556
       0.897
       1.127
       1.205
       1.139
       0.945
       0.621
       0.169
      -0.355
      -0.831
      -1.111
      -1.110
      -0.864
      -0.518
      -0.244
      -0.138
      -0.174
      -0.256
      -0.302
      -0.317
      -0.357
      -0.443
      -0.490
      -0.352
       0.048
       0.612
       1.106
       1.309
       1.164
       0.799
       0.447
       0.309
       0.446
       0.714
       0.806
       0.429
      -0.440
      -1.441
      -2.012
      -1.806
      -1.000
      -0.215
      -0.065
      -0.719
      -1.795
      -2.656
      -2.834
      -2.282
      -1.335
      -0.441
       0.148
       0.517
       0.967
       1.695
       2.563
       3.146
       3.039
       2.172
       0.904
      -0.151
      -0.466
       0.106
       1.236
       2.288
       2.664
       2.116
       0.857
      -0.592
      -1.703
      -2.219
      -2.216
      -1.961
      -1.704
      -1.562
      -1.553
      -1.653
      -1.807
      -1.901
      -1.802
      -1.457
      -0.954
      -0.465
      -0.103
       0.170
       0.506
       1.038
       1.759
       2.496
       3.024
       3.222
       3.134
       2.914
       2.701
       2.533
       2.339
       1.981
       1.325
       0.340
      -0.828
      -1.854
      -2.362
      -2.163
      -1.430
      -0.642
      -0.274
      -0.458
      -0.940
      -1.358
      -1.578
      -1.747
      -2.057
      -2.494
      -2.838
      -2.877
      -2.593
      -2.135
      -1.640
      -1.131
      -0.584
      -0.045
       0.361
       0.566
       0.670
       0.869
       1.278
       1.833
       2.391
       2.889
       3.381
       3.900
       4.332
       4.460
       4.140
       3.409
       2.421
       1.290
       0.042
      -1.297
      -2.600
      -3.666
      -4.329
      -4.504
      -4.165
      -3.337
      -2.185
      -1.082
      -0.472
      -0.566
      -1.147
      -1.703
      -1.817
      -1.444
      -0.819
      -0.137
       0.626
       1.583
       2.679
       3.621
       4.085
       3.969
       3.457
       2.849
       2.363
       2.069
       1.937
       1.884
       1.761
       1.377
       0.617
      -0.433
      -1.498
      -2.298
      -2.751
      -3.015
      -3.324
      -3.797
      -4.369
      -4.876
      -5.142
      -4.982
      -4.179
      -2.576
      -0.281
       2.209
       4.148
       4.921
       4.430
       3.182
       2.004
       1.566
       2.009
       2.925
       3.686
       3.832
       3.237
       1.988
       0.207
      -1.939
      -4.071
      -5.555
      -5.795
      -4.660
      -2.665
      -0.679
       0.623
       1.118
       1.141
       1.073
       1.034
       0.926
       0.691
       0.442
       0.330
       0.313
       0.127
      -0.488
      -1.491
      -2.463
      -2.842
      -2.293
      -0.949
       0.628
       1.734
       1.889
       1.102
      -0.110
      -0.999
      -1.009
      -0.063
       1.469
       3.059
       4.307
       5.049
       5.286
       5.082
       4.496
       3.568
       2.326
       0.838
      -0.749
      -2.219
      -3.396
      -4.233
      -4.786
      -5.080
      -5.055
      -4.641
      -3.891
      -2.988
      -2.117
      -1.347
      -0.664
      -0.095
       0.261
       0.338
       0.209
       0.051
       0.000
       0.086
       0.285
       0.594
       0.987
       1.313
       1.326
       0.904
       0.243
      -0.218
      -0.119
       0.546
       1.467
       2.283
       2.804
       3.021
       2.985
       2.710
       2.197
       1.503
       0.765
       0.156
      -0.196
      -0.257
      -0.102
       0.081
       0.034
      -0.481
      -1.535
      -2.926
      -4.219
      -4.962
      -4.937
      -4.293
      -3.443
      -2.789
      -2.444
      -2.173
      -1.617
      -0.618
       0.653
       1.912
       3.054
       4.187
       5.319
       6.084
       5.904
       4.536
       2.456
       0.652
      -0.078
       0.300
       1.094
       1.466
       1.041
       0.042
      -1.038
      -1.858
      -2.384
      -2.748
      -3.036
      -3.215
      -3.202
      -2.965
      -2.552
      -2.030
      -1.389
      -0.540
       0.582
       1.883
       3.075
       3.771
       3.663
       2.653
       0.909
      -1.164
      -3.026
      -4.172
      -4.361
      -3.742
      -2.784
      -1.960
      -1.403
      -0.807
       0.278
       1.987
       3.929
       5.459
       6.194
       6.272
       6.119
       5.997
       5.803
       5.279
       4.352
       3.206
       2.032
       0.776
      -0.826
      -2.958
      -5.493
      -8.030
     -10.098
     -11.321
     -11.465
     -10.437
      -8.337
      -5.508
      -2.502
       0.085
       1.858
       2.788
       3.190
       3.534
       4.194
       5.291
       6.669
       7.949
       8.637
       8.306
       6.826
       4.495
       1.939
      -0.234
      -1.776
      -2.875
      -3.898
      -5.018
      -6.044
      -6.570
      -6.292
      -5.238
      -3.746
      -2.256
      -1.078
      -0.296
       0.172
       0.450
       0.664
       0.987
       1.632
       2.730
       4.201
       5.751
       7.007
       7.642
       7.418
       6.216
       4.112
       1.445
      -1.277
      -3.622
      -5.431
      -6.772
      -7.717
      -8.162
      -7.880
      -6.747
      -4.909
      -2.757
      -0.750
       0.765
       1.658
       2.031
       2.193
       2.543
       3.354
       4.542
       5.632
       5.992
       5.247
       3.557
       1.510
      -0.297
      -1.630
      -2.618
      -3.468
      -4.195
      -4.606
      -4.493
      -3.834
      -2.815
      -1.689
      -0.613
       0.389
       1.300
       2.002
       2.309
       2.137
       1.632
       1.121
       0.923
       1.177
       1.797
       2.575
       3.305
       3.819
       3.972
       3.663
       2.905
       1.848
       0.677
      -0.523
      -1.784
      -3.124
      -4.393
      -5.303
      -5.632
      -5.386
      -4.731
      -3.788
      -2.572
      -1.132
       0.291
       1.314
       1.638
       1.256
       0.479
      -0.226
      -0.471
      -0.153
       0.530
       1.250
       1.760
       1.967
       1.851
       1.404
       0.684
      -0.079
      -0.500
      -0.264
       0.601
       1.657
       2.299
       2.146
       1.257
       0.049
      -0.958
      -1.376
      -1.070
      -0.211
       0.771
       1.377
       1.310
       0.639
      -0.265
      -0.935
      -1.021
      -0.419
       0.650
       1.672
       2.039
       1.392
      -0.095
      -1.743
      -2.746
      -2.693
      -1.836
      -0.892
      -0.514
      -0.842
      -1.463
      -1.782
      -1.509
      -0.887
      -0.500
      -0.787
      -1.649
      -2.464
      -2.509
      -1.425
       0.614
       3.068
       5.281
       6.656
       6.787
       5.641
       3.668
       1.653
       0.312
      -0.110
       0.083
       0.278
      -0.075
      -1.214
      -2.989
      -4.911
      -6.320
      -6.636
      -5.635
      -3.564
      -1.030
       1.316
       3.066
       4.101
       4.409
       3.878
       2.357
      -0.042
      -2.703
      -4.661
      -5.121
      -3.941
      -1.700
       0.675
       2.397
       3.087
       2.765
       1.726
       0.465
      -0.427
      -0.495
       0.324
       1.631
       2.797
       3.366
       3.292
       2.855
       2.365
       1.931
       1.470
       0.870
       0.142
      -0.554
      -1.033
      -1.242
      -1.347
      -1.647
      -2.367
      -3.462
      -4.575
      -5.217
      -5.093
      -4.307
      -3.261
      -2.309
      -1.460
      -0.423
       1.058
       2.879
       4.560
       5.544
       5.570
       4.837
       3.839
       2.977
       2.279
       1.466
       0.293
      -1.160
      -2.529
      -3.441
      -3.728
      -3.415
      -2.638
      -1.598
      -0.554
       0.266
       0.783
       1.085
       1.316
       1.553
       1.781
       1.938
       1.940
       1.682
       1.086
       0.216
      -0.653
      -1.139
      -0.996
      -0.305
       0.559
       1.155
       1.205
       0.685
      -0.249
      -1.386
      -2.564
      -3.713
      -4.814
      -5.789
      -6.384
      -6.201
      -4.908
      -2.515
       0.508
       3.403
       5.448
       6.223
       5.686
       4.143
       2.177
       0.515
      -0.234
       0.139
       1.331
       2.734
       3.792
       4.242
       4.106
       3.496
       2.505
       1.255
       0.011
      -0.873
      -1.180
      -1.024
      -0.814
      -0.964
      -1.579
      -2.379
      -2.916
      -2.913
      -2.468
      -1.990
      -1.900
      -2.340
      -3.091
      -3.770
      -4.121
      -4.125
      -3.866
      -3.327
      -2.381
      -0.990
       0.645
       2.159
       3.268
       3.927
       4.281
       4.510
       4.718
       4.916
       5.001
       4.755
       3.926
       2.428
       0.489
      -1.375
      -2.625
      -2.991
      -2.611
      -1.921
      -1.413
      -1.394
      -1.869
      -2.588
      -3.211
      -3.472
      -3.240
      -2.483
      -1.237
       0.342
       1.935
       3.128
       3.617
       3.399
       2.804
       2.303
       2.225
       2.564
       3.037
       3.320
       3.247
       2.831
       2.119
       1.087
      -0.307
      -1.981
      -3.661
      -4.959
      -5.556
      -5.362
      -4.548
      -3.456
      -2.433
      -1.684
      -1.228
      -0.959
      -0.763
      -0.616
      -0.594
      -0.785
      -1.168
      -1.528
      -1.502
      -0.738
       0.919
       3.285
       5.807
       7.655
       7.998
       6.415
       3.223
      -0.544
      -3.578
      -4.938
      -4.449
      -2.641
      -0.324
       1.843
       3.498
       4.460
       4.589
       3.807
       2.271
       0.431
      -1.139
      -2.041
      -2.221
      -1.887
      -1.303
      -0.656
      -0.076
       0.287
       0.271
      -0.227
      -1.190
      -2.502
      -4.006
      -5.515
      -6.765
      -7.417
      -7.186
      -6.014
      -4.149
      -2.039
      -0.136
       1.270
       2.123
       2.602
       3.040
       3.746
       4.819
       6.088
       7.237
       8.017
       8.360
       8.335
       7.999
       7.292
       6.055
       4.167
       1.711
      -0.944
      -3.235
      -4.685
      -5.209
      -5.205
      -5.285
      -5.841
      -6.785
      -7.656
      -7.961
      -7.480
      -6.349
      -4.912
      -3.490
      -2.212
      -1.006
       0.271
       1.675
       3.092
       4.311
       5.186
       5.748
       6.185
       6.665
       7.147
       7.333
       6.821
       5.355
       2.986
       0.053
      -2.963
      -5.559
      -7.290
      -7.859
      -7.266
      -5.893
      -4.375
      -3.261
      -2.702
      -2.397
      -1.870
      -0.836
       0.626
       2.180
       3.452
       4.190
       4.310
       3.903
       3.210
       2.535
       2.089
       1.913
       1.958
       2.208
       2.689
       3.319
       3.791
       3.655
       2.599
       0.693
      -1.613
      -3.730
      -5.223
      -5.965
      -6.081
      -5.795
      -5.289
      -4.641
      -3.853
      -2.939
      -2.007
      -1.240
      -0.772
      -0.561
      -0.404
      -0.094
       0.427
       1.075
       1.769
       2.530
       3.403
       4.311
       5.012
       5.266
       5.050
       4.580
       4.108
       3.672
       3.087
       2.180
       1.019
      -0.104
      -0.919
      -1.384
      -1.649
      -1.863
      -2.049
      -2.148
      -2.154
      -2.161
      -2.303
      -2.655
      -3.200
      -3.852
      -4.495
      -5.019
      -5.327
      -5.358
      -5.073
      -4.429
      -3.345
      -1.732
       0.395
       2.815
       5.119
       6.900
       7.949
       8.291
       8.030
       7.194
       5.787
       3.988
       2.233
       1.006
       0.502
       0.471
       0.446
       0.141
      -0.359
      -0.772
      -0.966
      -1.109
      -1.507
      -2.284
      -3.223
      -3.928
      -4.160
      -4.032
      -3.908
      -4.109
      -4.700
      -5.505
      -6.246
      -6.671
      -6.574
      -5.789
      -4.234
      -1.991
       0.630
       3.172
       5.250
       6.750
       7.835
       8.722
       9.437
       9.792
       9.589
       8.854
       7.860
       6.935
       6.224
       5.594
       4.714
       3.233
       0.975
      -1.953
      -5.203
      -8.337
     -10.955
     -12.731
     -13.430
     -12.958
     -11.452
      -9.308
      -7.070
      -5.199
      -3.848
      -2.812
      -1.696
      -0.198
       1.701
       3.755
       5.629
       7.076
       8.000
       8.436
       8.505
       8.350
       8.030
       7.453
       6.438
       4.901
       3.007
       1.105
      -0.491
      -1.692
      -2.632
      -3.500
      -4.363
      -5.118
      -5.590
      -5.672
      -5.378
      -4.798
      -4.025
      -3.125
      -2.176
      -1.278
      -0.501
       0.182
       0.890
       1.729
       2.666
       3.514
       4.037
       4.090
       3.667
       2.853
       1.750
       0.488
      -0.715
      -1.550
      -1.763
      -1.342
      -0.579
       0.100
       0.405
       0.350
       0.173
       0.100
       0.150
       0.143
      -0.119
      -0.648
      -1.209
      -1.460
      -1.198
      -0.540
       0.134
       0.425
       0.178
      -0.471
      -1.259
      -1.994
      -2.596
      -2.982
      -2.962
      -2.318
      -1.019
       0.662
       2.273
       3.454
       4.107
       4.326
       4.213
       3.774
       2.997
       1.982
       0.975
       0.252
      -0.039
       0.029
       0.211
       0.227
      -0.102
      -0.779
      -1.623
      -2.340
      -2.645
      -2.416
      -1.782
      -1.069
      -0.622
      -0.621
      -1.016
      -1.614
      -2.215
      -2.707
      -3.039
      -3.133
      -2.849
      -2.055
      -0.773
       0.739
       2.085
       2.962
       3.358
       3.541
       3.817
       4.266
       4.676
       4.720
       4.194
       3.118
       1.678
       0.097
      -1.444
      -2.829
      -3.982
      -4.829
      -5.271
      -5.193
      -4.561
      -3.500
      -2.293
      -1.227
      -0.409
       0.310
       1.207
       2.450
       3.935
       5.315
       6.199
       6.343
       5.752
       4.628
       3.235
       1.777
       0.329
      -1.137
      -2.668
      -4.222
      -5.605
      -6.514
      -6.675
      -6.015
      -4.740
      -3.259
      -1.971
      -1.068
      -0.459
       0.120
       0.882
       1.832
       2.775
       3.464
       3.748
       3.608
       3.110
       2.362
       1.523
       0.830
       0.540
       0.762
       1.311
       1.761
       1.715
       1.085
       0.140
      -0.721
      -1.257
      -1.478
      -1.510
      -1.409
      -1.133
      -0.683
      -0.210
       0.042
      -0.079
      -0.505
      -1.017
      -1.419
      -1.666
      -1.851
      -2.081
      -2.373
      -2.614
      -2.616
      -2.208
      -1.338
      -0.109
       1.236
       2.396
       3.134
       3.380
       3.258
       2.980
       2.695
       2.407
       1.998
       1.351
       0.456
      -0.553
      -1.445
      -1.990
      -2.065
      -1.678
      -0.929
       0.059
       1.127
       2.039
       2.491
       2.234
       1.247
      -0.212
      -1.718
      -2.883
      -3.485
      -3.501
      -3.062
      -2.395
      -1.725
      -1.170
      -0.677
      -0.110
       0.574
       1.226
       1.602
       1.577
       1.279
       1.009
       1.021
       1.362
       1.869
       2.301
       2.452
       2.179
       1.402
       0.152
      -1.342
      -2.671
      -3.400
      -3.304
      -2.495
      -1.344
      -0.268
       0.476
       0.875
       1.097
       1.351
       1.733
       2.170
       2.484
       2.512
       2.176
       1.483
       0.495
      -0.662
      -1.777
      -2.593
      -2.930
      -2.815
      -2.483
      -2.235
      -2.235
      -2.403
      -2.459
      -2.107
      -1.225
       0.052
       1.387
       2.416
       2.930
       2.954
       2.679
       2.302
       1.919
       1.543
       1.212
       1.021
       1.043
       1.212
       1.315
       1.124
       0.560
      -0.262
      -1.120
      -1.815
      -2.229
      -2.300
      -1.999
      -1.346
      -0.463
       0.422
       1.046
       1.227
       0.931
       0.270
      -0.550
      -1.304
      -1.810
      -1.961
      -1.725
      -1.134
      -0.296
       0.587
       1.247
       1.457
       1.181
       0.617
       0.090
      -0.168
      -0.169
      -0.117
      -0.215
      -0.503
      -0.865
      -1.167
      -1.379
      -1.544
      -1.662
      -1.614
      -1.222
      -0.402
       0.740
       1.948
       2.963
       3.628
       3.906
       3.816
       3.419
       2.830
       2.215
       1.717
       1.337
       0.892
       0.138
      -1.019
      -2.373
      -3.507
      -4.040
      -3.865
      -3.192
      -2.390
      -1.783
      -1.529
      -1.619
      -1.947
      -2.370
      -2.734
      -2.877
      -2.647
      -1.964
      -0.872
       0.467
       1.847
       3.101
       4.139
       4.927
       5.443
       5.652
       5.508
       4.991
       4.140
       3.065
       1.929
       0.894
       0.063
      -0.543
      -0.981
      -1.355
      -1.758
      -2.216
      -2.682
      -3.094
      -3.457
      -3.849
      -4.312
      -4.722
      -4.801
      -4.291
      -3.191
      -1.812
      -0.605
       0.143
       0.463
       0.619
       0.871
       1.314
       1.885
       2.469
       2.967
       3.295
       3.380
       3.198
       2.822
       2.409
       2.112
       1.971
       1.880
       1.648
       1.118
       0.256
      -0.830
      -1.911
      -2.698
      -2.952
      -2.626
      -1.926
      -1.237
      -0.902
      -1.033
      -1.469
      -1.906
      -2.073
      -1.833
      -1.185
      -0.233
       0.836
       1.787
       2.415
       2.628
       2.480
       2.118
       1.685
       1.246
       0.795
       0.306
      -0.224
      -0.769
      -1.282
      -1.699
      -1.947
      -1.956
