Origin Time       22/7/2007 23:02:12  UTC
Lat.              31.2 N 
Long.             78.2 E 
Depth (Km)         33.0
Magnitude         5.0
 Region           UTTARKASHI-UTTARANCHAL                                           
 Above details taken from IMD 
    
Station Code      BHA
Station Lat.       31.552  N
Station Long.      77.923  E
Station Height(m) 1579.0
Site Class        A   Vs30 between 700 m/sec to 1400 m/sec * 
Record Time       22.07.2007 23:02:23.679 UTC
Sampling Rate     200. Hz
 Record Duration   40.700 Sec.
 Direction         N-S (N positive)
Max. Acceleration     -9.708 cm/sec**2
     
  * For reference see Site Classification link of website 
     
 Base Line Corrected and Low Pass Filtered (Cut Off at 35 Hz) Time History
 Acceleration data in cm/sec**2
    
[...]
      -0.521
      -0.371
      -0.175
       0.054
       0.257
       0.359
       0.312
       0.121
      -0.149
      -0.402
      -0.543
      -0.511
      -0.294
       0.065
       0.486
       0.878
       1.162
       1.295
       1.275
       1.141
       0.952
       0.753
       0.563
       0.374
       0.180
      -0.009
      -0.165
      -0.268
      -0.331
      -0.394
      -0.504
      -0.682
      -0.901
      -1.089
      -1.150
      -1.009
      -0.659
      -0.184
       0.282
       0.629
       0.818
       0.884
       0.877
       0.814
       0.662
       0.364
      -0.106
      -0.709
      -1.324
      -1.790
      -1.970
      -1.830
      -1.445
      -0.956
      -0.489
      -0.109
       0.182
       0.420
       0.655
       0.928
       1.256
       1.606
       1.907
       2.084
       2.100
       1.957
       1.668
       1.234
       0.658
      -0.018
      -0.695
      -1.236
      -1.525
      -1.526
      -1.303
      -0.987
      -0.717
      -0.585
      -0.601
      -0.701
      -0.777
      -0.725
      -0.494
      -0.112
       0.315
       0.650
       0.792
       0.722
       0.498
       0.212
      -0.060
      -0.269
      -0.376
      -0.321
      -0.049
       0.443
       1.056
       1.601
       1.872
       1.750
       1.249
       0.505
      -0.294
      -0.973
      -1.405
      -1.538
      -1.400
      -1.097
      -0.770
      -0.533
      -0.417
      -0.369
      -0.310
      -0.201
      -0.064
       0.048
       0.097
       0.090
       0.065
       0.071
       0.135
       0.251
       0.373
       0.433
       0.379
       0.215
       0.021
      -0.086
      -0.025
       0.188
       0.440
       0.591
       0.562
       0.383
       0.171
       0.049
       0.069
       0.180
       0.272
       0.242
       0.058
      -0.233
      -0.533
      -0.740
      -0.789
      -0.685
      -0.496
      -0.313
      -0.192
      -0.121
      -0.048
       0.070
       0.218
       0.338
       0.385
       0.367
       0.339
       0.356
       0.424
       0.497
       0.517
       0.445
       0.272
       0.010
      -0.317
      -0.668
      -0.979
      -1.176
      -1.203
      -1.053
      -0.778
      -0.465
      -0.193
       0.001
       0.127
       0.224
       0.332
       0.462
       0.582
       0.628
       0.539
       0.300
      -0.036
      -0.358
      -0.543
      -0.515
      -0.275
       0.103
       0.513
       0.856
       1.067
       1.118
       1.022
       0.825
       0.588
       0.361
       0.167
       0.001
      -0.150
      -0.283
      -0.378
      -0.419
      -0.404
      -0.344
      -0.254
      -0.143
      -0.023
       0.095
       0.203
       0.297
       0.371
       0.410
       0.379
       0.241
      -0.016
      -0.359
      -0.696
      -0.912
      -0.906
      -0.638
      -0.149
       0.443
       0.980
       1.306
       1.321
       1.019
       0.490
      -0.116
      -0.655
      -1.043
      -1.285
      -1.443
      -1.578
      -1.703
      -1.771
      -1.710
      -1.464
      -1.028
      -0.447
       0.201
       0.834
       1.389
       1.836
       2.171
       2.414
       2.575
       2.632
       2.517
       2.151
       1.505
       0.657
      -0.216
      -0.920
      -1.334
      -1.464
      -1.406
      -1.270
      -1.117
      -0.953
      -0.765
      -0.560
      -0.378
      -0.282
      -0.320
      -0.501
      -0.786
      -1.090
      -1.325
      -1.430
      -1.406
      -1.308
      -1.205
      -1.135
      -1.064
      -0.901
      -0.553
       0.009
       0.734
       1.509
       2.216
       2.763
       3.097
       3.189
       3.035
       2.665
       2.142
       1.540
       0.927
       0.345
      -0.163
      -0.552
      -0.779
      -0.841
      -0.803
      -0.779
      -0.878
      -1.147
      -1.538
      -1.932
      -2.193
      -2.220
      -1.991
      -1.565
      -1.059
      -0.594
      -0.241
       0.007
       0.224
       0.485
       0.812
       1.164
       1.481
       1.732
       1.919
       2.038
       2.059
       1.933
       1.647
       1.234
       0.754
       0.260
      -0.210
      -0.632
      -0.986
      -1.269
      -1.498
      -1.688
      -1.819
      -1.827
      -1.642
      -1.241
      -0.686
      -0.096
       0.407
       0.757
       0.962
       1.076
       1.140
       1.137
       1.006
       0.704
       0.265
      -0.196
      -0.550
      -0.723
      -0.731
      -0.640
      -0.510
      -0.372
      -0.241
      -0.135
      -0.063
      -0.014
       0.053
       0.162
       0.288
       0.353
       0.280
       0.065
      -0.203
      -0.388
      -0.386
      -0.182
       0.161
       0.538
       0.848
       1.005
       0.947
       0.661
       0.204
      -0.291
      -0.662
      -0.796
      -0.687
      -0.425
      -0.138
       0.069
       0.146
       0.090
      -0.068
      -0.276
      -0.472
      -0.601
      -0.637
      -0.578
      -0.441
      -0.252
      -0.059
       0.062
       0.033
      -0.169
      -0.464
      -0.684
      -0.651
      -0.277
       0.392
       1.198
       1.948
       2.471
       2.659
       2.472
       1.954
       1.231
       0.483
      -0.121
      -0.495
      -0.654
      -0.687
      -0.697
      -0.766
      -0.950
      -1.275
      -1.718
      -2.185
      -2.524
      -2.592
      -2.324
      -1.763
      -1.028
      -0.253
       0.443
       0.966
       1.233
       1.196
       0.873
       0.372
      -0.127
      -0.442
      -0.466
      -0.211
       0.209
       0.639
       0.956
       1.108
       1.127
       1.097
       1.105
       1.188
       1.309
       1.375
       1.282
       0.966
       0.445
      -0.184
      -0.768
      -1.152
      -1.242
      -1.036
      -0.624
      -0.150
       0.247
       0.481
       0.538
       0.479
       0.392
       0.335
       0.302
       0.230
       0.051
      -0.240
      -0.575
      -0.852
      -0.996
      -1.014
      -0.978
      -0.977
      -1.049
      -1.150
      -1.173
      -1.014
      -0.632
      -0.075
       0.539
       1.068
       1.391
       1.453
       1.277
       0.965
       0.654
       0.461
       0.430
       0.519
       0.637
       0.702
       0.681
       0.594
       0.491
       0.413
       0.373
       0.352
       0.312
       0.210
       0.017
      -0.273
      -0.646
      -1.075
      -1.519
      -1.929
      -2.250
      -2.435
      -2.455
      -2.290
      -1.931
      -1.382
      -0.669
       0.145
       0.964
       1.682
       2.215
       2.518
       2.580
       2.421
       2.075
       1.597
       1.055
       0.519
       0.042
      -0.336
      -0.597
      -0.739
      -0.786
      -0.774
      -0.733
      -0.665
      -0.544
      -0.332
      -0.012
       0.388
       0.791
       1.098
       1.224
       1.133
       0.857
       0.481
       0.103
      -0.202
      -0.402
      -0.500
      -0.509
      -0.450
      -0.347
      -0.237
      -0.170
      -0.191
      -0.319
      -0.529
      -0.754
      -0.912
      -0.958
      -0.897
      -0.777
      -0.639
      -0.488
      -0.305
      -0.069
       0.213
       0.512
       0.802
       1.064
       1.277
       1.400
       1.378
       1.174
       0.805
       0.348
      -0.092
      -0.439
      -0.684
      -0.879
      -1.076
      -1.275
      -1.405
      -1.385
      -1.187
      -0.857
      -0.476
      -0.096
       0.270
       0.616
       0.908
       1.083
       1.106
       1.003
       0.844
       0.694
       0.567
       0.438
       0.286
       0.114
      -0.060
      -0.236
      -0.433
      -0.659
      -0.866
      -0.970
      -0.900
      -0.671
      -0.383
      -0.152
      -0.039
      -0.033
      -0.089
      -0.178
      -0.286
      -0.391
      -0.453
      -0.445
      -0.369
      -0.256
      -0.120
       0.063
       0.334
       0.701
       1.098
       1.414
       1.558
       1.517
       1.350
       1.132
       0.909
       0.689
       0.473
       0.275
       0.115
      -0.015
      -0.156
      -0.365
      -0.680
      -1.106
      -1.604
      -2.092
      -2.461
      -2.600
      -2.439
      -1.993
      -1.357
      -0.679
      -0.086
       0.363
       0.685
       0.930
       1.125
       1.269
       1.360
       1.430
       1.530
       1.678
       1.823
       1.881
       1.808
       1.639
       1.447
       1.265
       1.044
       0.707
       0.230
      -0.311
      -0.781
      -1.065
      -1.130
      -1.035
      -0.885
      -0.784
      -0.796
      -0.935
      -1.175
      -1.459
      -1.698
      -1.799
      -1.699
      -1.395
      -0.953
      -0.466
      -0.010
       0.384
       0.708
       0.950
       1.092
       1.142
       1.161
       1.239
       1.432
       1.708
       1.958
       2.064
       1.969
       1.697
       1.327
       0.935
       0.563
       0.216
      -0.136
      -0.535
      -1.010
      -1.534
      -2.014
      -2.322
      -2.367
      -2.144
      -1.728
      -1.219
      -0.693
      -0.195
       0.225
       0.493
       0.544
       0.378
       0.089
      -0.186
      -0.356
      -0.442
      -0.558
      -0.812
      -1.220
      -1.683
      -2.058
      -2.240
      -2.223
      -2.084
      -1.928
      -1.827
      -1.774
      -1.687
      -1.455
      -0.995
      -0.308
       0.515
       1.331
       2.008
       2.471
       2.707
       2.753
       2.665
       2.505
       2.330
       2.183
       2.091
       2.060
       2.076
       2.103
       2.101
       2.040
       1.910
       1.711
       1.445
       1.126
       0.795
       0.506
       0.310
       0.209
       0.153
       0.074
      -0.072
      -0.273
      -0.472
      -0.605
      -0.634
      -0.561
      -0.430
      -0.313
      -0.284
      -0.378
      -0.577
      -0.815
      -1.030
      -1.203
      -1.371
      -1.590
      -1.875
      -2.161
      -2.333
      -2.286
      -2.001
      -1.554
      -1.068
      -0.642
      -0.312
      -0.061
       0.131
       0.271
       0.354
       0.373
       0.323
       0.193
      -0.022
      -0.306
      -0.606
      -0.853
      -0.988
      -0.983
      -0.847
      -0.615
      -0.337
      -0.059
       0.187
       0.383
       0.518
       0.581
       0.571
       0.506
       0.434
       0.416
       0.504
       0.717
       1.025
       1.340
       1.555
       1.599
       1.507
       1.431
       1.560
       2.007
       2.722
       3.498
       4.070
       4.220
       3.847
       2.978
       1.757
       0.402
      -0.854
      -1.838
      -2.497
      -2.902
      -3.176
      -3.406
      -3.601
      -3.710
      -3.683
      -3.504
      -3.204
      -2.842
      -2.486
      -2.188
      -1.959
      -1.766
      -1.549
      -1.262
      -0.899
      -0.505
      -0.150
       0.110
       0.258
       0.316
       0.315
       0.281
       0.236
       0.220
       0.285
       0.472
       0.787
       1.206
       1.695
       2.226
       2.747
       3.169
       3.388
       3.347
       3.088
       2.740
       2.457
       2.346
       2.423
       2.626
       2.850
       2.982
       2.933
       2.662
       2.177
       1.530
       0.785
      -0.011
      -0.835
      -1.664
      -2.456
      -3.146
      -3.670
      -3.988
      -4.088
      -3.978
      -3.678
      -3.224
      -2.676
      -2.106
      -1.569
      -1.081
      -0.626
      -0.185
       0.225
       0.557
       0.767
       0.855
       0.871
       0.878
       0.905
       0.929
       0.882
       0.688
       0.291
      -0.319
      -1.087
      -1.885
      -2.536
      -2.880
      -2.843
      -2.477
      -1.924
      -1.338
      -0.794
      -0.263
       0.334
       1.046
       1.832
       2.573
       3.142
       3.468
       3.550
       3.434
       3.161
       2.758
       2.248
       1.669
       1.071
       0.493
      -0.052
      -0.575
      -1.081
      -1.553
      -1.957
      -2.264
      -2.461
      -2.539
      -2.473
      -2.228
      -1.789
      -1.199
      -0.545
       0.079
       0.616
       1.056
       1.402
       1.649
       1.784
       1.815
       1.783
       1.725
       1.610
       1.313
       0.681
      -0.345
      -1.659
      -3.022
      -4.170
      -4.915
      -5.171
      -4.923
      -4.209
      -3.120
      -1.820
      -0.500
       0.697
       1.733
       2.653
       3.502
       4.270
       4.891
       5.288
       5.400
       5.177
       4.583
       3.627
       2.395
       1.060
      -0.171
      -1.144
      -1.808
      -2.210
      -2.438
      -2.554
      -2.559
      -2.422
      -2.139
      -1.780
      -1.474
      -1.343
      -1.419
      -1.609
      -1.746
      -1.702
      -1.474
      -1.190
      -1.008
      -1.001
      -1.116
      -1.230
      -1.250
      -1.166
      -1.024
      -0.869
      -0.725
      -0.617
      -0.588
      -0.666
      -0.816
      -0.930
      -0.892
      -0.653
      -0.253
       0.241
       0.797
       1.434
       2.169
       2.981
       3.820
       4.654
       5.484
       6.313
       7.106
       7.764
       8.151
       8.129
       7.592
       6.499
       4.896
       2.921
       0.778
      -1.320
      -3.227
      -4.895
      -6.343
      -7.591
      -8.611
      -9.338
      -9.708
      -9.689
      -9.271
      -8.463
      -7.303
      -5.896
      -4.403
      -2.988
      -1.759
      -0.735
       0.134
       0.921
       1.685
       2.470
       3.301
       4.173
       5.025
       5.748
       6.219
       6.353
       6.126
       5.569
       4.754
       3.795
       2.851
       2.089
       1.633
       1.500
       1.606
       1.812
       1.998
       2.099
       2.098
       2.002
       1.834
       1.640
       1.464
       1.297
       1.049
       0.591
      -0.138
      -1.062
      -2.013
      -2.847
      -3.533
      -4.127
      -4.686
      -5.202
      -5.625
      -5.908
      -6.043
      -6.032
      -5.853
      -5.454
      -4.797
      -3.900
      -2.853
      -1.768
      -0.730
       0.237
       1.153
       2.037
       2.880
       3.636
       4.238
       4.626
       4.763
       4.649
       4.333
       3.897
       3.435
       3.012
       2.632
       2.230
       1.705
       0.977
       0.040
      -1.018
      -2.036
      -2.830
      -3.245
      -3.183
      -2.633
      -1.691
      -0.551
       0.532
       1.333
       1.736
       1.750
       1.462
       0.983
       0.414
      -0.148
      -0.617
      -0.966
      -1.264
      -1.657
      -2.263
      -3.061
      -3.854
      -4.354
      -4.330
      -3.718
      -2.626
      -1.263
       0.142
       1.387
       2.332
       2.947
       3.331
       3.666
       4.101
       4.660
       5.247
       5.737
       6.050
       6.137
       5.916
       5.268
       4.120
       2.548
       0.798
      -0.808
      -2.027
      -2.792
      -3.205
      -3.456
      -3.709
      -4.030
      -4.366
      -4.591
      -4.583
      -4.294
      -3.781
      -3.170
      -2.591
      -2.127
      -1.792
      -1.559
      -1.386
      -1.243
      -1.104
      -0.949
      -0.772
      -0.596
      -0.476
      -0.473
      -0.604
      -0.818
      -1.012
      -1.084
      -0.976
      -0.683
      -0.237
       0.303
       0.847
       1.285
       1.536
       1.599
       1.566
       1.575
       1.726
       2.026
       2.375
       2.620
       2.627
       2.355
       1.884
       1.377
       0.998
       0.839
       0.905
       1.142
       1.473
       1.817
       2.096
       2.256
       2.278
       2.156
       1.870
       1.376
       0.652
      -0.248
      -1.182
      -1.976
      -2.496
      -2.712
      -2.695
      -2.575
      -2.475
      -2.449
      -2.468
      -2.461
      -2.368
      -2.175
      -1.902
      -1.574
      -1.218
      -0.874
      -0.598
      -0.426
      -0.347
      -0.306
      -0.247
      -0.153
      -0.035
       0.119
       0.370
       0.793
       1.407
       2.134
       2.818
       3.300
       3.494
       3.411
       3.138
       2.795
       2.478
       2.226
       2.020
       1.806
       1.528
       1.162
       0.712
       0.201
      -0.355
      -0.942
      -1.538
      -2.099
      -2.563
      -2.865
      -2.959
      -2.836
      -2.527
      -2.094
      -1.596
      -1.052
      -0.434
       0.297
       1.143
       2.029
       2.824
       3.388
       3.626
       3.515
       3.087
       2.391
       1.476
       0.397
      -0.764
      -1.897
      -2.898
      -3.699
      -4.289
      -4.701
      -4.977
      -5.149
      -5.217
      -5.142
      -4.857
      -4.304
      -3.470
      -2.411
      -1.224
      -0.012
       1.157
       2.256
       3.276
       4.194
       4.952
       5.469
       5.678
       5.583
       5.258
       4.805
       4.285
       3.694
       3.004
       2.199
       1.292
       0.293
      -0.807
      -2.017
      -3.289
      -4.474
      -5.332
      -5.630
      -5.277
      -4.397
      -3.268
      -2.178
      -1.287
      -0.595
      -0.013
       0.542
       1.086
       1.568
       1.917
       2.091
       2.116
       2.083
       2.082
       2.141
       2.199
       2.161
       1.963
       1.592
       1.061
       0.384
      -0.392
      -1.138
      -1.652
      -1.742
      -1.336
      -0.528
       0.483
       1.501
       2.409
       3.162
       3.726
       4.031
       3.980
       3.507
       2.624
       1.420
       0.035
      -1.376
      -2.676
      -3.786
      -4.695
      -5.430
      -6.000
      -6.354
      -6.410
      -6.119
      -5.497
      -4.612
      -3.539
      -2.350
      -1.147
      -0.077
       0.712
       1.150
       1.303
       1.348
       1.476
       1.804
       2.341
       3.021
       3.743
       4.402
       4.885
       5.076
       4.885
       4.304
       3.444
       2.508
       1.703
       1.139
       0.796
       0.572
       0.362
       0.093
      -0.296
      -0.861
      -1.633
      -2.566
      -3.527
      -4.345
      -4.883
      -5.087
      -4.977
      -4.602
      -4.011
      -3.261
      -2.436
      -1.644
      -0.968
      -0.414
       0.096
       0.679
       1.412
       2.286
       3.201
       4.007
       4.551
       4.736
       4.562
       4.129
       3.579
       3.021
       2.484
       1.935
       1.339
       0.697
       0.050
      -0.542
      -1.012
      -1.302
      -1.395
      -1.340
      -1.256
      -1.271
      -1.450
      -1.747
      -2.027
      -2.140
      -2.006
      -1.652
      -1.194
      -0.773
      -0.491
      -0.379
      -0.402
      -0.489
      -0.581
      -0.662
      -0.759
      -0.906
      -1.103
      -1.299
      -1.408
      -1.349
      -1.078
      -0.614
      -0.035
       0.549
       1.049
       1.453
       1.807
       2.153
       2.461
       2.639
       2.616
       2.408
       2.099
       1.767
       1.433
       1.065
       0.641
       0.197
      -0.165
      -0.330
      -0.236
