Origin Time       22/7/2007 23:02:12 
Lat.              31.2 N 
Long.             78.2 E 
Depth (Km)         33.0
Magnitude         5.0
 Region           UTTARKASHI-UTTARANCHAL                                           
 Above details taken from IMD 
     
Station Code      BHA
Station Lat.       31.552  N
Station Long.      77.923  E
Station Height(m) 1579.0
Site Class        A   Vs30 between 700 m/sec to 1400 m/sec * 
Record Time       22.07.2007 23:02:23.679
Sampling Rate     200. Hz
 Record Duration   40.700 Sec.
 Direction         E-W (E positive)
Max. Acceleration     -8.342 cm/sec**2
     
  * For reference see Site Classification link of website 
     
 Base Line Corrected and Low Pass Filtered (Cut Off at 35 Hz) Time History
 Acceleration data in cm/sec**2
    
[...]
       0.114
       0.137
       0.262
       0.499
       0.795
       1.087
       1.361
       1.644
       1.947
       2.218
       2.373
       2.357
       2.185
       1.927
       1.670
       1.478
       1.369
       1.304
       1.202
       0.975
       0.592
       0.103
      -0.389
      -0.798
      -1.100
      -1.329
      -1.522
      -1.689
      -1.822
      -1.923
      -2.020
      -2.147
      -2.307
      -2.459
      -2.536
      -2.488
      -2.318
      -2.064
      -1.759
      -1.386
      -0.896
      -0.267
       0.442
       1.102
       1.580
       1.814
       1.828
       1.687
       1.449
       1.149
       0.831
       0.571
       0.447
       0.482
       0.601
       0.679
       0.637
       0.500
       0.371
       0.327
       0.359
       0.388
       0.348
       0.239
       0.105
      -0.018
      -0.135
      -0.254
      -0.351
      -0.368
      -0.266
      -0.059
       0.200
       0.466
       0.725
       0.992
       1.272
       1.538
       1.725
       1.752
       1.556
       1.129
       0.533
      -0.129
      -0.745
      -1.234
      -1.539
      -1.618
      -1.448
      -1.059
      -0.550
      -0.068
       0.252
       0.336
       0.192
      -0.110
      -0.483
      -0.861
      -1.213
      -1.517
      -1.726
      -1.780
      -1.637
      -1.316
      -0.904
      -0.496
      -0.141
       0.167
       0.456
       0.727
       0.943
       1.067
       1.093
       1.069
       1.059
       1.106
       1.191
       1.246
       1.195
       0.998
       0.664
       0.244
      -0.193
      -0.570
      -0.819
      -0.909
      -0.864
      -0.770
      -0.726
      -0.800
      -0.990
      -1.234
      -1.452
      -1.584
      -1.604
      -1.511
      -1.306
      -0.993
      -0.588
      -0.140
       0.276
       0.587
       0.755
       0.801
       0.795
       0.823
       0.941
       1.159
       1.442
       1.728
       1.954
       2.067
       2.049
       1.915
       1.705
       1.447
       1.146
       0.795
       0.403
       0.018
      -0.288
      -0.455
      -0.468
      -0.365
      -0.205
      -0.042
       0.086
       0.144
       0.075
      -0.175
      -0.620
      -1.204
      -1.819
      -2.343
      -2.684
      -2.784
      -2.622
      -2.222
      -1.662
      -1.060
      -0.530
      -0.140
       0.104
       0.243
       0.331
       0.407
       0.490
       0.586
       0.702
       0.853
       1.055
       1.312
       1.610
       1.918
       2.192
       2.374
       2.413
       2.289
       2.033
       1.716
       1.414
       1.171
       0.976
       0.771
       0.480
       0.047
      -0.526
      -1.175
      -1.790
      -2.259
      -2.506
      -2.512
      -2.304
      -1.924
      -1.407
      -0.783
      -0.101
       0.540
       1.010
       1.202
       1.090
       0.736
       0.247
      -0.283
      -0.794
      -1.245
      -1.579
      -1.732
      -1.666
      -1.408
      -1.044
      -0.662
      -0.308
       0.024
       0.339
       0.594
       0.692
       0.552
       0.183
      -0.279
      -0.646
      -0.779
      -0.667
      -0.403
      -0.100
       0.183
       0.463
       0.782
       1.146
       1.500
       1.748
       1.808
       1.657
       1.348
       0.992
       0.694
       0.500
       0.390
       0.324
       0.297
       0.331
       0.412
       0.457
       0.366
       0.121
      -0.169
      -0.332
      -0.259
       0.013
       0.318
       0.468
       0.358
       0.010
      -0.469
      -0.952
      -1.342
      -1.584
      -1.658
      -1.583
      -1.418
      -1.249
      -1.147
      -1.118
      -1.110
      -1.066
      -0.983
      -0.900
      -0.837
      -0.744
      -0.539
      -0.175
       0.313
       0.830
       1.279
       1.584
       1.678
       1.494
       0.998
       0.242
      -0.603
      -1.305
      -1.678
      -1.656
      -1.293
      -0.694
       0.034
       0.784
       1.423
       1.804
       1.831
       1.525
       1.025
       0.514
       0.117
      -0.145
      -0.318
      -0.441
      -0.502
      -0.462
      -0.310
      -0.103
       0.051
       0.059
      -0.102
      -0.367
      -0.633
      -0.823
      -0.915
      -0.916
      -0.824
      -0.617
      -0.285
       0.131
       0.549
       0.896
       1.148
       1.321
       1.424
       1.428
       1.289
       0.997
       0.616
       0.268
       0.071
       0.074
       0.231
       0.438
       0.596
       0.654
       0.617
       0.519
       0.408
       0.331
       0.330
       0.407
       0.509
       0.527
       0.359
      -0.028
      -0.564
      -1.108
      -1.517
      -1.714
      -1.720
      -1.624
      -1.525
      -1.475
      -1.463
      -1.435
      -1.335
      -1.118
      -0.762
      -0.281
       0.247
       0.695
       0.950
       0.988
       0.899
       0.821
       0.846
       0.960
       1.075
       1.097
       0.988
       0.779
       0.532
       0.302
       0.130
       0.041
       0.048
       0.127
       0.197
       0.150
      -0.068
      -0.406
      -0.716
      -0.848
      -0.742
      -0.452
      -0.088
       0.247
       0.497
       0.632
       0.635
       0.490
       0.201
      -0.192
      -0.621
      -1.009
      -1.303
      -1.496
      -1.608
      -1.644
      -1.570
      -1.325
      -0.877
      -0.265
       0.395
       0.954
       1.292
       1.351
       1.145
       0.749
       0.270
      -0.184
      -0.521
      -0.678
      -0.625
      -0.367
       0.046
       0.516
       0.916
       1.128
       1.083
       0.773
       0.243
      -0.418
      -1.087
      -1.611
      -1.843
      -1.702
      -1.222
      -0.528
       0.232
       0.953
       1.588
       2.120
       2.525
       2.768
       2.814
       2.649
       2.290
       1.766
       1.101
       0.311
      -0.570
      -1.451
      -2.190
      -2.653
      -2.772
      -2.576
      -2.156
      -1.613
      -1.029
      -0.461
       0.022
       0.330
       0.377
       0.147
      -0.257
      -0.632
      -0.786
      -0.652
      -0.323
       0.033
       0.310
       0.534
       0.802
       1.159
       1.520
       1.715
       1.613
       1.210
       0.637
       0.079
      -0.328
      -0.539
      -0.586
      -0.525
      -0.387
      -0.170
       0.136
       0.501
       0.827
       0.971
       0.809
       0.304
      -0.473
      -1.366
      -2.198
      -2.814
      -3.103
      -3.000
      -2.489
      -1.614
      -0.494
       0.670
       1.644
       2.239
       2.391
       2.183
       1.782
       1.337
       0.924
       0.566
       0.287
       0.135
       0.152
       0.318
       0.553
       0.762
       0.901
       0.979
       1.020
       1.023
       0.961
       0.823
       0.644
       0.491
       0.392
       0.291
       0.074
      -0.340
      -0.910
      -1.485
      -1.893
      -2.051
      -1.994
      -1.826
      -1.643
      -1.493
      -1.400
      -1.387
      -1.463
      -1.590
      -1.677
      -1.629
      -1.429
      -1.164
      -0.961
      -0.890
      -0.891
      -0.812
      -0.513
       0.051
       0.799
       1.591
       2.292
       2.818
       3.135
       3.235
       3.111
       2.762
       2.209
       1.504
       0.742
       0.051
      -0.431
      -0.610
      -0.480
      -0.136
       0.280
       0.654
       0.940
       1.133
       1.225
       1.187
       0.993
       0.666
       0.271
      -0.131
      -0.524
      -0.931
      -1.365
      -1.794
      -2.152
      -2.378
      -2.453
      -2.387
      -2.183
      -1.820
      -1.284
      -0.624
       0.025
       0.492
       0.664
       0.557
       0.306
       0.068
      -0.067
      -0.107
      -0.107
      -0.095
      -0.034
       0.148
       0.491
       0.962
       1.478
       1.938
       2.259
       2.376
       2.249
       1.891
       1.393
       0.900
       0.539
       0.349
       0.278
       0.246
       0.204
       0.148
       0.075
      -0.038
      -0.201
      -0.363
      -0.422
      -0.320
      -0.117
       0.022
      -0.049
      -0.339
      -0.735
      -1.111
      -1.435
      -1.766
      -2.139
      -2.480
      -2.616
      -2.398
      -1.827
      -1.077
      -0.383
       0.105
       0.390
       0.566
       0.700
       0.775
       0.724
       0.521
       0.231
      -0.006
      -0.063
       0.110
       0.466
       0.901
       1.301
       1.584
       1.707
       1.663
       1.469
       1.162
       0.784
       0.372
      -0.040
      -0.400
      -0.630
      -0.651
      -0.459
      -0.151
       0.105
       0.164
      -0.022
      -0.392
      -0.835
      -1.264
      -1.645
      -1.971
      -2.215
      -2.315
      -2.201
      -1.840
      -1.261
      -0.545
       0.210
       0.904
       1.454
       1.803
       1.939
       1.906
       1.783
       1.653
       1.561
       1.499
       1.426
       1.297
       1.096
       0.841
       0.577
       0.353
       0.202
       0.127
       0.088
       0.016
      -0.145
      -0.399
      -0.699
      -0.984
      -1.229
      -1.443
      -1.624
      -1.722
      -1.662
      -1.411
      -1.019
      -0.608
      -0.294
      -0.126
      -0.079
      -0.114
      -0.231
      -0.468
      -0.836
      -1.259
      -1.596
      -1.719
      -1.588
      -1.258
      -0.822
      -0.352
       0.098
       0.475
       0.721
       0.817
       0.823
       0.845
       0.958
       1.150
       1.350
       1.511
       1.664
       1.877
       2.169
       2.473
       2.681
       2.713
       2.553
       2.216
       1.720
       1.095
       0.414
      -0.202
      -0.638
      -0.851
      -0.884
      -0.820
      -0.720
      -0.594
      -0.437
      -0.276
      -0.190
      -0.263
      -0.508
      -0.838
      -1.111
      -1.246
      -1.281
      -1.342
      -1.531
      -1.830
      -2.105
      -2.199
      -2.060
      -1.774
      -1.500
      -1.333
      -1.238
      -1.089
      -0.793
      -0.378
       0.024
       0.289
       0.410
       0.488
       0.647
       0.938
       1.318
       1.704
       2.037
       2.300
       2.504
       2.641
       2.672
       2.535
       2.181
       1.621
       0.928
       0.221
      -0.373
      -0.763
      -0.932
      -0.939
      -0.889
      -0.861
      -0.873
      -0.896
      -0.889
      -0.840
      -0.759
      -0.658
      -0.543
      -0.422
      -0.315
      -0.249
      -0.251
      -0.328
      -0.466
      -0.620
      -0.729
      -0.740
      -0.631
      -0.419
      -0.141
       0.174
       0.493
       0.759
       0.885
       0.803
       0.518
       0.137
      -0.194
      -0.373
      -0.396
      -0.331
      -0.233
      -0.095
       0.137
       0.485
       0.892
       1.234
       1.389
       1.307
       1.028
       0.652
       0.295
       0.037
      -0.105
      -0.170
      -0.221
      -0.300
      -0.412
      -0.542
      -0.686
      -0.862
      -1.104
      -1.429
      -1.813
      -2.190
      -2.479
      -2.625
      -2.618
      -2.490
      -2.279
      -2.003
      -1.637
      -1.130
      -0.452
       0.361
       1.190
       1.888
       2.355
       2.593
       2.688
       2.742
       2.806
       2.863
       2.871
       2.823
       2.772
       2.797
       2.934
       3.138
       3.286
       3.241
       2.928
       2.359
       1.615
       0.783
      -0.065
      -0.877
      -1.592
      -2.142
      -2.478
      -2.607
      -2.608
      -2.608
      -2.727
      -3.033
      -3.518
      -4.113
      -4.715
      -5.213
      -5.499
      -5.481
      -5.097
      -4.330
      -3.235
      -1.941
      -0.640
       0.469
       1.235
       1.602
       1.636
       1.502
       1.422
       1.596
       2.114
       2.917
       3.825
       4.629
       5.182
       5.437
       5.417
       5.167
       4.734
       4.183
       3.608
       3.107
       2.723
       2.411
       2.081
       1.677
       1.231
       0.838
       0.564
       0.381
       0.165
      -0.230
      -0.882
      -1.762
      -2.756
      -3.736
      -4.607
      -5.325
      -5.890
      -6.328
      -6.675
      -6.954
      -7.151
      -7.198
      -6.983
      -6.391
      -5.360
      -3.920
      -2.208
      -0.419
       1.256
       2.684
       3.792
       4.545
       4.926
       4.955
       4.714
       4.337
       3.972
       3.729
       3.644
       3.684
       3.782
       3.863
       3.856
       3.702
       3.361
       2.836
       2.176
       1.467
       0.794
       0.204
      -0.301
      -0.733
      -1.079
      -1.282
      -1.272
      -1.051
      -0.747
      -0.593
      -0.805
      -1.458
      -2.424
      -3.443
      -4.255
      -4.720
      -4.824
      -4.625
      -4.176
      -3.517
      -2.691
      -1.764
      -0.814
       0.077
       0.816
       1.304
       1.465
       1.306
       0.949
       0.605
       0.475
       0.664
       1.134
       1.749
       2.330
       2.719
       2.814
       2.597
       2.147
       1.643
       1.302
       1.306
       1.716
       2.438
       3.262
       3.938
       4.260
       4.116
       3.489
       2.447
       1.111
      -0.386
      -1.940
      -3.486
      -4.972
      -6.325
      -7.429
      -8.145
      -8.342
      -7.939
      -6.940
      -5.454
      -3.698
      -1.944
      -0.431
       0.726
       1.553
       2.149
       2.576
       2.812
       2.793
       2.530
       2.171
       1.957
       2.077
       2.550
       3.203
       3.783
       4.081
       3.998
       3.540
       2.796
       1.920
       1.089
       0.445
       0.054
      -0.070
       0.067
       0.455
       1.034
       1.642
       2.036
       2.013
       1.526
       0.715
      -0.197
      -1.038
      -1.727
      -2.210
      -2.416
      -2.296
      -1.933
      -1.580
      -1.543
      -1.970
      -2.736
      -3.513
      -3.980
      -3.997
      -3.630
      -3.055
      -2.430
      -1.843
      -1.343
      -0.985
      -0.833
      -0.912
      -1.154
      -1.393
      -1.425
      -1.095
      -0.372
       0.642
       1.764
       2.803
       3.632
       4.194
       4.477
       4.503
       4.323
       4.015
       3.648
       3.251
       2.806
       2.284
       1.696
       1.116
       0.653
       0.381
       0.274
       0.214
       0.063
      -0.233
      -0.610
      -0.941
      -1.146
      -1.250
      -1.353
      -1.542
      -1.809
      -2.064
      -2.214
      -2.249
      -2.261
      -2.366
      -2.608
      -2.901
      -3.077
      -2.993
      -2.627
      -2.060
      -1.387
      -0.655
       0.098
       0.788
       1.280
       1.478
       1.405
       1.194
       0.988
       0.844
       0.719
       0.552
       0.364
       0.282
       0.456
       0.937
       1.627
       2.314
       2.785
       2.908
       2.665
       2.127
       1.418
       0.682
       0.049
      -0.395
      -0.628
      -0.680
      -0.592
      -0.393
      -0.097
       0.261
       0.609
       0.853
       0.930
       0.841
       0.640
       0.365
       0.007
      -0.466
      -1.038
      -1.617
      -2.075
      -2.328
      -2.386
      -2.321
      -2.210
      -2.086
      -1.929
      -1.706
      -1.407
      -1.067
      -0.740
      -0.441
      -0.113
       0.335
       0.927
       1.566
       2.073
       2.332
       2.390
       2.415
       2.548
       2.762
       2.875
       2.688
       2.125
       1.279
       0.333
      -0.554
      -1.303
      -1.894
      -2.307
      -2.499
      -2.433
      -2.107
      -1.570
      -0.912
      -0.257
       0.250
       0.475
       0.348
      -0.094
      -0.714
      -1.343
      -1.845
      -2.162
      -2.288
      -2.211
      -1.894
      -1.307
      -0.493
       0.421
       1.286
       2.012
       2.619
       3.185
       3.741
       4.204
       4.394
       4.148
       3.428
       2.350
       1.107
      -0.125
      -1.239
      -2.162
      -2.802
      -3.045
      -2.819
      -2.185
      -1.356
      -0.609
      -0.151
      -0.027
      -0.122
      -0.261
      -0.331
      -0.356
      -0.463
      -0.762
      -1.224
      -1.658
      -1.832
      -1.652
      -1.247
      -0.881
      -0.744
      -0.807
      -0.874
      -0.767
      -0.469
      -0.111
       0.174
       0.367
       0.552
       0.802
       1.112
       1.424
       1.703
       1.981
       2.306
       2.674
       2.994
       3.136
       3.009
       2.625
       2.078
       1.471
       0.851
       0.212
      -0.442
      -1.039
      -1.455
      -1.595
      -1.479
      -1.245
      -1.070
      -1.052
      -1.164
      -1.292
      -1.335
      -1.280
      -1.196
      -1.174
      -1.239
      -1.325
      -1.297
      -1.041
      -0.532
       0.140
       0.811
       1.315
       1.542
       1.472
       1.164
       0.714
       0.212
      -0.287
      -0.738
      -1.098
      -1.333
      -1.453
      -1.518
      -1.577
      -1.614
      -1.549
      -1.312
      -0.913
      -0.449
      -0.020
       0.347
       0.702
       1.094
       1.504
       1.854
       2.070
       2.144
       2.125
       2.068
       1.983
       1.843
       1.633
       1.400
       1.241
       1.242
       1.407
       1.637
       1.773
       1.685
       1.330
       0.750
       0.029
      -0.752
      -1.536
      -2.285
      -2.956
      -3.504
      -3.891
      -4.104
      -4.165
      -4.108
      -3.951
      -3.662
      -3.164
      -2.401
      -1.399
      -0.293
       0.742
       1.586
       2.218
       2.683
       3.009
       3.155
       3.053
       2.681
       2.113
       1.491
       0.942
       0.524
       0.239
       0.086
       0.089
       0.287
       0.671
       1.159
       1.603
       1.857
       1.828
       1.495
       0.885
       0.054
      -0.899
      -1.822
      -2.526
      -2.861
      -2.790
      -2.395
      -1.824
      -1.220
      -0.690
      -0.316
      -0.142
      -0.134
      -0.159
      -0.056
       0.258
       0.711
       1.114
       1.280
       1.127
       0.702
       0.129
      -0.462
      -0.973
      -1.322
      -1.439
      -1.264
      -0.794
      -0.095
       0.716
       1.522
       2.218
       2.696
       2.829
       2.509
       1.728
       0.638
      -0.486
      -1.351
      -1.766
      -1.695
      -1.242
      -0.583
       0.093
       0.622
       0.891
       0.856
       0.555
       0.094
      -0.384
      -0.750
      -0.949
      -1.001
      -0.963
      -0.858
      -0.652
      -0.288
       0.224
       0.767
       1.166
       1.276
       1.057
       0.569
      -0.085
      -0.792
      -1.421
      -1.824
      -1.880
      -1.572
      -1.029
      -0.468
      -0.074
       0.100
       0.121
       0.093
       0.080
       0.095
       0.134
       0.197
       0.288
       0.407
       0.554
       0.737
       0.965
       1.239
       1.544
       1.855
       2.135
       2.330
       2.365
