Origin Time       6/9/2008 05:47:33   UTC
Lat.              36.7 N 
Long.             70.6 E 
Depth (Km)        160.0
Magnitude         5.8
 Region           HINDUKUS-AFGHANISTAN                                             
 Above details taken from IMD 
    
Station Code      BIL
Station Lat.       31.337  N
Station Long.      76.762  E
Station Height(m)  610.3
Site Class        B   Vs30 between 375 m/sec to 700 m/sec *  
Record Time       06.09.2008 05:50:23.004 UTC
Sampling Rate     200. Hz
 Record Duration   38.690 Sec.
 Direction         N-S (N positive)
Max. Acceleration      1.640 cm/sec**2
     
  * For reference see Site Classification link of website 
     
 Base Line Corrected and Low Pass Filtered (Cut Off at 35 Hz) Time History
 Acceleration data in cm/sec**2
    
[...]
      -0.011
       0.008
       0.022
       0.025
       0.015
       0.000
      -0.007
      -0.001
       0.010
       0.016
       0.008
      -0.011
      -0.029
      -0.036
      -0.026
      -0.002
       0.021
       0.027
       0.016
       0.001
      -0.006
      -0.003
       0.005
       0.010
       0.015
       0.026
       0.048
       0.069
       0.077
       0.069
       0.055
       0.048
       0.049
       0.049
       0.044
       0.031
       0.011
      -0.014
      -0.034
      -0.043
      -0.039
      -0.031
      -0.028
      -0.032
      -0.036
      -0.034
      -0.024
      -0.017
      -0.024
      -0.045
      -0.068
      -0.078
      -0.071
      -0.051
      -0.023
       0.006
       0.027
       0.031
       0.015
      -0.010
      -0.028
      -0.029
      -0.013
       0.009
       0.021
       0.019
       0.007
      -0.007
      -0.020
      -0.033
      -0.045
      -0.053
      -0.057
      -0.062
      -0.067
      -0.062
      -0.040
      -0.005
       0.029
       0.052
       0.061
       0.063
       0.063
       0.059
       0.050
       0.041
       0.043
       0.058
       0.077
       0.081
       0.065
       0.039
       0.018
       0.008
       0.011
       0.023
       0.040
       0.051
       0.041
       0.009
      -0.028
      -0.044
      -0.027
       0.012
       0.046
       0.053
       0.033
       0.008
      -0.003
       0.005
       0.022
       0.034
       0.037
       0.030
       0.016
       0.001
      -0.005
       0.005
       0.028
       0.050
       0.060
       0.051
       0.029
       0.007
      -0.007
      -0.015
      -0.020
      -0.025
      -0.028
      -0.030
      -0.035
      -0.041
      -0.043
      -0.036
      -0.023
      -0.009
       0.000
       0.005
       0.007
       0.011
       0.026
       0.050
       0.073
       0.083
       0.072
       0.046
       0.017
      -0.004
      -0.008
       0.006
       0.027
       0.042
       0.040
       0.024
       0.003
      -0.013
      -0.015
      -0.007
      -0.003
      -0.012
      -0.032
      -0.054
      -0.072
      -0.087
      -0.092
      -0.083
      -0.064
      -0.044
      -0.032
      -0.027
      -0.023
      -0.014
      -0.004
       0.004
       0.006
       0.005
       0.009
       0.015
       0.012
      -0.010
      -0.040
      -0.056
      -0.049
      -0.032
      -0.027
      -0.043
      -0.071
      -0.097
      -0.102
      -0.077
      -0.030
       0.012
       0.026
       0.003
      -0.044
      -0.090
      -0.110
      -0.100
      -0.074
      -0.057
      -0.059
      -0.073
      -0.084
      -0.082
      -0.062
      -0.023
       0.022
       0.049
       0.035
      -0.014
      -0.067
      -0.094
      -0.094
      -0.085
      -0.090
      -0.109
      -0.132
      -0.146
      -0.151
      -0.154
      -0.160
      -0.169
      -0.179
      -0.192
      -0.209
      -0.223
      -0.222
      -0.200
      -0.162
      -0.120
      -0.089
      -0.076
      -0.081
      -0.094
      -0.097
      -0.081
      -0.048
      -0.009
       0.021
       0.033
       0.025
       0.006
      -0.009
      -0.001
       0.030
       0.068
       0.089
       0.082
       0.055
       0.027
       0.012
       0.012
       0.020
       0.033
       0.052
       0.077
       0.099
       0.110
       0.115
       0.128
       0.155
       0.183
       0.194
       0.177
       0.139
       0.100
       0.074
       0.064
       0.067
       0.079
       0.103
       0.134
       0.157
       0.159
       0.143
       0.125
       0.116
       0.114
       0.106
       0.090
       0.069
       0.052
       0.043
       0.040
       0.039
       0.036
       0.029
       0.013
      -0.011
      -0.035
      -0.045
      -0.030
       0.006
       0.041
       0.058
       0.058
       0.057
       0.068
       0.089
       0.108
       0.113
       0.098
       0.068
       0.033
       0.001
      -0.027
      -0.050
      -0.066
      -0.075
      -0.080
      -0.085
      -0.092
      -0.102
      -0.116
      -0.137
      -0.161
      -0.179
      -0.184
      -0.180
      -0.174
      -0.172
      -0.171
      -0.158
      -0.123
      -0.077
      -0.043
      -0.039
      -0.061
      -0.090
      -0.110
      -0.120
      -0.125
      -0.124
      -0.114
      -0.095
      -0.072
      -0.055
      -0.047
      -0.042
      -0.031
      -0.015
      -0.002
      -0.007
      -0.033
      -0.067
      -0.093
      -0.097
      -0.078
      -0.042
      -0.006
       0.016
       0.014
      -0.005
      -0.023
      -0.022
       0.004
       0.044
       0.080
       0.097
       0.094
       0.086
       0.086
       0.098
       0.120
       0.145
       0.167
       0.176
       0.169
       0.155
       0.146
       0.150
       0.161
       0.167
       0.159
       0.140
       0.117
       0.100
       0.094
       0.093
       0.088
       0.073
       0.047
       0.010
      -0.033
      -0.072
      -0.097
      -0.106
      -0.109
      -0.115
      -0.125
      -0.138
      -0.155
      -0.179
      -0.215
      -0.254
      -0.283
      -0.286
      -0.263
      -0.234
      -0.221
      -0.230
      -0.245
      -0.246
      -0.226
      -0.192
      -0.163
      -0.153
      -0.167
      -0.194
      -0.210
      -0.203
      -0.177
      -0.150
      -0.137
      -0.140
      -0.149
      -0.149
      -0.128
      -0.088
      -0.043
      -0.013
      -0.006
      -0.013
      -0.019
      -0.012
       0.008
       0.033
       0.055
       0.068
       0.073
       0.069
       0.064
       0.068
       0.093
       0.134
       0.176
       0.205
       0.217
       0.224
       0.233
       0.242
       0.249
       0.255
       0.264
       0.274
       0.277
       0.269
       0.251
       0.236
       0.232
       0.239
       0.244
       0.237
       0.220
       0.198
       0.176
       0.156
       0.136
       0.118
       0.101
       0.080
       0.050
       0.014
      -0.020
      -0.041
      -0.048
      -0.046
      -0.042
      -0.043
      -0.047
      -0.055
      -0.063
      -0.073
      -0.079
      -0.080
      -0.080
      -0.088
      -0.113
      -0.153
      -0.194
      -0.228
      -0.255
      -0.282
      -0.315
      -0.351
      -0.380
      -0.394
      -0.390
      -0.378
      -0.367
      -0.354
      -0.336
      -0.317
      -0.310
      -0.322
      -0.340
      -0.347
      -0.336
      -0.318
      -0.308
      -0.311
      -0.320
      -0.318
      -0.298
      -0.268
      -0.242
      -0.224
      -0.213
      -0.205
      -0.200
      -0.193
      -0.174
      -0.137
      -0.095
      -0.065
      -0.057
      -0.059
      -0.055
      -0.033
       0.000
       0.032
       0.056
       0.082
       0.118
       0.161
       0.201
       0.236
       0.276
       0.324
       0.375
       0.420
       0.462
       0.510
       0.558
       0.597
       0.627
       0.659
       0.704
       0.761
       0.813
       0.840
       0.838
       0.824
       0.818
       0.823
       0.824
       0.805
       0.765
       0.717
       0.674
       0.636
       0.602
       0.566
       0.527
       0.481
       0.425
       0.360
       0.295
       0.242
       0.213
       0.204
       0.196
       0.174
       0.142
       0.118
       0.117
       0.134
       0.152
       0.158
       0.151
       0.131
       0.097
       0.051
      -0.003
      -0.053
      -0.092
      -0.125
      -0.163
      -0.211
      -0.259
      -0.293
      -0.316
      -0.345
      -0.392
      -0.447
      -0.492
      -0.519
      -0.540
      -0.569
      -0.602
      -0.624
      -0.625
      -0.608
      -0.583
      -0.555
      -0.522
      -0.485
      -0.450
      -0.419
      -0.384
      -0.331
      -0.263
      -0.202
      -0.169
      -0.166
      -0.172
      -0.166
      -0.146
      -0.128
      -0.126
      -0.143
      -0.171
      -0.207
      -0.247
      -0.286
      -0.313
      -0.322
      -0.322
      -0.330
      -0.352
      -0.375
      -0.378
      -0.352
      -0.304
      -0.247
      -0.183
      -0.114
      -0.040
       0.034
       0.105
       0.173
       0.245
       0.327
       0.417
       0.498
       0.550
       0.570
       0.578
       0.592
       0.607
       0.602
       0.566
       0.502
       0.423
       0.340
       0.259
       0.177
       0.093
       0.007
      -0.078
      -0.164
      -0.249
      -0.325
      -0.384
      -0.423
      -0.452
      -0.485
      -0.521
      -0.550
      -0.567
      -0.573
      -0.578
      -0.581
      -0.576
      -0.555
      -0.523
      -0.495
      -0.483
      -0.483
      -0.477
      -0.447
      -0.400
      -0.355
      -0.332
      -0.334
      -0.352
      -0.377
      -0.401
      -0.417
      -0.421
      -0.414
      -0.405
      -0.406
      -0.422
      -0.446
      -0.463
      -0.460
      -0.436
      -0.391
      -0.326
      -0.243
      -0.150
      -0.058
       0.032
       0.134
       0.253
       0.379
       0.491
       0.577
       0.649
       0.726
       0.818
       0.916
       1.004
       1.070
       1.111
       1.130
       1.129
       1.113
       1.098
       1.098
       1.108
       1.105
       1.067
       1.000
       0.934
       0.892
       0.872
       0.859
       0.842
       0.826
       0.823
       0.832
       0.840
       0.832
       0.809
       0.791
       0.790
       0.800
       0.803
       0.788
       0.760
       0.730
       0.699
       0.660
       0.608
       0.544
       0.474
       0.405
       0.338
       0.264
       0.174
       0.069
      -0.040
      -0.147
      -0.249
      -0.348
      -0.438
      -0.506
      -0.546
      -0.558
      -0.550
      -0.530
      -0.505
      -0.480
      -0.450
      -0.409
      -0.353
      -0.282
      -0.199
      -0.110
      -0.025
       0.053
       0.131
       0.215
       0.295
       0.356
       0.393
       0.413
       0.424
       0.422
       0.401
       0.357
       0.293
       0.214
       0.126
       0.036
      -0.047
      -0.116
      -0.167
      -0.205
      -0.243
      -0.293
      -0.356
      -0.422
      -0.483
      -0.540
      -0.595
      -0.648
      -0.689
      -0.710
      -0.709
      -0.695
      -0.678
      -0.661
      -0.638
      -0.601
      -0.554
      -0.506
      -0.468
      -0.442
      -0.423
      -0.411
      -0.409
      -0.417
      -0.433
      -0.452
      -0.470
      -0.490
      -0.520
      -0.560
      -0.597
      -0.619
      -0.622
      -0.623
      -0.636
      -0.663
      -0.686
      -0.691
      -0.674
      -0.647
      -0.625
      -0.619
      -0.630
      -0.654
      -0.685
      -0.718
      -0.750
      -0.778
      -0.795
      -0.803
      -0.810
      -0.829
      -0.864
      -0.908
      -0.946
      -0.962
      -0.958
      -0.949
      -0.958
      -0.984
      -1.003
      -0.986
      -0.931
      -0.864
      -0.813
      -0.778
      -0.734
      -0.658
      -0.553
      -0.441
      -0.342
      -0.251
      -0.148
      -0.030
       0.090
       0.194
       0.283
       0.371
       0.468
       0.568
       0.661
       0.744
       0.822
       0.897
       0.961
       1.001
       1.012
       1.009
       1.010
       1.018
       1.022
       1.011
       0.996
       0.992
       1.000
       1.008
       1.009
       1.010
       1.017
       1.029
       1.043
       1.054
       1.058
       1.055
       1.059
       1.080
       1.115
       1.143
       1.147
       1.128
       1.103
       1.088
       1.088
       1.094
       1.091
       1.067
       1.025
       0.976
       0.931
       0.892
       0.850
       0.792
       0.710
       0.611
       0.516
       0.435
       0.359
       0.267
       0.151
       0.028
      -0.080
      -0.166
      -0.239
      -0.310
      -0.377
      -0.429
      -0.466
      -0.505
      -0.563
      -0.641
      -0.719
      -0.777
      -0.813
      -0.839
      -0.868
      -0.896
      -0.913
      -0.919
      -0.922
      -0.923
      -0.909
      -0.867
      -0.802
      -0.740
      -0.705
      -0.699
      -0.706
      -0.702
      -0.678
      -0.641
      -0.600
      -0.559
      -0.519
      -0.483
      -0.454
      -0.424
      -0.381
      -0.321
      -0.256
      -0.204
      -0.172
      -0.153
      -0.137
      -0.122
      -0.113
      -0.119
      -0.145
      -0.186
      -0.234
      -0.282
      -0.320
      -0.345
      -0.354
      -0.352
      -0.344
      -0.335
      -0.320
      -0.294
      -0.257
      -0.215
      -0.174
      -0.137
      -0.102
      -0.060
      -0.009
       0.044
       0.087
       0.118
       0.150
       0.195
       0.253
       0.317
       0.378
       0.430
       0.465
       0.482
       0.488
       0.492
       0.499
       0.501
       0.483
       0.440
       0.372
       0.285
       0.182
       0.063
      -0.072
      -0.211
      -0.339
      -0.444
      -0.527
      -0.590
      -0.633
      -0.659
      -0.676
      -0.691
      -0.696
      -0.678
      -0.633
      -0.576
      -0.523
      -0.474
      -0.414
      -0.325
      -0.206
      -0.074
       0.046
       0.143
       0.230
       0.335
       0.472
       0.626
       0.772
       0.897
       1.004
       1.110
       1.221
       1.333
       1.434
       1.518
       1.583
       1.627
       1.640
       1.617
       1.566
       1.506
       1.453
       1.400
       1.331
       1.242
       1.149
       1.074
       1.027
       0.998
       0.972
       0.940
       0.907
       0.879
       0.856
       0.827
       0.784
       0.725
       0.650
       0.560
       0.456
       0.351
       0.262
       0.193
       0.130
       0.053
      -0.037
      -0.123
      -0.191
      -0.249
      -0.317
      -0.408
      -0.511
      -0.606
      -0.684
      -0.760
      -0.848
      -0.948
      -1.041
      -1.120
      -1.194
      -1.277
      -1.365
      -1.439
      -1.486
      -1.507
      -1.511
      -1.506
      -1.490
      -1.458
      -1.415
      -1.375
      -1.351
      -1.348
      -1.355
      -1.359
      -1.360
      -1.358
      -1.352
      -1.339
      -1.320
      -1.297
      -1.270
      -1.236
      -1.188
      -1.129
      -1.066
      -1.007
      -0.957
      -0.912
      -0.861
      -0.800
      -0.730
      -0.652
      -0.564
      -0.461
      -0.346
      -0.227
      -0.102
       0.041
       0.210
       0.405
       0.611
       0.806
       0.973
       1.108
       1.223
       1.330
       1.432
       1.517
       1.571
       1.584
       1.551
       1.480
       1.397
       1.331
       1.292
       1.267
       1.226
       1.156
       1.071
       1.000
       0.962
       0.953
       0.946
       0.917
       0.859
       0.777
       0.680
       0.580
       0.489
       0.417
       0.361
       0.304
       0.231
       0.143
       0.060
       0.000
      -0.027
      -0.027
      -0.005
       0.032
       0.078
       0.127
       0.171
       0.203
       0.221
       0.223
       0.205
       0.159
       0.080
      -0.024
      -0.132
      -0.226
      -0.300
      -0.360
      -0.410
      -0.450
      -0.473
      -0.480
      -0.480
      -0.482
      -0.486
      -0.484
      -0.472
      -0.457
      -0.456
      -0.477
      -0.511
      -0.544
      -0.570
      -0.590
      -0.609
      -0.627
      -0.643
      -0.656
      -0.666
      -0.663
      -0.639
      -0.594
      -0.534
      -0.476
      -0.429
      -0.392
      -0.353
      -0.300
      -0.237
      -0.172
      -0.109
      -0.044
       0.029
       0.106
       0.185
       0.266
       0.354
       0.459
       0.580
       0.711
       0.840
       0.960
       1.074
       1.186
       1.288
       1.368
       1.418
       1.439
       1.424
       1.369
       1.276
       1.163
       1.049
       0.937
       0.816
       0.671
       0.499
       0.318
       0.149
       0.002
      -0.133
      -0.263
      -0.388
      -0.497
      -0.587
      -0.666
      -0.735
      -0.787
      -0.814
      -0.815
      -0.801
      -0.786
      -0.776
      -0.769
      -0.760
      -0.749
      -0.741
      -0.736
      -0.725
      -0.700
      -0.670
      -0.656
      -0.669
      -0.701
      -0.730
      -0.740
      -0.731
      -0.717
      -0.718
      -0.742
      -0.771
      -0.780
      -0.759
      -0.724
      -0.694
      -0.669
      -0.637
      -0.593
      -0.540
      -0.482
      -0.412
      -0.324
      -0.220
      -0.110
      -0.006
       0.084
       0.160
       0.231
       0.307
       0.392
       0.477
       0.550
       0.603
       0.634
       0.649
       0.656
       0.660
       0.661
       0.657
       0.644
       0.619
       0.576
       0.512
       0.436
       0.363
       0.303
       0.251
       0.193
       0.118
       0.037
      -0.033
      -0.075
      -0.093
      -0.098
      -0.099
      -0.089
      -0.057
      -0.006
       0.053
       0.109
       0.165
       0.230
       0.304
       0.374
       0.429
       0.472
       0.517
       0.575
       0.645
       0.714
       0.766
       0.796
       0.808
       0.808
       0.797
       0.776
       0.744
       0.699
       0.636
       0.548
       0.437
       0.320
       0.211
       0.115
       0.025
      -0.065
      -0.159
      -0.249
      -0.328
      -0.396
      -0.462
      -0.530
      -0.595
      -0.652
      -0.709
      -0.783
      -0.871
      -0.951
      -0.999
      -1.013
      -1.016
      -1.028
      -1.048
      -1.056
      -1.029
      -0.955
      -0.833
      -0.666
      -0.458
      -0.228
      -0.017
       0.136
       0.229
       0.299
       0.384
       0.482
       0.553
       0.570
       0.545
       0.515
       0.498
       0.476
       0.422
       0.332
       0.233
       0.150
       0.079
      -0.002
      -0.106
      -0.217
      -0.315
      -0.394
      -0.460
      -0.517
      -0.561
      -0.583
      -0.583
      -0.559
      -0.507
      -0.422
      -0.310
      -0.184
      -0.063
       0.047
       0.151
       0.259
       0.369
       0.472
       0.558
       0.626
       0.681
       0.721
       0.739
       0.746
       0.766
       0.812
       0.859
       0.859
       0.791
       0.688
       0.603
       0.562
       0.539
       0.489
       0.397
       0.295
       0.225
       0.193
       0.159
       0.083
      -0.028
      -0.125
      -0.175
      -0.192
      -0.219
      -0.275
      -0.338
      -0.373
      -0.373
      -0.356
      -0.351
      -0.365
      -0.387
      -0.397
      -0.384
      -0.351
      -0.305
      -0.254
      -0.200
      -0.141
      -0.068
       0.022
       0.121
       0.210
       0.279
       0.327
       0.362
       0.390
       0.416
       0.438
       0.455
       0.470
       0.492
       0.525
       0.558
       0.575
       0.568
       0.542
       0.508
       0.472
       0.434
       0.394
       0.345
       0.277
       0.179
       0.051
      -0.100
      -0.251
      -0.377
      -0.463
      -0.520
      -0.578
      -0.658
      -0.751
