Origin Time       6/9/2008 05:47:33  
Lat.              36.7 N 
Long.             70.6 E 
Depth (Km)        160.0
Magnitude         5.8
 Region           HINDUKUS-AFGHANISTAN                                             
 Above details taken from IMD 
     
Station Code      BIL
Station Lat.       31.337  N
Station Long.      76.762  E
Station Height(m)  610.3
Site Class        B   Vs30 between 375 m/sec to 700 m/sec *  
Record Time       06.09.2008 05:50:23.004
Sampling Rate     200. Hz
 Record Duration   38.690 Sec.
 Direction         E-W (E positive)
Max. Acceleration     -2.472 cm/sec**2
     
  * For reference see Site Classification link of website 
     
 Base Line Corrected and Low Pass Filtered (Cut Off at 35 Hz) Time History
 Acceleration data in cm/sec**2
    
[...]
      -0.039
      -0.016
       0.026
       0.047
       0.040
       0.023
       0.014
       0.010
       0.005
       0.006
       0.026
       0.067
       0.107
       0.122
       0.107
       0.085
       0.077
       0.082
       0.086
       0.081
       0.080
       0.096
       0.124
       0.146
       0.150
       0.146
       0.148
       0.161
       0.171
       0.161
       0.134
       0.107
       0.091
       0.081
       0.066
       0.049
       0.046
       0.062
       0.079
       0.074
       0.044
       0.010
      -0.001
       0.015
       0.036
       0.040
       0.025
       0.014
       0.024
       0.047
       0.062
       0.059
       0.051
       0.056
       0.077
       0.098
       0.102
       0.092
       0.083
       0.087
       0.098
       0.105
       0.104
       0.101
       0.096
       0.084
       0.060
       0.032
       0.020
       0.033
       0.053
       0.051
       0.024
      -0.003
       0.000
       0.030
       0.055
       0.054
       0.036
       0.029
       0.039
       0.053
       0.058
       0.057
       0.061
       0.057
       0.024
      -0.038
      -0.093
      -0.104
      -0.071
      -0.035
      -0.034
      -0.066
      -0.102
      -0.121
      -0.138
      -0.172
      -0.214
      -0.231
      -0.210
      -0.172
      -0.160
      -0.183
      -0.209
      -0.200
      -0.155
      -0.107
      -0.088
      -0.099
      -0.119
      -0.130
      -0.134
      -0.137
      -0.141
      -0.138
      -0.123
      -0.106
      -0.097
      -0.097
      -0.098
      -0.095
      -0.098
      -0.119
      -0.152
      -0.174
      -0.170
      -0.150
      -0.140
      -0.147
      -0.152
      -0.133
      -0.093
      -0.060
      -0.056
      -0.074
      -0.088
      -0.088
      -0.089
      -0.110
      -0.144
      -0.160
      -0.139
      -0.096
      -0.067
      -0.066
      -0.075
      -0.066
      -0.043
      -0.035
      -0.057
      -0.088
      -0.096
      -0.075
      -0.052
      -0.050
      -0.062
      -0.059
      -0.028
       0.014
       0.039
       0.048
       0.060
       0.085
       0.102
       0.091
       0.057
       0.037
       0.055
       0.098
       0.131
       0.133
       0.114
       0.098
       0.092
       0.083
       0.058
       0.030
       0.024
       0.043
       0.061
       0.050
       0.018
      -0.002
       0.014
       0.054
       0.088
       0.099
       0.092
       0.082
       0.073
       0.055
       0.024
      -0.003
      -0.009
       0.006
       0.015
       0.001
      -0.027
      -0.033
       0.002
       0.062
       0.107
       0.112
       0.081
       0.039
       0.005
      -0.013
      -0.014
      -0.001
       0.021
       0.037
       0.033
       0.013
      -0.002
       0.005
       0.027
       0.049
       0.060
       0.064
       0.070
       0.072
       0.060
       0.036
       0.024
       0.045
       0.089
       0.122
       0.118
       0.087
       0.065
       0.078
       0.116
       0.146
       0.155
       0.156
       0.169
       0.192
       0.205
       0.197
       0.186
       0.193
       0.216
       0.229
       0.213
       0.179
       0.156
       0.163
       0.185
       0.192
       0.174
       0.146
       0.130
       0.122
       0.099
       0.050
      -0.007
      -0.045
      -0.060
      -0.074
      -0.112
      -0.169
      -0.220
      -0.252
      -0.273
      -0.302
      -0.337
      -0.362
      -0.366
      -0.365
      -0.385
      -0.431
      -0.474
      -0.490
      -0.491
      -0.513
      -0.575
      -0.650
      -0.696
      -0.700
      -0.692
      -0.704
      -0.736
      -0.762
      -0.765
      -0.761
      -0.776
      -0.808
      -0.825
      -0.802
      -0.753
      -0.713
      -0.698
      -0.685
      -0.644
      -0.570
      -0.489
      -0.424
      -0.375
      -0.328
      -0.273
      -0.220
      -0.177
      -0.140
      -0.095
      -0.035
       0.022
       0.059
       0.076
       0.096
       0.130
       0.170
       0.196
       0.199
       0.190
       0.181
       0.172
       0.158
       0.140
       0.135
       0.162
       0.214
       0.261
       0.274
       0.260
       0.255
       0.284
       0.339
       0.390
       0.420
       0.440
       0.468
       0.499
       0.516
       0.514
       0.513
       0.537
       0.576
       0.593
       0.560
       0.490
       0.423
       0.380
       0.351
       0.314
       0.264
       0.217
       0.178
       0.138
       0.091
       0.046
       0.019
       0.008
      -0.010
      -0.052
      -0.106
      -0.139
      -0.132
      -0.106
      -0.092
      -0.099
      -0.104
      -0.087
      -0.051
      -0.018
      -0.005
      -0.001
       0.013
       0.042
       0.068
       0.069
       0.044
       0.017
       0.012
       0.036
       0.073
       0.105
       0.130
       0.157
       0.188
       0.215
       0.228
       0.236
       0.253
       0.285
       0.322
       0.350
       0.366
       0.386
       0.424
       0.479
       0.537
       0.588
       0.634
       0.683
       0.733
       0.770
       0.788
       0.802
       0.833
       0.885
       0.934
       0.957
       0.958
       0.959
       0.975
       0.995
       0.998
       0.982
       0.963
       0.955
       0.948
       0.930
       0.901
       0.880
       0.872
       0.861
       0.827
       0.774
       0.731
       0.715
       0.713
       0.694
       0.649
       0.593
       0.546
       0.508
       0.463
       0.400
       0.332
       0.275
       0.235
       0.193
       0.123
       0.020
      -0.096
      -0.201
      -0.287
      -0.366
      -0.452
      -0.550
      -0.656
      -0.768
      -0.886
      -0.999
      -1.093
      -1.160
      -1.208
      -1.257
      -1.320
      -1.392
      -1.453
      -1.491
      -1.510
      -1.524
      -1.539
      -1.551
      -1.552
      -1.542
      -1.529
      -1.514
      -1.487
      -1.440
      -1.376
      -1.314
      -1.265
      -1.223
      -1.166
      -1.088
      -1.005
      -0.937
      -0.880
      -0.816
      -0.741
      -0.677
      -0.642
      -0.621
      -0.579
      -0.502
      -0.418
      -0.368
      -0.360
      -0.353
      -0.304
      -0.208
      -0.109
      -0.044
      -0.013
       0.014
       0.052
       0.085
       0.099
       0.107
       0.140
       0.205
       0.271
       0.305
       0.305
       0.310
       0.350
       0.417
       0.477
       0.508
       0.522
       0.541
       0.572
       0.597
       0.602
       0.595
       0.596
       0.613
       0.630
       0.627
       0.605
       0.591
       0.604
       0.640
       0.672
       0.684
       0.682
       0.686
       0.701
       0.716
       0.723
       0.727
       0.742
       0.764
       0.772
       0.749
       0.704
       0.660
       0.632
       0.610
       0.580
       0.542
       0.508
       0.482
       0.449
       0.396
       0.330
       0.274
       0.235
       0.192
       0.112
      -0.004
      -0.121
      -0.203
      -0.248
      -0.286
      -0.336
      -0.390
      -0.429
      -0.452
      -0.482
      -0.529
      -0.576
      -0.593
      -0.564
      -0.510
      -0.465
      -0.441
      -0.420
      -0.376
      -0.301
      -0.213
      -0.128
      -0.045
       0.046
       0.145
       0.240
       0.319
       0.389
       0.466
       0.560
       0.656
       0.730
       0.772
       0.797
       0.830
       0.869
       0.894
       0.893
       0.874
       0.858
       0.843
       0.813
       0.753
       0.678
       0.611
       0.563
       0.519
       0.459
       0.385
       0.314
       0.259
       0.210
       0.151
       0.079
       0.006
      -0.065
      -0.146
      -0.248
      -0.358
      -0.451
      -0.518
      -0.574
      -0.642
      -0.727
      -0.808
      -0.868
      -0.914
      -0.968
      -1.042
      -1.118
      -1.168
      -1.189
      -1.199
      -1.217
      -1.240
      -1.253
      -1.250
      -1.241
      -1.235
      -1.230
      -1.214
      -1.185
      -1.149
      -1.117
      -1.089
      -1.052
      -0.997
      -0.934
      -0.882
      -0.849
      -0.818
      -0.764
      -0.679
      -0.582
      -0.500
      -0.443
      -0.396
      -0.337
      -0.260
      -0.180
      -0.117
      -0.075
      -0.044
      -0.013
       0.020
       0.056
       0.101
       0.164
       0.237
       0.301
       0.340
       0.361
       0.384
       0.424
       0.479
       0.540
       0.606
       0.680
       0.757
       0.823
       0.866
       0.897
       0.940
       1.008
       1.084
       1.138
       1.155
       1.149
       1.144
       1.144
       1.139
       1.117
       1.085
       1.051
       1.005
       0.934
       0.837
       0.736
       0.660
       0.616
       0.582
       0.533
       0.469
       0.415
       0.392
       0.390
       0.382
       0.358
       0.339
       0.350
       0.388
       0.421
       0.422
       0.406
       0.405
       0.436
       0.469
       0.468
       0.425
       0.375
       0.352
       0.350
       0.336
       0.284
       0.206
       0.126
       0.055
      -0.015
      -0.093
      -0.174
      -0.248
      -0.312
      -0.375
      -0.450
      -0.532
      -0.600
      -0.633
      -0.632
      -0.615
      -0.598
      -0.586
      -0.570
      -0.543
      -0.506
      -0.466
      -0.425
      -0.382
      -0.338
      -0.300
      -0.272
      -0.250
      -0.225
      -0.202
      -0.193
      -0.205
      -0.229
      -0.252
      -0.275
      -0.308
      -0.352
      -0.388
      -0.399
      -0.393
      -0.396
      -0.429
      -0.477
      -0.509
      -0.505
      -0.480
      -0.466
      -0.478
      -0.500
      -0.500
      -0.471
      -0.427
      -0.392
      -0.365
      -0.325
      -0.264
      -0.203
      -0.174
      -0.187
      -0.218
      -0.235
      -0.230
      -0.215
      -0.209
      -0.219
      -0.242
      -0.273
      -0.305
      -0.335
      -0.359
      -0.376
      -0.389
      -0.399
      -0.408
      -0.412
      -0.403
      -0.373
      -0.322
      -0.252
      -0.178
      -0.113
      -0.065
      -0.032
      -0.010
       0.009
       0.030
       0.064
       0.111
       0.165
       0.216
       0.264
       0.307
       0.342
       0.363
       0.374
       0.393
       0.435
       0.496
       0.550
       0.581
       0.597
       0.626
       0.681
       0.750
       0.806
       0.844
       0.887
       0.958
       1.046
       1.120
       1.159
       1.171
       1.180
       1.196
       1.207
       1.199
       1.174
       1.146
       1.121
       1.094
       1.049
       0.987
       0.920
       0.860
       0.799
       0.720
       0.621
       0.518
       0.427
       0.342
       0.242
       0.121
      -0.005
      -0.114
      -0.203
      -0.285
      -0.374
      -0.462
      -0.540
      -0.606
      -0.671
      -0.742
      -0.809
      -0.852
      -0.868
      -0.871
      -0.879
      -0.893
      -0.895
      -0.872
      -0.834
      -0.798
      -0.773
      -0.749
      -0.715
      -0.673
      -0.634
      -0.604
      -0.574
      -0.524
      -0.445
      -0.353
      -0.269
      -0.202
      -0.142
      -0.078
      -0.018
       0.021
       0.031
       0.021
       0.008
      -0.009
      -0.043
      -0.096
      -0.153
      -0.201
      -0.251
      -0.323
      -0.415
      -0.492
      -0.526
      -0.527
      -0.534
      -0.564
      -0.593
      -0.578
      -0.507
      -0.408
      -0.313
      -0.231
      -0.151
      -0.069
       0.005
       0.056
       0.083
       0.100
       0.117
       0.131
       0.126
       0.096
       0.052
       0.012
      -0.009
      -0.014
      -0.007
       0.009
       0.035
       0.069
       0.102
       0.126
       0.145
       0.172
       0.216
       0.263
       0.282
       0.250
       0.173
       0.077
      -0.011
      -0.084
      -0.142
      -0.191
      -0.242
      -0.305
      -0.382
      -0.455
      -0.494
      -0.484
      -0.440
      -0.400
      -0.390
      -0.404
      -0.413
      -0.403
      -0.383
      -0.380
      -0.398
      -0.421
      -0.429
      -0.423
      -0.423
      -0.437
      -0.452
      -0.444
      -0.415
      -0.389
      -0.385
      -0.399
      -0.405
      -0.389
      -0.357
      -0.316
      -0.263
      -0.178
      -0.058
       0.079
       0.209
       0.333
       0.473
       0.644
       0.833
       1.008
       1.151
       1.276
       1.402
       1.533
       1.642
       1.703
       1.717
       1.711
       1.713
       1.719
       1.700
       1.638
       1.546
       1.455
       1.377
       1.300
       1.212
       1.123
       1.048
       0.987
       0.916
       0.817
       0.703
       0.606
       0.549
       0.521
       0.506
       0.499
       0.519
       0.572
       0.646
       0.724
       0.804
       0.894
       0.989
       1.070
       1.123
       1.152
       1.174
       1.191
       1.183
       1.121
       0.992
       0.815
       0.624
       0.437
       0.241
       0.018
      -0.231
      -0.490
      -0.744
      -0.996
      -1.247
      -1.482
      -1.676
      -1.821
      -1.938
      -2.057
      -2.191
      -2.320
      -2.411
      -2.452
      -2.462
      -2.467
      -2.472
      -2.461
      -2.420
      -2.351
      -2.260
      -2.144
      -1.998
      -1.836
      -1.685
      -1.573
      -1.496
      -1.422
      -1.317
      -1.181
      -1.047
      -0.944
      -0.866
      -0.785
      -0.680
      -0.555
      -0.425
      -0.288
      -0.133
       0.041
       0.222
       0.397
       0.569
       0.751
       0.944
       1.129
       1.281
       1.394
       1.479
       1.543
       1.579
       1.570
       1.516
       1.433
       1.339
       1.242
       1.134
       1.012
       0.879
       0.745
       0.609
       0.467
       0.315
       0.163
       0.028
      -0.083
      -0.186
      -0.304
      -0.445
      -0.585
      -0.696
      -0.770
      -0.819
      -0.855
      -0.870
      -0.853
      -0.808
      -0.748
      -0.672
      -0.565
      -0.419
      -0.254
      -0.106
       0.011
       0.118
       0.238
       0.363
       0.458
       0.499
       0.499
       0.494
       0.503
       0.507
       0.481
       0.430
       0.383
       0.357
       0.335
       0.287
       0.210
       0.133
       0.091
       0.080
       0.063
       0.005
      -0.081
      -0.145
      -0.154
      -0.127
      -0.119
      -0.157
      -0.213
      -0.240
      -0.230
      -0.214
      -0.222
      -0.248
      -0.269
      -0.279
      -0.288
      -0.303
      -0.313
      -0.298
      -0.254
      -0.193
      -0.129
      -0.054
       0.053
       0.194
       0.344
       0.476
       0.592
       0.726
       0.896
       1.080
       1.231
       1.327
       1.388
       1.457
       1.557
       1.668
       1.749
       1.777
       1.762
       1.726
       1.680
       1.625
       1.563
       1.494
       1.410
       1.294
       1.140
       0.965
       0.803
       0.672
       0.560
       0.439
       0.297
       0.157
       0.053
      -0.012
      -0.065
      -0.132
      -0.209
      -0.269
      -0.297
      -0.301
      -0.293
      -0.277
      -0.245
      -0.203
      -0.166
      -0.147
      -0.138
      -0.119
      -0.084
      -0.051
      -0.043
      -0.057
      -0.063
      -0.037
       0.008
       0.034
       0.022
      -0.012
      -0.038
      -0.053
      -0.081
      -0.146
      -0.246
      -0.355
      -0.446
      -0.513
      -0.565
      -0.614
      -0.665
      -0.726
      -0.801
      -0.886
      -0.969
      -1.039
      -1.100
      -1.167
      -1.245
      -1.323
      -1.376
      -1.392
      -1.381
      -1.374
      -1.390
      -1.421
      -1.439
      -1.421
      -1.368
      -1.294
      -1.216
      -1.144
      -1.086
      -1.046
      -1.016
      -0.977
      -0.918
      -0.853
      -0.813
      -0.810
      -0.818
      -0.797
      -0.725
      -0.624
      -0.538
      -0.490
      -0.468
      -0.431
      -0.354
      -0.251
      -0.158
      -0.095
      -0.050
      -0.002
       0.046
       0.071
       0.061
       0.032
       0.012
       0.008
       0.006
      -0.011
      -0.037
      -0.059
      -0.079
      -0.109
      -0.148
      -0.173
      -0.148
      -0.074
       0.013
       0.063
       0.060
       0.032
       0.023
       0.056
       0.116
       0.166
       0.177
       0.142
       0.087
       0.051
       0.065
       0.141
       0.260
       0.375
       0.442
       0.450
       0.438
       0.452
       0.506
       0.568
       0.600
       0.593
       0.568
       0.554
       0.561
       0.587
       0.624
       0.668
       0.708
       0.727
       0.712
       0.671
       0.638
       0.650
       0.715
       0.802
       0.866
       0.889
       0.890
       0.893
       0.898
       0.889
       0.863
       0.830
       0.800
       0.767
       0.720
       0.666
       0.623
       0.600
       0.585
       0.565
       0.550
       0.564
       0.610
       0.665
       0.699
       0.712
       0.729
       0.774
       0.837
       0.886
       0.892
       0.862
       0.825
       0.806
       0.802
       0.792
       0.768
       0.737
       0.709
       0.676
       0.625
       0.553
       0.476
       0.404
       0.331
       0.240
       0.131
       0.021
      -0.071
      -0.146
      -0.225
      -0.330
      -0.460
      -0.588
      -0.694
      -0.781
      -0.875
      -0.994
      -1.122
      -1.220
      -1.266
      -1.276
      -1.277
      -1.280
      -1.270
      -1.240
      -1.197
      -1.154
      -1.111
      -1.058
      -0.992
      -0.928
      -0.876
      -0.829
      -0.773
      -0.708
      -0.654
      -0.633
      -0.640
      -0.654
      -0.653
      -0.632
      -0.602
      -0.564
      -0.513
      -0.443
      -0.366
      -0.303
      -0.269
      -0.254
      -0.235
      -0.206
      -0.182
      -0.184
      -0.214
      -0.258
      -0.297
      -0.327
      -0.350
      -0.365
      -0.367
      -0.349
      -0.308
      -0.249
      -0.178
      -0.106
      -0.035
       0.035
       0.114
       0.208
       0.315
       0.421
       0.503
       0.548
       0.566
       0.588
       0.638
       0.700
       0.735
       0.713
       0.649
       0.595
       0.593
       0.642
       0.712
       0.773
       0.818
       0.859
       0.904
       0.949
       0.985
       1.013
       1.035
       1.043
       1.023
       0.973
       0.914
       0.876
       0.869
       0.868
       0.838
       0.770
       0.691
       0.636
       0.614
       0.597
       0.549
       0.459
       0.343
       0.221
       0.099
      -0.026
      -0.153
      -0.283
      -0.421
      -0.580
      -0.768
      -0.966
      -1.136
      -1.253
      -1.329
      -1.396
      -1.468
      -1.521
      -1.527
      -1.490
      -1.445
      -1.417
      -1.380
      -1.291
      -1.145
