Origin Time       6/9/2008 05:47:33  
Lat.              36.7 N 
Long.             70.6 E 
Depth (Km)        160.0
Magnitude         5.8
 Region           HINDUKUS-AFGHANISTAN                                             
 Above details taken from IMD 
   
Station Code      BIL
Station Lat.       31.337
Station Long.      76.762
Station Height(m)  610.3
Site Class        B   Vs30 between 375 m/sec to 700 m/sec *  
Record Time       06.09.2008 05:50:23.004
Sampling Rate     200. Hz
 Record Duration   38.690 Sec.
 Direction         Vert. (Up positive)
Max. Acceleration     -1.449 cm/sec**2
     
  * For reference see Site Classification link of website 
     
 Base Line Corrected and Low Pass Filtered (Cut Off at 35 Hz) Time History
 Acceleration data in cm/sec**2
    
[...]
      -0.099
      -0.023
       0.044
       0.092
       0.116
       0.113
       0.091
       0.064
       0.045
       0.035
       0.024
       0.002
      -0.030
      -0.060
      -0.071
      -0.060
      -0.036
      -0.019
      -0.025
      -0.054
      -0.100
      -0.154
      -0.198
      -0.210
      -0.178
      -0.108
      -0.029
       0.030
       0.057
       0.066
       0.077
       0.108
       0.156
       0.204
       0.232
       0.228
       0.200
       0.167
       0.146
       0.150
       0.172
       0.196
       0.197
       0.170
       0.123
       0.075
       0.038
       0.017
       0.004
      -0.011
      -0.032
      -0.057
      -0.081
      -0.096
      -0.093
      -0.069
      -0.033
       0.000
       0.019
       0.022
       0.016
       0.009
       0.006
       0.015
       0.035
       0.055
       0.056
       0.034
       0.000
      -0.021
      -0.012
       0.027
       0.076
       0.105
       0.099
       0.065
       0.028
       0.009
       0.007
       0.009
       0.005
       0.001
       0.005
       0.019
       0.026
       0.016
      -0.001
      -0.007
       0.003
       0.006
      -0.014
      -0.053
      -0.082
      -0.084
      -0.064
      -0.044
      -0.035
      -0.035
      -0.032
      -0.027
      -0.026
      -0.031
      -0.032
      -0.020
       0.000
       0.018
       0.030
       0.037
       0.040
       0.036
       0.030
       0.037
       0.059
       0.078
       0.070
       0.031
      -0.012
      -0.023
       0.016
       0.083
       0.138
       0.155
       0.142
       0.122
       0.112
       0.113
       0.119
       0.120
       0.109
       0.080
       0.040
       0.002
      -0.015
      -0.007
       0.020
       0.051
       0.072
       0.072
       0.049
       0.014
      -0.013
      -0.019
      -0.007
       0.010
       0.021
       0.020
       0.006
      -0.022
      -0.065
      -0.104
      -0.109
      -0.069
      -0.002
       0.057
       0.091
       0.111
       0.128
       0.143
       0.142
       0.119
       0.085
       0.046
      -0.001
      -0.059
      -0.110
      -0.130
      -0.113
      -0.083
      -0.074
      -0.096
      -0.132
      -0.164
      -0.192
      -0.224
      -0.259
      -0.284
      -0.291
      -0.289
      -0.286
      -0.280
      -0.261
      -0.226
      -0.187
      -0.153
      -0.125
      -0.099
      -0.075
      -0.052
      -0.021
       0.030
       0.098
       0.160
       0.190
       0.188
       0.174
       0.168
       0.171
       0.175
       0.177
       0.183
       0.190
       0.192
       0.185
       0.176
       0.172
       0.173
       0.173
       0.167
       0.154
       0.136
       0.114
       0.088
       0.068
       0.070
       0.098
       0.129
       0.127
       0.080
       0.019
      -0.013
       0.001
       0.044
       0.084
       0.110
       0.127
       0.145
       0.160
       0.163
       0.161
       0.168
       0.183
       0.187
       0.162
       0.116
       0.077
       0.059
       0.052
       0.043
       0.035
       0.034
       0.034
       0.017
      -0.019
      -0.047
      -0.037
       0.012
       0.075
       0.121
       0.140
       0.140
       0.132
       0.121
       0.112
       0.115
       0.132
       0.149
       0.151
       0.140
       0.133
       0.137
       0.147
       0.154
       0.157
       0.149
       0.119
       0.059
      -0.019
      -0.089
      -0.133
      -0.154
      -0.166
      -0.174
      -0.171
      -0.157
      -0.149
      -0.158
      -0.176
      -0.176
      -0.148
      -0.116
      -0.113
      -0.142
      -0.170
      -0.171
      -0.145
      -0.114
      -0.091
      -0.071
      -0.049
      -0.034
      -0.034
      -0.036
      -0.018
       0.021
       0.050
       0.042
       0.001
      -0.034
      -0.039
      -0.032
      -0.044
      -0.080
      -0.112
      -0.121
      -0.120
      -0.130
      -0.146
      -0.144
      -0.115
      -0.086
      -0.095
      -0.139
      -0.175
      -0.162
      -0.104
      -0.034
       0.020
       0.067
       0.116
       0.163
       0.191
       0.199
       0.202
       0.210
       0.212
       0.190
       0.138
       0.072
       0.009
      -0.040
      -0.073
      -0.093
      -0.106
      -0.121
      -0.144
      -0.172
      -0.199
      -0.228
      -0.262
      -0.298
      -0.311
      -0.286
      -0.237
      -0.197
      -0.182
      -0.177
      -0.161
      -0.135
      -0.114
      -0.111
      -0.117
      -0.121
      -0.119
      -0.115
      -0.106
      -0.083
      -0.042
      -0.003
       0.011
      -0.002
      -0.024
      -0.040
      -0.055
      -0.078
      -0.103
      -0.113
      -0.107
      -0.105
      -0.123
      -0.151
      -0.169
      -0.165
      -0.147
      -0.125
      -0.102
      -0.075
      -0.045
      -0.016
       0.012
       0.050
       0.106
       0.171
       0.233
       0.284
       0.329
       0.376
       0.427
       0.484
       0.540
       0.578
       0.581
       0.542
       0.479
       0.421
       0.385
       0.372
       0.374
       0.388
       0.408
       0.423
       0.421
       0.399
       0.372
       0.362
       0.370
       0.378
       0.366
       0.343
       0.331
       0.334
       0.340
       0.339
       0.342
       0.360
       0.383
       0.384
       0.356
       0.319
       0.299
       0.302
       0.306
       0.290
       0.255
       0.222
       0.205
       0.200
       0.195
       0.192
       0.193
       0.186
       0.142
       0.053
      -0.057
      -0.151
      -0.206
      -0.224
      -0.221
      -0.215
      -0.219
      -0.245
      -0.294
      -0.352
      -0.397
      -0.418
      -0.423
      -0.429
      -0.445
      -0.469
      -0.494
      -0.516
      -0.534
      -0.543
      -0.541
      -0.530
      -0.525
      -0.537
      -0.561
      -0.577
      -0.572
      -0.544
      -0.504
      -0.465
      -0.438
      -0.440
      -0.468
      -0.497
      -0.495
      -0.456
      -0.403
      -0.365
      -0.343
      -0.318
      -0.274
      -0.218
      -0.165
      -0.116
      -0.069
      -0.030
      -0.017
      -0.030
      -0.048
      -0.042
      -0.004
       0.046
       0.087
       0.115
       0.139
       0.161
       0.174
       0.172
       0.161
       0.150
       0.138
       0.121
       0.100
       0.085
       0.082
       0.083
       0.081
       0.076
       0.076
       0.075
       0.059
       0.024
      -0.015
      -0.034
      -0.027
      -0.013
      -0.011
      -0.024
      -0.038
      -0.041
      -0.041
      -0.046
      -0.052
      -0.043
      -0.013
       0.024
       0.051
       0.061
       0.060
       0.056
       0.059
       0.073
       0.095
       0.123
       0.153
       0.185
       0.218
       0.245
       0.261
       0.272
       0.292
       0.327
       0.372
       0.404
       0.403
       0.365
       0.313
       0.274
       0.262
       0.267
       0.267
       0.254
       0.241
       0.243
       0.259
       0.271
       0.261
       0.237
       0.222
       0.231
       0.247
       0.242
       0.207
       0.159
       0.124
       0.112
       0.116
       0.121
       0.119
       0.114
       0.121
       0.146
       0.181
       0.206
       0.219
       0.234
       0.265
       0.308
       0.346
       0.367
       0.366
       0.341
       0.300
       0.259
       0.227
       0.203
       0.181
       0.166
       0.162
       0.159
       0.139
       0.086
       0.009
      -0.066
      -0.114
      -0.140
      -0.166
      -0.198
      -0.223
      -0.221
      -0.201
      -0.184
      -0.179
      -0.185
      -0.202
      -0.235
      -0.284
      -0.330
      -0.357
      -0.356
      -0.334
      -0.305
      -0.277
      -0.258
      -0.253
      -0.255
      -0.249
      -0.226
      -0.204
      -0.213
      -0.266
      -0.342
      -0.406
      -0.445
      -0.475
      -0.509
      -0.542
      -0.563
      -0.581
      -0.618
      -0.676
      -0.726
      -0.736
      -0.707
      -0.665
      -0.635
      -0.610
      -0.572
      -0.519
      -0.463
      -0.409
      -0.351
      -0.279
      -0.205
      -0.148
      -0.115
      -0.094
      -0.068
      -0.028
       0.027
       0.095
       0.172
       0.248
       0.311
       0.355
       0.389
       0.430
       0.484
       0.543
       0.580
       0.583
       0.562
       0.540
       0.535
       0.550
       0.573
       0.589
       0.589
       0.573
       0.545
       0.506
       0.465
       0.427
       0.392
       0.350
       0.294
       0.230
       0.176
       0.143
       0.123
       0.107
       0.090
       0.072
       0.049
       0.015
      -0.029
      -0.074
      -0.116
      -0.150
      -0.170
      -0.178
      -0.184
      -0.196
      -0.213
      -0.219
      -0.198
      -0.153
      -0.102
      -0.061
      -0.036
      -0.023
      -0.022
      -0.032
      -0.035
       0.002
       0.094
       0.216
       0.322
       0.383
       0.404
       0.395
       0.363
       0.323
       0.308
       0.342
       0.409
       0.462
       0.473
       0.454
       0.436
       0.431
       0.419
       0.379
       0.310
       0.229
       0.146
       0.062
      -0.018
      -0.073
      -0.097
      -0.110
      -0.139
      -0.185
      -0.223
      -0.233
      -0.225
      -0.221
      -0.233
      -0.254
      -0.275
      -0.293
      -0.300
      -0.284
      -0.238
      -0.170
      -0.097
      -0.031
       0.030
       0.081
       0.105
       0.090
       0.056
       0.044
       0.075
       0.125
       0.152
       0.133
       0.082
       0.017
      -0.055
      -0.141
      -0.246
      -0.359
      -0.465
      -0.561
      -0.649
      -0.723
      -0.768
      -0.774
      -0.754
      -0.734
      -0.727
      -0.728
      -0.723
      -0.712
      -0.700
      -0.679
      -0.636
      -0.566
      -0.487
      -0.422
      -0.379
      -0.341
      -0.287
      -0.217
      -0.149
      -0.102
      -0.074
      -0.055
      -0.042
      -0.036
      -0.030
      -0.011
       0.022
       0.054
       0.070
       0.063
       0.038
       0.005
      -0.027
      -0.054
      -0.075
      -0.093
      -0.111
      -0.128
      -0.136
      -0.130
      -0.108
      -0.076
      -0.045
      -0.020
      -0.005
       0.004
       0.017
       0.053
       0.125
       0.219
       0.302
       0.350
       0.373
       0.401
       0.455
       0.535
       0.627
       0.714
       0.784
       0.832
       0.861
       0.882
       0.908
       0.944
       0.985
       1.019
       1.029
       1.012
       0.972
       0.918
       0.854
       0.780
       0.700
       0.617
       0.534
       0.451
       0.377
       0.319
       0.280
       0.246
       0.194
       0.111
       0.001
      -0.114
      -0.212
      -0.293
      -0.375
      -0.472
      -0.578
      -0.673
      -0.743
      -0.791
      -0.822
      -0.843
      -0.849
      -0.840
      -0.824
      -0.807
      -0.787
      -0.749
      -0.681
      -0.585
      -0.477
      -0.371
      -0.263
      -0.144
      -0.014
       0.115
       0.227
       0.316
       0.384
       0.443
       0.502
       0.564
       0.626
       0.690
       0.762
       0.837
       0.900
       0.936
       0.949
       0.949
       0.939
       0.906
       0.836
       0.730
       0.606
       0.483
       0.368
       0.257
       0.150
       0.060
      -0.004
      -0.050
      -0.100
      -0.163
      -0.231
      -0.294
      -0.355
      -0.421
      -0.489
      -0.540
      -0.559
      -0.549
      -0.524
      -0.501
      -0.482
      -0.463
      -0.437
      -0.403
      -0.357
      -0.294
      -0.209
      -0.105
       0.003
       0.101
       0.182
       0.242
       0.288
       0.327
       0.368
       0.401
       0.414
       0.396
       0.349
       0.281
       0.200
       0.113
       0.026
      -0.065
      -0.170
      -0.294
      -0.431
      -0.564
      -0.677
      -0.767
      -0.848
      -0.932
      -1.014
      -1.073
      -1.102
      -1.110
      -1.117
      -1.123
      -1.114
      -1.078
      -1.018
      -0.944
      -0.864
      -0.782
      -0.702
      -0.634
      -0.577
      -0.519
      -0.446
      -0.355
      -0.264
      -0.183
      -0.098
       0.019
       0.175
       0.345
       0.501
       0.628
       0.728
       0.798
       0.842
       0.877
       0.927
       1.001
       1.079
       1.142
       1.189
       1.237
       1.292
       1.336
       1.348
       1.322
       1.267
       1.192
       1.093
       0.970
       0.840
       0.731
       0.655
       0.604
       0.570
       0.550
       0.532
       0.490
       0.410
       0.309
       0.217
       0.148
       0.092
       0.038
      -0.003
      -0.021
      -0.021
      -0.028
      -0.054
      -0.091
      -0.123
      -0.146
      -0.167
      -0.185
      -0.184
      -0.145
      -0.078
      -0.011
       0.036
       0.070
       0.106
       0.147
       0.186
       0.216
       0.232
       0.226
       0.182
       0.091
      -0.038
      -0.177
      -0.302
      -0.410
      -0.522
      -0.652
      -0.795
      -0.938
      -1.068
      -1.183
      -1.277
      -1.343
      -1.386
      -1.417
      -1.440
      -1.449
      -1.433
      -1.394
      -1.333
      -1.253
      -1.151
      -1.034
      -0.917
      -0.804
      -0.684
      -0.544
      -0.389
      -0.240
      -0.112
      -0.001
       0.101
       0.185
       0.235
       0.265
       0.312
       0.402
       0.520
       0.628
       0.705
       0.765
       0.832
       0.905
       0.954
       0.956
       0.917
       0.872
       0.844
       0.826
       0.801
       0.768
       0.746
       0.741
       0.730
       0.694
       0.644
       0.613
       0.611
       0.609
       0.570
       0.489
       0.397
       0.323
       0.265
       0.207
       0.146
       0.090
       0.037
      -0.031
      -0.130
      -0.248
      -0.353
      -0.427
      -0.485
      -0.543
      -0.595
      -0.625
      -0.632
      -0.640
      -0.674
      -0.727
      -0.767
      -0.765
      -0.725
      -0.679
      -0.645
      -0.606
      -0.532
      -0.416
      -0.280
      -0.152
      -0.044
       0.044
       0.123
       0.200
       0.270
       0.325
       0.368
       0.413
       0.466
       0.512
       0.524
       0.504
       0.482
       0.485
       0.503
       0.497
       0.444
       0.361
       0.286
       0.242
       0.220
       0.196
       0.162
       0.123
       0.088
       0.051
       0.010
      -0.025
      -0.044
      -0.053
      -0.062
      -0.061
      -0.027
       0.038
       0.100
       0.119
       0.092
       0.051
       0.025
       0.014
       0.007
       0.003
       0.015
       0.051
       0.103
       0.153
       0.200
       0.255
       0.317
       0.370
       0.393
       0.384
       0.361
       0.340
       0.330
       0.328
       0.327
       0.319
       0.293
       0.247
       0.188
       0.131
       0.078
       0.013
      -0.088
      -0.226
      -0.380
      -0.523
      -0.642
      -0.736
      -0.799
      -0.830
      -0.854
      -0.907
      -0.998
      -1.096
      -1.160
      -1.185
      -1.198
      -1.218
      -1.234
      -1.223
      -1.181
      -1.126
      -1.074
      -1.015
      -0.940
      -0.865
      -0.818
      -0.800
      -0.779
      -0.725
      -0.645
      -0.569
      -0.509
      -0.454
      -0.391
      -0.322
      -0.256
      -0.192
      -0.120
      -0.030
       0.076
       0.184
       0.278
       0.348
       0.397
       0.432
       0.461
       0.491
       0.528
       0.571
       0.613
       0.651
       0.689
       0.734
       0.789
       0.854
       0.936
       1.040
       1.142
       1.205
       1.206
       1.163
       1.117
       1.088
       1.066
       1.035
       0.996
       0.959
       0.923
       0.871
       0.801
       0.734
       0.694
       0.674
       0.640
       0.575
       0.494
       0.426
       0.384
       0.366
       0.364
       0.369
       0.370
       0.360
       0.335
       0.299
       0.259
       0.224
       0.206
       0.199
       0.176
       0.117
       0.031
      -0.056
      -0.124
      -0.175
      -0.214
      -0.243
      -0.269
      -0.311
      -0.380
      -0.468
      -0.542
      -0.578
      -0.583
      -0.583
      -0.593
      -0.599
      -0.569
      -0.493
      -0.391
      -0.296
      -0.224
      -0.171
      -0.126
      -0.086
      -0.047
      -0.003
       0.055
       0.126
       0.192
       0.237
       0.266
       0.297
       0.338
       0.380
       0.417
       0.469
       0.550
       0.637
       0.683
       0.661
       0.591
       0.504
       0.419
       0.336
       0.254
       0.177
       0.115
       0.067
       0.007
      -0.092
      -0.221
      -0.333
      -0.392
      -0.400
      -0.398
      -0.414
      -0.437
      -0.440
      -0.423
      -0.416
      -0.433
      -0.452
      -0.448
      -0.436
      -0.447
      -0.484
      -0.518
      -0.521
      -0.508
      -0.510
      -0.532
      -0.544
      -0.531
      -0.511
      -0.505
      -0.507
      -0.504
      -0.503
      -0.530
      -0.583
      -0.623
      -0.606
      -0.529
      -0.430
      -0.341
      -0.263
      -0.184
      -0.119
      -0.099
      -0.128
      -0.164
      -0.156
      -0.096
      -0.024
       0.028
       0.069
       0.119
       0.167
       0.185
       0.175
       0.167
       0.176
       0.175
       0.138
       0.083
       0.065
       0.111
       0.192
       0.256
       0.292
       0.320
       0.351
       0.365
       0.350
       0.322
       0.303
       0.278
       0.210
       0.094
      -0.011
      -0.046
      -0.005
       0.066
       0.139
       0.218
       0.304
       0.358
       0.337
       0.262
       0.206
       0.210
       0.242
       0.248
       0.227
       0.226
       0.269
       0.319
       0.325
       0.289
       0.267
       0.285
       0.304
       0.262
       0.156
       0.041
      -0.036
      -0.075
      -0.098
      -0.112
      -0.107
      -0.101
      -0.122
      -0.164
      -0.175
      -0.127
      -0.062
      -0.051
      -0.104
      -0.167
      -0.193
      -0.192
      -0.204
      -0.231
      -0.241
      -0.224
      -0.224
      -0.287
      -0.393
      -0.472
      -0.483
      -0.457
      -0.450
      -0.466
      -0.462
      -0.426
      -0.397
      -0.415
      -0.454
      -0.455
      -0.405
      -0.352
      -0.333
      -0.317
      -0.250
      -0.139
      -0.040
       0.019
       0.068
       0.141
       0.216
       0.245
       0.221
       0.189
       0.189
       0.204
       0.192
       0.153
       0.130
       0.149
       0.186
       0.206
       0.220
       0.266
       0.342
       0.395
       0.371
       0.284
       0.196
       0.148
       0.132
       0.122
       0.115
       0.121
       0.128
       0.099
