Origin Time       11/8/2009 21:43:39 
Lat.              24.4 N 
Long.             94.8 E 
Depth (Km)         22.0
Magnitude         5.6
 Region           MYANMAR-INDIA(MANIPUR)BORDER                                     
 Above details taken from IMD 
     
Station Code      BOK
Station Lat.       25.976  N
Station Long.      91.230  E
Station Height(m)   68.0
Site Class        C   Vs30 between 200 m/sec to 375 m/sec *  
Record Time       11.08.2009 21:45:02.164
Sampling Rate     200. Hz
 Record Duration   77.560 Sec.
 Direction         E-W (E positive)
Max. Acceleration    -16.192 cm/sec**2
     
  * For reference see Site Classification link of website 
     
 Base Line Corrected and Low Pass Filtered (Cut Off at 35 Hz) Time History
 Acceleration data in cm/sec**2
    
[...]
      -0.071
      -0.145
      -0.271
      -0.511
      -0.914
      -1.388
      -1.639
      -1.336
      -0.397
       0.894
       2.065
       2.776
       2.962
       2.722
       2.147
       1.293
       0.281
      -0.679
      -1.401
      -1.850
      -2.126
      -2.330
      -2.457
      -2.417
      -2.157
      -1.725
      -1.233
      -0.755
      -0.286
       0.194
       0.631
       0.889
       0.851
       0.544
       0.162
      -0.053
       0.020
       0.307
       0.599
       0.676
       0.427
      -0.090
      -0.644
      -0.911
      -0.647
       0.138
       1.130
       1.867
       2.019
       1.568
       0.775
      -0.035
      -0.673
      -1.129
      -1.467
      -1.727
      -1.909
      -2.039
      -2.210
      -2.544
      -3.103
      -3.827
      -4.531
      -5.000
      -5.098
      -4.818
      -4.235
      -3.423
      -2.432
      -1.328
      -0.210
       0.844
       1.822
       2.708
       3.374
       3.607
       3.298
       2.600
       1.848
       1.331
       1.112
       1.063
       1.014
       0.877
       0.674
       0.490
       0.399
       0.402
       0.421
       0.350
       0.143
      -0.161
      -0.474
      -0.704
      -0.747
      -0.465
       0.240
       1.276
       2.316
       2.989
       3.156
       2.994
       2.786
       2.625
       2.344
       1.747
       0.884
       0.064
      -0.405
      -0.475
      -0.385
      -0.479
      -0.972
      -1.820
      -2.736
      -3.348
      -3.434
      -3.084
      -2.620
      -2.333
      -2.273
      -2.276
      -2.161
      -1.896
      -1.581
      -1.351
      -1.306
      -1.510
      -1.995
      -2.699
      -3.388
      -3.688
      -3.296
      -2.205
      -0.749
       0.592
       1.465
       1.754
       1.519
       0.887
       0.032
      -0.812
      -1.392
      -1.576
      -1.446
      -1.223
      -1.075
      -0.971
      -0.717
      -0.103
       0.972
       2.451
       4.135
       5.728
       6.944
       7.616
       7.734
       7.381
       6.660
       5.674
       4.580
       3.573
       2.794
       2.195
       1.533
       0.546
      -0.810
      -2.237
      -3.204
      -3.273
      -2.432
      -1.174
      -0.197
       0.078
      -0.204
      -0.496
      -0.307
       0.423
       1.314
       1.842
       1.708
       1.008
       0.131
      -0.533
      -0.844
      -0.950
      -1.144
      -1.662
      -2.576
      -3.768
      -4.936
      -5.682
      -5.678
      -4.843
      -3.373
      -1.610
       0.106
       1.500
       2.417
       2.894
       3.164
       3.477
       3.864
       4.082
       3.831
       3.055
       2.028
       1.169
       0.771
       0.832
       1.094
       1.220
       1.004
       0.478
      -0.161
      -0.730
      -1.180
      -1.539
      -1.809
      -1.979
      -2.106
      -2.303
      -2.591
      -2.813
      -2.771
      -2.428
      -1.914
      -1.343
      -0.686
       0.134
       1.079
       1.967
       2.581
       2.787
       2.576
       2.072
       1.476
       0.919
       0.352
      -0.392
      -1.381
      -2.459
      -3.344
      -3.825
      -3.815
      -3.256
      -2.075
      -0.281
       1.925
       4.172
       6.075
       7.377
       7.992
       7.975
       7.461
       6.575
       5.328
       3.637
       1.460
      -1.066
      -3.642
      -5.925
      -7.577
      -8.242
      -7.639
      -5.800
      -3.250
      -0.821
       0.783
       1.358
       1.216
       0.885
       0.735
       0.785
       0.779
       0.475
      -0.088
      -0.564
      -0.574
      -0.044
       0.682
       1.049
       0.656
      -0.479
      -1.930
      -3.110
      -3.623
      -3.482
      -3.050
      -2.726
      -2.627
      -2.559
      -2.267
      -1.725
      -1.143
      -0.725
      -0.431
      -0.033
       0.569
       1.107
       1.073
       0.166
      -1.322
      -2.605
      -2.950
      -2.256
      -1.138
      -0.428
      -0.519
      -1.113
      -1.545
      -1.353
      -0.593
       0.311
       0.934
       1.084
       0.820
       0.357
      -0.036
      -0.143
       0.090
       0.539
       0.987
       1.256
       1.269
       1.076
       0.871
       0.971
       1.672
       3.023
       4.691
       6.092
       6.720
       6.438
       5.516
       4.438
       3.637
       3.280
       3.151
       2.730
       1.492
      -0.702
      -3.388
      -5.656
      -6.624
      -5.949
      -4.064
      -1.949
      -0.562
      -0.267
      -0.680
      -1.055
      -0.919
      -0.460
      -0.330
      -1.054
      -2.534
      -4.071
      -4.869
      -4.603
      -3.609
      -2.599
      -2.150
      -2.342
      -2.754
      -2.780
      -2.016
      -0.492
       1.391
       3.154
       4.523
       5.497
       6.151
       6.399
       6.012
       4.905
       3.384
       2.048
       1.368
       1.304
       1.301
       0.668
      -0.941
      -3.273
      -5.577
      -6.983
      -6.981
      -5.758
      -4.111
      -2.933
      -2.603
      -2.737
      -2.481
      -1.103
       1.548
       4.935
       8.073
       9.989
      10.196
       8.932
       6.941
       4.934
       3.139
       1.331
      -0.749
      -3.032
      -5.185
      -6.927
      -8.233
      -9.190
      -9.713
      -9.450
      -8.007
      -5.284
      -1.641
       2.215
       5.525
       7.755
       8.741
       8.659
       7.888
       6.852
       5.893
       5.171
       4.617
       4.021
       3.253
       2.450
       1.906
       1.683
       1.375
       0.397
      -1.354
      -3.174
      -3.999
      -3.257
      -1.375
       0.513
       1.342
       0.777
      -0.702
      -2.209
      -3.035
      -2.989
      -2.371
      -1.678
      -1.270
      -1.177
      -1.094
      -0.554
       0.816
       3.025
       5.572
       7.577
       8.206
       7.178
       4.963
       2.491
       0.566
      -0.525
      -0.968
      -1.071
      -1.007
      -0.818
      -0.580
      -0.514
      -0.961
      -2.254
      -4.489
      -7.311
      -9.947
     -11.581
     -11.856
     -11.043
      -9.713
      -8.232
      -6.569
      -4.536
      -2.144
       0.270
       2.189
       3.171
       3.081
       2.248
       1.420
       1.401
       2.502
       4.246
       5.651
       5.901
       4.828
       2.877
       0.729
      -1.047
      -2.106
      -2.284
      -1.522
       0.189
       2.782
       5.963
       9.052
      11.074
      11.193
       9.205
       5.654
       1.459
      -2.577
      -5.973
      -8.482
      -9.980
     -10.510
     -10.290
      -9.499
      -8.031
      -5.603
      -2.229
       1.417
       4.244
       5.493
       5.331
       4.738
       4.765
       5.774
       7.283
       8.450
       8.751
       8.256
       7.347
       6.237
       4.790
       2.775
       0.230
      -2.485
      -4.963
      -6.985
      -8.482
      -9.332
      -9.326
      -8.367
      -6.646
      -4.583
      -2.626
      -1.142
      -0.410
      -0.581
      -1.502
      -2.590
      -3.010
      -2.188
      -0.287
       1.797
       3.014
       2.854
       1.635
       0.183
      -0.802
      -1.192
      -1.408
      -2.003
      -3.247
      -4.975
      -6.730
      -7.996
      -8.378
      -7.693
      -6.008
      -3.633
      -1.005
       1.517
       3.832
       6.077
       8.356
      10.390
      11.440
      10.742
       8.216
       4.838
       2.218
       1.581
       2.898
       4.883
       5.829
       4.708
       1.761
      -1.768
      -4.505
      -5.763
      -5.751
      -5.148
      -4.517
      -4.033
      -3.591
      -3.042
      -2.329
      -1.512
      -0.765
      -0.355
      -0.542
      -1.392
      -2.654
      -3.836
      -4.490
      -4.511
      -4.204
      -4.035
      -4.214
      -4.467
      -4.200
      -2.952
      -0.770
       1.777
       3.952
       5.309
       5.961
       6.468
       7.416
       8.986
      10.856
      12.483
      13.457
      13.623
      12.941
      11.335
       8.727
       5.200
       1.121
      -2.886
      -6.111
      -8.025
      -8.523
      -8.014
      -7.202
      -6.662
      -6.506
      -6.423
      -6.025
      -5.184
      -4.087
      -3.080
      -2.462
      -2.326
      -2.476
      -2.419
      -1.567
       0.406
       3.247
       6.125
       8.061
       8.486
       7.500
       5.647
       3.420
       0.958
      -1.821
      -4.797
      -7.401
      -8.829
      -8.589
      -6.910
      -4.650
      -2.760
      -1.759
      -1.583
      -1.768
      -1.698
      -0.787
       1.290
       4.284
       7.245
       8.875
       8.285
       5.628
       2.105
      -0.719
      -1.789
      -1.086
       0.480
       1.657
       1.624
       0.490
      -0.784
      -1.027
       0.402
       3.315
       6.948
      10.461
      13.267
      14.991
      15.263
      13.658
       9.959
       4.518
      -1.686
      -7.415
     -11.719
     -14.211
     -14.901
     -13.888
     -11.308
      -7.618
      -3.762
      -0.849
       0.493
       0.523
       0.157
       0.296
       1.245
       2.619
       3.668
       3.694
       2.336
      -0.296
      -3.598
      -6.620
      -8.455
      -8.704
      -7.676
      -6.161
      -4.936
      -4.344
      -4.194
      -3.945
      -3.059
      -1.367
       0.704
       2.266
       2.469
       1.061
      -1.402
      -3.833
      -5.212
      -5.109
      -3.844
      -2.180
      -0.731
       0.507
       2.098
       4.572
       7.777
      10.775
      12.417
      12.151
      10.427
       8.378
       7.004
       6.470
       6.059
       4.844
       2.546
      -0.115
      -1.863
      -1.751
       0.214
       3.140
       5.848
       7.489
       7.762
       6.738
       4.600
       1.566
      -2.021
      -5.655
      -8.773
     -10.917
     -11.825
     -11.477
     -10.167
      -8.497
      -7.161
      -6.573
      -6.620
      -6.748
      -6.340
      -5.110
      -3.310
      -1.622
      -0.704
      -0.609
      -0.553
       0.572
       3.184
       6.369
       8.305
       7.520
       3.983
      -0.814
      -4.747
      -6.245
      -5.031
      -2.090
       1.022
       3.070
       3.685
       3.224
       2.162
       0.603
      -1.645
      -4.544
      -7.393
      -8.982
      -8.261
      -5.093
      -0.535
       3.599
       5.699
       5.287
       3.266
       1.268
       0.546
       1.266
       2.649
       3.684
       3.752
       2.815
       1.319
       0.000
      -0.401
       0.483
       2.372
       4.436
       5.728
       5.630
       4.032
       1.258
      -2.063
      -5.122
      -7.119
      -7.543
      -6.371
      -4.066
      -1.426
       0.679
       1.674
       1.664
       1.473
       2.097
       3.843
       5.900
       6.836
       5.679
       2.692
      -0.774
      -3.123
      -3.389
      -1.623
       1.234
       3.842
       5.094
       4.680
       3.244
       1.952
       1.704
       2.518
       3.542
       3.695
       2.447
       0.192
      -2.018
      -3.196
      -3.076
      -2.232
      -1.544
      -1.439
      -1.586
      -1.333
      -0.487
       0.327
       0.083
      -1.778
      -4.736
      -7.382
      -8.279
      -6.884
      -3.878
      -0.694
       1.374
       1.846
       1.101
      -0.092
      -1.093
      -1.624
      -1.714
      -1.528
      -1.238
      -0.949
      -0.657
      -0.254
       0.411
       1.410
       2.605
       3.641
       4.134
       3.938
       3.271
       2.555
       2.081
       1.783
       1.325
       0.457
      -0.707
      -1.745
      -2.323
      -2.499
      -2.622
      -2.896
      -3.060
      -2.516
      -0.795
       2.014
       5.129
       7.342
       7.598
       5.680
       2.536
      -0.115
      -0.799
       0.754
       3.457
       5.598
       5.883
       4.106
       1.145
      -1.588
      -2.963
      -2.792
      -1.887
      -1.398
      -1.907
      -2.997
      -3.655
      -3.099
      -1.288
       1.238
       3.862
       6.178
       7.910
       8.742
       8.338
       6.548
       3.614
       0.198
      -2.817
      -4.716
      -5.329
      -5.121
      -4.860
      -5.084
      -5.782
      -6.536
      -6.928
      -6.805
      -6.185
      -5.047
      -3.384
      -1.488
      -0.044
       0.282
      -0.529
      -1.658
      -2.014
      -1.122
       0.468
       1.606
       1.426
      -0.066
      -2.074
      -3.608
      -4.083
      -3.562
      -2.592
      -1.808
      -1.536
      -1.637
      -1.669
      -1.237
      -0.250
       1.115
       2.631
       4.215
       5.896
       7.593
       8.898
       9.077
       7.404
       3.696
      -1.317
      -6.151
      -9.289
     -10.018
      -8.774
      -6.764
      -5.157
      -4.442
      -4.293
      -3.890
      -2.453
       0.285
       3.853
       7.194
       9.213
       9.419
       8.216
       6.623
       5.616
       5.577
       6.164
       6.607
       6.220
       4.828
       2.862
       1.060
      -0.021
      -0.270
       0.091
       0.835
       1.882
       3.153
       4.356
       5.029
       4.834
       3.819
       2.365
       0.881
      -0.463
      -1.740
      -3.057
      -4.390
      -5.661
      -6.955
      -8.579
     -10.767
     -13.277
     -15.347
     -16.192
     -15.650
     -14.344
     -13.169
     -12.568
     -12.246
     -11.478
      -9.663
      -6.653
      -2.752
       1.474
       5.395
       8.462
      10.297
      10.744
       9.898
       8.116
       5.981
       4.153
       3.168
       3.259
       4.321
       5.979
       7.687
       8.838
       8.943
       7.896
       6.132
       4.471
       3.619
       3.684
       4.084
       3.962
       2.825
       0.946
      -0.778
      -1.411
      -0.583
       1.302
       3.314
       4.487
       4.292
       2.923
       1.221
       0.195
       0.407
       1.652
       3.187
       4.253
       4.437
       3.663
       2.042
      -0.146
      -2.371
      -3.955
      -4.456
      -4.073
      -3.639
      -4.115
      -5.922
      -8.624
     -11.188
     -12.631
     -12.559
     -11.210
      -9.065
      -6.461
      -3.552
      -0.549
       2.152
       4.200
       5.617
       6.806
       8.123
       9.459
      10.302
      10.256
       9.428
       8.265
       7.069
       5.784
       4.274
       2.699
       1.488
       0.926
       0.826
       0.656
       0.014
      -1.032
      -2.057
      -2.662
      -2.725
      -2.309
      -1.456
      -0.222
       1.057
       1.635
       0.713
      -1.877
      -5.282
      -7.995
      -8.791
      -7.497
      -4.958
      -2.324
      -0.349
       0.728
       0.867
       0.011
      -1.744
      -3.873
      -5.494
      -5.852
      -4.820
      -2.976
      -1.220
      -0.283
      -0.471
      -1.686
      -3.523
      -5.319
      -6.224
      -5.485
      -2.892
       0.895
       4.513
       6.595
       6.545
       4.782
       2.289
      -0.070
      -1.856
      -2.866
      -2.865
      -1.626
       0.772
       3.742
       6.327
       7.657
       7.460
       6.308
       5.361
       5.688
       7.530
      10.056
      11.798
      11.532
       8.979
       4.929
       0.793
      -2.082
      -3.025
      -2.344
      -1.115
      -0.484
      -0.893
      -1.893
      -2.744
      -3.229
      -3.892
      -5.454
      -8.007
     -10.716
     -12.292
     -11.871
      -9.676
      -7.004
      -5.454
      -5.837
      -7.528
      -8.814
      -8.078
      -4.949
      -0.550
       3.252
       4.967
       4.188
       1.604
      -1.499
      -3.896
      -4.906
      -4.570
      -3.523
      -2.647
      -2.622
      -3.498
      -4.532
      -4.508
      -2.529
       1.200
       5.253
       7.786
       7.774
       5.712
       3.239
       1.981
       2.514
       4.119
       5.381
       5.122
       3.107
       0.153
      -2.361
      -3.253
      -2.103
       0.715
       4.429
       8.275
      11.606
      13.780
      14.206
      12.704
       9.859
       6.918
       5.117
       4.934
       5.871
       6.921
       7.286
       6.780
       5.690
       4.399
       3.171
       2.202
       1.689
       1.695
       1.926
       1.714
       0.355
      -2.388
      -5.991
      -9.400
     -11.669
     -12.547
     -12.510
     -12.228
     -11.948
     -11.366
     -10.015
      -7.756
      -4.982
      -2.480
      -1.053
      -1.040
      -1.973
      -2.732
      -2.290
      -0.553
       1.465
       2.384
       1.517
      -0.624
      -2.729
      -3.563
      -2.641
      -0.382
       2.211
       4.110
       4.772
       4.316
       3.270
       2.146
       1.198
       0.524
       0.254
       0.527
       1.260
       2.035
       2.300
       1.771
       0.655
      -0.488
      -1.144
      -1.182
      -0.874
      -0.651
      -0.802
      -1.357
      -2.112
      -2.729
      -2.842
      -2.223
      -0.963
       0.528
       1.753
       2.428
       2.589
       2.438
       2.119
       1.657
       1.033
       0.245
      -0.667
      -1.570
      -2.179
      -2.137
      -1.265
       0.196
       1.625
       2.378
       2.229
       1.532
       0.934
       0.893
       1.362
       1.877
       1.937
       1.370
       0.440
      -0.356
      -0.622
      -0.271
       0.487
       1.284
       1.717
       1.478
       0.575
      -0.483
      -0.848
       0.078
       2.072
       4.111
       5.089
       4.606
       3.164
       1.677
       0.827
       0.755
       1.137
       1.463
       1.354
       0.785
       0.070
      -0.440
      -0.687
      -0.918
      -1.411
      -2.243
      -3.350
      -4.696
      -6.272
      -7.851
      -8.845
      -8.566
      -6.822
      -4.282
      -2.191
      -1.533
      -2.314
      -3.584
      -4.169
      -3.516
      -1.984
      -0.458
       0.316
       0.138
      -0.678
      -1.587
      -2.069
      -1.770
      -0.586
       1.219
       2.993
       3.927
       3.506
       1.881
      -0.134
      -1.487
      -1.486
      -0.256
       1.247
       1.758
       0.535
      -2.046
      -4.625
      -5.737
      -4.805
      -2.480
      -0.073
       1.407
       1.815
       1.693
       1.664
       1.975
       2.493
       2.976
       3.289
       3.414
       3.358
       3.159
       2.986
       3.148
       3.876
       5.062
       6.255
       6.970
       7.036
       6.669
       6.256
       6.059
       6.040
       5.847
       4.997
       3.218
       0.808
      -1.355
      -2.385
      -2.189
      -1.711
      -2.195
      -4.007
      -6.145
      -6.961
      -5.490
      -2.208
       1.348
       3.635
       3.943
       2.572
       0.494
      -1.152
      -1.564
      -0.654
       0.879
       1.893
       1.427
      -0.747
      -3.932
      -6.815
      -8.187
      -7.685
      -6.003
      -4.351
      -3.524
      -3.389
      -3.202
      -2.372
      -0.951
       0.511
       1.423
       1.478
       0.698
      -0.672
      -2.255
