Origin Time       30/8/2009 19:27:44	
Lat.              25.4 N	
Long.             94.8 E	
Depth (Km)         85.0
Magnitude         5.3
 Region           MYANMAR-India-Manipuir-Border                                    
 Above details taken from IMD 
   
Station Code      BOK
Station Lat.       25.976
Station Long.      91.230
Station Height(m)   68.0
Site Class        C   Vs30 between 200 m/sec to 375 m/sec *  
Record Time       30.08.2009 19:29:03.074
Sampling Rate     200. Hz
 Record Duration   67.190 Sec.
 Direction         Vert. (Up positive)
Max. Acceleration      4.950 cm/sec**2
     
  * For reference see Site Classification link of website 
     
 Base Line Corrected and Low Pass Filtered (Cut Off at 35 Hz) Time History
 Acceleration data in cm/sec**2
    
[...]
      -0.095
       0.045
       0.068
      -0.060
      -0.200
      -0.172
       0.048
       0.287
       0.332
       0.125
      -0.199
      -0.425
      -0.402
      -0.127
       0.244
       0.459
       0.339
      -0.064
      -0.475
      -0.600
      -0.367
       0.009
       0.232
       0.191
       0.020
      -0.087
      -0.083
      -0.063
      -0.095
      -0.116
      -0.008
       0.225
       0.407
       0.352
       0.068
      -0.221
      -0.299
      -0.173
      -0.035
      -0.014
      -0.039
       0.046
       0.261
       0.425
       0.348
       0.062
      -0.173
      -0.117
       0.186
       0.435
       0.366
       0.015
      -0.304
      -0.316
      -0.069
       0.117
       0.014
      -0.249
      -0.339
      -0.127
       0.150
       0.182
      -0.029
      -0.173
      -0.026
       0.266
       0.381
       0.220
       0.005
      -0.026
       0.075
       0.066
      -0.146
      -0.385
      -0.413
      -0.197
       0.081
       0.227
       0.203
       0.108
       0.074
       0.154
       0.287
       0.320
       0.151
      -0.124
      -0.241
      -0.031
       0.334
       0.450
       0.095
      -0.494
      -0.844
      -0.730
      -0.381
      -0.172
      -0.205
      -0.287
      -0.233
      -0.097
      -0.043
      -0.096
      -0.112
       0.007
       0.183
       0.262
       0.198
       0.085
       0.038
       0.106
       0.254
       0.382
       0.360
       0.121
      -0.223
      -0.409
      -0.259
       0.088
       0.274
       0.108
      -0.192
      -0.222
       0.141
       0.568
       0.637
       0.284
      -0.146
      -0.295
      -0.132
       0.109
       0.244
       0.291
       0.324
       0.308
       0.177
       0.014
       0.009
       0.195
       0.334
       0.182
      -0.183
      -0.403
      -0.258
       0.057
       0.142
      -0.151
      -0.552
      -0.682
      -0.472
      -0.210
      -0.178
      -0.348
      -0.487
      -0.464
      -0.339
      -0.188
       0.014
       0.278
       0.463
       0.394
       0.110
      -0.103
       0.000
       0.327
       0.540
       0.438
       0.176
       0.035
       0.062
       0.057
      -0.093
      -0.240
      -0.200
      -0.043
      -0.008
      -0.166
      -0.295
      -0.168
       0.114
       0.226
       0.049
      -0.154
      -0.081
       0.191
       0.291
       0.048
      -0.255
      -0.223
       0.148
       0.453
       0.367
       0.005
      -0.277
      -0.298
      -0.177
      -0.084
      -0.022
       0.095
       0.244
       0.293
       0.200
       0.083
       0.065
       0.134
       0.183
       0.122
      -0.082
      -0.387
      -0.643
      -0.646
      -0.328
       0.095
       0.278
       0.088
      -0.244
      -0.373
      -0.218
      -0.010
       0.024
      -0.074
      -0.091
       0.078
       0.325
       0.465
       0.390
       0.125
      -0.192
      -0.353
      -0.229
       0.085
       0.319
       0.295
       0.122
       0.056
       0.180
       0.317
       0.261
       0.044
      -0.103
      -0.018
       0.228
       0.431
       0.431
       0.193
      -0.170
      -0.414
      -0.325
       0.026
       0.254
       0.035
      -0.486
      -0.789
      -0.559
      -0.082
       0.088
      -0.199
      -0.532
      -0.501
      -0.217
      -0.087
      -0.230
      -0.330
      -0.107
       0.287
       0.484
       0.370
       0.165
       0.074
       0.056
      -0.009
      -0.101
      -0.135
      -0.143
      -0.203
      -0.213
       0.052
       0.579
       0.992
       0.943
       0.550
       0.279
       0.404
       0.716
       0.827
       0.620
       0.277
      -0.034
      -0.317
      -0.570
      -0.665
      -0.506
      -0.205
       0.024
       0.117
       0.162
       0.218
       0.236
       0.216
       0.275
       0.466
       0.609
       0.476
       0.139
      -0.048
       0.083
       0.225
      -0.048
      -0.688
      -1.162
      -1.081
      -0.682
      -0.504
      -0.715
      -0.941
      -0.795
      -0.375
      -0.098
      -0.143
      -0.269
      -0.203
      -0.016
       0.020
      -0.166
      -0.351
      -0.304
      -0.039
       0.286
       0.571
       0.764
       0.740
       0.390
      -0.126
      -0.385
      -0.115
       0.457
       0.785
       0.561
       0.010
      -0.389
      -0.375
      -0.026
       0.440
       0.818
       0.927
       0.677
       0.229
      -0.030
       0.146
       0.526
       0.593
       0.128
      -0.498
      -0.734
      -0.480
      -0.152
      -0.131
      -0.301
      -0.246
       0.183
       0.632
       0.640
       0.150
      -0.428
      -0.631
      -0.351
       0.126
       0.404
       0.277
      -0.163
      -0.660
      -1.012
      -1.210
      -1.362
      -1.504
      -1.519
      -1.262
      -0.770
      -0.261
       0.093
       0.326
       0.569
       0.817
       0.926
       0.818
       0.607
       0.465
       0.441
       0.463
       0.464
       0.406
       0.221
      -0.151
      -0.630
      -0.957
      -0.905
      -0.516
      -0.068
       0.214
       0.345
       0.449
       0.545
       0.556
       0.470
       0.341
       0.157
      -0.152
      -0.500
      -0.606
      -0.302
       0.186
       0.413
       0.216
      -0.095
      -0.110
       0.195
       0.479
       0.469
       0.237
       0.054
       0.092
       0.329
       0.639
       0.847
       0.734
       0.183
      -0.606
      -1.163
      -1.140
      -0.671
      -0.238
      -0.189
      -0.429
      -0.593
      -0.430
      -0.005
       0.415
       0.611
       0.590
       0.591
       0.886
       1.501
       2.119
       2.348
       2.125
       1.797
       1.717
       1.816
       1.657
       0.942
      -0.100
      -0.919
      -1.207
      -1.158
      -1.178
      -1.433
      -1.753
      -1.869
      -1.664
      -1.218
      -0.713
      -0.335
      -0.215
      -0.358
      -0.605
      -0.733
      -0.629
      -0.378
      -0.170
      -0.137
      -0.301
      -0.591
      -0.859
      -0.935
      -0.737
      -0.365
      -0.010
       0.235
       0.462
       0.793
       1.188
       1.463
       1.494
       1.299
       0.898
       0.221
      -0.705
      -1.556
      -1.898
      -1.644
      -1.200
      -1.030
      -1.110
      -0.955
      -0.237
       0.741
       1.343
       1.334
       1.124
       1.232
       1.674
       2.034
       2.039
       1.848
       1.737
       1.687
       1.463
       1.034
       0.706
       0.760
       1.030
       1.000
       0.365
      -0.599
      -1.275
      -1.290
      -0.831
      -0.443
      -0.558
      -1.158
      -1.774
      -1.831
      -1.120
      -0.032
       0.733
       0.747
       0.195
      -0.359
      -0.502
      -0.262
       0.054
       0.174
      -0.008
      -0.479
      -1.127
      -1.708
      -1.932
      -1.707
      -1.306
      -1.162
      -1.455
      -1.928
      -2.138
      -1.867
      -1.284
      -0.754
      -0.548
      -0.657
      -0.820
      -0.752
      -0.400
       0.002
       0.178
       0.121
       0.111
       0.400
       0.932
       1.437
       1.740
       1.892
       1.963
       1.834
       1.335
       0.579
      -0.020
      -0.127
       0.165
       0.467
       0.507
       0.321
       0.089
      -0.077
      -0.131
      -0.005
       0.336
       0.714
       0.765
       0.317
      -0.318
      -0.559
      -0.120
       0.681
       1.220
       1.161
       0.766
       0.578
       0.857
       1.339
       1.558
       1.345
       0.999
       0.941
       1.248
       1.540
       1.359
       0.632
      -0.271
      -0.952
      -1.378
      -1.805
      -2.359
      -2.814
      -2.853
      -2.503
      -2.175
      -2.211
      -2.458
      -2.403
      -1.735
      -0.702
       0.123
       0.390
       0.254
       0.122
       0.203
       0.350
       0.301
       0.017
      -0.246
      -0.166
       0.365
       1.129
       1.701
       1.742
       1.257
       0.605
       0.211
       0.250
       0.525
       0.621
       0.239
      -0.542
      -1.299
      -1.548
      -1.075
      -0.089
       0.945
       1.647
       1.890
       1.729
       1.258
       0.601
      -0.018
      -0.320
      -0.167
       0.266
       0.617
       0.646
       0.430
       0.248
       0.328
       0.705
       1.220
       1.595
       1.595
       1.216
       0.727
       0.412
       0.218
      -0.242
      -1.202
      -2.295
      -2.799
      -2.410
      -1.657
      -1.365
      -1.745
      -2.213
      -2.099
      -1.363
      -0.497
       0.104
       0.483
       0.845
       1.185
       1.359
       1.405
       1.536
       1.793
       1.915
       1.634
       1.019
       0.389
      -0.044
      -0.300
      -0.418
      -0.321
      -0.003
       0.271
       0.153
      -0.394
      -1.034
      -1.406
      -1.436
      -1.256
      -0.940
      -0.502
      -0.095
       0.022
      -0.163
      -0.266
       0.092
       0.737
       1.017
       0.508
      -0.452
      -1.067
      -0.873
      -0.153
       0.405
       0.365
      -0.152
      -0.664
      -0.740
      -0.330
       0.173
       0.238
      -0.290
      -0.929
      -0.939
      -0.110
       0.925
       1.290
       0.791
       0.080
      -0.101
       0.337
       0.938
       1.353
       1.608
       1.757
       1.603
       0.986
       0.183
      -0.253
      -0.121
       0.201
       0.243
      -0.005
      -0.186
      -0.114
       0.017
      -0.030
      -0.192
      -0.217
       0.000
       0.362
       0.746
       1.050
       1.077
       0.644
      -0.079
      -0.525
      -0.250
       0.508
       1.010
       0.811
       0.215
      -0.195
      -0.289
      -0.443
      -0.932
      -1.529
      -1.800
      -1.616
      -1.214
      -0.864
      -0.631
      -0.503
      -0.531
      -0.710
      -0.838
      -0.691
      -0.317
       0.023
       0.191
       0.302
       0.469
       0.578
       0.445
       0.152
       0.034
       0.272
       0.629
       0.709
       0.398
      -0.075
      -0.465
      -0.716
      -0.818
      -0.662
      -0.218
       0.214
       0.151
      -0.558
      -1.469
      -1.910
      -1.616
      -0.929
      -0.378
      -0.150
      -0.039
       0.158
       0.362
       0.376
       0.220
       0.209
       0.642
       1.428
       2.021
       1.795
       0.619
      -0.862
      -1.656
      -1.326
      -0.452
      -0.055
      -0.512
      -1.181
      -1.184
      -0.434
       0.321
       0.448
       0.152
       0.110
       0.595
       1.241
       1.630
       1.774
       1.892
       1.940
       1.684
       1.183
       0.908
       1.199
       1.780
       2.046
       1.766
       1.261
       0.919
       0.753
       0.529
       0.108
      -0.493
      -1.220
      -1.933
      -2.308
      -2.067
      -1.401
      -0.941
      -1.085
      -1.463
      -1.341
      -0.564
       0.205
       0.331
      -0.002
      -0.143
       0.020
      -0.148
      -1.101
      -2.338
      -2.876
      -2.351
      -1.356
      -0.684
      -0.549
      -0.651
      -0.731
      -0.754
      -0.648
      -0.233
       0.446
       0.976
       1.031
       0.825
       0.882
       1.311
       1.556
       0.989
      -0.343
      -1.722
      -2.399
      -2.122
      -1.177
      -0.187
       0.182
      -0.334
      -1.232
      -1.502
      -0.591
       0.897
       1.708
       1.298
       0.494
       0.560
       1.727
       2.929
       3.034
       2.045
       0.947
       0.612
       1.127
       2.016
       2.726
       2.793
       1.934
       0.362
      -1.098
      -1.584
      -1.040
      -0.291
      -0.133
      -0.487
      -0.656
      -0.245
       0.455
       0.974
       1.182
       1.143
       0.763
      -0.027
      -0.840
      -1.008
      -0.412
       0.161
      -0.165
      -1.310
      -2.304
      -2.421
      -1.936
      -1.617
      -1.728
      -1.837
      -1.551
      -1.089
      -0.930
      -1.124
      -1.250
      -1.031
      -0.683
      -0.549
      -0.634
      -0.682
      -0.589
      -0.506
      -0.573
      -0.717
      -0.767
      -0.619
      -0.234
       0.442
       1.401
       2.433
       3.177
       3.394
       3.150
       2.681
       2.145
       1.592
       1.110
       0.833
       0.756
       0.705
       0.590
       0.616
       1.069
       1.863
       2.457
       2.324
       1.485
       0.523
       0.080
       0.347
       0.972
       1.366
       1.159
       0.493
      -0.071
      -0.021
       0.571
       1.006
       0.594
      -0.603
      -1.759
      -2.109
      -1.749
      -1.488
      -1.943
      -2.883
      -3.586
      -3.698
      -3.502
      -3.328
      -3.006
      -2.222
      -1.244
      -0.873
      -1.459
      -2.242
      -2.033
      -0.575
       1.027
       1.404
       0.326
      -1.141
      -1.759
      -1.211
      -0.129
       0.660
       0.769
       0.338
      -0.201
      -0.401
      -0.100
       0.393
       0.518
       0.057
      -0.535
      -0.543
       0.281
       1.490
       2.438
       2.850
       2.867
       2.704
       2.486
       2.368
       2.520
       2.876
       3.092
       2.998
       2.956
       3.486
       4.459
       4.950
       4.158
       2.398
       0.875
       0.435
       0.758
       0.945
       0.638
       0.196
      -0.112
      -0.582
      -1.498
      -2.490
      -2.944
      -2.925
      -3.169
      -4.006
      -4.768
      -4.639
      -3.814
      -3.319
      -3.674
      -4.205
      -3.972
      -3.017
      -2.229
      -2.091
      -2.125
      -1.718
      -0.982
      -0.430
      -0.151
       0.167
       0.496
       0.322
      -0.533
      -1.380
      -1.397
      -0.717
      -0.298
      -0.608
      -0.902
      -0.191
       1.323
       2.325
       1.986
       0.989
       0.669
       1.438
       2.482
       2.884
       2.598
       2.215
       2.131
       2.280
       2.536
       2.917
       3.262
       3.059
       1.960
       0.426
      -0.484
      -0.107
       1.176
       2.371
       2.832
       2.617
       2.058
       1.334
       0.553
       0.023
       0.081
       0.615
       0.970
       0.559
      -0.458
      -1.304
      -1.425
      -1.097
      -1.087
      -1.800
      -2.866
      -3.571
      -3.565
      -3.061
      -2.437
      -1.856
      -1.333
      -0.968
      -0.888
      -1.011
      -1.039
      -0.775
      -0.360
      -0.103
      -0.130
      -0.297
      -0.444
      -0.660
      -1.184
      -2.050
      -2.898
      -3.215
      -2.751
      -1.712
      -0.613
       0.012
      -0.095
      -0.710
      -1.196
      -0.929
       0.163
       1.485
       2.283
       2.305
       1.940
       1.753
       1.924
       2.185
       2.258
       2.249
       2.502
       3.140
       3.853
       4.113
       3.568
       2.310
       0.899
       0.055
       0.149
       0.860
       1.388
       1.126
       0.198
      -0.678
      -0.895
      -0.530
      -0.207
      -0.458
      -1.232
      -2.011
      -2.305
      -2.034
      -1.517
      -1.154
      -1.142
      -1.438
      -1.904
      -2.386
      -2.697
      -2.656
      -2.206
      -1.497
      -0.816
      -0.389
      -0.221
      -0.148
      -0.078
      -0.140
      -0.533
      -1.184
      -1.627
      -1.359
      -0.388
       0.640
       0.986
       0.545
      -0.043
      -0.048
       0.551
       1.057
       0.900
       0.367
       0.259
       0.882
       1.632
       1.715
       1.091
       0.511
       0.671
       1.508
       2.362
       2.719
       2.626
       2.426
       2.269
       2.017
       1.518
       0.843
       0.248
      -0.008
       0.141
       0.468
       0.583
       0.238
      -0.459
      -1.152
      -1.539
      -1.537
      -1.198
      -0.608
       0.069
       0.546
       0.572
       0.152
      -0.447
      -0.955
      -1.300
      -1.548
      -1.749
      -1.948
      -2.202
      -2.440
      -2.407
      -1.969
      -1.467
      -1.474
      -2.058
      -2.468
      -1.852
      -0.290
       1.137
       1.483
       0.948
       0.572
       1.025
       1.933
       2.449
       2.235
       1.696
       1.422
       1.639
       2.204
       2.836
       3.187
       2.908
       1.962
       0.822
       0.119
       0.018
       0.114
       0.046
      -0.011
       0.358
       1.099
       1.585
       1.311
       0.464
      -0.371
      -0.882
      -1.145
      -1.186
      -0.842
      -0.142
       0.492
       0.661
       0.473
       0.337
       0.349
       0.166
      -0.406
      -1.017
      -1.255
      -1.300
      -1.688
      -2.425
      -2.826
      -2.440
      -1.799
      -1.835
      -2.653
      -3.315
      -3.008
      -2.061
      -1.491
      -1.724
      -2.158
      -2.012
      -1.247
      -0.438
       0.003
       0.168
       0.342
       0.670
       1.148
       1.697
       2.123
       2.188
       1.884
       1.572
       1.641
       1.988
       2.064
       1.576
       0.953
       0.896
       1.510
       2.125
       2.020
       1.161
       0.157
      -0.388
      -0.346
       0.051
       0.541
       0.892
       0.842
       0.290
      -0.435
      -0.767
      -0.497
      -0.038
       0.044
      -0.291
      -0.529
      -0.251
       0.351
       0.699
       0.504
       0.074
      -0.063
       0.298
       0.906
       1.374
       1.512
       1.343
       0.942
       0.397
      -0.145
      -0.525
      -0.731
      -0.880
      -0.967
      -0.807
      -0.393
      -0.189
      -0.767
      -2.037
      -3.079
      -3.001
      -1.967
      -1.100
      -1.238
      -2.023
      -2.457
      -2.172
      -1.756
      -1.830
      -2.175
      -2.045
      -1.164
      -0.088
       0.448
       0.269
      -0.240
      -0.625
      -0.641
      -0.183
       0.688
       1.586
       1.943
       1.544
       0.879
       0.737
       1.369
       2.188
       2.383
       1.779
       0.970
       0.654
       0.982
       1.590
       2.026
       2.044
       1.640
       1.059
       0.698
       0.801
       1.152
       1.207
       0.673
      -0.029
      -0.065
       0.878
       2.084
       2.426
       1.539
       0.235
      -0.321
       0.224
       1.104
       1.234
       0.245
      -1.229
      -2.190
      -2.182
      -1.638
      -1.400
      -1.872
      -2.636
      -2.898
      -2.322
      -1.417
      -0.998
      -1.313
      -1.854
      -2.025
      -1.768
      -1.450
      -1.333
      -1.356
      -1.354
      -1.277
      -1.128
      -0.859
      -0.496
      -0.285
      -0.485
      -0.968
      -1.212
      -0.877
      -0.243
       0.135
       0.188
       0.463
       1.384
       2.591
       3.262
       3.004
       2.204
       1.507
       1.175
       1.072
       1.105
       1.371
       1.862
       2.267
       2.255
       1.827
       1.257
       0.749
       0.346
       0.116
       0.208
