Origin Time       30/8/2009 19:27:44	
Lat.              25.4 N	
Long.             94.8 E	
Depth (Km)         85.0
Magnitude         5.3
 Region           MYANMAR-India-Manipuir-Border                                    
 Above details taken from IMD 
     
Station Code      BOK
Station Lat.       25.976  N
Station Long.      91.230  E
Station Height(m)   68.0
Site Class        C   Vs30 between 200 m/sec to 375 m/sec *  
Record Time       30.08.2009 19:29:03.074
Sampling Rate     200. Hz
 Record Duration   67.190 Sec.
 Direction         E-W (E positive)
Max. Acceleration     -7.455 cm/sec**2
     
  * For reference see Site Classification link of website 
     
 Base Line Corrected and Low Pass Filtered (Cut Off at 35 Hz) Time History
 Acceleration data in cm/sec**2
    
[...]
      -0.209
      -0.147
      -0.127
      -0.126
      -0.112
      -0.086
      -0.074
      -0.090
      -0.112
      -0.091
      -0.002
       0.125
       0.214
       0.208
       0.114
       0.003
      -0.055
      -0.038
       0.025
       0.092
       0.145
       0.192
       0.246
       0.309
       0.366
       0.403
       0.404
       0.362
       0.264
       0.102
      -0.113
      -0.330
      -0.476
      -0.503
      -0.432
      -0.331
      -0.247
      -0.167
      -0.055
       0.076
       0.155
       0.118
      -0.014
      -0.141
      -0.166
      -0.075
       0.060
       0.147
       0.145
       0.083
       0.017
      -0.024
      -0.042
      -0.042
      -0.010
       0.062
       0.151
       0.205
       0.185
       0.102
      -0.003
      -0.098
      -0.187
      -0.289
      -0.392
      -0.444
      -0.388
      -0.214
       0.019
       0.211
       0.281
       0.211
       0.057
      -0.085
      -0.137
      -0.071
       0.082
       0.266
       0.419
       0.484
       0.420
       0.240
       0.024
      -0.111
      -0.094
       0.043
       0.187
       0.229
       0.132
      -0.054
      -0.234
      -0.319
      -0.276
      -0.136
       0.023
       0.120
       0.120
       0.050
      -0.014
      -0.007
       0.090
       0.235
       0.368
       0.450
       0.469
       0.426
       0.316
       0.144
      -0.055
      -0.218
      -0.288
      -0.253
      -0.163
      -0.099
      -0.127
      -0.263
      -0.452
      -0.586
      -0.564
      -0.360
      -0.056
       0.189
       0.239
       0.071
      -0.205
      -0.418
      -0.448
      -0.296
      -0.071
       0.092
       0.125
       0.060
      -0.012
      -0.011
       0.076
       0.198
       0.287
       0.313
       0.292
       0.259
       0.232
       0.206
       0.172
       0.131
       0.101
       0.104
       0.147
       0.198
       0.196
       0.099
      -0.073
      -0.237
      -0.315
      -0.290
      -0.215
      -0.147
      -0.115
      -0.119
      -0.155
      -0.212
      -0.259
      -0.259
      -0.205
      -0.144
      -0.141
      -0.220
      -0.322
      -0.344
      -0.207
       0.072
       0.388
       0.609
       0.648
       0.517
       0.307
       0.133
       0.061
       0.082
       0.133
       0.154
       0.129
       0.075
       0.011
      -0.069
      -0.170
      -0.266
      -0.308
      -0.255
      -0.121
       0.023
       0.094
       0.055
      -0.061
      -0.174
      -0.217
      -0.173
      -0.074
       0.017
       0.045
      -0.009
      -0.116
      -0.203
      -0.188
      -0.045
       0.171
       0.333
       0.319
       0.100
      -0.225
      -0.490
      -0.567
      -0.457
      -0.269
      -0.126
      -0.070
      -0.056
      -0.016
       0.064
       0.137
       0.137
       0.039
      -0.112
      -0.223
      -0.206
      -0.049
       0.157
       0.273
       0.214
       0.023
      -0.165
      -0.239
      -0.191
      -0.104
      -0.058
      -0.065
      -0.083
      -0.080
      -0.071
      -0.097
      -0.173
      -0.250
      -0.245
      -0.116
       0.092
       0.265
       0.306
       0.218
       0.097
       0.052
       0.114
       0.225
       0.304
       0.318
       0.299
       0.304
       0.360
       0.449
       0.522
       0.527
       0.433
       0.255
       0.054
      -0.082
      -0.102
      -0.033
       0.022
      -0.033
      -0.207
      -0.409
      -0.516
      -0.464
      -0.287
      -0.083
       0.062
       0.120
       0.130
       0.148
       0.192
       0.221
       0.174
       0.030
      -0.164
      -0.325
      -0.401
      -0.391
      -0.324
      -0.237
      -0.172
      -0.170
      -0.239
      -0.329
      -0.352
      -0.241
      -0.017
       0.218
       0.351
       0.334
       0.211
       0.077
       0.012
       0.035
       0.106
       0.157
       0.149
       0.105
       0.093
       0.163
       0.282
       0.357
       0.317
       0.181
       0.038
      -0.039
      -0.053
      -0.060
      -0.103
      -0.165
      -0.188
      -0.125
       0.012
       0.150
       0.197
       0.102
      -0.099
      -0.301
      -0.400
      -0.366
      -0.256
      -0.155
      -0.110
      -0.118
      -0.152
      -0.190
      -0.211
      -0.198
      -0.133
      -0.002
       0.199
       0.447
       0.672
       0.774
       0.688
       0.452
       0.195
       0.054
       0.079
       0.210
       0.335
       0.359
       0.251
       0.045
      -0.181
      -0.345
      -0.403
      -0.365
      -0.277
      -0.178
      -0.096
      -0.059
      -0.100
      -0.225
      -0.379
      -0.472
      -0.437
      -0.286
      -0.088
       0.081
       0.186
       0.238
       0.273
       0.313
       0.347
       0.351
       0.327
       0.317
       0.367
       0.454
       0.481
       0.350
       0.055
      -0.293
      -0.549
      -0.640
      -0.597
      -0.511
      -0.445
      -0.403
      -0.353
      -0.276
      -0.187
      -0.114
      -0.076
      -0.068
      -0.065
      -0.047
      -0.014
       0.012
       0.007
      -0.037
      -0.100
      -0.142
      -0.127
      -0.054
       0.040
       0.114
       0.151
       0.170
       0.184
       0.168
       0.084
      -0.054
      -0.160
      -0.142
       0.008
       0.194
       0.304
       0.298
       0.227
       0.162
       0.133
       0.117
       0.088
       0.050
       0.027
       0.035
       0.069
       0.114
       0.161
       0.210
       0.258
       0.281
       0.253
       0.169
       0.065
      -0.006
      -0.018
       0.005
       0.007
      -0.041
      -0.125
      -0.214
      -0.288
      -0.334
      -0.328
      -0.256
      -0.141
      -0.049
      -0.034
      -0.091
      -0.164
      -0.203
      -0.211
      -0.224
      -0.256
      -0.277
      -0.248
      -0.171
      -0.097
      -0.076
      -0.103
      -0.116
      -0.054
       0.079
       0.203
       0.222
       0.101
      -0.086
      -0.210
      -0.173
       0.009
       0.216
       0.308
       0.226
       0.024
      -0.178
      -0.276
      -0.238
      -0.108
       0.018
       0.055
      -0.016
      -0.125
      -0.154
      -0.037
       0.178
       0.355
       0.380
       0.249
       0.070
      -0.029
       0.003
       0.116
       0.223
       0.272
       0.278
       0.288
       0.318
       0.340
       0.304
       0.189
       0.033
      -0.090
      -0.126
      -0.092
      -0.061
      -0.109
      -0.255
      -0.451
      -0.619
      -0.689
      -0.627
      -0.438
      -0.169
       0.097
       0.264
       0.265
       0.110
      -0.112
      -0.277
      -0.296
      -0.143
       0.134
       0.436
       0.645
       0.674
       0.524
       0.288
       0.088
      -0.001
       0.014
       0.066
       0.085
       0.031
      -0.093
      -0.245
      -0.363
      -0.393
      -0.321
      -0.200
      -0.115
      -0.124
      -0.202
      -0.257
      -0.205
      -0.052
       0.105
       0.159
       0.086
      -0.044
      -0.122
      -0.089
       0.035
       0.179
       0.278
       0.315
       0.314
       0.309
       0.307
       0.281
       0.192
       0.035
      -0.137
      -0.229
      -0.166
       0.031
       0.249
       0.354
       0.279
       0.060
      -0.200
      -0.386
      -0.429
      -0.329
      -0.156
      -0.014
       0.027
      -0.036
      -0.151
      -0.268
      -0.369
      -0.450
      -0.486
      -0.441
      -0.297
      -0.066
       0.217
       0.493
       0.688
       0.736
       0.633
       0.442
       0.244
       0.069
      -0.108
      -0.315
      -0.528
      -0.684
      -0.739
      -0.700
      -0.603
      -0.463
      -0.254
       0.057
       0.448
       0.824
       1.071
       1.132
       1.061
       0.962
       0.896
       0.834
       0.710
       0.507
       0.283
       0.105
      -0.022
      -0.149
      -0.315
      -0.490
      -0.603
      -0.612
      -0.556
      -0.535
      -0.641
      -0.884
      -1.151
      -1.252
      -1.047
      -0.558
       0.043
       0.561
       0.891
       1.036
       1.029
       0.888
       0.648
       0.398
       0.238
       0.190
       0.171
       0.087
      -0.068
      -0.212
      -0.271
      -0.254
      -0.234
      -0.281
      -0.404
      -0.546
      -0.610
      -0.517
      -0.268
       0.021
       0.190
       0.151
      -0.046
      -0.271
      -0.426
      -0.502
      -0.542
      -0.570
      -0.564
      -0.483
      -0.299
      -0.015
       0.328
       0.669
       0.948
       1.145
       1.275
       1.340
       1.292
       1.055
       0.607
       0.029
      -0.533
      -0.955
      -1.186
      -1.248
      -1.199
      -1.111
      -1.035
      -0.979
      -0.893
      -0.716
      -0.432
      -0.099
       0.199
       0.408
       0.516
       0.526
       0.446
       0.306
       0.189
       0.192
       0.363
       0.635
       0.860
       0.913
       0.780
       0.563
       0.387
       0.306
       0.279
       0.230
       0.122
      -0.006
      -0.074
      -0.026
       0.105
       0.216
       0.211
       0.083
      -0.090
      -0.227
      -0.324
      -0.435
      -0.601
      -0.792
      -0.922
      -0.911
      -0.719
      -0.370
       0.049
       0.423
       0.673
       0.817
       0.955
       1.186
       1.534
       1.933
       2.266
       2.417
       2.310
       1.919
       1.290
       0.512
      -0.319
      -1.146
      -1.945
      -2.686
      -3.292
      -3.662
      -3.734
      -3.532
      -3.146
      -2.673
      -2.171
      -1.647
      -1.088
      -0.490
       0.112
       0.648
       1.045
       1.265
       1.330
       1.315
       1.319
       1.424
       1.638
       1.876
       1.978
       1.793
       1.286
       0.567
      -0.165
      -0.731
      -1.055
      -1.165
      -1.142
      -1.059
      -0.944
      -0.774
      -0.505
      -0.112
       0.365
       0.816
       1.135
       1.303
       1.403
       1.539
       1.738
       1.919
       1.954
       1.746
       1.273
       0.606
      -0.109
      -0.709
      -1.083
      -1.230
      -1.223
      -1.136
      -0.991
      -0.767
      -0.448
      -0.057
       0.341
       0.645
       0.742
       0.545
       0.049
      -0.644
      -1.344
      -1.827
      -1.896
      -1.468
      -0.648
       0.282
       0.992
       1.279
       1.175
       0.907
       0.748
       0.877
       1.301
       1.850
       2.241
       2.200
       1.621
       0.641
      -0.419
      -1.233
      -1.632
      -1.663
      -1.509
      -1.367
      -1.354
      -1.468
      -1.625
      -1.739
      -1.797
      -1.883
      -2.103
      -2.467
      -2.844
      -3.032
      -2.880
      -2.377
      -1.643
      -0.864
      -0.208
       0.217
       0.393
       0.394
       0.365
       0.479
       0.869
       1.555
       2.394
       3.120
       3.472
       3.339
       2.825
       2.174
       1.631
       1.336
       1.287
       1.373
       1.426
       1.295
       0.915
       0.349
      -0.252
      -0.748
      -1.082
      -1.255
      -1.239
      -0.943
      -0.279
       0.715
       1.849
       2.856
       3.519
       3.735
       3.510
       2.936
       2.165
       1.369
       0.667
       0.069
      -0.527
      -1.257
      -2.191
      -3.262
      -4.265
      -4.934
      -5.066
      -4.630
      -3.799
      -2.865
      -2.100
      -1.636
      -1.449
      -1.417
      -1.398
      -1.273
      -0.981
      -0.559
      -0.174
      -0.075
      -0.456
      -1.294
      -2.301
      -3.037
      -3.132
      -2.491
      -1.343
      -0.099
       0.890
       1.505
       1.840
       2.053
       2.234
       2.391
       2.509
       2.596
       2.683
       2.789
       2.912
       3.042
       3.166
       3.259
       3.295
       3.280
       3.262
       3.276
       3.268
       3.094
       2.627
       1.879
       1.030
       0.334
      -0.035
      -0.054
       0.161
       0.463
       0.776
       1.132
       1.608
       2.196
       2.710
       2.829
       2.265
       0.980
      -0.724
      -2.318
      -3.331
      -3.628
      -3.468
      -3.281
      -3.343
      -3.594
      -3.734
      -3.488
      -2.826
      -1.985
      -1.312
      -1.070
      -1.326
      -1.951
      -2.701
      -3.313
      -3.608
      -3.564
      -3.318
      -3.078
      -2.975
      -2.959
      -2.841
      -2.440
      -1.726
      -0.836
       0.045
       0.818
       1.487
       2.066
       2.497
       2.682
       2.592
       2.328
       2.055
       1.859
       1.683
       1.413
       1.040
       0.742
       0.778
       1.280
       2.096
       2.851
       3.177
       2.954
       2.373
       1.802
       1.551
       1.709
       2.130
       2.532
       2.642
       2.323
       1.631
       0.781
       0.051
      -0.345
      -0.344
      -0.052
       0.313
       0.536
       0.500
       0.232
      -0.122
      -0.391
      -0.480
      -0.413
      -0.303
      -0.245
      -0.218
      -0.077
       0.321
       0.939
       1.503
       1.649
       1.172
       0.167
      -1.044
      -2.152
      -3.062
      -3.890
      -4.799
      -5.806
      -6.742
      -7.354
      -7.455
      -6.975
      -5.950
      -4.502
      -2.839
      -1.227
       0.108
       1.069
       1.677
       1.984
       1.994
       1.707
       1.206
       0.680
       0.324
       0.222
       0.334
       0.590
       0.966
       1.474
       2.086
       2.720
       3.276
       3.664
       3.804
       3.623
       3.133
       2.493
       1.949
       1.668
       1.597
       1.512
       1.185
       0.547
      -0.271
      -0.998
      -1.369
      -1.293
      -0.958
      -0.737
      -0.919
      -1.472
      -2.051
      -2.261
      -1.958
      -1.323
      -0.671
      -0.200
       0.107
       0.367
       0.616
       0.754
       0.654
       0.325
      -0.032
      -0.150
       0.093
       0.547
       0.880
       0.812
       0.322
      -0.346
      -0.870
      -1.071
      -1.001
      -0.868
      -0.863
      -1.018
      -1.166
      -1.030
      -0.400
       0.688
       1.909
       2.801
       3.039
       2.623
       1.859
       1.178
       0.957
       1.417
       2.544
       4.015
       5.263
       5.753
       5.325
       4.287
       3.139
       2.186
       1.375
       0.458
      -0.738
      -2.180
      -3.699
      -5.118
      -6.294
      -7.098
      -7.401
      -7.132
      -6.352
      -5.266
      -4.137
      -3.177
      -2.484
      -2.064
      -1.908
      -2.017
      -2.343
      -2.692
      -2.739
      -2.213
      -1.123
       0.194
       1.285
       1.886
       2.085
       2.213
       2.581
       3.257
       4.007
       4.436
       4.229
       3.375
       2.194
       1.144
       0.533
       0.357
       0.384
       0.392
       0.325
       0.289
       0.410
       0.732
       1.209
       1.757
       2.302
       2.774
       3.105
       3.225
       3.089
       2.688
       2.070
       1.347
       0.683
       0.246
       0.120
       0.287
       0.672
       1.199
       1.789
       2.302
       2.540
       2.313
       1.544
       0.319
      -1.135
      -2.540
      -3.696
      -4.564
      -5.215
      -5.663
      -5.757
      -5.303
      -4.314
      -3.107
      -2.092
      -1.444
      -0.999
      -0.493
       0.114
       0.548
       0.476
      -0.162
      -1.037
      -1.645
      -1.670
      -1.195
      -0.600
      -0.220
      -0.071
       0.137
       0.702
       1.605
       2.472
       2.846
       2.541
       1.752
       0.853
       0.097
      -0.510
      -1.088
      -1.674
      -2.138
      -2.312
      -2.183
      -1.964
      -1.904
      -1.989
      -1.854
      -1.067
       0.427
       2.141
       3.375
       3.764
       3.558
       3.373
       3.645
       4.288
       4.798
       4.694
       3.900
       2.793
       1.908
       1.545
       1.571
       1.565
       1.185
       0.444
      -0.361
      -0.960
      -1.343
      -1.687
      -2.084
      -2.416
      -2.500
      -2.316
      -2.032
      -1.812
      -1.661
      -1.453
      -1.108
      -0.691
      -0.370
      -0.286
      -0.479
      -0.879
      -1.357
      -1.789
      -2.120
      -2.360
      -2.502
      -2.442
      -2.045
      -1.327
      -0.553
      -0.109
      -0.214
      -0.730
      -1.267
      -1.447
      -1.140
      -0.507
       0.108
       0.337
      -0.025
      -0.870
      -1.774
      -2.220
      -1.912
      -0.942
       0.336
       1.563
       2.543
       3.243
       3.693
       3.934
       4.002
       3.924
       3.707
       3.339
       2.826
       2.207
       1.570
       1.055
       0.826
       0.964
       1.349
       1.667
       1.588
       1.007
       0.111
      -0.755
      -1.287
      -1.324
      -0.874
      -0.114
       0.616
       0.944
       0.681
      -0.027
      -0.781
      -1.172
      -1.003
      -0.339
       0.560
       1.330
       1.613
       1.203
       0.182
      -1.085
      -2.165
      -2.802
      -3.004
      -2.934
      -2.757
      -2.597
      -2.562
      -2.723
      -3.041
      -3.338
      -3.382
      -3.033
      -2.333
      -1.473
      -0.672
      -0.062
       0.355
       0.657
       0.918
       1.168
       1.400
       1.603
       1.773
       1.898
       1.947
       1.887
       1.718
       1.473
       1.193
       0.892
       0.562
       0.229
      -0.015
      -0.048
       0.177
       0.578
       0.990
       1.279
       1.411
       1.438
       1.425
       1.419
       1.456
       1.539
       1.573
       1.367
       0.779
      -0.098
      -0.905
      -1.235
      -0.927
      -0.196
       0.517
       0.861
       0.789
       0.517
       0.270
       0.063
      -0.273
      -0.862
      -1.583
      -2.137
      -2.311
      -2.171
      -1.968
      -1.882
      -1.883
      -1.833
      -1.676
      -1.470
      -1.262
      -0.992
      -0.565
      -0.017
       0.449
       0.615
       0.433
       0.052
      -0.317
      -0.534
      -0.550
      -0.378
      -0.087
       0.205
       0.398
       0.503
       0.632
       0.881
       1.223
       1.530
       1.692
       1.676
       1.501
       1.207
       0.868
       0.607
       0.518
       0.562
       0.583
       0.466
       0.276
       0.193
       0.321
       0.563
       0.704
       0.592
       0.228
      -0.242
      -0.598
      -0.659
      -0.448
      -0.243
      -0.371
      -0.862
      -1.338
      -1.302
      -0.561
       0.621
       1.760
       2.502
       2.768
       2.675
       2.375
       1.985
       1.575
       1.177
       0.777
       0.331
      -0.194
      -0.786
      -1.360
      -1.782
      -1.958
      -1.935
      -1.901
      -2.024
      -2.279
      -2.429
      -2.209
      -1.540
      -0.587
       0.339
       0.941
       1.028
       0.575
