Origin Time       19/8/2009 10:45:15	 UTC
Lat.              26.6 N	
Long.             92.5 E	
Depth (Km)         20.0
Magnitude         4.9
 Region           Sonitpur-Assam                                                   
 Above details taken from IMD 
    
Station Code      BOK
Station Lat.       25.976  N
Station Long.      91.230  E
Station Height(m)   68.0
Site Class        C   Vs30 between 200 m/sec to 375 m/sec *  
Record Time       19.08.2009 10:45:43.654 UTC
Sampling Rate     200. Hz
 Record Duration   66.735 Sec.
 Direction         N-S (N positive)
Max. Acceleration     18.192 cm/sec**2
     
  * For reference see Site Classification link of website 
     
 Base Line Corrected and Low Pass Filtered (Cut Off at 35 Hz) Time History
 Acceleration data in cm/sec**2
    
[...]
       0.332
      -0.056
      -0.372
      -0.590
      -0.696
      -0.723
      -0.745
      -0.800
      -0.849
      -0.827
      -0.719
      -0.551
      -0.348
      -0.127
       0.081
       0.244
       0.371
       0.503
       0.642
       0.711
       0.617
       0.366
       0.082
      -0.097
      -0.125
      -0.064
      -0.009
      -0.021
      -0.091
      -0.140
      -0.061
       0.186
       0.508
       0.728
       0.731
       0.544
       0.304
       0.153
       0.168
       0.329
       0.507
       0.511
       0.223
      -0.265
      -0.691
      -0.835
      -0.704
      -0.485
      -0.352
      -0.334
      -0.351
      -0.305
      -0.140
       0.141
       0.455
       0.657
       0.640
       0.448
       0.250
       0.168
       0.159
       0.095
      -0.079
      -0.307
      -0.520
      -0.687
      -0.773
      -0.726
      -0.545
      -0.329
      -0.188
      -0.113
       0.003
       0.210
       0.423
       0.529
       0.542
       0.567
       0.647
       0.699
       0.642
       0.516
       0.405
       0.305
       0.137
      -0.092
      -0.242
      -0.188
       0.029
       0.247
       0.331
       0.240
      -0.010
      -0.367
      -0.691
      -0.798
      -0.620
      -0.312
      -0.135
      -0.205
      -0.400
      -0.514
      -0.473
      -0.363
      -0.285
      -0.247
      -0.193
      -0.097
       0.019
       0.118
       0.185
       0.223
       0.248
       0.302
       0.420
       0.585
       0.708
       0.706
       0.601
       0.510
       0.536
       0.664
       0.801
       0.870
       0.842
       0.688
       0.357
      -0.142
      -0.667
      -1.012
      -1.083
      -0.959
      -0.792
      -0.665
      -0.577
      -0.522
      -0.496
      -0.448
      -0.273
       0.077
       0.497
       0.798
       0.880
       0.797
       0.664
       0.527
       0.360
       0.144
      -0.088
      -0.292
      -0.442
      -0.513
      -0.467
      -0.305
      -0.127
      -0.079
      -0.221
      -0.461
      -0.646
      -0.699
      -0.627
      -0.457
      -0.215
       0.003
       0.038
      -0.199
      -0.599
      -0.927
      -1.017
      -0.879
      -0.620
      -0.308
       0.038
       0.349
       0.482
       0.332
      -0.041
      -0.432
      -0.630
      -0.544
      -0.210
       0.242
       0.624
       0.751
       0.562
       0.200
      -0.074
      -0.076
       0.183
       0.546
       0.840
       0.954
       0.861
       0.611
       0.341
       0.210
       0.288
       0.476
       0.574
       0.464
       0.220
       0.020
      -0.036
      -0.020
      -0.086
      -0.313
      -0.644
      -0.938
      -1.060
      -0.938
      -0.605
      -0.195
       0.129
       0.278
       0.285
       0.247
       0.216
       0.169
       0.071
      -0.062
      -0.189
      -0.303
      -0.437
      -0.589
      -0.693
      -0.689
      -0.595
      -0.479
      -0.371
      -0.242
      -0.061
       0.156
       0.377
       0.596
       0.795
       0.896
       0.805
       0.529
       0.208
       0.031
       0.100
       0.362
       0.653
       0.797
       0.714
       0.454
       0.173
       0.030
       0.091
       0.294
       0.506
       0.629
       0.661
       0.656
       0.628
       0.517
       0.258
      -0.121
      -0.502
      -0.771
      -0.901
      -0.943
      -0.971
      -1.031
      -1.116
      -1.165
      -1.092
      -0.847
      -0.489
      -0.162
       0.007
      -0.010
      -0.169
      -0.419
      -0.678
      -0.798
      -0.623
      -0.160
       0.372
       0.702
       0.734
       0.595
       0.482
       0.514
       0.693
       0.938
       1.108
       1.058
       0.752
       0.333
       0.034
      -0.022
       0.071
       0.117
       0.014
      -0.169
      -0.286
      -0.241
      -0.049
       0.185
       0.319
       0.285
       0.165
       0.149
       0.362
       0.717
       0.984
       0.989
       0.743
       0.382
       0.019
      -0.298
      -0.546
      -0.721
      -0.864
      -1.036
      -1.231
      -1.344
      -1.271
      -1.029
      -0.734
      -0.478
      -0.261
      -0.068
       0.063
       0.097
       0.103
       0.213
       0.463
       0.734
       0.866
       0.795
       0.555
       0.210
      -0.150
      -0.389
      -0.397
      -0.219
      -0.036
       0.011
      -0.057
      -0.127
      -0.144
      -0.125
      -0.054
       0.160
       0.554
       1.003
       1.286
       1.282
       1.034
       0.654
       0.227
      -0.166
      -0.429
      -0.520
      -0.508
      -0.506
      -0.553
      -0.590
      -0.569
      -0.524
      -0.514
      -0.503
      -0.369
      -0.053
       0.334
       0.605
       0.691
       0.702
       0.783
       0.939
       1.021
       0.873
       0.477
      -0.047
      -0.537
      -0.876
      -1.002
      -0.908
      -0.672
      -0.435
      -0.305
      -0.276
      -0.273
      -0.257
      -0.239
      -0.205
      -0.087
       0.140
       0.381
       0.480
       0.372
       0.134
      -0.100
      -0.263
      -0.350
      -0.358
      -0.260
      -0.062
       0.166
       0.344
       0.434
       0.422
       0.296
       0.082
      -0.100
      -0.113
       0.043
       0.202
       0.192
      -0.009
      -0.281
      -0.492
      -0.583
      -0.555
      -0.449
      -0.339
      -0.319
      -0.423
      -0.582
      -0.688
      -0.690
      -0.616
      -0.491
      -0.311
      -0.112
      -0.011
      -0.096
      -0.299
      -0.430
      -0.358
      -0.109
       0.207
       0.514
       0.776
       0.938
       0.929
       0.746
       0.478
       0.238
       0.069
      -0.034
      -0.055
       0.050
       0.281
       0.546
       0.718
       0.721
       0.563
       0.314
       0.079
      -0.019
       0.095
       0.379
       0.679
       0.818
       0.706
       0.375
      -0.055
      -0.450
      -0.723
      -0.851
      -0.859
      -0.782
      -0.650
      -0.487
      -0.354
      -0.351
      -0.540
      -0.840
      -1.036
      -0.943
      -0.568
      -0.111
       0.198
       0.253
       0.088
      -0.197
      -0.481
      -0.637
      -0.583
      -0.348
      -0.060
       0.167
       0.319
       0.439
       0.523
       0.524
       0.456
       0.432
       0.535
       0.690
       0.718
       0.530
       0.216
      -0.075
      -0.288
      -0.456
      -0.592
      -0.668
      -0.674
      -0.634
      -0.550
      -0.387
      -0.152
       0.066
       0.190
       0.265
       0.409
       0.640
       0.804
       0.734
       0.439
       0.099
      -0.126
      -0.225
      -0.285
      -0.363
      -0.446
      -0.483
      -0.431
      -0.271
      -0.038
       0.164
       0.216
       0.101
      -0.056
      -0.102
      -0.017
       0.083
       0.103
       0.083
       0.136
       0.306
       0.514
       0.651
       0.684
       0.659
       0.630
       0.634
       0.705
       0.855
       1.030
       1.116
       1.037
       0.808
       0.485
       0.097
      -0.327
      -0.684
      -0.809
      -0.624
      -0.254
       0.049
       0.122
       0.006
      -0.149
      -0.242
      -0.247
      -0.150
       0.063
       0.343
       0.569
       0.627
       0.500
       0.246
      -0.065
      -0.362
      -0.529
      -0.429
      -0.038
       0.463
       0.805
       0.865
       0.749
       0.632
       0.566
       0.481
       0.325
       0.111
      -0.156
      -0.494
      -0.875
      -1.189
      -1.348
      -1.378
      -1.383
      -1.394
      -1.311
      -1.028
      -0.584
      -0.162
       0.090
       0.181
       0.228
       0.300
       0.370
       0.390
       0.370
       0.359
       0.376
       0.385
       0.325
       0.151
      -0.149
      -0.514
      -0.782
      -0.750
      -0.330
       0.347
       1.000
       1.375
       1.393
       1.136
       0.747
       0.343
       0.013
      -0.166
      -0.171
      -0.091
      -0.100
      -0.340
      -0.810
      -1.376
      -1.851
      -2.079
      -1.971
      -1.527
      -0.839
      -0.075
       0.580
       0.980
       1.078
       0.956
       0.791
       0.753
       0.904
       1.167
       1.405
       1.515
       1.469
       1.269
       0.917
       0.447
      -0.037
      -0.415
      -0.640
      -0.766
      -0.854
      -0.895
      -0.851
      -0.757
      -0.706
      -0.723
      -0.700
      -0.503
      -0.118
       0.340
       0.771
       1.169
       1.545
       1.804
       1.768
       1.344
       0.644
      -0.084
      -0.643
      -0.997
      -1.238
      -1.475
      -1.743
      -1.996
      -2.147
      -2.113
      -1.851
      -1.388
      -0.813
      -0.245
       0.219
       0.519
       0.619
       0.530
       0.335
       0.176
       0.172
       0.317
       0.465
       0.429
       0.132
      -0.327
      -0.754
      -1.018
      -1.131
      -1.207
      -1.332
      -1.482
      -1.536
      -1.357
      -0.881
      -0.151
       0.686
       1.430
       1.903
       2.052
       1.988
       1.903
       1.916
       1.963
       1.849
       1.411
       0.667
      -0.177
      -0.858
      -1.204
      -1.204
      -0.972
      -0.675
      -0.486
      -0.522
      -0.786
      -1.137
      -1.369
      -1.347
      -1.080
      -0.682
      -0.268
       0.114
       0.459
       0.758
       0.959
       0.983
       0.791
       0.450
       0.110
      -0.100
      -0.192
      -0.321
      -0.663
      -1.245
      -1.870
      -2.232
      -2.127
      -1.598
      -0.864
      -0.138
       0.484
       0.995
       1.402
       1.727
       2.010
       2.260
       2.403
       2.322
       1.996
       1.561
       1.184
       0.875
       0.483
      -0.105
      -0.796
      -1.380
      -1.731
      -1.878
      -1.920
      -1.908
      -1.828
      -1.642
      -1.287
      -0.689
       0.185
       1.250
       2.328
       3.233
       3.829
       4.019
       3.747
       3.049
       2.085
       1.044
       0.027
      -0.968
      -1.921
      -2.714
      -3.201
      -3.331
      -3.159
      -2.758
      -2.172
      -1.480
      -0.839
      -0.376
      -0.046
       0.343
       0.916
       1.582
       2.118
       2.369
       2.336
       2.095
       1.685
       1.088
       0.315
      -0.530
      -1.253
      -1.643
      -1.550
      -0.968
      -0.073
       0.834
       1.494
       1.824
       1.910
       1.892
       1.869
       1.873
       1.845
       1.658
       1.199
       0.463
      -0.434
      -1.313
      -2.006
      -2.416
      -2.533
      -2.415
      -2.146
      -1.807
      -1.463
      -1.142
      -0.827
      -0.460
       0.010
       0.580
       1.147
       1.549
       1.660
       1.458
       1.015
       0.453
      -0.071
      -0.377
      -0.345
      -0.041
       0.277
       0.337
       0.063
      -0.385
      -0.766
      -0.937
      -0.876
      -0.616
      -0.200
       0.280
       0.656
       0.784
       0.688
       0.554
       0.552
       0.691
       0.866
       1.000
       1.078
       1.088
       1.007
       0.840
       0.634
       0.398
       0.067
      -0.422
      -1.012
      -1.527
      -1.842
      -1.981
      -2.016
      -1.894
      -1.476
      -0.744
       0.102
       0.800
       1.239
       1.458
       1.511
       1.419
       1.230
       1.020
       0.784
       0.405
      -0.179
      -0.809
      -1.219
      -1.323
      -1.298
      -1.320
      -1.307
      -1.012
      -0.374
       0.326
       0.696
       0.569
       0.109
      -0.360
      -0.568
      -0.410
       0.062
       0.679
       1.222
       1.518
       1.511
       1.276
       0.958
       0.695
       0.572
       0.589
       0.641
       0.550
       0.179
      -0.449
      -1.131
      -1.609
      -1.723
      -1.498
      -1.099
      -0.741
      -0.592
      -0.711
      -1.036
      -1.402
      -1.624
      -1.590
      -1.298
      -0.830
      -0.278
       0.289
       0.814
       1.232
       1.480
       1.546
       1.501
       1.435
       1.344
       1.094
       0.537
      -0.326
      -1.300
      -2.119
      -2.604
      -2.693
      -2.375
      -1.694
      -0.837
      -0.129
       0.169
       0.046
      -0.270
      -0.496
      -0.417
       0.092
       1.011
       2.091
       2.886
       3.017
       2.475
       1.657
       1.069
       0.936
       1.076
       1.095
       0.701
      -0.120
      -1.098
      -1.827
      -1.984
      -1.557
      -0.881
      -0.405
      -0.343
      -0.550
      -0.703
      -0.584
      -0.208
       0.261
       0.666
       0.899
       0.880
       0.546
      -0.074
      -0.824
      -1.478
      -1.866
      -1.910
      -1.574
      -0.846
       0.189
       1.298
       2.194
       2.694
       2.777
       2.526
       2.065
       1.560
       1.188
       1.027
       0.987
       0.879
       0.577
       0.088
      -0.534
      -1.283
      -2.149
      -3.005
      -3.637
      -3.933
      -4.018
      -4.140
      -4.424
      -4.791
      -5.110
      -5.385
      -5.732
      -6.189
      -6.569
      -6.504
      -5.645
      -3.861
      -1.326
       1.568
       4.426
       7.084
       9.666
      12.353
      15.023
      17.162
      18.192
      17.886
      16.416
      14.025
      10.777
       6.664
       1.872
      -3.154
      -7.897
     -11.945
     -15.014
     -16.920
     -17.641
     -17.337
     -16.187
     -14.207
     -11.317
      -7.614
      -3.496
       0.513
       4.030
       6.900
       9.086
      10.528
      11.127
      10.837
       9.755
       8.141
       6.389
       4.938
       4.075
       3.721
       3.442
       2.775
       1.596
       0.165
      -1.176
      -2.273
      -3.094
      -3.560
      -3.572
      -3.222
      -2.828
      -2.686
      -2.858
      -3.244
      -3.793
      -4.525
      -5.356
      -6.009
      -6.174
      -5.753
      -4.891
      -3.803
      -2.647
      -1.526
      -0.508
       0.445
       1.511
       2.839
       4.355
       5.782
       6.920
       7.800
       8.549
       9.139
       9.358
       9.005
       8.013
       6.377
       4.067
       1.120
      -2.188
      -5.350
      -7.864
      -9.443
     -10.020
      -9.647
      -8.478
      -6.799
      -4.931
      -3.060
      -1.205
       0.623
       2.315
       3.733
       4.818
       5.518
       5.665
       5.026
       3.561
       1.542
      -0.607
      -2.596
      -4.343
      -5.806
      -6.831
      -7.204
      -6.795
      -5.614
      -3.746
      -1.337
       1.360
       3.970
       6.102
       7.485
       8.004
       7.620
       6.334
       4.253
       1.671
      -0.995
      -3.382
      -5.278
      -6.538
      -6.996
      -6.523
      -5.180
      -3.257
      -1.134
       0.903
       2.734
       4.341
       5.702
       6.726
       7.254
       7.113
       6.215
       4.663
       2.785
       1.016
      -0.328
      -1.188
      -1.738
      -2.241
      -2.905
      -3.779
      -4.746
      -5.612
      -6.222
      -6.486
      -6.323
      -5.652
      -4.498
      -3.059
      -1.611
      -0.307
       0.867
       1.981
       3.044
       4.031
       4.938
       5.757
       6.395
       6.672
       6.431
       5.645
       4.444
       3.033
       1.583
       0.166
      -1.241
      -2.696
      -4.212
      -5.686
      -6.873
      -7.476
      -7.290
      -6.334
      -4.832
      -3.063
      -1.217
       0.626
       2.405
       3.984
       5.167
       5.796
       5.864
       5.512
       4.943
       4.326
       3.731
       3.098
       2.291
       1.234
       0.057
      -0.930
      -1.438
      -1.429
      -1.178
      -1.101
      -1.461
      -2.217
      -3.127
      -3.962
      -4.598
      -4.947
      -4.896
      -4.359
      -3.377
      -2.131
      -0.872
       0.181
       0.915
       1.385
       1.784
       2.314
       3.029
       3.792
       4.394
       4.693
       4.632
       4.168
       3.258
       1.939
       0.406
      -1.055
      -2.226
      -3.050
      -3.573
      -3.851
      -3.917
      -3.808
      -3.533
      -3.049
      -2.304
      -1.340
      -0.343
       0.438
       0.863
       1.020
       1.211
       1.761
       2.775
       3.999
       4.933
       5.152
       4.598
       3.612
       2.644
       1.916
       1.339
       0.710
      -0.048
      -0.834
      -1.476
      -1.865
      -1.999
      -1.958
      -1.832
      -1.680
      -1.513
      -1.317
      -1.107
      -0.970
      -1.037
      -1.373
      -1.884
      -2.322
      -2.429
      -2.105
      -1.475
      -0.800
      -0.295
      -0.034
       0.036
       0.003
      -0.066
      -0.137
      -0.182
      -0.148
       0.041
       0.446
       1.052
       1.755
       2.418
       2.964
       3.391
       3.712
       3.910
       3.945
       3.781
       3.356
       2.571
       1.385
      -0.059
      -1.466
      -2.595
      -3.420
      -4.076
      -4.678
      -5.244
      -5.759
      -6.229
      -6.603
      -6.677
      -6.144
      -4.826
      -2.874
      -0.741
       1.066
       2.237
       2.794
       3.049
       3.437
       4.268
       5.534
       6.910
       7.955
       8.362
       8.050
       7.076
       5.529
       3.525
       1.277
      -0.914
      -2.766
      -4.089
      -4.766
      -4.765
      -4.235
      -3.554
      -3.139
      -3.163
      -3.439
      -3.606
      -3.394
      -2.718
      -1.623
      -0.248
       1.136
       2.161
       2.569
       2.389
       1.874
       1.280
       0.739
       0.330
       0.171
       0.360
       0.842
       1.373
       1.665
       1.580
       1.206
       0.783
       0.547
       0.590
       0.800
       0.904
       0.648
      -0.015
      -0.877
      -1.644
      -2.147
      -2.390
      -2.470
      -2.502
      -2.633
      -2.988
      -3.502
      -3.822
      -3.480
      -2.286
      -0.565
       1.031
       2.010
       2.341
       2.313
       2.170
       1.945
       1.566
       1.017
       0.362
      -0.321
      -0.961
      -1.482
      -1.800
      -1.837
      -1.546
      -0.906
       0.068
       1.286
       2.546
       3.565
       4.083
       3.971
       3.303
       2.373
       1.614
       1.377
       1.668
       2.092
       2.114
       1.433
       0.171
      -1.230
      -2.265
      -2.629
      -2.348
      -1.710
      -1.063
      -0.622
      -0.429
      -0.424
      -0.536
      -0.701
      -0.834
      -0.818
      -0.594
      -0.273
      -0.098
      -0.235
      -0.595
      -0.899
      -0.937
      -0.762
      -0.607
      -0.621
      -0.662
      -0.389
       0.434
       1.640
       2.675
       2.968
       2.371
       1.263
       0.230
      -0.358
      -0.497
      -0.385
      -0.204
      -0.053
       0.038
       0.091
       0.146
       0.197
       0.148
      -0.082
      -0.413
      -0.624
      -0.594
      -0.481
      -0.599
