Origin Time       25/04/2009 14:29:29 UTC
Lat.              26.4 N 
Long.             91.7 E 
Depth (Km)         10.0
Magnitude         4.0
 Region           KAMRUP-ASSAM                                                     
 Above details taken from IMD 
    
Station Code      BOK
Station Lat.       25.976  N
Station Long.      91.230  E
Station Height(m)   68.0
Site Class        C   Vs30 between 200 m/sec to 375 m/sec *  
Record Time       25.04.2009 14:29:26.859 UTC
Sampling Rate     200. Hz
 Record Duration   70.330 Sec.
 Direction         N-S (N positive)
Max. Acceleration     -9.795 cm/sec**2
     
  * For reference see Site Classification link of website 
     
 Base Line Corrected and Low Pass Filtered (Cut Off at 35 Hz) Time History
 Acceleration data in cm/sec**2
    
[...]
       1.023
       0.421
      -0.535
      -1.154
      -1.080
      -0.536
       0.056
       0.472
       0.687
       0.708
       0.577
       0.434
       0.390
       0.305
      -0.104
      -0.828
      -1.395
      -1.318
      -0.671
      -0.032
       0.149
      -0.042
      -0.245
      -0.301
      -0.297
      -0.264
      -0.047
       0.414
       0.853
       0.907
       0.531
       0.039
      -0.263
      -0.344
      -0.328
      -0.248
      -0.043
       0.231
       0.361
       0.208
      -0.106
      -0.297
      -0.205
       0.084
       0.356
       0.446
       0.294
      -0.043
      -0.337
      -0.272
       0.248
       0.879
       1.088
       0.695
       0.045
      -0.371
      -0.359
      -0.073
       0.232
       0.365
       0.227
      -0.161
      -0.598
      -0.803
      -0.669
      -0.392
      -0.253
      -0.296
      -0.306
      -0.128
       0.154
       0.380
       0.510
       0.561
       0.477
       0.222
      -0.081
      -0.244
      -0.226
      -0.147
      -0.074
       0.047
       0.246
       0.409
       0.388
       0.163
      -0.168
      -0.506
      -0.778
      -0.886
      -0.748
      -0.452
      -0.216
      -0.124
       0.018
       0.422
       0.952
       1.155
       0.695
      -0.270
      -1.163
      -1.389
      -0.742
       0.436
       1.423
       1.573
       0.775
      -0.444
      -1.263
      -1.154
      -0.239
       0.829
       1.349
       1.027
       0.134
      -0.696
      -0.904
      -0.408
       0.359
       0.814
       0.672
       0.078
      -0.595
      -1.003
      -0.951
      -0.440
       0.307
       0.901
       0.983
       0.481
      -0.273
      -0.754
      -0.658
      -0.134
       0.398
       0.613
       0.453
       0.025
      -0.469
      -0.741
      -0.548
       0.059
       0.682
       0.878
       0.527
      -0.105
      -0.637
      -0.872
      -0.860
      -0.716
      -0.427
       0.096
       0.794
       1.377
       1.545
       1.242
       0.608
      -0.191
      -0.963
      -1.390
      -1.134
      -0.196
       0.865
       1.243
       0.562
      -0.708
      -1.591
      -1.412
      -0.305
       1.007
       1.809
       1.784
       1.014
      -0.149
      -1.169
      -1.541
      -1.151
      -0.398
       0.139
       0.205
       0.003
      -0.123
      -0.062
       0.051
       0.099
       0.093
       0.009
      -0.285
      -0.760
      -1.018
      -0.624
       0.329
       1.153
       1.182
       0.409
      -0.540
      -1.001
      -0.738
       0.034
       0.853
       1.225
       0.873
      -0.035
      -0.913
      -1.131
      -0.497
       0.542
       1.219
       1.067
       0.287
      -0.473
      -0.673
      -0.270
       0.362
       0.771
       0.705
       0.189
      -0.502
      -0.934
      -0.757
      -0.036
       0.680
       0.817
       0.382
      -0.031
       0.037
       0.368
       0.427
       0.098
      -0.255
      -0.404
      -0.548
      -0.834
      -0.927
      -0.400
       0.545
       1.112
       0.772
      -0.137
      -0.829
      -0.889
      -0.477
       0.105
       0.723
       1.233
       1.331
       0.797
      -0.182
      -1.079
      -1.435
      -1.174
      -0.570
       0.004
       0.276
       0.196
      -0.039
      -0.136
       0.014
       0.233
       0.293
       0.191
       0.134
       0.282
       0.559
       0.727
       0.643
       0.378
       0.080
      -0.203
      -0.475
      -0.635
      -0.541
      -0.206
       0.149
       0.275
       0.077
      -0.335
      -0.747
      -0.948
      -0.804
      -0.310
       0.365
       0.917
       1.086
       0.852
       0.440
       0.095
      -0.133
      -0.349
      -0.607
      -0.795
      -0.720
      -0.271
       0.461
       1.149
       1.359
       0.853
      -0.156
      -1.070
      -1.359
      -0.962
      -0.249
       0.373
       0.714
       0.718
       0.337
      -0.369
      -1.061
      -1.228
      -0.591
       0.575
       1.586
       1.855
       1.275
       0.210
      -0.797
      -1.322
      -1.216
      -0.588
       0.276
       1.030
       1.379
       1.180
       0.504
      -0.361
      -0.999
      -1.061
      -0.501
       0.339
       0.922
       0.879
       0.254
      -0.540
      -1.026
      -0.958
      -0.443
       0.171
       0.545
       0.583
       0.464
       0.402
       0.368
       0.153
      -0.262
      -0.553
      -0.412
       0.015
       0.211
      -0.156
      -0.830
      -1.202
      -0.911
      -0.178
       0.446
       0.584
       0.275
      -0.167
      -0.441
      -0.420
      -0.168
       0.146
       0.371
       0.507
       0.667
       0.884
       0.943
       0.561
      -0.235
      -1.003
      -1.238
      -0.814
      -0.086
       0.402
       0.326
      -0.200
      -0.721
      -0.793
      -0.316
       0.412
       0.923
       0.915
       0.443
      -0.136
      -0.437
      -0.338
       0.001
       0.333
       0.494
       0.432
       0.191
      -0.079
      -0.186
      -0.030
       0.295
       0.554
       0.528
       0.188
      -0.258
      -0.481
      -0.274
       0.263
       0.745
       0.744
       0.112
      -0.851
      -1.545
      -1.536
      -0.929
      -0.223
       0.198
       0.322
       0.318
       0.297
       0.306
       0.391
       0.541
       0.623
       0.494
       0.200
      -0.020
      -0.004
       0.144
       0.212
       0.150
       0.061
      -0.055
      -0.348
      -0.841
      -1.212
      -1.054
      -0.354
       0.404
       0.719
       0.564
       0.296
       0.154
       0.001
      -0.379
      -0.863
      -1.025
      -0.591
       0.261
       1.062
       1.430
       1.274
       0.733
       0.079
      -0.401
      -0.547
      -0.432
      -0.264
      -0.165
      -0.097
       0.008
       0.102
       0.064
      -0.128
      -0.329
      -0.366
      -0.202
       0.031
       0.195
       0.309
       0.477
       0.658
       0.645
       0.334
      -0.105
      -0.417
      -0.512
      -0.444
      -0.218
       0.203
       0.687
       0.888
       0.548
      -0.188
      -0.834
      -0.957
      -0.506
       0.216
       0.778
       0.855
       0.438
      -0.083
      -0.187
       0.242
       0.679
       0.474
      -0.372
      -1.133
      -1.134
      -0.470
       0.193
       0.399
       0.270
       0.113
      -0.035
      -0.320
      -0.693
      -0.872
      -0.653
      -0.134
       0.395
       0.686
       0.621
       0.219
      -0.318
      -0.617
      -0.397
       0.207
       0.680
       0.632
       0.227
      -0.023
       0.132
       0.419
       0.419
       0.067
      -0.306
      -0.371
      -0.139
       0.087
       0.067
      -0.104
      -0.115
       0.168
       0.500
       0.516
       0.125
      -0.423
      -0.793
      -0.809
      -0.522
      -0.199
      -0.184
      -0.565
      -0.922
      -0.622
       0.442
       1.558
       1.846
       1.154
       0.124
      -0.582
      -0.827
      -0.737
      -0.284
       0.540
       1.314
       1.387
       0.590
      -0.473
      -1.042
      -0.947
      -0.583
      -0.280
       0.002
       0.326
       0.471
       0.223
      -0.204
      -0.343
      -0.064
       0.257
       0.236
      -0.034
      -0.162
      -0.016
       0.168
       0.182
       0.093
       0.009
      -0.143
      -0.417
      -0.580
      -0.325
       0.224
       0.466
       0.036
      -0.617
      -0.672
       0.045
       0.813
       0.911
       0.415
      -0.118
      -0.453
      -0.748
      -0.939
      -0.594
       0.388
       1.292
       1.209
       0.111
      -1.036
      -1.333
      -0.817
      -0.134
       0.352
       0.732
       1.004
       0.846
       0.130
      -0.674
      -0.920
      -0.520
       0.024
       0.292
       0.338
       0.341
       0.213
      -0.153
      -0.479
      -0.331
       0.270
       0.790
       0.830
       0.536
       0.241
      -0.057
      -0.558
      -1.093
      -1.085
      -0.251
       0.863
       1.323
       0.759
      -0.330
      -1.221
      -1.627
      -1.614
      -1.152
      -0.133
       1.191
       2.118
       2.042
       1.027
      -0.295
      -1.308
      -1.724
      -1.374
      -0.116
       1.718
       3.038
       2.706
       0.703
      -1.661
      -2.894
      -2.560
      -1.306
       0.051
       1.116
       1.702
       1.566
       0.688
      -0.433
      -1.127
      -1.198
      -0.968
      -0.688
      -0.268
       0.334
       0.781
       0.717
       0.314
       0.107
       0.296
       0.517
       0.398
       0.058
      -0.117
      -0.007
       0.174
       0.243
       0.239
       0.203
       0.001
      -0.458
      -0.931
      -1.015
      -0.618
      -0.080
       0.248
       0.377
       0.521
       0.697
       0.658
       0.232
      -0.404
      -0.808
      -0.648
      -0.025
       0.568
       0.688
       0.348
      -0.069
      -0.269
      -0.296
      -0.345
      -0.462
      -0.508
      -0.374
      -0.095
       0.219
       0.472
       0.574
       0.476
       0.295
       0.277
       0.500
       0.681
       0.418
      -0.313
      -0.992
      -1.022
      -0.345
       0.478
       0.800
       0.455
      -0.210
      -0.703
      -0.713
      -0.232
       0.414
       0.713
       0.412
      -0.128
      -0.243
       0.253
       0.773
       0.582
      -0.340
      -1.226
      -1.317
      -0.600
       0.305
       0.853
       0.982
       0.874
       0.567
      -0.008
      -0.666
      -0.895
      -0.340
       0.695
       1.442
       1.380
       0.634
      -0.292
      -0.969
      -1.206
      -1.002
      -0.552
      -0.242
      -0.362
      -0.695
      -0.602
       0.214
       1.127
       1.123
       0.014
      -1.154
      -1.154
       0.095
       1.470
       1.846
       1.119
       0.055
      -0.588
      -0.581
      -0.123
       0.407
       0.574
       0.128
      -0.696
      -1.280
      -1.218
      -0.724
      -0.329
      -0.283
      -0.402
      -0.446
      -0.412
      -0.411
      -0.396
      -0.165
       0.358
       0.907
       1.044
       0.593
      -0.099
      -0.438
      -0.180
       0.292
       0.381
      -0.052
      -0.531
      -0.484
       0.178
       1.013
       1.481
       1.315
       0.599
      -0.332
      -1.014
      -1.062
      -0.490
       0.181
       0.313
      -0.212
      -0.816
      -0.803
      -0.097
       0.664
       0.791
       0.223
      -0.463
      -0.640
      -0.144
       0.692
       1.323
       1.277
       0.393
      -0.934
      -1.824
      -1.524
      -0.137
       1.387
       2.109
       1.877
       1.163
       0.341
      -0.548
      -1.350
      -1.589
      -0.979
       0.089
       0.902
       1.161
       1.074
       0.786
       0.147
      -0.774
      -1.337
      -0.922
       0.211
       1.051
       0.887
       0.006
      -0.750
      -0.865
      -0.441
       0.156
       0.614
       0.666
       0.122
      -0.813
      -1.434
      -1.069
       0.165
       1.337
       1.551
       0.746
      -0.380
      -1.119
      -1.243
      -0.855
      -0.099
       0.791
       1.371
       1.241
       0.485
      -0.353
      -0.817
      -0.922
      -0.894
      -0.749
      -0.369
       0.120
       0.346
       0.126
      -0.269
      -0.445
      -0.370
      -0.300
      -0.271
       0.039
       0.772
       1.476
       1.512
       0.816
      -0.002
      -0.357
      -0.278
      -0.171
      -0.208
      -0.212
      -0.097
      -0.096
      -0.417
      -0.877
      -1.118
      -1.041
      -0.784
      -0.373
       0.285
       0.999
       1.257
       0.827
       0.148
      -0.177
      -0.087
      -0.009
      -0.181
      -0.338
      -0.128
       0.389
       0.818
       0.908
       0.697
       0.285
      -0.234
      -0.579
      -0.352
       0.454
       1.189
       1.036
      -0.168
      -1.714
      -2.664
      -2.603
      -1.782
      -0.709
       0.216
       0.723
       0.609
      -0.097
      -0.945
      -1.300
      -0.894
      -0.099
       0.452
       0.461
       0.156
      -0.021
       0.165
       0.588
       0.961
       1.139
       1.175
       1.144
       1.040
       0.865
       0.705
       0.623
       0.492
       0.103
      -0.509
      -1.005
      -1.092
      -0.819
      -0.412
       0.034
       0.500
       0.740
       0.345
      -0.712
      -1.727
      -1.786
      -0.715
       0.680
       1.393
       1.159
       0.520
       0.154
       0.302
       0.765
       1.223
       1.491
       1.539
       1.453
       1.424
       1.626
       1.979
       2.118
       1.711
       0.834
      -0.039
      -0.477
      -0.487
      -0.442
      -0.659
      -1.132
      -1.636
      -2.026
      -2.354
      -2.752
      -3.280
      -3.866
      -4.293
      -4.207
      -3.297
      -1.612
       0.338
       1.903
       2.739
       2.919
       2.706
       2.335
       2.012
       1.966
       2.318
       2.905
       3.323
       3.166
       2.262
       0.840
      -0.416
      -0.679
       0.343
       2.000
       3.070
       2.617
       0.658
      -1.818
      -3.467
      -3.488
      -2.250
      -1.150
      -1.676
      -4.231
      -7.621
      -9.795
      -9.415
      -6.854
      -3.700
      -1.405
      -0.366
       0.043
       0.842
       2.701
       5.390
       7.768
       8.547
       7.399
       5.282
       3.364
       1.728
      -0.350
      -2.812
      -4.121
      -2.630
       1.541
       6.221
       8.678
       7.397
       2.844
      -2.865
      -6.983
      -7.481
      -4.260
       0.662
       4.493
       5.597
       4.291
       1.939
      -0.373
      -2.118
      -2.778
      -1.835
       0.364
       2.213
       2.037
      -0.226
      -2.879
      -4.136
      -3.701
      -2.604
      -1.767
      -1.218
      -0.693
      -0.413
      -0.793
      -1.657
      -2.344
      -2.596
      -2.775
      -2.991
      -2.564
      -0.914
       1.242
       2.214
       1.144
      -0.785
      -1.294
       0.785
       4.355
       7.013
       6.955
       4.083
      -0.195
      -3.884
      -5.408
      -4.349
      -1.588
       1.330
       3.162
       3.529
       2.758
       1.454
       0.292
      -0.127
       0.321
       0.885
       0.331
      -1.776
      -4.144
      -4.564
      -2.096
       1.655
       3.826
       2.983
       0.292
      -1.902
      -2.318
      -1.431
      -0.386
       0.226
       0.564
       1.012
       1.722
       2.374
       2.156
       0.311
      -2.801
      -5.306
      -5.059
      -1.684
       2.793
       5.634
       5.701
       3.966
       2.001
       0.508
      -0.599
      -1.320
      -1.343
      -0.561
       0.624
       1.561
       1.647
       0.330
      -2.625
      -6.365
      -8.695
      -7.519
      -3.033
       1.882
       4.035
       2.713
      -0.085
      -1.914
      -1.951
      -0.964
       0.121
       1.129
       2.308
       3.586
       4.341
       3.848
       1.929
      -0.714
      -2.752
      -3.053
      -1.608
       0.262
       0.910
      -0.193
      -1.973
      -2.737
      -1.707
       0.301
       1.644
       1.271
      -0.470
      -2.223
      -2.742
      -1.804
      -0.224
       0.983
       1.496
       1.817
       2.575
       3.696
       4.261
       3.327
       1.010
      -1.311
      -2.138
      -1.316
      -0.201
      -0.228
      -1.451
      -2.670
      -2.807
      -1.790
      -0.118
       1.839
       3.703
       4.624
       3.668
       0.896
      -2.283
      -4.114
      -3.792
      -1.742
       1.061
       3.667
       5.231
       5.152
       3.654
       2.035
       1.758
       2.995
       4.279
       3.837
       1.243
      -2.270
      -4.899
      -5.572
      -4.457
      -2.666
      -1.550
      -1.863
      -3.147
      -3.967
      -3.169
      -1.149
       0.316
      -0.267
      -2.605
      -4.834
      -5.067
      -2.717
       1.309
       5.266
       7.513
       7.335
       5.269
       2.641
       0.651
      -0.235
      -0.174
       0.485
       1.373
       1.988
       1.722
       0.248
      -2.029
      -3.985
      -4.445
      -3.091
      -0.817
       0.883
       1.005
      -0.339
      -2.188
      -3.515
      -3.854
      -3.395
      -2.587
      -1.718
      -0.838
      -0.011
       0.523
       0.553
       0.247
       0.097
       0.386
       0.766
       0.573
      -0.332
      -1.156
      -0.832
       0.783
       2.519
       2.930
       1.775
       0.311
       0.072
       1.432
       3.347
       4.291
       3.388
       0.901
      -1.969
      -3.666
      -3.145
      -0.671
       2.228
       3.960
       4.141
       3.557
       2.976
       2.403
       1.583
       0.796
       0.590
       0.728
       0.058
      -2.055
      -4.475
      -5.183
      -3.448
      -0.589
       1.503
       2.095
       1.685
       1.006
       0.516
       0.606
       1.522
       2.777
       3.165
       1.924
      -0.227
      -1.658
      -1.497
      -0.485
      -0.058
      -0.897
      -2.529
      -4.013
      -4.593
      -3.881
      -2.010
       0.254
       1.957
       2.708
       2.774
       2.411
       1.487
      -0.032
      -1.578
      -2.387
      -2.370
      -2.161
      -2.188
      -2.105
      -1.467
      -0.632
      -0.511
      -1.450
      -2.717
      -3.186
      -2.373
      -0.762
       0.693
       1.240
       0.663
      -0.651
      -1.781
      -1.714
      -0.175
       1.946
       3.296
       3.305
       2.575
       2.020
       1.884
       1.751
       1.332
       0.817
       0.424
       0.061
      -0.292
      -0.324
       0.004
      -0.122
      -1.670
      -4.336
      -6.272
      -5.695
      -2.694
       0.874
       3.183
       3.731
       3.000
       1.578
      -0.002
      -1.048
      -0.948
       0.238
       1.651
       2.238
       1.565
       0.066
      -1.344
      -1.804
      -0.917
       0.893
       2.410
       2.474
       1.010
      -0.946
      -2.279
      -2.606
      -2.161
      -1.319
      -0.453
       0.036
      -0.043
      -0.383
      -0.417
      -0.065
      -0.086
      -1.251
      -3.105
      -4.008
      -2.815
      -0.335
       1.321
       0.875
      -0.868
      -1.930
      -1.040
       1.409
       3.903
       4.973
       4.068
       1.834
      -0.222
      -0.662
       0.818
       3.122
       4.692
       4.809
       3.954
       3.020
       2.395
       1.836
       1.051
       0.195
      -0.291
      -0.204
       0.219
       0.558
       0.510
      -0.056
      -1.112
      -2.370
      -3.284
      -3.358
      -2.509
      -1.040
       0.705
       2.445
       3.664
       3.572
       1.777
      -0.970
      -2.994
      -2.923
      -0.694
       2.580
       5.426
       6.612
       5.458
       2.244
      -1.540
      -3.861
      -3.591
      -1.449
       0.588
       0.877
      -0.787
