Origin Time       21/9/2009 8:53:04	  UTC
Lat.              27.3 N	
Long.             91.5 E	
Depth (Km)          8.0
Magnitude         6.2
 Region           BHUTAN                                                           
 Above details taken from IMD 
    
Station Code      BOK
Station Lat.       25.976  N
Station Long.      91.230  E
Station Height(m)   68.0
Site Class        C   Vs30 between 200 m/sec to 375 m/sec *  
Record Time       21.09.2009 08:53:19.549 UTC
Sampling Rate     200. Hz
 Record Duration  113.875 Sec.
 Direction         N-S (N positive)
Max. Acceleration    -21.222 cm/sec**2
     
  * For reference see Site Classification link of website 
     
 Base Line Corrected and Low Pass Filtered (Cut Off at 35 Hz) Time History
 Acceleration data in cm/sec**2
    
[...]
      -3.104
      -2.455
      -1.875
      -1.364
      -0.870
      -0.348
       0.192
       0.677
       0.997
       1.066
       0.890
       0.595
       0.394
       0.465
       0.818
       1.270
       1.556
       1.516
       1.165
       0.625
      -0.003
      -0.679
      -1.362
      -1.932
      -2.229
      -2.157
      -1.785
      -1.327
      -1.031
      -1.037
      -1.306
      -1.649
      -1.845
      -1.776
      -1.478
      -1.077
      -0.691
      -0.393
      -0.238
      -0.271
      -0.463
      -0.672
      -0.720
      -0.536
      -0.211
       0.087
       0.253
       0.288
       0.252
       0.201
       0.183
       0.245
       0.412
       0.672
       0.993
       1.377
       1.854
       2.418
       2.981
       3.415
       3.633
       3.637
       3.500
       3.326
       3.203
       3.150
       3.090
       2.913
       2.591
       2.229
       1.983
       1.932
       2.024
       2.155
       2.265
       2.362
       2.466
       2.575
       2.686
       2.824
       3.034
       3.341
       3.726
       4.123
       4.425
       4.496
       4.250
       3.716
       3.030
       2.333
       1.689
       1.084
       0.493
      -0.075
      -0.595
      -1.040
      -1.388
      -1.612
      -1.705
      -1.703
      -1.672
      -1.669
      -1.725
      -1.865
      -2.112
      -2.454
      -2.811
      -3.084
      -3.229
      -3.273
      -3.252
      -3.144
      -2.903
      -2.549
      -2.186
      -1.923
      -1.761
      -1.579
      -1.249
      -0.753
      -0.220
       0.146
       0.183
      -0.132
      -0.669
      -1.212
      -1.586
      -1.725
      -1.670
      -1.489
      -1.236
      -0.954
      -0.693
      -0.490
      -0.359
      -0.303
      -0.332
      -0.451
      -0.623
      -0.775
      -0.842
      -0.796
      -0.626
      -0.312
       0.136
       0.621
       0.962
       0.998
       0.706
       0.207
      -0.336
      -0.805
      -1.139
      -1.303
      -1.302
      -1.218
      -1.185
      -1.285
      -1.469
      -1.596
      -1.557
      -1.358
      -1.092
      -0.846
      -0.647
      -0.473
      -0.285
      -0.052
       0.241
       0.583
       0.933
       1.221
       1.364
       1.291
       0.984
       0.512
       0.033
      -0.292
      -0.416
      -0.439
      -0.529
      -0.762
      -1.074
      -1.341
      -1.515
      -1.649
      -1.791
      -1.877
      -1.748
      -1.301
      -0.600
       0.143
       0.710
       0.996
       1.032
       0.927
       0.780
       0.626
       0.441
       0.204
      -0.044
      -0.211
      -0.240
      -0.190
      -0.202
      -0.371
      -0.653
      -0.902
      -0.997
      -0.912
      -0.698
      -0.423
      -0.152
       0.038
       0.071
      -0.066
      -0.284
      -0.425
      -0.357
      -0.038
       0.481
       1.075
       1.579
       1.826
       1.725
       1.324
       0.801
       0.367
       0.164
       0.201
       0.347
       0.379
       0.079
      -0.638
      -1.637
      -2.601
      -3.190
      -3.214
      -2.701
      -1.848
      -0.905
      -0.080
       0.505
       0.829
       0.964
       1.031
       1.141
       1.348
       1.649
       1.993
       2.309
       2.532
       2.645
       2.695
       2.770
       2.944
       3.233
       3.574
       3.835
       3.853
       3.512
       2.816
       1.924
       1.084
       0.516
       0.322
       0.468
       0.835
       1.291
       1.713
       2.006
       2.119
       2.088
       2.033
       2.097
       2.340
       2.680
       2.926
       2.888
       2.496
       1.839
       1.090
       0.399
      -0.170
      -0.620
      -0.947
      -1.114
      -1.091
      -0.918
      -0.735
      -0.708
      -0.916
      -1.286
      -1.630
      -1.792
      -1.769
      -1.719
      -1.836
      -2.197
      -2.692
      -3.095
      -3.194
      -2.894
      -2.253
      -1.453
      -0.719
      -0.217
       0.014
       0.058
       0.049
       0.100
       0.266
       0.536
       0.836
       1.042
       1.045
       0.832
       0.516
       0.275
       0.218
       0.299
       0.358
       0.262
       0.024
      -0.199
      -0.220
       0.031
       0.450
       0.823
       0.961
       0.800
       0.404
      -0.101
      -0.591
      -0.974
      -1.211
      -1.328
      -1.421
      -1.596
      -1.877
      -2.170
      -2.326
      -2.257
      -1.999
      -1.663
      -1.347
      -1.088
      -0.877
      -0.694
      -0.524
      -0.343
      -0.137
       0.084
       0.288
       0.465
       0.660
       0.955
       1.399
       1.947
       2.471
       2.842
       3.023
       3.090
       3.145
       3.206
       3.187
       2.981
       2.567
       2.040
       1.542
       1.178
       0.970
       0.861
       0.746
       0.526
       0.157
      -0.335
      -0.870
      -1.366
      -1.781
      -2.124
      -2.451
      -2.834
      -3.324
      -3.900
      -4.463
      -4.867
      -4.997
      -4.822
      -4.404
      -3.851
      -3.260
      -2.679
      -2.134
      -1.671
      -1.369
      -1.314
      -1.529
      -1.942
      -2.397
      -2.713
      -2.769
      -2.546
      -2.120
      -1.611
      -1.131
      -0.758
      -0.525
      -0.417
      -0.366
      -0.262
       0.002
       0.465
       1.055
       1.616
       2.004
       2.187
       2.256
       2.329
       2.446
       2.530
       2.447
       2.111
       1.554
       0.927
       0.425
       0.180
       0.184
       0.307
       0.386
       0.320
       0.114
      -0.157
      -0.392
      -0.511
      -0.486
      -0.363
      -0.255
      -0.282
      -0.492
      -0.829
      -1.153
      -1.314
      -1.206
      -0.821
      -0.264
       0.288
       0.679
       0.855
       0.876
       0.843
       0.827
       0.839
       0.844
       0.801
       0.695
       0.559
       0.478
       0.548
       0.815
       1.212
       1.576
       1.742
       1.644
       1.355
       1.021
       0.775
       0.665
       0.661
       0.701
       0.752
       0.836
       0.985
       1.171
       1.288
       1.230
       1.009
       0.791
       0.782
       1.056
       1.476
       1.808
       1.916
       1.869
       1.851
       1.995
       2.268
       2.493
       2.464
       2.060
       1.322
       0.419
      -0.469
      -1.275
      -2.058
      -2.889
      -3.732
      -4.443
      -4.863
      -4.906
      -4.560
      -3.866
      -2.935
      -1.957
      -1.153
      -0.658
      -0.463
      -0.471
      -0.593
      -0.796
      -1.070
      -1.383
      -1.671
      -1.842
      -1.795
      -1.459
      -0.862
      -0.158
       0.439
       0.786
       0.896
       0.918
       1.033
       1.342
       1.806
       2.267
       2.519
       2.439
       2.066
       1.577
       1.151
       0.830
       0.515
       0.109
      -0.365
      -0.766
      -0.962
      -0.919
      -0.697
      -0.401
      -0.121
       0.103
       0.300
       0.533
       0.837
       1.200
       1.597
       2.020
       2.427
       2.664
       2.510
       1.848
       0.811
      -0.265
      -1.051
      -1.439
      -1.588
      -1.802
      -2.309
      -3.104
      -3.923
      -4.382
      -4.208
      -3.409
      -2.263
      -1.161
      -0.412
      -0.146
      -0.314
      -0.724
      -1.098
      -1.198
      -0.975
      -0.633
      -0.499
      -0.792
      -1.463
      -2.243
      -2.819
      -2.983
      -2.683
      -2.009
      -1.149
      -0.314
       0.360
       0.865
       1.289
       1.725
       2.179
       2.571
       2.793
       2.800
       2.658
       2.509
       2.481
       2.591
       2.752
       2.867
       2.925
       2.987
       3.099
       3.228
       3.298
       3.269
       3.179
       3.099
       3.046
       2.940
       2.642
       2.057
       1.228
       0.334
      -0.417
      -0.927
      -1.269
      -1.612
      -2.073
      -2.627
      -3.115
      -3.358
      -3.280
      -2.953
      -2.558
      -2.268
      -2.176
      -2.290
      -2.586
      -3.038
      -3.588
      -4.101
      -4.397
      -4.362
      -4.047
      -3.654
      -3.403
      -3.355
      -3.353
      -3.110
      -2.408
      -1.258
       0.071
       1.184
       1.761
       1.697
       1.114
       0.269
      -0.578
      -1.256
      -1.697
      -1.882
      -1.778
      -1.310
      -0.395
       0.987
       2.746
       4.687
       6.566
       8.156
       9.304
       9.951
      10.125
       9.918
       9.465
       8.941
       8.505
       8.219
       7.983
       7.569
       6.766
       5.517
       3.964
       2.351
       0.898
      -0.275
      -1.138
      -1.720
      -2.080
      -2.293
      -2.432
      -2.529
      -2.561
      -2.478
      -2.262
      -1.965
      -1.696
      -1.586
      -1.745
      -2.208
      -2.905
      -3.677
      -4.343
      -4.792
      -5.026
      -5.153
      -5.314
      -5.603
      -5.999
      -6.347
      -6.418
      -6.031
      -5.174
      -4.048
      -2.979
      -2.242
      -1.902
      -1.803
      -1.683
      -1.340
      -0.716
       0.129
       1.093
       2.074
       2.969
       3.676
       4.121
       4.297
       4.261
       4.103
       3.909
       3.715
       3.483
       3.124
       2.558
       1.797
       0.956
       0.195
      -0.380
      -0.780
      -1.112
      -1.489
      -1.940
      -2.374
      -2.635
      -2.610
      -2.306
      -1.819
      -1.245
      -0.621
       0.037
       0.661
       1.131
       1.384
       1.510
       1.716
       2.164
       2.822
       3.447
       3.727
       3.470
       2.722
       1.738
       0.836
       0.236
      -0.015
       0.013
       0.219
       0.525
       0.849
       1.082
       1.138
       1.051
       1.007
       1.237
       1.833
       2.640
       3.338
       3.639
       3.448
       2.878
       2.152
       1.506
       1.118
       1.069
       1.315
       1.690
       1.974
       1.964
       1.561
       0.809
      -0.107
      -0.936
      -1.507
      -1.853
      -2.193
      -2.782
      -3.728
      -4.948
      -6.242
      -7.394
      -8.223
      -8.614
      -8.549
      -8.131
      -7.534
      -6.905
      -6.283
      -5.607
      -4.790
      -3.808
      -2.744
      -1.784
      -1.131
      -0.885
      -0.961
      -1.116
      -1.072
      -0.632
       0.266
       1.553
       3.047
       4.488
       5.623
       6.335
       6.735
       7.108
       7.715
       8.594
       9.513
      10.107
      10.085
       9.371
       8.113
       6.572
       4.992
       3.515
       2.182
       0.991
      -0.056
      -0.966
      -1.802
      -2.678
      -3.676
      -4.740
      -5.654
      -6.166
      -6.156
      -5.738
      -5.215
      -4.919
      -5.043
      -5.531
      -6.100
      -6.386
      -6.168
      -5.498
      -4.644
      -3.897
      -3.381
      -2.996
      -2.486
      -1.575
      -0.100
       1.888
       4.116
       6.205
       7.853
       8.953
       9.592
       9.956
      10.222
      10.474
      10.651
      10.562
       9.987
       8.837
       7.234
       5.438
       3.699
       2.168
       0.927
       0.034
      -0.509
      -0.834
      -1.202
      -1.867
      -2.919
      -4.219
      -5.488
      -6.449
      -6.954
      -7.025
      -6.836
      -6.630
      -6.615
      -6.860
      -7.252
      -7.532
      -7.439
      -6.878
      -5.981
      -5.007
      -4.154
      -3.431
      -2.686
      -1.751
      -0.611
       0.549
       1.423
       1.752
       1.480
       0.801
       0.069
      -0.386
      -0.414
      -0.081
       0.406
       0.827
       1.051
       1.096
       1.113
       1.291
       1.689
       2.160
       2.426
       2.271
       1.673
       0.793
      -0.148
      -0.958
      -1.497
      -1.694
      -1.578
      -1.293
      -1.051
      -1.043
      -1.345
      -1.883
      -2.454
      -2.795
      -2.696
      -2.113
      -1.196
      -0.183
       0.732
       1.454
       1.944
       2.189
       2.235
       2.212
       2.271
       2.450
       2.600
       2.433
       1.669
       0.183
      -1.881
      -4.115
      -5.992
      -7.110
      -7.365
      -6.945
      -6.138
      -5.131
      -3.944
      -2.519
      -0.844
       0.992
       2.821
       4.455
       5.736
       6.564
       6.885
       6.667
       5.892
       4.622
       3.050
       1.465
       0.093
      -1.015
      -1.934
      -2.694
      -3.180
      -3.201
      -2.658
      -1.659
      -0.532
       0.268
       0.335
      -0.496
      -2.000
      -3.608
      -4.654
      -4.735
      -3.934
      -2.775
      -1.918
      -1.798
      -2.407
      -3.289
      -3.744
      -3.172
      -1.398
       1.221
       3.972
       6.159
       7.422
       7.829
       7.730
       7.485
       7.250
       6.946
       6.406
       5.584
       4.644
       3.857
       3.388
       3.164
       2.959
       2.628
       2.284
       2.255
       2.858
       4.177
       5.987
       7.859
       9.354
      10.209
      10.407
      10.094
       9.414
       8.381
       6.888
       4.847
       2.295
      -0.609
      -3.691
      -6.838
      -9.983
     -13.041
     -15.878
     -18.319
     -20.156
     -21.173
     -21.222
     -20.342
     -18.786
     -16.914
     -15.018
     -13.231
     -11.510
      -9.709
      -7.695
      -5.503
      -3.412
      -1.872
      -1.271
      -1.717
      -2.975
      -4.569
      -5.969
      -6.726
      -6.576
      -5.516
      -3.775
      -1.656
       0.667
       3.184
       5.877
       8.527
      10.765
      12.330
      13.250
      13.731
      13.863
      13.486
      12.341
      10.364
       7.844
       5.315
       3.266
       1.872
       0.948
       0.182
      -0.585
      -1.260
      -1.649
      -1.672
      -1.435
      -1.132
      -0.912
      -0.809
      -0.768
      -0.725
      -0.702
      -0.845
      -1.334
      -2.219
      -3.330
      -4.371
      -5.093
      -5.386
      -5.236
      -4.669
      -3.762
      -2.685
      -1.664
      -0.878
      -0.349
       0.064
       0.595
       1.441
       2.646
       4.048
       5.343
       6.234
       6.563
       6.350
       5.714
       4.784
       3.644
       2.383
       1.174
       0.284
      -0.049
       0.218
       0.845
       1.449
       1.768
       1.871
       2.122
       2.944
       4.561
       6.861
       9.421
      11.663
      13.084
      13.467
      12.945
      11.862
      10.551
       9.171
       7.701
       6.053
       4.166
       2.052
      -0.196
      -2.388
      -4.262
      -5.585
      -6.249
      -6.300
      -5.856
      -5.035
      -3.936
      -2.707
      -1.593
      -0.908
      -0.892
      -1.537
      -2.531
      -3.405
      -3.801
      -3.658
      -3.207
      -2.795
      -2.695
      -2.991
      -3.566
      -4.161
      -4.488
      -4.366
      -3.816
      -3.035
      -2.257
      -1.612
      -1.097
      -0.663
      -0.313
      -0.121
      -0.152
      -0.363
      -0.597
      -0.687
      -0.600
      -0.470
      -0.453
      -0.533
      -0.455
       0.123
       1.416
       3.405
       5.901
       8.656
      11.409
      13.874
      15.743
      16.750
      16.757
      15.780
      13.960
      11.516
       8.730
       5.957
       3.588
       1.984
       1.388
       1.836
       3.097
       4.680
       5.988
       6.577
       6.349
       5.528
       4.425
       3.196
       1.762
      -0.104
      -2.605
      -5.780
      -9.389
     -12.907
     -15.690
     -17.288
     -17.658
     -17.137
     -16.201
     -15.232
     -14.410
     -13.727
     -13.043
     -12.185
     -11.045
      -9.627
      -8.004
      -6.253
      -4.444
      -2.677
      -1.086
       0.202
       1.107
       1.585
       1.646
       1.420
       1.204
       1.349
       1.998
       2.918
       3.602
       3.603
       2.844
       1.672
       0.652
       0.228
       0.458
       0.978
       1.238
       0.869
      -0.098
      -1.311
      -2.365
      -3.025
      -3.269
      -3.221
      -3.065
      -2.977
      -3.060
      -3.282
      -3.460
      -3.334
      -2.738
      -1.760
      -0.748
      -0.157
      -0.337
      -1.406
      -3.201
      -5.315
      -7.204
      -8.383
      -8.617
      -8.008
      -6.911
      -5.752
      -4.871
      -4.431
      -4.361
      -4.334
      -3.875
      -2.627
      -0.634
       1.597
       3.324
       3.970
       3.428
       2.116
       0.742
      -0.089
      -0.207
       0.099
       0.350
       0.240
      -0.163
      -0.480
      -0.288
       0.630
       2.209
       4.213
       6.382
       8.479
      10.283
      11.603
      12.388
      12.797
      13.136
      13.658
      14.369
      15.001
      15.182
      14.670
      13.485
      11.864
      10.062
       8.176
       6.148
       3.940
       1.681
      -0.376
      -2.013
      -3.174
      -3.926
      -4.348
      -4.476
      -4.327
      -3.967
      -3.528
      -3.195
      -3.154
      -3.504
      -4.202
      -5.100
      -6.054
      -6.997
      -7.912
      -8.763
      -9.456
      -9.883
     -10.007
      -9.883
      -9.588
      -9.145
      -8.513
      -7.650
      -6.566
      -5.344
      -4.132
      -3.094
      -2.344
      -1.890
      -1.676
      -1.676
      -1.941
      -2.531
      -3.386
      -4.266
      -4.838
      -4.840
      -4.241
      -3.270
      -2.327
      -1.787
      -1.802
      -2.231
      -2.718
      -2.875
      -2.436
      -1.325
       0.341
       2.268
       4.058
       5.328
       5.876
       5.782
       5.372
       5.007
       4.836
       4.715
       4.380
       3.714
       2.888
       2.244
       2.049
       2.278
       2.582
       2.466
       1.584
      -0.046
      -2.038
      -3.825
      -4.893
      -4.970
      -4.074
      -2.449
      -0.413
       1.789
       4.018
       6.195
       8.221
       9.959
      11.289
      12.179
      12.701
      12.995
      13.200
      13.400
      13.597
      13.712
      13.612
      13.176
      12.365
      11.264
      10.038
       8.838
       7.740
       6.760
       5.906
       5.174
       4.500
       3.746
       2.778
       1.572
       0.247
      -1.011
      -2.053
      -2.839
      -3.446
      -4.021
      -4.705
      -5.556
      -6.555
      -7.673
      -8.917
     -10.273
     -11.604
     -12.656
     -13.172
     -13.032
     -12.309
     -11.223
     -10.025
      -8.873
      -7.749
      -6.482
      -4.910
      -3.073
      -1.278
       0.064
       0.720
       0.808
       0.729
       0.876
       1.387
       2.115
       2.810
       3.329
       3.702
       4.074
       4.600
       5.340
       6.195
       6.957
       7.467
       7.714
       7.779
       7.674
       7.289
       6.492
       5.243
       3.627
       1.812
       0.035
      -1.438
      -2.434
      -3.012
      -3.446
      -4.020
      -4.828
      -5.792
