Origin Time       19/8/2009 10:45:15	
Lat.              26.6 N	
Long.             92.5 E	
Depth (Km)         20.0
Magnitude         4.9
 Region           Sonitpur-Assam                                                   
 Above details taken from IMD 
   
Station Code      BOK
Station Lat.       25.976
Station Long.      91.230
Station Height(m)   68.0
Site Class        C   Vs30 between 200 m/sec to 375 m/sec *  
Record Time       19.08.2009 10:45:43.654
Sampling Rate     200. Hz
 Record Duration   66.735 Sec.
 Direction         Vert. (Up positive)
Max. Acceleration      4.682 cm/sec**2
     
  * For reference see Site Classification link of website 
     
 Base Line Corrected and Low Pass Filtered (Cut Off at 35 Hz) Time History
 Acceleration data in cm/sec**2
    
[...]
      -0.229
      -0.576
      -0.613
      -0.250
       0.167
       0.291
       0.144
      -0.021
      -0.073
      -0.087
      -0.119
      -0.086
       0.078
       0.259
       0.225
      -0.127
      -0.625
      -0.953
      -0.928
      -0.663
      -0.414
      -0.294
      -0.174
       0.100
       0.448
       0.600
       0.408
       0.054
      -0.131
      -0.013
       0.258
       0.465
       0.518
       0.440
       0.288
       0.146
       0.102
       0.125
       0.026
      -0.327
      -0.740
      -0.795
      -0.345
       0.230
       0.404
       0.114
      -0.209
      -0.226
      -0.091
      -0.137
      -0.356
      -0.417
      -0.146
       0.244
       0.434
       0.339
       0.085
      -0.190
      -0.377
      -0.338
      -0.028
       0.302
       0.251
      -0.259
      -0.772
      -0.760
      -0.208
       0.430
       0.805
       0.944
       0.916
       0.554
      -0.218
      -0.960
      -1.030
      -0.366
       0.350
       0.464
       0.080
      -0.209
      -0.146
      -0.052
      -0.222
      -0.446
      -0.346
       0.008
       0.170
      -0.053
      -0.341
      -0.327
      -0.065
       0.157
       0.299
       0.557
       0.894
       0.923
       0.425
      -0.237
      -0.450
      -0.061
       0.450
       0.554
       0.255
      -0.007
       0.100
       0.492
       0.859
       0.957
       0.735
       0.324
      -0.004
      -0.010
       0.263
       0.446
       0.212
      -0.306
      -0.591
      -0.321
       0.238
       0.542
       0.372
      -0.028
      -0.392
      -0.736
      -1.119
      -1.314
      -1.013
      -0.341
       0.113
      -0.065
      -0.599
      -0.867
      -0.669
      -0.392
      -0.405
      -0.576
      -0.554
      -0.332
      -0.231
      -0.333
      -0.271
       0.237
       0.856
       0.945
       0.365
      -0.300
      -0.430
      -0.045
       0.371
       0.525
       0.540
       0.558
       0.471
       0.190
      -0.056
       0.034
       0.354
       0.448
       0.114
      -0.268
      -0.217
       0.178
       0.347
      -0.019
      -0.566
      -0.759
      -0.542
      -0.298
      -0.256
      -0.229
      -0.028
       0.162
       0.038
      -0.277
      -0.271
       0.297
       1.009
       1.212
       0.756
       0.155
       0.005
       0.344
       0.691
       0.599
       0.078
      -0.499
      -0.746
      -0.546
      -0.111
       0.182
       0.102
      -0.217
      -0.387
      -0.170
       0.233
       0.408
       0.220
      -0.039
      -0.050
       0.134
       0.196
       0.013
      -0.177
      -0.105
       0.164
       0.341
       0.309
       0.257
       0.385
       0.617
       0.729
       0.642
       0.446
       0.189
      -0.156
      -0.489
      -0.537
      -0.181
       0.275
       0.347
      -0.076
      -0.568
      -0.644
      -0.304
       0.028
       0.040
      -0.169
      -0.321
      -0.327
      -0.308
      -0.360
      -0.460
      -0.601
      -0.836
      -1.104
      -1.141
      -0.747
      -0.106
       0.331
       0.319
       0.080
       0.018
       0.241
       0.489
       0.511
       0.385
       0.361
       0.488
       0.526
       0.266
      -0.189
      -0.505
      -0.461
      -0.147
       0.153
       0.222
       0.076
      -0.089
      -0.076
       0.133
       0.342
       0.326
       0.098
      -0.095
      -0.096
      -0.081
      -0.316
      -0.713
      -0.828
      -0.417
       0.149
       0.242
      -0.265
      -0.794
      -0.722
      -0.102
       0.432
       0.394
      -0.085
      -0.528
      -0.640
      -0.490
      -0.287
      -0.176
      -0.204
      -0.324
      -0.389
      -0.251
       0.042
       0.254
       0.220
       0.051
      -0.006
       0.134
       0.331
       0.430
       0.434
       0.402
       0.307
       0.115
      -0.078
      -0.111
       0.038
       0.239
       0.406
       0.565
       0.702
       0.659
       0.328
      -0.092
      -0.220
       0.068
       0.487
       0.678
       0.587
       0.380
       0.142
      -0.168
      -0.470
      -0.521
      -0.250
       0.053
       0.061
      -0.182
      -0.350
      -0.292
      -0.193
      -0.242
      -0.354
      -0.358
      -0.321
      -0.431
      -0.610
      -0.489
       0.085
       0.734
       0.919
       0.554
       0.023
      -0.346
      -0.552
      -0.634
      -0.454
       0.046
       0.550
       0.619
       0.225
      -0.173
      -0.166
       0.143
       0.362
       0.369
       0.382
       0.509
       0.546
       0.360
       0.208
       0.416
       0.829
       0.904
       0.429
      -0.096
      -0.021
       0.621
       1.082
       0.758
      -0.125
      -0.822
      -0.920
      -0.667
      -0.517
      -0.602
      -0.777
      -0.937
      -1.071
      -1.072
      -0.755
      -0.170
       0.286
       0.259
      -0.149
      -0.496
      -0.521
      -0.393
      -0.397
      -0.547
      -0.648
      -0.636
      -0.634
      -0.686
      -0.635
      -0.372
      -0.055
       0.095
       0.128
       0.300
       0.683
       1.026
       1.069
       0.851
       0.587
       0.355
       0.070
      -0.239
      -0.341
      -0.090
       0.293
       0.404
       0.111
      -0.291
      -0.383
      -0.004
       0.652
       1.189
       1.267
       0.849
       0.307
       0.165
       0.556
       0.991
       0.843
       0.079
      -0.654
      -0.773
      -0.406
      -0.151
      -0.284
      -0.496
      -0.435
      -0.234
      -0.264
      -0.512
      -0.535
      -0.098
       0.429
       0.507
       0.117
      -0.211
      -0.065
       0.364
       0.579
       0.401
       0.139
       0.136
       0.347
       0.432
       0.189
      -0.218
      -0.458
      -0.367
      -0.060
       0.234
       0.360
       0.307
       0.146
      -0.038
      -0.165
      -0.149
       0.047
       0.311
       0.420
       0.256
      -0.016
      -0.085
       0.123
       0.317
       0.173
      -0.239
      -0.509
      -0.405
      -0.187
      -0.253
      -0.559
      -0.645
      -0.269
       0.210
       0.257
      -0.158
      -0.557
      -0.630
      -0.623
      -0.888
      -1.257
      -1.196
      -0.596
      -0.050
      -0.172
      -0.817
      -1.241
      -0.975
      -0.310
       0.113
       0.002
      -0.392
      -0.604
      -0.351
       0.323
       1.067
       1.396
       1.065
       0.409
       0.136
       0.579
       1.256
       1.366
       0.709
      -0.088
      -0.314
       0.060
       0.479
       0.507
       0.191
      -0.200
      -0.519
      -0.678
      -0.488
       0.150
       0.935
       1.287
       0.906
       0.087
      -0.597
      -0.815
      -0.632
      -0.295
      -0.028
      -0.011
      -0.321
      -0.798
      -1.094
      -1.037
      -0.851
      -0.832
      -0.870
      -0.555
       0.175
       0.737
       0.506
      -0.392
      -1.130
      -1.082
      -0.470
       0.028
       0.126
       0.119
       0.272
       0.409
       0.286
       0.082
       0.207
       0.695
       1.092
       1.011
       0.582
       0.215
       0.063
      -0.063
      -0.257
      -0.301
      -0.027
       0.326
       0.363
       0.061
      -0.216
      -0.215
      -0.081
      -0.037
       0.001
       0.220
       0.479
       0.402
      -0.034
      -0.338
      -0.127
       0.297
       0.244
      -0.493
      -1.337
      -1.598
      -1.257
      -0.860
      -0.748
      -0.735
      -0.551
      -0.263
      -0.075
       0.085
       0.480
       1.081
       1.441
       1.215
       0.673
       0.445
       0.771
       1.208
       1.168
       0.594
      -0.021
      -0.203
       0.042
       0.318
       0.287
      -0.036
      -0.338
      -0.281
       0.249
       1.023
       1.569
       1.508
       0.895
       0.189
      -0.167
      -0.134
      -0.027
      -0.113
      -0.336
      -0.438
      -0.268
       0.058
       0.281
       0.246
       0.060
       0.025
       0.368
       0.972
       1.402
       1.276
       0.646
      -0.038
      -0.410
      -0.567
      -0.875
      -1.394
      -1.707
      -1.421
      -0.697
      -0.114
      -0.019
      -0.222
      -0.362
      -0.363
      -0.328
      -0.169
       0.345
       1.094
       1.495
       1.110
       0.267
      -0.219
      -0.004
       0.381
       0.245
      -0.346
      -0.674
      -0.339
       0.218
       0.312
      -0.080
      -0.318
       0.038
       0.634
       0.770
       0.270
      -0.334
      -0.475
      -0.175
       0.091
       0.017
      -0.241
      -0.369
      -0.306
      -0.232
      -0.264
      -0.305
      -0.208
       0.009
       0.193
       0.250
       0.245
       0.276
       0.335
       0.352
       0.324
       0.332
       0.428
       0.546
       0.542
       0.298
      -0.185
      -0.791
      -1.342
      -1.652
      -1.616
      -1.319
      -1.027
      -0.972
      -1.097
      -1.045
      -0.469
       0.598
       1.673
       2.197
       2.006
       1.446
       0.997
       0.829
       0.743
       0.507
       0.145
      -0.174
      -0.454
      -0.928
      -1.709
      -2.467
      -2.608
      -1.863
      -0.647
       0.251
       0.359
      -0.089
      -0.430
      -0.190
       0.554
       1.334
       1.717
       1.605
       1.232
       0.898
       0.717
       0.562
       0.272
      -0.080
      -0.192
       0.104
       0.531
       0.561
      -0.002
      -0.718
      -0.943
      -0.531
       0.026
       0.186
      -0.036
      -0.189
      -0.044
       0.108
      -0.069
      -0.386
      -0.346
       0.124
       0.487
       0.266
      -0.343
      -0.749
      -0.713
      -0.564
      -0.618
      -0.675
      -0.333
       0.339
       0.780
       0.638
       0.209
       0.038
       0.251
       0.478
       0.408
       0.191
       0.218
       0.622
       1.135
       1.351
       1.058
       0.375
      -0.290
      -0.468
      -0.026
       0.597
       0.727
       0.176
      -0.493
      -0.605
      -0.201
      -0.013
      -0.530
      -1.323
      -1.502
      -0.782
       0.124
       0.268
      -0.545
      -1.621
      -2.130
      -1.828
      -1.072
      -0.357
       0.023
       0.014
      -0.256
      -0.548
      -0.632
      -0.425
       0.000
       0.514
       0.988
       1.295
       1.342
       1.144
       0.861
       0.747
       0.972
       1.429
       1.762
       1.640
       1.032
       0.211
      -0.452
      -0.713
      -0.598
      -0.356
      -0.246
      -0.337
      -0.503
      -0.554
      -0.368
      -0.001
       0.313
       0.333
       0.047
      -0.277
      -0.332
      -0.105
       0.060
      -0.212
      -0.954
      -1.823
      -2.374
      -2.322
      -1.625
      -0.490
       0.650
       1.300
       1.244
       0.779
       0.499
       0.712
       1.129
       1.238
       0.924
       0.547
       0.419
       0.443
       0.374
       0.248
       0.330
       0.643
       0.820
       0.532
      -0.080
      -0.578
      -0.769
      -0.820
      -0.829
      -0.611
      -0.107
       0.261
      -0.006
      -0.736
      -1.134
      -0.730
       0.002
       0.222
      -0.213
      -0.604
      -0.345
       0.333
       0.747
       0.627
       0.280
       0.012
      -0.200
      -0.397
      -0.395
      -0.110
       0.129
      -0.041
      -0.341
      -0.019
       1.120
       2.213
       2.238
       1.275
       0.441
       0.529
       1.082
       1.070
       0.213
      -0.764
      -1.144
      -1.043
      -1.020
      -1.208
      -1.194
      -0.710
      -0.058
       0.320
       0.416
       0.550
       0.775
       0.731
       0.165
      -0.593
      -0.910
      -0.594
      -0.149
      -0.205
      -0.808
      -1.415
      -1.544
      -1.257
      -1.018
      -1.163
      -1.568
      -1.803
      -1.508
      -0.651
       0.462
       1.344
       1.594
       1.202
       0.606
       0.348
       0.554
       0.797
       0.584
      -0.058
      -0.601
      -0.666
      -0.449
      -0.349
      -0.304
       0.158
       1.170
       2.126
       2.294
       1.682
       1.003
       0.780
       0.791
       0.516
      -0.135
      -0.834
      -1.448
      -2.210
      -3.139
      -3.614
      -2.952
      -1.356
       0.118
       0.706
       0.753
       1.182
       2.339
       3.653
       4.355
       4.185
       3.340
       2.045
       0.500
      -0.905
      -1.733
      -1.994
      -2.231
      -2.854
      -3.496
      -3.306
      -1.934
      -0.014
       1.487
       2.222
       2.579
       2.971
       3.307
       3.246
       2.696
       1.826
       0.765
      -0.417
      -1.428
      -1.796
      -1.401
      -0.797
      -0.723
      -1.254
      -1.681
      -1.344
      -0.396
       0.451
       0.744
       0.579
       0.148
      -0.606
      -1.687
      -2.662
      -2.983
      -2.664
      -2.268
      -2.111
      -1.756
      -0.583
       1.257
       2.796
       3.258
       2.888
       2.572
       2.759
       3.008
       2.620
       1.440
      -0.071
      -1.366
      -2.192
      -2.580
      -2.716
      -2.845
      -3.065
      -3.130
      -2.601
      -1.314
       0.374
       1.892
       3.002
       3.865
       4.546
       4.682
       3.866
       2.246
       0.469
      -0.953
      -1.990
      -2.821
      -3.454
      -3.749
      -3.653
      -3.217
      -2.446
      -1.328
      -0.094
       0.787
       1.096
       1.217
       1.673
       2.352
       2.525
       1.754
       0.515
      -0.321
      -0.488
      -0.493
      -0.826
      -1.375
      -1.804
      -2.116
      -2.450
      -2.511
      -1.736
      -0.174
       1.209
       1.456
       0.738
       0.152
       0.334
       0.723
       0.458
      -0.357
      -0.770
      -0.225
       0.820
       1.665
       2.249
       2.881
       3.422
       3.328
       2.528
       1.735
       1.583
       1.745
       1.349
       0.154
      -1.125
      -1.796
      -2.066
      -2.625
      -3.594
      -4.317
      -4.228
      -3.517
      -2.733
      -1.988
      -0.943
       0.536
       2.058
       3.096
       3.441
       3.183
       2.467
       1.477
       0.552
       0.023
      -0.096
      -0.038
       0.103
       0.448
       0.933
       1.107
       0.577
      -0.390
      -1.060
      -1.122
      -1.113
      -1.697
      -2.725
      -3.325
      -2.912
      -1.800
      -0.712
       0.036
       0.600
       1.068
       1.287
       1.317
       1.626
       2.505
       3.462
       3.583
       2.569
       1.138
       0.234
       0.048
       0.021
      -0.276
      -0.632
      -0.636
      -0.344
      -0.204
      -0.384
      -0.483
      -0.113
       0.448
       0.474
      -0.326
      -1.389
      -1.895
      -1.646
      -1.229
      -1.345
      -2.028
      -2.560
      -2.173
      -0.869
       0.496
       0.992
       0.458
      -0.378
      -0.563
       0.284
       1.721
       2.907
       3.219
       2.591
       1.484
       0.569
       0.246
       0.337
       0.273
      -0.315
      -1.170
      -1.654
      -1.437
      -0.859
      -0.551
      -0.765
      -1.212
      -1.498
      -1.516
      -1.376
      -1.138
      -0.788
      -0.396
      -0.136
      -0.090
      -0.127
      -0.043
       0.229
       0.674
       1.367
       2.405
       3.606
       4.398
       4.207
       3.018
       1.497
       0.445
       0.095
       0.016
      -0.279
      -0.786
      -1.166
      -1.281
      -1.393
      -1.786
      -2.295
      -2.329
      -1.451
       0.056
       1.309
       1.587
       0.928
      -0.025
      -0.706
      -1.084
      -1.498
      -2.182
      -3.000
      -3.588
      -3.662
      -3.170
      -2.251
      -1.134
      -0.050
       0.867
       1.641
       2.386
       3.127
       3.694
       3.858
       3.574
       3.037
       2.497
       2.083
       1.771
       1.414
       0.820
      -0.078
      -1.050
      -1.634
      -1.483
      -0.698
       0.212
       0.725
       0.689
       0.365
       0.135
       0.148
       0.203
      -0.073
      -0.880
      -2.002
      -2.886
      -3.068
      -2.578
      -1.903
      -1.477
      -1.272
      -0.957
      -0.401
       0.166
       0.487
       0.665
       1.054
       1.787
       2.503
       2.633
       1.950
       0.773
      -0.294
      -0.760
      -0.488
       0.211
       0.699
       0.411
      -0.661
      -1.865
      -2.365
      -1.850
      -0.777
       0.121
       0.530
       0.708
       1.018
       1.425
       1.500
       0.889
      -0.302
      -1.548
      -2.266
      -2.168
      -1.392
      -0.403
       0.262
       0.316
      -0.106
      -0.613
      -0.908
      -0.952
      -0.807
      -0.456
       0.110
       0.705
       1.058
       1.170
       1.370
       1.885
       2.404
       2.315
       1.435
       0.370
      -0.063
       0.270
       0.709
       0.611
       0.082
      -0.246
      -0.013
       0.501
       0.771
       0.571
       0.096
      -0.311
      -0.411
      -0.146
       0.330
       0.669
       0.558
       0.032
      -0.527
      -0.789
      -0.819
      -0.940
      -1.281
      -1.627
      -1.734
      -1.592
      -1.308
      -0.894
      -0.364
       0.056
       0.083
      -0.183
      -0.197
       0.433
       1.376
       1.860
       1.538
       0.848
       0.428
       0.427
       0.552
       0.594
       0.562
       0.344
      -0.341
      -1.441
      -2.280
      -2.137
      -1.122
      -0.187
      -0.088
      -0.554
      -0.712
      -0.219
       0.354
       0.291
      -0.373
      -0.926
      -0.793
      -0.030
       0.942
       1.798
       2.408
       2.671
       2.505
       1.983
       1.318
       0.662
       0.020
      -0.561
      -0.888
      -0.875
      -0.815
      -1.105
      -1.655
      -1.837
      -1.221
      -0.198
       0.381
       0.154
      -0.371
      -0.464
      -0.028
       0.386
       0.340
       0.041
       0.011
       0.402
       0.868
       1.045
       0.938
       0.762
       0.583
       0.272
      -0.237
      -0.774
      -1.038
      -0.833
      -0.242
       0.385
       0.651
       0.433
       0.002
      -0.209
      -0.019
       0.336
       0.460
       0.224
      -0.116
      -0.235
      -0.098
       0.060
       0.064
      -0.046
      -0.193
      -0.441
      -0.903
      -1.540
      -2.106
      -2.292
      -1.932
      -1.108
      -0.120
       0.661
       0.981
       0.850
       0.501
       0.179
      -0.008
      -0.034
       0.182
       0.733
       1.548
       2.299
       2.558
       2.110
       1.153
       0.189
      -0.338
      -0.381
      -0.285
      -0.411
      -0.714
      -0.767
      -0.324
       0.206
       0.071
      -0.951
      -2.173
      -2.636
      -2.067
      -1.065
      -0.365
      -0.158
      -0.233
      -0.519
      -1.107
      -1.794
      -1.961
      -1.165
       0.266
