Origin Time       3/9/2009 19:51:08	 
Lat.              24.3 N	
Long.             94.6 E	
Depth (Km)        100.0
Magnitude         5.9
 Region           MYANMAR-India-Manipuir-Border                                    
 Above details taken from IMD 
   
Station Code      BOK
Station Lat.       25.976
Station Long.      91.230
Station Height(m)   68.0
Site Class        C   Vs30 between 200 m/sec to 375 m/sec *  
Record Time       03.09.2009 19:52:22.739
Sampling Rate     200. Hz
 Record Duration   72.675 Sec.
 Direction         Vert. (Up positive)
Max. Acceleration     -5.490 cm/sec**2
     
  * For reference see Site Classification link of website 
     
 Base Line Corrected and Low Pass Filtered (Cut Off at 35 Hz) Time History
 Acceleration data in cm/sec**2
    
[...]
       0.053
       0.264
       0.104
      -0.355
      -0.689
      -0.565
      -0.128
       0.190
       0.234
       0.338
       0.850
       1.507
       1.536
       0.527
      -0.914
      -1.599
      -0.918
       0.495
       1.349
       0.936
      -0.235
      -1.040
      -0.844
       0.030
       0.791
       0.934
       0.530
      -0.008
      -0.286
      -0.128
       0.334
       0.687
       0.500
      -0.245
      -0.988
      -1.044
      -0.275
       0.724
       1.164
       0.761
      -0.065
      -0.629
      -0.557
      -0.028
       0.481
       0.619
       0.381
       0.014
      -0.229
      -0.252
      -0.133
      -0.025
      -0.054
      -0.249
      -0.518
      -0.694
      -0.654
      -0.428
      -0.175
      -0.032
       0.004
       0.014
      -0.007
      -0.145
      -0.361
      -0.396
      -0.017
       0.644
       1.087
       0.879
       0.114
      -0.627
      -0.799
      -0.379
       0.181
       0.443
       0.371
       0.222
       0.163
       0.103
      -0.084
      -0.311
      -0.367
      -0.197
       0.020
       0.103
       0.094
       0.166
       0.321
       0.334
       0.088
      -0.182
      -0.136
       0.188
       0.352
       0.065
      -0.406
      -0.525
      -0.138
       0.333
       0.383
      -0.013
      -0.452
      -0.618
      -0.549
      -0.408
      -0.167
       0.298
       0.855
       1.075
       0.673
      -0.110
      -0.691
      -0.708
      -0.309
       0.065
       0.116
      -0.078
      -0.192
      -0.024
       0.250
       0.254
      -0.123
      -0.495
      -0.359
       0.292
       0.838
       0.670
      -0.087
      -0.684
      -0.610
      -0.133
       0.119
      -0.065
      -0.347
      -0.398
      -0.317
      -0.361
      -0.483
      -0.406
      -0.091
       0.149
       0.094
      -0.056
       0.044
       0.403
       0.674
       0.619
       0.378
       0.207
       0.119
      -0.041
      -0.268
      -0.369
      -0.260
      -0.088
       0.016
       0.155
       0.457
       0.745
       0.661
       0.171
      -0.272
      -0.245
       0.129
       0.355
       0.196
      -0.101
      -0.222
      -0.183
      -0.182
      -0.224
      -0.164
      -0.035
      -0.026
      -0.115
      -0.031
       0.283
       0.416
      -0.015
      -0.722
      -0.951
      -0.409
       0.313
       0.481
       0.129
      -0.108
       0.039
       0.163
      -0.072
      -0.339
      -0.155
       0.311
       0.385
      -0.144
      -0.644
      -0.452
       0.218
       0.538
       0.139
      -0.449
      -0.510
       0.020
       0.616
       0.833
       0.653
       0.272
      -0.106
      -0.223
       0.132
       0.751
       0.966
       0.337
      -0.662
      -1.009
      -0.294
       0.738
       1.005
       0.286
      -0.631
      -0.913
      -0.536
      -0.080
       0.089
       0.130
       0.267
       0.385
       0.259
      -0.038
      -0.187
      -0.060
       0.095
      -0.026
      -0.379
      -0.605
      -0.443
      -0.019
       0.279
       0.175
      -0.230
      -0.524
      -0.375
       0.110
       0.412
       0.099
      -0.684
      -1.281
      -1.148
      -0.385
       0.394
       0.675
       0.463
       0.136
       0.018
       0.153
       0.397
       0.559
       0.460
       0.033
      -0.516
      -0.780
      -0.534
       0.002
       0.393
       0.459
       0.354
       0.232
       0.033
      -0.321
      -0.659
      -0.718
      -0.502
      -0.287
      -0.179
       0.092
       0.720
       1.319
       1.230
       0.375
      -0.506
      -0.655
      -0.155
       0.256
       0.167
      -0.031
       0.224
       0.826
       1.123
       0.788
       0.220
      -0.010
       0.151
       0.295
       0.171
      -0.044
      -0.108
      -0.077
      -0.119
      -0.177
      -0.057
       0.189
       0.227
      -0.130
      -0.609
      -0.743
      -0.399
       0.074
       0.237
      -0.002
      -0.342
      -0.409
      -0.113
       0.239
       0.199
      -0.323
      -0.812
      -0.609
       0.268
       0.936
       0.534
      -0.703
      -1.572
      -1.210
      -0.053
       0.736
       0.618
       0.103
      -0.145
      -0.142
      -0.255
      -0.429
      -0.263
       0.200
       0.343
      -0.126
      -0.586
      -0.263
       0.633
       1.052
       0.467
      -0.409
      -0.559
      -0.007
       0.293
      -0.168
      -0.758
      -0.630
       0.092
       0.530
       0.271
      -0.168
      -0.181
       0.097
       0.143
      -0.086
      -0.130
       0.149
       0.250
      -0.212
      -0.794
      -0.718
       0.030
       0.584
       0.329
      -0.246
      -0.185
       0.637
       1.285
       0.939
      -0.076
      -0.691
      -0.366
       0.372
       0.687
       0.382
      -0.069
      -0.235
      -0.163
      -0.144
      -0.303
      -0.519
      -0.598
      -0.447
      -0.125
       0.194
       0.311
       0.141
      -0.162
      -0.292
      -0.098
       0.211
       0.280
       0.020
      -0.305
      -0.385
      -0.162
       0.175
       0.403
       0.424
       0.291
       0.154
       0.121
       0.121
      -0.035
      -0.393
      -0.655
      -0.413
       0.329
       0.983
       0.944
       0.302
      -0.244
      -0.250
      -0.042
      -0.175
      -0.584
      -0.614
       0.088
       1.019
       1.380
       0.973
       0.295
      -0.143
      -0.251
      -0.112
       0.285
       0.829
       1.071
       0.648
      -0.111
      -0.413
       0.021
       0.549
       0.398
      -0.359
      -0.913
      -0.741
      -0.177
       0.116
      -0.061
      -0.395
      -0.580
      -0.548
      -0.299
       0.145
       0.549
       0.528
       0.009
      -0.560
      -0.711
      -0.523
      -0.379
      -0.281
       0.157
       0.952
       1.416
       0.928
      -0.226
      -1.141
      -1.333
      -1.061
      -0.640
       0.045
       1.022
       1.641
       1.136
      -0.230
      -1.174
      -0.841
       0.162
       0.566
       0.023
      -0.606
      -0.491
       0.195
       0.765
       0.987
       1.075
       0.976
       0.353
      -0.620
      -1.006
      -0.172
       1.140
       1.438
       0.244
      -1.257
      -1.587
      -0.661
       0.285
       0.239
      -0.548
      -1.165
      -1.234
      -1.092
      -0.990
      -0.681
       0.034
       0.782
       0.998
       0.650
       0.249
       0.137
       0.086
      -0.250
      -0.716
      -0.794
      -0.329
       0.184
       0.185
      -0.261
      -0.563
      -0.326
       0.241
       0.656
       0.697
       0.475
       0.162
      -0.143
      -0.327
      -0.278
      -0.050
       0.117
       0.036
      -0.212
      -0.364
      -0.270
      -0.014
       0.258
       0.471
       0.535
       0.273
      -0.353
      -1.007
      -1.183
      -0.735
      -0.057
       0.351
       0.375
       0.244
       0.135
       0.000
      -0.244
      -0.523
      -0.689
      -0.705
      -0.605
      -0.336
       0.100
       0.388
       0.096
      -0.701
      -1.248
      -0.861
       0.178
       0.769
       0.187
      -1.004
      -1.451
      -0.448
       1.292
       2.350
       1.937
       0.491
      -0.836
      -1.152
      -0.439
       0.561
       1.005
       0.642
      -0.017
      -0.232
       0.191
       0.722
       0.769
       0.373
       0.086
       0.218
       0.505
       0.566
       0.448
       0.456
       0.609
       0.600
       0.299
       0.012
       0.098
       0.475
       0.728
       0.614
       0.283
       0.001
      -0.099
       0.039
       0.447
       0.936
       1.062
       0.611
       0.030
       0.011
       0.579
       0.970
       0.592
      -0.173
      -0.482
      -0.155
       0.170
       0.029
      -0.211
       0.005
       0.489
       0.549
       0.076
      -0.259
      -0.071
       0.065
      -0.502
      -1.297
      -1.126
       0.243
       1.472
       1.144
      -0.468
      -1.674
      -1.319
       0.055
       1.111
       1.226
       0.699
      -0.069
      -0.906
      -1.454
      -1.177
      -0.158
       0.540
      -0.132
      -1.839
      -2.976
      -2.350
      -0.516
       0.853
       0.772
      -0.208
      -0.864
      -0.567
       0.402
       1.342
       1.613
       0.899
      -0.526
      -1.762
      -1.849
      -0.660
       0.864
       1.531
       0.990
      -0.048
      -0.646
      -0.494
       0.093
       0.684
       0.954
       0.670
      -0.063
      -0.579
      -0.130
       1.141
       2.008
       1.348
      -0.493
      -1.891
      -1.701
      -0.533
       0.057
      -0.524
      -1.293
      -1.050
       0.120
       1.042
       0.905
       0.093
      -0.445
      -0.251
       0.391
       0.974
       1.154
       0.779
      -0.037
      -0.735
      -0.603
       0.443
       1.527
       1.537
       0.272
      -1.268
      -1.793
      -0.880
       0.750
       1.948
       2.039
       1.194
       0.199
      -0.166
       0.215
       0.624
       0.167
      -1.199
      -2.417
      -2.335
      -0.951
       0.495
       0.760
      -0.185
      -1.256
      -1.483
      -0.925
      -0.356
      -0.300
      -0.606
      -0.856
      -0.869
      -0.682
      -0.303
       0.218
       0.526
       0.165
      -0.744
      -1.290
      -0.642
       0.891
       1.989
       1.675
       0.394
      -0.465
      -0.073
       1.038
       1.697
       1.358
       0.448
      -0.310
      -0.568
      -0.397
      -0.022
       0.313
       0.400
       0.246
       0.173
       0.524
       1.198
       1.643
       1.407
       0.590
      -0.319
      -0.939
      -1.228
      -1.258
      -0.981
      -0.319
       0.591
       1.397
       1.810
       1.788
       1.445
       0.901
       0.283
      -0.212
      -0.383
      -0.180
       0.240
       0.647
       0.859
       0.729
       0.150
      -0.787
      -1.703
      -2.184
      -2.131
      -1.809
      -1.529
      -1.332
      -1.020
      -0.477
       0.101
       0.345
       0.092
      -0.420
      -0.751
      -0.632
      -0.181
       0.181
       0.115
      -0.213
      -0.197
       0.501
       1.358
       1.404
       0.398
      -0.649
      -0.542
       0.548
       1.127
       0.229
      -1.237
      -1.529
      -0.295
       0.910
       0.549
      -0.970
      -1.832
      -1.069
       0.423
       1.221
       1.078
       0.761
       0.714
       0.662
       0.436
       0.378
       0.585
       0.416
      -0.606
      -1.718
      -1.529
       0.134
       1.708
       1.666
       0.382
      -0.419
       0.113
       1.007
       0.891
      -0.312
      -1.548
      -1.989
      -1.658
      -0.898
       0.070
       0.877
       0.887
      -0.103
      -1.246
      -1.357
      -0.302
       0.805
       0.938
       0.263
      -0.364
      -0.552
      -0.506
      -0.265
       0.415
       1.333
       1.643
       0.857
      -0.294
      -0.580
       0.179
       0.887
       0.698
       0.147
       0.264
       0.994
       1.248
       0.487
      -0.436
      -0.401
       0.433
       0.809
       0.032
      -1.120
      -1.386
      -0.543
       0.483
       0.815
       0.522
       0.299
       0.620
       1.347
       1.936
       1.856
       0.999
      -0.119
      -0.717
      -0.517
      -0.111
      -0.375
      -1.437
      -2.413
      -2.304
      -1.055
       0.464
       1.387
       1.497
       1.032
       0.278
      -0.457
      -0.748
      -0.371
       0.294
       0.540
       0.171
      -0.197
       0.070
       0.707
       0.807
      -0.023
      -1.120
      -1.517
      -0.958
       0.043
       0.940
       1.556
       1.788
       1.381
       0.358
      -0.532
      -0.321
       1.039
       2.366
       2.385
       1.086
      -0.333
      -0.767
      -0.201
       0.598
       0.999
       0.889
       0.353
      -0.532
      -1.417
      -1.600
      -0.742
       0.363
       0.249
      -1.617
      -3.871
      -4.391
      -2.532
       0.120
       1.444
       0.910
      -0.345
      -1.198
      -1.606
      -1.953
      -2.065
      -1.476
      -0.470
      -0.146
      -1.142
      -2.650
      -3.169
      -2.157
      -0.582
       0.193
      -0.221
      -1.044
      -1.260
      -0.536
       0.566
       1.022
       0.125
      -1.741
      -3.162
      -2.903
      -1.175
       0.494
       0.766
      -0.254
      -1.304
      -1.303
      -0.230
       1.163
       2.117
       2.252
       1.554
       0.395
      -0.477
      -0.345
       0.845
       2.361
       3.305
       3.305
       2.640
       1.848
       1.338
       1.234
       1.379
       1.446
       1.229
       0.898
       0.816
       1.026
       1.076
       0.559
      -0.265
      -0.684
      -0.399
       0.138
       0.356
       0.244
       0.186
       0.322
       0.421
       0.395
       0.603
       1.382
       2.437
       2.983
       2.589
       1.722
       1.306
       1.770
       2.623
       2.900
       1.987
       0.149
      -1.570
      -2.040
      -0.904
       1.057
       2.527
       2.760
       2.017
       0.932
      -0.253
      -1.518
      -2.335
      -1.720
       0.557
       3.032
       3.423
       0.814
      -3.140
      -5.490
      -4.657
      -1.854
       0.177
      -0.190
      -2.064
      -3.159
      -2.143
       0.112
       1.490
       0.760
      -1.272
      -2.701
      -2.472
      -1.273
      -0.544
      -0.859
      -1.518
      -1.649
      -1.323
      -1.291
      -1.858
      -2.417
      -2.228
      -1.371
      -0.624
      -0.457
      -0.517
      -0.307
      -0.028
      -0.336
      -1.384
      -2.496
      -2.864
      -2.270
      -1.046
       0.326
       1.320
       1.341
       0.121
      -1.716
      -2.870
      -2.585
      -1.514
      -0.918
      -1.097
      -1.179
      -0.567
       0.098
      -0.071
      -0.703
      -0.497
       0.911
       2.242
       2.216
       1.311
       1.114
       2.158
       3.271
       3.289
       2.584
       2.273
       2.471
       2.254
       1.316
       0.652
       1.117
       2.011
       1.936
       0.783
      -0.040
       0.495
       1.739
       2.418
       2.273
       1.918
       1.482
       0.404
      -1.238
      -2.137
      -1.191
       0.843
       1.976
       1.283
      -0.118
      -0.664
      -0.282
      -0.115
      -0.696
      -1.228
      -0.798
       0.339
       1.072
       0.723
      -0.353
      -1.332
      -1.672
      -1.253
      -0.207
       1.009
       1.596
       0.973
      -0.496
      -1.597
      -1.365
      -0.053
       1.158
       1.401
       0.931
       0.622
       0.855
       1.141
       0.886
       0.255
       0.048
       0.746
       1.902
       2.530
       2.002
       0.469
      -1.407
      -2.859
      -3.280
      -2.576
      -1.414
      -0.742
      -0.773
      -0.774
      -0.220
       0.171
      -0.815
      -3.031
      -4.549
      -3.654
      -0.975
       1.057
       0.918
      -0.506
      -1.352
      -1.031
      -0.426
      -0.249
      -0.247
      -0.210
      -0.779
      -2.436
      -4.162
      -4.193
      -2.276
      -0.315
      -0.229
      -1.657
      -2.520
      -1.662
      -0.157
       0.212
      -0.820
      -1.847
      -1.649
      -0.568
       0.196
       0.167
       0.007
       0.532
       1.772
       2.999
       3.421
       2.842
       1.886
       1.608
       2.570
       4.147
       4.924
       4.050
       2.157
       0.674
       0.256
       0.265
      -0.124
      -0.752
      -0.784
       0.030
       0.866
       0.799
       0.001
      -0.460
      -0.079
       0.315
      -0.377
      -1.950
      -2.855
      -1.852
       0.518
       2.319
       2.107
       0.352
      -1.115
      -0.976
       0.410
       1.693
       2.109
       2.123
       2.560
       3.438
       3.886
       3.144
       1.394
      -0.460
      -1.651
      -2.026
      -1.760
      -0.993
       0.016
       0.651
       0.349
      -0.696
      -1.610
      -1.749
      -1.327
      -0.982
      -0.960
      -0.980
      -0.808
      -0.570
      -0.365
       0.036
       0.801
       1.567
       1.767
       1.374
       0.928
       0.710
       0.286
      -0.710
      -1.566
      -0.990
       1.174
       3.311
       3.575
       1.837
      -0.342
      -1.598
      -2.113
      -2.797
      -3.614
      -3.482
      -1.906
      -0.025
       0.426
      -0.983
      -2.889
      -3.570
      -2.662
      -1.368
      -1.137
      -2.296
      -3.871
      -4.525
      -3.625
      -1.651
       0.193
       0.894
       0.416
      -0.382
      -0.708
      -0.620
      -0.665
      -0.814
      -0.203
       1.751
       4.165
       5.192
       4.004
       1.924
       1.016
       1.612
       1.885
       0.205
      -2.556
      -3.735
      -1.865
       1.612
       3.855
       3.428
       1.259
      -0.750
      -1.442
      -0.838
       0.391
       1.449
       1.803
       1.644
       1.887
       3.160
       4.689
       4.820
       2.966
       0.569
      -0.457
      -0.021
       0.115
      -1.221
      -2.873
      -2.734
      -0.501
       1.811
       2.270
       1.198
       0.467
       1.099
       2.291
       2.772
       2.375
       1.837
       1.551
       1.174
       0.406
      -0.471
      -1.031
      -1.293
      -1.569
      -1.957
      -2.382
      -3.020
      -4.071
      -4.949
      -4.325
      -1.625
       1.714
       3.177
       1.680
      -1.109
      -2.329
      -0.823
       1.723
       2.585
       0.699
      -2.544
      -4.877
      -5.168
      -3.980
      -2.547
      -1.503
      -0.657
       0.228
       0.824
       0.621
      -0.207
      -0.707
      -0.158
       0.992
       1.588
       1.137
       0.422
       0.544
       1.523
       2.200
       1.619
       0.178
      -0.921
      -1.152
      -1.118
      -1.467
      -1.911
      -1.693
      -0.746
       0.100
       0.050
      -0.770
      -1.492
      -1.462
      -0.835
      -0.156
       0.395
       1.047
       1.800
       2.101
       1.419
       0.032
      -1.058
      -1.112
      -0.391
       0.297
       0.653
       1.138
       2.047
       2.740
       2.301
       0.936
       0.088
       0.843
       2.558
       3.616
       3.348
       2.554
       2.101
       1.749
       0.890
      -0.097
      -0.047
       1.343
       2.775
       2.735
       1.275
      -0.146
      -0.480
      -0.150
      -0.166
      -0.766
      -1.434
      -1.878
      -2.269
      -2.486
      -1.858
      -0.150
       1.526
       1.489
      -0.634
      -3.172
      -3.909
      -2.270
       0.121
       1.019
      -0.368
      -2.770
      -4.066
      -3.086
      -0.556
       1.465
       1.307
      -0.813
      -2.978
      -3.432
      -2.230
      -0.924
      -0.644
      -0.871
      -0.384
       0.939
       1.896
       1.543
       0.361
      -0.517
      -0.841
