Origin Time       25/04/2009 14:29:29
Lat.              26.4 N 
Long.             91.7 E 
Depth (Km)         10.0
Magnitude         4.0
 Region           KAMRUP-ASSAM                                                     
 Above details taken from IMD 
   
Station Code      BOK
Station Lat.       25.976
Station Long.      91.230
Station Height(m)   68.0
Site Class        C   Vs30 between 200 m/sec to 375 m/sec *  
Record Time       25.04.2009 14:29:26.859
Sampling Rate     200. Hz
 Record Duration   70.330 Sec.
 Direction         Vert. (Up positive)
Max. Acceleration     10.145 cm/sec**2
     
  * For reference see Site Classification link of website 
     
 Base Line Corrected and Low Pass Filtered (Cut Off at 35 Hz) Time History
 Acceleration data in cm/sec**2
    
[...]
      -0.115
       0.045
       0.335
       0.340
       0.184
       0.242
       0.391
       0.197
      -0.256
      -0.401
      -0.129
      -0.074
      -0.656
      -1.266
      -0.915
       0.358
       1.346
       1.196
       0.504
       0.347
       0.674
       0.492
      -0.475
      -1.200
      -0.771
       0.272
       0.629
      -0.008
      -0.602
      -0.298
       0.362
       0.280
      -0.559
      -1.035
      -0.446
       0.544
       0.781
       0.104
      -0.584
      -0.587
      -0.147
       0.178
       0.240
       0.151
      -0.092
      -0.478
      -0.677
      -0.229
       0.811
       1.630
       1.382
       0.138
      -1.101
      -1.413
      -0.791
       0.080
       0.574
       0.525
       0.174
      -0.049
       0.119
       0.477
       0.589
       0.304
      -0.111
      -0.346
      -0.356
      -0.271
      -0.137
       0.078
       0.264
       0.189
      -0.176
      -0.527
      -0.549
      -0.267
       0.073
       0.386
       0.730
       0.889
       0.399
      -0.686
      -1.371
      -0.716
       0.781
       1.449
       0.370
      -1.371
      -1.800
      -0.333
       1.495
       1.776
       0.353
      -1.166
      -1.368
      -0.510
       0.151
       0.015
      -0.365
      -0.221
       0.493
       1.150
       1.149
       0.522
      -0.202
      -0.615
      -0.641
      -0.312
       0.253
       0.655
       0.450
      -0.252
      -0.677
      -0.215
       0.691
       0.889
      -0.109
      -1.354
      -1.403
      -0.069
       1.167
       0.867
      -0.482
      -1.019
       0.059
       1.355
       0.998
      -0.941
      -2.390
      -1.683
       0.536
       2.130
       1.834
       0.385
      -0.640
      -0.604
      -0.098
       0.205
       0.251
       0.163
      -0.174
      -0.730
      -0.945
      -0.261
       0.918
       1.362
       0.478
      -0.802
      -1.096
      -0.212
       0.745
       0.795
       0.220
       0.022
       0.430
       0.572
      -0.136
      -0.945
      -0.757
       0.220
       0.600
      -0.289
      -1.358
      -1.116
       0.325
       1.330
       0.910
      -0.022
      -0.089
       0.521
       0.410
      -0.824
      -1.741
      -0.909
       0.983
       1.755
       0.530
      -1.057
      -1.034
       0.304
       0.956
       0.031
      -1.147
      -0.970
       0.301
       1.048
       0.578
      -0.083
       0.131
       0.704
       0.353
      -0.992
      -1.877
      -1.150
       0.501
       1.367
       0.817
      -0.119
      -0.311
       0.100
       0.287
       0.058
      -0.105
      -0.037
      -0.161
      -0.624
      -0.777
      -0.010
       1.099
       1.159
      -0.240
      -1.678
      -1.442
       0.328
       1.792
       1.697
       0.671
      -0.088
      -0.492
      -1.115
      -1.664
      -1.092
       0.614
       1.758
       0.905
      -0.975
      -1.439
       0.230
       1.869
       1.215
      -0.969
      -1.795
      -0.135
       1.810
       1.446
      -0.762
      -1.957
      -0.657
       1.374
       1.470
      -0.546
      -2.240
      -1.638
       0.567
       2.130
       1.832
       0.363
      -0.911
      -1.360
      -1.232
      -0.877
      -0.272
       0.640
       1.442
       1.441
       0.403
      -1.030
      -1.692
      -0.884
       0.786
       1.789
       1.195
      -0.338
      -1.317
      -0.965
       0.157
       0.921
       0.818
       0.298
       0.000
      -0.018
      -0.096
      -0.356
      -0.628
      -0.766
      -0.720
      -0.353
       0.452
       1.369
       1.568
       0.492
      -1.276
      -2.278
      -1.531
       0.456
       2.106
       2.180
       0.771
      -0.947
      -1.740
      -1.163
       0.266
       1.476
       1.548
       0.389
      -1.121
      -1.797
      -1.170
       0.132
       1.052
       1.037
       0.325
      -0.483
      -0.916
      -0.782
      -0.122
       0.764
       1.337
       1.151
       0.299
      -0.573
      -0.871
      -0.621
      -0.308
      -0.232
      -0.233
      -0.024
       0.400
       0.708
       0.586
       0.126
      -0.257
      -0.311
      -0.179
      -0.113
      -0.111
       0.058
       0.455
       0.688
       0.260
      -0.729
      -1.403
      -0.948
       0.369
       1.330
       1.092
       0.078
      -0.618
      -0.467
       0.050
       0.144
      -0.272
      -0.525
      -0.177
       0.363
       0.447
       0.077
      -0.195
      -0.079
       0.119
       0.009
      -0.294
      -0.322
       0.091
       0.545
       0.540
       0.001
      -0.732
      -1.243
      -1.239
      -0.595
       0.527
       1.587
       1.862
       0.988
      -0.531
      -1.507
      -1.051
       0.527
       1.916
       1.947
       0.564
      -1.161
      -1.897
      -1.155
       0.285
       1.076
       0.560
      -0.626
      -1.259
      -0.788
       0.247
       0.890
       0.688
       0.027
      -0.309
       0.062
       0.786
       1.170
       0.814
      -0.080
      -0.898
      -1.146
      -0.863
      -0.462
      -0.189
       0.129
       0.694
       1.158
       0.791
      -0.519
      -1.766
      -1.772
      -0.509
       0.936
       1.541
       1.179
       0.373
      -0.429
      -1.020
      -1.030
      -0.062
       1.336
       1.558
      -0.274
      -2.695
      -3.050
      -0.543
       2.514
       3.111
       0.950
      -1.351
      -1.535
      -0.239
       0.320
      -0.526
      -1.205
      -0.319
       1.343
       1.871
       0.767
      -0.565
      -0.806
      -0.295
      -0.150
      -0.482
      -0.349
       0.622
       1.439
       0.980
      -0.469
      -1.421
      -0.904
       0.443
       1.187
       0.744
      -0.176
      -0.618
      -0.367
       0.104
       0.270
       0.027
      -0.300
      -0.297
       0.161
       0.724
       0.713
      -0.208
      -1.387
      -1.622
      -0.497
       0.980
       1.365
       0.375
      -0.740
      -0.615
       0.605
       1.398
       0.649
      -0.986
      -1.715
      -0.586
       1.419
       2.315
       1.047
      -1.424
      -2.842
      -1.779
       0.776
       2.217
       1.032
      -1.413
      -2.251
      -0.425
       1.922
       1.927
      -0.459
      -2.334
      -1.405
       1.226
       2.509
       1.179
      -0.950
      -1.475
      -0.252
       0.856
       0.584
      -0.357
      -0.694
      -0.363
      -0.139
      -0.184
       0.040
       0.593
       0.740
       0.133
      -0.405
       0.039
       0.984
       0.999
      -0.335
      -1.620
      -1.257
       0.464
       1.533
       0.646
      -1.155
      -1.784
      -0.615
       0.977
       1.477
       0.878
       0.175
      -0.105
      -0.247
      -0.545
      -0.785
      -0.609
      -0.057
       0.515
       0.896
       1.003
       0.618
      -0.278
      -1.042
      -0.916
      -0.093
       0.356
      -0.117
      -0.693
      -0.322
       0.604
       0.646
      -0.470
      -1.091
       0.172
       2.117
       2.088
      -0.433
      -2.690
      -2.004
       0.712
       2.084
       0.589
      -1.648
      -1.724
       0.414
       2.245
       1.980
       0.236
      -1.445
      -2.318
      -2.239
      -0.957
       1.302
       2.974
       2.254
      -0.487
      -2.416
      -1.406
       1.129
       1.867
      -0.130
      -2.236
      -1.777
       0.653
       2.338
       1.961
       0.686
      -0.040
      -0.362
      -1.020
      -1.533
      -0.796
       0.750
       1.159
      -0.214
      -1.345
      -0.238
       1.919
       2.033
      -0.583
      -2.951
      -2.139
       0.968
       2.788
       1.482
      -1.043
      -1.877
      -0.647
       0.683
       0.711
      -0.059
      -0.547
      -0.475
      -0.134
       0.296
       0.618
       0.322
      -0.726
      -1.512
      -0.779
       1.118
       2.175
       1.110
      -0.863
      -1.450
      -0.169
       1.187
       1.052
      -0.046
      -0.661
      -0.521
      -0.465
      -0.746
      -0.622
       0.125
       0.392
      -0.568
      -1.420
      -0.157
       2.738
       4.064
       1.730
      -2.227
      -3.815
      -1.823
       1.043
       1.855
       0.850
       0.255
       0.735
       0.686
      -0.872
      -2.399
      -1.902
       0.111
       1.253
       0.543
      -0.426
       0.006
       1.172
       1.240
       0.009
      -0.828
      -0.181
       0.865
       0.594
      -0.907
      -1.854
      -1.141
       0.374
       1.139
       0.662
      -0.344
      -1.018
      -0.993
      -0.248
       0.927
       1.698
       1.180
      -0.363
      -1.402
      -0.847
       0.523
       1.008
       0.200
      -0.523
       0.051
       1.273
       1.480
       0.208
      -1.161
      -1.186
      -0.225
       0.172
      -0.466
      -0.878
      -0.022
       1.237
       1.156
      -0.490
      -1.821
      -1.006
       1.380
       2.843
       1.823
      -0.649
      -2.344
      -2.186
      -0.850
       0.444
       1.092
       1.083
       0.462
      -0.578
      -1.269
      -0.798
       0.517
       1.299
       0.710
      -0.542
      -1.161
      -0.785
      -0.095
       0.310
       0.472
       0.461
      -0.006
      -0.915
      -1.459
      -0.868
       0.389
       0.916
       0.183
      -0.583
       0.007
       1.387
       1.536
      -0.283
      -2.215
      -1.928
       0.424
       2.300
       1.853
      -0.049
      -1.332
      -1.302
      -0.789
      -0.321
       0.509
       1.669
       1.912
       0.313
      -1.938
      -2.458
      -0.662
       1.228
       1.005
      -0.559
      -0.834
       0.939
       2.481
       1.547
      -0.943
      -1.999
      -0.465
       1.544
       1.572
      -0.007
      -0.876
      -0.146
       0.669
       0.173
      -0.844
      -0.728
       0.519
       1.245
       0.516
      -0.624
      -0.706
       0.160
       0.649
       0.168
      -0.515
      -0.624
      -0.455
      -0.639
      -0.894
      -0.355
       0.887
       1.487
       0.582
      -0.846
      -1.098
      -0.008
       0.780
      -0.026
      -1.568
      -1.830
      -0.205
       1.637
       1.752
       0.283
      -0.883
      -0.608
       0.257
       0.365
      -0.215
      -0.305
       0.443
       0.855
      -0.080
      -1.475
      -1.441
       0.376
       2.095
       1.816
      -0.074
      -1.464
      -1.109
       0.149
       0.856
       0.748
       0.543
       0.562
       0.430
       0.058
      -0.017
       0.366
       0.374
      -0.763
      -2.339
      -2.649
      -1.083
       1.002
       1.940
       1.586
       0.864
       0.211
      -0.546
      -1.103
      -0.614
       0.897
       1.831
       0.750
      -1.425
      -2.147
      -0.428
       1.788
       2.046
       0.380
      -1.041
      -0.921
      -0.219
      -0.283
      -0.813
      -0.665
       0.051
       0.035
      -1.003
      -1.546
      -0.411
       1.264
       1.359
      -0.275
      -1.476
      -0.631
       1.148
       1.491
      -0.130
      -1.824
      -1.748
      -0.104
       1.628
       2.547
       2.643
       1.815
      -0.135
      -2.332
      -2.879
      -0.885
       2.096
       3.399
       2.046
      -0.317
      -1.476
      -0.961
       0.133
       0.816
       0.853
       0.332
      -0.466
      -0.845
      -0.132
       1.235
       1.564
      -0.228
      -2.679
      -2.893
       0.015
       3.476
       4.149
       1.596
      -1.474
      -2.388
      -1.025
       0.859
       1.736
       1.232
      -0.271
      -1.920
      -2.398
      -0.756
       2.189
       3.968
       2.819
      -0.243
      -2.344
      -1.806
       0.279
       1.679
       1.455
       0.281
      -0.829
      -1.308
      -1.011
      -0.142
       0.732
       0.907
       0.212
      -0.597
      -0.714
      -0.410
      -0.598
      -1.346
      -1.583
      -0.609
       0.591
       0.394
      -1.157
      -2.180
      -1.441
      -0.039
       0.066
      -1.306
      -2.226
      -1.130
       1.026
       1.840
       0.483
      -1.266
      -1.338
      -0.028
       0.533
      -0.642
      -2.087
      -1.955
      -0.543
       0.114
      -0.971
      -2.300
      -1.805
       0.398
       2.107
       1.705
      -0.201
      -1.977
      -2.905
      -3.163
      -2.382
       0.275
       4.122
       6.323
       4.476
      -0.310
      -3.892
      -3.182
       0.682
       3.834
       3.941
       2.148
       0.921
       1.001
       1.170
       0.432
      -0.707
      -1.134
      -0.501
       0.593
       1.342
       1.223
      -0.023
      -2.193
      -4.135
      -4.072
      -1.221
       2.877
       5.194
       3.877
       0.117
      -2.805
      -2.459
       0.618
       3.467
       3.393
       0.459
      -2.513
      -2.583
       0.516
       4.083
       4.869
       1.986
      -2.362
      -4.898
      -4.003
      -0.665
       2.677
       3.937
       2.477
      -0.801
      -4.067
      -5.433
      -3.858
       0.029
       3.830
       4.887
       2.546
      -1.245
      -3.715
      -3.530
      -1.619
      -0.077
      -0.037
      -0.526
       0.253
       2.453
       3.949
       2.566
      -1.265
      -4.446
      -3.808
       1.072
       7.179
      10.145
       7.548
       0.754
      -5.886
      -7.934
      -4.431
       0.905
       3.127
       1.035
      -2.128
      -2.781
      -0.844
       0.804
       0.154
      -1.583
      -2.059
      -1.186
      -0.901
      -1.913
      -2.572
      -1.499
       0.320
       1.251
       1.631
       2.885
       4.459
       3.619
      -0.920
      -6.289
      -7.824
      -4.088
       1.682
       5.341
       5.684
       4.070
       1.738
      -1.021
      -3.423
      -3.790
      -1.725
       0.530
       0.669
      -0.466
      -0.131
       2.080
       3.243
       1.205
      -1.902
      -2.167
       0.644
       2.406
       0.106
      -3.841
      -4.544
      -1.146
       2.059
       1.578
      -0.606
      -0.109
       3.561
       6.120
       3.908
      -1.601
      -5.720
      -5.927
      -3.681
      -1.276
       0.829
       2.830
       3.680
       2.196
      -0.603
      -2.061
      -1.085
       0.508
       0.574
      -0.534
      -0.945
      -0.314
      -0.136
      -0.915
      -0.814
       1.676
       4.754
       4.726
       0.522
      -4.473
      -5.765
      -2.297
       2.853
       5.740
       4.811
       1.397
      -1.759
      -2.245
       0.381
       3.599
       3.466
      -1.236
      -6.571
      -6.833
      -0.937
       5.810
       7.130
       2.249
      -3.814
      -5.878
      -3.303
       0.964
       4.203
       5.263
       3.390
      -1.332
      -5.941
      -5.758
       0.387
       7.370
       8.430
       2.772
      -3.211
      -3.160
       2.033
       5.657
       3.277
      -2.482
      -5.750
      -4.191
      -0.463
       2.026
       2.684
       2.697
       2.242
       0.389
      -2.624
      -4.662
      -3.931
      -1.211
       0.875
       0.696
      -0.874
      -1.874
      -1.567
      -0.916
      -1.070
      -1.829
      -1.875
      -0.541
       1.165
       1.731
       0.899
      -0.171
      -0.260
       0.508
       0.720
      -0.454
      -1.749
      -1.110
       1.478
       3.375
       1.992
      -2.054
      -5.103
      -4.365
      -1.192
       0.645
      -0.327
      -1.782
      -1.229
       0.373
       0.115
      -2.356
      -3.767
      -1.455
       2.577
       3.587
       0.086
      -3.965
      -4.114
      -0.963
       1.277
       0.818
       0.198
       1.878
       4.272
       3.877
       0.408
      -2.342
      -1.305
       1.884
       3.196
       1.626
       0.209
       1.399
       3.538
       3.341
       0.626
      -1.440
      -0.696
       1.283
       1.619
      -0.029
      -1.354
      -0.701
       0.775
       0.713
      -1.284
      -3.031
      -2.474
      -0.225
       1.152
      -0.003
      -2.773
      -4.675
      -4.027
      -1.337
       1.434
       2.715
       2.409
       1.444
       0.709
       0.526
       0.852
       1.536
       2.180
       2.073
       0.856
      -0.664
      -0.898
       0.864
       3.371
       4.387
       2.872
       0.056
      -1.883
      -2.042
      -1.186
      -0.105
       1.388
       3.315
       4.238
       2.312
      -2.111
      -5.758
      -5.369
      -1.351
       2.494
       3.175
       1.479
       0.213
       0.448
       0.589
      -0.915
      -3.041
      -3.219
      -0.638
       2.392
       2.734
      -0.354
      -4.499
      -6.321
      -4.242
       0.261
       3.778
       3.709
       0.472
      -2.858
      -3.543
      -2.000
      -1.061
      -2.070
      -2.804
      -0.606
       3.205
       4.216
       0.643
      -3.682
      -3.557
       1.104
       4.854
       3.283
      -1.587
      -3.940
      -1.326
       2.892
       4.289
       2.501
       0.455
      -0.113
      -0.384
      -1.770
      -3.370
      -3.180
      -0.915
       1.454
       1.749
      -0.353
      -3.077
      -4.004
      -1.957
       2.080
       5.558
       6.067
       3.157
      -1.158
      -3.956
      -3.716
      -1.086
       2.237
       4.702
       5.260
       3.722
       1.190
      -0.541
      -0.534
       0.412
       0.708
      -0.139
      -0.966
      -0.564
       0.734
       1.738
       2.045
       1.941
       1.144
      -0.915
      -3.412
      -4.082
      -1.775
       1.478
       2.080
      -1.058
      -4.890
      -5.452
      -2.135
       2.165
       4.512
       4.243
       2.198
      -0.672
      -3.218
      -3.738
      -1.356
       2.038
       2.872
      -0.051
      -3.621
      -3.753
      -0.066
       3.729
       3.932
       0.575
      -3.181
      -4.655
      -3.643
      -1.226
       1.623
       3.735
       3.782
       1.786
      -0.345
      -0.685
       0.718
       2.166
       2.284
       1.354
       0.746
       1.153
       1.687
       1.034
      -0.790
      -2.356
      -2.232
      -0.241
       2.114
       2.334
      -0.889
      -5.601
      -7.682
      -5.002
      -0.010
       2.636
       0.974
      -2.327
      -3.276
      -1.295
       0.376
      -0.865
      -3.432
      -3.504
       0.181
       4.703
       6.099
       3.225
      -1.594
      -4.861
      -4.391
      -0.479
       4.285
       6.433
       3.967
      -1.656
      -6.041
      -5.607
      -1.229
       2.659
       2.755
      -0.026
      -2.146
      -1.324
       1.507
       3.679
       3.490
       1.292
      -1.280
      -2.470
      -1.350
       1.420
       3.724
       3.621
       1.344
      -0.695
      -0.513
       1.156
       1.841
       0.312
      -2.117
      -3.106
      -1.562
       1.608
       4.428
       5.062
       2.621
      -2.009
      -5.818
      -5.491
      -0.854
       4.050
       4.744
       1.244
      -2.009
      -1.413
       1.885
       3.946
       2.877
