Origin Time       3/9/2009 19:51:08	  UTC
Lat.              24.3 N	
Long.             94.6 E	
Depth (Km)        100.0
Magnitude         5.9
 Region           MYANMAR-India-Manipuir-Border                                    
 Above details taken from IMD 
    
Station Code      BOK
Station Lat.       25.976  N
Station Long.      91.230  E
Station Height(m)   68.0
Site Class        C   Vs30 between 200 m/sec to 375 m/sec *  
Record Time       03.09.2009 19:52:22.739 UTC
Sampling Rate     200. Hz
 Record Duration   72.675 Sec.
 Direction         N-S (N positive)
Max. Acceleration      9.119 cm/sec**2
     
  * For reference see Site Classification link of website 
     
 Base Line Corrected and Low Pass Filtered (Cut Off at 35 Hz) Time History
 Acceleration data in cm/sec**2
    
[...]
       0.064
       0.270
       0.263
       0.084
      -0.095
      -0.136
      -0.023
       0.189
       0.446
       0.691
       0.842
       0.828
       0.663
       0.448
       0.267
       0.118
      -0.026
      -0.131
      -0.121
       0.001
       0.112
       0.083
      -0.062
      -0.170
      -0.115
       0.077
       0.282
       0.415
       0.476
       0.480
       0.416
       0.286
       0.145
       0.052
       0.001
      -0.057
      -0.125
      -0.128
      -0.007
       0.195
       0.366
       0.436
       0.429
       0.410
       0.419
       0.461
       0.502
       0.475
       0.313
       0.018
      -0.324
      -0.627
      -0.878
      -1.107
      -1.266
      -1.233
      -0.968
      -0.619
      -0.389
      -0.315
      -0.239
      -0.009
       0.333
       0.604
       0.668
       0.543
       0.336
       0.158
       0.084
       0.128
       0.197
       0.122
      -0.171
      -0.519
      -0.639
      -0.426
      -0.072
       0.154
       0.200
       0.221
       0.316
       0.391
       0.296
       0.043
      -0.211
      -0.357
      -0.442
      -0.549
      -0.645
      -0.603
      -0.382
      -0.101
       0.061
       0.018
      -0.194
      -0.461
      -0.632
      -0.539
      -0.108
       0.493
       0.888
       0.784
       0.245
      -0.352
      -0.652
      -0.578
      -0.299
      -0.011
       0.170
       0.204
       0.074
      -0.185
      -0.463
      -0.610
      -0.535
      -0.261
       0.099
       0.419
       0.603
       0.610
       0.488
       0.352
       0.286
       0.249
       0.138
      -0.076
      -0.279
      -0.308
      -0.114
       0.163
       0.312
       0.250
       0.101
       0.072
       0.263
       0.583
       0.826
       0.807
       0.497
       0.069
      -0.209
      -0.164
       0.145
       0.498
       0.703
       0.714
       0.580
       0.337
      -0.002
      -0.381
      -0.685
      -0.840
      -0.862
      -0.792
      -0.617
      -0.326
      -0.010
       0.175
       0.155
       0.007
      -0.150
      -0.282
      -0.416
      -0.529
      -0.561
      -0.516
      -0.491
      -0.537
      -0.553
      -0.397
      -0.087
       0.190
       0.269
       0.144
      -0.086
      -0.315
      -0.417
      -0.241
       0.264
       0.906
       1.353
       1.430
       1.242
       0.984
       0.713
       0.402
       0.144
       0.145
       0.478
       0.917
       1.121
       0.941
       0.493
      -0.018
      -0.439
      -0.628
      -0.466
      -0.022
       0.361
       0.309
      -0.231
      -0.949
      -1.473
      -1.639
      -1.459
      -0.980
      -0.302
       0.336
       0.641
       0.526
       0.197
      -0.064
      -0.158
      -0.161
      -0.111
       0.060
       0.362
       0.647
       0.740
       0.642
       0.517
       0.468
       0.417
       0.248
      -0.004
      -0.178
      -0.194
      -0.159
      -0.224
      -0.401
      -0.556
      -0.552
      -0.374
      -0.110
       0.140
       0.321
       0.380
       0.258
      -0.048
      -0.422
      -0.682
      -0.708
      -0.517
      -0.238
      -0.037
      -0.040
      -0.251
      -0.521
      -0.639
      -0.486
      -0.127
       0.253
       0.494
       0.562
       0.527
       0.464
       0.382
       0.252
       0.083
      -0.074
      -0.165
      -0.172
      -0.105
      -0.012
       0.020
      -0.088
      -0.334
      -0.620
      -0.842
      -0.995
      -1.135
      -1.242
      -1.154
      -0.715
       0.010
       0.714
       1.076
       1.000
       0.650
       0.290
       0.104
       0.096
       0.117
       0.015
      -0.201
      -0.336
      -0.180
       0.257
       0.669
       0.665
       0.102
      -0.777
      -1.537
      -1.879
      -1.780
      -1.388
      -0.851
      -0.266
       0.274
       0.662
       0.832
       0.814
       0.735
       0.771
       1.057
       1.555
       2.002
       2.049
       1.550
       0.724
      -0.002
      -0.334
      -0.284
      -0.066
       0.146
       0.313
       0.474
       0.666
       0.911
       1.212
       1.498
       1.643
       1.586
       1.404
       1.200
       0.948
       0.524
      -0.093
      -0.718
      -1.106
      -1.158
      -0.950
      -0.601
      -0.185
       0.227
       0.530
       0.658
       0.657
       0.600
       0.474
       0.228
      -0.044
      -0.120
       0.084
       0.345
       0.345
       0.043
      -0.301
      -0.472
      -0.562
      -0.800
      -1.186
      -1.444
      -1.321
      -0.836
      -0.198
       0.409
       0.849
       0.966
       0.671
       0.128
      -0.275
      -0.251
       0.123
       0.505
       0.602
       0.331
      -0.277
      -1.156
      -2.098
      -2.691
      -2.545
      -1.646
      -0.418
       0.598
       1.087
       1.043
       0.629
       0.060
      -0.432
      -0.631
      -0.448
       0.008
       0.503
       0.846
       0.971
       0.860
       0.492
      -0.057
      -0.540
      -0.675
      -0.389
       0.103
       0.465
       0.473
       0.133
      -0.346
      -0.658
      -0.533
       0.093
       0.961
       1.584
       1.617
       1.179
       0.742
       0.650
       0.774
       0.693
       0.170
      -0.620
      -1.310
      -1.679
      -1.755
      -1.642
      -1.391
      -1.039
      -0.696
      -0.501
      -0.506
      -0.642
      -0.785
      -0.794
      -0.526
       0.105
       1.012
       1.893
       2.397
       2.342
       1.753
       0.750
      -0.501
      -1.750
      -2.678
      -3.070
      -2.945
      -2.501
      -1.968
      -1.503
      -1.160
      -0.869
      -0.451
       0.254
       1.192
       2.042
       2.412
       2.144
       1.436
       0.654
       0.051
      -0.338
      -0.583
      -0.696
      -0.612
      -0.333
      -0.042
      -0.018
      -0.385
      -0.957
      -1.356
      -1.307
      -0.831
      -0.219
       0.142
      -0.029
      -0.738
      -1.669
      -2.340
      -2.410
      -1.898
      -1.100
      -0.329
       0.234
       0.512
       0.443
       0.009
      -0.666
      -1.304
      -1.583
      -1.301
      -0.471
       0.684
       1.799
       2.532
       2.756
       2.645
       2.540
       2.666
       2.945
       3.102
       2.928
       2.456
       1.913
       1.540
       1.459
       1.624
       1.833
       1.816
       1.387
       0.581
      -0.343
      -1.044
      -1.287
      -1.055
      -0.562
      -0.141
      -0.047
      -0.282
      -0.592
      -0.650
      -0.306
       0.299
       0.855
       1.133
       1.127
       0.962
       0.712
       0.347
      -0.154
      -0.723
      -1.245
      -1.645
      -1.941
      -2.222
      -2.589
      -3.063
      -3.518
      -3.711
      -3.426
      -2.666
      -1.708
      -0.907
      -0.418
      -0.144
       0.026
       0.017
      -0.315
      -0.909
      -1.469
      -1.759
      -1.803
      -1.734
      -1.570
      -1.263
      -0.904
      -0.671
      -0.555
      -0.291
       0.353
       1.277
       2.153
       2.783
       3.249
       3.686
       4.055
       4.228
       4.187
       3.975
       3.506
       2.622
       1.404
       0.271
      -0.353
      -0.474
      -0.507
      -0.799
      -1.262
      -1.527
      -1.392
      -0.993
      -0.554
      -0.133
       0.314
       0.776
       1.182
       1.505
       1.737
       1.798
       1.582
       1.097
       0.474
      -0.183
      -0.867
      -1.496
      -1.769
      -1.348
      -0.250
       1.015
       1.769
       1.620
       0.631
      -0.791
      -2.046
      -2.527
      -1.951
      -0.642
       0.597
       1.064
       0.687
      -0.034
      -0.563
      -0.756
      -0.789
      -0.821
      -0.840
      -0.758
      -0.499
       0.017
       0.843
       1.883
       2.849
       3.441
       3.591
       3.454
       3.173
       2.732
       2.109
       1.475
       1.100
       1.051
       1.109
       1.027
       0.781
       0.525
       0.398
       0.416
       0.484
       0.434
       0.082
      -0.648
      -1.616
      -2.511
      -3.073
      -3.257
      -3.154
      -2.793
      -2.089
      -1.057
      -0.001
       0.574
       0.320
      -0.693
      -2.054
      -3.282
      -4.023
      -4.112
      -3.643
      -3.011
      -2.702
      -2.897
      -3.277
      -3.311
      -2.734
      -1.732
      -0.702
       0.127
       0.812
       1.516
       2.252
       2.812
       2.917
       2.447
       1.543
       0.534
      -0.249
      -0.656
      -0.793
      -0.987
      -1.609
      -2.778
      -4.140
      -4.988
      -4.733
      -3.330
      -1.276
       0.778
       2.399
       3.433
       3.895
       3.929
       3.766
       3.556
       3.213
       2.561
       1.645
       0.770
       0.223
       0.019
      -0.028
      -0.088
      -0.218
      -0.402
      -0.580
      -0.704
      -0.834
      -1.149
      -1.741
      -2.381
      -2.588
      -2.037
      -0.922
       0.175
       0.850
       1.277
       1.962
       3.122
       4.399
       5.200
       5.210
       4.564
       3.632
       2.747
       2.080
       1.666
       1.479
       1.481
       1.589
       1.614
       1.305
       0.536
      -0.499
      -1.357
      -1.661
      -1.377
      -0.771
      -0.147
       0.328
       0.597
       0.637
       0.464
       0.172
      -0.109
      -0.273
      -0.246
       0.053
       0.682
       1.548
       2.381
       2.918
       3.125
       3.140
       2.986
       2.461
       1.390
      -0.051
      -1.365
      -2.122
      -2.289
      -2.231
      -2.418
      -3.102
      -4.139
      -5.068
      -5.414
      -5.031
      -4.204
      -3.409
      -2.975
      -2.956
      -3.265
      -3.798
      -4.339
      -4.441
      -3.637
      -1.946
      -0.129
       0.756
       0.192
      -1.347
      -2.801
      -3.373
      -3.043
      -2.393
      -1.993
      -1.942
      -1.874
      -1.379
      -0.435
       0.538
       1.031
       0.895
       0.456
       0.224
       0.482
       1.143
       1.938
       2.663
       3.241
       3.645
       3.860
       3.927
       3.920
       3.814
       3.396
       2.417
       0.931
      -0.527
      -1.190
      -0.619
       0.917
       2.624
       3.757
       4.051
       3.717
       3.173
       2.805
       2.833
       3.239
       3.789
       4.126
       3.859
       2.663
       0.519
      -2.026
      -3.924
      -4.204
      -2.690
      -0.197
       2.053
       3.306
       3.610
       3.409
       2.963
       2.233
       1.177
      -0.027
      -1.064
      -1.646
      -1.617
      -1.070
      -0.456
      -0.400
      -1.154
      -2.218
      -2.713
      -2.252
      -1.340
      -0.850
      -1.160
      -1.922
      -2.530
      -2.617
      -2.106
      -1.051
       0.312
       1.431
       1.654
       0.713
      -1.050
      -2.972
      -4.467
      -5.131
      -4.712
      -3.287
      -1.443
      -0.049
       0.342
      -0.116
      -0.739
      -0.865
      -0.265
       0.817
       1.893
       2.527
       2.599
       2.393
       2.337
       2.558
       2.727
       2.442
       1.732
       1.078
       0.906
       1.118
       1.161
       0.542
      -0.748
      -2.267
      -3.570
      -4.592
      -5.582
      -6.619
      -7.253
      -6.750
      -4.764
      -1.773
       1.163
       3.091
       3.713
       3.417
       2.916
       2.777
       3.070
       3.340
       3.030
       2.097
       1.227
       1.280
       2.426
       3.942
       4.879
       4.841
       4.061
       2.963
       1.883
       1.130
       0.931
       1.150
       1.223
       0.632
      -0.573
      -1.832
      -2.630
      -2.875
      -2.713
      -2.182
      -1.203
       0.145
       1.526
       2.616
       3.368
       3.926
       4.340
       4.472
       4.178
       3.448
       2.371
       1.119
      -0.003
      -0.660
      -0.818
      -0.945
      -1.689
      -3.310
      -5.418
      -7.257
      -8.208
      -8.047
      -6.918
      -5.240
      -3.661
      -2.827
      -2.948
      -3.563
      -3.909
      -3.638
      -3.132
      -3.037
      -3.504
      -4.023
      -4.005
      -3.427
      -2.784
      -2.451
      -2.254
      -1.703
      -0.593
       0.739
       1.780
       2.400
       2.951
       3.794
       4.800
       5.376
       4.965
       3.555
       1.776
       0.509
       0.275
       0.867
       1.493
       1.299
      -0.071
      -2.227
      -4.199
      -4.969
      -4.052
      -1.750
       1.091
       3.578
       5.125
       5.573
       5.179
       4.512
       4.204
       4.542
       5.205
       5.431
       4.588
       2.638
       0.062
      -2.586
      -4.937
      -6.712
      -7.626
      -7.588
      -6.897
      -6.037
      -5.208
      -4.218
      -2.886
      -1.423
      -0.302
       0.228
       0.381
       0.591
       1.110
       1.872
       2.638
       3.156
       3.211
       2.691
       1.723
       0.657
      -0.202
      -0.843
      -1.451
      -2.048
      -2.309
      -1.831
      -0.562
       1.103
       2.646
       3.748
       4.281
       4.140
       3.244
       1.776
       0.353
      -0.155
       0.874
       3.324
       6.297
       8.553
       9.119
       7.670
       4.635
       1.064
      -1.783
      -3.050
      -2.692
      -1.351
       0.191
       1.446
       2.236
       2.466
       2.070
       1.173
       0.170
      -0.476
      -0.529
      -0.046
       0.770
       1.664
       2.299
       2.289
       1.412
      -0.200
      -2.085
      -3.669
      -4.476
      -4.307
      -3.381
      -2.286
      -1.648
      -1.723
      -2.244
      -2.667
      -2.528
      -1.643
      -0.128
       1.545
       2.525
       1.910
      -0.564
      -4.055
      -7.016
      -8.251
      -7.690
      -6.159
      -4.474
      -2.863
      -1.163
       0.656
       2.316
       3.504
       4.143
       4.373
       4.361
       4.186
       3.851
       3.342
       2.715
       2.172
       1.981
       2.205
       2.471
       2.106
       0.689
      -1.415
      -3.107
      -3.353
      -2.059
      -0.171
       1.111
       1.256
       0.626
      -0.061
      -0.448
      -0.717
      -1.147
      -1.616
      -1.640
      -0.972
      -0.082
       0.098
      -1.000
      -2.966
      -4.676
      -5.233
      -4.671
      -3.751
      -3.101
      -2.600
      -1.573
       0.500
       3.410
       6.222
       7.805
       7.523
       5.650
       3.236
       1.534
       1.281
       2.283
       3.585
       4.143
       3.460
       1.727
      -0.508
      -2.741
      -4.709
      -6.257
      -7.075
      -6.654
      -4.698
      -1.647
       1.331
       3.052
       3.082
       1.912
       0.514
      -0.264
      -0.130
       0.560
       1.097
       0.987
       0.356
      -0.249
      -0.470
      -0.484
      -0.657
      -0.954
      -0.855
       0.027
       1.358
       2.229
       1.872
       0.219
      -2.138
      -4.339
      -5.650
      -5.732
      -4.749
      -3.195
      -1.535
       0.001
       1.277
       2.039
       2.041
       1.456
       1.014
       1.506
       3.037
       4.795
       5.693
       5.276
       4.038
       2.851
       2.160
       1.689
       0.841
      -0.683
      -2.575
      -4.131
      -4.779
      -4.513
      -3.878
      -3.515
      -3.649
      -3.978
      -4.016
      -3.528
      -2.648
      -1.638
      -0.618
       0.469
       1.666
       2.886
       3.955
       4.711
       5.004
       4.673
       3.656
       2.158
       0.633
      -0.477
      -0.967
      -0.859
      -0.290
       0.495
       1.116
       1.197
       0.621
      -0.342
      -1.187
      -1.442
      -0.855
       0.514
       2.226
       3.510
       3.604
       2.303
       0.194
      -1.738
      -2.798
      -2.860
      -2.144
      -0.968
       0.218
       0.844
       0.538
      -0.539
      -1.772
      -2.545
      -2.606
      -2.011
      -0.889
       0.560
       1.892
       2.522
       2.235
       1.487
       0.981
       0.948
       0.986
       0.643
      -0.054
      -0.756
      -1.313
      -1.892
      -2.612
      -3.299
      -3.671
      -3.567
      -2.897
      -1.593
       0.160
       1.766
       2.565
       2.427
       1.847
       1.377
       1.107
       0.841
       0.609
       0.734
       1.366
       2.159
       2.529
       2.143
       1.105
      -0.199
      -1.311
      -1.863
      -1.754
      -1.222
      -0.660
      -0.324
      -0.283
      -0.554
      -1.115
      -1.703
      -1.796
      -0.980
       0.611
       2.274
       3.179
       2.852
       1.395
      -0.573
      -2.155
      -2.630
      -1.941
      -0.777
      -0.008
       0.107
       0.100
       0.651
       1.770
       2.696
       2.569
       1.215
      -0.662
      -1.964
      -1.941
      -0.684
       0.952
       1.951
       1.802
       0.732
      -0.629
      -1.728
      -2.249
      -2.008
      -0.983
       0.432
       1.393
       1.145
      -0.262
      -1.867
      -2.540
      -1.874
      -0.390
       0.997
       1.636
       1.441
       0.856
       0.582
       1.117
       2.320
       3.464
       3.841
       3.346
       2.411
       1.464
       0.624
      -0.078
      -0.431
      -0.251
       0.228
       0.433
       0.027
      -0.733
      -1.363
      -1.765
      -2.266
      -3.052
      -3.823
      -4.157
      -4.065
      -3.950
      -4.092
      -4.409
      -4.739
      -5.094
      -5.442
      -5.395
      -4.424
      -2.444
      -0.044
       1.975
       3.206
       3.703
       3.619
       2.999
       2.003
       1.126
       0.974
       1.740
       2.973
       3.890
       3.864
       2.700
       0.683
      -1.487
      -2.927
      -3.030
      -1.840
       0.010
       1.739
       2.805
       2.990
       2.354
       1.292
       0.522
       0.779
       2.286
       4.473
       6.310
       6.992
       6.397
       4.970
       3.304
       1.839
       0.786
       0.101
      -0.460
      -1.065
      -1.547
      -1.547
      -1.029
      -0.525
      -0.725
      -1.795
      -3.169
      -4.015
      -3.869
      -2.862
      -1.463
      -0.160
       0.631
       0.608
      -0.174
      -1.106
      -1.320
      -0.412
       1.144
       2.387
       2.673
       2.097
       1.224
       0.571
       0.311
       0.263
       0.037
      -0.665
      -1.718
      -2.547
      -2.585
      -1.855
      -1.041
      -0.872
      -1.397
      -2.001
      -2.136
      -1.883
      -1.701
      -1.796
      -1.942
      -1.857
      -1.480
      -0.839
       0.101
       1.274
       2.311
       2.811
       2.839
       2.941
       3.493
       4.185
       4.353
       3.785
       2.950
       2.393
       2.125
       1.758
       1.062
       0.130
      -0.941
      -2.181
      -3.411
      -4.051
      -3.598
      -2.281
      -0.967
      -0.316
      -0.217
