Origin Time       25/04/2009 14:29:29
Lat.              26.4 N 
Long.             91.7 E 
Depth (Km)         10.0
Magnitude         4.0
 Region           KAMRUP-ASSAM                                                     
 Above details taken from IMD 
     
Station Code      BOK
Station Lat.       25.976  N
Station Long.      91.230  E
Station Height(m)   68.0
Site Class        C   Vs30 between 200 m/sec to 375 m/sec *  
Record Time       25.04.2009 14:29:26.859
Sampling Rate     200. Hz
 Record Duration   70.330 Sec.
 Direction         E-W (E positive)
Max. Acceleration     11.263 cm/sec**2
     
  * For reference see Site Classification link of website 
     
 Base Line Corrected and Low Pass Filtered (Cut Off at 35 Hz) Time History
 Acceleration data in cm/sec**2
    
[...]
      -0.089
      -0.115
       0.219
       0.644
       0.776
       0.492
       0.016
      -0.352
      -0.495
      -0.476
      -0.393
      -0.307
      -0.236
      -0.151
       0.019
       0.291
       0.554
       0.609
       0.357
      -0.075
      -0.416
      -0.484
      -0.324
      -0.134
      -0.077
      -0.169
      -0.295
      -0.287
      -0.030
       0.428
       0.857
       0.971
       0.608
      -0.155
      -1.019
      -1.583
      -1.526
      -0.787
       0.349
       1.321
       1.582
       0.967
      -0.158
      -1.118
      -1.378
      -0.855
       0.074
       0.834
       0.986
       0.499
      -0.242
      -0.718
      -0.648
      -0.147
       0.384
       0.533
       0.151
      -0.507
      -0.921
      -0.687
       0.135
       1.014
       1.344
       0.913
       0.034
      -0.730
      -0.979
      -0.660
       0.013
       0.723
       1.156
       1.099
       0.592
      -0.029
      -0.347
      -0.212
       0.140
       0.336
       0.226
       0.000
      -0.055
       0.125
       0.289
       0.127
      -0.373
      -0.865
      -0.947
      -0.535
       0.064
       0.434
       0.407
       0.152
      -0.040
      -0.018
       0.148
       0.275
       0.216
      -0.046
      -0.384
      -0.604
      -0.575
      -0.339
      -0.070
       0.068
       0.056
       0.008
       0.031
       0.108
       0.091
      -0.175
      -0.669
      -1.114
      -1.141
      -0.633
       0.098
       0.549
       0.464
       0.043
      -0.281
      -0.251
       0.052
       0.374
       0.546
       0.527
       0.277
      -0.261
      -0.945
      -1.325
      -0.947
       0.102
       1.121
       1.391
       0.869
       0.184
      -0.043
       0.220
       0.514
       0.442
       0.048
      -0.308
      -0.337
      -0.066
       0.258
       0.412
       0.346
       0.162
       0.007
      -0.009
       0.121
       0.269
       0.238
      -0.060
      -0.453
      -0.618
      -0.386
       0.070
       0.416
       0.486
       0.387
       0.302
       0.276
       0.209
       0.005
      -0.314
      -0.594
      -0.626
      -0.307
       0.200
       0.513
       0.338
      -0.206
      -0.635
      -0.572
      -0.148
       0.165
       0.122
      -0.025
       0.091
       0.440
       0.610
       0.313
      -0.276
      -0.724
      -0.761
      -0.416
       0.129
       0.657
       0.925
       0.736
       0.146
      -0.485
      -0.738
      -0.469
       0.094
       0.541
       0.569
       0.152
      -0.453
      -0.851
      -0.749
      -0.173
       0.507
       0.849
       0.705
       0.338
       0.156
       0.291
       0.457
       0.231
      -0.507
      -1.387
      -1.815
      -1.464
      -0.541
       0.399
       0.899
       0.902
       0.690
       0.577
       0.620
       0.606
       0.316
      -0.200
      -0.643
      -0.744
      -0.514
      -0.202
      -0.037
      -0.046
      -0.096
      -0.081
      -0.025
       0.000
       0.009
       0.117
       0.399
       0.782
       1.051
       0.980
       0.476
      -0.321
      -1.056
      -1.311
      -0.862
       0.129
       1.141
       1.598
       1.261
       0.387
      -0.482
      -0.918
      -0.858
      -0.542
      -0.253
      -0.118
      -0.096
      -0.099
      -0.103
      -0.139
      -0.208
      -0.224
      -0.082
       0.211
       0.480
       0.488
       0.147
      -0.382
      -0.811
      -0.954
      -0.834
      -0.592
      -0.356
      -0.184
      -0.079
      -0.012
       0.066
       0.219
       0.466
       0.722
       0.817
       0.621
       0.177
      -0.275
      -0.450
      -0.246
       0.173
       0.501
       0.527
       0.264
      -0.116
      -0.435
      -0.581
      -0.500
      -0.196
       0.232
       0.614
       0.802
       0.752
       0.516
       0.172
      -0.217
      -0.576
      -0.806
      -0.796
      -0.477
       0.108
       0.755
       1.148
       1.046
       0.462
      -0.306
      -0.837
      -0.837
      -0.333
       0.324
       0.683
       0.495
      -0.128
      -0.791
      -1.078
      -0.834
      -0.271
       0.200
       0.293
       0.055
      -0.216
      -0.272
      -0.100
       0.118
       0.201
       0.096
      -0.111
      -0.281
      -0.304
      -0.160
       0.089
       0.350
       0.553
       0.631
       0.486
       0.059
      -0.515
      -0.885
      -0.755
      -0.192
       0.384
       0.586
       0.398
       0.098
      -0.090
      -0.180
      -0.266
      -0.298
      -0.114
       0.328
       0.838
       1.143
       1.085
       0.672
       0.046
      -0.524
      -0.726
      -0.443
       0.073
       0.369
       0.228
      -0.127
      -0.312
      -0.221
      -0.087
      -0.116
      -0.209
      -0.135
       0.127
       0.331
       0.251
      -0.067
      -0.370
      -0.436
      -0.230
       0.113
       0.383
       0.397
       0.120
      -0.283
      -0.538
      -0.477
      -0.188
       0.062
       0.089
      -0.041
      -0.117
      -0.015
       0.176
       0.268
       0.195
       0.092
       0.120
       0.241
       0.221
      -0.119
      -0.652
      -0.957
      -0.647
       0.255
       1.232
       1.618
       1.130
       0.125
      -0.672
      -0.755
      -0.224
       0.339
       0.414
      -0.007
      -0.474
      -0.569
      -0.287
       0.049
       0.168
       0.087
       0.017
       0.129
       0.405
       0.648
       0.609
       0.193
      -0.411
      -0.839
      -0.851
      -0.514
      -0.083
       0.237
       0.373
       0.296
       0.000
      -0.380
      -0.561
      -0.330
       0.204
       0.656
       0.698
       0.316
      -0.238
      -0.698
      -0.911
      -0.795
      -0.332
       0.293
       0.689
       0.562
       0.051
      -0.344
      -0.249
       0.208
       0.558
       0.504
       0.204
       0.024
       0.078
       0.100
      -0.211
      -0.775
      -1.144
      -0.933
      -0.200
       0.605
       1.013
       0.851
       0.311
      -0.202
      -0.358
      -0.150
       0.118
       0.134
      -0.134
      -0.492
      -0.784
      -0.987
      -1.022
      -0.673
       0.142
       1.076
       1.536
       1.208
       0.329
      -0.575
      -1.116
      -1.190
      -0.853
      -0.232
       0.406
       0.673
       0.347
      -0.324
      -0.733
      -0.441
       0.415
       1.256
       1.564
       1.200
       0.375
      -0.526
      -1.077
      -0.983
      -0.306
       0.501
       0.905
       0.718
       0.197
      -0.264
      -0.476
      -0.465
      -0.241
       0.253
       0.875
       1.148
       0.641
      -0.472
      -1.408
      -1.472
      -0.702
       0.239
       0.745
       0.721
       0.418
       0.061
      -0.246
      -0.400
      -0.311
      -0.042
       0.213
       0.326
       0.301
       0.150
      -0.131
      -0.407
      -0.412
      -0.090
       0.184
      -0.034
      -0.648
      -1.007
      -0.626
       0.193
       0.651
       0.351
      -0.293
      -0.566
      -0.221
       0.369
       0.704
       0.631
       0.349
       0.104
      -0.023
      -0.092
      -0.200
      -0.380
      -0.549
      -0.505
      -0.085
       0.571
       0.986
       0.714
      -0.166
      -0.996
      -1.070
      -0.244
       0.928
       1.614
       1.285
       0.053
      -1.375
      -2.106
      -1.628
      -0.202
       1.263
       1.874
       1.434
       0.500
      -0.250
      -0.604
      -0.749
      -0.762
      -0.434
       0.325
       1.098
       1.248
       0.589
      -0.386
      -1.007
      -1.010
      -0.590
      -0.061
       0.366
       0.578
       0.547
       0.398
       0.338
       0.418
       0.448
       0.233
      -0.137
      -0.350
      -0.247
      -0.051
      -0.121
      -0.499
      -0.811
      -0.669
      -0.087
       0.551
       0.892
       0.858
       0.546
       0.055
      -0.500
      -0.908
      -0.938
      -0.517
       0.173
       0.768
       0.906
       0.447
      -0.369
      -0.991
      -0.906
      -0.058
       0.991
       1.411
       0.758
      -0.590
      -1.674
      -1.724
      -0.803
       0.291
       0.755
       0.400
      -0.345
      -0.890
      -0.877
      -0.311
       0.499
       1.090
       1.121
       0.644
       0.064
      -0.270
      -0.410
      -0.647
      -1.016
      -1.111
      -0.515
       0.630
       1.622
       1.821
       1.224
       0.379
      -0.176
      -0.323
      -0.293
      -0.320
      -0.434
      -0.465
      -0.205
       0.363
       0.906
       0.907
       0.139
      -0.990
      -1.685
      -1.428
      -0.435
       0.564
       0.946
       0.660
       0.140
      -0.153
      -0.094
       0.125
       0.269
       0.273
       0.247
       0.350
       0.622
       0.856
       0.673
      -0.119
      -1.174
      -1.755
      -1.371
      -0.317
       0.528
       0.519
      -0.173
      -0.805
      -0.816
      -0.279
       0.314
       0.560
       0.387
      -0.039
      -0.464
      -0.611
      -0.302
       0.350
       0.924
       1.001
       0.546
      -0.061
      -0.384
      -0.249
       0.246
       0.890
       1.426
       1.556
       1.091
       0.152
      -0.837
      -1.414
      -1.377
      -0.856
      -0.186
       0.284
       0.339
      -0.002
      -0.481
      -0.748
      -0.619
      -0.218
       0.133
       0.172
      -0.090
      -0.399
      -0.493
      -0.345
      -0.151
      -0.086
      -0.092
       0.039
       0.412
       0.890
       1.193
       1.112
       0.605
      -0.205
      -1.062
      -1.612
      -1.530
      -0.783
       0.222
       0.848
       0.745
       0.182
      -0.224
      -0.130
       0.251
       0.486
       0.397
       0.130
      -0.115
      -0.239
      -0.174
       0.121
       0.504
       0.669
       0.448
       0.055
      -0.090
       0.209
       0.733
       1.063
       0.921
       0.329
      -0.423
      -0.893
      -0.716
       0.063
       0.851
       0.870
      -0.105
      -1.385
      -1.877
      -1.084
       0.418
       1.530
       1.591
       0.791
      -0.208
      -0.856
      -0.950
      -0.583
      -0.055
       0.239
       0.090
      -0.296
      -0.476
      -0.255
       0.083
       0.118
      -0.192
      -0.437
      -0.215
       0.422
       1.003
       1.068
       0.535
      -0.282
      -0.932
      -1.123
      -0.892
      -0.536
      -0.381
      -0.498
      -0.603
      -0.315
       0.413
       1.169
       1.453
       1.134
       0.486
      -0.158
      -0.636
      -0.885
      -0.873
      -0.724
      -0.724
      -1.005
      -1.248
      -0.925
       0.090
       1.255
       1.807
       1.428
       0.445
      -0.548
      -1.134
      -1.190
      -0.802
      -0.200
       0.316
       0.554
       0.563
       0.511
       0.463
       0.399
       0.398
       0.633
       1.069
       1.280
       0.796
      -0.349
      -1.525
      -2.035
      -1.656
      -0.683
       0.406
       1.176
       1.280
       0.599
      -0.521
      -1.359
      -1.371
      -0.658
       0.172
       0.579
       0.486
       0.161
      -0.146
      -0.367
      -0.495
      -0.491
      -0.339
      -0.106
       0.154
       0.481
       0.887
       1.178
       1.049
       0.439
      -0.273
      -0.539
      -0.147
       0.556
       0.986
       0.858
       0.373
      -0.075
      -0.304
      -0.390
      -0.397
      -0.223
       0.219
       0.790
       1.198
       1.286
       1.126
       0.845
       0.514
       0.255
       0.284
       0.655
       1.007
       0.780
      -0.206
      -1.453
      -2.171
      -1.956
      -1.087
      -0.257
      -0.060
      -0.633
      -1.602
      -2.315
      -2.222
      -1.212
       0.271
       1.463
       1.748
       1.064
      -0.072
      -0.899
      -0.827
       0.322
       2.237
       4.128
       4.956
       3.989
       1.415
      -1.564
      -3.469
      -3.594
      -2.490
      -1.485
      -1.658
      -3.093
      -4.897
      -5.887
      -5.422
      -3.839
      -2.196
      -1.539
      -2.210
      -3.676
      -4.975
      -5.434
      -5.091
      -4.535
      -4.314
      -4.357
      -3.912
      -2.125
       1.135
       4.914
       7.683
       8.419
       7.413
       6.096
       5.974
       7.503
       9.782
      11.259
      10.851
       8.680
       5.971
       4.143
       3.647
       3.485
       1.991
      -1.579
      -6.043
      -8.900
      -8.138
      -3.822
       1.763
       5.486
       5.340
       1.735
      -2.737
      -5.062
      -3.821
       0.077
       4.315
       6.666
       5.930
       2.195
      -3.171
      -7.868
      -9.693
      -7.874
      -3.539
       1.192
       4.624
       6.084
       5.505
       2.943
      -1.210
      -5.690
      -8.528
      -8.169
      -4.582
       0.722
       5.703
       8.789
       9.161
       6.706
       2.168
      -2.787
      -6.215
      -7.048
      -5.708
      -3.570
      -1.841
      -0.873
      -0.295
       0.395
       1.261
       1.722
       0.906
      -1.466
      -4.316
      -5.559
      -3.732
       0.409
       4.003
       4.201
       0.605
      -4.157
      -6.328
      -3.823
       2.282
       8.513
      11.263
       9.038
       3.366
      -2.249
      -4.805
      -3.893
      -1.604
      -0.358
      -0.804
      -1.732
      -1.742
      -0.689
       0.468
       0.832
       0.341
      -0.431
      -0.951
      -1.165
      -1.481
      -2.332
      -3.627
      -4.570
      -4.199
      -2.316
       0.152
       1.906
       2.459
       2.469
       2.832
       3.623
       4.034
       3.275
       1.410
      -0.658
      -1.911
      -1.901
      -0.946
       0.080
       0.190
      -1.037
      -2.830
      -3.448
      -1.631
       1.856
       4.435
       3.933
       0.716
      -2.506
      -3.059
      -0.532
       3.129
       5.375
       4.901
       2.230
      -0.928
      -2.778
      -2.428
      -0.353
       1.960
       3.057
       2.502
       0.973
      -0.523
      -1.472
      -1.970
      -2.267
      -2.383
      -2.153
      -1.567
      -1.002
      -0.985
      -1.602
      -2.174
      -1.749
      -0.090
       1.877
       2.766
       1.989
       0.266
      -1.083
      -1.309
      -0.709
      -0.078
       0.195
       0.437
       1.129
       2.142
       2.683
       2.040
       0.332
      -1.536
      -2.662
      -2.830
      -2.474
      -2.153
      -2.102
      -2.186
      -2.107
      -1.639
      -0.791
       0.139
       0.671
       0.466
      -0.313
      -0.990
      -0.882
       0.089
       1.372
       2.398
       3.101
       3.720
       4.210
       4.102
       2.957
       0.845
      -1.586
      -3.403
      -3.846
      -2.831
      -1.169
      -0.075
      -0.125
      -0.687
      -0.657
       0.194
       0.912
       0.636
      -0.116
       0.115
       1.935
       4.133
       4.800
       3.248
       0.620
      -1.325
      -1.734
      -1.048
      -0.232
       0.099
      -0.076
      -0.498
      -0.990
      -1.556
      -2.156
      -2.412
      -1.750
      -0.125
       1.389
       1.115
      -1.648
      -5.492
      -7.607
      -6.011
      -1.308
       3.630
       5.846
       4.494
       1.283
      -1.061
      -0.902
       1.333
       3.875
       5.131
       4.700
       3.227
       1.519
      -0.117
      -1.715
      -3.062
      -3.507
      -2.533
      -0.507
       1.327
       1.792
       0.819
      -0.482
      -0.810
       0.162
       1.489
       1.788
       0.473
      -1.661
      -3.048
      -2.634
      -0.701
       1.474
       2.769
       3.160
       3.636
       5.118
       7.276
       8.421
       6.822
       2.418
      -2.742
      -5.933
      -5.878
      -3.604
      -1.291
      -0.295
      -0.285
      -0.184
       0.340
       0.533
      -0.402
      -2.171
      -3.527
      -3.495
      -2.293
      -0.950
      -0.164
       0.280
       0.984
       2.055
       2.891
       2.867
       2.105
       1.384
       1.184
       0.977
      -0.291
      -2.916
      -5.784
      -7.137
      -6.036
      -3.117
      -0.037
       1.717
       1.652
       0.307
      -1.218
      -1.891
      -1.327
       0.001
       1.209
       1.739
       1.623
       1.097
       0.212
      -1.036
      -2.333
      -3.069
      -2.846
      -1.925
      -1.053
      -0.808
      -1.043
      -0.969
       0.128
       2.115
       3.901
       4.203
       2.647
       0.240
      -1.308
      -0.992
       0.580
       1.703
       1.119
      -0.820
      -2.454
      -2.292
      -0.265
       2.309
       3.838
       3.549
       1.783
      -0.409
      -1.905
      -2.073
      -1.058
       0.390
       1.465
       1.755
       1.256
       0.169
      -1.097
      -1.902
      -1.730
      -0.724
       0.293
       0.537
      -0.049
      -0.902
      -1.491
      -1.702
      -1.678
      -1.587
      -1.656
      -2.167
      -3.132
      -3.984
      -3.838
      -2.279
       0.123
       2.223
       3.296
       3.554
       3.661
       3.898
       3.980
       3.620
       2.979
       2.493
       2.440
       2.798
       3.365
       3.870
       3.973
       3.320
       1.719
      -0.653
      -3.204
      -5.103
      -5.608
      -4.436
      -2.082
       0.182
       0.960
      -0.266
      -2.682
      -4.779
      -5.514
      -4.937
      -3.838
      -2.912
      -2.263
      -1.586
      -0.665
       0.310
       0.879
       0.767
       0.252
       0.088
       0.933
       2.718
       4.595
       5.620
       5.518
       4.775
       4.017
       3.424
       2.754
       1.829
       0.837
       0.175
       0.078
       0.400
       0.703
       0.550
      -0.182
      -1.134
      -1.630
      -1.166
       0.116
       1.428
       1.877
       1.054
      -0.785
      -2.925
      -4.442
      -4.478
      -2.698
       0.269
       2.975
       4.106
       3.407
       1.660
      -0.178
      -1.631
      -2.543
      -2.635
      -1.625
       0.137
       1.494
       1.321
      -0.322
      -2.041
      -2.302
      -0.829
       1.192
       2.230
       1.654
      -0.013
      -1.767
      -2.907
      -3.317
      -3.241
      -2.858
      -2.046
      -0.617
       1.150
       2.346
       2.073
       0.378
      -1.608
      -2.642
      -2.450
      -1.768
      -1.429
      -1.590
      -1.819
      -1.655
      -0.977
       0.007
       0.881
       1.179
       0.708
      -0.116
      -0.402
       0.491
       2.294
       3.958
       4.540
       3.924
       2.701
       1.483
       0.470
      -0.340
      -0.774
      -0.506
       0.544
       1.959
       3.020
       3.166
       2.341
       1.018
      -0.069
      -0.393
      -0.063
       0.194
      -0.288
      -1.293
      -1.757
      -0.878
       0.857
       2.017
       1.661
       0.272
      -0.822
      -0.810
      -0.023
       0.621
       0.532
