Origin Time       11/8/2009 21:43:39 
Lat.              24.4 N 
Long.             94.8 E 
Depth (Km)         22.0
Magnitude         5.6
 Region           MYANMAR-INDIA(MANIPUR)BORDER                                     
 Above details taken from IMD 
   
Station Code      BOK
Station Lat.       25.976
Station Long.      91.230
Station Height(m)   68.0
Site Class        C   Vs30 between 200 m/sec to 375 m/sec *  
Record Time       11.08.2009 21:45:02.164
Sampling Rate     200. Hz
 Record Duration   77.560 Sec.
 Direction         Vert. (Up positive)
Max. Acceleration      7.996 cm/sec**2
     
  * For reference see Site Classification link of website 
     
 Base Line Corrected and Low Pass Filtered (Cut Off at 35 Hz) Time History
 Acceleration data in cm/sec**2
    
[...]
      -0.919
      -1.272
      -1.218
      -1.108
      -1.269
      -1.546
      -1.466
      -0.801
       0.140
       0.776
       0.785
       0.378
       0.103
       0.344
       0.951
       1.374
       1.221
       0.682
       0.330
       0.469
       0.820
       0.902
       0.592
       0.161
      -0.182
      -0.515
      -0.919
      -1.149
      -0.826
       0.056
       0.990
       1.397
       1.104
       0.375
      -0.364
      -0.737
      -0.551
       0.036
       0.522
       0.465
      -0.070
      -0.562
      -0.569
      -0.125
       0.404
       0.695
       0.609
       0.127
      -0.570
      -1.001
      -0.720
       0.097
       0.677
       0.495
      -0.075
      -0.289
      -0.074
      -0.099
      -0.721
      -1.332
      -1.130
      -0.275
       0.270
       0.011
      -0.485
      -0.501
      -0.178
      -0.125
      -0.336
      -0.157
       0.615
       1.219
       0.889
      -0.041
      -0.530
      -0.178
       0.346
       0.324
      -0.114
      -0.387
      -0.320
      -0.153
       0.064
       0.491
       0.911
       0.723
      -0.114
      -0.630
       0.070
       1.462
       2.023
       1.119
      -0.144
      -0.325
       0.538
       1.085
       0.454
      -0.691
      -1.150
      -0.692
      -0.068
       0.183
       0.307
       0.659
       1.029
       0.992
       0.607
       0.321
       0.290
       0.240
       0.041
      -0.021
       0.225
       0.403
       0.083
      -0.482
      -0.596
      -0.133
       0.149
      -0.397
      -1.290
      -1.372
      -0.297
       0.930
       1.117
       0.234
      -0.738
      -1.029
      -0.703
      -0.162
       0.417
       0.910
       0.910
       0.106
      -1.050
      -1.553
      -0.976
      -0.026
       0.326
       0.010
      -0.240
      -0.032
       0.155
      -0.237
      -0.954
      -1.252
      -0.908
      -0.380
      -0.012
       0.389
       0.934
       1.157
       0.625
      -0.165
      -0.162
       0.847
       1.740
       1.361
      -0.036
      -1.102
      -1.038
      -0.360
       0.052
       0.084
       0.194
       0.484
       0.542
       0.205
      -0.067
       0.179
       0.701
       0.883
       0.570
       0.211
       0.174
       0.296
       0.231
      -0.071
      -0.418
      -0.699
      -0.903
      -0.932
      -0.687
      -0.354
      -0.313
      -0.635
      -0.881
      -0.595
       0.104
       0.634
       0.599
       0.135
      -0.372
      -0.669
      -0.695
      -0.467
      -0.129
       0.028
      -0.147
      -0.388
      -0.258
       0.249
       0.602
       0.398
       0.003
       0.203
       1.154
       1.964
       1.584
       0.035
      -1.476
      -1.731
      -0.703
       0.452
       0.524
      -0.685
      -2.258
      -2.983
      -2.279
      -0.560
       1.088
       1.651
       0.915
      -0.349
      -0.990
      -0.444
       0.781
       1.603
       1.380
       0.449
      -0.323
      -0.460
      -0.216
      -0.073
      -0.144
      -0.195
      -0.128
      -0.149
      -0.410
      -0.696
      -0.661
      -0.298
       0.038
       0.105
       0.097
       0.337
       0.745
       0.865
       0.465
      -0.063
      -0.113
       0.399
       0.887
       0.755
       0.071
      -0.541
      -0.605
      -0.235
       0.103
       0.137
       0.036
       0.196
       0.822
       1.673
       2.170
       1.817
       0.659
      -0.643
      -1.304
      -1.103
      -0.551
      -0.321
      -0.567
      -0.857
      -0.743
      -0.291
       0.031
      -0.102
      -0.522
      -0.796
      -0.691
      -0.357
      -0.116
      -0.120
      -0.221
      -0.144
       0.210
       0.646
       0.893
       0.916
       0.905
       0.904
       0.604
      -0.285
      -1.433
      -1.921
      -1.073
       0.721
       2.191
       2.333
       1.367
       0.418
       0.257
       0.560
       0.509
      -0.077
      -0.538
      -0.283
       0.402
       0.708
       0.328
      -0.208
      -0.309
      -0.139
      -0.328
      -0.981
      -1.425
      -1.101
      -0.382
      -0.128
      -0.542
      -0.866
      -0.360
       0.729
       1.458
       1.312
       0.681
       0.190
      -0.096
      -0.545
      -1.223
      -1.601
      -1.161
      -0.111
       0.690
       0.556
      -0.370
      -1.248
      -1.288
      -0.435
       0.629
       1.118
       0.810
       0.145
      -0.264
      -0.198
       0.060
       0.124
      -0.091
      -0.346
      -0.341
       0.068
       0.811
       1.594
       1.940
       1.443
       0.188
      -1.113
      -1.594
      -0.973
       0.221
       1.210
       1.674
       1.777
       1.674
       1.304
       0.705
       0.228
       0.211
       0.501
       0.579
       0.191
      -0.374
      -0.744
      -1.018
      -1.553
      -2.274
      -2.560
      -1.999
      -0.971
      -0.230
      -0.073
      -0.247
      -0.569
      -1.183
      -2.027
      -2.410
      -1.586
       0.298
       2.158
       2.984
       2.695
       1.880
       1.007
       0.196
      -0.402
      -0.520
      -0.208
       0.017
      -0.211
      -0.555
      -0.443
       0.010
       0.002
      -0.858
      -1.832
      -1.814
      -0.694
       0.475
       0.727
       0.236
      -0.058
       0.388
       1.238
       1.837
       1.863
       1.323
       0.311
      -0.866
      -1.483
      -0.867
       0.724
       2.014
       1.858
       0.407
      -1.017
      -1.191
      -0.035
       1.489
       2.300
       1.979
       0.875
      -0.266
      -0.804
      -0.619
      -0.198
      -0.196
      -0.743
      -1.214
      -0.840
       0.381
       1.517
       1.595
       0.628
      -0.382
      -0.482
       0.263
       0.870
       0.480
      -0.711
      -1.596
      -1.298
      -0.126
       0.701
       0.308
      -0.937
      -1.831
      -1.570
      -0.459
       0.517
       0.629
      -0.090
      -1.024
      -1.468
      -1.054
       0.062
       1.256
       1.783
       1.290
       0.144
      -0.839
      -1.114
      -0.838
      -0.501
      -0.297
      -0.087
       0.108
      -0.086
      -0.932
      -2.028
      -2.457
      -1.648
      -0.063
       1.153
       1.276
       0.662
       0.234
       0.449
       0.942
       1.122
       0.856
       0.435
       0.063
      -0.308
      -0.647
      -0.693
      -0.366
      -0.127
      -0.527
      -1.377
      -1.767
      -1.179
      -0.317
      -0.388
      -1.568
      -2.598
      -2.129
      -0.229
       1.751
       2.661
       2.544
       2.167
       2.020
       2.041
       2.020
       1.865
       1.546
       1.105
       0.793
       0.901
       1.341
       1.563
       1.091
       0.066
      -0.871
      -1.229
      -1.061
      -0.767
      -0.701
      -1.026
      -1.676
      -2.274
      -2.249
      -1.301
       0.282
       1.896
       3.098
       3.623
       3.096
       1.255
      -1.327
      -3.154
      -3.004
      -1.239
       0.465
       0.831
       0.145
      -0.379
      -0.124
       0.397
       0.424
      -0.073
      -0.520
      -0.575
      -0.554
      -0.998
      -1.964
      -2.785
      -2.543
      -0.912
       1.336
       2.787
       2.590
       1.281
       0.262
       0.423
       1.379
       2.115
       2.125
       1.619
       0.804
      -0.493
      -2.305
      -3.990
      -4.584
      -3.723
      -2.076
      -0.814
      -0.711
      -1.635
      -2.635
      -2.494
      -0.589
       2.386
       4.625
       4.581
       2.449
       0.116
      -0.596
       0.424
       1.759
       2.070
       1.274
       0.245
      -0.254
      -0.192
      -0.010
      -0.077
      -0.435
      -0.851
      -0.903
      -0.138
       1.489
       3.239
       3.896
       2.765
       0.406
      -1.725
      -2.502
      -2.007
      -1.249
      -1.046
      -1.299
      -1.332
      -0.734
       0.289
       1.254
       1.817
       1.808
       1.136
      -0.009
      -0.881
      -0.554
       1.074
       2.827
       3.220
       1.979
       0.305
      -0.511
      -0.439
      -0.441
      -1.032
      -1.569
      -1.160
       0.003
       0.664
      -0.099
      -1.854
      -3.391
      -3.972
      -3.743
      -3.187
      -2.630
      -2.263
      -2.207
      -2.248
      -1.753
      -0.290
       1.602
       2.632
       1.992
       0.240
      -1.253
      -1.620
      -1.038
      -0.121
       0.793
       1.598
       2.070
       2.063
       1.956
       2.355
       3.169
       3.397
       2.218
       0.166
      -1.176
      -0.796
       0.659
       1.576
       1.037
      -0.407
      -1.526
      -1.718
      -1.352
      -1.054
      -1.011
      -1.035
      -0.933
      -0.546
       0.395
       2.037
       3.895
       4.801
       3.723
       0.851
      -2.221
      -3.657
      -2.894
      -1.020
       0.316
       0.316
      -0.538
      -1.144
      -0.718
       0.623
       1.890
       1.875
       0.200
      -2.097
      -3.235
      -2.274
      -0.038
       1.708
       1.973
       1.243
       0.548
       0.246
       0.030
      -0.193
      -0.092
       0.318
       0.343
      -0.465
      -1.364
      -1.047
       0.754
       2.807
       3.741
       3.472
       2.918
       2.568
       1.892
       0.270
      -1.947
      -3.627
      -3.927
      -2.956
      -1.507
      -0.387
       0.033
      -0.097
      -0.356
      -0.530
      -0.939
      -2.075
      -3.703
      -4.644
      -3.900
      -1.943
      -0.396
      -0.250
      -0.748
      -0.326
       1.506
       3.547
       4.144
       2.724
       0.078
      -2.405
      -3.496
      -2.549
       0.113
       3.054
       4.427
       3.372
       0.820
      -1.302
      -1.759
      -0.864
       0.150
       0.274
      -0.660
      -1.997
      -2.566
      -1.333
       1.638
       4.749
       5.902
       4.386
       1.595
      -0.447
      -1.140
      -1.514
      -2.443
      -3.302
      -2.867
      -1.148
       0.374
       0.472
      -0.422
      -0.871
      -0.145
       1.154
       1.974
       1.791
       0.695
      -0.893
      -2.205
      -2.305
      -0.954
       0.776
       1.355
       0.490
      -0.479
      -0.215
       0.944
       1.495
       0.750
      -0.379
      -0.684
      -0.121
       0.472
       0.632
       0.596
       0.546
       0.256
      -0.223
      -0.139
       1.064
       2.592
       2.722
       0.638
      -2.531
      -4.784
      -5.062
      -3.799
      -2.091
      -0.856
      -0.550
      -0.992
      -1.290
      -0.431
       1.648
       3.760
       4.569
       3.910
       2.756
       2.009
       1.769
       1.788
       2.074
       2.602
       2.774
       1.914
       0.427
      -0.247
       0.664
       2.008
       1.879
       0.010
      -1.745
      -1.653
      -0.260
       0.294
      -1.113
      -3.267
      -4.028
      -2.580
       0.034
       2.232
       3.174
       2.789
       1.333
      -0.540
      -1.692
      -1.321
      -0.069
       0.229
      -1.569
      -4.354
      -5.571
      -3.827
      -0.480
       1.674
       1.228
      -0.552
      -1.246
       0.197
       2.573
       3.851
       3.144
       1.294
      -0.071
       0.185
       2.029
       4.306
       5.340
       4.017
       0.835
      -2.239
      -3.407
      -2.734
      -2.058
      -3.076
      -5.552
      -7.583
      -7.561
      -5.629
      -3.275
      -1.850
      -1.599
      -1.863
      -1.894
      -1.393
      -0.519
       0.392
       1.136
       1.733
       2.207
       2.359
       1.968
       1.256
       0.925
       1.484
       2.637
       3.565
       3.812
       3.651
       3.489
       3.146
       2.083
       0.358
      -1.067
      -1.330
      -0.854
      -1.075
      -2.801
      -5.042
      -5.826
      -4.225
      -1.308
       1.025
       1.840
       1.575
       1.005
       0.380
      -0.259
      -0.496
       0.110
       1.202
       1.753
       1.265
       0.469
       0.418
       1.076
       1.415
       1.005
       0.849
       2.124
       4.413
       5.870
       5.281
       3.494
       2.406
       2.787
       3.536
       2.999
       0.659
      -2.516
      -5.047
      -6.005
      -5.334
      -3.663
      -2.056
      -1.568
      -2.514
      -4.111
      -5.045
      -4.462
      -2.488
      -0.008
       1.991
       3.028
       3.278
       3.152
       2.777
       1.938
       0.597
      -0.661
      -0.972
      -0.220
       0.499
      -0.166
      -2.248
      -4.109
      -3.933
      -1.499
       1.673
       3.789
       4.145
       3.162
       1.589
      -0.060
      -1.542
      -2.762
      -3.690
      -4.216
      -4.046
      -2.970
      -1.342
      -0.122
      -0.162
      -1.338
      -2.485
      -2.339
      -0.570
       2.033
       4.129
       4.566
       2.987
       0.142
      -2.418
      -3.368
      -2.633
      -1.346
      -0.666
      -0.686
      -0.576
       0.314
       1.698
       2.785
       3.157
       2.958
       2.420
       1.599
       0.592
      -0.263
      -0.552
      -0.186
       0.479
       1.026
       1.362
       1.612
       1.755
       1.537
       0.729
      -0.594
      -2.007
      -2.848
      -2.424
      -0.351
       2.985
       6.287
       7.996
       7.416
       5.299
       3.196
       2.188
       2.221
       2.500
       2.291
       1.366
      -0.046
      -1.481
      -2.437
      -2.707
      -2.645
      -2.861
      -3.532
      -4.195
      -4.366
      -4.191
      -4.195
      -4.390
      -4.007
      -2.378
       0.077
       2.004
       2.275
       0.815
      -1.641
      -4.216
      -6.092
      -6.517
      -5.257
      -3.062
      -1.174
      -0.092
       0.971
       3.013
       5.704
       7.365
       6.715
       4.412
       2.538
       2.503
       3.639
       3.936
       2.050
      -1.472
      -4.724
      -6.021
      -5.099
      -3.093
      -1.514
      -1.095
      -1.356
      -1.183
       0.131
       2.320
       4.446
       5.609
       5.456
       4.310
       3.012
       2.401
       2.503
       2.292
       0.724
      -1.853
      -3.647
      -3.173
      -0.974
       0.836
       0.811
      -0.581
      -2.129
      -3.541
      -5.144
      -6.334
      -5.560
      -2.434
       0.851
       1.308
      -1.488
      -4.576
      -4.703
      -1.870
       0.848
       0.850
      -1.359
      -3.164
      -2.732
      -0.501
       1.756
       2.667
       2.014
       0.441
      -1.004
      -1.281
       0.008
       2.148
       3.786
       4.171
       3.786
       3.559
       3.622
       3.164
       1.562
      -0.586
      -1.753
      -0.861
       1.631
       3.955
       4.265
       1.954
      -1.816
      -4.787
      -5.134
      -2.791
       0.529
       2.734
       2.953
       1.881
       0.810
       0.604
       1.377
       2.624
       3.432
       2.907
       0.901
      -1.562
      -2.878
      -2.208
      -0.227
       1.605
       2.425
       2.417
       2.029
       1.322
       0.374
      -0.238
      -0.059
       0.312
      -0.384
      -2.449
      -4.560
      -5.188
      -4.475
      -4.068
      -5.017
      -6.421
      -6.597
      -5.196
      -3.586
      -3.129
      -3.600
      -3.537
      -1.818
       1.374
       4.801
       6.993
       7.065
       5.328
       3.242
       2.332
       2.840
       3.606
       3.437
       2.338
       1.182
       0.466
      -0.060
      -0.583
      -0.682
      -0.007
       0.921
       1.132
       0.326
      -0.899
      -1.910
      -2.645
      -3.153
      -3.067
      -2.088
      -0.786
      -0.147
      -0.148
       0.479
       2.545
       4.968
       5.748
       4.224
       1.661
      -0.450
      -1.959
      -3.433
      -4.539
      -4.048
      -1.612
       1.292
       2.696
       2.087
       0.609
      -0.483
      -1.018
      -1.487
      -2.019
      -2.303
      -2.268
      -2.192
      -2.092
      -1.526
      -0.317
       0.856
       1.061
       0.299
      -0.343
       0.032
       0.897
       0.768
      -1.020
      -3.314
      -4.205
      -2.963
      -0.645
       1.159
       1.828
       1.863
       1.967
       2.380
       3.031
       3.885
       4.871
       5.581
       5.413
       4.254
       2.897
       2.391
       2.917
       3.550
       3.326
       2.372
       1.695
       1.873
       2.211
       1.381
      -1.119
      -4.257
      -6.332
      -6.506
      -5.363
      -4.004
      -2.864
      -1.616
      -0.134
       0.854
       0.326
      -1.818
      -4.305
      -5.379
      -4.236
      -1.658
       0.634
       1.277
       0.123
      -1.850
      -3.324
      -3.531
      -2.683
      -1.666
      -1.190
      -1.153
      -0.883
      -0.014
       1.015
       1.422
       1.003
       0.457
       0.727
       2.102
       3.975
       5.278
       5.167
       3.586
       1.377
      -0.347
      -1.095
      -1.255
      -1.390
      -1.386
      -0.599
       1.068
       2.597
       2.799
       1.705
       0.538
       0.194
       0.254
      -0.079
      -0.520
       0.091
       2.035
       3.849
       3.748
       1.740
      -0.243
      -0.460
       0.868
       2.187
       2.580
       2.516
       2.698
       2.900
       2.386
       1.080
      -0.293
      -1.232
      -2.119
      -3.542
      -5.274
      -6.357
      -6.199
      -5.248
      -4.452
      -4.250
      -4.315
      -4.179
      -3.736
      -3.076
      -2.204
      -1.216
      -0.563
      -0.701
      -1.353
      -1.461
      -0.295
       1.464
       2.234
       1.328
      -0.078
      -0.193
       1.302
       2.853
       2.936
       1.960
       1.789
       3.392
       5.499
       5.932
       4.029
       1.321
      -0.135
       0.321
       1.701
       2.568
       2.164
       0.667
      -1.086
      -1.993
      -1.305
       0.665
       2.594
       3.253
       2.607
       1.600
       0.917
       0.286
      -0.899
      -2.617
      -4.150
      -4.840
      -4.611
      -3.784
      -2.736
      -1.939
      -1.904
      -2.628
      -3.214
      -2.541
      -0.443
       2.070
       3.884
       4.714
       4.676
       3.466
       0.771
      -2.549
      -4.578
      -4.186
      -2.413
      -1.404
      -2.003
      -3.027
      -3.032
      -2.081
      -1.203
      -0.665
       0.283
       1.883
       3.022
       2.540
       0.902
      -0.179
       0.246
       1.293
       1.456
       0.424
      -0.787
      -1.221
      -0.839
      -0.042
       0.962
       2.021
       2.743
       2.822
       2.592
       2.784
       3.606
       4.349
       4.159
       3.039
       1.846
       1.347
       1.535
       1.866
       1.883
       1.537
       1.069
       0.731
       0.591
       0.511
       0.299
      -0.089
      -0.536
      -0.991
      -1.637
      -2.653
      -3.803
      -4.500
      -4.443
      -4.055
      -4.065
      -4.682
      -5.385
      -5.560
      -5.093
