Origin Time       19/8/2009 10:45:15	
Lat.              26.6 N	
Long.             92.5 E	
Depth (Km)         20.0
Magnitude         4.9
 Region           Sonitpur-Assam                                                   
 Above details taken from IMD 
     
Station Code      BOK
Station Lat.       25.976  N
Station Long.      91.230  E
Station Height(m)   68.0
Site Class        C   Vs30 between 200 m/sec to 375 m/sec *  
Record Time       19.08.2009 10:45:43.654
Sampling Rate     200. Hz
 Record Duration   66.735 Sec.
 Direction         E-W (E positive)
Max. Acceleration     -8.239 cm/sec**2
     
  * For reference see Site Classification link of website 
     
 Base Line Corrected and Low Pass Filtered (Cut Off at 35 Hz) Time History
 Acceleration data in cm/sec**2
    
[...]
       0.167
      -0.191
      -0.441
      -0.426
      -0.139
       0.275
       0.625
       0.798
       0.791
       0.646
       0.398
       0.106
      -0.110
      -0.111
       0.133
       0.477
       0.690
       0.635
       0.369
       0.084
      -0.046
       0.026
       0.232
       0.440
       0.537
       0.471
       0.287
       0.090
      -0.027
      -0.043
      -0.001
       0.055
       0.110
       0.152
       0.142
       0.030
      -0.201
      -0.507
      -0.810
      -1.029
      -1.115
      -1.059
      -0.904
      -0.734
      -0.636
      -0.655
      -0.769
      -0.896
      -0.941
      -0.845
      -0.615
      -0.332
      -0.103
       0.002
       0.006
      -0.008
       0.038
       0.149
       0.260
       0.303
       0.266
       0.187
       0.104
       0.027
      -0.028
      -0.017
       0.092
       0.270
       0.423
       0.461
       0.366
       0.198
       0.040
      -0.055
      -0.086
      -0.098
      -0.149
      -0.270
      -0.430
      -0.556
      -0.600
      -0.583
      -0.556
      -0.533
      -0.476
      -0.356
      -0.212
      -0.118
      -0.103
      -0.103
      -0.014
       0.219
       0.562
       0.921
       1.194
       1.297
       1.196
       0.928
       0.606
       0.362
       0.270
       0.305
       0.384
       0.428
       0.397
       0.290
       0.138
       0.005
      -0.030
       0.072
       0.278
       0.503
       0.665
       0.720
       0.642
       0.387
      -0.075
      -0.692
      -1.293
      -1.657
      -1.648
      -1.309
      -0.847
      -0.500
      -0.390
      -0.452
      -0.514
      -0.425
      -0.159
       0.187
       0.478
       0.623
       0.618
       0.518
       0.392
       0.289
       0.233
       0.217
       0.198
       0.123
      -0.018
      -0.157
      -0.200
      -0.130
      -0.042
      -0.063
      -0.229
      -0.461
      -0.645
      -0.735
      -0.769
      -0.809
      -0.867
      -0.880
      -0.768
      -0.518
      -0.225
      -0.028
       0.008
      -0.044
      -0.042
       0.102
       0.362
       0.654
       0.910
       1.095
       1.181
       1.133
       0.942
       0.663
       0.394
       0.205
       0.111
       0.079
       0.071
       0.057
       0.011
      -0.090
      -0.237
      -0.385
      -0.466
      -0.436
      -0.304
      -0.129
       0.008
       0.047
       0.001
      -0.045
      -0.008
       0.109
       0.229
       0.295
       0.338
       0.441
       0.636
       0.851
       0.964
       0.900
       0.690
       0.448
       0.294
       0.268
       0.298
       0.258
       0.077
      -0.188
      -0.392
      -0.431
      -0.320
      -0.166
      -0.071
      -0.075
      -0.164
      -0.293
      -0.408
      -0.468
      -0.476
      -0.490
      -0.547
      -0.608
      -0.580
      -0.416
      -0.176
       0.018
       0.087
       0.040
      -0.063
      -0.138
      -0.104
       0.088
       0.380
       0.614
       0.642
       0.470
       0.269
       0.220
       0.347
       0.507
       0.527
       0.360
       0.114
      -0.030
       0.033
       0.242
       0.396
       0.290
      -0.109
      -0.617
      -0.943
      -0.897
      -0.522
      -0.043
       0.285
       0.340
       0.177
      -0.037
      -0.141
      -0.088
       0.028
       0.041
      -0.148
      -0.470
      -0.719
      -0.727
      -0.513
      -0.269
      -0.178
      -0.256
      -0.355
      -0.321
      -0.121
       0.152
       0.377
       0.478
       0.441
       0.284
       0.052
      -0.178
      -0.317
      -0.309
      -0.152
       0.108
       0.397
       0.628
       0.737
       0.727
       0.678
       0.683
       0.771
       0.876
       0.882
       0.704
       0.322
      -0.196
      -0.717
      -1.090
      -1.231
      -1.186
      -1.100
      -1.099
      -1.196
      -1.304
      -1.345
      -1.328
      -1.330
      -1.400
      -1.498
      -1.511
      -1.353
      -1.033
      -0.654
      -0.314
      -0.032
       0.251
       0.576
       0.886
       1.063
       1.037
       0.867
       0.696
       0.633
       0.685
       0.797
       0.915
       1.005
       1.033
       0.945
       0.712
       0.383
       0.092
      -0.015
       0.111
       0.357
       0.503
       0.372
      -0.031
      -0.513
      -0.833
      -0.858
      -0.629
      -0.283
       0.057
       0.336
       0.536
       0.626
       0.573
       0.397
       0.198
       0.109
       0.211
       0.469
       0.744
       0.865
       0.727
       0.361
      -0.061
      -0.335
      -0.351
      -0.149
       0.141
       0.386
       0.502
       0.453
       0.252
      -0.036
      -0.321
      -0.533
      -0.648
      -0.667
      -0.597
      -0.468
      -0.347
      -0.306
      -0.352
      -0.409
      -0.403
      -0.355
      -0.357
      -0.451
      -0.559
      -0.554
      -0.384
      -0.127
       0.067
       0.075
      -0.126
      -0.426
      -0.639
      -0.612
      -0.350
      -0.028
       0.136
       0.033
      -0.274
      -0.619
      -0.839
      -0.837
      -0.600
      -0.206
       0.195
       0.451
       0.497
       0.395
       0.266
       0.198
       0.217
       0.309
       0.450
       0.590
       0.658
       0.604
       0.445
       0.251
       0.086
      -0.030
      -0.103
      -0.143
      -0.172
      -0.228
      -0.330
      -0.438
      -0.473
      -0.382
      -0.184
       0.047
       0.241
       0.371
       0.446
       0.489
       0.517
       0.537
       0.543
       0.528
       0.494
       0.468
       0.477
       0.528
       0.597
       0.658
       0.727
       0.844
       1.015
       1.181
       1.259
       1.222
       1.119
       1.015
       0.924
       0.820
       0.673
       0.471
       0.208
      -0.106
      -0.403
      -0.564
      -0.503
      -0.253
       0.048
       0.251
       0.274
       0.099
      -0.241
      -0.648
      -0.972
      -1.113
      -1.115
      -1.136
      -1.282
      -1.480
      -1.553
      -1.396
      -1.091
      -0.825
      -0.734
      -0.816
      -0.986
      -1.158
      -1.272
      -1.286
      -1.169
      -0.923
      -0.583
      -0.198
       0.187
       0.519
       0.746
       0.842
       0.832
       0.773
       0.727
       0.750
       0.879
       1.109
       1.377
       1.585
       1.659
       1.598
       1.465
       1.336
       1.253
       1.209
       1.158
       1.026
       0.742
       0.284
      -0.266
      -0.750
      -1.023
      -1.043
      -0.889
      -0.685
      -0.533
      -0.486
      -0.560
      -0.737
      -0.945
      -1.064
      -0.993
      -0.732
      -0.410
      -0.212
      -0.264
      -0.556
      -0.946
      -1.225
      -1.202
      -0.793
      -0.072
       0.748
       1.401
       1.683
       1.537
       1.087
       0.582
       0.265
       0.223
       0.336
       0.380
       0.196
      -0.192
      -0.603
      -0.831
      -0.776
      -0.506
      -0.215
      -0.100
      -0.221
      -0.445
      -0.536
      -0.317
       0.191
       0.768
       1.117
       1.040
       0.562
      -0.081
      -0.594
      -0.814
      -0.780
      -0.668
      -0.646
      -0.780
      -1.013
      -1.204
      -1.183
      -0.821
      -0.114
       0.754
       1.453
       1.661
       1.271
       0.483
      -0.324
      -0.839
      -1.001
      -0.974
      -0.984
      -1.169
      -1.540
      -2.028
      -2.527
      -2.895
      -2.971
      -2.628
      -1.855
      -0.803
       0.264
       1.083
       1.496
       1.496
       1.230
       0.936
       0.836
       0.998
       1.274
       1.393
       1.168
       0.661
       0.162
      -0.023
       0.194
       0.620
       0.930
       0.909
       0.588
       0.201
       0.022
       0.226
       0.808
       1.574
       2.188
       2.329
       1.890
       1.089
       0.357
       0.048
       0.218
       0.616
       0.897
       0.858
       0.539
       0.150
      -0.083
      -0.063
       0.123
       0.247
       0.055
      -0.570
      -1.481
      -2.291
      -2.571
      -2.137
      -1.198
      -0.241
       0.285
       0.250
      -0.131
      -0.494
      -0.572
      -0.312
       0.153
       0.611
       0.862
       0.772
       0.316
      -0.411
      -1.203
      -1.805
      -2.008
      -1.766
      -1.240
      -0.726
      -0.460
      -0.457
      -0.504
      -0.337
       0.169
       0.918
       1.670
       2.169
       2.263
       1.968
       1.465
       1.012
       0.812
       0.893
       1.103
       1.201
       0.999
       0.492
      -0.108
      -0.473
      -0.383
       0.095
       0.623
       0.823
       0.554
      -0.009
      -0.546
      -0.841
      -0.894
      -0.822
      -0.700
      -0.500
      -0.163
       0.295
       0.762
       1.109
       1.264
       1.234
       1.050
       0.718
       0.246
      -0.263
      -0.589
      -0.531
      -0.116
       0.326
       0.356
      -0.250
      -1.279
      -2.158
      -2.333
      -1.655
      -0.495
       0.540
       1.042
       1.043
       0.888
       0.893
       1.097
       1.285
       1.219
       0.844
       0.317
      -0.125
      -0.327
      -0.290
      -0.140
      -0.031
      -0.070
      -0.274
      -0.584
      -0.880
      -0.989
      -0.747
      -0.109
       0.755
       1.505
       1.831
       1.663
       1.187
       0.658
       0.173
      -0.364
      -1.074
      -1.920
      -2.697
      -3.184
      -3.290
      -3.074
      -2.680
      -2.248
      -1.849
      -1.450
      -0.942
      -0.212
       0.756
       1.834
       2.764
       3.235
       3.021
       2.124
       0.850
      -0.304
      -0.907
      -0.851
      -0.391
       0.043
       0.125
      -0.203
      -0.757
      -1.239
      -1.371
      -1.003
      -0.189
       0.813
       1.674
       2.202
       2.433
       2.518
       2.515
       2.312
       1.757
       0.847
      -0.227
      -1.191
      -1.841
      -2.123
      -2.147
      -2.141
      -2.303
      -2.639
      -2.914
      -2.827
      -2.279
      -1.471
      -0.735
      -0.261
      -0.004
       0.190
       0.415
       0.679
       0.987
       1.377
       1.839
       2.230
       2.321
       1.968
       1.253
       0.462
      -0.097
      -0.276
      -0.155
       0.050
       0.153
       0.119
       0.062
       0.125
       0.347
       0.619
       0.772
       0.730
       0.594
       0.555
       0.722
       0.991
       1.104
       0.842
       0.198
      -0.609
      -1.270
      -1.556
      -1.439
      -1.079
      -0.717
      -0.511
      -0.453
      -0.411
      -0.251
       0.077
       0.563
       1.160
       1.760
       2.160
       2.141
       1.655
       0.904
       0.199
      -0.285
      -0.606
      -0.914
      -1.236
      -1.425
      -1.302
      -0.818
      -0.079
       0.715
       1.332
       1.551
       1.264
       0.582
      -0.184
      -0.720
      -0.931
      -0.990
      -1.179
      -1.658
      -2.354
      -2.995
      -3.265
      -2.955
      -2.093
      -0.968
      -0.005
       0.482
       0.486
       0.279
       0.158
       0.197
       0.215
      -0.001
      -0.470
      -0.995
      -1.340
      -1.428
      -1.376
      -1.373
      -1.508
      -1.666
      -1.555
      -0.881
       0.426
       2.103
       3.665
       4.684
       5.022
       4.852
       4.484
       4.152
       3.900
       3.624
       3.231
       2.779
       2.461
       2.410
       2.509
       2.433
       1.912
       0.971
      -0.077
      -0.875
      -1.265
      -1.342
      -1.329
      -1.420
      -1.726
      -2.293
      -3.130
      -4.188
      -5.298
      -6.149
      -6.362
      -5.669
      -4.117
      -2.107
      -0.179
       1.337
       2.526
       3.720
       5.095
       6.405
       7.147
       7.002
       6.102
       4.877
       3.666
       2.500
       1.210
      -0.324
      -2.026
      -3.645
      -4.870
      -5.470
      -5.424
      -4.954
      -4.390
      -3.951
      -3.621
      -3.241
      -2.711
      -2.105
      -1.606
      -1.358
      -1.389
      -1.632
      -1.996
      -2.404
      -2.760
      -2.892
      -2.557
      -1.569
       0.008
       1.807
       3.335
       4.297
       4.776
       5.085
       5.410
       5.602
       5.324
       4.377
       2.892
       1.237
      -0.209
      -1.230
      -1.830
      -2.199
      -2.591
      -3.112
      -3.564
      -3.538
      -2.767
      -1.422
      -0.026
       0.949
       1.408
       1.576
       1.668
       1.684
       1.510
       1.147
       0.775
       0.589
       0.584
       0.537
       0.192
      -0.504
      -1.304
      -1.778
      -1.581
      -0.727
       0.359
       1.078
       1.040
       0.300
      -0.712
      -1.503
      -1.797
      -1.620
      -1.180
      -0.693
      -0.274
       0.045
       0.241
       0.264
       0.114
      -0.051
       0.052
       0.603
       1.431
       2.056
       2.050
       1.387
       0.475
      -0.144
      -0.132
       0.524
       1.609
       2.832
       3.900
       4.564
       4.667
       4.186
       3.242
       2.058
       0.852
      -0.287
      -1.461
      -2.862
      -4.541
      -6.263
      -7.605
      -8.239
      -8.124
      -7.409
      -6.181
      -4.366
      -1.931
       0.855
       3.425
       5.243
       6.134
       6.305
       6.046
       5.452
       4.416
       2.885
       1.088
      -0.511
      -1.520
      -1.889
      -1.930
      -2.047
      -2.436
      -2.950
      -3.234
      -2.973
      -2.063
      -0.621
       1.105
       2.806
       4.127
       4.689
       4.212
       2.696
       0.535
      -1.570
      -2.897
      -3.025
      -2.005
      -0.321
       1.345
       2.415
       2.678
       2.359
       1.933
       1.781
       1.960
       2.240
       2.329
       2.063
       1.427
       0.467
      -0.740
      -2.036
      -3.176
      -3.929
      -4.254
      -4.337
      -4.416
      -4.537
      -4.493
      -4.047
      -3.224
      -2.337
      -1.676
      -1.185
      -0.461
       0.878
       2.797
       4.764
       6.089
       6.396
       5.872
       5.080
       4.493
       4.121
       3.552
       2.375
       0.590
      -1.336
      -2.814
      -3.522
      -3.559
      -3.264
      -2.950
      -2.746
      -2.626
      -2.506
      -2.293
      -1.886
      -1.203
      -0.262
       0.767
       1.612
       2.056
       2.091
       1.922
       1.819
       1.900
       2.008
       1.798
       0.995
      -0.353
      -1.826
      -2.863
      -3.127
      -2.735
      -2.162
      -1.899
      -2.111
      -2.556
      -2.771
      -2.382
      -1.321
       0.152
       1.589
       2.609
       3.104
       3.261
       3.388
       3.671
       4.064
       4.348
       4.281
       3.702
       2.590
       1.097
      -0.483
      -1.810
      -2.653
      -2.980
      -2.938
      -2.764
      -2.687
      -2.845
      -3.213
      -3.590
      -3.669
      -3.216
      -2.230
      -0.966
       0.220
       1.095
       1.645
       1.980
       2.143
       2.046
       1.591
       0.852
       0.096
      -0.384
      -0.477
      -0.311
      -0.125
      -0.094
      -0.259
      -0.574
      -0.999
      -1.508
      -2.056
      -2.526
      -2.749
      -2.564
      -1.918
      -0.942
       0.092
       0.932
       1.502
       1.917
       2.351
       2.901
       3.563
       4.288
       4.993
       5.540
       5.737
       5.422
       4.588
       3.431
       2.269
       1.345
       0.653
      -0.086
      -1.211
      -2.827
      -4.654
      -6.210
      -7.145
      -7.455
      -7.356
      -6.985
      -6.227
      -4.862
      -2.879
      -0.650
       1.260
       2.487
       3.126
       3.592
       4.214
       4.914
       5.279
       4.959
       3.996
       2.790
       1.750
       0.999
       0.387
      -0.277
      -1.024
      -1.728
      -2.221
      -2.390
      -2.217
      -1.757
      -1.089
      -0.268
       0.678
       1.658
       2.449
       2.779
       2.516
       1.800
       0.948
       0.250
      -0.190
      -0.439
      -0.638
      -0.897
      -1.268
      -1.733
      -2.215
      -2.595
      -2.774
      -2.726
      -2.493
      -2.111
      -1.555
      -0.798
       0.072
       0.834
       1.278
       1.386
       1.360
       1.431
       1.638
       1.793
       1.664
       1.200
       0.588
       0.083
      -0.205
      -0.388
      -0.654
      -1.058
      -1.454
      -1.619
      -1.454
      -1.059
      -0.634
      -0.322
      -0.139
      -0.029
       0.030
       0.008
      -0.095
      -0.183
      -0.108
       0.194
       0.643
       1.087
       1.427
       1.672
       1.870
       2.001
       1.938
       1.548
       0.834
      -0.010
      -0.719
      -1.155
      -1.391
      -1.604
      -1.860
      -2.014
      -1.811
      -1.126
      -0.104
       0.890
       1.482
       1.518
       1.139
       0.677
       0.417
       0.409
       0.448
       0.285
      -0.125
      -0.559
      -0.716
      -0.496
      -0.074
       0.280
       0.446
       0.527
       0.693
       0.959
       1.122
       0.899
       0.172
      -0.862
      -1.781
      -2.217
      -2.092
      -1.640
      -1.177
      -0.855
      -0.595
      -0.256
       0.167
       0.485
       0.489
       0.152
      -0.335
      -0.747
      -1.045
      -1.370
      -1.803
      -2.153
      -2.044
      -1.268
      -0.054
       1.041
       1.563
       1.513
       1.291
       1.314
       1.669
       2.100
       2.244
       1.896
       1.124
       0.205
      -0.530
      -0.893
      -0.934
      -0.830
      -0.657
      -0.258
       0.611
       1.976
       3.484
       4.550
       4.709
       3.895
       2.477
       1.044
       0.102
      -0.171
       0.017
       0.215
      -0.010
      -0.857
      -2.201
      -3.639
      -4.622
      -4.666
      -3.618
      -1.824
       0.000
       1.176
       1.466
       1.140
       0.672
       0.376
       0.288
       0.303
       0.350
       0.447
       0.631
       0.878
       1.064
       0.994
       0.521
      -0.298
      -1.129
      -1.502
      -1.123
      -0.115
       1.046
       1.850
       2.060
       1.760
       1.173
       0.472
      -0.250
      -0.900
      -1.332
      -1.435
      -1.256
      -1.052
      -1.139
      -1.672
      -2.515
      -3.358
      -3.933
      -4.119
      -3.854
      -3.061
      -1.757
      -0.232
       0.984
       1.455
       1.180
       0.580
       0.170
       0.223
       0.689
       1.313
       1.770
       1.777
       1.204
       0.190
      -0.891
      -1.627
      -1.809
      -1.511
      -0.966
      -0.371
       0.179
       0.610
       0.812
       0.699
       0.349
       0.045
       0.129
       0.745
       1.684
       2.477
       2.717
       2.360
       1.750
       1.354
       1.428
       1.908
