Origin Time       11/8/2009 21:43:39  UTC
Lat.              24.4 N 
Long.             94.8 E 
Depth (Km)         22.0
Magnitude         5.6
 Region           MYANMAR-INDIA(MANIPUR)BORDER                                     
 Above details taken from IMD 
    
Station Code      BOK
Station Lat.       25.976  N
Station Long.      91.230  E
Station Height(m)   68.0
Site Class        C   Vs30 between 200 m/sec to 375 m/sec *  
Record Time       11.08.2009 21:45:02.164 UTC
Sampling Rate     200. Hz
 Record Duration   77.560 Sec.
 Direction         N-S (N positive)
Max. Acceleration     16.662 cm/sec**2
     
  * For reference see Site Classification link of website 
     
 Base Line Corrected and Low Pass Filtered (Cut Off at 35 Hz) Time History
 Acceleration data in cm/sec**2
    
[...]
      -0.138
       0.147
       0.368
       0.417
       0.277
       0.046
      -0.160
      -0.317
      -0.502
      -0.759
      -1.003
      -1.074
      -0.899
      -0.565
      -0.235
      -0.018
       0.087
       0.146
       0.233
       0.407
       0.696
       1.066
       1.412
       1.594
       1.524
       1.220
       0.802
       0.447
       0.319
       0.461
       0.724
       0.842
       0.654
       0.267
      -0.011
       0.045
       0.378
       0.714
       0.817
       0.651
       0.335
       0.002
      -0.266
      -0.449
      -0.570
      -0.669
      -0.768
      -0.856
      -0.908
      -0.913
      -0.880
      -0.798
      -0.630
      -0.368
      -0.086
       0.103
       0.151
       0.131
       0.161
       0.301
       0.514
       0.711
       0.816
       0.792
       0.649
       0.439
       0.213
      -0.002
      -0.196
      -0.334
      -0.364
      -0.268
      -0.115
      -0.021
      -0.049
      -0.149
      -0.209
      -0.177
      -0.099
      -0.055
      -0.066
      -0.088
      -0.059
       0.052
       0.229
       0.412
       0.532
       0.549
       0.486
       0.406
       0.346
       0.281
       0.154
      -0.042
      -0.232
      -0.336
      -0.350
      -0.354
      -0.412
      -0.498
      -0.534
      -0.479
      -0.366
      -0.251
      -0.136
       0.034
       0.315
       0.694
       1.059
       1.237
       1.088
       0.615
      -0.015
      -0.568
      -0.890
      -0.983
      -0.950
      -0.890
      -0.855
      -0.895
      -1.056
      -1.317
      -1.543
      -1.578
      -1.379
      -1.053
      -0.751
      -0.563
      -0.493
      -0.494
      -0.481
      -0.355
      -0.077
       0.284
       0.585
       0.716
       0.669
       0.518
       0.360
       0.278
       0.321
       0.486
       0.699
       0.852
       0.863
       0.712
       0.430
       0.080
      -0.249
      -0.462
      -0.517
      -0.457
      -0.372
      -0.317
      -0.284
      -0.220
      -0.073
       0.175
       0.473
       0.696
       0.699
       0.441
       0.056
      -0.225
      -0.264
      -0.151
      -0.108
      -0.267
      -0.561
      -0.822
      -0.929
      -0.858
      -0.638
      -0.324
       0.001
       0.246
       0.379
       0.433
       0.470
       0.514
       0.556
       0.601
       0.670
       0.746
       0.739
       0.567
       0.243
      -0.151
      -0.563
      -0.998
      -1.428
      -1.740
      -1.800
      -1.591
      -1.229
      -0.858
      -0.520
      -0.166
       0.227
       0.581
       0.768
       0.731
       0.536
       0.329
       0.247
       0.358
       0.640
       0.985
       1.240
       1.292
       1.151
       0.949
       0.826
       0.805
       0.796
       0.725
       0.615
       0.530
       0.471
       0.398
       0.336
       0.369
       0.488
       0.532
       0.330
      -0.110
      -0.601
      -0.957
      -1.110
      -1.063
      -0.806
      -0.354
       0.156
       0.480
       0.454
       0.117
      -0.323
      -0.649
      -0.734
      -0.573
      -0.287
      -0.059
      -0.010
      -0.100
      -0.205
      -0.266
      -0.336
      -0.451
      -0.508
      -0.326
       0.157
       0.787
       1.302
       1.519
       1.411
       1.065
       0.604
       0.140
      -0.249
      -0.527
      -0.678
      -0.672
      -0.484
      -0.159
       0.180
       0.400
       0.453
       0.382
       0.268
       0.202
       0.279
       0.537
       0.873
       1.077
       1.022
       0.801
       0.622
       0.570
       0.540
       0.406
       0.185
      -0.018
      -0.171
      -0.322
      -0.497
      -0.636
      -0.688
      -0.681
      -0.678
      -0.687
      -0.681
      -0.664
      -0.663
      -0.653
      -0.554
      -0.356
      -0.170
      -0.104
      -0.118
      -0.067
       0.121
       0.376
       0.587
       0.684
       0.611
       0.305
      -0.218
      -0.794
      -1.214
      -1.414
      -1.494
      -1.515
      -1.384
      -1.000
      -0.453
       0.040
       0.387
       0.687
       1.004
       1.212
       1.176
       1.004
       0.974
       1.186
       1.409
       1.336
       0.896
       0.241
      -0.461
      -1.086
      -1.466
      -1.431
      -1.033
      -0.596
      -0.419
      -0.465
      -0.440
      -0.159
       0.279
       0.675
       0.951
       1.107
       1.086
       0.807
       0.331
      -0.147
      -0.529
      -0.925
      -1.440
      -1.914
      -2.014
      -1.610
      -0.946
      -0.398
      -0.120
      -0.008
       0.087
       0.200
       0.312
       0.440
       0.581
       0.643
       0.517
       0.233
      -0.041
      -0.162
      -0.120
       0.035
       0.286
       0.591
       0.770
       0.608
       0.113
      -0.404
      -0.591
      -0.392
      -0.054
       0.156
       0.187
       0.162
       0.182
       0.252
       0.357
       0.532
       0.777
       0.985
       1.012
       0.828
       0.514
       0.137
      -0.297
      -0.715
      -0.905
      -0.676
      -0.120
       0.388
       0.489
       0.117
      -0.527
      -1.201
      -1.718
      -1.905
      -1.632
      -0.988
      -0.335
      -0.058
      -0.226
      -0.577
      -0.819
      -0.871
      -0.799
      -0.642
      -0.422
      -0.244
      -0.219
      -0.278
      -0.169
       0.258
       0.843
       1.270
       1.372
       1.217
       0.921
       0.547
       0.198
       0.055
       0.203
       0.478
       0.596
       0.458
       0.234
       0.142
       0.238
       0.434
       0.633
       0.751
       0.667
       0.291
      -0.293
      -0.819
      -1.039
      -0.893
      -0.490
       0.002
       0.397
       0.501
       0.213
      -0.351
      -0.897
      -1.195
      -1.247
      -1.211
      -1.199
      -1.221
      -1.280
      -1.413
      -1.597
      -1.678
      -1.478
      -0.977
      -0.356
       0.134
       0.338
       0.277
       0.110
       0.053
       0.259
       0.738
       1.342
       1.868
       2.180
       2.261
       2.185
       2.060
       1.986
       2.016
       2.120
       2.183
       2.053
       1.633
       0.967
       0.255
      -0.255
      -0.433
      -0.355
      -0.246
      -0.316
      -0.643
      -1.150
      -1.666
      -2.004
      -2.031
      -1.747
      -1.304
      -0.936
      -0.793
      -0.824
      -0.831
      -0.659
      -0.351
      -0.102
      -0.078
      -0.272
      -0.528
      -0.693
      -0.726
      -0.683
      -0.624
      -0.545
      -0.384
      -0.067
       0.424
       0.990
       1.428
       1.549
       1.335
       0.959
       0.621
       0.373
       0.141
      -0.107
      -0.263
      -0.176
       0.197
       0.743
       1.271
       1.614
       1.697
       1.573
       1.413
       1.401
       1.598
       1.911
       2.200
       2.372
       2.390
       2.251
       1.982
       1.667
       1.438
       1.415
       1.633
       2.002
       2.308
       2.281
       1.728
       0.665
      -0.643
      -1.828
      -2.669
      -3.225
      -3.708
      -4.234
      -4.706
      -4.914
      -4.738
      -4.230
      -3.549
      -2.799
      -1.947
      -0.905
       0.310
       1.533
       2.569
       3.317
       3.756
       3.845
       3.510
       2.726
       1.580
       0.219
      -1.212
      -2.553
      -3.622
      -4.289
      -4.575
      -4.603
      -4.414
      -3.871
      -2.814
      -1.285
       0.437
       2.045
       3.382
       4.428
       5.183
       5.605
       5.645
       5.281
       4.529
       3.451
       2.167
       0.852
      -0.321
      -1.216
      -1.723
      -1.764
      -1.363
      -0.717
      -0.122
       0.233
       0.409
       0.618
       0.989
       1.416
       1.632
       1.438
       0.866
       0.164
      -0.379
      -0.641
      -0.746
      -0.951
      -1.433
      -2.132
      -2.791
      -3.166
      -3.225
      -3.168
      -3.210
      -3.373
      -3.480
      -3.352
      -2.937
      -2.258
      -1.330
      -0.210
       0.909
       1.737
       2.080
       1.962
       1.575
       1.146
       0.829
       0.673
       0.578
       0.307
      -0.335
      -1.250
      -2.017
      -2.225
      -1.835
      -1.167
      -0.542
      -0.035
       0.420
       0.824
       1.101
       1.218
       1.205
       1.069
       0.781
       0.412
       0.203
       0.408
       1.035
       1.792
       2.323
       2.460
       2.237
       1.747
       1.085
       0.423
       0.033
       0.113
       0.597
       1.178
       1.495
       1.279
       0.370
      -1.245
      -3.300
      -5.196
      -6.202
      -5.844
      -4.184
      -1.807
       0.461
       1.883
       2.095
       1.266
       0.054
      -0.734
      -0.610
       0.335
       1.584
       2.532
       2.745
       2.056
       0.593
      -1.264
      -3.031
      -4.319
      -4.952
      -4.963
      -4.542
      -3.957
      -3.452
      -3.139
      -2.977
      -2.791
      -2.314
      -1.262
       0.520
       2.871
       5.246
       6.893
       7.254
       6.340
       4.780
       3.435
       2.876
       3.117
       3.708
       4.030
       3.588
       2.229
       0.212
      -1.914
      -3.609
      -4.588
      -4.873
      -4.680
      -4.249
      -3.736
      -3.183
      -2.584
      -1.957
      -1.343
      -0.750
      -0.124
       0.612
       1.459
       2.264
       2.727
       2.576
       1.795
       0.712
      -0.159
      -0.410
       0.031
       0.875
       1.684
       2.144
       2.202
       1.954
       1.487
       0.854
       0.164
      -0.408
      -0.715
      -0.725
      -0.493
      -0.139
       0.141
       0.109
      -0.340
      -1.028
      -1.589
      -1.775
      -1.634
      -1.358
      -1.041
      -0.650
      -0.173
       0.326
       0.831
       1.449
       2.298
       3.331
       4.338
       5.070
       5.343
       5.052
       4.216
       3.074
       2.021
       1.341
       1.001
       0.764
       0.489
       0.246
       0.146
       0.175
       0.237
       0.273
       0.274
       0.232
       0.183
       0.275
       0.657
       1.234
       1.625
       1.453
       0.689
      -0.332
      -1.182
      -1.589
      -1.509
      -1.114
      -0.759
      -0.816
      -1.423
      -2.383
      -3.373
      -4.199
      -4.842
      -5.342
      -5.756
      -6.209
      -6.832
      -7.560
      -8.055
      -7.946
      -7.149
      -5.911
      -4.582
      -3.405
      -2.491
      -1.804
      -1.077
       0.143
       2.151
       4.685
       6.947
       8.138
       8.039
       7.113
       6.103
       5.566
       5.667
       6.217
       6.846
       7.257
       7.419
       7.515
       7.680
       7.827
       7.765
       7.433
       6.933
       6.345
       5.596
       4.541
       3.148
       1.539
      -0.156
      -1.944
      -3.911
      -6.054
      -8.167
      -9.878
     -10.800
     -10.727
      -9.776
      -8.334
      -6.801
      -5.345
      -3.883
      -2.272
      -0.524
       1.126
       2.344
       2.924
       2.952
       2.745
       2.582
       2.460
       2.102
       1.188
      -0.409
      -2.576
      -5.030
      -7.392
      -9.258
     -10.318
     -10.484
      -9.913
      -8.872
      -7.553
      -6.003
      -4.241
      -2.388
      -0.619
       1.001
       2.538
       3.996
       5.166
       5.762
       5.716
       5.304
       4.985
       5.075
       5.529
       5.992
       6.071
       5.596
       4.716
       3.772
       3.049
       2.572
       2.136
       1.579
       1.001
       0.665
       0.656
       0.724
       0.519
      -0.067
      -0.862
      -1.700
      -2.622
      -3.755
      -5.023
      -6.053
      -6.392
      -5.797
      -4.337
      -2.329
      -0.262
       1.270
       1.797
       1.277
       0.188
      -0.768
      -1.093
      -0.685
       0.244
       1.343
       2.214
       2.481
       1.901
       0.505
      -1.316
      -2.883
      -3.512
      -2.874
      -1.196
       0.853
       2.491
       3.139
       2.601
       1.104
      -0.769
      -2.238
      -2.609
      -1.616
       0.397
       2.596
       4.031
       4.048
       2.602
       0.356
      -1.563
      -2.136
      -1.012
       1.382
       4.184
       6.539
       7.823
       7.753
       6.531
       4.869
       3.673
       3.498
       4.212
       5.156
       5.603
       5.138
       3.735
       1.675
      -0.594
      -2.656
      -4.359
      -5.872
      -7.414
      -8.947
     -10.218
     -11.107
     -11.767
     -12.334
     -12.614
     -12.193
     -10.844
      -8.717
      -6.185
      -3.624
      -1.349
       0.446
       1.845
       3.199
       4.802
       6.515
       7.800
       8.139
       7.392
       5.785
       3.749
       1.856
       0.777
       0.999
       2.482
       4.617
       6.566
       7.637
       7.421
       5.780
       2.927
      -0.471
      -3.471
      -5.331
      -5.930
      -5.739
      -5.388
      -5.216
      -5.115
      -4.703
      -3.607
      -1.699
       0.768
       3.188
       4.858
       5.375
       4.860
       3.810
       2.742
       2.022
       1.995
       3.082
       5.564
       9.180
      13.027
      15.885
      16.662
      14.713
      10.062
       3.574
      -3.161
      -8.433
     -11.178
     -11.323
      -9.521
      -6.737
      -4.048
      -2.533
      -2.936
      -5.206
      -8.441
     -11.391
     -13.119
     -13.279
     -11.960
      -9.490
      -6.392
      -3.345
      -0.935
       0.630
       1.530
       2.090
       2.609
       3.354
       4.444
       5.584
       6.060
       5.294
       3.481
       1.598
       0.700
       1.179
       2.610
       4.149
       5.081
       5.170
       4.700
       4.197
       3.974
       3.839
       3.359
       2.461
       1.663
       1.547
       2.034
       2.376
       1.911
       0.690
      -0.703
      -1.798
      -2.583
      -3.306
      -4.144
      -5.082
      -5.924
      -6.332
      -5.957
      -4.734
      -3.095
      -1.822
      -1.564
      -2.408
      -3.860
      -5.195
      -5.819
      -5.427
      -4.046
      -2.061
      -0.102
       1.299
       2.075
       2.669
       3.650
       5.188
       6.844
       7.836
       7.542
       5.845
       3.144
       0.113
      -2.602
      -4.598
      -5.797
      -6.353
      -6.462
      -6.175
      -5.377
      -3.968
      -2.130
      -0.374
       0.749
       1.099
       1.149
       1.733
       3.455
       6.213
       9.169
      11.166
      11.351
       9.645
       6.809
       3.962
       1.848
       0.475
      -0.566
      -1.506
      -2.200
      -2.433
      -2.238
      -1.856
      -1.487
      -1.163
      -0.802
      -0.300
       0.389
       1.157
       1.693
       1.597
       0.645
      -1.006
      -2.856
      -4.315
      -4.931
      -4.518
      -3.209
      -1.479
      -0.004
       0.627
       0.177
      -1.180
      -3.018
      -4.874
      -6.366
      -7.203
      -7.194
      -6.348
      -4.985
      -3.641
      -2.706
      -2.089
      -1.279
       0.206
       2.432
       5.021
       7.388
       8.948
       9.213
       7.965
       5.471
       2.467
      -0.237
      -2.225
      -3.599
      -4.699
      -5.752
      -6.769
      -7.625
      -8.093
      -7.812
      -6.439
      -4.048
      -1.390
       0.434
       0.751
      -0.101
      -0.894
      -0.252
       2.503
       6.896
      11.482
      14.608
      15.290
      13.597
      10.321
       6.370
       2.430
      -0.952
      -3.216
      -3.902
      -2.932
      -0.765
       1.730
       3.519
       3.694
       1.916
      -1.185
      -4.106
      -5.305
      -4.208
      -1.551
       1.215
       2.908
       3.159
       2.266
       0.708
      -1.141
      -2.982
      -4.464
      -5.233
      -5.169
      -4.605
      -4.290
      -4.975
      -6.809
      -9.012
     -10.236
      -9.419
      -6.439
      -2.055
       2.632
       6.667
       9.446
      10.776
      10.868
      10.198
       9.223
       8.152
       6.975
       5.660
       4.280
       2.944
       1.660
       0.313
      -1.238
      -3.041
      -4.980
      -6.721
      -7.792
      -7.793
      -6.579
      -4.246
      -1.040
       2.627
       6.111
       8.618
       9.559
       8.922
       7.313
       5.576
       4.345
       3.807
       3.733
       3.602
       2.787
       0.805
      -2.400
      -6.269
      -9.756
     -11.813
     -11.987
     -10.677
      -8.797
      -7.107
      -5.739
      -4.266
      -2.171
       0.665
       3.711
       5.942
       6.405
       4.956
       2.577
       0.852
       0.864
       2.403
       4.152
       4.638
       3.172
       0.174
      -3.132
      -5.338
      -5.477
      -3.442
       0.027
       3.739
       6.573
       7.816
       7.266
       5.216
       2.348
      -0.476
      -2.493
      -3.322
      -3.089
      -2.336
      -1.759
      -1.915
      -3.016
      -4.805
      -6.646
      -7.851
      -8.051
      -7.259
      -5.596
      -3.100
       0.117
       3.597
       6.614
       8.620
       9.531
       9.564
       8.858
       7.366
       5.087
       2.270
      -0.666
      -3.412
      -5.921
      -8.253
     -10.221
     -11.229
     -10.552
      -7.961
      -4.215
      -0.923
       0.348
      -0.838
      -3.407
      -5.538
      -5.932
      -4.523
      -2.207
      -0.131
       0.846
       0.409
      -1.062
      -2.560
      -3.028
      -2.199
      -0.870
      -0.136
      -0.262
      -0.362
       0.791
       3.664
       7.544
      11.011
      12.741
      12.124
       9.522
       6.174
       3.704
       3.350
       5.234
       8.174
      10.252
       9.830
       6.422
       0.947
      -4.705
      -8.585
      -9.648
      -8.215
      -5.653
      -3.466
      -2.448
      -2.482
      -2.949
      -3.290
      -3.230
      -2.677
      -1.593
      -0.074
       1.519
       2.646
       2.918
       2.406
       1.606
       1.058
       0.932
       0.959
       0.722
       0.054
      -0.827
      -1.552
      -2.002
      -2.494
      -3.470
      -4.957
      -6.406
      -7.145
      -6.926
      -6.000
      -4.754
      -3.438
      -2.189
      -1.119
      -0.233
       0.631
       1.610
       2.538
       3.034
       2.988
       2.842
       3.210
       4.219
       5.392
       6.181
       6.426
       6.226
       5.583
       4.440
       3.014
       1.883
       1.641
       2.476
       4.019
       5.480
       5.944
       4.808
       2.213
      -0.909
      -3.401
      -4.647
      -4.810
      -4.324
      -3.309
      -1.644
       0.470
       2.257
       2.846
       1.992
       0.292
      -1.246
      -1.845
      -1.409
      -0.590
      -0.400
      -1.457
      -3.367
      -4.915
      -5.019
      -3.559
      -1.298
       0.900
       2.617
       3.786
       4.385
       4.457
       4.285
