Origin Time       3/9/2009 19:51:08	 
Lat.              24.3 N	
Long.             94.6 E	
Depth (Km)        100.0
Magnitude         5.9
 Region           MYANMAR-India-Manipuir-Border                                    
 Above details taken from IMD 
     
Station Code      BOK
Station Lat.       25.976  N
Station Long.      91.230  E
Station Height(m)   68.0
Site Class        C   Vs30 between 200 m/sec to 375 m/sec *  
Record Time       03.09.2009 19:52:22.739
Sampling Rate     200. Hz
 Record Duration   72.675 Sec.
 Direction         E-W (E positive)
Max. Acceleration    -13.201 cm/sec**2
     
  * For reference see Site Classification link of website 
     
 Base Line Corrected and Low Pass Filtered (Cut Off at 35 Hz) Time History
 Acceleration data in cm/sec**2
    
[...]
       0.216
       0.438
       0.471
       0.349
       0.214
       0.191
       0.282
       0.377
       0.353
       0.175
      -0.078
      -0.264
      -0.280
      -0.127
       0.103
       0.291
       0.369
       0.330
       0.212
       0.055
      -0.122
      -0.314
      -0.510
      -0.685
      -0.802
      -0.827
      -0.743
      -0.557
      -0.308
      -0.053
       0.173
       0.384
       0.611
       0.831
       0.947
       0.879
       0.654
       0.397
       0.224
       0.160
       0.170
       0.219
       0.289
       0.346
       0.341
       0.267
       0.184
       0.173
       0.246
       0.343
       0.396
       0.381
       0.302
       0.177
       0.084
       0.164
       0.486
       0.895
       1.043
       0.684
      -0.060
      -0.754
      -1.007
      -0.781
      -0.385
      -0.180
      -0.310
      -0.648
      -0.943
      -1.016
      -0.873
      -0.666
      -0.550
      -0.549
      -0.549
      -0.430
      -0.210
      -0.046
      -0.078
      -0.278
      -0.468
      -0.483
      -0.313
      -0.095
       0.027
       0.004
      -0.096
      -0.161
      -0.112
       0.044
       0.230
       0.352
       0.377
       0.348
       0.334
       0.358
       0.372
       0.316
       0.190
       0.071
       0.043
       0.098
       0.116
      -0.040
      -0.387
      -0.766
      -0.949
      -0.819
      -0.460
      -0.072
       0.189
       0.299
       0.317
       0.297
       0.272
       0.277
       0.345
       0.453
       0.506
       0.408
       0.164
      -0.103
      -0.247
      -0.205
      -0.014
       0.234
       0.441
       0.537
       0.502
       0.379
       0.242
       0.153
       0.121
       0.125
       0.156
       0.228
       0.347
       0.470
       0.518
       0.446
       0.282
       0.104
      -0.027
      -0.104
      -0.171
      -0.281
      -0.463
      -0.679
      -0.819
      -0.769
      -0.518
      -0.219
      -0.086
      -0.210
      -0.462
      -0.596
      -0.438
      -0.009
       0.499
       0.855
       0.910
       0.655
       0.236
      -0.122
      -0.246
      -0.139
       0.032
       0.092
       0.005
      -0.131
      -0.222
      -0.262
      -0.274
      -0.218
      -0.014
       0.335
       0.694
       0.870
       0.750
       0.362
      -0.134
      -0.522
      -0.636
      -0.474
      -0.204
      -0.051
      -0.120
      -0.339
      -0.544
      -0.620
      -0.557
      -0.422
      -0.309
      -0.316
      -0.485
      -0.740
      -0.892
      -0.786
      -0.457
      -0.126
      -0.010
      -0.151
      -0.407
      -0.589
      -0.584
      -0.380
      -0.040
       0.312
       0.533
       0.547
       0.410
       0.271
       0.242
       0.334
       0.478
       0.620
       0.741
       0.826
       0.821
       0.667
       0.349
      -0.079
      -0.511
      -0.823
      -0.909
      -0.738
      -0.398
      -0.068
       0.100
       0.085
      -0.019
      -0.099
      -0.105
      -0.044
       0.071
       0.228
       0.387
       0.482
       0.488
       0.456
       0.458
       0.504
       0.542
       0.535
       0.525
       0.579
       0.691
       0.758
       0.667
       0.403
       0.054
      -0.256
      -0.445
      -0.479
      -0.356
      -0.105
       0.191
       0.414
       0.477
       0.376
       0.188
       0.021
      -0.060
      -0.068
      -0.065
      -0.107
      -0.200
      -0.303
      -0.367
      -0.352
      -0.238
      -0.030
       0.214
       0.391
       0.400
       0.232
      -0.003
      -0.156
      -0.161
      -0.075
      -0.014
      -0.043
      -0.139
      -0.210
      -0.145
       0.106
       0.466
       0.749
       0.781
       0.547
       0.194
      -0.117
      -0.364
      -0.627
      -0.911
      -1.058
      -0.888
      -0.420
       0.102
       0.421
       0.469
       0.356
       0.206
       0.058
      -0.087
      -0.199
      -0.247
      -0.275
      -0.381
      -0.624
      -0.955
      -1.225
      -1.269
      -1.005
      -0.519
      -0.045
       0.192
       0.163
       0.071
       0.150
       0.441
       0.763
       0.909
       0.835
       0.657
       0.513
       0.465
       0.498
       0.550
       0.514
       0.280
      -0.160
      -0.648
      -0.953
      -0.953
      -0.733
      -0.490
      -0.374
      -0.399
      -0.484
      -0.527
      -0.454
      -0.253
       0.004
       0.183
       0.183
       0.025
      -0.167
      -0.271
      -0.273
      -0.241
      -0.242
      -0.287
      -0.339
      -0.330
      -0.181
       0.155
       0.603
       0.961
       1.020
       0.730
       0.248
      -0.186
      -0.428
      -0.489
      -0.467
      -0.434
      -0.405
      -0.349
      -0.225
       0.001
       0.322
       0.655
       0.859
       0.831
       0.613
       0.383
       0.338
       0.545
       0.891
       1.155
       1.142
       0.790
       0.206
      -0.377
      -0.705
      -0.656
      -0.323
       0.036
       0.166
      -0.017
      -0.385
      -0.688
      -0.706
      -0.381
       0.138
       0.583
       0.750
       0.651
       0.497
       0.508
       0.697
       0.853
       0.738
       0.308
      -0.221
      -0.540
      -0.478
      -0.133
       0.196
       0.226
      -0.106
      -0.601
      -0.939
      -0.915
      -0.562
      -0.087
       0.285
       0.436
       0.368
       0.149
      -0.131
      -0.380
      -0.536
      -0.598
      -0.614
      -0.618
      -0.584
      -0.452
      -0.215
       0.059
       0.281
       0.424
       0.533
       0.691
       0.942
       1.237
       1.430
       1.360
       0.976
       0.430
      -0.006
      -0.165
      -0.143
      -0.206
      -0.513
      -0.931
      -1.141
      -0.920
      -0.331
       0.326
       0.713
       0.658
       0.237
      -0.277
      -0.589
      -0.577
      -0.364
      -0.206
      -0.294
      -0.645
      -1.156
      -1.678
      -2.048
      -2.099
      -1.754
      -1.122
      -0.469
      -0.033
       0.138
       0.180
       0.271
       0.509
       0.891
       1.343
       1.758
       2.045
       2.196
       2.275
       2.308
       2.179
       1.714
       0.902
      -0.005
      -0.652
      -0.884
      -0.844
      -0.799
      -0.858
      -0.888
      -0.648
      -0.006
       0.952
       1.952
       2.653
       2.835
       2.554
       2.126
       1.895
       1.960
       2.108
       2.023
       1.571
       0.881
       0.202
      -0.308
      -0.655
      -0.945
      -1.273
      -1.649
      -1.977
      -2.075
      -1.787
      -1.125
      -0.341
       0.190
       0.207
      -0.245
      -0.834
      -1.163
      -1.035
      -0.552
      -0.018
       0.289
       0.252
      -0.078
      -0.597
      -1.238
      -1.982
      -2.791
      -3.537
      -4.029
      -4.114
      -3.777
      -3.157
      -2.465
      -1.881
      -1.489
      -1.262
      -1.095
      -0.867
      -0.505
      -0.012
       0.529
       0.992
       1.251
       1.242
       1.011
       0.721
       0.555
       0.556
       0.562
       0.345
      -0.137
      -0.627
      -0.717
      -0.149
       0.995
       2.317
       3.336
       3.741
       3.526
       2.927
       2.243
       1.670
       1.263
       0.979
       0.724
       0.381
      -0.132
      -0.756
      -1.238
      -1.277
      -0.763
       0.082
       0.841
       1.205
       1.164
       0.949
       0.796
       0.746
       0.656
       0.373
      -0.118
      -0.691
      -1.177
      -1.459
      -1.493
      -1.317
      -1.057
      -0.874
      -0.843
      -0.874
      -0.797
      -0.539
      -0.207
       0.024
       0.103
       0.161
       0.352
       0.661
       0.893
       0.846
       0.478
      -0.086
      -0.678
      -1.212
      -1.713
      -2.249
      -2.818
      -3.266
      -3.332
      -2.821
      -1.793
      -0.601
       0.293
       0.591
       0.321
      -0.212
      -0.646
      -0.773
      -0.623
      -0.392
      -0.293
      -0.440
      -0.811
      -1.293
      -1.742
      -2.030
      -2.100
      -1.997
      -1.829
      -1.660
      -1.440
      -1.055
      -0.497
       0.038
       0.249
      -0.003
      -0.489
      -0.692
      -0.167
       1.105
       2.652
       3.826
       4.252
       4.043
       3.646
       3.460
       3.534
       3.593
       3.299
       2.539
       1.504
       0.539
      -0.074
      -0.232
       0.011
       0.543
       1.257
       2.055
       2.838
       3.528
       4.066
       4.386
       4.388
       4.021
       3.381
       2.698
       2.133
       1.611
       0.918
       0.003
      -0.858
      -1.249
      -0.968
      -0.193
       0.648
       1.132
       1.051
       0.520
      -0.056
      -0.227
       0.140
       0.697
       0.852
       0.243
      -1.012
      -2.460
      -3.654
      -4.357
      -4.536
      -4.287
      -3.810
      -3.354
      -3.085
      -3.010
      -3.089
      -3.386
      -3.992
      -4.770
      -5.269
      -5.048
      -4.111
      -2.950
      -2.115
      -1.741
      -1.507
      -0.989
      -0.026
       1.202
       2.326
       3.007
       3.112
       2.777
       2.317
       2.004
       1.854
       1.620
       1.023
       0.065
      -0.847
      -1.113
      -0.367
       1.187
       2.823
       3.763
       3.722
       3.097
       2.614
       2.725
       3.249
       3.550
       3.070
       1.739
      -0.004
      -1.511
      -2.281
      -2.183
      -1.461
      -0.553
       0.185
       0.684
       1.097
       1.532
       1.844
       1.719
       0.984
      -0.162
      -1.241
      -1.827
      -1.845
      -1.559
      -1.310
      -1.244
      -1.275
      -1.272
      -1.214
      -1.144
      -1.000
      -0.556
       0.391
       1.764
       3.133
       3.942
       3.857
       2.958
       1.629
       0.252
      -1.008
      -2.152
      -3.162
      -3.888
      -4.134
      -3.807
      -2.993
      -1.948
      -1.022
      -0.511
      -0.472
      -0.629
      -0.543
       0.016
       0.792
       1.180
       0.691
      -0.594
      -1.978
      -2.569
      -1.874
      -0.136
       1.856
       3.312
       3.914
       3.871
       3.597
       3.331
       2.990
       2.288
       0.999
      -0.835
      -2.871
      -4.634
      -5.727
      -5.945
      -5.271
      -3.900
      -2.276
      -0.984
      -0.426
      -0.540
      -0.891
      -1.081
      -1.062
      -1.041
      -1.129
      -1.183
      -0.985
      -0.527
      -0.070
       0.064
      -0.222
      -0.676
      -0.808
      -0.185
       1.248
       3.047
       4.451
       4.805
       3.965
       2.397
       0.886
       0.045
      -0.051
       0.161
       0.128
      -0.335
      -0.896
      -1.034
      -0.536
       0.319
       1.047
       1.421
       1.609
       1.873
       2.210
       2.333
       2.006
       1.309
       0.536
      -0.145
      -0.850
      -1.776
      -2.890
      -3.843
      -4.222
      -3.865
      -2.967
      -1.910
      -1.013
      -0.435
      -0.249
      -0.505
      -1.130
      -1.788
      -1.976
      -1.396
      -0.263
       0.763
       1.025
       0.328
      -0.893
      -1.843
      -1.902
      -1.078
      -0.023
       0.455
       0.017
      -0.950
      -1.674
      -1.641
      -0.982
      -0.278
       0.010
      -0.043
       0.105
       1.004
       2.731
       4.762
       6.276
       6.662
       5.895
       4.533
       3.371
       2.999
       3.513
       4.538
       5.489
       5.908
       5.692
       5.061
       4.316
       3.594
       2.799
       1.765
       0.484
      -0.789
      -1.664
      -1.887
      -1.538
      -1.017
      -0.820
      -1.282
      -2.419
      -3.914
      -5.246
      -5.925
      -5.744
      -4.899
      -3.864
      -3.085
      -2.690
      -2.435
      -1.934
      -0.975
       0.316
       1.604
       2.585
       3.124
       3.202
       2.854
       2.182
       1.404
       0.799
       0.562
       0.661
       0.825
       0.694
       0.082
      -0.834
      -1.594
      -1.796
      -1.440
      -0.918
      -0.663
      -0.800
      -1.160
      -1.557
      -1.950
      -2.311
      -2.469
      -2.212
      -1.559
      -0.809
      -0.281
      -0.022
       0.158
       0.410
       0.666
       0.745
       0.582
       0.274
      -0.055
      -0.375
      -0.719
      -1.082
      -1.427
      -1.748
      -2.068
      -2.355
      -2.473
      -2.236
      -1.526
      -0.365
       1.043
       2.312
       2.990
       2.803
       1.858
       0.606
      -0.443
      -1.002
      -1.068
      -0.780
      -0.297
       0.223
       0.626
       0.823
       0.831
       0.738
       0.623
       0.542
       0.545
       0.664
       0.878
       1.135
       1.438
       1.856
       2.423
       3.016
       3.386
       3.342
       2.976
       2.701
       2.989
       3.940
       5.044
       5.449
       4.612
       2.760
       0.715
      -0.749
      -1.373
      -1.334
      -0.833
       0.111
       1.514
       3.195
       4.744
       5.702
       5.758
       4.856
       3.207
       1.239
      -0.520
      -1.626
      -1.954
      -1.852
      -2.045
      -3.262
      -5.744
      -8.978
     -11.854
     -13.201
     -12.388
      -9.667
      -6.085
      -2.998
      -1.425
      -1.556
      -2.722
      -3.902
      -4.450
      -4.457
      -4.456
      -4.767
      -5.153
      -5.103
      -4.378
      -3.227
      -2.115
      -1.346
      -0.953
      -0.804
      -0.683
      -0.288
       0.671
       2.223
       3.981
       5.324
       5.856
       5.748
       5.650
       6.167
       7.319
       8.435
       8.632
       7.503
       5.382
       3.006
       0.935
      -0.672
      -1.850
      -2.582
      -2.859
      -2.896
      -3.082
      -3.643
      -4.375
      -4.798
      -4.559
      -3.708
      -2.577
      -1.440
      -0.307
       0.962
       2.386
       3.735
       4.684
       5.049
       4.866
       4.260
       3.291
       1.989
       0.544
      -0.607
      -0.990
      -0.473
       0.530
       1.320
       1.443
       1.066
       0.864
       1.521
       3.206
       5.409
       7.202
       7.716
       6.568
       4.042
       0.996
      -1.522
      -2.787
      -2.766
      -2.048
      -1.337
      -0.949
      -0.722
      -0.388
       0.039
       0.244
      -0.049
      -0.770
      -1.533
      -1.940
      -1.884
      -1.604
      -1.497
      -1.817
      -2.507
      -3.272
      -3.830
      -4.104
      -4.221
      -4.339
      -4.465
      -4.432
      -4.060
      -3.358
      -2.527
      -1.768
      -1.110
      -0.485
       0.029
       0.163
      -0.238
      -0.882
      -1.107
      -0.385
       1.222
       3.115
       4.599
       5.212
       4.706
       2.895
      -0.243
      -4.254
      -8.079
     -10.415
     -10.399
      -8.070
      -4.253
      -0.032
       3.711
       6.419
       7.816
       7.935
       7.200
       6.310
       5.821
       5.756
       5.608
       4.815
       3.278
       1.452
      -0.041
      -0.895
      -1.285
      -1.616
      -2.109
      -2.552
      -2.404
      -1.210
       0.971
       3.456
       5.314
       5.979
       5.611
       4.905
       4.513
       4.541
       4.500
       3.714
       1.838
      -0.870
      -3.666
      -5.709
      -6.488
      -6.057
      -4.933
      -3.735
      -2.784
      -1.962
      -0.928
       0.476
       1.930
       2.744
       2.310
       0.595
      -1.738
      -3.694
      -4.578
      -4.414
      -3.829
      -3.525
      -3.803
      -4.493
      -5.208
      -5.555
      -5.164
      -3.757
      -1.405
       1.247
       3.175
       3.639
       2.782
       1.586
       1.161
       1.972
       3.594
       5.091
       5.635
       4.948
       3.380
       1.630
       0.271
      -0.625
      -1.485
      -2.825
      -4.751
      -6.795
      -8.218
      -8.499
      -7.599
      -5.853
      -3.704
      -1.535
       0.305
       1.455
       1.661
       1.020
       0.118
      -0.207
       0.571
       2.205
       3.752
       4.243
       3.391
       1.742
       0.190
      -0.660
      -0.743
      -0.322
       0.351
       1.213
       2.314
       3.621
       4.872
       5.661
       5.710
       5.116
       4.335
       3.893
       4.040
       4.620
       5.221
       5.455
       5.183
       4.536
       3.753
       2.962
       2.123
       1.219
       0.482
       0.313
       0.874
       1.751
       2.136
       1.450
      -0.153
      -1.904
      -3.037
      -3.317
      -3.062
      -2.795
      -2.893
      -3.459
      -4.352
      -5.297
      -6.017
      -6.346
      -6.254
      -5.812
      -5.138
      -4.377
      -3.633
      -2.895
      -2.042
      -1.014
      -0.007
       0.570
       0.399
      -0.451
      -1.554
      -2.472
      -3.073
      -3.509
      -3.946
      -4.341
      -4.483
      -4.207
      -3.573
      -2.858
      -2.344
      -2.025
      -1.486
      -0.164
       2.138
       4.925
       7.220
       8.207
       7.771
       6.471
       5.022
       3.815
       2.841
       1.952
       1.079
       0.278
      -0.319
      -0.576
      -0.454
      -0.113
       0.145
       0.104
      -0.194
      -0.550
      -0.855
      -1.137
      -1.338
      -1.168
      -0.343
       1.016
       2.329
       3.003
       2.920
       2.447
       2.045
       1.925
       2.048
       2.320
       2.679
       3.023
       3.136
       2.767
       1.832
       0.562
      -0.565
      -1.121
      -1.014
      -0.535
      -0.117
      -0.016
      -0.205
      -0.524
      -0.839
      -1.014
      -0.843
      -0.165
       0.878
       1.821
       2.250
       2.194
       2.099
       2.357
       2.933
       3.457
       3.596
       3.255
       2.492
       1.431
       0.315
      -0.539
      -0.994
      -1.295
      -1.899
      -3.070
      -4.672
      -6.328
      -7.688
      -8.518
      -8.650
      -7.997
      -6.672
      -4.995
      -3.330
      -1.891
      -0.731
       0.160
       0.774
       1.097
       1.169
       1.102
       1.072
       1.224
       1.543
       1.791
       1.646
       0.979
      -0.013
      -0.947
      -1.533
      -1.725
      -1.673
      -1.603
      -1.698
      -1.968
      -2.172
      -1.924
      -1.035
       0.230
       1.303
       1.783
       1.758
       1.623
       1.643
       1.734
       1.664
       1.397
       1.210
       1.497
       2.462
       3.927
       5.380
       6.207
       6.018
       4.861
       3.191
       1.586
       0.424
      -0.241
      -0.584
      -0.835
      -1.134
      -1.460
      -1.670
      -1.686
      -1.645
      -1.804
      -2.205
      -2.477
      -2.059
      -0.715
       1.192
       2.891
       3.687
       3.308
       1.937
       0.034
      -1.896
      -3.476
      -4.550
      -5.175
      -5.527
      -5.752
      -5.866
      -5.742
