Origin Time       30/8/2009 19:27:44	 UTC
Lat.              25.4 N	
Long.             94.8 E	
Depth (Km)         85.0
Magnitude         5.3
 Region           MYANMAR-India-Manipuir-Border                                    
 Above details taken from IMD 
    
Station Code      BOK
Station Lat.       25.976  N
Station Long.      91.230  E
Station Height(m)   68.0
Site Class        C   Vs30 between 200 m/sec to 375 m/sec *  
Record Time       30.08.2009 19:29:03.074 UTC
Sampling Rate     200. Hz
 Record Duration   67.190 Sec.
 Direction         N-S (N positive)
Max. Acceleration     11.608 cm/sec**2
     
  * For reference see Site Classification link of website 
     
 Base Line Corrected and Low Pass Filtered (Cut Off at 35 Hz) Time History
 Acceleration data in cm/sec**2
    
[...]
      -0.139
       0.041
       0.213
       0.272
       0.202
       0.074
      -0.027
      -0.068
      -0.050
       0.029
       0.156
       0.265
       0.265
       0.132
      -0.043
      -0.129
      -0.067
       0.102
       0.300
       0.456
       0.507
       0.414
       0.195
      -0.065
      -0.264
      -0.346
      -0.321
      -0.227
      -0.107
      -0.011
       0.000
      -0.098
      -0.252
      -0.363
      -0.372
      -0.304
      -0.220
      -0.161
      -0.124
      -0.102
      -0.100
      -0.126
      -0.161
      -0.166
      -0.118
      -0.038
       0.032
       0.080
       0.130
       0.205
       0.283
       0.304
       0.219
       0.043
      -0.137
      -0.216
      -0.146
       0.022
       0.184
       0.267
       0.282
       0.289
       0.323
       0.359
       0.339
       0.231
       0.072
      -0.058
      -0.102
      -0.065
       0.010
       0.090
       0.160
       0.197
       0.161
       0.030
      -0.151
      -0.267
      -0.209
       0.019
       0.282
       0.410
       0.339
       0.150
      -0.018
      -0.079
      -0.051
      -0.013
      -0.028
      -0.100
      -0.186
      -0.245
      -0.268
      -0.275
      -0.278
      -0.271
      -0.242
      -0.192
      -0.144
      -0.103
      -0.039
       0.088
       0.260
       0.388
       0.375
       0.217
       0.011
      -0.115
      -0.108
      -0.015
       0.066
       0.070
       0.004
      -0.077
      -0.124
      -0.120
      -0.072
       0.010
       0.106
       0.182
       0.204
       0.168
       0.113
       0.085
       0.095
       0.109
       0.075
      -0.037
      -0.211
      -0.389
      -0.500
      -0.504
      -0.419
      -0.307
      -0.224
      -0.175
      -0.124
      -0.044
       0.056
       0.146
       0.210
       0.242
       0.237
       0.183
       0.085
      -0.027
      -0.110
      -0.140
      -0.131
      -0.129
      -0.159
      -0.206
      -0.217
      -0.159
      -0.042
       0.086
       0.166
       0.152
       0.054
      -0.055
      -0.072
       0.046
       0.226
       0.334
       0.283
       0.100
      -0.113
      -0.259
      -0.298
      -0.246
      -0.154
      -0.092
      -0.106
      -0.176
      -0.215
      -0.134
       0.066
       0.288
       0.404
       0.357
       0.203
       0.060
       0.017
       0.069
       0.135
       0.129
       0.030
      -0.101
      -0.184
      -0.184
      -0.127
      -0.050
       0.031
       0.112
       0.155
       0.110
      -0.025
      -0.184
      -0.280
      -0.282
      -0.219
      -0.137
      -0.048
       0.059
       0.175
       0.255
       0.245
       0.133
      -0.040
      -0.209
      -0.320
      -0.333
      -0.236
      -0.064
       0.105
       0.195
       0.185
       0.106
       0.002
      -0.088
      -0.136
      -0.127
      -0.070
       0.001
       0.058
       0.110
       0.168
       0.202
       0.138
      -0.062
      -0.315
      -0.448
      -0.335
      -0.019
       0.319
       0.503
       0.485
       0.345
       0.200
       0.127
       0.140
       0.218
       0.322
       0.411
       0.447
       0.407
       0.288
       0.114
      -0.077
      -0.245
      -0.362
      -0.432
      -0.484
      -0.532
      -0.546
      -0.488
      -0.375
      -0.285
      -0.284
      -0.358
      -0.420
      -0.390
      -0.262
      -0.091
       0.054
       0.134
       0.145
       0.110
       0.066
       0.049
       0.070
       0.105
       0.113
       0.083
       0.056
       0.089
       0.202
       0.348
       0.445
       0.424
       0.268
       0.041
      -0.130
      -0.130
       0.049
       0.293
       0.460
       0.491
       0.427
       0.330
       0.220
       0.091
      -0.038
      -0.135
      -0.196
      -0.261
      -0.357
      -0.462
      -0.533
      -0.552
      -0.531
      -0.482
      -0.404
      -0.294
      -0.170
      -0.052
       0.061
       0.181
       0.300
       0.381
       0.384
       0.303
       0.164
       0.014
      -0.095
      -0.123
      -0.071
       0.002
       0.017
      -0.064
      -0.206
      -0.328
      -0.361
      -0.287
      -0.141
       0.011
       0.113
       0.141
       0.107
       0.043
      -0.018
      -0.052
      -0.040
       0.036
       0.172
       0.323
       0.426
       0.438
       0.371
       0.284
       0.232
       0.235
       0.269
       0.298
       0.301
       0.277
       0.229
       0.153
       0.044
      -0.086
      -0.207
      -0.284
      -0.302
      -0.269
      -0.202
      -0.122
      -0.043
       0.028
       0.088
       0.135
       0.169
       0.196
       0.217
       0.222
       0.190
       0.117
       0.021
      -0.069
      -0.148
      -0.223
      -0.308
      -0.403
      -0.490
      -0.536
      -0.507
      -0.400
      -0.263
      -0.160
      -0.119
      -0.110
      -0.091
      -0.058
      -0.033
      -0.016
       0.029
       0.120
       0.211
       0.236
       0.192
       0.154
       0.199
       0.341
       0.515
       0.626
       0.614
       0.476
       0.265
       0.059
      -0.078
      -0.125
      -0.109
      -0.075
      -0.056
      -0.070
      -0.121
      -0.201
      -0.283
      -0.325
      -0.303
      -0.237
      -0.174
      -0.135
      -0.099
      -0.048
      -0.009
      -0.034
      -0.131
      -0.229
      -0.239
      -0.152
      -0.048
      -0.005
      -0.017
      -0.018
       0.032
       0.096
       0.109
       0.038
      -0.090
      -0.225
      -0.322
      -0.368
      -0.365
      -0.323
      -0.248
      -0.152
      -0.059
      -0.008
      -0.019
      -0.061
      -0.063
       0.027
       0.185
       0.315
       0.323
       0.198
       0.032
      -0.055
      -0.019
       0.072
       0.112
       0.060
      -0.026
      -0.058
       0.004
       0.123
       0.228
       0.272
       0.250
       0.188
       0.115
       0.054
       0.017
       0.005
      -0.001
      -0.020
      -0.051
      -0.067
      -0.039
       0.032
       0.124
       0.211
       0.276
       0.312
       0.333
       0.353
       0.381
       0.403
       0.385
       0.285
       0.083
      -0.170
      -0.377
      -0.465
      -0.454
      -0.421
      -0.425
      -0.456
      -0.470
      -0.441
      -0.379
      -0.306
      -0.237
      -0.186
      -0.177
      -0.224
      -0.299
      -0.327
      -0.255
      -0.089
       0.111
       0.280
       0.374
       0.365
       0.242
       0.035
      -0.174
      -0.281
      -0.229
      -0.066
       0.086
       0.136
       0.079
      -0.029
      -0.150
      -0.271
      -0.360
      -0.353
      -0.209
       0.045
       0.325
       0.543
       0.639
       0.602
       0.488
       0.400
       0.412
       0.494
       0.522
       0.402
       0.175
      -0.012
      -0.053
       0.026
       0.117
       0.126
       0.025
      -0.164
      -0.368
      -0.475
      -0.409
      -0.206
      -0.008
       0.051
      -0.051
      -0.221
      -0.340
      -0.343
      -0.245
      -0.112
      -0.039
      -0.091
      -0.253
      -0.421
      -0.490
      -0.463
      -0.449
      -0.550
      -0.751
      -0.933
      -0.974
      -0.825
      -0.527
      -0.200
       0.004
      -0.008
      -0.192
      -0.380
      -0.417
      -0.286
      -0.101
       0.014
       0.030
      -0.018
      -0.099
      -0.184
      -0.217
      -0.135
       0.052
       0.239
       0.317
       0.295
       0.287
       0.373
       0.516
       0.617
       0.619
       0.526
       0.350
       0.111
      -0.123
      -0.238
      -0.179
      -0.006
       0.172
       0.323
       0.497
       0.731
       0.976
       1.167
       1.298
       1.413
       1.524
       1.588
       1.576
       1.497
       1.345
       1.064
       0.614
       0.077
      -0.359
      -0.549
      -0.512
      -0.402
      -0.376
      -0.497
      -0.728
      -0.960
      -1.035
      -0.815
      -0.301
       0.310
       0.750
       0.861
       0.668
       0.308
      -0.078
      -0.379
      -0.520
      -0.489
      -0.377
      -0.336
      -0.461
      -0.702
      -0.923
      -1.047
      -1.121
      -1.226
      -1.345
      -1.353
      -1.121
      -0.631
       0.009
       0.635
       1.109
       1.370
       1.458
       1.488
       1.566
       1.693
       1.733
       1.539
       1.101
       0.577
       0.162
      -0.058
      -0.122
      -0.109
      -0.066
      -0.006
       0.079
       0.217
       0.440
       0.734
       1.013
       1.175
       1.193
       1.135
       1.078
       1.019
       0.904
       0.718
       0.512
       0.336
       0.160
      -0.101
      -0.493
      -0.953
      -1.361
      -1.620
      -1.709
      -1.655
      -1.497
      -1.277
      -1.057
      -0.905
      -0.869
      -0.940
      -1.055
      -1.113
      -1.023
      -0.767
      -0.450
      -0.264
      -0.359
      -0.717
      -1.165
      -1.497
      -1.595
      -1.462
      -1.169
      -0.811
      -0.482
      -0.253
      -0.143
      -0.104
      -0.053
       0.070
       0.296
       0.653
       1.153
       1.728
       2.201
       2.370
       2.142
       1.573
       0.831
       0.112
      -0.409
      -0.637
      -0.590
      -0.370
      -0.085
       0.207
       0.479
       0.669
       0.692
       0.516
       0.198
      -0.169
      -0.531
      -0.852
      -1.051
      -1.004
      -0.654
      -0.088
       0.522
       1.043
       1.427
       1.667
       1.773
       1.785
       1.765
       1.727
       1.600
       1.308
       0.875
       0.403
      -0.065
      -0.629
      -1.446
      -2.560
      -3.848
      -5.090
      -6.088
      -6.716
      -6.931
      -6.771
      -6.340
      -5.746
      -5.031
      -4.160
      -3.069
      -1.725
      -0.157
       1.519
       3.074
       4.218
       4.731
       4.601
       4.026
       3.280
       2.565
       1.970
       1.527
       1.249
       1.139
       1.169
       1.286
       1.423
       1.512
       1.508
       1.428
       1.388
       1.549
       1.977
       2.551
       3.018
       3.165
       2.941
       2.449
       1.846
       1.274
       0.853
       0.668
       0.728
       0.920
       1.050
       0.940
       0.526
      -0.093
      -0.680
      -0.963
      -0.789
      -0.224
       0.468
       0.966
       1.049
       0.694
       0.043
      -0.691
      -1.329
      -1.797
      -2.172
      -2.647
      -3.390
      -4.397
      -5.475
      -6.382
      -6.976
      -7.246
      -7.196
      -6.763
      -5.857
      -4.515
      -2.951
      -1.428
      -0.062
       1.218
       2.522
       3.831
       4.981
       5.783
       6.139
       6.085
       5.754
       5.297
       4.790
       4.207
       3.480
       2.609
       1.711
       0.934
       0.339
      -0.134
      -0.557
      -0.900
      -1.040
      -0.872
      -0.405
       0.259
       0.989
       1.671
       2.217
       2.594
       2.843
       3.067
       3.365
       3.792
       4.333
       4.891
       5.263
       5.175
       4.397
       2.874
       0.797
      -1.481
      -3.617
      -5.419
      -6.849
      -7.942
      -8.724
      -9.192
      -9.318
      -9.071
      -8.445
      -7.479
      -6.248
      -4.849
      -3.432
      -2.203
      -1.348
      -0.879
      -0.594
      -0.216
       0.401
       1.193
       1.979
       2.589
       2.924
       2.936
       2.642
       2.164
       1.718
       1.492
       1.537
       1.784
       2.156
       2.652
       3.303
       4.075
       4.825
       5.390
       5.726
       5.939
       6.180
       6.495
       6.767
       6.774
       6.321
       5.359
       4.010
       2.495
       1.032
      -0.218
      -1.159
      -1.773
      -2.145
      -2.440
      -2.803
      -3.231
      -3.534
      -3.433
      -2.758
      -1.592
      -0.274
       0.751
       1.124
       0.720
      -0.323
      -1.686
      -3.016
      -4.093
      -4.909
      -5.603
      -6.284
      -6.909
      -7.299
      -7.295
      -6.888
      -6.220
      -5.464
      -4.705
      -3.922
      -3.053
      -2.064
      -0.971
       0.160
       1.214
       2.047
       2.516
       2.555
       2.268
       1.951
       1.957
       2.454
       3.263
       3.955
       4.137
       3.715
       2.938
       2.194
       1.761
       1.657
       1.688
       1.634
       1.427
       1.172
       1.012
       0.985
       1.042
       1.183
       1.517
       2.170
       3.112
       4.115
       4.875
       5.157
       4.852
       3.982
       2.709
       1.353
       0.322
      -0.051
       0.320
       1.225
       2.257
       2.978
       3.075
       2.469
       1.359
       0.125
      -0.921
      -1.771
      -2.705
      -3.998
      -5.621
      -7.210
      -8.301
      -8.604
      -8.123
      -7.111
      -5.945
      -4.965
      -4.324
      -3.913
      -3.459
      -2.737
      -1.748
      -0.703
       0.113
       0.476
       0.291
      -0.374
      -1.278
      -2.113
      -2.676
      -2.974
      -3.121
      -3.160
      -3.040
      -2.780
      -2.575
      -2.650
      -2.960
      -3.088
      -2.500
      -0.919
       1.513
       4.366
       7.147
       9.432
      10.944
      11.608
      11.548
      10.978
      10.073
       8.929
       7.613
       6.152
       4.445
       2.276
      -0.466
      -3.497
      -6.109
      -7.514
      -7.316
      -5.741
      -3.482
      -1.326
       0.158
       0.768
       0.700
       0.443
       0.535
       1.254
       2.441
       3.573
       4.016
       3.304
       1.343
      -1.484
      -4.419
      -6.644
      -7.670
      -7.524
      -6.631
      -5.544
      -4.724
      -4.436
      -4.645
      -4.978
      -4.891
      -4.018
      -2.444
      -0.608
       1.047
       2.319
       3.176
       3.571
       3.412
       2.719
       1.735
       0.820
       0.243
       0.054
       0.120
       0.208
       0.098
      -0.290
      -0.830
      -1.254
      -1.337
      -0.995
      -0.254
       0.840
       2.204
       3.640
       4.843
       5.545
       5.673
       5.339
       4.698
       3.834
       2.780
       1.576
       0.298
      -0.917
      -1.831
      -2.152
      -1.714
      -0.688
       0.421
       1.064
       1.023
       0.550
       0.148
       0.191
       0.705
       1.435
       2.057
       2.325
       2.097
       1.323
       0.080
      -1.376
      -2.647
      -3.345
      -3.292
      -2.613
      -1.660
      -0.811
      -0.257
       0.041
       0.201
       0.240
       0.081
      -0.253
      -0.519
      -0.435
       0.014
       0.491
       0.561
       0.003
      -1.074
      -2.345
      -3.412
      -3.915
      -3.666
      -2.767
      -1.571
      -0.428
       0.555
       1.496
       2.505
       3.520
       4.380
       5.002
       5.417
       5.669
       5.738
       5.573
       5.137
       4.368
       3.160
       1.499
      -0.359
      -1.937
      -2.845
      -3.070
      -2.939
      -2.830
      -2.938
      -3.236
      -3.531
      -3.514
      -2.879
      -1.540
       0.235
       1.947
       3.179
       3.785
       3.810
       3.325
       2.397
       1.168
      -0.162
      -1.449
      -2.640
      -3.630
      -4.205
      -4.234
      -3.904
      -3.632
      -3.669
      -3.834
      -3.683
      -2.959
      -1.821
      -0.684
       0.103
       0.425
       0.379
       0.182
       0.096
       0.315
       0.859
       1.567
       2.222
       2.673
       2.840
       2.672
       2.191
       1.587
       1.178
       1.175
       1.506
       1.892
       2.128
       2.241
       2.374
       2.561
       2.677
       2.605
       2.388
       2.183
       2.066
       1.919
       1.491
       0.571
      -0.845
      -2.467
      -3.792
      -4.383
      -4.181
      -3.547
      -2.953
      -2.591
      -2.294
      -1.819
      -1.141
      -0.429
       0.172
       0.643
       0.980
       1.095
       0.914
       0.499
      -0.001
      -0.548
      -1.257
      -2.226
      -3.349
      -4.344
      -4.924
      -4.898
      -4.167
      -2.763
      -0.939
       0.847
       2.131
       2.671
       2.507
       1.856
       0.978
       0.129
      -0.464
      -0.708
      -0.736
      -0.817
      -1.106
      -1.473
      -1.624
      -1.381
      -0.802
      -0.049
       0.784
       1.659
       2.465
       2.973
       2.951
       2.349
       1.381
       0.454
      -0.034
       0.083
       0.658
       1.355
       1.866
       2.041
       1.845
       1.282
       0.434
      -0.451
      -0.997
      -0.924
      -0.261
       0.652
       1.394
       1.711
       1.605
       1.262
       0.912
       0.736
       0.811
       1.086
       1.401
       1.554
       1.420
       1.004
       0.398
      -0.299
      -0.985
      -1.513
      -1.719
      -1.581
      -1.325
      -1.293
      -1.621
      -2.075
      -2.285
      -2.141
      -1.908
      -1.912
      -2.158
      -2.327
      -2.116
      -1.516
      -0.764
      -0.103
       0.376
       0.732
       1.092
       1.546
       2.068
       2.501
       2.685
       2.609
       2.421
       2.246
       2.027
       1.578
       0.824
      -0.050
      -0.709
      -0.948
      -0.860
      -0.763
      -0.951
      -1.480
      -2.135
      -2.577
      -2.553
      -2.012
      -1.102
      -0.091
       0.716
       1.076
       0.863
       0.121
      -0.911
      -1.797
      -2.059
      -1.475
      -0.313
       0.802
       1.358
       1.320
       1.038
       0.830
       0.769
       0.830
       1.065
       1.498
       1.926
       2.022
       1.658
       1.015
       0.327
      -0.361
      -1.079
      -1.698
      -1.949
      -1.733
      -1.281
      -0.953
      -0.916
      -1.074
      -1.263
      -1.384
      -1.327
      -0.950
      -0.265
       0.422
       0.701
       0.430
      -0.179
      -0.815
      -1.311
      -1.615
      -1.653
      -1.405
      -1.073
      -0.997
      -1.301
      -1.689
      -1.716
      -1.283
      -0.754
      -0.508
      -0.496
      -0.306
       0.342
       1.284
       2.112
       2.593
       2.843
       3.145
       3.681
       4.416
       5.153
       5.626
       5.590
       4.905
       3.617
       1.964
       0.259
      -1.257
      -2.442
      -3.167
      -3.265
      -2.646
      -1.475
      -0.177
       0.781
       1.175
       1.111
       0.837
       0.490
       0.030
      -0.598
      -1.317
      -1.954
      -2.411
      -2.749
      -3.109
      -3.542
      -3.942
      -4.109
      -3.876
      -3.193
      -2.161
      -1.002
       0.033
       0.791
       1.292
       1.688
       2.143
       2.739
       3.455
       4.177
       4.710
       4.810
       4.306
       3.287
       2.140
       1.307
       0.937
       0.797
       0.556
       0.133
      -0.275
      -0.477
      -0.526
      -0.662
      -1.050
      -1.593
