Origin Time       21/9/2009 8:53:04	 
Lat.              27.3 N	
Long.             91.5 E	
Depth (Km)          8.0
Magnitude         6.2
 Region           BHUTAN                                                           
 Above details taken from IMD 
   
Station Code      BOK
Station Lat.       25.976
Station Long.      91.230
Station Height(m)   68.0
Site Class        C   Vs30 between 200 m/sec to 375 m/sec *  
Record Time       21.09.2009 08:53:19.549
Sampling Rate     200. Hz
 Record Duration  113.875 Sec.
 Direction         Vert. (Up positive)
Max. Acceleration     13.248 cm/sec**2
     
  * For reference see Site Classification link of website 
     
 Base Line Corrected and Low Pass Filtered (Cut Off at 35 Hz) Time History
 Acceleration data in cm/sec**2
    
[...]
      -1.285
      -1.075
      -1.016
      -1.026
      -1.021
      -1.004
      -1.054
      -1.220
      -1.443
      -1.589
      -1.576
      -1.462
      -1.388
      -1.413
      -1.423
      -1.225
      -0.742
      -0.123
       0.340
       0.409
       0.052
      -0.530
      -1.028
      -1.222
      -1.131
      -0.995
      -1.037
      -1.221
      -1.255
      -0.888
      -0.206
       0.398
       0.594
       0.426
       0.239
       0.310
       0.603
       0.871
       0.948
       0.882
       0.799
       0.739
       0.643
       0.469
       0.245
       0.006
      -0.255
      -0.537
      -0.769
      -0.870
      -0.881
      -0.977
      -1.289
      -1.731
      -2.038
      -2.015
      -1.728
      -1.422
      -1.270
      -1.221
      -1.103
      -0.817
      -0.439
      -0.125
       0.039
       0.100
       0.177
       0.340
       0.548
       0.688
       0.683
       0.584
       0.536
       0.647
       0.867
       1.048
       1.114
       1.163
       1.384
       1.873
       2.551
       3.218
       3.645
       3.639
       3.119
       2.217
       1.280
       0.688
       0.594
       0.839
       1.123
       1.266
       1.320
       1.448
       1.732
       2.074
       2.261
       2.094
       1.532
       0.755
       0.069
      -0.325
      -0.504
      -0.718
      -1.097
      -1.488
      -1.640
      -1.515
      -1.363
      -1.458
      -1.804
      -2.149
      -2.262
      -2.148
      -1.980
      -1.889
      -1.871
      -1.850
      -1.752
      -1.529
      -1.187
      -0.856
      -0.740
      -0.906
      -1.153
      -1.183
      -0.943
      -0.726
      -0.828
      -1.178
      -1.384
      -1.188
      -0.778
      -0.597
      -0.877
      -1.417
      -1.788
      -1.674
      -1.072
      -0.265
       0.329
       0.429
       0.147
      -0.011
       0.443
       1.480
       2.504
       2.876
       2.459
       1.638
       0.866
       0.305
      -0.086
      -0.322
      -0.373
      -0.334
      -0.417
      -0.705
      -0.978
      -0.872
      -0.209
       0.847
       1.924
       2.679
       2.942
       2.759
       2.374
       2.104
       2.122
       2.308
       2.358
       2.083
       1.578
       1.128
       0.997
       1.297
       1.954
       2.705
       3.175
       3.113
       2.628
       2.144
       2.023
       2.229
       2.402
       2.241
       1.774
       1.256
       0.901
       0.759
       0.755
       0.744
       0.539
       0.019
      -0.709
      -1.310
      -1.487
      -1.294
      -1.123
      -1.343
      -1.939
      -2.530
      -2.739
      -2.557
      -2.373
      -2.638
      -3.425
      -4.290
      -4.607
      -4.137
      -3.303
      -2.820
      -3.021
      -3.595
      -3.993
      -4.014
      -3.895
      -3.870
      -3.812
      -3.432
      -2.715
      -1.980
      -1.465
      -1.003
      -0.228
       0.947
       2.183
       3.080
       3.584
       3.967
       4.472
       5.055
       5.487
       5.617
       5.521
       5.440
       5.593
       6.033
       6.606
       7.061
       7.238
       7.170
       7.014
       6.875
       6.697
       6.347
       5.785
       5.130
       4.541
       4.055
       3.545
       2.852
       1.958
       1.034
       0.291
      -0.242
      -0.762
      -1.494
      -2.429
      -3.285
      -3.762
      -3.831
      -3.758
      -3.821
      -4.034
      -4.155
      -3.959
      -3.498
      -3.073
      -2.981
      -3.268
      -3.718
      -4.062
      -4.203
      -4.249
      -4.347
      -4.496
      -4.544
      -4.367
      -4.029
      -3.730
      -3.596
      -3.540
      -3.369
      -3.015
      -2.610
      -2.335
      -2.220
      -2.162
      -2.117
      -2.192
      -2.496
      -2.927
      -3.171
      -2.981
      -2.416
      -1.791
      -1.394
      -1.283
      -1.320
      -1.330
      -1.184
      -0.800
      -0.166
       0.605
       1.315
       1.821
       2.121
       2.283
       2.306
       2.125
       1.771
       1.435
       1.303
       1.329
       1.274
       1.003
       0.702
       0.740
       1.291
       2.105
       2.671
       2.600
       1.871
       0.803
      -0.153
      -0.602
      -0.363
       0.448
       1.454
       2.228
       2.579
       2.679
       2.918
       3.570
       4.551
       5.457
       5.873
       5.657
       5.013
       4.283
       3.678
       3.168
       2.621
       2.038
       1.623
       1.600
       1.948
       2.353
       2.456
       2.175
       1.770
       1.599
       1.783
       2.131
       2.363
       2.386
       2.300
       2.164
       1.832
       1.074
      -0.135
      -1.500
      -2.603
      -3.241
      -3.561
      -3.881
      -4.382
      -4.951
      -5.294
      -5.194
      -4.698
      -4.074
      -3.623
      -3.488
      -3.621
      -3.878
      -4.109
      -4.175
      -3.962
      -3.457
      -2.819
      -2.299
      -2.040
      -1.976
      -1.946
      -1.898
      -1.901
      -1.934
      -1.764
      -1.131
      -0.067
       1.031
       1.712
       1.853
       1.717
       1.671
       1.869
       2.180
       2.374
       2.324
       2.100
       1.882
       1.785
       1.714
       1.412
       0.734
      -0.077
      -0.466
      -0.053
       0.901
       1.578
       1.261
      -0.084
      -1.845
      -3.331
      -4.254
      -4.689
      -4.754
      -4.486
      -3.998
      -3.577
      -3.493
      -3.732
      -3.977
      -3.858
      -3.185
      -2.009
      -0.552
       0.860
       1.895
       2.382
       2.454
       2.446
       2.618
       2.945
       3.216
       3.276
       3.155
       2.981
       2.840
       2.736
       2.628
       2.481
       2.285
       2.069
       1.856
       1.594
       1.152
       0.438
      -0.444
      -1.221
      -1.678
      -1.859
      -1.974
      -2.129
      -2.194
      -1.978
      -1.467
      -0.844
      -0.307
       0.056
       0.222
       0.142
      -0.217
      -0.785
      -1.414
      -2.015
      -2.585
      -3.078
      -3.300
      -3.037
      -2.296
      -1.355
      -0.545
      -0.011
       0.290
       0.426
       0.422
       0.315
       0.188
       0.059
      -0.200
      -0.739
      -1.502
      -2.163
      -2.337
      -1.851
      -0.830
       0.393
       1.450
       2.081
       2.252
       2.167
       2.113
       2.252
       2.552
       2.926
       3.363
       3.860
       4.248
       4.228
       3.624
       2.548
       1.250
      -0.152
      -1.674
      -3.221
      -4.454
      -4.996
      -4.764
      -4.017
      -3.101
      -2.218
      -1.459
      -0.910
      -0.618
      -0.470
      -0.279
      -0.048
      -0.094
      -0.775
      -2.064
      -3.456
      -4.356
      -4.552
      -4.267
      -3.775
      -3.068
      -1.966
      -0.488
       0.953
       1.813
       1.873
       1.425
       1.002
       0.906
       0.997
       0.886
       0.308
      -0.689
      -1.844
      -2.926
      -3.889
      -4.831
      -5.824
      -6.757
      -7.338
      -7.255
      -6.374
      -4.790
      -2.748
      -0.566
       1.385
       2.775
       3.509
       3.826
       4.079
       4.318
       4.146
       3.115
       1.330
      -0.439
      -1.332
      -1.089
      -0.166
       0.766
       1.346
       1.601
       1.699
       1.766
       1.922
       2.315
       3.022
       3.960
       4.912
       5.642
       5.963
       5.781
       5.131
       4.195
       3.213
       2.379
       1.839
       1.729
       2.098
       2.716
       3.055
       2.651
       1.585
       0.519
       0.147
       0.585
       1.327
       1.750
       1.604
       1.053
       0.421
      -0.016
      -0.088
       0.223
       0.704
       0.977
       0.741
      -0.026
      -1.099
      -2.186
      -3.051
      -3.566
      -3.746
      -3.777
      -3.921
      -4.358
      -5.094
      -6.026
      -7.008
      -7.816
      -8.105
      -7.597
      -6.410
      -5.086
      -4.159
      -3.662
      -3.185
      -2.444
      -1.689
      -1.426
      -1.794
      -2.346
      -2.455
      -1.848
      -0.702
       0.682
       2.135
       3.525
       4.612
       5.188
       5.348
       5.489
       5.942
       6.616
       7.047
       6.820
       5.954
       4.917
       4.284
       4.306
       4.733
       5.029
       4.820
       4.212
       3.674
       3.610
       4.009
       4.495
       4.655
       4.299
       3.498
       2.491
       1.587
       1.060
       0.991
       1.192
       1.362
       1.342
       1.232
       1.204
       1.256
       1.204
       0.912
       0.424
      -0.137
      -0.684
      -1.094
      -1.108
      -0.500
       0.603
       1.687
       2.249
       2.202
       1.804
       1.263
       0.560
      -0.360
      -1.364
      -2.213
      -2.803
      -3.150
      -3.168
      -2.679
      -1.777
      -1.013
      -0.980
      -1.652
      -2.292
      -2.113
      -0.965
       0.679
       2.225
       3.299
       3.707
       3.400
       2.635
       1.970
       1.814
       1.957
       1.708
       0.652
      -0.797
      -1.733
      -1.675
      -1.103
      -1.001
      -1.885
      -3.280
      -4.144
      -3.790
      -2.460
      -1.043
      -0.276
      -0.193
      -0.310
      -0.275
      -0.208
      -0.427
      -0.953
      -1.422
      -1.462
      -1.084
      -0.691
      -0.737
      -1.378
      -2.345
      -3.089
      -3.111
      -2.286
      -0.984
       0.152
       0.616
       0.308
      -0.526
      -1.548
      -2.534
      -3.417
      -4.217
      -4.946
      -5.538
      -5.829
      -5.608
      -4.791
      -3.567
      -2.357
      -1.555
      -1.248
      -1.201
      -1.092
      -0.798
      -0.423
      -0.085
       0.292
       0.901
       1.760
       2.554
       2.847
       2.497
       1.793
       1.169
       0.789
       0.465
      -0.076
      -0.867
      -1.661
      -2.147
      -2.132
      -1.572
      -0.565
       0.632
       1.665
       2.282
       2.514
       2.631
       2.878
       3.269
       3.668
       4.022
       4.453
       5.035
       5.495
       5.270
       3.984
       1.914
      -0.073
      -1.149
      -1.173
      -0.752
      -0.665
      -1.221
      -2.100
      -2.702
      -2.592
      -1.675
      -0.133
       1.648
       3.153
       3.949
       3.952
       3.515
       3.174
       3.270
       3.760
       4.339
       4.703
       4.704
       4.358
       3.753
       2.960
       2.011
       0.960
      -0.036
      -0.731
      -0.959
      -0.808
      -0.600
      -0.627
      -0.908
      -1.205
      -1.243
      -0.911
      -0.284
       0.464
       1.126
       1.511
       1.537
       1.285
       0.914
       0.466
      -0.218
      -1.315
      -2.715
      -3.991
      -4.720
      -4.825
      -4.560
      -4.244
      -4.049
      -4.019
      -4.139
      -4.278
      -4.155
      -3.548
      -2.577
      -1.714
      -1.430
      -1.850
      -2.765
      -3.871
      -4.865
      -5.365
      -4.994
      -3.691
      -1.905
      -0.340
       0.543
       0.772
       0.688
       0.652
       0.946
       1.790
       3.238
       4.986
       6.385
       6.775
       5.902
       4.127
       2.280
       1.244
       1.426
       2.458
       3.441
       3.661
       3.165
       2.597
       2.483
       2.729
       2.841
       2.523
       1.968
       1.597
       1.675
       2.198
       2.963
       3.603
       3.636
       2.706
       0.936
      -1.027
      -2.422
      -2.927
      -2.785
      -2.423
      -2.068
      -1.776
      -1.703
      -2.142
      -3.202
      -4.531
      -5.509
      -5.761
      -5.435
      -4.927
      -4.414
      -3.748
      -2.785
      -1.679
      -0.785
      -0.329
      -0.246
      -0.329
      -0.456
      -0.617
      -0.801
      -0.911
      -0.785
      -0.268
       0.662
       1.785
       2.631
       2.715
       1.928
       0.715
      -0.181
      -0.202
       0.692
       2.058
       3.281
       3.904
       3.827
       3.357
       3.059
       3.354
       4.121
       4.702
       4.403
       3.101
       1.394
       0.077
      -0.551
      -0.867
      -1.454
      -2.516
      -3.734
      -4.614
      -4.919
      -4.769
      -4.452
      -4.192
      -4.043
      -3.907
      -3.614
      -3.021
      -2.054
      -0.741
       0.745
       2.089
       2.938
       3.147
       2.907
       2.575
       2.344
       2.185
       2.076
       2.167
       2.591
       3.142
       3.281
       2.636
       1.489
       0.642
       0.753
       1.794
       3.154
       4.172
       4.570
       4.503
       4.358
       4.461
       4.849
       5.212
       5.110
       4.327
       3.049
       1.674
       0.463
      -0.590
      -1.584
      -2.545
      -3.445
      -4.310
      -5.222
      -6.186
      -7.046
      -7.560
      -7.565
      -7.111
      -6.479
      -6.036
      -5.966
      -6.083
      -5.982
      -5.451
      -4.765
      -4.516
      -5.070
      -6.183
      -7.178
      -7.511
      -7.205
      -6.718
      -6.400
      -6.135
      -5.475
      -4.069
      -1.956
       0.483
       2.788
       4.649
       5.977
       6.877
       7.602
       8.470
       9.677
      11.124
      12.433
      13.194
      13.248
      12.748
      11.980
      11.106
      10.063
       8.730
       7.178
       5.722
       4.681
       4.079
       3.576
       2.760
       1.520
       0.124
      -1.095
      -2.085
      -3.052
      -4.108
      -5.062
      -5.642
      -5.871
      -6.106
      -6.681
      -7.580
      -8.524
      -9.281
      -9.795
     -10.019
      -9.797
      -9.023
      -7.871
      -6.724
      -5.809
      -4.976
      -3.867
      -2.297
      -0.431
       1.370
       2.842
       3.950
       4.811
       5.526
       6.125
       6.640
       7.200
       7.982
       9.022
      10.079
      10.741
      10.725
      10.062
       8.970
       7.595
       5.970
       4.256
       2.885
       2.294
       2.435
       2.622
       2.001
       0.222
      -2.326
      -4.848
      -6.672
      -7.575
      -7.829
      -8.033
      -8.768
     -10.168
     -11.746
     -12.740
     -12.794
     -12.280
     -11.909
     -12.004
     -12.242
     -12.100
     -11.442
     -10.595
      -9.977
      -9.747
      -9.723
      -9.490
      -8.641
      -7.081
      -5.194
      -3.618
      -2.756
      -2.499
      -2.411
      -2.087
      -1.247
       0.350
       2.793
       5.698
       8.187
       9.453
       9.485
       9.140
       9.366
      10.356
      11.513
      12.134
      12.035
      11.559
      11.096
      10.674
       9.955
       8.586
       6.573
       4.382
       2.636
       1.631
       1.107
       0.506
      -0.491
      -1.674
      -2.555
      -2.900
      -2.953
      -3.114
      -3.436
      -3.476
      -2.714
      -1.112
       0.748
       2.099
       2.570
       2.388
       2.063
       1.925
       1.998
       2.232
       2.682
       3.403
       4.271
       5.005
       5.398
       5.500
       5.583
       5.924
       6.597
       7.362
       7.723
       7.200
       5.728
       3.817
       2.212
       1.301
       0.881
       0.504
      -0.060
      -0.791
      -1.675
      -2.784
      -4.030
      -5.038
      -5.444
      -5.303
      -5.040
      -4.929
      -4.735
      -4.028
      -2.765
      -1.412
      -0.426
       0.255
       1.088
       2.332
       3.699
       4.635
       4.851
       4.500
       3.951
       3.459
       3.054
       2.585
       1.799
       0.461
      -1.429
      -3.448
      -4.925
      -5.395
      -4.937
      -4.076
      -3.381
      -3.172
      -3.489
      -4.169
      -4.905
      -5.375
      -5.441
      -5.241
      -5.011
      -4.777
      -4.294
      -3.328
      -1.925
      -0.360
       1.103
       2.357
       3.400
       4.202
       4.681
       4.800
       4.604
       4.131
       3.393
       2.434
       1.367
       0.356
      -0.416
      -0.770
      -0.626
      -0.179
       0.067
      -0.369
      -1.456
      -2.561
      -2.943
      -2.398
      -1.434
      -0.800
      -0.864
      -1.472
      -2.297
      -3.147
      -3.881
      -4.228
      -3.917
      -3.053
      -2.212
      -1.995
      -2.489
      -3.247
      -3.789
      -3.997
      -3.966
      -3.638
      -2.787
      -1.416
       0.035
       0.977
       1.186
       0.943
       0.727
       0.830
       1.250
       1.784
       2.164
       2.259
       2.275
       2.684
       3.784
       5.302
       6.577
       7.193
       7.357
       7.531
       7.804
       7.827
       7.400
       6.881
       6.802
       7.148
       7.230
       6.336
       4.382
       1.919
      -0.322
      -1.820
      -2.382
      -2.107
      -1.321
      -0.443
       0.217
       0.554
       0.578
       0.276
      -0.356
      -1.204
      -2.008
      -2.483
      -2.462
      -1.961
      -1.171
      -0.467
      -0.332
      -1.084
      -2.551
      -4.023
      -4.696
      -4.327
      -3.491
      -3.117
      -3.653
      -4.629
      -5.068
      -4.380
      -2.895
      -1.551
      -1.094
      -1.537
      -2.287
      -2.698
      -2.505
      -1.899
      -1.319
      -1.164
      -1.523
      -2.092
      -2.373
      -2.031
      -1.140
      -0.108
       0.657
       0.999
       1.027
       0.962
       0.970
       1.049
       1.017
       0.655
      -0.052
      -0.808
      -1.272
      -1.519
      -2.111
      -3.523
      -5.513
      -7.207
      -7.900
      -7.710
      -7.321
      -7.189
      -7.171
      -6.912
      -6.369
      -5.776
      -5.203
      -4.344
      -2.855
      -0.786
       1.388
       3.082
       3.887
       3.725
       2.927
       2.137
       1.928
       2.356
       2.905
       3.008
       2.577
       1.977
       1.567
       1.411
       1.425
       1.599
       1.905
       2.121
       2.020
       1.762
       1.883
       2.679
       3.704
       4.104
       3.510
       2.465
       1.861
       2.101
       2.914
       3.834
       4.571
       4.959
       4.876
       4.442
       4.169
       4.598
       5.721
       6.863
       7.216
       6.435
       4.729
       2.573
       0.454
      -1.240
      -2.352
      -3.014
      -3.446
      -3.650
      -3.407
      -2.635
      -1.656
      -0.995
      -0.859
      -0.965
      -0.996
      -1.017
      -1.268
      -1.749
      -2.228
      -2.569
      -2.896
      -3.355
      -3.757
      -3.682
      -3.047
      -2.315
      -2.011
      -2.142
      -2.191
      -1.669
      -0.633
       0.431
       1.105
       1.325
       1.327
       1.444
       1.870
       2.516
       3.037
       2.984
       2.191
       1.165
       0.863
       1.888
       3.913
       5.859
       6.645
       5.872
       3.905
       1.501
      -0.545
      -1.668
      -1.781
      -1.349
      -1.076
      -1.324
      -1.799
      -1.902
      -1.384
      -0.568
       0.052
