Origin Time       21/9/2009 8:53:04	 
Lat.              27.3 N	
Long.             91.5 E	
Depth (Km)          8.0
Magnitude         6.2
 Region           BHUTAN                                                           
 Above details taken from IMD 
     
Station Code      BOK
Station Lat.       25.976  N
Station Long.      91.230  E
Station Height(m)   68.0
Site Class        C   Vs30 between 200 m/sec to 375 m/sec *  
Record Time       21.09.2009 08:53:19.549
Sampling Rate     200. Hz
 Record Duration  113.875 Sec.
 Direction         E-W (E positive)
Max. Acceleration     20.703 cm/sec**2
     
  * For reference see Site Classification link of website 
     
 Base Line Corrected and Low Pass Filtered (Cut Off at 35 Hz) Time History
 Acceleration data in cm/sec**2
    
[...]
       2.469
       2.267
       1.928
       1.731
       1.838
       2.176
       2.501
       2.595
       2.439
       2.206
       2.108
       2.214
       2.396
       2.420
       2.117
       1.496
       0.746
       0.117
      -0.230
      -0.312
      -0.298
      -0.372
      -0.612
      -0.934
      -1.172
      -1.208
      -1.064
      -0.876
      -0.775
      -0.777
      -0.773
      -0.625
      -0.298
       0.095
       0.359
       0.339
       0.002
      -0.551
      -1.145
      -1.608
      -1.831
      -1.804
      -1.594
      -1.303
      -1.015
      -0.767
      -0.552
      -0.348
      -0.143
       0.052
       0.215
       0.326
       0.370
       0.346
       0.282
       0.237
       0.269
       0.361
       0.384
       0.159
      -0.427
      -1.311
      -2.267
      -3.032
      -3.461
      -3.600
      -3.621
      -3.663
      -3.724
      -3.679
      -3.413
      -2.936
      -2.382
      -1.886
      -1.466
      -1.037
      -0.516
       0.082
       0.647
       1.066
       1.287
       1.336
       1.281
       1.200
       1.160
       1.195
       1.311
       1.492
       1.717
       1.953
       2.152
       2.271
       2.314
       2.334
       2.392
       2.489
       2.560
       2.521
       2.334
       2.022
       1.642
       1.235
       0.803
       0.312
      -0.268
      -0.918
      -1.550
      -2.055
      -2.362
      -2.473
      -2.426
      -2.254
      -1.979
      -1.662
      -1.421
      -1.384
      -1.591
      -1.935
      -2.211
      -2.231
      -1.937
      -1.444
      -1.004
      -0.882
      -1.222
      -1.949
      -2.792
      -3.424
      -3.643
      -3.486
      -3.183
      -2.996
      -3.037
      -3.181
      -3.150
      -2.691
      -1.753
      -0.522
       0.685
       1.594
       2.091
       2.204
       2.020
       1.604
       0.975
       0.136
      -0.884
      -1.986
      -3.007
      -3.781
      -4.222
      -4.356
      -4.280
      -4.071
      -3.744
      -3.277
      -2.675
      -1.988
      -1.275
      -0.532
       0.335
       1.447
       2.834
       4.342
       5.665
       6.504
       6.760
       6.597
       6.324
       6.197
       6.282
       6.472
       6.587
       6.475
       6.051
       5.301
       4.296
       3.194
       2.210
       1.536
       1.257
       1.318
       1.556
       1.773
       1.821
       1.666
       1.392
       1.143
       1.031
       1.078
       1.217
       1.360
       1.462
       1.557
       1.719
       1.982
       2.283
       2.501
       2.566
       2.550
       2.619
       2.875
       3.233
       3.456
       3.342
       2.872
       2.226
       1.648
       1.309
       1.237
       1.337
       1.448
       1.404
       1.090
       0.491
      -0.307
      -1.149
      -1.870
      -2.347
      -2.517
      -2.386
      -2.040
      -1.635
      -1.346
      -1.268
      -1.348
      -1.401
      -1.250
      -0.872
      -0.447
      -0.242
      -0.411
      -0.874
      -1.367
      -1.625
      -1.546
      -1.221
      -0.831
      -0.525
      -0.344
      -0.233
      -0.096
       0.135
       0.464
       0.848
       1.223
       1.525
       1.695
       1.669
       1.392
       0.848
       0.090
      -0.752
      -1.510
      -2.039
      -2.275
      -2.245
      -2.024
      -1.657
      -1.123
      -0.382
       0.523
       1.407
       2.012
       2.168
       1.898
       1.373
       0.759
       0.097
      -0.661
      -1.538
      -2.448
      -3.237
      -3.811
      -4.201
      -4.537
      -4.932
      -5.403
      -5.861
      -6.173
      -6.245
      -6.077
      -5.772
      -5.474
      -5.294
      -5.235
      -5.187
      -4.981
      -4.471
      -3.603
      -2.453
      -1.193
      -0.008
       0.996
       1.829
       2.555
       3.217
       3.811
       4.332
       4.804
       5.257
       5.662
       5.907
       5.846
       5.397
       4.617
       3.693
       2.867
       2.334
       2.151
       2.226
       2.373
       2.425
       2.330
       2.193
       2.221
       2.608
       3.430
       4.617
       5.997
       7.384
       8.630
       9.628
      10.288
      10.534
      10.315
       9.647
       8.626
       7.415
       6.180
       5.022
       3.921
       2.754
       1.360
      -0.353
      -2.322
      -4.309
      -5.971
      -7.010
      -7.326
      -7.079
      -6.596
      -6.188
      -5.992
      -5.957
      -5.942
      -5.833
      -5.592
      -5.227
      -4.762
      -4.226
      -3.680
      -3.223
      -2.968
      -2.979
      -3.226
      -3.587
      -3.904
      -4.063
      -4.043
      -3.921
      -3.823
      -3.869
      -4.123
      -4.572
      -5.117
      -5.581
      -5.773
      -5.572
      -4.986
      -4.158
      -3.293
      -2.581
      -2.120
      -1.879
      -1.704
      -1.372
      -0.708
       0.299
       1.440
       2.362
       2.743
       2.452
       1.593
       0.400
      -0.896
      -2.152
      -3.310
      -4.348
      -5.255
      -6.027
      -6.666
      -7.149
      -7.399
      -7.307
      -6.804
      -5.935
      -4.862
      -3.779
      -2.819
      -2.002
      -1.277
      -0.580
       0.132
       0.871
       1.629
       2.376
       3.066
       3.666
       4.179
       4.642
       5.075
       5.457
       5.732
       5.847
       5.773
       5.474
       4.891
       3.978
       2.790
       1.547
       0.591
       0.239
       0.601
       1.513
       2.621
       3.581
       4.255
       4.747
       5.280
       6.001
       6.869
       7.671
       8.144
       8.096
       7.480
       6.417
       5.175
       4.068
       3.335
       3.022
       2.990
       3.009
       2.902
       2.617
       2.229
       1.879
       1.700
       1.735
       1.893
       1.976
       1.755
       1.091
       0.013
      -1.272
      -2.445
      -3.192
      -3.356
      -3.028
      -2.518
      -2.180
      -2.190
      -2.427
      -2.559
      -2.271
      -1.489
      -0.426
       0.545
       1.094
       1.093
       0.653
       0.041
      -0.483
      -0.790
      -0.915
      -0.969
      -1.048
      -1.216
      -1.557
      -2.193
      -3.196
      -4.476
      -5.760
      -6.728
      -7.219
      -7.335
      -7.365
      -7.604
      -8.183
      -9.021
      -9.888
     -10.517
     -10.717
     -10.447
      -9.831
      -9.111
      -8.535
      -8.248
      -8.227
      -8.299
      -8.212
      -7.711
      -6.626
      -4.946
      -2.838
      -0.595
       1.488
       3.231
       4.620
       5.769
       6.806
       7.775
       8.600
       9.152
       9.353
       9.230
       8.859
       8.277
       7.443
       6.300
       4.862
       3.240
       1.593
       0.060
      -1.282
      -2.412
      -3.338
      -4.064
      -4.562
      -4.744
      -4.480
      -3.650
      -2.212
      -0.250
       2.022
       4.291
       6.213
       7.493
       7.953
       7.574
       6.490
       4.940
       3.184
       1.402
      -0.373
      -2.230
      -4.258
      -6.403
      -8.418
      -9.942
     -10.665
     -10.451
      -9.339
      -7.502
      -5.197
      -2.728
      -0.390
       1.620
       3.229
       4.443
       5.283
       5.769
       5.958
       5.962
       5.906
       5.847
       5.754
       5.559
       5.222
       4.772
       4.280
       3.816
       3.397
       2.987
       2.537
       2.038
       1.538
       1.092
       0.707
       0.337
      -0.059
      -0.461
      -0.797
      -0.971
      -0.879
      -0.369
       0.731
       2.467
       4.601
       6.628
       8.035
       8.609
       8.540
       8.234
       7.992
       7.778
       7.240
       5.940
       3.669
       0.610
      -2.734
      -5.823
      -8.339
     -10.240
     -11.596
     -12.413
     -12.621
     -12.195
     -11.253
     -10.019
      -8.688
      -7.309
      -5.771
      -3.908
      -1.647
       0.889
       3.369
       5.367
       6.536
       6.774
       6.263
       5.381
       4.519
       3.917
       3.580
       3.299
       2.779
       1.856
       0.668
      -0.360
      -0.746
      -0.255
       0.965
       2.482
       3.832
       4.751
       5.268
       5.601
       5.944
       6.289
       6.417
       6.070
       5.178
       3.956
       2.828
       2.245
       2.502
       3.627
       5.344
       7.139
       8.471
       9.016
       8.771
       7.973
       6.923
       5.883
       5.042
       4.504
       4.262
       4.213
       4.197
       4.015
       3.458
       2.375
       0.794
      -1.037
      -2.767
      -4.147
      -5.168
      -6.013
      -6.874
      -7.795
      -8.643
      -9.224
      -9.435
      -9.381
      -9.330
      -9.548
     -10.101
     -10.777
     -11.196
     -11.044
     -10.254
      -9.032
      -7.693
      -6.457
      -5.355
      -4.299
      -3.243
      -2.267
      -1.518
      -1.099
      -1.014
      -1.212
      -1.610
      -2.051
      -2.276
      -2.022
      -1.181
       0.103
       1.516
       2.775
       3.786
       4.650
       5.510
       6.379
       7.077
       7.320
       6.891
       5.766
       4.120
       2.231
       0.373
      -1.266
      -2.594
      -3.583
      -4.198
      -4.323
      -3.759
      -2.321
       0.000
       2.934
       5.973
       8.563
      10.338
      11.244
      11.448
      11.122
      10.273
       8.777
       6.563
       3.772
       0.746
      -2.114
      -4.479
      -6.158
      -7.087
      -7.306
      -6.912
      -5.981
      -4.545
      -2.637
      -0.374
       2.026
       4.324
       6.344
       7.966
       9.062
       9.475
       9.080
       7.891
       6.114
       4.094
       2.168
       0.528
      -0.839
      -2.068
      -3.246
      -4.282
      -4.915
      -4.879
      -4.098
      -2.781
      -1.346
      -0.240
       0.285
       0.299
       0.165
       0.318
       0.956
       1.878
       2.603
       2.710
       2.121
       1.113
       0.090
      -0.693
      -1.230
      -1.670
      -2.164
      -2.791
      -3.599
      -4.656
      -5.998
      -7.526
      -8.955
      -9.935
     -10.257
      -9.958
      -9.223
      -8.200
      -6.919
      -5.385
      -3.754
      -2.400
      -1.777
      -2.151
      -3.390
      -4.940
      -6.049
      -6.118
      -4.977
      -2.925
      -0.529
       1.680
       3.440
       4.816
       6.087
       7.529
       9.216
      10.937
      12.264
      12.707
      11.916
       9.839
       6.776
       3.284
      -0.041
      -2.790
      -4.857
      -6.383
      -7.565
      -8.500
      -9.143
      -9.396
      -9.215
      -8.683
      -8.000
      -7.406
      -7.076
      -7.083
      -7.411
      -7.985
      -8.653
      -9.196
      -9.408
      -9.234
      -8.824
      -8.419
      -8.135
      -7.843
      -7.237
      -6.036
      -4.159
      -1.810
       0.585
       2.569
       3.854
       4.435
       4.542
       4.508
       4.607
       4.922
       5.288
       5.379
       4.927
       3.943
       2.762
       1.846
       1.488
       1.640
       2.002
       2.264
       2.351
       2.475
       2.998
       4.179
       5.997
       8.161
      10.293
      12.117
      13.530
      14.559
      15.257
      15.633
      15.621
      15.137
      14.191
      12.970
      11.741
      10.652
       9.603
       8.341
       6.678
       4.627
       2.341
      -0.047
      -2.517
      -5.130
      -7.915
     -10.789
     -13.552
     -15.973
     -17.887
     -19.231
     -19.984
     -20.068
     -19.323
     -17.598
     -14.920
     -11.616
      -8.297
      -5.652
      -4.128
      -3.698
      -3.855
      -3.886
      -3.274
      -1.988
      -0.470
       0.699
       1.186
       1.079
       0.778
       0.756
       1.368
       2.768
       4.895
       7.485
      10.108
      12.237
      13.362
      13.162
      11.681
       9.388
       6.990
       5.079
       3.867
       3.208
       2.873
       2.799
       3.100
       3.892
       5.136
       6.650
       8.224
       9.700
      11.005
      12.141
      13.106
      13.766
      13.776
      12.677
      10.140
       6.213
       1.405
      -3.437
      -7.401
      -9.828
     -10.542
      -9.864
      -8.378
      -6.619
      -4.929
      -3.482
      -2.344
      -1.483
      -0.792
      -0.195
       0.282
       0.553
       0.574
       0.374
      -0.024
      -0.632
      -1.412
      -2.199
      -2.746
      -2.884
      -2.641
      -2.233
      -1.926
      -1.901
      -2.176
      -2.647
      -3.174
      -3.637
      -3.936
      -3.953
      -3.575
      -2.783
      -1.723
      -0.639
       0.280
       0.977
       1.460
       1.735
       1.822
       1.832
       1.948
       2.306
       2.884
       3.482
       3.778
       3.422
       2.159
      -0.061
      -3.037
      -6.374
      -9.617
     -12.369
     -14.352
     -15.450
     -15.730
     -15.399
     -14.700
     -13.796
     -12.758
     -11.628
     -10.476
      -9.397
      -8.469
      -7.742
      -7.251
      -7.021
      -7.046
      -7.261
      -7.555
      -7.779
      -7.721
      -7.105
      -5.673
      -3.368
      -0.448
       2.620
       5.449
       7.958
      10.336
      12.786
      15.288
      17.579
      19.335
      20.374
      20.703
      20.428
      19.620
      18.260
      16.269
      13.560
      10.103
       5.996
       1.519
      -2.889
      -6.744
      -9.685
     -11.564
     -12.400
     -12.264
     -11.210
      -9.345
      -6.928
      -4.368
      -2.088
      -0.354
       0.777
       1.398
       1.660
       1.736
       1.793
       1.912
       2.011
       1.903
       1.456
       0.688
      -0.268
      -1.300
      -2.404
      -3.683
      -5.250
      -7.083
      -8.960
     -10.520
     -11.442
     -11.562
     -10.860
      -9.396
      -7.317
      -4.909
      -2.509
      -0.285
       1.893
       4.300
       7.030
       9.848
      12.317
      14.061
      14.921
      14.937
      14.298
      13.312
      12.378
      11.864
      11.945
      12.499
      13.151
      13.446
      13.076
      12.005
      10.432
       8.583
       6.523
       4.109
       1.142
      -2.413
      -6.326
     -10.148
     -13.364
     -15.557
     -16.549
     -16.443
     -15.516
     -13.991
     -11.880
      -9.069
      -5.603
      -1.852
       1.620
       4.382
       6.343
       7.715
       8.802
       9.782
      10.626
      11.183
      11.343
      11.115
      10.571
       9.724
       8.523
       6.950
       5.116
       3.232
       1.524
       0.171
      -0.702
      -1.065
      -1.067
      -1.010
      -1.170
      -1.569
      -1.940
      -1.948
      -1.511
      -0.932
      -0.760
      -1.451
      -3.100
      -5.398
      -7.804
      -9.789
     -11.007
     -11.359
     -10.968
     -10.070
      -8.878
      -7.514
      -6.041
      -4.550
      -3.220
      -2.311
      -2.088
      -2.688
      -3.986
      -5.537
      -6.707
      -6.949
      -6.058
      -4.281
      -2.210
      -0.538
       0.256
       0.150
      -0.384
      -0.608
       0.077
       1.786
       4.098
       6.345
       7.987
       8.834
       9.040
       8.959
       8.934
       9.112
       9.361
       9.349
       8.733
       7.321
       5.119
       2.316
      -0.737
      -3.575
      -5.772
      -7.133
      -7.802
      -8.167
      -8.627
      -9.378
     -10.315
     -11.079
     -11.217
     -10.401
      -8.605
      -6.132
      -3.454
      -1.012
       0.902
       2.146
       2.708
       2.715
       2.414
       2.107
       2.028
       2.256
       2.721
       3.304
       3.960
       4.762
       5.808
       7.072
       8.338
       9.286
       9.686
       9.549
       9.125
       8.750
       8.634
       8.716
       8.662
       8.044
       6.595
       4.383
       1.773
      -0.794
      -3.018
      -4.820
      -6.257
      -7.401
      -8.259
      -8.772
      -8.874
      -8.585
      -8.070
      -7.583
      -7.318
      -7.261
      -7.173
      -6.729
      -5.725
      -4.237
      -2.639
      -1.467
      -1.143
      -1.727
      -2.875
      -4.043
      -4.798
      -5.004
      -4.805
      -4.487
      -4.320
      -4.427
      -4.726
      -4.971
      -4.894
      -4.356
      -3.416
      -2.270
      -1.094
       0.113
       1.529
       3.366
       5.650
       8.107
      10.246
      11.587
      11.903
      11.332
      10.272
       9.154
       8.224
       7.483
       6.803
       6.136
       5.619
       5.483
       5.828
       6.484
       7.067
       7.199
       6.708
       5.706
       4.492
       3.348
       2.353
       1.353
       0.124
      -1.373
      -2.887
      -4.025
      -4.511
      -4.315
      -3.556
      -2.345
      -0.766
       1.001
       2.609
       3.688
       4.089
       4.004
       3.831
       3.888
       4.178
       4.365
       3.946
       2.518
       0.025
      -3.164
      -6.384
      -8.992
     -10.668
     -11.514
     -11.908
     -12.209
     -12.514
     -12.579
     -11.916
     -10.040
      -6.735
      -2.225
       2.876
       7.793
      11.881
      14.787
      16.468
      17.120
      17.061
      16.591
      15.848
      14.759
      13.118
      10.745
       7.616
       3.934
       0.085
      -3.482
      -6.463
      -8.838
     -10.833
     -12.701
     -14.488
     -15.969
     -16.801
     -16.757
     -15.857
     -14.327
     -12.488
     -10.662
      -9.100
      -7.932
      -7.145
      -6.635
      -6.243
      -5.778
      -5.059
      -4.009
      -2.697
      -1.332
      -0.187
       0.519
       0.768
       0.810
       1.028
       1.668
       2.638
       3.523
       3.795
       3.143
       1.726
       0.170
      -0.786
      -0.718
       0.281
       1.694
       2.861
       3.280
       2.806
       1.707
       0.516
      -0.307
      -0.658
      -0.790
      -1.029
      -1.480
      -1.969
      -2.245
      -2.247
      -2.164
      -2.227
      -2.445
      -2.549
      -2.221
      -1.363
      -0.178
       0.951
       1.632
       1.611
       0.860
      -0.434
      -1.956
      -3.372
      -4.402
      -4.867
      -4.731
      -4.113
      -3.228
      -2.257
      -1.235
      -0.057
       1.383
       3.002
       4.455
       5.251
       5.007
       3.696
       1.715
      -0.263
      -1.617
      -2.070
      -1.770
      -1.096
      -0.360
       0.365
       1.167
       2.064
       2.850
       3.174
       2.783
       1.727
       0.371
      -0.770
      -1.254
      -0.877
       0.272
       1.879
       3.557
       4.984
       5.946
       6.274
       5.802
       4.432
       2.285
      -0.240
      -2.567
      -4.197
      -4.918
      -4.865
      -4.387
      -3.806
      -3.218
      -2.458
      -1.263
       0.474
       2.560
       4.545
       5.928
       6.368
       5.815
       4.496
       2.785
       1.008
      -0.701
      -2.402
      -4.185
      -5.960
      -7.401
      -8.090
