Origin Time       26/2/2010 4:42:33	 
Lat.              28.5 N	
Long.             86.7 E	
Depth (Km)         28.0
Magnitude         5.4
 Region           Tibet                                                            
 Above details taken from IMD 
     
Station Code      BON
Station Lat.       26.473  N
Station Long.      90.561  E
Station Height(m)   75.0
Site Class        C   Vs30 between 200 m/sec to 375 m/sec *  
Record Time       26.02.2010 10:14:27.749
Sampling Rate     200. Hz
 Record Duration   85.525 Sec.
 Direction         E-W (E positive)
Max. Acceleration      2.789 cm/sec**2
     
  * For reference see Site Classification link of website 
     
 Base Line Corrected and Low Pass Filtered (Cut Off at 35 Hz) Time History
 Acceleration data in cm/sec**2
    
[...]
       0.055
       0.091
       0.106
       0.091
       0.054
       0.007
      -0.039
      -0.081
      -0.120
      -0.152
      -0.174
      -0.177
      -0.160
      -0.128
      -0.089
      -0.047
       0.003
       0.060
       0.115
       0.151
       0.160
       0.150
       0.135
       0.128
       0.124
       0.115
       0.091
       0.058
       0.028
       0.017
       0.027
       0.051
       0.075
       0.093
       0.109
       0.131
       0.161
       0.193
       0.217
       0.227
       0.225
       0.217
       0.209
       0.200
       0.187
       0.165
       0.133
       0.089
       0.034
      -0.028
      -0.091
      -0.149
      -0.203
      -0.258
      -0.323
      -0.402
      -0.484
      -0.551
      -0.583
      -0.573
      -0.523
      -0.449
      -0.367
      -0.287
      -0.214
      -0.147
      -0.084
      -0.026
       0.026
       0.070
       0.106
       0.133
       0.150
       0.154
       0.144
       0.129
       0.116
       0.114
       0.120
       0.127
       0.133
       0.144
       0.166
       0.194
       0.213
       0.211
       0.191
       0.169
       0.161
       0.170
       0.182
       0.184
       0.166
       0.132
       0.088
       0.040
      -0.005
      -0.037
      -0.047
      -0.035
      -0.009
       0.019
       0.043
       0.060
       0.071
       0.080
       0.088
       0.093
       0.091
       0.078
       0.052
       0.018
      -0.017
      -0.049
      -0.076
      -0.094
      -0.097
      -0.079
      -0.039
       0.011
       0.054
       0.081
       0.091
       0.090
       0.083
       0.070
       0.052
       0.029
       0.001
      -0.029
      -0.063
      -0.103
      -0.145
      -0.179
      -0.195
      -0.192
      -0.180
      -0.173
      -0.179
      -0.191
      -0.201
      -0.198
      -0.178
      -0.141
      -0.096
      -0.054
      -0.019
       0.009
       0.036
       0.065
       0.092
       0.109
       0.114
       0.114
       0.120
       0.136
       0.156
       0.172
       0.183
       0.192
       0.201
       0.209
       0.210
       0.198
       0.175
       0.143
       0.101
       0.047
      -0.012
      -0.068
      -0.110
      -0.135
      -0.146
      -0.147
      -0.142
      -0.138
      -0.145
      -0.167
      -0.197
      -0.221
      -0.226
      -0.211
      -0.186
      -0.160
      -0.136
      -0.105
      -0.063
      -0.016
       0.026
       0.055
       0.077
       0.101
       0.132
       0.162
       0.181
       0.186
       0.189
       0.205
       0.238
       0.275
       0.294
       0.276
       0.218
       0.135
       0.043
      -0.045
      -0.124
      -0.190
      -0.244
      -0.283
      -0.307
      -0.315
      -0.309
      -0.291
      -0.264
      -0.232
      -0.194
      -0.148
      -0.098
      -0.050
      -0.016
       0.000
      -0.002
      -0.014
      -0.028
      -0.037
      -0.037
      -0.030
      -0.019
      -0.013
      -0.013
      -0.013
      -0.004
       0.019
       0.055
       0.096
       0.133
       0.161
       0.181
       0.201
       0.230
       0.265
       0.298
       0.317
       0.318
       0.306
       0.289
       0.273
       0.260
       0.248
       0.237
       0.224
       0.212
       0.202
       0.196
       0.193
       0.191
       0.189
       0.190
       0.200
       0.216
       0.227
       0.221
       0.189
       0.129
       0.052
      -0.027
      -0.093
      -0.140
      -0.175
      -0.207
      -0.240
      -0.263
      -0.267
      -0.255
      -0.247
      -0.253
      -0.270
      -0.281
      -0.277
      -0.264
      -0.258
      -0.272
      -0.309
      -0.365
      -0.431
      -0.499
      -0.561
      -0.613
      -0.649
      -0.661
      -0.642
      -0.585
      -0.496
      -0.391
      -0.287
      -0.193
      -0.102
      -0.004
       0.109
       0.223
       0.319
       0.380
       0.410
       0.427
       0.453
       0.497
       0.553
       0.606
       0.643
       0.661
       0.660
       0.645
       0.622
       0.594
       0.561
       0.520
       0.467
       0.405
       0.344
       0.293
       0.251
       0.212
       0.171
       0.129
       0.093
       0.066
       0.043
       0.016
      -0.022
      -0.069
      -0.122
      -0.174
      -0.224
      -0.274
      -0.330
      -0.394
      -0.465
      -0.541
      -0.620
      -0.695
      -0.760
      -0.808
      -0.833
      -0.833
      -0.801
      -0.733
      -0.630
      -0.505
      -0.378
      -0.264
      -0.171
      -0.097
      -0.036
       0.014
       0.050
       0.070
       0.083
       0.101
       0.133
       0.178
       0.221
       0.256
       0.285
       0.322
       0.372
       0.428
       0.469
       0.479
       0.454
       0.412
       0.372
       0.345
       0.331
       0.325
       0.328
       0.349
       0.392
       0.455
       0.524
       0.585
       0.628
       0.652
       0.664
       0.664
       0.642
       0.585
       0.488
       0.364
       0.236
       0.126
       0.041
      -0.025
      -0.079
      -0.129
      -0.180
      -0.234
      -0.293
      -0.352
      -0.409
      -0.457
      -0.496
      -0.529
      -0.561
      -0.593
      -0.614
      -0.614
      -0.593
      -0.566
      -0.553
      -0.561
      -0.580
      -0.593
      -0.594
      -0.582
      -0.562
      -0.534
      -0.495
      -0.447
      -0.391
      -0.324
      -0.246
      -0.164
      -0.085
      -0.012
       0.056
       0.123
       0.185
       0.234
       0.269
       0.296
       0.327
       0.367
       0.402
       0.412
       0.376
       0.296
       0.194
       0.093
       0.005
      -0.072
      -0.144
      -0.207
      -0.256
      -0.284
      -0.284
      -0.248
      -0.175
      -0.080
       0.013
       0.086
       0.136
       0.174
       0.205
       0.230
       0.248
       0.269
       0.307
       0.365
       0.432
       0.496
       0.549
       0.598
       0.650
       0.704
       0.749
       0.773
       0.762
       0.714
       0.633
       0.535
       0.437
       0.349
       0.270
       0.185
       0.081
      -0.043
      -0.175
      -0.301
      -0.410
      -0.499
      -0.566
      -0.609
      -0.630
      -0.638
      -0.645
      -0.658
      -0.676
      -0.690
      -0.689
      -0.664
      -0.616
      -0.555
      -0.499
      -0.459
      -0.439
      -0.430
      -0.422
      -0.406
      -0.376
      -0.325
      -0.248
      -0.145
      -0.018
       0.123
       0.270
       0.415
       0.550
       0.667
       0.761
       0.830
       0.874
       0.895
       0.895
       0.879
       0.850
       0.815
       0.782
       0.758
       0.740
       0.723
       0.705
       0.685
       0.663
       0.636
       0.600
       0.546
       0.474
       0.383
       0.275
       0.149
       0.003
      -0.167
      -0.355
      -0.545
      -0.714
      -0.845
      -0.931
      -0.974
      -0.982
      -0.957
      -0.907
      -0.840
      -0.765
      -0.688
      -0.618
      -0.558
      -0.517
      -0.498
      -0.500
      -0.515
      -0.523
      -0.506
      -0.459
      -0.389
      -0.310
      -0.234
      -0.162
      -0.096
      -0.035
       0.021
       0.073
       0.122
       0.164
       0.183
       0.169
       0.120
       0.047
      -0.032
      -0.102
      -0.156
      -0.186
      -0.186
      -0.149
      -0.076
       0.029
       0.153
       0.284
       0.409
       0.520
       0.609
       0.668
       0.694
       0.693
       0.673
       0.643
       0.603
       0.548
       0.480
       0.406
       0.337
       0.275
       0.213
       0.144
       0.067
      -0.017
      -0.107
      -0.204
      -0.310
      -0.423
      -0.547
      -0.689
      -0.857
      -1.052
      -1.262
      -1.467
      -1.644
      -1.774
      -1.846
      -1.852
      -1.784
      -1.639
      -1.417
      -1.133
      -0.810
      -0.475
      -0.148
       0.154
       0.415
       0.626
       0.782
       0.890
       0.958
       0.993
       0.996
       0.970
       0.928
       0.896
       0.898
       0.944
       1.026
       1.129
       1.246
       1.377
       1.521
       1.663
       1.783
       1.863
       1.893
       1.866
       1.779
       1.632
       1.435
       1.207
       0.975
       0.757
       0.560
       0.379
       0.212
       0.062
      -0.055
      -0.125
      -0.143
      -0.123
      -0.085
      -0.052
      -0.035
      -0.040
      -0.070
      -0.127
      -0.209
      -0.313
      -0.439
      -0.595
      -0.788
      -1.010
      -1.229
      -1.400
      -1.489
      -1.494
      -1.443
      -1.366
      -1.275
      -1.155
      -0.989
      -0.777
      -0.540
      -0.310
      -0.113
       0.042
       0.150
       0.207
       0.217
       0.182
       0.114
       0.024
      -0.077
      -0.177
      -0.264
      -0.337
      -0.398
      -0.452
      -0.493
      -0.514
      -0.500
      -0.444
      -0.347
      -0.219
      -0.077
       0.063
       0.193
       0.317
       0.444
       0.583
       0.734
       0.889
       1.032
       1.146
       1.220
       1.250
       1.235
       1.176
       1.072
       0.920
       0.723
       0.492
       0.252
       0.028
      -0.160
      -0.311
      -0.434
      -0.543
      -0.640
      -0.722
      -0.789
      -0.853
      -0.939
      -1.066
      -1.237
      -1.439
      -1.647
      -1.841
      -2.002
      -2.118
      -2.178
      -2.172
      -2.096
      -1.949
      -1.742
      -1.490
      -1.210
      -0.918
      -0.635
      -0.376
      -0.154
       0.027
       0.171
       0.284
       0.373
       0.446
       0.510
       0.570
       0.626
       0.677
       0.727
       0.782
       0.840
       0.900
       0.964
       1.042
       1.138
       1.235
       1.302
       1.313
       1.276
       1.218
       1.162
       1.110
       1.044
       0.953
       0.839
       0.723
       0.630
       0.578
       0.576
       0.627
       0.728
       0.869
       1.032
       1.195
       1.335
       1.444
       1.520
       1.565
       1.579
       1.557
       1.496
       1.386
       1.216
       0.979
       0.692
       0.391
       0.107
      -0.146
      -0.378
      -0.597
      -0.801
      -0.975
      -1.105
      -1.181
      -1.204
      -1.185
      -1.143
      -1.097
      -1.063
      -1.046
      -1.047
      -1.067
      -1.113
      -1.188
      -1.286
      -1.391
      -1.482
      -1.543
      -1.564
      -1.545
      -1.489
      -1.399
      -1.270
      -1.096
      -0.877
      -0.625
      -0.363
      -0.115
       0.105
       0.294
       0.456
       0.591
       0.697
       0.779
       0.847
       0.915
       0.986
       1.054
       1.115
       1.176
       1.254
       1.359
       1.493
       1.641
       1.782
       1.888
       1.936
       1.908
       1.799
       1.619
       1.384
       1.111
       0.812
       0.493
       0.163
      -0.168
      -0.481
      -0.753
      -0.965
      -1.117
      -1.239
      -1.365
      -1.518
      -1.693
      -1.869
      -2.031
      -2.176
      -2.303
      -2.395
      -2.426
      -2.377
      -2.250
      -2.060
      -1.820
      -1.532
      -1.195
      -0.825
      -0.458
      -0.137
       0.111
       0.283
       0.389
       0.429
       0.390
       0.264
       0.070
      -0.156
      -0.380
      -0.586
      -0.761
      -0.889
      -0.950
      -0.930
      -0.841
      -0.706
      -0.554
      -0.400
      -0.245
      -0.084
       0.079
       0.224
       0.335
       0.418
       0.500
       0.609
       0.751
       0.916
       1.094
       1.282
       1.477
       1.661
       1.813
       1.927
       2.019
       2.113
       2.211
       2.297
       2.347
       2.356
       2.336
       2.301
       2.251
       2.168
       2.031
       1.831
       1.573
       1.279
       0.978
       0.695
       0.439
       0.209
      -0.004
      -0.209
      -0.413
      -0.617
      -0.812
      -0.993
      -1.157
      -1.306
      -1.446
      -1.574
      -1.683
      -1.765
      -1.822
      -1.860
      -1.882
      -1.878
      -1.833
      -1.736
      -1.592
      -1.419
      -1.232
      -1.035
      -0.820
      -0.573
      -0.289
       0.023
       0.339
       0.630
       0.869
       1.046
       1.169
       1.256
       1.322
       1.367
       1.382
       1.365
       1.327
       1.291
       1.279
       1.295
       1.330
       1.361
       1.361
       1.306
       1.181
       0.996
       0.783
       0.585
       0.426
       0.305
       0.202
       0.102
       0.006
      -0.067
      -0.108
      -0.125
      -0.147
      -0.204
      -0.308
      -0.452
      -0.621
      -0.802
      -0.990
      -1.180
      -1.357
      -1.500
      -1.598
      -1.651
      -1.673
      -1.676
      -1.668
      -1.649
      -1.624
      -1.599
      -1.583
      -1.580
      -1.586
      -1.601
      -1.630
      -1.681
      -1.755
      -1.841
      -1.924
      -1.990
      -2.032
      -2.047
      -2.030
      -1.966
      -1.842
      -1.653
      -1.402
      -1.107
      -0.784
      -0.446
      -0.095
       0.271
       0.647
       1.021
       1.375
       1.692
       1.971
       2.215
       2.426
       2.595
       2.712
       2.775
       2.789
       2.766
       2.711
       2.624
       2.510
       2.379
       2.252
       2.138
       2.027
       1.901
       1.748
       1.578
       1.411
       1.258
       1.111
       0.950
       0.770
       0.584
       0.410
       0.258
       0.119
      -0.018
      -0.151
      -0.275
      -0.385
      -0.483
      -0.569
      -0.635
      -0.672
      -0.686
      -0.694
      -0.711
      -0.736
      -0.760
      -0.781
      -0.807
      -0.843
      -0.885
      -0.917
      -0.933
      -0.938
      -0.946
      -0.957
      -0.959
      -0.933
      -0.872
      -0.779
      -0.657
      -0.513
      -0.353
      -0.185
      -0.022
       0.124
       0.239
       0.314
       0.340
       0.321
       0.276
       0.233
       0.210
       0.205
       0.205
       0.201
       0.203
       0.226
       0.278
       0.352
       0.434
       0.510
       0.572
       0.610
       0.614
       0.580
       0.515
       0.439
       0.372
       0.325
       0.298
       0.288
       0.300
       0.337
       0.392
       0.447
       0.481
       0.485
       0.458
       0.400
       0.303
       0.162
      -0.034
      -0.289
      -0.602
      -0.952
      -1.308
      -1.630
      -1.886
      -2.059
      -2.142
      -2.135
      -2.049
      -1.903
      -1.724
      -1.535
      -1.351
      -1.170
      -0.992
      -0.821
      -0.664
      -0.524
      -0.392
      -0.254
      -0.100
       0.063
       0.220
       0.349
       0.430
       0.454
       0.423
       0.357
       0.279
       0.206
       0.139
       0.061
      -0.032
      -0.122
      -0.181
      -0.185
      -0.140
      -0.062
       0.031
       0.134
       0.254
       0.394
       0.555
       0.732
       0.919
       1.104
       1.270
       1.395
       1.460
       1.459
       1.397
       1.293
       1.164
       1.022
       0.877
       0.737
       0.610
       0.509
       0.448
       0.440
       0.489
       0.583
       0.686
       0.764
       0.804
       0.827
       0.866
       0.934
       1.012
       1.065
       1.070
       1.027
       0.950
       0.850
       0.723
       0.556
       0.337
       0.067
      -0.237
      -0.551
      -0.858
      -1.147
      -1.413
      -1.641
      -1.816
      -1.924
      -1.967
      -1.955
      -1.901
      -1.812
      -1.689
      -1.544
      -1.396
      -1.273
      -1.191
      -1.151
      -1.138
      -1.132
      -1.110
      -1.057
      -0.968
      -0.852
      -0.720
      -0.578
      -0.418
      -0.224
       0.012
       0.283
       0.566
       0.831
       1.055
       1.227
       1.347
       1.428
       1.486
       1.535
       1.580
       1.613
       1.625
       1.611
       1.573
       1.509
       1.418
       1.302
       1.173
       1.047
       0.935
       0.834
       0.737
       0.637
       0.534
       0.424
       0.302
       0.162
      -0.007
      -0.212
      -0.451
      -0.716
      -0.987
      -1.237
      -1.438
      -1.568
      -1.623
      -1.616
      -1.564
      -1.475
      -1.348
      -1.194
      -1.035
      -0.899
      -0.798
      -0.722
      -0.656
      -0.596
      -0.556
      -0.549
      -0.573
      -0.603
      -0.599
      -0.538
      -0.425
      -0.294
      -0.184
      -0.110
      -0.066
      -0.034
      -0.002
       0.035
       0.078
       0.128
       0.189
       0.261
       0.343
       0.429
       0.514
       0.594
       0.668
       0.743
       0.826
       0.916
       0.999
       1.061
       1.090
       1.080
       1.028
       0.935
       0.809
       0.664
       0.516
       0.379
       0.267
       0.196
       0.175
       0.201
       0.250
       0.293
       0.310
       0.301
       0.277
       0.254
       0.237
       0.216
       0.178
       0.117
       0.040
      -0.035
      -0.096
      -0.147
      -0.203
      -0.277
      -0.370
      -0.467
      -0.549
      -0.608
      -0.648
      -0.682
      -0.718
      -0.745
      -0.737
      -0.673
      -0.549
      -0.389
      -0.230
      -0.102
      -0.016
       0.033
       0.065
       0.093
       0.118
       0.128
       0.109
       0.067
       0.027
       0.018
       0.051
       0.117
       0.206
       0.312
       0.434
       0.557
       0.657
       0.712
       0.722
       0.712
       0.704
       0.705
       0.705
       0.690
       0.651
       0.592
       0.520
       0.448
       0.387
       0.333
       0.275
       0.195
       0.081
      -0.064
      -0.225
      -0.381
      -0.518
      -0.635
      -0.737
      -0.832
      -0.926
      -1.023
      -1.121
      -1.214
      -1.291
      -1.343
      -1.358
      -1.329
      -1.254
      -1.137
      -0.993
      -0.839
      -0.689
      -0.552
      -0.435
      -0.336
      -0.261
      -0.215
      -0.208
      -0.237
      -0.281
      -0.313
      -0.309
      -0.262
      -0.180
      -0.078
       0.030
       0.137
       0.238
       0.335
       0.435
       0.542
       0.651
       0.754
       0.834
       0.875
       0.876
       0.850
       0.823
       0.817
       0.830
       0.844
       0.841
       0.821
       0.803
       0.805
       0.831
       0.871
       0.909
       0.932
       0.931
       0.900
       0.835
       0.738
       0.613
       0.468
       0.309
       0.142
      -0.034
      -0.220
      -0.419
      -0.625
      -0.823
      -0.993
      -1.120
      -1.202
      -1.256
      -1.302
      -1.345
      -1.380
      -1.395
      -1.389
      -1.375
      -1.367
      -1.370
      -1.377
      -1.376
      -1.355
      -1.309
      -1.235
      -1.126
      -0.981
      -0.804
      -0.601
      -0.373
      -0.118
       0.171
       0.485
       0.805
