Origin Time       29/12/2009 09:01:42 UTC
Lat.              24.5°N	
Long.             94.8°E	
Depth (Km)         80.0
Magnitude         5.5
 Region           MYANMAR-INDIA(MANIPUR)-BORDER                                    
 Above details taken from IMD 
    
Station Code      BON
Station Lat.       26.473  N
Station Long.      90.561  E
Station Height(m)   75.0
Site Class        C   Vs30 between 200 m/sec to 375 m/sec *  
Record Time       29.12.2009 14:33:47.954 UTC
Sampling Rate     200. Hz
 Record Duration   65.005 Sec.
 Direction         N-S (N positive)
Max. Acceleration     -3.433 cm/sec**2
     
  * For reference see Site Classification link of website 
     
 Base Line Corrected and Low Pass Filtered (Cut Off at 35 Hz) Time History
 Acceleration data in cm/sec**2
    
[...]
       0.076
       0.009
      -0.042
      -0.081
      -0.118
      -0.161
      -0.213
      -0.264
      -0.304
      -0.316
      -0.291
      -0.235
      -0.168
      -0.117
      -0.095
      -0.095
      -0.095
      -0.078
      -0.041
       0.004
       0.042
       0.066
       0.087
       0.121
       0.176
       0.242
       0.300
       0.333
       0.338
       0.323
       0.292
       0.241
       0.172
       0.100
       0.052
       0.042
       0.054
       0.057
       0.030
      -0.022
      -0.075
      -0.111
      -0.129
      -0.139
      -0.141
      -0.124
      -0.082
      -0.024
       0.031
       0.069
       0.085
       0.082
       0.059
       0.016
      -0.045
      -0.117
      -0.197
      -0.294
      -0.419
      -0.568
      -0.715
      -0.819
      -0.855
      -0.826
      -0.764
      -0.699
      -0.639
      -0.573
      -0.490
      -0.391
      -0.288
      -0.188
      -0.090
       0.010
       0.119
       0.237
       0.359
       0.475
       0.566
       0.607
       0.579
       0.481
       0.334
       0.174
       0.036
      -0.062
      -0.117
      -0.136
      -0.127
      -0.097
      -0.051
       0.006
       0.066
       0.119
       0.161
       0.190
       0.215
       0.243
       0.276
       0.312
       0.345
       0.371
       0.397
       0.427
       0.465
       0.506
       0.543
       0.567
       0.576
       0.568
       0.544
       0.504
       0.447
       0.371
       0.278
       0.169
       0.049
      -0.081
      -0.213
      -0.333
      -0.424
      -0.472
      -0.481
      -0.467
      -0.455
      -0.457
      -0.469
      -0.476
      -0.471
      -0.458
      -0.452
      -0.462
      -0.487
      -0.514
      -0.529
      -0.516
      -0.461
      -0.353
      -0.195
      -0.006
       0.181
       0.338
       0.455
       0.540
       0.599
       0.628
       0.611
       0.546
       0.448
       0.345
       0.256
       0.178
       0.102
       0.025
      -0.040
      -0.079
      -0.093
      -0.094
      -0.097
      -0.103
      -0.099
      -0.067
      -0.002
       0.089
       0.187
       0.272
       0.331
       0.363
       0.371
       0.360
       0.333
       0.293
       0.248
       0.214
       0.200
       0.200
       0.190
       0.142
       0.042
      -0.106
      -0.282
      -0.462
      -0.625
      -0.756
      -0.849
      -0.903
      -0.927
      -0.928
      -0.913
      -0.881
      -0.830
      -0.756
      -0.656
      -0.538
      -0.415
      -0.300
      -0.197
      -0.098
       0.009
       0.130
       0.265
       0.411
       0.563
       0.715
       0.852
       0.958
       1.019
       1.028
       0.988
       0.907
       0.794
       0.655
       0.497
       0.331
       0.174
       0.043
      -0.057
      -0.135
      -0.208
      -0.290
      -0.379
      -0.457
      -0.500
      -0.485
      -0.406
      -0.279
      -0.135
      -0.011
       0.065
       0.080
       0.036
      -0.056
      -0.174
      -0.287
      -0.366
      -0.401
      -0.399
      -0.381
      -0.353
      -0.305
      -0.220
      -0.094
       0.053
       0.196
       0.317
       0.418
       0.506
       0.587
       0.655
       0.695
       0.697
       0.649
       0.543
       0.370
       0.137
      -0.129
      -0.383
      -0.581
      -0.698
      -0.735
      -0.718
      -0.678
      -0.642
      -0.620
      -0.615
      -0.619
      -0.627
      -0.631
      -0.632
      -0.633
      -0.637
      -0.643
      -0.650
      -0.655
      -0.657
      -0.651
      -0.627
      -0.576
      -0.492
      -0.373
      -0.228
      -0.069
       0.090
       0.245
       0.395
       0.535
       0.650
       0.718
       0.727
       0.689
       0.638
       0.610
       0.632
       0.705
       0.806
       0.904
       0.972
       0.998
       0.987
       0.959
       0.932
       0.915
       0.902
       0.885
       0.857
       0.819
       0.769
       0.704
       0.623
       0.528
       0.430
       0.339
       0.255
       0.170
       0.074
      -0.033
      -0.140
      -0.226
      -0.274
      -0.283
      -0.266
      -0.250
      -0.255
      -0.294
      -0.358
      -0.422
      -0.449
      -0.404
      -0.280
      -0.102
       0.086
       0.243
       0.361
       0.457
       0.559
       0.680
       0.813
       0.940
       1.040
       1.095
       1.097
       1.042
       0.935
       0.790
       0.626
       0.467
       0.330
       0.223
       0.148
       0.108
       0.105
       0.137
       0.191
       0.241
       0.258
       0.221
       0.129
      -0.008
      -0.172
      -0.338
      -0.478
      -0.569
      -0.602
      -0.592
      -0.568
      -0.554
      -0.565
      -0.605
      -0.668
      -0.746
      -0.820
      -0.875
      -0.905
      -0.922
      -0.947
      -0.986
      -1.025
      -1.043
      -1.027
      -0.994
      -0.974
      -0.991
      -1.042
      -1.097
      -1.114
      -1.067
      -0.965
      -0.847
      -0.762
      -0.744
      -0.798
      -0.902
      -1.029
      -1.156
      -1.265
      -1.338
      -1.364
      -1.343
      -1.286
      -1.215
      -1.147
      -1.092
      -1.049
      -1.007
      -0.949
      -0.857
      -0.721
      -0.552
      -0.373
      -0.213
      -0.085
       0.014
       0.097
       0.174
       0.236
       0.266
       0.251
       0.201
       0.138
       0.091
       0.077
       0.102
       0.162
       0.246
       0.337
       0.409
       0.450
       0.466
       0.484
       0.526
       0.594
       0.665
       0.722
       0.765
       0.816
       0.894
       1.007
       1.141
       1.277
       1.400
       1.508
       1.603
       1.687
       1.757
       1.810
       1.842
       1.853
       1.850
       1.844
       1.845
       1.856
       1.869
       1.868
       1.832
       1.749
       1.618
       1.446
       1.247
       1.028
       0.798
       0.570
       0.365
       0.210
       0.118
       0.083
       0.076
       0.061
       0.014
      -0.065
      -0.159
      -0.236
      -0.267
      -0.232
      -0.128
       0.037
       0.241
       0.454
       0.643
       0.769
       0.804
       0.733
       0.559
       0.307
       0.002
      -0.333
      -0.682
      -1.028
      -1.347
      -1.604
      -1.765
      -1.808
      -1.730
      -1.548
      -1.288
      -0.972
      -0.613
      -0.220
       0.188
       0.569
       0.873
       1.062
       1.128
       1.086
       0.966
       0.797
       0.610
       0.443
       0.324
       0.257
       0.219
       0.173
       0.097
      -0.011
      -0.147
      -0.317
      -0.541
      -0.828
      -1.172
      -1.546
      -1.923
      -2.281
      -2.597
      -2.839
      -2.974
      -2.980
      -2.862
      -2.643
      -2.349
      -1.998
      -1.603
      -1.186
      -0.776
      -0.409
      -0.113
       0.096
       0.211
       0.233
       0.164
       0.018
      -0.185
      -0.416
      -0.647
      -0.858
      -1.041
      -1.194
      -1.307
      -1.356
      -1.319
      -1.188
      -0.989
      -0.780
      -0.622
      -0.545
      -0.534
      -0.544
      -0.530
      -0.483
      -0.422
      -0.376
      -0.344
      -0.302
      -0.218
      -0.073
       0.128
       0.375
       0.654
       0.947
       1.227
       1.464
       1.636
       1.736
       1.758
       1.698
       1.549
       1.320
       1.045
       0.771
       0.537
       0.364
       0.246
       0.172
       0.134
       0.130
       0.160
       0.218
       0.301
       0.409
       0.542
       0.693
       0.847
       0.984
       1.088
       1.155
       1.192
       1.207
       1.203
       1.178
       1.136
       1.096
       1.094
       1.167
       1.343
       1.615
       1.947
       2.279
       2.551
       2.720
       2.774
       2.727
       2.604
       2.432
       2.223
       1.979
       1.698
       1.372
       1.000
       0.582
       0.129
      -0.335
      -0.778
      -1.164
      -1.474
      -1.708
      -1.879
      -1.999
      -2.077
      -2.116
      -2.119
      -2.087
      -2.019
      -1.916
      -1.788
      -1.647
      -1.504
      -1.358
      -1.202
      -1.034
      -0.861
      -0.698
      -0.552
      -0.422
      -0.313
      -0.244
      -0.249
      -0.354
      -0.550
      -0.789
      -1.006
      -1.143
      -1.176
      -1.111
      -0.965
      -0.755
      -0.491
      -0.185
       0.146
       0.479
       0.791
       1.069
       1.301
       1.471
       1.556
       1.530
       1.384
       1.139
       0.845
       0.565
       0.350
       0.224
       0.184
       0.218
       0.325
       0.507
       0.752
       1.024
       1.266
       1.425
       1.472
       1.411
       1.263
       1.039
       0.732
       0.318
      -0.215
      -0.848
      -1.526
      -2.166
      -2.687
      -3.034
      -3.185
      -3.150
      -2.959
      -2.647
      -2.243
      -1.771
      -1.256
      -0.735
      -0.248
       0.161
       0.468
       0.671
       0.787
       0.846
       0.882
       0.924
       0.983
       1.043
       1.065
       1.006
       0.852
       0.632
       0.409
       0.245
       0.163
       0.142
       0.134
       0.097
       0.015
      -0.110
      -0.263
      -0.428
      -0.592
      -0.744
      -0.883
      -1.007
      -1.112
      -1.182
      -1.195
      -1.130
      -0.987
      -0.784
      -0.556
      -0.340
      -0.173
      -0.085
      -0.100
      -0.221
      -0.428
      -0.679
      -0.915
      -1.090
      -1.184
      -1.197
      -1.142
      -1.033
      -0.886
      -0.723
      -0.578
      -0.481
      -0.448
      -0.469
      -0.525
      -0.595
      -0.667
      -0.732
      -0.769
      -0.749
      -0.650
      -0.475
      -0.262
      -0.063
       0.089
       0.198
       0.301
       0.438
       0.625
       0.848
       1.082
       1.301
       1.489
       1.635
       1.734
       1.784
       1.796
       1.784
       1.761
       1.734
       1.709
       1.699
       1.723
       1.799
       1.937
       2.134
       2.371
       2.619
       2.840
       2.997
       3.066
       3.043
       2.941
       2.770
       2.527
       2.210
       1.838
       1.461
       1.142
       0.927
       0.824
       0.809
       0.847
       0.906
       0.953
       0.952
       0.874
       0.709
       0.473
       0.197
      -0.093
      -0.388
      -0.689
      -0.991
      -1.279
      -1.531
      -1.733
      -1.880
      -1.981
      -2.047
      -2.093
      -2.126
      -2.149
      -2.163
      -2.173
      -2.193
      -2.237
      -2.302
      -2.364
      -2.383
      -2.326
      -2.181
      -1.959
      -1.683
      -1.365
      -1.005
      -0.593
      -0.135
       0.343
       0.797
       1.178
       1.444
       1.567
       1.534
       1.350
       1.050
       0.686
       0.319
      -0.009
      -0.288
      -0.536
      -0.784
      -1.049
      -1.318
      -1.546
      -1.689
      -1.727
      -1.682
      -1.601
      -1.516
      -1.416
      -1.255
      -0.994
      -0.635
      -0.224
       0.177
       0.524
       0.794
       0.972
       1.035
       0.950
       0.707
       0.336
      -0.087
      -0.478
      -0.774
      -0.958
      -1.055
      -1.106
      -1.147
      -1.195
      -1.240
      -1.260
      -1.236
      -1.166
      -1.075
      -0.997
      -0.962
      -0.970
      -0.991
      -0.980
      -0.898
      -0.733
      -0.500
      -0.226
       0.057
       0.322
       0.543
       0.706
       0.814
       0.894
       0.990
       1.131
       1.314
       1.505
       1.654
       1.729
       1.717
       1.630
       1.489
       1.321
       1.157
       1.030
       0.959
       0.948
       0.983
       1.035
       1.076
       1.093
       1.086
       1.066
       1.047
       1.041
       1.056
       1.099
       1.163
       1.231
       1.277
       1.274
       1.199
       1.042
       0.812
       0.541
       0.278
       0.077
      -0.029
      -0.037
       0.016
       0.072
       0.076
      -0.005
      -0.171
      -0.405
      -0.675
      -0.940
      -1.147
      -1.239
      -1.165
      -0.907
      -0.496
      -0.005
       0.471
       0.863
       1.136
       1.290
       1.337
       1.286
       1.155
       0.978
       0.804
       0.681
       0.630
       0.637
       0.662
       0.657
       0.590
       0.449
       0.248
       0.030
      -0.150
      -0.248
      -0.255
      -0.199
      -0.132
      -0.093
      -0.102
      -0.163
      -0.279
      -0.459
      -0.708
      -1.010
      -1.336
      -1.655
      -1.946
      -2.206
      -2.439
      -2.651
      -2.838
      -2.982
      -3.057
      -3.042
      -2.938
      -2.768
      -2.562
      -2.337
      -2.089
      -1.800
      -1.453
      -1.047
      -0.590
      -0.095
       0.428
       0.968
       1.500
       1.991
       2.401
       2.700
       2.867
       2.892
       2.783
       2.578
       2.341
       2.132
       1.974
       1.842
       1.691
       1.504
       1.303
       1.129
       1.005
       0.926
       0.876
       0.845
       0.825
       0.797
       0.729
       0.590
       0.363
       0.056
      -0.317
      -0.751
      -1.243
      -1.785
      -2.343
      -2.855
      -3.241
      -3.433
      -3.407
      -3.199
      -2.889
      -2.565
      -2.284
      -2.065
      -1.900
      -1.781
      -1.704
      -1.657
      -1.604
      -1.496
      -1.303
      -1.037
      -0.745
      -0.474
      -0.235
      -0.004
       0.251
       0.546
       0.880
       1.238
       1.611
       1.992
       2.371
       2.725
       3.019
       3.215
       3.284
       3.215
       3.020
       2.723
       2.358
       1.947
       1.500
       1.026
       0.541
       0.081
      -0.301
      -0.563
      -0.689
      -0.695
      -0.622
      -0.503
      -0.355
      -0.187
      -0.018
       0.124
       0.217
       0.272
       0.329
       0.418
       0.528
       0.603
       0.578
       0.427
       0.170
      -0.154
      -0.520
      -0.922
      -1.351
      -1.758
      -2.071
      -2.227
      -2.216
      -2.080
      -1.880
      -1.657
      -1.418
      -1.157
      -0.879
      -0.608
      -0.371
      -0.173
       0.003
       0.185
       0.386
       0.595
       0.783
       0.924
       1.007
       1.035
       1.021
       0.973
       0.902
       0.830
       0.789
       0.816
       0.938
       1.152
       1.431
       1.726
       1.989
       2.177
       2.263
       2.243
       2.134
       1.966
       1.763
       1.531
       1.261
       0.943
       0.584
       0.203
      -0.165
      -0.489
      -0.731
      -0.854
      -0.829
      -0.649
      -0.352
      -0.009
       0.301
       0.528
       0.662
       0.715
       0.696
       0.601
       0.439
       0.256
       0.119
       0.085
       0.154
       0.264
       0.328
       0.293
       0.162
      -0.021
      -0.210
      -0.382
      -0.532
      -0.658
      -0.748
      -0.794
      -0.809
      -0.829
      -0.896
      -1.026
      -1.198
      -1.374
      -1.516
      -1.605
      -1.636
      -1.613
      -1.541
      -1.430
      -1.298
      -1.170
      -1.062
      -0.979
      -0.903
      -0.820
      -0.732
      -0.671
      -0.676
      -0.771
      -0.947
      -1.180
      -1.441
      -1.708
      -1.964
      -2.184
      -2.337
      -2.398
      -2.361
      -2.234
      -2.025
      -1.747
      -1.418
      -1.076
      -0.762
      -0.507
      -0.313
      -0.161
      -0.025
       0.101
       0.206
       0.285
       0.351
       0.439
       0.573
       0.745
       0.919
       1.057
       1.140
       1.174
       1.183
       1.194
       1.225
       1.284
       1.370
       1.489
       1.646
       1.847
       2.071
       2.271
       2.385
       2.371
       2.226
       1.992
       1.725
       1.462
       1.200
       0.910
       0.569
       0.198
      -0.146
      -0.392
      -0.507
      -0.506
      -0.437
      -0.338
      -0.218
      -0.071
       0.094
       0.246
       0.344
       0.363
       0.305
       0.196
       0.064
      -0.067
      -0.180
      -0.248
      -0.245
      -0.152
       0.020
       0.233
       0.424
       0.533
       0.536
       0.460
       0.371
       0.335
       0.375
       0.469
       0.568
       0.639
       0.673
       0.691
       0.713
       0.743
       0.766
       0.751
       0.672
       0.507
       0.246
      -0.106
      -0.517
      -0.928
      -1.270
      -1.489
      -1.567
      -1.517
      -1.368
      -1.147
      -0.882
      -0.604
      -0.343
      -0.118
       0.072
       0.240
       0.394
       0.526
       0.611
       0.628
       0.581
       0.505
       0.451
       0.452
       0.505
       0.572
       0.608
       0.589
       0.525
       0.439
       0.352
       0.266
       0.173
       0.066
      -0.058
      -0.193
      -0.329
      -0.459
      -0.570
      -0.648
      -0.680
      -0.660
      -0.595
      -0.497
      -0.375
      -0.230
      -0.055
       0.141
       0.323
       0.434
       0.416
       0.246
      -0.047
      -0.392
      -0.709
      -0.950
      -1.114
      -1.239
      -1.365
      -1.507
      -1.654
      -1.782
      -1.880
      -1.955
      -2.006
      -2.017
      -1.959
      -1.819
      -1.606
      -1.343
      -1.029
      -0.637
      -0.144
       0.419
       0.967
       1.389
       1.618
       1.651
       1.543
       1.364
       1.167
       0.978
       0.817
       0.704
       0.652
       0.656
       0.686
       0.697
       0.657
       0.571
       0.475
       0.401
       0.357
       0.310
       0.214
       0.034
      -0.222
      -0.504
      -0.742
      -0.872
      -0.877
      -0.787
      -0.665
      -0.567
      -0.512
      -0.478
      -0.423
      -0.310
      -0.137
       0.065
       0.245
       0.361
       0.406
       0.405
       0.396
       0.403
       0.421
       0.428
       0.405
       0.347
       0.271
       0.208
       0.202
       0.292
       0.493
       0.781
       1.093
       1.360
       1.536
       1.621
       1.635
       1.596
       1.502
       1.348
       1.138
       0.898
       0.652
       0.415
       0.187
      -0.022
      -0.188
      -0.287
      -0.323
      -0.334
      -0.370
      -0.456
      -0.581
      -0.714
      -0.823
      -0.887
      -0.898
      -0.862
      -0.799
      -0.745
      -0.734
      -0.773
      -0.834
      -0.872
      -0.846
      -0.747
      -0.599
      -0.444
      -0.324
      -0.256
      -0.232
      -0.227
      -0.208
      -0.148
      -0.045
       0.089
       0.229
       0.360
       0.474
       0.571
       0.649
       0.709
       0.762
       0.828
       0.915
       1.000
       1.037
       0.996
       0.891
       0.766
       0.659
       0.569
       0.456
       0.278
       0.026
      -0.283
      -0.623
      -0.980
      -1.334
      -1.643
      -1.837
      -1.849
      -1.670
