Origin Time       11/8/2009 21:43:39 
Lat.              24.4 N 
Long.             94.8 E 
Depth (Km)         22.0
Magnitude         5.6
 Region           MYANMAR-INDIA(MANIPUR)BORDER                                     
 Above details taken from IMD 
     
Station Code      BON
Station Lat.       26.473  N
Station Long.      90.561  E
Station Height(m)   75.0
Site Class        C   Vs30 between 200 m/sec to 375 m/sec *  
Record Time       12.08.2009 03:15:38.914
Sampling Rate     200. Hz
 Record Duration   69.005 Sec.
 Direction         E-W (E positive)
Max. Acceleration     -8.547 cm/sec**2
     
  * For reference see Site Classification link of website 
     
 Base Line Corrected and Low Pass Filtered (Cut Off at 35 Hz) Time History
 Acceleration data in cm/sec**2
    
[...]
      -0.410
      -0.494
      -0.524
      -0.508
      -0.463
      -0.405
      -0.340
      -0.268
      -0.187
      -0.105
      -0.040
      -0.013
      -0.039
      -0.120
      -0.233
      -0.345
      -0.412
      -0.407
      -0.325
      -0.186
      -0.027
       0.121
       0.242
       0.335
       0.409
       0.470
       0.518
       0.553
       0.572
       0.581
       0.591
       0.612
       0.648
       0.690
       0.721
       0.722
       0.690
       0.632
       0.567
       0.506
       0.455
       0.408
       0.355
       0.283
       0.178
       0.031
      -0.155
      -0.353
      -0.520
      -0.617
      -0.628
      -0.568
      -0.471
      -0.369
      -0.275
      -0.186
      -0.095
      -0.007
       0.062
       0.092
       0.075
       0.024
      -0.036
      -0.077
      -0.082
      -0.047
       0.012
       0.073
       0.111
       0.117
       0.097
       0.072
       0.061
       0.072
       0.098
       0.125
       0.142
       0.143
       0.122
       0.077
       0.009
      -0.068
      -0.127
      -0.146
      -0.117
      -0.059
      -0.013
      -0.016
      -0.083
      -0.191
      -0.297
      -0.357
      -0.355
      -0.301
      -0.222
      -0.139
      -0.060
       0.020
       0.098
       0.161
       0.190
       0.175
       0.120
       0.045
      -0.030
      -0.092
      -0.131
      -0.143
      -0.125
      -0.077
      -0.006
       0.077
       0.163
       0.239
       0.296
       0.322
       0.314
       0.281
       0.246
       0.233
       0.256
       0.310
       0.370
       0.411
       0.417
       0.386
       0.335
       0.287
       0.258
       0.251
       0.256
       0.253
       0.227
       0.174
       0.098
       0.012
      -0.076
      -0.162
      -0.246
      -0.328
      -0.402
      -0.465
      -0.519
      -0.568
      -0.613
      -0.651
      -0.667
      -0.651
      -0.602
      -0.536
      -0.473
      -0.424
      -0.387
      -0.356
      -0.332
      -0.327
      -0.354
      -0.412
      -0.480
      -0.528
      -0.534
      -0.499
      -0.444
      -0.394
      -0.361
      -0.337
      -0.302
      -0.241
      -0.155
      -0.061
       0.023
       0.096
       0.169
       0.257
       0.370
       0.503
       0.641
       0.763
       0.852
       0.900
       0.914
       0.905
       0.889
       0.876
       0.863
       0.837
       0.780
       0.678
       0.527
       0.339
       0.138
      -0.044
      -0.178
      -0.249
      -0.262
      -0.246
      -0.237
      -0.267
      -0.344
      -0.453
      -0.560
      -0.631
      -0.650
      -0.627
      -0.586
      -0.551
      -0.528
      -0.509
      -0.486
      -0.462
      -0.448
      -0.453
      -0.466
      -0.458
      -0.391
      -0.252
      -0.056
       0.163
       0.367
       0.535
       0.663
       0.759
       0.831
       0.885
       0.926
       0.952
       0.954
       0.921
       0.850
       0.756
       0.670
       0.628
       0.648
       0.728
       0.839
       0.940
       0.993
       0.976
       0.884
       0.728
       0.527
       0.298
       0.052
      -0.210
      -0.488
      -0.770
      -1.032
      -1.243
      -1.378
      -1.435
      -1.436
      -1.412
      -1.388
      -1.370
      -1.349
      -1.316
      -1.268
      -1.204
      -1.122
      -1.015
      -0.881
      -0.731
      -0.588
      -0.469
      -0.373
      -0.276
      -0.146
       0.032
       0.248
       0.478
       0.701
       0.912
       1.107
       1.272
       1.376
       1.392
       1.310
       1.149
       0.944
       0.725
       0.513
       0.324
       0.174
       0.082
       0.059
       0.100
       0.185
       0.286
       0.377
       0.445
       0.488
       0.509
       0.509
       0.487
       0.441
       0.374
       0.296
       0.219
       0.152
       0.091
       0.018
      -0.093
      -0.259
      -0.472
      -0.703
      -0.918
      -1.087
      -1.194
      -1.226
      -1.174
      -1.042
      -0.858
      -0.669
      -0.518
      -0.431
      -0.411
      -0.442
      -0.501
      -0.571
      -0.629
      -0.658
      -0.641
      -0.577
      -0.484
      -0.382
      -0.288
      -0.198
      -0.100
       0.012
       0.130
       0.241
       0.332
       0.398
       0.440
       0.461
       0.466
       0.466
       0.479
       0.524
       0.610
       0.726
       0.837
       0.901
       0.887
       0.794
       0.648
       0.490
       0.353
       0.258
       0.210
       0.209
       0.245
       0.296
       0.333
       0.331
       0.277
       0.173
       0.037
      -0.107
      -0.239
      -0.343
      -0.408
      -0.439
      -0.453
      -0.474
      -0.521
      -0.593
      -0.671
      -0.732
      -0.754
      -0.723
      -0.635
      -0.495
      -0.318
      -0.126
       0.061
       0.234
       0.395
       0.546
       0.678
       0.770
       0.795
       0.737
       0.602
       0.417
       0.222
       0.050
      -0.083
      -0.181
      -0.255
      -0.318
      -0.379
      -0.445
      -0.519
      -0.602
      -0.686
      -0.759
      -0.804
      -0.811
      -0.779
      -0.715
      -0.632
      -0.537
      -0.436
      -0.335
      -0.245
      -0.181
      -0.149
      -0.139
      -0.119
      -0.049
       0.093
       0.300
       0.541
       0.775
       0.980
       1.154
       1.314
       1.471
       1.623
       1.748
       1.816
       1.800
       1.694
       1.513
       1.289
       1.054
       0.830
       0.619
       0.411
       0.194
      -0.033
      -0.251
      -0.428
      -0.530
      -0.545
      -0.484
      -0.385
      -0.298
      -0.264
      -0.304
      -0.410
      -0.556
      -0.701
      -0.809
      -0.858
      -0.843
      -0.781
      -0.702
      -0.638
      -0.612
      -0.630
      -0.685
      -0.762
      -0.838
      -0.887
      -0.885
      -0.808
      -0.643
      -0.397
      -0.098
       0.210
       0.478
       0.663
       0.738
       0.706
       0.603
       0.479
       0.376
       0.305
       0.246
       0.174
       0.074
      -0.044
      -0.161
      -0.260
      -0.341
      -0.407
      -0.461
      -0.499
      -0.516
      -0.512
      -0.493
      -0.465
      -0.432
      -0.398
      -0.370
      -0.364
      -0.398
      -0.487
      -0.629
      -0.805
      -0.983
      -1.126
      -1.194
      -1.159
      -1.014
      -0.785
      -0.524
      -0.279
      -0.078
       0.088
       0.240
       0.392
       0.537
       0.660
       0.753
       0.833
       0.932
       1.078
       1.279
       1.520
       1.770
       1.997
       2.178
       2.310
       2.403
       2.480
       2.557
       2.635
       2.686
       2.657
       2.502
       2.211
       1.822
       1.405
       1.020
       0.680
       0.345
      -0.047
      -0.540
      -1.130
      -1.771
      -2.398
      -2.957
      -3.421
      -3.789
      -4.071
      -4.284
      -4.447
      -4.568
      -4.645
      -4.658
      -4.577
      -4.383
      -4.080
      -3.702
      -3.294
      -2.888
      -2.485
      -2.061
      -1.591
      -1.072
      -0.525
       0.017
       0.533
       1.021
       1.490
       1.941
       2.367
       2.755
       3.096
       3.392
       3.653
       3.888
       4.103
       4.299
       4.464
       4.570
       4.575
       4.444
       4.168
       3.779
       3.336
       2.902
       2.513
       2.175
       1.874
       1.604
       1.372
       1.192
       1.058
       0.940
       0.796
       0.596
       0.338
       0.049
      -0.223
      -0.422
      -0.498
      -0.428
      -0.233
       0.023
       0.249
       0.364
       0.332
       0.163
      -0.110
      -0.461
      -0.883
      -1.371
      -1.907
      -2.441
      -2.906
      -3.245
      -3.433
      -3.493
      -3.487
      -3.487
      -3.539
      -3.637
      -3.733
      -3.757
      -3.650
      -3.386
      -2.983
      -2.493
      -1.979
      -1.491
      -1.056
      -0.676
      -0.340
      -0.033
       0.256
       0.535
       0.800
       1.046
       1.263
       1.447
       1.595
       1.705
       1.771
       1.778
       1.707
       1.549
       1.322
       1.070
       0.848
       0.694
       0.602
       0.529
       0.424
       0.264
       0.070
      -0.100
      -0.187
      -0.161
      -0.032
       0.158
       0.356
       0.522
       0.637
       0.706
       0.754
       0.814
       0.917
       1.082
       1.315
       1.604
       1.919
       2.212
       2.430
       2.522
       2.463
       2.263
       1.965
       1.619
       1.260
       0.890
       0.481
       0.000
      -0.561
      -1.173
      -1.788
      -2.369
      -2.910
      -3.430
      -3.945
      -4.451
      -4.915
      -5.291
      -5.531
      -5.590
      -5.436
      -5.061
      -4.497
      -3.818
      -3.121
      -2.496
      -1.996
      -1.628
      -1.362
      -1.154
      -0.956
      -0.720
      -0.406
       0.014
       0.550
       1.186
       1.896
       2.649
       3.415
       4.158
       4.833
       5.395
       5.819
       6.114
       6.325
       6.504
       6.680
       6.836
       6.918
       6.864
       6.628
       6.197
       5.587
       4.835
       3.996
       3.131
       2.302
       1.550
       0.877
       0.249
      -0.387
      -1.070
      -1.801
      -2.544
      -3.254
      -3.900
      -4.472
      -4.970
      -5.389
      -5.718
      -5.941
      -6.046
      -6.032
      -5.907
      -5.688
      -5.397
      -5.050
      -4.659
      -4.234
      -3.788
      -3.341
      -2.913
      -2.510
      -2.119
      -1.713
      -1.259
      -0.736
      -0.145
       0.495
       1.157
       1.810
       2.426
       2.978
       3.445
       3.813
       4.078
       4.244
       4.321
       4.321
       4.263
       4.161
       4.021
       3.837
       3.602
       3.314
       2.982
       2.629
       2.273
       1.924
       1.576
       1.207
       0.800
       0.356
      -0.102
      -0.536
      -0.916
      -1.227
      -1.469
      -1.649
      -1.783
      -1.898
      -2.033
      -2.232
      -2.509
      -2.834
      -3.139
      -3.353
      -3.438
      -3.402
      -3.276
      -3.090
      -2.846
      -2.526
      -2.103
      -1.572
      -0.962
      -0.331
       0.255
       0.744
       1.112
       1.364
       1.521
       1.613
       1.668
       1.702
       1.719
       1.712
       1.655
       1.512
       1.245
       0.829
       0.267
      -0.408
      -1.130
      -1.820
      -2.403
      -2.822
      -3.038
      -3.034
      -2.819
      -2.442
      -1.988
      -1.563
      -1.257
      -1.109
      -1.103
      -1.181
      -1.267
      -1.287
      -1.177
      -0.891
      -0.412
       0.243
       1.018
       1.826
       2.563
       3.133
       3.465
       3.530
       3.348
       2.983
       2.531
       2.086
       1.714
       1.441
       1.258
       1.144
       1.090
       1.091
       1.145
       1.243
       1.373
       1.521
       1.669
       1.794
       1.876
       1.916
       1.936
       1.974
       2.054
       2.164
       2.257
       2.279
       2.202
       2.038
       1.825
       1.597
       1.363
       1.112
       0.834
       0.533
       0.218
      -0.119
      -0.499
      -0.943
      -1.444
      -1.967
      -2.472
      -2.944
      -3.401
      -3.871
      -4.361
      -4.826
      -5.185
      -5.353
      -5.282
      -4.989
      -4.541
      -4.027
      -3.510
      -3.002
      -2.478
      -1.900
      -1.255
      -0.572
       0.096
       0.705
       1.252
       1.767
       2.294
       2.850
       3.405
       3.888
       4.210
       4.299
       4.121
       3.681
       3.013
       2.177
       1.255
       0.352
      -0.421
      -0.976
      -1.289
      -1.412
      -1.448
      -1.502
      -1.633
      -1.847
      -2.116
      -2.413
      -2.728
      -3.055
      -3.367
      -3.613
      -3.733
      -3.692
      -3.502
      -3.219
      -2.893
      -2.531
      -2.076
      -1.444
      -0.586
       0.476
       1.649
       2.819
       3.894
       4.825
       5.590
       6.174
       6.571
       6.782
       6.829
       6.736
       6.526
       6.207
       5.778
       5.236
       4.589
       3.855
       3.056
       2.213
       1.339
       0.435
      -0.491
      -1.411
      -2.277
      -3.021
      -3.589
      -3.957
      -4.148
      -4.219
      -4.229
      -4.209
      -4.152
      -4.034
      -3.850
      -3.637
      -3.461
      -3.371
      -3.367
      -3.403
      -3.415
      -3.354
      -3.201
      -2.949
      -2.593
      -2.118
      -1.512
      -0.784
       0.027
       0.849
       1.587
       2.153
       2.481
       2.545
       2.367
       2.012
       1.576
       1.149
       0.791
       0.526
       0.349
       0.247
       0.214
       0.258
       0.403
       0.679
       1.102
       1.659
       2.311
       3.000
       3.669
       4.269
       4.752
       5.080
       5.228
       5.200
       5.029
       4.766
       4.454
       4.115
       3.750
       3.352
       2.922
       2.475
       2.029
       1.588
       1.130
       0.597
      -0.083
      -0.970
      -2.075
      -3.346
      -4.676
      -5.941
      -7.027
      -7.855
      -8.372
      -8.547
      -8.378
      -7.906
      -7.228
      -6.478
      -5.793
      -5.271
      -4.941
      -4.775
      -4.700
      -4.629
      -4.477
      -4.172
      -3.660
      -2.919
      -1.960
      -0.817
       0.453
       1.778
       3.063
       4.192
       5.044
       5.525
       5.597
       5.290
       4.687
       3.891
       3.015
       2.171
       1.467
       0.994
       0.812
       0.934
       1.329
       1.922
       2.611
       3.275
       3.797
       4.082
       4.065
       3.731
       3.111
       2.280
       1.337
       0.377
      -0.523
      -1.309
      -1.949
      -2.426
      -2.736
      -2.888
      -2.906
      -2.825
      -2.682
      -2.511
      -2.336
      -2.167
      -1.999
      -1.824
      -1.637
      -1.444
      -1.263
      -1.104
      -0.964
      -0.823
      -0.658
      -0.456
      -0.219
       0.041
       0.321
       0.631
       0.997
       1.441
       1.964
       2.531
       3.080
       3.535
       3.827
       3.917
       3.808
       3.556
       3.264
       3.037
       2.944
       2.978
       3.071
       3.129
       3.084
       2.912
       2.619
       2.219
       1.716
       1.115
       0.447
      -0.222
      -0.797
      -1.188
      -1.337
      -1.238
      -0.928
      -0.476
       0.030
       0.493
       0.819
       0.940
       0.841
       0.573
       0.236
      -0.069
      -0.272
      -0.360
      -0.356
      -0.296
      -0.214
      -0.140
      -0.106
      -0.141
      -0.263
      -0.471
      -0.757
      -1.111
      -1.525
      -1.982
      -2.456
      -2.913
      -3.318
      -3.633
      -3.818
      -3.828
      -3.628
      -3.215
      -2.632
      -1.959
      -1.293
      -0.724
      -0.327
      -0.158
      -0.256
      -0.627
      -1.228
      -1.962
      -2.689
      -3.258
      -3.533
      -3.438
      -2.973
      -2.229
      -1.355
      -0.519
       0.144
       0.557
       0.711
       0.642
       0.418
       0.114
      -0.195
      -0.452
      -0.617
      -0.675
      -0.627
      -0.480
      -0.246
       0.067
       0.449
       0.890
       1.373
       1.884
       2.404
       2.912
       3.377
       3.764
       4.037
       4.167
       4.137
       3.942
       3.598
       3.139
       2.616
       2.077
       1.559
       1.075
       0.624
       0.190
      -0.242
      -0.677
      -1.104
      -1.499
      -1.843
      -2.128
      -2.357
      -2.525
      -2.612
      -2.585
      -2.417
      -2.117
      -1.731
      -1.331
      -0.982
      -0.735
      -0.628
      -0.698
      -0.973
      -1.445
      -2.044
      -2.646
      -3.112
      -3.345
      -3.320
      -3.083
      -2.720
      -2.313
      -1.921
      -1.559
      -1.216
      -0.874
      -0.526
      -0.185
       0.126
       0.395
       0.629
       0.853
       1.099
       1.400
       1.787
       2.286
       2.914
       3.660
       4.468
       5.241
       5.864
       6.233
       6.282
       5.994
       5.403
       4.583
       3.632
       2.664
       1.799
       1.158
       0.843
       0.911
       1.346
       2.044
       2.838
       3.542
       3.996
       4.102
       3.831
       3.225
       2.385
       1.445
       0.543
      -0.215
      -0.770
      -1.118
      -1.290
      -1.339
      -1.322
      -1.286
      -1.261
      -1.255
      -1.263
      -1.276
      -1.301
      -1.366
      -1.506
      -1.737
      -2.034
      -2.328
      -2.542
      -2.624
      -2.573
      -2.429
      -2.254
      -2.098
      -1.988
      -1.923
      -1.892
      -1.890
      -1.932
      -2.040
      -2.219
      -2.442
      -2.657
      -2.817
      -2.905
      -2.931
      -2.907
      -2.828
      -2.664
      -2.380
      -1.963
      -1.439
      -0.869
      -0.341
       0.061
       0.278
       0.291
       0.133
      -0.121
      -0.382
      -0.575
      -0.660
      -0.635
      -0.516
      -0.324
      -0.074
       0.227
       0.571
       0.941
       1.307
       1.619
       1.823
       1.872
       1.762
       1.541
       1.300
       1.133
       1.098
       1.196
       1.384
       1.598
       1.789
       1.925
       1.992
       1.977
       1.869
       1.654
       1.330
       0.907
       0.403
      -0.153
      -0.724
      -1.267
      -1.741
      -2.116
      -2.369
      -2.478
      -2.422
      -2.194
      -1.814
      -1.336
      -0.837
      -0.382
      -0.009
       0.275
       0.480
       0.616
       0.688
       0.711
       0.711
       0.726
       0.785
       0.890
       1.004
       1.071
       1.032
       0.855
       0.538
       0.112
      -0.376
      -0.876
      -1.341
      -1.737
      -2.048
      -2.268
      -2.394
      -2.408
      -2.283
      -1.996
      -1.558
      -1.021
      -0.468
       0.005
       0.324
       0.452
       0.393
       0.194
      -0.068
      -0.296
      -0.403
      -0.328
      -0.047
       0.426
       1.053
       1.777
       2.543
       3.299
       3.995
       4.576
       4.975
       5.125
       4.983
       4.556
       3.913
       3.164
       2.428
       1.791
       1.292
       0.930
       0.686
       0.545
       0.500
       0.554
       0.699
       0.911
       1.137
       1.311
       1.372
       1.285
       1.061
       0.755
       0.451
       0.224
       0.102
       0.052
      -0.002
      -0.142
      -0.409
      -0.795
      -1.246
      -1.690
      -2.059
      -2.314
      -2.453
      -2.510
      -2.541
      -2.598
      -2.715
      -2.890
      -3.094
      -3.283
      -3.428
      -3.518
      -3.554
      -3.529
      -3.424
      -3.223
      -2.935
      -2.595
      -2.249
      -1.922
      -1.614
      -1.304
