Origin Time       26/07/2008 18:51:53
Lat.              24.8 N 
Long.             90.6 E 
Depth (Km)         39.3
Magnitude         4.8
 Region           BANGLADESH-INDIA-BORDER-REGION                                   
 Above details taken from IMD 
     
Station Code      BON
Station Lat.       26.473  N
Station Long.      90.561  E
Station Height(m)   75.0
Site Class        C   Vs30 between 200 m/sec to 375 m/sec *  
Record Time       26.07.2008 18:52:23.074
Sampling Rate     200. Hz
 Record Duration   67.345 Sec.
 Direction         E-W (E positive)
Max. Acceleration      4.974 cm/sec**2
     
  * For reference see Site Classification link of website 
     
 Base Line Corrected and Low Pass Filtered (Cut Off at 35 Hz) Time History
 Acceleration data in cm/sec**2
    
[...]
       0.272
       0.278
       0.281
       0.286
       0.288
       0.282
       0.270
       0.256
       0.244
       0.229
       0.205
       0.173
       0.142
       0.117
       0.094
       0.066
       0.032
      -0.003
      -0.027
      -0.033
      -0.019
       0.004
       0.026
       0.034
       0.025
       0.006
      -0.014
      -0.029
      -0.035
      -0.036
      -0.032
      -0.027
      -0.031
      -0.051
      -0.091
      -0.138
      -0.176
      -0.196
      -0.202
      -0.205
      -0.210
      -0.216
      -0.222
      -0.225
      -0.225
      -0.222
      -0.216
      -0.206
      -0.194
      -0.181
      -0.162
      -0.135
      -0.097
      -0.054
      -0.017
       0.002
       0.001
      -0.016
      -0.038
      -0.058
      -0.077
      -0.095
      -0.109
      -0.109
      -0.089
      -0.051
      -0.006
       0.031
       0.055
       0.067
       0.069
       0.062
       0.051
       0.040
       0.034
       0.031
       0.029
       0.024
       0.017
       0.010
       0.006
       0.008
       0.020
       0.049
       0.097
       0.164
       0.243
       0.323
       0.397
       0.462
       0.512
       0.546
       0.564
       0.568
       0.565
       0.559
       0.555
       0.552
       0.547
       0.533
       0.506
       0.468
       0.424
       0.378
       0.328
       0.272
       0.209
       0.144
       0.079
       0.020
      -0.030
      -0.070
      -0.103
      -0.135
      -0.174
      -0.220
      -0.271
      -0.320
      -0.369
      -0.417
      -0.463
      -0.499
      -0.517
      -0.514
      -0.495
      -0.464
      -0.423
      -0.367
      -0.299
      -0.222
      -0.153
      -0.107
      -0.094
      -0.109
      -0.135
      -0.157
      -0.171
      -0.179
      -0.185
      -0.182
      -0.162
      -0.127
      -0.088
      -0.060
      -0.049
      -0.050
      -0.056
      -0.062
      -0.074
      -0.095
      -0.126
      -0.163
      -0.199
      -0.226
      -0.239
      -0.237
      -0.224
      -0.201
      -0.174
      -0.149
      -0.131
      -0.126
      -0.133
      -0.150
      -0.170
      -0.187
      -0.197
      -0.196
      -0.183
      -0.158
      -0.127
      -0.097
      -0.071
      -0.045
      -0.019
       0.007
       0.033
       0.062
       0.097
       0.144
       0.199
       0.262
       0.326
       0.390
       0.445
       0.486
       0.511
       0.519
       0.510
       0.485
       0.445
       0.402
       0.368
       0.346
       0.324
       0.284
       0.216
       0.127
       0.037
      -0.034
      -0.073
      -0.081
      -0.070
      -0.059
      -0.064
      -0.093
      -0.140
      -0.192
      -0.231
      -0.247
      -0.239
      -0.220
      -0.207
      -0.214
      -0.236
      -0.257
      -0.256
      -0.229
      -0.187
      -0.143
      -0.107
      -0.077
      -0.047
      -0.012
       0.028
       0.071
       0.111
       0.145
       0.169
       0.183
       0.188
       0.189
       0.186
       0.181
       0.176
       0.170
       0.160
       0.146
       0.133
       0.129
       0.139
       0.153
       0.157
       0.139
       0.102
       0.058
       0.020
      -0.004
      -0.012
      -0.007
       0.005
       0.015
       0.015
       0.003
      -0.016
      -0.038
      -0.058
      -0.075
      -0.083
      -0.078
      -0.060
      -0.033
      -0.004
       0.022
       0.047
       0.069
       0.089
       0.109
       0.127
       0.141
       0.143
       0.128
       0.097
       0.060
       0.033
       0.026
       0.040
       0.066
       0.090
       0.098
       0.080
       0.044
       0.004
      -0.028
      -0.046
      -0.055
      -0.062
      -0.075
      -0.094
      -0.124
      -0.163
      -0.204
      -0.239
      -0.260
      -0.269
      -0.268
      -0.261
      -0.255
      -0.256
      -0.269
      -0.290
      -0.305
      -0.299
      -0.261
      -0.194
      -0.113
      -0.034
       0.028
       0.069
       0.090
       0.103
       0.116
       0.135
       0.159
       0.180
       0.192
       0.191
       0.178
       0.152
       0.114
       0.071
       0.027
      -0.013
      -0.051
      -0.093
      -0.141
      -0.189
      -0.224
      -0.237
      -0.230
      -0.217
      -0.212
      -0.223
      -0.242
      -0.252
      -0.244
      -0.221
      -0.199
      -0.188
      -0.185
      -0.179
      -0.157
      -0.123
      -0.086
      -0.054
      -0.031
      -0.014
       0.005
       0.030
       0.065
       0.107
       0.145
       0.170
       0.174
       0.158
       0.130
       0.103
       0.091
       0.102
       0.130
       0.162
       0.188
       0.205
       0.218
       0.232
       0.246
       0.255
       0.254
       0.251
       0.260
       0.295
       0.359
       0.439
       0.511
       0.560
       0.583
       0.591
       0.594
       0.594
       0.585
       0.562
       0.525
       0.479
       0.431
       0.386
       0.344
       0.306
       0.271
       0.233
       0.184
       0.124
       0.057
      -0.007
      -0.059
      -0.100
      -0.134
      -0.165
      -0.194
      -0.220
      -0.239
      -0.249
      -0.254
      -0.263
      -0.285
      -0.323
      -0.368
      -0.404
      -0.417
      -0.406
      -0.376
      -0.338
      -0.298
      -0.264
      -0.241
      -0.233
      -0.240
      -0.262
      -0.298
      -0.347
      -0.401
      -0.444
      -0.462
      -0.447
      -0.399
      -0.325
      -0.235
      -0.143
      -0.063
      -0.005
       0.029
       0.035
       0.016
      -0.024
      -0.074
      -0.116
      -0.137
      -0.135
      -0.116
      -0.089
      -0.062
      -0.040
      -0.032
      -0.046
      -0.080
      -0.126
      -0.171
      -0.205
      -0.225
      -0.234
      -0.238
      -0.240
      -0.239
      -0.233
      -0.220
      -0.205
      -0.188
      -0.167
      -0.131
      -0.075
      -0.002
       0.079
       0.159
       0.240
       0.329
       0.428
       0.530
       0.625
       0.703
       0.764
       0.806
       0.832
       0.844
       0.845
       0.840
       0.829
       0.809
       0.770
       0.703
       0.610
       0.498
       0.381
       0.274
       0.186
       0.115
       0.052
      -0.016
      -0.096
      -0.186
      -0.278
      -0.357
      -0.417
      -0.459
      -0.491
      -0.517
      -0.538
      -0.548
      -0.547
      -0.541
      -0.544
      -0.560
      -0.586
      -0.609
      -0.618
      -0.607
      -0.576
      -0.524
      -0.451
      -0.357
      -0.245
      -0.124
      -0.004
       0.107
       0.203
       0.283
       0.347
       0.399
       0.444
       0.489
       0.541
       0.603
       0.673
       0.742
       0.796
       0.823
       0.822
       0.798
       0.760
       0.715
       0.666
       0.616
       0.565
       0.506
       0.433
       0.337
       0.221
       0.089
      -0.046
      -0.172
      -0.277
      -0.356
      -0.412
      -0.457
      -0.504
      -0.558
      -0.618
      -0.676
      -0.727
      -0.764
      -0.785
      -0.787
      -0.766
      -0.717
      -0.634
      -0.518
      -0.381
      -0.241
      -0.115
      -0.014
       0.052
       0.080
       0.071
       0.035
      -0.004
      -0.025
      -0.014
       0.028
       0.088
       0.150
       0.201
       0.233
       0.243
       0.232
       0.201
       0.156
       0.099
       0.030
      -0.047
      -0.128
      -0.203
      -0.259
      -0.287
      -0.284
      -0.262
      -0.236
      -0.216
      -0.204
      -0.192
      -0.173
      -0.145
      -0.115
      -0.084
      -0.056
      -0.031
      -0.008
       0.013
       0.035
       0.057
       0.078
       0.091
       0.093
       0.084
       0.068
       0.047
       0.021
      -0.013
      -0.053
      -0.095
      -0.136
      -0.170
      -0.196
      -0.213
      -0.224
      -0.231
      -0.235
      -0.230
      -0.209
      -0.173
      -0.129
      -0.088
      -0.053
      -0.021
       0.016
       0.060
       0.109
       0.157
       0.203
       0.248
       0.296
       0.352
       0.413
       0.475
       0.525
       0.556
       0.562
       0.546
       0.518
       0.489
       0.475
       0.488
       0.529
       0.575
       0.597
       0.567
       0.482
       0.362
       0.236
       0.128
       0.049
      -0.004
      -0.035
      -0.050
      -0.049
      -0.032
      -0.003
       0.027
       0.045
       0.039
       0.002
      -0.066
      -0.153
      -0.242
      -0.310
      -0.344
      -0.342
      -0.321
      -0.297
      -0.281
      -0.270
      -0.257
      -0.238
      -0.212
      -0.183
      -0.155
      -0.125
      -0.091
      -0.049
       0.002
       0.061
       0.119
       0.161
       0.177
       0.165
       0.134
       0.102
       0.084
       0.086
       0.104
       0.121
       0.121
       0.094
       0.046
      -0.005
      -0.040
      -0.046
      -0.020
       0.033
       0.098
       0.154
       0.187
       0.193
       0.177
       0.149
       0.121
       0.102
       0.097
       0.106
       0.120
       0.128
       0.124
       0.116
       0.115
       0.126
       0.137
       0.130
       0.089
       0.015
      -0.077
      -0.164
      -0.230
      -0.277
      -0.318
      -0.371
      -0.443
      -0.529
      -0.621
      -0.713
      -0.806
      -0.905
      -1.007
      -1.105
      -1.183
      -1.231
      -1.240
      -1.211
      -1.158
      -1.102
      -1.062
      -1.048
      -1.054
      -1.061
      -1.052
      -1.012
      -0.935
      -0.822
      -0.682
      -0.529
      -0.378
      -0.239
      -0.114
       0.003
       0.118
       0.238
       0.361
       0.477
       0.573
       0.642
       0.690
       0.733
       0.781
       0.833
       0.874
       0.890
       0.880
       0.849
       0.805
       0.749
       0.681
       0.601
       0.513
       0.424
       0.344
       0.285
       0.255
       0.261
       0.301
       0.367
       0.442
       0.511
       0.561
       0.586
       0.590
       0.579
       0.560
       0.539
       0.520
       0.504
       0.491
       0.477
       0.458
       0.439
       0.424
       0.414
       0.403
       0.385
       0.355
       0.315
       0.275
       0.246
       0.231
       0.227
       0.225
       0.218
       0.198
       0.165
       0.120
       0.070
       0.024
      -0.007
      -0.020
      -0.023
      -0.028
      -0.045
      -0.075
      -0.115
      -0.165
      -0.231
      -0.320
      -0.426
      -0.526
      -0.595
      -0.618
      -0.595
      -0.539
      -0.456
      -0.350
      -0.225
      -0.093
       0.026
       0.117
       0.173
       0.197
       0.199
       0.195
       0.198
       0.216
       0.246
       0.285
       0.327
       0.371
       0.418
       0.470
       0.528
       0.593
       0.660
       0.721
       0.763
       0.776
       0.758
       0.714
       0.650
       0.571
       0.479
       0.378
       0.272
       0.163
       0.056
      -0.043
      -0.126
      -0.189
      -0.230
      -0.251
      -0.253
      -0.236
      -0.207
      -0.168
      -0.124
      -0.073
      -0.017
       0.044
       0.107
       0.172
       0.241
       0.312
       0.384
       0.458
       0.541
       0.640
       0.760
       0.893
       1.025
       1.142
       1.241
       1.327
       1.405
       1.476
       1.531
       1.554
       1.533
       1.471
       1.386
       1.298
       1.219
       1.143
       1.052
       0.934
       0.788
       0.621
       0.440
       0.247
       0.039
      -0.183
      -0.417
      -0.651
      -0.872
      -1.063
      -1.217
      -1.334
      -1.426
      -1.507
      -1.591
      -1.685
      -1.794
      -1.914
      -2.035
      -2.142
      -2.224
      -2.280
      -2.307
      -2.305
      -2.271
      -2.211
      -2.139
      -2.070
      -2.008
      -1.947
      -1.879
      -1.803
      -1.718
      -1.623
      -1.515
      -1.388
      -1.242
      -1.080
      -0.904
      -0.723
      -0.543
      -0.366
      -0.190
      -0.017
       0.146
       0.285
       0.396
       0.480
       0.549
       0.607
       0.649
       0.670
       0.668
       0.647
       0.615
       0.578
       0.540
       0.512
       0.502
       0.511
       0.530
       0.535
       0.501
       0.411
       0.267
       0.091
      -0.089
      -0.251
      -0.391
      -0.511
      -0.610
      -0.686
      -0.741
      -0.783
      -0.829
      -0.887
      -0.959
      -1.035
      -1.105
      -1.157
      -1.188
      -1.200
      -1.198
      -1.186
      -1.162
      -1.124
      -1.072
      -1.012
      -0.957
      -0.910
      -0.869
      -0.822
      -0.761
      -0.680
      -0.577
      -0.456
      -0.334
      -0.238
      -0.196
      -0.216
      -0.280
      -0.356
      -0.413
      -0.437
      -0.426
      -0.392
      -0.347
      -0.298
      -0.245
      -0.181
      -0.094
       0.020
       0.160
       0.318
       0.490
       0.675
       0.874
       1.087
       1.314
       1.553
       1.796
       2.028
       2.235
       2.409
       2.558
       2.697
       2.848
       3.024
       3.229
       3.456
       3.689
       3.920
       4.139
       4.344
       4.529
       4.691
       4.826
       4.924
       4.974
       4.961
       4.876
       4.714
       4.478
       4.169
       3.789
       3.342
       2.842
       2.312
       1.776
       1.252
       0.745
       0.249
      -0.243
      -0.739
      -1.238
      -1.733
      -2.210
      -2.658
      -3.069
      -3.441
      -3.774
      -4.064
      -4.304
      -4.488
      -4.611
      -4.671
      -4.667
      -4.599
      -4.469
      -4.278
      -4.023
      -3.706
      -3.332
      -2.911
      -2.453
      -1.967
      -1.463
      -0.949
      -0.437
       0.070
       0.569
       1.056
       1.516
       1.922
       2.251
       2.489
       2.636
       2.699
       2.692
       2.626
       2.511
       2.355
       2.167
       1.958
       1.732
       1.486
       1.206
       0.882
       0.512
       0.115
      -0.282
      -0.658
      -1.008
      -1.337
      -1.658
      -1.971
      -2.267
      -2.527
      -2.733
      -2.882
      -2.983
      -3.057
      -3.124
      -3.198
      -3.282
      -3.368
      -3.443
      -3.489
      -3.489
      -3.440
      -3.353
      -3.250
      -3.150
      -3.059
      -2.963
      -2.844
      -2.690
      -2.504
      -2.300
      -2.093
      -1.897
      -1.711
      -1.532
      -1.353
      -1.170
      -0.978
      -0.775
      -0.560
      -0.337
      -0.109
       0.120
       0.348
       0.575
       0.794
       0.994
       1.170
       1.323
       1.461
       1.590
       1.709
       1.819
       1.920
       2.007
       2.071
       2.099
       2.081
       2.019
       1.923
       1.806
       1.679
       1.553
       1.436
       1.333
       1.248
       1.188
       1.160
       1.170
       1.214
       1.279
       1.353
       1.420
       1.472
       1.505
       1.524
       1.537
       1.543
       1.529
       1.480
       1.389
       1.266
       1.132
       1.014
       0.934
       0.906
       0.943
       1.044
       1.195
       1.369
       1.532
       1.653
       1.709
       1.693
       1.613
       1.490
       1.344
       1.192
       1.043
       0.906
       0.789
       0.700
       0.641
       0.611
       0.608
       0.635
       0.693
       0.776
       0.868
       0.953
       1.018
       1.069
       1.123
       1.196
       1.293
       1.404
       1.507
       1.592
       1.658
       1.718
       1.780
       1.844
       1.909
       1.978
       2.061
       2.167
       2.295
       2.425
       2.523
       2.548
       2.464
       2.257
       1.940
       1.553
       1.139
       0.728
       0.328
      -0.065
      -0.462
      -0.870
      -1.290
      -1.720
      -2.151
      -2.577
      -2.992
      -3.388
      -3.755
      -4.076
      -4.328
      -4.492
      -4.565
      -4.558
      -4.495
      -4.396
      -4.276
      -4.137
      -3.970
      -3.764
      -3.510
      -3.208
      -2.867
      -2.505
      -2.144
      -1.802
      -1.493
      -1.224
      -0.997
      -0.818
      -0.695
      -0.645
      -0.685
      -0.817
      -1.022
      -1.262
      -1.499
      -1.706
      -1.876
      -2.011
      -2.111
      -2.168
      -2.169
      -2.107
      -1.994
      -1.855
      -1.717
      -1.591
      -1.474
      -1.353
      -1.215
      -1.052
      -0.858
      -0.630
      -0.369
      -0.075
       0.250
       0.608
       0.996
       1.405
       1.819
       2.223
       2.597
       2.922
       3.184
       3.380
       3.512
       3.580
       3.575
       3.485
       3.303
       3.046
       2.747
       2.445
       2.171
       1.929
       1.704
       1.471
       1.214
       0.928
       0.621
       0.296
      -0.046
      -0.402
      -0.766
      -1.124
      -1.471
      -1.804
      -2.115
      -2.383
      -2.578
      -2.677
      -2.671
      -2.566
      -2.377
      -2.125
      -1.833
      -1.527
      -1.224
      -0.927
      -0.630
      -0.324
      -0.011
       0.296
       0.576
       0.811
       0.998
       1.155
       1.320
       1.529
       1.800
       2.119
       2.449
       2.752
       3.007
       3.212
       3.377
       3.507
       3.601
       3.658
       3.679
       3.672
       3.643
       3.592
       3.513
       3.390
       3.205
       2.947
       2.621
       2.250
       1.863
       1.483
       1.127
       0.800
       0.507
       0.256
       0.055
      -0.091
      -0.188
      -0.254
      -0.314
      -0.381
      -0.456
      -0.526
      -0.573
      -0.584
      -0.562
      -0.523
      -0.490
      -0.484
      -0.512
      -0.577
      -0.678
      -0.822
      -1.014
      -1.251
      -1.521
      -1.795
      -2.048
      -2.259
      -2.419
      -2.532
      -2.611
      -2.672
      -2.723
      -2.771
      -2.821
      -2.879
      -2.950
      -3.027
      -3.090
      -3.117
      -3.095
      -3.028
      -2.932
      -2.823
      -2.710
      -2.594
      -2.468
      -2.326
      -2.165
      -1.982
      -1.778
      -1.558
      -1.326
      -1.082
      -0.828
      -0.570
      -0.321
      -0.100
       0.076
       0.193
       0.247
       0.247
       0.216
       0.181
       0.167
       0.182
       0.218
       0.254
       0.271
       0.256
       0.207
       0.132
       0.036
      -0.076
      -0.208
      -0.361
      -0.527
      -0.683
      -0.796
      -0.832
      -0.776
      -0.640
      -0.463
      -0.293
      -0.166
      -0.091
      -0.054
      -0.031
      -0.001
       0.044
       0.107
       0.189
       0.296
       0.438
       0.628
       0.869
       1.151
       1.456
       1.760
       2.045
       2.300
       2.517
       2.694
       2.829
       2.923
       2.975
       2.983
       2.943
       2.854
       2.727
       2.581
       2.437
       2.313
       2.221
