Origin Time       29/10/2009 17:00:35
Lat.              27.3°N	
Long.             91.4°E	
Depth (Km)          5.0
Magnitude         5.2
 Region           BHUTAN                                                           
 Above details taken from IMD 
     
Station Code      BON
Station Lat.       26.473  N
Station Long.      90.561  E
Station Height(m)   75.0
Site Class        C   Vs30 between 200 m/sec to 375 m/sec *  
Record Time       29.10.2009 22:31:06.439
Sampling Rate     200. Hz
 Record Duration   72.555 Sec.
 Direction         E-W (E positive)
Max. Acceleration     -6.814 cm/sec**2
     
  * For reference see Site Classification link of website 
     
 Base Line Corrected and Low Pass Filtered (Cut Off at 35 Hz) Time History
 Acceleration data in cm/sec**2
    
[...]
       0.131
       0.139
       0.138
       0.116
       0.064
      -0.017
      -0.110
      -0.194
      -0.245
      -0.251
      -0.213
      -0.147
      -0.071
       0.000
       0.065
       0.127
       0.189
       0.246
       0.293
       0.324
       0.336
       0.332
       0.314
       0.292
       0.276
       0.275
       0.287
       0.301
       0.305
       0.295
       0.276
       0.260
       0.251
       0.242
       0.224
       0.188
       0.143
       0.104
       0.088
       0.106
       0.155
       0.225
       0.298
       0.358
       0.392
       0.396
       0.377
       0.350
       0.337
       0.356
       0.416
       0.509
       0.614
       0.697
       0.731
       0.706
       0.627
       0.513
       0.381
       0.248
       0.130
       0.040
      -0.012
      -0.029
      -0.022
      -0.003
       0.014
       0.026
       0.031
       0.030
       0.024
       0.012
      -0.016
      -0.072
      -0.173
      -0.323
      -0.513
      -0.712
      -0.885
      -1.005
      -1.064
      -1.071
      -1.044
      -1.001
      -0.956
      -0.916
      -0.880
      -0.839
      -0.779
      -0.690
      -0.578
      -0.461
      -0.365
      -0.302
      -0.264
      -0.234
      -0.192
      -0.130
      -0.056
       0.012
       0.058
       0.073
       0.061
       0.035
       0.010
      -0.003
       0.000
       0.019
       0.051
       0.094
       0.143
       0.190
       0.225
       0.234
       0.210
       0.154
       0.071
      -0.026
      -0.121
      -0.200
      -0.254
      -0.285
      -0.301
      -0.308
      -0.309
      -0.302
      -0.284
      -0.257
      -0.223
      -0.184
      -0.144
      -0.107
      -0.081
      -0.075
      -0.088
      -0.111
      -0.132
      -0.139
      -0.133
      -0.121
      -0.106
      -0.085
      -0.052
      -0.003
       0.055
       0.117
       0.179
       0.247
       0.327
       0.417
       0.504
       0.574
       0.612
       0.611
       0.577
       0.522
       0.461
       0.405
       0.355
       0.304
       0.251
       0.198
       0.150
       0.115
       0.095
       0.100
       0.140
       0.223
       0.345
       0.483
       0.606
       0.690
       0.724
       0.712
       0.664
       0.595
       0.514
       0.429
       0.347
       0.274
       0.215
       0.164
       0.113
       0.048
      -0.037
      -0.134
      -0.224
      -0.291
      -0.324
      -0.324
      -0.292
      -0.228
      -0.133
      -0.021
       0.076
       0.122
       0.101
       0.017
      -0.104
      -0.231
      -0.345
      -0.435
      -0.496
      -0.525
      -0.514
      -0.460
      -0.369
      -0.258
      -0.147
      -0.046
       0.043
       0.133
       0.231
       0.333
       0.416
       0.451
       0.413
       0.301
       0.141
      -0.030
      -0.176
      -0.279
      -0.339
      -0.367
      -0.378
      -0.375
      -0.349
      -0.286
      -0.187
      -0.073
       0.017
       0.049
       0.016
      -0.058
      -0.136
      -0.184
      -0.191
      -0.158
      -0.102
      -0.043
      -0.005
      -0.007
      -0.058
      -0.148
      -0.254
      -0.343
      -0.385
      -0.370
      -0.309
      -0.238
      -0.195
      -0.203
      -0.258
      -0.341
      -0.432
      -0.516
      -0.584
      -0.631
      -0.654
      -0.653
      -0.634
      -0.605
      -0.569
      -0.521
      -0.453
      -0.359
      -0.242
      -0.112
       0.021
       0.142
       0.246
       0.327
       0.386
       0.428
       0.456
       0.471
       0.475
       0.474
       0.473
       0.477
       0.487
       0.495
       0.490
       0.465
       0.422
       0.376
       0.351
       0.366
       0.424
       0.509
       0.591
       0.644
       0.655
       0.622
       0.551
       0.448
       0.322
       0.190
       0.078
       0.014
       0.006
       0.035
       0.061
       0.043
      -0.033
      -0.149
      -0.268
      -0.352
      -0.382
      -0.357
      -0.284
      -0.176
      -0.044
       0.100
       0.243
       0.371
       0.472
       0.532
       0.543
       0.505
       0.429
       0.343
       0.277
       0.249
       0.259
       0.287
       0.305
       0.299
       0.268
       0.225
       0.187
       0.162
       0.148
       0.136
       0.116
       0.078
       0.020
      -0.051
      -0.115
      -0.150
      -0.143
      -0.104
      -0.056
      -0.027
      -0.037
      -0.095
      -0.196
      -0.324
      -0.458
      -0.576
      -0.662
      -0.709
      -0.726
      -0.733
      -0.748
      -0.779
      -0.822
      -0.864
      -0.891
      -0.892
      -0.864
      -0.803
      -0.708
      -0.585
      -0.447
      -0.316
      -0.206
      -0.127
      -0.075
      -0.044
      -0.023
       0.000
       0.035
       0.084
       0.137
       0.185
       0.221
       0.250
       0.280
       0.318
       0.363
       0.411
       0.455
       0.491
       0.513
       0.517
       0.498
       0.452
       0.387
       0.319
       0.268
       0.249
       0.265
       0.303
       0.340
       0.352
       0.326
       0.262
       0.171
       0.073
      -0.015
      -0.077
      -0.105
      -0.095
      -0.056
      -0.005
       0.044
       0.088
       0.132
       0.181
       0.232
       0.271
       0.282
       0.259
       0.210
       0.151
       0.093
       0.042
      -0.008
      -0.060
      -0.115
      -0.170
      -0.222
      -0.266
      -0.298
      -0.312
      -0.306
      -0.284
      -0.256
      -0.236
      -0.230
      -0.236
      -0.244
      -0.244
      -0.229
      -0.203
      -0.177
      -0.157
      -0.143
      -0.126
      -0.095
      -0.044
       0.024
       0.102
       0.179
       0.244
       0.292
       0.321
       0.336
       0.346
       0.359
       0.372
       0.379
       0.370
       0.343
       0.303
       0.255
       0.204
       0.145
       0.077
       0.001
      -0.070
      -0.125
      -0.161
      -0.187
      -0.221
      -0.270
      -0.329
      -0.383
      -0.421
      -0.445
      -0.465
      -0.493
      -0.526
      -0.549
      -0.542
      -0.488
      -0.389
      -0.260
      -0.126
      -0.010
       0.077
       0.140
       0.190
       0.240
       0.293
       0.348
       0.395
       0.422
       0.418
       0.383
       0.325
       0.261
       0.206
       0.167
       0.141
       0.119
       0.091
       0.048
      -0.012
      -0.082
      -0.145
      -0.177
      -0.161
      -0.095
      -0.003
       0.073
       0.095
       0.053
      -0.033
      -0.127
      -0.194
      -0.217
      -0.199
      -0.149
      -0.074
       0.021
       0.132
       0.248
       0.359
       0.454
       0.529
       0.580
       0.601
       0.592
       0.559
       0.513
       0.464
       0.422
       0.389
       0.362
       0.335
       0.301
       0.261
       0.220
       0.185
       0.164
       0.154
       0.145
       0.120
       0.067
      -0.012
      -0.102
      -0.185
      -0.251
      -0.302
      -0.343
      -0.382
      -0.423
      -0.472
      -0.537
      -0.616
      -0.696
      -0.755
      -0.773
      -0.744
      -0.677
      -0.587
      -0.489
      -0.388
      -0.285
      -0.180
      -0.080
       0.006
       0.070
       0.110
       0.127
       0.124
       0.106
       0.082
       0.061
       0.049
       0.047
       0.054
       0.075
       0.115
       0.175
       0.244
       0.297
       0.315
       0.292
       0.238
       0.167
       0.091
       0.015
      -0.061
      -0.136
      -0.198
      -0.232
      -0.232
      -0.207
      -0.180
      -0.176
      -0.205
      -0.257
      -0.311
      -0.348
      -0.360
      -0.354
      -0.342
      -0.337
      -0.344
      -0.360
      -0.371
      -0.357
      -0.304
      -0.216
      -0.113
      -0.017
       0.059
       0.114
       0.149
       0.162
       0.149
       0.111
       0.052
      -0.013
      -0.068
      -0.103
      -0.112
      -0.097
      -0.064
      -0.025
       0.011
       0.035
       0.045
       0.046
       0.046
       0.054
       0.073
       0.103
       0.144
       0.190
       0.236
       0.275
       0.300
       0.306
       0.294
       0.268
       0.232
       0.189
       0.143
       0.100
       0.066
       0.045
       0.035
       0.035
       0.044
       0.063
       0.096
       0.143
       0.204
       0.282
       0.376
       0.475
       0.556
       0.592
       0.564
       0.477
       0.354
       0.231
       0.140
       0.094
       0.084
       0.088
       0.087
       0.069
       0.032
      -0.018
      -0.074
      -0.128
      -0.171
      -0.200
      -0.217
      -0.236
      -0.270
      -0.330
      -0.409
      -0.492
      -0.555
      -0.589
      -0.599
      -0.602
      -0.614
      -0.639
      -0.670
      -0.693
      -0.695
      -0.666
      -0.608
      -0.525
      -0.424
      -0.311
      -0.197
      -0.089
       0.005
       0.086
       0.157
       0.218
       0.269
       0.308
       0.340
       0.376
       0.420
       0.471
       0.517
       0.543
       0.542
       0.517
       0.479
       0.441
       0.414
       0.402
       0.402
       0.411
       0.426
       0.442
       0.452
       0.447
       0.421
       0.368
       0.291
       0.197
       0.100
       0.018
      -0.034
      -0.053
      -0.054
      -0.059
      -0.085
      -0.128
      -0.171
      -0.188
      -0.163
      -0.097
      -0.006
       0.085
       0.153
       0.189
       0.198
       0.189
       0.168
       0.142
       0.116
       0.097
       0.094
       0.107
       0.132
       0.154
       0.163
       0.156
       0.139
       0.122
       0.117
       0.126
       0.143
       0.154
       0.151
       0.132
       0.100
       0.057
       0.003
      -0.063
      -0.135
      -0.199
      -0.238
      -0.242
      -0.213
      -0.168
      -0.128
      -0.113
      -0.133
      -0.192
      -0.287
      -0.403
      -0.517
      -0.603
      -0.643
      -0.637
      -0.601
      -0.559
      -0.526
      -0.507
      -0.496
      -0.490
      -0.487
      -0.488
      -0.482
      -0.453
      -0.381
      -0.265
      -0.123
       0.010
       0.103
       0.143
       0.133
       0.090
       0.032
      -0.028
      -0.079
      -0.117
      -0.140
      -0.147
      -0.142
      -0.126
      -0.100
      -0.055
       0.015
       0.116
       0.244
       0.382
       0.514
       0.622
       0.694
       0.718
       0.686
       0.601
       0.489
       0.385
       0.326
       0.326
       0.373
       0.439
       0.502
       0.549
       0.579
       0.594
       0.590
       0.566
       0.519
       0.459
       0.395
       0.333
       0.269
       0.196
       0.109
       0.010
      -0.093
      -0.189
      -0.262
      -0.298
      -0.289
      -0.235
      -0.145
      -0.030
       0.103
       0.250
       0.400
       0.533
       0.622
       0.647
       0.602
       0.500
       0.364
       0.219
       0.083
      -0.036
      -0.133
      -0.203
      -0.244
      -0.264
      -0.278
      -0.309
      -0.369
      -0.456
      -0.558
      -0.658
      -0.747
      -0.827
      -0.905
      -0.988
      -1.072
      -1.147
      -1.203
      -1.240
      -1.266
      -1.295
      -1.330
      -1.365
      -1.387
      -1.383
      -1.349
      -1.285
      -1.195
      -1.082
      -0.950
      -0.799
      -0.632
      -0.446
      -0.238
      -0.004
       0.252
       0.524
       0.802
       1.075
       1.334
       1.576
       1.800
       2.005
       2.183
       2.324
       2.414
       2.448
       2.424
       2.343
       2.210
       2.030
       1.812
       1.569
       1.318
       1.074
       0.846
       0.628
       0.410
       0.178
      -0.072
      -0.336
      -0.603
      -0.866
      -1.129
      -1.399
      -1.678
      -1.959
      -2.224
      -2.460
      -2.656
      -2.807
      -2.910
      -2.964
      -2.974
      -2.948
      -2.892
      -2.811
      -2.700
      -2.550
      -2.356
      -2.113
      -1.817
      -1.463
      -1.047
      -0.576
      -0.068
       0.454
       0.969
       1.464
       1.923
       2.327
       2.654
       2.900
       3.079
       3.219
       3.351
       3.493
       3.649
       3.809
       3.955
       4.066
       4.120
       4.101
       4.000
       3.817
       3.563
       3.258
       2.925
       2.580
       2.228
       1.869
       1.507
       1.149
       0.805
       0.477
       0.162
      -0.151
      -0.477
      -0.828
      -1.208
      -1.608
      -2.005
      -2.367
      -2.669
      -2.905
      -3.087
      -3.227
      -3.333
      -3.400
      -3.418
      -3.374
      -3.255
      -3.051
      -2.763
      -2.404
      -1.995
      -1.558
      -1.105
      -0.642
      -0.171
       0.302
       0.768
       1.210
       1.614
       1.971
       2.276
       2.532
       2.743
       2.920
       3.071
       3.201
       3.306
       3.373
       3.378
       3.289
       3.086
       2.768
       2.353
       1.867
       1.328
       0.742
       0.118
      -0.518
      -1.131
      -1.695
      -2.202
      -2.672
      -3.133
      -3.609
      -4.105
      -4.607
      -5.092
      -5.537
      -5.931
      -6.265
      -6.533
      -6.720
      -6.814
      -6.798
      -6.660
      -6.393
      -5.998
      -5.494
      -4.908
      -4.269
      -3.602
      -2.926
      -2.255
      -1.602
      -0.973
      -0.365
       0.234
       0.835
       1.445
       2.056
       2.650
       3.202
       3.690
       4.095
       4.403
       4.601
       4.672
       4.610
       4.426
       4.151
       3.835
       3.532
       3.285
       3.115
       3.016
       2.953
       2.877
       2.745
       2.538
       2.267
       1.958
       1.639
       1.323
       1.007
       0.687
       0.369
       0.073
      -0.181
      -0.378
      -0.522
      -0.628
      -0.711
      -0.776
      -0.816
      -0.812
      -0.743
      -0.594
      -0.363
      -0.060
       0.284
       0.634
       0.948
       1.194
       1.345
       1.395
       1.358
       1.264
       1.152
       1.058
       1.006
       1.012
       1.078
       1.188
       1.317
       1.443
       1.556
       1.655
       1.739
       1.793
       1.787
       1.682
       1.452
       1.102
       0.684
       0.278
      -0.036
      -0.207
      -0.224
      -0.110
       0.093
       0.333
       0.561
       0.740
       0.852
       0.899
       0.893
       0.845
       0.755
       0.618
       0.432
       0.208
      -0.027
      -0.243
      -0.412
      -0.514
      -0.536
      -0.475
      -0.338
      -0.142
       0.091
       0.334
       0.557
       0.732
       0.836
       0.854
       0.777
       0.601
       0.325
      -0.041
      -0.472
      -0.932
      -1.383
      -1.804
      -2.193
      -2.564
      -2.927
      -3.274
      -3.580
      -3.816
      -3.965
      -4.035
      -4.056
      -4.064
      -4.089
      -4.133
      -4.174
      -4.180
      -4.118
      -3.975
      -3.757
      -3.484
      -3.185
      -2.883
      -2.596
      -2.331
      -2.081
      -1.831
      -1.558
      -1.240
      -0.872
      -0.460
      -0.020
       0.430
       0.879
       1.316
       1.737
       2.134
       2.494
       2.795
       3.013
       3.134
       3.155
       3.089
       2.955
       2.775
       2.565
       2.333
       2.078
       1.788
       1.453
       1.071
       0.651
       0.216
      -0.208
      -0.596
      -0.933
      -1.212
      -1.437
      -1.617
      -1.761
      -1.876
      -1.969
      -2.052
      -2.131
      -2.208
      -2.267
      -2.280
      -2.225
      -2.090
      -1.878
      -1.590
      -1.218
      -0.760
      -0.223
       0.366
       0.973
       1.571
       2.145
       2.695
       3.225
       3.729
       4.191
       4.583
       4.882
       5.071
       5.149
       5.123
       5.006
       4.816
       4.572
       4.294
       4.001
       3.708
       3.427
       3.170
       2.951
       2.783
       2.669
       2.592
       2.512
       2.373
       2.120
       1.717
       1.158
       0.463
      -0.326
      -1.159
      -1.985
      -2.758
      -3.437
      -3.990
      -4.397
      -4.649
      -4.751
      -4.717
      -4.563
      -4.311
      -3.986
      -3.613
      -3.218
      -2.822
      -2.439
      -2.075
      -1.727
      -1.389
      -1.059
      -0.743
      -0.452
      -0.186
       0.070
       0.347
       0.670
       1.041
       1.431
       1.788
       2.059
       2.209
       2.233
       2.154
       2.010
       1.837
       1.667
       1.525
       1.426
       1.374
       1.353
       1.328
       1.258
       1.120
       0.909
       0.643
       0.347
       0.042
      -0.260
      -0.558
      -0.854
      -1.146
      -1.425
      -1.674
      -1.884
      -2.054
      -2.195
      -2.323
      -2.457
      -2.603
      -2.755
      -2.882
      -2.943
      -2.904
      -2.752
      -2.504
      -2.208
      -1.918
      -1.685
      -1.535
      -1.466
      -1.451
      -1.450
      -1.417
      -1.315
      -1.121
      -0.839
      -0.496
      -0.130
       0.217
       0.510
       0.721
       0.833
       0.848
       0.790
       0.700
       0.630
       0.629
       0.734
       0.951
       1.257
       1.597
       1.911
       2.153
       2.306
       2.384
       2.412
       2.406
       2.360
       2.259
       2.086
       1.842
       1.539
       1.204
       0.862
       0.541
       0.262
       0.035
      -0.149
      -0.327
      -0.539
      -0.808
      -1.122
      -1.430
      -1.670
      -1.808
      -1.850
      -1.829
      -1.782
      -1.722
      -1.643
      -1.536
      -1.393
      -1.208
      -0.976
      -0.691
      -0.359
       0.007
       0.378
       0.722
       1.007
       1.217
       1.360
       1.472
       1.599
       1.780
       2.034
       2.354
       2.713
       3.077
       3.404
       3.659
       3.811
       3.841
       3.743
       3.525
       3.204
       2.808
       2.376
       1.955
       1.590
       1.310
       1.119
       0.994
       0.899
       0.802
       0.692
       0.578
       0.478
       0.408
       0.368
       0.338
       0.288
       0.176
      -0.035
      -0.375
      -0.852
      -1.439
      -2.073
      -2.669
      -3.153
      -3.485
      -3.660
      -3.693
      -3.607
      -3.433
      -3.207
      -2.973
      -2.767
      -2.611
      -2.511
      -2.465
      -2.469
      -2.515
      -2.584
      -2.643
      -2.661
      -2.617
      -2.509
      -2.356
      -2.180
      -1.995
      -1.802
      -1.589
      -1.346
      -1.074
      -0.782
      -0.485
      -0.192
       0.093
       0.367
       0.626
       0.858
       1.065
       1.265
       1.484
       1.746
       2.052
       2.377
       2.682
       2.923
       3.067
       3.094
       2.999
       2.785
       2.466
       2.059
       1.582
       1.053
       0.488
      -0.095
