Origin Time       26/2/2010 4:42:33	 
Lat.              28.5 N	
Long.             86.7 E	
Depth (Km)         28.0
Magnitude         5.4
 Region           Tibet                                                            
 Above details taken from IMD 
   
Station Code      BON
Station Lat.       26.473
Station Long.      90.561
Station Height(m)   75.0
Site Class        C   Vs30 between 200 m/sec to 375 m/sec *  
Record Time       26.02.2010 10:14:27.749
Sampling Rate     200. Hz
 Record Duration   85.525 Sec.
 Direction         Vert. (Up positive)
Max. Acceleration     -2.270 cm/sec**2
     
  * For reference see Site Classification link of website 
     
 Base Line Corrected and Low Pass Filtered (Cut Off at 35 Hz) Time History
 Acceleration data in cm/sec**2
    
[...]
      -0.074
      -0.024
      -0.006
      -0.035
      -0.096
      -0.159
      -0.205
      -0.235
      -0.255
      -0.261
      -0.242
      -0.189
      -0.100
       0.015
       0.143
       0.270
       0.382
       0.469
       0.517
       0.515
       0.460
       0.370
       0.276
       0.203
       0.158
       0.125
       0.082
       0.013
      -0.082
      -0.194
      -0.313
      -0.425
      -0.509
      -0.538
      -0.495
      -0.397
      -0.291
      -0.232
      -0.233
      -0.256
      -0.234
      -0.127
       0.049
       0.225
       0.323
       0.310
       0.206
       0.070
      -0.038
      -0.076
      -0.045
       0.015
       0.051
       0.036
      -0.012
      -0.040
      -0.010
       0.070
       0.143
       0.151
       0.078
      -0.041
      -0.146
      -0.202
      -0.220
      -0.240
      -0.287
      -0.340
      -0.339
      -0.240
      -0.056
       0.143
       0.283
       0.340
       0.366
       0.441
       0.600
       0.790
       0.891
       0.807
       0.553
       0.253
       0.045
      -0.017
       0.000
      -0.017
      -0.126
      -0.282
      -0.386
      -0.378
      -0.289
      -0.203
      -0.180
      -0.206
      -0.220
      -0.179
      -0.093
      -0.020
      -0.009
      -0.065
      -0.153
      -0.225
      -0.258
      -0.264
      -0.275
      -0.313
      -0.366
      -0.399
      -0.374
      -0.291
      -0.185
      -0.109
      -0.088
      -0.106
      -0.122
      -0.098
      -0.023
       0.082
       0.177
       0.229
       0.236
       0.230
       0.255
       0.329
       0.423
       0.490
       0.497
       0.457
       0.415
       0.403
       0.416
       0.414
       0.359
       0.241
       0.087
      -0.054
      -0.145
      -0.176
      -0.167
      -0.154
      -0.163
      -0.196
      -0.231
      -0.233
      -0.178
      -0.068
       0.060
       0.158
       0.197
       0.181
       0.143
       0.119
       0.126
       0.155
       0.174
       0.156
       0.101
       0.034
      -0.014
      -0.030
      -0.023
      -0.008
       0.001
       0.002
      -0.011
      -0.046
      -0.104
      -0.174
      -0.238
      -0.289
      -0.334
      -0.390
      -0.449
      -0.482
      -0.461
      -0.382
      -0.269
      -0.144
      -0.017
       0.104
       0.203
       0.263
       0.289
       0.305
       0.333
       0.353
       0.316
       0.191
       0.010
      -0.156
      -0.253
      -0.284
      -0.300
      -0.344
      -0.411
      -0.461
      -0.452
      -0.377
      -0.261
      -0.133
      -0.009
       0.104
       0.197
       0.263
       0.304
       0.340
       0.394
       0.472
       0.550
       0.592
       0.581
       0.525
       0.443
       0.350
       0.243
       0.125
       0.007
      -0.086
      -0.136
      -0.141
      -0.115
      -0.083
      -0.063
      -0.062
      -0.067
      -0.061
      -0.030
       0.026
       0.093
       0.147
       0.167
       0.147
       0.094
       0.024
      -0.041
      -0.086
      -0.105
      -0.108
      -0.105
      -0.095
      -0.073
      -0.046
      -0.034
      -0.049
      -0.078
      -0.094
      -0.091
      -0.101
      -0.167
      -0.304
      -0.482
      -0.638
      -0.715
      -0.688
      -0.575
      -0.431
      -0.311
      -0.236
      -0.173
      -0.066
       0.116
       0.349
       0.574
       0.751
       0.869
       0.934
       0.935
       0.861
       0.724
       0.568
       0.438
       0.346
       0.259
       0.132
      -0.047
      -0.239
      -0.377
      -0.419
      -0.380
      -0.319
      -0.293
      -0.314
      -0.342
      -0.321
      -0.217
      -0.048
       0.137
       0.285
       0.377
       0.424
       0.452
       0.475
       0.487
       0.470
       0.415
       0.339
       0.275
       0.251
       0.268
       0.290
       0.259
       0.129
      -0.106
      -0.391
      -0.647
      -0.815
      -0.900
      -0.958
      -1.059
      -1.229
      -1.429
      -1.571
      -1.575
      -1.417
      -1.137
      -0.810
      -0.497
      -0.220
       0.031
       0.273
       0.506
       0.712
       0.872
       0.974
       1.009
       0.967
       0.842
       0.645
       0.412
       0.190
       0.015
      -0.101
      -0.169
      -0.205
      -0.217
      -0.202
      -0.160
      -0.096
      -0.024
       0.050
       0.125
       0.202
       0.271
       0.319
       0.338
       0.340
       0.347
       0.372
       0.407
       0.432
       0.434
       0.418
       0.405
       0.415
       0.449
       0.487
       0.499
       0.466
       0.391
       0.286
       0.159
       0.000
      -0.200
      -0.432
      -0.656
      -0.821
      -0.892
      -0.866
      -0.766
      -0.616
      -0.427
      -0.206
       0.030
       0.253
       0.433
       0.554
       0.603
       0.569
       0.443
       0.233
      -0.026
      -0.286
      -0.508
      -0.680
      -0.811
      -0.906
      -0.942
      -0.877
      -0.677
      -0.355
       0.030
       0.394
       0.671
       0.840
       0.924
       0.960
       0.968
       0.932
       0.815
       0.594
       0.275
      -0.093
      -0.434
      -0.678
      -0.787
      -0.771
      -0.672
      -0.544
      -0.419
      -0.299
      -0.167
      -0.006
       0.179
       0.362
       0.504
       0.577
       0.572
       0.501
       0.394
       0.293
       0.243
       0.275
       0.392
       0.552
       0.692
       0.750
       0.700
       0.563
       0.388
       0.221
       0.072
      -0.091
      -0.312
      -0.607
      -0.941
      -1.234
      -1.404
      -1.420
      -1.312
      -1.149
      -0.988
      -0.848
      -0.713
      -0.562
      -0.392
      -0.224
      -0.082
       0.023
       0.103
       0.179
       0.265
       0.357
       0.436
       0.482
       0.493
       0.490
       0.503
       0.539
       0.575
       0.567
       0.493
       0.365
       0.216
       0.060
      -0.108
      -0.289
      -0.465
      -0.598
      -0.665
      -0.675
      -0.652
      -0.610
      -0.533
      -0.391
      -0.171
       0.097
       0.355
       0.547
       0.649
       0.683
       0.699
       0.740
       0.819
       0.913
       0.980
       0.979
       0.895
       0.744
       0.577
       0.447
       0.374
       0.328
       0.247
       0.082
      -0.166
      -0.442
      -0.678
      -0.831
      -0.906
      -0.938
      -0.956
      -0.961
      -0.941
      -0.893
      -0.828
      -0.764
      -0.703
      -0.642
      -0.579
      -0.527
      -0.507
      -0.530
      -0.581
      -0.628
      -0.640
      -0.604
      -0.519
      -0.393
      -0.240
      -0.074
       0.090
       0.239
       0.380
       0.533
       0.712
       0.903
       1.066
       1.152
       1.133
       1.017
       0.840
       0.652
       0.498
       0.405
       0.366
       0.352
       0.337
       0.328
       0.366
       0.481
       0.659
       0.840
       0.967
       1.029
       1.054
       1.071
       1.069
       1.007
       0.860
       0.651
       0.445
       0.296
       0.211
       0.146
       0.045
      -0.124
      -0.337
      -0.531
      -0.643
      -0.647
      -0.580
      -0.515
      -0.506
      -0.563
      -0.651
      -0.737
      -0.807
      -0.865
      -0.911
      -0.940
      -0.956
      -0.984
      -1.047
      -1.119
      -1.126
      -1.020
      -0.833
      -0.665
      -0.578
      -0.528
      -0.411
      -0.179
       0.113
       0.364
       0.511
       0.556
       0.532
       0.464
       0.365
       0.237
       0.081
      -0.103
      -0.299
      -0.478
      -0.609
      -0.694
      -0.757
      -0.812
      -0.834
      -0.779
      -0.621
      -0.375
      -0.081
       0.237
       0.584
       0.970
       1.377
       1.742
       2.000
       2.123
       2.137
       2.086
       2.001
       1.883
       1.709
       1.458
       1.132
       0.761
       0.396
       0.077
      -0.191
      -0.439
      -0.709
      -1.010
      -1.308
      -1.552
      -1.715
      -1.814
      -1.885
      -1.938
      -1.937
      -1.834
      -1.614
      -1.302
      -0.927
      -0.510
      -0.065
       0.372
       0.749
       1.006
       1.105
       1.042
       0.845
       0.569
       0.280
       0.032
      -0.153
      -0.291
      -0.408
      -0.513
      -0.580
      -0.574
      -0.488
      -0.357
      -0.224
      -0.106
       0.009
       0.133
       0.251
       0.329
       0.360
       0.391
       0.484
       0.668
       0.907
       1.133
       1.295
       1.387
       1.440
       1.488
       1.540
       1.560
       1.495
       1.301
       0.982
       0.588
       0.184
      -0.181
      -0.486
      -0.729
      -0.913
      -1.045
      -1.140
      -1.211
      -1.250
      -1.216
      -1.060
      -0.775
      -0.427
      -0.125
       0.061
       0.148
       0.212
       0.298
       0.374
       0.378
       0.299
       0.195
       0.119
       0.058
      -0.038
      -0.186
      -0.341
      -0.447
      -0.496
      -0.526
      -0.583
      -0.690
      -0.843
      -1.031
      -1.222
      -1.371
      -1.449
      -1.478
      -1.502
      -1.535
      -1.526
      -1.399
      -1.125
      -0.751
      -0.365
      -0.030
       0.258
       0.537
       0.820
       1.077
       1.261
       1.351
       1.361
       1.320
       1.251
       1.167
       1.080
       1.008
       0.975
       0.993
       1.058
       1.149
       1.237
       1.300
       1.328
       1.331
       1.320
       1.286
       1.198
       1.031
       0.795
       0.543
       0.332
       0.182
       0.076
      -0.011
      -0.086
      -0.152
      -0.225
      -0.336
      -0.513
      -0.759
      -1.044
      -1.330
      -1.593
      -1.820
      -2.008
      -2.147
      -2.225
      -2.226
      -2.134
      -1.942
      -1.658
      -1.319
      -0.972
      -0.652
      -0.364
      -0.088
       0.176
       0.392
       0.507
       0.498
       0.411
       0.336
       0.341
       0.414
       0.474
       0.433
       0.274
       0.069
      -0.070
      -0.071
       0.047
       0.194
       0.290
       0.334
       0.402
       0.574
       0.857
       1.177
       1.444
       1.621
       1.739
       1.845
       1.947
       2.000
       1.944
       1.757
       1.473
       1.153
       0.846
       0.555
       0.255
      -0.075
      -0.422
      -0.737
      -0.957
      -1.033
      -0.958
      -0.780
      -0.580
      -0.431
      -0.362
      -0.345
      -0.326
      -0.273
      -0.197
      -0.136
      -0.123
      -0.159
      -0.222
      -0.287
      -0.343
      -0.385
      -0.408
      -0.415
      -0.415
      -0.433
      -0.495
      -0.610
      -0.765
      -0.932
      -1.082
      -1.210
      -1.331
      -1.469
      -1.630
      -1.788
      -1.892
      -1.889
      -1.750
      -1.483
      -1.122
      -0.709
      -0.273
       0.168
       0.601
       1.012
       1.385
       1.698
       1.931
       2.067
       2.106
       2.069
       1.986
       1.877
       1.739
       1.557
       1.331
       1.091
       0.880
       0.722
       0.600
       0.472
       0.315
       0.146
       0.010
      -0.065
      -0.089
      -0.096
      -0.115
      -0.153
      -0.200
      -0.238
      -0.246
      -0.213
      -0.151
      -0.094
      -0.084
      -0.138
      -0.233
      -0.320
      -0.355
      -0.335
      -0.294
      -0.279
      -0.316
      -0.404
      -0.519
      -0.641
      -0.768
      -0.908
      -1.061
      -1.206
      -1.306
      -1.340
      -1.317
      -1.258
      -1.167
      -1.037
      -0.863
      -0.656
      -0.433
      -0.212
      -0.009
       0.149
       0.235
       0.237
       0.170
       0.080
       0.029
       0.057
       0.153
       0.266
       0.353
       0.419
       0.507
       0.652
       0.838
       1.005
       1.101
       1.125
       1.117
       1.100
       1.058
       0.972
       0.859
       0.772
       0.752
       0.789
       0.845
       0.896
       0.954
       1.031
       1.119
       1.181
       1.178
       1.097
       0.946
       0.746
       0.520
       0.279
       0.022
      -0.264
      -0.572
      -0.866
      -1.107
      -1.278
      -1.397
      -1.481
      -1.518
      -1.460
      -1.268
      -0.969
      -0.659
      -0.442
      -0.348
      -0.321
      -0.278
      -0.188
      -0.088
      -0.031
      -0.042
      -0.108
      -0.215
      -0.363
      -0.546
      -0.734
      -0.883
      -0.969
      -1.004
      -1.018
      -1.024
      -1.005
      -0.940
      -0.822
      -0.671
      -0.506
      -0.340
      -0.185
      -0.055
       0.045
       0.123
       0.194
       0.272
       0.373
       0.515
       0.705
       0.932
       1.159
       1.342
       1.453
       1.490
       1.466
       1.380
       1.225
       1.014
       0.812
       0.698
       0.688
       0.707
       0.672
       0.584
       0.537
       0.609
       0.776
       0.931
       0.991
       0.951
       0.864
       0.766
       0.650
       0.492
       0.290
       0.074
      -0.122
      -0.283
      -0.425
      -0.579
      -0.769
      -0.994
      -1.226
      -1.438
      -1.620
      -1.789
      -1.959
      -2.116
      -2.230
      -2.270
      -2.233
      -2.136
      -1.993
      -1.803
      -1.565
      -1.286
      -0.986
      -0.680
      -0.368
      -0.040
       0.303
       0.649
       0.971
       1.243
       1.450
       1.582
       1.636
       1.610
       1.507
       1.348
       1.172
       1.006
       0.849
       0.682
       0.503
       0.345
       0.250
       0.224
       0.234
       0.232
       0.210
       0.203
       0.254
       0.367
       0.479
       0.513
       0.438
       0.303
       0.203
       0.213
       0.332
       0.493
       0.612
       0.645
       0.609
       0.553
       0.512
       0.480
       0.428
       0.335
       0.195
       0.012
      -0.223
      -0.512
      -0.819
      -1.078
      -1.234
      -1.286
      -1.274
      -1.231
      -1.153
      -1.015
      -0.805
      -0.528
      -0.205
       0.136
       0.463
       0.747
       0.973
       1.140
       1.249
       1.282
       1.215
       1.045
       0.803
       0.539
       0.285
       0.046
      -0.190
      -0.423
      -0.631
      -0.785
      -0.876
      -0.927
      -0.977
      -1.047
      -1.124
      -1.164
      -1.131
      -1.033
      -0.918
      -0.838
      -0.798
      -0.749
      -0.625
      -0.404
      -0.130
       0.116
       0.270
       0.322
       0.319
       0.323
       0.365
       0.418
       0.421
       0.337
       0.189
       0.042
      -0.035
      -0.016
       0.077
       0.197
       0.298
       0.368
       0.426
       0.499
       0.603
       0.731
       0.855
       0.940
       0.952
       0.879
       0.744
       0.583
       0.425
       0.275
       0.124
      -0.038
      -0.213
      -0.400
      -0.597
      -0.783
      -0.920
      -0.979
      -0.960
      -0.891
      -0.795
      -0.674
      -0.522
      -0.349
      -0.183
      -0.045
       0.066
       0.162
       0.241
       0.290
       0.294
       0.255
       0.192
       0.127
       0.080
       0.060
       0.065
       0.095
       0.163
       0.281
       0.434
       0.563
       0.605
       0.537
       0.395
       0.235
       0.081
      -0.087
      -0.290
      -0.514
      -0.695
      -0.769
      -0.716
      -0.575
      -0.410
      -0.264
      -0.138
      -0.001
       0.179
       0.403
       0.635
       0.823
       0.933
       0.971
       0.965
       0.937
       0.900
       0.856
       0.802
       0.720
       0.582
       0.382
       0.157
      -0.026
      -0.129
      -0.175
      -0.228
      -0.334
      -0.486
      -0.635
      -0.737
      -0.778
      -0.776
      -0.756
      -0.737
      -0.724
      -0.709
      -0.679
      -0.629
      -0.569
      -0.520
      -0.484
      -0.444
      -0.367
      -0.229
      -0.048
       0.129
       0.254
       0.315
       0.337
       0.361
       0.409
       0.472
       0.516
       0.514
       0.470
       0.420
       0.396
       0.398
       0.391
       0.343
       0.249
       0.148
       0.080
       0.061
       0.066
       0.059
       0.020
      -0.034
      -0.061
      -0.022
       0.089
       0.234
       0.345
       0.362
       0.269
       0.111
      -0.029
      -0.089
      -0.072
      -0.041
      -0.058
      -0.127
      -0.195
      -0.207
      -0.154
      -0.071
      -0.002
       0.028
      -0.001
      -0.102
      -0.269
      -0.458
      -0.607
      -0.681
      -0.698
      -0.710
      -0.758
      -0.844
      -0.931
      -0.973
      -0.934
      -0.811
      -0.631
      -0.433
      -0.243
      -0.066
       0.117
       0.318
       0.521
       0.683
       0.755
       0.718
       0.603
       0.468
       0.357
       0.280
       0.229
       0.196
       0.182
       0.186
       0.200
       0.210
       0.202
       0.171
       0.121
       0.066
       0.032
       0.040
       0.091
       0.156
       0.200
       0.213
       0.218
       0.250
       0.325
       0.423
       0.509
       0.558
       0.574
       0.580
       0.610
       0.686
       0.806
       0.930
       1.000
       0.968
       0.820
       0.576
       0.278
      -0.039
      -0.354
      -0.661
      -0.961
      -1.247
      -1.501
      -1.691
      -1.785
      -1.759
      -1.617
      -1.393
      -1.132
      -0.863
      -0.577
      -0.249
       0.135
       0.541
       0.897
       1.135
       1.227
       1.201
       1.112
       1.006
       0.897
       0.760
       0.560
       0.277
      -0.056
      -0.371
      -0.592
      -0.690
      -0.686
      -0.636
      -0.579
      -0.521
      -0.436
      -0.298
      -0.107
       0.107
       0.295
       0.411
       0.440
       0.408
       0.365
       0.348
       0.360
       0.372
       0.351
       0.294
       0.224
       0.162
       0.116
       0.076
       0.032
      -0.025
      -0.109
      -0.235
      -0.407
      -0.592
      -0.737
      -0.791
      -0.740
      -0.616
      -0.468
      -0.329
      -0.189
      -0.012
       0.228
       0.517
       0.796
       0.986
       1.043
       0.995
       0.931
       0.931
       0.998
       1.054
       1.009
       0.832
       0.568
       0.285
       0.027
      -0.196
      -0.389
      -0.558
      -0.704
      -0.827
      -0.923
      -0.982
      -1.000
      -0.988
      -0.968
      -0.950
      -0.928
      -0.892
      -0.833
      -0.763
      -0.696
      -0.639
      -0.577
      -0.482
      -0.333
      -0.139
       0.073
       0.274
       0.457
       0.641
       0.847
       1.060
       1.224
       1.271
       1.175
       0.978
       0.761
       0.590
       0.474
       0.370
       0.228
       0.038
      -0.156
      -0.286
      -0.303
      -0.214
      -0.075
       0.037
       0.066
      -0.004
