Origin Time       3/9/2009 19:51:08	 
Lat.              24.3 N	
Long.             94.6 E	
Depth (Km)        100.0
Magnitude         5.9
 Region           MYANMAR-India-Manipuir-Border                                    
 Above details taken from IMD 
     
Station Code      BON
Station Lat.       26.473  N
Station Long.      90.561  E
Station Height(m)   75.0
Site Class        C   Vs30 between 200 m/sec to 375 m/sec *  
Record Time       04.09.2009 01:22:59.319
Sampling Rate     200. Hz
 Record Duration   65.020 Sec.
 Direction         E-W (E positive)
Max. Acceleration      5.451 cm/sec**2
     
  * For reference see Site Classification link of website 
     
 Base Line Corrected and Low Pass Filtered (Cut Off at 35 Hz) Time History
 Acceleration data in cm/sec**2
    
[...]
       0.124
       0.099
       0.036
      -0.058
      -0.168
      -0.279
      -0.381
      -0.473
      -0.556
      -0.631
      -0.692
      -0.732
      -0.749
      -0.749
      -0.743
      -0.738
      -0.724
      -0.684
      -0.606
      -0.503
      -0.406
      -0.351
      -0.346
      -0.371
      -0.391
      -0.384
      -0.353
      -0.326
      -0.327
      -0.363
      -0.421
      -0.473
      -0.496
      -0.485
      -0.454
      -0.420
      -0.395
      -0.376
      -0.354
      -0.321
      -0.280
      -0.239
      -0.205
      -0.179
      -0.159
      -0.139
      -0.112
      -0.072
      -0.021
       0.034
       0.080
       0.110
       0.126
       0.140
       0.159
       0.184
       0.209
       0.222
       0.216
       0.198
       0.183
       0.187
       0.213
       0.251
       0.284
       0.298
       0.292
       0.269
       0.234
       0.188
       0.143
       0.116
       0.130
       0.199
       0.320
       0.476
       0.644
       0.806
       0.951
       1.072
       1.166
       1.233
       1.270
       1.271
       1.223
       1.125
       1.001
       0.892
       0.841
       0.861
       0.925
       0.984
       0.997
       0.945
       0.835
       0.687
       0.519
       0.343
       0.170
       0.008
      -0.138
      -0.271
      -0.403
      -0.549
      -0.715
      -0.891
      -1.057
      -1.195
      -1.294
      -1.357
      -1.395
      -1.419
      -1.438
      -1.448
      -1.436
      -1.387
      -1.295
      -1.168
      -1.028
      -0.896
      -0.785
      -0.696
      -0.625
      -0.571
      -0.529
      -0.487
      -0.424
      -0.312
      -0.131
       0.117
       0.404
       0.685
       0.921
       1.092
       1.202
       1.261
       1.272
       1.229
       1.129
       0.983
       0.822
       0.685
       0.602
       0.573
       0.573
       0.561
       0.508
       0.411
       0.288
       0.165
       0.058
      -0.023
      -0.076
      -0.097
      -0.088
      -0.057
      -0.019
       0.013
       0.031
       0.043
       0.063
       0.101
       0.157
       0.222
       0.280
       0.311
       0.302
       0.245
       0.144
       0.007
      -0.153
      -0.327
      -0.505
      -0.670
      -0.806
      -0.892
      -0.920
      -0.899
      -0.849
      -0.791
      -0.740
      -0.703
      -0.678
      -0.664
      -0.660
      -0.660
      -0.657
      -0.639
      -0.599
      -0.542
      -0.489
      -0.469
      -0.492
      -0.541
      -0.579
      -0.567
      -0.486
      -0.350
      -0.193
      -0.051
       0.056
       0.136
       0.219
       0.340
       0.517
       0.741
       0.980
       1.191
       1.337
       1.403
       1.400
       1.353
       1.287
       1.221
       1.161
       1.112
       1.075
       1.045
       1.008
       0.947
       0.848
       0.708
       0.539
       0.358
       0.181
       0.017
      -0.131
      -0.263
      -0.378
      -0.476
      -0.565
      -0.655
      -0.759
      -0.882
      -1.020
      -1.167
      -1.319
      -1.469
      -1.607
      -1.717
      -1.774
      -1.754
      -1.642
      -1.447
      -1.208
      -0.981
      -0.815
      -0.733
      -0.720
      -0.738
      -0.748
      -0.719
      -0.645
      -0.533
      -0.403
      -0.273
      -0.152
      -0.027
       0.125
       0.325
       0.567
       0.813
       1.007
       1.106
       1.101
       1.024
       0.930
       0.864
       0.844
       0.857
       0.874
       0.868
       0.834
       0.785
       0.748
       0.748
       0.796
       0.890
       1.012
       1.146
       1.277
       1.395
       1.492
       1.557
       1.576
       1.536
       1.434
       1.281
       1.099
       0.909
       0.721
       0.537
       0.354
       0.180
       0.032
      -0.075
      -0.134
      -0.155
      -0.169
      -0.215
      -0.332
      -0.537
      -0.820
      -1.147
      -1.472
      -1.757
      -1.974
      -2.113
      -2.182
      -2.194
      -2.168
      -2.113
      -2.026
      -1.888
      -1.677
      -1.381
      -1.007
      -0.584
      -0.158
       0.227
       0.541
       0.782
       0.974
       1.155
       1.350
       1.560
       1.764
       1.933
       2.051
       2.117
       2.131
       2.087
       1.970
       1.775
       1.519
       1.245
       1.002
       0.814
       0.674
       0.545
       0.384
       0.163
      -0.126
      -0.481
      -0.892
      -1.340
      -1.789
      -2.182
      -2.461
      -2.584
      -2.540
      -2.355
      -2.071
      -1.736
      -1.397
      -1.088
      -0.833
      -0.648
      -0.539
      -0.508
      -0.542
      -0.615
      -0.688
      -0.723
      -0.696
      -0.605
      -0.462
      -0.287
      -0.100
       0.090
       0.281
       0.469
       0.643
       0.780
       0.858
       0.866
       0.813
       0.723
       0.620
       0.521
       0.428
       0.338
       0.242
       0.134
       0.013
      -0.116
      -0.243
      -0.353
      -0.432
      -0.474
      -0.481
      -0.461
      -0.416
      -0.336
      -0.209
      -0.030
       0.180
       0.382
       0.529
       0.600
       0.605
       0.580
       0.558
       0.551
       0.545
       0.510
       0.429
       0.307
       0.173
       0.069
       0.031
       0.080
       0.211
       0.399
       0.609
       0.805
       0.962
       1.061
       1.094
       1.069
       1.000
       0.903
       0.781
       0.628
       0.443
       0.239
       0.052
      -0.076
      -0.115
      -0.069
       0.032
       0.147
       0.251
       0.347
       0.454
       0.591
       0.762
       0.954
       1.138
       1.284
       1.365
       1.370
       1.305
       1.193
       1.061
       0.928
       0.796
       0.654
       0.497
       0.330
       0.167
       0.014
      -0.136
      -0.302
      -0.503
      -0.748
      -1.030
      -1.328
      -1.611
      -1.852
      -2.042
      -2.182
      -2.284
      -2.352
      -2.386
      -2.381
      -2.329
      -2.230
      -2.090
      -1.918
      -1.715
      -1.467
      -1.157
      -0.779
      -0.349
       0.096
       0.513
       0.867
       1.141
       1.331
       1.444
       1.497
       1.511
       1.511
       1.516
       1.532
       1.546
       1.532
       1.463
       1.326
       1.129
       0.897
       0.658
       0.425
       0.192
      -0.058
      -0.336
      -0.641
      -0.957
      -1.264
      -1.544
      -1.792
      -2.013
      -2.227
      -2.450
      -2.682
      -2.910
      -3.108
      -3.251
      -3.316
      -3.286
      -3.151
      -2.906
      -2.561
      -2.138
      -1.670
      -1.189
      -0.725
      -0.300
       0.067
       0.365
       0.595
       0.774
       0.927
       1.084
       1.259
       1.456
       1.659
       1.845
       1.989
       2.075
       2.098
       2.071
       2.011
       1.931
       1.835
       1.708
       1.538
       1.322
       1.078
       0.821
       0.552
       0.254
      -0.086
      -0.452
      -0.795
      -1.049
      -1.175
      -1.173
      -1.090
      -0.983
      -0.886
      -0.799
      -0.694
      -0.541
      -0.324
      -0.045
       0.291
       0.675
       1.096
       1.533
       1.957
       2.336
       2.646
       2.873
       3.013
       3.072
       3.063
       2.998
       2.881
       2.706
       2.463
       2.153
       1.790
       1.399
       1.007
       0.625
       0.255
      -0.105
      -0.450
      -0.769
      -1.047
      -1.279
      -1.468
      -1.625
      -1.771
      -1.924
      -2.094
      -2.271
      -2.420
      -2.498
      -2.465
      -2.312
      -2.057
      -1.738
      -1.393
      -1.040
      -0.677
      -0.293
       0.110
       0.504
       0.833
       1.036
       1.081
       0.982
       0.800
       0.619
       0.504
       0.484
       0.549
       0.672
       0.826
       0.992
       1.155
       1.293
       1.380
       1.395
       1.332
       1.207
       1.053
       0.910
       0.812
       0.780
       0.817
       0.917
       1.063
       1.231
       1.390
       1.506
       1.546
       1.493
       1.349
       1.136
       0.883
       0.613
       0.338
       0.055
      -0.242
      -0.554
      -0.873
      -1.179
      -1.449
      -1.672
      -1.854
      -2.022
      -2.204
      -2.420
      -2.667
      -2.931
      -3.195
      -3.445
      -3.669
      -3.845
      -3.948
      -3.959
      -3.885
      -3.758
      -3.618
      -3.493
      -3.387
      -3.282
      -3.151
      -2.963
      -2.691
      -2.321
      -1.857
      -1.325
      -0.765
      -0.216
       0.295
       0.749
       1.130
       1.425
       1.629
       1.745
       1.785
       1.760
       1.679
       1.561
       1.451
       1.416
       1.522
       1.791
       2.178
       2.591
       2.930
       3.131
       3.183
       3.108
       2.934
       2.677
       2.349
       1.970
       1.577
       1.218
       0.934
       0.749
       0.668
       0.676
       0.735
       0.790
       0.781
       0.669
       0.455
       0.192
      -0.044
      -0.192
      -0.239
      -0.223
      -0.210
      -0.254
      -0.366
      -0.523
      -0.689
      -0.845
      -0.993
      -1.144
      -1.303
      -1.457
      -1.578
      -1.633
      -1.592
      -1.437
      -1.174
      -0.832
      -0.460
      -0.109
       0.191
       0.433
       0.629
       0.789
       0.910
       0.986
       1.015
       1.010
       0.996
       0.994
       1.011
       1.039
       1.059
       1.065
       1.057
       1.039
       1.011
       0.972
       0.926
       0.880
       0.835
       0.775
       0.675
       0.522
       0.326
       0.112
      -0.092
      -0.261
      -0.385
      -0.460
      -0.495
      -0.498
      -0.477
      -0.438
      -0.393
      -0.356
      -0.340
      -0.348
      -0.377
      -0.411
      -0.437
      -0.444
      -0.435
      -0.419
      -0.416
      -0.444
      -0.505
      -0.586
      -0.656
      -0.684
      -0.651
      -0.556
      -0.413
      -0.248
      -0.088
       0.038
       0.105
       0.101
       0.030
      -0.089
      -0.224
      -0.341
      -0.401
      -0.369
      -0.218
       0.050
       0.402
       0.778
       1.119
       1.388
       1.581
       1.711
       1.788
       1.801
       1.724
       1.533
       1.223
       0.812
       0.331
      -0.182
      -0.684
      -1.132
      -1.488
      -1.731
      -1.864
      -1.914
      -1.909
      -1.866
      -1.783
      -1.652
      -1.482
      -1.300
      -1.146
      -1.049
      -1.018
      -1.035
      -1.075
      -1.114
      -1.136
      -1.117
      -1.028
      -0.845
      -0.569
      -0.232
       0.114
       0.427
       0.687
       0.901
       1.088
       1.262
       1.417
       1.519
       1.526
       1.411
       1.190
       0.918
       0.664
       0.473
       0.348
       0.253
       0.137
      -0.041
      -0.295
      -0.609
      -0.949
      -1.277
      -1.571
      -1.825
      -2.040
      -2.213
      -2.336
      -2.399
      -2.394
      -2.318
      -2.169
      -1.948
      -1.656
      -1.300
      -0.894
      -0.464
      -0.045
       0.326
       0.626
       0.855
       1.033
       1.184
       1.315
       1.427
       1.516
       1.586
       1.638
       1.664
       1.640
       1.538
       1.345
       1.083
       0.808
       0.584
       0.456
       0.421
       0.436
       0.447
       0.420
       0.346
       0.237
       0.104
      -0.046
      -0.207
      -0.360
      -0.477
      -0.527
      -0.492
      -0.371
      -0.189
       0.013
       0.191
       0.314
       0.388
       0.451
       0.550
       0.703
       0.883
       1.022
       1.056
       0.966
       0.795
       0.619
       0.501
       0.457
       0.461
       0.476
       0.484
       0.495
       0.527
       0.585
       0.657
       0.733
       0.824
       0.963
       1.172
       1.439
       1.710
       1.918
       2.019
       2.011
       1.923
       1.786
       1.612
       1.394
       1.125
       0.823
       0.528
       0.293
       0.144
       0.071
       0.026
      -0.044
      -0.170
      -0.342
      -0.526
      -0.696
      -0.852
      -1.016
      -1.206
      -1.415
      -1.606
      -1.722
      -1.728
      -1.622
      -1.439
      -1.228
      -1.029
      -0.857
      -0.712
      -0.586
      -0.477
      -0.382
      -0.302
      -0.233
      -0.168
      -0.098
      -0.022
       0.052
       0.101
       0.097
       0.019
      -0.135
      -0.340
      -0.549
      -0.704
      -0.755
      -0.679
      -0.486
      -0.218
       0.068
       0.313
       0.469
       0.506
       0.416
       0.224
      -0.015
      -0.230
      -0.362
      -0.381
      -0.299
      -0.151
       0.009
       0.131
       0.168
       0.091
      -0.118
      -0.456
      -0.901
      -1.410
      -1.921
      -2.365
      -2.692
      -2.897
      -3.032
      -3.183
      -3.421
      -3.762
      -4.146
      -4.469
      -4.635
      -4.599
      -4.379
      -4.032
      -3.616
      -3.166
      -2.692
      -2.192
      -1.671
      -1.138
      -0.592
      -0.020
       0.599
       1.271
       1.975
       2.665
       3.296
       3.846
       4.318
       4.723
       5.061
       5.314
       5.451
       5.451
       5.305
       5.034
       4.673
       4.265
       3.839
       3.399
       2.931
       2.419
       1.866
       1.295
       0.742
       0.246
      -0.153
      -0.430
      -0.575
      -0.601
      -0.545
      -0.456
      -0.382
      -0.354
      -0.378
      -0.432
      -0.480
      -0.492
      -0.461
      -0.397
      -0.314
      -0.218
      -0.103
       0.028
       0.153
       0.238
       0.248
       0.176
       0.040
      -0.127
      -0.283
      -0.387
      -0.399
      -0.293
      -0.083
       0.166
       0.355
       0.403
       0.292
       0.070
      -0.181
      -0.389
      -0.526
      -0.593
      -0.603
      -0.562
      -0.467
      -0.320
      -0.131
       0.083
       0.313
       0.561
       0.832
       1.115
       1.368
       1.533
       1.564
       1.455
       1.249
       1.009
       0.789
       0.606
       0.441
       0.258
       0.029
      -0.245
      -0.546
      -0.845
      -1.126
      -1.387
      -1.633
      -1.863
      -2.053
      -2.161
      -2.149
      -2.005
      -1.760
      -1.482
      -1.250
      -1.118
      -1.099
      -1.165
      -1.273
      -1.387
      -1.483
      -1.542
      -1.541
      -1.460
      -1.299
      -1.089
      -0.880
      -0.729
      -0.668
      -0.700
      -0.799
      -0.922
      -1.024
      -1.070
      -1.043
      -0.941
      -0.773
      -0.547
      -0.273
       0.026
       0.306
       0.513
       0.609
       0.598
       0.528
       0.465
       0.452
       0.487
       0.528
       0.530
       0.476
       0.388
       0.314
       0.292
       0.328
       0.384
       0.405
       0.357
       0.251
       0.148
       0.122
       0.226
       0.468
       0.816
       1.222
       1.639
       2.026
       2.344
       2.555
       2.627
       2.557
       2.377
       2.152
       1.957
       1.840
       1.801
       1.808
       1.820
       1.817
       1.800
       1.780
       1.757
       1.721
       1.659
       1.563
       1.428
       1.252
       1.044
       0.821
       0.601
       0.386
       0.154
      -0.134
      -0.501
      -0.934
      -1.384
      -1.787
      -2.097
      -2.299
      -2.406
      -2.445
      -2.437
      -2.397
      -2.344
      -2.305
      -2.302
      -2.333
      -2.355
      -2.308
      -2.142
      -1.858
      -1.513
      -1.187
      -0.937
      -0.768
      -0.627
      -0.440
      -0.151
       0.247
       0.706
       1.140
       1.466
       1.635
       1.650
       1.558
       1.420
       1.274
       1.122
       0.948
       0.742
       0.524
       0.336
       0.212
       0.145
       0.086
      -0.023
      -0.210
      -0.452
      -0.697
      -0.895
      -1.032
      -1.123
      -1.185
      -1.212
      -1.178
      -1.058
      -0.861
      -0.636
      -0.438
      -0.296
      -0.193
      -0.089
       0.043
       0.194
       0.319
       0.371
       0.322
       0.184
       0.005
      -0.149
      -0.223
      -0.199
      -0.107
      -0.011
       0.022
      -0.039
      -0.177
      -0.341
      -0.469
      -0.517
      -0.478
      -0.379
      -0.268
      -0.201
      -0.218
      -0.326
      -0.493
      -0.659
      -0.772
      -0.807
      -0.786
      -0.750
      -0.735
      -0.739
      -0.720
      -0.624
      -0.422
      -0.136
       0.165
       0.403
       0.530
       0.546
       0.498
       0.447
       0.439
       0.487
       0.567
       0.636
       0.661
       0.637
       0.587
       0.550
       0.545
       0.562
       0.565
       0.513
       0.381
       0.173
      -0.078
      -0.316
      -0.488
      -0.556
      -0.519
      -0.407
      -0.268
      -0.141
      -0.041
       0.043
       0.131
       0.232
       0.333
       0.415
       0.469
       0.513
       0.584
       0.711
       0.898
       1.118
       1.327
       1.482
       1.559
       1.565
       1.541
       1.539
       1.598
       1.715
       1.847
       1.928
       1.917
       1.819
       1.684
       1.580
       1.544
       1.570
       1.606
       1.587
       1.473
       1.254
       0.950
       0.581
       0.171
      -0.253
      -0.644
      -0.950
      -1.133
      -1.194
      -1.180
      -1.162
      -1.203
      -1.328
      -1.521
      -1.737
      -1.926
      -2.044
      -2.066
      -1.983
      -1.807
      -1.568
      -1.309
      -1.071
      -0.882
      -0.750
      -0.670
      -0.633
      -0.631
      -0.648
      -0.659
      -0.637
      -0.564
      -0.436
      -0.266
      -0.074
       0.114
       0.270
       0.377
       0.430
       0.440
       0.418
       0.363
       0.265
       0.121
      -0.052
      -0.216
      -0.345
      -0.439
      -0.529
      -0.653
      -0.820
      -0.995
      -1.121
      -1.161
      -1.127
      -1.073
      -1.055
      -1.096
      -1.167
      -1.218
      -1.204
      -1.110
      -0.946
      -0.736
      -0.500
      -0.253
      -0.014
       0.193
       0.341
       0.411
       0.405
       0.353
       0.295
       0.266
       0.271
       0.289
       0.284
       0.231
       0.141
       0.057
       0.033
       0.111
       0.282
       0.483
       0.620
       0.607
       0.419
       0.099
      -0.261
      -0.562
      -0.741
      -0.783
      -0.709
      -0.560
      -0.375
      -0.180
       0.013
       0.197
       0.371
       0.534
       0.686
       0.824
       0.942
       1.027
       1.068
       1.059
       0.999
       0.897
       0.769
       0.641
       0.535
       0.466
       0.432
       0.422
       0.435
       0.483
       0.581
       0.729
       0.893
       1.020
       1.062
       1.002
       0.859
       0.674
       0.480
