Origin Time       15/2/2009 07:35:55 
Lat.              26.0 N 
Long.             90.2 E 
Depth (Km)         39.3
Magnitude         4.4
 Region           Assam-Meghalaya-Border                                           
 Above details taken from IMD 
   
Station Code      BON
Station Lat.       26.473
Station Long.      90.561
Station Height(m)   75.0
Site Class        C   Vs30 between 200 m/sec to 375 m/sec *  
Record Time       16.02.2009 01:06:13.289
Sampling Rate     200. Hz
 Record Duration   72.175 Sec.
 Direction         Vert. (Up positive)
Max. Acceleration     -6.006 cm/sec**2
     
  * For reference see Site Classification link of website 
     
 Base Line Corrected and Low Pass Filtered (Cut Off at 35 Hz) Time History
 Acceleration data in cm/sec**2
    
[...]
       0.740
       0.824
       0.906
       0.918
       0.837
       0.654
       0.361
      -0.005
      -0.338
      -0.512
      -0.478
      -0.295
      -0.061
       0.171
       0.422
       0.708
       0.964
       1.050
       0.876
       0.502
       0.094
      -0.209
      -0.390
      -0.524
      -0.661
      -0.758
      -0.737
      -0.587
      -0.397
      -0.275
      -0.257
      -0.294
      -0.285
      -0.129
       0.234
       0.766
       1.318
       1.682
       1.718
       1.444
       1.000
       0.509
      -0.027
      -0.673
      -1.404
      -2.020
      -2.243
      -1.926
      -1.179
      -0.288
       0.456
       0.896
       1.022
       0.934
       0.768
       0.617
       0.477
       0.277
      -0.038
      -0.441
      -0.835
      -1.120
      -1.255
      -1.242
      -1.082
      -0.761
      -0.300
       0.196
       0.570
       0.713
       0.657
       0.556
       0.566
       0.692
       0.764
       0.570
       0.057
      -0.590
      -1.059
      -1.130
      -0.825
      -0.366
       0.005
       0.186
       0.236
       0.268
       0.340
       0.413
       0.417
       0.342
       0.268
       0.282
       0.377
       0.453
       0.428
       0.352
       0.370
       0.554
       0.786
       0.839
       0.590
       0.149
      -0.239
      -0.414
      -0.419
      -0.397
      -0.410
      -0.370
      -0.175
       0.127
       0.333
       0.270
      -0.031
      -0.381
      -0.630
      -0.803
      -1.007
      -1.233
      -1.302
      -1.040
      -0.473
       0.162
       0.623
       0.853
       0.974
       1.112
       1.246
       1.217
       0.898
       0.349
      -0.202
      -0.540
      -0.620
      -0.558
      -0.493
      -0.482
      -0.485
      -0.448
      -0.379
      -0.348
      -0.406
      -0.495
      -0.485
      -0.297
      -0.013
       0.189
       0.207
       0.129
       0.142
       0.327
       0.557
       0.610
       0.386
       0.005
      -0.297
      -0.387
      -0.356
      -0.423
      -0.713
      -1.133
      -1.443
      -1.457
      -1.152
      -0.636
      -0.040
       0.543
       1.058
       1.482
       1.817
       2.064
       2.197
       2.165
       1.928
       1.489
       0.897
       0.245
      -0.343
      -0.740
      -0.867
      -0.731
      -0.435
      -0.126
       0.089
       0.199
       0.272
       0.352
       0.393
       0.283
      -0.041
      -0.500
      -0.901
      -1.072
      -0.988
      -0.768
      -0.569
      -0.482
      -0.518
      -0.636
      -0.778
      -0.884
      -0.908
      -0.835
      -0.692
      -0.532
      -0.399
      -0.301
      -0.214
      -0.114
      -0.002
       0.108
       0.225
       0.391
       0.629
       0.862
       0.911
       0.628
       0.057
      -0.539
      -0.836
      -0.680
      -0.204
       0.273
       0.474
       0.363
       0.143
       0.071
       0.245
       0.555
       0.817
       0.938
       0.967
       0.986
       0.989
       0.876
       0.562
       0.104
      -0.316
      -0.508
      -0.414
      -0.136
       0.162
       0.371
       0.474
       0.489
       0.438
       0.370
       0.361
       0.431
       0.483
       0.366
       0.016
      -0.459
      -0.845
      -0.974
      -0.835
      -0.562
      -0.322
      -0.223
      -0.279
      -0.440
      -0.634
      -0.801
      -0.919
      -0.995
      -1.027
      -0.979
      -0.796
      -0.461
      -0.043
       0.329
       0.541
       0.559
       0.418
       0.173
      -0.109
      -0.339
      -0.417
      -0.291
       0.001
       0.355
       0.653
       0.800
       0.733
       0.463
       0.120
      -0.081
       0.023
       0.390
       0.766
       0.869
       0.599
       0.124
      -0.265
      -0.396
      -0.325
      -0.230
      -0.211
      -0.225
      -0.215
      -0.231
      -0.371
      -0.617
      -0.808
      -0.785
      -0.548
      -0.257
      -0.075
      -0.020
       0.041
       0.269
       0.704
       1.222
       1.637
       1.837
       1.836
       1.721
       1.548
       1.310
       0.972
       0.519
      -0.017
      -0.566
      -1.049
      -1.401
      -1.579
      -1.539
      -1.253
      -0.778
      -0.293
      -0.020
      -0.056
      -0.287
      -0.474
      -0.461
      -0.286
      -0.109
      -0.041
      -0.049
      -0.032
       0.048
       0.144
       0.219
       0.326
       0.549
       0.862
       1.083
       1.015
       0.631
       0.105
      -0.342
      -0.613
      -0.751
      -0.851
      -0.976
      -1.149
      -1.366
      -1.595
      -1.780
      -1.849
      -1.758
      -1.521
      -1.198
      -0.836
      -0.438
       0.021
       0.544
       1.075
       1.493
       1.674
       1.587
       1.368
       1.256
       1.405
       1.736
       1.981
       1.890
       1.423
       0.753
       0.097
      -0.426
      -0.807
      -1.041
      -1.074
      -0.836
      -0.324
       0.351
       0.990
       1.399
       1.475
       1.241
       0.799
       0.233
      -0.427
      -1.169
      -1.908
      -2.441
      -2.528
      -2.054
      -1.142
      -0.108
       0.734
       1.249
       1.492
       1.564
       1.461
       1.087
       0.390
      -0.517
      -1.404
      -2.065
      -2.429
      -2.538
      -2.464
      -2.259
      -1.950
      -1.550
      -1.068
      -0.537
      -0.009
       0.499
       1.027
       1.603
       2.154
       2.503
       2.506
       2.185
       1.744
       1.454
       1.479
       1.790
       2.212
       2.554
       2.722
       2.727
       2.611
       2.363
       1.916
       1.203
       0.219
      -0.961
      -2.208
      -3.388
      -4.402
      -5.194
      -5.712
      -5.859
      -5.509
      -4.598
      -3.213
      -1.585
       0.031
       1.463
       2.606
       3.336
       3.526
       3.184
       2.571
       2.101
       2.060
       2.383
       2.734
       2.801
       2.509
       1.976
       1.327
       0.584
      -0.280
      -1.232
      -2.122
      -2.764
      -3.069
      -3.066
      -2.808
      -2.297
      -1.536
      -0.644
       0.132
       0.555
       0.581
       0.390
       0.227
       0.185
       0.162
      -0.014
      -0.413
      -0.941
      -1.406
      -1.680
      -1.821
      -1.988
      -2.217
      -2.298
      -1.925
      -0.988
       0.290
       1.527
       2.485
       3.169
       3.660
       3.873
       3.575
       2.629
       1.239
      -0.098
      -0.926
      -1.146
      -1.028
      -0.920
      -0.949
      -0.976
      -0.814
      -0.437
       0.011
       0.366
       0.571
       0.658
       0.666
       0.633
       0.634
       0.765
       1.053
       1.416
       1.725
       1.880
       1.829
       1.557
       1.102
       0.556
       0.017
      -0.470
      -0.929
      -1.401
      -1.888
      -2.358
      -2.777
      -3.125
      -3.360
      -3.392
      -3.103
      -2.413
      -1.371
      -0.186
       0.857
       1.562
       1.926
       2.096
       2.236
       2.394
       2.471
       2.294
       1.752
       0.887
      -0.111
      -1.018
      -1.696
      -2.129
      -2.374
      -2.476
      -2.427
      -2.176
      -1.679
      -0.942
      -0.035
       0.930
       1.816
       2.479
       2.801
       2.758
       2.442
       2.018
       1.656
       1.469
       1.471
       1.542
       1.476
       1.134
       0.560
      -0.045
      -0.517
      -0.861
      -1.205
      -1.622
      -2.023
      -2.254
      -2.271
      -2.185
      -2.136
      -2.134
      -2.056
      -1.764
      -1.203
      -0.406
       0.518
       1.382
       1.964
       2.130
       1.962
       1.722
       1.654
       1.792
       1.952
       1.929
       1.701
       1.448
       1.352
       1.376
       1.254
       0.732
      -0.180
      -1.187
      -1.953
      -2.348
      -2.501
      -2.629
      -2.834
      -3.033
      -3.055
      -2.792
      -2.290
      -1.717
      -1.264
      -1.028
      -0.953
      -0.864
      -0.594
      -0.111
       0.475
       1.037
       1.565
       2.178
       2.988
       3.965
       4.887
       5.395
       5.157
       4.077
       2.424
       0.711
      -0.624
      -1.448
      -1.910
      -2.234
      -2.559
      -2.916
      -3.265
      -3.524
      -3.566
      -3.243
      -2.476
      -1.367
      -0.222
       0.564
       0.744
       0.382
      -0.187
      -0.599
      -0.685
      -0.534
      -0.341
      -0.223
      -0.128
       0.109
       0.625
       1.431
       2.400
       3.315
       3.925
       4.012
       3.471
       2.383
       1.022
      -0.231
      -1.067
      -1.412
      -1.444
      -1.438
      -1.533
      -1.637
      -1.532
      -1.086
      -0.381
       0.330
       0.804
       0.957
       0.872
       0.692
       0.514
       0.368
       0.258
       0.185
       0.114
      -0.039
      -0.349
      -0.817
      -1.369
      -1.936
      -2.481
      -2.919
      -3.015
      -2.477
      -1.223
       0.430
       1.909
       2.792
       3.120
       3.287
       3.613
       4.000
       4.030
       3.371
       2.116
       0.706
      -0.422
      -1.110
      -1.438
      -1.488
      -1.196
      -0.470
       0.544
       1.381
       1.504
       0.722
      -0.642
      -1.985
      -2.879
      -3.343
      -3.704
      -4.193
      -4.693
      -4.872
      -4.545
      -3.839
      -2.983
      -2.001
      -0.701
       1.001
       2.790
       4.077
       4.452
       4.019
       3.259
       2.589
       2.064
       1.472
       0.660
      -0.261
      -0.992
      -1.286
      -1.093
      -0.513
       0.321
       1.269
       2.118
       2.573
       2.402
       1.617
       0.522
      -0.449
      -1.004
      -1.151
      -1.130
      -1.187
      -1.379
      -1.551
      -1.485
      -1.069
      -0.356
       0.511
       1.411
       2.263
       2.944
       3.272
       3.125
       2.584
       1.902
       1.291
       0.741
       0.089
      -0.761
      -1.699
      -2.508
      -3.069
      -3.433
      -3.687
      -3.794
      -3.609
      -3.048
      -2.214
      -1.343
      -0.606
       0.017
       0.657
       1.358
       1.983
       2.313
       2.227
       1.761
       1.010
       0.035
      -1.080
      -2.119
      -2.765
      -2.790
      -2.216
      -1.295
      -0.328
       0.491
       1.087
       1.458
       1.676
       1.893
       2.272
       2.836
       3.413
       3.724
       3.566
       2.905
       1.862
       0.640
      -0.512
      -1.340
      -1.712
      -1.728
      -1.671
      -1.782
      -2.073
      -2.332
      -2.301
      -1.872
      -1.134
      -0.296
       0.454
       1.003
       1.301
       1.321
       1.080
       0.695
       0.365
       0.265
       0.416
       0.674
       0.829
       0.708
       0.246
      -0.450
      -1.102
      -1.376
      -1.123
      -0.533
      -0.044
       0.000
      -0.356
      -0.722
      -0.711
      -0.264
       0.343
       0.769
       0.866
       0.718
       0.480
       0.236
      -0.004
      -0.223
      -0.385
      -0.498
      -0.645
      -0.907
      -1.233
      -1.391
      -1.104
      -0.298
       0.784
       1.723
       2.190
       2.125
       1.704
       1.194
       0.804
       0.614
       0.569
       0.530
       0.357
       0.007
      -0.412
      -0.676
      -0.576
      -0.067
       0.651
       1.225
       1.379
       1.119
       0.693
       0.318
      -0.019
      -0.494
      -1.210
      -2.061
      -2.811
      -3.277
      -3.444
      -3.409
      -3.230
      -2.843
      -2.149
      -1.160
      -0.067
       0.872
       1.510
       1.896
       2.159
       2.324
       2.279
       1.934
       1.395
       0.933
       0.764
       0.828
       0.826
       0.497
      -0.104
      -0.614
      -0.662
      -0.188
       0.508
       1.013
       1.117
       0.909
       0.620
       0.388
       0.153
      -0.240
      -0.850
      -1.555
      -2.124
      -2.403
      -2.426
      -2.342
      -2.229
      -2.022
      -1.621
      -1.032
      -0.360
       0.302
       0.938
       1.549
       2.073
       2.383
       2.369
       2.022
       1.464
       0.914
       0.597
       0.639
       0.981
       1.408
       1.681
       1.693
       1.513
       1.285
       1.084
       0.851
       0.460
      -0.183
      -1.051
      -1.985
      -2.763
      -3.224
      -3.338
      -3.165
      -2.782
      -2.247
      -1.623
      -1.018
      -0.559
      -0.311
      -0.215
      -0.122
       0.123
       0.627
       1.408
       2.332
       3.097
       3.353
       2.905
       1.843
       0.516
      -0.643
      -1.330
      -1.497
      -1.293
      -0.917
      -0.508
      -0.133
       0.194
       0.533
       0.988
       1.577
       2.089
       2.131
       1.388
      -0.099
      -1.886
      -3.357
      -4.037
      -3.778
      -2.740
      -1.224
       0.471
       2.073
       3.295
       3.881
       3.748
       3.063
       2.115
       1.093
       0.013
      -1.138
      -2.224
      -2.946
      -3.029
      -2.407
      -1.275
       0.066
       1.395
       2.653
       3.813
       4.691
       4.916
       4.151
       2.383
      -0.008
      -2.445
      -4.431
      -5.666
      -6.006
      -5.434
      -4.133
      -2.548
      -1.269
      -0.699
      -0.754
      -0.880
      -0.482
       0.583
       1.868
       2.703
       2.727
       2.099
       1.250
       0.503
      -0.064
      -0.461
      -0.622
      -0.447
       0.005
       0.460
       0.613
       0.406
       0.102
       0.052
       0.376
       0.851
       1.113
       0.987
       0.652
       0.475
       0.665
       1.042
       1.154
       0.650
      -0.394
      -1.502
      -2.147
      -2.144
      -1.741
      -1.342
      -1.139
      -0.997
      -0.645
       0.040
       0.912
       1.668
       2.027
       1.854
       1.175
       0.139
      -1.008
      -1.981
      -2.516
      -2.461
      -1.861
      -0.977
      -0.192
       0.223
       0.319
       0.443
       0.960
       1.920
       2.984
       3.672
       3.713
       3.195
       2.391
       1.512
       0.618
      -0.260
      -1.029
      -1.599
      -1.962
      -2.166
      -2.199
      -1.974
      -1.476
      -0.911
      -0.633
      -0.860
      -1.457
      -2.020
      -2.182
      -1.867
      -1.297
      -0.778
      -0.467
      -0.280
      -0.003
       0.507
       1.190
       1.827
       2.218
       2.326
       2.292
       2.296
       2.409
       2.517
       2.358
       1.697
       0.526
      -0.867
      -2.070
      -2.815
      -3.073
      -2.936
      -2.466
      -1.687
      -0.706
       0.230
       0.846
       1.043
       0.987
       0.967
       1.133
       1.390
       1.526
       1.420
       1.104
       0.697
       0.315
       0.058
      -0.001
       0.149
       0.431
       0.731
       0.990
       1.229
       1.460
       1.581
       1.384
       0.716
      -0.355
      -1.525
      -2.413
      -2.786
      -2.681
      -2.347
      -2.031
      -1.800
      -1.526
      -1.014
      -0.192
       0.802
       1.663
       2.078
       1.912
       1.268
       0.407
      -0.424
      -1.089
      -1.566
      -1.868
      -1.990
      -1.897
      -1.559
      -0.977
      -0.165
       0.859
       2.020
       3.112
       3.821
       3.869
       3.189
       1.977
       0.574
      -0.730
      -1.822
      -2.748
      -3.603
      -4.404
      -5.030
      -5.260
      -4.885
      -3.828
      -2.235
      -0.451
       1.117
       2.201
       2.785
       3.059
       3.251
       3.475
       3.698
       3.792
       3.603
       2.987
       1.902
       0.515
      -0.776
      -1.533
      -1.551
      -1.029
      -0.432
      -0.160
      -0.247
      -0.385
      -0.233
       0.272
       0.877
       1.223
       1.091
       0.479
      -0.483
      -1.620
      -2.723
      -3.522
      -3.737
      -3.212
      -2.048
      -0.615
       0.627
       1.400
       1.752
       1.924
       2.079
       2.138
       1.883
       1.225
       0.360
      -0.343
      -0.607
      -0.414
       0.057
       0.620
       1.181
       1.701
       2.101
       2.278
       2.186
       1.888
       1.488
       1.039
       0.529
      -0.048
      -0.648
      -1.205
      -1.679
      -2.038
      -2.219
      -2.147
      -1.849
      -1.516
      -1.384
      -1.512
      -1.688
      -1.595
      -1.103
      -0.391
       0.211
       0.494
       0.493
       0.386
       0.336
       0.401
       0.542
       0.666
       0.662
       0.458
       0.065
      -0.407
      -0.802
      -1.020
      -1.067
      -1.001
      -0.852
      -0.578
      -0.129
       0.466
       1.067
       1.486
       1.586
       1.344
       0.847
       0.230
      -0.352
      -0.752
      -0.859
      -0.646
      -0.198
       0.303
       0.656
       0.744
       0.594
       0.353
       0.170
       0.094
       0.048
      -0.074
      -0.277
      -0.416
      -0.300
       0.126
       0.714
       1.220
       1.503
       1.605
       1.632
       1.570
       1.258
       0.558
      -0.451
      -1.459
      -2.142
      -2.402
      -2.400
      -2.363
      -2.374
      -2.333
      -2.091
      -1.598
      -0.928
      -0.199
       0.480
       0.980
       1.157
       0.942
       0.465
       0.030
      -0.084
       0.156
       0.535
       0.805
       0.919
       1.018
       1.198
       1.343
       1.243
       0.852
       0.394
       0.176
       0.288
       0.523
       0.601
       0.461
       0.299
       0.365
       0.716
       1.168
       1.460
       1.453
       1.194
       0.827
       0.450
       0.058
      -0.408
      -0.953
      -1.463
      -1.751
      -1.687
      -1.312
      -0.815
      -0.387
      -0.105
       0.056
       0.099
      -0.060
      -0.505
      -1.186
      -1.894
      -2.384
      -2.519
      -2.295
      -1.795
      -1.113
      -0.323
       0.516
       1.327
       1.991
       2.375
       2.409
       2.120
       1.620
       1.061
       0.594
       0.322
       0.257
       0.313
       0.363
       0.332
       0.220
       0.053
      -0.176
      -0.495
      -0.880
      -1.217
      -1.352
      -1.213
      -0.899
      -0.642
      -0.641
      -0.893
      -1.183
      -1.265
      -1.079
      -0.799
      -0.649
      -0.694
      -0.769
      -0.609
      -0.042
       0.903
       1.994
       2.887
       3.279
       3.068
       2.411
       1.638
       1.044
       0.746
       0.684
       0.725
       0.725
       0.534
       0.040
      -0.737
      -1.605
      -2.290
      -2.603
      -2.515
      -2.122
      -1.554
      -0.943
      -0.438
      -0.204
      -0.326
      -0.692
      -1.013
      -1.017
      -0.685
      -0.274
      -0.105
      -0.282
      -0.620
      -0.818
      -0.693
      -0.252
       0.412
       1.219
       2.093
       2.881
       3.348
