Origin Time       12/3/2010 23:19:54	
Lat.              23.0 N	
Long.             94.5 E	
Depth (Km)         96.0
Magnitude         5.6
 Region           MYANMAR                                                          
 Above details taken from IMD 
     
Station Code      BON
Station Lat.       26.473  N
Station Long.      90.561  E
Station Height(m)   75.0
Site Class        C   Vs30 between 200 m/sec to 375 m/sec *  
Record Time       13.03.2010 04:52:08.134
Sampling Rate     200. Hz
 Record Duration   91.095 Sec.
 Direction         E-W (E positive)
Max. Acceleration     -2.907 cm/sec**2
     
  * For reference see Site Classification link of website 
     
 Base Line Corrected and Low Pass Filtered (Cut Off at 35 Hz) Time History
 Acceleration data in cm/sec**2
    
[...]
       1.097
       1.041
       0.910
       0.737
       0.557
       0.392
       0.242
       0.096
      -0.051
      -0.199
      -0.340
      -0.458
      -0.541
      -0.585
      -0.597
      -0.594
      -0.588
      -0.579
      -0.557
      -0.512
      -0.443
      -0.356
      -0.254
      -0.139
      -0.017
       0.101
       0.197
       0.261
       0.300
       0.332
       0.378
       0.449
       0.546
       0.660
       0.780
       0.895
       0.992
       1.058
       1.074
       1.028
       0.911
       0.728
       0.496
       0.243
       0.002
      -0.198
      -0.337
      -0.400
      -0.383
      -0.295
      -0.158
      -0.001
       0.152
       0.285
       0.382
       0.420
       0.379
       0.253
       0.060
      -0.161
      -0.369
      -0.535
      -0.648
      -0.702
      -0.693
      -0.615
      -0.473
      -0.280
      -0.065
       0.142
       0.315
       0.441
       0.517
       0.551
       0.553
       0.526
       0.465
       0.360
       0.200
      -0.005
      -0.228
      -0.431
      -0.586
      -0.687
      -0.737
      -0.741
      -0.694
      -0.589
      -0.430
      -0.238
      -0.051
       0.096
       0.182
       0.204
       0.175
       0.113
       0.031
      -0.058
      -0.146
      -0.225
      -0.291
      -0.338
      -0.367
      -0.373
      -0.356
      -0.317
      -0.262
      -0.200
      -0.136
      -0.075
      -0.029
      -0.018
      -0.060
      -0.159
      -0.298
      -0.452
      -0.599
      -0.728
      -0.834
      -0.910
      -0.946
      -0.941
      -0.900
      -0.830
      -0.725
      -0.570
      -0.346
      -0.062
       0.247
       0.529
       0.734
       0.834
       0.823
       0.716
       0.543
       0.341
       0.146
      -0.018
      -0.141
      -0.227
      -0.275
      -0.273
      -0.208
      -0.077
       0.099
       0.274
       0.399
       0.439
       0.396
       0.305
       0.208
       0.136
       0.087
       0.039
      -0.032
      -0.129
      -0.233
      -0.309
      -0.333
      -0.300
      -0.221
      -0.112
       0.011
       0.131
       0.227
       0.280
       0.280
       0.234
       0.158
       0.072
      -0.014
      -0.099
      -0.182
      -0.252
      -0.286
      -0.253
      -0.138
       0.044
       0.252
       0.433
       0.552
       0.607
       0.619
       0.610
       0.585
       0.535
       0.449
       0.330
       0.193
       0.061
      -0.051
      -0.140
      -0.210
      -0.263
      -0.295
      -0.290
      -0.233
      -0.119
       0.041
       0.220
       0.390
       0.538
       0.665
       0.776
       0.867
       0.921
       0.923
       0.869
       0.779
       0.682
       0.607
       0.569
       0.564
       0.576
       0.583
       0.573
       0.547
       0.513
       0.477
       0.439
       0.401
       0.358
       0.308
       0.247
       0.171
       0.085
      -0.005
      -0.099
      -0.200
      -0.314
      -0.436
      -0.549
      -0.639
      -0.702
      -0.748
      -0.788
      -0.820
      -0.825
      -0.777
      -0.665
      -0.502
      -0.323
      -0.159
      -0.019
       0.106
       0.224
       0.322
       0.376
       0.363
       0.291
       0.192
       0.109
       0.072
       0.091
       0.153
       0.231
       0.290
       0.297
       0.231
       0.092
      -0.099
      -0.316
      -0.535
      -0.734
      -0.893
      -0.989
      -0.999
      -0.921
      -0.776
      -0.605
      -0.453
      -0.349
      -0.294
      -0.265
      -0.230
      -0.158
      -0.041
       0.109
       0.261
       0.380
       0.426
       0.374
       0.223
       0.003
      -0.229
      -0.412
      -0.514
      -0.545
      -0.542
      -0.545
      -0.564
      -0.576
      -0.546
      -0.460
      -0.341
      -0.237
      -0.191
      -0.219
      -0.311
      -0.441
      -0.577
      -0.699
      -0.792
      -0.849
      -0.865
      -0.830
      -0.734
      -0.576
      -0.370
      -0.149
       0.049
       0.198
       0.286
       0.325
       0.333
       0.335
       0.347
       0.378
       0.427
       0.485
       0.538
       0.570
       0.574
       0.556
       0.541
       0.556
       0.613
       0.700
       0.782
       0.817
       0.771
       0.643
       0.461
       0.282
       0.172
       0.170
       0.270
       0.422
       0.560
       0.639
       0.656
       0.628
       0.568
       0.463
       0.286
       0.027
      -0.292
      -0.619
      -0.909
      -1.137
      -1.302
      -1.403
      -1.421
      -1.333
      -1.140
      -0.887
      -0.648
      -0.485
      -0.409
      -0.378
      -0.331
      -0.232
      -0.089
       0.057
       0.168
       0.238
       0.297
       0.384
       0.520
       0.690
       0.857
       0.982
       1.047
       1.057
       1.032
       0.988
       0.929
       0.855
       0.767
       0.679
       0.608
       0.569
       0.561
       0.565
       0.559
       0.522
       0.449
       0.343
       0.205
       0.039
      -0.148
      -0.337
      -0.497
      -0.599
      -0.624
      -0.574
      -0.465
      -0.316
      -0.144
       0.040
       0.228
       0.402
       0.539
       0.620
       0.645
       0.628
       0.590
       0.537
       0.473
       0.403
       0.346
       0.330
       0.369
       0.453
       0.553
       0.637
       0.682
       0.681
       0.635
       0.554
       0.454
       0.363
       0.307
       0.294
       0.307
       0.312
       0.280
       0.207
       0.111
       0.020
      -0.051
      -0.109
      -0.181
      -0.294
      -0.457
      -0.659
      -0.871
      -1.055
      -1.176
      -1.211
      -1.152
      -1.010
      -0.813
      -0.592
      -0.375
      -0.180
      -0.009
       0.137
       0.252
       0.316
       0.302
       0.193
      -0.003
      -0.250
      -0.497
      -0.698
      -0.823
      -0.868
      -0.843
      -0.765
      -0.650
      -0.518
      -0.391
      -0.294
      -0.247
      -0.253
      -0.302
      -0.382
      -0.489
      -0.625
      -0.789
      -0.973
      -1.158
      -1.319
      -1.424
      -1.444
      -1.369
      -1.211
      -1.001
      -0.764
      -0.507
      -0.218
       0.110
       0.458
       0.781
       1.024
       1.147
       1.136
       1.005
       0.787
       0.526
       0.271
       0.060
      -0.092
      -0.206
      -0.320
      -0.460
      -0.615
      -0.745
      -0.809
      -0.798
      -0.742
      -0.693
      -0.693
      -0.756
      -0.862
      -0.970
      -1.040
      -1.050
      -0.994
      -0.878
      -0.716
      -0.516
      -0.288
      -0.044
       0.194
       0.395
       0.527
       0.575
       0.547
       0.473
       0.391
       0.331
       0.309
       0.324
       0.370
       0.438
       0.522
       0.615
       0.708
       0.795
       0.868
       0.917
       0.930
       0.902
       0.843
       0.775
       0.724
       0.709
       0.738
       0.812
       0.929
       1.079
       1.253
       1.439
       1.628
       1.815
       1.991
       2.141
       2.241
       2.281
       2.268
       2.224
       2.174
       2.120
       2.045
       1.917
       1.718
       1.467
       1.211
       1.001
       0.857
       0.759
       0.668
       0.564
       0.466
       0.414
       0.431
       0.494
       0.545
       0.521
       0.396
       0.188
      -0.061
      -0.311
      -0.536
      -0.723
      -0.872
      -0.992
      -1.098
      -1.209
      -1.331
      -1.453
      -1.547
      -1.587
      -1.563
      -1.486
      -1.372
      -1.235
      -1.083
      -0.930
      -0.805
      -0.744
      -0.773
      -0.894
      -1.078
      -1.286
      -1.484
      -1.652
      -1.774
      -1.831
      -1.800
      -1.672
      -1.464
      -1.216
      -0.972
      -0.766
      -0.618
      -0.534
      -0.516
      -0.553
      -0.624
      -0.701
      -0.763
      -0.800
      -0.814
      -0.810
      -0.788
      -0.739
      -0.648
      -0.504
      -0.312
      -0.098
       0.106
       0.278
       0.413
       0.510
       0.553
       0.507
       0.338
       0.046
      -0.322
      -0.679
      -0.939
      -1.058
      -1.054
      -0.989
      -0.939
      -0.948
      -1.012
      -1.084
      -1.108
      -1.059
      -0.964
      -0.884
      -0.875
      -0.952
      -1.066
      -1.130
      -1.060
      -0.814
      -0.409
       0.094
       0.616
       1.093
       1.487
       1.787
       1.995
       2.119
       2.166
       2.141
       2.046
       1.882
       1.669
       1.448
       1.277
       1.201
       1.219
       1.276
       1.289
       1.190
       0.970
       0.679
       0.402
       0.208
       0.117
       0.103
       0.121
       0.143
       0.179
       0.270
       0.458
       0.762
       1.159
       1.591
       1.985
       2.280
       2.445
       2.484
       2.420
       2.274
       2.059
       1.790
       1.491
       1.204
       0.970
       0.814
       0.737
       0.715
       0.723
       0.737
       0.740
       0.707
       0.606
       0.407
       0.102
      -0.277
      -0.665
      -0.986
      -1.184
      -1.240
      -1.173
      -1.022
      -0.826
      -0.616
      -0.404
      -0.197
      -0.004
       0.147
       0.221
       0.188
       0.048
      -0.171
      -0.425
      -0.684
      -0.944
      -1.211
      -1.485
      -1.741
      -1.946
      -2.075
      -2.121
      -2.091
      -1.999
      -1.857
      -1.679
      -1.493
      -1.338
      -1.251
      -1.247
      -1.315
      -1.426
      -1.551
      -1.666
      -1.751
      -1.780
      -1.728
      -1.585
      -1.366
      -1.110
      -0.859
      -0.646
      -0.480
      -0.354
      -0.251
      -0.165
      -0.112
      -0.116
      -0.194
      -0.332
      -0.493
      -0.635
      -0.736
      -0.802
      -0.846
      -0.873
      -0.857
      -0.758
      -0.549
      -0.260
       0.033
       0.245
       0.332
       0.308
       0.234
       0.178
       0.186
       0.264
       0.385
       0.507
       0.590
       0.625
       0.634
       0.658
       0.723
       0.823
       0.918
       0.957
       0.911
       0.791
       0.635
       0.490
       0.388
       0.336
       0.329
       0.360
       0.424
       0.522
       0.655
       0.819
       1.012
       1.228
       1.461
       1.694
       1.909
       2.089
       2.222
       2.299
       2.311
       2.246
       2.099
       1.884
       1.634
       1.396
       1.216
       1.117
       1.084
       1.081
       1.070
       1.043
       1.016
       1.020
       1.069
       1.152
       1.240
       1.296
       1.292
       1.217
       1.073
       0.874
       0.634
       0.366
       0.082
      -0.205
      -0.470
      -0.686
      -0.828
      -0.887
      -0.866
      -0.774
      -0.628
      -0.447
      -0.262
      -0.112
      -0.031
      -0.042
      -0.149
      -0.338
      -0.573
      -0.810
      -1.007
      -1.134
      -1.178
      -1.146
      -1.059
      -0.942
      -0.822
      -0.730
      -0.694
      -0.741
      -0.887
      -1.116
      -1.380
      -1.609
      -1.730
      -1.703
      -1.532
      -1.269
      -0.987
      -0.743
      -0.547
      -0.360
      -0.139
       0.126
       0.381
       0.540
       0.532
       0.350
       0.056
      -0.246
      -0.464
      -0.555
      -0.535
      -0.452
      -0.356
      -0.277
      -0.223
      -0.200
      -0.221
      -0.309
      -0.482
      -0.744
      -1.073
      -1.430
      -1.765
      -2.038
      -2.215
      -2.276
      -2.214
      -2.041
      -1.790
      -1.513
      -1.257
      -1.041
      -0.855
      -0.673
      -0.483
      -0.300
      -0.156
      -0.076
      -0.054
      -0.045
       0.007
       0.143
       0.363
       0.627
       0.873
       1.043
       1.098
       1.021
       0.819
       0.517
       0.157
      -0.215
      -0.561
      -0.858
      -1.088
      -1.225
      -1.234
      -1.090
      -0.806
      -0.442
      -0.076
       0.234
       0.475
       0.675
       0.874
       1.093
       1.325
       1.546
       1.733
       1.886
       2.024
       2.165
       2.314
       2.450
       2.540
       2.556
       2.485
       2.334
       2.115
       1.845
       1.551
       1.275
       1.060
       0.940
       0.920
       0.984
       1.103
       1.250
       1.398
       1.525
       1.604
       1.616
       1.548
       1.406
       1.214
       1.000
       0.787
       0.583
       0.385
       0.187
      -0.004
      -0.164
      -0.261
      -0.276
      -0.228
      -0.171
      -0.168
      -0.245
      -0.372
      -0.479
      -0.501
      -0.428
      -0.303
      -0.205
      -0.191
      -0.275
      -0.416
      -0.551
      -0.622
      -0.595
      -0.464
      -0.242
       0.042
       0.350
       0.642
       0.880
       1.042
       1.120
       1.123
       1.060
       0.929
       0.729
       0.472
       0.195
      -0.048
      -0.210
      -0.272
      -0.248
      -0.177
      -0.115
      -0.111
      -0.190
      -0.346
      -0.549
      -0.768
      -0.995
      -1.246
      -1.532
      -1.839
      -2.129
      -2.363
      -2.522
      -2.618
      -2.676
      -2.711
      -2.733
      -2.745
      -2.758
      -2.785
      -2.829
      -2.877
      -2.907
      -2.888
      -2.798
      -2.625
      -2.384
      -2.119
      -1.884
      -1.721
      -1.632
      -1.573
      -1.493
      -1.364
      -1.208
      -1.076
      -1.010
      -1.010
      -1.023
      -0.978
      -0.823
      -0.552
      -0.211
       0.132
       0.414
       0.610
       0.738
       0.840
       0.950
       1.077
       1.204
       1.305
       1.369
       1.401
       1.413
       1.408
       1.380
       1.326
       1.264
       1.227
       1.247
       1.330
       1.449
       1.569
       1.666
       1.742
       1.810
       1.883
       1.955
       2.013
       2.046
       2.049
       2.020
       1.953
       1.830
       1.637
       1.374
       1.070
       0.783
       0.573
       0.471
       0.461
       0.487
       0.495
       0.470
       0.440
       0.460
       0.562
       0.731
       0.906
       1.014
       1.015
       0.926
       0.804
       0.710
       0.670
       0.677
       0.705
       0.739
       0.771
       0.793
       0.790
       0.743
       0.650
       0.522
       0.379
       0.230
       0.076
      -0.085
      -0.241
      -0.370
      -0.448
      -0.471
      -0.458
      -0.451
      -0.488
      -0.574
      -0.668
      -0.705
      -0.630
      -0.436
      -0.168
       0.105
       0.328
       0.482
       0.588
       0.676
       0.769
       0.865
       0.945
       0.983
       0.961
       0.881
       0.760
       0.632
       0.527
       0.455
       0.399
       0.317
       0.161
      -0.094
      -0.434
      -0.808
      -1.154
      -1.419
      -1.577
      -1.624
      -1.572
      -1.435
      -1.239
      -1.018
      -0.813
      -0.653
      -0.550
      -0.508
      -0.537
      -0.653
      -0.853
      -1.105
      -1.353
      -1.552
      -1.697
      -1.812
      -1.931
      -2.061
      -2.180
      -2.259
      -2.283
      -2.266
      -2.234
      -2.206
      -2.183
      -2.143
      -2.056
      -1.894
      -1.656
      -1.367
      -1.076
      -0.826
      -0.638
      -0.498
      -0.382
      -0.273
      -0.174
      -0.110
      -0.102
      -0.158
      -0.261
      -0.372
      -0.432
      -0.375
      -0.159
       0.204
       0.638
       1.034
       1.301
       1.418
       1.434
       1.427
       1.444
       1.479
       1.485
       1.419
       1.273
       1.077
       0.876
       0.708
       0.588
       0.512
       0.467
       0.443
       0.433
       0.435
       0.455
       0.499
       0.566
       0.647
       0.729
       0.803
       0.871
       0.941
       1.019
       1.105
       1.188
       1.253
       1.292
       1.304
       1.290
       1.248
       1.171
       1.058
       0.919
       0.773
       0.637
       0.512
       0.388
       0.247
       0.090
      -0.065
      -0.182
      -0.229
      -0.187
      -0.056
       0.147
       0.387
       0.617
       0.786
       0.858
       0.827
       0.714
       0.551
       0.357
       0.138
      -0.099
      -0.336
      -0.536
      -0.659
      -0.683
      -0.613
      -0.476
      -0.306
      -0.132
       0.026
       0.162
       0.275
       0.365
       0.430
       0.464
       0.459
       0.411
       0.327
       0.228
       0.137
       0.069
       0.020
      -0.025
      -0.087
      -0.185
      -0.324
      -0.496
      -0.672
      -0.817
      -0.901
      -0.914
      -0.877
      -0.825
      -0.783
      -0.745
      -0.679
      -0.556
      -0.382
      -0.210
      -0.115
      -0.153
      -0.321
      -0.558
      -0.774
      -0.900
      -0.920
      -0.866
      -0.791
      -0.727
      -0.675
      -0.609
      -0.510
      -0.395
      -0.314
      -0.323
      -0.440
      -0.622
      -0.790
      -0.867
      -0.826
      -0.683
      -0.481
      -0.251
      -0.012
       0.223
       0.439
       0.622
       0.770
       0.893
       0.999
       1.083
       1.128
       1.119
       1.050
       0.930
       0.777
       0.618
       0.481
       0.386
       0.342
       0.349
       0.395
       0.469
       0.556
       0.634
       0.682
       0.675
       0.593
       0.425
       0.179
      -0.119
      -0.432
      -0.721
      -0.952
      -1.108
      -1.182
      -1.184
      -1.132
      -1.047
      -0.952
      -0.869
      -0.816
      -0.804
      -0.831
      -0.880
      -0.936
      -0.988
      -1.035
      -1.069
      -1.065
      -0.990
      -0.821
      -0.570
      -0.278
       0.003
       0.240
       0.420
       0.551
       0.638
       0.687
       0.695
       0.668
       0.618
       0.569
       0.548
       0.569
       0.628
       0.698
       0.746
       0.748
       0.704
       0.641
       0.599
       0.606
       0.665
       0.755
       0.838
       0.881
       0.872
       0.813
       0.715
       0.586
       0.428
       0.238
       0.016
      -0.223
      -0.456
      -0.660
      -0.827
      -0.969
      -1.105
      -1.237
      -1.346
      -1.399
      -1.370
      -1.246
      -1.030
      -0.738
      -0.402
      -0.068
       0.209
       0.385
       0.447
       0.409
       0.297
       0.132
      -0.068
      -0.277
      -0.453
      -0.542
      -0.506
      -0.343
      -0.081
       0.235
       0.572
       0.904
       1.207
       1.449
       1.593
       1.618
       1.533
       1.375
       1.186
       0.990
       0.786
       0.568
       0.347
       0.151
       0.014
      -0.043
      -0.019
       0.073
       0.219
       0.400
       0.582
       0.721
       0.773
       0.723
       0.594
       0.431
       0.279
       0.155
       0.056
      -0.019
      -0.055
      -0.029
       0.065
       0.195
       0.304
       0.347
       0.316
       0.237
       0.149
