Origin Time       31/12/2009 09:57:00 UTC
Lat.              27.3°N	
Long.             91.4°E	
Depth (Km)          7.0
Magnitude         5.5
 Region           BHUTAN                                                           
 Above details taken from IMD 
    
Station Code      BON
Station Lat.       26.473  N
Station Long.      90.561  E
Station Height(m)   75.0
Site Class        C   Vs30 between 200 m/sec to 375 m/sec *  
Record Time       31.12.2009 15:28:13.374 UTC
Sampling Rate     200. Hz
 Record Duration   78.515 Sec.
 Direction         N-S (N positive)
Max. Acceleration     11.310 cm/sec**2
     
  * For reference see Site Classification link of website 
     
 Base Line Corrected and Low Pass Filtered (Cut Off at 35 Hz) Time History
 Acceleration data in cm/sec**2
    
[...]
       2.168
       3.256
       4.180
       4.813
       5.097
       5.053
       4.749
       4.254
       3.613
       2.843
       1.948
       0.946
      -0.134
      -1.265
      -2.431
      -3.604
      -4.714
      -5.641
      -6.247
      -6.442
      -6.224
      -5.673
      -4.910
      -4.031
      -3.092
      -2.118
      -1.129
      -0.153
       0.786
       1.671
       2.486
       3.204
       3.788
       4.212
       4.479
       4.627
       4.721
       4.827
       4.987
       5.201
       5.428
       5.595
       5.625
       5.473
       5.139
       4.667
       4.099
       3.457
       2.751
       1.996
       1.217
       0.443
      -0.303
      -0.987
      -1.560
      -1.958
      -2.128
      -2.061
      -1.806
      -1.471
      -1.171
      -0.994
      -0.966
      -1.065
      -1.234
      -1.406
      -1.521
      -1.534
      -1.438
      -1.271
      -1.112
      -1.056
      -1.170
      -1.470
      -1.922
      -2.458
      -3.002
      -3.486
      -3.868
      -4.148
      -4.345
      -4.470
      -4.508
      -4.433
      -4.249
      -3.994
      -3.719
      -3.449
      -3.169
      -2.851
      -2.490
      -2.109
      -1.715
      -1.283
      -0.767
      -0.146
       0.563
       1.329
       2.134
       2.975
       3.840
       4.691
       5.462
       6.073
       6.437
       6.479
       6.158
       5.500
       4.603
       3.598
       2.593
       1.623
       0.671
      -0.278
      -1.192
      -2.017
      -2.717
      -3.299
      -3.789
      -4.190
      -4.473
      -4.606
      -4.582
      -4.432
      -4.197
      -3.901
      -3.548
      -3.158
      -2.780
      -2.491
      -2.344
      -2.335
      -2.402
      -2.466
      -2.472
      -2.421
      -2.353
      -2.302
      -2.256
      -2.149
      -1.878
      -1.355
      -0.535
       0.556
       1.831
       3.171
       4.461
       5.620
       6.608
       7.409
       8.010
       8.386
       8.512
       8.384
       8.045
       7.572
       7.050
       6.541
       6.078
       5.661
       5.278
       4.923
       4.598
       4.296
       4.011
       3.743
       3.509
       3.325
       3.161
       2.929
       2.526
       1.912
       1.145
       0.350
      -0.354
      -0.914
      -1.337
      -1.652
      -1.878
      -2.025
      -2.125
      -2.235
      -2.408
      -2.667
      -2.993
      -3.366
      -3.808
      -4.386
      -5.162
      -6.129
      -7.191
      -8.204
      -9.043
      -9.634
      -9.948
      -9.969
      -9.694
      -9.148
      -8.401
      -7.556
      -6.708
      -5.908
      -5.166
      -4.493
      -3.926
      -3.511
      -3.258
      -3.118
      -3.005
      -2.837
      -2.575
      -2.202
      -1.711
      -1.089
      -0.335
       0.518
       1.407
       2.266
       3.057
       3.782
       4.473
       5.171
       5.892
       6.603
       7.218
       7.636
       7.790
       7.679
       7.364
       6.948
       6.532
       6.173
       5.857
       5.508
       5.046
       4.451
       3.796
       3.213
       2.823
       2.680
       2.764
       3.016
       3.371
       3.780
       4.195
       4.562
       4.813
       4.883
       4.731
       4.357
       3.796
       3.100
       2.327
       1.539
       0.802
       0.162
      -0.387
      -0.922
      -1.545
      -2.325
      -3.244
      -4.206
      -5.081
      -5.759
      -6.181
      -6.344
      -6.286
      -6.071
      -5.764
      -5.411
      -5.025
      -4.585
      -4.071
      -3.484
      -2.859
      -2.246
      -1.692
      -1.233
      -0.901
      -0.725
      -0.723
      -0.869
      -1.083
      -1.251
      -1.287
      -1.171
      -0.949
      -0.690
      -0.443
      -0.228
      -0.037
       0.142
       0.321
       0.512
       0.729
       0.971
       1.206
       1.375
       1.425
       1.344
       1.166
       0.959
       0.789
       0.702
       0.717
       0.827
       1.011
       1.246
       1.513
       1.794
       2.066
       2.289
       2.401
       2.337
       2.066
       1.625
       1.115
       0.654
       0.316
       0.096
      -0.084
      -0.315
      -0.651
      -1.077
      -1.531
      -1.945
      -2.276
      -2.517
      -2.688
      -2.812
      -2.908
      -2.983
      -3.047
      -3.116
      -3.202
      -3.301
      -3.396
      -3.477
      -3.548
      -3.612
      -3.636
      -3.534
      -3.196
      -2.544
      -1.585
      -0.424
       0.776
       1.849
       2.664
       3.154
       3.314
       3.189
       2.857
       2.406
       1.914
       1.429
       0.954
       0.469
      -0.018
      -0.437
      -0.680
      -0.659
      -0.364
       0.145
       0.780
       1.482
       2.224
       2.995
       3.762
       4.458
       5.004
       5.355
       5.516
       5.525
       5.413
       5.187
       4.852
       4.443
       4.028
       3.667
       3.371
       3.077
       2.695
       2.171
       1.526
       0.827
       0.134
      -0.527
      -1.150
      -1.715
      -2.180
      -2.500
      -2.653
      -2.651
      -2.536
      -2.351
      -2.140
      -1.938
      -1.772
      -1.646
      -1.542
      -1.431
      -1.305
      -1.192
      -1.137
      -1.171
      -1.283
      -1.428
      -1.567
      -1.698
      -1.843
      -2.009
      -2.154
      -2.208
      -2.124
      -1.911
      -1.625
      -1.334
      -1.097
      -0.946
      -0.890
      -0.912
      -0.973
      -1.028
      -1.054
      -1.065
      -1.103
      -1.220
      -1.445
      -1.778
      -2.187
      -2.605
      -2.949
      -3.144
      -3.150
      -2.971
      -2.643
      -2.204
      -1.672
      -1.062
      -0.400
       0.253
       0.825
       1.260
       1.553
       1.741
       1.872
       1.980
       2.072
       2.122
       2.090
       1.938
       1.660
       1.307
       0.993
       0.862
       1.034
       1.542
       2.304
       3.156
       3.934
       4.536
       4.943
       5.189
       5.309
       5.301
       5.125
       4.720
       4.051
       3.141
       2.067
       0.932
      -0.179
      -1.230
      -2.226
      -3.177
      -4.068
      -4.836
      -5.390
      -5.646
      -5.573
      -5.211
      -4.661
      -4.040
      -3.438
      -2.891
      -2.392
      -1.919
      -1.460
      -1.022
      -0.620
      -0.268
       0.032
       0.289
       0.527
       0.767
       1.013
       1.232
       1.362
       1.341
       1.150
       0.834
       0.479
       0.173
      -0.038
      -0.150
      -0.186
      -0.158
      -0.066
       0.090
       0.290
       0.493
       0.664
       0.802
       0.941
       1.115
       1.332
       1.563
       1.763
       1.895
       1.947
       1.912
       1.785
       1.563
       1.266
       0.943
       0.659
       0.464
       0.380
       0.415
       0.561
       0.800
       1.079
       1.311
       1.394
       1.262
       0.926
       0.467
      -0.011
      -0.439
      -0.794
      -1.090
      -1.355
      -1.620
      -1.923
      -2.293
      -2.719
      -3.139
      -3.437
      -3.500
      -3.262
      -2.738
      -2.003
      -1.161
      -0.306
       0.492
       1.191
       1.765
       2.205
       2.528
       2.775
       2.989
       3.180
       3.314
       3.322
       3.152
       2.806
       2.353
       1.897
       1.527
       1.276
       1.114
       0.988
       0.859
       0.724
       0.614
       0.554
       0.546
       0.548
       0.493
       0.319
       0.005
      -0.415
      -0.867
      -1.270
      -1.571
      -1.769
      -1.911
      -2.060
      -2.255
      -2.492
      -2.730
      -2.922
      -3.033
      -3.045
      -2.955
      -2.768
      -2.497
      -2.162
      -1.784
      -1.377
      -0.943
      -0.493
      -0.054
       0.332
       0.619
       0.773
       0.771
       0.602
       0.268
      -0.212
      -0.806
      -1.469
      -2.141
      -2.759
      -3.275
      -3.667
      -3.939
      -4.103
      -4.164
      -4.113
      -3.927
      -3.586
      -3.082
      -2.433
      -1.679
      -0.885
      -0.124
       0.540
       1.076
       1.505
       1.888
       2.292
       2.765
       3.311
       3.885
       4.410
       4.807
       5.028
       5.060
       4.917
       4.626
       4.213
       3.699
       3.103
       2.452
       1.781
       1.124
       0.507
      -0.060
      -0.573
      -1.028
      -1.412
      -1.702
      -1.867
      -1.881
      -1.736
      -1.457
      -1.100
      -0.755
      -0.517
      -0.456
      -0.589
      -0.872
      -1.225
      -1.563
      -1.827
      -1.995
      -2.063
      -2.029
      -1.876
      -1.584
      -1.150
      -0.596
       0.022
       0.627
       1.143
       1.532
       1.790
       1.932
       1.958
       1.868
       1.683
       1.462
       1.260
       1.079
       0.860
       0.548
       0.161
      -0.197
      -0.415
      -0.459
      -0.390
      -0.289
      -0.153
       0.127
       0.679
       1.536
       2.578
       3.573
       4.293
       4.607
       4.512
       4.097
       3.486
       2.792
       2.106
       1.479
       0.920
       0.400
      -0.113
      -0.628
      -1.110
      -1.496
      -1.725
      -1.772
      -1.668
      -1.487
      -1.310
      -1.177
      -1.077
      -0.976
      -0.856
      -0.751
      -0.739
      -0.891
      -1.216
      -1.644
      -2.047
      -2.310
      -2.376
      -2.259
      -2.011
      -1.677
      -1.281
      -0.838
      -0.368
       0.102
       0.547
       0.942
       1.249
       1.423
       1.437
       1.310
       1.119
       0.962
       0.924
       1.039
       1.290
       1.622
       1.966
       2.268
       2.501
       2.666
       2.782
       2.866
       2.909
       2.871
       2.699
       2.363
       1.881
       1.329
       0.804
       0.387
       0.099
      -0.096
      -0.254
      -0.404
      -0.537
      -0.616
      -0.607
      -0.494
      -0.292
      -0.045
       0.182
       0.325
       0.337
       0.211
      -0.031
      -0.356
      -0.748
      -1.215
      -1.776
      -2.434
      -3.168
      -3.940
      -4.712
      -5.459
      -6.168
      -6.826
      -7.406
      -7.851
      -8.079
      -7.997
      -7.534
      -6.683
      -5.518
      -4.165
      -2.750
      -1.356
      -0.031
       1.185
       2.247
       3.128
       3.830
       4.361
       4.707
       4.831
       4.727
       4.463
       4.178
       4.016
       4.042
       4.201
       4.363
       4.407
       4.287
       4.029
       3.690
       3.319
       2.939
       2.562
       2.182
       1.780
       1.311
       0.734
       0.042
      -0.720
      -1.470
      -2.129
      -2.645
      -2.997
      -3.184
      -3.224
      -3.161
      -3.061
      -2.991
      -2.990
      -3.033
      -3.026
      -2.861
      -2.481
      -1.927
      -1.318
      -0.788
      -0.420
      -0.225
      -0.157
      -0.156
      -0.183
      -0.225
      -0.279
      -0.331
      -0.356
      -0.333
      -0.253
      -0.127
       0.022
       0.175
       0.337
       0.532
       0.788
       1.107
       1.463
       1.812
       2.119
       2.370
       2.564
       2.692
       2.719
       2.599
       2.323
       1.952
       1.590
       1.331
       1.200
       1.157
       1.128
       1.047
       0.868
       0.565
       0.129
      -0.428
      -1.059
      -1.682
      -2.193
      -2.506
      -2.581
      -2.438
      -2.145
      -1.786
      -1.425
      -1.084
      -0.754
      -0.427
      -0.124
       0.102
       0.200
       0.166
       0.072
       0.024
       0.085
       0.238
       0.408
       0.524
       0.550
       0.500
       0.412
       0.343
       0.350
       0.486
       0.788
       1.269
       1.911
       2.669
       3.486
       4.304
       5.070
       5.739
       6.275
       6.652
       6.832
       6.745
       6.303
       5.442
       4.172
       2.601
       0.909
      -0.721
      -2.163
      -3.358
      -4.286
      -4.924
      -5.247
      -5.242
      -4.928
      -4.354
      -3.592
      -2.742
      -1.927
      -1.268
      -0.843
      -0.679
      -0.766
      -1.095
      -1.667
      -2.470
      -3.450
      -4.498
      -5.481
      -6.281
      -6.829
      -7.103
      -7.106
      -6.847
      -6.334
      -5.598
      -4.706
      -3.757
      -2.836
      -1.973
      -1.149
      -0.340
       0.442
       1.151
       1.743
       2.205
       2.566
       2.885
       3.222
       3.600
       3.997
       4.359
       4.646
       4.858
       5.027
       5.200
       5.404
       5.627
       5.811
       5.876
       5.760
       5.445
       4.959
       4.347
       3.654
       2.921
       2.183
       1.477
       0.823
       0.205
      -0.420
      -1.094
      -1.825
      -2.583
      -3.316
      -3.963
      -4.467
      -4.781
      -4.892
      -4.840
      -4.721
      -4.653
      -4.723
      -4.931
      -5.193
      -5.391
      -5.451
      -5.374
      -5.218
      -5.050
      -4.904
      -4.781
      -4.661
      -4.521
      -4.334
      -4.064
      -3.665
      -3.098
      -2.353
      -1.453
      -0.447
       0.613
       1.689
       2.765
       3.852
       4.973
       6.147
       7.360
       8.555
       9.638
      10.504
      11.071
      11.310
      11.250
      10.951
      10.476
       9.881
       9.204
       8.461
       7.644
       6.736
       5.740
       4.693
       3.655
       2.675
       1.770
       0.922
       0.089
      -0.771
      -1.688
      -2.668
      -3.680
      -4.663
      -5.533
      -6.215
      -6.662
      -6.849
      -6.762
      -6.398
      -5.781
      -4.976
      -4.097
      -3.276
      -2.614
      -2.148
      -1.849
      -1.653
      -1.504
      -1.367
      -1.233
      -1.114
      -1.058
      -1.126
      -1.372
      -1.809
      -2.402
      -3.079
      -3.752
      -4.328
      -4.708
      -4.808
      -4.582
      -4.048
      -3.280
      -2.367
      -1.387
      -0.402
       0.506
       1.240
       1.714
       1.911
       1.904
       1.830
       1.820
       1.934
       2.159
       2.438
       2.718
       2.957
       3.105
       3.120
       2.982
       2.714
       2.364
       1.981
       1.609
       1.284
       1.034
       0.866
       0.750
       0.626
       0.426
       0.105
      -0.344
      -0.888
      -1.464
      -2.011
      -2.486
      -2.873
      -3.177
      -3.395
      -3.510
      -3.505
      -3.380
      -3.164
      -2.896
      -2.597
      -2.277
      -1.944
      -1.610
      -1.276
      -0.931
      -0.563
      -0.169
       0.232
       0.599
       0.879
       1.025
       1.011
       0.848
       0.582
       0.292
       0.074
       0.015
       0.167
       0.522
       1.018
       1.564
       2.081
       2.537
       2.927
       3.246
       3.484
       3.642
       3.762
       3.903
       4.084
       4.263
       4.365
       4.357
       4.273
       4.169
       4.050
       3.852
       3.491
       2.928
       2.207
       1.419
       0.644
      -0.085
      -0.773
      -1.434
      -2.065
      -2.644
      -3.137
      -3.512
      -3.747
      -3.831
      -3.767
      -3.570
      -3.275
      -2.933
      -2.599
      -2.316
      -2.101
      -1.940
      -1.798
      -1.632
      -1.417
      -1.152
      -0.856
      -0.570
      -0.344
      -0.221
      -0.218
      -0.303
      -0.392
      -0.380
      -0.180
       0.238
       0.830
       1.501
       2.147
       2.697
       3.140
       3.509
       3.844
       4.149
       4.371
       4.426
       4.251
       3.863
       3.361
       2.878
       2.511
       2.278
       2.121
       1.953
       1.702
       1.327
       0.821
       0.204
      -0.471
      -1.129
      -1.696
      -2.135
      -2.458
      -2.719
      -2.969
      -3.229
      -3.489
      -3.736
      -3.959
      -4.144
      -4.258
      -4.252
      -4.087
      -3.756
      -3.288
      -2.753
      -2.243
      -1.859
      -1.679
      -1.719
      -1.920
      -2.185
      -2.430
      -2.623
      -2.774
      -2.893
      -2.964
      -2.940
      -2.775
      -2.437
      -1.930
      -1.300
      -0.634
      -0.034
       0.431
       0.765
       1.036
       1.327
       1.676
       2.073
       2.495
       2.922
       3.326
       3.656
       3.856
       3.907
       3.854
       3.770
       3.691
       3.571
       3.328
       2.923
       2.412
       1.908
       1.481
       1.093
       0.630
       0.022
      -0.681
      -1.338
      -1.823
      -2.108
      -2.254
      -2.342
      -2.413
      -2.467
      -2.502
      -2.519
      -2.502
      -2.404
      -2.169
      -1.795
      -1.366
      -1.018
      -0.854
      -0.876
      -0.988
      -1.063
      -1.015
      -0.816
      -0.467
       0.025
       0.645
       1.342
       2.025
       2.609
       3.066
       3.436
       3.772
       4.081
       4.305
       4.369
       4.234
       3.913
       3.453
       2.903
       2.305
       1.692
       1.099
       0.566
       0.125
      -0.204
      -0.415
      -0.517
      -0.544
      -0.556
      -0.621
      -0.770
      -0.981
      -1.196
      -1.370
      -1.510
      -1.660
      -1.859
      -2.102
      -2.343
      -2.527
      -2.623
      -2.620
      -2.511
      -2.286
      -1.946
      -1.519
      -1.065
      -0.654
      -0.338
      -0.121
       0.026
       0.135
       0.201
       0.201
       0.133
       0.048
       0.030
       0.135
       0.341
       0.559
       0.698
       0.730
       0.699
       0.661
       0.627
       0.548
       0.374
       0.113
      -0.152
      -0.314
      -0.317
      -0.194
      -0.036
       0.075
       0.111
       0.088
       0.032
      -0.037
      -0.086
      -0.070
       0.045
       0.242
       0.447
       0.576
       0.607
       0.604
       0.660
       0.807
       0.986
       1.105
       1.121
       1.076
       1.049
       1.074
       1.111
       1.080
       0.928
       0.659
       0.308
      -0.105
      -0.608
      -1.237
      -1.982
      -2.765
      -3.459
      -3.953
      -4.179
      -4.120
      -3.802
      -3.272
      -2.590
      -1.822
      -1.027
      -0.236
       0.562
       1.400
       2.298
       3.209
       4.024
       4.614
       4.885
       4.818
       4.477
       3.973
       3.409
       2.840
       2.260
       1.636
       0.951
       0.227
      -0.483
      -1.129
      -1.681
      -2.131
      -2.487
      -2.766
      -2.985
      -3.146
      -3.221
      -3.164
      -2.951
      -2.609
      -2.209
      -1.827
      -1.509
      -1.259
      -1.062
      -0.897
      -0.757
      -0.628
      -0.457
      -0.152
       0.355
       1.035
       1.758
       2.379
       2.826
       3.120
       3.298
       3.345
       3.205
       2.866
       2.407
       1.959
       1.603
       1.306
       0.963
       0.489
      -0.092
      -0.661
      -1.080
      -1.265
      -1.215
      -0.980
      -0.628
