Origin Time       15/2/2009 07:35:55  UTC
Lat.              26.0 N 
Long.             90.2 E 
Depth (Km)         39.3
Magnitude         4.4
 Region           Assam-Meghalaya-Border                                           
 Above details taken from IMD 
    
Station Code      BON
Station Lat.       26.473  N
Station Long.      90.561  E
Station Height(m)   75.0
Site Class        C   Vs30 between 200 m/sec to 375 m/sec *  
Record Time       16.02.2009 01:06:13.289 UTC
Sampling Rate     200. Hz
 Record Duration   72.175 Sec.
 Direction         N-S (N positive)
Max. Acceleration      5.362 cm/sec**2
     
  * For reference see Site Classification link of website 
     
 Base Line Corrected and Low Pass Filtered (Cut Off at 35 Hz) Time History
 Acceleration data in cm/sec**2
    
[...]
       0.013
       0.009
       0.004
       0.002
       0.003
       0.003
       0.004
       0.006
       0.008
       0.008
       0.006
       0.004
       0.005
       0.009
       0.010
       0.005
      -0.004
      -0.011
      -0.012
      -0.006
       0.003
       0.009
       0.011
       0.010
       0.008
       0.007
       0.006
       0.003
      -0.001
      -0.004
      -0.004
      -0.002
       0.000
       0.002
       0.003
       0.005
       0.005
       0.005
       0.004
       0.004
       0.006
       0.007
       0.006
       0.003
       0.003
       0.008
       0.015
       0.018
       0.015
       0.008
       0.002
       0.001
       0.003
       0.006
       0.008
       0.010
       0.013
       0.015
       0.016
       0.015
       0.014
       0.015
       0.017
       0.019
       0.017
       0.011
       0.004
       0.001
       0.003
       0.009
       0.015
       0.018
       0.016
       0.010
       0.003
      -0.002
      -0.001
       0.005
       0.012
       0.017
       0.017
       0.014
       0.009
       0.003
       0.000
       0.002
       0.009
       0.018
       0.023
       0.020
       0.011
       0.002
      -0.002
      -0.001
       0.000
       0.002
       0.002
       0.003
       0.004
       0.005
       0.005
       0.004
       0.004
       0.006
       0.009
       0.010
       0.008
       0.004
       0.000
      -0.001
       0.000
       0.002
       0.006
       0.011
       0.014
       0.012
       0.004
      -0.003
      -0.006
      -0.001
       0.005
       0.007
       0.003
      -0.003
      -0.005
      -0.003
       0.003
       0.008
       0.009
       0.008
       0.006
       0.004
       0.005
       0.006
       0.006
       0.006
       0.007
       0.010
       0.014
       0.018
       0.019
       0.017
       0.012
       0.009
       0.008
       0.006
       0.004
       0.001
       0.001
       0.002
       0.005
       0.008
       0.009
       0.010
       0.012
       0.013
       0.013
       0.012
       0.012
       0.014
       0.017
       0.016
       0.010
       0.002
      -0.004
      -0.003
       0.003
       0.009
       0.010
       0.005
      -0.004
      -0.010
      -0.011
      -0.005
       0.002
       0.006
       0.008
       0.005
      -0.001
      -0.006
      -0.010
      -0.010
      -0.008
      -0.004
      -0.001
       0.001
       0.001
       0.001
       0.001
       0.001
       0.002
       0.002
       0.004
       0.007
       0.011
       0.015
       0.016
       0.013
       0.008
       0.002
       0.001
       0.004
       0.009
       0.014
       0.015
       0.014
       0.012
       0.010
       0.008
       0.006
       0.004
       0.004
       0.005
       0.008
       0.013
       0.016
       0.015
       0.010
       0.004
       0.000
       0.001
       0.007
       0.015
       0.022
       0.024
       0.019
       0.010
       0.000
      -0.009
      -0.011
      -0.008
       0.001
       0.010
       0.016
       0.017
       0.014
       0.009
       0.007
       0.009
       0.013
       0.017
       0.018
       0.017
       0.016
       0.014
       0.011
       0.004
      -0.002
      -0.004
      -0.002
       0.002
       0.005
       0.004
       0.003
       0.002
       0.002
      -0.001
      -0.003
      -0.003
       0.002
       0.009
       0.014
       0.014
       0.010
       0.006
       0.005
       0.008
       0.012
       0.013
       0.009
       0.003
      -0.003
      -0.004
      -0.002
       0.003
       0.006
       0.005
       0.001
      -0.003
      -0.006
      -0.008
      -0.010
      -0.011
      -0.008
      -0.002
       0.006
       0.013
       0.017
       0.016
       0.012
       0.007
       0.004
       0.005
       0.007
       0.011
       0.014
       0.016
       0.015
       0.010
       0.004
      -0.001
      -0.005
      -0.006
      -0.006
      -0.004
      -0.003
      -0.002
      -0.001
       0.002
       0.006
       0.011
       0.015
       0.015
       0.011
       0.005
       0.001
       0.001
       0.007
       0.015
       0.020
       0.018
       0.014
       0.010
       0.010
       0.012
       0.012
       0.008
       0.002
      -0.003
      -0.003
       0.002
       0.009
       0.012
       0.007
      -0.002
      -0.008
      -0.007
      -0.001
       0.004
       0.007
       0.005
       0.004
       0.005
       0.005
       0.002
      -0.004
      -0.009
      -0.009
      -0.005
      -0.001
       0.000
      -0.002
      -0.004
      -0.006
      -0.007
      -0.009
      -0.009
      -0.008
      -0.006
      -0.004
      -0.004
      -0.005
      -0.004
       0.000
       0.006
       0.010
       0.012
       0.012
       0.011
       0.009
       0.007
       0.008
       0.009
       0.009
       0.006
      -0.001
      -0.008
      -0.011
      -0.009
      -0.003
       0.003
       0.006
       0.007
       0.008
       0.010
       0.012
       0.014
       0.014
       0.012
       0.009
       0.004
       0.002
       0.004
       0.010
       0.016
       0.020
       0.019
       0.015
       0.010
       0.005
      -0.001
      -0.007
      -0.009
      -0.006
       0.001
       0.006
       0.006
       0.003
       0.000
       0.002
       0.007
       0.010
       0.009
       0.003
      -0.005
      -0.010
      -0.011
      -0.011
      -0.012
      -0.014
      -0.018
      -0.020
      -0.019
      -0.016
      -0.014
      -0.012
      -0.010
      -0.006
       0.001
       0.006
       0.008
       0.007
       0.006
       0.006
       0.006
       0.005
       0.003
       0.000
       0.000
       0.002
       0.005
       0.006
       0.005
       0.002
       0.001
       0.002
       0.003
       0.004
       0.002
      -0.002
      -0.004
      -0.005
      -0.003
      -0.001
      -0.001
      -0.003
      -0.008
      -0.013
      -0.015
      -0.015
      -0.012
      -0.008
      -0.004
      -0.001
      -0.002
      -0.004
      -0.004
       0.000
       0.006
       0.011
       0.008
       0.001
      -0.007
      -0.011
      -0.012
      -0.012
      -0.010
      -0.007
      -0.001
       0.003
       0.004
       0.002
      -0.003
      -0.007
      -0.008
      -0.005
       0.000
       0.004
       0.004
      -0.002
      -0.010
      -0.013
      -0.009
      -0.002
       0.004
       0.005
       0.003
      -0.002
      -0.007
      -0.012
      -0.016
      -0.014
      -0.007
       0.002
       0.009
       0.011
       0.009
       0.006
       0.004
      -0.001
      -0.007
      -0.013
      -0.014
      -0.008
       0.002
       0.008
       0.006
       0.000
      -0.005
      -0.007
      -0.005
      -0.004
      -0.002
       0.000
       0.004
       0.007
       0.007
       0.004
      -0.002
      -0.006
      -0.009
      -0.009
      -0.006
      -0.003
       0.001
       0.003
       0.003
       0.001
      -0.001
      -0.003
      -0.005
      -0.004
      -0.002
       0.002
       0.005
       0.005
       0.001
      -0.005
      -0.008
      -0.006
      -0.001
       0.006
       0.009
       0.006
       0.001
      -0.004
      -0.004
       0.000
       0.003
       0.002
       0.000
      -0.003
      -0.005
      -0.004
      -0.003
      -0.001
       0.002
       0.005
       0.008
       0.011
       0.015
       0.016
       0.015
       0.013
       0.013
       0.014
       0.015
       0.014
       0.009
       0.003
      -0.002
      -0.003
      -0.002
       0.000
       0.002
       0.000
      -0.004
      -0.011
      -0.016
      -0.017
      -0.013
      -0.009
      -0.006
      -0.004
      -0.004
      -0.002
      -0.001
       0.000
      -0.001
      -0.001
      -0.001
      -0.001
      -0.002
      -0.004
      -0.006
      -0.005
      -0.004
      -0.003
       0.000
       0.006
       0.011
       0.012
       0.009
       0.005
       0.005
       0.007
       0.009
       0.008
       0.003
      -0.001
      -0.002
       0.000
       0.001
      -0.001
      -0.003
      -0.005
      -0.004
       0.001
       0.007
       0.010
       0.006
      -0.004
      -0.013
      -0.016
      -0.010
      -0.002
       0.004
       0.002
      -0.004
      -0.012
      -0.017
      -0.018
      -0.016
      -0.015
      -0.013
      -0.012
      -0.009
      -0.008
      -0.008
      -0.010
      -0.010
      -0.008
      -0.003
       0.001
       0.003
       0.000
      -0.003
      -0.005
      -0.004
      -0.002
       0.000
       0.000
      -0.001
      -0.003
      -0.004
      -0.002
       0.002
       0.005
       0.007
       0.007
       0.006
       0.004
       0.002
       0.001
       0.002
       0.004
       0.004
       0.002
      -0.001
      -0.002
       0.001
       0.004
       0.007
       0.009
       0.009
       0.006
       0.001
      -0.003
      -0.003
       0.002
       0.010
       0.014
       0.012
       0.005
      -0.002
      -0.005
      -0.005
      -0.003
      -0.003
      -0.004
      -0.003
       0.000
       0.005
       0.007
       0.005
      -0.001
      -0.005
      -0.005
      -0.001
       0.004
       0.006
       0.005
       0.002
       0.000
       0.000
       0.002
       0.003
       0.004
       0.005
       0.008
       0.010
       0.011
       0.008
       0.004
       0.003
       0.005
       0.009
       0.011
       0.009
       0.004
       0.000
       0.000
       0.004
       0.008
       0.008
       0.003
      -0.004
      -0.009
      -0.008
      -0.004
      -0.002
      -0.005
      -0.010
      -0.011
      -0.006
       0.003
       0.011
       0.012
       0.007
       0.000
      -0.007
      -0.011
      -0.012
      -0.012
      -0.010
      -0.006
       0.000
       0.006
       0.007
       0.003
      -0.003
      -0.006
      -0.002
       0.007
       0.014
       0.014
       0.006
      -0.003
      -0.008
      -0.008
      -0.004
       0.000
       0.001
      -0.001
      -0.003
      -0.004
      -0.004
      -0.006
      -0.007
      -0.007
      -0.003
       0.002
       0.003
       0.000
      -0.005
      -0.008
      -0.006
       0.001
       0.008
       0.014
       0.015
       0.013
       0.012
       0.011
       0.012
       0.013
       0.014
       0.014
       0.016
       0.017
       0.017
       0.014
       0.006
      -0.004
      -0.015
      -0.021
      -0.021
      -0.016
      -0.011
      -0.010
      -0.016
      -0.027
      -0.034
      -0.032
      -0.020
      -0.007
      -0.001
      -0.003
      -0.006
      -0.004
       0.003
       0.008
       0.005
      -0.005
      -0.018
      -0.023
      -0.018
      -0.007
      -0.004
      -0.015
      -0.036
      -0.048
      -0.035
      -0.001
       0.028
       0.024
      -0.024
      -0.097
      -0.159
      -0.184
      -0.180
      -0.188
      -0.247
      -0.356
      -0.474
      -0.553
      -0.582
      -0.595
      -0.640
      -0.732
      -0.849
      -0.955
      -1.037
      -1.103
      -1.149
      -1.150
      -1.075
      -0.924
      -0.735
      -0.558
      -0.410
      -0.275
      -0.127
       0.037
       0.210
       0.400
       0.641
       0.955
       1.311
       1.630
       1.841
       1.941
       1.992
       2.059
       2.155
       2.236
       2.255
       2.209
       2.127
       2.027
       1.891
       1.698
       1.470
       1.266
       1.127
       1.011
       0.818
       0.485
       0.058
      -0.329
      -0.565
      -0.657
      -0.711
      -0.823
      -0.989
      -1.122
      -1.152
      -1.102
      -1.066
      -1.112
      -1.217
      -1.290
      -1.263
      -1.154
      -1.041
      -0.970
      -0.905
      -0.770
      -0.541
      -0.299
      -0.174
      -0.234
      -0.415
      -0.579
      -0.624
      -0.568
      -0.502
      -0.493
      -0.522
      -0.520
      -0.450
      -0.358
      -0.323
      -0.381
      -0.487
      -0.554
      -0.527
      -0.409
      -0.223
       0.023
       0.333
       0.684
       1.016
       1.261
       1.403
       1.486
       1.556
       1.602
       1.551
       1.354
       1.059
       0.802
       0.712
       0.813
       1.005
       1.137
       1.110
       0.917
       0.615
       0.280
      -0.016
      -0.203
      -0.252
      -0.219
      -0.255
      -0.521
      -1.061
      -1.736
      -2.301
      -2.565
      -2.507
      -2.259
      -1.977
      -1.736
      -1.522
      -1.326
      -1.198
      -1.224
      -1.431
      -1.737
      -1.990
      -2.066
      -1.929
      -1.613
      -1.167
      -0.614
       0.020
       0.652
       1.133
       1.309
       1.136
       0.748
       0.406
       0.348
       0.643
       1.164
       1.692
       2.079
       2.320
       2.492
       2.629
       2.669
       2.528
       2.218
       1.878
       1.667
       1.637
       1.687
       1.649
       1.410
       0.957
       0.334
      -0.423
      -1.259
      -2.038
      -2.537
      -2.563
      -2.122
      -1.474
      -1.018
      -1.070
      -1.688
      -2.665
      -3.651
      -4.320
      -4.478
      -4.085
      -3.234
      -2.120
      -0.987
      -0.049
       0.578
       0.907
       1.020
       1.004
       0.939
       0.934
       1.151
       1.732
       2.681
       3.804
       4.780
       5.333
       5.362
       4.962
       4.316
       3.591
       2.902
       2.346
       2.007
       1.916
       1.989
       2.019
       1.790
       1.219
       0.424
      -0.375
      -1.011
      -1.463
      -1.801
      -2.064
      -2.223
      -2.249
      -2.209
      -2.248
      -2.462
      -2.788
      -3.036
      -3.049
      -2.815
      -2.451
      -2.073
      -1.699
      -1.283
      -0.820
      -0.395
      -0.120
      -0.032
      -0.046
      -0.040
       0.037
       0.142
       0.203
       0.213
       0.219
       0.237
       0.197
       0.014
      -0.300
      -0.597
      -0.704
      -0.576
      -0.347
      -0.222
      -0.319
      -0.602
      -0.941
      -1.215
      -1.353
      -1.325
      -1.125
      -0.790
      -0.408
      -0.085
       0.133
       0.279
       0.429
       0.622
       0.830
       1.011
       1.178
       1.403
       1.741
       2.155
       2.511
       2.667
       2.583
       2.345
       2.100
       1.932
       1.825
       1.699
       1.492
       1.197
       0.841
       0.441
      -0.003
      -0.482
      -0.957
      -1.376
      -1.705
      -1.942
      -2.105
      -2.202
      -2.227
      -2.178
      -2.072
      -1.952
      -1.871
      -1.866
      -1.924
      -1.986
      -1.958
      -1.760
      -1.364
      -0.820
      -0.242
       0.231
       0.496
       0.535
       0.431
       0.324
       0.345
       0.555
       0.926
       1.349
       1.668
       1.731
       1.468
       0.952
       0.385
       0.004
      -0.068
       0.122
       0.410
       0.647
       0.784
       0.855
       0.889
       0.859
       0.713
       0.450
       0.138
      -0.137
      -0.337
      -0.476
      -0.570
      -0.589
      -0.462
      -0.150
       0.290
       0.720
       1.011
       1.133
       1.154
       1.169
       1.223
       1.295
       1.350
       1.380
       1.392
       1.363
       1.227
       0.931
       0.511
       0.102
      -0.144
      -0.163
      -0.021
       0.148
       0.234
       0.200
       0.060
      -0.170
      -0.487
      -0.866
      -1.231
      -1.477
      -1.540
      -1.439
      -1.267
      -1.120
      -1.039
      -1.017
      -1.036
      -1.092
      -1.169
      -1.206
      -1.117
      -0.870
      -0.541
      -0.279
      -0.177
      -0.179
      -0.124
       0.110
       0.476
       0.781
       0.841
       0.615
       0.223
      -0.177
      -0.495
      -0.720
      -0.846
      -0.819
      -0.589
      -0.209
       0.149
       0.314
       0.261
       0.141
       0.139
       0.305
       0.507
       0.565
       0.417
       0.153
      -0.084
      -0.230
      -0.327
      -0.445
      -0.606
      -0.770
      -0.889
      -0.953
      -0.984
      -0.991
      -0.953
      -0.839
      -0.660
      -0.472
      -0.344
      -0.291
      -0.264
      -0.191
      -0.044
       0.143
       0.303
       0.404
       0.469
       0.545
       0.650
       0.757
       0.832
       0.863
       0.868
       0.868
       0.866
       0.858
       0.845
       0.836
       0.838
       0.844
       0.849
       0.858
       0.896
       0.983
       1.110
       1.217
       1.212
       1.024
       0.666
       0.231
      -0.162
      -0.445
      -0.640
      -0.824
      -1.052
      -1.300
      -1.474
      -1.471
      -1.236
      -0.802
      -0.271
       0.219
       0.555
       0.689
       0.654
       0.534
       0.415
       0.354
       0.366
       0.432
       0.515
       0.571
       0.566
       0.502
       0.413
       0.345
       0.323
       0.339
       0.371
       0.411
       0.460
       0.498
       0.471
       0.319
       0.045
      -0.273
      -0.529
      -0.679
      -0.794
      -0.997
      -1.351
      -1.774
      -2.088
      -2.134
      -1.884
      -1.450
      -0.996
      -0.646
      -0.437
      -0.350
      -0.339
      -0.354
      -0.343
      -0.274
      -0.144
       0.012
       0.157
       0.280
       0.412
       0.594
       0.837
       1.105
       1.336
       1.486
       1.544
       1.529
       1.459
       1.343
       1.179
       0.964
       0.700
       0.396
       0.071
      -0.244
      -0.517
      -0.744
      -0.946
      -1.145
      -1.318
      -1.391
      -1.292
      -1.020
      -0.666
      -0.357
      -0.181
      -0.136
      -0.165
      -0.205
      -0.231
      -0.250
      -0.285
      -0.357
      -0.477
      -0.633
      -0.775
      -0.817
      -0.681
      -0.353
       0.088
       0.517
       0.846
       1.068
       1.237
       1.394
       1.528
       1.594
       1.571
       1.488
       1.393
       1.293
       1.142
       0.900
       0.599
       0.342
       0.213
       0.195
       0.183
       0.079
      -0.113
      -0.300
      -0.389
      -0.370
      -0.318
      -0.311
      -0.367
      -0.446
      -0.518
      -0.597
      -0.715
      -0.862
      -0.964
      -0.937
      -0.766
      -0.527
      -0.330
      -0.252
      -0.296
      -0.415
      -0.551
      -0.656
      -0.699
      -0.665
      -0.561
      -0.417
      -0.267
      -0.136
      -0.029
       0.057
       0.126
       0.165
       0.150
       0.059
      -0.110
      -0.326
      -0.537
      -0.700
      -0.811
      -0.904
      -1.017
      -1.144
      -1.216
      -1.143
      -0.881
      -0.480
      -0.055
       0.290
       0.521
       0.670
       0.779
       0.850
       0.846
       0.743
       0.574
       0.430
       0.397
       0.501
       0.692
       0.883
       1.009
       1.057
       1.060
       1.053
       1.051
       1.037
       0.988
       0.893
       0.753
       0.577
       0.375
       0.159
      -0.044
      -0.203
      -0.303
