Origin Time       11/9/2010 07:02:09	
Lat.              25.9 N	
Long.             90.2 E	
Depth (Km)         20.0
Magnitude         5.0
 Region           Meghalaya-Assam-Border                                           
 Above details taken from IMD 
     
Station Code      BON
Station Lat.       26.473  N
Station Long.      90.561  E
Station Height(m)   75.0
Site Class        C   Vs30 between 200 m/sec to 375 m/sec *  
Record Time       11.09.2010 07:01:52.814
Sampling Rate     200. Hz
 Record Duration   98.760 Sec.
 Direction         E-W (E positive)
Max. Acceleration     -6.098 cm/sec**2
     
  * For reference see Site Classification link of website 
     
 Base Line Corrected and Low Pass Filtered (Cut Off at 35 Hz) Time History
 Acceleration data in cm/sec**2
    
[...]
       0.196
       0.281
       0.336
       0.354
       0.373
       0.432
       0.536
       0.646
       0.712
       0.710
       0.644
       0.536
       0.400
       0.236
       0.043
      -0.155
      -0.307
      -0.354
      -0.283
      -0.141
      -0.017
       0.014
      -0.058
      -0.182
      -0.285
      -0.328
      -0.317
      -0.296
      -0.309
      -0.378
      -0.488
      -0.597
      -0.647
      -0.596
      -0.434
      -0.212
      -0.019
       0.058
      -0.013
      -0.185
      -0.368
      -0.487
      -0.520
      -0.494
      -0.433
      -0.340
      -0.205
      -0.043
       0.098
       0.173
       0.183
       0.181
       0.216
       0.286
       0.339
       0.320
       0.218
       0.068
      -0.085
      -0.211
      -0.303
      -0.369
      -0.404
      -0.399
      -0.344
      -0.246
      -0.136
      -0.044
       0.028
       0.109
       0.242
       0.432
       0.623
       0.732
       0.709
       0.586
       0.455
       0.395
       0.414
       0.451
       0.425
       0.307
       0.132
      -0.027
      -0.123
      -0.165
      -0.207
      -0.302
      -0.454
      -0.609
      -0.690
      -0.650
      -0.499
      -0.296
      -0.112
       0.004
       0.041
       0.021
      -0.014
      -0.020
       0.027
       0.124
       0.239
       0.341
       0.419
       0.494
       0.591
       0.714
       0.824
       0.856
       0.756
       0.528
       0.232
      -0.049
      -0.261
      -0.405
      -0.505
      -0.570
      -0.575
      -0.491
      -0.331
      -0.160
      -0.056
      -0.048
      -0.101
      -0.147
      -0.148
      -0.117
      -0.097
      -0.110
      -0.132
      -0.101
       0.035
       0.274
       0.542
       0.720
       0.711
       0.500
       0.163
      -0.176
      -0.408
      -0.486
      -0.417
      -0.228
       0.046
       0.348
       0.591
       0.687
       0.599
       0.365
       0.075
      -0.187
      -0.389
      -0.548
      -0.684
      -0.781
      -0.792
      -0.684
      -0.479
      -0.252
      -0.071
       0.040
       0.105
       0.151
       0.169
       0.117
      -0.020
      -0.194
      -0.307
      -0.286
      -0.149
       0.009
       0.099
       0.124
       0.176
       0.355
       0.671
       1.020
       1.257
       1.299
       1.176
       1.001
       0.879
       0.842
       0.844
       0.819
       0.724
       0.553
       0.313
       0.009
      -0.339
      -0.671
      -0.899
      -0.952
      -0.833
      -0.637
      -0.503
      -0.525
      -0.686
      -0.868
      -0.936
      -0.834
      -0.618
      -0.421
      -0.357
      -0.463
      -0.689
      -0.939
      -1.118
      -1.156
      -1.026
      -0.754
      -0.426
      -0.157
      -0.041
      -0.105
      -0.289
      -0.486
      -0.588
      -0.538
      -0.348
      -0.092
       0.127
       0.213
       0.128
      -0.092
      -0.342
      -0.499
      -0.477
      -0.274
       0.030
       0.318
       0.493
       0.520
       0.438
       0.335
       0.293
       0.352
       0.492
       0.661
       0.802
       0.881
       0.880
       0.799
       0.663
       0.530
       0.485
       0.586
       0.818
       1.080
       1.241
       1.219
       1.035
       0.792
       0.616
       0.573
       0.628
       0.672
       0.599
       0.383
       0.091
      -0.170
      -0.326
      -0.371
      -0.340
      -0.265
      -0.156
      -0.030
       0.062
       0.038
      -0.150
      -0.460
      -0.755
      -0.883
      -0.785
      -0.542
      -0.311
      -0.213
      -0.263
      -0.375
      -0.442
      -0.399
      -0.249
      -0.046
       0.123
       0.174
       0.059
      -0.194
      -0.472
      -0.629
      -0.561
      -0.278
       0.105
       0.433
       0.593
       0.565
       0.419
       0.257
       0.151
       0.119
       0.137
       0.174
       0.206
       0.217
       0.194
       0.123
       0.004
      -0.137
      -0.256
      -0.322
      -0.335
      -0.319
      -0.286
      -0.226
      -0.139
      -0.059
      -0.049
      -0.146
      -0.324
      -0.510
      -0.638
      -0.689
      -0.677
      -0.620
      -0.524
      -0.398
      -0.278
      -0.221
      -0.273
      -0.428
      -0.623
      -0.761
      -0.761
      -0.601
      -0.321
       0.000
       0.294
       0.532
       0.722
       0.868
       0.949
       0.923
       0.766
       0.511
       0.246
       0.069
       0.035
       0.128
       0.288
       0.450
       0.567
       0.623
       0.622
       0.584
       0.531
       0.466
       0.376
       0.247
       0.083
      -0.082
      -0.216
      -0.313
      -0.397
      -0.504
      -0.633
      -0.732
      -0.724
      -0.568
      -0.302
      -0.032
       0.128
       0.130
       0.015
      -0.122
      -0.192
      -0.151
      -0.011
       0.181
       0.364
       0.487
       0.528
       0.499
       0.429
       0.348
       0.265
       0.172
       0.069
      -0.025
      -0.075
      -0.050
       0.053
       0.206
       0.359
       0.453
       0.448
       0.333
       0.136
      -0.078
      -0.245
      -0.330
      -0.341
      -0.321
      -0.304
      -0.298
      -0.277
      -0.214
      -0.108
      -0.001
       0.057
       0.046
      -0.001
      -0.022
       0.027
       0.133
       0.232
       0.257
       0.180
       0.033
      -0.122
      -0.232
      -0.293
      -0.339
      -0.424
      -0.569
      -0.742
      -0.857
      -0.835
      -0.656
      -0.389
      -0.153
      -0.039
      -0.059
      -0.151
      -0.232
      -0.264
      -0.260
      -0.249
      -0.235
      -0.185
      -0.062
       0.141
       0.377
       0.567
       0.634
       0.552
       0.362
       0.157
       0.037
       0.065
       0.247
       0.530
       0.824
       1.032
       1.079
       0.940
       0.651
       0.300
      -0.018
      -0.253
      -0.424
      -0.575
      -0.716
      -0.797
      -0.735
      -0.484
      -0.078
       0.371
       0.722
       0.866
       0.775
       0.511
       0.197
      -0.042
      -0.138
      -0.104
      -0.022
       0.012
      -0.061
      -0.232
      -0.440
      -0.621
      -0.740
      -0.786
      -0.747
      -0.613
      -0.393
      -0.134
       0.101
       0.277
       0.417
       0.580
       0.803
       1.071
       1.317
       1.459
       1.443
       1.267
       0.996
       0.746
       0.626
       0.668
       0.790
       0.849
       0.751
       0.533
       0.354
       0.386
       0.672
       1.079
       1.362
       1.301
       0.828
       0.057
      -0.788
      -1.495
      -1.954
      -2.178
      -2.262
      -2.319
      -2.431
      -2.636
      -2.924
      -3.249
      -3.544
      -3.738
      -3.792
      -3.719
      -3.573
      -3.400
      -3.204
      -2.942
      -2.571
      -2.088
      -1.520
      -0.894
      -0.204
       0.576
       1.438
       2.297
       3.019
       3.492
       3.719
       3.826
       3.992
       4.342
       4.865
       5.422
       5.829
       5.949
       5.756
       5.329
       4.800
       4.289
       3.856
       3.485
       3.115
       2.671
       2.106
       1.424
       0.685
      -0.002
      -0.519
      -0.805
      -0.903
      -0.951
      -1.108
      -1.459
      -1.989
      -2.627
      -3.304
      -3.979
      -4.613
      -5.138
      -5.464
      -5.516
      -5.282
      -4.822
      -4.257
      -3.724
      -3.338
      -3.155
      -3.160
      -3.274
      -3.379
      -3.356
      -3.129
      -2.694
      -2.118
      -1.509
      -0.955
      -0.475
      -0.012
       0.522
       1.175
       1.915
       2.642
       3.247
       3.664
       3.889
       3.952
       3.898
       3.774
       3.630
       3.508
       3.416
       3.303
       3.075
       2.654
       2.038
       1.336
       0.724
       0.350
       0.244
       0.297
       0.327
       0.204
      -0.073
      -0.381
      -0.572
      -0.577
      -0.443
      -0.295
      -0.255
      -0.391
      -0.705
      -1.137
      -1.569
      -1.853
      -1.858
      -1.535
      -0.944
      -0.238
       0.404
       0.847
       1.029
       0.972
       0.748
       0.468
       0.253
       0.208
       0.395
       0.798
       1.322
       1.808
       2.075
       1.987
       1.511
       0.746
      -0.118
      -0.879
      -1.402
      -1.654
      -1.691
      -1.611
      -1.508
      -1.426
      -1.368
      -1.341
      -1.391
      -1.594
      -1.991
      -2.522
      -3.023
      -3.301
      -3.228
      -2.794
      -2.087
      -1.224
      -0.305
       0.597
       1.409
       2.040
       2.399
       2.431
       2.162
       1.688
       1.143
       0.639
       0.248
       0.008
      -0.057
       0.051
       0.285
       0.547
       0.732
       0.801
       0.820
       0.922
       1.204
       1.632
       2.044
       2.244
       2.133
       1.751
       1.235
       0.731
       0.326
       0.055
      -0.082
      -0.109
      -0.091
      -0.149
      -0.421
      -0.994
      -1.805
      -2.610
      -3.057
      -2.857
      -1.960
      -0.615
       0.749
       1.741
       2.194
       2.180
       1.878
       1.423
       0.841
       0.128
      -0.652
      -1.332
      -1.740
      -1.825
      -1.699
      -1.553
      -1.519
      -1.599
      -1.688
      -1.673
      -1.502
      -1.202
      -0.858
      -0.567
      -0.397
      -0.347
      -0.330
      -0.210
       0.116
       0.644
       1.236
       1.689
       1.858
       1.733
       1.444
       1.159
       0.968
       0.822
       0.574
       0.104
      -0.576
      -1.287
      -1.771
      -1.810
      -1.337
      -0.471
       0.536
       1.390
       1.879
       1.934
       1.646
       1.200
       0.795
       0.563
       0.533
       0.642
       0.785
       0.869
       0.847
       0.736
       0.607
       0.553
       0.638
       0.843
       1.044
       1.057
       0.742
       0.111
      -0.648
      -1.251
      -1.470
      -1.252
      -0.725
      -0.112
       0.383
       0.638
       0.624
       0.362
      -0.107
      -0.733
      -1.453
      -2.183
      -2.842
      -3.378
      -3.769
      -3.997
      -4.018
      -3.768
      -3.219
      -2.423
      -1.503
      -0.590
       0.225
       0.884
       1.330
       1.517
       1.452
       1.256
       1.152
       1.375
       2.038
       3.065
       4.219
       5.213
       5.824
       5.960
       5.654
       5.017
       4.191
       3.312
       2.489
       1.781
       1.187
       0.662
       0.153
      -0.360
      -0.855
      -1.288
      -1.634
      -1.909
      -2.168
      -2.465
      -2.815
      -3.169
      -3.449
      -3.588
      -3.575
      -3.454
      -3.296
      -3.159
      -3.074
      -3.032
      -3.012
      -2.986
      -2.929
      -2.814
      -2.616
      -2.321
      -1.954
      -1.585
      -1.305
      -1.167
      -1.133
      -1.080
      -0.873
      -0.463
       0.073
       0.579
       0.924
       1.075
       1.111
       1.158
       1.318
       1.629
       2.056
       2.517
       2.905
       3.128
       3.138
       2.962
       2.696
       2.461
       2.342
       2.336
       2.365
       2.349
       2.279
       2.229
       2.290
       2.483
       2.720
       2.861
       2.809
       2.560
       2.176
       1.725
       1.250
       0.784
       0.378
       0.095
      -0.032
      -0.028
       0.037
       0.085
       0.078
       0.022
      -0.054
      -0.126
      -0.186
      -0.245
      -0.323
      -0.440
      -0.603
      -0.790
      -0.960
      -1.090
      -1.208
      -1.407
      -1.800
      -2.445
      -3.280
      -4.127
      -4.769
      -5.054
      -4.971
      -4.634
      -4.194
      -3.759
      -3.358
      -2.967
      -2.556
      -2.122
      -1.682
      -1.265
      -0.910
      -0.664
      -0.583
      -0.696
      -0.957
      -1.212
      -1.235
      -0.842
      -0.032
       0.951
       1.716
       1.937
       1.546
       0.778
       0.044
      -0.287
      -0.060
       0.619
       1.470
       2.194
       2.610
       2.715
       2.638
       2.534
       2.490
       2.501
       2.514
       2.496
       2.473
       2.511
       2.672
       2.964
       3.319
       3.610
       3.694
       3.477
       2.960
       2.258
       1.566
       1.086
       0.937
       1.100
       1.426
       1.692
       1.702
       1.374
       0.770
       0.051
      -0.618
      -1.165
      -1.619
      -2.050
      -2.486
      -2.877
      -3.127
      -3.158
      -2.971
      -2.659
      -2.375
      -2.277
      -2.460
      -2.925
      -3.570
      -4.226
      -4.723
      -4.949
      -4.876
      -4.550
      -4.049
      -3.463
      -2.875
      -2.349
      -1.899
      -1.465
      -0.937
      -0.217
       0.707
       1.744
       2.734
       3.519
       4.012
       4.217
       4.218
       4.146
       4.135
       4.281
       4.606
       5.055
       5.518
       5.876
       6.029
       5.913
       5.504
       4.839
       4.016
       3.162
       2.373
       1.659
       0.943
       0.128
      -0.820
      -1.818
      -2.687
      -3.254
      -3.471
      -3.483
      -3.557
      -3.927
      -4.625
      -5.437
      -6.020
      -6.098
      -5.617
      -4.761
      -3.835
      -3.088
      -2.599
      -2.288
      -2.019
      -1.708
      -1.363
      -1.052
      -0.825
      -0.676
      -0.531
      -0.292
       0.114
       0.680
       1.325
       1.930
       2.409
       2.737
       2.927
       2.990
       2.915
       2.698
       2.377
       2.048
       1.825
       1.780
       1.887
       2.028
       2.047
       1.832
       1.369
       0.755
       0.149
      -0.308
      -0.562
      -0.665
      -0.736
      -0.880
      -1.128
      -1.416
      -1.631
      -1.671
      -1.496
      -1.140
      -0.698
      -0.289
      -0.009
       0.106
       0.097
       0.053
       0.050
       0.096
       0.134
       0.084
      -0.082
      -0.328
      -0.574
      -0.744
      -0.797
      -0.723
      -0.542
      -0.315
      -0.145
      -0.150
      -0.402
      -0.861
      -1.379
      -1.759
      -1.853
      -1.640
      -1.214
      -0.720
      -0.257
       0.168
       0.608
       1.091
       1.556
       1.874
       1.937
       1.753
       1.462
       1.256
       1.271
       1.518
       1.903
       2.301
       2.614
       2.787
       2.784
       2.562
       2.085
       1.361
       0.480
      -0.404
      -1.125
      -1.578
      -1.753
      -1.725
      -1.613
      -1.536
      -1.579
      -1.772
      -2.082
      -2.420
      -2.668
      -2.738
      -2.602
      -2.296
      -1.887
      -1.433
      -0.969
      -0.509
      -0.056
       0.397
       0.849
       1.282
       1.649
       1.886
       1.960
       1.911
       1.872
       1.997
       2.353
       2.847
       3.258
       3.372
       3.120
       2.612
       2.059
       1.652
       1.482
       1.527
       1.681
       1.800
       1.742
       1.412
       0.798
      -0.015
      -0.876
      -1.631
      -2.202
      -2.623
      -2.997
      -3.409
      -3.856
      -4.247
      -4.466
      -4.440
      -4.167
      -3.696
      -3.118
      -2.557
      -2.156
      -2.011
      -2.105
      -2.307
      -2.447
      -2.419
      -2.217
      -1.902
      -1.529
      -1.109
      -0.623
      -0.069
       0.518
       1.094
       1.633
       2.127
       2.554
       2.857
       2.981
       2.927
       2.779
       2.663
       2.681
       2.858
       3.148
       3.469
       3.736
       3.885
       3.884
       3.730
       3.445
       3.060
       2.606
       2.105
       1.575
       1.026
       0.459
      -0.121
      -0.675
      -1.130
      -1.411
      -1.509
      -1.507
      -1.541
      -1.719
      -2.048
      -2.441
      -2.786
      -3.003
      -3.074
      -2.999
      -2.771
      -2.374
      -1.829
      -1.230
      -0.730
      -0.465
      -0.477
      -0.674
      -0.878
      -0.925
      -0.754
      -0.427
      -0.060
       0.271
       0.570
       0.878
       1.188
       1.407
       1.428
       1.242
       0.990
       0.881
       1.045
       1.419
       1.784
       1.895
       1.612
       0.956
       0.080
      -0.801
      -1.489
      -1.867
      -1.931
      -1.770
      -1.513
      -1.265
      -1.072
      -0.924
      -0.785
      -0.628
      -0.464
      -0.342
      -0.314
      -0.396
      -0.534
      -0.624
      -0.568
      -0.335
       0.009
       0.333
       0.506
       0.454
       0.187
      -0.213
      -0.607
      -0.816
      -0.675
      -0.116
       0.754
       1.660
       2.279
       2.421
       2.142
       1.701
       1.395
       1.375
       1.590
       1.874
       2.095
       2.236
       2.348
       2.446
       2.450
       2.241
       1.782
       1.179
       0.624
       0.254
       0.063
      -0.073
      -0.277
      -0.578
      -0.919
      -1.239
      -1.542
      -1.881
      -2.278
      -2.670
      -2.924
      -2.920
      -2.625
      -2.113
      -1.518
      -0.965
      -0.535
      -0.261
      -0.153
      -0.200
      -0.353
      -0.504
      -0.527
      -0.344
       0.017
       0.435
       0.786
       1.032
       1.229
       1.436
       1.616
       1.630
       1.341
       0.757
       0.076
      -0.413
      -0.517
      -0.283
       0.028
       0.102
      -0.222
      -0.858
      -1.538
      -2.001
      -2.150
      -2.094
      -2.029
      -2.086
      -2.241
      -2.354
      -2.299
      -2.056
      -1.707
      -1.332
      -0.936
      -0.456
       0.140
       0.777
       1.307
       1.622
       1.746
       1.818
       1.973
       2.223
       2.447
       2.489
       2.283
       1.915
       1.583
       1.477
       1.667
       2.066
       2.470
       2.648
       2.437
       1.791
       0.791
      -0.380
      -1.491
      -2.345
      -2.830
      -2.959
      -2.848
      -2.658
      -2.535
      -2.543
      -2.654
      -2.764
      -2.749
      -2.538
      -2.172
      -1.803
      -1.599
      -1.616
      -1.728
      -1.691
      -1.312
      -0.593
       0.258
       0.963
       1.354
       1.448
       1.391
       1.314
       1.255
       1.182
       1.093
       1.067
       1.208
       1.555
       2.039
       2.532
       2.952
       3.308
       3.661
       4.024
       4.303
       4.337
       4.017
       3.379
       2.607
       1.925
       1.476
       1.255
       1.135
       0.967
       0.660
       0.244
      -0.150
      -0.350
      -0.247
       0.112
       0.516
       0.693
       0.461
      -0.160
      -0.958
      -1.662
      -2.085
      -2.219
      -2.202
      -2.215
      -2.364
      -2.626
      -2.875
      -2.963
      -2.803
      -2.413
      -1.908
      -1.458
      -1.223
      -1.282
      -1.595
      -2.012
      -2.342
      -2.437
      -2.252
      -1.838
      -1.304
      -0.761
