Origin Time       3/9/2009 19:51:08	 
Lat.              24.3 N	
Long.             94.6 E	
Depth (Km)        100.0
Magnitude         5.9
 Region           MYANMAR-India-Manipuir-Border                                    
 Above details taken from IMD 
   
Station Code      BON
Station Lat.       26.473
Station Long.      90.561
Station Height(m)   75.0
Site Class        C   Vs30 between 200 m/sec to 375 m/sec *  
Record Time       04.09.2009 01:22:59.319
Sampling Rate     200. Hz
 Record Duration   65.020 Sec.
 Direction         Vert. (Up positive)
Max. Acceleration      3.425 cm/sec**2
     
  * For reference see Site Classification link of website 
     
 Base Line Corrected and Low Pass Filtered (Cut Off at 35 Hz) Time History
 Acceleration data in cm/sec**2
    
[...]
      -0.198
      -0.162
      -0.135
      -0.128
      -0.129
      -0.113
      -0.058
       0.041
       0.170
       0.301
       0.411
       0.490
       0.538
       0.563
       0.567
       0.541
       0.464
       0.328
       0.147
      -0.037
      -0.178
      -0.252
      -0.271
      -0.269
      -0.274
      -0.296
      -0.322
      -0.337
      -0.335
      -0.324
      -0.316
      -0.316
      -0.319
      -0.319
      -0.315
      -0.316
      -0.329
      -0.346
      -0.346
      -0.304
      -0.214
      -0.094
       0.030
       0.140
       0.229
       0.293
       0.320
       0.298
       0.236
       0.168
       0.130
       0.138
       0.167
       0.170
       0.110
      -0.013
      -0.159
      -0.274
      -0.325
      -0.313
      -0.267
      -0.219
      -0.181
      -0.139
      -0.074
       0.009
       0.083
       0.109
       0.074
      -0.003
      -0.085
      -0.148
      -0.190
      -0.229
      -0.271
      -0.305
      -0.309
      -0.275
      -0.216
      -0.158
      -0.114
      -0.070
      -0.003
       0.094
       0.202
       0.290
       0.340
       0.355
       0.347
       0.327
       0.296
       0.254
       0.206
       0.166
       0.146
       0.151
       0.177
       0.210
       0.236
       0.249
       0.254
       0.260
       0.264
       0.249
       0.192
       0.083
      -0.066
      -0.224
      -0.348
      -0.402
      -0.368
      -0.252
      -0.086
       0.082
       0.208
       0.271
       0.281
       0.267
       0.249
       0.230
       0.197
       0.144
       0.081
       0.027
      -0.007
      -0.033
      -0.077
      -0.158
      -0.272
      -0.383
      -0.449
      -0.442
      -0.362
      -0.227
      -0.067
       0.090
       0.220
       0.300
       0.315
       0.264
       0.170
       0.068
      -0.008
      -0.039
      -0.028
       0.012
       0.062
       0.111
       0.151
       0.178
       0.198
       0.212
       0.215
       0.194
       0.139
       0.058
      -0.019
      -0.056
      -0.033
       0.034
       0.108
       0.152
       0.155
       0.123
       0.070
       0.000
      -0.080
      -0.160
      -0.219
      -0.243
      -0.232
      -0.205
      -0.178
      -0.151
      -0.109
      -0.042
       0.039
       0.106
       0.142
       0.149
       0.155
       0.187
       0.253
       0.336
       0.406
       0.434
       0.405
       0.323
       0.209
       0.085
      -0.040
      -0.173
      -0.325
      -0.493
      -0.646
      -0.745
      -0.764
      -0.714
      -0.629
      -0.540
      -0.446
      -0.328
      -0.172
       0.005
       0.160
       0.260
       0.311
       0.348
       0.409
       0.492
       0.565
       0.590
       0.556
       0.483
       0.392
       0.298
       0.203
       0.109
       0.023
      -0.051
      -0.122
      -0.203
      -0.296
      -0.389
      -0.467
      -0.521
      -0.550
      -0.551
      -0.510
      -0.413
      -0.265
      -0.096
       0.056
       0.169
       0.253
       0.324
       0.389
       0.429
       0.420
       0.348
       0.226
       0.085
      -0.044
      -0.150
      -0.238
      -0.314
      -0.367
      -0.376
      -0.324
      -0.228
      -0.125
      -0.056
      -0.041
      -0.069
      -0.119
      -0.177
      -0.239
      -0.298
      -0.335
      -0.326
      -0.264
      -0.181
      -0.128
      -0.142
      -0.205
      -0.254
      -0.220
      -0.073
       0.162
       0.422
       0.647
       0.809
       0.914
       0.984
       1.033
       1.063
       1.071
       1.056
       1.024
       0.975
       0.901
       0.794
       0.652
       0.488
       0.338
       0.241
       0.219
       0.258
       0.310
       0.321
       0.265
       0.153
       0.024
      -0.088
      -0.171
      -0.235
      -0.298
      -0.373
      -0.453
      -0.516
      -0.539
      -0.517
      -0.473
      -0.453
      -0.500
      -0.624
      -0.796
      -0.966
      -1.090
      -1.153
      -1.171
      -1.159
      -1.114
      -1.016
      -0.844
      -0.607
      -0.340
      -0.086
       0.130
       0.311
       0.473
       0.627
       0.760
       0.851
       0.880
       0.844
       0.759
       0.648
       0.521
       0.382
       0.229
       0.073
      -0.074
      -0.202
      -0.302
      -0.364
      -0.377
      -0.330
      -0.223
      -0.071
       0.093
       0.226
       0.294
       0.284
       0.203
       0.071
      -0.102
      -0.305
      -0.513
      -0.682
      -0.766
      -0.750
      -0.655
      -0.518
      -0.359
      -0.169
       0.062
       0.324
       0.580
       0.790
       0.936
       1.023
       1.063
       1.055
       0.986
       0.844
       0.631
       0.362
       0.056
      -0.272
      -0.603
      -0.910
      -1.169
      -1.359
      -1.472
      -1.505
      -1.454
      -1.319
      -1.109
      -0.844
      -0.548
      -0.248
       0.041
       0.306
       0.533
       0.699
       0.778
       0.751
       0.620
       0.416
       0.193
       0.017
      -0.061
      -0.026
       0.099
       0.277
       0.489
       0.740
       1.037
       1.354
       1.634
       1.822
       1.898
       1.872
       1.760
       1.558
       1.263
       0.893
       0.490
       0.097
      -0.266
      -0.593
      -0.870
      -1.061
      -1.127
      -1.061
      -0.901
      -0.701
      -0.496
      -0.288
      -0.072
       0.136
       0.299
       0.377
       0.341
       0.179
      -0.100
      -0.455
      -0.815
      -1.107
      -1.296
      -1.404
      -1.475
      -1.528
      -1.533
      -1.430
      -1.180
      -0.800
      -0.364
       0.042
       0.354
       0.543
       0.607
       0.550
       0.384
       0.132
      -0.175
      -0.499
      -0.803
      -1.049
      -1.201
      -1.229
      -1.119
      -0.865
      -0.476
       0.018
       0.565
       1.090
       1.521
       1.804
       1.914
       1.843
       1.606
       1.235
       0.779
       0.293
      -0.176
      -0.589
      -0.907
      -1.083
      -1.066
      -0.838
      -0.436
       0.051
       0.531
       0.950
       1.316
       1.661
       2.001
       2.306
       2.516
       2.576
       2.459
       2.180
       1.779
       1.303
       0.785
       0.236
      -0.338
      -0.908
      -1.415
      -1.783
      -1.965
      -1.973
      -1.878
      -1.766
      -1.688
      -1.637
      -1.570
      -1.452
      -1.282
      -1.091
      -0.911
      -0.758
      -0.625
      -0.496
      -0.361
      -0.225
      -0.103
      -0.007
       0.071
       0.159
       0.285
       0.460
       0.670
       0.884
       1.065
       1.186
       1.234
       1.214
       1.141
       1.029
       0.876
       0.668
       0.388
       0.033
      -0.380
      -0.817
      -1.237
      -1.601
      -1.877
      -2.034
      -2.043
      -1.892
      -1.598
      -1.217
      -0.814
      -0.435
      -0.097
       0.196
       0.419
       0.529
       0.484
       0.291
       0.008
      -0.283
      -0.522
      -0.697
      -0.825
      -0.916
      -0.951
      -0.898
      -0.745
      -0.518
      -0.263
      -0.021
       0.195
       0.382
       0.530
       0.616
       0.607
       0.489
       0.281
       0.049
      -0.120
      -0.157
      -0.041
       0.191
       0.470
       0.741
       0.977
       1.176
       1.348
       1.492
       1.598
       1.654
       1.660
       1.629
       1.578
       1.515
       1.426
       1.290
       1.097
       0.857
       0.607
       0.386
       0.221
       0.110
       0.020
      -0.092
      -0.246
      -0.424
      -0.584
      -0.691
      -0.737
      -0.737
      -0.703
      -0.628
      -0.505
      -0.347
      -0.187
      -0.045
       0.094
       0.270
       0.494
       0.715
       0.835
       0.778
       0.541
       0.200
      -0.147
      -0.433
      -0.644
      -0.790
      -0.874
      -0.882
      -0.792
      -0.598
      -0.321
      -0.006
       0.296
       0.553
       0.753
       0.891
       0.956
       0.918
       0.741
       0.416
      -0.026
      -0.512
      -0.960
      -1.301
      -1.490
      -1.501
      -1.338
      -1.038
      -0.657
      -0.250
       0.144
       0.500
       0.797
       1.007
       1.103
       1.079
       0.947
       0.727
       0.420
       0.010
      -0.510
      -1.101
      -1.670
      -2.108
      -2.345
      -2.381
      -2.275
      -2.097
      -1.895
      -1.677
      -1.425
      -1.125
      -0.779
      -0.408
      -0.034
       0.320
       0.629
       0.867
       1.016
       1.084
       1.110
       1.147
       1.223
       1.317
       1.370
       1.321
       1.151
       0.900
       0.639
       0.431
       0.294
       0.206
       0.124
       0.014
      -0.135
      -0.310
      -0.487
      -0.645
      -0.770
      -0.854
      -0.892
      -0.879
      -0.811
      -0.680
      -0.474
      -0.181
       0.191
       0.604
       0.995
       1.307
       1.515
       1.620
       1.634
       1.566
       1.419
       1.207
       0.950
       0.664
       0.357
       0.044
      -0.238
      -0.429
      -0.482
      -0.392
      -0.203
       0.011
       0.194
       0.328
       0.440
       0.568
       0.724
       0.877
       0.968
       0.946
       0.806
       0.591
       0.359
       0.139
      -0.089
      -0.366
      -0.708
      -1.077
      -1.393
      -1.587
      -1.640
      -1.572
      -1.410
      -1.160
      -0.822
      -0.417
      -0.005
       0.343
       0.575
       0.665
       0.605
       0.386
       0.013
      -0.471
      -0.974
      -1.385
      -1.622
      -1.665
      -1.546
      -1.312
      -0.999
      -0.631
      -0.238
       0.146
       0.498
       0.812
       1.096
       1.342
       1.522
       1.599
       1.545
       1.360
       1.072
       0.725
       0.361
       0.009
      -0.311
      -0.582
      -0.787
      -0.916
      -0.972
      -0.977
      -0.947
      -0.879
      -0.739
      -0.489
      -0.120
       0.323
       0.750
       1.078
       1.273
       1.358
       1.375
       1.336
       1.208
       0.943
       0.526
      -0.005
      -0.571
      -1.091
      -1.508
      -1.788
      -1.917
      -1.888
      -1.713
      -1.425
      -1.080
      -0.740
      -0.455
      -0.250
      -0.140
      -0.135
      -0.239
      -0.441
      -0.702
      -0.959
      -1.138
      -1.175
      -1.046
      -0.784
      -0.461
      -0.135
       0.187
       0.545
       0.978
       1.475
       1.965
       2.358
       2.600
       2.692
       2.665
       2.546
       2.344
       2.055
       1.685
       1.246
       0.757
       0.232
      -0.305
      -0.811
      -1.225
      -1.501
      -1.635
      -1.669
      -1.658
      -1.632
      -1.577
      -1.472
      -1.321
      -1.165
      -1.049
      -0.985
      -0.950
      -0.916
      -0.872
      -0.826
      -0.780
      -0.710
      -0.580
      -0.372
      -0.103
       0.192
       0.481
       0.751
       1.008
       1.255
       1.486
       1.675
       1.792
       1.798
       1.667
       1.389
       0.986
       0.509
       0.029
      -0.385
      -0.683
      -0.847
      -0.889
      -0.834
      -0.698
      -0.477
      -0.151
       0.291
       0.827
       1.396
       1.914
       2.308
       2.537
       2.593
       2.491
       2.255
       1.910
       1.494
       1.057
       0.657
       0.332
       0.083
      -0.116
      -0.285
      -0.411
      -0.446
      -0.352
      -0.141
       0.111
       0.285
       0.274
       0.036
      -0.393
      -0.925
      -1.468
      -1.962
      -2.384
      -2.716
      -2.915
      -2.918
      -2.685
      -2.246
      -1.713
      -1.217
      -0.842
      -0.588
      -0.397
      -0.210
      -0.003
       0.219
       0.440
       0.643
       0.815
       0.937
       0.991
       0.971
       0.898
       0.807
       0.727
       0.666
       0.609
       0.548
       0.498
       0.476
       0.475
       0.447
       0.334
       0.106
      -0.211
      -0.544
      -0.810
      -0.959
      -0.991
      -0.943
      -0.859
      -0.757
      -0.629
      -0.457
      -0.247
      -0.047
       0.082
       0.111
       0.069
       0.035
       0.078
       0.223
       0.439
       0.676
       0.896
       1.082
       1.216
       1.264
       1.195
       1.009
       0.754
       0.506
       0.322
       0.211
       0.146
       0.099
       0.059
       0.025
      -0.014
      -0.070
      -0.136
      -0.174
      -0.141
      -0.020
       0.150
       0.289
       0.320
       0.204
      -0.050
      -0.404
      -0.813
      -1.234
      -1.624
      -1.933
      -2.113
      -2.127
      -1.958
      -1.609
      -1.110
      -0.519
       0.083
       0.611
       0.999
       1.221
       1.288
       1.232
       1.091
       0.898
       0.683
       0.470
       0.278
       0.109
      -0.044
      -0.184
      -0.310
      -0.417
      -0.505
      -0.569
      -0.597
      -0.573
      -0.498
      -0.415
      -0.394
      -0.500
      -0.735
      -1.024
      -1.257
      -1.354
      -1.298
      -1.128
      -0.891
      -0.610
      -0.284
       0.103
       0.552
       1.055
       1.584
       2.103
       2.569
       2.948
       3.222
       3.384
       3.425
       3.342
       3.139
       2.840
       2.463
       2.007
       1.455
       0.796
       0.062
      -0.680
      -1.359
      -1.931
      -2.392
      -2.749
      -2.988
      -3.069
      -2.949
      -2.608
      -2.070
      -1.402
      -0.698
      -0.064
       0.426
       0.747
       0.934
       1.036
       1.075
       1.027
       0.860
       0.580
       0.252
      -0.029
      -0.193
      -0.221
      -0.131
       0.047
       0.278
       0.523
       0.729
       0.843
       0.843
       0.747
       0.608
       0.484
       0.398
       0.318
       0.157
      -0.180
      -0.728
      -1.416
      -2.087
      -2.571
      -2.774
      -2.713
      -2.472
      -2.122
      -1.664
      -1.044
      -0.236
       0.692
       1.581
       2.264
       2.652
       2.758
       2.648
       2.375
       1.958
       1.410
       0.765
       0.089
      -0.543
      -1.079
      -1.497
      -1.790
      -1.954
      -1.988
      -1.900
      -1.711
      -1.441
      -1.101
      -0.697
      -0.244
       0.219
       0.642
       0.981
       1.223
       1.390
       1.518
       1.617
       1.653
       1.565
       1.322
       0.960
       0.575
       0.259
       0.039
      -0.131
      -0.305
      -0.473
      -0.546
      -0.424
      -0.080
       0.392
       0.826
       1.069
       1.054
       0.809
       0.405
      -0.114
      -0.735
      -1.436
      -2.129
      -2.677
      -2.967
      -2.987
      -2.831
      -2.633
      -2.475
      -2.345
      -2.164
      -1.862
      -1.430
      -0.927
      -0.433
      -0.002
       0.346
       0.612
       0.815
       0.991
       1.191
       1.444
       1.731
       1.987
       2.142
       2.166
       2.065
       1.862
       1.566
       1.191
       0.773
       0.371
       0.042
      -0.188
      -0.332
      -0.408
      -0.410
      -0.310
      -0.095
       0.189
       0.446
       0.588
       0.599
       0.544
       0.511
       0.538
       0.594
       0.623
       0.607
       0.584
       0.621
       0.750
       0.940
       1.112
       1.203
       1.194
       1.100
       0.935
       0.697
       0.388
       0.037
      -0.315
      -0.648
      -0.974
      -1.320
      -1.694
      -2.078
      -2.433
      -2.727
      -2.934
      -3.029
      -2.983
      -2.770
      -2.387
      -1.855
      -1.212
      -0.493
       0.269
       1.025
       1.707
       2.247
       2.601
       2.763
       2.746
       2.569
       2.246
       1.805
       1.291
       0.762
       0.254
      -0.217
      -0.650
      -1.029
      -1.324
      -1.507
      -1.564
      -1.483
      -1.255
      -0.876
      -0.373
       0.180
       0.678
       1.031
       1.201
       1.202
       1.077
       0.870
       0.633
       0.430
       0.322
       0.346
       0.486
       0.680
       0.855
       0.961
       0.991
       0.968
       0.910
       0.819
       0.679
       0.487
       0.266
       0.049
      -0.150
      -0.353
      -0.594
      -0.886
      -1.205
      -1.498
      -1.712
      -1.809
      -1.763
      -1.553
      -1.164
      -0.603
       0.085
       0.822
       1.525
       2.121
       2.548
       2.742
       2.642
       2.229
       1.558
       0.748
      -0.066
      -0.788
      -1.385
      -1.866
      -2.248
      -2.529
      -2.684
      -2.678
      -2.491
      -2.143
      -1.698
      -1.241
      -0.846
      -0.548
      -0.356
      -0.271
      -0.296
      -0.432
      -0.661
      -0.947
      -1.239
      -1.476
      -1.602
      -1.566
      -1.325
      -0.861
      -0.196
       0.600
       1.426
       2.181
       2.789
       3.194
       3.354
       3.247
       2.895
       2.375
       1.779
       1.178
       0.598
       0.050
      -0.434
      -0.787
      -0.953
      -0.933
      -0.806
      -0.684
      -0.637
      -0.656
      -0.672
      -0.624
      -0.509
      -0.376
      -0.291
      -0.293
      -0.374
      -0.496
      -0.625
      -0.745
      -0.857
      -0.951
      -0.996
      -0.960
      -0.839
      -0.663
      -0.472
      -0.282
      -0.083
       0.132
       0.338
       0.490
       0.557
       0.554
       0.531
       0.530
       0.557
       0.578
       0.562
       0.509
       0.443
       0.384
       0.328
       0.268
       0.230
       0.276
       0.465
       0.803
       1.223
       1.612
       1.862
       1.911
       1.768
       1.500
       1.193
       0.900
       0.630
       0.364
       0.093
      -0.164
      -0.370
      -0.500
      -0.546
      -0.512
      -0.398
      -0.184
       0.143
       0.553
       0.965
       1.276
       1.414
       1.372
       1.201
       0.953
       0.648
       0.256
      -0.254
      -0.872
      -1.530
      -2.141
      -2.646
      -3.025
      -3.269
      -3.346
      -3.214
      -2.863
      -2.336
      -1.714
      -1.069
      -0.445
       0.134
       0.649
       1.075
       1.395
       1.601
       1.685
       1.641
       1.469
       1.200
       0.896
       0.625
       0.422
       0.279
       0.173
       0.083
       0.003
      -0.081
      -0.195
      -0.360
      -0.575
      -0.805
      -1.008
      -1.153
      -1.236
      -1.258
      -1.217
      -1.103
      -0.923
      -0.698
      -0.456
      -0.213
       0.029
       0.278
       0.546
       0.846
       1.183
       1.538
       1.863
       2.090
       2.157
       2.027
       1.700
       1.209
       0.612
      -0.025
      -0.632
      -1.154
      -1.559
      -1.846
      -2.032
      -2.123
      -2.096
      -1.908
      -1.542
      -1.029
      -0.449
       0.105
       0.565
       0.901
       1.127
       1.283
       1.404
