Origin Time       12/3/2010 23:19:54	
Lat.              23.0 N	
Long.             94.5 E	
Depth (Km)         96.0
Magnitude         5.6
 Region           MYANMAR                                                          
 Above details taken from IMD 
   
Station Code      BON
Station Lat.       26.473
Station Long.      90.561
Station Height(m)   75.0
Site Class        C   Vs30 between 200 m/sec to 375 m/sec *  
Record Time       13.03.2010 04:52:08.134
Sampling Rate     200. Hz
 Record Duration   91.095 Sec.
 Direction         Vert. (Up positive)
Max. Acceleration     -2.934 cm/sec**2
     
  * For reference see Site Classification link of website 
     
 Base Line Corrected and Low Pass Filtered (Cut Off at 35 Hz) Time History
 Acceleration data in cm/sec**2
    
[...]
      -0.009
      -0.081
      -0.098
      -0.068
      -0.016
       0.031
       0.060
       0.077
       0.102
       0.145
       0.200
       0.244
       0.259
       0.243
       0.214
       0.192
       0.184
       0.175
       0.147
       0.098
       0.043
      -0.002
      -0.034
      -0.061
      -0.087
      -0.098
      -0.078
      -0.021
       0.057
       0.123
       0.154
       0.147
       0.124
       0.113
       0.126
       0.147
       0.142
       0.091
       0.004
      -0.090
      -0.162
      -0.198
      -0.207
      -0.202
      -0.192
      -0.181
      -0.178
      -0.192
      -0.227
      -0.277
      -0.320
      -0.328
      -0.289
      -0.207
      -0.108
      -0.020
       0.035
       0.057
       0.051
       0.031
       0.006
      -0.016
      -0.023
      -0.002
       0.058
       0.160
       0.289
       0.422
       0.526
       0.571
       0.536
       0.421
       0.251
       0.065
      -0.105
      -0.247
      -0.366
      -0.466
      -0.538
      -0.571
      -0.556
      -0.500
      -0.416
      -0.322
      -0.228
      -0.139
      -0.055
       0.023
       0.088
       0.132
       0.149
       0.147
       0.148
       0.171
       0.218
       0.267
       0.289
       0.270
       0.219
       0.157
       0.105
       0.079
       0.092
       0.149
       0.240
       0.333
       0.377
       0.335
       0.203
       0.015
      -0.174
      -0.328
      -0.439
      -0.524
      -0.597
      -0.654
      -0.677
      -0.637
      -0.522
      -0.336
      -0.105
       0.133
       0.340
       0.486
       0.554
       0.548
       0.489
       0.409
       0.335
       0.280
       0.244
       0.220
       0.197
       0.163
       0.112
       0.041
      -0.044
      -0.133
      -0.206
      -0.248
      -0.251
      -0.227
      -0.199
      -0.192
      -0.213
      -0.249
      -0.268
      -0.237
      -0.136
       0.023
       0.206
       0.365
       0.465
       0.500
       0.484
       0.437
       0.373
       0.292
       0.190
       0.070
      -0.048
      -0.133
      -0.157
      -0.104
       0.018
       0.189
       0.377
       0.557
       0.708
       0.812
       0.842
       0.769
       0.580
       0.298
      -0.021
      -0.311
      -0.528
      -0.663
      -0.730
      -0.734
      -0.669
      -0.532
      -0.344
      -0.146
       0.026
       0.152
       0.232
       0.263
       0.231
       0.118
      -0.072
      -0.305
      -0.525
      -0.675
      -0.733
      -0.705
      -0.609
      -0.460
      -0.266
      -0.044
       0.166
       0.323
       0.403
       0.415
       0.391
       0.352
       0.299
       0.218
       0.107
      -0.015
      -0.121
      -0.191
      -0.223
      -0.227
      -0.219
      -0.214
      -0.216
      -0.220
      -0.219
      -0.217
      -0.230
      -0.272
      -0.335
      -0.392
      -0.408
      -0.365
      -0.271
      -0.154
      -0.037
       0.076
       0.199
       0.342
       0.504
       0.664
       0.796
       0.880
       0.905
       0.868
       0.769
       0.604
       0.379
       0.116
      -0.143
      -0.346
      -0.450
      -0.440
      -0.338
      -0.193
      -0.066
       0.006
       0.016
      -0.017
      -0.068
      -0.131
      -0.209
      -0.310
      -0.437
      -0.586
      -0.755
      -0.919
      -1.025
      -1.005
      -0.819
      -0.490
      -0.086
       0.323
       0.699
       1.041
       1.339
       1.564
       1.668
       1.611
       1.384
       1.013
       0.551
       0.058
      -0.407
      -0.788
      -1.041
      -1.137
      -1.081
      -0.907
      -0.675
      -0.439
      -0.237
      -0.096
      -0.041
      -0.091
      -0.242
      -0.455
      -0.665
      -0.811
      -0.868
      -0.850
      -0.793
      -0.714
      -0.608
      -0.455
      -0.240
       0.032
       0.334
       0.629
       0.880
       1.058
       1.134
       1.090
       0.926
       0.669
       0.366
       0.056
      -0.248
      -0.554
      -0.862
      -1.138
      -1.313
      -1.325
      -1.147
      -0.807
      -0.365
       0.113
       0.572
       0.971
       1.283
       1.489
       1.574
       1.530
       1.353
       1.064
       0.710
       0.354
       0.043
      -0.205
      -0.388
      -0.506
      -0.540
      -0.470
      -0.293
      -0.038
       0.250
       0.526
       0.768
       0.966
       1.108
       1.173
       1.138
       0.986
       0.719
       0.361
      -0.039
      -0.419
      -0.713
      -0.861
      -0.826
      -0.606
      -0.235
       0.220
       0.689
       1.109
       1.435
       1.640
       1.704
       1.620
       1.388
       1.030
       0.584
       0.108
      -0.326
      -0.652
      -0.826
      -0.853
      -0.780
      -0.668
      -0.557
      -0.451
      -0.333
      -0.193
      -0.039
       0.113
       0.251
       0.368
       0.442
       0.433
       0.308
       0.071
      -0.232
      -0.531
      -0.765
      -0.911
      -0.974
      -0.971
      -0.916
      -0.811
      -0.668
      -0.511
      -0.376
      -0.282
      -0.232
      -0.219
      -0.233
      -0.271
      -0.322
      -0.369
      -0.401
      -0.421
      -0.451
      -0.511
      -0.608
      -0.723
      -0.826
      -0.895
      -0.915
      -0.881
      -0.782
      -0.614
      -0.385
      -0.123
       0.133
       0.348
       0.509
       0.622
       0.705
       0.763
       0.782
       0.729
       0.583
       0.357
       0.096
      -0.141
      -0.319
      -0.439
      -0.532
      -0.628
      -0.739
      -0.849
      -0.925
      -0.938
      -0.872
      -0.742
      -0.583
      -0.435
      -0.320
      -0.245
      -0.212
      -0.232
      -0.319
      -0.462
      -0.622
      -0.735
      -0.756
      -0.676
      -0.512
      -0.282
       0.014
       0.376
       0.780
       1.177
       1.515
       1.766
       1.934
       2.025
       2.026
       1.911
       1.677
       1.364
       1.035
       0.731
       0.441
       0.128
      -0.224
      -0.573
      -0.840
      -0.966
      -0.940
      -0.797
      -0.588
      -0.357
      -0.137
       0.045
       0.169
       0.231
       0.253
       0.275
       0.336
       0.445
       0.565
       0.640
       0.631
       0.549
       0.435
       0.330
       0.250
       0.195
       0.173
       0.203
       0.300
       0.448
       0.592
       0.673
       0.657
       0.555
       0.398
       0.221
       0.048
      -0.111
      -0.258
      -0.403
      -0.557
      -0.708
      -0.821
      -0.853
      -0.779
      -0.609
      -0.380
      -0.123
       0.152
       0.452
       0.775
       1.089
       1.331
       1.443
       1.394
       1.188
       0.852
       0.422
      -0.067
      -0.581
      -1.081
      -1.523
      -1.855
      -2.034
      -2.036
      -1.866
      -1.555
      -1.152
      -0.713
      -0.293
       0.058
       0.304
       0.431
       0.446
       0.373
       0.239
       0.064
      -0.149
      -0.389
      -0.627
      -0.818
      -0.915
      -0.890
      -0.749
      -0.533
      -0.297
      -0.094
       0.044
       0.114
       0.132
       0.112
       0.063
      -0.013
      -0.102
      -0.177
      -0.207
      -0.182
      -0.113
      -0.023
       0.083
       0.210
       0.361
       0.519
       0.651
       0.727
       0.744
       0.723
       0.692
       0.657
       0.596
       0.477
       0.300
       0.105
      -0.047
      -0.133
      -0.190
      -0.288
      -0.470
      -0.706
      -0.925
      -1.075
      -1.167
      -1.254
      -1.363
      -1.464
      -1.480
      -1.349
      -1.071
      -0.705
      -0.326
       0.018
       0.330
       0.632
       0.924
       1.170
       1.317
       1.344
       1.276
       1.171
       1.075
       0.991
       0.884
       0.720
       0.491
       0.221
      -0.049
      -0.272
      -0.403
      -0.404
      -0.265
      -0.021
       0.243
       0.440
       0.520
       0.502
       0.442
       0.384
       0.329
       0.253
       0.139
       0.006
      -0.112
      -0.186
      -0.208
      -0.177
      -0.086
       0.083
       0.342
       0.679
       1.054
       1.412
       1.706
       1.917
       2.048
       2.105
       2.081
       1.956
       1.721
       1.389
       0.978
       0.503
      -0.029
      -0.594
      -1.129
      -1.548
      -1.781
      -1.819
      -1.720
      -1.566
      -1.413
      -1.265
      -1.093
      -0.871
      -0.606
      -0.328
      -0.065
       0.167
       0.353
       0.467
       0.487
       0.414
       0.285
       0.146
       0.019
      -0.103
      -0.236
      -0.375
      -0.480
      -0.514
      -0.480
      -0.425
      -0.401
      -0.413
      -0.415
      -0.346
      -0.192
      -0.003
       0.139
       0.182
       0.129
       0.014
      -0.127
      -0.277
      -0.430
      -0.564
      -0.637
      -0.609
      -0.463
      -0.223
       0.055
       0.311
       0.498
       0.596
       0.606
       0.537
       0.406
       0.235
       0.045
      -0.154
      -0.366
      -0.593
      -0.822
      -1.010
      -1.098
      -1.041
      -0.829
      -0.492
      -0.080
       0.358
       0.783
       1.157
       1.449
       1.640
       1.722
       1.694
       1.552
       1.285
       0.885
       0.365
      -0.237
      -0.860
      -1.441
      -1.918
      -2.236
      -2.347
      -2.228
      -1.898
      -1.418
      -0.874
      -0.338
       0.144
       0.549
       0.855
       1.030
       1.048
       0.931
       0.754
       0.616
       0.583
       0.651
       0.757
       0.828
       0.823
       0.747
       0.629
       0.486
       0.317
       0.115
      -0.116
      -0.367
      -0.633
      -0.918
      -1.210
      -1.458
      -1.584
      -1.536
      -1.316
      -0.984
      -0.614
      -0.264
       0.031
       0.246
       0.359
       0.356
       0.244
       0.064
      -0.136
      -0.313
      -0.449
      -0.532
      -0.547
      -0.466
      -0.269
       0.045
       0.454
       0.911
       1.352
       1.704
       1.896
       1.878
       1.638
       1.223
       0.720
       0.227
      -0.182
      -0.482
      -0.691
      -0.843
      -0.955
      -1.014
      -0.990
      -0.857
      -0.618
      -0.297
       0.060
       0.399
       0.666
       0.825
       0.885
       0.885
       0.868
       0.847
       0.797
       0.691
       0.524
       0.328
       0.151
       0.031
      -0.022
      -0.026
      -0.018
      -0.030
      -0.072
      -0.134
      -0.204
      -0.283
      -0.379
      -0.490
      -0.590
      -0.655
      -0.687
      -0.715
      -0.747
      -0.746
      -0.637
      -0.377
      -0.005
       0.375
       0.662
       0.841
       0.983
       1.165
       1.391
       1.581
       1.640
       1.534
       1.299
       0.993
       0.649
       0.279
      -0.087
      -0.389
      -0.550
      -0.528
      -0.342
      -0.060
       0.249
       0.543
       0.790
       0.942
       0.935
       0.727
       0.336
      -0.165
      -0.693
      -1.192
      -1.643
      -2.027
      -2.294
      -2.366
      -2.191
      -1.779
      -1.204
      -0.553
       0.107
       0.733
       1.275
       1.674
       1.873
       1.849
       1.614
       1.211
       0.697
       0.126
      -0.448
      -0.981
      -1.439
      -1.801
      -2.056
      -2.189
      -2.173
      -1.981
      -1.614
      -1.108
      -0.528
       0.057
       0.591
       1.034
       1.359
       1.555
       1.622
       1.575
       1.426
       1.185
       0.854
       0.434
      -0.053
      -0.565
      -1.029
      -1.365
      -1.517
      -1.486
      -1.332
      -1.142
      -0.970
      -0.820
      -0.665
      -0.494
      -0.331
      -0.207
      -0.125
      -0.045
       0.081
       0.281
       0.543
       0.827
       1.091
       1.309
       1.471
       1.581
       1.633
       1.615
       1.513
       1.327
       1.075
       0.777
       0.440
       0.067
      -0.321
      -0.674
      -0.940
      -1.106
      -1.211
      -1.316
      -1.458
      -1.609
      -1.694
      -1.633
      -1.392
      -1.001
      -0.529
      -0.040
       0.441
       0.918
       1.388
       1.804
       2.086
       2.165
       2.034
       1.754
       1.403
       1.033
       0.663
       0.306
      -0.016
      -0.284
      -0.498
      -0.682
      -0.870
      -1.081
      -1.310
      -1.530
      -1.706
      -1.818
      -1.863
      -1.846
      -1.765
      -1.608
      -1.365
      -1.047
      -0.690
      -0.335
       0.005
       0.354
       0.752
       1.211
       1.691
       2.125
       2.450
       2.631
       2.650
       2.506
       2.218
       1.836
       1.427
       1.050
       0.724
       0.429
       0.135
      -0.174
      -0.489
      -0.787
      -1.043
      -1.236
      -1.352
      -1.383
      -1.320
      -1.151
      -0.872
      -0.508
      -0.106
       0.286
       0.650
       0.985
       1.287
       1.521
       1.637
       1.605
       1.432
       1.163
       0.849
       0.527
       0.226
      -0.023
      -0.191
      -0.263
      -0.255
      -0.203
      -0.151
      -0.139
      -0.197
      -0.350
      -0.619
      -1.009
      -1.500
      -2.032
      -2.512
      -2.838
      -2.934
      -2.769
      -2.367
      -1.785
      -1.102
      -0.398
       0.256
       0.802
       1.209
       1.472
       1.610
       1.652
       1.622
       1.535
       1.391
       1.186
       0.917
       0.583
       0.202
      -0.181
      -0.501
      -0.707
      -0.800
      -0.835
      -0.897
      -1.050
      -1.308
      -1.620
      -1.900
      -2.066
      -2.066
      -1.892
      -1.564
      -1.126
      -0.636
      -0.145
       0.323
       0.776
       1.221
       1.631
       1.929
       2.030
       1.894
       1.560
       1.132
       0.718
       0.389
       0.173
       0.072
       0.061
       0.089
       0.086
       0.003
      -0.159
      -0.339
      -0.464
      -0.500
      -0.483
      -0.497
      -0.605
      -0.794
      -0.981
      -1.075
      -1.031
      -0.867
      -0.632
      -0.365
      -0.091
       0.178
       0.444
       0.727
       1.061
       1.463
       1.895
       2.263
       2.465
       2.454
       2.248
       1.893
       1.427
       0.876
       0.279
      -0.295
      -0.766
      -1.066
      -1.166
      -1.072
      -0.821
      -0.475
      -0.112
       0.200
       0.421
       0.550
       0.609
       0.613
       0.557
       0.414
       0.151
      -0.239
      -0.705
      -1.135
      -1.406
      -1.444
      -1.263
      -0.935
      -0.532
      -0.081
       0.418
       0.949
       1.465
       1.887
       2.117
       2.078
       1.757
       1.221
       0.583
      -0.042
      -0.579
      -0.997
      -1.289
      -1.448
      -1.459
      -1.301
      -0.959
      -0.443
       0.197
       0.867
       1.452
       1.859
       2.043
       2.007
       1.780
       1.393
       0.876
       0.265
      -0.389
      -1.011
      -1.506
      -1.792
      -1.819
      -1.604
      -1.225
      -0.802
      -0.457
      -0.270
      -0.265
      -0.416
      -0.670
      -0.962
      -1.229
      -1.427
      -1.544
      -1.592
      -1.586
      -1.524
      -1.389
      -1.179
      -0.923
      -0.682
      -0.505
      -0.401
      -0.331
      -0.237
      -0.092
       0.074
       0.186
       0.174
       0.027
      -0.180
      -0.313
      -0.259
       0.000
       0.378
       0.755
       1.058
       1.290
       1.482
       1.616
       1.614
       1.401
       0.984
       0.471
       0.002
      -0.339
      -0.555
      -0.707
      -0.842
      -0.960
      -1.020
      -0.976
      -0.819
      -0.584
      -0.340
      -0.146
      -0.017
       0.074
       0.167
       0.291
       0.463
       0.708
       1.045
       1.465
       1.907
       2.268
       2.451
       2.405
       2.142
       1.721
       1.215
       0.692
       0.204
      -0.216
      -0.544
      -0.767
      -0.888
      -0.930
      -0.930
      -0.923
      -0.922
      -0.915
      -0.878
      -0.800
      -0.692
      -0.578
      -0.482
      -0.407
      -0.330
      -0.217
      -0.051
       0.141
       0.294
       0.348
       0.305
       0.236
       0.230
       0.326
       0.500
       0.701
       0.903
       1.114
       1.339
       1.543
       1.646
       1.572
       1.292
       0.834
       0.263
      -0.340
      -0.900
      -1.357
      -1.684
      -1.880
      -1.947
      -1.864
      -1.599
      -1.158
      -0.614
      -0.094
       0.285
       0.477
       0.523
       0.509
       0.508
       0.545
       0.586
       0.575
       0.471
       0.290
       0.101
      -0.015
      -0.022
       0.050
       0.136
       0.179
       0.164
       0.107
       0.022
      -0.098
      -0.276
      -0.531
      -0.859
      -1.237
      -1.622
      -1.953
      -2.159
      -2.175
      -1.970
      -1.563
      -1.009
      -0.387
       0.227
       0.777
       1.236
       1.600
       1.872
       2.036
       2.062
       1.926
       1.633
       1.237
       0.827
       0.486
       0.256
       0.113
      -0.002
      -0.137
      -0.301
      -0.476
      -0.647
      -0.830
      -1.047
      -1.286
      -1.482
      -1.544
      -1.426
      -1.161
      -0.851
      -0.597
      -0.431
      -0.309
      -0.159
       0.048
       0.279
       0.473
       0.600
       0.667
       0.700
       0.699
       0.650
       0.549
       0.418
       0.293
       0.180
       0.038
      -0.188
      -0.517
      -0.903
      -1.259
      -1.513
      -1.643
      -1.671
      -1.617
      -1.476
      -1.217
      -0.819
      -0.298
       0.279
       0.827
       1.278
       1.599
       1.787
       1.855
       1.824
       1.724
       1.583
       1.429
       1.277
       1.142
       1.033
       0.948
       0.872
       0.791
       0.688
       0.548
       0.364
       0.138
      -0.112
      -0.354
      -0.540
      -0.621
      -0.566
      -0.389
      -0.146
       0.091
       0.265
       0.356
       0.384
       0.393
       0.423
       0.491
       0.575
       0.632
       0.626
       0.554
       0.447
       0.349
       0.280
       0.213
       0.083
      -0.166
      -0.539
      -0.980
      -1.398
      -1.716
      -1.892
      -1.919
      -1.813
      -1.602
      -1.312
      -0.972
      -0.611
      -0.260
       0.062
       0.353
       0.631
       0.907
       1.178
       1.414
       1.565
       1.576
       1.418
       1.109
       0.722
       0.351
       0.085
      -0.033
      -0.016
       0.079
       0.185
       0.254
       0.267
       0.221
       0.109
      -0.072
      -0.317
      -0.613
      -0.942
      -1.280
      -1.579
      -1.767
      -1.759
      -1.492
      -0.967
      -0.281
       0.403
       0.909
       1.132
       1.073
       0.836
       0.558
       0.329
       0.140
      -0.077
      -0.373
