Origin Time       26/2/2010 4:42:33	  UTC
Lat.              28.5 N	
Long.             86.7 E	
Depth (Km)         28.0
Magnitude         5.4
 Region           Tibet                                                            
 Above details taken from IMD 
    
Station Code      BON
Station Lat.       26.473  N
Station Long.      90.561  E
Station Height(m)   75.0
Site Class        C   Vs30 between 200 m/sec to 375 m/sec *  
Record Time       26.02.2010 10:14:27.749 UTC
Sampling Rate     200. Hz
 Record Duration   85.525 Sec.
 Direction         N-S (N positive)
Max. Acceleration      2.447 cm/sec**2
     
  * For reference see Site Classification link of website 
     
 Base Line Corrected and Low Pass Filtered (Cut Off at 35 Hz) Time History
 Acceleration data in cm/sec**2
    
[...]
       0.093
       0.137
       0.166
       0.176
       0.168
       0.154
       0.148
       0.155
       0.173
       0.190
       0.199
       0.192
       0.167
       0.125
       0.073
       0.030
       0.012
       0.020
       0.036
       0.038
       0.011
      -0.043
      -0.108
      -0.162
      -0.192
      -0.198
      -0.189
      -0.183
      -0.192
      -0.218
      -0.245
      -0.254
      -0.233
      -0.194
      -0.161
      -0.152
      -0.165
      -0.176
      -0.164
      -0.126
      -0.078
      -0.044
      -0.032
      -0.032
      -0.020
       0.018
       0.076
       0.131
       0.164
       0.173
       0.174
       0.189
       0.223
       0.260
       0.268
       0.230
       0.158
       0.092
       0.069
       0.097
       0.147
       0.176
       0.165
       0.132
       0.112
       0.129
       0.172
       0.212
       0.225
       0.216
       0.207
       0.223
       0.264
       0.311
       0.338
       0.335
       0.311
       0.281
       0.251
       0.207
       0.135
       0.030
      -0.089
      -0.196
      -0.268
      -0.303
      -0.315
      -0.320
      -0.324
      -0.315
      -0.280
      -0.215
      -0.132
      -0.053
       0.003
       0.027
       0.024
       0.005
      -0.018
      -0.044
      -0.077
      -0.126
      -0.198
      -0.285
      -0.370
      -0.436
      -0.479
      -0.505
      -0.526
      -0.542
      -0.541
      -0.506
      -0.430
      -0.321
      -0.196
      -0.073
       0.036
       0.130
       0.209
       0.274
       0.321
       0.343
       0.336
       0.304
       0.259
       0.216
       0.186
       0.170
       0.165
       0.161
       0.149
       0.123
       0.082
       0.033
      -0.013
      -0.040
      -0.043
      -0.023
       0.017
       0.073
       0.141
       0.215
       0.282
       0.328
       0.349
       0.348
       0.327
       0.286
       0.224
       0.145
       0.063
      -0.013
      -0.078
      -0.130
      -0.168
      -0.182
      -0.170
      -0.136
      -0.090
      -0.043
       0.000
       0.035
       0.053
       0.052
       0.041
       0.041
       0.070
       0.121
       0.171
       0.196
       0.188
       0.156
       0.114
       0.071
       0.022
      -0.035
      -0.099
      -0.158
      -0.203
      -0.229
      -0.239
      -0.234
      -0.211
      -0.168
      -0.111
      -0.051
      -0.001
       0.033
       0.051
       0.054
       0.047
       0.040
       0.038
       0.047
       0.063
       0.077
       0.073
       0.044
      -0.007
      -0.069
      -0.127
      -0.168
      -0.182
      -0.165
      -0.121
      -0.060
       0.010
       0.088
       0.174
       0.268
       0.361
       0.439
       0.488
       0.502
       0.478
       0.420
       0.334
       0.225
       0.098
      -0.041
      -0.183
      -0.317
      -0.436
      -0.540
      -0.634
      -0.716
      -0.777
      -0.807
      -0.800
      -0.763
      -0.708
      -0.642
      -0.562
      -0.461
      -0.333
      -0.188
      -0.048
       0.064
       0.139
       0.183
       0.210
       0.233
       0.251
       0.258
       0.252
       0.245
       0.255
       0.288
       0.333
       0.365
       0.369
       0.350
       0.326
       0.309
       0.293
       0.263
       0.209
       0.138
       0.070
       0.021
      -0.013
      -0.046
      -0.095
      -0.165
      -0.244
      -0.310
      -0.352
      -0.368
      -0.367
      -0.357
      -0.338
      -0.304
      -0.252
      -0.184
      -0.104
      -0.022
       0.055
       0.119
       0.170
       0.213
       0.258
       0.311
       0.361
       0.390
       0.382
       0.342
       0.290
       0.257
       0.260
       0.294
       0.339
       0.378
       0.404
       0.422
       0.443
       0.471
       0.510
       0.555
       0.600
       0.643
       0.681
       0.711
       0.724
       0.713
       0.681
       0.641
       0.605
       0.570
       0.523
       0.457
       0.375
       0.295
       0.230
       0.186
       0.163
       0.160
       0.171
       0.190
       0.203
       0.201
       0.174
       0.124
       0.049
      -0.048
      -0.175
      -0.336
      -0.533
      -0.755
      -0.981
      -1.189
      -1.360
      -1.485
      -1.562
      -1.594
      -1.582
      -1.525
      -1.424
      -1.287
      -1.122
      -0.942
      -0.755
      -0.568
      -0.395
      -0.251
      -0.149
      -0.092
      -0.070
      -0.063
      -0.054
      -0.036
      -0.009
       0.024
       0.059
       0.094
       0.130
       0.172
       0.223
       0.285
       0.350
       0.408
       0.445
       0.459
       0.462
       0.476
       0.515
       0.570
       0.617
       0.633
       0.609
       0.558
       0.500
       0.448
       0.402
       0.344
       0.256
       0.128
      -0.030
      -0.195
      -0.341
      -0.458
      -0.550
      -0.628
      -0.698
      -0.751
      -0.777
      -0.767
      -0.729
      -0.678
      -0.631
      -0.600
      -0.590
      -0.605
      -0.640
      -0.687
      -0.738
      -0.783
      -0.817
      -0.831
      -0.812
      -0.749
      -0.637
      -0.478
      -0.273
      -0.021
       0.278
       0.616
       0.960
       1.266
       1.489
       1.609
       1.632
       1.583
       1.487
       1.347
       1.155
       0.900
       0.590
       0.256
      -0.061
      -0.325
      -0.520
      -0.644
      -0.709
      -0.723
      -0.688
      -0.598
      -0.449
      -0.251
      -0.026
       0.201
       0.408
       0.585
       0.725
       0.821
       0.866
       0.854
       0.794
       0.709
       0.625
       0.565
       0.534
       0.528
       0.535
       0.548
       0.566
       0.588
       0.615
       0.645
       0.674
       0.703
       0.732
       0.756
       0.765
       0.748
       0.701
       0.629
       0.546
       0.468
       0.396
       0.324
       0.239
       0.134
       0.019
      -0.092
      -0.184
      -0.251
      -0.301
      -0.348
      -0.405
      -0.472
      -0.535
      -0.576
      -0.576
      -0.533
      -0.454
      -0.357
      -0.258
      -0.174
      -0.116
      -0.088
      -0.092
      -0.123
      -0.175
      -0.248
      -0.341
      -0.455
      -0.588
      -0.727
      -0.860
      -0.972
      -1.054
      -1.106
      -1.134
      -1.149
      -1.163
      -1.176
      -1.179
      -1.156
      -1.096
      -1.001
      -0.880
      -0.739
      -0.585
      -0.426
      -0.281
      -0.168
      -0.091
      -0.044
      -0.006
       0.035
       0.079
       0.119
       0.145
       0.158
       0.166
       0.179
       0.196
       0.209
       0.204
       0.176
       0.132
       0.078
       0.015
      -0.059
      -0.142
      -0.223
      -0.281
      -0.304
      -0.296
      -0.268
      -0.230
      -0.180
      -0.105
       0.006
       0.150
       0.307
       0.440
       0.516
       0.520
       0.459
       0.355
       0.231
       0.100
      -0.035
      -0.166
      -0.277
      -0.348
      -0.367
      -0.331
      -0.242
      -0.101
       0.086
       0.314
       0.565
       0.822
       1.073
       1.309
       1.515
       1.668
       1.746
       1.742
       1.668
       1.542
       1.373
       1.167
       0.935
       0.693
       0.464
       0.272
       0.141
       0.077
       0.068
       0.086
       0.110
       0.142
       0.204
       0.306
       0.437
       0.565
       0.658
       0.700
       0.690
       0.635
       0.537
       0.399
       0.237
       0.081
      -0.042
      -0.129
      -0.197
      -0.266
      -0.334
      -0.383
      -0.393
      -0.362
      -0.305
      -0.244
      -0.194
      -0.155
      -0.119
      -0.076
      -0.020
       0.039
       0.088
       0.111
       0.104
       0.073
       0.025
      -0.038
      -0.117
      -0.212
      -0.308
      -0.390
      -0.448
      -0.486
      -0.511
      -0.522
      -0.502
      -0.434
      -0.317
      -0.169
      -0.020
       0.101
       0.171
       0.179
       0.126
       0.023
      -0.117
      -0.284
      -0.473
      -0.684
      -0.909
      -1.129
      -1.327
      -1.496
      -1.639
      -1.763
      -1.866
      -1.934
      -1.956
      -1.936
      -1.889
      -1.830
      -1.756
      -1.653
      -1.511
      -1.339
      -1.165
      -1.020
      -0.919
      -0.852
      -0.798
      -0.741
      -0.675
      -0.602
      -0.524
      -0.442
      -0.357
      -0.272
      -0.190
      -0.105
      -0.003
       0.130
       0.290
       0.459
       0.613
       0.741
       0.847
       0.942
       1.037
       1.126
       1.200
       1.248
       1.272
       1.281
       1.283
       1.281
       1.285
       1.307
       1.357
       1.425
       1.491
       1.534
       1.545
       1.524
       1.481
       1.426
       1.366
       1.300
       1.215
       1.098
       0.955
       0.810
       0.692
       0.611
       0.559
       0.522
       0.495
       0.482
       0.484
       0.491
       0.489
       0.462
       0.410
       0.335
       0.242
       0.129
       0.000
      -0.134
      -0.258
      -0.360
      -0.436
      -0.488
      -0.523
      -0.550
      -0.571
      -0.583
      -0.571
      -0.523
      -0.437
      -0.323
      -0.201
      -0.079
       0.047
       0.181
       0.316
       0.434
       0.519
       0.569
       0.596
       0.610
       0.604
       0.563
       0.480
       0.366
       0.242
       0.124
       0.018
      -0.084
      -0.187
      -0.291
      -0.389
      -0.474
      -0.545
      -0.613
      -0.688
      -0.769
      -0.844
      -0.891
      -0.889
      -0.831
      -0.726
      -0.593
      -0.450
      -0.314
      -0.190
      -0.090
      -0.030
      -0.034
      -0.125
      -0.302
      -0.537
      -0.784
      -1.006
      -1.185
      -1.329
      -1.442
      -1.511
      -1.508
      -1.421
      -1.265
      -1.076
      -0.881
      -0.677
      -0.445
      -0.177
       0.105
       0.356
       0.534
       0.623
       0.635
       0.592
       0.509
       0.383
       0.208
      -0.011
      -0.252
      -0.476
      -0.643
      -0.731
      -0.735
      -0.670
      -0.560
      -0.429
      -0.289
      -0.147
      -0.014
       0.097
       0.173
       0.208
       0.211
       0.198
       0.187
       0.191
       0.220
       0.284
       0.387
       0.522
       0.670
       0.806
       0.909
       0.969
       0.994
       0.996
       0.984
       0.961
       0.927
       0.880
       0.823
       0.758
       0.694
       0.638
       0.593
       0.555
       0.512
       0.457
       0.387
       0.308
       0.229
       0.157
       0.099
       0.060
       0.039
       0.030
       0.021
       0.004
      -0.019
      -0.036
      -0.038
      -0.027
      -0.003
       0.032
       0.085
       0.152
       0.220
       0.265
       0.275
       0.260
       0.247
       0.251
       0.259
       0.240
       0.172
       0.069
      -0.034
      -0.106
      -0.148
      -0.179
      -0.214
      -0.251
      -0.277
      -0.283
      -0.272
      -0.253
      -0.230
      -0.209
      -0.200
      -0.216
      -0.255
      -0.301
      -0.330
      -0.326
      -0.289
      -0.229
      -0.153
      -0.070
       0.017
       0.099
       0.168
       0.221
       0.258
       0.282
       0.294
       0.289
       0.262
       0.209
       0.126
       0.015
      -0.115
      -0.248
      -0.360
      -0.426
      -0.431
      -0.375
      -0.272
      -0.144
      -0.011
       0.112
       0.213
       0.282
       0.308
       0.287
       0.225
       0.138
       0.054
      -0.004
      -0.029
      -0.031
      -0.030
      -0.040
      -0.067
      -0.109
      -0.165
      -0.233
      -0.302
      -0.367
      -0.423
      -0.473
      -0.518
      -0.557
      -0.587
      -0.599
      -0.590
      -0.556
      -0.499
      -0.425
      -0.342
      -0.255
      -0.169
      -0.087
      -0.024
       0.003
      -0.020
      -0.092
      -0.201
      -0.330
      -0.473
      -0.623
      -0.762
      -0.851
      -0.852
      -0.757
      -0.595
      -0.412
      -0.234
      -0.060
       0.115
       0.280
       0.403
       0.458
       0.437
       0.351
       0.213
       0.034
      -0.173
      -0.387
      -0.581
      -0.738
      -0.851
      -0.922
      -0.947
      -0.922
      -0.839
      -0.695
      -0.488
      -0.220
       0.100
       0.456
       0.816
       1.145
       1.413
       1.601
       1.712
       1.759
       1.758
       1.717
       1.643
       1.543
       1.432
       1.324
       1.226
       1.135
       1.043
       0.946
       0.854
       0.783
       0.740
       0.715
       0.686
       0.638
       0.580
       0.529
       0.499
       0.482
       0.462
       0.421
       0.355
       0.268
       0.167
       0.045
      -0.113
      -0.321
      -0.578
      -0.860
      -1.138
      -1.394
      -1.630
      -1.857
      -2.070
      -2.246
      -2.352
      -2.374
      -2.322
      -2.218
      -2.080
      -1.905
      -1.688
      -1.430
      -1.147
      -0.855
      -0.562
      -0.262
       0.052
       0.383
       0.721
       1.050
       1.358
       1.636
       1.880
       2.088
       2.253
       2.369
       2.432
       2.447
       2.419
       2.354
       2.253
       2.111
       1.919
       1.671
       1.370
       1.036
       0.703
       0.392
       0.106
      -0.175
      -0.466
      -0.761
      -1.029
      -1.234
      -1.357
      -1.410
      -1.421
      -1.415
      -1.401
      -1.369
      -1.311
      -1.230
      -1.145
      -1.076
      -1.040
      -1.038
      -1.062
      -1.103
      -1.146
      -1.180
      -1.189
      -1.167
      -1.120
      -1.063
      -1.008
      -0.953
      -0.888
      -0.807
      -0.707
      -0.596
      -0.486
      -0.386
      -0.299
      -0.221
      -0.141
      -0.049
       0.056
       0.169
       0.287
       0.415
       0.558
       0.717
       0.886
       1.051
       1.202
       1.332
       1.437
       1.515
       1.563
       1.576
       1.556
       1.508
       1.444
       1.372
       1.289
       1.194
       1.088
       0.980
       0.884
       0.805
       0.733
       0.648
       0.534
       0.389
       0.229
       0.077
      -0.048
      -0.144
      -0.216
      -0.270
      -0.297
      -0.279
      -0.205
      -0.086
       0.046
       0.154
       0.213
       0.223
       0.196
       0.146
       0.077
      -0.009
      -0.113
      -0.231
      -0.356
      -0.481
      -0.597
      -0.696
      -0.766
      -0.797
      -0.781
      -0.713
      -0.593
      -0.424
      -0.221
      -0.011
       0.175
       0.312
       0.393
       0.423
       0.408
       0.337
       0.199
      -0.006
      -0.252
      -0.505
      -0.746
      -0.978
      -1.218
      -1.473
      -1.734
      -1.973
      -2.161
      -2.277
      -2.314
      -2.274
      -2.158
      -1.968
      -1.714
      -1.415
      -1.105
      -0.816
      -0.570
      -0.367
      -0.192
      -0.028
       0.136
       0.292
       0.421
       0.508
       0.558
       0.589
       0.627
       0.685
       0.765
       0.861
       0.974
       1.103
       1.247
       1.403
       1.561
       1.711
       1.843
       1.947
       2.017
       2.056
       2.068
       2.059
       2.023
       1.950
       1.830
       1.665
       1.470
       1.263
       1.061
       0.869
       0.680
       0.489
       0.299
       0.122
      -0.027
      -0.138
      -0.213
      -0.263
      -0.305
      -0.352
      -0.405
      -0.454
      -0.491
      -0.517
      -0.550
      -0.607
      -0.693
      -0.794
      -0.886
      -0.955
      -1.002
      -1.038
      -1.066
      -1.076
      -1.051
      -0.983
      -0.880
      -0.763
      -0.652
      -0.552
      -0.465
      -0.385
      -0.309
      -0.236
      -0.169
      -0.117
      -0.086
      -0.074
      -0.067
      -0.051
      -0.019
       0.027
       0.086
       0.161
       0.255
       0.365
       0.471
       0.548
       0.573
       0.538
       0.454
       0.347
       0.247
       0.169
       0.106
       0.038
      -0.058
      -0.191
      -0.352
      -0.517
      -0.664
      -0.776
      -0.849
      -0.879
      -0.866
      -0.810
      -0.713
      -0.579
      -0.418
      -0.254
      -0.122
      -0.061
      -0.093
      -0.206
      -0.360
      -0.511
      -0.626
      -0.700
      -0.750
      -0.792
      -0.831
      -0.854
      -0.843
      -0.785
      -0.684
      -0.548
      -0.384
      -0.190
       0.038
       0.302
       0.589
       0.873
       1.123
       1.315
       1.434
       1.475
       1.437
       1.330
       1.177
       1.005
       0.840
       0.690
       0.556
       0.431
       0.316
       0.211
       0.122
       0.053
       0.007
      -0.017
      -0.032
      -0.053
      -0.091
      -0.141
      -0.190
      -0.221
      -0.231
      -0.219
      -0.187
      -0.136
      -0.065
       0.023
       0.120
       0.217
       0.312
       0.402
       0.479
       0.531
       0.545
       0.520
       0.468
       0.409
       0.359
       0.321
       0.295
       0.288
       0.315
       0.393
       0.525
       0.695
       0.873
       1.032
       1.156
       1.240
       1.282
       1.280
       1.229
       1.123
       0.961
       0.746
       0.493
       0.222
      -0.040
      -0.271
      -0.459
      -0.608
      -0.735
      -0.857
      -0.979
      -1.094
      -1.194
      -1.273
      -1.334
      -1.378
      -1.409
      -1.425
      -1.421
      -1.386
      -1.313
      -1.202
      -1.068
      -0.940
      -0.841
      -0.777
      -0.741
      -0.718
      -0.705
      -0.704
      -0.717
      -0.736
      -0.748
      -0.740
      -0.712
      -0.667
      -0.608
      -0.533
      -0.445
      -0.343
      -0.229
      -0.098
       0.062
       0.263
       0.506
       0.772
       1.028
       1.245
       1.408
       1.519
       1.586
       1.613
       1.592
       1.509
       1.363
       1.172
       0.967
       0.775
       0.603
       0.447
       0.297
       0.154
       0.022
      -0.091
      -0.177
      -0.232
      -0.254
      -0.249
      -0.230
      -0.203
      -0.173
      -0.145
      -0.129
      -0.134
      -0.164
      -0.218
      -0.286
      -0.360
      -0.436
      -0.516
      -0.601
      -0.690
      -0.768
      -0.821
      -0.840
      -0.828
      -0.797
      -0.756
      -0.711
      -0.661
      -0.602
      -0.538
      -0.480
      -0.445
      -0.439
      -0.456
      -0.468
      -0.451
      -0.394
      -0.305
      -0.206
      -0.109
      -0.011
       0.101
       0.238
       0.400
       0.576
       0.741
       0.872
       0.952
       0.983
       0.978
       0.956
       0.930
       0.899
       0.858
       0.799
       0.721
       0.633
       0.542
       0.454
       0.367
       0.278
       0.187
       0.096
       0.007
      -0.073
