Origin Time       11/8/2009 21:43:39  UTC
Lat.              24.4 N 
Long.             94.8 E 
Depth (Km)         22.0
Magnitude         5.6
 Region           MYANMAR-INDIA(MANIPUR)BORDER                                     
 Above details taken from IMD 
    
Station Code      BON
Station Lat.       26.473  N
Station Long.      90.561  E
Station Height(m)   75.0
Site Class        C   Vs30 between 200 m/sec to 375 m/sec *  
Record Time       12.08.2009 03:15:38.914 UTC
Sampling Rate     200. Hz
 Record Duration   69.005 Sec.
 Direction         N-S (N positive)
Max. Acceleration     -7.480 cm/sec**2
     
  * For reference see Site Classification link of website 
     
 Base Line Corrected and Low Pass Filtered (Cut Off at 35 Hz) Time History
 Acceleration data in cm/sec**2
    
[...]
       0.498
       0.564
       0.617
       0.642
       0.626
       0.571
       0.493
       0.418
       0.363
       0.333
       0.323
       0.322
       0.326
       0.337
       0.359
       0.386
       0.401
       0.388
       0.335
       0.244
       0.126
      -0.005
      -0.135
      -0.249
      -0.337
      -0.397
      -0.437
      -0.471
      -0.507
      -0.538
      -0.550
      -0.530
      -0.479
      -0.406
      -0.324
      -0.242
      -0.168
      -0.113
      -0.087
      -0.094
      -0.123
      -0.156
      -0.178
      -0.181
      -0.167
      -0.140
      -0.100
      -0.048
       0.009
       0.062
       0.101
       0.122
       0.134
       0.150
       0.178
       0.217
       0.254
       0.270
       0.253
       0.207
       0.149
       0.101
       0.074
       0.070
       0.080
       0.095
       0.111
       0.126
       0.135
       0.136
       0.124
       0.098
       0.058
       0.006
      -0.049
      -0.098
      -0.131
      -0.146
      -0.154
      -0.173
      -0.219
      -0.292
      -0.373
      -0.431
      -0.441
      -0.397
      -0.310
      -0.207
      -0.114
      -0.044
       0.002
       0.033
       0.056
       0.070
       0.076
       0.072
       0.066
       0.062
       0.066
       0.075
       0.087
       0.102
       0.117
       0.124
       0.116
       0.091
       0.054
       0.018
      -0.003
       0.004
       0.043
       0.109
       0.193
       0.276
       0.340
       0.372
       0.371
       0.350
       0.323
       0.291
       0.242
       0.159
       0.041
      -0.087
      -0.194
      -0.264
      -0.300
      -0.324
      -0.348
      -0.374
      -0.396
      -0.401
      -0.383
      -0.338
      -0.273
      -0.203
      -0.154
      -0.138
      -0.154
      -0.180
      -0.196
      -0.192
      -0.176
      -0.160
      -0.152
      -0.157
      -0.166
      -0.167
      -0.141
      -0.077
       0.023
       0.144
       0.272
       0.399
       0.524
       0.647
       0.758
       0.834
       0.850
       0.797
       0.683
       0.529
       0.359
       0.187
       0.022
      -0.128
      -0.252
      -0.340
      -0.381
      -0.359
      -0.260
      -0.081
       0.154
       0.397
       0.590
       0.694
       0.711
       0.671
       0.615
       0.571
       0.538
       0.502
       0.444
       0.351
       0.222
       0.065
      -0.099
      -0.243
      -0.348
      -0.414
      -0.452
      -0.487
      -0.536
      -0.609
      -0.703
      -0.812
      -0.928
      -1.037
      -1.125
      -1.175
      -1.176
      -1.126
      -1.030
      -0.898
      -0.739
      -0.560
      -0.371
      -0.189
      -0.035
       0.079
       0.155
       0.216
       0.286
       0.373
       0.458
       0.509
       0.498
       0.430
       0.343
       0.281
       0.277
       0.327
       0.406
       0.482
       0.535
       0.561
       0.562
       0.537
       0.486
       0.415
       0.337
       0.266
       0.205
       0.149
       0.099
       0.068
       0.077
       0.135
       0.228
       0.322
       0.391
       0.433
       0.463
       0.493
       0.517
       0.513
       0.464
       0.369
       0.240
       0.091
      -0.070
      -0.242
      -0.418
      -0.585
      -0.732
      -0.855
      -0.955
      -1.028
      -1.062
      -1.039
      -0.961
      -0.856
      -0.766
      -0.720
      -0.714
      -0.717
      -0.698
      -0.639
      -0.548
      -0.438
      -0.326
      -0.222
      -0.136
      -0.073
      -0.027
       0.020
       0.090
       0.193
       0.317
       0.429
       0.501
       0.519
       0.486
       0.420
       0.338
       0.252
       0.167
       0.089
       0.024
      -0.018
      -0.030
      -0.004
       0.060
       0.159
       0.282
       0.417
       0.553
       0.681
       0.788
       0.860
       0.888
       0.878
       0.848
       0.818
       0.795
       0.772
       0.734
       0.673
       0.593
       0.500
       0.392
       0.266
       0.122
      -0.022
      -0.140
      -0.210
      -0.226
      -0.196
      -0.132
      -0.052
       0.024
       0.075
       0.088
       0.065
       0.022
      -0.024
      -0.064
      -0.096
      -0.117
      -0.114
      -0.070
       0.019
       0.138
       0.251
       0.324
       0.338
       0.301
       0.235
       0.167
       0.110
       0.060
       0.000
      -0.086
      -0.210
      -0.366
      -0.539
      -0.715
      -0.885
      -1.046
      -1.193
      -1.310
      -1.379
      -1.394
      -1.361
      -1.297
      -1.214
      -1.112
      -0.985
      -0.828
      -0.652
      -0.480
      -0.344
      -0.270
      -0.268
      -0.320
      -0.387
      -0.428
      -0.417
      -0.352
      -0.250
      -0.126
       0.010
       0.163
       0.336
       0.530
       0.733
       0.929
       1.093
       1.195
       1.214
       1.150
       1.027
       0.888
       0.766
       0.677
       0.614
       0.571
       0.548
       0.554
       0.595
       0.661
       0.740
       0.817
       0.882
       0.922
       0.918
       0.849
       0.709
       0.513
       0.291
       0.077
      -0.114
      -0.273
      -0.398
      -0.485
      -0.532
      -0.538
      -0.501
      -0.422
      -0.317
      -0.224
      -0.196
      -0.271
      -0.441
      -0.650
      -0.829
      -0.935
      -0.979
      -0.998
      -1.016
      -1.022
      -0.982
      -0.874
      -0.713
      -0.538
      -0.393
      -0.307
      -0.287
      -0.331
      -0.427
      -0.557
      -0.700
      -0.835
      -0.954
      -1.053
      -1.132
      -1.173
      -1.151
      -1.039
      -0.829
      -0.538
      -0.196
       0.170
       0.541
       0.906
       1.254
       1.572
       1.845
       2.058
       2.194
       2.236
       2.176
       2.024
       1.818
       1.611
       1.448
       1.350
       1.307
       1.289
       1.259
       1.196
       1.089
       0.940
       0.751
       0.533
       0.301
       0.077
      -0.122
      -0.296
      -0.454
      -0.598
      -0.707
      -0.751
      -0.714
      -0.608
      -0.467
      -0.320
      -0.172
      -0.005
       0.197
       0.427
       0.649
       0.813
       0.869
       0.782
       0.542
       0.166
      -0.296
      -0.773
      -1.197
      -1.522
      -1.735
      -1.846
      -1.875
      -1.837
      -1.743
      -1.604
      -1.441
      -1.287
      -1.177
      -1.135
      -1.159
      -1.219
      -1.265
      -1.251
      -1.144
      -0.937
      -0.643
      -0.289
       0.088
       0.448
       0.750
       0.975
       1.129
       1.238
       1.329
       1.404
       1.445
       1.431
       1.357
       1.242
       1.107
       0.962
       0.797
       0.596
       0.347
       0.061
      -0.233
      -0.496
      -0.694
      -0.807
      -0.833
      -0.789
      -0.705
      -0.614
      -0.536
      -0.468
      -0.387
      -0.275
      -0.127
       0.040
       0.199
       0.334
       0.439
       0.518
       0.569
       0.590
       0.579
       0.545
       0.497
       0.438
       0.361
       0.258
       0.140
       0.038
      -0.017
      -0.015
       0.022
       0.059
       0.076
       0.075
       0.064
       0.043
      -0.005
      -0.097
      -0.226
      -0.363
      -0.475
      -0.546
      -0.589
      -0.626
      -0.668
      -0.700
      -0.700
      -0.658
      -0.586
      -0.504
      -0.424
      -0.345
      -0.264
      -0.191
      -0.145
      -0.132
      -0.132
      -0.097
       0.022
       0.237
       0.517
       0.804
       1.045
       1.217
       1.325
       1.387
       1.411
       1.397
       1.339
       1.237
       1.093
       0.916
       0.720
       0.527
       0.360
       0.227
       0.119
       0.015
      -0.103
      -0.239
      -0.385
      -0.522
      -0.637
      -0.717
      -0.751
      -0.734
      -0.666
      -0.553
      -0.410
      -0.253
      -0.094
       0.055
       0.186
       0.293
       0.379
       0.464
       0.583
       0.777
       1.069
       1.449
       1.870
       2.259
       2.538
       2.649
       2.563
       2.286
       1.849
       1.299
       0.679
       0.025
      -0.635
      -1.273
      -1.852
      -2.330
      -2.666
      -2.844
      -2.886
      -2.849
      -2.798
      -2.772
      -2.762
      -2.724
      -2.605
      -2.379
      -2.057
      -1.667
      -1.239
      -0.790
      -0.340
       0.085
       0.451
       0.733
       0.930
       1.068
       1.177
       1.279
       1.369
       1.424
       1.416
       1.322
       1.135
       0.859
       0.507
       0.093
      -0.369
      -0.863
      -1.360
      -1.821
      -2.192
      -2.418
      -2.464
      -2.325
      -2.034
      -1.652
      -1.239
      -0.832
      -0.437
      -0.046
       0.345
       0.718
       1.054
       1.351
       1.631
       1.927
       2.256
       2.602
       2.925
       3.177
       3.323
       3.352
       3.278
       3.132
       2.953
       2.777
       2.620
       2.474
       2.317
       2.126
       1.885
       1.586
       1.212
       0.739
       0.146
      -0.567
      -1.360
      -2.170
      -2.928
      -3.589
      -4.126
      -4.522
      -4.752
      -4.791
      -4.628
      -4.283
      -3.810
      -3.279
      -2.748
      -2.247
      -1.779
      -1.335
      -0.910
      -0.505
      -0.134
       0.191
       0.452
       0.637
       0.738
       0.758
       0.709
       0.612
       0.485
       0.327
       0.127
      -0.124
      -0.414
      -0.703
      -0.940
      -1.077
      -1.089
      -0.965
      -0.710
      -0.332
       0.142
       0.671
       1.199
       1.679
       2.086
       2.418
       2.687
       2.910
       3.102
       3.273
       3.426
       3.553
       3.645
       3.687
       3.665
       3.569
       3.402
       3.178
       2.927
       2.684
       2.482
       2.338
       2.257
       2.229
       2.232
       2.235
       2.197
       2.074
       1.829
       1.438
       0.900
       0.236
      -0.525
      -1.354
      -2.228
      -3.112
      -3.955
      -4.696
      -5.283
      -5.689
      -5.915
      -5.973
      -5.877
      -5.641
      -5.287
      -4.848
      -4.364
      -3.868
      -3.371
      -2.868
      -2.343
      -1.788
      -1.212
      -0.634
      -0.085
       0.404
       0.796
       1.056
       1.157
       1.088
       0.873
       0.563
       0.227
      -0.072
      -0.297
      -0.441
      -0.517
      -0.538
      -0.510
      -0.426
      -0.283
      -0.090
       0.131
       0.355
       0.563
       0.752
       0.929
       1.100
       1.267
       1.425
       1.577
       1.741
       1.941
       2.191
       2.479
       2.764
       3.005
       3.173
       3.271
       3.325
       3.358
       3.379
       3.376
       3.328
       3.214
       3.012
       2.695
       2.238
       1.641
       0.937
       0.192
      -0.520
      -1.148
      -1.681
      -2.137
      -2.536
      -2.882
      -3.153
      -3.319
      -3.355
      -3.253
      -3.023
      -2.694
      -2.319
      -1.960
      -1.680
      -1.511
      -1.444
      -1.438
      -1.444
      -1.425
      -1.364
      -1.240
      -1.027
      -0.707
      -0.286
       0.190
       0.660
       1.070
       1.388
       1.603
       1.715
       1.739
       1.705
       1.645
       1.574
       1.463
       1.251
       0.879
       0.339
      -0.311
      -0.963
      -1.497
      -1.822
      -1.896
      -1.724
      -1.349
      -0.826
      -0.207
       0.464
       1.148
       1.795
       2.343
       2.726
       2.903
       2.874
       2.684
       2.398
       2.079
       1.777
       1.515
       1.297
       1.101
       0.884
       0.597
       0.209
      -0.279
      -0.826
      -1.376
      -1.871
      -2.272
      -2.560
      -2.722
      -2.753
      -2.654
      -2.438
      -2.131
      -1.768
      -1.393
      -1.053
      -0.785
      -0.605
      -0.493
      -0.394
      -0.250
      -0.016
       0.311
       0.701
       1.099
       1.447
       1.706
       1.863
       1.927
       1.910
       1.818
       1.661
       1.462
       1.256
       1.081
       0.963
       0.910
       0.913
       0.949
       0.986
       0.978
       0.875
       0.642
       0.274
      -0.205
      -0.743
      -1.287
      -1.782
      -2.186
      -2.470
      -2.633
      -2.694
      -2.692
      -2.659
      -2.617
      -2.577
      -2.541
      -2.520
      -2.521
      -2.542
      -2.561
      -2.544
      -2.460
      -2.291
      -2.027
      -1.661
      -1.192
      -0.643
      -0.073
       0.441
       0.838
       1.102
       1.265
       1.382
       1.504
       1.660
       1.855
       2.070
       2.275
       2.429
       2.502
       2.488
       2.407
       2.301
       2.222
       2.219
       2.324
       2.536
       2.822
       3.126
       3.395
       3.601
       3.740
       3.819
       3.835
       3.771
       3.604
       3.331
       2.971
       2.557
       2.110
       1.627
       1.090
       0.484
      -0.194
      -0.930
      -1.694
      -2.442
      -3.119
      -3.676
      -4.100
      -4.417
      -4.690
      -4.988
      -5.358
      -5.810
      -6.316
      -6.815
      -7.228
      -7.473
      -7.480
      -7.200
      -6.611
      -5.722
      -4.567
      -3.198
      -1.683
      -0.101
       1.457
       2.895
       4.131
       5.117
       5.841
       6.309
       6.538
       6.552
       6.391
       6.117
       5.785
       5.426
       5.037
       4.605
       4.135
       3.667
       3.253
       2.930
       2.693
       2.506
       2.321
       2.094
       1.791
       1.385
       0.854
       0.201
      -0.532
      -1.271
      -1.941
      -2.493
      -2.915
      -3.209
      -3.373
      -3.398
      -3.283
      -3.058
      -2.786
      -2.540
      -2.376
      -2.331
      -2.418
      -2.638
      -2.980
      -3.418
      -3.908
      -4.387
      -4.794
      -5.080
      -5.220
      -5.209
      -5.048
      -4.740
      -4.289
      -3.709
      -3.033
      -2.314
      -1.605
      -0.946
      -0.354
       0.188
       0.711
       1.257
       1.856
       2.515
       3.213
       3.909
       4.556
       5.119
       5.586
       5.962
       6.252
       6.444
       6.511
       6.424
       6.172
       5.770
       5.246
       4.631
       3.947
       3.207
       2.413
       1.567
       0.682
      -0.207
      -1.038
      -1.736
      -2.243
      -2.542
      -2.666
      -2.681
      -2.658
      -2.645
      -2.649
      -2.645
      -2.592
      -2.456
      -2.219
      -1.877
      -1.447
      -0.963
      -0.469
      -0.008
       0.393
       0.732
       1.024
       1.271
       1.454
       1.536
       1.481
       1.283
       0.964
       0.557
       0.089
      -0.425
      -0.968
      -1.511
      -2.014
      -2.441
      -2.756
      -2.919
      -2.881
      -2.594
      -2.031
      -1.221
      -0.246
       0.775
       1.720
       2.495
       3.042
       3.340
       3.394
       3.228
       2.883
       2.414
       1.883
       1.335
       0.795
       0.262
      -0.277
      -0.825
      -1.362
      -1.847
      -2.237
      -2.504
      -2.647
      -2.679
      -2.612
      -2.445
      -2.175
      -1.810
      -1.375
      -0.914
      -0.480
      -0.126
       0.109
       0.220
       0.246
       0.268
       0.380
       0.651
       1.091
       1.655
       2.262
       2.838
       3.337
       3.742
       4.047
       4.247
       4.327
       4.265
       4.039
       3.641
       3.093
       2.453
       1.803
       1.218
       0.735
       0.341
      -0.017
      -0.403
      -0.866
      -1.411
      -1.988
      -2.515
      -2.910
      -3.140
      -3.243
      -3.309
      -3.429
      -3.633
      -3.877
      -4.068
      -4.123
      -4.013
      -3.764
      -3.430
      -3.059
      -2.694
      -2.384
      -2.191
      -2.178
      -2.377
      -2.767
      -3.281
      -3.834
      -4.349
      -4.759
      -5.001
      -5.011
      -4.743
      -4.177
      -3.324
      -2.221
      -0.937
       0.427
       1.742
       2.874
       3.716
       4.225
       4.424
       4.389
       4.219
       4.006
       3.808
       3.643
       3.496
       3.332
       3.131
       2.909
       2.715
       2.615
       2.650
       2.815
       3.069
       3.360
       3.656
       3.953
       4.252
       4.536
       4.767
       4.905
       4.925
       4.819
       4.577
       4.180
       3.612
       2.889
       2.069
       1.238
       0.470
      -0.194
      -0.749
      -1.199
      -1.538
      -1.758
      -1.868
      -1.910
      -1.952
      -2.058
      -2.263
      -2.564
      -2.934
      -3.339
      -3.750
      -4.147
      -4.509
      -4.816
      -5.051
      -5.205
      -5.279
      -5.272
      -5.166
      -4.935
      -4.547
      -3.988
      -3.269
      -2.424
      -1.488
      -0.492
       0.541
       1.570
       2.521
       3.294
       3.784
       3.929
       3.737
       3.279
       2.667
       2.023
       1.451
       1.022
       0.759
       0.641
       0.609
       0.603
       0.574
       0.496
       0.361
       0.182
      -0.006
      -0.134
      -0.120
       0.095
       0.517
       1.083
       1.682
       2.200
       2.556
       2.716
       2.689
       2.508
       2.205
       1.806
       1.331
       0.807
       0.280
      -0.183
      -0.504
      -0.622
      -0.523
      -0.251
       0.109
       0.470
       0.780
       1.024
       1.207
       1.316
       1.314
       1.157
       0.826
       0.342
      -0.247
      -0.886
      -1.521
      -2.092
      -2.525
      -2.760
      -2.778
      -2.626
      -2.388
      -2.136
      -1.900
      -1.661
      -1.397
      -1.119
      -0.876
      -0.728
      -0.708
      -0.798
      -0.941
      -1.077
      -1.179
      -1.265
      -1.377
      -1.552
      -1.798
      -2.090
      -2.390
      -2.664
      -2.888
      -3.036
      -3.085
      -3.016
      -2.837
      -2.585
      -2.301
      -2.007
      -1.701
      -1.379
      -1.054
      -0.752
      -0.478
      -0.201
       0.130
       0.541
       0.999
       1.427
       1.746
       1.916
       1.945
       1.880
       1.778
       1.696
       1.696
       1.838
       2.165
       2.685
       3.362
       4.126
       4.891
       5.564
       6.052
       6.276
       6.195
       5.821
       5.214
       4.462
       3.661
       2.892
       2.211
       1.641
       1.165
       0.745
       0.345
      -0.036
      -0.367
      -0.609
      -0.746
      -0.801
      -0.821
      -0.856
      -0.939
      -1.095
      -1.349
      -1.719
      -2.198
      -2.740
      -3.266
      -3.692
      -3.955
      -4.034
      -3.945
      -3.728
      -3.432
      -3.101
      -2.763
      -2.426
      -2.090
      -1.763
      -1.468
      -1.245
      -1.122
      -1.087
      -1.091
      -1.055
      -0.907
