Origin Time       26/07/2008 18:51:53
Lat.              24.8 N 
Long.             90.6 E 
Depth (Km)         39.3
Magnitude         4.8
 Region           BANGLADESH-INDIA-BORDER-REGION                                   
 Above details taken from IMD 
   
Station Code      BON
Station Lat.       26.473
Station Long.      90.561
Station Height(m)   75.0
Site Class        C   Vs30 between 200 m/sec to 375 m/sec *  
Record Time       26.07.2008 18:52:23.074
Sampling Rate     200. Hz
 Record Duration   67.345 Sec.
 Direction         Vert. (Up positive)
Max. Acceleration      2.945 cm/sec**2
     
  * For reference see Site Classification link of website 
     
 Base Line Corrected and Low Pass Filtered (Cut Off at 35 Hz) Time History
 Acceleration data in cm/sec**2
    
[...]
      -0.152
      -0.144
      -0.131
      -0.111
      -0.080
      -0.036
       0.017
       0.068
       0.108
       0.133
       0.141
       0.134
       0.112
       0.079
       0.044
       0.015
      -0.008
      -0.025
      -0.032
      -0.023
       0.005
       0.042
       0.068
       0.065
       0.033
      -0.017
      -0.069
      -0.114
      -0.153
      -0.188
      -0.218
      -0.234
      -0.228
      -0.197
      -0.145
      -0.079
      -0.008
       0.056
       0.106
       0.138
       0.156
       0.165
       0.169
       0.162
       0.140
       0.103
       0.066
       0.044
       0.042
       0.046
       0.036
       0.005
      -0.031
      -0.043
      -0.016
       0.043
       0.105
       0.145
       0.152
       0.138
       0.120
       0.107
       0.097
       0.080
       0.050
       0.014
      -0.020
      -0.045
      -0.065
      -0.088
      -0.118
      -0.147
      -0.168
      -0.174
      -0.172
      -0.171
      -0.176
      -0.183
      -0.182
      -0.163
      -0.121
      -0.059
       0.019
       0.110
       0.206
       0.295
       0.359
       0.383
       0.369
       0.335
       0.301
       0.278
       0.259
       0.233
       0.195
       0.155
       0.121
       0.093
       0.059
       0.010
      -0.057
      -0.128
      -0.190
      -0.232
      -0.259
      -0.284
      -0.319
      -0.366
      -0.409
      -0.421
      -0.385
      -0.308
      -0.213
      -0.128
      -0.063
      -0.007
       0.057
       0.135
       0.217
       0.286
       0.331
       0.354
       0.365
       0.370
       0.373
       0.371
       0.361
       0.343
       0.323
       0.310
       0.305
       0.300
       0.281
       0.234
       0.159
       0.063
      -0.039
      -0.140
      -0.240
      -0.346
      -0.455
      -0.555
      -0.623
      -0.641
      -0.607
      -0.534
      -0.438
      -0.330
      -0.209
      -0.071
       0.077
       0.219
       0.332
       0.397
       0.408
       0.367
       0.285
       0.175
       0.049
      -0.084
      -0.213
      -0.326
      -0.408
      -0.446
      -0.435
      -0.376
      -0.282
      -0.175
      -0.074
       0.003
       0.054
       0.083
       0.092
       0.076
       0.029
      -0.051
      -0.146
      -0.233
      -0.289
      -0.299
      -0.263
      -0.189
      -0.094
       0.002
       0.089
       0.166
       0.242
       0.319
       0.393
       0.453
       0.493
       0.512
       0.509
       0.476
       0.405
       0.300
       0.180
       0.064
      -0.039
      -0.127
      -0.204
      -0.268
      -0.320
      -0.361
      -0.393
      -0.415
      -0.422
      -0.410
      -0.378
      -0.325
      -0.256
      -0.175
      -0.082
       0.026
       0.149
       0.278
       0.399
       0.500
       0.582
       0.640
       0.666
       0.647
       0.578
       0.471
       0.341
       0.205
       0.067
      -0.075
      -0.224
      -0.371
      -0.498
      -0.587
      -0.633
      -0.645
      -0.634
      -0.605
      -0.558
      -0.494
      -0.421
      -0.352
      -0.291
      -0.234
      -0.174
      -0.108
      -0.042
       0.015
       0.063
       0.109
       0.159
       0.209
       0.249
       0.276
       0.296
       0.318
       0.338
       0.343
       0.323
       0.277
       0.212
       0.142
       0.072
       0.005
      -0.055
      -0.102
      -0.125
      -0.118
      -0.091
      -0.061
      -0.045
      -0.042
      -0.030
       0.014
       0.089
       0.172
       0.232
       0.258
       0.268
       0.291
       0.338
       0.396
       0.446
       0.478
       0.498
       0.515
       0.525
       0.513
       0.455
       0.342
       0.185
       0.016
      -0.134
      -0.252
      -0.346
      -0.438
      -0.549
      -0.689
      -0.852
      -1.018
      -1.163
      -1.265
      -1.317
      -1.327
      -1.306
      -1.251
      -1.142
      -0.964
      -0.723
      -0.443
      -0.152
       0.132
       0.410
       0.678
       0.921
       1.104
       1.198
       1.192
       1.104
       0.969
       0.829
       0.704
       0.590
       0.467
       0.321
       0.156
      -0.003
      -0.126
      -0.192
      -0.199
      -0.159
      -0.089
      -0.007
       0.071
       0.136
       0.179
       0.197
       0.191
       0.176
       0.176
       0.208
       0.269
       0.331
       0.361
       0.340
       0.268
       0.170
       0.077
       0.015
      -0.003
       0.011
       0.032
       0.043
       0.043
       0.043
       0.050
       0.059
       0.058
       0.039
       0.002
      -0.049
      -0.116
      -0.210
      -0.337
      -0.483
      -0.613
      -0.692
      -0.705
      -0.659
      -0.577
      -0.479
      -0.372
      -0.257
      -0.130
       0.001
       0.121
       0.213
       0.265
       0.274
       0.242
       0.178
       0.097
       0.021
      -0.032
      -0.055
      -0.058
      -0.058
      -0.068
      -0.086
      -0.099
      -0.086
      -0.036
       0.045
       0.134
       0.204
       0.240
       0.247
       0.241
       0.235
       0.227
       0.203
       0.147
       0.054
      -0.061
      -0.174
      -0.262
      -0.318
      -0.342
      -0.330
      -0.271
      -0.154
       0.009
       0.176
       0.304
       0.371
       0.397
       0.423
       0.476
       0.551
       0.614
       0.632
       0.589
       0.492
       0.366
       0.236
       0.124
       0.038
      -0.026
      -0.082
      -0.141
      -0.208
      -0.271
      -0.310
      -0.309
      -0.269
      -0.208
      -0.152
      -0.117
      -0.096
      -0.071
      -0.029
       0.020
       0.050
       0.037
      -0.027
      -0.129
      -0.244
      -0.345
      -0.413
      -0.443
      -0.446
      -0.431
      -0.401
      -0.355
      -0.298
      -0.246
      -0.221
      -0.228
      -0.253
      -0.273
      -0.271
      -0.254
      -0.238
      -0.234
      -0.237
      -0.223
      -0.167
      -0.069
       0.050
       0.154
       0.220
       0.250
       0.260
       0.266
       0.280
       0.303
       0.334
       0.370
       0.411
       0.448
       0.476
       0.481
       0.449
       0.368
       0.231
       0.055
      -0.126
      -0.278
      -0.382
      -0.453
      -0.514
      -0.580
      -0.635
      -0.651
      -0.603
      -0.488
      -0.324
      -0.136
       0.050
       0.213
       0.337
       0.409
       0.422
       0.379
       0.292
       0.186
       0.088
       0.013
      -0.032
      -0.049
      -0.042
      -0.016
       0.021
       0.057
       0.086
       0.117
       0.165
       0.237
       0.325
       0.407
       0.456
       0.463
       0.432
       0.379
       0.317
       0.243
       0.151
       0.042
      -0.068
      -0.153
      -0.192
      -0.181
      -0.129
      -0.046
       0.066
       0.199
       0.335
       0.442
       0.491
       0.467
       0.377
       0.239
       0.076
      -0.094
      -0.256
      -0.399
      -0.519
      -0.610
      -0.665
      -0.681
      -0.664
      -0.626
      -0.573
      -0.502
      -0.405
      -0.292
      -0.183
      -0.100
      -0.049
      -0.018
       0.010
       0.044
       0.082
       0.119
       0.151
       0.181
       0.217
       0.265
       0.314
       0.344
       0.335
       0.288
       0.224
       0.166
       0.111
       0.038
      -0.068
      -0.191
      -0.298
      -0.364
      -0.395
      -0.414
      -0.436
      -0.449
      -0.427
      -0.353
      -0.235
      -0.097
       0.030
       0.127
       0.197
       0.257
       0.321
       0.394
       0.469
       0.534
       0.586
       0.622
       0.642
       0.637
       0.600
       0.527
       0.420
       0.290
       0.152
       0.031
      -0.054
      -0.097
      -0.103
      -0.085
      -0.059
      -0.044
      -0.057
      -0.106
      -0.180
      -0.257
      -0.317
      -0.352
      -0.364
      -0.349
      -0.308
      -0.246
      -0.182
      -0.137
      -0.126
      -0.142
      -0.164
      -0.167
      -0.138
      -0.075
       0.025
       0.163
       0.330
       0.497
       0.620
       0.660
       0.611
       0.494
       0.349
       0.202
       0.057
      -0.094
      -0.251
      -0.393
      -0.490
      -0.519
      -0.482
      -0.400
      -0.302
      -0.218
      -0.161
      -0.129
      -0.109
      -0.081
      -0.040
       0.003
       0.029
       0.025
      -0.008
      -0.058
      -0.104
      -0.136
      -0.161
      -0.186
      -0.213
      -0.232
      -0.227
      -0.193
      -0.140
      -0.094
      -0.077
      -0.102
      -0.161
      -0.235
      -0.302
      -0.351
      -0.388
      -0.432
      -0.501
      -0.599
      -0.715
      -0.823
      -0.901
      -0.941
      -0.946
      -0.917
      -0.841
      -0.701
      -0.492
      -0.231
       0.052
       0.325
       0.568
       0.774
       0.952
       1.103
       1.220
       1.284
       1.285
       1.231
       1.146
       1.047
       0.937
       0.812
       0.671
       0.527
       0.403
       0.317
       0.269
       0.240
       0.210
       0.171
       0.125
       0.077
       0.030
      -0.018
      -0.073
      -0.142
      -0.235
      -0.354
      -0.486
      -0.605
      -0.689
      -0.728
      -0.731
      -0.710
      -0.662
      -0.569
      -0.417
      -0.220
      -0.014
       0.161
       0.284
       0.356
       0.394
       0.412
       0.426
       0.444
       0.466
       0.485
       0.489
       0.469
       0.424
       0.368
       0.316
       0.281
       0.265
       0.265
       0.272
       0.277
       0.273
       0.258
       0.232
       0.196
       0.158
       0.129
       0.122
       0.144
       0.185
       0.226
       0.251
       0.264
       0.278
       0.310
       0.364
       0.429
       0.486
       0.523
       0.537
       0.531
       0.511
       0.484
       0.468
       0.486
       0.554
       0.675
       0.823
       0.958
       1.043
       1.064
       1.034
       0.977
       0.911
       0.839
       0.753
       0.646
       0.522
       0.390
       0.247
       0.084
      -0.103
      -0.307
      -0.510
      -0.697
      -0.869
      -1.035
      -1.205
      -1.375
      -1.530
      -1.653
      -1.734
      -1.780
      -1.810
      -1.843
      -1.887
      -1.937
      -1.972
      -1.972
      -1.915
      -1.793
      -1.616
      -1.412
      -1.212
      -1.043
      -0.912
      -0.821
      -0.765
      -0.740
      -0.731
      -0.717
      -0.677
      -0.613
      -0.541
      -0.475
      -0.413
      -0.337
      -0.231
      -0.099
       0.038
       0.159
       0.256
       0.337
       0.420
       0.512
       0.607
       0.691
       0.750
       0.781
       0.790
       0.788
       0.781
       0.770
       0.749
       0.722
       0.699
       0.700
       0.743
       0.834
       0.962
       1.092
       1.181
       1.199
       1.148
       1.046
       0.909
       0.738
       0.530
       0.292
       0.038
      -0.223
      -0.496
      -0.804
      -1.159
      -1.549
      -1.935
      -2.270
      -2.520
      -2.671
      -2.720
      -2.667
      -2.503
      -2.224
      -1.843
      -1.395
      -0.923
      -0.467
      -0.046
       0.334
       0.671
       0.960
       1.194
       1.375
       1.510
       1.607
       1.666
       1.676
       1.625
       1.518
       1.370
       1.205
       1.040
       0.882
       0.736
       0.614
       0.540
       0.537
       0.608
       0.734
       0.877
       1.007
       1.111
       1.192
       1.253
       1.279
       1.243
       1.129
       0.950
       0.746
       0.564
       0.425
       0.327
       0.254
       0.202
       0.193
       0.256
       0.408
       0.631
       0.888
       1.141
       1.374
       1.584
       1.767
       1.897
       1.935
       1.845
       1.621
       1.288
       0.884
       0.442
      -0.018
      -0.476
      -0.903
      -1.261
      -1.522
      -1.686
      -1.772
      -1.808
      -1.812
      -1.786
      -1.725
      -1.629
      -1.507
      -1.381
      -1.275
      -1.201
      -1.158
      -1.132
      -1.102
      -1.053
      -0.987
      -0.921
      -0.878
      -0.867
      -0.873
      -0.864
      -0.804
      -0.672
      -0.476
      -0.246
      -0.024
       0.166
       0.319
       0.444
       0.550
       0.640
       0.715
       0.778
       0.839
       0.906
       0.976
       1.034
       1.060
       1.045
       1.000
       0.947
       0.894
       0.831
       0.740
       0.608
       0.436
       0.230
       0.000
      -0.244
      -0.492
      -0.737
      -0.968
      -1.167
      -1.314
      -1.403
      -1.437
      -1.424
      -1.366
      -1.256
      -1.093
      -0.895
      -0.692
      -0.515
      -0.377
      -0.264
      -0.151
      -0.023
       0.114
       0.233
       0.299
       0.291
       0.208
       0.065
      -0.112
      -0.310
      -0.526
      -0.764
      -1.014
      -1.245
      -1.415
      -1.496
      -1.492
      -1.434
      -1.364
      -1.310
      -1.277
      -1.249
      -1.202
      -1.123
      -1.014
      -0.881
      -0.717
      -0.497
      -0.197
       0.193
       0.655
       1.152
       1.647
       2.106
       2.490
       2.765
       2.914
       2.945
       2.885
       2.761
       2.585
       2.352
       2.052
       1.689
       1.280
       0.851
       0.432
       0.048
      -0.288
      -0.567
      -0.782
      -0.926
      -0.997
      -0.993
      -0.919
      -0.776
      -0.573
      -0.336
      -0.110
       0.061
       0.153
       0.178
       0.171
       0.168
       0.190
       0.241
       0.319
       0.416
       0.522
       0.627
       0.727
       0.831
       0.944
       1.059
       1.144
       1.158
       1.070
       0.876
       0.601
       0.284
      -0.050
      -0.398
      -0.771
      -1.165
      -1.540
      -1.833
      -1.991
      -2.000
      -1.887
      -1.687
      -1.418
      -1.079
      -0.672
      -0.223
       0.220
       0.609
       0.917
       1.146
       1.319
       1.470
       1.623
       1.787
       1.953
       2.096
       2.178
       2.159
       2.017
       1.768
       1.460
       1.145
       0.847
       0.556
       0.244
      -0.106
      -0.482
      -0.846
      -1.151
      -1.365
      -1.490
      -1.548
      -1.559
      -1.521
      -1.426
      -1.285
      -1.127
      -0.985
      -0.868
      -0.756
      -0.623
      -0.473
      -0.345
      -0.290
      -0.329
      -0.444
      -0.582
      -0.693
      -0.749
      -0.752
      -0.724
      -0.689
      -0.668
      -0.666
      -0.676
      -0.687
      -0.702
      -0.732
      -0.793
      -0.885
      -0.990
      -1.077
      -1.122
      -1.111
      -1.043
      -0.925
      -0.772
      -0.603
      -0.441
      -0.311
      -0.226
      -0.181
      -0.154
      -0.123
      -0.074
       0.001
       0.107
       0.245
       0.406
       0.575
       0.743
       0.922
       1.143
       1.422
       1.742
       2.050
       2.291
       2.435
       2.487
       2.465
       2.383
       2.242
       2.035
       1.758
       1.414
       1.012
       0.566
       0.094
      -0.376
      -0.808
      -1.167
      -1.434
      -1.609
      -1.709
      -1.746
      -1.729
      -1.665
      -1.571
      -1.470
      -1.373
      -1.270
      -1.134
      -0.947
      -0.708
      -0.441
      -0.179
       0.057
       0.258
       0.428
       0.574
       0.692
       0.767
       0.778
       0.720
       0.607
       0.475
       0.352
       0.254
       0.181
       0.133
       0.126
       0.179
       0.297
       0.456
       0.612
       0.728
       0.796
       0.829
       0.847
       0.849
       0.812
       0.703
       0.501
       0.209
      -0.143
      -0.512
      -0.851
      -1.127
      -1.316
      -1.408
      -1.393
      -1.264
      -1.027
      -0.702
      -0.323
       0.066
       0.429
       0.746
       1.012
       1.217
       1.347
       1.384
       1.334
       1.230
       1.117
       1.021
       0.939
       0.849
       0.727
       0.567
       0.379
       0.181
      -0.011
      -0.189
      -0.351
      -0.497
      -0.620
      -0.714
      -0.771
      -0.792
      -0.793
      -0.804
      -0.858
      -0.974
      -1.137
      -1.297
      -1.401
      -1.422
      -1.372
      -1.287
      -1.195
      -1.102
      -0.995
      -0.857
      -0.693
      -0.529
      -0.399
      -0.325
      -0.305
      -0.312
      -0.310
      -0.267
      -0.175
      -0.045
       0.104
       0.265
       0.445
       0.652
       0.887
       1.140
       1.394
       1.636
       1.853
       2.030
       2.142
       2.161
       2.069
       1.866
       1.582
       1.256
       0.927
       0.614
       0.317
       0.036
      -0.226
      -0.455
      -0.635
      -0.757
      -0.828
      -0.866
      -0.886
      -0.887
      -0.851
      -0.761
      -0.624
      -0.478
      -0.381
      -0.378
      -0.470
      -0.619
      -0.771
      -0.889
      -0.976
      -1.060
      -1.163
      -1.276
      -1.359
      -1.360
      -1.249
      -1.035
      -0.761
      -0.478
      -0.226
      -0.023
       0.130
       0.234
       0.282
       0.264
       0.166
      -0.006
      -0.224
      -0.441
      -0.605
      -0.682
      -0.658
      -0.535
      -0.321
      -0.035
       0.293
       0.623
       0.920
       1.159
       1.333
       1.440
       1.488
       1.485
       1.438
       1.345
       1.201
       1.015
       0.812
       0.632
       0.512
       0.460
       0.465
       0.503
       0.565
       0.653
       0.767
       0.891
       0.998
       1.068
       1.099
       1.103
       1.087
       1.043
       0.953
       0.804
       0.606
       0.388
       0.181
       0.006
      -0.130
      -0.223
      -0.275
      -0.299
      -0.321
      -0.367
      -0.441
      -0.533
      -0.639
      -0.776
      -0.975
      -1.246
      -1.555
      -1.833
      -2.009
      -2.048
      -1.958
      -1.775
      -1.527
      -1.229
      -0.891
      -0.537
      -0.201
       0.084
       0.301
       0.461
       0.589
       0.704
       0.810
       0.891
       0.935
       0.939
       0.913
       0.865
       0.792
       0.676
       0.502
       0.263
      -0.028
      -0.340
      -0.631
      -0.872
      -1.052
      -1.180
      -1.266
      -1.305
      -1.280
      -1.175
      -0.998
      -0.779
      -0.561
      -0.375
      -0.222
      -0.081
       0.071
       0.237
       0.391
       0.505
       0.568
       0.596
       0.609
       0.619
       0.624
       0.627
       0.640
       0.675
       0.729
       0.779
       0.794
       0.753
       0.654
       0.515
       0.365
       0.233
       0.137
       0.076
       0.030
      -0.032
      -0.137
      -0.290
      -0.476
      -0.664
      -0.818
      -0.910
      -0.936
      -0.922
      -0.912
      -0.939
      -1.000
      -1.057
      -1.072
