Origin Time       15/2/2009 07:35:55 
Lat.              26.0 N 
Long.             90.2 E 
Depth (Km)         39.3
Magnitude         4.4
 Region           Assam-Meghalaya-Border                                           
 Above details taken from IMD 
     
Station Code      BON
Station Lat.       26.473  N
Station Long.      90.561  E
Station Height(m)   75.0
Site Class        C   Vs30 between 200 m/sec to 375 m/sec *  
Record Time       16.02.2009 01:06:13.289
Sampling Rate     200. Hz
 Record Duration   72.175 Sec.
 Direction         E-W (E positive)
Max. Acceleration     -5.496 cm/sec**2
     
  * For reference see Site Classification link of website 
     
 Base Line Corrected and Low Pass Filtered (Cut Off at 35 Hz) Time History
 Acceleration data in cm/sec**2
    
[...]
       0.002
       0.005
       0.012
       0.018
       0.023
       0.023
       0.020
       0.017
       0.015
       0.014
       0.013
       0.009
       0.004
       0.002
       0.004
       0.009
       0.015
       0.018
       0.017
       0.012
       0.005
       0.000
       0.000
       0.004
       0.009
       0.011
       0.011
       0.011
       0.014
       0.017
       0.016
       0.010
       0.003
      -0.001
       0.002
       0.009
       0.014
       0.017
       0.017
       0.017
       0.018
       0.018
       0.016
       0.011
       0.006
       0.004
       0.008
       0.013
       0.017
       0.015
       0.010
       0.004
       0.002
       0.004
       0.007
       0.008
       0.005
       0.001
       0.001
       0.004
       0.008
       0.008
       0.003
      -0.003
      -0.005
      -0.002
       0.005
       0.010
       0.009
       0.006
       0.004
       0.005
       0.006
       0.006
       0.005
       0.004
       0.002
       0.001
       0.000
       0.000
       0.004
       0.010
       0.018
       0.024
       0.026
       0.023
       0.015
       0.006
      -0.001
      -0.003
       0.000
       0.003
       0.005
       0.006
       0.005
       0.006
       0.008
       0.009
       0.006
       0.002
      -0.001
       0.001
       0.008
       0.013
       0.012
       0.006
       0.000
      -0.001
       0.004
       0.009
       0.011
       0.010
       0.009
       0.009
       0.010
       0.010
       0.008
       0.007
       0.009
       0.016
       0.022
       0.022
       0.015
       0.006
       0.001
       0.002
       0.005
       0.007
       0.010
       0.012
       0.014
       0.012
       0.008
       0.005
       0.004
       0.005
       0.007
       0.006
       0.006
       0.006
       0.007
       0.009
       0.011
       0.015
       0.020
       0.022
       0.017
       0.008
      -0.002
      -0.005
      -0.002
       0.003
       0.006
       0.006
       0.004
       0.002
      -0.001
      -0.004
      -0.008
      -0.010
      -0.007
      -0.001
       0.005
       0.009
       0.010
       0.009
       0.007
       0.006
       0.006
       0.008
       0.010
       0.010
       0.011
       0.010
       0.009
       0.008
       0.007
       0.009
       0.013
       0.016
       0.014
       0.008
       0.002
       0.001
       0.005
       0.010
       0.013
       0.015
       0.017
       0.017
       0.014
       0.006
      -0.002
      -0.005
       0.000
       0.009
       0.016
       0.015
       0.008
       0.003
       0.004
       0.012
       0.020
       0.024
       0.023
       0.017
       0.011
       0.007
       0.007
       0.009
       0.011
       0.010
       0.008
       0.006
       0.005
       0.005
       0.006
       0.007
       0.009
       0.011
       0.011
       0.010
       0.007
       0.005
       0.005
       0.007
       0.009
       0.009
       0.006
       0.001
      -0.006
      -0.010
      -0.010
      -0.006
       0.000
       0.005
       0.006
       0.004
       0.000
      -0.003
      -0.002
       0.003
       0.006
       0.006
       0.002
      -0.001
      -0.001
       0.002
       0.006
       0.009
       0.009
       0.008
       0.004
      -0.001
      -0.006
      -0.010
      -0.011
      -0.009
      -0.006
      -0.002
       0.003
       0.007
       0.010
       0.009
       0.003
      -0.003
      -0.005
      -0.003
       0.002
       0.005
       0.004
      -0.001
      -0.007
      -0.009
      -0.006
       0.000
       0.004
       0.005
       0.003
       0.002
       0.005
       0.010
       0.015
       0.017
       0.015
       0.010
       0.006
       0.005
       0.009
       0.014
       0.016
       0.013
       0.006
      -0.003
      -0.008
      -0.006
       0.001
       0.008
       0.012
       0.011
       0.005
      -0.001
      -0.004
      -0.005
      -0.003
      -0.001
       0.001
       0.003
       0.004
       0.005
       0.005
       0.006
       0.007
       0.006
       0.003
       0.001
       0.002
       0.009
       0.015
       0.018
       0.016
       0.012
       0.011
       0.014
       0.019
       0.023
       0.025
       0.025
       0.023
       0.018
       0.010
       0.001
      -0.003
       0.000
       0.007
       0.014
       0.015
       0.011
       0.006
       0.003
       0.002
       0.004
       0.007
       0.009
       0.009
       0.004
      -0.002
      -0.007
      -0.008
      -0.005
      -0.001
       0.001
       0.003
       0.005
       0.007
       0.007
       0.007
       0.010
       0.017
       0.025
       0.027
       0.022
       0.014
       0.009
       0.009
       0.011
       0.011
       0.007
       0.003
       0.003
       0.005
       0.007
       0.006
       0.004
       0.004
       0.005
       0.008
       0.009
       0.008
       0.006
       0.005
       0.004
       0.003
       0.002
       0.001
      -0.001
       0.000
       0.001
       0.001
       0.000
      -0.002
      -0.002
       0.000
       0.003
       0.006
       0.008
       0.005
       0.001
      -0.002
       0.000
       0.005
       0.009
       0.010
       0.008
       0.004
       0.001
       0.002
       0.007
       0.013
       0.019
       0.023
       0.023
       0.019
       0.013
       0.007
       0.001
      -0.004
      -0.008
      -0.010
      -0.010
      -0.009
      -0.009
      -0.009
      -0.009
      -0.009
      -0.008
      -0.008
      -0.007
      -0.006
      -0.004
      -0.002
      -0.002
      -0.002
      -0.002
      -0.001
       0.001
       0.002
       0.001
      -0.003
      -0.007
      -0.007
      -0.003
       0.004
       0.009
       0.012
       0.011
       0.008
       0.005
       0.003
       0.001
       0.000
      -0.001
      -0.002
      -0.003
      -0.002
       0.001
       0.003
       0.004
       0.002
      -0.001
      -0.005
      -0.009
      -0.013
      -0.017
      -0.018
      -0.014
      -0.008
      -0.003
       0.001
       0.002
       0.002
       0.000
      -0.003
      -0.005
      -0.004
       0.002
       0.010
       0.014
       0.012
       0.006
       0.002
       0.003
       0.007
       0.011
       0.010
       0.007
       0.003
       0.004
       0.009
       0.013
       0.013
       0.008
       0.002
      -0.001
      -0.001
       0.000
      -0.001
      -0.005
      -0.009
      -0.011
      -0.008
      -0.001
       0.006
       0.008
       0.006
       0.001
      -0.002
      -0.002
       0.000
       0.001
       0.000
      -0.001
      -0.004
      -0.007
      -0.007
      -0.003
       0.004
       0.009
       0.011
       0.009
       0.007
       0.007
       0.008
       0.008
       0.005
       0.002
       0.002
       0.007
       0.011
       0.010
       0.005
       0.002
       0.002
       0.005
       0.005
       0.002
      -0.003
      -0.005
      -0.005
      -0.003
      -0.001
       0.000
       0.003
       0.005
       0.006
       0.004
       0.001
      -0.001
       0.000
       0.003
       0.005
       0.006
       0.005
       0.002
       0.002
       0.004
       0.008
       0.010
       0.005
      -0.005
      -0.014
      -0.016
      -0.010
       0.000
       0.006
       0.007
       0.006
       0.006
       0.009
       0.012
       0.012
       0.010
       0.006
       0.003
       0.000
      -0.004
      -0.009
      -0.012
      -0.011
      -0.007
      -0.005
      -0.005
      -0.008
      -0.009
      -0.007
      -0.005
      -0.002
       0.001
       0.007
       0.013
       0.016
       0.012
       0.002
      -0.009
      -0.012
      -0.006
       0.005
       0.014
       0.015
       0.011
       0.008
       0.007
       0.009
       0.009
       0.007
       0.004
       0.003
       0.006
       0.012
       0.014
       0.011
       0.002
      -0.005
      -0.005
       0.002
       0.010
       0.012
       0.007
      -0.003
      -0.010
      -0.012
      -0.007
       0.000
       0.006
       0.009
       0.010
       0.009
       0.008
       0.008
       0.007
       0.006
       0.005
       0.006
       0.006
       0.005
       0.002
       0.000
      -0.002
      -0.001
       0.001
       0.004
       0.006
       0.005
       0.002
      -0.003
      -0.007
      -0.006
      -0.002
       0.000
      -0.001
      -0.005
      -0.008
      -0.009
      -0.009
      -0.008
      -0.008
      -0.008
      -0.006
      -0.004
      -0.001
       0.000
       0.000
      -0.002
      -0.005
      -0.009
      -0.013
      -0.014
      -0.014
      -0.013
      -0.013
      -0.016
      -0.019
      -0.020
      -0.019
      -0.014
      -0.009
      -0.004
      -0.004
      -0.007
      -0.013
      -0.015
      -0.013
      -0.009
      -0.008
      -0.011
      -0.014
      -0.013
      -0.007
      -0.001
       0.002
      -0.001
      -0.005
      -0.005
       0.000
       0.008
       0.010
       0.005
      -0.003
      -0.009
      -0.007
       0.000
       0.006
       0.004
      -0.004
      -0.012
      -0.013
      -0.007
       0.001
       0.006
       0.005
       0.000
      -0.005
      -0.006
      -0.005
      -0.003
      -0.004
      -0.007
      -0.006
       0.000
       0.009
       0.016
       0.017
       0.014
       0.007
       0.001
      -0.003
      -0.002
       0.003
       0.010
       0.013
       0.009
       0.000
      -0.009
      -0.011
      -0.006
       0.000
       0.002
      -0.001
      -0.009
      -0.015
      -0.017
      -0.016
      -0.013
      -0.012
      -0.010
      -0.007
      -0.001
       0.006
       0.010
       0.008
       0.002
      -0.006
      -0.011
      -0.012
      -0.011
      -0.008
      -0.006
      -0.005
      -0.005
      -0.006
      -0.008
      -0.008
      -0.007
      -0.004
      -0.003
      -0.003
      -0.004
      -0.003
       0.001
       0.005
       0.006
       0.004
       0.002
       0.003
       0.005
       0.004
      -0.001
      -0.009
      -0.015
      -0.014
      -0.009
      -0.004
      -0.002
      -0.003
      -0.005
      -0.007
      -0.009
      -0.011
      -0.012
      -0.013
      -0.012
      -0.011
      -0.012
      -0.012
      -0.010
      -0.007
      -0.004
      -0.003
      -0.003
      -0.003
      -0.002
      -0.002
      -0.004
      -0.007
      -0.007
      -0.004
       0.000
       0.001
      -0.002
      -0.006
      -0.007
      -0.006
      -0.005
      -0.006
      -0.007
      -0.005
       0.002
       0.009
       0.011
       0.006
      -0.003
      -0.010
      -0.010
      -0.005
       0.003
       0.007
       0.007
       0.002
      -0.004
      -0.007
      -0.006
      -0.001
       0.002
       0.001
      -0.003
      -0.007
      -0.008
      -0.005
      -0.002
      -0.001
      -0.003
      -0.006
      -0.006
      -0.004
       0.000
       0.005
       0.007
       0.008
       0.010
       0.011
       0.012
       0.010
       0.004
      -0.004
      -0.008
      -0.006
       0.001
       0.008
       0.011
       0.007
      -0.002
      -0.009
      -0.011
      -0.006
       0.001
       0.004
       0.000
      -0.008
      -0.012
      -0.012
      -0.008
      -0.006
      -0.008
      -0.011
      -0.012
      -0.007
       0.003
       0.012
       0.015
       0.009
      -0.001
      -0.009
      -0.010
      -0.004
       0.002
       0.006
       0.005
       0.001
      -0.003
      -0.006
      -0.009
      -0.010
      -0.010
      -0.009
      -0.007
      -0.005
      -0.004
      -0.004
      -0.004
      -0.004
      -0.005
      -0.006
      -0.007
      -0.005
      -0.001
       0.005
       0.009
       0.009
       0.007
       0.003
       0.001
       0.000
       0.000
       0.000
       0.000
      -0.002
      -0.006
      -0.013
      -0.018
      -0.018
      -0.012
      -0.004
       0.000
       0.000
      -0.003
      -0.004
      -0.004
      -0.006
      -0.011
      -0.022
      -0.037
      -0.052
      -0.065
      -0.074
      -0.081
      -0.089
      -0.099
      -0.110
      -0.120
      -0.128
      -0.135
      -0.142
      -0.146
      -0.143
      -0.132
      -0.114
      -0.094
      -0.073
      -0.052
      -0.026
       0.006
       0.048
       0.097
       0.148
       0.196
       0.240
       0.287
       0.342
       0.405
       0.462
       0.489
       0.471
       0.418
       0.362
       0.337
       0.351
       0.379
       0.381
       0.331
       0.229
       0.092
      -0.061
      -0.217
      -0.369
      -0.507
      -0.623
      -0.725
      -0.833
      -0.961
      -1.104
      -1.240
      -1.354
      -1.447
      -1.536
      -1.626
      -1.706
      -1.757
      -1.768
      -1.740
      -1.661
      -1.503
      -1.237
      -0.873
      -0.469
      -0.103
       0.181
       0.401
       0.620
       0.894
       1.246
       1.666
       2.132
       2.620
       3.093
       3.494
       3.773
       3.918
       3.974
       4.016
       4.087
       4.160
       4.157
       4.008
       3.713
       3.333
       2.927
       2.494
       1.987
       1.373
       0.690
       0.019
      -0.581
      -1.132
      -1.701
      -2.326
      -2.962
      -3.516
      -3.932
      -4.241
      -4.528
      -4.849
      -5.177
      -5.420
      -5.496
      -5.381
      -5.104
      -4.710
      -4.242
      -3.739
      -3.253
      -2.826
      -2.463
      -2.118
      -1.713
      -1.183
      -0.512
       0.269
       1.106
       1.936
       2.692
       3.299
       3.699
       3.886
       3.925
       3.911
       3.897
       3.860
       3.741
       3.537
       3.337
       3.266
       3.354
       3.479
       3.435
       3.085
       2.459
       1.715
       1.007
       0.384
      -0.195
      -0.769
      -1.297
      -1.691
      -1.890
      -1.910
      -1.819
      -1.687
      -1.566
      -1.516
      -1.603
      -1.861
      -2.219
      -2.502
      -2.530
      -2.242
      -1.750
      -1.249
      -0.883
      -0.650
      -0.450
      -0.192
       0.119
       0.390
       0.529
       0.514
       0.403
       0.285
       0.227
       0.245
       0.312
       0.370
       0.357
       0.226
      -0.034
      -0.396
      -0.813
      -1.228
      -1.588
      -1.845
      -1.991
      -2.065
      -2.142
      -2.283
      -2.469
      -2.588
      -2.474
      -2.016
      -1.243
      -0.342
       0.446
       0.966
       1.230
       1.394
       1.636
       2.049
       2.590
       3.123
       3.503
       3.661
       3.643
       3.567
       3.546
       3.619
       3.737
       3.791
       3.670
       3.309
       2.710
       1.943
       1.121
       0.364
      -0.248
      -0.713
      -1.114
      -1.561
      -2.094
      -2.627
      -2.980
      -3.015
      -2.758
      -2.403
      -2.192
      -2.259
      -2.554
      -2.890
      -3.049
      -2.872
      -2.303
      -1.395
      -0.310
       0.724
       1.470
       1.790
       1.710
       1.415
       1.152
       1.092
       1.254
       1.516
       1.723
       1.775
       1.660
       1.416
       1.081
       0.673
       0.197
      -0.338
      -0.909
      -1.478
      -1.986
      -2.346
      -2.465
      -2.290
      -1.868
      -1.359
      -0.967
      -0.809
      -0.837
      -0.871
      -0.740
      -0.393
       0.104
       0.654
       1.200
       1.723
       2.190
       2.530
       2.682
       2.665
       2.587
       2.567
       2.634
       2.692
       2.595
       2.253
       1.693
       1.027
       0.376
      -0.179
      -0.610
      -0.942
      -1.237
      -1.566
      -1.955
      -2.350
      -2.641
      -2.747
      -2.698
      -2.617
      -2.630
      -2.755
      -2.890
      -2.903
      -2.746
      -2.482
      -2.199
      -1.918
      -1.578
      -1.113
      -0.523
       0.112
       0.696
       1.172
       1.524
       1.746
       1.827
       1.782
       1.663
       1.540
       1.460
       1.427
       1.427
       1.459
       1.518
       1.566
       1.527
       1.342
       1.037
       0.719
       0.505
       0.437
       0.459
       0.475
       0.428
       0.331
       0.247
       0.223
       0.247
       0.257
       0.198
       0.069
      -0.070
      -0.149
      -0.143
      -0.096
      -0.087
      -0.179
      -0.366
      -0.570
      -0.688
      -0.654
      -0.496
      -0.318
      -0.249
      -0.361
      -0.614
      -0.887
      -1.053
      -1.062
      -0.960
      -0.840
      -0.774
      -0.790
      -0.883
      -1.036
      -1.214
      -1.368
      -1.446
      -1.421
      -1.311
      -1.162
      -1.024
      -0.931
      -0.899
      -0.917
      -0.941
      -0.911
      -0.783
      -0.556
      -0.276
      -0.008
       0.207
       0.370
       0.524
       0.725
       1.002
       1.337
       1.684
       2.004
       2.289
       2.555
       2.807
       3.014
       3.124
       3.117
       3.030
       2.940
       2.894
       2.867
       2.779
       2.579
       2.290
       1.982
       1.694
       1.407
       1.090
       0.762
       0.497
       0.342
       0.242
       0.058
      -0.324
      -0.893
      -1.520
      -2.056
      -2.440
      -2.702
      -2.888
      -2.993
      -2.970
      -2.804
      -2.552
      -2.307
      -2.121
      -1.978
      -1.847
      -1.742
      -1.730
      -1.846
      -2.024
      -2.117
      -1.994
      -1.641
      -1.166
      -0.710
      -0.349
      -0.073
       0.159
       0.363
       0.520
       0.606
       0.628
       0.610
       0.572
       0.523
       0.471
       0.450
       0.509
       0.671
       0.888
       1.059
       1.095
       0.993
       0.834
       0.723
       0.714
       0.793
       0.914
       1.038
       1.139
       1.188
       1.151
       1.017
       0.817
       0.618
       0.480
       0.414
       0.380
       0.322
       0.209
       0.053
      -0.112
      -0.267
      -0.412
      -0.549
      -0.662
      -0.725
      -0.726
      -0.697
      -0.711
      -0.836
      -1.087
      -1.396
      -1.651
      -1.773
      -1.774
      -1.740
      -1.750
      -1.803
      -1.811
      -1.669
      -1.329
      -0.834
      -0.294
       0.171
       0.488
       0.652
       0.733
       0.826
       1.004
       1.280
       1.605
       1.905
       2.117
       2.214
       2.207
       2.123
       1.980
       1.785
       1.540
       1.269
       1.018
       0.831
       0.730
       0.693
       0.667
       0.597
       0.457
       0.256
       0.014
      -0.274
      -0.640
      -1.097
      -1.589
      -1.997
      -2.213
      -2.214
      -2.078
      -1.920
      -1.798
      -1.677
      -1.473
      -1.143
      -0.731
      -0.348
      -0.090
       0.031
       0.080
       0.147
       0.281
       0.484
       0.733
       1.010
       1.298
       1.576
       1.810
       1.976
       2.073
       2.123
       2.143
       2.132
       2.078
       1.970
       1.814
       1.627
       1.418
       1.174
