Origin Time       29/12/2009 09:01:42
Lat.              24.5°N	
Long.             94.8°E	
Depth (Km)         80.0
Magnitude         5.5
 Region           MYANMAR-INDIA(MANIPUR)-BORDER                                    
 Above details taken from IMD 
     
Station Code      BON
Station Lat.       26.473  N
Station Long.      90.561  E
Station Height(m)   75.0
Site Class        C   Vs30 between 200 m/sec to 375 m/sec *  
Record Time       29.12.2009 14:33:47.954
Sampling Rate     200. Hz
 Record Duration   65.005 Sec.
 Direction         E-W (E positive)
Max. Acceleration     -3.722 cm/sec**2
     
  * For reference see Site Classification link of website 
     
 Base Line Corrected and Low Pass Filtered (Cut Off at 35 Hz) Time History
 Acceleration data in cm/sec**2
    
[...]
       1.065
       1.160
       1.256
       1.347
       1.418
       1.454
       1.443
       1.380
       1.266
       1.108
       0.924
       0.733
       0.553
       0.387
       0.232
       0.081
      -0.063
      -0.184
      -0.269
      -0.317
      -0.341
      -0.366
      -0.411
      -0.482
      -0.572
      -0.666
      -0.750
      -0.818
      -0.879
      -0.943
      -1.016
      -1.094
      -1.166
      -1.219
      -1.237
      -1.202
      -1.100
      -0.931
      -0.719
      -0.498
      -0.300
      -0.135
       0.014
       0.174
       0.359
       0.562
       0.756
       0.921
       1.056
       1.182
       1.325
       1.496
       1.685
       1.872
       2.035
       2.161
       2.247
       2.294
       2.308
       2.299
       2.279
       2.251
       2.206
       2.123
       1.976
       1.743
       1.415
       1.003
       0.538
       0.059
      -0.401
      -0.827
      -1.216
      -1.564
      -1.851
      -2.047
      -2.137
      -2.125
      -2.042
      -1.925
      -1.806
      -1.698
      -1.601
      -1.503
      -1.392
      -1.261
      -1.114
      -0.963
      -0.810
      -0.654
      -0.489
      -0.314
      -0.140
       0.025
       0.172
       0.299
       0.402
       0.480
       0.536
       0.575
       0.606
       0.627
       0.633
       0.607
       0.534
       0.401
       0.213
       0.000
      -0.192
      -0.330
      -0.411
      -0.463
      -0.524
      -0.607
      -0.696
      -0.758
      -0.767
      -0.724
      -0.649
      -0.566
      -0.496
      -0.449
      -0.428
      -0.432
      -0.451
      -0.476
      -0.503
      -0.530
      -0.556
      -0.568
      -0.548
      -0.478
      -0.358
      -0.211
      -0.073
       0.018
       0.041
       0.000
      -0.079
      -0.158
      -0.204
      -0.194
      -0.124
      -0.010
       0.119
       0.241
       0.348
       0.449
       0.557
       0.671
       0.773
       0.838
       0.843
       0.787
       0.690
       0.582
       0.484
       0.395
       0.294
       0.162
      -0.006
      -0.187
      -0.347
      -0.463
      -0.533
      -0.576
      -0.614
      -0.658
      -0.708
      -0.759
      -0.806
      -0.843
      -0.866
      -0.865
      -0.832
      -0.767
      -0.677
      -0.577
      -0.472
      -0.353
      -0.205
      -0.019
       0.194
       0.409
       0.610
       0.803
       1.013
       1.257
       1.531
       1.807
       2.049
       2.232
       2.342
       2.387
       2.380
       2.338
       2.271
       2.181
       2.070
       1.944
       1.813
       1.683
       1.553
       1.416
       1.264
       1.093
       0.905
       0.705
       0.500
       0.306
       0.136
      -0.003
      -0.115
      -0.214
      -0.319
      -0.443
      -0.592
      -0.761
      -0.939
      -1.106
      -1.250
      -1.359
      -1.426
      -1.444
      -1.411
      -1.332
      -1.222
      -1.109
      -1.012
      -0.943
      -0.895
      -0.857
      -0.822
      -0.785
      -0.746
      -0.706
      -0.658
      -0.594
      -0.496
      -0.346
      -0.134
       0.134
       0.426
       0.693
       0.895
       1.014
       1.057
       1.038
       0.961
       0.824
       0.622
       0.362
       0.070
      -0.224
      -0.490
      -0.713
      -0.895
      -1.044
      -1.168
      -1.267
      -1.337
      -1.372
      -1.373
      -1.342
      -1.284
      -1.209
      -1.128
      -1.048
      -0.970
      -0.887
      -0.794
      -0.693
      -0.597
      -0.516
      -0.456
      -0.406
      -0.353
      -0.288
      -0.214
      -0.140
      -0.074
      -0.025
      -0.004
      -0.025
      -0.098
      -0.221
      -0.373
      -0.523
      -0.641
      -0.710
      -0.720
      -0.673
      -0.572
      -0.435
      -0.295
      -0.190
      -0.156
      -0.203
      -0.319
      -0.475
      -0.635
      -0.774
      -0.869
      -0.898
      -0.838
      -0.671
      -0.406
      -0.077
       0.262
       0.560
       0.789
       0.949
       1.059
       1.142
       1.201
       1.218
       1.165
       1.029
       0.829
       0.615
       0.446
       0.362
       0.367
       0.439
       0.540
       0.645
       0.743
       0.835
       0.916
       0.974
       0.997
       0.988
       0.971
       0.974
       1.002
       1.036
       1.038
       0.981
       0.864
       0.706
       0.537
       0.387
       0.276
       0.218
       0.216
       0.274
       0.395
       0.574
       0.791
       1.004
       1.162
       1.227
       1.197
       1.098
       0.971
       0.850
       0.750
       0.676
       0.627
       0.597
       0.577
       0.548
       0.494
       0.410
       0.307
       0.211
       0.149
       0.136
       0.165
       0.211
       0.235
       0.208
       0.112
      -0.051
      -0.272
      -0.536
      -0.831
      -1.148
      -1.473
      -1.783
      -2.041
      -2.200
      -2.221
      -2.087
      -1.813
      -1.431
      -0.984
      -0.513
      -0.059
       0.336
       0.634
       0.816
       0.895
       0.909
       0.898
       0.881
       0.851
       0.789
       0.702
       0.626
       0.605
       0.653
       0.743
       0.822
       0.840
       0.771
       0.609
       0.362
       0.051
      -0.290
      -0.615
      -0.882
      -1.069
      -1.179
      -1.228
      -1.230
      -1.177
      -1.057
      -0.865
      -0.619
      -0.363
      -0.151
      -0.027
      -0.009
      -0.086
      -0.229
      -0.406
      -0.599
      -0.805
      -1.025
      -1.246
      -1.436
      -1.557
      -1.596
      -1.570
      -1.520
      -1.477
      -1.445
      -1.409
      -1.350
      -1.269
      -1.183
      -1.111
      -1.062
      -1.036
      -1.028
      -1.034
      -1.050
      -1.059
      -1.036
      -0.952
      -0.795
      -0.575
      -0.315
      -0.052
       0.177
       0.329
       0.368
       0.280
       0.085
      -0.160
      -0.389
      -0.548
      -0.616
      -0.595
      -0.498
      -0.340
      -0.132
       0.108
       0.368
       0.646
       0.943
       1.258
       1.567
       1.824
       1.977
       1.994
       1.880
       1.678
       1.445
       1.233
       1.073
       0.982
       0.967
       1.026
       1.144
       1.295
       1.454
       1.608
       1.755
       1.890
       1.994
       2.047
       2.039
       1.977
       1.871
       1.716
       1.495
       1.184
       0.782
       0.312
      -0.179
      -0.649
      -1.072
      -1.435
      -1.724
      -1.906
      -1.946
      -1.829
      -1.576
      -1.236
      -0.862
      -0.494
      -0.154
       0.146
       0.401
       0.609
       0.773
       0.895
       0.973
       1.003
       0.981
       0.916
       0.824
       0.726
       0.633
       0.547
       0.463
       0.383
       0.323
       0.300
       0.316
       0.348
       0.366
       0.356
       0.333
       0.331
       0.373
       0.453
       0.547
       0.628
       0.687
       0.729
       0.760
       0.777
       0.773
       0.749
       0.710
       0.659
       0.592
       0.498
       0.374
       0.233
       0.098
      -0.014
      -0.104
      -0.187
      -0.286
      -0.416
      -0.573
      -0.748
      -0.927
      -1.100
      -1.263
      -1.417
      -1.562
      -1.695
      -1.803
      -1.860
      -1.847
      -1.767
      -1.656
      -1.567
      -1.543
      -1.592
      -1.689
      -1.791
      -1.865
      -1.896
      -1.892
      -1.874
      -1.856
      -1.837
      -1.795
      -1.694
      -1.512
      -1.255
      -0.968
      -0.709
      -0.518
      -0.399
      -0.332
      -0.293
      -0.267
      -0.239
      -0.190
      -0.094
       0.069
       0.303
       0.590
       0.897
       1.189
       1.435
       1.614
       1.713
       1.724
       1.648
       1.492
       1.275
       1.016
       0.735
       0.450
       0.191
      -0.010
      -0.131
      -0.171
      -0.157
      -0.135
      -0.151
      -0.239
      -0.409
      -0.644
      -0.910
      -1.173
      -1.413
      -1.623
      -1.800
      -1.934
      -1.992
      -1.925
      -1.685
      -1.250
      -0.645
       0.066
       0.794
       1.456
       1.997
       2.397
       2.659
       2.794
       2.805
       2.694
       2.471
       2.166
       1.830
       1.526
       1.315
       1.232
       1.278
       1.407
       1.546
       1.621
       1.584
       1.424
       1.170
       0.870
       0.568
       0.294
       0.053
      -0.160
      -0.339
      -0.460
      -0.492
      -0.417
      -0.245
      -0.014
       0.226
       0.430
       0.569
       0.637
       0.638
       0.581
       0.474
       0.330
       0.168
       0.014
      -0.111
      -0.196
      -0.244
      -0.261
      -0.249
      -0.205
      -0.128
      -0.031
       0.056
       0.089
       0.032
      -0.127
      -0.375
      -0.672
      -0.966
      -1.210
      -1.371
      -1.450
      -1.471
      -1.465
      -1.454
      -1.434
      -1.395
      -1.331
      -1.261
      -1.208
      -1.190
      -1.202
      -1.221
      -1.229
      -1.220
      -1.195
      -1.147
      -1.053
      -0.886
      -0.636
      -0.322
       0.018
       0.351
       0.656
       0.923
       1.135
       1.262
       1.272
       1.145
       0.892
       0.553
       0.180
      -0.179
      -0.491
      -0.740
      -0.916
      -1.010
      -1.018
      -0.944
      -0.800
      -0.609
      -0.389
      -0.147
       0.119
       0.414
       0.739
       1.078
       1.405
       1.699
       1.948
       2.150
       2.301
       2.383
       2.368
       2.234
       1.977
       1.627
       1.230
       0.837
       0.480
       0.174
      -0.076
      -0.272
      -0.411
      -0.489
      -0.497
      -0.427
      -0.275
      -0.047
       0.230
       0.504
       0.715
       0.809
       0.759
       0.565
       0.251
      -0.148
      -0.583
      -0.993
      -1.316
      -1.501
      -1.525
      -1.400
      -1.158
      -0.841
      -0.490
      -0.143
       0.166
       0.400
       0.527
       0.523
       0.387
       0.150
      -0.133
      -0.399
      -0.605
      -0.739
      -0.830
      -0.925
      -1.068
      -1.273
      -1.521
      -1.769
      -1.979
      -2.133
      -2.231
      -2.283
      -2.283
      -2.216
      -2.064
      -1.817
      -1.478
      -1.067
      -0.612
      -0.153
       0.267
       0.612
       0.872
       1.056
       1.182
       1.264
       1.305
       1.300
       1.244
       1.139
       1.003
       0.860
       0.737
       0.644
       0.576
       0.514
       0.436
       0.328
       0.192
       0.046
      -0.073
      -0.120
      -0.062
       0.101
       0.332
       0.569
       0.761
       0.888
       0.973
       1.058
       1.173
       1.314
       1.448
       1.537
       1.567
       1.558
       1.548
       1.569
       1.625
       1.692
       1.729
       1.694
       1.565
       1.350
       1.083
       0.811
       0.577
       0.400
       0.281
       0.203
       0.138
       0.044
      -0.124
      -0.400
      -0.778
      -1.214
      -1.634
      -1.970
      -2.185
      -2.276
      -2.262
      -2.159
      -1.976
      -1.731
      -1.457
      -1.202
      -1.005
      -0.884
      -0.833
      -0.840
      -0.900
      -1.011
      -1.157
      -1.299
      -1.387
      -1.381
      -1.271
      -1.080
      -0.840
      -0.575
      -0.295
      -0.002
       0.299
       0.588
       0.835
       1.007
       1.080
       1.053
       0.960
       0.871
       0.865
       0.997
       1.269
       1.621
       1.965
       2.226
       2.366
       2.392
       2.336
       2.233
       2.108
       1.975
       1.837
       1.687
       1.501
       1.253
       0.931
       0.547
       0.136
      -0.262
      -0.623
      -0.946
      -1.239
      -1.505
      -1.735
      -1.912
      -2.028
      -2.082
      -2.085
      -2.053
      -1.995
      -1.917
      -1.821
      -1.705
      -1.562
      -1.376
      -1.124
      -0.802
      -0.435
      -0.087
       0.174
       0.312
       0.343
       0.321
       0.306
       0.334
       0.402
       0.480
       0.536
       0.556
       0.561
       0.593
       0.687
       0.850
       1.042
       1.189
       1.215
       1.066
       0.735
       0.257
      -0.310
      -0.904
      -1.476
      -1.992
      -2.426
      -2.755
      -2.959
      -3.026
      -2.950
      -2.732
      -2.378
      -1.904
      -1.346
      -0.763
      -0.220
       0.225
       0.543
       0.743
       0.855
       0.914
       0.951
       0.989
       1.050
       1.158
       1.322
       1.531
       1.749
       1.929
       2.034
       2.039
       1.937
       1.730
       1.432
       1.072
       0.688
       0.326
       0.026
      -0.191
      -0.322
      -0.384
      -0.400
      -0.384
      -0.335
      -0.235
      -0.068
       0.173
       0.477
       0.813
       1.129
       1.371
       1.499
       1.511
       1.443
       1.356
       1.306
       1.323
       1.408
       1.543
       1.706
       1.881
       2.056
       2.209
       2.309
       2.322
       2.214
       1.962
       1.560
       1.016
       0.364
      -0.349
      -1.067
      -1.751
      -2.373
      -2.913
      -3.339
      -3.614
      -3.722
      -3.688
      -3.567
      -3.415
      -3.256
      -3.080
      -2.863
      -2.596
      -2.285
      -1.947
      -1.596
      -1.239
      -0.883
      -0.545
      -0.252
      -0.031
       0.095
       0.109
       0.006
      -0.202
      -0.472
      -0.734
      -0.907
      -0.931
      -0.783
      -0.477
      -0.047
       0.468
       1.030
       1.586
       2.067
       2.411
       2.583
       2.590
       2.467
       2.250
       1.957
       1.598
       1.202
       0.829
       0.558
       0.446
       0.491
       0.637
       0.800
       0.908
       0.933
       0.891
       0.817
       0.741
       0.664
       0.561
       0.402
       0.170
      -0.124
      -0.443
      -0.737
      -0.966
      -1.106
      -1.159
      -1.135
      -1.052
      -0.929
      -0.789
      -0.653
      -0.539
      -0.452
      -0.396
      -0.382
      -0.421
      -0.515
      -0.640
      -0.751
      -0.798
      -0.754
      -0.632
      -0.468
      -0.304
      -0.159
      -0.023
       0.131
       0.327
       0.575
       0.865
       1.175
       1.482
       1.767
       2.009
       2.172
       2.211
       2.089
       1.814
       1.438
       1.035
       0.658
       0.311
      -0.034
      -0.401
      -0.778
      -1.120
      -1.376
      -1.511
      -1.523
      -1.434
      -1.279
      -1.105
      -0.959
      -0.875
      -0.869
      -0.937
      -1.067
      -1.251
      -1.481
      -1.745
      -2.016
      -2.259
      -2.438
      -2.516
      -2.459
      -2.239
      -1.847
      -1.302
      -0.654
       0.018
       0.631
       1.119
       1.456
       1.659
       1.766
       1.809
       1.805
       1.770
       1.725
       1.707
       1.740
       1.826
       1.932
       2.007
       2.008
       1.912
       1.715
       1.426
       1.062
       0.645
       0.201
      -0.242
      -0.660
      -1.031
      -1.337
      -1.557
      -1.678
      -1.687
      -1.581
      -1.354
      -1.004
      -0.542
      -0.003
       0.548
       1.039
       1.410
       1.639
       1.734
       1.718
       1.615
       1.441
       1.215
       0.969
       0.751
       0.608
       0.572
       0.634
       0.750
       0.862
       0.924
       0.918
       0.851
       0.736
       0.571
       0.345
       0.053
      -0.287
      -0.632
      -0.932
      -1.150
      -1.277
      -1.327
      -1.322
      -1.284
      -1.238
      -1.218
      -1.272
      -1.444
      -1.746
      -2.147
      -2.575
      -2.950
      -3.205
      -3.294
      -3.187
      -2.879
      -2.396
      -1.799
      -1.167
      -0.571
      -0.051
       0.390
       0.766
       1.089
       1.357
       1.561
       1.694
       1.759
       1.767
       1.740
       1.701
       1.669
       1.650
       1.635
       1.605
       1.537
       1.417
       1.243
       1.024
       0.769
       0.492
       0.209
      -0.046
      -0.234
      -0.321
      -0.299
      -0.189
      -0.027
       0.152
       0.322
       0.469
       0.582
       0.656
       0.691
       0.686
       0.643
       0.563
       0.442
       0.274
       0.057
      -0.196
      -0.457
      -0.689
      -0.850
      -0.916
      -0.885
      -0.782
      -0.645
      -0.509
      -0.392
      -0.299
      -0.232
      -0.201
      -0.215
      -0.267
      -0.332
      -0.368
      -0.342
      -0.242
      -0.083
       0.103
       0.279
       0.419
       0.517
       0.587
       0.646
       0.688
       0.683
       0.588
       0.379
       0.084
      -0.229
      -0.473
      -0.582
      -0.537
      -0.373
      -0.161
       0.010
       0.062
      -0.045
      -0.297
      -0.637
      -0.988
      -1.291
      -1.516
      -1.666
      -1.762
      -1.823
      -1.850
      -1.814
      -1.671
      -1.390
      -0.977
      -0.480
       0.031
       0.492
       0.870
       1.152
       1.333
       1.404
       1.359
       1.213
       1.011
       0.813
       0.671
       0.609
       0.635
       0.746
       0.931
       1.154
       1.355
       1.470
       1.471
       1.379
       1.251
       1.141
       1.074
       1.038
       1.013
       0.985
       0.957
       0.926
       0.870
       0.755
       0.556
       0.278
      -0.041
      -0.355
      -0.630
      -0.856
      -1.042
      -1.200
      -1.336
      -1.448
      -1.520
      -1.532
      -1.473
      -1.351
      -1.192
      -1.026
      -0.864
      -0.696
      -0.503
      -0.282
      -0.057
       0.132
       0.247
       0.282
       0.265
       0.235
       0.227
       0.253
       0.305
       0.368
       0.420
       0.436
       0.383
       0.232
      -0.023
      -0.355
      -0.706
      -1.017
      -1.257
      -1.437
      -1.592
      -1.740
      -1.854
      -1.870
      -1.716
      -1.357
      -0.817
      -0.180
       0.440
       0.934
       1.232
       1.322
       1.250
       1.105
       0.975
       0.912
       0.912
       0.935
       0.936
       0.901
       0.860
       0.863
       0.938
       1.067
       1.198
       1.275
       1.284
       1.251
       1.217
       1.211
       1.223
       1.221
       1.165
       1.030
       0.808
       0.510
       0.167
      -0.178
      -0.485
      -0.728
      -0.914
      -1.073
      -1.248
      -1.464
      -1.724
      -2.004
      -2.270
      -2.485
      -2.617
      -2.639
      -2.541
      -2.328
      -2.021
      -1.647
      -1.234
      -0.802
      -0.367
       0.065
       0.497
       0.931
       1.365
       1.780
       2.139
       2.398
       2.529
       2.528
       2.417
       2.230
       1.995
       1.726
       1.425
       1.090
       0.726
       0.344
      -0.048
      -0.443
