Origin Time       31/12/2009 09:57:00
Lat.              27.3°N	
Long.             91.4°E	
Depth (Km)          7.0
Magnitude         5.5
 Region           BHUTAN                                                           
 Above details taken from IMD 
     
Station Code      BON
Station Lat.       26.473  N
Station Long.      90.561  E
Station Height(m)   75.0
Site Class        C   Vs30 between 200 m/sec to 375 m/sec *  
Record Time       31.12.2009 15:28:13.374
Sampling Rate     200. Hz
 Record Duration   78.515 Sec.
 Direction         E-W (E positive)
Max. Acceleration    -13.398 cm/sec**2
     
  * For reference see Site Classification link of website 
     
 Base Line Corrected and Low Pass Filtered (Cut Off at 35 Hz) Time History
 Acceleration data in cm/sec**2
    
[...]
      -1.076
      -1.064
      -0.994
      -0.892
      -0.782
      -0.674
      -0.561
      -0.435
      -0.298
      -0.161
      -0.038
       0.063
       0.134
       0.155
       0.108
       0.008
      -0.083
      -0.094
       0.003
       0.172
       0.350
       0.495
       0.603
       0.691
       0.770
       0.837
       0.891
       0.940
       0.986
       1.019
       1.011
       0.937
       0.790
       0.585
       0.339
       0.065
      -0.218
      -0.476
      -0.669
      -0.774
      -0.800
      -0.783
      -0.766
      -0.776
      -0.820
      -0.889
      -0.962
      -1.012
      -1.003
      -0.916
      -0.760
      -0.571
      -0.389
      -0.242
      -0.132
      -0.055
       0.000
       0.041
       0.081
       0.137
       0.221
       0.331
       0.446
       0.532
       0.560
       0.506
       0.367
       0.158
      -0.075
      -0.266
      -0.354
      -0.319
      -0.192
      -0.042
       0.065
       0.101
       0.083
       0.047
       0.021
       0.008
      -0.008
      -0.047
      -0.121
      -0.232
      -0.354
      -0.434
      -0.418
      -0.287
      -0.082
       0.115
       0.228
       0.225
       0.140
       0.041
      -0.005
       0.032
       0.144
       0.292
       0.426
       0.508
       0.524
       0.498
       0.476
       0.496
       0.556
       0.615
       0.613
       0.521
       0.353
       0.165
       0.011
      -0.081
      -0.116
      -0.134
      -0.196
      -0.364
      -0.665
      -1.064
      -1.468
      -1.784
      -1.969
      -2.047
      -2.078
      -2.111
      -2.146
      -2.143
      -2.044
      -1.813
      -1.457
      -1.037
      -0.646
      -0.371
      -0.253
      -0.254
      -0.277
      -0.222
      -0.040
       0.244
       0.558
       0.827
       1.012
       1.119
       1.182
       1.236
       1.314
       1.442
       1.630
       1.853
       2.067
       2.231
       2.338
       2.401
       2.421
       2.363
       2.176
       1.835
       1.374
       0.877
       0.440
       0.129
      -0.041
      -0.094
      -0.073
      -0.031
      -0.018
      -0.062
      -0.152
      -0.255
      -0.338
      -0.400
      -0.471
      -0.589
      -0.765
      -0.970
      -1.152
      -1.261
      -1.269
      -1.172
      -0.987
      -0.752
      -0.526
      -0.364
      -0.290
      -0.286
      -0.317
      -0.361
      -0.428
      -0.546
      -0.723
      -0.924
      -1.082
      -1.135
      -1.067
      -0.912
      -0.734
      -0.594
      -0.523
      -0.516
      -0.542
      -0.563
      -0.560
      -0.536
      -0.514
      -0.518
      -0.552
      -0.592
      -0.598
      -0.535
      -0.390
      -0.169
       0.102
       0.386
       0.634
       0.806
       0.898
       0.950
       1.018
       1.135
       1.286
       1.427
       1.518
       1.556
       1.577
       1.632
       1.754
       1.940
       2.148
       2.318
       2.390
       2.332
       2.156
       1.910
       1.653
       1.422
       1.213
       0.996
       0.746
       0.470
       0.208
       0.005
      -0.114
      -0.157
      -0.152
      -0.137
      -0.150
      -0.220
      -0.348
      -0.504
      -0.645
      -0.750
      -0.839
      -0.961
      -1.148
      -1.394
      -1.649
      -1.854
      -1.969
      -1.982
      -1.909
      -1.776
      -1.627
      -1.510
      -1.469
      -1.521
      -1.653
      -1.824
      -1.978
      -2.070
      -2.071
      -1.981
      -1.814
      -1.585
      -1.303
      -0.974
      -0.617
      -0.267
       0.029
       0.235
       0.359
       0.449
       0.565
       0.730
       0.914
       1.052
       1.088
       1.015
       0.873
       0.725
       0.623
       0.586
       0.606
       0.650
       0.679
       0.659
       0.589
       0.509
       0.477
       0.534
       0.662
       0.796
       0.862
       0.827
       0.714
       0.574
       0.438
       0.298
       0.133
      -0.060
      -0.246
      -0.369
      -0.375
      -0.224
       0.099
       0.565
       1.100
       1.601
       1.977
       2.183
       2.225
       2.137
       1.954
       1.698
       1.385
       1.043
       0.711
       0.419
       0.183
      -0.005
      -0.156
      -0.288
      -0.419
      -0.577
      -0.790
      -1.075
      -1.418
      -1.776
      -2.096
      -2.347
      -2.521
      -2.640
      -2.733
      -2.831
      -2.945
      -3.058
      -3.142
      -3.171
      -3.144
      -3.080
      -3.001
      -2.916
      -2.819
      -2.695
      -2.523
      -2.289
      -1.988
      -1.636
      -1.270
      -0.941
      -0.689
      -0.520
      -0.401
      -0.278
      -0.110
       0.116
       0.389
       0.695
       1.036
       1.411
       1.804
       2.178
       2.488
       2.700
       2.803
       2.798
       2.701
       2.565
       2.484
       2.565
       2.867
       3.361
       3.936
       4.452
       4.797
       4.926
       4.865
       4.685
       4.469
       4.279
       4.134
       4.009
       3.852
       3.621
       3.308
       2.954
       2.624
       2.364
       2.169
       1.974
       1.686
       1.233
       0.603
      -0.149
      -0.931
      -1.652
      -2.252
      -2.721
      -3.081
      -3.361
      -3.568
      -3.690
      -3.710
      -3.634
      -3.503
      -3.378
      -3.327
      -3.388
      -3.549
      -3.752
      -3.905
      -3.924
      -3.766
      -3.461
      -3.095
      -2.768
      -2.535
      -2.385
      -2.267
      -2.136
      -1.979
      -1.807
      -1.625
      -1.414
      -1.143
      -0.804
      -0.419
      -0.020
       0.373
       0.755
       1.106
       1.385
       1.551
       1.610
       1.609
       1.606
       1.622
       1.636
       1.604
       1.501
       1.329
       1.119
       0.916
       0.768
       0.708
       0.735
       0.797
       0.821
       0.749
       0.581
       0.371
       0.188
       0.075
       0.032
       0.038
       0.066
       0.101
       0.136
       0.175
       0.239
       0.364
       0.572
       0.857
       1.180
       1.507
       1.825
       2.146
       2.466
       2.748
       2.934
       2.969
       2.836
       2.559
       2.193
       1.805
       1.454
       1.172
       0.954
       0.752
       0.493
       0.117
      -0.394
      -1.010
      -1.677
      -2.341
      -2.968
      -3.544
      -4.066
      -4.540
      -4.969
      -5.346
      -5.653
      -5.857
      -5.937
      -5.905
      -5.809
      -5.693
      -5.563
      -5.382
      -5.109
      -4.733
      -4.294
      -3.845
      -3.423
      -3.023
      -2.614
      -2.163
      -1.657
      -1.104
      -0.516
       0.095
       0.723
       1.365
       2.021
       2.680
       3.311
       3.857
       4.248
       4.429
       4.374
       4.100
       3.654
       3.102
       2.520
       1.998
       1.631
       1.489
       1.583
       1.865
       2.255
       2.675
       3.069
       3.396
       3.623
       3.738
       3.763
       3.759
       3.792
       3.896
       4.053
       4.209
       4.308
       4.317
       4.230
       4.068
       3.866
       3.673
       3.525
       3.418
       3.290
       3.048
       2.620
       2.001
       1.269
       0.541
      -0.084
      -0.564
      -0.917
      -1.186
      -1.418
      -1.648
      -1.897
      -2.164
      -2.437
      -2.702
      -2.973
      -3.284
      -3.662
      -4.086
      -4.467
      -4.677
      -4.613
      -4.264
      -3.717
      -3.123
      -2.628
      -2.311
      -2.159
      -2.087
      -1.991
      -1.812
      -1.559
      -1.296
      -1.092
      -0.982
      -0.950
      -0.943
      -0.894
      -0.757
      -0.515
      -0.176
       0.241
       0.721
       1.268
       1.904
       2.651
       3.494
       4.355
       5.102
       5.595
       5.742
       5.536
       5.044
       4.364
       3.592
       2.794
       2.009
       1.257
       0.546
      -0.119
      -0.724
      -1.248
      -1.685
      -2.075
      -2.512
      -3.098
      -3.878
      -4.795
      -5.718
      -6.516
      -7.123
      -7.536
      -7.776
      -7.841
      -7.717
      -7.407
      -6.954
      -6.427
      -5.889
      -5.382
      -4.923
      -4.516
      -4.162
      -3.850
      -3.548
      -3.202
      -2.756
      -2.164
      -1.413
      -0.525
       0.439
       1.400
       2.292
       3.085
       3.778
       4.368
       4.820
       5.071
       5.072
       4.825
       4.406
       3.946
       3.594
       3.463
       3.603
       3.983
       4.506
       5.033
       5.432
       5.616
       5.557
       5.271
       4.783
       4.122
       3.323
       2.447
       1.583
       0.822
       0.235
      -0.149
      -0.352
      -0.437
      -0.487
      -0.567
      -0.694
      -0.823
      -0.885
      -0.838
      -0.706
      -0.574
      -0.547
      -0.687
      -0.972
      -1.300
      -1.530
      -1.548
      -1.297
      -0.784
      -0.061
       0.795
       1.691
       2.534
       3.232
       3.715
       3.947
       3.944
       3.764
       3.483
       3.164
       2.847
       2.548
       2.269
       1.995
       1.694
       1.314
       0.803
       0.146
      -0.610
      -1.360
      -1.975
      -2.363
      -2.497
      -2.436
      -2.290
      -2.178
      -2.176
      -2.294
      -2.484
      -2.668
      -2.777
      -2.773
      -2.664
      -2.481
      -2.249
      -1.961
      -1.580
      -1.074
      -0.449
       0.232
       0.864
       1.330
       1.550
       1.501
       1.229
       0.825
       0.387
      -0.022
      -0.397
      -0.766
      -1.150
      -1.542
      -1.922
      -2.280
      -2.631
      -3.000
      -3.394
      -3.788
      -4.130
      -4.373
      -4.493
      -4.498
      -4.409
      -4.251
      -4.048
      -3.823
      -3.574
      -3.267
      -2.833
      -2.205
      -1.359
      -0.328
       0.798
       1.907
       2.899
       3.710
       4.311
       4.701
       4.904
       4.964
       4.939
       4.887
       4.854
       4.854
       4.864
       4.826
       4.664
       4.305
       3.705
       2.867
       1.854
       0.780
      -0.221
      -1.037
      -1.608
      -1.941
      -2.095
      -2.160
      -2.215
      -2.297
      -2.399
      -2.494
      -2.575
      -2.669
      -2.820
      -3.056
      -3.365
      -3.700
      -3.997
      -4.201
      -4.285
      -4.246
      -4.093
      -3.831
      -3.455
      -2.969
      -2.399
      -1.797
      -1.219
      -0.701
      -0.250
       0.139
       0.474
       0.775
       1.080
       1.451
       1.943
       2.574
       3.304
       4.053
       4.747
       5.352
       5.879
       6.353
       6.779
       7.124
       7.318
       7.268
       6.883
       6.103
       4.932
       3.442
       1.773
       0.095
      -1.430
      -2.693
      -3.650
      -4.310
      -4.708
      -4.895
      -4.940
      -4.930
      -4.949
      -5.060
      -5.276
      -5.560
      -5.832
      -5.993
      -5.953
      -5.642
      -5.023
      -4.093
      -2.892
      -1.488
       0.033
       1.575
       3.048
       4.375
       5.500
       6.395
       7.050
       7.470
       7.673
       7.679
       7.511
       7.202
       6.813
       6.430
       6.138
       5.978
       5.933
       5.931
       5.873
       5.665
       5.249
       4.627
       3.852
       3.009
       2.170
       1.392
       0.716
       0.188
      -0.150
      -0.283
      -0.247
      -0.124
      -0.003
       0.056
       0.025
      -0.113
      -0.394
      -0.867
      -1.556
      -2.432
      -3.406
      -4.376
      -5.259
      -6.002
      -6.570
      -6.936
      -7.104
      -7.123
      -7.073
      -7.023
      -6.996
      -6.974
      -6.934
      -6.877
      -6.822
      -6.780
      -6.736
      -6.654
      -6.507
      -6.283
      -5.965
      -5.508
      -4.854
      -3.965
      -2.873
      -1.699
      -0.609
       0.251
       0.812
       1.088
       1.135
       1.009
       0.755
       0.418
       0.063
      -0.236
      -0.422
      -0.477
      -0.428
      -0.324
      -0.198
      -0.052
       0.126
       0.331
       0.518
       0.627
       0.620
       0.516
       0.381
       0.290
       0.298
       0.428
       0.680
       1.033
       1.435
       1.811
       2.089
       2.234
       2.257
       2.212
       2.165
       2.173
       2.270
       2.456
       2.708
       3.004
       3.334
       3.695
       4.082
       4.465
       4.799
       5.036
       5.139
       5.088
       4.871
       4.484
       3.940
       3.273
       2.540
       1.811
       1.161
       0.653
       0.331
       0.209
       0.295
       0.595
       1.111
       1.806
       2.596
       3.359
       3.984
       4.399
       4.580
       4.540
       4.333
       4.046
       3.783
       3.629
       3.618
       3.719
       3.866
       3.996
       4.076
       4.105
       4.093
       4.034
       3.908
       3.691
       3.364
       2.912
       2.327
       1.610
       0.779
      -0.138
      -1.108
      -2.104
      -3.092
      -4.021
      -4.837
      -5.510
      -6.042
      -6.468
      -6.827
      -7.162
      -7.531
      -8.020
      -8.708
      -9.622
     -10.696
     -11.786
     -12.709
     -13.289
     -13.398
     -12.980
     -12.059
     -10.729
      -9.112
      -7.316
      -5.426
      -3.528
      -1.740
      -0.199
       0.988
       1.802
       2.317
       2.655
       2.916
       3.149
       3.374
       3.628
       3.959
       4.389
       4.862
       5.262
       5.488
       5.512
       5.378
       5.140
       4.801
       4.295
       3.533
       2.482
       1.206
      -0.133
      -1.346
      -2.290
      -2.923
      -3.292
      -3.482
      -3.559
      -3.555
      -3.478
      -3.345
      -3.189
      -3.058
      -2.984
      -2.954
      -2.906
      -2.751
      -2.421
      -1.891
      -1.188
      -0.356
       0.566
       1.553
       2.578
       3.595
       4.524
       5.269
       5.756
       5.957
       5.911
       5.699
       5.416
       5.142
       4.924
       4.764
       4.611
       4.363
       3.913
       3.197
       2.249
       1.191
       0.182
      -0.653
      -1.261
      -1.665
      -1.929
      -2.108
      -2.221
      -2.249
      -2.156
      -1.928
      -1.591
      -1.211
      -0.876
      -0.664
      -0.612
      -0.681
      -0.764
      -0.737
      -0.519
      -0.113
       0.406
       0.952
       1.483
       2.016
       2.595
       3.251
       3.977
       4.726
       5.427
       5.994
       6.345
       6.422
       6.222
       5.799
       5.247
       4.656
       4.075
       3.505
       2.916
       2.274
       1.564
       0.794
      -0.005
      -0.792
      -1.535
      -2.210
      -2.800
      -3.292
      -3.683
      -3.996
      -4.277
      -4.568
      -4.888
      -5.227
      -5.565
      -5.888
      -6.180
      -6.418
      -6.569
      -6.605
      -6.505
      -6.252
      -5.829
      -5.221
      -4.437
      -3.528
      -2.580
      -1.690
      -0.922
      -0.284
       0.264
       0.762
       1.198
       1.501
       1.579
       1.398
       1.031
       0.630
       0.360
       0.315
       0.496
       0.820
       1.166
       1.417
       1.495
       1.377
       1.101
       0.753
       0.433
       0.221
       0.140
       0.162
       0.225
       0.264
       0.228
       0.090
      -0.156
      -0.500
      -0.918
      -1.373
      -1.815
      -2.189
      -2.439
      -2.531
      -2.457
      -2.230
      -1.873
      -1.410
      -0.877
      -0.329
       0.160
       0.530
       0.770
       0.913
       1.004
       1.073
       1.122
       1.157
       1.206
       1.320
       1.556
       1.947
       2.479
       3.088
       3.668
       4.105
       4.315
       4.284
       4.073
       3.786
       3.504
       3.242
       2.944
       2.534
       1.981
       1.327
       0.667
       0.094
      -0.338
      -0.623
      -0.802
      -0.943
      -1.121
      -1.376
      -1.683
      -1.955
      -2.102
      -2.104
      -2.032
      -2.019
      -2.180
      -2.551
      -3.071
      -3.610
      -4.027
      -4.214
      -4.120
      -3.744
      -3.124
      -2.312
      -1.356
      -0.295
       0.827
       1.927
       2.884
       3.562
       3.861
       3.769
       3.364
       2.772
       2.116
       1.482
       0.914
       0.430
       0.033
      -0.264
      -0.425
      -0.389
      -0.118
       0.367
       0.963
       1.522
       1.916
       2.088
       2.063
       1.919
       1.745
       1.609
       1.544
       1.542
       1.563
       1.547
       1.444
       1.238
       0.958
       0.651
       0.365
       0.115
      -0.105
      -0.305
      -0.487
      -0.644
      -0.776
      -0.899
      -1.041
      -1.236
      -1.512
      -1.880
      -2.318
      -2.767
      -3.154
      -3.420
      -3.556
      -3.594
      -3.579
      -3.533
      -3.440
      -3.270
      -3.009
      -2.687
      -2.370
      -2.134
      -2.023
      -2.022
      -2.050
      -1.994
      -1.768
      -1.356
      -0.815
      -0.238
       0.296
       0.753
       1.136
       1.464
       1.750
       2.002
       2.234
       2.452
       2.639
       2.752
       2.742
       2.599
       2.364
       2.113
       1.918
       1.810
       1.772
       1.764
       1.748
       1.700
       1.617
       1.504
       1.378
       1.255
       1.144
       1.047
       0.959
       0.876
       0.791
       0.683
       0.510
       0.219
      -0.227
      -0.830
      -1.540
      -2.274
      -2.944
      -3.478
      -3.839
      -4.024
      -4.067
      -4.019
      -3.929
      -3.814
      -3.661
      -3.443
      -3.141
      -2.741
      -2.237
      -1.635
      -0.948
      -0.204
       0.573
       1.360
       2.137
       2.877
       3.536
       4.059
       4.389
       4.493
       4.379
       4.090
       3.683
       3.199
       2.645
       1.998
       1.237
       0.384
      -0.481
      -1.240
      -1.780
      -2.048
      -2.066
      -1.920
      -1.713
      -1.507
      -1.307
      -1.085
      -0.833
      -0.576
      -0.351
      -0.171
      -0.010
       0.162
       0.348
       0.497
       0.541
       0.430
       0.172
      -0.182
      -0.563
      -0.903
      -1.145
      -1.234
      -1.127
      -0.804
      -0.275
       0.429
       1.256
       2.126
       2.931
       3.551
       3.888
       3.905
       3.641
       3.185
       2.647
       2.126
       1.695
       1.392
       1.220
       1.149
       1.131
       1.122
       1.085
       0.991
       0.812
       0.528
       0.141
      -0.318
      -0.786
      -1.196
      -1.502
      -1.696
      -1.806
      -1.879
      -1.977
      -2.155
      -2.443
      -2.819
      -3.207
      -3.492
      -3.572
      -3.395
      -2.979
      -2.395
      -1.742
      -1.125
      -0.639
      -0.340
      -0.215
      -0.197
      -0.203
