Origin Time       3/9/2009 19:51:08	  UTC
Lat.              24.3 N	
Long.             94.6 E	
Depth (Km)        100.0
Magnitude         5.9
 Region           MYANMAR-India-Manipuir-Border                                    
 Above details taken from IMD 
    
Station Code      BON
Station Lat.       26.473  N
Station Long.      90.561  E
Station Height(m)   75.0
Site Class        C   Vs30 between 200 m/sec to 375 m/sec *  
Record Time       04.09.2009 01:22:59.319 UTC
Sampling Rate     200. Hz
 Record Duration   65.020 Sec.
 Direction         N-S (N positive)
Max. Acceleration     -2.740 cm/sec**2
     
  * For reference see Site Classification link of website 
     
 Base Line Corrected and Low Pass Filtered (Cut Off at 35 Hz) Time History
 Acceleration data in cm/sec**2
    
[...]
      -0.182
      -0.203
      -0.208
      -0.199
      -0.177
      -0.139
      -0.081
      -0.009
       0.060
       0.102
       0.105
       0.070
       0.014
      -0.046
      -0.094
      -0.126
      -0.144
      -0.154
      -0.157
      -0.152
      -0.138
      -0.116
      -0.094
      -0.077
      -0.065
      -0.052
      -0.034
      -0.012
       0.008
       0.021
       0.025
       0.024
       0.021
       0.012
      -0.004
      -0.024
      -0.036
      -0.029
       0.001
       0.044
       0.088
       0.126
       0.163
       0.212
       0.276
       0.350
       0.419
       0.470
       0.503
       0.522
       0.531
       0.527
       0.500
       0.443
       0.356
       0.252
       0.153
       0.079
       0.046
       0.052
       0.087
       0.132
       0.175
       0.212
       0.245
       0.274
       0.294
       0.294
       0.263
       0.201
       0.120
       0.041
      -0.019
      -0.060
      -0.090
      -0.122
      -0.157
      -0.186
      -0.201
      -0.202
      -0.196
      -0.201
      -0.221
      -0.250
      -0.266
      -0.251
      -0.201
      -0.136
      -0.087
      -0.079
      -0.116
      -0.178
      -0.236
      -0.272
      -0.290
      -0.301
      -0.310
      -0.309
      -0.283
      -0.226
      -0.151
      -0.080
      -0.035
      -0.027
      -0.057
      -0.114
      -0.183
      -0.240
      -0.266
      -0.249
      -0.189
      -0.098
       0.007
       0.109
       0.195
       0.255
       0.286
       0.296
       0.297
       0.298
       0.298
       0.288
       0.260
       0.219
       0.183
       0.170
       0.188
       0.225
       0.255
       0.258
       0.232
       0.194
       0.166
       0.156
       0.157
       0.157
       0.150
       0.136
       0.115
       0.079
       0.021
      -0.063
      -0.160
      -0.251
      -0.318
      -0.352
      -0.355
      -0.330
      -0.285
      -0.229
      -0.172
      -0.122
      -0.079
      -0.042
      -0.008
       0.019
       0.030
       0.017
      -0.017
      -0.062
      -0.104
      -0.133
      -0.151
      -0.168
      -0.193
      -0.227
      -0.262
      -0.286
      -0.291
      -0.272
      -0.232
      -0.180
      -0.128
      -0.085
      -0.056
      -0.039
      -0.033
      -0.045
      -0.079
      -0.133
      -0.190
      -0.227
      -0.226
      -0.186
      -0.122
      -0.048
       0.026
       0.103
       0.186
       0.276
       0.372
       0.470
       0.567
       0.653
       0.719
       0.758
       0.765
       0.739
       0.682
       0.601
       0.505
       0.411
       0.337
       0.294
       0.282
       0.287
       0.289
       0.271
       0.228
       0.167
       0.103
       0.044
      -0.009
      -0.068
      -0.137
      -0.215
      -0.293
      -0.364
      -0.430
      -0.495
      -0.555
      -0.599
      -0.610
      -0.579
      -0.512
      -0.431
      -0.360
      -0.319
      -0.319
      -0.363
      -0.441
      -0.537
      -0.624
      -0.675
      -0.672
      -0.619
      -0.536
      -0.452
      -0.394
      -0.371
      -0.372
      -0.372
      -0.345
      -0.276
      -0.167
      -0.037
       0.082
       0.165
       0.199
       0.188
       0.158
       0.140
       0.162
       0.235
       0.348
       0.476
       0.591
       0.677
       0.732
       0.764
       0.785
       0.801
       0.811
       0.809
       0.789
       0.751
       0.704
       0.663
       0.641
       0.640
       0.650
       0.647
       0.609
       0.527
       0.413
       0.289
       0.181
       0.100
       0.043
      -0.007
      -0.064
      -0.137
      -0.228
      -0.340
      -0.473
      -0.620
      -0.761
      -0.870
      -0.936
      -0.964
      -0.973
      -0.979
      -0.991
      -1.007
      -1.022
      -1.032
      -1.028
      -1.004
      -0.953
      -0.867
      -0.742
      -0.586
      -0.420
      -0.273
      -0.172
      -0.119
      -0.103
      -0.108
      -0.124
      -0.151
      -0.185
      -0.216
      -0.233
      -0.231
      -0.219
      -0.205
      -0.183
      -0.134
      -0.036
       0.120
       0.316
       0.518
       0.686
       0.793
       0.831
       0.812
       0.755
       0.684
       0.615
       0.555
       0.499
       0.436
       0.363
       0.287
       0.228
       0.202
       0.211
       0.246
       0.289
       0.333
       0.382
       0.439
       0.501
       0.551
       0.566
       0.531
       0.446
       0.326
       0.197
       0.088
       0.021
       0.003
       0.024
       0.062
       0.099
       0.120
       0.119
       0.098
       0.070
       0.050
       0.048
       0.058
       0.057
       0.027
      -0.036
      -0.119
      -0.202
      -0.274
      -0.332
      -0.378
      -0.407
      -0.419
      -0.418
      -0.419
      -0.430
      -0.443
      -0.435
      -0.388
      -0.303
      -0.204
      -0.118
      -0.059
      -0.023
       0.005
       0.031
       0.049
       0.047
       0.027
       0.001
      -0.009
       0.012
       0.065
       0.143
       0.233
       0.316
       0.382
       0.428
       0.464
       0.497
       0.528
       0.548
       0.546
       0.520
       0.482
       0.443
       0.410
       0.380
       0.349
       0.315
       0.280
       0.241
       0.189
       0.115
       0.027
      -0.050
      -0.089
      -0.078
      -0.029
       0.028
       0.059
       0.044
      -0.018
      -0.110
      -0.215
      -0.323
      -0.439
      -0.564
      -0.685
      -0.780
      -0.830
      -0.833
      -0.805
      -0.768
      -0.728
      -0.683
      -0.634
      -0.595
      -0.582
      -0.596
      -0.614
      -0.609
      -0.568
      -0.504
      -0.440
      -0.397
      -0.375
      -0.370
      -0.382
      -0.415
      -0.468
      -0.526
      -0.561
      -0.551
      -0.490
      -0.387
      -0.259
      -0.124
       0.007
       0.130
       0.244
       0.344
       0.428
       0.490
       0.528
       0.544
       0.543
       0.535
       0.528
       0.531
       0.548
       0.579
       0.623
       0.677
       0.736
       0.786
       0.814
       0.809
       0.779
       0.744
       0.726
       0.733
       0.748
       0.733
       0.651
       0.495
       0.295
       0.106
      -0.019
      -0.055
      -0.016
       0.062
       0.132
       0.159
       0.131
       0.058
      -0.043
      -0.159
      -0.282
      -0.415
      -0.555
      -0.691
      -0.802
      -0.869
      -0.881
      -0.842
      -0.762
      -0.655
      -0.536
      -0.427
      -0.355
      -0.335
      -0.366
      -0.420
      -0.457
      -0.446
      -0.377
      -0.259
      -0.107
       0.064
       0.243
       0.416
       0.558
       0.646
       0.676
       0.662
       0.637
       0.627
       0.641
       0.670
       0.695
       0.704
       0.699
       0.690
       0.686
       0.692
       0.701
       0.706
       0.704
       0.697
       0.694
       0.707
       0.741
       0.791
       0.839
       0.863
       0.846
       0.780
       0.676
       0.548
       0.408
       0.260
       0.100
      -0.063
      -0.210
      -0.322
      -0.393
      -0.440
      -0.480
      -0.514
      -0.523
      -0.489
      -0.421
      -0.359
      -0.352
      -0.423
      -0.561
      -0.730
      -0.893
      -1.028
      -1.132
      -1.210
      -1.267
      -1.305
      -1.328
      -1.341
      -1.351
      -1.356
      -1.343
      -1.295
      -1.206
      -1.085
      -0.954
      -0.832
      -0.725
      -0.627
      -0.540
      -0.471
      -0.439
      -0.451
      -0.504
      -0.574
      -0.631
      -0.644
      -0.596
      -0.488
      -0.343
      -0.189
      -0.045
       0.090
       0.224
       0.355
       0.471
       0.543
       0.545
       0.463
       0.311
       0.130
      -0.023
      -0.107
      -0.116
      -0.072
      -0.003
       0.077
       0.170
       0.279
       0.396
       0.512
       0.626
       0.748
       0.886
       1.030
       1.155
       1.234
       1.254
       1.224
       1.160
       1.082
       0.997
       0.902
       0.793
       0.670
       0.547
       0.445
       0.374
       0.334
       0.317
       0.318
       0.347
       0.416
       0.525
       0.655
       0.778
       0.871
       0.937
       0.994
       1.061
       1.132
       1.180
       1.171
       1.096
       0.972
       0.834
       0.717
       0.642
       0.615
       0.633
       0.681
       0.731
       0.753
       0.727
       0.648
       0.527
       0.380
       0.222
       0.070
      -0.055
      -0.134
      -0.165
      -0.168
      -0.173
      -0.201
      -0.247
      -0.288
      -0.303
      -0.287
      -0.264
      -0.262
      -0.301
      -0.378
      -0.473
      -0.571
      -0.671
      -0.784
      -0.921
      -1.077
      -1.233
      -1.369
      -1.468
      -1.524
      -1.524
      -1.452
      -1.296
      -1.062
      -0.790
      -0.543
      -0.380
      -0.326
      -0.353
      -0.402
      -0.420
      -0.389
      -0.327
      -0.266
      -0.220
      -0.191
      -0.180
      -0.200
      -0.265
      -0.374
      -0.501
      -0.609
      -0.669
      -0.674
      -0.632
      -0.562
      -0.491
      -0.451
      -0.469
      -0.558
      -0.698
      -0.845
      -0.946
      -0.966
      -0.900
      -0.775
      -0.624
      -0.475
      -0.343
      -0.235
      -0.150
      -0.077
       0.008
       0.132
       0.310
       0.527
       0.741
       0.900
       0.964
       0.916
       0.757
       0.506
       0.190
      -0.150
      -0.469
      -0.726
      -0.896
      -0.979
      -0.999
      -0.991
      -0.984
      -0.978
      -0.953
      -0.886
      -0.770
      -0.623
      -0.471
      -0.330
      -0.198
      -0.069
       0.049
       0.133
       0.162
       0.136
       0.077
       0.018
      -0.019
      -0.032
      -0.028
      -0.018
      -0.006
       0.008
       0.024
       0.052
       0.102
       0.186
       0.310
       0.467
       0.646
       0.830
       0.995
       1.116
       1.168
       1.139
       1.038
       0.889
       0.728
       0.585
       0.477
       0.419
       0.419
       0.477
       0.581
       0.703
       0.814
       0.896
       0.948
       0.981
       1.011
       1.051
       1.107
       1.180
       1.258
       1.314
       1.314
       1.232
       1.060
       0.820
       0.553
       0.306
       0.115
       0.001
      -0.030
       0.015
       0.113
       0.225
       0.311
       0.352
       0.358
       0.363
       0.400
       0.486
       0.618
       0.772
       0.919
       1.026
       1.063
       1.010
       0.870
       0.664
       0.424
       0.177
      -0.051
      -0.235
      -0.341
      -0.337
      -0.210
       0.014
       0.281
       0.522
       0.690
       0.767
       0.772
       0.740
       0.696
       0.644
       0.557
       0.399
       0.143
      -0.216
      -0.656
      -1.136
      -1.610
      -2.034
      -2.374
      -2.600
      -2.691
      -2.634
      -2.428
      -2.085
      -1.629
      -1.097
      -0.538
      -0.009
       0.430
       0.726
       0.851
       0.809
       0.633
       0.381
       0.110
      -0.131
      -0.318
      -0.447
      -0.521
      -0.541
      -0.505
      -0.420
      -0.309
      -0.205
      -0.134
      -0.099
      -0.083
      -0.072
      -0.077
      -0.130
      -0.262
      -0.466
      -0.703
      -0.916
      -1.066
      -1.132
      -1.101
      -0.957
      -0.686
      -0.303
       0.140
       0.569
       0.917
       1.145
       1.244
       1.219
       1.083
       0.858
       0.581
       0.291
       0.020
      -0.218
      -0.425
      -0.609
      -0.771
      -0.907
      -1.009
      -1.074
      -1.111
      -1.137
      -1.167
      -1.211
      -1.268
      -1.326
      -1.369
      -1.386
      -1.377
      -1.359
      -1.353
      -1.363
      -1.369
      -1.335
      -1.232
      -1.047
      -0.784
      -0.453
      -0.063
       0.369
       0.813
       1.229
       1.575
       1.813
       1.923
       1.897
       1.755
       1.535
       1.286
       1.043
       0.814
       0.581
       0.331
       0.069
      -0.182
      -0.402
      -0.583
      -0.724
      -0.820
      -0.855
      -0.819
      -0.710
      -0.549
      -0.363
      -0.179
      -0.017
       0.107
       0.181
       0.202
       0.184
       0.154
       0.142
       0.165
       0.218
       0.282
       0.335
       0.366
       0.377
       0.371
       0.351
       0.323
       0.302
       0.298
       0.312
       0.326
       0.316
       0.268
       0.184
       0.086
       0.000
      -0.050
      -0.047
       0.026
       0.176
       0.400
       0.682
       0.993
       1.301
       1.578
       1.812
       1.999
       2.135
       2.214
       2.227
       2.174
       2.068
       1.935
       1.807
       1.709
       1.653
       1.635
       1.649
       1.683
       1.722
       1.745
       1.726
       1.655
       1.543
       1.423
       1.320
       1.241
       1.163
       1.059
       0.913
       0.731
       0.532
       0.325
       0.106
      -0.143
      -0.433
      -0.755
      -1.087
      -1.399
      -1.664
      -1.872
      -2.039
      -2.194
      -2.361
      -2.537
      -2.681
      -2.740
      -2.689
      -2.551
      -2.390
      -2.266
      -2.205
      -2.187
      -2.159
      -2.071
      -1.900
      -1.666
      -1.414
      -1.195
      -1.041
      -0.955
      -0.919
      -0.912
      -0.916
      -0.923
      -0.919
      -0.890
      -0.821
      -0.712
      -0.581
      -0.454
      -0.353
      -0.284
      -0.243
      -0.220
      -0.204
      -0.183
      -0.137
      -0.047
       0.090
       0.256
       0.412
       0.519
       0.555
       0.533
       0.491
       0.478
       0.533
       0.660
       0.833
       1.010
       1.147
       1.211
       1.183
       1.062
       0.867
       0.632
       0.393
       0.172
      -0.015
      -0.167
      -0.288
      -0.398
      -0.529
      -0.706
      -0.931
      -1.173
      -1.379
      -1.492
      -1.476
      -1.325
      -1.066
      -0.743
      -0.399
      -0.046
       0.321
       0.707
       1.090
       1.427
       1.677
       1.833
       1.920
       1.970
       2.000
       1.994
       1.929
       1.792
       1.591
       1.344
       1.065
       0.765
       0.457
       0.176
      -0.035
      -0.146
      -0.164
      -0.132
      -0.100
      -0.094
      -0.097
      -0.072
       0.005
       0.126
       0.255
       0.357
       0.415
       0.428
       0.408
       0.373
       0.351
       0.371
       0.437
       0.513
       0.539
       0.471
       0.313
       0.111
      -0.081
      -0.238
      -0.371
      -0.505
      -0.645
      -0.774
      -0.874
      -0.949
      -1.026
      -1.130
      -1.256
      -1.359
      -1.389
      -1.322
      -1.166
      -0.942
      -0.661
      -0.329
       0.027
       0.357
       0.596
       0.715
       0.734
       0.712
       0.715
       0.780
       0.916
       1.115
       1.360
       1.626
       1.877
       2.076
       2.193
       2.203
       2.089
       1.849
       1.493
       1.056
       0.588
       0.129
      -0.302
      -0.711
      -1.105
      -1.476
      -1.794
      -2.022
      -2.136
      -2.138
      -2.046
      -1.887
      -1.689
      -1.491
      -1.332
      -1.243
      -1.225
      -1.246
      -1.254
      -1.208
      -1.102
      -0.970
      -0.860
      -0.809
      -0.817
      -0.851
      -0.867
      -0.845
      -0.808
      -0.809
      -0.888
      -1.037
      -1.198
      -1.293
      -1.268
      -1.122
      -0.892
      -0.619
      -0.327
      -0.025
       0.275
       0.552
       0.787
       0.982
       1.164
       1.364
       1.595
       1.837
       2.052
       2.204
       2.279
       2.284
       2.242
       2.172
       2.090
       2.011
       1.945
       1.898
       1.867
       1.842
       1.808
       1.756
       1.674
       1.545
       1.354
       1.089
       0.757
       0.382
       0.002
      -0.351
      -0.655
      -0.900
      -1.083
      -1.210
      -1.302
      -1.395
      -1.519
      -1.682
      -1.862
      -2.015
      -2.103
      -2.102
      -2.009
      -1.837
      -1.611
      -1.365
      -1.127
      -0.910
      -0.709
      -0.511
      -0.313
      -0.126
       0.027
       0.128
       0.182
       0.214
       0.262
       0.360
       0.523
       0.731
       0.937
       1.078
       1.104
       0.998
       0.782
       0.500
       0.203
      -0.063
      -0.263
      -0.364
      -0.353
      -0.238
      -0.047
       0.186
       0.430
       0.666
       0.874
       1.030
       1.101
       1.054
       0.877
       0.588
       0.228
      -0.159
      -0.552
      -0.946
      -1.329
      -1.673
      -1.926
      -2.044
      -2.012
      -1.848
      -1.597
      -1.312
      -1.037
      -0.796
      -0.599
      -0.439
      -0.297
      -0.142
       0.050
       0.277
       0.508
       0.689
       0.782
       0.781
       0.711
       0.605
       0.479
       0.332
       0.167
       0.007
      -0.108
      -0.142
      -0.078
       0.085
       0.334
       0.646
       0.980
       1.276
       1.468
       1.516
       1.422
       1.226
       0.988
       0.760
       0.573
       0.437
       0.337
       0.252
       0.162
       0.061
      -0.034
      -0.091
      -0.083
      -0.002
       0.125
       0.247
       0.316
       0.304
       0.214
       0.072
      -0.090
      -0.245
      -0.380
      -0.499
      -0.617
      -0.749
      -0.901
      -1.062
      -1.216
      -1.344
      -1.435
      -1.475
      -1.453
      -1.351
      -1.158
      -0.878
      -0.539
      -0.187
       0.134
       0.396
       0.596
       0.749
       0.881
       1.015
       1.168
       1.348
       1.552
       1.772
       1.997
       2.214
       2.406
       2.543
       2.587
       2.500
       2.269
       1.911
       1.469
       0.996
       0.541
       0.141
      -0.181
      -0.418
      -0.583
      -0.708
      -0.825
      -0.960
      -1.115
      -1.282
      -1.446
      -1.594
      -1.715
      -1.796
      -1.823
      -1.789
      -1.697
      -1.564
      -1.421
      -1.300
      -1.230
      -1.220
      -1.261
      -1.330
      -1.401
      -1.459
      -1.498
      -1.517
      -1.514
      -1.479
      -1.399
      -1.260
      -1.061
      -0.810
      -0.528
      -0.248
      -0.013
       0.140
       0.192
       0.157
       0.082
       0.019
       0.008
       0.059
       0.159
       0.279
       0.397
       0.501
       0.584
       0.648
       0.694
       0.727
       0.758
       0.792
       0.834
       0.877
       0.910
       0.927
       0.941
       0.987
       1.098
       1.281
       1.500
       1.695
       1.804
       1.792
       1.658
       1.427
       1.144
       0.860
       0.613
       0.416
       0.259
       0.120
      -0.011
