Origin Time       31/12/2009 09:57:00
Lat.              27.3°N	
Long.             91.4°E	
Depth (Km)          7.0
Magnitude         5.5
 Region           BHUTAN                                                           
 Above details taken from IMD 
   
Station Code      BON
Station Lat.       26.473
Station Long.      90.561
Station Height(m)   75.0
Site Class        C   Vs30 between 200 m/sec to 375 m/sec *  
Record Time       31.12.2009 15:28:13.374
Sampling Rate     200. Hz
 Record Duration   78.515 Sec.
 Direction         Vert. (Up positive)
Max. Acceleration      8.197 cm/sec**2
     
  * For reference see Site Classification link of website 
     
 Base Line Corrected and Low Pass Filtered (Cut Off at 35 Hz) Time History
 Acceleration data in cm/sec**2
    
[...]
       0.237
       0.326
       0.303
       0.259
       0.248
       0.231
       0.118
      -0.152
      -0.549
      -0.955
      -1.228
      -1.283
      -1.112
      -0.753
      -0.270
       0.232
       0.625
       0.814
       0.810
       0.704
       0.581
       0.456
       0.280
      -0.002
      -0.385
      -0.777
      -1.039
      -1.064
      -0.835
      -0.414
       0.106
       0.610
       0.974
       1.111
       1.020
       0.793
       0.537
       0.307
       0.097
      -0.120
      -0.329
      -0.463
      -0.452
      -0.294
      -0.062
       0.157
       0.320
       0.412
       0.404
       0.265
       0.020
      -0.227
      -0.363
      -0.345
      -0.227
      -0.108
      -0.053
      -0.047
      -0.011
       0.116
       0.317
       0.516
       0.643
       0.670
       0.593
       0.436
       0.253
       0.121
       0.091
       0.152
       0.226
       0.209
       0.027
      -0.318
      -0.734
      -1.088
      -1.277
      -1.267
      -1.085
      -0.807
      -0.542
      -0.384
      -0.346
      -0.344
      -0.266
      -0.066
       0.198
       0.403
       0.453
       0.343
       0.162
       0.022
      -0.027
      -0.024
      -0.039
      -0.118
      -0.272
      -0.487
      -0.714
      -0.873
      -0.877
      -0.682
      -0.314
       0.146
       0.597
       0.965
       1.236
       1.435
       1.584
       1.686
       1.736
       1.724
       1.607
       1.323
       0.855
       0.292
      -0.208
      -0.529
      -0.669
      -0.722
      -0.786
      -0.879
      -0.933
      -0.871
      -0.682
      -0.431
      -0.197
      -0.020
       0.069
       0.027
      -0.180
      -0.519
      -0.878
      -1.130
      -1.206
      -1.125
      -0.970
      -0.816
      -0.665
      -0.443
      -0.083
       0.401
       0.924
       1.380
       1.683
       1.758
       1.561
       1.114
       0.520
      -0.079
      -0.570
      -0.911
      -1.117
      -1.221
      -1.224
      -1.094
      -0.804
      -0.373
       0.143
       0.675
       1.151
       1.471
       1.547
       1.360
       0.996
       0.592
       0.257
       0.029
      -0.117
      -0.240
      -0.382
      -0.546
      -0.694
      -0.763
      -0.678
      -0.396
       0.026
       0.420
       0.591
       0.467
       0.161
      -0.115
      -0.220
      -0.167
      -0.076
      -0.035
      -0.024
       0.038
       0.186
       0.359
       0.468
       0.487
       0.449
       0.348
       0.113
      -0.308
      -0.843
      -1.315
      -1.572
      -1.604
      -1.530
      -1.484
      -1.496
      -1.475
      -1.308
      -0.969
      -0.530
      -0.084
       0.308
       0.597
       0.729
       0.676
       0.494
       0.306
       0.224
       0.261
       0.338
       0.350
       0.266
       0.166
       0.173
       0.342
       0.618
       0.892
       1.072
       1.105
       0.974
       0.714
       0.427
       0.250
       0.279
       0.520
       0.893
       1.266
       1.513
       1.563
       1.431
       1.185
       0.904
       0.638
       0.390
       0.112
      -0.258
      -0.719
      -1.155
      -1.382
      -1.267
      -0.834
      -0.252
       0.261
       0.559
       0.632
       0.570
       0.468
       0.363
       0.241
       0.082
      -0.127
      -0.386
      -0.668
      -0.899
      -0.993
      -0.919
      -0.735
      -0.553
      -0.462
      -0.482
      -0.562
      -0.631
      -0.648
      -0.612
      -0.527
      -0.386
      -0.203
      -0.056
      -0.046
      -0.202
      -0.423
      -0.542
      -0.457
      -0.204
       0.072
       0.238
       0.273
       0.260
       0.299
       0.415
       0.560
       0.674
       0.720
       0.673
       0.529
       0.340
       0.211
       0.242
       0.443
       0.726
       0.960
       1.069
       1.078
       1.086
       1.171
       1.315
       1.419
       1.385
       1.166
       0.763
       0.211
      -0.407
      -0.958
      -1.325
      -1.477
      -1.489
      -1.482
      -1.538
      -1.641
      -1.692
      -1.586
      -1.287
      -0.843
      -0.338
       0.139
       0.485
       0.586
       0.387
      -0.045
      -0.537
      -0.924
      -1.136
      -1.202
      -1.176
      -1.065
      -0.818
      -0.391
       0.186
       0.795
       1.304
       1.615
       1.667
       1.410
       0.842
       0.066
      -0.710
      -1.265
      -1.481
      -1.389
      -1.125
      -0.824
      -0.528
      -0.176
       0.293
       0.854
       1.379
       1.700
       1.678
       1.257
       0.498
      -0.416
      -1.252
      -1.831
      -2.103
      -2.139
      -2.070
      -1.998
      -1.927
      -1.769
      -1.419
      -0.861
      -0.191
       0.435
       0.871
       1.022
       0.872
       0.504
       0.082
      -0.204
      -0.231
       0.008
       0.398
       0.771
       1.008
       1.111
       1.178
       1.309
       1.524
       1.759
       1.912
       1.895
       1.680
       1.328
       0.970
       0.745
       0.721
       0.884
       1.164
       1.484
       1.789
       2.050
       2.244
       2.336
       2.302
       2.155
       1.926
       1.610
       1.149
       0.508
      -0.240
      -0.923
      -1.378
      -1.561
      -1.560
      -1.499
      -1.423
      -1.285
      -1.019
      -0.640
      -0.244
       0.061
       0.211
       0.166
      -0.108
      -0.619
      -1.282
      -1.930
      -2.386
      -2.563
      -2.504
      -2.341
      -2.201
      -2.120
      -2.023
      -1.791
      -1.359
      -0.747
      -0.060
       0.558
       0.974
       1.132
       1.083
       0.951
       0.849
       0.819
       0.837
       0.847
       0.809
       0.719
       0.606
       0.503
       0.426
       0.376
       0.342
       0.284
       0.133
      -0.155
      -0.532
      -0.873
      -1.060
      -1.063
      -0.946
      -0.810
      -0.709
      -0.617
      -0.476
      -0.274
      -0.056
       0.132
       0.298
       0.472
       0.643
       0.745
       0.731
       0.628
       0.517
       0.462
       0.458
       0.456
       0.433
       0.423
       0.494
       0.675
       0.919
       1.133
       1.228
       1.132
       0.770
       0.095
      -0.825
      -1.792
      -2.567
      -3.004
      -3.108
      -2.988
      -2.746
      -2.409
      -1.938
      -1.298
      -0.522
       0.288
       1.012
       1.551
       1.836
       1.831
       1.560
       1.106
       0.580
       0.057
      -0.439
      -0.924
      -1.404
      -1.847
      -2.179
      -2.334
      -2.295
      -2.100
      -1.790
      -1.382
      -0.875
      -0.285
       0.356
       1.023
       1.692
       2.330
       2.880
       3.266
       3.420
       3.309
       2.952
       2.404
       1.726
       0.982
       0.251
      -0.382
      -0.869
      -1.226
      -1.486
      -1.637
      -1.614
      -1.369
      -0.937
      -0.429
       0.040
       0.416
       0.717
       0.980
       1.196
       1.302
       1.225
       0.918
       0.368
      -0.417
      -1.376
      -2.361
      -3.154
      -3.562
      -3.504
      -3.024
      -2.236
      -1.260
      -0.183
       0.931
       2.013
       2.979
       3.755
       4.294
       4.541
       4.401
       3.778
       2.682
       1.289
      -0.135
      -1.373
      -2.353
      -3.113
      -3.702
      -4.103
      -4.253
      -4.112
      -3.717
      -3.153
      -2.504
      -1.860
      -1.340
      -1.073
      -1.089
      -1.253
      -1.316
      -1.069
      -0.468
       0.359
       1.219
       1.986
       2.649
       3.263
       3.842
       4.325
       4.621
       4.680
       4.497
       4.084
       3.466
       2.699
       1.884
       1.140
       0.557
       0.156
      -0.099
      -0.254
      -0.312
      -0.235
       0.016
       0.441
       1.000
       1.625
       2.230
       2.710
       2.982
       3.018
       2.866
       2.625
       2.404
       2.276
       2.235
       2.190
       2.022
       1.659
       1.121
       0.503
      -0.099
      -0.665
      -1.278
      -2.070
      -3.102
      -4.300
      -5.478
      -6.444
      -7.079
      -7.352
      -7.296
      -6.966
      -6.421
      -5.716
      -4.893
      -3.989
      -3.036
      -2.093
      -1.262
      -0.676
      -0.413
      -0.424
      -0.556
      -0.665
      -0.713
      -0.765
      -0.898
      -1.137
      -1.448
      -1.781
      -2.100
      -2.381
      -2.568
      -2.565
      -2.286
      -1.741
      -1.039
      -0.307
       0.404
       1.136
       1.954
       2.856
       3.744
       4.459
       4.881
       4.987
       4.860
       4.629
       4.414
       4.300
       4.326
       4.484
       4.740
       5.054
       5.379
       5.649
       5.769
       5.657
       5.281
       4.675
       3.906
       3.031
       2.077
       1.052
      -0.008
      -1.010
      -1.856
      -2.508
      -3.018
      -3.446
      -3.765
      -3.853
      -3.595
      -2.987
      -2.146
      -1.235
      -0.374
       0.384
       1.007
       1.450
       1.664
       1.650
       1.465
       1.176
       0.801
       0.308
      -0.325
      -1.070
      -1.838
      -2.515
      -3.004
      -3.281
      -3.408
      -3.498
      -3.634
      -3.815
      -3.958
      -3.956
      -3.766
      -3.448
      -3.125
      -2.887
      -2.729
      -2.580
      -2.378
      -2.130
      -1.903
      -1.763
      -1.707
      -1.628
      -1.360
      -0.776
       0.126
       1.229
       2.360
       3.358
       4.107
       4.537
       4.642
       4.482
       4.165
       3.808
       3.477
       3.158
       2.775
       2.274
       1.707
       1.222
       0.978
       1.033
       1.306
       1.615
       1.764
       1.635
       1.219
       0.592
      -0.150
      -0.938
      -1.711
      -2.390
      -2.872
      -3.071
      -2.951
      -2.538
      -1.890
      -1.074
      -0.166
       0.727
       1.460
       1.907
       2.033
       1.901
       1.600
       1.172
       0.622
      -0.013
      -0.638
      -1.141
      -1.469
      -1.664
      -1.835
      -2.082
      -2.446
      -2.925
      -3.510
      -4.189
      -4.890
      -5.457
      -5.704
      -5.533
      -4.997
      -4.246
      -3.415
      -2.529
      -1.518
      -0.321
       1.017
       2.349
       3.521
       4.458
       5.154
       5.615
       5.822
       5.753
       5.435
       4.947
       4.380
       3.773
       3.098
       2.321
       1.486
       0.735
       0.237
       0.087
       0.272
       0.684
       1.172
       1.580
       1.800
       1.809
       1.660
       1.428
       1.169
       0.909
       0.665
       0.460
       0.329
       0.305
       0.406
       0.618
       0.894
       1.160
       1.337
       1.374
       1.275
       1.100
       0.918
       0.762
       0.620
       0.463
       0.264
      -0.010
      -0.387
      -0.870
      -1.421
      -1.984
      -2.532
      -3.090
      -3.726
      -4.491
      -5.351
      -6.158
      -6.694
      -6.783
      -6.376
      -5.560
      -4.504
      -3.372
      -2.267
      -1.228
      -0.270
       0.573
       1.248
       1.714
       1.964
       2.010
       1.858
       1.521
       1.034
       0.471
      -0.075
      -0.502
      -0.732
      -0.732
      -0.539
      -0.241
       0.051
       0.256
       0.346
       0.354
       0.335
       0.327
       0.344
       0.416
       0.620
       1.037
       1.671
       2.417
       3.108
       3.610
       3.883
       3.974
       3.955
       3.868
       3.725
       3.536
       3.322
       3.089
       2.833
       2.561
       2.312
       2.134
       2.053
       2.057
       2.099
       2.092
       1.925
       1.526
       0.928
       0.261
      -0.347
      -0.858
      -1.334
      -1.892
      -2.638
      -3.590
      -4.633
      -5.567
      -6.205
      -6.467
      -6.392
      -6.086
      -5.655
      -5.158
      -4.618
      -4.070
      -3.585
      -3.222
      -2.975
      -2.769
      -2.532
      -2.237
      -1.891
      -1.480
      -0.980
      -0.414
       0.125
       0.527
       0.761
       0.910
       1.106
       1.410
       1.758
       2.006
       2.051
       1.878
       1.541
       1.111
       0.659
       0.236
      -0.133
      -0.445
      -0.665
      -0.689
      -0.375
       0.361
       1.464
       2.740
       3.959
       4.966
       5.710
       6.172
       6.303
       6.045
       5.422
       4.576
       3.694
       2.893
       2.193
       1.579
       1.066
       0.720
       0.625
       0.850
       1.402
       2.193
       3.020
       3.613
       3.746
       3.342
       2.509
       1.444
       0.287
      -0.926
      -2.192
      -3.432
      -4.476
      -5.158
      -5.429
      -5.374
      -5.124
      -4.754
      -4.258
      -3.634
      -2.983
      -2.512
      -2.402
      -2.673
      -3.167
      -3.664
      -4.025
      -4.238
      -4.369
      -4.467
      -4.515
      -4.445
      -4.195
      -3.742
      -3.102
      -2.326
      -1.515
      -0.804
      -0.303
      -0.017
       0.150
       0.315
       0.532
       0.792
       1.091
       1.488
       2.100
       3.014
       4.196
       5.470
       6.613
       7.469
       7.990
       8.197
       8.119
       7.779
       7.214
       6.476
       5.619
       4.664
       3.590
       2.378
       1.075
      -0.177
      -1.196
      -1.867
      -2.212
      -2.370
      -2.497
      -2.686
      -2.925
      -3.144
      -3.287
      -3.361
      -3.403
      -3.417
      -3.356
      -3.179
      -2.890
      -2.528
      -2.100
      -1.559
      -0.846
       0.015
       0.868
       1.468
       1.623
       1.293
       0.588
      -0.336
      -1.376
      -2.485
      -3.602
      -4.604
      -5.348
      -5.767
      -5.909
      -5.867
      -5.662
      -5.206
      -4.400
      -3.256
      -1.922
      -0.569
       0.715
       1.915
       3.000
       3.874
       4.420
       4.582
       4.400
       3.983
       3.458
       2.917
       2.399
       1.904
       1.425
       0.973
       0.601
       0.402
       0.487
       0.910
       1.613
       2.423
       3.109
       3.471
       3.429
       3.060
       2.557
       2.123
       1.886
       1.878
       2.057
       2.336
       2.620
       2.840
       2.978
       3.064
       3.146
       3.243
       3.307
       3.236
       2.914
       2.278
       1.355
       0.251
      -0.885
      -1.910
      -2.724
      -3.291
      -3.630
      -3.758
      -3.663
      -3.321
      -2.758
      -2.093
      -1.521
      -1.232
      -1.327
      -1.776
      -2.450
      -3.192
      -3.872
      -4.388
      -4.659
      -4.650
      -4.393
      -3.962
      -3.413
      -2.759
      -2.021
      -1.281
      -0.681
      -0.341
      -0.275
      -0.361
      -0.417
      -0.311
      -0.020
       0.398
       0.872
       1.339
       1.731
       1.983
       2.079
       2.081
       2.085
       2.131
       2.148
       1.999
       1.599
       0.993
       0.338
      -0.205
      -0.543
      -0.670
      -0.617
      -0.424
      -0.143
       0.182
       0.537
       0.937
       1.382
       1.811
       2.117
       2.197
       2.010
       1.603
       1.096
       0.614
       0.226
      -0.073
      -0.320
      -0.543
      -0.746
      -0.906
      -0.980
      -0.921
      -0.706
      -0.363
       0.018
       0.313
       0.435
       0.405
       0.358
       0.455
       0.764
       1.208
       1.615
       1.814
       1.705
       1.301
       0.719
       0.139
      -0.280
      -0.487
      -0.582
      -0.764
      -1.211
      -1.960
      -2.885
      -3.763
      -4.403
      -4.721
      -4.721
      -4.440
      -3.929
      -3.276
      -2.622
      -2.108
      -1.782
      -1.555
      -1.257
      -0.776
      -0.152
       0.457
       0.904
       1.171
       1.371
       1.656
       2.124
       2.757
       3.439
       4.032
       4.465
       4.753
       4.926
       4.951
       4.737
       4.236
       3.514
       2.727
       2.026
       1.473
       1.051
       0.731
       0.520
       0.441
       0.460
       0.481
       0.406
       0.214
      -0.045
      -0.332
      -0.670
      -1.107
      -1.646
      -2.221
      -2.734
      -3.126
      -3.403
      -3.604
      -3.745
      -3.793
      -3.722
      -3.572
      -3.432
      -3.345
      -3.240
      -2.973
      -2.447
      -1.689
      -0.827
       0.021
       0.829
       1.631
       2.423
       3.089
       3.475
       3.502
       3.211
       2.710
       2.092
       1.426
       0.793
       0.292
       0.007
      -0.041
       0.109
       0.391
       0.755
       1.178
       1.638
       2.105
       2.548
       2.925
       3.165
       3.158
       2.810
       2.111
       1.158
       0.098
      -0.948
      -1.928
      -2.838
      -3.652
      -4.282
      -4.601
      -4.530
      -4.094
      -3.399
      -2.561
      -1.667
      -0.776
       0.061
       0.806
       1.441
       1.952
       2.311
       2.471
       2.374
       1.977
       1.302
       0.480
      -0.268
      -0.723
      -0.762
      -0.405
       0.202
       0.842
       1.316
       1.534
       1.544
       1.470
       1.397
       1.296
       1.040
       0.496
      -0.384
      -1.528
      -2.766
      -3.892
      -4.734
      -5.197
      -5.284
      -5.078
      -4.684
      -4.156
      -3.499
      -2.729
      -1.925
      -1.211
      -0.682
      -0.361
      -0.215
      -0.186
      -0.208
      -0.208
      -0.108
       0.160
       0.611
       1.186
       1.794
       2.383
       2.968
       3.572
       4.147
       4.565
       4.701
       4.526
       4.117
       3.597
       3.048
       2.484
       1.897
       1.321
       0.834
       0.488
       0.259
       0.076
      -0.100
      -0.239
      -0.283
      -0.212
      -0.070
       0.058
       0.110
       0.081
       0.004
      -0.099
      -0.234
      -0.376
      -0.439
      -0.324
      -0.014
       0.403
       0.810
       1.148
       1.432
       1.687
       1.872
       1.874
       1.587
       1.016
       0.299
      -0.381
      -0.905
      -1.263
      -1.511
      -1.704
      -1.864
      -1.982
      -2.028
      -1.994
      -1.917
      -1.873
      -1.924
      -2.077
      -2.270
      -2.420
      -2.472
      -2.413
      -2.237
      -1.896
      -1.331
      -0.561
       0.287
       1.048
       1.629
       2.050
       2.374
       2.616
       2.688
       2.446
       1.787
       0.738
      -0.533
      -1.785
      -2.801
      -3.441
      -3.644
      -3.422
      -2.859
      -2.082
      -1.192
      -0.223
       0.828
       1.921
       2.923
       3.634
       3.880
       3.619
       2.965
       2.141
       1.365
       0.772
       0.405
       0.235
       0.179
       0.141
       0.068
      -0.014
      -0.032
       0.051
       0.169
       0.173
      -0.076
