Origin Time       11/9/2010 07:02:09	 UTC
Lat.              25.9 N	
Long.             90.2 E	
Depth (Km)         20.0
Magnitude         5.0
 Region           Meghalaya-Assam-Border                                           
 Above details taken from IMD 
    
Station Code      BON
Station Lat.       26.473  N
Station Long.      90.561  E
Station Height(m)   75.0
Site Class        C   Vs30 between 200 m/sec to 375 m/sec *  
Record Time       11.09.2010 07:01:52.814 UTC
Sampling Rate     200. Hz
 Record Duration   98.760 Sec.
 Direction         N-S (N positive)
Max. Acceleration     -6.725 cm/sec**2
     
  * For reference see Site Classification link of website 
     
 Base Line Corrected and Low Pass Filtered (Cut Off at 35 Hz) Time History
 Acceleration data in cm/sec**2
    
[...]
       0.600
       0.687
       0.807
       0.881
       0.861
       0.733
       0.517
       0.256
       0.007
      -0.176
      -0.276
      -0.321
      -0.354
      -0.401
      -0.448
      -0.468
      -0.449
      -0.401
      -0.338
      -0.250
      -0.136
      -0.034
      -0.026
      -0.181
      -0.485
      -0.833
      -1.092
      -1.181
      -1.098
      -0.887
      -0.599
      -0.283
      -0.008
       0.139
       0.095
      -0.119
      -0.386
      -0.550
      -0.527
      -0.364
      -0.206
      -0.190
      -0.348
      -0.590
      -0.769
      -0.773
      -0.583
      -0.270
       0.060
       0.331
       0.519
       0.646
       0.734
       0.778
       0.750
       0.631
       0.439
       0.222
       0.021
      -0.148
      -0.294
      -0.420
      -0.509
      -0.530
      -0.469
      -0.339
      -0.171
       0.000
       0.153
       0.285
       0.404
       0.528
       0.662
       0.783
       0.828
       0.736
       0.504
       0.227
       0.048
       0.062
       0.242
       0.447
       0.517
       0.389
       0.123
      -0.147
      -0.319
      -0.357
      -0.273
      -0.079
       0.220
       0.577
       0.882
       1.001
       0.870
       0.553
       0.209
      -0.012
      -0.046
       0.067
       0.243
       0.413
       0.544
       0.617
       0.617
       0.540
       0.404
       0.251
       0.126
       0.056
       0.044
       0.083
       0.165
       0.287
       0.441
       0.603
       0.734
       0.788
       0.719
       0.504
       0.157
      -0.266
      -0.677
      -0.990
      -1.146
      -1.138
      -1.008
      -0.837
      -0.714
      -0.699
      -0.786
      -0.888
      -0.879
      -0.672
      -0.291
       0.134
       0.438
       0.523
       0.398
       0.137
      -0.170
      -0.457
      -0.676
      -0.788
      -0.770
      -0.634
      -0.420
      -0.187
       0.006
       0.113
       0.113
       0.018
      -0.121
      -0.242
      -0.301
      -0.306
      -0.300
      -0.314
      -0.328
      -0.294
      -0.180
      -0.021
       0.101
       0.114
       0.006
      -0.158
      -0.280
      -0.288
      -0.166
       0.041
       0.262
       0.433
       0.521
       0.527
       0.465
       0.357
       0.222
       0.070
      -0.090
      -0.242
      -0.349
      -0.367
      -0.262
      -0.042
       0.225
       0.430
       0.476
       0.345
       0.108
      -0.118
      -0.233
      -0.206
      -0.064
       0.120
       0.268
       0.321
       0.266
       0.135
      -0.016
      -0.144
      -0.230
      -0.268
      -0.241
      -0.123
       0.094
       0.365
       0.592
       0.671
       0.560
       0.314
       0.050
      -0.122
      -0.160
      -0.090
       0.032
       0.163
       0.278
       0.344
       0.319
       0.174
      -0.075
      -0.356
      -0.582
      -0.694
      -0.684
      -0.571
      -0.366
      -0.071
       0.293
       0.653
       0.895
       0.924
       0.733
       0.426
       0.161
       0.053
       0.102
       0.215
       0.287
       0.290
       0.277
       0.308
       0.377
       0.408
       0.327
       0.131
      -0.110
      -0.307
      -0.406
      -0.398
      -0.297
      -0.120
       0.109
       0.357
       0.579
       0.733
       0.792
       0.755
       0.641
       0.485
       0.321
       0.170
       0.037
      -0.089
      -0.213
      -0.324
      -0.389
      -0.374
      -0.272
      -0.119
       0.020
       0.103
       0.143
       0.205
       0.344
       0.532
       0.653
       0.572
       0.233
      -0.288
      -0.834
      -1.263
      -1.512
      -1.603
      -1.590
      -1.515
      -1.398
      -1.246
      -1.066
      -0.875
      -0.690
      -0.528
      -0.387
      -0.248
      -0.079
       0.123
       0.318
       0.439
       0.437
       0.320
       0.154
       0.013
      -0.061
      -0.082
      -0.090
      -0.103
      -0.099
      -0.028
       0.131
       0.345
       0.538
       0.642
       0.630
       0.528
       0.391
       0.262
       0.153
       0.037
      -0.120
      -0.327
      -0.554
      -0.734
      -0.794
      -0.686
      -0.421
      -0.066
       0.285
       0.564
       0.749
       0.851
       0.884
       0.845
       0.729
       0.540
       0.303
       0.055
      -0.162
      -0.304
      -0.331
      -0.228
      -0.037
       0.149
       0.231
       0.173
       0.028
      -0.103
      -0.136
      -0.052
       0.106
       0.268
       0.375
       0.396
       0.328
       0.193
       0.027
      -0.119
      -0.200
      -0.195
      -0.114
       0.000
       0.103
       0.166
       0.182
       0.167
       0.143
       0.126
       0.127
       0.156
       0.227
       0.347
       0.494
       0.627
       0.702
       0.702
       0.638
       0.521
       0.346
       0.105
      -0.182
      -0.456
      -0.653
      -0.751
      -0.779
      -0.783
      -0.773
      -0.703
      -0.530
      -0.269
      -0.009
       0.147
       0.157
       0.068
      -0.040
      -0.111
      -0.137
      -0.134
      -0.109
      -0.055
       0.025
       0.098
       0.108
       0.018
      -0.159
      -0.360
      -0.505
      -0.543
      -0.475
      -0.335
      -0.164
       0.014
       0.179
       0.309
       0.371
       0.348
       0.264
       0.185
       0.174
       0.247
       0.362
       0.442
       0.420
       0.275
       0.042
      -0.196
      -0.353
      -0.381
      -0.297
      -0.163
      -0.045
       0.029
       0.069
       0.097
       0.130
       0.181
       0.267
       0.396
       0.543
       0.650
       0.654
       0.534
       0.329
       0.118
      -0.025
      -0.070
      -0.040
       0.014
       0.044
       0.044
       0.049
       0.113
       0.258
       0.443
       0.585
       0.607
       0.484
       0.250
      -0.020
      -0.244
      -0.369
      -0.393
      -0.363
      -0.346
      -0.383
      -0.462
      -0.517
      -0.480
      -0.343
      -0.180
      -0.088
      -0.108
      -0.186
      -0.231
      -0.208
      -0.183
      -0.268
      -0.509
      -0.823
      -1.037
      -1.027
      -0.825
      -0.603
      -0.538
      -0.670
      -0.863
      -0.918
      -0.728
      -0.359
       0.002
       0.187
       0.155
       0.005
      -0.120
      -0.133
      -0.049
       0.047
       0.071
       0.008
      -0.085
      -0.120
      -0.048
       0.107
       0.261
       0.335
       0.310
       0.229
       0.156
       0.130
       0.157
       0.221
       0.313
       0.428
       0.556
       0.669
       0.730
       0.707
       0.596
       0.428
       0.263
       0.178
       0.227
       0.396
       0.590
       0.676
       0.579
       0.338
       0.086
      -0.055
      -0.069
      -0.046
      -0.088
      -0.202
      -0.286
      -0.217
       0.018
       0.306
       0.494
       0.503
       0.366
       0.167
      -0.029
      -0.197
      -0.313
      -0.319
      -0.158
       0.157
       0.506
       0.715
       0.670
       0.398
       0.050
      -0.205
      -0.288
      -0.244
      -0.185
      -0.209
      -0.336
      -0.517
      -0.673
      -0.755
      -0.759
      -0.702
      -0.593
      -0.421
      -0.185
       0.082
       0.312
       0.443
       0.452
       0.371
       0.261
       0.177
       0.141
       0.140
       0.145
       0.130
       0.092
       0.053
       0.046
       0.086
       0.167
       0.271
       0.392
       0.531
       0.669
       0.759
       0.744
       0.608
       0.391
       0.167
      -0.006
      -0.124
      -0.222
      -0.328
      -0.423
      -0.444
      -0.346
      -0.154
       0.026
       0.072
      -0.060
      -0.308
      -0.546
      -0.690
      -0.746
      -0.782
      -0.832
      -0.858
      -0.784
      -0.591
      -0.356
      -0.203
      -0.207
      -0.332
      -0.455
      -0.462
      -0.326
      -0.110
       0.085
       0.197
       0.217
       0.169
       0.090
       0.019
      -0.009
       0.025
       0.101
       0.159
       0.139
       0.034
      -0.101
      -0.185
      -0.185
      -0.132
      -0.086
      -0.073
      -0.062
      -0.011
       0.079
       0.157
       0.168
       0.104
       0.017
      -0.041
      -0.059
      -0.077
      -0.113
      -0.120
      -0.008
       0.257
       0.585
       0.790
       0.729
       0.426
       0.068
      -0.126
      -0.055
       0.202
       0.473
       0.620
       0.622
       0.549
       0.482
       0.446
       0.422
       0.394
       0.366
       0.350
       0.334
       0.287
       0.189
       0.055
      -0.087
      -0.225
      -0.366
      -0.507
      -0.615
      -0.656
      -0.635
      -0.599
      -0.593
      -0.598
      -0.536
      -0.344
      -0.039
       0.278
       0.482
       0.513
       0.397
       0.220
       0.066
      -0.027
      -0.068
      -0.079
      -0.066
      -0.016
       0.069
       0.157
       0.202
       0.190
       0.160
       0.166
       0.219
       0.269
       0.253
       0.161
       0.043
      -0.034
      -0.050
      -0.039
      -0.037
      -0.038
      -0.002
       0.094
       0.207
       0.264
       0.222
       0.111
      -0.001
      -0.078
      -0.136
      -0.208
      -0.292
      -0.347
      -0.338
      -0.285
      -0.243
      -0.239
      -0.230
      -0.148
       0.029
       0.243
       0.399
       0.445
       0.404
       0.343
       0.307
       0.301
       0.312
       0.333
       0.351
       0.328
       0.213
      -0.011
      -0.283
      -0.479
      -0.498
      -0.347
      -0.147
      -0.043
      -0.088
      -0.206
      -0.273
      -0.233
      -0.141
      -0.085
      -0.098
      -0.140
      -0.169
      -0.191
      -0.245
      -0.337
      -0.404
      -0.368
      -0.214
      -0.016
       0.118
       0.146
       0.115
       0.104
       0.134
       0.157
       0.104
      -0.025
      -0.152
      -0.170
      -0.036
       0.201
       0.441
       0.609
       0.694
       0.725
       0.721
       0.667
       0.529
       0.296
      -0.001
      -0.309
      -0.577
      -0.762
      -0.824
      -0.743
      -0.545
      -0.332
      -0.232
      -0.312
      -0.508
      -0.658
      -0.625
      -0.405
      -0.123
       0.077
       0.149
       0.151
       0.171
       0.240
       0.318
       0.336
       0.254
       0.087
      -0.113
      -0.298
      -0.440
      -0.540
      -0.607
      -0.642
      -0.634
      -0.568
      -0.445
      -0.276
      -0.077
       0.136
       0.339
       0.495
       0.565
       0.524
       0.381
       0.175
      -0.033
      -0.186
      -0.256
      -0.252
      -0.203
      -0.131
      -0.035
       0.090
       0.224
       0.314
       0.315
       0.237
       0.162
       0.209
       0.438
       0.797
       1.137
       1.310
       1.268
       1.092
       0.935
       0.915
       1.042
       1.239
       1.401
       1.470
       1.450
       1.368
       1.238
       1.046
       0.788
       0.485
       0.170
      -0.158
      -0.542
      -1.026
      -1.586
      -2.119
      -2.491
      -2.614
      -2.500
      -2.239
      -1.947
      -1.716
      -1.599
      -1.620
      -1.777
      -2.024
      -2.267
      -2.389
      -2.302
      -1.988
      -1.498
      -0.912
      -0.298
       0.304
       0.872
       1.392
       1.864
       2.309
       2.765
       3.252
       3.744
       4.162
       4.422
       4.489
       4.385
       4.154
       3.816
       3.363
       2.798
       2.181
       1.612
       1.164
       0.813
       0.440
      -0.090
      -0.829
      -1.698
      -2.523
      -3.137
      -3.456
      -3.505
      -3.390
      -3.254
      -3.230
      -3.395
      -3.734
      -4.134
      -4.447
      -4.561
      -4.462
      -4.204
      -3.853
      -3.425
      -2.889
      -2.208
      -1.387
      -0.488
       0.386
       1.135
       1.695
       2.063
       2.290
       2.452
       2.609
       2.764
       2.877
       2.902
       2.833
       2.704
       2.562
       2.441
       2.354
       2.320
       2.378
       2.573
       2.903
       3.271
       3.498
       3.419
       3.006
       2.398
       1.816
       1.407
       1.161
       0.953
       0.665
       0.262
      -0.219
      -0.738
      -1.291
      -1.872
      -2.424
      -2.834
      -2.992
      -2.863
      -2.505
      -2.038
      -1.597
      -1.309
      -1.269
      -1.507
      -1.962
      -2.482
      -2.880
      -3.015
      -2.844
      -2.443
      -1.962
      -1.550
      -1.289
      -1.170
      -1.135
      -1.138
      -1.177
      -1.280
      -1.442
      -1.604
      -1.681
      -1.626
      -1.457
      -1.227
      -0.956
      -0.610
      -0.134
       0.475
       1.129
       1.672
       1.961
       1.957
       1.758
       1.547
       1.489
       1.648
       1.981
       2.405
       2.861
       3.346
       3.882
       4.478
       5.100
       5.676
       6.114
       6.326
       6.257
       5.908
       5.341
       4.642
       3.880
       3.085
       2.264
       1.438
       0.656
      -0.036
      -0.652
      -1.276
      -2.009
      -2.885
      -3.834
      -4.727
      -5.454
      -5.982
      -6.339
      -6.571
      -6.698
      -6.725
      -6.669
      -6.565
      -6.435
      -6.253
      -5.936
      -5.387
      -4.557
      -3.491
      -2.321
      -1.194
      -0.194
       0.712
       1.630
       2.626
       3.629
       4.413
       4.709
       4.389
       3.608
       2.774
       2.323
       2.455
       3.010
       3.588
       3.815
       3.570
       3.018
       2.465
       2.143
       2.098
       2.208
       2.290
       2.198
       1.851
       1.252
       0.487
      -0.269
      -0.808
      -0.989
      -0.821
      -0.458
      -0.102
       0.112
       0.149
       0.028
      -0.253
      -0.710
      -1.300
      -1.870
      -2.217
      -2.240
      -2.032
      -1.824
      -1.809
      -2.001
      -2.257
      -2.413
      -2.414
      -2.328
      -2.251
      -2.214
      -2.159
      -2.025
      -1.812
      -1.590
      -1.416
      -1.264
      -1.016
      -0.545
       0.191
       1.117
       2.067
       2.856
       3.338
       3.441
       3.198
       2.753
       2.305
       2.004
       1.873
       1.810
       1.678
       1.419
       1.084
       0.791
       0.631
       0.622
       0.718
       0.839
       0.898
       0.819
       0.570
       0.202
      -0.149
      -0.329
      -0.263
      -0.018
       0.242
       0.366
       0.300
       0.100
      -0.140
      -0.361
      -0.565
      -0.787
      -1.040
      -1.299
      -1.517
      -1.652
      -1.682
      -1.612
      -1.491
      -1.420
      -1.537
      -1.944
      -2.644
      -3.504
      -4.291
      -4.763
      -4.769
      -4.291
      -3.416
      -2.286
      -1.055
       0.128
       1.146
       1.935
       2.486
       2.831
       3.022
       3.114
       3.171
       3.254
       3.415
       3.665
       3.959
       4.192
       4.234
       3.975
       3.367
       2.466
       1.426
       0.471
      -0.195
      -0.461
      -0.355
      -0.010
       0.393
       0.695
       0.789
       0.643
       0.298
      -0.132
      -0.493
      -0.651
      -0.558
      -0.289
      -0.009
       0.105
      -0.039
      -0.388
      -0.775
      -1.020
      -1.039
      -0.892
      -0.748
      -0.779
      -1.047
      -1.462
      -1.840
      -2.034
      -2.046
      -2.031
      -2.192
      -2.636
      -3.278
      -3.881
      -4.185
      -4.040
      -3.454
      -2.541
      -1.451
      -0.326
       0.691
       1.458
       1.865
       1.891
       1.627
       1.230
       0.829
       0.476
       0.169
      -0.082
      -0.225
      -0.207
      -0.029
       0.259
       0.603
       0.983
       1.397
       1.807
       2.134
       2.312
       2.377
       2.487
       2.822
       3.427
       4.142
       4.681
       4.814
       4.494
       3.842
       3.015
       2.104
       1.120
       0.087
      -0.891
      -1.632
      -1.985
      -1.935
      -1.628
      -1.305
      -1.180
      -1.351
      -1.775
      -2.307
      -2.754
      -2.937
      -2.753
      -2.222
      -1.494
      -0.806
      -0.387
      -0.373
      -0.749
      -1.365
      -1.991
      -2.414
      -2.518
      -2.318
      -1.916
      -1.433
      -0.950
      -0.503
      -0.109
       0.205
       0.401
       0.450
       0.349
       0.126
      -0.178
      -0.523
      -0.867
      -1.165
      -1.355
      -1.379
      -1.208
      -0.866
      -0.420
       0.055
       0.517
       0.958
       1.381
       1.762
       2.059
       2.255
       2.376
       2.468
       2.548
       2.577
       2.497
       2.300
       2.058
       1.872
       1.794
       1.786
       1.764
       1.683
       1.578
       1.507
       1.466
       1.348
       1.025
       0.467
      -0.205
      -0.789
      -1.147
      -1.299
      -1.375
      -1.497
      -1.680
      -1.844
      -1.900
      -1.838
      -1.723
      -1.646
      -1.652
      -1.721
      -1.801
      -1.828
      -1.740
      -1.483
      -1.054
      -0.562
      -0.219
      -0.224
      -0.596
      -1.129
      -1.512
      -1.539
      -1.229
      -0.772
      -0.352
      -0.015
       0.314
       0.703
       1.109
       1.384
       1.392
       1.093
       0.568
      -0.033
      -0.534
      -0.777
      -0.650
      -0.144
       0.608
       1.337
       1.743
       1.645
       1.088
       0.329
      -0.306
      -0.594
      -0.515
      -0.216
       0.111
       0.342
       0.461
       0.518
       0.567
       0.629
       0.691
       0.699
       0.574
       0.255
      -0.246
      -0.814
      -1.262
      -1.399
      -1.105
      -0.375
       0.660
       1.762
       2.663
       3.162
       3.204
       2.894
       2.432
       2.015
       1.759
       1.664
       1.638
       1.569
       1.405
       1.199
       1.073
       1.113
       1.280
       1.407
       1.305
       0.889
       0.232
      -0.506
      -1.206
      -1.848
      -2.470
      -3.074
      -3.586
      -3.901
      -3.964
      -3.820
      -3.576
      -3.332
      -3.123
      -2.941
      -2.779
      -2.667
      -2.643
      -2.689
      -2.692
      -2.482
      -1.931
      -1.049
      -0.018
       0.885
       1.435
       1.578
       1.440
       1.234
       1.131
       1.190
       1.364
       1.541
       1.608
       1.496
       1.200
       0.780
       0.328
      -0.053
      -0.267
      -0.249
      -0.011
       0.347
       0.668
       0.828
       0.815
       0.732
       0.717
       0.847
       1.082
       1.312
       1.444
       1.465
       1.443
       1.462
       1.573
       1.783
       2.078
       2.434
       2.799
       3.085
       3.197
       3.087
       2.796
       2.415
       2.006
       1.552
       0.997
       0.329
      -0.392
      -1.106
      -1.836
