Origin Time       12/3/2010 23:19:54	 UTC
Lat.              23.0 N	
Long.             94.5 E	
Depth (Km)         96.0
Magnitude         5.6
 Region           MYANMAR                                                          
 Above details taken from IMD 
    
Station Code      BON
Station Lat.       26.473  N
Station Long.      90.561  E
Station Height(m)   75.0
Site Class        C   Vs30 between 200 m/sec to 375 m/sec *  
Record Time       13.03.2010 04:52:08.134 UTC
Sampling Rate     200. Hz
 Record Duration   91.095 Sec.
 Direction         N-S (N positive)
Max. Acceleration     -2.570 cm/sec**2
     
  * For reference see Site Classification link of website 
     
 Base Line Corrected and Low Pass Filtered (Cut Off at 35 Hz) Time History
 Acceleration data in cm/sec**2
    
[...]
      -0.170
      -0.133
      -0.103
      -0.081
      -0.069
      -0.068
      -0.068
      -0.053
      -0.006
       0.070
       0.159
       0.238
       0.290
       0.305
       0.282
       0.228
       0.159
       0.097
       0.061
       0.055
       0.062
       0.060
       0.035
      -0.010
      -0.061
      -0.105
      -0.138
      -0.159
      -0.164
      -0.149
      -0.121
      -0.096
      -0.091
      -0.110
      -0.143
      -0.178
      -0.217
      -0.275
      -0.363
      -0.466
      -0.553
      -0.592
      -0.572
      -0.499
      -0.395
      -0.278
      -0.164
      -0.064
       0.014
       0.061
       0.075
       0.059
       0.025
      -0.008
      -0.017
       0.012
       0.082
       0.176
       0.264
       0.316
       0.322
       0.292
       0.250
       0.225
       0.227
       0.252
       0.283
       0.300
       0.293
       0.263
       0.221
       0.182
       0.159
       0.155
       0.164
       0.183
       0.211
       0.249
       0.289
       0.314
       0.303
       0.242
       0.135
       0.001
      -0.129
      -0.226
      -0.268
      -0.248
      -0.175
      -0.069
       0.043
       0.142
       0.220
       0.276
       0.316
       0.340
       0.350
       0.352
       0.360
       0.387
       0.439
       0.508
       0.575
       0.621
       0.647
       0.664
       0.686
       0.713
       0.737
       0.749
       0.745
       0.725
       0.683
       0.606
       0.487
       0.337
       0.178
       0.029
      -0.104
      -0.229
      -0.346
      -0.439
      -0.491
      -0.492
      -0.451
      -0.387
      -0.315
      -0.244
      -0.178
      -0.125
      -0.093
      -0.083
      -0.085
      -0.084
      -0.072
      -0.054
      -0.040
      -0.041
      -0.060
      -0.096
      -0.151
      -0.223
      -0.308
      -0.401
      -0.501
      -0.607
      -0.719
      -0.828
      -0.921
      -0.980
      -1.001
      -0.989
      -0.952
      -0.891
      -0.795
      -0.657
      -0.478
      -0.274
      -0.064
       0.139
       0.329
       0.503
       0.653
       0.770
       0.847
       0.886
       0.896
       0.887
       0.864
       0.822
       0.751
       0.645
       0.509
       0.361
       0.224
       0.116
       0.039
      -0.017
      -0.066
      -0.123
      -0.189
      -0.254
      -0.309
      -0.347
      -0.369
      -0.381
      -0.386
      -0.389
      -0.393
      -0.396
      -0.393
      -0.376
      -0.346
      -0.320
      -0.329
      -0.390
      -0.494
      -0.607
      -0.692
      -0.738
      -0.751
      -0.747
      -0.731
      -0.708
      -0.685
      -0.674
      -0.679
      -0.684
      -0.661
      -0.582
      -0.441
      -0.252
      -0.038
       0.176
       0.368
       0.524
       0.634
       0.697
       0.724
       0.736
       0.751
       0.785
       0.840
       0.913
       0.996
       1.080
       1.156
       1.212
       1.236
       1.220
       1.163
       1.074
       0.968
       0.861
       0.759
       0.659
       0.558
       0.463
       0.387
       0.341
       0.323
       0.318
       0.312
       0.301
       0.287
       0.276
       0.269
       0.261
       0.243
       0.209
       0.151
       0.071
      -0.018
      -0.093
      -0.129
      -0.115
      -0.059
       0.015
       0.085
       0.138
       0.170
       0.171
       0.123
       0.016
      -0.141
      -0.315
      -0.463
      -0.557
      -0.601
      -0.617
      -0.623
      -0.621
      -0.601
      -0.554
      -0.481
      -0.387
      -0.285
      -0.187
      -0.113
      -0.080
      -0.094
      -0.149
      -0.233
      -0.339
      -0.464
      -0.603
      -0.739
      -0.850
      -0.914
      -0.921
      -0.865
      -0.751
      -0.591
      -0.415
      -0.267
      -0.190
      -0.197
      -0.270
      -0.372
      -0.475
      -0.584
      -0.723
      -0.907
      -1.126
      -1.347
      -1.529
      -1.647
      -1.691
      -1.660
      -1.554
      -1.381
      -1.157
      -0.906
      -0.661
      -0.448
      -0.285
      -0.175
      -0.110
      -0.075
      -0.059
      -0.050
      -0.042
      -0.025
       0.010
       0.077
       0.188
       0.346
       0.547
       0.768
       0.984
       1.167
       1.301
       1.382
       1.418
       1.420
       1.397
       1.352
       1.276
       1.153
       0.974
       0.744
       0.483
       0.225
       0.002
      -0.156
      -0.235
      -0.238
      -0.182
      -0.083
       0.053
       0.221
       0.408
       0.582
       0.712
       0.777
       0.782
       0.745
       0.681
       0.598
       0.501
       0.394
       0.291
       0.200
       0.127
       0.074
       0.049
       0.062
       0.117
       0.200
       0.285
       0.348
       0.380
       0.388
       0.387
       0.384
       0.386
       0.405
       0.449
       0.516
       0.585
       0.633
       0.658
       0.687
       0.754
       0.872
       1.017
       1.144
       1.226
       1.266
       1.287
       1.299
       1.293
       1.249
       1.167
       1.072
       0.997
       0.960
       0.951
       0.938
       0.895
       0.810
       0.688
       0.541
       0.372
       0.179
      -0.040
      -0.278
      -0.527
      -0.781
      -1.039
      -1.294
      -1.527
      -1.717
      -1.849
      -1.931
      -1.983
      -2.017
      -2.031
      -2.013
      -1.952
      -1.854
      -1.729
      -1.583
      -1.412
      -1.214
      -1.001
      -0.796
      -0.623
      -0.499
      -0.426
      -0.399
      -0.401
      -0.406
      -0.389
      -0.330
      -0.231
      -0.107
       0.017
       0.118
       0.181
       0.197
       0.166
       0.103
       0.035
      -0.007
       0.002
       0.054
       0.117
       0.142
       0.088
      -0.054
      -0.251
      -0.448
      -0.591
      -0.656
      -0.652
      -0.608
      -0.550
      -0.489
      -0.429
      -0.372
      -0.321
      -0.280
      -0.250
      -0.230
      -0.226
      -0.242
      -0.276
      -0.322
      -0.371
      -0.420
      -0.473
      -0.537
      -0.614
      -0.695
      -0.761
      -0.791
      -0.776
      -0.720
      -0.644
      -0.572
      -0.525
      -0.507
      -0.507
      -0.509
      -0.498
      -0.468
      -0.423
      -0.369
      -0.299
      -0.190
      -0.015
       0.242
       0.563
       0.907
       1.232
       1.513
       1.748
       1.943
       2.099
       2.206
       2.255
       2.251
       2.206
       2.127
       2.007
       1.833
       1.602
       1.334
       1.064
       0.828
       0.649
       0.536
       0.491
       0.507
       0.564
       0.626
       0.651
       0.601
       0.466
       0.271
       0.071
      -0.079
      -0.154
      -0.177
      -0.203
      -0.276
      -0.400
      -0.541
      -0.652
      -0.708
      -0.708
      -0.664
      -0.576
      -0.433
      -0.227
       0.024
       0.276
       0.480
       0.602
       0.637
       0.597
       0.495
       0.351
       0.194
       0.062
      -0.010
      -0.014
       0.034
       0.104
       0.175
       0.237
       0.285
       0.317
       0.332
       0.339
       0.359
       0.408
       0.488
       0.584
       0.672
       0.742
       0.798
       0.854
       0.916
       0.980
       1.029
       1.047
       1.030
       0.986
       0.931
       0.874
       0.814
       0.741
       0.642
       0.508
       0.333
       0.113
      -0.148
      -0.436
      -0.726
      -0.991
      -1.221
      -1.421
      -1.613
      -1.805
      -1.988
      -2.132
      -2.213
      -2.221
      -2.169
      -2.071
      -1.934
      -1.760
      -1.555
      -1.332
      -1.101
      -0.865
      -0.626
      -0.401
      -0.220
      -0.113
      -0.087
      -0.118
      -0.174
      -0.235
      -0.306
      -0.397
      -0.498
      -0.576
      -0.595
      -0.545
      -0.447
      -0.343
      -0.264
      -0.222
      -0.213
      -0.236
      -0.297
      -0.403
      -0.543
      -0.684
      -0.788
      -0.834
      -0.827
      -0.786
      -0.728
      -0.655
      -0.568
      -0.472
      -0.378
      -0.292
      -0.209
      -0.115
      -0.005
       0.113
       0.219
       0.299
       0.352
       0.382
       0.392
       0.378
       0.340
       0.286
       0.233
       0.185
       0.133
       0.060
      -0.031
      -0.114
      -0.158
      -0.151
      -0.113
      -0.077
      -0.068
      -0.085
      -0.120
      -0.175
      -0.261
      -0.386
      -0.529
      -0.645
      -0.686
      -0.634
      -0.494
      -0.284
      -0.008
       0.335
       0.732
       1.140
       1.492
       1.735
       1.856
       1.887
       1.872
       1.834
       1.766
       1.651
       1.491
       1.308
       1.130
       0.968
       0.826
       0.712
       0.645
       0.634
       0.661
       0.685
       0.673
       0.620
       0.551
       0.489
       0.434
       0.369
       0.286
       0.200
       0.140
       0.125
       0.148
       0.182
       0.208
       0.220
       0.224
       0.217
       0.187
       0.123
       0.038
      -0.032
      -0.053
      -0.017
       0.056
       0.137
       0.224
       0.334
       0.488
       0.677
       0.863
       0.996
       1.053
       1.045
       1.002
       0.947
       0.878
       0.782
       0.648
       0.483
       0.307
       0.138
      -0.010
      -0.130
      -0.220
      -0.276
      -0.301
      -0.298
      -0.280
      -0.259
      -0.244
      -0.234
      -0.228
      -0.227
      -0.239
      -0.272
      -0.325
      -0.381
      -0.419
      -0.428
      -0.406
      -0.359
      -0.288
      -0.201
      -0.115
      -0.059
      -0.060
      -0.123
      -0.227
      -0.346
      -0.472
      -0.620
      -0.807
      -1.025
      -1.234
      -1.390
      -1.482
      -1.539
      -1.600
      -1.683
      -1.779
      -1.870
      -1.954
      -2.035
      -2.098
      -2.107
      -2.023
      -1.845
      -1.618
      -1.409
      -1.262
      -1.171
      -1.095
      -0.998
      -0.869
      -0.719
      -0.547
      -0.335
      -0.073
       0.224
       0.515
       0.759
       0.943
       1.073
       1.150
       1.158
       1.073
       0.899
       0.678
       0.464
       0.290
       0.146
       0.004
      -0.156
      -0.325
      -0.484
      -0.612
      -0.706
      -0.765
      -0.783
      -0.747
      -0.642
      -0.461
      -0.217
       0.061
       0.334
       0.570
       0.751
       0.872
       0.937
       0.942
       0.882
       0.752
       0.557
       0.323
       0.089
      -0.095
      -0.181
      -0.137
       0.038
       0.309
       0.614
       0.893
       1.107
       1.255
       1.357
       1.440
       1.527
       1.620
       1.710
       1.769
       1.760
       1.645
       1.410
       1.088
       0.750
       0.476
       0.318
       0.286
       0.362
       0.523
       0.761
       1.066
       1.416
       1.769
       2.077
       2.303
       2.426
       2.442
       2.349
       2.151
       1.856
       1.477
       1.033
       0.554
       0.073
      -0.374
      -0.758
      -1.066
      -1.293
      -1.436
      -1.492
      -1.465
      -1.373
      -1.250
      -1.129
      -1.026
      -0.939
      -0.860
      -0.796
      -0.771
      -0.809
      -0.911
      -1.051
      -1.185
      -1.283
      -1.340
      -1.366
      -1.364
      -1.316
      -1.193
      -0.985
      -0.707
      -0.400
      -0.101
       0.162
       0.375
       0.517
       0.556
       0.470
       0.267
      -0.013
      -0.315
      -0.605
      -0.873
      -1.123
      -1.339
      -1.475
      -1.481
      -1.334
      -1.063
      -0.739
      -0.432
      -0.186
      -0.007
       0.120
       0.214
       0.283
       0.329
       0.356
       0.367
       0.359
       0.322
       0.242
       0.121
      -0.022
      -0.157
      -0.265
      -0.351
      -0.435
      -0.532
      -0.640
      -0.740
      -0.813
      -0.856
      -0.880
      -0.894
      -0.892
      -0.859
      -0.781
      -0.665
      -0.537
      -0.425
      -0.343
      -0.282
      -0.216
      -0.118
       0.031
       0.238
       0.492
       0.764
       1.013
       1.206
       1.339
       1.433
       1.524
       1.638
       1.774
       1.911
       2.016
       2.055
       2.000
       1.835
       1.568
       1.234
       0.876
       0.534
       0.231
      -0.030
      -0.253
      -0.438
      -0.574
      -0.639
      -0.616
      -0.509
      -0.349
      -0.183
      -0.048
       0.051
       0.135
       0.237
       0.377
       0.553
       0.737
       0.888
       0.959
       0.915
       0.740
       0.448
       0.083
      -0.295
      -0.629
      -0.887
      -1.061
      -1.165
      -1.218
      -1.236
      -1.226
      -1.185
      -1.108
      -0.997
      -0.869
      -0.750
      -0.658
      -0.585
      -0.499
      -0.361
      -0.159
       0.082
       0.310
       0.482
       0.585
       0.633
       0.649
       0.651
       0.658
       0.687
       0.752
       0.845
       0.924
       0.938
       0.859
       0.714
       0.559
       0.439
       0.345
       0.225
       0.031
      -0.251
      -0.592
      -0.953
      -1.308
      -1.646
      -1.955
      -2.218
      -2.416
      -2.538
      -2.570
      -2.494
      -2.291
      -1.960
      -1.529
      -1.050
      -0.572
      -0.125
       0.270
       0.596
       0.825
       0.935
       0.925
       0.818
       0.646
       0.441
       0.223
       0.004
      -0.199
      -0.372
      -0.499
      -0.577
      -0.610
      -0.606
      -0.577
      -0.524
      -0.437
      -0.295
      -0.075
       0.227
       0.579
       0.918
       1.178
       1.331
       1.385
       1.361
       1.279
       1.166
       1.073
       1.051
       1.124
       1.276
       1.459
       1.623
       1.731
       1.768
       1.737
       1.650
       1.526
       1.379
       1.207
       0.997
       0.733
       0.418
       0.074
      -0.271
      -0.596
      -0.887
      -1.130
      -1.298
      -1.358
      -1.284
      -1.072
      -0.740
      -0.328
       0.111
       0.510
       0.809
       0.974
       1.016
       0.982
       0.922
       0.861
       0.785
       0.659
       0.458
       0.187
      -0.119
      -0.401
      -0.603
      -0.698
      -0.699
      -0.652
      -0.611
      -0.615
      -0.675
      -0.773
      -0.873
      -0.939
      -0.946
      -0.892
      -0.790
      -0.657
      -0.497
      -0.303
      -0.073
       0.173
       0.385
       0.508
       0.514
       0.425
       0.298
       0.195
       0.147
       0.158
       0.223
       0.333
       0.475
       0.614
       0.697
       0.674
       0.536
       0.319
       0.085
      -0.124
      -0.299
      -0.462
      -0.635
      -0.816
      -0.978
      -1.080
      -1.088
      -0.996
      -0.820
      -0.597
      -0.367
      -0.166
      -0.016
       0.068
       0.082
       0.030
      -0.064
      -0.162
      -0.225
      -0.230
      -0.177
      -0.089
       0.001
       0.057
       0.054
      -0.017
      -0.137
      -0.270
      -0.370
      -0.410
      -0.378
      -0.274
      -0.100
       0.131
       0.382
       0.592
       0.696
       0.664
       0.513
       0.295
       0.072
      -0.110
      -0.228
      -0.283
      -0.300
      -0.318
      -0.376
      -0.487
      -0.628
      -0.763
      -0.872
      -0.970
      -1.088
      -1.238
      -1.392
      -1.504
      -1.539
      -1.497
      -1.400
      -1.260
      -1.070
      -0.807
      -0.462
      -0.051
       0.392
       0.825
       1.212
       1.526
       1.749
       1.876
       1.921
       1.906
       1.854
       1.779
       1.677
       1.539
       1.361
       1.162
       0.982
       0.868
       0.844
       0.901
       1.003
       1.108
       1.183
       1.202
       1.142
       0.986
       0.731
       0.399
       0.034
      -0.313
      -0.599
      -0.798
      -0.899
      -0.898
      -0.801
      -0.629
      -0.414
      -0.195
       0.001
       0.167
       0.317
       0.466
       0.621
       0.770
       0.887
       0.943
       0.913
       0.785
       0.565
       0.275
      -0.053
      -0.398
      -0.744
      -1.078
      -1.370
      -1.577
      -1.664
      -1.627
      -1.500
      -1.328
      -1.141
      -0.954
      -0.771
      -0.612
      -0.500
      -0.439
      -0.398
      -0.320
      -0.165
       0.055
       0.270
       0.398
       0.402
       0.311
       0.200
       0.139
       0.145
       0.185
       0.205
       0.175
       0.099
      -0.004
      -0.121
      -0.251
      -0.396
      -0.544
      -0.676
      -0.775
      -0.837
      -0.862
      -0.846
      -0.778
      -0.659
      -0.506
      -0.352
      -0.232
      -0.159
      -0.123
      -0.103
      -0.077
      -0.032
       0.037
       0.134
       0.254
       0.386
       0.517
       0.632
       0.722
       0.773
       0.763
       0.668
       0.480
       0.215
      -0.087
      -0.388
      -0.668
      -0.918
      -1.127
      -1.261
      -1.276
      -1.146
      -0.881
      -0.522
      -0.115
       0.303
       0.712
       1.094
       1.419
       1.652
       1.764
       1.744
       1.611
       1.403
       1.163
       0.930
       0.730
       0.575
       0.467
       0.398
       0.352
       0.311
       0.261
       0.200
       0.136
       0.081
       0.033
      -0.032
      -0.145
      -0.332
      -0.591
      -0.889
      -1.171
      -1.381
      -1.489
      -1.491
      -1.409
      -1.272
      -1.109
      -0.939
      -0.765
      -0.578
      -0.357
      -0.087
       0.224
       0.533
       0.775
       0.900
       0.904
       0.834
       0.767
       0.767
       0.850
       0.983
       1.110
       1.181
       1.176
       1.108
       1.008
       0.904
       0.805
       0.704
       0.591
       0.458
       0.312
       0.173
       0.069
       0.027
       0.059
       0.155
       0.296
       0.466
       0.660
       0.881
       1.120
       1.341
       1.487
       1.498
       1.350
       1.067
       0.715
       0.362
       0.040
      -0.272
      -0.615
      -1.011
      -1.432
      -1.812
      -2.084
      -2.222
      -2.246
      -2.205
      -2.148
      -2.106
      -2.084
      -2.069
      -2.037
      -1.962
      -1.830
      -1.647
      -1.441
      -1.241
      -1.060
      -0.883
      -0.681
      -0.439
      -0.178
       0.059
       0.228
       0.312
       0.332
       0.329
       0.336
       0.365
       0.403
       0.419
       0.385
       0.297
       0.181
       0.085
       0.051
       0.088
       0.177
       0.281
       0.377
       0.458
       0.535
       0.614
       0.701
       0.800
       0.922
       1.072
       1.236
       1.373
       1.435
       1.400
       1.281
       1.117
       0.946
       0.785
       0.632
       0.481
       0.332
       0.193
       0.063
      -0.069
      -0.220
      -0.404
