Origin Time       11/8/2009 21:43:39 
Lat.              24.4 N 
Long.             94.8 E 
Depth (Km)         22.0
Magnitude         5.6
 Region           MYANMAR-INDIA(MANIPUR)BORDER                                     
 Above details taken from IMD 
   
Station Code      BON
Station Lat.       26.473
Station Long.      90.561
Station Height(m)   75.0
Site Class        C   Vs30 between 200 m/sec to 375 m/sec *  
Record Time       12.08.2009 03:15:38.914
Sampling Rate     200. Hz
 Record Duration   69.005 Sec.
 Direction         Vert. (Up positive)
Max. Acceleration     -9.012 cm/sec**2
     
  * For reference see Site Classification link of website 
     
 Base Line Corrected and Low Pass Filtered (Cut Off at 35 Hz) Time History
 Acceleration data in cm/sec**2
    
[...]
       0.804
       0.772
       0.631
       0.426
       0.223
       0.077
       0.010
       0.019
       0.080
       0.170
       0.266
       0.347
       0.399
       0.414
       0.386
       0.303
       0.143
      -0.115
      -0.464
      -0.852
      -1.194
      -1.407
      -1.443
      -1.306
      -1.038
      -0.702
      -0.353
      -0.036
       0.221
       0.406
       0.525
       0.595
       0.631
       0.632
       0.585
       0.480
       0.328
       0.171
       0.062
       0.031
       0.064
       0.115
       0.135
       0.104
       0.043
      -0.001
       0.013
       0.091
       0.196
       0.269
       0.266
       0.186
       0.071
      -0.027
      -0.074
      -0.070
      -0.035
       0.007
       0.049
       0.098
       0.164
       0.251
       0.353
       0.455
       0.536
       0.574
       0.549
       0.459
       0.317
       0.152
      -0.020
      -0.195
      -0.381
      -0.572
      -0.741
      -0.851
      -0.882
      -0.845
      -0.766
      -0.659
      -0.515
      -0.330
      -0.123
       0.062
       0.186
       0.240
       0.251
       0.250
       0.250
       0.240
       0.211
       0.174
       0.163
       0.208
       0.314
       0.450
       0.564
       0.612
       0.577
       0.475
       0.338
       0.193
       0.045
      -0.116
      -0.284
      -0.438
      -0.541
      -0.580
      -0.575
      -0.569
      -0.594
      -0.655
      -0.736
      -0.818
      -0.891
      -0.945
      -0.959
      -0.904
      -0.771
      -0.573
      -0.342
      -0.092
       0.182
       0.491
       0.822
       1.128
       1.358
       1.477
       1.488
       1.411
       1.263
       1.049
       0.775
       0.456
       0.120
      -0.198
      -0.471
      -0.684
      -0.832
      -0.913
      -0.922
      -0.854
      -0.709
      -0.497
      -0.246
       0.006
       0.221
       0.368
       0.433
       0.420
       0.351
       0.258
       0.165
       0.082
       0.010
      -0.050
      -0.083
      -0.068
       0.012
       0.145
       0.301
       0.443
       0.552
       0.625
       0.661
       0.645
       0.559
       0.393
       0.160
      -0.113
      -0.400
      -0.676
      -0.925
      -1.135
      -1.296
      -1.407
      -1.469
      -1.486
      -1.446
      -1.320
      -1.073
      -0.687
      -0.186
       0.363
       0.867
       1.244
       1.452
       1.507
       1.457
       1.351
       1.218
       1.061
       0.872
       0.638
       0.357
       0.035
      -0.304
      -0.621
      -0.867
      -1.001
      -1.015
      -0.934
      -0.805
      -0.656
      -0.488
      -0.280
      -0.025
       0.248
       0.479
       0.608
       0.610
       0.505
       0.332
       0.139
      -0.033
      -0.142
      -0.156
      -0.073
       0.068
       0.205
       0.286
       0.289
       0.226
       0.117
      -0.030
      -0.210
      -0.411
      -0.594
      -0.708
      -0.716
      -0.620
      -0.452
      -0.255
      -0.056
       0.136
       0.316
       0.470
       0.581
       0.643
       0.666
       0.663
       0.634
       0.570
       0.470
       0.355
       0.261
       0.219
       0.222
       0.231
       0.204
       0.121
       0.003
      -0.113
      -0.200
      -0.256
      -0.298
      -0.340
      -0.384
      -0.420
      -0.445
      -0.466
      -0.492
      -0.530
      -0.570
      -0.597
      -0.594
      -0.550
      -0.457
      -0.311
      -0.119
       0.098
       0.303
       0.452
       0.524
       0.531
       0.508
       0.492
       0.499
       0.523
       0.556
       0.599
       0.653
       0.708
       0.733
       0.697
       0.589
       0.427
       0.238
       0.043
      -0.153
      -0.347
      -0.519
      -0.637
      -0.681
      -0.655
      -0.590
      -0.514
      -0.435
      -0.344
      -0.236
      -0.125
      -0.030
       0.042
       0.111
       0.212
       0.361
       0.536
       0.676
       0.719
       0.630
       0.419
       0.127
      -0.201
      -0.534
      -0.855
      -1.145
      -1.371
      -1.498
      -1.498
      -1.369
      -1.135
      -0.836
      -0.510
      -0.181
       0.137
       0.430
       0.683
       0.887
       1.043
       1.165
       1.268
       1.345
       1.370
       1.310
       1.149
       0.906
       0.621
       0.345
       0.112
      -0.054
      -0.136
      -0.132
      -0.060
       0.036
       0.097
       0.084
      -0.005
      -0.140
      -0.280
      -0.402
      -0.508
      -0.604
      -0.682
      -0.712
      -0.668
      -0.548
      -0.373
      -0.176
       0.016
       0.178
       0.291
       0.348
       0.359
       0.352
       0.352
       0.372
       0.408
       0.451
       0.491
       0.528
       0.550
       0.532
       0.430
       0.214
      -0.111
      -0.497
      -0.872
      -1.175
      -1.374
      -1.468
      -1.463
      -1.352
      -1.118
      -0.753
      -0.289
       0.215
       0.690
       1.086
       1.372
       1.521
       1.506
       1.308
       0.947
       0.479
      -0.017
      -0.479
      -0.870
      -1.177
      -1.393
      -1.498
      -1.476
      -1.319
      -1.043
      -0.684
      -0.292
       0.079
       0.372
       0.553
       0.617
       0.596
       0.543
       0.502
       0.492
       0.500
       0.495
       0.451
       0.365
       0.260
       0.168
       0.116
       0.114
       0.159
       0.230
       0.301
       0.351
       0.376
       0.395
       0.428
       0.481
       0.536
       0.567
       0.563
       0.537
       0.512
       0.496
       0.472
       0.410
       0.301
       0.160
       0.009
      -0.153
      -0.353
      -0.613
      -0.922
      -1.228
      -1.454
      -1.536
      -1.435
      -1.157
      -0.748
      -0.276
       0.195
       0.621
       0.979
       1.248
       1.390
       1.356
       1.112
       0.674
       0.105
      -0.504
      -1.081
      -1.579
      -1.967
      -2.205
      -2.255
      -2.095
      -1.738
      -1.238
      -0.667
      -0.094
       0.428
       0.861
       1.181
       1.373
       1.444
       1.413
       1.300
       1.119
       0.884
       0.624
       0.390
       0.240
       0.211
       0.299
       0.459
       0.630
       0.761
       0.821
       0.795
       0.672
       0.450
       0.141
      -0.225
      -0.615
      -1.004
      -1.379
      -1.723
      -2.006
      -2.194
      -2.267
      -2.232
      -2.111
      -1.927
      -1.682
      -1.375
      -1.010
      -0.604
      -0.185
       0.232
       0.647
       1.053
       1.423
       1.713
       1.894
       1.981
       2.028
       2.081
       2.141
       2.172
       2.141
       2.059
       1.972
       1.922
       1.897
       1.840
       1.690
       1.434
       1.098
       0.720
       0.308
      -0.150
      -0.660
      -1.187
      -1.660
      -2.009
      -2.208
      -2.280
      -2.274
      -2.217
      -2.106
      -1.923
      -1.671
      -1.384
      -1.098
      -0.826
      -0.560
      -0.293
      -0.054
       0.103
       0.134
       0.050
      -0.088
      -0.206
      -0.265
      -0.275
      -0.267
      -0.254
      -0.217
      -0.128
       0.008
       0.141
       0.214
       0.212
       0.190
       0.231
       0.389
       0.648
       0.935
       1.184
       1.366
       1.493
       1.580
       1.614
       1.572
       1.454
       1.297
       1.145
       1.008
       0.859
       0.664
       0.419
       0.159
      -0.070
      -0.238
      -0.338
      -0.379
      -0.357
      -0.259
      -0.085
       0.125
       0.307
       0.413
       0.448
       0.453
       0.459
       0.449
       0.372
       0.190
      -0.087
      -0.414
      -0.762
      -1.135
      -1.545
      -1.968
      -2.335
      -2.575
      -2.667
      -2.644
      -2.551
      -2.398
      -2.152
      -1.780
      -1.298
      -0.776
      -0.306
       0.043
       0.248
       0.323
       0.303
       0.235
       0.184
       0.221
       0.402
       0.739
       1.184
       1.642
       2.020
       2.264
       2.377
       2.398
       2.348
       2.205
       1.914
       1.438
       0.785
       0.013
      -0.791
      -1.533
      -2.123
      -2.482
      -2.558
      -2.361
      -1.971
      -1.506
      -1.080
      -0.758
      -0.543
      -0.396
      -0.265
      -0.106
       0.106
       0.384
       0.726
       1.129
       1.588
       2.097
       2.631
       3.140
       3.564
       3.856
       4.009
       4.044
       3.973
       3.769
       3.372
       2.724
       1.813
       0.680
      -0.587
      -1.880
      -3.081
      -4.083
      -4.808
      -5.217
      -5.317
      -5.139
      -4.728
      -4.129
      -3.396
      -2.595
      -1.821
      -1.191
      -0.812
      -0.737
      -0.931
      -1.275
      -1.614
      -1.818
      -1.829
      -1.655
      -1.332
      -0.890
      -0.357
       0.213
       0.734
       1.115
       1.320
       1.391
       1.414
       1.456
       1.517
       1.545
       1.486
       1.336
       1.134
       0.934
       0.773
       0.675
       0.662
       0.764
       1.006
       1.385
       1.861
       2.368
       2.844
       3.248
       3.560
       3.766
       3.845
       3.782
       3.587
       3.302
       2.968
       2.603
       2.196
       1.736
       1.249
       0.798
       0.443
       0.192
      -0.009
      -0.246
      -0.576
      -1.007
      -1.509
      -2.055
      -2.640
      -3.276
      -3.961
      -4.661
      -5.319
      -5.876
      -6.284
      -6.508
      -6.521
      -6.303
      -5.846
      -5.162
      -4.279
      -3.230
      -2.050
      -0.809
       0.377
       1.363
       2.031
       2.352
       2.385
       2.240
       2.020
       1.794
       1.607
       1.504
       1.532
       1.727
       2.081
       2.550
       3.062
       3.540
       3.917
       4.131
       4.130
       3.882
       3.373
       2.627
       1.701
       0.680
      -0.344
      -1.287
      -2.077
      -2.650
      -2.965
      -3.011
      -2.811
      -2.412
      -1.866
      -1.228
      -0.558
       0.066
       0.551
       0.814
       0.822
       0.609
       0.256
      -0.153
      -0.566
      -0.954
      -1.282
      -1.481
      -1.469
      -1.189
      -0.648
       0.091
       0.937
       1.808
       2.649
       3.414
       4.054
       4.500
       4.678
       4.531
       4.040
       3.233
       2.178
       0.976
      -0.262
      -1.430
      -2.440
      -3.225
      -3.738
      -3.963
      -3.929
      -3.698
      -3.342
      -2.919
      -2.462
      -2.009
      -1.617
      -1.342
      -1.202
      -1.140
      -1.050
      -0.831
      -0.442
       0.081
       0.666
       1.240
       1.753
       2.168
       2.455
       2.591
       2.574
       2.420
       2.155
       1.790
       1.307
       0.680
      -0.081
      -0.911
      -1.706
      -2.369
      -2.843
      -3.122
      -3.227
      -3.181
      -2.991
      -2.650
      -2.157
      -1.539
      -0.837
      -0.075
       0.754
       1.666
       2.633
       3.568
       4.356
       4.914
       5.232
       5.364
       5.367
       5.255
       4.990
       4.518
       3.819
       2.926
       1.918
       0.879
      -0.142
      -1.136
      -2.111
      -3.064
      -3.967
      -4.778
      -5.462
      -6.004
      -6.384
      -6.566
      -6.488
      -6.102
      -5.416
      -4.506
      -3.483
      -2.441
      -1.427
      -0.458
       0.438
       1.215
       1.826
       2.261
       2.561
       2.776
       2.932
       3.021
       3.025
       2.955
       2.841
       2.708
       2.552
       2.347
       2.077
       1.755
       1.422
       1.109
       0.809
       0.473
       0.050
      -0.465
      -1.020
      -1.527
      -1.898
      -2.076
      -2.045
      -1.827
      -1.479
      -1.090
      -0.766
      -0.586
      -0.577
      -0.716
      -0.962
      -1.284
      -1.668
      -2.078
      -2.451
      -2.711
      -2.801
      -2.703
      -2.432
      -2.014
      -1.472
      -0.827
      -0.108
       0.641
       1.371
       2.045
       2.654
       3.206
       3.705
       4.142
       4.485
       4.697
       4.742
       4.607
       4.313
       3.914
       3.472
       3.016
       2.522
       1.924
       1.164
       0.234
      -0.804
      -1.847
      -2.786
      -3.529
      -4.008
      -4.169
      -3.976
      -3.425
      -2.556
      -1.459
      -0.245
       0.980
       2.122
       3.094
       3.796
       4.133
       4.038
       3.512
       2.624
       1.489
       0.233
      -1.027
      -2.182
      -3.128
      -3.781
      -4.098
      -4.095
      -3.835
      -3.407
      -2.909
      -2.426
      -2.030
      -1.778
      -1.717
      -1.873
      -2.234
      -2.727
      -3.233
      -3.611
      -3.738
      -3.516
      -2.883
      -1.827
      -0.410
       1.233
       2.923
       4.489
       5.806
       6.794
       7.407
       7.618
       7.440
       6.950
       6.274
       5.554
       4.894
       4.339
       3.881
       3.482
       3.098
       2.705
       2.302
       1.887
       1.418
       0.794
      -0.102
      -1.325
      -2.827
      -4.460
      -6.040
      -7.403
      -8.420
      -8.985
      -9.012
      -8.454
      -7.350
      -5.829
      -4.079
      -2.303
      -0.676
       0.659
       1.610
       2.135
       2.248
       2.011
       1.513
       0.862
       0.183
      -0.397
      -0.761
      -0.836
      -0.610
      -0.131
       0.506
       1.185
       1.785
       2.197
       2.335
       2.142
       1.601
       0.738
      -0.374
      -1.624
      -2.867
      -3.938
      -4.675
      -4.952
      -4.715
      -3.991
      -2.878
      -1.515
      -0.062
       1.315
       2.449
       3.207
       3.530
       3.462
       3.117
       2.629
       2.107
       1.645
       1.339
       1.289
       1.555
       2.125
       2.922
       3.833
       4.751
       5.567
       6.155
       6.357
       6.032
       5.122
       3.682
       1.863
      -0.138
      -2.144
      -4.027
      -5.681
      -6.993
      -7.831
      -8.086
      -7.727
      -6.814
      -5.465
      -3.804
      -1.944
      -0.019
       1.790
       3.285
       4.327
       4.886
       5.025
       4.839
       4.399
       3.753
       2.967
       2.153
       1.446
       0.935
       0.612
       0.382
       0.124
      -0.237
      -0.716
      -1.282
      -1.896
      -2.525
      -3.137
      -3.691
      -4.137
      -4.434
      -4.554
      -4.495
      -4.267
      -3.878
      -3.331
      -2.631
      -1.824
      -1.002
      -0.287
       0.220
       0.480
       0.520
       0.404
       0.213
       0.044
       0.029
       0.308
       0.961
       1.950
       3.132
       4.330
       5.410
       6.287
       6.887
       7.122
       6.892
       6.129
       4.822
       3.033
       0.902
      -1.350
      -3.438
      -5.071
      -6.033
      -6.256
      -5.832
      -4.951
      -3.823
      -2.608
      -1.406
      -0.279
       0.711
       1.491
       1.985
       2.141
       1.946
       1.430
       0.663
      -0.246
      -1.159
      -1.946
      -2.516
      -2.833
      -2.890
      -2.683
      -2.221
      -1.551
      -0.790
      -0.092
       0.401
       0.632
       0.643
       0.547
       0.460
       0.448
       0.526
       0.683
       0.906
       1.183
       1.485
       1.749
       1.889
       1.841
       1.619
       1.310
       1.017
       0.784
       0.573
       0.315
      -0.001
      -0.280
      -0.371
      -0.170
       0.298
       0.896
       1.452
       1.855
       2.062
       2.071
       1.874
       1.467
       0.875
       0.170
      -0.551
      -1.197
      -1.706
      -2.038
      -2.169
      -2.101
      -1.884
      -1.602
      -1.343
      -1.148
      -0.995
      -0.824
      -0.593
      -0.323
      -0.107
      -0.059
      -0.250
      -0.656
      -1.156
      -1.583
      -1.784
      -1.668
      -1.217
      -0.484
       0.435
       1.418
       2.339
       3.086
       3.566
       3.712
       3.482
       2.877
       1.945
       0.779
      -0.487
      -1.696
      -2.673
      -3.260
      -3.348
      -2.913
      -2.024
      -0.820
       0.536
       1.906
       3.189
       4.313
       5.204
       5.770
       5.912
       5.575
       4.778
       3.626
       2.268
       0.843
      -0.546
      -1.825
      -2.938
      -3.839
      -4.502
      -4.911
      -5.056
      -4.927
      -4.521
      -3.878
      -3.093
      -2.311
      -1.665
      -1.226
      -0.991
      -0.919
      -0.965
      -1.094
      -1.262
      -1.406
      -1.458
      -1.372
      -1.146
      -0.818
      -0.448
      -0.104
       0.166
       0.341
       0.446
       0.535
       0.659
       0.830
       1.007
       1.129
       1.160
       1.098
       0.961
       0.762
       0.499
       0.170
      -0.211
      -0.594
      -0.909
      -1.082
      -1.054
      -0.796
      -0.318
       0.329
       1.065
       1.798
       2.444
       2.941
       3.250
       3.350
       3.243
       2.946
       2.485
       1.885
       1.175
       0.407
      -0.346
      -0.999
      -1.487
      -1.776
      -1.854
      -1.713
      -1.356
      -0.829
      -0.249
       0.210
       0.382
       0.190
      -0.324
      -1.007
      -1.658
      -2.094
      -2.202
      -1.952
      -1.386
      -0.583
       0.362
       1.357
       2.303
       3.092
       3.603
       3.740
       3.466
       2.813
       1.869
       0.744
      -0.456
      -1.634
      -2.698
      -3.560
      -4.135
      -4.352
      -4.180
      -3.644
      -2.825
      -1.842
      -0.812
       0.165
       0.997
       1.592
       1.871
       1.808
       1.474
       1.018
       0.617
       0.403
       0.430
       0.691
       1.138
       1.703
       2.298
       2.828
       3.201
       3.347
       3.211
       2.753
       1.944
       0.808
      -0.553
      -1.954
      -3.179
      -4.050
      -4.479
      -4.477
      -4.122
      -3.516
      -2.752
      -1.916
      -1.089
      -0.352
       0.237
       0.664
       0.952
       1.136
       1.225
       1.213
       1.109
       0.984
       0.952
       1.116
       1.506
       2.064
       2.679
       3.236
       3.642
       3.824
       3.727
       3.323
       2.619
       1.652
       0.488
      -0.775
      -2.004
      -3.045
      -3.760
      -4.057
      -3.911
      -3.352
      -2.452
      -1.323
      -0.103
       1.061
       2.034
       2.704
       2.966
       2.742
       2.020
       0.897
      -0.420
      -1.696
      -2.753
      -3.512
      -3.964
      -4.117
      -3.962
      -3.502
      -2.795
      -1.961
      -1.142
      -0.453
       0.036
       0.287
       0.283
       0.041
      -0.371
      -0.851
      -1.296
      -1.633
      -1.826
      -1.850
      -1.681
      -1.311
      -0.764
      -0.093
