Origin Time       11/9/2010 07:02:09	
Lat.              25.9 N	
Long.             90.2 E	
Depth (Km)         20.0
Magnitude         5.0
 Region           Meghalaya-Assam-Border                                           
 Above details taken from IMD 
   
Station Code      BON
Station Lat.       26.473
Station Long.      90.561
Station Height(m)   75.0
Site Class        C   Vs30 between 200 m/sec to 375 m/sec *  
Record Time       11.09.2010 07:01:52.814
Sampling Rate     200. Hz
 Record Duration   98.760 Sec.
 Direction         Vert. (Up positive)
Max. Acceleration     -7.356 cm/sec**2
     
  * For reference see Site Classification link of website 
     
 Base Line Corrected and Low Pass Filtered (Cut Off at 35 Hz) Time History
 Acceleration data in cm/sec**2
    
[...]
       0.787
       0.946
       1.024
       0.933
       0.626
       0.147
      -0.372
      -0.774
      -0.950
      -0.880
      -0.623
      -0.266
       0.116
       0.463
       0.715
       0.807
       0.714
       0.488
       0.251
       0.126
       0.151
       0.251
       0.276
       0.097
      -0.295
      -0.771
      -1.131
      -1.245
      -1.133
      -0.925
      -0.738
      -0.593
      -0.432
      -0.192
       0.145
       0.548
       0.951
       1.265
       1.387
       1.244
       0.845
       0.301
      -0.220
      -0.581
      -0.737
      -0.731
      -0.638
      -0.520
      -0.412
      -0.323
      -0.232
      -0.110
       0.060
       0.264
       0.457
       0.596
       0.665
       0.674
       0.636
       0.537
       0.320
      -0.060
      -0.564
      -1.032
      -1.252
      -1.108
      -0.688
      -0.232
       0.041
       0.090
       0.046
       0.079
       0.251
       0.487
       0.663
       0.729
       0.747
       0.795
       0.851
       0.776
       0.450
      -0.071
      -0.555
      -0.772
      -0.687
      -0.494
      -0.457
      -0.689
      -1.062
      -1.307
      -1.225
      -0.827
      -0.314
       0.082
       0.259
       0.292
       0.341
       0.500
       0.723
       0.884
       0.906
       0.828
       0.777
       0.851
       1.031
       1.180
       1.133
       0.807
       0.276
      -0.263
      -0.606
      -0.653
      -0.451
      -0.156
       0.066
       0.133
       0.090
       0.051
       0.072
       0.083
      -0.053
      -0.379
      -0.754
      -0.939
      -0.793
      -0.431
      -0.160
      -0.233
      -0.629
      -1.063
      -1.214
      -0.963
      -0.443
       0.112
       0.551
       0.874
       1.179
       1.550
       1.960
       2.257
       2.241
       1.802
       1.033
       0.188
      -0.489
      -0.916
      -1.175
      -1.398
      -1.638
      -1.836
      -1.881
      -1.689
      -1.273
      -0.751
      -0.292
      -0.025
       0.038
       0.006
       0.025
       0.180
       0.438
       0.678
       0.773
       0.675
       0.439
       0.175
      -0.034
      -0.172
      -0.263
      -0.315
      -0.311
      -0.237
      -0.103
       0.056
       0.194
       0.250
       0.169
      -0.050
      -0.322
      -0.494
      -0.439
      -0.139
       0.301
       0.714
       0.970
       1.042
       0.983
       0.861
       0.702
       0.508
       0.282
       0.047
      -0.159
      -0.294
      -0.321
      -0.234
      -0.074
       0.088
       0.184
       0.171
       0.036
      -0.194
      -0.430
      -0.550
      -0.477
      -0.250
       0.012
       0.210
       0.323
       0.370
       0.359
       0.270
       0.081
      -0.212
      -0.567
      -0.891
      -1.073
      -1.060
      -0.901
      -0.702
      -0.543
      -0.423
      -0.287
      -0.077
       0.223
       0.584
       0.941
       1.228
       1.403
       1.451
       1.368
       1.159
       0.850
       0.488
       0.127
      -0.182
      -0.403
      -0.523
      -0.575
      -0.614
      -0.662
      -0.671
      -0.566
      -0.324
      -0.013
       0.245
       0.367
       0.359
       0.300
       0.271
       0.294
       0.316
       0.254
       0.060
      -0.225
      -0.493
      -0.658
      -0.736
      -0.805
      -0.886
      -0.885
      -0.680
      -0.261
       0.236
       0.620
       0.784
       0.733
       0.531
       0.242
      -0.096
      -0.448
      -0.757
      -0.937
      -0.904
      -0.638
      -0.216
       0.223
       0.557
       0.724
       0.731
       0.611
       0.395
       0.098
      -0.249
      -0.563
      -0.734
      -0.695
      -0.482
      -0.213
       0.011
       0.179
       0.364
       0.634
       0.971
       1.276
       1.439
       1.411
       1.220
       0.936
       0.630
       0.344
       0.084
      -0.171
      -0.438
      -0.703
      -0.909
      -0.992
      -0.935
      -0.791
      -0.636
      -0.511
      -0.392
      -0.226
       0.013
       0.267
       0.407
       0.324
       0.024
      -0.362
      -0.650
      -0.698
      -0.472
      -0.068
       0.328
       0.546
       0.553
       0.476
       0.488
       0.668
       0.948
       1.172
       1.198
       0.982
       0.601
       0.209
      -0.068
      -0.216
      -0.322
      -0.478
      -0.698
      -0.919
      -1.056
      -1.062
      -0.940
      -0.733
      -0.484
      -0.223
       0.011
       0.141
       0.082
      -0.175
      -0.526
      -0.817
      -0.952
      -0.930
      -0.815
      -0.674
      -0.540
      -0.405
      -0.237
      -0.009
       0.284
       0.611
       0.914
       1.133
       1.226
       1.193
       1.055
       0.830
       0.529
       0.192
      -0.095
      -0.257
      -0.302
      -0.325
      -0.412
      -0.561
      -0.695
      -0.751
      -0.729
      -0.661
      -0.552
      -0.360
      -0.039
       0.381
       0.781
       1.022
       1.058
       0.959
       0.837
       0.744
       0.655
       0.527
       0.358
       0.184
       0.059
       0.020
       0.064
       0.139
       0.182
       0.173
       0.148
       0.150
       0.164
       0.127
      -0.011
      -0.211
      -0.376
      -0.435
      -0.410
      -0.390
      -0.433
      -0.511
      -0.539
      -0.467
      -0.331
      -0.217
      -0.171
      -0.142
      -0.044
       0.156
       0.388
       0.538
       0.551
       0.468
       0.378
       0.314
       0.231
       0.068
      -0.146
      -0.275
      -0.173
       0.165
       0.571
       0.809
       0.754
       0.463
       0.114
      -0.137
      -0.249
      -0.306
      -0.432
      -0.682
      -0.994
      -1.233
      -1.287
      -1.142
      -0.875
      -0.579
      -0.307
      -0.065
       0.144
       0.295
       0.365
       0.376
       0.388
       0.443
       0.515
       0.530
       0.435
       0.258
       0.110
       0.108
       0.274
       0.491
       0.561
       0.348
      -0.100
      -0.560
      -0.793
      -0.733
      -0.542
      -0.464
      -0.613
      -0.880
      -1.030
      -0.911
      -0.570
      -0.197
       0.039
       0.112
       0.121
       0.182
       0.329
       0.509
       0.630
       0.630
       0.514
       0.360
       0.258
       0.229
       0.199
       0.089
      -0.068
      -0.124
       0.053
       0.454
       0.918
       1.240
       1.287
       1.039
       0.581
       0.066
      -0.328
      -0.470
      -0.361
      -0.170
      -0.143
      -0.409
      -0.844
      -1.141
      -1.059
      -0.629
      -0.132
       0.134
       0.082
      -0.122
      -0.203
      -0.010
       0.376
       0.714
       0.803
       0.654
       0.472
       0.480
       0.729
       1.048
       1.171
       0.950
       0.465
      -0.047
      -0.370
      -0.438
      -0.338
      -0.217
      -0.178
      -0.234
      -0.336
      -0.433
      -0.515
      -0.610
      -0.728
      -0.826
      -0.841
      -0.758
      -0.635
      -0.549
      -0.519
      -0.498
      -0.433
      -0.312
      -0.165
      -0.021
       0.103
       0.192
       0.219
       0.158
       0.023
      -0.085
      -0.022
       0.287
       0.741
       1.101
       1.157
       0.890
       0.469
       0.115
      -0.036
       0.031
       0.241
       0.479
       0.631
       0.610
       0.384
      -0.002
      -0.437
      -0.798
      -1.021
      -1.122
      -1.154
      -1.134
      -1.038
      -0.839
      -0.559
      -0.269
      -0.044
       0.067
       0.070
       0.026
       0.019
       0.097
       0.239
       0.377
       0.461
       0.490
       0.509
       0.562
       0.660
       0.775
       0.862
       0.893
       0.874
       0.837
       0.807
       0.777
       0.717
       0.591
       0.379
       0.087
      -0.250
      -0.584
      -0.873
      -1.093
      -1.210
      -1.170
      -0.932
      -0.534
      -0.131
       0.083
       0.028
      -0.176
      -0.288
      -0.145
       0.189
       0.480
       0.513
       0.265
      -0.091
      -0.316
      -0.278
      -0.029
       0.249
       0.392
       0.376
       0.309
       0.321
       0.446
       0.620
       0.761
       0.843
       0.901
       0.955
       0.962
       0.819
       0.461
      -0.062
      -0.598
      -1.011
      -1.261
      -1.393
      -1.459
      -1.462
      -1.377
      -1.189
      -0.931
      -0.667
      -0.432
      -0.198
       0.077
       0.375
       0.602
       0.685
       0.644
       0.563
       0.490
       0.377
       0.155
      -0.161
      -0.457
      -0.612
      -0.599
      -0.477
      -0.304
      -0.079
       0.208
       0.491
       0.622
       0.477
       0.085
      -0.364
      -0.638
      -0.612
      -0.341
      -0.026
       0.121
       0.035
      -0.135
      -0.159
       0.061
       0.380
       0.539
       0.402
       0.058
      -0.289
      -0.501
      -0.584
      -0.617
      -0.637
      -0.603
      -0.434
      -0.097
       0.348
       0.772
       1.059
       1.173
       1.164
       1.104
       1.042
       0.993
       0.944
       0.848
       0.630
       0.238
      -0.279
      -0.756
      -1.013
      -0.981
      -0.728
      -0.377
      -0.016
       0.337
       0.672
       0.932
       1.028
       0.914
       0.651
       0.376
       0.203
       0.134
       0.068
      -0.101
      -0.389
      -0.709
      -0.939
      -1.027
      -1.011
      -0.977
      -0.965
      -0.930
      -0.796
      -0.553
      -0.292
      -0.127
      -0.094
      -0.133
      -0.160
      -0.154
      -0.167
      -0.265
      -0.458
      -0.663
      -0.743
      -0.596
      -0.228
       0.239
       0.640
       0.860
       0.877
       0.767
       0.671
       0.754
       1.101
       1.623
       2.059
       2.140
       1.791
       1.182
       0.567
       0.089
      -0.272
      -0.582
      -0.842
      -1.003
      -1.047
      -1.033
      -1.041
      -1.077
      -1.054
      -0.869
      -0.501
      -0.042
       0.374
       0.651
       0.747
       0.660
       0.417
       0.095
      -0.186
      -0.319
      -0.268
      -0.103
       0.028
      -0.029
      -0.329
      -0.752
      -1.072
      -1.123
      -0.936
      -0.699
      -0.579
      -0.578
      -0.558
      -0.390
      -0.089
       0.213
       0.406
       0.496
       0.556
       0.606
       0.579
       0.415
       0.152
      -0.085
      -0.211
      -0.261
      -0.324
      -0.412
      -0.416
      -0.229
       0.130
       0.506
       0.729
       0.758
       0.710
       0.759
       0.994
       1.338
       1.606
       1.652
       1.481
       1.235
       1.058
       0.974
       0.885
       0.678
       0.325
      -0.129
      -0.620
      -1.105
      -1.532
      -1.836
      -1.970
      -1.960
      -1.896
      -1.874
      -1.932
      -2.034
      -2.097
      -2.034
      -1.797
      -1.405
      -0.930
      -0.449
       0.007
       0.469
       0.979
       1.533
       2.060
       2.474
       2.736
       2.832
       2.721
       2.324
       1.616
       0.724
      -0.088
      -0.548
      -0.533
      -0.140
       0.374
       0.733
       0.785
       0.570
       0.264
       0.040
      -0.020
       0.064
       0.205
       0.270
       0.106
      -0.406
      -1.264
      -2.309
      -3.253
      -3.795
      -3.761
      -3.202
      -2.392
      -1.688
      -1.293
      -1.121
      -0.861
      -0.236
       0.765
       1.872
       2.717
       3.074
       2.978
       2.652
       2.321
       2.065
       1.830
       1.559
       1.295
       1.159
       1.217
       1.386
       1.481
       1.350
       0.993
       0.547
       0.187
       0.002
      -0.056
      -0.124
      -0.314
      -0.649
      -1.100
      -1.647
      -2.273
      -2.911
      -3.423
      -3.678
      -3.624
      -3.301
      -2.790
      -2.168
      -1.503
      -0.872
      -0.346
       0.061
       0.406
       0.789
       1.277
       1.849
       2.395
       2.762
       2.815
       2.486
       1.814
       0.963
       0.192
      -0.272
      -0.384
      -0.323
      -0.353
      -0.615
      -1.017
      -1.324
      -1.342
      -1.031
      -0.497
       0.096
       0.628
       1.076
       1.510
       2.024
       2.631
       3.217
       3.579
       3.539
       3.026
       2.102
       0.919
      -0.343
      -1.533
      -2.553
      -3.342
      -3.873
      -4.136
      -4.110
      -3.749
      -3.010
      -1.917
      -0.602
       0.749
       1.968
       2.946
       3.602
       3.866
       3.714
       3.211
       2.500
       1.724
       0.951
       0.178
      -0.616
      -1.408
      -2.113
      -2.617
      -2.838
      -2.778
      -2.529
      -2.230
      -2.004
      -1.935
      -2.044
      -2.269
      -2.459
      -2.429
      -2.068
      -1.423
      -0.675
      -0.020
       0.440
       0.724
       0.920
       1.095
       1.252
       1.356
       1.404
       1.465
       1.651
       2.022
       2.519
       2.986
       3.282
       3.389
       3.418
       3.517
       3.762
       4.093
       4.331
       4.285
       3.887
       3.238
       2.486
       1.651
       0.582
      -0.879
      -2.679
      -4.520
      -6.030
      -6.980
      -7.356
      -7.274
      -6.859
      -6.188
      -5.310
      -4.316
      -3.359
      -2.597
      -2.087
      -1.739
      -1.381
      -0.884
      -0.254
       0.389
       0.915
       1.275
       1.515
       1.722
       1.970
       2.284
       2.642
       2.996
       3.312
       3.583
       3.802
       3.925
       3.879
       3.610
       3.127
       2.502
       1.812
       1.085
       0.318
      -0.447
      -1.083
      -1.429
      -1.401
      -1.045
      -0.502
       0.068
       0.528
       0.770
       0.742
       0.487
       0.163
      -0.028
       0.043
       0.328
       0.596
       0.529
      -0.086
      -1.197
      -2.477
      -3.474
      -3.856
      -3.569
      -2.835
      -1.985
      -1.254
      -0.691
      -0.253
       0.051
       0.152
       0.043
      -0.120
      -0.123
       0.090
       0.315
       0.251
      -0.207
      -0.817
      -1.127
      -0.809
       0.078
       1.106
       1.777
       1.846
       1.427
       0.824
       0.281
      -0.140
      -0.489
      -0.781
      -0.939
      -0.854
      -0.486
       0.105
       0.810
       1.530
       2.162
       2.560
       2.553
       2.062
       1.211
       0.282
      -0.449
      -0.877
      -1.070
      -1.153
      -1.181
      -1.152
      -1.081
      -1.034
      -1.075
      -1.177
      -1.222
      -1.096
      -0.780
      -0.362
       0.034
       0.305
       0.408
       0.379
       0.337
       0.442
       0.802
       1.379
       1.968
       2.297
       2.200
       1.738
       1.150
       0.689
       0.461
       0.407
       0.433
       0.540
       0.827
       1.376
       2.130
       2.875
       3.333
       3.301
       2.757
       1.852
       0.780
      -0.351
      -1.552
      -2.860
      -4.240
      -5.544
      -6.580
      -7.191
      -7.313
      -6.972
      -6.254
      -5.277
      -4.183
      -3.117
      -2.183
      -1.411
      -0.744
      -0.077
       0.681
       1.540
       2.395
       3.071
       3.456
       3.601
       3.702
       3.970
       4.485
       5.123
       5.613
       5.686
       5.223
       4.307
       3.164
       2.041
       1.125
       0.499
       0.139
      -0.073
      -0.294
      -0.628
      -1.078
      -1.587
      -2.101
      -2.582
      -2.967
      -3.143
      -3.008
      -2.566
      -1.983
      -1.523
      -1.387
      -1.561
      -1.798
      -1.784
      -1.363
      -0.660
       0.011
       0.370
       0.341
       0.075
      -0.165
      -0.165
       0.110
       0.485
       0.689
       0.531
       0.039
      -0.558
      -0.986
      -1.091
      -0.897
      -0.535
      -0.121
       0.299
       0.707
       1.045
       1.199
       1.069
       0.677
       0.211
      -0.050
       0.103
       0.669
       1.446
       2.173
       2.670
       2.880
       2.817
       2.534
       2.144
       1.814
       1.687
       1.767
       1.898
       1.875
       1.630
       1.311
       1.167
       1.305
       1.531
       1.468
       0.893
      -0.050
      -0.961
      -1.542
      -1.830
      -2.103
      -2.570
      -3.176
      -3.666
      -3.830
      -3.683
      -3.430
      -3.269
      -3.243
      -3.253
      -3.191
      -3.045
      -2.888
      -2.791
      -2.740
      -2.636
      -2.381
      -1.986
      -1.595
      -1.394
      -1.442
      -1.567
      -1.448
      -0.840
       0.227
       1.459
       2.496
       3.136
       3.433
       3.603
       3.834
       4.134
       4.321
       4.197
       3.739
       3.142
       2.637
       2.270
       1.888
       1.336
       0.647
       0.021
      -0.361
      -0.472
      -0.397
      -0.221
       0.011
       0.245
       0.381
       0.315
       0.030
      -0.369
      -0.699
      -0.818
      -0.713
      -0.477
      -0.194
       0.158
       0.678
       1.420
       2.288
       3.049
       3.465
       3.453
       3.126
       2.664
       2.124
       1.370
       0.221
      -1.303
      -2.874
      -4.025
      -4.490
      -4.414
      -4.233
      -4.324
      -4.698
      -5.004
      -4.823
      -4.010
      -2.810
      -1.690
      -1.029
      -0.889
      -1.022
      -1.062
      -0.773
      -0.157
       0.595
       1.225
       1.532
       1.469
       1.181
       0.929
       0.910
       1.114
       1.361
       1.471
       1.414
       1.307
       1.321
       1.552
       1.945
       2.316
       2.480
       2.400
       2.191
       1.972
       1.734
       1.368
       0.816
       0.155
      -0.469
      -0.971
      -1.367
      -1.693
      -1.903
      -1.880
      -1.553
      -1.002
      -0.450
      -0.130
      -0.125
      -0.304
      -0.401
      -0.199
       0.327
       1.017
       1.642
       2.014
       2.023
       1.645
       0.956
       0.128
      -0.626
      -1.141
      -1.368
      -1.388
      -1.374
      -1.531
      -1.976
      -2.614
      -3.126
      -3.129
      -2.418
      -1.107
       0.403
       1.623
       2.206
       2.110
       1.594
       1.046
       0.754
       0.751
       0.849
       0.806
       0.517
       0.090
      -0.230
      -0.237
       0.085
       0.555
       0.930
       1.077
       1.033
       0.927
       0.831
       0.675
       0.308
      -0.335
      -1.111
      -1.725
      -1.945
      -1.768
      -1.401
      -1.076
      -0.911
      -0.912
      -1.044
      -1.277
      -1.567
      -1.848
      -2.052
      -2.125
      -2.022
      -1.716
      -1.223
      -0.605
       0.055
       0.696
       1.285
       1.817
       2.307
       2.774
       3.228
       3.679
       4.151
       4.663
       5.164
       5.520
       5.575
       5.261
       4.625
