Origin Time       21/9/2009 8:53:04	 
Lat.              27.3 N	
Long.             91.5 E	
Depth (Km)          8.0
Magnitude         6.2
 Region           BHUTAN                                                           
 Above details taken from IMD 
   
Station Code      BON
Station Lat.       26.473
Station Long.      90.561
Station Height(m)   75.0
Site Class        C   Vs30 between 200 m/sec to 375 m/sec *  
Record Time       21.09.2009 14:23:25.889
Sampling Rate     200. Hz
 Record Duration  105.845 Sec.
 Direction         Vert. (Up positive)
Max. Acceleration    -21.760 cm/sec**2
     
  * For reference see Site Classification link of website 
     
 Base Line Corrected and Low Pass Filtered (Cut Off at 35 Hz) Time History
 Acceleration data in cm/sec**2
    
[...]
      -2.718
      -2.584
      -2.039
      -1.217
      -0.265
       0.698
       1.566
       2.220
       2.566
       2.592
       2.382
       2.039
       1.593
       0.985
       0.144
      -0.890
      -1.934
      -2.741
      -3.144
      -3.154
      -2.927
      -2.627
      -2.307
      -1.891
      -1.268
      -0.411
       0.570
       1.478
       2.124
       2.404
       2.295
       1.827
       1.044
       0.021
      -1.119
      -2.214
      -3.095
      -3.627
      -3.730
      -3.382
      -2.620
      -1.550
      -0.328
       0.873
       1.900
       2.655
       3.100
       3.246
       3.125
       2.765
       2.175
       1.362
       0.357
      -0.748
      -1.802
      -2.631
      -3.110
      -3.218
      -3.035
      -2.686
      -2.281
      -1.869
      -1.438
      -0.953
      -0.394
       0.211
       0.791
       1.261
       1.559
       1.676
       1.656
       1.560
       1.431
       1.275
       1.085
       0.878
       0.703
       0.596
       0.532
       0.419
       0.166
      -0.240
      -0.715
      -1.117
      -1.327
      -1.311
      -1.122
      -0.861
      -0.623
      -0.469
      -0.418
      -0.450
      -0.515
      -0.543
      -0.471
      -0.290
      -0.059
       0.122
       0.176
       0.110
       0.009
      -0.021
       0.084
       0.320
       0.636
       0.973
       1.274
       1.483
       1.537
       1.376
       0.978
       0.383
      -0.297
      -0.914
      -1.360
      -1.617
      -1.738
      -1.779
      -1.738
      -1.547
      -1.144
      -0.542
       0.166
       0.866
       1.501
       2.086
       2.638
       3.095
       3.310
       3.137
       2.538
       1.619
       0.582
      -0.352
      -1.006
      -1.281
      -1.161
      -0.716
      -0.075
       0.602
       1.168
       1.521
       1.615
       1.454
       1.075
       0.534
      -0.092
      -0.716
      -1.256
      -1.665
      -1.935
      -2.080
      -2.107
      -2.000
      -1.730
      -1.285
      -0.707
      -0.100
       0.419
       0.790
       1.049
       1.281
       1.523
       1.702
       1.662
       1.280
       0.570
      -0.316
      -1.196
      -1.959
      -2.595
      -3.116
      -3.471
      -3.532
      -3.178
      -2.408
      -1.389
      -0.389
       0.362
       0.763
       0.845
       0.701
       0.420
       0.071
      -0.286
      -0.600
      -0.859
      -1.097
      -1.356
      -1.623
      -1.800
      -1.753
      -1.392
      -0.723
       0.169
       1.173
       2.199
       3.170
       3.995
       4.557
       4.734
       4.446
       3.693
       2.563
       1.229
      -0.093
      -1.202
      -1.988
      -2.465
      -2.735
      -2.900
      -2.993
      -2.961
      -2.702
      -2.136
      -1.276
      -0.237
       0.793
       1.624
       2.124
       2.251
       2.051
       1.641
       1.161
       0.728
       0.403
       0.190
       0.064
      -0.003
      -0.021
       0.020
       0.139
       0.361
       0.698
       1.132
       1.598
       1.989
       2.200
       2.183
       1.966
       1.619
       1.175
       0.597
      -0.185
      -1.190
      -2.313
      -3.357
      -4.130
      -4.545
      -4.640
      -4.501
      -4.191
      -3.730
      -3.139
      -2.481
      -1.855
      -1.349
      -0.983
      -0.711
      -0.468
      -0.222
       0.027
       0.281
       0.568
       0.934
       1.403
       1.964
       2.581
       3.202
       3.756
       4.143
       4.253
       4.025
       3.490
       2.759
       1.943
       1.091
       0.200
      -0.710
      -1.540
      -2.136
      -2.369
      -2.212
      -1.750
      -1.129
      -0.490
       0.080
       0.549
       0.915
       1.175
       1.324
       1.353
       1.259
       1.032
       0.655
       0.107
      -0.605
      -1.426
      -2.251
      -2.965
      -3.487
      -3.799
      -3.929
      -3.878
      -3.582
      -2.930
      -1.846
      -0.382
       1.267
       2.814
       3.987
       4.614
       4.652
       4.162
       3.243
       2.009
       0.573
      -0.931
      -2.350
      -3.521
      -4.298
      -4.562
      -4.246
      -3.357
      -2.005
      -0.407
       1.164
       2.467
       3.367
       3.852
       3.970
       3.750
       3.178
       2.232
       0.944
      -0.566
      -2.119
      -3.523
      -4.598
      -5.185
      -5.162
      -4.486
      -3.236
      -1.600
       0.183
       1.896
       3.371
       4.482
       5.143
       5.321
       5.032
       4.319
       3.240
       1.881
       0.411
      -0.928
      -1.900
      -2.388
      -2.451
      -2.275
      -2.032
      -1.778
      -1.444
      -0.947
      -0.308
       0.315
       0.711
       0.760
       0.507
       0.112
      -0.265
      -0.559
      -0.792
      -0.995
      -1.131
      -1.123
      -0.936
      -0.653
      -0.427
      -0.344
      -0.324
      -0.160
       0.319
       1.102
       1.988
       2.704
       3.059
       3.014
       2.650
       2.068
       1.322
       0.432
      -0.569
      -1.586
      -2.471
      -3.071
      -3.277
      -3.049
      -2.416
      -1.472
      -0.367
       0.729
       1.677
       2.424
       2.990
       3.415
       3.686
       3.712
       3.376
       2.614
       1.458
       0.010
      -1.607
      -3.271
      -4.852
      -6.195
      -7.134
      -7.542
      -7.371
      -6.656
      -5.481
      -3.946
      -2.142
      -0.155
       1.921
       3.959
       5.789
       7.214
       8.061
       8.251
       7.811
       6.852
       5.507
       3.905
       2.191
       0.540
      -0.860
      -1.859
      -2.406
      -2.564
      -2.468
      -2.238
      -1.915
      -1.471
      -0.879
      -0.198
       0.410
       0.747
       0.674
       0.168
      -0.695
      -1.788
      -2.971
      -4.094
      -4.989
      -5.496
      -5.507
      -4.993
      -3.992
      -2.577
      -0.861
       0.996
       2.785
       4.303
       5.417
       6.102
       6.405
       6.356
       5.930
       5.087
       3.847
       2.327
       0.715
      -0.806
      -2.125
      -3.207
      -4.066
      -4.707
      -5.118
      -5.275
      -5.170
      -4.805
      -4.180
      -3.278
      -2.085
      -0.641
       0.905
       2.302
       3.289
       3.721
       3.650
       3.270
       2.796
       2.345
       1.923
       1.484
       1.006
       0.513
       0.049
      -0.343
      -0.610
      -0.682
      -0.498
      -0.067
       0.507
       1.053
       1.429
       1.596
       1.628
       1.637
       1.681
       1.719
       1.648
       1.374
       0.877
       0.233
      -0.415
      -0.913
      -1.158
      -1.120
      -0.838
      -0.392
       0.129
       0.654
       1.152
       1.639
       2.158
       2.717
       3.248
       3.601
       3.612
       3.175
       2.282
       1.020
      -0.462
      -1.974
      -3.312
      -4.296
      -4.826
      -4.908
      -4.635
      -4.128
      -3.476
      -2.721
      -1.883
      -1.005
      -0.158
       0.581
       1.155
       1.521
       1.638
       1.472
       1.017
       0.317
      -0.539
      -1.433
      -2.235
      -2.811
      -3.039
      -2.844
      -2.257
      -1.428
      -0.575
       0.115
       0.578
       0.883
       1.156
       1.489
       1.882
       2.282
       2.650
       2.996
       3.342
       3.659
       3.853
       3.836
       3.617
       3.325
       3.135
       3.155
       3.365
       3.644
       3.849
       3.876
       3.689
       3.304
       2.759
       2.097
       1.345
       0.525
      -0.323
      -1.103
      -1.670
      -1.884
      -1.693
      -1.179
      -0.503
       0.191
       0.846
       1.463
       2.022
       2.433
       2.564
       2.336
       1.785
       1.045
       0.259
      -0.504
      -1.247
      -1.973
      -2.604
      -2.984
      -2.958
      -2.475
      -1.642
      -0.673
       0.211
       0.870
       1.269
       1.452
       1.489
       1.447
       1.359
       1.213
       0.956
       0.538
      -0.022
      -0.602
      -1.019
      -1.123
      -0.891
      -0.433
       0.071
       0.464
       0.678
       0.728
       0.675
       0.563
       0.391
       0.122
      -0.262
      -0.719
      -1.129
      -1.348
      -1.266
      -0.855
      -0.171
       0.650
       1.432
       2.007
       2.290
       2.314
       2.200
       2.065
       1.938
       1.746
       1.368
       0.738
      -0.079
      -0.891
      -1.466
      -1.666
      -1.508
      -1.133
      -0.700
      -0.301
       0.040
       0.319
       0.502
       0.531
       0.376
       0.074
      -0.289
      -0.651
      -1.035
      -1.541
      -2.272
      -3.242
      -4.343
      -5.384
      -6.179
      -6.594
      -6.575
      -6.133
      -5.330
      -4.280
      -3.136
      -2.060
      -1.172
      -0.506
      -0.016
       0.358
       0.631
       0.756
       0.677
       0.380
      -0.084
      -0.647
      -1.255
      -1.863
      -2.385
      -2.673
      -2.567
      -2.012
      -1.113
      -0.095
       0.818
       1.494
       1.886
       1.965
       1.690
       1.050
       0.128
      -0.888
      -1.802
      -2.514
      -3.042
      -3.431
      -3.645
      -3.547
      -2.991
      -1.944
      -0.529
       1.025
       2.493
       3.725
       4.640
       5.189
       5.330
       5.037
       4.344
       3.363
       2.249
       1.140
       0.117
      -0.787
      -1.536
      -2.069
      -2.322
      -2.290
      -2.037
      -1.657
      -1.194
      -0.608
       0.175
       1.165
       2.248
       3.206
       3.805
       3.889
       3.426
       2.500
       1.258
      -0.127
      -1.493
      -2.702
      -3.648
      -4.258
      -4.477
      -4.259
      -3.575
      -2.437
      -0.927
       0.803
       2.565
       4.171
       5.463
       6.324
       6.689
       6.553
       5.982
       5.091
       4.018
       2.881
       1.771
       0.773
      -0.017
      -0.503
      -0.633
      -0.442
      -0.040
       0.458
       1.004
       1.631
       2.393
       3.286
       4.211
       5.010
       5.535
       5.678
       5.365
       4.524
       3.088
       1.059
      -1.427
      -4.105
      -6.660
      -8.836
     -10.476
     -11.486
     -11.792
     -11.346
     -10.189
      -8.490
      -6.535
      -4.647
      -3.099
      -2.059
      -1.587
      -1.680
      -2.328
      -3.530
      -5.267
      -7.451
      -9.895
     -12.334
     -14.478
     -16.058
     -16.859
     -16.773
     -15.838
     -14.242
     -12.257
     -10.128
      -8.011
      -5.999
      -4.207
      -2.812
      -1.991
      -1.805
      -2.109
      -2.604
      -2.984
      -3.071
      -2.849
      -2.369
      -1.636
      -0.575
       0.894
       2.754
       4.854
       6.992
       9.003
      10.794
      12.275
      13.288
      13.605
      13.027
      11.511
       9.222
       6.478
       3.618
       0.898
      -1.522
      -3.515
      -4.918
      -5.544
      -5.253
      -4.025
      -1.967
       0.730
       3.834
       7.084
      10.177
      12.791
      14.664
      15.661
      15.810
      15.259
      14.190
      12.754
      11.078
       9.307
       7.641
       6.302
       5.479
       5.261
       5.596
       6.294
       7.061
       7.574
       7.562
       6.885
       5.576
       3.824
       1.892
       0.027
      -1.583
      -2.800
      -3.535
      -3.761
      -3.533
      -2.974
      -2.239
      -1.481
      -0.849
      -0.489
      -0.524
      -1.016
      -1.932
      -3.165
      -4.573
      -6.028
      -7.411
      -8.595
      -9.434
      -9.794
      -9.614
      -8.946
      -7.944
      -6.796
      -5.649
      -4.571
      -3.577
      -2.687
      -1.944
      -1.391
      -1.023
      -0.769
      -0.520
      -0.174
       0.338
       1.048
       1.960
       3.054
       4.278
       5.538
       6.683
       7.525
       7.886
       7.648
       6.794
       5.405
       3.623
       1.611
      -0.491
      -2.566
      -4.489
      -6.084
      -7.126
      -7.422
      -6.903
      -5.667
      -3.907
      -1.818
       0.476
       2.895
       5.325
       7.556
       9.287
      10.203
      10.085
       8.883
       6.709
       3.759
       0.246
      -3.625
      -7.631
     -11.484
     -14.862
     -17.487
     -19.231
     -20.135
     -20.338
     -19.951
     -19.000
     -17.470
     -15.414
     -13.010
     -10.504
      -8.084
      -5.800
      -3.597
      -1.430
       0.656
       2.526
       4.037
       5.121
       5.813
       6.223
       6.479
       6.702
       6.990
       7.406
       7.942
       8.511
       8.986
       9.270
       9.351
       9.295
       9.185
       9.044
       8.820
       8.462
       8.045
       7.827
       8.136
       9.144
      10.702
      12.389
      13.746
      14.546
      14.860
      14.914
      14.858
      14.652
      14.122
      13.082
      11.443
       9.248
       6.679
       4.036
       1.670
      -0.132
      -1.252
      -1.749
      -1.755
      -1.349
      -0.515
       0.774
       2.424
       4.153
       5.549
       6.214
       5.889
       4.489
       2.075
      -1.190
      -5.070
      -9.259
     -13.392
     -17.059
     -19.853
     -21.460
     -21.760
     -20.867
     -19.073
     -16.738
     -14.198
     -11.719
      -9.507
      -7.703
      -6.383
      -5.565
      -5.232
      -5.352
      -5.870
      -6.701
      -7.709
      -8.721
      -9.561
     -10.093
     -10.219
      -9.849
      -8.912
      -7.406
      -5.462
      -3.334
      -1.292
       0.511
       2.102
       3.615
       5.151
       6.698
       8.187
       9.627
      11.166
      12.947
      14.857
      16.445
      17.155
      16.697
      15.209
      13.076
      10.642
       8.090
       5.577
       3.386
       1.848
       1.069
       0.763
       0.447
      -0.193
      -1.102
      -1.983
      -2.555
      -2.711
      -2.509
      -2.102
      -1.677
      -1.388
      -1.274
      -1.190
      -0.851
       0.000
       1.383
       2.998
       4.352
       5.006
       4.797
       3.880
       2.610
       1.350
       0.321
      -0.451
      -1.091
      -1.748
      -2.500
      -3.344
      -4.262
      -5.244
      -6.247
      -7.148
      -7.786
      -8.045
      -7.920
      -7.497
      -6.899
      -6.214
      -5.479
      -4.699
      -3.866
      -2.966
      -1.980
      -0.912
       0.187
       1.249
       2.242
       3.211
       4.277
       5.539
       6.964
       8.363
       9.493
      10.197
      10.479
      10.452
      10.230
       9.831
       9.174
       8.162
       6.776
       5.123
       3.413
       1.899
       0.790
       0.189
       0.060
       0.262
       0.603
       0.900
       1.006
       0.835
       0.381
      -0.252
      -0.868
      -1.271
      -1.372
      -1.255
      -1.127
      -1.219
      -1.676
      -2.503
      -3.555
      -4.597
      -5.388
      -5.779
      -5.759
      -5.433
      -4.937
      -4.347
      -3.630
      -2.694
      -1.483
      -0.053
       1.435
       2.804
       3.942
       4.822
       5.437
       5.731
       5.588
       4.897
       3.657
       2.028
       0.273
      -1.379
      -2.874
      -4.342
      -5.976
      -7.837
      -9.738
     -11.306
     -12.183
     -12.228
     -11.578
     -10.528
      -9.338
      -8.109
      -6.814
      -5.406
      -3.905
      -2.423
      -1.100
      -0.016
       0.882
       1.746
       2.710
       3.775
       4.786
       5.527
       5.840
       5.716
       5.296
       4.799
       4.425
       4.264
       4.293
       4.416
       4.543
       4.639
       4.724
       4.815
       4.867
       4.774
       4.432
       3.832
       3.070
       2.297
       1.650
       1.211
       1.014
       1.048
       1.255
       1.556
       1.924
       2.439
       3.273
       4.554
       6.243
       8.094
       9.740
      10.818
      11.071
      10.393
       8.834
       6.581
       3.926
       1.201
      -1.311
      -3.437
      -5.091
      -6.195
      -6.619
      -6.240
      -5.098
      -3.507
      -1.987
      -1.034
      -0.893
      -1.485
      -2.518
      -3.660
      -4.668
      -5.428
      -5.956
      -6.379
      -6.891
      -7.671
      -8.772
     -10.065
     -11.307
     -12.253
     -12.749
     -12.747
     -12.316
     -11.609
     -10.753
      -9.716
      -8.263
      -6.108
      -3.161
       0.300
       3.693
       6.396
       8.031
       8.566
       8.193
       7.134
       5.528
       3.477
       1.143
      -1.236
      -3.425
      -5.272
      -6.691
      -7.564
      -7.692
      -6.871
      -5.038
      -2.351
       0.823
       4.021
       6.804
       8.834
       9.909
       9.981
       9.162
       7.695
       5.869
       3.926
       2.022
       0.280
      -1.121
      -1.913
      -1.818
      -0.701
       1.310
       3.838
       6.379
       8.470
       9.816
      10.318
      10.054
       9.199
       7.953
       6.466
       4.792
       2.897
       0.735
      -1.639
      -3.995
      -5.957
      -7.148
      -7.355
      -6.617
      -5.183
      -3.397
      -1.584
       0.000
       1.183
       1.881
       2.094
       1.883
       1.339
       0.557
      -0.361
      -1.299
      -2.122
      -2.684
      -2.860
      -2.596
      -1.963
      -1.164
      -0.458
      -0.064
      -0.096
      -0.562
      -1.404
      -2.534
      -3.841
      -5.199
      -6.476
      -7.551
      -8.316
      -8.666
      -8.492
      -7.711
      -6.314
      -4.399
      -2.157
       0.186
       2.429
       4.423
       6.058
       7.245
       7.909
       8.021
       7.634
       6.891
       5.998
       5.162
       4.535
       4.202
       4.189
       4.479
       5.006
       5.636
       6.181
       6.428
       6.206
       5.444
       4.202
       2.631
       0.898
      -0.875
      -2.600
      -4.174
      -5.442
      -6.223
      -6.401
      -5.998
      -5.183
      -4.181
      -3.183
      -2.302
      -1.608
      -1.169
      -1.045
      -1.233
      -1.634
      -2.100
      -2.540
      -2.979
      -3.520
      -4.225
      -5.014
      -5.699
      -6.109
      -6.226
      -6.184
      -6.132
      -6.100
      -5.970
      -5.589
      -4.901
      -4.003
      -3.084
      -2.310
      -1.757
      -1.406
      -1.193
      -1.049
      -0.896
      -0.646
      -0.206
       0.488
       1.434
       2.561
       3.768
       4.970
       6.117
       7.175
       8.091
       8.779
       9.145
       9.132
       8.742
       7.995
       6.890
       5.402
       3.552
       1.485
      -0.537
      -2.215
      -3.321
      -3.764
      -3.596
      -2.966
      -2.057
      -1.014
       0.087
       1.219
       2.349
       3.386
       4.192
       4.655
       4.757
       4.591
       4.283
       3.898
       3.408
       2.766
       2.024
       1.356
       0.964
       0.925
       1.113
