Origin Time       29/10/2009 19:56:58
Lat.              26.6°N	
Long.             90.0°E	
Depth (Km)         10.0
Magnitude         4.2
 Region           KOKRAJHAR-ASSAM                                                  
 Above details taken from IMD 
   
Station Code      BON
Station Lat.       26.473
Station Long.      90.561
Station Height(m)   75.0
Site Class        C   Vs30 between 200 m/sec to 375 m/sec *  
Record Time       29.10.2009 22:31:06.439
Sampling Rate     200. Hz
 Record Duration   72.555 Sec.
 Direction         Vert. (Up positive)
Max. Acceleration     -4.630 cm/sec**2
     
  * For reference see Site Classification link of website 
     
 Base Line Corrected and Low Pass Filtered (Cut Off at 35 Hz) Time History
 Acceleration data in cm/sec**2
    
[...]
       0.627
       0.461
       0.270
       0.050
      -0.182
      -0.394
      -0.554
      -0.643
      -0.656
      -0.602
      -0.490
      -0.341
      -0.179
      -0.031
       0.089
       0.180
       0.250
       0.301
       0.321
       0.293
       0.204
       0.057
      -0.131
      -0.332
      -0.524
      -0.685
      -0.793
      -0.820
      -0.740
      -0.548
      -0.274
       0.023
       0.286
       0.484
       0.622
       0.721
       0.794
       0.829
       0.804
       0.701
       0.530
       0.318
       0.097
      -0.112
      -0.297
      -0.449
      -0.549
      -0.578
      -0.534
      -0.437
      -0.318
      -0.201
      -0.086
       0.035
       0.162
       0.273
       0.340
       0.346
       0.295
       0.210
       0.114
       0.020
      -0.065
      -0.133
      -0.169
      -0.161
      -0.107
      -0.017
       0.096
       0.218
       0.337
       0.441
       0.523
       0.577
       0.607
       0.609
       0.574
       0.492
       0.364
       0.211
       0.061
      -0.059
      -0.141
      -0.196
      -0.236
      -0.269
      -0.291
      -0.291
      -0.264
      -0.220
      -0.185
      -0.182
      -0.218
      -0.277
      -0.333
      -0.363
      -0.365
      -0.349
      -0.328
      -0.305
      -0.273
      -0.228
      -0.179
      -0.141
      -0.121
      -0.117
      -0.114
      -0.100
      -0.068
      -0.029
       0.004
       0.019
       0.020
       0.021
       0.033
       0.054
       0.074
       0.086
       0.089
       0.089
       0.091
       0.097
       0.108
       0.121
       0.137
       0.156
       0.177
       0.191
       0.185
       0.147
       0.074
      -0.022
      -0.117
      -0.187
      -0.223
      -0.235
      -0.241
      -0.251
      -0.259
      -0.249
      -0.215
      -0.158
      -0.086
      -0.005
       0.077
       0.149
       0.190
       0.185
       0.135
       0.067
       0.016
      -0.002
       0.008
       0.031
       0.055
       0.083
       0.118
       0.152
       0.175
       0.182
       0.185
       0.197
       0.216
       0.221
       0.191
       0.120
       0.031
      -0.046
      -0.094
      -0.122
      -0.149
      -0.189
      -0.240
      -0.288
      -0.321
      -0.332
      -0.319
      -0.281
      -0.210
      -0.100
       0.044
       0.207
       0.366
       0.500
       0.599
       0.663
       0.698
       0.706
       0.681
       0.613
       0.493
       0.331
       0.147
      -0.028
      -0.175
      -0.285
      -0.355
      -0.383
      -0.366
      -0.305
      -0.213
      -0.111
      -0.024
       0.034
       0.050
       0.019
      -0.061
      -0.182
      -0.318
      -0.436
      -0.508
      -0.519
      -0.467
      -0.364
      -0.224
      -0.068
       0.081
       0.207
       0.297
       0.347
       0.358
       0.331
       0.266
       0.161
       0.015
      -0.171
      -0.385
      -0.602
      -0.783
      -0.884
      -0.881
      -0.774
      -0.589
      -0.364
      -0.134
       0.079
       0.264
       0.417
       0.530
       0.596
       0.607
       0.564
       0.478
       0.367
       0.258
       0.168
       0.101
       0.044
      -0.015
      -0.072
      -0.110
      -0.115
      -0.096
      -0.077
      -0.077
      -0.092
      -0.096
      -0.064
       0.009
       0.106
       0.202
       0.277
       0.316
       0.302
       0.219
       0.065
      -0.140
      -0.350
      -0.518
      -0.613
      -0.626
      -0.570
      -0.465
      -0.337
      -0.203
      -0.075
       0.043
       0.148
       0.242
       0.328
       0.403
       0.457
       0.479
       0.461
       0.403
       0.313
       0.209
       0.112
       0.038
      -0.009
      -0.033
      -0.042
      -0.045
      -0.048
      -0.058
      -0.077
      -0.092
      -0.087
      -0.054
      -0.006
       0.028
       0.027
      -0.013
      -0.069
      -0.112
      -0.127
      -0.115
      -0.083
      -0.031
       0.044
       0.142
       0.247
       0.331
       0.364
       0.329
       0.233
       0.099
      -0.044
      -0.175
      -0.282
      -0.358
      -0.404
      -0.422
      -0.420
      -0.400
      -0.364
      -0.306
      -0.216
      -0.086
       0.078
       0.251
       0.400
       0.499
       0.541
       0.532
       0.484
       0.404
       0.295
       0.159
       0.010
      -0.125
      -0.225
      -0.273
      -0.269
      -0.222
      -0.145
      -0.053
       0.036
       0.097
       0.107
       0.058
      -0.036
      -0.140
      -0.217
      -0.249
      -0.244
      -0.217
      -0.177
      -0.119
      -0.035
       0.071
       0.179
       0.262
       0.294
       0.261
       0.165
       0.022
      -0.140
      -0.288
      -0.395
      -0.441
      -0.428
      -0.373
      -0.305
      -0.247
      -0.208
      -0.180
      -0.144
      -0.082
       0.011
       0.127
       0.249
       0.360
       0.443
       0.484
       0.471
       0.408
       0.311
       0.209
       0.131
       0.093
       0.093
       0.120
       0.165
       0.223
       0.287
       0.341
       0.372
       0.380
       0.386
       0.412
       0.459
       0.507
       0.523
       0.488
       0.403
       0.289
       0.162
       0.023
      -0.128
      -0.278
      -0.389
      -0.424
      -0.364
      -0.236
      -0.091
       0.015
       0.049
       0.013
      -0.068
      -0.164
      -0.254
      -0.329
      -0.385
      -0.427
      -0.454
      -0.465
      -0.457
      -0.435
      -0.409
      -0.391
      -0.383
      -0.380
      -0.376
      -0.367
      -0.359
      -0.351
      -0.334
      -0.290
      -0.208
      -0.088
       0.053
       0.191
       0.295
       0.346
       0.332
       0.249
       0.103
      -0.088
      -0.290
      -0.459
      -0.556
      -0.563
      -0.483
      -0.331
      -0.124
       0.122
       0.382
       0.617
       0.791
       0.883
       0.895
       0.840
       0.730
       0.570
       0.365
       0.128
      -0.115
      -0.335
      -0.506
      -0.611
      -0.635
      -0.566
      -0.407
      -0.189
       0.041
       0.233
       0.363
       0.437
       0.475
       0.488
       0.465
       0.391
       0.269
       0.126
       0.005
      -0.062
      -0.073
      -0.053
      -0.034
      -0.033
      -0.038
      -0.026
       0.022
       0.105
       0.201
       0.279
       0.311
       0.280
       0.186
       0.046
      -0.109
      -0.244
      -0.341
      -0.397
      -0.421
      -0.421
      -0.399
      -0.357
      -0.304
      -0.258
      -0.233
      -0.221
      -0.205
      -0.168
      -0.114
      -0.060
      -0.022
       0.001
       0.025
       0.066
       0.124
       0.182
       0.225
       0.252
       0.273
       0.297
       0.321
       0.337
       0.328
       0.282
       0.193
       0.064
      -0.091
      -0.247
      -0.379
      -0.469
      -0.513
      -0.516
      -0.481
      -0.414
      -0.319
      -0.207
      -0.096
       0.003
       0.089
       0.169
       0.252
       0.336
       0.409
       0.456
       0.469
       0.451
       0.416
       0.378
       0.336
       0.278
       0.193
       0.084
      -0.028
      -0.113
      -0.153
      -0.153
      -0.132
      -0.106
      -0.071
      -0.012
       0.079
       0.187
       0.279
       0.321
       0.298
       0.220
       0.116
       0.020
      -0.035
      -0.036
       0.014
       0.090
       0.164
       0.217
       0.252
       0.288
       0.337
       0.390
       0.419
       0.393
       0.296
       0.136
      -0.056
      -0.243
      -0.395
      -0.497
      -0.546
      -0.541
      -0.481
      -0.370
      -0.225
      -0.076
       0.048
       0.127
       0.157
       0.146
       0.102
       0.027
      -0.074
      -0.181
      -0.260
      -0.277
      -0.220
      -0.103
       0.055
       0.241
       0.457
       0.696
       0.928
       1.101
       1.168
       1.116
       0.977
       0.806
       0.650
       0.524
       0.416
       0.305
       0.182
       0.048
      -0.082
      -0.199
      -0.301
      -0.388
      -0.462
      -0.515
      -0.533
      -0.502
      -0.418
      -0.300
      -0.184
      -0.114
      -0.112
      -0.173
      -0.264
      -0.348
      -0.408
      -0.450
      -0.496
      -0.562
      -0.641
      -0.705
      -0.720
      -0.671
      -0.566
      -0.430
      -0.281
      -0.123
       0.045
       0.211
       0.337
       0.381
       0.327
       0.207
       0.082
       0.008
      -0.001
       0.030
       0.056
       0.042
      -0.017
      -0.101
      -0.183
      -0.251
      -0.307
      -0.358
      -0.408
      -0.452
      -0.491
      -0.533
      -0.592
      -0.671
      -0.756
      -0.820
      -0.839
      -0.808
      -0.745
      -0.685
      -0.660
      -0.693
      -0.794
      -0.964
      -1.195
      -1.459
      -1.717
      -1.919
      -2.021
      -1.994
      -1.828
      -1.533
      -1.137
      -0.682
      -0.210
       0.242
       0.645
       0.981
       1.229
       1.373
       1.407
       1.348
       1.238
       1.126
       1.052
       1.037
       1.085
       1.196
       1.367
       1.589
       1.844
       2.105
       2.346
       2.555
       2.730
       2.868
       2.956
       2.974
       2.906
       2.750
       2.520
       2.243
       1.950
       1.654
       1.350
       1.023
       0.671
       0.309
      -0.040
      -0.366
      -0.679
      -0.991
      -1.305
      -1.610
      -1.893
      -2.149
      -2.380
      -2.583
      -2.742
      -2.832
      -2.830
      -2.720
      -2.502
      -2.186
      -1.792
      -1.352
      -0.896
      -0.455
      -0.056
       0.280
       0.531
       0.687
       0.742
       0.698
       0.564
       0.360
       0.126
      -0.081
      -0.201
      -0.190
      -0.033
       0.258
       0.656
       1.138
       1.676
       2.234
       2.760
       3.190
       3.461
       3.524
       3.356
       2.972
       2.409
       1.721
       0.958
       0.175
      -0.571
      -1.229
      -1.764
      -2.167
      -2.449
      -2.625
      -2.707
      -2.706
      -2.643
      -2.554
      -2.477
      -2.441
      -2.456
      -2.516
      -2.613
      -2.733
      -2.855
      -2.951
      -2.992
      -2.960
      -2.855
      -2.688
      -2.473
      -2.216
      -1.915
      -1.569
      -1.188
      -0.793
      -0.413
      -0.075
       0.198
       0.392
       0.505
       0.552
       0.563
       0.579
       0.631
       0.737
       0.899
       1.115
       1.382
       1.697
       2.042
       2.381
       2.664
       2.850
       2.925
       2.908
       2.831
       2.718
       2.577
       2.416
       2.257
       2.136
       2.063
       2.007
       1.904
       1.705
       1.402
       1.027
       0.634
       0.270
      -0.038
      -0.286
      -0.493
      -0.686
      -0.887
      -1.101
      -1.314
      -1.494
      -1.598
      -1.584
      -1.430
      -1.141
      -0.743
      -0.276
       0.212
       0.670
       1.047
       1.303
       1.426
       1.434
       1.367
       1.263
       1.140
       0.987
       0.792
       0.556
       0.302
       0.069
      -0.109
      -0.205
      -0.219
      -0.177
      -0.127
      -0.119
      -0.181
      -0.304
      -0.444
      -0.548
      -0.590
      -0.577
      -0.537
      -0.487
      -0.428
      -0.345
      -0.235
      -0.116
      -0.029
      -0.020
      -0.117
      -0.320
      -0.603
      -0.921
      -1.220
      -1.450
      -1.584
      -1.622
      -1.595
      -1.536
      -1.466
      -1.369
      -1.206
      -0.937
      -0.538
      -0.019
       0.586
       1.224
       1.833
       2.349
       2.711
       2.874
       2.826
       2.586
       2.191
       1.683
       1.094
       0.454
      -0.198
      -0.819
      -1.362
      -1.804
      -2.148
      -2.426
      -2.666
      -2.876
      -3.036
      -3.116
      -3.093
      -2.963
      -2.741
      -2.445
      -2.085
      -1.669
      -1.211
      -0.754
      -0.349
      -0.041
       0.157
       0.263
       0.309
       0.323
       0.327
       0.343
       0.393
       0.498
       0.666
       0.896
       1.176
       1.485
       1.796
       2.077
       2.296
       2.427
       2.461
       2.418
       2.334
       2.246
       2.171
       2.096
       1.990
       1.822
       1.582
       1.292
       1.002
       0.761
       0.596
       0.503
       0.459
       0.434
       0.409
       0.366
       0.285
       0.149
      -0.056
      -0.326
      -0.648
      -1.014
      -1.418
      -1.857
      -2.319
      -2.776
      -3.192
      -3.540
      -3.797
      -3.938
      -3.929
      -3.740
      -3.364
      -2.819
      -2.137
      -1.353
      -0.505
       0.360
       1.178
       1.888
       2.444
       2.828
       3.049
       3.134
       3.127
       3.083
       3.060
       3.093
       3.175
       3.257
       3.280
       3.204
       3.033
       2.804
       2.562
       2.334
       2.121
       1.905
       1.672
       1.427
       1.196
       1.016
       0.915
       0.885
       0.884
       0.845
       0.702
       0.412
      -0.037
      -0.622
      -1.303
      -2.029
      -2.748
      -3.404
      -3.945
      -4.334
      -4.557
      -4.630
      -4.577
      -4.416
      -4.150
      -3.774
      -3.298
      -2.764
      -2.246
      -1.815
      -1.503
      -1.284
      -1.091
      -0.850
      -0.523
      -0.124
       0.301
       0.697
       1.032
       1.291
       1.467
       1.550
       1.539
       1.447
       1.313
       1.189
       1.118
       1.112
       1.144
       1.159
       1.105
       0.965
       0.767
       0.563
       0.395
       0.264
       0.135
      -0.028
      -0.234
      -0.455
      -0.652
      -0.796
      -0.882
      -0.915
      -0.895
      -0.830
      -0.746
      -0.691
      -0.709
      -0.809
      -0.955
      -1.093
      -1.186
      -1.230
      -1.240
      -1.232
      -1.203
      -1.134
      -1.002
      -0.789
      -0.497
      -0.148
       0.219
       0.556
       0.831
       1.044
       1.223
       1.400
       1.583
       1.751
       1.868
       1.903
       1.846
       1.706
       1.497
       1.239
       0.960
       0.697
       0.492
       0.387
       0.413
       0.579
       0.865
       1.227
       1.604
       1.942
       2.201
       2.366
       2.435
       2.409
       2.286
       2.066
       1.753
       1.359
       0.896
       0.383
      -0.151
      -0.658
      -1.086
      -1.389
      -1.545
      -1.556
      -1.433
      -1.180
      -0.795
      -0.286
       0.311
       0.927
       1.473
       1.867
       2.041
       1.952
       1.580
       0.946
       0.133
      -0.712
      -1.422
      -1.863
      -1.985
      -1.820
      -1.444
      -0.942
      -0.382
       0.176
       0.668
       1.020
       1.164
       1.068
       0.747
       0.253
      -0.354
      -1.022
      -1.706
      -2.357
      -2.917
      -3.341
      -3.598
      -3.679
      -3.586
      -3.332
      -2.957
      -2.523
      -2.090
      -1.684
      -1.288
      -0.871
      -0.447
      -0.090
       0.090
       0.022
      -0.270
      -0.669
      -1.024
      -1.230
      -1.245
      -1.085
      -0.787
      -0.398
       0.029
       0.441
       0.807
       1.137
       1.473
       1.855
       2.300
       2.782
       3.250
       3.640
       3.885
       3.929
       3.741
       3.325
       2.719
       1.978
       1.159
       0.321
      -0.474
      -1.156
      -1.666
      -1.970
      -2.066
      -1.981
      -1.770
      -1.511
      -1.296
      -1.204
      -1.270
      -1.472
      -1.758
      -2.067
      -2.356
      -2.595
      -2.756
      -2.813
      -2.746
      -2.543
      -2.198
      -1.707
      -1.068
      -0.293
       0.580
       1.489
       2.349
       3.074
       3.589
       3.864
       3.915
       3.798
       3.575
       3.304
       3.023
       2.748
       2.469
       2.169
       1.850
       1.542
       1.292
       1.134
       1.064
       1.042
       1.020
       0.978
       0.923
       0.866
       0.807
       0.721
       0.578
       0.357
       0.058
      -0.300
      -0.684
      -1.061
      -1.405
      -1.704
      -1.960
      -2.184
      -2.395
      -2.602
      -2.800
      -2.964
      -3.067
      -3.101
      -3.090
      -3.072
      -3.080
      -3.121
      -3.171
      -3.179
      -3.083
      -2.825
      -2.361
      -1.684
      -0.827
       0.139
       1.119
       2.009
       2.727
       3.227
       3.517
       3.650
       3.697
       3.700
       3.663
       3.565
       3.386
       3.123
       2.789
       2.404
       1.998
       1.616
       1.304
       1.078
       0.910
       0.749
       0.552
       0.314
       0.066
      -0.151
      -0.318
      -0.444
      -0.554
      -0.667
      -0.798
      -0.950
      -1.116
      -1.278
      -1.422
      -1.544
      -1.661
      -1.803
      -1.994
      -2.245
      -2.551
      -2.895
      -3.248
      -3.572
      -3.820
      -3.938
      -3.885
      -3.641
      -3.212
      -2.620
      -1.892
      -1.059
      -0.159
       0.756
       1.621
       2.365
       2.928
       3.278
       3.418
       3.385
       3.239
       3.049
       2.875
       2.758
       2.703
       2.680
       2.643
       2.551
       2.396
       2.193
       1.965
       1.713
       1.418
       1.056
       0.619
       0.121
      -0.412
      -0.959
      -1.510
      -2.064
      -2.599
      -3.069
      -3.411
      -3.575
      -3.537
      -3.307
      -2.912
      -2.386
      -1.774
      -1.131
      -0.531
      -0.047
       0.260
       0.362
       0.270
       0.028
      -0.297
      -0.631
      -0.911
      -1.090
      -1.148
      -1.084
      -0.913
      -0.652
      -0.321
       0.063
       0.480
       0.904
       1.305
       1.644
       1.884
       2.003
       2.010
       1.944
       1.859
       1.801
       1.792
       1.846
       1.972
       2.176
       2.438
       2.707
       2.920
       3.022
       2.983
       2.796
       2.466
       2.005
       1.434
       0.792
       0.122
      -0.531
      -1.135
      -1.665
      -2.100
      -2.416
      -2.587
      -2.593
      -2.439
      -2.153
      -1.780
      -1.368
      -0.956
      -0.571
      -0.234
       0.048
       0.279
       0.468
       0.618
       0.714
       0.730
       0.653
       0.496
       0.297
       0.099
      -0.080
      -0.248
      -0.427
      -0.634
      -0.866
      -1.107
      -1.338
      -1.552
      -1.748
      -1.919
      -2.043
      -2.084
      -2.011
      -1.814
      -1.513
      -1.140
      -0.728
      -0.293
       0.160
       0.621
       1.069
       1.474
       1.804
       2.035
       2.150
       2.142
       2.007
       1.743
       1.343
       0.813
       0.181
      -0.485
      -1.096
      -1.568
      -1.854
      -1.959
      -1.938
      -1.862
