Origin Time       21/9/2009 8:53:04	 
Lat.              27.3 N	
Long.             91.5 E	
Depth (Km)          8.0
Magnitude         6.2
 Region           BHUTAN                                                           
 Above details taken from IMD 
     
Station Code      BON
Station Lat.       26.473  N
Station Long.      90.561  E
Station Height(m)   75.0
Site Class        C   Vs30 between 200 m/sec to 375 m/sec *  
Record Time       21.09.2009 14:23:25.889
Sampling Rate     200. Hz
 Record Duration  105.845 Sec.
 Direction         E-W (E positive)
Max. Acceleration     26.051 cm/sec**2
     
  * For reference see Site Classification link of website 
     
 Base Line Corrected and Low Pass Filtered (Cut Off at 35 Hz) Time History
 Acceleration data in cm/sec**2
    
[...]
      -1.744
      -1.553
      -1.159
      -0.664
      -0.215
       0.071
       0.175
       0.167
       0.147
       0.173
       0.241
       0.313
       0.364
       0.399
       0.435
       0.472
       0.494
       0.484
       0.456
       0.450
       0.505
       0.628
       0.789
       0.938
       1.030
       1.032
       0.927
       0.726
       0.487
       0.310
       0.298
       0.499
       0.874
       1.323
       1.748
       2.092
       2.342
       2.497
       2.539
       2.432
       2.145
       1.684
       1.100
       0.478
      -0.098
      -0.565
      -0.897
      -1.105
      -1.223
      -1.294
      -1.351
      -1.400
      -1.416
      -1.357
      -1.195
      -0.935
      -0.625
      -0.335
      -0.133
      -0.062
      -0.126
      -0.306
      -0.557
      -0.816
      -0.994
      -1.006
      -0.799
      -0.399
       0.089
       0.519
       0.766
       0.790
       0.643
       0.444
       0.314
       0.313
       0.417
       0.533
       0.551
       0.398
       0.066
      -0.392
      -0.895
      -1.365
      -1.745
      -2.002
      -2.126
      -2.121
      -2.011
      -1.837
      -1.646
      -1.472
      -1.315
      -1.146
      -0.922
      -0.620
      -0.247
       0.157
       0.548
       0.897
       1.201
       1.463
       1.670
       1.786
       1.788
       1.695
       1.576
       1.502
       1.501
       1.533
       1.520
       1.397
       1.151
       0.818
       0.457
       0.117
      -0.179
      -0.428
      -0.637
      -0.811
      -0.945
      -1.037
      -1.096
      -1.156
      -1.269
      -1.487
      -1.833
      -2.291
      -2.795
      -3.251
      -3.565
      -3.673
      -3.560
      -3.262
      -2.851
      -2.405
      -1.985
      -1.622
      -1.317
      -1.046
      -0.775
      -0.486
      -0.190
       0.066
       0.226
       0.258
       0.166
      -0.021
      -0.263
      -0.515
      -0.705
      -0.732
      -0.494
       0.067
       0.924
       1.963
       3.012
       3.887
       4.451
       4.646
       4.508
       4.145
       3.689
       3.247
       2.863
       2.519
       2.173
       1.801
       1.431
       1.128
       0.956
       0.931
       1.010
       1.121
       1.199
       1.225
       1.226
       1.250
       1.337
       1.486
       1.649
       1.739
       1.662
       1.352
       0.809
       0.113
      -0.583
      -1.106
      -1.328
      -1.227
      -0.891
      -0.473
      -0.122
       0.073
       0.101
       0.008
      -0.136
      -0.266
      -0.357
      -0.429
      -0.546
      -0.780
      -1.172
      -1.703
      -2.300
      -2.874
      -3.349
      -3.675
      -3.824
      -3.783
      -3.565
      -3.222
      -2.840
      -2.517
      -2.324
      -2.288
      -2.390
      -2.585
      -2.816
      -3.024
      -3.146
      -3.126
      -2.937
      -2.599
      -2.172
      -1.726
      -1.316
      -0.954
      -0.618
      -0.262
       0.155
       0.648
       1.199
       1.759
       2.267
       2.663
       2.904
       2.971
       2.855
       2.565
       2.124
       1.582
       1.016
       0.511
       0.135
      -0.083
      -0.154
      -0.121
      -0.030
       0.078
       0.178
       0.248
       0.260
       0.190
       0.028
      -0.212
      -0.501
      -0.814
      -1.147
      -1.511
      -1.918
      -2.364
      -2.823
      -3.253
      -3.608
      -3.853
      -3.964
      -3.931
      -3.762
      -3.481
      -3.130
      -2.749
      -2.365
      -1.985
      -1.607
      -1.231
      -0.865
      -0.521
      -0.202
       0.088
       0.336
       0.517
       0.614
       0.647
       0.678
       0.774
       0.965
       1.211
       1.426
       1.534
       1.518
       1.429
       1.347
       1.334
       1.406
       1.544
       1.731
       1.974
       2.294
       2.684
       3.091
       3.426
       3.602
       3.575
       3.349
       2.965
       2.476
       1.941
       1.421
       0.976
       0.647
       0.437
       0.310
       0.222
       0.159
       0.153
       0.260
       0.513
       0.876
       1.246
       1.486
       1.493
       1.249
       0.824
       0.342
      -0.085
      -0.402
      -0.624
      -0.808
      -1.011
      -1.254
      -1.508
      -1.713
      -1.819
      -1.814
      -1.726
      -1.608
      -1.501
      -1.424
      -1.378
      -1.350
      -1.320
      -1.264
      -1.160
      -0.997
      -0.788
      -0.563
      -0.352
      -0.161
       0.033
       0.274
       0.604
       1.044
       1.571
       2.117
       2.593
       2.921
       3.074
       3.085
       3.020
       2.931
       2.824
       2.665
       2.414
       2.058
       1.621
       1.149
       0.683
       0.248
      -0.154
      -0.529
      -0.883
      -1.224
      -1.566
      -1.924
      -2.311
      -2.715
      -3.096
      -3.404
      -3.599
      -3.673
      -3.653
      -3.583
      -3.504
      -3.438
      -3.379
      -3.293
      -3.140
      -2.893
      -2.572
      -2.239
      -1.965
      -1.794
      -1.702
      -1.613
      -1.434
      -1.100
      -0.602
       0.009
       0.649
       1.231
       1.700
       2.051
       2.314
       2.531
       2.729
       2.906
       3.042
       3.122
       3.155
       3.171
       3.200
       3.257
       3.332
       3.402
       3.452
       3.485
       3.525
       3.599
       3.731
       3.931
       4.191
       4.499
       4.832
       5.154
       5.407
       5.515
       5.402
       5.026
       4.406
       3.630
       2.831
       2.143
       1.653
       1.387
       1.316
       1.392
       1.577
       1.839
       2.137
       2.403
       2.543
       2.469
       2.130
       1.526
       0.715
      -0.203
      -1.102
      -1.866
      -2.419
      -2.742
      -2.877
      -2.896
      -2.879
      -2.887
      -2.949
      -3.046
      -3.121
      -3.105
      -2.952
      -2.671
      -2.329
      -2.029
      -1.873
      -1.927
      -2.201
      -2.643
      -3.162
      -3.662
      -4.058
      -4.295
      -4.328
      -4.112
      -3.616
      -2.845
      -1.882
      -0.878
      -0.007
       0.592
       0.859
       0.811
       0.517
       0.064
      -0.450
      -0.929
      -1.302
      -1.537
      -1.652
      -1.690
      -1.686
      -1.637
      -1.494
      -1.202
      -0.739
      -0.145
       0.488
       1.065
       1.524
       1.852
       2.063
       2.164
       2.142
       1.974
       1.648
       1.187
       0.635
       0.050
      -0.524
      -1.055
      -1.514
      -1.868
      -2.075
      -2.092
      -1.892
      -1.478
      -0.902
      -0.259
       0.331
       0.762
       0.985
       1.020
       0.934
       0.799
       0.658
       0.532
       0.427
       0.351
       0.304
       0.273
       0.236
       0.189
       0.148
       0.150
       0.229
       0.398
       0.642
       0.936
       1.252
       1.564
       1.844
       2.053
       2.148
       2.094
       1.874
       1.494
       0.963
       0.285
      -0.548
      -1.524
      -2.582
      -3.601
      -4.436
      -4.972
      -5.174
      -5.082
      -4.771
      -4.305
      -3.726
      -3.066
      -2.376
      -1.714
      -1.121
      -0.595
      -0.091
       0.443
       1.025
       1.623
       2.174
       2.618
       2.943
       3.196
       3.460
       3.825
       4.357
       5.092
       6.043
       7.188
       8.460
       9.723
      10.795
      11.489
      11.682
      11.359
      10.614
       9.605
       8.494
       7.413
       6.450
       5.663
       5.083
       4.701
       4.460
       4.266
       4.025
       3.688
       3.261
       2.796
       2.346
       1.943
       1.603
       1.353
       1.256
       1.392
       1.810
       2.492
       3.342
       4.234
       5.054
       5.732
       6.249
       6.617
       6.863
       7.008
       7.050
       6.953
       6.665
       6.140
       5.376
       4.426
       3.394
       2.404
       1.553
       0.874
       0.325
      -0.192
      -0.779
      -1.510
      -2.414
      -3.502
      -4.795
      -6.324
      -8.116
     -10.159
     -12.392
     -14.694
     -16.893
     -18.787
     -20.203
     -21.053
     -21.364
     -21.247
     -20.841
     -20.271
     -19.639
     -19.049
     -18.615
     -18.433
     -18.542
     -18.887
     -19.328
     -19.695
     -19.852
     -19.724
     -19.289
     -18.555
     -17.546
     -16.306
     -14.908
     -13.454
     -12.047
     -10.777
      -9.689
      -8.782
      -7.997
      -7.236
      -6.393
      -5.400
      -4.257
      -3.023
      -1.781
      -0.589
       0.541
       1.644
       2.763
       3.930
       5.158
       6.453
       7.832
       9.307
      10.864
      12.435
      13.910
      15.170
      16.129
      16.762
      17.096
      17.174
      17.021
      16.640
      16.031
      15.230
      14.323
      13.428
      12.659
      12.075
      11.667
      11.376
      11.141
      10.935
      10.772
      10.672
      10.630
      10.607
      10.560
      10.474
      10.373
      10.293
      10.245
      10.201
      10.123
       9.995
       9.837
       9.688
       9.570
       9.475
       9.374
       9.248
       9.113
       9.017
       9.016
       9.138
       9.359
       9.593
       9.707
       9.528
       8.870
       7.573
       5.556
       2.864
      -0.323
      -3.738
      -7.092
     -10.145
     -12.731
     -14.763
     -16.223
     -17.148
     -17.618
     -17.749
     -17.663
     -17.469
     -17.234
     -16.965
     -16.603
     -16.054
     -15.231
     -14.099
     -12.685
     -11.054
      -9.277
      -7.413
      -5.510
      -3.634
      -1.872
      -0.307
       1.038
       2.233
       3.426
       4.779
       6.389
       8.232
      10.159
      11.949
      13.392
      14.364
      14.860
      14.946
      14.695
      14.119
      13.160
      11.731
       9.788
       7.372
       4.618
       1.706
      -1.194
      -3.960
      -6.513
      -8.799
     -10.773
     -12.405
     -13.677
     -14.585
     -15.121
     -15.269
     -15.017
     -14.383
     -13.426
     -12.230
     -10.867
      -9.379
      -7.779
      -6.082
      -4.333
      -2.619
      -1.061
       0.204
       1.037
       1.324
       1.025
       0.208
      -0.949
      -2.203
      -3.326
      -4.170
      -4.709
      -5.024
      -5.247
      -5.500
      -5.866
      -6.394
      -7.107
      -8.004
      -9.035
     -10.080
     -10.971
     -11.543
     -11.692
     -11.389
     -10.659
      -9.571
      -8.235
      -6.813
      -5.486
      -4.387
      -3.526
      -2.773
      -1.920
      -0.798
       0.636
       2.289
       4.000
       5.627
       7.090
       8.359
       9.420
      10.264
      10.890
      11.323
      11.594
      11.715
      11.671
      11.447
      11.061
      10.577
      10.073
       9.597
       9.130
       8.603
       7.948
       7.169
       6.378
       5.738
       5.340
       5.109
       4.821
       4.242
       3.266
       1.968
       0.533
      -0.844
      -2.015
      -2.865
      -3.276
      -3.179
      -2.619
      -1.778
      -0.882
      -0.083
       0.580
       1.137
       1.616
       2.016
       2.335
       2.571
       2.653
       2.403
       1.609
       0.195
      -1.673
      -3.666
      -5.498
      -7.069
      -8.417
      -9.576
     -10.448
     -10.830
     -10.539
      -9.555
      -8.059
      -6.369
      -4.794
      -3.508
      -2.505
      -1.638
      -0.721
       0.369
       1.630
       2.941
       4.140
       5.125
       5.900
       6.543
       7.119
       7.634
       8.063
       8.428
       8.814
       9.297
       9.840
      10.256
      10.325
       9.957
       9.266
       8.485
       7.801
       7.254
       6.760
       6.212
       5.549
       4.749
       3.796
       2.662
       1.312
      -0.271
      -2.056
      -3.962
      -5.867
      -7.624
      -9.080
     -10.082
     -10.483
     -10.158
      -9.037
      -7.146
      -4.639
      -1.790
       1.062
       3.600
       5.603
       6.990
       7.804
       8.159
       8.185
       8.011
       7.781
       7.667
       7.834
       8.387
       9.326
      10.557
      11.922
      13.223
      14.214
      14.613
      14.169
      12.764
      10.488
       7.623
       4.535
       1.539
      -1.174
      -3.529
      -5.506
      -7.094
      -8.286
      -9.108
      -9.660
     -10.104
     -10.617
     -11.341
     -12.342
     -13.623
     -15.129
     -16.764
     -18.392
     -19.865
     -21.060
     -21.898
     -22.351
     -22.432
     -22.189
     -21.713
     -21.120
     -20.513
     -19.939
     -19.382
     -18.797
     -18.176
     -17.574
     -17.074
     -16.706
     -16.393
     -15.973
     -15.295
     -14.305
     -13.072
     -11.729
     -10.392
      -9.097
      -7.780
      -6.307
      -4.528
      -2.347
       0.241
       3.133
       6.149
       9.081
      11.728
      13.910
      15.486
      16.382
      16.639
      16.435
      16.044
      15.746
      15.721
      16.000
      16.487
      17.036
      17.542
      17.995
      18.468
      19.062
      19.822
      20.721
      21.685
      22.651
      23.581
      24.439
      25.170
      25.705
      25.996
      26.051
      25.927
      25.682
      25.329
      24.808
      24.024
      22.907
      21.456
      19.725
      17.771
      15.619
      13.290
      10.873
       8.551
       6.556
       5.067
       4.131
       3.648
       3.431
       3.258
       2.910
       2.188
       0.934
      -0.928
      -3.370
      -6.253
      -9.345
     -12.380
     -15.132
     -17.494
     -19.472
     -21.125
     -22.473
     -23.444
     -23.905
     -23.758
     -23.025
     -21.852
     -20.448
     -18.991
     -17.576
     -16.219
     -14.914
     -13.678
     -12.549
     -11.558
     -10.694
      -9.915
      -9.188
      -8.524
      -7.988
      -7.654
      -7.563
      -7.692
      -7.967
      -8.286
      -8.546
      -8.670
      -8.625
      -8.421
      -8.096
      -7.713
      -7.362
      -7.158
      -7.208
      -7.583
      -8.297
      -9.305
     -10.500
     -11.707
     -12.717
     -13.350
     -13.523
     -13.270
     -12.698
     -11.920
     -11.001
      -9.946
      -8.722
      -7.293
      -5.639
      -3.776
      -1.748
       0.361
       2.427
       4.302
       5.860
       7.059
       7.959
       8.693
       9.397
      10.162
      11.040
      12.054
      13.198
      14.437
      15.705
      16.935
      18.082
      19.119
      20.017
      20.713
      21.114
      21.119
      20.648
      19.665
      18.183
      16.264
      14.021
      11.610
       9.212
       6.999
       5.101
       3.597
       2.524
       1.891
       1.676
       1.815
       2.194
       2.658
       3.046
       3.234
       3.172
       2.895
       2.516
       2.184
       2.021
       2.059
       2.228
       2.411
       2.529
       2.611
       2.780
       3.184
       3.905
       4.916
       6.097
       7.293
       8.368
       9.219
       9.769
       9.957
       9.732
       9.066
       7.955
       6.430
       4.562
       2.474
       0.339
      -1.645
      -3.304
      -4.542
      -5.381
      -5.938
      -6.369
      -6.797
      -7.281
      -7.827
      -8.427
      -9.087
      -9.836
     -10.703
     -11.701
     -12.796
     -13.915
     -14.951
     -15.788
     -16.319
     -16.459
     -16.159
     -15.422
     -14.316
     -12.954
     -11.463
      -9.961
      -8.549
      -7.331
      -6.423
      -5.934
      -5.925
      -6.373
      -7.150
      -8.039
      -8.775
      -9.122
      -8.967
      -8.373
      -7.564
      -6.826
      -6.374
      -6.260
      -6.373
      -6.514
      -6.486
      -6.165
      -5.526
      -4.630
      -3.592
      -2.532
      -1.530
      -0.612
       0.231
       0.999
       1.659
       2.167
       2.521
       2.798
       3.132
       3.651
       4.424
       5.442
       6.649
       7.979
       9.371
      10.749
      12.018
      13.085
      13.886
      14.403
      14.650
      14.638
      14.352
      13.749
      12.800
      11.527
      10.037
       8.513
       7.167
       6.175
       5.615
       5.451
       5.558
       5.785
       6.016
       6.200
       6.325
       6.372
       6.313
       6.146
       5.937
       5.805
       5.824
       5.929
       5.908
       5.521
       4.649
       3.382
       1.956
       0.609
      -0.536
      -1.464
      -2.176
      -2.637
      -2.793
      -2.654
      -2.332
      -2.031
      -1.975
      -2.307
      -3.020
      -3.940
      -4.793
      -5.327
      -5.440
      -5.209
      -4.818
      -4.425
      -4.075
      -3.739
      -3.423
      -3.231
      -3.330
      -3.828
      -4.681
      -5.699
      -6.635
      -7.291
      -7.570
      -7.448
      -6.924
      -6.015
      -4.804
      -3.498
      -2.399
      -1.795
      -1.826
      -2.431
      -3.396
      -4.461
      -5.417
      -6.149
      -6.631
      -6.896
      -7.011
      -7.044
      -7.054
      -7.092
      -7.219
      -7.513
      -8.068
      -8.932
     -10.043
     -11.182
     -12.024
     -12.258
     -11.713
     -10.410
      -8.536
      -6.368
      -4.192
      -2.256
      -0.734
       0.289
       0.844
       1.088
       1.268
       1.636
       2.316
       3.234
       4.176
       4.951
       5.556
       6.189
       7.108
       8.434
      10.069
      11.765
      13.273
      14.451
      15.287
      15.849
      16.211
      16.392
      16.346
      15.999
      15.313
      14.342
      13.227
      12.136
      11.202
      10.486
       9.991
       9.696
       9.590
       9.657
       9.855
      10.097
      10.272
      10.267
       9.993
       9.380
       8.373
       6.957
       5.193
       3.226
       1.248
      -0.569
      -2.130
      -3.425
      -4.499
      -5.411
      -6.195
      -6.840
      -7.303
      -7.550
      -7.614
      -7.604
      -7.658
      -7.869
      -8.233
      -8.663
      -9.032
      -9.237
      -9.239
      -9.074
      -8.829
      -8.609
      -8.485
      -8.470
      -8.512
      -8.512
      -8.360
      -7.987
      -7.384
      -6.594
      -5.675
      -4.679
      -3.661
      -2.703
      -1.903
      -1.338
      -1.012
      -0.848
      -0.720
      -0.518
      -0.189
       0.248
       0.723
       1.159
       1.498
       1.707
       1.766
       1.652
       1.334
       0.769
      -0.089
      -1.264
      -2.728
      -4.376
      -6.032
      -7.501
      -8.639
      -9.386
      -9.769
      -9.864
      -9.760
      -9.539
      -9.268
      -9.005
      -8.781
      -8.600
      -8.429
      -8.224
      -7.943
      -7.569
      -7.106
      -6.563
      -5.940
      -5.215
      -4.344
      -3.275
      -1.969
      -0.432
       1.270
       3.021
       4.687
       6.157
       7.381
       8.383
       9.251
      10.100
      11.025
      12.064
      13.188
