Origin Time       26/07/2008 18:51:53 UTC
Lat.              24.8 N 
Long.             90.6 E 
Depth (Km)         39.3
Magnitude         4.8
 Region           BANGLADESH-INDIA-BORDER-REGION                                   
 Above details taken from IMD 
    
Station Code      BON
Station Lat.       26.473  N
Station Long.      90.561  E
Station Height(m)   75.0
Site Class        C   Vs30 between 200 m/sec to 375 m/sec *  
Record Time       26.07.2008 18:52:23.074 UTC
Sampling Rate     200. Hz
 Record Duration   67.345 Sec.
 Direction         N-S (N positive)
Max. Acceleration     -4.354 cm/sec**2
     
  * For reference see Site Classification link of website 
     
 Base Line Corrected and Low Pass Filtered (Cut Off at 35 Hz) Time History
 Acceleration data in cm/sec**2
    
[...]
      -0.178
      -0.178
      -0.167
      -0.148
      -0.131
      -0.128
      -0.140
      -0.166
      -0.200
      -0.240
      -0.282
      -0.315
      -0.325
      -0.308
      -0.271
      -0.232
      -0.201
      -0.180
      -0.158
      -0.120
      -0.062
       0.009
       0.071
       0.103
       0.099
       0.070
       0.037
       0.018
       0.021
       0.043
       0.080
       0.123
       0.164
       0.199
       0.234
       0.279
       0.336
       0.398
       0.448
       0.479
       0.495
       0.505
       0.511
       0.503
       0.471
       0.407
       0.321
       0.226
       0.138
       0.061
      -0.008
      -0.069
      -0.118
      -0.151
      -0.168
      -0.176
      -0.185
      -0.197
      -0.201
      -0.184
      -0.136
      -0.066
       0.007
       0.064
       0.094
       0.094
       0.073
       0.037
      -0.010
      -0.069
      -0.146
      -0.239
      -0.336
      -0.417
      -0.465
      -0.471
      -0.439
      -0.375
      -0.292
      -0.203
      -0.127
      -0.079
      -0.063
      -0.074
      -0.106
      -0.153
      -0.208
      -0.264
      -0.314
      -0.360
      -0.405
      -0.448
      -0.486
      -0.512
      -0.524
      -0.524
      -0.519
      -0.510
      -0.489
      -0.444
      -0.366
      -0.255
      -0.126
       0.000
       0.107
       0.192
       0.267
       0.342
       0.422
       0.499
       0.559
       0.592
       0.594
       0.565
       0.511
       0.441
       0.370
       0.309
       0.263
       0.231
       0.210
       0.198
       0.197
       0.204
       0.211
       0.212
       0.207
       0.203
       0.207
       0.223
       0.242
       0.256
       0.254
       0.237
       0.208
       0.173
       0.130
       0.077
       0.012
      -0.057
      -0.124
      -0.185
      -0.239
      -0.285
      -0.320
      -0.340
      -0.346
      -0.340
      -0.319
      -0.275
      -0.202
      -0.106
      -0.004
       0.084
       0.149
       0.200
       0.251
       0.309
       0.368
       0.413
       0.435
       0.437
       0.435
       0.448
       0.486
       0.546
       0.612
       0.665
       0.688
       0.674
       0.621
       0.540
       0.447
       0.357
       0.272
       0.180
       0.067
      -0.073
      -0.233
      -0.393
      -0.539
      -0.661
      -0.756
      -0.831
      -0.895
      -0.952
      -1.000
      -1.021
      -1.000
      -0.931
      -0.820
      -0.685
      -0.549
      -0.430
      -0.343
      -0.297
      -0.289
      -0.310
      -0.344
      -0.379
      -0.406
      -0.424
      -0.439
      -0.455
      -0.469
      -0.468
      -0.442
      -0.391
      -0.329
      -0.277
      -0.247
      -0.232
      -0.216
      -0.185
      -0.135
      -0.073
      -0.011
       0.041
       0.084
       0.123
       0.168
       0.227
       0.300
       0.381
       0.465
       0.549
       0.628
       0.697
       0.750
       0.784
       0.800
       0.799
       0.784
       0.760
       0.727
       0.685
       0.622
       0.530
       0.409
       0.275
       0.146
       0.036
      -0.057
      -0.145
      -0.233
      -0.321
      -0.399
      -0.457
      -0.489
      -0.498
      -0.486
      -0.459
      -0.420
      -0.370
      -0.306
      -0.227
      -0.136
      -0.048
       0.021
       0.058
       0.055
       0.020
      -0.030
      -0.076
      -0.108
      -0.131
      -0.153
      -0.174
      -0.179
      -0.154
      -0.090
       0.005
       0.117
       0.234
       0.345
       0.442
       0.522
       0.580
       0.619
       0.641
       0.645
       0.630
       0.592
       0.536
       0.470
       0.407
       0.352
       0.311
       0.281
       0.253
       0.220
       0.171
       0.104
       0.024
      -0.058
      -0.128
      -0.185
      -0.241
      -0.314
      -0.413
      -0.521
      -0.609
      -0.653
      -0.654
      -0.634
      -0.617
      -0.616
      -0.631
      -0.651
      -0.665
      -0.661
      -0.634
      -0.584
      -0.520
      -0.457
      -0.408
      -0.380
      -0.371
      -0.364
      -0.341
      -0.288
      -0.203
      -0.098
       0.009
       0.103
       0.179
       0.235
       0.272
       0.296
       0.313
       0.332
       0.359
       0.392
       0.428
       0.458
       0.477
       0.481
       0.469
       0.440
       0.401
       0.362
       0.330
       0.311
       0.305
       0.309
       0.316
       0.322
       0.319
       0.304
       0.275
       0.238
       0.205
       0.187
       0.193
       0.223
       0.267
       0.309
       0.332
       0.325
       0.289
       0.229
       0.157
       0.085
       0.022
      -0.021
      -0.038
      -0.026
       0.009
       0.055
       0.090
       0.099
       0.072
       0.015
      -0.062
      -0.147
      -0.232
      -0.309
      -0.373
      -0.421
      -0.455
      -0.478
      -0.486
      -0.472
      -0.431
      -0.366
      -0.285
      -0.197
      -0.111
      -0.036
       0.020
       0.051
       0.059
       0.051
       0.028
      -0.008
      -0.053
      -0.097
      -0.119
      -0.104
      -0.047
       0.041
       0.137
       0.217
       0.267
       0.280
       0.265
       0.236
       0.208
       0.192
       0.188
       0.187
       0.178
       0.152
       0.112
       0.067
       0.027
      -0.008
      -0.046
      -0.089
      -0.129
      -0.151
      -0.143
      -0.111
      -0.068
      -0.039
      -0.039
      -0.076
      -0.145
      -0.229
      -0.307
      -0.368
      -0.413
      -0.448
      -0.479
      -0.503
      -0.513
      -0.510
      -0.498
      -0.483
      -0.463
      -0.429
      -0.373
      -0.299
      -0.219
      -0.148
      -0.096
      -0.063
      -0.048
      -0.049
      -0.067
      -0.101
      -0.141
      -0.176
      -0.198
      -0.211
      -0.228
      -0.260
      -0.304
      -0.350
      -0.381
      -0.382
      -0.338
      -0.240
      -0.086
       0.108
       0.315
       0.507
       0.669
       0.794
       0.877
       0.906
       0.872
       0.774
       0.627
       0.458
       0.297
       0.166
       0.070
      -0.001
      -0.065
      -0.137
      -0.219
      -0.297
      -0.350
      -0.362
      -0.327
      -0.256
      -0.171
      -0.091
      -0.033
       0.001
       0.009
      -0.001
      -0.024
      -0.052
      -0.080
      -0.110
      -0.144
      -0.185
      -0.227
      -0.259
      -0.263
      -0.229
      -0.159
      -0.071
       0.014
       0.083
       0.132
       0.172
       0.218
       0.277
       0.348
       0.419
       0.477
       0.508
       0.504
       0.456
       0.363
       0.238
       0.105
      -0.009
      -0.089
      -0.135
      -0.160
      -0.176
      -0.183
      -0.181
      -0.166
      -0.144
      -0.126
      -0.126
      -0.149
      -0.193
      -0.248
      -0.301
      -0.343
      -0.372
      -0.386
      -0.386
      -0.372
      -0.347
      -0.312
      -0.268
      -0.209
      -0.133
      -0.045
       0.052
       0.154
       0.263
       0.375
       0.484
       0.580
       0.656
       0.716
       0.764
       0.796
       0.803
       0.770
       0.695
       0.586
       0.457
       0.318
       0.173
       0.027
      -0.116
      -0.241
      -0.334
      -0.386
      -0.401
      -0.392
      -0.377
      -0.369
      -0.372
      -0.385
      -0.403
      -0.420
      -0.423
      -0.400
      -0.339
      -0.239
      -0.107
       0.045
       0.207
       0.364
       0.502
       0.613
       0.691
       0.738
       0.750
       0.718
       0.637
       0.512
       0.362
       0.213
       0.083
      -0.025
      -0.118
      -0.206
      -0.292
      -0.375
      -0.451
      -0.517
      -0.574
      -0.622
      -0.649
      -0.646
      -0.610
      -0.550
      -0.483
      -0.412
      -0.333
      -0.237
      -0.129
      -0.022
       0.066
       0.125
       0.156
       0.165
       0.165
       0.170
       0.187
       0.214
       0.242
       0.263
       0.273
       0.271
       0.257
       0.224
       0.170
       0.095
       0.010
      -0.073
      -0.140
      -0.178
      -0.183
      -0.156
      -0.107
      -0.042
       0.031
       0.108
       0.190
       0.283
       0.395
       0.524
       0.656
       0.769
       0.849
       0.898
       0.925
       0.938
       0.928
       0.874
       0.759
       0.578
       0.345
       0.082
      -0.184
      -0.430
      -0.635
      -0.786
      -0.880
      -0.931
      -0.960
      -0.986
      -1.013
      -1.031
      -1.021
      -0.972
      -0.883
      -0.769
      -0.652
      -0.553
      -0.479
      -0.426
      -0.376
      -0.313
      -0.228
      -0.123
      -0.011
       0.090
       0.165
       0.206
       0.210
       0.189
       0.160
       0.141
       0.138
       0.144
       0.145
       0.136
       0.124
       0.118
       0.124
       0.139
       0.154
       0.163
       0.161
       0.144
       0.111
       0.063
       0.007
      -0.049
      -0.098
      -0.139
      -0.176
      -0.213
      -0.247
      -0.267
      -0.257
      -0.209
      -0.130
      -0.032
       0.078
       0.200
       0.338
       0.492
       0.649
       0.792
       0.910
       0.996
       1.046
       1.055
       1.021
       0.944
       0.832
       0.700
       0.564
       0.440
       0.338
       0.257
       0.188
       0.128
       0.080
       0.051
       0.046
       0.056
       0.074
       0.091
       0.109
       0.131
       0.156
       0.179
       0.184
       0.154
       0.080
      -0.032
      -0.169
      -0.316
      -0.466
      -0.619
      -0.775
      -0.929
      -1.069
      -1.185
      -1.271
      -1.325
      -1.345
      -1.324
      -1.255
      -1.135
      -0.964
      -0.751
      -0.514
      -0.274
      -0.053
       0.137
       0.287
       0.386
       0.431
       0.421
       0.372
       0.309
       0.254
       0.222
       0.217
       0.232
       0.251
       0.261
       0.254
       0.228
       0.186
       0.126
       0.042
      -0.069
      -0.204
      -0.356
      -0.516
      -0.683
      -0.855
      -1.028
      -1.200
      -1.365
      -1.519
      -1.653
      -1.752
      -1.805
      -1.807
      -1.760
      -1.665
      -1.520
      -1.314
      -1.039
      -0.701
      -0.327
       0.047
       0.385
       0.667
       0.885
       1.042
       1.142
       1.194
       1.209
       1.199
       1.173
       1.124
       1.048
       0.948
       0.843
       0.760
       0.718
       0.717
       0.741
       0.776
       0.814
       0.862
       0.928
       1.012
       1.104
       1.191
       1.263
       1.321
       1.366
       1.390
       1.378
       1.323
       1.238
       1.152
       1.095
       1.076
       1.088
       1.113
       1.138
       1.147
       1.123
       1.049
       0.920
       0.752
       0.578
       0.437
       0.347
       0.300
       0.273
       0.243
       0.204
       0.159
       0.111
       0.049
      -0.047
      -0.191
      -0.375
      -0.574
      -0.762
      -0.930
      -1.081
      -1.219
      -1.336
      -1.417
      -1.447
      -1.425
      -1.354
      -1.241
      -1.085
      -0.892
      -0.674
      -0.457
      -0.272
      -0.146
      -0.092
      -0.104
      -0.156
      -0.217
      -0.256
      -0.255
      -0.209
      -0.130
      -0.041
       0.034
       0.086
       0.124
       0.171
       0.252
       0.381
       0.562
       0.784
       1.021
       1.237
       1.397
       1.476
       1.462
       1.353
       1.151
       0.864
       0.511
       0.118
      -0.292
      -0.705
      -1.115
      -1.518
      -1.906
      -2.268
      -2.591
      -2.860
      -3.064
      -3.192
      -3.235
      -3.185
      -3.043
      -2.816
      -2.520
      -2.174
      -1.797
      -1.402
      -1.006
      -0.625
      -0.282
       0.007
       0.238
       0.417
       0.557
       0.672
       0.767
       0.838
       0.870
       0.852
       0.786
       0.703
       0.645
       0.638
       0.681
       0.743
       0.784
       0.775
       0.711
       0.603
       0.474
       0.349
       0.242
       0.155
       0.076
      -0.010
      -0.124
      -0.284
      -0.500
      -0.765
      -1.054
      -1.331
      -1.565
      -1.739
      -1.850
      -1.897
      -1.876
      -1.778
      -1.597
      -1.331
      -0.993
      -0.608
      -0.217
       0.138
       0.437
       0.680
       0.893
       1.102
       1.324
       1.556
       1.780
       1.966
       2.090
       2.147
       2.151
       2.128
       2.100
       2.076
       2.058
       2.046
       2.048
       2.073
       2.139
       2.260
       2.445
       2.689
       2.965
       3.237
       3.466
       3.623
       3.693
       3.677
       3.585
       3.430
       3.225
       2.983
       2.723
       2.467
       2.236
       2.038
       1.865
       1.696
       1.502
       1.263
       0.966
       0.616
       0.228
      -0.171
      -0.553
      -0.892
      -1.177
      -1.412
      -1.620
      -1.829
      -2.060
      -2.322
      -2.606
      -2.895
      -3.170
      -3.420
      -3.633
      -3.802
      -3.922
      -3.998
      -4.047
      -4.093
      -4.154
      -4.230
      -4.306
      -4.354
      -4.353
      -4.292
      -4.170
      -3.992
      -3.770
      -3.512
      -3.226
      -2.913
      -2.577
      -2.222
      -1.856
      -1.481
      -1.101
      -0.716
      -0.327
       0.060
       0.433
       0.781
       1.104
       1.413
       1.728
       2.063
       2.412
       2.753
       3.063
       3.324
       3.526
       3.659
       3.707
       3.655
       3.507
       3.285
       3.028
       2.767
       2.517
       2.269
       2.001
       1.698
       1.361
       1.007
       0.655
       0.319
       0.007
      -0.279
      -0.535
      -0.759
      -0.950
      -1.107
      -1.226
      -1.302
      -1.333
      -1.324
      -1.290
      -1.249
      -1.221
      -1.220
      -1.255
      -1.325
      -1.421
      -1.529
      -1.636
      -1.726
      -1.788
      -1.811
      -1.795
      -1.752
      -1.695
      -1.624
      -1.526
      -1.382
      -1.185
      -0.947
      -0.692
      -0.444
      -0.220
      -0.029
       0.122
       0.230
       0.298
       0.331
       0.339
       0.329
       0.304
       0.270
       0.244
       0.254
       0.324
       0.461
       0.651
       0.871
       1.109
       1.373
       1.675
       2.013
       2.364
       2.694
       2.968
       3.166
       3.283
       3.330
       3.327
       3.298
       3.263
       3.222
       3.158
       3.043
       2.856
       2.596
       2.282
       1.940
       1.592
       1.243
       0.887
       0.523
       0.162
      -0.173
      -0.464
      -0.706
      -0.911
      -1.089
      -1.247
      -1.387
      -1.512
      -1.626
      -1.729
      -1.818
      -1.888
      -1.941
      -1.984
      -2.022
      -2.059
      -2.089
      -2.107
      -2.107
      -2.090
      -2.060
      -2.026
      -1.992
      -1.955
      -1.902
      -1.813
      -1.670
      -1.466
      -1.211
      -0.930
      -0.651
      -0.395
      -0.170
       0.016
       0.153
       0.228
       0.239
       0.197
       0.132
       0.078
       0.063
       0.095
       0.169
       0.265
       0.361
       0.435
       0.479
       0.491
       0.481
       0.458
       0.435
       0.424
       0.435
       0.471
       0.520
       0.565
       0.591
       0.596
       0.588
       0.578
       0.573
       0.571
       0.571
       0.569
       0.562
       0.545
       0.511
       0.459
       0.392
       0.322
       0.258
       0.202
       0.148
       0.091
       0.033
      -0.016
      -0.045
      -0.053
      -0.051
      -0.056
      -0.079
      -0.120
      -0.176
      -0.248
      -0.339
      -0.450
      -0.574
      -0.692
      -0.781
      -0.826
      -0.824
      -0.788
      -0.736
      -0.682
      -0.626
      -0.564
      -0.499
      -0.442
      -0.412
      -0.418
      -0.456
      -0.508
      -0.551
      -0.569
      -0.562
      -0.545
      -0.537
      -0.550
      -0.575
      -0.589
      -0.561
      -0.471
      -0.312
      -0.096
       0.154
       0.408
       0.641
       0.837
       0.993
       1.116
       1.226
       1.343
       1.477
       1.625
       1.766
       1.874
       1.925
       1.913
       1.851
       1.760
       1.657
       1.551
       1.441
       1.325
       1.204
       1.088
       0.990
       0.922
       0.883
       0.858
       0.824
       0.763
       0.670
       0.546
       0.398
       0.235
       0.064
      -0.112
      -0.297
      -0.501
      -0.734
      -0.994
      -1.267
      -1.535
      -1.781
      -1.988
      -2.135
      -2.205
      -2.193
      -2.117
      -2.008
      -1.893
      -1.784
      -1.678
      -1.563
      -1.435
      -1.287
      -1.114
      -0.900
      -0.631
      -0.307
       0.055
       0.413
       0.725
       0.956
       1.093
       1.139
       1.111
       1.038
       0.958
       0.910
       0.911
       0.953
       1.009
       1.055
       1.088
       1.120
       1.164
       1.229
       1.314
       1.409
       1.498
       1.557
       1.562
       1.500
       1.373
       1.202
       1.019
       0.852
       0.716
       0.605
       0.500
       0.381
       0.233
       0.056
      -0.149
      -0.374
      -0.616
      -0.862
      -1.091
      -1.281
      -1.413
      -1.483
      -1.499
      -1.482
      -1.457
      -1.445
      -1.454
      -1.482
      -1.518
      -1.544
      -1.543
      -1.503
      -1.425
      -1.325
      -1.225
      -1.140
      -1.074
      -1.023
      -0.988
      -0.981
      -1.010
      -1.075
      -1.158
      -1.237
      -1.290
      -1.309
      -1.302
      -1.284
      -1.275
      -1.288
      -1.322
      -1.363
      -1.391
      -1.389
      -1.348
      -1.274
      -1.180
      -1.085
      -1.001
      -0.929
      -0.862
      -0.786
      -0.686
      -0.550
      -0.375
      -0.168
       0.050
       0.258
       0.446
       0.616
       0.775
       0.927
       1.073
       1.224
       1.393
       1.591
       1.808
       2.015
       2.176
       2.272
       2.308
       2.303
       2.273
       2.223
       2.149
       2.055
       1.955
       1.871
       1.817
       1.797
       1.801
       1.819
       1.842
       1.865
       1.877
       1.863
       1.813
       1.733
       1.645
       1.575
       1.535
       1.523
       1.526
       1.528
       1.514
       1.467
       1.380
       1.260
       1.129
       1.014
       0.931
       0.873
       0.820
       0.746
       0.631
       0.472
       0.276
       0.051
      -0.199
      -0.472
      -0.755
      -1.023
      -1.242
      -1.393
      -1.479
      -1.520
      -1.543
      -1.569
      -1.608
      -1.656
      -1.702
      -1.730
      -1.726
      -1.684
      -1.615
      -1.539
      -1.480
