Origin Time       21/9/2009 8:53:04	  UTC
Lat.              27.3 N	
Long.             91.5 E	
Depth (Km)          8.0
Magnitude         6.2
 Region           BHUTAN                                                           
 Above details taken from IMD 
    
Station Code      BON
Station Lat.       26.473  N
Station Long.      90.561  E
Station Height(m)   75.0
Site Class        C   Vs30 between 200 m/sec to 375 m/sec *  
Record Time       21.09.2009 14:23:25.889 UTC
Sampling Rate     200. Hz
 Record Duration  105.845 Sec.
 Direction         N-S (N positive)
Max. Acceleration     27.666 cm/sec**2
     
  * For reference see Site Classification link of website 
     
 Base Line Corrected and Low Pass Filtered (Cut Off at 35 Hz) Time History
 Acceleration data in cm/sec**2
    
[...]
       0.726
       1.338
       1.841
       2.221
       2.491
       2.662
       2.738
       2.723
       2.632
       2.492
       2.332
       2.178
       2.043
       1.935
       1.858
       1.804
       1.761
       1.714
       1.652
       1.561
       1.406
       1.124
       0.659
       0.007
      -0.746
      -1.440
      -1.902
      -2.019
      -1.781
      -1.278
      -0.661
      -0.089
       0.315
       0.508
       0.520
       0.432
       0.316
       0.201
       0.072
      -0.082
      -0.234
      -0.324
      -0.301
      -0.166
       0.030
       0.222
       0.374
       0.482
       0.546
       0.539
       0.420
       0.174
      -0.160
      -0.502
      -0.784
      -0.989
      -1.143
      -1.282
      -1.415
      -1.514
      -1.548
      -1.499
      -1.375
      -1.205
      -1.016
      -0.820
      -0.616
      -0.399
      -0.184
      -0.010
       0.068
       0.000
      -0.232
      -0.602
      -1.042
      -1.473
      -1.822
      -2.039
      -2.090
      -1.959
      -1.648
      -1.193
      -0.661
      -0.133
       0.331
       0.716
       1.037
       1.312
       1.533
       1.660
       1.645
       1.463
       1.115
       0.630
       0.057
      -0.544
      -1.115
      -1.604
      -1.969
      -2.179
      -2.214
      -2.078
      -1.809
      -1.475
      -1.140
      -0.829
      -0.515
      -0.150
       0.277
       0.712
       1.047
       1.180
       1.083
       0.817
       0.499
       0.236
       0.093
       0.087
       0.208
       0.438
       0.753
       1.125
       1.529
       1.947
       2.353
       2.699
       2.906
       2.894
       2.625
       2.139
       1.553
       1.000
       0.584
       0.345
       0.266
       0.299
       0.380
       0.447
       0.455
       0.396
       0.302
       0.227
       0.204
       0.222
       0.232
       0.190
       0.093
      -0.016
      -0.084
      -0.086
      -0.041
       0.001
      -0.003
      -0.063
      -0.153
      -0.218
      -0.198
      -0.063
       0.166
       0.406
       0.539
       0.469
       0.169
      -0.301
      -0.817
      -1.248
      -1.507
      -1.575
      -1.493
      -1.341
      -1.199
      -1.131
      -1.163
      -1.273
      -1.388
      -1.412
      -1.280
      -1.016
      -0.741
      -0.615
      -0.734
      -1.068
      -1.472
      -1.773
      -1.861
      -1.730
      -1.443
      -1.076
      -0.678
      -0.268
       0.152
       0.580
       1.027
       1.509
       2.032
       2.561
       3.029
       3.357
       3.503
       3.476
       3.311
       3.039
       2.664
       2.183
       1.609
       0.985
       0.383
      -0.124
      -0.483
      -0.667
      -0.682
      -0.556
      -0.335
      -0.074
       0.176
       0.379
       0.518
       0.596
       0.623
       0.599
       0.512
       0.343
       0.088
      -0.234
      -0.588
      -0.937
      -1.253
      -1.520
      -1.714
      -1.798
      -1.726
      -1.468
      -1.042
      -0.530
      -0.052
       0.284
       0.431
       0.414
       0.300
       0.143
      -0.044
      -0.290
      -0.622
      -1.034
      -1.479
      -1.886
      -2.193
      -2.368
      -2.412
      -2.351
      -2.218
      -2.046
      -1.861
      -1.671
      -1.476
      -1.277
      -1.084
      -0.909
      -0.760
      -0.619
      -0.450
      -0.219
       0.080
       0.416
       0.740
       1.013
       1.230
       1.407
       1.565
       1.709
       1.832
       1.909
       1.907
       1.789
       1.529
       1.110
       0.537
      -0.152
      -0.876
      -1.536
      -2.051
      -2.396
      -2.600
      -2.698
      -2.678
      -2.466
      -1.978
      -1.196
      -0.217
       0.774
       1.581
       2.077
       2.228
       2.085
       1.737
       1.279
       0.791
       0.327
      -0.092
      -0.468
      -0.805
      -1.081
      -1.234
      -1.179
      -0.848
      -0.238
       0.575
       1.458
       2.273
       2.919
       3.352
       3.571
       3.602
       3.481
       3.242
       2.907
       2.483
       1.965
       1.358
       0.699
       0.061
      -0.469
      -0.835
      -1.044
      -1.148
      -1.196
      -1.180
      -1.033
      -0.680
      -0.101
       0.629
       1.377
       2.016
       2.482
       2.784
       2.959
       3.043
       3.051
       2.985
       2.841
       2.614
       2.308
       1.944
       1.567
       1.227
       0.955
       0.745
       0.577
       0.442
       0.342
       0.277
       0.217
       0.107
      -0.102
      -0.431
      -0.873
      -1.405
      -1.999
      -2.612
      -3.177
      -3.625
      -3.912
      -4.056
      -4.126
      -4.198
      -4.310
      -4.439
      -4.541
      -4.587
      -4.589
      -4.571
      -4.537
      -4.453
      -4.285
      -4.029
      -3.728
      -3.436
      -3.180
      -2.958
      -2.754
      -2.559
      -2.369
      -2.163
      -1.895
      -1.522
      -1.032
      -0.463
       0.116
       0.632
       1.029
       1.279
       1.383
       1.375
       1.314
       1.255
       1.212
       1.146
       0.990
       0.704
       0.309
      -0.125
      -0.531
      -0.883
      -1.188
      -1.439
      -1.577
      -1.510
      -1.183
      -0.638
      -0.011
       0.521
       0.822
       0.843
       0.628
       0.280
      -0.079
      -0.358
      -0.522
      -0.598
      -0.628
      -0.619
      -0.523
      -0.270
       0.161
       0.692
       1.169
       1.436
       1.414
       1.127
       0.667
       0.132
      -0.425
      -1.001
      -1.613
      -2.258
      -2.896
      -3.447
      -3.814
      -3.912
      -3.694
      -3.173
      -2.426
      -1.567
      -0.707
       0.078
       0.763
       1.364
       1.915
       2.448
       2.967
       3.440
       3.811
       4.034
       4.112
       4.111
       4.125
       4.234
       4.452
       4.741
       5.046
       5.323
       5.555
       5.731
       5.838
       5.867
       5.836
       5.789
       5.789
       5.883
       6.070
       6.302
       6.507
       6.634
       6.675
       6.654
       6.590
       6.463
       6.220
       5.809
       5.219
       4.488
       3.686
       2.883
       2.135
       1.484
       0.962
       0.582
       0.324
       0.133
      -0.052
      -0.266
      -0.496
      -0.703
      -0.845
      -0.909
      -0.907
      -0.873
      -0.848
      -0.880
      -1.018
      -1.294
      -1.699
      -2.185
      -2.686
      -3.148
      -3.550
      -3.884
      -4.138
      -4.304
      -4.389
      -4.435
      -4.500
      -4.624
      -4.799
      -4.987
      -5.151
      -5.290
      -5.431
      -5.590
      -5.745
      -5.829
      -5.773
      -5.539
      -5.143
      -4.643
      -4.101
      -3.568
      -3.073
      -2.632
      -2.258
      -1.955
      -1.713
      -1.513
      -1.339
      -1.194
      -1.086
      -1.003
      -0.900
      -0.708
      -0.381
       0.069
       0.558
       0.978
       1.251
       1.380
       1.436
       1.517
       1.698
       2.004
       2.415
       2.894
       3.414
       3.955
       4.499
       5.012
       5.448
       5.754
       5.883
       5.787
       5.429
       4.800
       3.933
       2.905
       1.816
       0.752
      -0.234
      -1.113
      -1.864
      -2.460
      -2.875
      -3.094
      -3.121
      -2.990
      -2.768
      -2.553
      -2.459
      -2.588
      -2.995
      -3.675
      -4.573
      -5.605
      -6.682
      -7.712
      -8.597
      -9.237
      -9.541
      -9.458
      -8.990
      -8.188
      -7.133
      -5.909
      -4.592
      -3.258
      -1.978
      -0.812
       0.216
       1.112
       1.882
       2.502
       2.903
       3.016
       2.818
       2.378
       1.829
       1.326
       0.994
       0.916
       1.151
       1.752
       2.750
       4.134
       5.835
       7.738
       9.702
      11.576
      13.198
      14.403
      15.043
      15.027
      14.357
      13.129
      11.512
       9.694
       7.842
       6.078
       4.478
       3.071
       1.844
       0.751
      -0.265
      -1.229
      -2.107
      -2.800
      -3.199
      -3.245
      -2.969
      -2.480
      -1.926
      -1.452
      -1.181
      -1.219
      -1.645
      -2.490
      -3.713
      -5.207
      -6.828
      -8.438
      -9.927
     -11.208
     -12.188
     -12.769
     -12.861
     -12.423
     -11.484
     -10.139
      -8.518
      -6.767
      -5.041
      -3.484
      -2.210
      -1.274
      -0.664
      -0.322
      -0.168
      -0.127
      -0.136
      -0.135
      -0.061
       0.158
       0.591
       1.280
       2.221
       3.374
       4.685
       6.103
       7.592
       9.121
      10.661
      12.169
      13.572
      14.757
      15.560
      15.795
      15.311
      14.048
      12.075
       9.580
       6.844
       4.179
       1.873
       0.135
      -0.938
      -1.360
      -1.221
      -0.646
       0.233
       1.283
       2.373
       3.374
       4.172
       4.681
       4.834
       4.576
       3.869
       2.714
       1.176
      -0.611
      -2.493
      -4.333
      -6.046
      -7.574
      -8.867
      -9.847
     -10.428
     -10.539
     -10.162
      -9.349
      -8.213
      -6.911
      -5.621
      -4.519
      -3.762
      -3.474
      -3.734
      -4.581
      -6.006
      -7.950
     -10.296
     -12.872
     -15.468
     -17.861
     -19.850
     -21.287
     -22.083
     -22.210
     -21.683
     -20.550
     -18.883
     -16.778
     -14.345
     -11.702
      -8.977
      -6.324
      -3.924
      -1.973
      -0.642
      -0.023
      -0.097
      -0.728
      -1.697
      -2.761
      -3.694
      -4.314
      -4.482
      -4.095
      -3.088
      -1.462
       0.702
       3.245
       5.966
       8.668
      11.182
      13.375
      15.153
      16.467
      17.325
      17.782
      17.916
      17.792
      17.457
      16.940
      16.285
      15.560
      14.854
      14.257
      13.837
      13.636
      13.688
      14.037
      14.731
      15.786
      17.151
      18.704
      20.287
      21.738
      22.919
      23.713
      24.028
      23.788
      22.928
      21.372
      19.039
      15.872
      11.901
       7.304
       2.415
      -2.349
      -6.613
     -10.151
     -12.910
     -14.949
     -16.337
     -17.101
     -17.237
     -16.775
     -15.837
     -14.624
     -13.358
     -12.226
     -11.361
     -10.863
     -10.800
     -11.187
     -11.965
     -13.001
     -14.134
     -15.227
     -16.203
     -17.016
     -17.602
     -17.837
     -17.553
     -16.596
     -14.892
     -12.473
      -9.459
      -6.011
      -2.293
       1.541
       5.331
       8.896
      12.037
      14.566
      16.329
      17.222
      17.192
      16.260
      14.538
      12.221
       9.549
       6.749
       4.004
       1.462
      -0.741
      -2.465
      -3.600
      -4.108
      -4.064
      -3.642
      -3.068
      -2.558
      -2.282
      -2.351
      -2.820
      -3.692
      -4.924
      -6.451
      -8.205
     -10.125
     -12.151
     -14.194
     -16.130
     -17.819
     -19.138
     -20.004
     -20.370
     -20.184
     -19.365
     -17.824
     -15.551
     -12.694
      -9.560
      -6.524
      -3.914
      -1.946
      -0.725
      -0.258
      -0.446
      -1.071
      -1.847
      -2.503
      -2.862
      -2.850
      -2.449
      -1.645
      -0.421
       1.234
       3.312
       5.782
       8.564
      11.501
      14.342
      16.790
      18.603
      19.682
      20.070
      19.883
      19.221
      18.137
      16.664
      14.888
      12.976
      11.165
       9.693
       8.721
       8.293
       8.346
       8.754
       9.373
      10.063
      10.696
      11.175
      11.452
      11.539
      11.482
      11.329
      11.096
      10.752
      10.198
       9.280
       7.829
       5.746
       3.095
       0.126
      -2.793
      -5.305
      -7.165
      -8.283
      -8.675
      -8.396
      -7.502
      -6.070
      -4.242
      -2.235
      -0.292
       1.392
       2.713
       3.660
       4.283
       4.652
       4.832
       4.854
       4.709
       4.369
       3.833
       3.157
       2.444
       1.792
       1.249
       0.815
       0.472
       0.216
       0.045
      -0.066
      -0.166
      -0.298
      -0.459
      -0.597
      -0.653
      -0.618
      -0.553
      -0.557
      -0.719
      -1.088
      -1.673
      -2.463
      -3.443
      -4.596
      -5.880
      -7.229
      -8.558
      -9.791
     -10.887
     -11.849
     -12.721
     -13.558
     -14.410
     -15.297
     -16.213
     -17.113
     -17.930
     -18.600
     -19.103
     -19.487
     -19.851
     -20.275
     -20.779
     -21.327
     -21.881
     -22.454
     -23.098
     -23.843
     -24.618
     -25.220
     -25.374
     -24.825
     -23.430
     -21.193
     -18.245
     -14.795
     -11.071
      -7.289
      -3.627
      -0.225
       2.815
       5.433
       7.620
       9.428
      10.949
      12.274
      13.458
      14.495
      15.327
      15.898
      16.195
      16.274
      16.238
      16.196
      16.222
      16.360
      16.652
      17.150
      17.905
      18.918
      20.121
      21.397
      22.625
      23.730
      24.688
      25.515
      26.240
      26.873
      27.382
      27.666
      27.560
      26.883
      25.509
      23.436
      20.804
      17.854
      14.868
      12.110
       9.788
       8.032
       6.897
       6.356
       6.306
       6.579
       6.971
       7.287
       7.379
       7.169
       6.646
       5.840
       4.793
       3.545
       2.146
       0.657
      -0.850
      -2.314
      -3.711
      -5.054
      -6.371
      -7.665
      -8.887
      -9.937
     -10.705
     -11.127
     -11.210
     -11.021
     -10.649
     -10.185
      -9.715
      -9.327
      -9.099
      -9.095
      -9.367
      -9.968
     -10.957
     -12.354
     -14.105
     -16.057
     -18.000
     -19.728
     -21.081
     -21.957
     -22.287
     -22.030
     -21.187
     -19.827
     -18.088
     -16.148
     -14.164
     -12.251
     -10.489
      -8.962
      -7.789
      -7.098
      -6.969
      -7.379
      -8.190
      -9.200
     -10.214
     -11.098
     -11.788
     -12.258
     -12.484
     -12.424
     -12.031
     -11.272
     -10.160
      -8.759
      -7.178
      -5.526
      -3.879
      -2.258
      -0.659
       0.893
       2.318
       3.485
       4.263
       4.576
       4.439
       3.964
       3.335
       2.768
       2.465
       2.567
       3.122
       4.076
       5.297
       6.626
       7.925
       9.103
      10.097
      10.859
      11.341
      11.522
      11.426
      11.131
      10.742
      10.355
      10.030
       9.794
       9.644
       9.569
       9.553
       9.577
       9.622
       9.669
       9.708
       9.734
       9.742
       9.733
       9.714
       9.708
       9.739
       9.812
       9.905
       9.976
       9.997
       9.969
       9.936
       9.950
      10.048
      10.222
      10.427
      10.600
      10.675
      10.597
      10.323
       9.821
       9.087
       8.162
       7.148
       6.189
       5.425
       4.932
       4.687
       4.589
       4.515
       4.376
       4.144
       3.834
       3.467
       3.048
       2.568
       2.031
       1.466
       0.910
       0.373
      -0.187
      -0.839
      -1.616
      -2.479
      -3.340
      -4.125
      -4.832
      -5.526
      -6.274
      -7.096
      -7.951
      -8.763
      -9.464
     -10.009
     -10.379
     -10.580
     -10.649
     -10.660
     -10.706
     -10.862
     -11.152
     -11.529
     -11.915
     -12.258
     -12.569
     -12.912
     -13.338
     -13.828
     -14.287
     -14.597
     -14.679
     -14.524
     -14.181
     -13.716
     -13.177
     -12.590
     -11.952
     -11.250
     -10.493
      -9.736
      -9.089
      -8.657
      -8.479
      -8.474
      -8.456
      -8.198
      -7.508
      -6.291
      -4.571
      -2.466
      -0.142
       2.239
       4.552
       6.726
       8.741
      10.619
      12.403
      14.132
      15.812
      17.405
      18.839
      20.022
      20.878
      21.366
      21.491
      21.287
      20.787
      19.985
      18.842
      17.328
      15.494
      13.506
      11.612
      10.050
       8.959
       8.336
       8.082
       8.075
       8.219
       8.444
       8.670
       8.797
       8.726
       8.408
       7.863
       7.153
       6.321
       5.347
       4.164
       2.710
       0.980
      -0.965
      -3.026
      -5.106
      -7.131
      -9.050
     -10.819
     -12.387
     -13.683
     -14.613
     -15.054
     -14.900
     -14.130
     -12.875
     -11.416
     -10.065
      -9.005
      -8.218
      -7.544
      -6.846
      -6.123
      -5.500
      -5.114
      -5.017
      -5.163
      -5.437
      -5.685
      -5.728
      -5.396
      -4.592
      -3.342
      -1.781
      -0.086
       1.584
       3.107
       4.401
       5.443
       6.292
       7.084
       7.951
       8.938
       9.967
      10.888
      11.563
      11.906
      11.856
      11.360
      10.408
       9.101
       7.657
       6.319
       5.225
       4.336
       3.496
       2.547
       1.425
       0.166
      -1.161
      -2.532
      -3.985
      -5.568
      -7.259
      -8.941
     -10.472
     -11.799
     -12.979
     -14.078
     -15.040
     -15.671
     -15.768
     -15.289
     -14.399
     -13.353
     -12.330
     -11.377
     -10.483
      -9.670
      -8.997
      -8.501
      -8.146
      -7.856
      -7.559
      -7.222
      -6.830
      -6.364
      -5.793
      -5.094
      -4.260
      -3.279
      -2.134
      -0.812
       0.672
       2.273
       3.934
       5.604
       7.211
       8.649
       9.789
      10.529
      10.855
      10.840
      10.595
      10.214
       9.756
       9.258
       8.763
       8.331
       8.021
       7.864
       7.847
       7.932
       8.083
       8.289
       8.558
       8.875
       9.172
       9.332
       9.261
       8.962
       8.554
       8.197
       7.988
       7.902
       7.809
       7.550
       7.009
       6.162
       5.084
       3.932
       2.897
       2.134
       1.704
       1.553
       1.545
       1.513
       1.302
       0.791
      -0.097
      -1.379
      -2.983
      -4.746
      -6.451
      -7.898
      -8.963
      -9.619
      -9.909
      -9.909
      -9.700
      -9.367
      -8.999
      -8.668
      -8.428
      -8.306
      -8.326
      -8.499
      -8.801
      -9.134
      -9.353
      -9.343
      -9.100
      -8.753
      -8.497
      -8.492
      -8.798
      -9.381
     -10.159
     -11.024
     -11.842
     -12.452
     -12.696
     -12.460
     -11.705
     -10.459
      -8.795
      -6.815
      -4.651
      -2.471
      -0.456
       1.240
       2.548
       3.496
       4.192
       4.768
       5.335
       5.947
       6.590
       7.190
       7.637
       7.824
       7.695
       7.278
       6.682
       6.064
       5.568
       5.279
       5.218
