Origin Time       29/12/2009 09:01:42
Lat.              24.5°N	
Long.             94.8°E	
Depth (Km)         80.0
Magnitude         5.5
 Region           MYANMAR-INDIA(MANIPUR)-BORDER                                    
 Above details taken from IMD 
   
Station Code      BON
Station Lat.       26.473
Station Long.      90.561
Station Height(m)   75.0
Site Class        C   Vs30 between 200 m/sec to 375 m/sec *  
Record Time       29.12.2009 14:33:47.954
Sampling Rate     200. Hz
 Record Duration   65.005 Sec.
 Direction         Vert. (Up positive)
Max. Acceleration     -5.493 cm/sec**2
     
  * For reference see Site Classification link of website 
     
 Base Line Corrected and Low Pass Filtered (Cut Off at 35 Hz) Time History
 Acceleration data in cm/sec**2
    
[...]
      -0.676
      -0.476
      -0.295
      -0.157
      -0.049
       0.048
       0.134
       0.198
       0.235
       0.252
       0.258
       0.253
       0.225
       0.176
       0.131
       0.135
       0.211
       0.336
       0.447
       0.481
       0.421
       0.296
       0.157
       0.037
      -0.051
      -0.118
      -0.179
      -0.253
      -0.349
      -0.460
      -0.551
      -0.578
      -0.512
      -0.353
      -0.144
       0.059
       0.214
       0.316
       0.389
       0.462
       0.538
       0.587
       0.574
       0.487
       0.353
       0.216
       0.101
      -0.001
      -0.118
      -0.264
      -0.421
      -0.543
      -0.592
      -0.561
      -0.474
      -0.366
      -0.259
      -0.162
      -0.078
      -0.015
       0.021
       0.047
       0.091
       0.173
       0.275
       0.354
       0.382
       0.373
       0.364
       0.372
       0.375
       0.338
       0.250
       0.139
       0.048
      -0.012
      -0.053
      -0.099
      -0.153
      -0.211
      -0.275
      -0.354
      -0.450
      -0.544
      -0.607
      -0.619
      -0.574
      -0.476
      -0.335
      -0.164
       0.015
       0.178
       0.306
       0.393
       0.446
       0.480
       0.509
       0.535
       0.548
       0.531
       0.474
       0.385
       0.287
       0.201
       0.123
       0.041
      -0.046
      -0.120
      -0.164
      -0.185
      -0.217
      -0.288
      -0.397
      -0.503
      -0.555
      -0.525
      -0.424
      -0.295
      -0.172
      -0.065
       0.048
       0.191
       0.361
       0.521
       0.622
       0.630
       0.548
       0.406
       0.250
       0.126
       0.064
       0.061
       0.079
       0.067
      -0.002
      -0.113
      -0.217
      -0.269
      -0.261
      -0.222
      -0.201
      -0.224
      -0.282
      -0.343
      -0.382
      -0.401
      -0.416
      -0.434
      -0.437
      -0.392
      -0.282
      -0.125
       0.031
       0.148
       0.219
       0.280
       0.366
       0.476
       0.562
       0.569
       0.478
       0.328
       0.182
       0.077
       0.003
      -0.078
      -0.185
      -0.296
      -0.369
      -0.388
      -0.373
      -0.354
      -0.340
      -0.322
      -0.284
      -0.227
      -0.166
      -0.110
      -0.053
       0.016
       0.097
       0.166
       0.195
       0.173
       0.116
       0.058
       0.030
       0.053
       0.128
       0.233
       0.336
       0.407
       0.448
       0.480
       0.527
       0.584
       0.619
       0.584
       0.454
       0.239
      -0.014
      -0.255
      -0.449
      -0.589
      -0.676
      -0.710
      -0.689
      -0.618
      -0.519
      -0.419
      -0.334
      -0.261
      -0.184
      -0.096
      -0.001
       0.088
       0.166
       0.231
       0.276
       0.287
       0.245
       0.153
       0.040
      -0.049
      -0.083
      -0.054
       0.021
       0.124
       0.244
       0.382
       0.531
       0.661
       0.736
       0.733
       0.657
       0.522
       0.332
       0.086
      -0.207
      -0.504
      -0.742
      -0.874
      -0.897
      -0.845
      -0.757
      -0.647
      -0.497
      -0.291
      -0.043
       0.201
       0.382
       0.469
       0.470
       0.421
       0.361
       0.306
       0.251
       0.188
       0.121
       0.070
       0.050
       0.059
       0.075
       0.077
       0.062
       0.035
       0.003
      -0.040
      -0.101
      -0.179
      -0.262
      -0.339
      -0.407
      -0.463
      -0.495
      -0.489
      -0.441
      -0.364
      -0.286
      -0.224
      -0.165
      -0.072
       0.081
       0.275
       0.447
       0.534
       0.518
       0.427
       0.311
       0.202
       0.106
       0.019
      -0.057
      -0.111
      -0.140
      -0.159
      -0.193
      -0.253
      -0.316
      -0.345
      -0.316
      -0.246
      -0.178
      -0.137
      -0.104
      -0.031
       0.111
       0.288
       0.423
       0.457
       0.398
       0.308
       0.253
       0.249
       0.263
       0.256
       0.217
       0.167
       0.129
       0.104
       0.069
       0.007
      -0.078
      -0.162
      -0.234
      -0.311
      -0.420
      -0.567
      -0.712
      -0.786
      -0.742
      -0.578
      -0.337
      -0.072
       0.184
       0.426
       0.662
       0.881
       1.051
       1.128
       1.092
       0.968
       0.802
       0.634
       0.474
       0.316
       0.157
       0.014
      -0.097
      -0.175
      -0.238
      -0.303
      -0.369
      -0.421
      -0.451
      -0.465
      -0.477
      -0.492
      -0.502
      -0.503
      -0.501
      -0.514
      -0.559
      -0.628
      -0.690
      -0.703
      -0.645
      -0.522
      -0.360
      -0.175
       0.041
       0.295
       0.570
       0.821
       1.005
       1.102
       1.119
       1.074
       0.975
       0.815
       0.586
       0.292
      -0.036
      -0.347
      -0.586
      -0.727
      -0.777
      -0.769
      -0.733
      -0.684
      -0.625
      -0.563
      -0.498
      -0.421
      -0.319
      -0.188
      -0.043
       0.093
       0.204
       0.284
       0.327
       0.321
       0.262
       0.168
       0.086
       0.061
       0.108
       0.193
       0.251
       0.233
       0.136
       0.003
      -0.110
      -0.170
      -0.183
      -0.171
      -0.146
      -0.106
      -0.043
       0.041
       0.130
       0.203
       0.251
       0.277
       0.289
       0.285
       0.259
       0.208
       0.142
       0.084
       0.058
       0.078
       0.141
       0.236
       0.346
       0.445
       0.502
       0.484
       0.384
       0.223
       0.044
      -0.119
      -0.248
      -0.341
      -0.395
      -0.417
      -0.427
      -0.461
      -0.539
      -0.642
      -0.717
      -0.716
      -0.639
      -0.531
      -0.451
      -0.423
      -0.436
      -0.467
      -0.498
      -0.517
      -0.512
      -0.470
      -0.379
      -0.235
      -0.036
       0.219
       0.522
       0.848
       1.149
       1.373
       1.482
       1.458
       1.305
       1.038
       0.688
       0.298
      -0.078
      -0.391
      -0.610
      -0.726
      -0.749
      -0.702
      -0.615
      -0.510
      -0.402
      -0.307
      -0.246
      -0.230
      -0.247
      -0.257
      -0.213
      -0.100
       0.051
       0.171
       0.203
       0.144
       0.043
      -0.040
      -0.082
      -0.096
      -0.104
      -0.112
      -0.117
      -0.132
      -0.179
      -0.262
      -0.353
      -0.409
      -0.411
      -0.374
      -0.332
      -0.302
      -0.281
      -0.256
      -0.214
      -0.135
       0.013
       0.243
       0.522
       0.775
       0.935
       0.997
       1.019
       1.065
       1.161
       1.283
       1.394
       1.478
       1.535
       1.569
       1.568
       1.512
       1.388
       1.196
       0.941
       0.621
       0.238
      -0.186
      -0.603
      -0.961
      -1.240
      -1.456
      -1.632
      -1.775
      -1.863
      -1.870
      -1.783
      -1.602
      -1.337
      -1.015
      -0.679
      -0.371
      -0.110
       0.113
       0.309
       0.468
       0.549
       0.524
       0.400
       0.229
       0.071
      -0.032
      -0.063
      -0.029
       0.043
       0.115
       0.155
       0.159
       0.152
       0.153
       0.158
       0.143
       0.087
      -0.005
      -0.108
      -0.201
      -0.276
      -0.342
      -0.405
      -0.463
      -0.493
      -0.470
      -0.380
      -0.230
      -0.040
       0.168
       0.373
       0.554
       0.681
       0.731
       0.694
       0.577
       0.404
       0.205
       0.005
      -0.182
      -0.355
      -0.510
      -0.624
      -0.670
      -0.641
      -0.563
      -0.483
      -0.431
      -0.403
      -0.374
      -0.342
      -0.333
      -0.376
      -0.463
      -0.544
      -0.566
      -0.516
      -0.419
      -0.296
      -0.141
       0.068
       0.334
       0.621
       0.876
       1.053
       1.140
       1.151
       1.113
       1.053
       0.997
       0.965
       0.967
       0.995
       1.032
       1.042
       0.977
       0.797
       0.504
       0.144
      -0.211
      -0.516
      -0.773
      -1.013
      -1.253
      -1.469
      -1.620
      -1.683
      -1.683
      -1.660
      -1.629
      -1.558
      -1.400
      -1.133
      -0.777
      -0.376
       0.034
       0.427
       0.779
       1.064
       1.266
       1.390
       1.467
       1.531
       1.602
       1.671
       1.710
       1.695
       1.618
       1.494
       1.346
       1.200
       1.061
       0.910
       0.719
       0.472
       0.179
      -0.129
      -0.420
      -0.674
      -0.888
      -1.061
      -1.188
      -1.253
      -1.240
      -1.141
      -0.974
      -0.782
      -0.612
      -0.491
      -0.416
      -0.366
      -0.313
      -0.242
      -0.145
      -0.025
       0.105
       0.220
       0.287
       0.293
       0.251
       0.190
       0.114
      -0.009
      -0.216
      -0.504
      -0.821
      -1.106
      -1.319
      -1.456
      -1.522
      -1.510
      -1.410
      -1.236
      -1.026
      -0.807
      -0.557
      -0.221
       0.233
       0.774
       1.317
       1.774
       2.103
       2.312
       2.427
       2.463
       2.416
       2.275
       2.036
       1.709
       1.313
       0.866
       0.387
      -0.109
      -0.609
      -1.096
      -1.547
      -1.927
      -2.197
      -2.335
      -2.336
      -2.214
      -1.989
      -1.683
      -1.319
      -0.918
      -0.508
      -0.122
       0.204
       0.442
       0.584
       0.644
       0.650
       0.624
       0.576
       0.500
       0.388
       0.249
       0.114
       0.032
       0.045
       0.161
       0.348
       0.540
       0.673
       0.707
       0.639
       0.490
       0.288
       0.062
      -0.169
      -0.391
      -0.596
      -0.777
      -0.915
      -0.965
      -0.866
      -0.576
      -0.107
       0.463
       1.022
       1.474
       1.770
       1.899
       1.871
       1.695
       1.387
       0.971
       0.474
      -0.086
      -0.700
      -1.352
      -1.989
      -2.522
      -2.864
      -2.975
      -2.889
      -2.674
      -2.379
      -2.001
      -1.517
      -0.936
      -0.316
       0.273
       0.790
       1.236
       1.631
       1.978
       2.256
       2.434
       2.495
       2.449
       2.317
       2.117
       1.850
       1.508
       1.099
       0.657
       0.233
      -0.131
      -0.414
      -0.617
      -0.747
      -0.810
      -0.810
      -0.754
      -0.642
      -0.465
      -0.214
       0.101
       0.445
       0.771
       1.035
       1.205
       1.267
       1.229
       1.120
       0.979
       0.828
       0.649
       0.400
       0.053
      -0.365
      -0.783
      -1.121
      -1.341
      -1.463
      -1.537
      -1.606
      -1.677
      -1.729
      -1.735
      -1.680
      -1.565
      -1.405
      -1.211
      -0.989
      -0.739
      -0.465
      -0.179
       0.109
       0.394
       0.680
       0.965
       1.236
       1.466
       1.626
       1.693
       1.651
       1.489
       1.193
       0.766
       0.238
      -0.335
      -0.888
      -1.363
      -1.716
      -1.909
      -1.918
      -1.751
      -1.469
      -1.164
      -0.905
      -0.698
      -0.503
      -0.279
      -0.029
       0.214
       0.421
       0.599
       0.772
       0.939
       1.063
       1.088
       0.995
       0.814
       0.609
       0.433
       0.308
       0.229
       0.178
       0.141
       0.111
       0.090
       0.083
       0.082
       0.071
       0.025
      -0.068
      -0.198
      -0.342
      -0.478
      -0.604
      -0.735
      -0.883
      -1.039
      -1.173
      -1.258
      -1.299
      -1.324
      -1.359
      -1.389
      -1.351
      -1.167
      -0.797
      -0.270
       0.323
       0.878
       1.328
       1.651
       1.853
       1.934
       1.875
       1.663
       1.315
       0.892
       0.474
       0.122
      -0.149
      -0.356
      -0.531
      -0.677
      -0.765
      -0.745
      -0.586
      -0.313
      -0.014
       0.203
       0.273
       0.197
       0.026
      -0.185
      -0.404
      -0.602
      -0.732
      -0.728
      -0.534
      -0.140
       0.407
       1.025
       1.632
       2.178
       2.637
       2.984
       3.187
       3.215
       3.062
       2.753
       2.323
       1.796
       1.175
       0.471
      -0.263
      -0.932
      -1.438
      -1.736
      -1.855
      -1.874
      -1.873
      -1.899
      -1.963
      -2.041
      -2.085
      -2.033
      -1.854
      -1.578
      -1.288
      -1.059
      -0.900
      -0.740
      -0.481
      -0.062
       0.506
       1.155
       1.805
       2.393
       2.871
       3.189
       3.288
       3.125
       2.690
       2.022
       1.187
       0.266
      -0.669
      -1.563
      -2.371
      -3.058
      -3.594
      -3.949
      -4.105
      -4.059
      -3.821
      -3.408
      -2.836
      -2.139
      -1.380
      -0.651
      -0.031
       0.469
       0.918
       1.415
       2.015
       2.689
       3.352
       3.914
       4.311
       4.501
       4.443
       4.106
       3.487
       2.620
       1.547
       0.308
      -1.052
      -2.437
      -3.701
      -4.685
      -5.286
      -5.493
      -5.362
      -4.961
      -4.341
      -3.531
      -2.572
      -1.533
      -0.506
       0.412
       1.137
       1.625
       1.874
       1.920
       1.808
       1.566
       1.201
       0.729
       0.201
      -0.299
      -0.673
      -0.856
      -0.833
      -0.644
      -0.362
      -0.066
       0.177
       0.325
       0.366
       0.317
       0.217
       0.113
       0.040
       0.024
       0.083
       0.232
       0.491
       0.870
       1.345
       1.850
       2.287
       2.563
       2.633
       2.511
       2.252
       1.924
       1.573
       1.209
       0.816
       0.398
       0.000
      -0.300
      -0.439
      -0.418
      -0.298
      -0.161
      -0.058
       0.011
       0.080
       0.182
       0.329
       0.507
       0.684
       0.825
       0.901
       0.893
       0.802
       0.649
       0.465
       0.271
       0.057
      -0.211
      -0.561
      -0.981
      -1.400
      -1.717
      -1.843
      -1.739
      -1.437
      -1.020
      -0.591
      -0.226
       0.050
       0.243
       0.362
       0.398
       0.330
       0.157
      -0.086
      -0.336
      -0.532
      -0.646
      -0.688
      -0.684
      -0.633
      -0.501
      -0.237
       0.178
       0.711
       1.288
       1.831
       2.278
       2.578
       2.682
       2.531
       2.083
       1.343
       0.372
      -0.721
      -1.809
      -2.767
      -3.495
      -3.928
      -4.036
      -3.826
      -3.333
      -2.624
      -1.805
      -0.998
      -0.316
       0.176
       0.466
       0.592
       0.616
       0.603
       0.603
       0.643
       0.735
       0.872
       1.034
       1.185
       1.294
       1.352
       1.381
       1.404
       1.414
       1.362
       1.188
       0.865
       0.422
      -0.078
      -0.571
      -1.014
      -1.375
      -1.613
      -1.686
      -1.566
      -1.275
      -0.875
      -0.443
      -0.031
       0.343
       0.669
       0.925
       1.075
       1.089
       0.965
       0.728
       0.414
       0.073
      -0.232
      -0.437
      -0.502
      -0.445
      -0.333
      -0.247
      -0.225
      -0.262
      -0.347
      -0.505
      -0.784
      -1.198
      -1.672
      -2.047
      -2.159
      -1.919
      -1.365
      -0.626
       0.144
       0.831
       1.379
       1.766
       1.971
       1.961
       1.724
       1.294
       0.751
       0.179
      -0.353
      -0.798
      -1.118
      -1.282
      -1.279
      -1.124
      -0.852
      -0.503
      -0.105
       0.317
       0.728
       1.073
       1.282
       1.305
       1.136
       0.814
       0.400
      -0.048
      -0.484
      -0.864
      -1.137
      -1.253
      -1.171
      -0.870
      -0.353
       0.332
       1.093
       1.799
       2.330
       2.616
       2.634
       2.393
       1.917
       1.253
       0.484
      -0.282
      -0.957
      -1.490
      -1.854
      -2.020
      -1.950
      -1.620
      -1.045
      -0.291
       0.545
       1.358
       2.051
       2.552
       2.810
       2.797
       2.510
       1.982
       1.270
       0.455
      -0.367
      -1.091
      -1.635
      -1.966
      -2.114
      -2.133
      -2.063
      -1.915
      -1.697
      -1.437
      -1.194
      -1.025
      -0.948
      -0.926
      -0.885
      -0.757
      -0.523
      -0.221
       0.088
       0.361
       0.600
       0.839
       1.111
       1.415
       1.703
       1.902
       1.952
       1.835
       1.577
       1.223
       0.816
       0.387
      -0.044
      -0.462
      -0.857
      -1.212
      -1.506
      -1.699
      -1.733
      -1.555
      -1.155
      -0.595
       0.004
       0.524
       0.899
       1.122
       1.219
       1.219
       1.155
       1.064
       0.985
       0.933
       0.883
       0.773
       0.528
       0.101
      -0.500
      -1.220
      -1.979
      -2.697
      -3.303
      -3.737
      -3.948
      -3.896
      -3.564
      -2.959
      -2.114
      -1.078
       0.082
       1.280
       2.412
       3.368
       4.047
       4.381
       4.343
       3.956
       3.301
       2.512
       1.740
       1.101
       0.624
       0.258
      -0.080
      -0.433
      -0.767
      -1.007
      -1.105
      -1.088
      -1.040
      -1.049
      -1.138
      -1.250
      -1.295
      -1.209
      -0.999
      -0.727
      -0.462
      -0.233
      -0.023
       0.195
       0.426
       0.650
       0.840
       0.977
       1.044
       1.030
       0.940
       0.798
       0.638
       0.478
       0.313
       0.123
      -0.108
      -0.376
      -0.666
      -0.960
      -1.257
      -1.572
      -1.913
      -2.257
      -2.558
      -2.770
      -2.868
      -2.844
      -2.692
      -2.402
      -1.969
      -1.404
      -0.747
      -0.065
       0.582
       1.162
       1.665
       2.082
       2.383
       2.535
       2.522
       2.366
       2.110
       1.796
       1.437
       1.020
       0.534
       0.005
      -0.504
      -0.902
      -1.104
      -1.058
      -0.768
      -0.318
       0.153
       0.506
       0.678
       0.706
       0.691
       0.715
       0.795
       0.901
       1.004
       1.131
       1.347
       1.702
       2.174
       2.662
       3.023
       3.141
       2.962
       2.499
       1.807
       0.953
       0.018
      -0.903
      -1.713
      -2.331
      -2.711
      -2.840
      -2.719
      -2.358
      -1.794
      -1.107
      -0.422
       0.129
       0.450
       0.523
       0.399
       0.162
      -0.123
      -0.427
      -0.739
      -1.028
      -1.231
      -1.297
      -1.232
      -1.095
      -0.946
      -0.798
      -0.629
      -0.440
      -0.275
      -0.186
      -0.171
      -0.176
      -0.143
