Origin Time       29/10/2009 17:00:35 UTC
Lat.              27.3°N	
Long.             91.4°E	
Depth (Km)          5.0
Magnitude         5.2
 Region           BHUTAN                                                           
 Above details taken from IMD 
    
Station Code      BON
Station Lat.       26.473  N
Station Long.      90.561  E
Station Height(m)   75.0
Site Class        C   Vs30 between 200 m/sec to 375 m/sec *  
Record Time       29.10.2009 22:31:06.439 UTC
Sampling Rate     200. Hz
 Record Duration   72.555 Sec.
 Direction         N-S (N positive)
Max. Acceleration     -7.180 cm/sec**2
     
  * For reference see Site Classification link of website 
     
 Base Line Corrected and Low Pass Filtered (Cut Off at 35 Hz) Time History
 Acceleration data in cm/sec**2
    
[...]
      -0.365
      -0.355
      -0.327
      -0.290
      -0.253
      -0.221
      -0.197
      -0.175
      -0.151
      -0.123
      -0.097
      -0.085
      -0.104
      -0.163
      -0.260
      -0.382
      -0.505
      -0.606
      -0.666
      -0.670
      -0.613
      -0.506
      -0.382
      -0.279
      -0.224
      -0.215
      -0.227
      -0.230
      -0.208
      -0.159
      -0.089
      -0.005
       0.089
       0.181
       0.252
       0.278
       0.245
       0.161
       0.051
      -0.048
      -0.109
      -0.123
      -0.105
      -0.077
      -0.063
      -0.078
      -0.121
      -0.183
      -0.246
      -0.294
      -0.318
      -0.321
      -0.308
      -0.287
      -0.264
      -0.244
      -0.228
      -0.214
      -0.196
      -0.166
      -0.118
      -0.050
       0.034
       0.123
       0.205
       0.263
       0.288
       0.282
       0.255
       0.222
       0.197
       0.189
       0.203
       0.238
       0.289
       0.340
       0.380
       0.397
       0.394
       0.378
       0.365
       0.368
       0.396
       0.445
       0.499
       0.539
       0.551
       0.537
       0.507
       0.478
       0.459
       0.450
       0.445
       0.437
       0.415
       0.366
       0.281
       0.159
       0.019
      -0.112
      -0.203
      -0.234
      -0.202
      -0.124
      -0.021
       0.084
       0.171
       0.227
       0.245
       0.222
       0.163
       0.078
      -0.020
      -0.117
      -0.204
      -0.279
      -0.338
      -0.376
      -0.384
      -0.359
      -0.303
      -0.227
      -0.144
      -0.067
      -0.003
       0.043
       0.070
       0.080
       0.073
       0.050
       0.009
      -0.049
      -0.120
      -0.191
      -0.250
      -0.285
      -0.291
      -0.264
      -0.202
      -0.105
       0.018
       0.155
       0.290
       0.411
       0.514
       0.597
       0.654
       0.672
       0.642
       0.562
       0.440
       0.289
       0.128
      -0.032
      -0.179
      -0.305
      -0.403
      -0.467
      -0.494
      -0.484
      -0.438
      -0.366
      -0.280
      -0.198
      -0.134
      -0.095
      -0.082
      -0.096
      -0.136
      -0.201
      -0.286
      -0.381
      -0.474
      -0.550
      -0.604
      -0.639
      -0.667
      -0.694
      -0.719
      -0.731
      -0.722
      -0.688
      -0.634
      -0.569
      -0.499
      -0.427
      -0.356
      -0.296
      -0.262
      -0.275
      -0.345
      -0.466
      -0.610
      -0.739
      -0.823
      -0.851
      -0.836
      -0.800
      -0.759
      -0.718
      -0.668
      -0.601
      -0.515
      -0.414
      -0.302
      -0.179
      -0.042
       0.117
       0.298
       0.491
       0.669
       0.805
       0.880
       0.895
       0.871
       0.834
       0.804
       0.789
       0.779
       0.758
       0.717
       0.654
       0.574
       0.486
       0.396
       0.315
       0.260
       0.254
       0.306
       0.402
       0.507
       0.579
       0.597
       0.563
       0.496
       0.409
       0.303
       0.176
       0.033
      -0.109
      -0.234
      -0.339
      -0.430
      -0.516
      -0.599
      -0.670
      -0.717
      -0.731
      -0.712
      -0.664
      -0.588
      -0.485
      -0.354
      -0.200
      -0.035
       0.122
       0.249
       0.331
       0.364
       0.361
       0.342
       0.334
       0.351
       0.394
       0.450
       0.507
       0.562
       0.624
       0.705
       0.815
       0.952
       1.106
       1.260
       1.398
       1.509
       1.587
       1.632
       1.641
       1.617
       1.563
       1.488
       1.403
       1.314
       1.221
       1.114
       0.986
       0.839
       0.683
       0.535
       0.407
       0.301
       0.211
       0.127
       0.044
      -0.036
      -0.106
      -0.170
      -0.236
      -0.313
      -0.396
      -0.468
      -0.511
      -0.515
      -0.487
      -0.439
      -0.381
      -0.314
      -0.238
      -0.157
      -0.075
       0.010
       0.113
       0.250
       0.427
       0.632
       0.835
       1.005
       1.119
       1.168
       1.150
       1.069
       0.926
       0.732
       0.504
       0.260
       0.014
      -0.220
      -0.432
      -0.613
      -0.762
      -0.893
      -1.029
      -1.198
      -1.419
      -1.692
      -2.006
      -2.337
      -2.666
      -2.978
      -3.261
      -3.512
      -3.732
      -3.928
      -4.111
      -4.283
      -4.437
      -4.553
      -4.610
      -4.605
      -4.547
      -4.457
      -4.342
      -4.201
      -4.019
      -3.781
      -3.478
      -3.110
      -2.688
      -2.228
      -1.753
      -1.281
      -0.817
      -0.356
       0.115
       0.605
       1.108
       1.610
       2.084
       2.506
       2.854
       3.127
       3.341
       3.522
       3.694
       3.868
       4.040
       4.200
       4.340
       4.459
       4.561
       4.648
       4.718
       4.764
       4.780
       4.757
       4.683
       4.543
       4.324
       4.020
       3.634
       3.168
       2.625
       2.008
       1.327
       0.607
      -0.110
      -0.774
      -1.343
      -1.796
      -2.139
      -2.393
      -2.575
      -2.692
      -2.744
      -2.733
      -2.669
      -2.562
      -2.411
      -2.208
      -1.949
      -1.646
      -1.332
      -1.043
      -0.801
      -0.601
      -0.422
      -0.239
      -0.034
       0.204
       0.483
       0.806
       1.170
       1.564
       1.972
       2.379
       2.779
       3.167
       3.543
       3.897
       4.218
       4.492
       4.711
       4.870
       4.965
       4.983
       4.905
       4.706
       4.373
       3.914
       3.351
       2.716
       2.031
       1.307
       0.549
      -0.239
      -1.036
      -1.809
      -2.511
      -3.099
      -3.547
      -3.857
      -4.059
      -4.198
      -4.318
      -4.452
      -4.620
      -4.831
      -5.084
      -5.370
      -5.664
      -5.928
      -6.118
      -6.204
      -6.180
      -6.060
      -5.867
      -5.610
      -5.275
      -4.843
      -4.307
      -3.677
      -2.970
      -2.200
      -1.377
      -0.518
       0.340
       1.144
       1.845
       2.415
       2.849
       3.162
       3.369
       3.487
       3.526
       3.493
       3.386
       3.200
       2.935
       2.605
       2.244
       1.893
       1.590
       1.363
       1.219
       1.150
       1.134
       1.140
       1.133
       1.079
       0.955
       0.747
       0.447
       0.054
      -0.435
      -1.011
      -1.654
      -2.333
      -3.007
      -3.632
      -4.174
      -4.610
      -4.927
      -5.119
      -5.175
      -5.076
      -4.802
      -4.338
      -3.681
      -2.858
      -1.920
      -0.942
       0.003
       0.850
       1.561
       2.114
       2.505
       2.742
       2.847
       2.858
       2.825
       2.800
       2.824
       2.930
       3.132
       3.436
       3.835
       4.318
       4.859
       5.423
       5.964
       6.437
       6.798
       7.012
       7.053
       6.905
       6.567
       6.055
       5.398
       4.638
       3.810
       2.939
       2.039
       1.122
       0.212
      -0.659
      -1.451
      -2.130
      -2.675
      -3.079
      -3.355
      -3.528
      -3.642
      -3.742
      -3.866
      -4.036
      -4.250
      -4.484
      -4.702
      -4.862
      -4.928
      -4.878
      -4.712
      -4.447
      -4.106
      -3.707
      -3.255
      -2.755
      -2.212
      -1.639
      -1.052
      -0.465
       0.111
       0.663
       1.174
       1.628
       2.014
       2.326
       2.562
       2.717
       2.785
       2.767
       2.678
       2.551
       2.418
       2.305
       2.218
       2.150
       2.084
       1.996
       1.861
       1.659
       1.378
       1.018
       0.595
       0.130
      -0.353
      -0.830
      -1.267
      -1.631
      -1.890
      -2.035
      -2.077
      -2.045
      -1.968
      -1.873
      -1.779
      -1.699
      -1.637
      -1.598
      -1.581
      -1.589
      -1.619
      -1.665
      -1.710
      -1.741
      -1.756
      -1.762
      -1.767
      -1.769
      -1.750
      -1.689
      -1.567
      -1.378
      -1.130
      -0.835
      -0.509
      -0.166
       0.181
       0.514
       0.807
       1.028
       1.143
       1.130
       0.989
       0.745
       0.442
       0.129
      -0.148
      -0.353
      -0.461
      -0.452
      -0.318
      -0.062
       0.299
       0.732
       1.196
       1.654
       2.080
       2.455
       2.763
       2.989
       3.113
       3.127
       3.042
       2.890
       2.707
       2.517
       2.325
       2.119
       1.883
       1.612
       1.320
       1.034
       0.785
       0.596
       0.480
       0.435
       0.447
       0.488
       0.519
       0.503
       0.405
       0.209
      -0.082
      -0.439
      -0.811
      -1.133
      -1.359
      -1.473
      -1.497
      -1.472
      -1.434
      -1.399
      -1.367
      -1.335
      -1.308
      -1.293
      -1.299
      -1.329
      -1.389
      -1.487
      -1.623
      -1.779
      -1.922
      -2.014
      -2.037
      -1.995
      -1.908
      -1.800
      -1.683
      -1.553
      -1.395
      -1.188
      -0.911
      -0.554
      -0.127
       0.337
       0.796
       1.205
       1.534
       1.762
       1.889
       1.926
       1.897
       1.837
       1.778
       1.736
       1.711
       1.691
       1.668
       1.653
       1.660
       1.693
       1.721
       1.689
       1.533
       1.217
       0.745
       0.168
      -0.435
      -0.986
      -1.427
      -1.730
      -1.897
      -1.954
      -1.937
      -1.884
      -1.826
      -1.783
      -1.753
      -1.717
      -1.642
      -1.502
      -1.286
      -1.010
      -0.706
      -0.407
      -0.131
       0.123
       0.369
       0.612
       0.845
       1.057
       1.238
       1.389
       1.519
       1.646
       1.787
       1.954
       2.154
       2.378
       2.606
       2.808
       2.957
       3.038
       3.049
       3.000
       2.895
       2.732
       2.503
       2.197
       1.810
       1.342
       0.803
       0.204
      -0.435
      -1.084
      -1.709
      -2.273
      -2.751
      -3.131
      -3.406
      -3.576
      -3.647
      -3.644
      -3.609
      -3.588
      -3.620
      -3.717
      -3.875
      -4.088
      -4.358
      -4.675
      -5.006
      -5.290
      -5.457
      -5.463
      -5.302
      -4.997
      -4.579
      -4.075
      -3.511
      -2.916
      -2.310
      -1.702
      -1.088
      -0.467
       0.143
       0.708
       1.197
       1.599
       1.930
       2.229
       2.539
       2.900
       3.345
       3.885
       4.502
       5.149
       5.761
       6.278
       6.660
       6.889
       6.966
       6.905
       6.732
       6.481
       6.175
       5.823
       5.415
       4.949
       4.438
       3.906
       3.372
       2.838
       2.297
       1.744
       1.183
       0.628
       0.096
      -0.393
      -0.823
      -1.180
      -1.465
      -1.692
      -1.882
      -2.051
      -2.197
      -2.302
      -2.341
      -2.299
      -2.183
      -2.025
      -1.868
      -1.748
      -1.684
      -1.678
      -1.716
      -1.783
      -1.866
      -1.952
      -2.033
      -2.104
      -2.154
      -2.174
      -2.157
      -2.104
      -2.022
      -1.923
      -1.812
      -1.682
      -1.521
      -1.319
      -1.082
      -0.833
      -0.604
      -0.421
      -0.297
      -0.226
      -0.188
      -0.153
      -0.088
       0.039
       0.244
       0.515
       0.814
       1.083
       1.279
       1.381
       1.400
       1.368
       1.328
       1.315
       1.346
       1.404
       1.445
       1.413
       1.262
       0.976
       0.575
       0.105
      -0.376
      -0.812
      -1.165
      -1.420
      -1.589
      -1.699
      -1.772
      -1.812
      -1.807
      -1.736
      -1.594
      -1.389
      -1.149
      -0.921
      -0.761
      -0.722
      -0.831
      -1.077
      -1.413
      -1.771
      -2.090
      -2.333
      -2.479
      -2.526
      -2.472
      -2.314
      -2.050
      -1.679
      -1.206
      -0.651
      -0.056
       0.518
       1.003
       1.339
       1.503
       1.509
       1.406
       1.257
       1.115
       1.014
       0.962
       0.953
       0.971
       1.003
       1.039
       1.076
       1.120
       1.180
       1.259
       1.344
       1.415
       1.448
       1.435
       1.387
       1.324
       1.261
       1.206
       1.150
       1.080
       0.981
       0.839
       0.649
       0.418
       0.166
      -0.077
      -0.281
      -0.430
      -0.523
      -0.575
      -0.598
      -0.597
      -0.563
      -0.485
      -0.348
      -0.149
       0.107
       0.404
       0.717
       1.021
       1.292
       1.513
       1.678
       1.784
       1.831
       1.827
       1.789
       1.748
       1.739
       1.791
       1.924
       2.145
       2.444
       2.797
       3.167
       3.510
       3.788
       3.979
       4.077
       4.083
       3.998
       3.818
       3.543
       3.182
       2.752
       2.270
       1.746
       1.187
       0.596
      -0.018
      -0.641
      -1.260
      -1.869
      -2.469
      -3.066
      -3.668
      -4.277
      -4.888
      -5.482
      -6.027
      -6.489
      -6.842
      -7.071
      -7.180
      -7.176
      -7.076
      -6.894
      -6.648
      -6.350
      -6.001
      -5.595
      -5.125
      -4.601
      -4.051
      -3.510
      -3.005
      -2.538
      -2.096
      -1.666
      -1.246
      -0.843
      -0.452
      -0.054
       0.383
       0.885
       1.454
       2.067
       2.686
       3.272
       3.787
       4.202
       4.494
       4.659
       4.708
       4.674
       4.588
       4.468
       4.314
       4.112
       3.858
       3.561
       3.245
       2.941
       2.673
       2.452
       2.279
       2.146
       2.047
       1.985
       1.965
       1.986
       2.036
       2.083
       2.093
       2.032
       1.885
       1.654
       1.356
       1.017
       0.660
       0.304
      -0.042
      -0.371
      -0.677
      -0.948
      -1.167
      -1.322
      -1.402
      -1.411
      -1.370
      -1.308
      -1.257
      -1.240
      -1.267
      -1.329
      -1.400
      -1.451
      -1.460
      -1.425
      -1.361
      -1.290
      -1.228
      -1.186
      -1.167
      -1.178
      -1.225
      -1.308
      -1.409
      -1.505
      -1.572
      -1.594
      -1.565
      -1.486
      -1.364
      -1.216
      -1.064
      -0.934
      -0.850
      -0.825
      -0.860
      -0.945
      -1.063
      -1.200
      -1.343
      -1.482
      -1.600
      -1.666
      -1.646
      -1.519
      -1.287
      -0.969
      -0.584
      -0.143
       0.341
       0.838
       1.294
       1.650
       1.868
       1.953
       1.947
       1.907
       1.877
       1.869
       1.865
       1.830
       1.734
       1.564
       1.331
       1.064
       0.807
       0.611
       0.522
       0.566
       0.734
       0.982
       1.246
       1.467
       1.602
       1.625
       1.527
       1.315
       1.018
       0.681
       0.355
       0.077
      -0.129
      -0.257
      -0.318
      -0.330
      -0.318
      -0.297
      -0.271
      -0.230
      -0.165
      -0.077
       0.019
       0.095
       0.130
       0.113
       0.045
      -0.069
      -0.227
      -0.435
      -0.693
      -0.982
      -1.262
      -1.485
      -1.621
      -1.665
      -1.637
      -1.564
      -1.456
      -1.309
      -1.107
      -0.849
      -0.554
      -0.263
      -0.019
       0.152
       0.250
       0.286
       0.273
       0.213
       0.111
      -0.026
      -0.187
      -0.364
      -0.550
      -0.727
      -0.865
      -0.929
      -0.906
      -0.807
      -0.668
      -0.525
      -0.404
      -0.314
      -0.262
      -0.248
      -0.262
      -0.278
      -0.263
      -0.194
      -0.067
       0.101
       0.285
       0.460
       0.609
       0.719
       0.779
       0.788
       0.753
       0.699
       0.658
       0.656
       0.704
       0.795
       0.901
       0.990
       1.042
       1.053
       1.041
       1.032
       1.043
       1.079
       1.120
       1.135
       1.098
       1.002
       0.858
       0.687
       0.508
       0.335
       0.179
       0.050
      -0.037
      -0.065
      -0.019
       0.104
       0.290
       0.508
       0.722
       0.900
       1.021
       1.071
       1.034
       0.896
       0.646
       0.290
      -0.142
      -0.600
      -1.024
      -1.361
      -1.575
      -1.655
      -1.610
      -1.463
      -1.243
      -0.984
      -0.713
      -0.447
      -0.190
       0.052
       0.264
       0.417
       0.481
       0.440
       0.303
       0.101
      -0.132
      -0.369
      -0.603
      -0.843
      -1.102
      -1.391
      -1.707
      -2.024
      -2.303
      -2.504
      -2.604
      -2.608
      -2.548
      -2.461
      -2.378
      -2.313
      -2.265
      -2.220
      -2.154
      -2.033
      -1.828
      -1.524
      -1.135
      -0.693
      -0.242
       0.189
       0.588
       0.963
       1.324
       1.672
       1.994
       2.274
       2.500
       2.665
       2.765
       2.799
       2.767
       2.677
       2.539
       2.363
       2.157
       1.933
       1.705
       1.488
       1.287
       1.091
       0.891
       0.687
       0.507
       0.389
       0.366
       0.445
       0.600
       0.780
       0.928
       1.001
       0.977
       0.856
       0.654
       0.394
       0.099
      -0.205
      -0.493
      -0.737
      -0.917
      -1.025
      -1.072
      -1.081
      -1.083
      -1.102
      -1.152
      -1.226
      -1.308
      -1.377
      -1.410
      -1.392
      -1.318
      -1.188
      -1.014
      -0.814
      -0.606
      -0.406
      -0.222
      -0.061
       0.070
       0.166
       0.229
       0.273
       0.323
       0.404
       0.536
       0.723
       0.956
       1.215
       1.470
       1.695
       1.871
       1.990
       2.049
       2.046
       1.978
       1.850
       1.674
       1.470
       1.259
       1.056
       0.868
       0.695
       0.534
       0.387
       0.253
       0.131
       0.008
      -0.136
      -0.308
      -0.502
      -0.692
      -0.859
      -1.000
      -1.131
      -1.271
      -1.427
      -1.583
      -1.715
      -1.794
      -1.806
      -1.748
      -1.629
      -1.470
      -1.296
      -1.128
      -0.973
      -0.824
      -0.668
      -0.497
      -0.322
      -0.168
      -0.063
      -0.017
      -0.025
      -0.065
      -0.109
      -0.127
      -0.094
       0.001
       0.147
       0.311
       0.446
       0.516
       0.508
       0.437
       0.336
       0.237
       0.159
       0.111
       0.093
       0.097
       0.117
       0.150
       0.193
       0.253
       0.337
       0.444
       0.558
       0.642
       0.657
       0.582
       0.431
       0.251
       0.105
       0.048
       0.111
       0.290
       0.550
       0.838
       1.102
       1.302
       1.412
