Origin Time       1/5/2013 06:57:12	  UTC
Lat.              33.1 N	
Long.             75.8 E	
Depth (Km)         15.0
Magnitude         5.8
 Region           JK-HP-Border                                                     
 Above details taken from IMD 
    
Station Code      CKR
Station Lat.       30.694  N
Station Long.      77.901  E
Station Height(m) 2118.0
Site Class        B   Vs30 between 375 m/sec to 700 m/sec *  
Record Time       01.05.2013 06:58:20.299 UTC
Sampling Rate     200. Hz
 Record Duration   91.770 Sec.
 Direction         N-S (N positive)
Max. Acceleration     -3.068 cm/sec**2
     
  * For reference see Site Classification link of website 
     
 Base Line Corrected and Low Pass Filtered (Cut Off at 35 Hz) Time History
 Acceleration data in cm/sec**2
    
[...]
      -0.564
      -0.596
      -0.615
      -0.607
      -0.578
      -0.543
      -0.511
      -0.479
      -0.435
      -0.369
      -0.287
      -0.202
      -0.127
      -0.056
       0.034
       0.163
       0.324
       0.486
       0.619
       0.721
       0.809
       0.903
       1.002
       1.095
       1.174
       1.238
       1.303
       1.381
       1.466
       1.536
       1.565
       1.547
       1.493
       1.422
       1.343
       1.253
       1.132
       0.967
       0.764
       0.548
       0.340
       0.137
      -0.080
      -0.320
      -0.573
      -0.815
      -1.024
      -1.194
      -1.327
      -1.424
      -1.476
      -1.468
      -1.403
      -1.304
      -1.204
      -1.130
      -1.086
      -1.056
      -1.016
      -0.944
      -0.844
      -0.730
      -0.610
      -0.475
      -0.310
      -0.121
       0.065
       0.212
       0.302
       0.344
       0.358
       0.356
       0.334
       0.290
       0.230
       0.177
       0.153
       0.162
       0.190
       0.210
       0.202
       0.160
       0.104
       0.064
       0.054
       0.060
       0.063
       0.062
       0.073
       0.120
       0.208
       0.316
       0.411
       0.481
       0.540
       0.617
       0.725
       0.849
       0.964
       1.053
       1.118
       1.164
       1.194
       1.193
       1.135
       0.998
       0.787
       0.536
       0.286
       0.055
      -0.163
      -0.379
      -0.588
      -0.761
      -0.869
      -0.912
      -0.925
      -0.947
      -0.987
      -1.017
      -1.010
      -0.959
      -0.875
      -0.768
      -0.641
      -0.486
      -0.302
      -0.096
       0.101
       0.254
       0.342
       0.372
       0.371
       0.359
       0.338
       0.299
       0.236
       0.161
       0.099
       0.069
       0.057
       0.024
      -0.063
      -0.200
      -0.352
      -0.482
      -0.571
      -0.618
      -0.633
      -0.622
      -0.578
      -0.491
      -0.373
      -0.257
      -0.177
      -0.147
      -0.154
      -0.167
      -0.167
      -0.150
      -0.132
      -0.122
      -0.108
      -0.065
       0.019
       0.119
       0.193
       0.218
       0.201
       0.168
       0.138
       0.115
       0.091
       0.056
       0.017
      -0.007
      -0.003
       0.022
       0.043
       0.040
       0.012
      -0.024
      -0.043
      -0.037
      -0.022
      -0.023
      -0.050
      -0.086
      -0.105
      -0.096
      -0.073
      -0.061
      -0.076
      -0.110
      -0.141
      -0.154
      -0.155
      -0.159
      -0.171
      -0.177
      -0.156
      -0.099
      -0.023
       0.041
       0.067
       0.057
       0.038
       0.043
       0.085
       0.152
       0.226
       0.305
       0.402
       0.528
       0.674
       0.813
       0.914
       0.971
       1.007
       1.045
       1.085
       1.109
       1.099
       1.063
       1.022
       0.995
       0.976
       0.938
       0.850
       0.705
       0.525
       0.349
       0.195
       0.051
      -0.102
      -0.267
      -0.420
      -0.535
      -0.608
      -0.670
      -0.758
      -0.879
      -1.006
      -1.098
      -1.141
      -1.149
      -1.147
      -1.144
      -1.135
      -1.111
      -1.077
      -1.045
      -1.023
      -1.003
      -0.959
      -0.871
      -0.746
      -0.617
      -0.515
      -0.442
      -0.372
      -0.273
      -0.139
       0.001
       0.109
       0.169
       0.196
       0.226
       0.280
       0.360
       0.454
       0.552
       0.652
       0.758
       0.871
       0.978
       1.064
       1.120
       1.158
       1.196
       1.240
       1.268
       1.255
       1.194
       1.102
       1.011
       0.941
       0.884
       0.814
       0.716
       0.601
       0.494
       0.404
       0.324
       0.241
       0.149
       0.053
      -0.035
      -0.106
      -0.160
      -0.217
      -0.298
      -0.407
      -0.530
      -0.639
      -0.722
      -0.790
      -0.871
      -0.979
      -1.100
      -1.197
      -1.247
      -1.263
      -1.274
      -1.300
      -1.323
      -1.319
      -1.271
      -1.179
      -1.054
      -0.905
      -0.732
      -0.533
      -0.321
      -0.125
       0.016
       0.089
       0.112
       0.124
       0.157
       0.218
       0.287
       0.339
       0.367
       0.386
       0.409
       0.430
       0.423
       0.377
       0.307
       0.238
       0.184
       0.141
       0.093
       0.030
      -0.042
      -0.105
      -0.137
      -0.137
      -0.129
      -0.138
      -0.174
      -0.215
      -0.231
      -0.197
      -0.119
      -0.025
       0.061
       0.136
       0.220
       0.323
       0.431
       0.512
       0.543
       0.527
       0.489
       0.454
       0.435
       0.423
       0.407
       0.385
       0.369
       0.365
       0.368
       0.358
       0.317
       0.245
       0.160
       0.094
       0.066
       0.069
       0.081
       0.093
       0.115
       0.163
       0.230
       0.289
       0.306
       0.273
       0.211
       0.152
       0.113
       0.091
       0.077
       0.072
       0.090
       0.138
       0.211
       0.285
       0.327
       0.314
       0.242
       0.138
       0.035
      -0.051
      -0.134
      -0.238
      -0.369
      -0.508
      -0.623
      -0.698
      -0.743
      -0.783
      -0.828
      -0.859
      -0.849
      -0.785
      -0.671
      -0.512
      -0.315
      -0.083
       0.174
       0.436
       0.671
       0.847
       0.950
       0.989
       0.987
       0.964
       0.921
       0.845
       0.722
       0.556
       0.368
       0.185
       0.013
      -0.164
      -0.369
      -0.602
      -0.838
      -1.056
      -1.248
      -1.418
      -1.566
      -1.682
      -1.748
      -1.750
      -1.696
      -1.608
      -1.508
      -1.394
      -1.245
      -1.037
      -0.762
      -0.439
      -0.104
       0.212
       0.504
       0.787
       1.072
       1.337
       1.545
       1.676
       1.740
       1.762
       1.756
       1.721
       1.648
       1.543
       1.427
       1.335
       1.284
       1.260
       1.229
       1.163
       1.061
       0.950
       0.859
       0.798
       0.744
       0.662
       0.542
       0.409
       0.302
       0.226
       0.145
       0.018
      -0.169
      -0.392
      -0.616
      -0.815
      -0.986
      -1.139
      -1.278
      -1.392
      -1.460
      -1.480
      -1.468
      -1.454
      -1.458
      -1.477
      -1.490
      -1.474
      -1.424
      -1.355
      -1.280
      -1.185
      -1.041
      -0.828
      -0.563
      -0.293
      -0.057
       0.131
       0.283
       0.421
       0.551
       0.668
       0.763
       0.839
       0.907
       0.979
       1.048
       1.095
       1.096
       1.036
       0.923
       0.781
       0.629
       0.468
       0.286
       0.093
      -0.080
      -0.192
      -0.230
      -0.220
      -0.215
      -0.250
      -0.314
      -0.373
      -0.400
      -0.400
      -0.397
      -0.402
      -0.404
      -0.380
      -0.314
      -0.215
      -0.115
      -0.046
      -0.014
       0.005
       0.047
       0.125
       0.221
       0.305
       0.362
       0.397
       0.431
       0.479
       0.528
       0.552
       0.538
       0.494
       0.434
       0.367
       0.292
       0.209
       0.126
       0.057
       0.015
       0.002
      -0.001
      -0.017
      -0.059
      -0.115
      -0.153
      -0.150
      -0.105
      -0.038
       0.026
       0.075
       0.119
       0.167
       0.214
       0.228
       0.177
       0.060
      -0.100
      -0.274
      -0.445
      -0.607
      -0.756
      -0.887
      -0.985
      -1.034
      -1.031
      -0.986
      -0.920
      -0.839
      -0.736
      -0.598
      -0.422
      -0.222
      -0.026
       0.143
       0.284
       0.417
       0.554
       0.684
       0.772
       0.790
       0.737
       0.631
       0.495
       0.347
       0.197
       0.047
      -0.098
      -0.228
      -0.335
      -0.421
      -0.497
      -0.571
      -0.639
      -0.684
      -0.680
      -0.617
      -0.504
      -0.371
      -0.241
      -0.113
       0.027
       0.183
       0.336
       0.460
       0.540
       0.582
       0.610
       0.639
       0.667
       0.675
       0.645
       0.579
       0.497
       0.418
       0.350
       0.284
       0.211
       0.131
       0.068
       0.051
       0.089
       0.159
       0.229
       0.283
       0.334
       0.405
       0.499
       0.591
       0.649
       0.654
       0.617
       0.559
       0.489
       0.400
       0.280
       0.134
      -0.020
      -0.165
      -0.298
      -0.431
      -0.580
      -0.753
      -0.928
      -1.071
      -1.154
      -1.182
      -1.173
      -1.145
      -1.093
      -1.000
      -0.858
      -0.684
      -0.515
      -0.383
      -0.291
      -0.221
      -0.153
      -0.087
      -0.037
      -0.018
      -0.038
      -0.083
      -0.137
      -0.186
      -0.238
      -0.311
      -0.409
      -0.512
      -0.586
      -0.611
      -0.593
      -0.552
      -0.497
      -0.415
      -0.281
      -0.088
       0.138
       0.356
       0.546
       0.718
       0.897
       1.086
       1.272
       1.432
       1.552
       1.634
       1.691
       1.729
       1.739
       1.694
       1.573
       1.381
       1.141
       0.882
       0.614
       0.332
       0.030
      -0.279
      -0.556
      -0.765
      -0.904
      -1.008
      -1.109
      -1.208
      -1.277
      -1.293
      -1.259
      -1.196
      -1.122
      -1.038
      -0.931
      -0.787
      -0.614
      -0.446
      -0.315
      -0.238
      -0.201
      -0.180
      -0.151
      -0.115
      -0.095
      -0.106
      -0.136
      -0.148
      -0.113
      -0.046
       0.015
       0.034
       0.011
      -0.029
      -0.050
      -0.032
       0.022
       0.098
       0.187
       0.299
       0.448
       0.627
       0.811
       0.964
       1.062
       1.107
       1.117
       1.106
       1.065
       0.973
       0.823
       0.638
       0.450
       0.272
       0.089
      -0.125
      -0.378
      -0.646
      -0.893
      -1.094
      -1.251
      -1.379
      -1.488
      -1.570
      -1.615
      -1.618
      -1.591
      -1.548
      -1.493
      -1.412
      -1.281
      -1.086
      -0.841
      -0.585
      -0.353
      -0.148
       0.056
       0.288
       0.553
       0.823
       1.055
       1.225
       1.346
       1.447
       1.549
       1.650
       1.740
       1.814
       1.874
       1.924
       1.962
       1.972
       1.933
       1.835
       1.690
       1.529
       1.378
       1.235
       1.078
       0.889
       0.672
       0.454
       0.263
       0.103
      -0.059
      -0.258
      -0.498
      -0.750
      -0.981
      -1.181
      -1.353
      -1.502
      -1.619
      -1.689
      -1.697
      -1.646
      -1.558
      -1.458
      -1.353
      -1.227
      -1.056
      -0.837
      -0.594
      -0.361
      -0.164
       0.005
       0.171
       0.352
       0.528
       0.652
       0.691
       0.650
       0.560
       0.443
       0.309
       0.150
      -0.036
      -0.243
      -0.448
      -0.633
      -0.801
      -0.971
      -1.158
      -1.357
      -1.541
      -1.678
      -1.755
      -1.777
      -1.762
      -1.720
      -1.636
      -1.488
      -1.275
      -1.025
      -0.776
      -0.550
      -0.337
      -0.120
       0.118
       0.377
       0.645
       0.911
       1.177
       1.454
       1.737
       1.998
       2.202
       2.327
       2.380
       2.385
       2.371
       2.352
       2.313
       2.238
       2.129
       2.009
       1.899
       1.794
       1.663
       1.479
       1.236
       0.956
       0.665
       0.384
       0.116
      -0.144
      -0.393
      -0.618
      -0.804
      -0.953
      -1.082
      -1.208
      -1.342
      -1.475
      -1.587
      -1.663
      -1.708
      -1.733
      -1.736
      -1.690
      -1.560
      -1.335
      -1.038
      -0.722
      -0.424
      -0.153
       0.105
       0.359
       0.597
       0.791
       0.927
       1.006
       1.045
       1.053
       1.030
       0.967
       0.850
       0.680
       0.477
       0.270
       0.074
      -0.116
      -0.311
      -0.510
      -0.690
      -0.823
      -0.894
      -0.920
      -0.945
      -1.002
      -1.090
      -1.184
      -1.259
      -1.305
      -1.327
      -1.325
      -1.292
      -1.208
      -1.063
      -0.863
      -0.636
      -0.416
      -0.218
      -0.029
       0.168
       0.375
       0.576
       0.749
       0.893
       1.026
       1.171
       1.320
       1.428
       1.443
       1.349
       1.173
       0.960
       0.739
       0.520
       0.297
       0.063
      -0.167
      -0.368
      -0.520
      -0.629
      -0.725
      -0.829
      -0.938
      -1.023
      -1.053
      -1.016
      -0.920
      -0.780
      -0.594
      -0.352
      -0.049
       0.288
       0.617
       0.910
       1.170
       1.417
       1.665
       1.904
       2.111
       2.265
       2.359
       2.408
       2.426
       2.405
       2.314
       2.124
       1.829
       1.455
       1.047
       0.641
       0.250
      -0.141
      -0.545
      -0.951
      -1.334
      -1.678
      -1.991
      -2.291
      -2.578
      -2.827
      -2.999
      -3.068
      -3.037
      -2.930
      -2.770
      -2.561
      -2.295
      -1.974
      -1.621
      -1.269
      -0.945
      -0.657
      -0.394
      -0.138
       0.108
       0.322
       0.482
       0.589
       0.675
       0.771
       0.888
       1.005
       1.091
       1.132
       1.141
       1.144
       1.152
       1.157
       1.144
       1.120
       1.103
       1.109
       1.134
       1.149
       1.126
       1.047
       0.919
       0.759
       0.584
       0.397
       0.197
      -0.009
      -0.198
      -0.342
      -0.426
      -0.459
      -0.471
      -0.482
      -0.489
      -0.469
      -0.407
      -0.308
      -0.193
      -0.080
       0.030
       0.144
       0.272
       0.414
       0.552
       0.658
       0.711
       0.710
       0.676
       0.630
       0.577
       0.516
       0.444
       0.371
       0.314
       0.277
       0.242
       0.177
       0.064
      -0.085
      -0.243
      -0.388
      -0.515
      -0.622
      -0.709
      -0.771
      -0.798
      -0.783
      -0.736
      -0.680
      -0.637
      -0.607
      -0.573
      -0.520
      -0.448
      -0.375
      -0.319
      -0.292
      -0.285
      -0.288
      -0.305
      -0.360
      -0.479
      -0.661
      -0.879
      -1.102
      -1.310
      -1.495
      -1.651
      -1.764
      -1.814
      -1.780
      -1.658
      -1.471
      -1.252
      -1.023
      -0.789
      -0.538
      -0.259
       0.042
       0.339
       0.603
       0.825
       1.019
       1.203
       1.373
       1.500
       1.555
       1.535
       1.461
       1.362
       1.257
       1.151
       1.042
       0.939
       0.862
       0.830
       0.838
       0.860
       0.864
       0.829
       0.760
       0.676
       0.595
       0.513
       0.408
       0.265
       0.097
      -0.067
      -0.209
      -0.335
      -0.463
      -0.596
      -0.710
      -0.778
      -0.782
      -0.734
      -0.664
      -0.589
      -0.507
      -0.396
      -0.246
      -0.061
       0.135
       0.322
       0.492
       0.657
       0.836
       1.037
       1.239
       1.416
       1.559
       1.680
       1.799
       1.914
       1.999
       2.015
       1.947
       1.811
       1.638
       1.445
       1.224
       0.956
       0.637
       0.279
      -0.096
      -0.466
      -0.821
      -1.164
      -1.500
      -1.822
      -2.106
      -2.324
      -2.465
      -2.539
      -2.564
      -2.547
      -2.478
      -2.345
      -2.150
      -1.923
      -1.697
      -1.483
      -1.268
      -1.032
      -0.775
      -0.518
      -0.281
      -0.071
       0.114
       0.282
       0.428
       0.533
       0.578
       0.559
       0.501
       0.439
       0.395
       0.367
       0.338
       0.297
       0.253
       0.232
       0.255
       0.311
       0.369
       0.406
       0.423
       0.441
       0.476
       0.529
       0.589
       0.649
       0.708
       0.772
       0.846
       0.917
       0.954
       0.937
       0.868
       0.771
       0.675
       0.593
       0.519
       0.436
       0.333
       0.226
       0.151
       0.129
       0.150
       0.178
       0.188
       0.181
       0.175
       0.182
       0.204
       0.230
       0.246
       0.249
       0.246
       0.237
       0.213
       0.153
       0.040
      -0.122
      -0.313
      -0.501
      -0.671
      -0.828
      -0.991
      -1.162
      -1.321
      -1.437
      -1.502
      -1.530
      -1.545
      -1.552
      -1.542
      -1.499
      -1.418
      -1.308
      -1.187
      -1.059
      -0.917
      -0.745
      -0.542
      -0.324
      -0.116
       0.065
       0.228
       0.401
       0.612
       0.853
       1.087
       1.276
       1.414
       1.521
       1.615
       1.688
       1.709
       1.648
       1.508
       1.321
       1.127
       0.945
       0.772
       0.602
       0.440
       0.305
       0.206
       0.136
       0.076
       0.009
      -0.063
      -0.124
      -0.152
      -0.149
      -0.139
      -0.149
      -0.188
      -0.241
      -0.290
      -0.334
      -0.390
      -0.481
      -0.606
      -0.739
      -0.846
      -0.915
      -0.954
      -0.975
      -0.976
      -0.942
      -0.860
      -0.732
      -0.584
      -0.455
      -0.371
      -0.324
      -0.281
      -0.208
      -0.101
       0.015
       0.118
       0.206
       0.304
       0.442
       0.622
       0.810
       0.961
       1.057
       1.116
       1.157
       1.182
       1.180
       1.138
       1.052
       0.931
       0.794
       0.654
       0.513
       0.365
       0.209
       0.057
      -0.077
      -0.187
      -0.281
      -0.370
      -0.456
      -0.521
      -0.537
      -0.493
      -0.411
      -0.339
      -0.309
      -0.321
      -0.353
      -0.384
      -0.407
      -0.427
      -0.452
      -0.483
      -0.506
      -0.505
      -0.480
      -0.446
      -0.425
      -0.422
      -0.421
      -0.398
      -0.334
      -0.240
      -0.145
      -0.073
      -0.017
       0.049
       0.141
       0.243
       0.322
       0.358
       0.359
       0.351
       0.358
       0.388
       0.427
       0.466
       0.509
       0.572
       0.664
       0.769
       0.857
       0.905
       0.912
       0.902
       0.895
       0.890
       0.858
       0.770
       0.627
       0.463
       0.319
       0.210
       0.124
       0.037
      -0.056
      -0.147
      -0.221
      -0.281
      -0.338
      -0.404
      -0.475
      -0.536
      -0.578
      -0.610
      -0.655
      -0.737
      -0.865
      -1.022
      -1.167
      -1.259
      -1.288
      -1.274
      -1.237
      -1.173
      -1.058
      -0.871
      -0.617
      -0.332
      -0.057
       0.188
       0.410
