Origin Time       1/5/2013 06:57:12	 
Lat.              33.1 N	
Long.             75.8 E	
Depth (Km)         15.0
Magnitude         5.8
 Region           JK-HP-Border                                                     
 Above details taken from IMD 
     
Station Code      CKR
Station Lat.       30.694  N
Station Long.      77.901  E
Station Height(m) 2118.0
Site Class        B   Vs30 between 375 m/sec to 700 m/sec *  
Record Time       01.05.2013 06:58:20.299
Sampling Rate     200. Hz
 Record Duration   91.770 Sec.
 Direction         E-W (E positive)
Max. Acceleration     -3.373 cm/sec**2
     
  * For reference see Site Classification link of website 
     
 Base Line Corrected and Low Pass Filtered (Cut Off at 35 Hz) Time History
 Acceleration data in cm/sec**2
    
[...]
      -0.211
      -0.118
      -0.040
       0.022
       0.056
       0.057
       0.035
       0.013
       0.011
       0.026
       0.044
       0.055
       0.063
       0.081
       0.117
       0.163
       0.199
       0.202
       0.168
       0.113
       0.067
       0.051
       0.059
       0.068
       0.062
       0.044
       0.033
       0.039
       0.050
       0.040
       0.002
      -0.046
      -0.070
      -0.055
      -0.011
       0.043
       0.098
       0.152
       0.202
       0.233
       0.230
       0.188
       0.125
       0.072
       0.057
       0.093
       0.170
       0.265
       0.357
       0.435
       0.502
       0.565
       0.619
       0.644
       0.610
       0.511
       0.368
       0.221
       0.094
      -0.011
      -0.105
      -0.190
      -0.264
      -0.316
      -0.341
      -0.346
      -0.340
      -0.328
      -0.303
      -0.250
      -0.167
      -0.066
       0.020
       0.061
       0.051
       0.012
      -0.023
      -0.036
      -0.038
      -0.045
      -0.056
      -0.049
      -0.001
       0.091
       0.207
       0.323
       0.424
       0.512
       0.593
       0.667
       0.724
       0.749
       0.736
       0.687
       0.615
       0.528
       0.425
       0.300
       0.149
      -0.017
      -0.174
      -0.302
      -0.399
      -0.482
      -0.570
      -0.663
      -0.743
      -0.792
      -0.810
      -0.818
      -0.840
      -0.884
      -0.940
      -0.988
      -1.015
      -1.025
      -1.028
      -1.024
      -1.000
      -0.937
      -0.824
      -0.677
      -0.526
      -0.392
      -0.274
      -0.154
      -0.024
       0.101
       0.195
       0.245
       0.265
       0.286
       0.326
       0.374
       0.408
       0.420
       0.426
       0.444
       0.475
       0.500
       0.497
       0.457
       0.391
       0.325
       0.276
       0.242
       0.207
       0.156
       0.089
       0.020
      -0.031
      -0.055
      -0.065
      -0.086
      -0.131
      -0.190
      -0.233
      -0.233
      -0.191
      -0.123
      -0.047
       0.029
       0.100
       0.166
       0.223
       0.263
       0.284
       0.292
       0.308
       0.349
       0.418
       0.497
       0.558
       0.582
       0.575
       0.556
       0.530
       0.481
       0.387
       0.245
       0.087
      -0.047
      -0.136
      -0.185
      -0.211
      -0.225
      -0.229
      -0.216
      -0.188
      -0.152
      -0.116
      -0.077
      -0.024
       0.054
       0.153
       0.257
       0.338
       0.377
       0.373
       0.343
       0.305
       0.260
       0.192
       0.085
      -0.054
      -0.195
      -0.301
      -0.353
      -0.357
      -0.333
      -0.295
      -0.246
      -0.182
      -0.109
      -0.039
       0.019
       0.063
       0.104
       0.154
       0.213
       0.265
       0.294
       0.290
       0.267
       0.246
       0.243
       0.248
       0.239
       0.195
       0.122
       0.049
       0.003
      -0.008
       0.000
       0.004
      -0.005
      -0.020
      -0.036
      -0.056
      -0.096
      -0.167
      -0.260
      -0.351
      -0.411
      -0.431
      -0.427
      -0.420
      -0.416
      -0.401
      -0.354
      -0.277
      -0.188
      -0.115
      -0.069
      -0.037
       0.007
       0.078
       0.165
       0.244
       0.289
       0.286
       0.239
       0.161
       0.067
      -0.038
      -0.158
      -0.300
      -0.455
      -0.603
      -0.720
      -0.794
      -0.830
      -0.835
      -0.812
      -0.757
      -0.677
      -0.587
      -0.512
      -0.465
      -0.437
      -0.406
      -0.357
      -0.293
      -0.224
      -0.156
      -0.083
       0.003
       0.105
       0.211
       0.302
       0.367
       0.412
       0.458
       0.522
       0.605
       0.685
       0.733
       0.738
       0.716
       0.698
       0.702
       0.718
       0.719
       0.691
       0.649
       0.622
       0.630
       0.669
       0.726
       0.789
       0.852
       0.908
       0.943
       0.940
       0.889
       0.797
       0.686
       0.572
       0.461
       0.344
       0.202
       0.017
      -0.214
      -0.477
      -0.743
      -0.988
      -1.205
      -1.397
      -1.559
      -1.676
      -1.727
      -1.702
      -1.611
      -1.474
      -1.313
      -1.144
      -0.974
      -0.813
      -0.670
      -0.554
      -0.459
      -0.368
      -0.262
      -0.132
       0.011
       0.149
       0.271
       0.389
       0.519
       0.675
       0.842
       0.993
       1.100
       1.159
       1.188
       1.214
       1.247
       1.278
       1.292
       1.277
       1.235
       1.172
       1.092
       0.989
       0.856
       0.694
       0.522
       0.371
       0.262
       0.197
       0.153
       0.111
       0.070
       0.045
       0.048
       0.070
       0.078
       0.045
      -0.032
      -0.130
      -0.225
      -0.311
      -0.398
      -0.494
      -0.592
      -0.678
      -0.738
      -0.775
      -0.800
      -0.825
      -0.847
      -0.850
      -0.816
      -0.745
      -0.654
      -0.571
      -0.508
      -0.458
      -0.399
      -0.319
      -0.230
      -0.163
      -0.136
      -0.137
      -0.133
      -0.098
      -0.032
       0.051
       0.136
       0.223
       0.313
       0.405
       0.486
       0.536
       0.544
       0.515
       0.467
       0.419
       0.368
       0.300
       0.194
       0.047
      -0.118
      -0.271
      -0.398
      -0.507
      -0.621
      -0.743
      -0.854
      -0.926
      -0.955
      -0.961
      -0.968
      -0.987
      -1.011
      -1.022
      -1.015
      -0.992
      -0.963
      -0.927
      -0.867
      -0.762
      -0.602
      -0.401
      -0.192
      -0.008
       0.144
       0.279
       0.416
       0.554
       0.672
       0.752
       0.798
       0.839
       0.896
       0.970
       1.042
       1.096
       1.130
       1.154
       1.176
       1.192
       1.185
       1.139
       1.057
       0.957
       0.869
       0.814
       0.788
       0.771
       0.740
       0.696
       0.654
       0.626
       0.606
       0.572
       0.504
       0.404
       0.296
       0.200
       0.119
       0.040
      -0.053
      -0.161
      -0.276
      -0.388
      -0.494
      -0.602
      -0.728
      -0.879
      -1.047
      -1.210
      -1.345
      -1.446
      -1.525
      -1.595
      -1.657
      -1.702
      -1.721
      -1.722
      -1.723
      -1.735
      -1.740
      -1.707
      -1.615
      -1.471
      -1.296
      -1.104
      -0.893
      -0.655
      -0.386
      -0.097
       0.189
       0.451
       0.685
       0.903
       1.119
       1.328
       1.506
       1.627
       1.682
       1.687
       1.668
       1.640
       1.598
       1.524
       1.411
       1.277
       1.152
       1.048
       0.961
       0.876
       0.788
       0.705
       0.639
       0.590
       0.543
       0.478
       0.388
       0.283
       0.185
       0.111
       0.063
       0.029
      -0.007
      -0.049
      -0.087
      -0.104
      -0.098
      -0.090
      -0.110
      -0.169
      -0.250
      -0.322
      -0.366
      -0.392
      -0.422
      -0.470
      -0.531
      -0.592
      -0.649
      -0.712
      -0.792
      -0.887
      -0.973
      -1.017
      -0.998
      -0.916
      -0.792
      -0.651
      -0.503
      -0.344
      -0.168
       0.011
       0.164
       0.266
       0.312
       0.318
       0.301
       0.267
       0.203
       0.103
      -0.029
      -0.177
      -0.323
      -0.462
      -0.597
      -0.734
      -0.871
      -0.992
      -1.074
      -1.102
      -1.087
      -1.055
      -1.026
      -0.996
      -0.937
      -0.829
      -0.676
      -0.507
      -0.352
      -0.213
      -0.073
       0.087
       0.265
       0.438
       0.589
       0.713
       0.819
       0.914
       0.991
       1.035
       1.036
       0.998
       0.944
       0.899
       0.869
       0.837
       0.775
       0.672
       0.542
       0.417
       0.320
       0.253
       0.201
       0.154
       0.121
       0.124
       0.180
       0.285
       0.423
       0.582
       0.755
       0.940
       1.128
       1.302
       1.443
       1.534
       1.579
       1.595
       1.603
       1.609
       1.603
       1.561
       1.468
       1.326
       1.151
       0.956
       0.737
       0.487
       0.208
      -0.072
      -0.324
      -0.536
      -0.720
      -0.890
      -1.051
      -1.188
      -1.283
      -1.331
      -1.346
      -1.359
      -1.391
      -1.437
      -1.470
      -1.462
      -1.413
      -1.344
      -1.280
      -1.225
      -1.161
      -1.072
      -0.962
      -0.857
      -0.780
      -0.734
      -0.703
      -0.667
      -0.628
      -0.601
      -0.601
      -0.631
      -0.678
      -0.724
      -0.757
      -0.782
      -0.808
      -0.836
      -0.847
      -0.814
      -0.716
      -0.562
      -0.382
      -0.210
      -0.058
       0.087
       0.245
       0.420
       0.599
       0.765
       0.918
       1.072
       1.241
       1.417
       1.578
       1.702
       1.783
       1.831
       1.855
       1.856
       1.824
       1.757
       1.667
       1.580
       1.515
       1.475
       1.439
       1.377
       1.269
       1.122
       0.954
       0.779
       0.592
       0.375
       0.119
      -0.164
      -0.445
      -0.702
      -0.931
      -1.140
      -1.331
      -1.495
      -1.620
      -1.702
      -1.750
      -1.778
      -1.792
      -1.783
      -1.733
      -1.626
      -1.471
      -1.297
      -1.140
      -1.016
      -0.913
      -0.808
      -0.683
      -0.547
      -0.423
      -0.331
      -0.268
      -0.210
      -0.134
      -0.034
       0.081
       0.200
       0.312
       0.410
       0.489
       0.543
       0.569
       0.570
       0.558
       0.554
       0.573
       0.616
       0.672
       0.721
       0.749
       0.762
       0.779
       0.809
       0.843
       0.856
       0.833
       0.786
       0.737
       0.698
       0.661
       0.612
       0.541
       0.458
       0.372
       0.286
       0.191
       0.077
      -0.050
      -0.171
      -0.259
      -0.306
      -0.323
      -0.332
      -0.351
      -0.376
      -0.395
      -0.401
      -0.407
      -0.431
      -0.474
      -0.511
      -0.518
      -0.486
      -0.426
      -0.350
      -0.257
      -0.142
      -0.009
       0.129
       0.250
       0.337
       0.386
       0.408
       0.418
       0.423
       0.417
       0.392
       0.342
       0.280
       0.225
       0.181
       0.135
       0.060
      -0.048
      -0.166
      -0.263
      -0.322
      -0.354
      -0.379
      -0.404
      -0.420
      -0.412
      -0.375
      -0.318
      -0.255
      -0.189
      -0.108
       0.001
       0.144
       0.307
       0.465
       0.600
       0.710
       0.801
       0.875
       0.915
       0.902
       0.836
       0.739
       0.644
       0.566
       0.492
       0.397
       0.267
       0.109
      -0.059
      -0.223
      -0.383
      -0.552
      -0.740
      -0.941
      -1.133
      -1.289
      -1.390
      -1.440
      -1.457
      -1.456
      -1.441
      -1.403
      -1.337
      -1.251
      -1.158
      -1.065
      -0.969
      -0.853
      -0.700
      -0.512
      -0.305
      -0.106
       0.071
       0.227
       0.371
       0.505
       0.621
       0.710
       0.772
       0.819
       0.867
       0.921
       0.971
       0.997
       0.990
       0.959
       0.918
       0.872
       0.814
       0.733
       0.636
       0.542
       0.469
       0.422
       0.387
       0.350
       0.310
       0.279
       0.271
       0.288
       0.315
       0.328
       0.312
       0.268
       0.212
       0.156
       0.101
       0.030
      -0.072
      -0.204
      -0.348
      -0.480
      -0.592
      -0.695
      -0.806
      -0.926
      -1.029
      -1.081
      -1.070
      -1.011
      -0.932
      -0.851
      -0.765
      -0.664
      -0.543
      -0.409
      -0.278
      -0.158
      -0.041
       0.091
       0.244
       0.404
       0.544
       0.643
       0.700
       0.729
       0.740
       0.726
       0.665
       0.547
       0.385
       0.208
       0.034
      -0.142
      -0.337
      -0.556
      -0.785
      -1.000
      -1.186
      -1.344
      -1.485
      -1.612
      -1.702
      -1.724
      -1.658
      -1.511
      -1.309
      -1.081
      -0.836
      -0.571
      -0.281
       0.023
       0.310
       0.548
       0.732
       0.881
       1.028
       1.186
       1.343
       1.475
       1.567
       1.620
       1.650
       1.666
       1.665
       1.632
       1.558
       1.452
       1.335
       1.226
       1.128
       1.034
       0.933
       0.831
       0.745
       0.687
       0.651
       0.612
       0.548
       0.461
       0.376
       0.324
       0.316
       0.344
       0.391
       0.448
       0.515
       0.601
       0.703
       0.809
       0.903
       0.977
       1.041
       1.110
       1.188
       1.255
       1.279
       1.243
       1.155
       1.040
       0.911
       0.754
       0.543
       0.263
      -0.071
      -0.428
      -0.785
      -1.135
      -1.482
      -1.818
      -2.130
      -2.406
      -2.643
      -2.847
      -3.025
      -3.179
      -3.302
      -3.373
      -3.371
      -3.285
      -3.125
      -2.915
      -2.675
      -2.413
      -2.126
      -1.818
      -1.503
      -1.200
      -0.916
      -0.632
      -0.317
       0.045
       0.443
       0.850
       1.243
       1.609
       1.940
       2.226
       2.456
       2.627
       2.741
       2.813
       2.855
       2.875
       2.866
       2.813
       2.705
       2.547
       2.357
       2.154
       1.942
       1.713
       1.454
       1.169
       0.876
       0.596
       0.340
       0.101
      -0.125
      -0.339
      -0.539
      -0.723
      -0.895
      -1.069
      -1.254
      -1.449
      -1.638
      -1.801
      -1.925
      -2.011
      -2.068
      -2.109
      -2.135
      -2.141
      -2.118
      -2.071
      -2.014
      -1.956
      -1.891
      -1.801
      -1.674
      -1.515
      -1.344
      -1.179
      -1.025
      -0.871
      -0.706
      -0.526
      -0.338
      -0.151
       0.035
       0.229
       0.437
       0.656
       0.870
       1.063
       1.224
       1.358
       1.473
       1.564
       1.607
       1.576
       1.467
       1.307
       1.138
       0.986
       0.854
       0.734
       0.619
       0.512
       0.419
       0.340
       0.264
       0.185
       0.107
       0.047
       0.026
       0.051
       0.118
       0.208
       0.305
       0.400
       0.498
       0.603
       0.706
       0.786
       0.825
       0.829
       0.827
       0.850
       0.901
       0.953
       0.972
       0.938
       0.859
       0.754
       0.640
       0.516
       0.375
       0.215
       0.052
      -0.096
      -0.210
      -0.291
      -0.353
      -0.414
      -0.478
      -0.535
      -0.572
      -0.587
      -0.592
      -0.601
      -0.613
      -0.609
      -0.571
      -0.498
      -0.406
      -0.317
      -0.245
      -0.193
      -0.162
      -0.155
      -0.174
      -0.217
      -0.268
      -0.312
      -0.336
      -0.348
      -0.365
      -0.406
      -0.475
      -0.552
      -0.609
      -0.627
      -0.606
      -0.561
      -0.504
      -0.428
      -0.312
      -0.144
       0.070
       0.308
       0.557
       0.812
       1.066
       1.305
       1.504
       1.642
       1.713
       1.732
       1.729
       1.724
       1.712
       1.667
       1.562
       1.390
       1.175
       0.942
       0.702
       0.442
       0.146
      -0.181
      -0.510
      -0.809
      -1.069
      -1.305
      -1.532
      -1.751
      -1.955
      -2.133
      -2.283
      -2.415
      -2.540
      -2.654
      -2.740
      -2.781
      -2.770
      -2.715
      -2.635
      -2.543
      -2.440
      -2.313
      -2.151
      -1.959
      -1.755
      -1.551
      -1.337
      -1.085
      -0.778
      -0.426
      -0.054
       0.316
       0.675
       1.026
       1.369
       1.698
       1.999
       2.257
       2.468
       2.634
       2.761
       2.854
       2.908
       2.914
       2.865
       2.772
       2.652
       2.516
       2.357
       2.157
       1.913
       1.645
       1.389
       1.167
       0.972
       0.780
       0.575
       0.356
       0.138
      -0.069
      -0.272
      -0.487
      -0.728
      -0.981
      -1.220
      -1.414
      -1.550
      -1.640
      -1.705
      -1.752
      -1.770
      -1.743
      -1.676
      -1.596
      -1.526
      -1.471
      -1.407
      -1.308
      -1.170
      -1.009
      -0.847
      -0.695
      -0.552
      -0.412
      -0.279
      -0.164
      -0.076
      -0.015
       0.028
       0.069
       0.118
       0.165
       0.185
       0.163
       0.108
       0.048
       0.008
      -0.007
      -0.013
      -0.028
      -0.055
      -0.075
      -0.065
      -0.017
       0.063
       0.164
       0.278
       0.401
       0.525
       0.637
       0.724
       0.770
       0.766
       0.718
       0.645
       0.570
       0.501
       0.427
       0.327
       0.193
       0.033
      -0.133
      -0.298
      -0.465
      -0.633
      -0.787
      -0.893
      -0.932
      -0.910
      -0.853
      -0.780
      -0.695
      -0.582
      -0.429
      -0.236
      -0.026
       0.178
       0.365
       0.547
       0.743
       0.962
       1.194
       1.419
       1.626
       1.824
       2.026
       2.236
       2.429
       2.568
       2.630
       2.621
       2.563
       2.469
       2.333
       2.145
       1.907
       1.630
       1.335
       1.036
       0.733
       0.419
       0.094
      -0.229
      -0.524
      -0.775
      -0.980
      -1.158
      -1.332
      -1.511
      -1.683
      -1.828
      -1.940
      -2.037
      -2.136
      -2.241
      -2.329
      -2.377
      -2.379
      -2.348
      -2.303
      -2.254
      -2.193
      -2.106
      -1.990
      -1.854
      -1.716
      -1.586
      -1.459
      -1.322
      -1.166
      -0.995
      -0.831
      -0.692
      -0.580
      -0.478
      -0.375
      -0.277
      -0.204
      -0.166
      -0.143
      -0.101
      -0.008
       0.135
       0.309
       0.487
       0.658
       0.821
       0.977
       1.119
       1.233
       1.310
       1.350
       1.371
       1.390
       1.421
       1.461
       1.497
       1.519
       1.531
       1.541
       1.551
       1.549
       1.522
       1.467
       1.401
       1.349
       1.325
       1.320
       1.318
       1.307
       1.292
       1.281
       1.277
       1.272
       1.252
       1.210
       1.154
       1.105
       1.074
       1.052
       1.012
       0.932
       0.813
       0.674
       0.531
       0.381
       0.198
      -0.037
      -0.320
      -0.622
      -0.908
      -1.173
      -1.430
      -1.695
      -1.963
      -2.215
      -2.435
      -2.615
      -2.763
      -2.887
      -2.979
