Origin Time       1/5/2013 06:57:12	 
Lat.              33.1 N	
Long.             75.8 E	
Depth (Km)         15.0
Magnitude         5.8
 Region           JK-HP-Border                                                     
 Above details taken from IMD 
   
Station Code      CKR
Station Lat.       30.694
Station Long.      77.901
Station Height(m) 2118.0
Site Class        B   Vs30 between 375 m/sec to 700 m/sec *  
Record Time       01.05.2013 06:58:20.299
Sampling Rate     200. Hz
 Record Duration   91.770 Sec.
 Direction         Vert. (Up positive)
Max. Acceleration     -1.608 cm/sec**2
     
  * For reference see Site Classification link of website 
     
 Base Line Corrected and Low Pass Filtered (Cut Off at 35 Hz) Time History
 Acceleration data in cm/sec**2
    
[...]
       0.499
       0.553
       0.516
       0.416
       0.294
       0.171
       0.053
      -0.050
      -0.134
      -0.207
      -0.274
      -0.331
      -0.379
      -0.426
      -0.465
      -0.471
      -0.429
      -0.347
      -0.247
      -0.148
      -0.060
       0.012
       0.074
       0.133
       0.174
       0.168
       0.111
       0.041
      -0.005
      -0.019
      -0.022
      -0.028
      -0.040
      -0.051
      -0.051
      -0.038
      -0.025
      -0.035
      -0.068
      -0.100
      -0.112
      -0.105
      -0.081
      -0.042
      -0.002
       0.021
       0.020
       0.008
      -0.007
      -0.036
      -0.092
      -0.167
      -0.242
      -0.298
      -0.329
      -0.337
      -0.338
      -0.341
      -0.333
      -0.297
      -0.240
      -0.191
      -0.168
      -0.168
      -0.183
      -0.204
      -0.214
      -0.194
      -0.145
      -0.090
      -0.038
       0.022
       0.098
       0.178
       0.237
       0.260
       0.249
       0.219
       0.199
       0.216
       0.267
       0.331
       0.393
       0.453
       0.507
       0.540
       0.541
       0.513
       0.459
       0.386
       0.315
       0.270
       0.249
       0.225
       0.176
       0.109
       0.042
      -0.018
      -0.069
      -0.111
      -0.149
      -0.186
      -0.211
      -0.217
      -0.222
      -0.257
      -0.331
      -0.415
      -0.475
      -0.493
      -0.467
      -0.408
      -0.338
      -0.279
      -0.228
      -0.169
      -0.097
      -0.030
       0.013
       0.029
       0.019
      -0.018
      -0.077
      -0.145
      -0.213
      -0.267
      -0.281
      -0.226
      -0.106
       0.043
       0.180
       0.280
       0.333
       0.337
       0.307
       0.263
       0.210
       0.146
       0.079
       0.031
       0.009
       0.004
       0.004
       0.009
       0.019
       0.029
       0.032
       0.023
      -0.018
      -0.107
      -0.228
      -0.339
      -0.405
      -0.420
      -0.394
      -0.335
      -0.257
      -0.180
      -0.110
      -0.040
       0.029
       0.088
       0.129
       0.160
       0.189
       0.218
       0.246
       0.267
       0.275
       0.275
       0.294
       0.360
       0.466
       0.571
       0.642
       0.673
       0.681
       0.680
       0.677
       0.665
       0.626
       0.543
       0.425
       0.294
       0.165
       0.039
      -0.080
      -0.183
      -0.268
      -0.332
      -0.368
      -0.365
      -0.337
      -0.313
      -0.303
      -0.295
      -0.277
      -0.249
      -0.224
      -0.209
      -0.209
      -0.214
      -0.201
      -0.154
      -0.085
      -0.022
       0.026
       0.063
       0.091
       0.097
       0.075
       0.030
      -0.032
      -0.100
      -0.157
      -0.186
      -0.195
      -0.210
      -0.250
      -0.310
      -0.372
      -0.425
      -0.460
      -0.478
      -0.489
      -0.491
      -0.462
      -0.381
      -0.259
      -0.129
      -0.007
       0.118
       0.250
       0.370
       0.450
       0.466
       0.408
       0.289
       0.152
       0.045
      -0.013
      -0.030
      -0.022
       0.004
       0.041
       0.088
       0.153
       0.241
       0.341
       0.432
       0.511
       0.578
       0.618
       0.603
       0.530
       0.420
       0.296
       0.174
       0.068
      -0.017
      -0.095
      -0.190
      -0.300
      -0.391
      -0.429
      -0.401
      -0.320
      -0.219
      -0.134
      -0.083
      -0.057
      -0.047
      -0.061
      -0.109
      -0.170
      -0.199
      -0.173
      -0.110
      -0.040
       0.023
       0.076
       0.128
       0.188
       0.259
       0.321
       0.352
       0.355
       0.353
       0.363
       0.387
       0.417
       0.434
       0.419
       0.360
       0.273
       0.171
       0.045
      -0.127
      -0.335
      -0.538
      -0.694
      -0.774
      -0.771
      -0.694
      -0.575
      -0.447
      -0.327
      -0.228
      -0.169
      -0.168
      -0.206
      -0.238
      -0.230
      -0.182
      -0.117
      -0.057
      -0.019
       0.005
       0.038
       0.092
       0.144
       0.160
       0.136
       0.098
       0.069
       0.056
       0.057
       0.069
       0.083
       0.096
       0.111
       0.130
       0.138
       0.124
       0.103
       0.111
       0.166
       0.259
       0.364
       0.450
       0.491
       0.487
       0.469
       0.461
       0.450
       0.400
       0.299
       0.173
       0.064
       0.004
      -0.001
       0.034
       0.072
       0.088
       0.077
       0.050
       0.009
      -0.051
      -0.125
      -0.198
      -0.264
      -0.322
      -0.363
      -0.379
      -0.381
      -0.381
      -0.378
      -0.354
      -0.304
      -0.237
      -0.173
      -0.134
      -0.128
      -0.132
      -0.106
      -0.036
       0.047
       0.106
       0.133
       0.147
       0.151
       0.143
       0.124
       0.106
       0.095
       0.089
       0.096
       0.119
       0.145
       0.154
       0.142
       0.125
       0.115
       0.107
       0.088
       0.039
      -0.048
      -0.156
      -0.245
      -0.288
      -0.295
      -0.297
      -0.313
      -0.337
      -0.355
      -0.355
      -0.332
      -0.295
      -0.259
      -0.227
      -0.178
      -0.095
       0.008
       0.099
       0.160
       0.200
       0.239
       0.303
       0.395
       0.491
       0.543
       0.526
       0.464
       0.391
       0.318
       0.233
       0.136
       0.038
      -0.051
      -0.124
      -0.175
      -0.208
      -0.236
      -0.270
      -0.295
      -0.290
      -0.252
      -0.194
      -0.125
      -0.049
       0.032
       0.118
       0.212
       0.298
       0.345
       0.340
       0.304
       0.270
       0.243
       0.206
       0.149
       0.075
      -0.002
      -0.061
      -0.076
      -0.045
       0.007
       0.055
       0.094
       0.134
       0.174
       0.205
       0.221
       0.214
       0.175
       0.112
       0.054
       0.018
      -0.014
      -0.078
      -0.182
      -0.301
      -0.402
      -0.459
      -0.465
      -0.436
      -0.403
      -0.378
      -0.351
      -0.314
      -0.280
      -0.272
      -0.287
      -0.306
      -0.314
      -0.307
      -0.287
      -0.268
      -0.267
      -0.284
      -0.286
      -0.245
      -0.167
      -0.088
      -0.041
      -0.034
      -0.054
      -0.069
      -0.048
       0.011
       0.081
       0.140
       0.190
       0.237
       0.266
       0.254
       0.194
       0.108
       0.027
      -0.016
      -0.004
       0.053
       0.123
       0.178
       0.223
       0.270
       0.315
       0.346
       0.357
       0.349
       0.329
       0.310
       0.309
       0.319
       0.315
       0.276
       0.210
       0.140
       0.080
       0.033
      -0.003
      -0.039
      -0.086
      -0.140
      -0.177
      -0.178
      -0.151
      -0.114
      -0.067
      -0.005
       0.062
       0.117
       0.143
       0.128
       0.073
       0.001
      -0.052
      -0.083
      -0.118
      -0.177
      -0.248
      -0.302
      -0.331
      -0.338
      -0.324
      -0.295
      -0.264
      -0.237
      -0.199
      -0.135
      -0.051
       0.034
       0.103
       0.154
       0.192
       0.221
       0.243
       0.238
       0.187
       0.099
       0.015
      -0.026
      -0.022
       0.012
       0.062
       0.117
       0.162
       0.191
       0.210
       0.218
       0.208
       0.183
       0.163
       0.165
       0.179
       0.187
       0.179
       0.154
       0.116
       0.081
       0.058
       0.026
      -0.052
      -0.195
      -0.372
      -0.531
      -0.638
      -0.684
      -0.675
      -0.626
      -0.558
      -0.483
      -0.402
      -0.321
      -0.254
      -0.205
      -0.147
      -0.056
       0.071
       0.217
       0.362
       0.489
       0.590
       0.677
       0.768
       0.861
       0.921
       0.917
       0.845
       0.728
       0.590
       0.452
       0.332
       0.231
       0.140
       0.053
      -0.029
      -0.111
      -0.210
      -0.332
      -0.460
      -0.571
      -0.646
      -0.671
      -0.644
      -0.587
      -0.533
      -0.484
      -0.407
      -0.276
      -0.105
       0.057
       0.167
       0.203
       0.175
       0.114
       0.051
      -0.006
      -0.065
      -0.126
      -0.174
      -0.199
      -0.214
      -0.235
      -0.265
      -0.297
      -0.322
      -0.323
      -0.290
      -0.237
      -0.197
      -0.189
      -0.187
      -0.155
      -0.077
       0.037
       0.161
       0.268
       0.339
       0.384
       0.417
       0.431
       0.405
       0.342
       0.277
       0.248
       0.257
       0.278
       0.280
       0.241
       0.165
       0.086
       0.043
       0.045
       0.062
       0.066
       0.051
       0.027
       0.005
      -0.010
      -0.014
      -0.014
      -0.023
      -0.031
      -0.013
       0.038
       0.094
       0.127
       0.134
       0.127
       0.115
       0.102
       0.083
       0.042
      -0.033
      -0.128
      -0.216
      -0.284
      -0.333
      -0.363
      -0.360
      -0.313
      -0.225
      -0.109
       0.018
       0.125
       0.182
       0.191
       0.192
       0.220
       0.277
       0.345
       0.402
       0.431
       0.427
       0.403
       0.369
       0.320
       0.238
       0.128
       0.020
      -0.062
      -0.121
      -0.171
      -0.222
      -0.281
      -0.343
      -0.388
      -0.399
      -0.386
      -0.387
      -0.423
      -0.480
      -0.534
      -0.570
      -0.581
      -0.562
      -0.511
      -0.440
      -0.355
      -0.263
      -0.182
      -0.134
      -0.122
      -0.122
      -0.109
      -0.075
      -0.023
       0.039
       0.091
       0.116
       0.119
       0.127
       0.154
       0.187
       0.199
       0.181
       0.144
       0.114
       0.117
       0.152
       0.192
       0.210
       0.204
       0.198
       0.201
       0.203
       0.196
       0.181
       0.162
       0.143
       0.137
       0.157
       0.191
       0.210
       0.203
       0.181
       0.156
       0.129
       0.096
       0.052
      -0.007
      -0.074
      -0.125
      -0.127
      -0.075
       0.014
       0.119
       0.230
       0.333
       0.411
       0.458
       0.478
       0.467
       0.424
       0.361
       0.302
       0.253
       0.211
       0.177
       0.155
       0.138
       0.109
       0.064
       0.008
      -0.056
      -0.119
      -0.162
      -0.162
      -0.129
      -0.096
      -0.090
      -0.109
      -0.150
      -0.211
      -0.281
      -0.346
      -0.400
      -0.448
      -0.483
      -0.491
      -0.472
      -0.434
      -0.386
      -0.325
      -0.252
      -0.170
      -0.095
      -0.048
      -0.062
      -0.144
      -0.256
      -0.339
      -0.359
      -0.319
      -0.232
      -0.107
       0.043
       0.195
       0.333
       0.442
       0.502
       0.502
       0.454
       0.390
       0.333
       0.287
       0.245
       0.200
       0.145
       0.089
       0.050
       0.039
       0.037
       0.019
      -0.013
      -0.037
      -0.040
      -0.034
      -0.030
      -0.024
      -0.006
       0.034
       0.108
       0.212
       0.314
       0.371
       0.366
       0.311
       0.228
       0.140
       0.062
      -0.006
      -0.082
      -0.175
      -0.261
      -0.307
      -0.312
      -0.308
      -0.318
      -0.342
      -0.364
      -0.367
      -0.342
      -0.291
      -0.237
      -0.206
      -0.194
      -0.188
      -0.183
      -0.189
      -0.207
      -0.219
      -0.212
      -0.176
      -0.104
      -0.001
       0.104
       0.179
       0.216
       0.232
       0.233
       0.208
       0.147
       0.057
      -0.049
      -0.148
      -0.218
      -0.251
      -0.263
      -0.274
      -0.283
      -0.277
      -0.257
      -0.239
      -0.233
      -0.240
      -0.248
      -0.237
      -0.186
      -0.094
       0.008
       0.085
       0.137
       0.196
       0.278
       0.374
       0.461
       0.517
       0.523
       0.481
       0.414
       0.347
       0.283
       0.209
       0.125
       0.040
      -0.040
      -0.107
      -0.151
      -0.168
      -0.173
      -0.173
      -0.149
      -0.082
       0.011
       0.085
       0.115
       0.119
       0.132
       0.176
       0.247
       0.320
       0.365
       0.384
       0.414
       0.481
       0.562
       0.608
       0.592
       0.521
       0.419
       0.303
       0.192
       0.091
      -0.014
      -0.129
      -0.235
      -0.295
      -0.294
      -0.254
      -0.218
      -0.218
      -0.260
      -0.311
      -0.330
      -0.311
      -0.296
      -0.325
      -0.389
      -0.444
      -0.462
      -0.449
      -0.424
      -0.407
      -0.418
      -0.466
      -0.540
      -0.619
      -0.689
      -0.738
      -0.745
      -0.694
      -0.595
      -0.467
      -0.316
      -0.146
       0.038
       0.234
       0.452
       0.690
       0.908
       1.064
       1.154
       1.210
       1.261
       1.309
       1.341
       1.339
       1.290
       1.193
       1.065
       0.917
       0.732
       0.489
       0.187
      -0.146
      -0.476
      -0.773
      -1.015
      -1.207
      -1.369
      -1.511
      -1.603
      -1.608
      -1.523
      -1.376
      -1.197
      -0.997
      -0.775
      -0.524
      -0.237
       0.072
       0.367
       0.616
       0.811
       0.956
       1.050
       1.085
       1.068
       1.012
       0.926
       0.818
       0.705
       0.595
       0.480
       0.348
       0.213
       0.095
       0.004
      -0.069
      -0.140
      -0.224
      -0.331
      -0.447
      -0.538
      -0.581
      -0.583
      -0.561
      -0.513
      -0.432
      -0.321
      -0.195
      -0.071
       0.040
       0.129
       0.205
       0.286
       0.381
       0.470
       0.526
       0.552
       0.567
       0.586
       0.611
       0.631
       0.624
       0.565
       0.453
       0.318
       0.181
       0.038
      -0.121
      -0.279
      -0.408
      -0.492
      -0.532
      -0.534
      -0.513
      -0.490
      -0.475
      -0.458
      -0.432
      -0.400
      -0.373
      -0.353
      -0.340
      -0.336
      -0.340
      -0.348
      -0.369
      -0.418
      -0.487
      -0.538
      -0.535
      -0.483
      -0.410
      -0.339
      -0.275
      -0.219
      -0.170
      -0.124
      -0.092
      -0.095
      -0.140
      -0.202
      -0.236
      -0.220
      -0.156
      -0.062
       0.035
       0.117
       0.186
       0.254
       0.317
       0.351
       0.343
       0.308
       0.278
       0.270
       0.289
       0.331
       0.389
       0.450
       0.511
       0.579
       0.649
       0.692
       0.692
       0.658
       0.615
       0.573
       0.524
       0.459
       0.371
       0.265
       0.169
       0.117
       0.111
       0.108
       0.062
      -0.037
      -0.162
      -0.273
      -0.338
      -0.343
      -0.301
      -0.240
      -0.181
      -0.130
      -0.099
      -0.108
      -0.163
      -0.242
      -0.309
      -0.344
      -0.339
      -0.307
      -0.278
      -0.288
      -0.340
      -0.399
      -0.430
      -0.430
      -0.414
      -0.396
      -0.375
      -0.338
      -0.273
      -0.179
      -0.081
      -0.006
       0.050
       0.114
       0.201
       0.291
       0.358
       0.389
       0.394
       0.387
       0.395
       0.436
       0.500
       0.547
       0.543
       0.488
       0.402
       0.296
       0.173
       0.031
      -0.129
      -0.294
      -0.425
      -0.484
      -0.468
      -0.413
      -0.349
      -0.280
      -0.204
      -0.133
      -0.088
      -0.082
      -0.119
      -0.184
      -0.245
      -0.266
      -0.245
      -0.209
      -0.183
      -0.168
      -0.154
      -0.126
      -0.077
      -0.008
       0.062
       0.109
       0.136
       0.171
       0.227
       0.288
       0.332
       0.357
       0.368
       0.366
       0.352
       0.330
       0.291
       0.225
       0.140
       0.067
       0.029
       0.021
       0.025
       0.036
       0.050
       0.065
       0.088
       0.125
       0.160
       0.162
       0.118
       0.052
      -0.010
      -0.058
      -0.093
      -0.107
      -0.094
      -0.057
      -0.004
       0.058
       0.108
       0.121
       0.095
       0.056
       0.031
       0.021
       0.016
      -0.004
      -0.057
      -0.149
      -0.261
      -0.360
      -0.435
      -0.505
      -0.583
      -0.655
      -0.696
      -0.691
      -0.643
      -0.564
      -0.468
      -0.364
      -0.241
      -0.089
       0.076
       0.220
       0.318
       0.372
       0.395
       0.396
       0.385
       0.367
       0.332
       0.264
       0.173
       0.086
       0.014
      -0.056
      -0.135
      -0.213
      -0.274
      -0.302
      -0.286
      -0.226
      -0.145
      -0.076
      -0.025
       0.026
       0.090
       0.151
       0.194
       0.217
       0.231
       0.248
       0.285
       0.347
       0.408
       0.428
       0.397
       0.340
       0.295
       0.275
       0.281
       0.304
       0.328
       0.346
       0.362
       0.387
       0.413
       0.423
       0.419
       0.419
       0.429
       0.425
       0.383
       0.290
       0.151
      -0.014
      -0.169
      -0.280
      -0.346
      -0.389
      -0.428
      -0.455
      -0.461
      -0.443
      -0.411
      -0.380
      -0.373
      -0.401
      -0.444
      -0.468
      -0.460
      -0.434
      -0.401
      -0.356
      -0.292
      -0.206
      -0.094
       0.039
       0.168
       0.262
       0.319
       0.356
       0.387
       0.403
       0.391
       0.353
       0.300
       0.251
       0.227
       0.233
       0.236
       0.203
       0.132
       0.053
      -0.011
      -0.064
      -0.117
      -0.182
      -0.265
      -0.369
      -0.474
      -0.555
      -0.610
      -0.648
      -0.664
      -0.634
      -0.553
      -0.442
      -0.334
      -0.256
      -0.216
      -0.200
      -0.168
      -0.087
       0.029
       0.140
       0.228
       0.311
       0.415
       0.543
       0.682
       0.810
       0.902
       0.947
       0.954
       0.939
       0.895
       0.807
       0.676
       0.529
       0.396
       0.300
       0.254
       0.247
       0.239
       0.189
       0.096
      -0.012
      -0.119
      -0.230
      -0.356
      -0.491
      -0.614
      -0.701
      -0.729
      -0.702
      -0.646
      -0.588
      -0.530
      -0.459
      -0.384
      -0.329
      -0.315
      -0.340
      -0.389
      -0.441
      -0.466
      -0.448
      -0.409
      -0.382
      -0.377
      -0.374
      -0.354
      -0.316
      -0.272
      -0.230
      -0.194
      -0.154
      -0.086
       0.021
       0.155
       0.299
       0.454
       0.625
       0.798
       0.946
       1.041
       1.067
       1.012
       0.881
       0.705
       0.519
       0.334
       0.142
      -0.051
      -0.227
