Origin Time       15/05/2009 18:39:22
Lat.              30.5 N 
Long.             79.3 E 
Depth (Km)         15.0
Magnitude         4.1
 Region           Chamoli-Uttarakhand                                              
 Above details taken from IMD 
     
Station Code      CHA
Station Lat.       30.412  N
Station Long.      79.320  E
Station Height(m) 1578.0
Site Class        A   Vs30 between 700 m/sec to 1400 m/sec * 
Record Time       15.05.2009 18:42:37.579
Sampling Rate     200. Hz
 Record Duration   65.250 Sec.
 Direction         E-W (E positive)
Max. Acceleration      4.458 cm/sec**2
     
  * For reference see Site Classification link of website 
     
 Base Line Corrected and Low Pass Filtered (Cut Off at 35 Hz) Time History
 Acceleration data in cm/sec**2
    
[...]
       0.000
       0.006
       0.009
       0.007
       0.001
      -0.004
      -0.005
      -0.001
       0.007
       0.011
       0.010
       0.002
      -0.006
      -0.011
      -0.011
      -0.008
      -0.006
      -0.006
      -0.008
      -0.009
      -0.009
      -0.007
      -0.005
      -0.006
      -0.008
      -0.010
      -0.009
      -0.006
      -0.002
       0.002
       0.005
       0.007
       0.008
       0.006
       0.003
      -0.002
      -0.004
      -0.003
       0.000
       0.001
      -0.001
      -0.002
       0.000
       0.006
       0.015
       0.018
       0.016
       0.010
       0.006
       0.006
       0.007
       0.008
       0.005
       0.001
      -0.002
      -0.002
      -0.001
       0.000
       0.002
       0.004
       0.005
       0.006
       0.007
       0.009
       0.012
       0.015
       0.014
       0.008
       0.001
      -0.004
      -0.004
       0.000
       0.003
       0.002
      -0.002
      -0.004
      -0.002
       0.004
       0.010
       0.014
       0.013
       0.007
      -0.001
      -0.005
      -0.005
      -0.002
       0.001
       0.004
       0.006
       0.005
       0.004
       0.003
       0.004
       0.008
       0.011
       0.011
       0.008
       0.003
       0.000
      -0.001
      -0.004
      -0.009
      -0.014
      -0.016
      -0.012
      -0.004
       0.002
       0.003
       0.001
      -0.003
      -0.004
      -0.002
       0.003
       0.007
       0.008
       0.005
       0.002
       0.002
       0.004
       0.007
       0.007
       0.006
       0.005
       0.006
       0.008
       0.010
       0.010
       0.007
       0.003
       0.001
       0.001
       0.002
       0.002
       0.000
       0.000
       0.002
       0.007
       0.010
       0.011
       0.008
       0.005
       0.003
       0.001
      -0.001
      -0.005
      -0.009
      -0.011
      -0.010
      -0.008
      -0.003
       0.000
       0.003
       0.003
       0.004
       0.005
       0.006
       0.005
       0.002
      -0.002
      -0.004
      -0.002
       0.003
       0.010
       0.015
       0.018
       0.018
       0.013
       0.007
       0.002
       0.002
       0.005
       0.008
       0.007
       0.003
       0.000
       0.002
       0.009
       0.016
       0.019
       0.015
       0.009
       0.002
      -0.002
      -0.003
      -0.002
       0.000
       0.003
       0.007
       0.009
       0.010
       0.008
       0.006
       0.003
      -0.001
      -0.004
      -0.005
      -0.004
      -0.003
      -0.004
      -0.006
      -0.006
      -0.002
       0.004
       0.006
       0.004
       0.001
       0.001
       0.007
       0.014
       0.018
       0.016
       0.011
       0.004
      -0.003
      -0.007
      -0.007
      -0.004
       0.000
       0.001
      -0.001
      -0.003
      -0.003
       0.000
       0.005
       0.009
       0.010
       0.009
       0.006
       0.004
       0.004
       0.007
       0.009
       0.008
       0.002
      -0.007
      -0.014
      -0.014
      -0.008
      -0.001
       0.003
       0.003
       0.001
      -0.002
      -0.002
       0.001
       0.005
       0.009
       0.012
       0.013
       0.014
       0.012
       0.007
       0.001
      -0.003
      -0.002
       0.002
       0.008
       0.011
       0.011
       0.008
       0.005
       0.001
      -0.001
       0.000
       0.003
       0.008
       0.010
       0.009
       0.005
       0.002
       0.001
       0.001
       0.000
      -0.002
      -0.004
      -0.003
       0.002
       0.007
       0.009
       0.007
       0.002
      -0.002
      -0.002
       0.002
       0.005
       0.005
       0.001
      -0.004
      -0.005
      -0.002
       0.003
       0.005
       0.004
       0.001
       0.001
       0.007
       0.015
       0.019
       0.016
       0.008
       0.001
      -0.002
       0.001
       0.006
       0.009
       0.007
       0.001
      -0.005
      -0.008
      -0.008
      -0.005
       0.000
       0.004
       0.005
       0.002
      -0.002
      -0.006
      -0.006
      -0.003
       0.002
       0.004
       0.005
       0.006
       0.010
       0.013
       0.012
       0.007
       0.002
       0.001
       0.003
       0.005
       0.004
      -0.001
      -0.007
      -0.008
      -0.004
       0.000
       0.001
      -0.001
      -0.003
      -0.003
       0.002
       0.007
       0.010
       0.010
       0.007
       0.002
      -0.001
      -0.003
      -0.003
      -0.002
      -0.001
      -0.001
      -0.002
      -0.002
      -0.001
       0.000
       0.001
       0.002
       0.002
      -0.002
      -0.009
      -0.016
      -0.019
      -0.016
      -0.010
      -0.005
      -0.003
      -0.005
      -0.008
      -0.010
      -0.009
      -0.005
       0.002
       0.008
       0.011
       0.011
       0.008
       0.005
       0.005
       0.005
       0.003
      -0.001
      -0.004
      -0.004
      -0.001
       0.000
      -0.002
      -0.006
      -0.009
      -0.009
      -0.007
      -0.004
      -0.001
       0.003
       0.007
       0.010
       0.010
       0.006
       0.001
      -0.001
       0.001
       0.004
       0.008
       0.011
       0.015
       0.019
       0.019
       0.013
       0.004
      -0.004
      -0.006
       0.000
       0.008
       0.015
       0.015
       0.008
      -0.001
      -0.005
      -0.002
       0.004
       0.007
       0.004
      -0.001
      -0.003
       0.000
       0.006
       0.011
       0.011
       0.008
       0.007
       0.007
       0.006
       0.005
       0.002
       0.002
       0.003
       0.005
       0.007
       0.007
       0.005
       0.002
      -0.002
      -0.005
      -0.004
      -0.003
      -0.003
      -0.004
      -0.004
      -0.002
       0.002
       0.006
       0.007
       0.005
       0.004
       0.004
       0.007
       0.011
       0.014
       0.016
       0.017
       0.018
       0.016
       0.012
       0.009
       0.007
       0.009
       0.010
       0.011
       0.011
       0.015
       0.021
       0.026
       0.025
       0.015
      -0.002
      -0.023
      -0.046
      -0.067
      -0.084
      -0.093
      -0.092
      -0.080
      -0.060
      -0.038
      -0.022
      -0.018
      -0.027
      -0.042
      -0.051
      -0.042
      -0.013
       0.033
       0.090
       0.150
       0.203
       0.234
       0.229
       0.185
       0.110
       0.020
      -0.073
      -0.164
      -0.249
      -0.312
      -0.337
      -0.322
      -0.291
      -0.277
      -0.302
      -0.351
      -0.388
      -0.382
      -0.334
      -0.267
      -0.206
      -0.150
      -0.078
       0.021
       0.137
       0.240
       0.307
       0.342
       0.371
       0.420
       0.496
       0.582
       0.659
       0.715
       0.747
       0.751
       0.714
       0.619
       0.460
       0.248
       0.014
      -0.203
      -0.368
      -0.465
      -0.499
      -0.484
      -0.436
      -0.359
      -0.254
      -0.135
      -0.028
       0.039
       0.059
       0.058
       0.073
       0.131
       0.224
       0.312
       0.351
       0.318
       0.218
       0.072
      -0.095
      -0.265
      -0.425
      -0.559
      -0.652
      -0.695
      -0.687
      -0.635
      -0.550
      -0.447
      -0.345
      -0.262
      -0.206
      -0.167
      -0.127
      -0.064
       0.028
       0.148
       0.287
       0.432
       0.574
       0.705
       0.816
       0.895
       0.922
       0.882
       0.781
       0.645
       0.513
       0.412
       0.338
       0.272
       0.193
       0.105
       0.025
      -0.031
      -0.065
      -0.090
      -0.110
      -0.114
      -0.089
      -0.043
      -0.016
      -0.051
      -0.157
      -0.289
      -0.375
      -0.370
      -0.286
      -0.182
      -0.117
      -0.110
      -0.138
      -0.168
      -0.196
      -0.247
      -0.354
      -0.521
      -0.704
      -0.835
      -0.858
      -0.755
      -0.553
      -0.304
      -0.069
       0.111
       0.216
       0.259
       0.270
       0.273
       0.273
       0.258
       0.217
       0.161
       0.116
       0.104
       0.120
       0.131
       0.095
      -0.013
      -0.175
      -0.344
      -0.471
      -0.534
      -0.543
      -0.517
      -0.465
      -0.378
      -0.254
      -0.110
       0.010
       0.065
       0.047
      -0.010
      -0.050
      -0.027
       0.063
       0.186
       0.294
       0.356
       0.382
       0.409
       0.471
       0.564
       0.645
       0.663
       0.594
       0.466
       0.333
       0.245
       0.215
       0.230
       0.261
       0.283
       0.277
       0.226
       0.121
      -0.033
      -0.205
      -0.344
      -0.405
      -0.374
      -0.283
      -0.191
      -0.145
      -0.150
      -0.174
      -0.171
      -0.111
       0.007
       0.153
       0.287
       0.375
       0.406
       0.390
       0.341
       0.274
       0.204
       0.152
       0.141
       0.189
       0.290
       0.425
       0.558
       0.653
       0.677
       0.615
       0.477
       0.307
       0.156
       0.056
      -0.003
      -0.061
      -0.159
      -0.309
      -0.485
      -0.639
      -0.733
      -0.760
      -0.749
      -0.747
      -0.775
      -0.816
      -0.821
      -0.743
      -0.581
      -0.380
      -0.211
      -0.128
      -0.141
      -0.213
      -0.291
      -0.331
      -0.322
      -0.268
      -0.183
      -0.073
       0.045
       0.145
       0.194
       0.176
       0.100
      -0.003
      -0.096
      -0.149
      -0.145
      -0.075
       0.054
       0.218
       0.377
       0.489
       0.523
       0.477
       0.377
       0.261
       0.162
       0.091
       0.041
       0.004
      -0.030
      -0.061
      -0.090
      -0.109
      -0.102
      -0.047
       0.072
       0.247
       0.453
       0.654
       0.822
       0.929
       0.950
       0.862
       0.661
       0.367
       0.020
      -0.330
      -0.640
      -0.881
      -1.034
      -1.091
      -1.058
      -0.954
      -0.807
      -0.643
      -0.476
      -0.314
      -0.168
      -0.049
       0.043
       0.127
       0.231
       0.369
       0.521
       0.641
       0.688
       0.654
       0.563
       0.443
       0.308
       0.151
      -0.023
      -0.190
      -0.321
      -0.406
      -0.460
      -0.513
      -0.582
      -0.661
      -0.722
      -0.741
      -0.705
      -0.616
      -0.475
      -0.277
      -0.026
       0.258
       0.522
       0.707
       0.772
       0.722
       0.606
       0.487
       0.408
       0.380
       0.387
       0.407
       0.414
       0.390
       0.329
       0.238
       0.140
       0.061
       0.026
       0.041
       0.091
       0.140
       0.150
       0.111
       0.052
       0.036
       0.116
       0.300
       0.535
       0.734
       0.828
       0.800
       0.689
       0.553
       0.434
       0.334
       0.232
       0.109
      -0.033
      -0.182
      -0.327
      -0.467
      -0.609
      -0.750
      -0.881
      -0.988
      -1.063
      -1.105
      -1.124
      -1.123
      -1.098
      -1.043
      -0.956
      -0.839
      -0.699
      -0.533
      -0.334
      -0.097
       0.165
       0.412
       0.592
       0.669
       0.648
       0.579
       0.522
       0.513
       0.548
       0.597
       0.635
       0.653
       0.638
       0.564
       0.409
       0.175
      -0.088
      -0.310
      -0.432
      -0.442
      -0.374
      -0.288
      -0.237
      -0.243
      -0.287
      -0.331
      -0.339
      -0.291
      -0.192
      -0.064
       0.061
       0.158
       0.204
       0.186
       0.099
      -0.051
      -0.244
      -0.435
      -0.568
      -0.598
      -0.517
      -0.362
      -0.201
      -0.086
      -0.031
      -0.015
      -0.011
      -0.006
      -0.001
       0.006
       0.024
       0.067
       0.140
       0.232
       0.327
       0.410
       0.476
       0.530
       0.580
       0.631
       0.681
       0.722
       0.746
       0.749
       0.727
       0.676
       0.596
       0.491
       0.369
       0.237
       0.095
      -0.054
      -0.197
      -0.311
      -0.376
      -0.395
      -0.398
      -0.418
      -0.463
      -0.506
      -0.499
      -0.413
      -0.266
      -0.116
      -0.030
      -0.033
      -0.100
      -0.178
      -0.228
      -0.246
      -0.248
      -0.239
      -0.200
      -0.108
       0.031
       0.172
       0.248
       0.213
       0.065
      -0.154
      -0.382
      -0.576
      -0.718
      -0.808
      -0.839
      -0.795
      -0.665
      -0.463
      -0.229
      -0.019
       0.129
       0.215
       0.268
       0.323
       0.402
       0.506
       0.636
       0.802
       1.014
       1.263
       1.515
       1.725
       1.869
       1.956
       2.015
       2.065
       2.099
       2.088
       2.005
       1.831
       1.561
       1.194
       0.733
       0.201
      -0.358
      -0.877
      -1.294
      -1.588
      -1.794
      -1.984
      -2.232
      -2.566
      -2.964
      -3.356
      -3.651
      -3.771
      -3.674
      -3.383
      -2.969
      -2.518
      -2.090
      -1.696
      -1.321
      -0.937
      -0.514
      -0.022
       0.568
       1.260
       2.019
       2.780
       3.467
       4.015
       4.364
       4.458
       4.251
       3.732
       2.942
       1.996
       1.051
       0.260
      -0.279
      -0.555
      -0.621
      -0.559
      -0.443
      -0.329
      -0.257
      -0.249
      -0.291
      -0.334
      -0.322
      -0.238
      -0.112
      -0.001
       0.058
       0.072
       0.075
       0.106
       0.180
       0.289
       0.409
       0.514
       0.588
       0.615
       0.570
       0.409
       0.096
      -0.369
      -0.932
      -1.507
      -2.019
      -2.429
      -2.727
      -2.917
      -3.010
      -3.029
      -3.012
      -2.992
      -2.974
      -2.920
      -2.758
      -2.415
      -1.857
      -1.119
      -0.297
       0.495
       1.181
       1.735
       2.152
       2.419
       2.511
       2.421
       2.181
       1.863
       1.554
       1.326
       1.214
       1.207
       1.264
       1.344
       1.425
       1.504
       1.577
       1.619
       1.606
       1.545
       1.483
       1.475
       1.541
       1.640
       1.685
       1.586
       1.286
       0.781
       0.126
      -0.587
      -1.256
      -1.805
      -2.199
      -2.455
      -2.632
      -2.799
      -2.995
      -3.212
      -3.400
      -3.503
      -3.498
      -3.400
      -3.234
      -3.002
      -2.691
      -2.297
      -1.845
      -1.372
      -0.900
      -0.434
       0.015
       0.426
       0.777
       1.070
       1.331
       1.587
       1.841
       2.081
       2.294
       2.480
       2.642
       2.775
       2.861
       2.889
       2.862
       2.808
       2.757
       2.723
       2.689
       2.612
       2.450
       2.190
       1.856
       1.504
       1.186
       0.926
       0.714
       0.515
       0.291
       0.011
      -0.341
      -0.769
      -1.265
      -1.807
      -2.361
      -2.879
      -3.311
      -3.610
      -3.740
      -3.682
      -3.440
      -3.033
      -2.501
      -1.896
      -1.286
      -0.737
      -0.299
       0.011
       0.208
       0.332
       0.436
       0.567
       0.762
       1.033
       1.365
       1.732
       2.102
       2.450
       2.748
       2.959
       3.049
       2.989
       2.762
       2.368
       1.828
       1.194
       0.542
      -0.056
      -0.549
      -0.902
      -1.084
      -1.062
      -0.816
      -0.367
       0.207
       0.795
       1.283
       1.604
       1.745
       1.732
       1.603
       1.381
       1.082
       0.727
       0.342
      -0.045
      -0.425
      -0.802
      -1.179
      -1.532
      -1.829
      -2.049
      -2.194
      -2.279
      -2.304
      -2.260
      -2.154
      -2.019
      -1.901
      -1.826
      -1.783
      -1.731
      -1.634
      -1.475
      -1.269
      -1.058
      -0.891
      -0.801
      -0.785
      -0.810
      -0.838
      -0.852
      -0.842
      -0.798
      -0.701
      -0.545
      -0.353
      -0.163
      -0.010
       0.092
       0.151
       0.188
       0.232
       0.303
       0.408
       0.529
       0.642
       0.733
       0.801
       0.859
       0.910
       0.955
       0.995
       1.035
       1.080
       1.123
       1.143
       1.129
       1.079
       1.014
       0.959
       0.930
       0.917
       0.880
       0.765
       0.534
       0.187
      -0.233
      -0.657
      -1.012
      -1.252
      -1.361
      -1.358
      -1.283
      -1.183
      -1.080
      -0.966
      -0.803
      -0.554
      -0.214
       0.185
       0.578
       0.903
       1.119
       1.225
       1.249
       1.217
       1.133
       0.979
       0.743
       0.443
       0.127
      -0.145
      -0.326
      -0.400
      -0.380
      -0.294
      -0.169
      -0.022
       0.139
       0.312
       0.494
       0.675
       0.844
       0.992
       1.105
       1.169
       1.181
       1.152
       1.102
       1.047
       0.983
       0.898
       0.786
       0.658
       0.530
       0.414
       0.316
       0.235
       0.166
       0.093
      -0.004
      -0.132
      -0.281
      -0.426
      -0.549
      -0.649
      -0.738
      -0.826
      -0.916
      -1.004
      -1.088
      -1.165
      -1.234
      -1.291
      -1.338
      -1.381
      -1.427
      -1.479
      -1.537
      -1.598
      -1.657
      -1.711
      -1.756
      -1.796
      -1.828
      -1.838
      -1.806
      -1.711
      -1.543
      -1.302
      -0.996
      -0.636
      -0.235
       0.190
       0.620
       1.042
       1.447
       1.830
       2.189
       2.509
       2.771
       2.945
       3.011
       2.966
       2.830
       2.640
       2.428
       2.209
       1.983
       1.740
       1.483
       1.223
       0.979
       0.757
       0.542
       0.307
       0.026
      -0.308
      -0.681
      -1.060
      -1.412
      -1.714
      -1.961
      -2.161
      -2.325
      -2.463
      -2.583
      -2.683
      -2.747
      -2.732
      -2.594
      -2.303
      -1.867
      -1.332
      -0.762
      -0.223
       0.240
       0.606
       0.886
       1.108
       1.306
       1.495
       1.673
       1.827
       1.938
       1.987
       1.950
       1.805
       1.546
       1.193
       0.786
       0.378
       0.018
      -0.255
      -0.428
      -0.509
      -0.524
      -0.499
      -0.446
      -0.370
      -0.274
      -0.167
      -0.054
       0.066
       0.203
       0.366
       0.557
       0.763
       0.954
       1.091
       1.141
       1.101
       0.993
       0.855
       0.718
       0.598
       0.507
       0.457
       0.459
       0.504
       0.564
       0.593
       0.547
       0.406
       0.175
      -0.113
      -0.417
      -0.704
      -0.952
      -1.153
      -1.299
      -1.381
      -1.394
      -1.339
      -1.234
      -1.105
      -0.980
      -0.876
      -0.800
      -0.738
