Origin Time       14/3/2011 09:01:29  UTC
Lat.              30.5 N 
Long.             79.1 E 
Depth (Km)          8.0
Magnitude         3.3
 Region           Chamoli-Uttarakhand                                              
 Above details taken from IMD 
    
Station Code      CHA
Station Lat.       30.412  N
Station Long.      79.320  E
Station Height(m) 1578.0
Site Class        A   Vs30 between 700 m/sec to 1400 m/sec * 
Record Time       14.03.2011 08:58:15.794 UTC
Sampling Rate     200. Hz
 Record Duration   89.510 Sec.
 Direction         N-S (N positive)
Max. Acceleration     -5.900 cm/sec**2
     
  * For reference see Site Classification link of website 
     
 Base Line Corrected and Low Pass Filtered (Cut Off at 35 Hz) Time History
 Acceleration data in cm/sec**2
    
[...]
      -0.002
      -0.004
      -0.011
      -0.012
      -0.008
      -0.012
      -0.023
      -0.022
      -0.007
       0.004
       0.002
      -0.001
       0.000
      -0.001
      -0.007
      -0.008
      -0.004
      -0.006
      -0.013
      -0.013
      -0.003
       0.001
      -0.006
      -0.007
       0.002
       0.007
       0.001
      -0.004
      -0.002
       0.000
      -0.003
      -0.003
       0.000
      -0.004
      -0.014
      -0.015
      -0.004
       0.004
       0.000
      -0.003
       0.003
       0.006
      -0.002
      -0.007
      -0.004
      -0.003
      -0.012
      -0.017
      -0.009
       0.003
       0.006
       0.004
       0.002
      -0.007
      -0.023
      -0.028
      -0.016
      -0.004
      -0.007
      -0.014
      -0.008
       0.003
       0.003
      -0.003
      -0.007
      -0.011
      -0.018
      -0.019
      -0.005
       0.009
       0.008
       0.001
       0.000
      -0.001
      -0.011
      -0.020
      -0.015
      -0.005
      -0.005
      -0.009
      -0.007
      -0.001
      -0.003
      -0.006
      -0.001
       0.003
      -0.005
      -0.016
      -0.014
      -0.002
       0.005
       0.008
       0.013
       0.017
       0.009
      -0.003
      -0.002
       0.006
       0.007
       0.002
       0.002
       0.007
       0.005
      -0.003
      -0.005
      -0.003
      -0.008
      -0.018
      -0.020
      -0.015
      -0.015
      -0.015
      -0.007
       0.004
       0.000
      -0.014
      -0.019
      -0.011
      -0.003
      -0.003
      -0.001
       0.000
      -0.005
      -0.016
      -0.017
      -0.010
      -0.012
      -0.024
      -0.033
      -0.037
      -0.044
      -0.051
      -0.042
      -0.017
       0.003
       0.010
       0.013
       0.017
       0.014
       0.004
       0.002
       0.016
       0.032
       0.050
       0.077
       0.108
       0.121
       0.104
       0.069
       0.027
      -0.028
      -0.094
      -0.147
      -0.169
      -0.162
      -0.142
      -0.114
      -0.086
      -0.071
      -0.070
      -0.067
      -0.056
      -0.048
      -0.045
      -0.025
       0.028
       0.099
       0.161
       0.208
       0.239
       0.244
       0.217
       0.171
       0.120
       0.067
       0.024
       0.018
       0.062
       0.129
       0.181
       0.196
       0.163
       0.074
      -0.055
      -0.173
      -0.230
      -0.214
      -0.150
      -0.072
      -0.012
      -0.010
      -0.080
      -0.195
      -0.309
      -0.392
      -0.422
      -0.367
      -0.208
       0.033
       0.292
       0.512
       0.648
       0.671
       0.578
       0.398
       0.165
      -0.106
      -0.398
      -0.652
      -0.783
      -0.754
      -0.603
      -0.426
      -0.326
      -0.367
      -0.525
      -0.693
      -0.754
      -0.663
      -0.452
      -0.172
       0.137
       0.426
       0.642
       0.750
       0.747
       0.657
       0.534
       0.466
       0.528
       0.726
       0.988
       1.214
       1.326
       1.294
       1.145
       0.950
       0.755
       0.531
       0.210
      -0.212
      -0.638
      -0.942
      -1.064
      -1.037
      -0.952
      -0.906
      -0.955
      -1.076
      -1.190
      -1.229
      -1.167
      -1.004
      -0.750
      -0.431
      -0.088
       0.255
       0.584
       0.873
       1.081
       1.186
       1.204
       1.144
       0.980
       0.677
       0.237
      -0.283
      -0.784
      -1.156
      -1.333
      -1.335
      -1.256
      -1.182
      -1.134
      -1.093
      -1.039
      -0.956
      -0.819
      -0.610
      -0.332
      -0.002
       0.350
       0.675
       0.916
       1.058
       1.147
       1.266
       1.483
       1.826
       2.271
       2.710
       2.975
       2.932
       2.560
       1.949
       1.228
       0.512
      -0.117
      -0.625
      -1.014
      -1.286
      -1.427
      -1.442
      -1.400
      -1.401
      -1.502
      -1.682
      -1.858
      -1.939
      -1.863
      -1.631
      -1.281
      -0.849
      -0.357
       0.159
       0.630
       1.000
       1.253
       1.388
       1.394
       1.266
       1.033
       0.751
       0.462
       0.178
      -0.101
      -0.400
      -0.748
      -1.141
      -1.506
      -1.738
      -1.775
      -1.634
      -1.373
      -1.039
      -0.658
      -0.241
       0.194
       0.589
       0.858
       0.959
       0.957
       0.978
       1.100
       1.300
       1.504
       1.659
       1.747
       1.768
       1.720
       1.583
       1.322
       0.929
       0.464
       0.033
      -0.283
      -0.462
      -0.520
      -0.492
      -0.444
      -0.469
      -0.627
      -0.918
      -1.289
      -1.669
      -1.965
      -2.086
      -1.989
      -1.685
      -1.213
      -0.627
      -0.020
       0.480
       0.777
       0.859
       0.787
       0.651
       0.517
       0.381
       0.166
      -0.220
      -0.768
      -1.338
      -1.748
      -1.874
      -1.679
      -1.189
      -0.483
       0.314
       1.065
       1.653
       1.993
       2.048
       1.867
       1.575
       1.301
       1.113
       1.014
       0.974
       0.944
       0.873
       0.747
       0.596
       0.462
       0.354
       0.260
       0.180
       0.131
       0.115
       0.120
       0.113
       0.022
      -0.235
      -0.682
      -1.233
      -1.741
      -2.086
      -2.225
      -2.180
      -2.009
      -1.772
      -1.499
      -1.171
      -0.767
      -0.293
       0.213
       0.697
       1.089
       1.304
       1.301
       1.125
       0.887
       0.692
       0.589
       0.567
       0.567
       0.511
       0.357
       0.129
      -0.114
      -0.327
      -0.480
      -0.535
      -0.461
      -0.278
      -0.053
       0.150
       0.301
       0.401
       0.469
       0.535
       0.610
       0.673
       0.699
       0.707
       0.740
       0.802
       0.839
       0.783
       0.593
       0.271
      -0.144
      -0.577
      -0.952
      -1.234
      -1.436
      -1.570
      -1.621
      -1.563
      -1.365
      -0.995
      -0.452
       0.190
       0.791
       1.218
       1.403
       1.348
       1.100
       0.729
       0.294
      -0.163
      -0.593
      -0.897
      -0.966
      -0.770
      -0.391
       0.033
       0.376
       0.550
       0.509
       0.279
      -0.050
      -0.363
      -0.567
      -0.599
      -0.440
      -0.141
       0.193
       0.471
       0.662
       0.769
       0.792
       0.722
       0.567
       0.356
       0.139
      -0.012
      -0.031
       0.082
       0.250
       0.379
       0.424
       0.385
       0.267
       0.066
      -0.213
      -0.538
      -0.847
      -1.050
      -1.080
      -0.961
      -0.821
      -0.794
      -0.915
      -1.105
      -1.241
      -1.227
      -1.034
      -0.713
      -0.362
      -0.070
       0.136
       0.273
       0.378
       0.512
       0.756
       1.165
       1.701
       2.238
       2.611
       2.669
       2.334
       1.647
       0.774
      -0.075
      -0.749
      -1.194
      -1.418
      -1.463
      -1.391
      -1.258
      -1.093
      -0.909
      -0.734
      -0.605
      -0.533
      -0.503
      -0.491
      -0.466
      -0.380
      -0.208
       0.017
       0.222
       0.346
       0.358
       0.247
       0.028
      -0.241
      -0.473
      -0.603
      -0.604
      -0.471
      -0.220
       0.101
       0.423
       0.703
       0.926
       1.075
       1.132
       1.100
       1.014
       0.912
       0.827
       0.798
       0.855
       0.978
       1.096
       1.131
       1.045
       0.847
       0.581
       0.314
       0.099
      -0.066
      -0.222
      -0.396
      -0.576
      -0.748
      -0.918
      -1.079
      -1.191
      -1.196
      -1.069
      -0.838
      -0.589
      -0.433
      -0.429
      -0.534
      -0.634
      -0.649
      -0.599
      -0.558
      -0.589
      -0.708
      -0.879
      -1.020
      -1.034
      -0.877
      -0.582
      -0.222
       0.144
       0.481
       0.762
       0.968
       1.086
       1.099
       0.993
       0.812
       0.659
       0.633
       0.747
       0.935
       1.109
       1.211
       1.223
       1.159
       1.031
       0.811
       0.458
      -0.019
      -0.519
      -0.918
      -1.149
      -1.216
      -1.155
      -1.009
      -0.834
      -0.685
      -0.592
      -0.555
      -0.554
      -0.542
      -0.468
      -0.311
      -0.111
       0.069
       0.187
       0.229
       0.196
       0.114
       0.032
      -0.007
      -0.005
       0.015
       0.044
       0.081
       0.111
       0.119
       0.112
       0.116
       0.152
       0.231
       0.373
       0.581
       0.816
       1.017
       1.150
       1.218
       1.226
       1.176
       1.081
       0.975
       0.886
       0.831
       0.814
       0.811
       0.765
       0.633
       0.443
       0.273
       0.173
       0.124
       0.084
       0.035
      -0.019
      -0.066
      -0.103
      -0.155
      -0.274
      -0.502
      -0.814
      -1.146
      -1.456
      -1.761
      -2.075
      -2.359
      -2.520
      -2.467
      -2.153
      -1.616
      -0.991
      -0.447
      -0.111
      -0.022
      -0.163
      -0.473
      -0.850
      -1.152
      -1.251
      -1.072
      -0.613
       0.047
       0.759
       1.350
       1.711
       1.828
       1.739
       1.483
       1.094
       0.606
       0.053
      -0.526
      -1.036
      -1.336
      -1.310
      -0.946
      -0.344
       0.323
       0.869
       1.158
       1.159
       0.943
       0.619
       0.280
      -0.010
      -0.206
      -0.312
      -0.374
      -0.445
      -0.535
      -0.614
      -0.624
      -0.482
      -0.115
       0.478
       1.185
       1.837
       2.276
       2.395
       2.140
       1.531
       0.664
      -0.333
      -1.336
      -2.226
      -2.875
      -3.182
      -3.123
      -2.765
      -2.230
      -1.664
      -1.194
      -0.879
      -0.692
      -0.571
      -0.478
      -0.395
      -0.283
      -0.088
       0.211
       0.567
       0.893
       1.112
       1.204
       1.217
       1.239
       1.320
       1.425
       1.471
       1.393
       1.192
       0.925
       0.708
       0.680
       0.913
       1.330
       1.740
       1.961
       1.930
       1.717
       1.462
       1.287
       1.216
       1.158
       0.977
       0.597
       0.032
      -0.642
      -1.304
      -1.781
      -1.889
      -1.541
      -0.812
       0.099
       0.954
       1.563
       1.823
       1.736
       1.378
       0.850
       0.275
      -0.208
      -0.483
      -0.532
      -0.441
      -0.321
      -0.238
      -0.219
      -0.284
      -0.441
      -0.672
      -0.932
      -1.160
      -1.303
      -1.354
      -1.374
      -1.450
      -1.588
      -1.687
      -1.610
      -1.277
      -0.701
       0.030
       0.776
       1.384
       1.733
       1.770
       1.496
       0.953
       0.228
      -0.543
      -1.201
      -1.583
      -1.574
      -1.169
      -0.524
       0.110
       0.532
       0.669
       0.534
       0.157
      -0.395
      -0.970
      -1.364
      -1.419
      -1.113
      -0.564
       0.027
       0.476
       0.705
       0.753
       0.699
       0.594
       0.470
       0.369
       0.327
       0.341
       0.388
       0.459
       0.571
       0.737
       0.960
       1.215
       1.432
       1.507
       1.385
       1.117
       0.812
       0.521
       0.187
      -0.300
      -1.021
      -1.977
      -3.079
      -4.158
      -5.021
      -5.504
      -5.474
      -4.837
      -3.608
      -1.995
      -0.339
       1.074
       2.149
       2.940
       3.515
       3.872
       3.951
       3.717
       3.236
       2.646
       2.062
       1.527
       1.059
       0.717
       0.584
       0.698
       1.003
       1.362
       1.607
       1.608
       1.326
       0.799
       0.109
      -0.636
      -1.285
      -1.662
      -1.656
      -1.314
      -0.829
      -0.411
      -0.185
      -0.181
      -0.407
      -0.870
      -1.551
      -2.346
      -3.063
      -3.485
      -3.497
      -3.155
      -2.641
      -2.128
      -1.672
      -1.219
      -0.675
       0.007
       0.765
       1.436
       1.843
       1.917
       1.730
       1.434
       1.165
       1.021
       1.060
       1.286
       1.629
       1.950
       2.073
       1.853
       1.270
       0.480
      -0.251
      -0.726
      -0.930
      -0.977
      -0.987
      -1.030
      -1.143
      -1.339
      -1.592
      -1.831
      -1.953
      -1.844
      -1.411
      -0.649
       0.334
       1.374
       2.320
       3.051
       3.481
       3.585
       3.422
       3.100
       2.699
       2.243
       1.707
       1.058
       0.285
      -0.547
      -1.304
      -1.844
      -2.093
      -2.047
      -1.726
      -1.157
      -0.389
       0.501
       1.398
       2.152
       2.602
       2.667
       2.400
       1.951
       1.467
       1.034
       0.669
       0.339
      -0.004
      -0.382
      -0.763
      -1.082
      -1.266
      -1.241
      -0.919
      -0.249
       0.722
       1.842
       2.900
       3.675
       3.971
       3.680
       2.850
       1.660
       0.327
      -0.989
      -2.199
      -3.274
      -4.206
      -4.979
      -5.546
      -5.858
      -5.900
      -5.678
      -5.192
      -4.447
      -3.500
      -2.451
      -1.386
      -0.348
       0.644
       1.560
       2.371
       3.042
       3.522
       3.766
       3.766
       3.539
       3.104
       2.493
       1.787
       1.093
       0.467
      -0.123
      -0.745
      -1.415
      -2.082
      -2.657
      -3.053
      -3.226
      -3.196
      -3.030
      -2.783
      -2.482
      -2.154
      -1.859
      -1.651
      -1.539
      -1.484
      -1.424
      -1.292
      -1.041
      -0.681
      -0.276
       0.109
       0.435
       0.672
       0.792
       0.809
       0.793
       0.821
       0.917
       1.043
       1.141
       1.171
       1.127
       1.040
       0.939
       0.809
       0.597
       0.296
      -0.008
      -0.181
      -0.127
       0.163
       0.617
       1.123
       1.584
       1.973
       2.329
       2.678
       2.981
       3.172
       3.228
       3.181
       3.078
       2.961
       2.855
       2.748
       2.604
       2.400
       2.157
       1.896
       1.586
       1.178
       0.674
       0.141
      -0.346
      -0.748
      -1.059
      -1.280
      -1.410
      -1.427
      -1.297
      -1.026
      -0.699
      -0.445
      -0.353
      -0.442
      -0.676
      -0.985
      -1.281
      -1.496
      -1.616
      -1.660
      -1.646
      -1.583
      -1.500
      -1.427
      -1.371
      -1.320
      -1.277
      -1.263
      -1.295
      -1.386
      -1.556
      -1.812
      -2.104
      -2.345
      -2.469
      -2.460
      -2.330
      -2.103
      -1.808
      -1.471
      -1.103
      -0.727
      -0.396
      -0.168
      -0.044
       0.032
       0.114
       0.218
       0.340
       0.478
       0.623
       0.742
       0.804
       0.791
       0.687
       0.498
       0.265
       0.062
      -0.055
      -0.073
       0.006
       0.192
       0.485
       0.856
       1.266
       1.681
       2.059
       2.351
       2.518
       2.555
       2.462
       2.233
       1.884
       1.472
       1.077
       0.768
       0.592
       0.557
       0.611
       0.662
       0.638
       0.534
       0.389
       0.236
       0.098
      -0.017
      -0.117
      -0.221
      -0.330
      -0.420
      -0.471
      -0.486
      -0.474
      -0.422
      -0.318
      -0.180
      -0.043
       0.078
       0.183
       0.280
       0.378
       0.484
       0.578
       0.615
       0.565
       0.449
       0.316
       0.192
       0.074
      -0.052
      -0.206
      -0.412
      -0.669
      -0.928
      -1.123
      -1.214
      -1.196
      -1.082
      -0.905
      -0.726
      -0.596
      -0.524
      -0.485
      -0.456
      -0.422
      -0.364
      -0.264
      -0.126
       0.036
       0.227
       0.449
       0.676
       0.866
       0.997
       1.073
       1.099
       1.083
       1.047
       1.008
       0.943
       0.805
       0.575
       0.278
      -0.049
      -0.380
      -0.697
      -0.989
      -1.254
      -1.491
      -1.665
      -1.729
      -1.670
      -1.524
      -1.347
      -1.192
      -1.105
      -1.115
      -1.212
      -1.359
      -1.519
      -1.668
      -1.779
      -1.825
      -1.800
      -1.712
      -1.552
      -1.305
      -0.997
      -0.699
      -0.474
      -0.334
      -0.255
      -0.201
      -0.133
      -0.026
       0.103
       0.206
       0.253
       0.249
       0.218
       0.180
       0.163
       0.201
       0.311
       0.493
       0.744
       1.070
       1.451
       1.829
       2.151
       2.399
       2.585
       2.723
       2.827
       2.912
       2.974
       2.998
       2.984
       2.951
       2.898
       2.777
       2.542
       2.195
       1.791
       1.393
       1.054
       0.807
       0.648
       0.536
       0.434
       0.345
       0.284
       0.238
       0.175
       0.071
      -0.075
      -0.253
      -0.428
      -0.547
      -0.575
      -0.539
      -0.489
      -0.441
      -0.375
      -0.273
      -0.146
      -0.028
       0.040
       0.030
      -0.051
      -0.161
      -0.276
      -0.415
      -0.611
      -0.867
      -1.160
      -1.470
      -1.779
      -2.065
      -2.310
      -2.528
      -2.742
      -2.956
      -3.150
      -3.302
      -3.387
      -3.377
      -3.262
      -3.074
      -2.867
      -2.673
      -2.498
      -2.336
      -2.170
      -1.960
      -1.677
      -1.337
      -0.987
      -0.641
      -0.282
       0.099
       0.466
       0.765
       0.948
       1.004
       0.972
       0.940
       0.987
       1.124
       1.304
       1.476
       1.615
       1.696
       1.681
       1.549
       1.319
       1.038
       0.766
       0.564
       0.471
       0.477
       0.535
       0.619
       0.736
       0.890
       1.061
       1.221
       1.357
       1.457
       1.503
       1.492
       1.442
       1.379
       1.317
       1.286
       1.322
       1.424
       1.543
       1.616
       1.613
       1.534
       1.387
       1.190
       0.965
       0.718
       0.434
       0.110
      -0.225
      -0.539
      -0.812
      -1.012
      -1.082
      -0.987
      -0.756
      -0.467
      -0.190
       0.028
       0.170
       0.256
       0.320
       0.377
       0.403
       0.372
       0.295
       0.196
       0.093
      -0.002
      -0.076
      -0.129
      -0.184
      -0.259
      -0.360
      -0.489
      -0.667
      -0.899
      -1.142
      -1.333
      -1.435
      -1.447
      -1.396
      -1.324
      -1.277
      -1.261
      -1.231
      -1.147
      -1.017
      -0.882
      -0.765
      -0.670
      -0.613
      -0.614
      -0.675
      -0.769
      -0.863
      -0.926
      -0.924
      -0.846
      -0.724
      -0.603
      -0.507
      -0.440
