Origin Time       04/10/2007 5:14:15 
Lat.              32.5 N 
Long.             76.0 E 
Depth (Km)         10.0
Magnitude         3.8
 Region           CHAMBA-HIMACHAL                                                  
 Above details taken from IMD 
   
Station Code      CHA
Station Lat.       32.555
Station Long.      76.126
Station Height(m)  952.0
Site Class        A   Vs30 between 700 m/sec to 1400 m/sec * 
Record Time       04.10.2007 05:14:02.534
Sampling Rate     200. Hz
 Record Duration   33.770 Sec.
 Direction         Vert. (Up positive)
Max. Acceleration     40.195 cm/sec**2
     
  * For reference see Site Classification link of website 
     
 Base Line Corrected and Low Pass Filtered (Cut Off at 35 Hz) Time History
 Acceleration data in cm/sec**2
    
[...]
       0.016
       0.006
       0.003
       0.009
       0.015
       0.012
       0.004
       0.002
       0.007
       0.014
       0.014
       0.006
      -0.001
       0.000
       0.013
       0.030
       0.039
       0.035
       0.017
      -0.007
      -0.027
      -0.033
      -0.019
       0.007
       0.031
       0.039
       0.028
       0.007
      -0.012
      -0.021
      -0.017
      -0.003
       0.014
       0.028
       0.032
       0.022
      -0.001
      -0.030
      -0.050
      -0.047
      -0.021
       0.013
       0.037
       0.039
       0.020
      -0.005
      -0.021
      -0.016
       0.002
       0.018
       0.018
       0.007
       0.000
       0.009
       0.029
       0.041
       0.034
       0.009
      -0.022
      -0.041
      -0.038
      -0.013
       0.016
       0.027
       0.015
      -0.008
      -0.021
      -0.014
       0.006
       0.025
       0.032
       0.025
       0.009
      -0.011
      -0.028
      -0.033
      -0.021
       0.004
       0.026
       0.032
       0.016
      -0.008
      -0.022
      -0.018
       0.003
       0.026
       0.038
       0.031
       0.008
      -0.018
      -0.032
      -0.029
      -0.017
      -0.006
      -0.001
       0.006
       0.020
       0.033
       0.032
       0.011
      -0.019
      -0.036
      -0.030
      -0.005
       0.021
       0.033
       0.028
       0.011
      -0.009
      -0.022
      -0.023
      -0.011
       0.002
       0.007
       0.000
      -0.010
      -0.009
       0.007
       0.025
       0.028
       0.013
      -0.006
      -0.009
       0.005
       0.019
       0.015
      -0.008
      -0.030
      -0.034
      -0.019
       0.002
       0.013
       0.012
       0.006
       0.000
      -0.002
      -0.001
       0.003
       0.010
       0.018
       0.023
       0.019
       0.007
      -0.008
      -0.020
      -0.021
      -0.006
       0.020
       0.042
       0.041
       0.015
      -0.017
      -0.032
      -0.020
       0.005
       0.021
       0.018
       0.002
      -0.013
      -0.019
      -0.013
      -0.003
       0.008
       0.016
       0.016
       0.007
      -0.010
      -0.029
      -0.039
      -0.032
      -0.008
       0.021
       0.038
       0.033
       0.012
      -0.010
      -0.018
      -0.014
      -0.012
      -0.015
      -0.020
      -0.019
      -0.008
       0.009
       0.022
       0.026
       0.022
       0.012
       0.002
      -0.003
      -0.001
       0.007
       0.014
       0.015
       0.005
      -0.009
      -0.016
      -0.008
       0.010
       0.027
       0.032
       0.023
       0.008
      -0.003
      -0.006
      -0.005
      -0.003
      -0.002
      -0.003
      -0.003
      -0.003
       0.000
       0.002
       0.004
       0.005
       0.007
       0.008
       0.009
       0.009
       0.007
       0.004
       0.000
      -0.003
      -0.007
      -0.012
      -0.015
      -0.011
       0.000
       0.009
       0.007
       0.001
       0.000
       0.011
       0.027
       0.032
       0.020
      -0.003
      -0.021
      -0.023
      -0.011
       0.001
       0.005
       0.002
       0.003
       0.011
       0.021
       0.025
       0.023
       0.018
       0.014
       0.009
       0.003
      -0.002
       0.000
       0.008
       0.014
       0.009
      -0.010
      -0.028
      -0.031
      -0.012
       0.018
       0.042
       0.048
       0.038
       0.019
       0.002
      -0.005
      -0.001
       0.011
       0.019
       0.014
      -0.004
      -0.024
      -0.031
      -0.020
       0.002
       0.017
       0.018
       0.009
       0.004
       0.010
       0.021
       0.026
       0.017
      -0.002
      -0.018
      -0.024
      -0.017
      -0.003
       0.010
       0.020
       0.025
       0.025
       0.017
      -0.001
      -0.019
      -0.029
      -0.022
       0.001
       0.026
       0.038
       0.027
      -0.002
      -0.029
      -0.037
      -0.020
       0.009
       0.029
       0.023
      -0.006
      -0.037
      -0.045
      -0.021
       0.021
       0.050
       0.044
       0.007
      -0.034
      -0.048
      -0.026
       0.016
       0.048
       0.051
       0.027
      -0.006
      -0.024
      -0.018
       0.002
       0.018
       0.018
       0.006
      -0.005
      -0.005
       0.003
       0.010
       0.010
       0.006
       0.003
       0.004
       0.007
       0.009
       0.007
       0.002
      -0.003
      -0.008
      -0.013
      -0.015
      -0.010
       0.001
       0.013
       0.016
       0.005
      -0.013
      -0.023
      -0.013
       0.012
       0.034
       0.034
       0.009
      -0.023
      -0.042
      -0.035
      -0.009
       0.015
       0.024
       0.018
       0.007
       0.004
       0.007
       0.007
       0.000
      -0.010
      -0.012
      -0.004
       0.007
       0.011
       0.007
      -0.003
      -0.012
      -0.014
      -0.008
       0.003
       0.013
       0.021
       0.023
       0.022
       0.015
       0.002
      -0.014
      -0.026
      -0.030
      -0.023
      -0.008
       0.008
       0.014
       0.006
      -0.011
      -0.025
      -0.026
      -0.013
       0.003
       0.013
       0.013
       0.010
       0.008
       0.010
       0.008
      -0.006
      -0.030
      -0.052
      -0.055
      -0.033
       0.004
       0.034
       0.040
       0.021
      -0.006
      -0.020
      -0.014
       0.008
       0.026
       0.028
       0.011
      -0.015
      -0.033
      -0.034
      -0.018
       0.002
       0.011
       0.009
       0.005
       0.007
       0.011
       0.007
      -0.006
      -0.015
      -0.009
       0.007
       0.017
       0.009
      -0.011
      -0.026
      -0.025
      -0.012
       0.004
       0.015
       0.014
       0.002
      -0.014
      -0.022
      -0.015
       0.005
       0.024
       0.031
       0.024
       0.011
      -0.005
      -0.019
      -0.029
      -0.028
      -0.011
       0.015
       0.035
       0.037
       0.020
      -0.002
      -0.015
      -0.014
      -0.008
      -0.005
      -0.006
      -0.002
       0.009
       0.024
       0.032
       0.022
      -0.003
      -0.031
      -0.044
      -0.032
      -0.005
       0.019
       0.024
       0.009
      -0.011
      -0.020
      -0.016
      -0.005
       0.004
       0.008
       0.007
       0.006
       0.007
       0.011
       0.017
       0.021
       0.020
       0.010
      -0.008
      -0.026
      -0.033
      -0.025
      -0.005
       0.015
       0.025
       0.020
       0.003
      -0.015
      -0.023
      -0.015
       0.004
       0.022
       0.029
       0.022
       0.008
      -0.006
      -0.016
      -0.022
      -0.022
      -0.012
       0.006
       0.023
       0.029
       0.019
       0.003
      -0.011
      -0.016
      -0.013
      -0.010
      -0.011
      -0.013
      -0.008
       0.006
       0.025
       0.035
       0.029
       0.010
      -0.009
      -0.020
      -0.027
      -0.035
      -0.036
      -0.022
       0.010
       0.042
       0.054
       0.033
      -0.007
      -0.038
      -0.033
       0.002
       0.040
       0.048
       0.020
      -0.024
      -0.053
      -0.051
      -0.024
       0.014
       0.042
       0.051
       0.035
       0.004
      -0.029
      -0.046
      -0.039
      -0.014
       0.014
       0.029
       0.024
       0.009
      -0.005
      -0.009
      -0.009
      -0.011
      -0.016
      -0.022
      -0.024
      -0.020
      -0.011
       0.000
       0.014
       0.025
       0.027
       0.016
      -0.003
      -0.018
      -0.018
      -0.004
       0.012
       0.014
      -0.002
      -0.023
      -0.033
      -0.021
       0.006
       0.029
       0.033
       0.019
      -0.001
      -0.011
      -0.004
       0.013
       0.023
       0.014
      -0.013
      -0.039
      -0.045
      -0.025
       0.007
       0.030
       0.034
       0.022
       0.003
      -0.012
      -0.020
      -0.020
      -0.014
      -0.007
       0.000
       0.007
       0.014
       0.018
       0.014
      -0.001
      -0.020
      -0.033
      -0.030
      -0.010
       0.016
       0.034
       0.031
       0.011
      -0.014
      -0.028
      -0.027
      -0.011
       0.010
       0.021
       0.012
      -0.015
      -0.040
      -0.045
      -0.025
       0.005
       0.028
       0.033
       0.025
       0.013
       0.006
       0.002
      -0.002
      -0.009
      -0.015
      -0.012
       0.001
       0.016
       0.020
       0.008
      -0.013
      -0.027
      -0.025
      -0.011
       0.004
       0.012
       0.015
       0.017
       0.014
       0.003
      -0.014
      -0.029
      -0.033
      -0.022
      -0.002
       0.017
       0.028
       0.028
       0.020
       0.004
      -0.015
      -0.030
      -0.034
      -0.025
      -0.010
       0.000
      -0.003
      -0.014
      -0.025
      -0.025
      -0.010
       0.015
       0.033
       0.035
       0.021
       0.006
       0.003
       0.008
       0.007
      -0.008
      -0.026
      -0.031
      -0.015
       0.011
       0.028
       0.025
       0.008
      -0.002
       0.004
       0.018
       0.023
       0.008
      -0.018
      -0.040
      -0.046
      -0.035
      -0.012
       0.012
       0.028
       0.035
       0.032
       0.017
      -0.009
      -0.037
      -0.053
      -0.047
      -0.023
       0.009
       0.031
       0.034
       0.016
      -0.009
      -0.026
      -0.026
      -0.009
       0.011
       0.024
       0.021
       0.008
      -0.007
      -0.018
      -0.024
      -0.027
      -0.024
      -0.016
      -0.008
      -0.005
      -0.008
      -0.012
      -0.013
      -0.010
      -0.001
       0.012
       0.020
       0.013
      -0.006
      -0.022
      -0.022
      -0.009
       0.007
       0.011
       0.001
      -0.020
      -0.040
      -0.045
      -0.030
      -0.001
       0.025
       0.034
       0.026
       0.010
       0.000
      -0.001
       0.000
      -0.007
      -0.022
      -0.030
      -0.018
       0.013
       0.041
       0.043
       0.013
      -0.027
      -0.050
      -0.041
      -0.009
       0.023
       0.037
       0.032
       0.019
       0.009
       0.001
      -0.008
      -0.023
      -0.038
      -0.041
      -0.027
       0.005
       0.039
       0.058
       0.047
       0.013
      -0.025
      -0.049
      -0.049
      -0.031
      -0.007
       0.013
       0.022
       0.019
       0.008
      -0.006
      -0.016
      -0.016
      -0.005
       0.008
       0.013
       0.006
      -0.008
      -0.016
      -0.012
       0.003
       0.017
       0.018
       0.007
      -0.007
      -0.014
      -0.010
      -0.004
       0.001
       0.005
       0.013
       0.020
       0.015
      -0.001
      -0.015
      -0.013
       0.005
       0.022
       0.021
      -0.004
      -0.035
      -0.052
      -0.043
      -0.014
       0.019
       0.037
       0.035
       0.016
      -0.009
      -0.030
      -0.040
      -0.041
      -0.034
      -0.021
      -0.003
       0.012
       0.017
       0.009
      -0.007
      -0.021
      -0.024
      -0.018
      -0.010
      -0.003
       0.004
       0.010
       0.012
       0.005
      -0.010
      -0.026
      -0.035
      -0.029
      -0.013
       0.006
       0.014
       0.008
      -0.010
      -0.027
      -0.031
      -0.020
      -0.003
       0.010
       0.010
       0.000
      -0.012
      -0.017
      -0.016
      -0.010
      -0.002
       0.008
       0.017
       0.019
       0.011
      -0.004
      -0.016
      -0.019
      -0.014
      -0.009
      -0.008
      -0.007
       0.000
       0.010
       0.015
       0.006
      -0.016
      -0.039
      -0.051
      -0.044
      -0.019
       0.011
       0.032
       0.034
       0.018
      -0.007
      -0.029
      -0.042
      -0.041
      -0.026
      -0.005
       0.012
       0.018
       0.015
       0.009
      -0.001
      -0.015
      -0.029
      -0.036
      -0.030
      -0.011
       0.010
       0.020
       0.011
      -0.009
      -0.024
      -0.024
      -0.010
       0.003
       0.009
       0.009
       0.012
       0.015
       0.014
       0.002
      -0.016
      -0.030
      -0.031
      -0.015
       0.011
       0.033
       0.036
       0.020
      -0.005
      -0.026
      -0.032
      -0.025
      -0.012
       0.003
       0.016
       0.025
       0.025
       0.014
      -0.007
      -0.029
      -0.043
      -0.045
      -0.036
      -0.019
       0.002
       0.023
       0.039
       0.044
       0.033
       0.007
      -0.023
      -0.039
      -0.028
      -0.001
       0.017
       0.005
      -0.029
      -0.053
      -0.033
       0.029
       0.087
       0.076
      -0.028
      -0.166
      -0.256
      -0.366
      -0.889
      -2.559
      -6.194
     -12.221
     -20.017
     -27.292
     -30.201
     -24.949
     -10.498
       9.708
      28.825
      39.982
      39.454
      27.760
       8.948
     -10.648
     -24.021
     -26.183
     -16.941
      -1.199
      13.937
      22.815
      23.252
      16.970
       8.672
       3.201
       2.177
       3.608
       5.072
       6.259
       7.636
       7.981
       4.958
      -2.311
     -12.474
     -23.236
     -32.129
     -36.380
     -33.830
     -24.697
     -11.331
       4.101
      20.118
      33.725
      40.195
      36.984
      26.797
      15.254
       6.264
       0.726
      -1.682
      -1.730
      -1.304
      -2.602
      -6.008
     -10.011
     -13.411
     -16.201
     -17.880
     -16.597
     -11.383
      -4.340
       1.056
       3.613
       5.227
       8.288
      13.178
      17.937
      19.495
      15.712
       7.382
      -1.732
      -7.683
      -9.315
      -8.308
      -6.897
      -6.348
      -7.269
      -9.957
     -13.717
     -16.573
     -16.541
     -13.170
      -7.713
      -2.164
       1.831
       3.867
       5.145
       7.389
      10.753
      13.232
      12.643
       8.930
       4.249
       1.183
       1.015
       3.050
       5.054
       4.703
       1.361
      -3.264
      -6.420
      -6.573
      -4.639
      -3.186
      -4.337
      -7.906
     -11.120
     -10.334
      -3.872
       6.036
      14.061
      15.118
       7.815
      -4.520
     -15.715
     -20.070
     -15.246
      -3.445
       9.743
      18.435
      19.775
      15.258
       9.126
       5.133
       4.093
       3.938
       2.192
      -1.407
      -4.728
      -5.474
      -3.145
       0.814
       3.934
       3.780
      -0.693
      -7.794
     -13.277
     -12.912
      -5.771
       4.683
      12.857
      14.761
      10.225
       2.335
      -4.756
      -7.884
      -6.136
      -1.263
       3.172
       3.914
       0.034
      -6.578
     -12.320
     -13.800
      -9.922
      -2.998
       2.581
       3.785
       1.462
      -0.692
       0.323
       4.333
       8.493
       9.674
       6.665
       0.980
      -3.938
      -4.887
      -1.308
       4.036
       7.158
       6.013
       1.710
      -2.917
      -5.478
      -5.195
      -2.976
      -0.795
      -0.508
      -2.553
      -5.539
      -7.188
      -5.952
      -2.080
       2.492
       5.312
       4.977
       2.272
      -0.043
       0.841
       5.229
      10.039
      10.880
       5.517
      -4.383
     -14.545
     -20.761
     -20.611
     -13.841
      -2.373
       9.887
      18.493
      20.971
      18.143
      12.709
       6.725
       0.791
      -4.666
      -8.264
      -8.364
      -4.748
       0.639
       4.592
       4.375
      -0.770
      -8.912
     -15.952
     -17.667
     -12.469
      -2.841
       6.135
      10.308
       9.104
       5.138
       1.599
       0.022
       0.035
       0.560
       1.062
       1.975
       4.157
       7.688
      10.912
      10.919
       5.676
      -3.841
     -13.686
     -19.453
     -19.048
     -13.358
      -4.883
       3.693
       9.955
      12.046
       9.576
       4.303
      -0.752
      -3.425
      -3.893
      -4.133
      -5.894
      -9.025
     -11.447
     -10.700
      -5.846
       1.694
       9.046
      13.752
      15.003
      13.399
       9.913
       5.258
       0.086
      -4.552
      -7.185
      -6.538
      -2.377
       3.990
      10.040
      13.194
      12.253
       8.142
       3.308
       0.093
      -0.734
      -0.185
       0.137
      -0.429
      -1.132
      -0.795
       0.847
       2.894
       4.182
       4.153
       2.919
       0.849
      -1.610
      -3.923
      -5.642
      -6.714
      -7.494
      -8.390
      -9.489
     -10.464
     -10.715
      -9.627
      -6.878
      -2.749
       1.782
       5.359
       6.822
       5.704
       2.433
      -1.775
      -5.280
      -6.606
      -5.087
      -1.295
       3.071
       5.995
       6.310
       4.394
       1.738
      -0.285
      -1.344
      -1.979
      -2.655
      -3.069
      -2.424
      -0.325
       2.641
       5.206
       6.298
       5.689
       3.920
       1.699
      -0.608
      -3.014
      -5.548
      -7.853
      -9.133
      -8.620
      -6.282
      -3.115
      -0.618
       0.217
      -0.443
      -1.495
      -1.720
      -0.472
       2.130
       5.376
       8.278
       9.918
       9.793
       8.014
       5.295
       2.693
       1.160
       1.087
       2.072
       3.127
       3.237
       1.967
      -0.323
      -2.746
      -4.409
      -4.779
      -3.779
      -1.696
       0.917
       3.274
       4.452
       3.694
       0.909
      -3.030
      -6.558
      -8.239
      -7.553
      -5.074
      -2.013
       0.446
       1.608
       1.463
       0.629
      -0.028
       0.043
       0.777
       1.695
       2.331
       2.460
       2.054
       1.191
      -0.001
      -1.361
      -2.626
      -3.378
      -3.207
      -2.050
      -0.391
       1.017
       1.699
       1.773
       1.747
       2.063
       2.765
       3.464
       3.596
       2.853
       1.521
       0.364
       0.050
       0.568
       1.170
       0.935
      -0.519
      -2.798
      -5.095
      -6.696
      -7.149
      -6.126
      -3.429
       0.686
       5.244
       8.810
      10.212
       9.237
       6.712
       3.890
       1.632
       0.001
      -1.471
      -3.212
      -5.224
      -7.111
      -8.325
      -8.389
      -7.020
      -4.172
      -0.138
       4.309
       7.934
       9.401
       7.930
       3.865
      -1.282
      -5.471
      -7.226
      -6.492
      -4.590
      -3.173
      -2.956
      -3.320
      -3.097
      -1.722
       0.320
       2.025
       2.761
       2.691
       2.462
       2.528
       2.797
       2.850
       2.428
       1.644
       0.781
       0.030
      -0.540
      -0.876
      -0.929
      -0.717
      -0.291
       0.339
       1.184
       2.151
       2.998
       3.417
       3.158
       2.139
       0.570
      -1.006
      -1.946
      -1.962
      -1.354
      -0.776
      -0.741
      -1.342
      -2.337
      -3.389
      -4.227
      -4.663
      -4.561
      -3.851
      -2.634
      -1.272
      -0.273
       0.047
