Origin Time       17/7/2009 11:07:47 
Lat.              32.3 N 
Long.             76.1 E 
Depth (Km)         39.3
Magnitude         3.7
 Region           CHAMBA-(H.P.)                                                    
 Above details taken from IMD 
   
Station Code      CHA
Station Lat.       32.555
Station Long.      76.126
Station Height(m)  952.0
Site Class        A   Vs30 between 700 m/sec to 1400 m/sec * 
Record Time       17.07.2009 11:07:38.459
Sampling Rate     200. Hz
 Record Duration   73.265 Sec.
 Direction         Vert. (Up positive)
Max. Acceleration     -9.410 cm/sec**2
     
  * For reference see Site Classification link of website 
     
 Base Line Corrected and Low Pass Filtered (Cut Off at 35 Hz) Time History
 Acceleration data in cm/sec**2
    
[...]
      -0.006
       0.012
       0.014
       0.002
      -0.013
      -0.019
      -0.016
      -0.010
      -0.005
      -0.003
       0.000
       0.005
       0.012
       0.009
      -0.013
      -0.040
      -0.045
      -0.012
       0.036
       0.066
       0.058
       0.028
       0.001
      -0.010
      -0.010
      -0.014
      -0.026
      -0.036
      -0.035
      -0.021
      -0.001
       0.018
       0.029
       0.028
       0.014
      -0.008
      -0.029
      -0.036
      -0.028
      -0.013
       0.001
       0.008
       0.008
      -0.004
      -0.022
      -0.036
      -0.026
       0.010
       0.049
       0.062
       0.035
      -0.013
      -0.045
      -0.045
      -0.023
       0.002
       0.012
       0.005
      -0.014
      -0.031
      -0.029
      -0.005
       0.030
       0.049
       0.035
       0.000
      -0.027
      -0.025
       0.002
       0.025
       0.021
      -0.005
      -0.027
      -0.023
       0.002
       0.022
       0.025
       0.019
       0.020
       0.027
       0.025
       0.006
      -0.025
      -0.050
      -0.054
      -0.039
      -0.018
      -0.008
      -0.014
      -0.023
      -0.014
       0.017
       0.051
       0.058
       0.033
      -0.010
      -0.042
      -0.047
      -0.031
      -0.015
      -0.013
      -0.019
      -0.020
      -0.005
       0.017
       0.032
       0.033
       0.022
       0.007
      -0.006
      -0.007
       0.009
       0.032
       0.041
       0.018
      -0.028
      -0.068
      -0.073
      -0.040
       0.010
       0.050
       0.061
       0.038
       0.000
      -0.024
      -0.020
       0.005
       0.026
       0.025
       0.000
      -0.029
      -0.042
      -0.032
      -0.005
       0.024
       0.037
       0.023
      -0.002
      -0.014
       0.002
       0.034
       0.052
       0.040
       0.003
      -0.031
      -0.043
      -0.036
      -0.027
      -0.024
      -0.015
       0.014
       0.055
       0.075
       0.050
      -0.010
      -0.069
      -0.092
      -0.071
      -0.020
       0.049
       0.123
       0.181
       0.182
       0.094
      -0.067
      -0.241
      -0.354
      -0.356
      -0.246
      -0.061
       0.128
       0.241
       0.225
       0.089
      -0.094
      -0.224
      -0.220
      -0.064
       0.194
       0.440
       0.552
       0.470
       0.247
       0.026
      -0.059
      -0.001
       0.055
      -0.067
      -0.388
      -0.729
      -0.844
      -0.603
      -0.065
       0.568
       1.035
       1.117
       0.763
       0.142
      -0.457
      -0.804
      -0.810
      -0.525
      -0.122
       0.137
       0.046
      -0.341
      -0.691
      -0.638
      -0.083
       0.732
       1.385
       1.533
       1.106
       0.337
      -0.395
      -0.798
      -0.823
      -0.630
      -0.424
      -0.303
      -0.230
      -0.102
       0.137
       0.441
       0.659
       0.604
       0.184
      -0.458
      -0.937
      -0.846
      -0.106
       0.872
       1.434
       1.163
       0.214
      -0.814
      -1.352
      -1.279
      -0.894
      -0.506
      -0.097
       0.554
       1.437
       2.111
       2.002
       0.897
      -0.802
      -2.252
      -2.659
      -1.805
      -0.244
       1.066
       1.474
       1.063
       0.396
      -0.071
      -0.273
      -0.349
      -0.377
      -0.367
      -0.351
      -0.336
      -0.196
       0.235
       0.908
       1.464
       1.462
       0.742
      -0.384
      -1.302
      -1.500
      -0.936
      -0.044
       0.616
       0.767
       0.499
       0.057
      -0.396
      -0.799
      -1.118
      -1.284
      -1.157
      -0.537
       0.635
       1.995
       2.801
       2.497
       1.272
      -0.072
      -0.853
      -1.015
      -0.910
      -0.801
      -0.721
      -0.686
      -0.756
      -0.865
      -0.758
      -0.247
       0.529
       1.171
       1.338
       0.998
       0.445
       0.089
       0.154
       0.485
       0.673
       0.425
      -0.218
      -1.023
      -1.781
      -2.296
      -2.244
      -1.322
       0.370
       2.167
       3.179
       2.830
       1.204
      -0.927
      -2.413
      -2.381
      -0.914
       0.891
       1.739
       1.197
      -0.017
      -0.749
      -0.377
       0.778
       1.755
       1.602
      -0.005
      -2.431
      -4.287
      -4.234
      -1.971
       1.374
       3.883
       4.154
       2.240
      -0.470
      -2.296
      -2.351
      -0.915
       0.985
       2.316
       2.554
       1.778
       0.441
      -0.916
      -1.842
      -2.066
      -1.602
      -0.818
      -0.210
       0.027
       0.164
       0.529
       1.017
       1.192
       0.889
       0.465
       0.343
       0.457
       0.347
      -0.257
      -1.088
      -1.599
      -1.480
      -0.934
      -0.540
      -0.799
      -1.639
      -2.296
      -1.794
       0.220
       2.979
       4.965
       4.945
       2.897
       0.076
      -1.839
      -1.900
      -0.473
       1.145
       1.710
       0.837
      -0.902
      -2.480
      -3.070
      -2.476
      -1.206
      -0.179
      -0.148
      -1.099
      -2.081
      -1.821
       0.203
       3.139
       5.267
       5.275
       3.217
       0.358
      -1.811
      -2.500
      -1.859
      -0.585
       0.573
       1.085
       0.726
      -0.360
      -1.653
      -2.471
      -2.368
      -1.418
      -0.161
       0.747
       0.933
       0.538
       0.139
       0.371
       1.406
       2.689
       3.207
       2.188
      -0.259
      -3.095
      -4.957
      -4.957
      -3.136
      -0.393
       1.972
       2.900
       2.208
       0.781
      -0.012
       0.584
       2.036
       2.982
       2.422
       0.507
      -1.675
      -2.932
      -2.679
      -1.184
       0.640
       1.747
       1.532
       0.132
      -1.716
      -3.101
      -3.358
      -2.309
      -0.324
       1.830
       3.320
       3.603
       2.639
       0.898
      -0.814
      -1.713
      -1.465
      -0.400
       0.670
       0.934
       0.092
      -1.394
      -2.483
      -2.202
      -0.400
       1.999
       3.546
       3.245
       1.201
      -1.478
      -3.337
      -3.368
      -1.587
       0.882
       2.428
       2.073
       0.266
      -1.455
      -1.743
      -0.502
       1.214
       2.228
       2.114
       1.220
       0.129
      -0.786
      -1.415
      -1.753
      -1.772
      -1.427
      -0.755
       0.026
       0.621
       0.934
       1.194
       1.649
       2.155
       2.190
       1.342
      -0.289
      -2.157
      -3.600
      -4.045
      -3.152
      -1.111
       1.167
       2.460
       2.148
       0.754
      -0.473
      -0.557
       0.522
       1.938
       2.693
       2.276
       0.936
      -0.570
      -1.521
      -1.686
      -1.354
      -0.940
      -0.587
      -0.151
       0.436
       0.864
       0.623
      -0.459
      -1.864
      -2.670
      -2.285
      -0.935
       0.519
       1.261
       1.088
       0.459
       0.067
       0.340
       1.194
       2.125
       2.533
       2.081
       0.919
      -0.350
      -1.030
      -0.810
      -0.006
       0.657
       0.546
      -0.506
      -2.163
      -3.781
      -4.626
      -4.110
      -2.038
       1.147
       4.335
       6.133
       5.610
       2.976
      -0.394
      -2.759
      -3.087
      -1.655
       0.215
       1.013
       0.030
      -2.032
      -3.355
      -2.320
       0.940
       4.203
       4.754
       1.746
      -2.784
      -5.354
      -3.778
       1.080
       5.957
       7.588
       4.915
      -0.413
      -5.329
      -7.336
      -5.852
      -2.215
       1.392
       3.264
       2.921
       1.055
      -1.066
      -2.278
      -2.029
      -0.546
       1.367
       2.825
       3.353
       3.029
       2.191
       1.077
      -0.143
      -1.075
      -1.177
      -0.406
       0.312
      -0.351
      -2.808
      -5.787
      -7.054
      -5.117
      -0.480
       4.524
       7.210
       6.290
       2.706
      -1.061
      -2.717
      -1.630
       1.009
       3.216
       3.517
       1.650
      -1.517
      -4.529
      -6.007
      -5.229
      -2.476
       1.020
       3.639
       4.264
       2.945
       0.797
      -0.793
      -1.007
       0.044
       1.492
       2.186
       1.365
      -0.752
      -2.927
      -3.677
      -2.336
       0.444
       3.100
       4.086
       2.700
      -0.486
      -3.781
      -5.204
      -3.689
       0.119
       4.153
       6.156
       5.035
       1.492
      -2.376
      -4.308
      -3.295
      -0.302
       2.379
       2.806
       0.800
      -2.063
      -3.773
      -3.353
      -1.377
       0.664
       1.497
       0.878
      -0.432
      -1.388
      -1.393
      -0.484
       0.978
       2.532
       3.556
       3.322
       1.524
      -1.156
      -3.262
      -3.582
      -2.054
       0.299
       2.224
       3.025
       2.705
       1.616
       0.139
      -1.361
      -2.445
      -2.696
      -2.042
      -0.992
      -0.360
      -0.569
      -1.153
      -1.083
       0.288
       2.554
       4.471
       4.830
       3.241
       0.350
      -2.517
      -4.027
      -3.560
      -1.595
       0.531
       1.440
       0.591
      -1.394
      -3.169
      -3.549
      -2.211
       0.199
       2.552
       3.916
       4.012
       3.212
       2.186
       1.441
       1.047
       0.664
      -0.145
      -1.500
      -2.993
      -3.880
      -3.583
      -2.117
      -0.121
       1.492
       2.042
       1.477
       0.428
      -0.236
      -0.121
       0.367
       0.486
      -0.037
      -0.764
      -1.073
      -0.801
      -0.304
      -0.036
      -0.156
      -0.465
      -0.585
      -0.239
       0.521
       1.336
       1.840
       1.931
       1.718
       1.272
       0.568
      -0.344
      -1.262
      -1.955
      -2.263
      -2.043
      -1.165
       0.247
       1.641
       2.280
       1.820
       0.668
      -0.317
      -0.527
      -0.093
       0.249
      -0.197
      -1.450
      -2.742
      -3.072
      -1.999
       0.014
       1.960
       2.997
       2.935
       2.183
       1.292
       0.498
      -0.329
      -1.336
      -2.338
      -2.888
      -2.680
      -1.825
      -0.726
       0.278
       1.155
       2.129
       3.355
       4.530
       4.856
       3.597
       0.874
      -2.151
      -3.993
      -3.877
      -2.209
      -0.220
       0.831
       0.388
      -1.089
      -2.449
      -2.685
      -1.662
      -0.116
       1.017
       1.275
       0.828
       0.240
       0.096
       0.655
       1.611
       2.224
       1.861
       0.524
      -1.148
      -2.369
      -2.655
      -1.929
      -0.448
       1.231
       2.337
       2.277
       1.105
      -0.422
      -1.369
      -1.292
      -0.469
       0.404
       0.715
       0.298
      -0.548
      -1.315
      -1.642
      -1.487
      -1.005
      -0.363
       0.264
       0.598
       0.411
      -0.124
      -0.372
       0.226
       1.488
       2.479
       2.296
       0.893
      -0.828
      -1.729
      -1.288
       0.067
       1.363
       1.846
       1.478
       0.801
       0.358
       0.237
       0.138
      -0.203
      -0.742
      -1.236
      -1.527
      -1.657
      -1.738
      -1.768
      -1.599
      -1.076
      -0.225
       0.704
       1.389
       1.675
       1.645
       1.457
       1.146
       0.663
       0.090
      -0.295
      -0.244
       0.203
       0.717
       0.916
       0.579
      -0.263
      -1.333
      -2.205
      -2.509
      -2.115
      -1.142
       0.136
       1.364
       2.154
       2.268
       1.800
       1.093
       0.381
      -0.388
      -1.293
      -2.067
      -2.139
      -1.136
       0.655
       2.329
       2.921
       2.046
       0.175
      -1.689
      -2.673
      -2.509
      -1.512
      -0.253
       0.754
       1.185
       0.969
       0.269
      -0.621
      -1.403
      -1.831
      -1.753
      -1.158
      -0.180
       1.010
       2.263
       3.355
       3.893
       3.492
       2.130
       0.280
      -1.356
      -2.246
      -2.243
      -1.565
      -0.685
      -0.124
      -0.161
      -0.601
      -0.874
      -0.473
       0.590
       1.707
       2.069
       1.249
      -0.457
      -2.196
      -3.126
      -2.976
      -2.189
      -1.536
      -1.493
      -1.860
      -1.920
      -1.017
       0.874
       3.012
       4.323
       4.126
       2.651
       0.940
       0.123
       0.562
       1.511
       1.686
       0.343
      -2.006
      -3.907
      -4.078
      -2.374
       0.186
       2.258
       3.086
       2.786
       1.948
       1.069
       0.290
      -0.514
      -1.496
      -2.641
      -3.675
      -4.131
      -3.613
      -2.131
      -0.217
       1.336
       1.970
       1.743
       1.268
       1.207
       1.715
       2.333
       2.473
       2.017
       1.382
       0.986
       0.701
      -0.081
      -1.771
      -3.935
      -5.310
      -4.634
      -1.742
       2.000
       4.478
       4.404
       2.364
       0.336
       0.020
       1.401
       2.794
       2.320
      -0.438
      -3.993
      -6.080
      -5.410
      -2.589
       0.514
       2.351
       2.805
       2.943
       3.783
       5.225
       6.056
       4.936
       1.516
      -3.187
      -7.359
      -9.410
      -8.748
      -5.945
      -2.345
       0.670
       2.417
       3.190
       3.812
       4.738
       5.495
       5.052
       2.869
      -0.338
      -2.915
      -3.526
      -2.297
      -0.782
      -0.680
      -2.366
      -4.513
      -5.159
      -3.310
       0.260
       3.625
       5.164
       4.633
       3.037
       1.579
       0.728
       0.150
      -0.594
      -1.410
      -1.714
      -1.054
       0.332
       1.557
       1.698
       0.469
      -1.581
      -3.413
      -4.093
      -3.228
      -1.114
       1.394
       3.216
       3.543
       2.314
       0.347
      -1.098
      -1.148
       0.078
       1.582
       2.251
       1.628
       0.088
      -1.586
      -2.762
      -3.249
      -3.234
      -3.027
      -2.777
      -2.345
      -1.430
       0.094
       1.947
       3.574
       4.524
       4.710
       4.321
       3.570
       2.522
       1.160
      -0.368
      -1.563
      -1.781
      -0.806
       0.722
       1.572
       0.829
      -1.311
      -3.599
      -4.621
      -3.782
      -1.639
       0.572
       1.806
       1.832
       1.222
       0.787
       0.946
       1.530
       2.050
       2.110
       1.599
       0.614
      -0.670
      -2.029
      -3.200
      -3.971
      -4.291
      -4.225
      -3.787
      -2.855
      -1.310
       0.733
       2.800
       4.179
       4.240
       2.843
       0.565
      -1.516
      -2.434
      -1.879
      -0.244
       1.731
       3.300
       3.849
       3.031
       1.031
      -1.296
      -2.774
      -2.642
      -1.147
       0.583
       1.361
       0.801
      -0.471
      -1.412
      -1.393
      -0.564
       0.411
       0.888
       0.614
      -0.173
      -0.894
      -1.005
      -0.412
       0.390
       0.679
       0.148
      -0.716
      -0.948
       0.079
       1.977
       3.471
       3.332
       1.385
      -1.299
      -3.256
      -3.774
      -3.275
      -2.624
      -2.143
      -1.366
       0.244
       2.422
       4.041
       3.963
       2.057
      -0.532
      -2.145
      -1.841
      -0.099
       1.610
       2.036
       1.132
      -0.032
      -0.269
       0.704
       2.079
       2.719
       2.143
       0.869
      -0.163
      -0.450
      -0.240
      -0.120
      -0.417
      -1.005
      -1.556
      -1.848
      -1.897
      -1.877
      -1.961
      -2.158
      -2.282
      -2.097
      -1.518
      -0.674
       0.195
       0.852
       1.055
       0.566
      -0.657
      -2.192
      -3.117
      -2.467
       0.051
       3.664
       6.830
       8.063
       6.739
       3.421
      -0.452
      -3.362
      -4.506
      -4.086
      -2.882
      -1.515
      -0.076
       1.591
       3.333
       4.502
       4.380
       2.791
       0.314
      -2.109
      -3.770
      -4.458
      -4.239
      -3.125
      -1.129
       1.343
       3.288
       3.560
       1.763
      -1.184
      -3.474
      -3.619
      -1.535
       1.413
       3.455
       3.658
       2.371
       0.622
      -0.805
      -1.809
      -2.697
      -3.615
      -4.232
      -3.907
      -2.195
       0.679
       3.767
       5.858
       6.169
       4.771
       2.453
       0.163
      -1.537
      -2.624
      -3.340
      -3.785
      -3.739
      -2.840
      -0.957
       1.504
       3.576
       4.133
       2.596
      -0.527
      -3.764
      -5.511
      -5.002
      -2.701
       0.127
       2.251
       3.100
       2.823
       1.935
       0.915
       0.039
      -0.556
      -0.787
      -0.624
      -0.125
       0.577
       1.358
       2.152
       2.921
       3.526
       3.623
       2.758
       0.729
      -2.042
      -4.511
      -5.548
      -4.645
      -2.227
       0.625
       2.792
       3.655
       3.311
       2.407
       1.654
       1.306
       1.034
       0.361
      -0.723
      -1.603
      -1.577
      -0.588
       0.571
       0.843
      -0.240
      -2.194
      -4.008
      -4.906
      -4.781
      -4.023
      -3.012
      -1.807
      -0.258
       1.649
       3.575
       4.970
       5.414
       4.832
       3.434
       1.497
      -0.711
      -2.850
      -4.426
      -4.906
      -3.996
      -1.882
       0.739
       2.907
       3.867
       3.486
       2.329
       1.278
       0.953
       1.335
       1.871
       1.942
       1.340
       0.366
      -0.485
      -0.956
      -1.223
      -1.718
      -2.745
      -4.181
      -5.446
      -5.779
      -4.687
      -2.289
       0.671
       3.215
       4.687
       5.084
       4.886
       4.537
       4.017
       2.899
       0.841
      -1.919
      -4.520
      -5.952
      -5.665
      -3.889
      -1.451
       0.753
       2.236
       3.027
       3.381
       3.426
       3.092
       2.337
       1.349
       0.474
      -0.048
      -0.272
      -0.505
      -1.083
      -2.135
      -3.424
      -4.406
      -4.502
      -3.488
      -1.687
       0.239
       1.770
       2.851
       3.766
       4.691
       5.357
       5.155
       3.629
       0.932
      -2.147
      -4.621
      -5.834
      -5.696
      -4.531
      -2.777
      -0.821
       1.002
       2.365
       2.980
       2.673
       1.490
      -0.217
      -1.832
      -2.740
      -2.669
      -1.847
      -0.810
       0.015
       0.615
       1.302
       2.311
       3.419
       3.965
       3.322
       1.463
      -0.869
      -2.588
      -2.973
      -2.109
      -0.752
       0.264
       0.617
       0.640
       0.894
       1.545
       2.124
       1.938
       0.787
      -0.701
      -1.478
      -0.905
       0.705
       2.274
       2.708
       1.610
      -0.537
      -2.749
      -4.121
      -4.244
      -3.304
      -1.917
      -0.808
