Origin Time       14/3/2011 09:01:29 
Lat.              30.5 N 
Long.             79.1 E 
Depth (Km)          8.0
Magnitude         3.3
 Region           Chamoli-Uttarakhand                                              
 Above details taken from IMD 
     
Station Code      CHA
Station Lat.       30.412  N
Station Long.      79.320  E
Station Height(m) 1578.0
Site Class        A   Vs30 between 700 m/sec to 1400 m/sec * 
Record Time       14.03.2011 08:58:15.794
Sampling Rate     200. Hz
 Record Duration   89.510 Sec.
 Direction         E-W (E positive)
Max. Acceleration      5.215 cm/sec**2
     
  * For reference see Site Classification link of website 
     
 Base Line Corrected and Low Pass Filtered (Cut Off at 35 Hz) Time History
 Acceleration data in cm/sec**2
    
[...]
      -0.003
      -0.003
      -0.005
      -0.002
       0.006
       0.011
       0.008
       0.004
       0.001
      -0.003
      -0.008
      -0.008
      -0.005
      -0.003
      -0.003
       0.000
       0.002
      -0.005
      -0.016
      -0.016
      -0.004
       0.008
       0.013
       0.013
       0.012
       0.007
       0.000
      -0.005
      -0.006
      -0.007
      -0.008
      -0.001
       0.009
       0.013
       0.005
      -0.004
      -0.006
      -0.006
      -0.007
      -0.003
       0.005
       0.011
       0.007
       0.001
       0.001
       0.005
       0.009
       0.011
       0.010
       0.003
      -0.007
      -0.011
      -0.006
      -0.004
      -0.008
      -0.011
      -0.004
       0.003
       0.003
      -0.001
      -0.002
       0.002
       0.008
       0.015
       0.022
       0.021
       0.008
      -0.004
      -0.007
      -0.004
       0.000
       0.005
       0.013
       0.014
       0.002
      -0.013
      -0.016
      -0.007
       0.002
       0.006
       0.006
       0.001
      -0.005
      -0.004
       0.006
       0.013
       0.008
      -0.002
      -0.006
      -0.005
      -0.008
      -0.011
      -0.008
       0.001
       0.005
       0.003
      -0.001
      -0.003
      -0.006
      -0.006
      -0.001
       0.002
      -0.002
      -0.006
      -0.003
       0.002
       0.002
       0.002
       0.008
       0.017
       0.017
       0.008
       0.003
       0.004
       0.002
      -0.010
      -0.022
      -0.027
      -0.024
      -0.014
      -0.001
       0.006
       0.003
      -0.001
       0.007
       0.022
       0.028
       0.021
       0.009
       0.000
      -0.008
      -0.019
      -0.026
      -0.025
      -0.019
      -0.007
       0.009
       0.022
       0.022
       0.012
       0.006
       0.008
       0.007
       0.000
      -0.007
      -0.007
      -0.005
      -0.004
      -0.001
       0.006
       0.010
       0.007
       0.002
      -0.003
      -0.010
      -0.015
      -0.010
       0.002
       0.008
       0.002
      -0.006
      -0.006
      -0.002
       0.000
      -0.001
      -0.003
      -0.009
      -0.014
      -0.009
       0.010
       0.035
       0.055
       0.063
       0.059
       0.039
       0.009
      -0.014
      -0.022
      -0.026
      -0.034
      -0.040
      -0.033
      -0.014
       0.006
       0.024
       0.034
       0.030
       0.004
      -0.037
      -0.081
      -0.117
      -0.132
      -0.116
      -0.074
      -0.026
       0.008
       0.025
       0.033
       0.026
      -0.004
      -0.052
      -0.099
      -0.123
      -0.109
      -0.047
       0.053
       0.162
       0.247
       0.284
       0.257
       0.161
       0.010
      -0.152
      -0.274
      -0.338
      -0.353
      -0.337
      -0.301
      -0.254
      -0.192
      -0.099
       0.035
       0.192
       0.326
       0.396
       0.385
       0.304
       0.196
       0.126
       0.139
       0.230
       0.341
       0.400
       0.362
       0.228
       0.045
      -0.111
      -0.175
      -0.136
      -0.037
       0.063
       0.119
       0.102
       0.004
      -0.153
      -0.320
      -0.449
      -0.514
      -0.509
      -0.450
      -0.374
      -0.328
      -0.330
      -0.368
      -0.411
      -0.432
      -0.411
      -0.334
      -0.195
      -0.008
       0.205
       0.409
       0.552
       0.583
       0.496
       0.334
       0.159
       0.021
      -0.054
      -0.054
       0.009
       0.105
       0.204
       0.281
       0.315
       0.290
       0.202
       0.064
      -0.107
      -0.282
      -0.420
      -0.469
      -0.407
      -0.253
      -0.044
       0.197
       0.460
       0.728
       0.969
       1.136
       1.177
       1.055
       0.779
       0.408
       0.025
      -0.296
      -0.504
      -0.579
      -0.555
      -0.519
      -0.565
      -0.735
      -0.997
      -1.259
      -1.397
      -1.305
      -0.943
      -0.379
       0.229
       0.701
       0.902
       0.795
       0.457
       0.049
      -0.257
      -0.355
      -0.222
       0.096
       0.508
       0.904
       1.195
       1.340
       1.347
       1.237
       1.031
       0.757
       0.446
       0.126
      -0.179
      -0.448
      -0.673
      -0.864
      -1.028
      -1.149
      -1.196
      -1.149
      -1.022
      -0.848
      -0.673
      -0.537
      -0.457
      -0.407
      -0.340
      -0.228
      -0.083
       0.059
       0.165
       0.212
       0.195
       0.138
       0.075
       0.022
      -0.016
      -0.027
       0.004
       0.081
       0.187
       0.298
       0.390
       0.448
       0.480
       0.516
       0.584
       0.672
       0.740
       0.760
       0.740
       0.702
       0.651
       0.557
       0.387
       0.135
      -0.152
      -0.381
      -0.466
      -0.390
      -0.219
      -0.057
       0.022
      -0.012
      -0.154
      -0.377
      -0.644
      -0.916
      -1.149
      -1.279
      -1.247
      -1.040
      -0.711
      -0.352
      -0.040
       0.185
       0.322
       0.402
       0.463
       0.523
       0.548
       0.473
       0.240
      -0.155
      -0.637
      -1.056
      -1.243
      -1.108
      -0.703
      -0.174
       0.323
       0.687
       0.878
       0.913
       0.862
       0.814
       0.846
       0.980
       1.169
       1.305
       1.277
       1.053
       0.710
       0.378
       0.164
       0.104
       0.186
       0.364
       0.587
       0.805
       0.980
       1.061
       0.986
       0.716
       0.273
      -0.267
      -0.814
      -1.296
      -1.666
      -1.906
      -2.016
      -2.006
      -1.887
      -1.682
      -1.421
      -1.131
      -0.820
      -0.499
      -0.210
      -0.016
       0.036
      -0.061
      -0.268
      -0.490
      -0.601
      -0.492
      -0.143
       0.354
       0.842
       1.166
       1.241
       1.105
       0.899
       0.787
       0.849
       1.039
       1.218
       1.239
       1.024
       0.607
       0.120
      -0.277
      -0.483
      -0.492
      -0.371
      -0.217
      -0.110
      -0.069
      -0.038
       0.069
       0.290
       0.575
       0.813
       0.900
       0.780
       0.466
       0.013
      -0.501
      -1.006
      -1.441
      -1.733
      -1.803
      -1.609
      -1.170
      -0.573
       0.043
       0.509
       0.695
       0.576
       0.253
      -0.120
      -0.415
      -0.570
      -0.593
      -0.535
      -0.454
      -0.366
      -0.230
       0.004
       0.337
       0.689
       0.926
       0.918
       0.611
       0.080
      -0.484
      -0.862
      -0.907
      -0.599
      -0.049
       0.544
       0.986
       1.192
       1.203
       1.128
       1.039
       0.927
       0.735
       0.418
      -0.001
      -0.422
      -0.724
      -0.832
      -0.758
      -0.566
      -0.320
      -0.065
       0.170
       0.385
       0.602
       0.827
       1.018
       1.093
       0.981
       0.656
       0.160
      -0.391
      -0.841
      -1.066
      -1.037
      -0.827
      -0.554
      -0.317
      -0.163
      -0.086
      -0.055
      -0.053
      -0.096
      -0.199
      -0.347
      -0.507
      -0.662
      -0.817
      -0.971
      -1.078
      -1.051
      -0.792
      -0.252
       0.512
       1.318
       1.933
       2.187
       2.040
       1.580
       0.970
       0.379
      -0.077
      -0.368
      -0.526
      -0.599
      -0.610
      -0.547
      -0.368
      -0.042
       0.409
       0.879
       1.216
       1.296
       1.090
       0.662
       0.135
      -0.357
      -0.723
      -0.949
      -1.077
      -1.154
      -1.193
      -1.190
      -1.134
      -1.020
      -0.850
      -0.648
      -0.441
      -0.235
      -0.016
       0.227
       0.473
       0.676
       0.770
       0.693
       0.429
       0.053
      -0.285
      -0.449
      -0.385
      -0.142
       0.171
       0.426
       0.528
       0.443
       0.193
      -0.167
      -0.563
      -0.907
      -1.114
      -1.139
      -1.001
      -0.761
      -0.478
      -0.190
       0.088
       0.364
       0.651
       0.928
       1.131
       1.178
       1.039
       0.764
       0.475
       0.300
       0.303
       0.443
       0.607
       0.697
       0.674
       0.544
       0.323
       0.038
      -0.249
      -0.443
      -0.467
      -0.306
      -0.025
       0.249
       0.401
       0.390
       0.263
       0.087
      -0.115
      -0.367
      -0.686
      -1.044
      -1.374
      -1.586
      -1.603
      -1.398
      -1.014
      -0.541
      -0.063
       0.369
       0.736
       1.031
       1.240
       1.321
       1.221
       0.929
       0.512
       0.095
      -0.218
      -0.383
      -0.406
      -0.320
      -0.171
      -0.001
       0.159
       0.292
       0.387
       0.440
       0.460
       0.454
       0.410
       0.306
       0.149
      -0.018
      -0.130
      -0.142
      -0.052
       0.091
       0.199
       0.196
       0.068
      -0.145
      -0.383
      -0.592
      -0.721
      -0.720
      -0.558
      -0.239
       0.201
       0.691
       1.121
       1.369
       1.354
       1.072
       0.591
       0.015
      -0.539
      -0.974
      -1.235
      -1.311
      -1.212
      -0.975
      -0.670
      -0.396
      -0.232
      -0.208
      -0.302
      -0.464
      -0.626
      -0.720
      -0.695
      -0.527
      -0.215
       0.216
       0.691
       1.093
       1.305
       1.264
       0.982
       0.537
       0.056
      -0.328
      -0.526
      -0.529
      -0.396
      -0.214
      -0.053
       0.065
       0.173
       0.323
       0.517
       0.679
       0.703
       0.530
       0.187
      -0.223
      -0.572
      -0.763
      -0.764
      -0.613
      -0.380
      -0.141
       0.043
       0.136
       0.169
       0.230
       0.402
       0.696
       1.050
       1.365
       1.550
       1.536
       1.306
       0.921
       0.503
       0.183
       0.035
       0.035
       0.069
      -0.021
      -0.345
      -0.892
      -1.530
      -2.066
      -2.327
      -2.237
      -1.862
      -1.397
      -1.069
      -1.024
      -1.264
      -1.652
      -1.963
      -1.975
      -1.584
      -0.872
      -0.070
       0.583
       0.963
       1.100
       1.124
       1.164
       1.254
       1.308
       1.191
       0.819
       0.222
      -0.464
      -1.051
      -1.369
      -1.341
      -1.013
      -0.511
       0.034
       0.535
       0.935
       1.187
       1.251
       1.104
       0.775
       0.357
      -0.014
      -0.230
      -0.285
      -0.264
      -0.257
      -0.280
      -0.274
      -0.165
       0.068
       0.369
       0.644
       0.814
       0.860
       0.816
       0.714
       0.570
       0.389
       0.194
       0.034
      -0.023
       0.085
       0.374
       0.780
       1.173
       1.429
       1.478
       1.311
       0.969
       0.532
       0.095
      -0.262
      -0.497
      -0.602
      -0.598
      -0.534
      -0.462
      -0.392
      -0.282
      -0.080
       0.220
       0.586
       0.975
       1.342
       1.616
       1.709
       1.546
       1.118
       0.515
      -0.093
      -0.536
      -0.735
      -0.715
      -0.546
      -0.268
       0.100
       0.513
       0.877
       1.086
       1.066
       0.796
       0.302
      -0.351
      -1.066
      -1.709
      -2.134
      -2.237
      -2.024
      -1.611
      -1.141
      -0.709
      -0.328
       0.037
       0.427
       0.845
       1.224
       1.447
       1.409
       1.102
       0.621
       0.119
      -0.248
      -0.369
      -0.230
       0.067
       0.335
       0.399
       0.175
      -0.283
      -0.804
      -1.174
      -1.247
      -1.027
      -0.649
      -0.278
      -0.019
       0.120
       0.202
       0.290
       0.384
       0.409
       0.276
      -0.049
      -0.541
      -1.168
      -1.915
      -2.736
      -3.497
      -3.996
      -4.047
      -3.574
      -2.644
      -1.428
      -0.106
       1.200
       2.404
       3.402
       4.063
       4.285
       4.055
       3.429
       2.489
       1.309
      -0.033
      -1.415
      -2.668
      -3.612
      -4.140
      -4.241
      -3.936
      -3.224
      -2.138
      -0.837
       0.408
       1.344
       1.871
       2.070
       2.133
       2.237
       2.462
       2.763
       3.013
       3.052
       2.755
       2.111
       1.253
       0.393
      -0.290
      -0.738
      -1.006
      -1.164
      -1.196
      -0.983
      -0.391
       0.610
       1.872
       3.108
       4.025
       4.450
       4.364
       3.831
       2.921
       1.691
       0.231
      -1.310
      -2.736
      -3.853
      -4.529
      -4.745
      -4.573
      -4.121
      -3.487
      -2.750
      -1.991
      -1.294
      -0.722
      -0.303
      -0.024
       0.169
       0.348
       0.551
       0.750
       0.884
       0.918
       0.875
       0.802
       0.717
       0.587
       0.352
      -0.022
      -0.496
      -0.989
      -1.442
      -1.859
      -2.250
      -2.560
      -2.662
      -2.446
      -1.899
      -1.130
      -0.329
       0.292
       0.579
       0.503
       0.173
      -0.208
      -0.422
      -0.326
       0.079
       0.667
       1.282
       1.850
       2.405
       3.021
       3.724
       4.442
       5.006
       5.215
       4.924
       4.120
       2.940
       1.600
       0.327
      -0.708
      -1.432
      -1.879
      -2.139
      -2.286
      -2.332
      -2.255
      -2.035
      -1.679
      -1.239
      -0.823
      -0.578
      -0.619
      -0.960
      -1.486
      -1.990
      -2.264
      -2.189
      -1.780
      -1.152
      -0.440
       0.268
       0.927
       1.506
       1.946
       2.147
       1.999
       1.461
       0.637
      -0.244
      -0.936
      -1.300
      -1.361
      -1.260
      -1.173
      -1.207
      -1.341
      -1.453
      -1.417
      -1.193
      -0.833
      -0.452
      -0.163
      -0.021
       0.008
       0.025
       0.129
       0.365
       0.731
       1.198
       1.721
       2.241
       2.704
       3.073
       3.323
       3.433
       3.367
       3.094
       2.592
       1.879
       1.039
       0.214
      -0.455
      -0.892
      -1.096
      -1.111
      -1.005
      -0.842
      -0.661
      -0.468
      -0.252
      -0.022
       0.185
       0.316
       0.317
       0.153
      -0.173
      -0.596
      -1.018
      -1.338
      -1.492
      -1.473
      -1.353
      -1.262
      -1.306
      -1.501
      -1.768
      -2.002
      -2.140
      -2.180
      -2.161
      -2.113
      -2.018
      -1.814
      -1.452
      -0.955
      -0.402
       0.133
       0.622
       1.069
       1.475
       1.817
       2.063
       2.179
       2.147
       1.969
       1.657
       1.228
       0.729
       0.241
      -0.152
      -0.415
      -0.576
      -0.679
      -0.739
      -0.739
      -0.654
      -0.485
      -0.272
      -0.079
       0.057
       0.171
       0.337
       0.591
       0.876
       1.075
       1.091
       0.907
       0.595
       0.276
       0.047
      -0.066
      -0.102
      -0.109
      -0.120
      -0.155
      -0.231
      -0.344
      -0.459
      -0.533
      -0.539
      -0.473
      -0.349
      -0.193
      -0.031
       0.131
       0.289
       0.426
       0.507
       0.515
       0.454
       0.338
       0.179
      -0.003
      -0.188
      -0.360
      -0.511
      -0.612
      -0.611
      -0.462
      -0.155
       0.279
       0.780
       1.273
       1.684
       1.980
       2.167
       2.269
       2.301
       2.267
       2.172
       2.012
       1.769
       1.419
       0.958
       0.413
      -0.151
      -0.641
      -0.972
      -1.109
      -1.096
      -1.021
      -0.963
      -0.959
      -1.004
      -1.052
      -1.031
      -0.894
      -0.659
      -0.409
      -0.240
      -0.216
      -0.343
      -0.561
      -0.772
      -0.902
      -0.944
      -0.951
      -0.988
      -1.087
      -1.240
      -1.398
      -1.490
      -1.476
      -1.367
      -1.219
      -1.088
      -1.002
      -0.967
      -0.972
      -0.991
      -0.999
      -0.976
      -0.897
      -0.731
      -0.462
      -0.122
       0.225
       0.521
       0.743
       0.898
       1.000
       1.065
       1.091
       1.059
       0.953
       0.794
       0.632
       0.506
       0.423
       0.371
       0.332
       0.294
       0.252
       0.213
       0.195
       0.209
       0.266
       0.374
       0.520
       0.655
       0.713
       0.663
       0.522
       0.328
       0.106
      -0.139
      -0.414
      -0.713
      -1.003
      -1.221
      -1.301
      -1.227
      -1.040
      -0.797
      -0.526
      -0.222
       0.126
       0.508
       0.871
       1.125
       1.187
       1.035
       0.737
       0.408
       0.150
       0.024
       0.041
       0.170
       0.354
       0.546
       0.713
       0.832
       0.880
       0.850
       0.743
       0.558
       0.302
       0.012
      -0.239
      -0.381
      -0.397
      -0.326
      -0.224
      -0.125
      -0.023
       0.114
       0.303
       0.508
       0.659
       0.705
       0.654
       0.556
       0.461
       0.388
       0.336
       0.287
       0.222
       0.140
       0.071
       0.050
       0.089
       0.164
       0.233
       0.251
       0.193
       0.063
      -0.101
      -0.260
      -0.403
      -0.530
      -0.631
      -0.678
      -0.643
      -0.516
      -0.313
      -0.072
       0.148
       0.291
       0.328
       0.255
       0.070
      -0.215
      -0.567
      -0.939
      -1.291
      -1.597
      -1.823
      -1.925
      -1.858
      -1.592
      -1.135
      -0.555
       0.014
       0.432
       0.623
       0.607
       0.461
       0.267
       0.082
      -0.072
      -0.201
      -0.317
      -0.411
      -0.452
      -0.411
      -0.271
      -0.028
       0.301
       0.661
       0.971
       1.161
       1.198
       1.089
       0.860
       0.540
       0.147
      -0.307
      -0.794
      -1.235
      -1.526
      -1.593
      -1.426
      -1.083
      -0.660
      -0.259
       0.056
       0.281
       0.455
       0.604
       0.723
       0.790
       0.800
       0.762
       0.691
       0.603
       0.509
       0.411
       0.306
       0.212
       0.151
       0.124
       0.100
       0.054
      -0.005
      -0.027
       0.038
       0.211
       0.467
       0.739
       0.954
       1.073
       1.106
       1.084
       1.031
       0.960
       0.888
       0.822
       0.757
       0.685
       0.611
       0.550
       0.503
       0.466
       0.436
       0.409
       0.385
       0.373
       0.394
       0.455
       0.526
       0.544
       0.459
       0.253
      -0.050
      -0.394
      -0.703
      -0.923
      -1.041
      -1.072
      -1.040
      -0.971
      -0.908
      -0.888
      -0.914
      -0.957
      -0.976
      -0.948
      -0.878
      -0.806
      -0.781
      -0.826
      -0.917
      -1.007
      -1.076
      -1.127
      -1.165
      -1.171
