Origin Time       21/9/2009 9:43:47	 
Lat.              30.9 N	
Long.             79.1 E	
Depth (Km)         13.0
Magnitude         4.7
 Region           UTTARKASHI-UTTARAKHAND                                           
 Above details taken from IMD 
     
Station Code      CHA
Station Lat.       30.412  N
Station Long.      79.320  E
Station Height(m) 1578.0
Site Class        A   Vs30 between 700 m/sec to 1400 m/sec * 
Record Time       21.09.2009 09:43:50.149
Sampling Rate     200. Hz
 Record Duration   81.370 Sec.
 Direction         E-W (E positive)
Max. Acceleration     14.061 cm/sec**2
     
  * For reference see Site Classification link of website 
     
 Base Line Corrected and Low Pass Filtered (Cut Off at 35 Hz) Time History
 Acceleration data in cm/sec**2
    
[...]
      -1.126
      -0.958
      -0.720
      -0.450
      -0.175
       0.105
       0.402
       0.714
       1.008
       1.243
       1.402
       1.496
       1.549
       1.577
       1.580
       1.551
       1.478
       1.352
       1.159
       0.892
       0.558
       0.180
      -0.219
      -0.616
      -0.995
      -1.326
      -1.576
      -1.724
      -1.772
      -1.738
      -1.634
      -1.451
      -1.179
      -0.831
      -0.458
      -0.142
       0.053
       0.108
       0.055
      -0.048
      -0.149
      -0.203
      -0.180
      -0.064
       0.123
       0.333
       0.514
       0.640
       0.723
       0.787
       0.839
       0.858
       0.823
       0.730
       0.595
       0.422
       0.202
      -0.070
      -0.362
      -0.609
      -0.749
      -0.751
      -0.625
      -0.400
      -0.107
       0.219
       0.536
       0.790
       0.949
       1.012
       1.000
       0.926
       0.774
       0.522
       0.171
      -0.236
      -0.651
      -1.041
      -1.397
      -1.716
      -1.973
      -2.122
      -2.124
      -1.969
      -1.674
      -1.266
      -0.774
      -0.247
       0.240
       0.604
       0.793
       0.808
       0.694
       0.511
       0.315
       0.154
       0.068
       0.083
       0.200
       0.393
       0.623
       0.853
       1.061
       1.232
       1.362
       1.461
       1.543
       1.615
       1.663
       1.662
       1.596
       1.480
       1.352
       1.258
       1.224
       1.252
       1.319
       1.389
       1.424
       1.378
       1.218
       0.936
       0.570
       0.186
      -0.149
      -0.399
      -0.557
      -0.636
      -0.649
      -0.610
      -0.544
      -0.488
      -0.481
      -0.548
      -0.700
      -0.939
      -1.269
      -1.682
      -2.143
      -2.586
      -2.944
      -3.164
      -3.219
      -3.096
      -2.804
      -2.381
      -1.904
      -1.468
      -1.146
      -0.952
      -0.835
      -0.711
      -0.508
      -0.190
       0.238
       0.732
       1.214
       1.587
       1.768
       1.727
       1.500
       1.181
       0.874
       0.654
       0.543
       0.512
       0.510
       0.483
       0.401
       0.270
       0.127
       0.024
      -0.003
       0.059
       0.197
       0.384
       0.580
       0.747
       0.861
       0.925
       0.972
       1.038
       1.135
       1.236
       1.294
       1.280
       1.207
       1.106
       0.994
       0.857
       0.675
       0.451
       0.209
      -0.033
      -0.283
      -0.563
      -0.882
      -1.209
      -1.481
      -1.641
      -1.660
      -1.544
      -1.315
      -0.997
      -0.616
      -0.209
       0.182
       0.529
       0.822
       1.068
       1.264
       1.386
       1.394
       1.262
       1.001
       0.652
       0.258
      -0.151
      -0.547
      -0.894
      -1.148
      -1.280
      -1.295
      -1.229
      -1.133
      -1.049
      -0.993
      -0.952
      -0.896
      -0.793
      -0.637
      -0.453
      -0.282
      -0.148
      -0.043
       0.064
       0.186
       0.306
       0.395
       0.441
       0.452
       0.441
       0.393
       0.280
       0.081
      -0.179
      -0.429
      -0.583
      -0.582
      -0.425
      -0.167
       0.114
       0.344
       0.474
       0.491
       0.419
       0.302
       0.175
       0.043
      -0.114
      -0.317
      -0.563
      -0.818
      -1.032
      -1.159
      -1.165
      -1.026
      -0.736
      -0.322
       0.152
       0.606
       0.979
       1.248
       1.422
       1.519
       1.554
       1.548
       1.518
       1.481
       1.434
       1.357
       1.214
       0.977
       0.640
       0.218
      -0.245
      -0.678
      -1.006
      -1.183
      -1.218
      -1.169
      -1.114
      -1.099
      -1.119
      -1.133
      -1.099
      -0.997
      -0.831
      -0.611
      -0.349
      -0.072
       0.167
       0.305
       0.313
       0.215
       0.086
       0.006
       0.031
       0.174
       0.421
       0.738
       1.073
       1.357
       1.522
       1.533
       1.410
       1.213
       1.001
       0.811
       0.650
       0.521
       0.424
       0.358
       0.307
       0.247
       0.166
       0.068
      -0.021
      -0.075
      -0.073
      -0.004
       0.130
       0.299
       0.441
       0.485
       0.394
       0.177
      -0.123
      -0.462
      -0.807
      -1.131
      -1.406
      -1.614
      -1.761
      -1.880
      -2.018
      -2.200
      -2.407
      -2.584
      -2.668
      -2.606
      -2.373
      -1.972
      -1.438
      -0.844
      -0.279
       0.176
       0.478
       0.636
       0.704
       0.749
       0.817
       0.923
       1.055
       1.185
       1.286
       1.337
       1.328
       1.255
       1.105
       0.859
       0.505
       0.069
      -0.370
      -0.703
      -0.829
      -0.703
      -0.344
       0.180
       0.777
       1.353
       1.822
       2.117
       2.221
       2.164
       2.007
       1.804
       1.586
       1.371
       1.172
       1.007
       0.889
       0.823
       0.809
       0.845
       0.921
       1.006
       1.047
       0.992
       0.832
       0.601
       0.342
       0.071
      -0.226
      -0.568
      -0.943
      -1.307
      -1.607
      -1.799
      -1.861
      -1.785
      -1.573
      -1.250
      -0.872
      -0.520
      -0.268
      -0.153
      -0.175
      -0.306
      -0.507
      -0.731
      -0.920
      -1.016
      -0.980
      -0.816
      -0.582
      -0.360
      -0.222
      -0.206
      -0.317
      -0.541
      -0.836
      -1.128
      -1.330
      -1.373
      -1.236
      -0.952
      -0.586
      -0.215
       0.099
       0.316
       0.421
       0.419
       0.335
       0.198
       0.034
      -0.131
      -0.270
      -0.361
      -0.397
      -0.398
      -0.390
      -0.373
      -0.318
      -0.200
      -0.036
       0.108
       0.167
       0.129
       0.050
       0.006
       0.041
       0.139
       0.261
       0.384
       0.511
       0.639
       0.747
       0.807
       0.809
       0.780
       0.762
       0.790
       0.880
       1.032
       1.241
       1.494
       1.758
       1.987
       2.144
       2.221
       2.233
       2.200
       2.131
       2.030
       1.898
       1.737
       1.544
       1.306
       1.012
       0.671
       0.317
      -0.004
      -0.256
      -0.426
      -0.520
      -0.542
      -0.507
      -0.442
      -0.397
      -0.421
      -0.537
      -0.733
      -0.976
      -1.240
      -1.507
      -1.749
      -1.922
      -1.973
      -1.880
      -1.679
      -1.449
      -1.274
      -1.202
      -1.241
      -1.362
      -1.519
      -1.661
      -1.745
      -1.749
      -1.673
      -1.539
      -1.389
      -1.274
      -1.241
      -1.311
      -1.459
      -1.626
      -1.734
      -1.729
      -1.595
      -1.348
      -1.011
      -0.604
      -0.154
       0.294
       0.680
       0.959
       1.127
       1.212
       1.243
       1.233
       1.187
       1.124
       1.087
       1.115
       1.208
       1.322
       1.407
       1.449
       1.476
       1.528
       1.627
       1.762
       1.899
       2.003
       2.051
       2.034
       1.953
       1.825
       1.680
       1.555
       1.469
       1.422
       1.401
       1.391
       1.375
       1.323
       1.196
       0.968
       0.665
       0.355
       0.115
      -0.020
      -0.083
      -0.144
      -0.269
      -0.494
      -0.824
      -1.258
      -1.777
      -2.333
      -2.853
      -3.263
      -3.524
      -3.641
      -3.645
      -3.561
      -3.393
      -3.121
      -2.722
      -2.190
      -1.555
      -0.883
      -0.252
       0.271
       0.644
       0.855
       0.921
       0.881
       0.764
       0.572
       0.292
      -0.068
      -0.462
      -0.837
      -1.178
      -1.509
      -1.837
      -2.117
      -2.284
      -2.319
      -2.268
      -2.190
      -2.091
      -1.930
      -1.669
      -1.318
      -0.913
      -0.474
       0.009
       0.538
       1.082
       1.593
       2.032
       2.374
       2.578
       2.590
       2.395
       2.047
       1.634
       1.210
       0.760
       0.224
      -0.440
      -1.227
      -2.094
      -2.980
      -3.811
      -4.510
      -5.009
      -5.263
      -5.263
      -5.020
      -4.564
      -3.933
      -3.177
      -2.344
      -1.465
      -0.550
       0.385
       1.312
       2.205
       3.063
       3.911
       4.763
       5.593
       6.341
       6.949
       7.395
       7.689
       7.839
       7.826
       7.607
       7.144
       6.439
       5.532
       4.481
       3.337
       2.137
       0.905
      -0.318
      -1.442
      -2.315
      -2.779
      -2.766
      -2.355
      -1.731
      -1.080
      -0.501
       0.011
       0.508
       1.039
       1.618
       2.229
       2.823
       3.338
       3.709
       3.879
       3.792
       3.397
       2.670
       1.656
       0.468
      -0.766
      -1.976
      -3.163
      -4.327
      -5.377
      -6.128
      -6.386
      -6.088
      -5.367
      -4.478
      -3.625
      -2.851
      -2.097
      -1.322
      -0.539
       0.246
       1.058
       1.908
       2.757
       3.555
       4.283
       4.924
       5.402
       5.584
       5.377
       4.804
       3.968
       2.972
       1.890
       0.808
      -0.132
      -0.780
      -1.054
      -0.972
      -0.607
      -0.048
       0.605
       1.222
       1.682
       1.922
       1.947
       1.776
       1.396
       0.781
      -0.066
      -1.095
      -2.248
      -3.464
      -4.659
      -5.720
      -6.547
      -7.106
      -7.421
      -7.504
      -7.320
      -6.819
      -6.001
      -4.941
      -3.738
      -2.485
      -1.270
      -0.203
       0.620
       1.153
       1.409
       1.411
       1.151
       0.611
      -0.190
      -1.179
      -2.270
      -3.389
      -4.455
      -5.348
      -5.923
      -6.070
      -5.765
      -5.066
      -4.072
      -2.870
      -1.523
      -0.078
       1.395
       2.802
       4.040
       5.046
       5.807
       6.353
       6.728
       6.971
       7.117
       7.195
       7.231
       7.235
       7.196
       7.085
       6.869
       6.530
       6.066
       5.472
       4.744
       3.891
       2.942
       1.923
       0.843
      -0.301
      -1.494
      -2.706
      -3.907
      -5.075
      -6.175
      -7.148
      -7.931
      -8.508
      -8.916
      -9.192
      -9.299
      -9.128
      -8.578
      -7.653
      -6.481
      -5.244
      -4.084
      -3.053
      -2.148
      -1.355
      -0.678
      -0.118
       0.322
       0.635
       0.790
       0.750
       0.501
       0.069
      -0.478
      -1.048
      -1.550
      -1.897
      -2.006
      -1.798
      -1.220
      -0.297
       0.848
       2.031
       3.087
       3.931
       4.568
       5.072
       5.537
       6.043
       6.629
       7.279
       7.926
       8.477
       8.824
       8.862
       8.493
       7.656
       6.376
       4.795
       3.144
       1.661
       0.482
      -0.387
      -1.035
      -1.578
      -2.099
      -2.640
      -3.202
      -3.749
      -4.209
      -4.490
      -4.513
      -4.250
      -3.745
      -3.095
      -2.403
      -1.741
      -1.132
      -0.564
      -0.003
       0.582
       1.199
       1.822
       2.396
       2.860
       3.181
       3.367
       3.452
       3.462
       3.399
       3.252
       3.021
       2.721
       2.366
       1.955
       1.487
       0.975
       0.452
      -0.044
      -0.483
      -0.835
      -1.056
      -1.092
      -0.907
      -0.513
       0.032
       0.656
       1.294
       1.895
       2.398
       2.743
       2.900
       2.901
       2.810
       2.677
       2.494
       2.211
       1.786
       1.217
       0.540
      -0.209
      -1.013
      -1.865
      -2.737
      -3.570
      -4.282
      -4.790
      -5.036
      -4.998
      -4.711
      -4.256
      -3.741
      -3.251
      -2.819
      -2.419
      -1.997
      -1.513
      -0.964
      -0.393
       0.137
       0.552
       0.781
       0.763
       0.469
      -0.074
      -0.783
      -1.545
      -2.260
      -2.851
      -3.255
      -3.410
      -3.269
      -2.821
      -2.115
      -1.255
      -0.380
       0.371
       0.888
       1.120
       1.086
       0.861
       0.526
       0.125
      -0.349
      -0.912
      -1.553
      -2.216
      -2.828
      -3.330
      -3.698
      -3.931
      -4.036
      -4.008
      -3.826
      -3.459
      -2.882
      -2.101
      -1.161
      -0.142
       0.865
       1.789
       2.600
       3.303
       3.921
       4.457
       4.875
       5.115
       5.110
       4.808
       4.169
       3.171
       1.840
       0.267
      -1.411
      -3.061
      -4.581
      -5.909
      -6.993
      -7.788
      -8.267
      -8.433
      -8.316
      -7.954
      -7.375
      -6.598
      -5.647
      -4.559
      -3.376
      -2.146
      -0.927
       0.210
       1.185
       1.941
       2.462
       2.780
       2.956
       3.049
       3.085
       3.063
       2.984
       2.863
       2.724
       2.583
       2.452
       2.366
       2.401
       2.644
       3.164
       3.979
       5.055
       6.318
       7.684
       9.074
      10.421
      11.651
      12.689
      13.471
      13.944
      14.061
      13.761
      12.992
      11.738
      10.060
       8.103
       6.066
       4.150
       2.494
       1.150
       0.107
      -0.655
      -1.148
      -1.387
      -1.426
      -1.352
      -1.258
      -1.205
      -1.219
      -1.314
      -1.511
      -1.834
      -2.283
      -2.818
      -3.365
      -3.839
      -4.180
      -4.374
      -4.452
      -4.462
      -4.452
      -4.458
      -4.523
      -4.689
      -4.974
      -5.356
      -5.775
      -6.162
      -6.469
      -6.667
      -6.740
      -6.679
      -6.484
      -6.174
      -5.774
      -5.291
      -4.711
      -4.019
      -3.222
      -2.351
      -1.441
      -0.516
       0.390
       1.227
       1.927
       2.424
       2.657
       2.571
       2.133
       1.365
       0.361
      -0.737
      -1.818
      -2.846
      -3.840
      -4.795
      -5.642
      -6.291
      -6.704
      -6.917
      -6.978
      -6.887
      -6.588
      -6.023
      -5.184
      -4.123
      -2.930
      -1.707
      -0.537
       0.520
       1.421
       2.129
       2.612
       2.836
       2.775
       2.413
       1.776
       0.959
       0.118
      -0.575
      -0.993
      -1.088
      -0.890
      -0.464
       0.121
       0.804
       1.505
       2.124
       2.578
       2.859
       3.047
       3.252
       3.553
       3.958
       4.424
       4.869
       5.204
       5.365
       5.346
       5.203
       5.009
       4.811
       4.610
       4.399
       4.206
       4.090
       4.083
       4.137
       4.140
       3.997
       3.706
       3.341
       2.996
       2.726
       2.546
       2.453
       2.448
       2.520
       2.623
       2.676
       2.592
       2.312
       1.829
       1.178
       0.419
      -0.387
      -1.199
      -1.985
      -2.709
      -3.317
      -3.768
      -4.055
      -4.220
      -4.315
      -4.374
      -4.392
      -4.336
      -4.178
      -3.918
      -3.580
      -3.188
      -2.744
      -2.238
      -1.683
      -1.141
      -0.703
      -0.443
      -0.371
      -0.432
      -0.548
      -0.657
      -0.741
      -0.798
      -0.810
      -0.746
      -0.602
      -0.424
      -0.287
      -0.249
      -0.319
      -0.464
      -0.626
      -0.744
      -0.770
      -0.676
      -0.456
      -0.127
       0.276
       0.715
       1.157
       1.566
       1.899
       2.119
       2.222
       2.248
       2.256
       2.287
       2.349
       2.426
       2.501
       2.563
       2.607
       2.619
       2.577
       2.470
       2.304
       2.106
       1.899
       1.691
       1.474
       1.229
       0.937
       0.584
       0.167
      -0.292
      -0.754
      -1.173
      -1.518
      -1.789
      -2.008
      -2.198
      -2.371
      -2.524
      -2.651
      -2.749
      -2.806
      -2.810
      -2.760
      -2.688
      -2.645
      -2.675
      -2.784
      -2.932
      -3.051
      -3.080
      -2.976
      -2.723
      -2.320
      -1.788
      -1.181
      -0.576
      -0.037
       0.407
       0.752
       0.995
       1.115
       1.084
       0.900
       0.593
       0.219
      -0.175
      -0.557
      -0.895
      -1.147
      -1.266
      -1.231
      -1.071
      -0.846
      -0.611
      -0.393
      -0.187
       0.021
       0.246
       0.490
       0.751
       1.021
       1.291
       1.555
       1.804
       2.035
       2.245
       2.429
       2.582
       2.714
       2.847
       2.995
       3.134
       3.216
       3.203
       3.101
       2.948
       2.780
       2.594
       2.355
       2.045
       1.696
       1.379
       1.147
       1.000
       0.900
       0.814
       0.740
       0.688
       0.644
       0.561
       0.383
       0.075
      -0.356
      -0.876
      -1.441
      -2.019
      -2.581
      -3.098
      -3.544
      -3.890
      -4.101
      -4.138
      -3.961
      -3.560
      -2.961
      -2.219
      -1.393
      -0.535
       0.308
       1.099
       1.800
       2.385
       2.832
       3.120
       3.229
       3.145
       2.881
       2.473
       1.961
       1.374
       0.723
       0.034
      -0.639
      -1.219
      -1.641
      -1.886
      -1.982
      -1.979
      -1.903
      -1.736
      -1.444
      -1.025
      -0.521
       0.005
       0.499
       0.927
       1.262
       1.479
       1.559
       1.503
       1.331
       1.084
       0.819
       0.604
       0.487
       0.468
       0.485
       0.456
       0.335
       0.142
      -0.063
      -0.249
      -0.442
      -0.686
      -0.988
      -1.306
      -1.592
      -1.838
      -2.083
      -2.360
      -2.663
      -2.939
      -3.131
      -3.204
      -3.152
      -2.964
      -2.622
      -2.118
      -1.490
      -0.823
      -0.218
       0.245
       0.529
       0.634
       0.591
       0.440
       0.224
      -0.025
      -0.285
      -0.552
      -0.823
      -1.094
      -1.351
      -1.584
      -1.786
      -1.947
      -2.038
      -2.019
      -1.870
      -1.604
      -1.272
      -0.931
      -0.617
      -0.341
      -0.104
       0.090
       0.238
       0.355
       0.469
       0.608
       0.774
       0.951
       1.122
       1.275
       1.396
       1.464
       1.455
       1.368
       1.231
       1.096
       1.006
       0.980
       1.019
       1.120
       1.276
       1.461
       1.615
       1.666
       1.570
       1.338
       1.027
       0.717
       0.480
       0.367
       0.406
       0.601
       0.920
       1.303
       1.669
       1.945
       2.087
       2.081
       1.944
       1.726
       1.508
       1.368
       1.339
       1.387
       1.432
       1.409
       1.303
       1.145
       0.974
       0.806
       0.634
       0.463
       0.320
       0.238
       0.231
