Origin Time       20/06/2011 06:27:18
Lat.              30.5 N	
Long.             79.4 E	
Depth (Km)         12.0
Magnitude         4.6
 Region           Chamoli-Uttarakhand                                              
 Above details taken from IMD 
     
Station Code      CKR
Station Lat.       30.694  N
Station Long.      77.901  E
Station Height(m)    0.0
Site Class        B   Vs30 between 375 m/sec to 700 m/sec *  
Record Time       20.06.2011 06:27:31.574
Sampling Rate     200. Hz
 Record Duration   83.970 Sec.
 Direction         E-W (E positive)
Max. Acceleration      2.520 cm/sec**2
     
  * For reference see Site Classification link of website 
     
 Base Line Corrected and Low Pass Filtered (Cut Off at 35 Hz) Time History
 Acceleration data in cm/sec**2
    
[...]
      -0.270
      -0.263
      -0.259
      -0.257
      -0.252
      -0.238
      -0.216
      -0.190
      -0.165
      -0.146
      -0.140
      -0.146
      -0.152
      -0.142
      -0.108
      -0.046
       0.038
       0.131
       0.210
       0.263
       0.293
       0.311
       0.331
       0.357
       0.388
       0.410
       0.404
       0.363
       0.303
       0.244
       0.193
       0.139
       0.076
       0.007
      -0.065
      -0.136
      -0.195
      -0.232
      -0.245
      -0.242
      -0.234
      -0.231
      -0.239
      -0.252
      -0.254
      -0.230
      -0.181
      -0.125
      -0.080
      -0.054
      -0.045
      -0.041
      -0.028
       0.008
       0.062
       0.116
       0.146
       0.137
       0.099
       0.058
       0.038
       0.042
       0.050
       0.042
       0.015
      -0.022
      -0.059
      -0.085
      -0.093
      -0.085
      -0.075
      -0.080
      -0.105
      -0.146
      -0.193
      -0.233
      -0.252
      -0.244
      -0.220
      -0.197
      -0.180
      -0.163
      -0.138
      -0.096
      -0.032
       0.044
       0.104
       0.120
       0.089
       0.042
       0.015
       0.022
       0.058
       0.104
       0.143
       0.166
       0.176
       0.185
       0.205
       0.237
       0.273
       0.298
       0.298
       0.266
       0.215
       0.167
       0.140
       0.138
       0.153
       0.168
       0.165
       0.141
       0.110
       0.089
       0.083
       0.087
       0.086
       0.067
       0.024
      -0.026
      -0.058
      -0.055
      -0.028
       0.000
       0.022
       0.042
       0.063
       0.081
       0.091
       0.092
       0.078
       0.039
      -0.026
      -0.108
      -0.190
      -0.253
      -0.282
      -0.272
      -0.230
      -0.176
      -0.130
      -0.104
      -0.101
      -0.114
      -0.129
      -0.138
      -0.149
      -0.181
      -0.249
      -0.347
      -0.452
      -0.532
      -0.565
      -0.549
      -0.499
      -0.427
      -0.337
      -0.232
      -0.123
      -0.019
       0.077
       0.163
       0.235
       0.286
       0.319
       0.341
       0.358
       0.373
       0.391
       0.414
       0.436
       0.448
       0.451
       0.454
       0.464
       0.483
       0.511
       0.536
       0.539
       0.505
       0.445
       0.392
       0.374
       0.394
       0.437
       0.480
       0.508
       0.514
       0.500
       0.472
       0.428
       0.371
       0.300
       0.218
       0.124
       0.023
      -0.078
      -0.171
      -0.249
      -0.310
      -0.352
      -0.384
      -0.419
      -0.464
      -0.511
      -0.548
      -0.570
      -0.580
      -0.587
      -0.608
      -0.652
      -0.708
      -0.753
      -0.771
      -0.771
      -0.769
      -0.769
      -0.762
      -0.739
      -0.699
      -0.636
      -0.544
      -0.426
      -0.296
      -0.171
      -0.063
       0.028
       0.115
       0.214
       0.333
       0.466
       0.590
       0.682
       0.733
       0.745
       0.731
       0.712
       0.700
       0.689
       0.657
       0.589
       0.487
       0.370
       0.263
       0.177
       0.103
       0.026
      -0.060
      -0.143
      -0.211
      -0.263
      -0.306
      -0.351
      -0.411
      -0.495
      -0.607
      -0.734
      -0.856
      -0.954
      -1.015
      -1.031
      -1.007
      -0.966
      -0.928
      -0.892
      -0.839
      -0.749
      -0.615
      -0.446
      -0.269
      -0.120
      -0.015
       0.068
       0.167
       0.308
       0.480
       0.656
       0.810
       0.934
       1.033
       1.113
       1.178
       1.226
       1.255
       1.261
       1.243
       1.194
       1.111
       1.002
       0.876
       0.748
       0.630
       0.529
       0.442
       0.357
       0.269
       0.189
       0.128
       0.090
       0.065
       0.034
      -0.026
      -0.121
      -0.232
      -0.319
      -0.360
      -0.369
      -0.377
      -0.402
      -0.440
      -0.483
      -0.527
      -0.568
      -0.605
      -0.641
      -0.682
      -0.725
      -0.764
      -0.793
      -0.802
      -0.777
      -0.707
      -0.593
      -0.454
      -0.314
      -0.197
      -0.112
      -0.055
      -0.002
       0.067
       0.151
       0.230
       0.279
       0.293
       0.292
       0.306
       0.350
       0.407
       0.448
       0.458
       0.441
       0.409
       0.367
       0.312
       0.242
       0.159
       0.062
      -0.045
      -0.149
      -0.242
      -0.320
      -0.379
      -0.411
      -0.414
      -0.399
      -0.384
      -0.372
      -0.358
      -0.327
      -0.267
      -0.173
      -0.058
       0.053
       0.134
       0.188
       0.245
       0.328
       0.442
       0.573
       0.702
       0.821
       0.925
       1.016
       1.094
       1.153
       1.182
       1.173
       1.119
       1.020
       0.884
       0.728
       0.571
       0.425
       0.293
       0.171
       0.050
      -0.080
      -0.219
      -0.354
      -0.475
      -0.580
      -0.674
      -0.765
      -0.863
      -0.977
      -1.095
      -1.184
      -1.222
      -1.210
      -1.172
      -1.129
      -1.093
      -1.068
      -1.050
      -1.024
      -0.972
      -0.889
      -0.785
      -0.676
      -0.572
      -0.473
      -0.368
      -0.240
      -0.086
       0.082
       0.239
       0.364
       0.447
       0.493
       0.512
       0.518
       0.517
       0.503
       0.461
       0.386
       0.286
       0.186
       0.113
       0.076
       0.063
       0.054
       0.037
       0.022
       0.014
       0.015
       0.014
       0.005
      -0.019
      -0.068
      -0.140
      -0.224
      -0.298
      -0.344
      -0.347
      -0.299
      -0.207
      -0.092
       0.020
       0.121
       0.211
       0.297
       0.382
       0.469
       0.549
       0.608
       0.639
       0.661
       0.702
       0.776
       0.872
       0.966
       1.041
       1.093
       1.121
       1.129
       1.116
       1.081
       1.019
       0.929
       0.809
       0.662
       0.500
       0.339
       0.186
       0.037
      -0.111
      -0.260
      -0.408
      -0.555
      -0.695
      -0.815
      -0.902
      -0.949
      -0.955
      -0.931
      -0.896
      -0.866
      -0.837
      -0.787
      -0.707
      -0.609
      -0.517
      -0.439
      -0.367
      -0.294
      -0.215
      -0.131
      -0.046
       0.027
       0.072
       0.085
       0.068
       0.029
      -0.020
      -0.068
      -0.111
      -0.152
      -0.203
      -0.269
      -0.350
      -0.436
      -0.509
      -0.549
      -0.548
      -0.519
      -0.486
      -0.467
      -0.454
      -0.418
      -0.326
      -0.169
       0.034
       0.254
       0.470
       0.682
       0.888
       1.078
       1.240
       1.370
       1.467
       1.525
       1.540
       1.512
       1.445
       1.345
       1.217
       1.070
       0.902
       0.702
       0.460
       0.189
      -0.087
      -0.344
      -0.564
      -0.739
      -0.882
      -1.014
      -1.156
      -1.298
      -1.414
      -1.485
      -1.511
      -1.512
      -1.505
      -1.492
      -1.465
      -1.410
      -1.323
      -1.214
      -1.093
      -0.961
      -0.816
      -0.652
      -0.465
      -0.249
      -0.007
       0.257
       0.534
       0.811
       1.070
       1.290
       1.463
       1.597
       1.700
       1.775
       1.813
       1.802
       1.726
       1.583
       1.390
       1.182
       0.980
       0.783
       0.577
       0.354
       0.116
      -0.134
      -0.394
      -0.653
      -0.900
      -1.129
      -1.341
      -1.538
      -1.715
      -1.865
      -1.976
      -2.034
      -2.026
      -1.951
      -1.817
      -1.640
      -1.431
      -1.194
      -0.924
      -0.610
      -0.252
       0.129
       0.502
       0.838
       1.133
       1.401
       1.659
       1.905
       2.116
       2.256
       2.305
       2.268
       2.158
       1.992
       1.785
       1.554
       1.306
       1.039
       0.756
       0.468
       0.192
      -0.060
      -0.279
      -0.458
      -0.602
      -0.725
      -0.844
      -0.960
      -1.054
      -1.103
      -1.086
      -1.001
      -0.870
      -0.730
      -0.601
      -0.469
      -0.303
      -0.089
       0.160
       0.417
       0.660
       0.880
       1.073
       1.237
       1.364
       1.439
       1.450
       1.389
       1.258
       1.064
       0.827
       0.576
       0.328
       0.086
      -0.165
      -0.438
      -0.735
      -1.049
      -1.357
      -1.631
      -1.849
      -2.016
      -2.149
      -2.264
      -2.353
      -2.394
      -2.356
      -2.227
      -2.017
      -1.749
      -1.440
      -1.095
      -0.718
      -0.318
       0.092
       0.498
       0.881
       1.220
       1.497
       1.706
       1.847
       1.921
       1.931
       1.876
       1.746
       1.531
       1.236
       0.893
       0.540
       0.204
      -0.104
      -0.386
      -0.650
      -0.897
      -1.109
      -1.254
      -1.313
      -1.294
      -1.220
      -1.106
      -0.958
      -0.789
      -0.608
      -0.423
      -0.230
      -0.029
       0.176
       0.376
       0.564
       0.732
       0.890
       1.055
       1.237
       1.431
       1.611
       1.750
       1.831
       1.851
       1.822
       1.755
       1.649
       1.485
       1.242
       0.908
       0.495
       0.041
      -0.407
      -0.814
      -1.174
      -1.503
      -1.802
      -2.051
      -2.223
      -2.308
      -2.305
      -2.220
      -2.060
      -1.836
      -1.558
      -1.229
      -0.857
      -0.452
      -0.030
       0.398
       0.815
       1.191
       1.497
       1.723
       1.874
       1.963
       1.996
       1.977
       1.891
       1.719
       1.453
       1.114
       0.741
       0.376
       0.037
      -0.273
      -0.563
      -0.837
      -1.088
      -1.295
      -1.437
      -1.507
      -1.511
      -1.470
      -1.411
      -1.348
      -1.279
      -1.192
      -1.072
      -0.916
      -0.721
      -0.493
      -0.252
      -0.028
       0.161
       0.312
       0.438
       0.552
       0.660
       0.755
       0.819
       0.840
       0.830
       0.822
       0.838
       0.870
       0.891
       0.881
       0.830
       0.735
       0.597
       0.431
       0.247
       0.050
      -0.164
      -0.399
      -0.650
      -0.904
      -1.138
      -1.324
      -1.445
      -1.504
      -1.515
      -1.490
      -1.422
      -1.300
      -1.119
      -0.888
      -0.635
      -0.382
      -0.144
       0.074
       0.270
       0.449
       0.625
       0.806
       0.984
       1.148
       1.298
       1.436
       1.550
       1.628
       1.676
       1.721
       1.775
       1.827
       1.850
       1.830
       1.765
       1.665
       1.541
       1.402
       1.245
       1.053
       0.808
       0.510
       0.182
      -0.146
      -0.441
      -0.689
      -0.897
      -1.086
      -1.268
      -1.427
      -1.542
      -1.602
      -1.611
      -1.578
      -1.507
      -1.396
      -1.247
      -1.064
      -0.863
      -0.661
      -0.464
      -0.272
      -0.083
       0.097
       0.269
       0.443
       0.628
       0.825
       1.020
       1.187
       1.297
       1.331
       1.292
       1.193
       1.047
       0.860
       0.634
       0.369
       0.063
      -0.275
      -0.617
      -0.930
      -1.200
      -1.435
      -1.648
      -1.835
      -1.994
      -2.131
      -2.255
      -2.355
      -2.403
      -2.375
      -2.274
      -2.116
      -1.916
      -1.666
      -1.342
      -0.920
      -0.418
       0.113
       0.614
       1.051
       1.409
       1.685
       1.882
       2.013
       2.088
       2.102
       2.044
       1.906
       1.702
       1.464
       1.226
       1.000
       0.780
       0.555
       0.330
       0.129
      -0.021
      -0.108
      -0.140
      -0.136
      -0.118
      -0.101
      -0.082
      -0.053
      -0.011
       0.041
       0.104
       0.189
       0.303
       0.435
       0.564
       0.677
       0.768
       0.835
       0.872
       0.865
       0.790
       0.633
       0.408
       0.159
      -0.075
      -0.289
      -0.503
      -0.737
      -0.985
      -1.230
      -1.447
      -1.623
      -1.748
      -1.822
      -1.846
      -1.826
      -1.768
      -1.676
      -1.549
      -1.380
      -1.168
      -0.925
      -0.669
      -0.418
      -0.193
       0.000
       0.170
       0.336
       0.509
       0.679
       0.822
       0.922
       0.978
       1.012
       1.055
       1.125
       1.212
       1.279
       1.302
       1.282
       1.234
       1.168
       1.090
       1.005
       0.907
       0.783
       0.627
       0.460
       0.311
       0.199
       0.118
       0.058
       0.010
      -0.025
      -0.048
      -0.064
      -0.084
      -0.116
      -0.151
      -0.176
      -0.194
      -0.230
      -0.312
      -0.437
      -0.574
      -0.690
      -0.768
      -0.817
      -0.854
      -0.886
      -0.910
      -0.921
      -0.919
      -0.904
      -0.871
      -0.810
      -0.722
      -0.612
      -0.483
      -0.329
      -0.140
       0.087
       0.354
       0.655
       0.973
       1.285
       1.572
       1.832
       2.066
       2.269
       2.427
       2.518
       2.520
       2.425
       2.252
       2.037
       1.802
       1.542
       1.239
       0.887
       0.496
       0.083
      -0.330
      -0.724
      -1.081
      -1.398
      -1.675
      -1.906
      -2.084
      -2.199
      -2.238
      -2.191
      -2.063
      -1.878
      -1.672
      -1.479
      -1.316
      -1.187
      -1.080
      -0.983
      -0.889
      -0.807
      -0.749
      -0.725
      -0.728
      -0.736
      -0.723
      -0.671
      -0.586
      -0.491
      -0.399
      -0.309
      -0.225
      -0.158
      -0.117
      -0.098
      -0.100
      -0.125
      -0.177
      -0.245
      -0.305
      -0.335
      -0.317
      -0.251
      -0.149
      -0.033
       0.085
       0.216
       0.372
       0.561
       0.779
       1.010
       1.227
       1.396
       1.505
       1.568
       1.613
       1.653
       1.676
       1.655
       1.573
       1.432
       1.246
       1.038
       0.824
       0.613
       0.410
       0.220
       0.048
      -0.103
      -0.225
      -0.312
      -0.361
      -0.372
      -0.345
      -0.292
      -0.236
      -0.209
      -0.223
      -0.265
      -0.314
      -0.351
      -0.373
      -0.388
      -0.408
      -0.441
      -0.472
      -0.472
      -0.425
      -0.343
      -0.247
      -0.153
      -0.071
      -0.006
       0.034
       0.045
       0.022
      -0.042
      -0.146
      -0.276
      -0.414
      -0.539
      -0.636
      -0.691
      -0.699
      -0.663
      -0.594
      -0.501
      -0.389
      -0.264
      -0.124
       0.036
       0.217
       0.406
       0.576
       0.701
       0.770
       0.790
       0.778
       0.746
       0.686
       0.586
       0.445
       0.277
       0.100
      -0.073
      -0.227
      -0.358
      -0.472
      -0.582
      -0.690
      -0.780
      -0.831
      -0.833
      -0.788
      -0.705
      -0.603
      -0.499
      -0.401
      -0.299
      -0.182
      -0.041
       0.122
       0.300
       0.472
       0.608
       0.690
       0.727
       0.744
       0.750
       0.735
       0.676
       0.559
       0.388
       0.185
      -0.023
      -0.219
      -0.397
      -0.556
      -0.692
      -0.797
      -0.867
      -0.894
      -0.871
      -0.787
      -0.638
      -0.424
      -0.154
       0.152
       0.468
       0.781
       1.087
       1.383
       1.661
       1.900
       2.070
       2.147
       2.125
       2.031
       1.895
       1.728
       1.509
       1.224
       0.884
       0.526
       0.185
      -0.113
      -0.359
      -0.563
      -0.748
      -0.930
      -1.102
      -1.252
      -1.367
      -1.449
      -1.503
      -1.533
      -1.547
      -1.545
      -1.517
      -1.447
      -1.315
      -1.109
      -0.829
      -0.504
      -0.182
       0.092
       0.302
       0.463
       0.602
       0.732
       0.836
       0.883
       0.858
       0.772
       0.653
       0.519
       0.370
       0.197
      -0.006
      -0.238
      -0.489
      -0.734
      -0.943
      -1.094
      -1.177
      -1.192
      -1.145
      -1.052
      -0.939
      -0.819
      -0.691
      -0.548
      -0.388
      -0.215
      -0.040
       0.116
       0.237
       0.327
       0.416
       0.522
       0.637
       0.731
       0.781
       0.783
       0.745
       0.681
       0.603
       0.518
       0.424
       0.321
       0.210
       0.087
      -0.047
      -0.187
      -0.322
      -0.440
      -0.535
      -0.610
      -0.675
      -0.748
      -0.831
      -0.907
      -0.944
      -0.926
      -0.861
      -0.776
      -0.693
      -0.615
      -0.519
      -0.370
      -0.152
       0.115
       0.391
       0.645
       0.876
       1.091
       1.297
       1.489
       1.657
       1.782
       1.849
       1.860
       1.828
       1.772
       1.696
       1.601
       1.489
       1.358
       1.200
       1.007
       0.782
       0.535
       0.281
       0.035
      -0.188
      -0.387
      -0.582
      -0.786
      -0.995
      -1.179
      -1.306
      -1.366
      -1.376
      -1.363
      -1.340
      -1.306
      -1.253
      -1.181
      -1.096
      -1.005
      -0.911
      -0.824
      -0.754
      -0.705
      -0.668
      -0.628
      -0.569
      -0.482
      -0.363
      -0.231
      -0.106
       0.002
       0.105
       0.221
       0.364
       0.532
       0.711
       0.874
       0.999
       1.086
       1.152
       1.201
       1.214
       1.163
       1.036
       0.843
       0.603
       0.334
       0.054
      -0.228
      -0.510
      -0.795
      -1.078
      -1.352
      -1.597
      -1.787
      -1.894
      -1.908
      -1.839
      -1.714
      -1.560
      -1.396
      -1.226
      -1.048
      -0.857
      -0.657
      -0.466
      -0.299
      -0.170
      -0.072
       0.017
       0.128
       0.277
       0.453
       0.632
       0.799
       0.950
       1.083
       1.196
       1.293
       1.386
       1.478
       1.556
       1.605
       1.618
       1.595
       1.540
       1.457
       1.354
       1.230
       1.078
       0.898
       0.702
       0.508
       0.332
       0.183
       0.059
      -0.054
      -0.175
      -0.309
      -0.438
      -0.535
      -0.587
      -0.606
      -0.611
      -0.621
      -0.639
      -0.654
      -0.657
      -0.647
      -0.631
      -0.615
      -0.599
      -0.582
      -0.561
      -0.531
      -0.481
      -0.406
      -0.301
      -0.171
      -0.029
       0.100
       0.195
       0.254
       0.289
       0.305
       0.304
       0.281
       0.233
       0.152
       0.040
      -0.083
      -0.183
      -0.241
      -0.263
      -0.264
      -0.252
      -0.222
      -0.171
      -0.099
      -0.009
       0.088
       0.172
       0.226
       0.244
