Origin Time       31/1/2009 03:07:15 
Lat.              32.5 N 
Long.             75.9 E 
Depth (Km)         10.0
Magnitude         3.7
 Region           HIMACHAL-PRADESH                                                 
 Above details taken from IMD 
   
Station Code      CHA
Station Lat.       32.555
Station Long.      76.126
Station Height(m)  943.0
Site Class        A   Vs30 between 700 m/sec to 1400 m/sec * 
Record Time       31.01.2009 03:07:11.784
Sampling Rate     200. Hz
 Record Duration   65.130 Sec.
 Direction         Vert. (Up positive)
Max. Acceleration      3.814 cm/sec**2
     
  * For reference see Site Classification link of website 
     
 Base Line Corrected and Low Pass Filtered (Cut Off at 35 Hz) Time History
 Acceleration data in cm/sec**2
    
[...]
       0.028
       0.164
       0.269
       0.303
       0.222
       0.029
      -0.201
      -0.346
      -0.324
      -0.150
       0.086
       0.282
       0.381
       0.369
       0.248
       0.040
      -0.205
      -0.393
      -0.425
      -0.255
       0.059
       0.364
       0.489
       0.341
      -0.011
      -0.358
      -0.465
      -0.246
       0.149
       0.431
       0.394
       0.083
      -0.252
      -0.369
      -0.216
       0.066
       0.273
       0.282
       0.109
      -0.110
      -0.216
      -0.143
       0.030
       0.138
       0.072
      -0.116
      -0.256
      -0.199
       0.047
       0.306
       0.354
       0.101
      -0.293
      -0.510
      -0.335
       0.122
       0.494
       0.473
       0.078
      -0.387
      -0.621
      -0.542
      -0.268
       0.034
       0.252
       0.341
       0.314
       0.237
       0.182
       0.141
       0.024
      -0.212
      -0.452
      -0.509
      -0.329
      -0.073
       0.052
      -0.001
      -0.117
      -0.179
      -0.165
      -0.100
       0.015
       0.180
       0.341
       0.423
       0.425
       0.437
       0.547
       0.734
       0.833
       0.629
       0.018
      -0.840
      -1.530
      -1.628
      -1.059
      -0.217
       0.353
       0.435
       0.281
       0.274
       0.499
       0.690
       0.551
       0.074
      -0.437
      -0.612
      -0.299
       0.306
       0.769
       0.704
       0.051
      -0.852
      -1.473
      -1.419
      -0.691
       0.319
       1.101
       1.344
       1.101
       0.699
       0.468
       0.450
       0.364
      -0.106
      -0.924
      -1.626
      -1.673
      -0.905
       0.284
       1.229
       1.459
       0.994
       0.237
      -0.387
      -0.726
      -0.884
      -0.982
      -0.961
      -0.631
       0.101
       1.049
       1.818
       2.045
       1.592
       0.570
      -0.721
      -1.857
      -2.417
      -2.174
      -1.225
       0.055
       1.209
       1.900
       2.026
       1.686
       1.024
       0.150
      -0.779
      -1.468
      -1.592
      -1.048
      -0.082
       0.830
       1.243
       0.989
       0.282
      -0.438
      -0.853
      -0.985
      -1.053
      -1.132
      -1.026
      -0.527
       0.267
       0.986
       1.346
       1.381
       1.278
       1.031
       0.402
      -0.708
      -1.916
      -2.505
      -1.995
      -0.575
       1.033
       2.089
       2.254
       1.639
       0.596
      -0.461
      -1.131
      -1.150
      -0.593
       0.094
       0.419
       0.274
       0.035
       0.172
       0.744
       1.295
       1.218
       0.286
      -1.100
      -2.148
      -2.247
      -1.435
      -0.380
       0.164
      -0.010
      -0.415
      -0.353
       0.429
       1.519
       2.197
       1.967
       0.849
      -0.634
      -1.701
      -1.730
      -0.712
       0.635
       1.341
       0.938
      -0.172
      -1.105
      -1.240
      -0.638
       0.181
       0.752
       0.953
       0.905
       0.756
       0.565
       0.303
      -0.091
      -0.605
      -1.064
      -1.187
      -0.827
      -0.165
       0.402
       0.575
       0.314
      -0.244
      -0.841
      -1.072
      -0.544
       0.699
       1.949
       2.269
       1.324
      -0.247
      -1.375
      -1.448
      -0.700
       0.147
       0.495
       0.226
      -0.327
      -0.660
      -0.433
       0.282
       1.042
       1.366
       1.105
       0.498
      -0.127
      -0.641
      -1.069
      -1.399
      -1.542
      -1.448
      -1.156
      -0.694
      -0.033
       0.805
       1.639
       2.172
       2.176
       1.632
       0.730
      -0.239
      -0.997
      -1.394
      -1.467
      -1.373
      -1.201
      -0.903
      -0.439
       0.028
       0.239
       0.174
       0.166
       0.551
       1.226
       1.703
       1.594
       0.966
       0.236
      -0.184
      -0.143
       0.178
       0.354
      -0.037
      -1.031
      -2.105
      -2.491
      -1.818
      -0.431
       0.899
       1.583
       1.568
       1.204
       0.839
       0.510
       0.029
      -0.651
      -1.208
      -1.197
      -0.537
       0.303
       0.676
       0.331
      -0.375
      -0.807
      -0.599
       0.104
       0.844
       1.222
       1.080
       0.470
      -0.395
      -1.136
      -1.313
      -0.732
       0.309
       1.172
       1.367
       0.930
       0.318
      -0.039
      -0.073
      -0.016
      -0.100
      -0.370
      -0.692
      -0.841
      -0.648
      -0.190
       0.144
      -0.059
      -0.788
      -1.515
      -1.618
      -0.877
       0.423
       1.756
       2.629
       2.751
       2.127
       1.049
      -0.079
      -0.997
      -1.663
      -2.090
      -2.180
      -1.786
      -0.930
       0.106
       0.948
       1.401
       1.536
       1.521
       1.370
       0.913
       0.019
      -1.134
      -2.027
      -2.099
      -1.171
       0.332
       1.576
       1.846
       1.045
      -0.233
      -1.151
      -1.257
      -0.754
      -0.201
       0.027
      -0.006
       0.017
       0.279
       0.623
       0.702
       0.323
      -0.333
      -0.829
      -0.829
      -0.377
       0.156
       0.392
       0.258
       0.023
       0.046
       0.442
       0.945
       1.080
       0.551
      -0.480
      -1.479
      -1.909
      -1.541
      -0.524
       0.722
       1.669
       1.913
       1.417
       0.538
      -0.235
      -0.622
      -0.676
      -0.622
      -0.634
      -0.720
      -0.736
      -0.507
       0.013
       0.640
       1.041
       0.968
       0.464
      -0.175
      -0.631
      -0.751
      -0.538
      -0.086
       0.428
       0.763
       0.754
       0.455
       0.078
      -0.217
      -0.418
      -0.541
      -0.495
      -0.197
       0.219
       0.421
       0.198
      -0.268
      -0.503
      -0.142
       0.746
       1.658
       1.965
       1.319
      -0.074
      -1.518
      -2.244
      -1.905
      -0.798
       0.374
       0.975
       0.788
       0.066
      -0.664
      -0.887
      -0.410
       0.459
       1.057
       0.875
       0.014
      -0.857
      -1.063
      -0.469
       0.451
       1.007
       0.789
      -0.044
      -0.879
      -1.125
      -0.686
      -0.029
       0.274
       0.095
      -0.157
       0.020
       0.680
       1.321
       1.337
       0.604
      -0.366
      -0.873
      -0.634
       0.007
       0.449
       0.363
      -0.110
      -0.579
      -0.747
      -0.598
      -0.338
      -0.172
      -0.105
       0.036
       0.373
       0.797
       1.040
       0.921
       0.503
       0.044
      -0.207
      -0.200
      -0.123
      -0.218
      -0.543
      -0.900
      -1.028
      -0.857
      -0.548
      -0.311
      -0.188
      -0.038
       0.301
       0.815
       1.274
       1.390
       1.034
       0.350
      -0.337
      -0.735
      -0.741
      -0.468
      -0.150
       0.024
       0.040
       0.052
       0.208
       0.446
       0.505
       0.168
      -0.465
      -0.989
      -0.990
      -0.353
       0.651
       1.505
       1.696
       0.997
      -0.303
      -1.463
      -1.768
      -1.085
       0.002
       0.649
       0.420
      -0.414
      -1.125
      -1.094
      -0.266
       0.784
       1.247
       0.742
      -0.309
      -0.960
      -0.563
       0.624
       1.622
       1.601
       0.611
      -0.494
      -0.849
      -0.316
       0.465
       0.659
      -0.059
      -1.242
      -2.000
      -1.679
      -0.360
       1.206
       2.163
       2.094
       1.192
       0.031
      -0.789
      -0.956
      -0.612
      -0.227
      -0.203
      -0.529
      -0.829
      -0.761
      -0.318
       0.240
       0.658
       0.846
       0.813
       0.561
       0.095
      -0.456
      -0.816
      -0.731
      -0.203
       0.461
       0.850
       0.720
       0.153
      -0.498
      -0.826
      -0.660
      -0.180
       0.270
       0.488
       0.517
       0.464
       0.325
       0.047
      -0.329
      -0.671
      -0.887
      -0.967
      -0.898
      -0.611
      -0.064
       0.674
       1.436
       2.025
       2.242
       1.925
       1.076
      -0.038
      -1.005
      -1.520
      -1.551
      -1.267
      -0.861
      -0.463
      -0.153
       0.026
       0.091
       0.101
       0.082
       0.009
      -0.105
      -0.134
       0.065
       0.453
       0.757
       0.659
       0.062
      -0.790
      -1.455
      -1.561
      -1.044
      -0.180
       0.596
       0.976
       0.939
       0.696
       0.489
       0.431
       0.495
       0.561
       0.478
       0.141
      -0.393
      -0.851
      -0.895
      -0.397
       0.394
       0.985
       0.975
       0.334
      -0.571
      -1.212
      -1.247
      -0.723
      -0.011
       0.489
       0.629
       0.559
       0.511
       0.531
       0.431
       0.011
      -0.658
      -1.211
      -1.289
      -0.848
      -0.179
       0.363
       0.611
       0.615
       0.513
       0.416
       0.350
       0.258
       0.067
      -0.180
      -0.259
       0.064
       0.753
       1.423
       1.623
       1.209
       0.443
      -0.248
      -0.590
      -0.605
      -0.525
      -0.571
      -0.757
      -0.864
      -0.662
      -0.193
       0.167
       0.011
      -0.719
      -1.629
      -2.158
      -1.966
      -1.135
      -0.095
       0.645
       0.788
       0.417
      -0.070
      -0.236
       0.057
       0.504
       0.587
       0.056
      -0.783
      -1.253
      -0.838
       0.416
       1.943
       3.008
       3.097
       2.155
       0.603
      -0.898
      -1.834
      -2.068
      -1.751
      -1.080
      -0.218
       0.618
       1.152
       1.229
       0.928
       0.447
      -0.068
      -0.525
      -0.796
      -0.772
      -0.497
      -0.154
       0.111
       0.303
       0.500
       0.740
       0.971
       1.074
       0.892
       0.326
      -0.520
      -1.273
      -1.473
      -0.907
       0.205
       1.340
       2.038
       2.172
       1.927
       1.541
       1.092
       0.519
      -0.179
      -0.839
      -1.234
      -1.269
      -1.057
      -0.816
      -0.733
      -0.869
      -1.133
      -1.313
      -1.208
      -0.811
      -0.347
      -0.119
      -0.273
      -0.671
      -0.950
      -0.777
      -0.143
       0.545
       0.761
       0.321
      -0.438
      -0.962
      -0.982
      -0.703
      -0.538
      -0.645
      -0.756
      -0.442
       0.441
       1.538
       2.215
       2.065
       1.270
       0.487
       0.315
       0.811
       1.491
       1.767
       1.402
       0.598
      -0.266
      -0.930
      -1.341
      -1.536
      -1.529
      -1.285
      -0.767
       0.010
       0.944
       1.823
       2.378
       2.441
       2.090
       1.596
       1.182
       0.801
       0.192
      -0.811
      -1.998
      -2.843
      -2.889
      -2.133
      -1.045
      -0.181
       0.246
       0.428
       0.638
       0.862
       0.773
       0.093
      -1.000
      -1.857
      -1.811
      -0.730
       0.815
       1.923
       1.971
       0.982
      -0.463
      -1.647
      -2.121
      -1.861
      -1.158
      -0.393
       0.187
       0.543
       0.777
       0.941
       0.936
       0.629
       0.085
      -0.383
      -0.474
      -0.214
       0.044
      -0.041
      -0.462
      -0.847
      -0.768
      -0.116
       0.712
       0.986
       0.202
      -1.382
      -2.771
      -2.974
      -1.811
      -0.051
       1.248
       1.551
       1.137
       0.733
       0.871
       1.511
       2.153
       2.300
       1.838
       1.052
       0.365
       0.077
       0.294
       0.946
       1.778
       2.361
       2.279
       1.416
       0.109
      -1.028
      -1.509
      -1.296
      -0.778
      -0.451
      -0.558
      -0.963
      -1.292
      -1.199
      -0.568
       0.389
       1.193
       1.320
       0.533
      -0.882
      -2.191
      -2.667
      -2.116
      -1.029
      -0.198
      -0.100
      -0.585
      -1.097
      -1.152
      -0.669
       0.039
       0.509
       0.433
      -0.104
      -0.622
      -0.578
       0.153
       1.076
       1.423
       0.797
      -0.438
      -1.367
      -1.172
       0.237
       2.095
       3.278
       3.121
       1.898
       0.569
      -0.017
       0.280
       0.938
       1.311
       1.063
       0.222
      -0.976
      -2.172
      -2.929
      -2.871
      -1.940
      -0.538
       0.634
       0.998
       0.491
      -0.389
      -0.935
      -0.725
       0.099
       0.991
       1.443
       1.326
       0.866
       0.353
      -0.110
      -0.606
      -1.206
      -1.775
      -1.990
      -1.578
      -0.558
       0.731
       1.870
       2.599
       2.829
       2.493
       1.518
       0.019
      -1.569
      -2.657
      -2.870
      -2.288
      -1.334
      -0.453
       0.164
       0.594
       0.975
       1.297
       1.389
       1.086
       0.419
      -0.343
      -0.845
      -0.857
      -0.417
       0.174
       0.489
       0.213
      -0.622
      -1.579
      -2.068
      -1.769
      -0.904
      -0.059
       0.324
       0.302
       0.320
       0.741
       1.444
       1.872
       1.461
       0.155
      -1.444
      -2.386
      -1.980
      -0.255
       1.997
       3.636
       3.814
       2.475
       0.415
      -1.212
      -1.630
      -0.889
       0.273
       0.972
       0.739
      -0.259
      -1.404
      -2.073
      -2.020
      -1.406
      -0.553
       0.284
       0.950
       1.358
       1.512
       1.526
       1.514
       1.450
       1.158
       0.466
      -0.617
      -1.843
      -2.813
      -3.177
      -2.827
      -1.938
      -0.829
       0.225
       1.065
       1.593
       1.747
       1.552
       1.160
       0.785
       0.553
       0.418
       0.217
      -0.160
      -0.644
      -0.995
      -0.934
      -0.325
       0.702
       1.739
       2.232
       1.762
       0.326
      -1.570
      -3.147
      -3.797
      -3.403
      -2.289
      -0.912
       0.389
       1.411
       1.997
       2.030
       1.566
       0.900
       0.424
       0.333
       0.484
       0.565
       0.447
       0.340
       0.565
       1.164
       1.756
       1.821
       1.123
      -0.104
      -1.307
      -1.921
      -1.661
      -0.693
       0.425
       1.070
       0.954
       0.310
      -0.312
      -0.460
      -0.107
       0.370
       0.494
       0.065
      -0.694
      -1.315
      -1.453
      -1.133
      -0.681
      -0.416
      -0.416
      -0.518
      -0.511
      -0.305
       0.019
       0.262
       0.235
      -0.096
      -0.528
      -0.704
      -0.372
       0.390
       1.193
       1.598
       1.430
       0.873
       0.315
       0.067
       0.157
       0.338
       0.276
      -0.187
      -0.891
      -1.464
      -1.580
      -1.197
      -0.598
      -0.206
      -0.283
      -0.715
      -1.073
      -0.937
      -0.234
       0.713
       1.466
       1.796
       1.772
       1.571
       1.264
       0.795
       0.148
      -0.513
      -0.919
      -0.919
      -0.622
      -0.325
      -0.291
      -0.589
      -1.061
      -1.404
      -1.308
      -0.606
       0.616
       2.021
       3.136
       3.531
       2.998
       1.684
       0.071
      -1.234
      -1.834
      -1.755
      -1.354
      -1.008
      -0.854
      -0.790
      -0.678
      -0.497
      -0.323
      -0.233
      -0.237
      -0.291
      -0.300
      -0.132
       0.310
       0.966
       1.555
       1.698
       1.189
       0.218
      -0.680
      -0.968
      -0.496
       0.388
       1.105
       1.244
       0.777
      -0.013
      -0.745
      -1.117
      -1.012
      -0.563
      -0.129
      -0.109
      -0.636
      -1.414
      -1.887
      -1.682
      -0.950
      -0.274
      -0.188
      -0.696
      -1.252
      -1.219
      -0.408
       0.775
       1.665
       1.841
       1.370
       0.664
       0.114
      -0.152
      -0.236
      -0.256
      -0.209
      -0.005
       0.392
       0.895
       1.314
       1.443
       1.177
       0.610
       0.021
      -0.276
      -0.130
       0.361
       0.907
       1.193
       1.039
       0.506
      -0.110
      -0.440
      -0.279
       0.237
       0.687
       0.651
       0.040
      -0.820
      -1.424
      -1.463
      -1.021
      -0.440
      -0.013
       0.216
       0.369
       0.503
       0.480
       0.073
      -0.768
      -1.742
      -2.298
      -1.981
      -0.795
       0.730
       1.838
       1.996
       1.189
      -0.103
      -1.200
      -1.612
      -1.288
      -0.586
       0.025
       0.287
       0.261
       0.173
       0.188
       0.299
       0.397
       0.418
       0.394
       0.409
       0.488
       0.549
       0.440
       0.088
      -0.380
      -0.657
      -0.488
       0.081
       0.673
       0.846
       0.431
      -0.325
      -0.926
      -0.983
      -0.482
       0.225
       0.694
       0.716
       0.425
       0.110
      -0.068
      -0.163
      -0.301
      -0.500
      -0.648
      -0.618
      -0.382
      -0.022
       0.319
       0.500
       0.447
       0.196
      -0.104
      -0.283
      -0.278
      -0.200
      -0.243
      -0.493
      -0.798
      -0.835
      -0.358
       0.554
       1.469
       1.860
       1.473
       0.519
      -0.456
      -0.949
      -0.815
      -0.309
       0.146
       0.275
       0.107
      -0.104
      -0.102
       0.173
       0.553
       0.773
       0.670
       0.300
      -0.106
      -0.308
      -0.236
      -0.041
       0.024
      -0.191
      -0.596
      -0.923
      -0.922
      -0.551
       0.025
       0.577
       0.955
       1.122
       1.087
       0.861
       0.475
       0.033
      -0.317
      -0.494
      -0.565
      -0.683
      -0.926
      -1.200
      -1.299
      -1.073
      -0.547
       0.081
       0.563
       0.740
       0.628
       0.381
       0.181
       0.109
       0.109
       0.063
      -0.075
      -0.221
      -0.236
      -0.057
       0.213
       0.360
       0.223
      -0.159
      -0.536
      -0.605
      -0.230
       0.441
       1.079
       1.395
       1.306
       0.941
       0.510
       0.168
      -0.038
      -0.139
      -0.203
      -0.292
      -0.423
      -0.552
      -0.592
      -0.497
      -0.311
      -0.140
      -0.063
      -0.071
      -0.098
      -0.098
      -0.099
      -0.185
      -0.422
      -0.766
      -1.046
      -1.051
      -0.690
      -0.088
       0.485
       0.800
       0.810
       0.633
       0.438
       0.352
       0.404
       0.514
       0.521
       0.294
      -0.125
      -0.502
      -0.571
      -0.257
       0.254
       0.661
       0.753
       0.519
       0.098
      -0.326
      -0.614
      -0.696
      -0.564
      -0.246
       0.182
       0.588
       0.809
       0.757
       0.483
       0.153
      -0.082
      -0.212
      -0.366
      -0.678
      -1.120
      -1.466
      -1.425
      -0.859
       0.091
       1.066
       1.690
