Origin Time       14/3/2011 09:01:29 
Lat.              30.5 N 
Long.             79.1 E 
Depth (Km)          8.0
Magnitude         3.3
 Region           Chamoli-Uttarakhand                                              
 Above details taken from IMD 
   
Station Code      CHA
Station Lat.       30.412
Station Long.      79.320
Station Height(m) 1578.0
Site Class        A   Vs30 between 700 m/sec to 1400 m/sec * 
Record Time       14.03.2011 08:58:15.794
Sampling Rate     200. Hz
 Record Duration   89.510 Sec.
 Direction         Vert. (Up positive)
Max. Acceleration      7.436 cm/sec**2
     
  * For reference see Site Classification link of website 
     
 Base Line Corrected and Low Pass Filtered (Cut Off at 35 Hz) Time History
 Acceleration data in cm/sec**2
    
[...]
       0.008
       0.003
       0.019
       0.032
       0.013
      -0.016
      -0.022
      -0.018
      -0.030
      -0.037
      -0.013
       0.018
       0.020
       0.010
       0.016
       0.027
       0.015
      -0.005
      -0.007
      -0.003
      -0.019
      -0.033
      -0.015
       0.014
       0.014
      -0.002
       0.002
       0.015
       0.008
      -0.009
      -0.001
       0.025
       0.030
       0.018
       0.017
       0.020
       0.003
      -0.018
      -0.011
       0.012
       0.010
      -0.008
      -0.006
       0.016
       0.017
      -0.003
      -0.010
       0.000
      -0.002
      -0.015
      -0.010
       0.009
       0.010
      -0.004
      -0.001
       0.019
       0.019
       0.000
      -0.001
       0.016
       0.014
      -0.012
      -0.021
      -0.003
       0.008
       0.002
       0.004
       0.020
       0.019
       0.001
      -0.002
       0.015
       0.015
      -0.011
      -0.023
      -0.008
       0.001
      -0.012
      -0.016
       0.003
       0.014
       0.001
      -0.005
       0.010
       0.017
       0.003
      -0.004
       0.007
       0.008
      -0.013
      -0.021
      -0.001
       0.013
      -0.001
      -0.010
       0.009
       0.025
       0.016
       0.002
       0.005
       0.006
      -0.006
      -0.006
       0.017
       0.028
       0.007
      -0.012
       0.002
       0.021
       0.016
       0.007
       0.015
       0.021
       0.003
      -0.012
       0.000
       0.018
       0.012
       0.002
       0.011
       0.019
       0.001
      -0.020
      -0.013
       0.004
       0.001
      -0.005
       0.010
       0.026
       0.015
      -0.004
       0.000
       0.009
      -0.006
      -0.029
      -0.023
      -0.001
       0.006
       0.005
       0.015
       0.022
       0.000
      -0.023
      -0.011
       0.018
       0.018
      -0.002
      -0.003
       0.011
       0.006
      -0.012
      -0.008
       0.012
       0.016
       0.005
       0.008
       0.020
       0.010
      -0.013
      -0.011
       0.012
       0.017
       0.005
       0.007
       0.022
       0.016
      -0.008
      -0.012
       0.005
       0.007
      -0.011
      -0.015
       0.002
       0.009
       0.000
       0.003
       0.018
       0.012
      -0.010
      -0.011
       0.012
       0.020
       0.005
       0.002
       0.021
       0.028
       0.013
       0.009
       0.021
       0.017
      -0.008
      -0.016
       0.005
       0.018
       0.008
       0.007
       0.022
       0.023
      -0.001
      -0.012
       0.006
       0.014
      -0.008
      -0.024
      -0.013
      -0.001
      -0.007
      -0.005
       0.016
       0.021
      -0.005
      -0.024
      -0.009
       0.011
       0.007
       0.006
       0.027
       0.039
       0.021
       0.003
       0.008
       0.012
      -0.009
      -0.024
      -0.008
       0.010
      -0.001
      -0.016
      -0.008
       0.004
      -0.003
      -0.006
       0.015
       0.032
       0.016
      -0.008
      -0.003
       0.013
       0.009
      -0.001
       0.008
       0.020
       0.010
      -0.002
       0.009
       0.023
       0.009
      -0.009
       0.000
       0.018
       0.010
      -0.009
      -0.006
       0.009
       0.005
      -0.004
       0.012
       0.035
       0.027
       0.000
      -0.008
       0.004
       0.008
       0.007
       0.021
       0.033
       0.021
       0.007
       0.029
       0.069
       0.077
       0.048
       0.017
      -0.009
      -0.052
      -0.091
      -0.071
       0.022
       0.160
       0.328
       0.519
       0.674
       0.714
       0.618
       0.433
       0.190
      -0.097
      -0.380
      -0.585
      -0.687
      -0.721
      -0.714
      -0.666
      -0.611
      -0.612
      -0.679
      -0.764
      -0.826
      -0.858
      -0.824
      -0.667
      -0.382
      -0.042
       0.283
       0.557
       0.730
       0.731
       0.549
       0.252
      -0.079
      -0.388
      -0.597
      -0.592
      -0.314
       0.194
       0.835
       1.503
       2.055
       2.331
       2.252
       1.873
       1.314
       0.701
       0.171
      -0.148
      -0.242
      -0.241
      -0.299
      -0.467
      -0.695
      -0.880
      -0.882
      -0.580
       0.003
       0.662
       1.141
       1.282
       1.051
       0.509
      -0.179
      -0.781
      -1.144
      -1.285
      -1.315
      -1.310
      -1.301
      -1.313
      -1.350
      -1.377
      -1.357
      -1.295
      -1.190
      -1.011
      -0.764
      -0.543
      -0.449
      -0.479
      -0.557
      -0.641
      -0.730
      -0.802
      -0.799
      -0.647
      -0.260
       0.440
       1.413
       2.446
       3.263
       3.708
       3.798
       3.641
       3.367
       3.095
       2.854
       2.545
       2.031
       1.262
       0.307
      -0.695
      -1.553
      -2.048
      -2.054
      -1.658
      -1.125
      -0.741
      -0.716
      -1.154
      -1.983
      -2.904
      -3.507
      -3.488
      -2.771
      -1.493
       0.028
       1.335
       2.006
       1.881
       1.118
       0.054
      -0.968
      -1.667
      -1.869
      -1.566
      -0.894
      -0.055
       0.737
       1.277
       1.447
       1.301
       1.027
       0.785
       0.632
       0.558
       0.536
       0.504
       0.406
       0.281
       0.254
       0.416
       0.731
       1.090
       1.374
       1.474
       1.316
       0.911
       0.351
      -0.274
      -0.912
      -1.501
      -1.952
      -2.198
      -2.220
      -2.008
      -1.588
      -1.074
      -0.641
      -0.367
      -0.165
       0.110
       0.528
       1.058
       1.589
       1.939
       1.911
       1.440
       0.668
      -0.154
      -0.807
      -1.153
      -1.118
      -0.744
      -0.201
       0.306
       0.635
       0.715
       0.524
       0.132
      -0.266
      -0.446
      -0.296
       0.133
       0.655
       1.024
       1.051
       0.727
       0.205
      -0.347
      -0.836
      -1.177
      -1.240
      -0.929
      -0.285
       0.531
       1.327
       1.893
       2.032
       1.667
       0.934
       0.090
      -0.680
      -1.328
      -1.868
      -2.290
      -2.533
      -2.473
      -1.981
      -1.054
       0.116
       1.247
       2.135
       2.673
       2.773
       2.360
       1.461
       0.237
      -1.057
      -2.127
      -2.702
      -2.674
      -2.195
      -1.583
      -1.103
      -0.849
      -0.770
      -0.713
      -0.443
       0.258
       1.415
       2.804
       4.050
       4.776
       4.716
       3.828
       2.346
       0.648
      -0.959
      -2.319
      -3.330
      -3.863
      -3.824
      -3.215
      -2.124
      -0.707
       0.800
       2.127
       3.053
       3.433
       3.165
       2.246
       0.877
      -0.566
      -1.723
      -2.390
      -2.501
      -2.075
      -1.235
      -0.202
       0.779
       1.480
       1.675
       1.203
       0.104
      -1.344
      -2.747
      -3.737
      -4.029
      -3.477
      -2.173
      -0.460
       1.208
       2.440
       3.003
       2.871
       2.245
       1.458
       0.766
       0.240
      -0.133
      -0.328
      -0.290
      -0.006
       0.495
       1.135
       1.737
       2.018
       1.726
       0.807
      -0.554
      -1.975
      -2.979
      -3.170
      -2.457
      -1.131
       0.317
       1.467
       2.094
       2.159
       1.763
       1.087
       0.293
      -0.520
      -1.256
      -1.765
      -1.910
      -1.639
      -0.994
      -0.089
       0.855
       1.539
       1.738
       1.445
       0.837
       0.113
      -0.571
      -1.092
      -1.367
      -1.356
      -1.027
      -0.337
       0.664
       1.733
       2.516
       2.725
       2.244
       1.130
      -0.367
      -1.830
      -2.840
      -3.186
      -2.917
      -2.230
      -1.357
      -0.509
       0.197
       0.785
       1.328
       1.791
       2.024
       1.896
       1.378
       0.557
      -0.373
      -1.115
      -1.399
      -1.148
      -0.515
       0.230
       0.826
       1.100
       1.044
       0.820
       0.625
       0.510
       0.389
       0.178
      -0.115
      -0.441
      -0.740
      -0.916
      -0.880
      -0.652
      -0.375
      -0.196
      -0.190
      -0.374
      -0.694
      -0.955
      -0.887
      -0.345
       0.543
       1.444
       1.995
       1.956
       1.323
       0.372
      -0.475
      -0.913
      -0.887
      -0.523
      -0.011
       0.430
       0.582
       0.331
      -0.255
      -0.961
      -1.511
      -1.659
      -1.319
      -0.671
      -0.084
       0.167
       0.111
       0.019
       0.183
       0.729
       1.517
       2.157
       2.203
       1.461
       0.154
      -1.231
      -2.224
      -2.548
      -2.172
      -1.290
      -0.230
       0.706
       1.357
       1.668
       1.647
       1.381
       1.026
       0.697
       0.392
       0.092
      -0.128
      -0.150
       0.047
       0.356
       0.614
       0.664
       0.404
      -0.139
      -0.782
      -1.303
      -1.565
      -1.518
      -1.162
      -0.574
       0.062
       0.556
       0.836
       0.927
       0.839
       0.544
       0.019
      -0.735
      -1.661
      -2.572
      -3.132
      -3.023
      -2.165
      -0.751
       0.874
       2.321
       3.208
       3.278
       2.541
       1.279
      -0.087
      -1.138
      -1.557
      -1.254
      -0.434
       0.515
       1.249
       1.599
       1.551
       1.194
       0.675
       0.128
      -0.397
      -0.866
      -1.152
      -1.057
      -0.474
       0.508
       1.640
       2.591
       3.025
       2.728
       1.731
       0.278
      -1.310
      -2.732
      -3.709
      -4.022
      -3.625
      -2.677
      -1.460
      -0.284
       0.587
       1.034
       1.121
       1.000
       0.719
       0.226
      -0.457
      -1.123
      -1.485
      -1.361
      -0.750
       0.176
       1.112
       1.755
       1.978
       1.879
       1.646
       1.398
       1.157
       0.893
       0.552
       0.112
      -0.347
      -0.665
      -0.731
      -0.537
      -0.115
       0.511
       1.240
       1.830
       1.997
       1.580
       0.606
      -0.725
      -2.084
      -3.102
      -3.524
      -3.304
      -2.531
      -1.348
       0.043
       1.366
       2.341
       2.790
       2.646
       1.934
       0.780
      -0.593
      -1.931
      -2.998
      -3.542
      -3.328
      -2.292
      -0.655
       1.170
       2.750
       3.733
       3.879
       3.145
       1.743
       0.042
      -1.580
      -2.802
      -3.365
      -3.138
      -2.190
      -0.771
       0.782
       2.103
       2.872
       2.941
       2.407
       1.507
       0.452
      -0.593
      -1.433
      -1.844
      -1.694
      -1.018
       0.000
       1.063
       1.836
       2.101
       1.874
       1.354
       0.760
       0.261
      -0.018
      -0.039
       0.043
      -0.068
      -0.600
      -1.551
      -2.677
      -3.593
      -3.906
      -3.398
      -2.163
      -0.563
       0.951
       1.998
       2.340
       1.959
       1.106
       0.196
      -0.434
      -0.669
      -0.588
      -0.362
      -0.176
      -0.123
      -0.136
      -0.060
       0.179
       0.509
       0.802
       0.958
       0.911
       0.662
       0.359
       0.277
       0.606
       1.291
       2.056
       2.560
       2.542
       1.930
       0.894
      -0.245
      -1.197
      -1.797
      -1.954
      -1.638
      -0.948
      -0.144
       0.472
       0.703
       0.506
       0.001
      -0.563
      -0.947
      -1.090
      -1.120
      -1.143
      -1.103
      -0.870
      -0.426
       0.093
       0.479
       0.549
       0.224
      -0.399
      -1.092
      -1.647
      -1.970
      -2.039
      -1.819
      -1.300
      -0.547
       0.320
       1.163
       1.811
       2.077
       1.874
       1.316
       0.658
       0.151
      -0.043
       0.140
       0.641
       1.289
       1.854
       2.120
       1.915
       1.168
       0.006
      -1.250
      -2.239
      -2.724
      -2.597
      -1.844
      -0.593
       0.844
       2.098
       2.918
       3.207
       2.929
       2.070
       0.679
      -1.096
      -2.988
      -4.586
      -5.385
      -5.030
      -3.555
      -1.372
       0.972
       2.991
       4.314
       4.726
       4.234
       3.054
       1.518
      -0.016
      -1.207
      -1.837
      -1.896
      -1.535
      -0.916
      -0.168
       0.536
       0.981
       1.018
       0.665
       0.075
      -0.555
      -1.068
      -1.416
      -1.669
      -1.870
      -1.896
      -1.518
      -0.650
       0.513
       1.609
       2.291
       2.343
       1.738
       0.675
      -0.475
      -1.316
      -1.565
      -1.122
      -0.142
       0.932
       1.528
       1.265
       0.184
      -1.276
      -2.488
      -2.914
      -2.354
      -1.052
       0.472
       1.726
       2.422
       2.448
       1.838
       0.826
      -0.199
      -0.911
      -1.242
      -1.326
      -1.313
      -1.229
      -0.976
      -0.414
       0.465
       1.398
       1.934
       1.721
       0.741
      -0.714
      -2.217
      -3.337
      -3.742
      -3.293
      -2.064
      -0.234
       1.982
       4.277
       6.216
       7.357
       7.436
       6.440
       4.586
       2.275
      -0.001
      -1.852
      -3.122
      -3.809
      -3.949
      -3.642
      -3.093
      -2.516
      -1.985
      -1.477
      -1.024
      -0.720
      -0.585
      -0.522
      -0.422
      -0.257
      -0.076
       0.058
       0.153
       0.312
       0.609
       0.933
       1.005
       0.616
      -0.195
      -1.184
      -2.034
      -2.431
      -2.155
      -1.218
       0.103
       1.414
       2.400
       2.879
       2.764
       2.073
       0.985
      -0.164
      -1.009
      -1.293
      -0.974
      -0.245
       0.557
       1.129
       1.323
       1.136
       0.620
      -0.141
      -1.011
      -1.835
      -2.488
      -2.844
      -2.733
      -2.008
      -0.690
       0.967
       2.547
       3.597
       3.774
       3.013
       1.611
       0.083
      -1.126
      -1.806
      -1.949
      -1.656
      -1.083
      -0.387
       0.334
       1.029
       1.617
       1.982
       2.043
       1.762
       1.083
      -0.024
      -1.387
      -2.597
      -3.226
      -3.099
      -2.343
      -1.269
      -0.233
       0.482
       0.783
       0.782
       0.652
       0.503
       0.380
       0.308
       0.263
       0.170
      -0.009
      -0.196
      -0.241
      -0.038
       0.417
       1.004
       1.489
       1.615
       1.269
       0.552
      -0.318
      -1.108
      -1.587
      -1.545
      -0.908
       0.187
       1.450
       2.560
       3.211
       3.169
       2.396
       1.103
      -0.379
      -1.782
      -2.943
      -3.753
      -4.129
      -4.054
      -3.585
      -2.828
      -1.934
      -1.059
      -0.275
       0.456
       1.180
       1.861
       2.431
       2.873
       3.175
       3.260
       3.035
       2.512
       1.810
       1.051
       0.310
      -0.366
      -0.939
      -1.378
      -1.633
      -1.638
      -1.408
      -1.092
      -0.877
      -0.837
      -0.913
      -1.016
      -1.055
      -0.929
      -0.593
      -0.137
       0.270
       0.522
       0.627
       0.639
       0.623
       0.653
       0.763
       0.897
       0.971
       0.985
       1.007
       1.051
       1.053
       0.966
       0.804
       0.585
       0.298
      -0.035
      -0.344
      -0.583
      -0.759
      -0.874
      -0.906
      -0.859
      -0.781
      -0.703
      -0.613
      -0.522
      -0.486
      -0.551
      -0.702
      -0.876
      -0.973
      -0.854
      -0.440
       0.161
       0.659
       0.786
       0.476
      -0.131
      -0.788
      -1.235
      -1.293
      -0.956
      -0.376
       0.259
       0.803
       1.137
       1.163
       0.880
       0.422
      -0.020
      -0.293
      -0.306
      -0.052
       0.351
       0.718
       0.942
       1.044
       1.072
       0.982
       0.686
       0.140
      -0.619
      -1.465
      -2.176
      -2.497
      -2.304
      -1.688
      -0.841
       0.063
       0.866
       1.392
       1.541
       1.408
       1.209
       1.113
       1.145
       1.209
       1.138
       0.786
       0.157
      -0.558
      -1.129
      -1.457
      -1.564
      -1.476
      -1.185
      -0.714
      -0.141
       0.414
       0.811
       0.940
       0.829
       0.665
       0.643
       0.788
       0.956
       0.973
       0.725
       0.199
      -0.466
      -0.991
      -1.117
      -0.785
      -0.143
       0.577
       1.140
       1.352
       1.154
       0.701
       0.266
       0.072
       0.203
       0.623
       1.186
       1.659
       1.837
       1.672
       1.256
       0.703
       0.104
      -0.439
      -0.863
      -1.220
      -1.640
      -2.177
      -2.741
      -3.173
      -3.323
      -3.076
      -2.425
      -1.546
      -0.744
      -0.252
      -0.100
      -0.150
      -0.196
      -0.051
       0.349
       0.865
       1.220
       1.200
       0.788
       0.114
      -0.627
      -1.205
      -1.422
      -1.217
      -0.704
      -0.072
       0.531
       1.015
       1.349
       1.582
       1.796
       2.008
       2.158
       2.192
       2.117
       1.940
       1.622
       1.139
       0.539
      -0.094
      -0.670
      -1.077
      -1.207
      -1.042
      -0.688
      -0.268
       0.154
       0.532
       0.793
       0.875
       0.763
       0.465
      -0.006
      -0.573
      -1.086
      -1.412
      -1.512
      -1.403
      -1.098
      -0.629
      -0.068
       0.511
       1.071
       1.550
       1.840
       1.869
       1.669
       1.313
       0.832
       0.236
      -0.415
      -1.041
      -1.590
      -2.009
      -2.213
      -2.141
      -1.828
      -1.374
      -0.890
      -0.497
      -0.322
      -0.413
      -0.680
      -0.967
      -1.171
      -1.241
      -1.121
      -0.788
      -0.327
       0.118
       0.456
       0.682
       0.810
       0.862
       0.885
       0.924
       0.962
       0.963
       0.949
       0.974
       1.034
       1.059
       0.997
       0.853
       0.651
       0.432
       0.253
       0.150
       0.080
      -0.018
      -0.130
      -0.175
      -0.101
       0.098
       0.403
       0.751
       0.988
       0.947
       0.600
       0.086
      -0.409
      -0.758
      -0.911
      -0.898
      -0.824
      -0.780
      -0.755
      -0.669
      -0.511
      -0.376
      -0.359
      -0.462
      -0.612
      -0.716
      -0.681
      -0.468
      -0.153
       0.118
       0.251
       0.262
       0.212
       0.152
       0.134
       0.188
       0.248
       0.182
      -0.059
      -0.367
      -0.571
      -0.559
      -0.307
       0.144
       0.671
       1.088
       1.260
       1.163
       0.830
       0.314
      -0.265
      -0.708
      -0.867
      -0.766
      -0.555
