Origin Time       17/9/2010 19:21:09	
Lat.              36.5 N	
Long.             70.8 E	
Depth (Km)        167.0
Magnitude         6.5
 Region           Hindukush                                                        
 Above details taken from IMD 
     
Station Code      CHA
Station Lat.       30.412  N
Station Long.      79.320  E
Station Height(m) 1578.0
Site Class        A   Vs30 between 700 m/sec to 1400 m/sec * 
Record Time       17.09.2010 19:23:30.929
Sampling Rate     200. Hz
 Record Duration   90.255 Sec.
 Direction         E-W (E positive)
Max. Acceleration     -1.962 cm/sec**2
     
  * For reference see Site Classification link of website 
     
 Base Line Corrected and Low Pass Filtered (Cut Off at 35 Hz) Time History
 Acceleration data in cm/sec**2
    
[...]
       0.152
       0.154
       0.130
       0.092
       0.054
       0.036
       0.051
       0.087
       0.110
       0.102
       0.081
       0.083
       0.124
       0.184
       0.237
       0.260
       0.251
       0.227
       0.211
       0.210
       0.210
       0.203
       0.193
       0.194
       0.204
       0.220
       0.242
       0.264
       0.273
       0.260
       0.231
       0.202
       0.180
       0.168
       0.161
       0.149
       0.121
       0.090
       0.086
       0.117
       0.160
       0.178
       0.161
       0.127
       0.094
       0.069
       0.053
       0.035
       0.007
      -0.023
      -0.036
      -0.023
       0.003
       0.028
       0.046
       0.049
       0.024
      -0.026
      -0.077
      -0.105
      -0.108
      -0.104
      -0.110
      -0.131
      -0.153
      -0.150
      -0.108
      -0.047
      -0.006
      -0.007
      -0.028
      -0.043
      -0.043
      -0.039
      -0.039
      -0.049
      -0.065
      -0.070
      -0.044
       0.013
       0.074
       0.116
       0.130
       0.120
       0.092
       0.063
       0.058
       0.074
       0.089
       0.082
       0.059
       0.040
       0.044
       0.079
       0.131
       0.171
       0.174
       0.146
       0.113
       0.089
       0.068
       0.041
       0.014
      -0.010
      -0.028
      -0.032
      -0.016
       0.009
       0.020
       0.005
      -0.030
      -0.075
      -0.122
      -0.152
      -0.156
      -0.151
      -0.162
      -0.194
      -0.217
      -0.206
      -0.162
      -0.110
      -0.077
      -0.080
      -0.111
      -0.150
      -0.178
      -0.200
      -0.233
      -0.277
      -0.316
      -0.338
      -0.344
      -0.340
      -0.333
      -0.338
      -0.367
      -0.419
      -0.479
      -0.528
      -0.558
      -0.568
      -0.569
      -0.578
      -0.605
      -0.625
      -0.609
      -0.553
      -0.488
      -0.448
      -0.438
      -0.442
      -0.447
      -0.442
      -0.427
      -0.413
      -0.404
      -0.395
      -0.370
      -0.326
      -0.272
      -0.217
      -0.169
      -0.144
      -0.153
      -0.186
      -0.213
      -0.217
      -0.201
      -0.185
      -0.182
      -0.193
      -0.201
      -0.179
      -0.118
      -0.046
      -0.002
       0.004
      -0.007
      -0.013
      -0.009
       0.000
       0.012
       0.021
       0.025
       0.037
       0.069
       0.114
       0.155
       0.180
       0.187
       0.172
       0.134
       0.091
       0.066
       0.056
       0.042
       0.013
      -0.023
      -0.045
      -0.036
       0.003
       0.051
       0.074
       0.057
       0.024
       0.004
      -0.001
      -0.005
      -0.014
      -0.021
      -0.022
      -0.012
       0.013
       0.055
       0.098
       0.123
       0.129
       0.122
       0.106
       0.090
       0.093
       0.115
       0.135
       0.130
       0.107
       0.095
       0.114
       0.159
       0.210
       0.246
       0.257
       0.249
       0.242
       0.245
       0.247
       0.241
       0.234
       0.239
       0.261
       0.296
       0.344
       0.402
       0.453
       0.481
       0.485
       0.476
       0.466
       0.468
       0.488
       0.514
       0.523
       0.510
       0.500
       0.522
       0.575
       0.624
       0.644
       0.632
       0.598
       0.560
       0.526
       0.497
       0.462
       0.421
       0.385
       0.366
       0.365
       0.376
       0.389
       0.392
       0.368
       0.312
       0.244
       0.189
       0.157
       0.138
       0.115
       0.079
       0.033
      -0.006
      -0.013
       0.012
       0.038
       0.035
       0.001
      -0.043
      -0.085
      -0.126
      -0.169
      -0.215
      -0.266
      -0.316
      -0.351
      -0.362
      -0.361
      -0.363
      -0.374
      -0.398
      -0.441
      -0.501
      -0.554
      -0.581
      -0.588
      -0.594
      -0.609
      -0.629
      -0.640
      -0.627
      -0.584
      -0.535
      -0.515
      -0.533
      -0.567
      -0.590
      -0.602
      -0.612
      -0.623
      -0.630
      -0.633
      -0.621
      -0.583
      -0.520
      -0.452
      -0.397
      -0.359
      -0.337
      -0.329
      -0.317
      -0.278
      -0.213
      -0.149
      -0.108
      -0.077
      -0.030
       0.048
       0.147
       0.245
       0.316
       0.350
       0.363
       0.379
       0.404
       0.426
       0.434
       0.438
       0.445
       0.458
       0.479
       0.511
       0.546
       0.564
       0.550
       0.511
       0.463
       0.422
       0.403
       0.409
       0.420
       0.410
       0.380
       0.360
       0.377
       0.421
       0.461
       0.476
       0.464
       0.439
       0.421
       0.417
       0.416
       0.398
       0.363
       0.329
       0.317
       0.328
       0.353
       0.376
       0.380
       0.351
       0.292
       0.226
       0.171
       0.135
       0.110
       0.084
       0.043
      -0.012
      -0.059
      -0.071
      -0.049
      -0.027
      -0.033
      -0.065
      -0.109
      -0.152
      -0.191
      -0.223
      -0.255
      -0.295
      -0.338
      -0.367
      -0.377
      -0.378
      -0.379
      -0.383
      -0.400
      -0.440
      -0.495
      -0.538
      -0.549
      -0.535
      -0.517
      -0.512
      -0.519
      -0.524
      -0.499
      -0.439
      -0.373
      -0.339
      -0.343
      -0.359
      -0.364
      -0.361
      -0.360
      -0.363
      -0.371
      -0.382
      -0.382
      -0.361
      -0.324
      -0.294
      -0.281
      -0.284
      -0.302
      -0.330
      -0.349
      -0.337
      -0.301
      -0.270
      -0.263
      -0.269
      -0.261
      -0.222
      -0.152
      -0.076
      -0.026
      -0.016
      -0.029
      -0.036
      -0.034
      -0.037
      -0.049
      -0.059
      -0.059
      -0.044
      -0.011
       0.037
       0.088
       0.123
       0.136
       0.133
       0.120
       0.107
       0.109
       0.129
       0.146
       0.143
       0.132
       0.146
       0.200
       0.275
       0.335
       0.358
       0.346
       0.318
       0.297
       0.288
       0.278
       0.250
       0.213
       0.184
       0.173
       0.175
       0.184
       0.195
       0.192
       0.167
       0.122
       0.074
       0.039
       0.024
       0.027
       0.039
       0.047
       0.052
       0.077
       0.142
       0.235
       0.321
       0.378
       0.410
       0.434
       0.461
       0.493
       0.527
       0.553
       0.568
       0.584
       0.614
       0.656
       0.695
       0.721
       0.730
       0.716
       0.678
       0.635
       0.606
       0.596
       0.590
       0.578
       0.558
       0.539
       0.534
       0.557
       0.602
       0.635
       0.631
       0.598
       0.560
       0.525
       0.486
       0.437
       0.380
       0.316
       0.251
       0.203
       0.180
       0.169
       0.151
       0.116
       0.066
      -0.003
      -0.084
      -0.151
      -0.187
      -0.203
      -0.223
      -0.257
      -0.293
      -0.312
      -0.302
      -0.264
      -0.225
      -0.218
      -0.252
      -0.300
      -0.337
      -0.364
      -0.393
      -0.430
      -0.468
      -0.505
      -0.532
      -0.539
      -0.526
      -0.510
      -0.508
      -0.525
      -0.555
      -0.594
      -0.627
      -0.639
      -0.628
      -0.616
      -0.621
      -0.630
      -0.619
      -0.573
      -0.506
      -0.444
      -0.411
      -0.416
      -0.442
      -0.458
      -0.454
      -0.443
      -0.443
      -0.453
      -0.462
      -0.457
      -0.437
      -0.404
      -0.371
      -0.361
      -0.381
      -0.416
      -0.446
      -0.460
      -0.456
      -0.439
      -0.423
      -0.423
      -0.429
      -0.412
      -0.352
      -0.266
      -0.187
      -0.137
      -0.115
      -0.107
      -0.097
      -0.073
      -0.038
      -0.007
       0.018
       0.049
       0.099
       0.162
       0.227
       0.288
       0.336
       0.359
       0.356
       0.346
       0.350
       0.371
       0.396
       0.410
       0.405
       0.389
       0.386
       0.417
       0.472
       0.512
       0.514
       0.492
       0.472
       0.464
       0.461
       0.457
       0.446
       0.431
       0.421
       0.432
       0.466
       0.504
       0.524
       0.522
       0.493
       0.436
       0.362
       0.296
       0.249
       0.206
       0.148
       0.072
      -0.011
      -0.081
      -0.123
      -0.140
      -0.155
      -0.198
      -0.267
      -0.335
      -0.386
      -0.425
      -0.463
      -0.500
      -0.531
      -0.553
      -0.556
      -0.531
      -0.485
      -0.440
      -0.412
      -0.398
      -0.394
      -0.394
      -0.380
      -0.341
      -0.288
      -0.247
      -0.226
      -0.205
      -0.156
      -0.073
       0.026
       0.114
       0.167
       0.185
       0.193
       0.214
       0.245
       0.269
       0.278
       0.282
       0.293
       0.317
       0.354
       0.401
       0.445
       0.467
       0.462
       0.437
       0.404
       0.372
       0.350
       0.332
       0.303
       0.250
       0.185
       0.139
       0.120
       0.108
       0.068
      -0.010
      -0.116
      -0.229
      -0.328
      -0.410
      -0.487
      -0.576
      -0.669
      -0.746
      -0.796
      -0.822
      -0.836
      -0.847
      -0.867
      -0.905
      -0.960
      -1.013
      -1.048
      -1.061
      -1.061
      -1.061
      -1.072
      -1.086
      -1.080
      -1.033
      -0.962
      -0.905
      -0.879
      -0.873
      -0.868
      -0.858
      -0.845
      -0.828
      -0.812
      -0.799
      -0.776
      -0.728
      -0.656
      -0.575
      -0.497
      -0.428
      -0.380
      -0.356
      -0.339
      -0.301
      -0.239
      -0.173
      -0.120
      -0.081
      -0.042
       0.015
       0.104
       0.212
       0.300
       0.343
       0.354
       0.366
       0.395
       0.427
       0.451
       0.467
       0.480
       0.496
       0.535
       0.603
       0.689
       0.768
       0.832
       0.882
       0.918
       0.947
       0.989
       1.054
       1.130
       1.189
       1.229
       1.272
       1.337
       1.424
       1.516
       1.588
       1.622
       1.624
       1.618
       1.620
       1.622
       1.609
       1.581
       1.554
       1.535
       1.524
       1.520
       1.516
       1.494
       1.441
       1.356
       1.251
       1.139
       1.034
       0.947
       0.870
       0.779
       0.665
       0.550
       0.468
       0.426
       0.400
       0.360
       0.290
       0.196
       0.096
       0.005
      -0.077
      -0.166
      -0.271
      -0.376
      -0.462
      -0.522
      -0.566
      -0.606
      -0.652
      -0.718
      -0.805
      -0.893
      -0.956
      -0.989
      -1.005
      -1.017
      -1.026
      -1.024
      -0.995
      -0.931
      -0.850
      -0.788
      -0.764
      -0.763
      -0.758
      -0.745
      -0.733
      -0.725
      -0.718
      -0.714
      -0.708
      -0.687
      -0.645
      -0.594
      -0.552
      -0.523
      -0.508
      -0.508
      -0.514
      -0.506
      -0.476
      -0.443
      -0.431
      -0.439
      -0.443
      -0.424
      -0.378
      -0.320
      -0.276
      -0.262
      -0.272
      -0.277
      -0.267
      -0.254
      -0.250
      -0.249
      -0.235
      -0.203
      -0.157
      -0.100
      -0.043
      -0.006
      -0.001
      -0.022
      -0.055
      -0.086
      -0.104
      -0.107
      -0.111
      -0.137
      -0.180
      -0.204
      -0.186
      -0.137
      -0.092
      -0.071
      -0.072
      -0.082
      -0.087
      -0.079
      -0.067
      -0.066
      -0.077
      -0.081
      -0.063
      -0.028
       0.012
       0.048
       0.070
       0.067
       0.036
      -0.007
      -0.045
      -0.069
      -0.085
      -0.104
      -0.140
      -0.194
      -0.245
      -0.263
      -0.247
      -0.233
      -0.252
      -0.303
      -0.363
      -0.412
      -0.447
      -0.472
      -0.496
      -0.522
      -0.539
      -0.527
      -0.480
      -0.413
      -0.347
      -0.291
      -0.253
      -0.236
      -0.226
      -0.199
      -0.141
      -0.069
      -0.008
       0.037
       0.078
       0.135
       0.223
       0.335
       0.438
       0.503
       0.530
       0.548
       0.576
       0.606
       0.632
       0.657
       0.690
       0.735
       0.800
       0.888
       0.990
       1.087
       1.165
       1.226
       1.272
       1.307
       1.348
       1.412
       1.485
       1.534
       1.545
       1.538
       1.543
       1.569
       1.599
       1.608
       1.572
       1.491
       1.390
       1.297
       1.212
       1.121
       1.014
       0.903
       0.803
       0.721
       0.660
       0.615
       0.565
       0.486
       0.372
       0.245
       0.129
       0.036
      -0.034
      -0.097
      -0.172
      -0.268
      -0.362
      -0.422
      -0.443
      -0.459
      -0.504
      -0.582
      -0.679
      -0.778
      -0.872
      -0.963
      -1.061
      -1.170
      -1.276
      -1.358
      -1.411
      -1.450
      -1.492
      -1.543
      -1.608
      -1.689
      -1.774
      -1.843
      -1.886
      -1.910
      -1.927
      -1.945
      -1.961
      -1.962
      -1.927
      -1.851
      -1.760
      -1.691
      -1.653
      -1.628
      -1.597
      -1.555
      -1.509
      -1.460
      -1.418
      -1.382
      -1.338
      -1.267
      -1.170
      -1.063
      -0.964
      -0.881
      -0.819
      -0.773
      -0.718
      -0.630
      -0.513
      -0.394
      -0.289
      -0.193
      -0.083
       0.054
       0.216
       0.377
       0.507
       0.597
       0.670
       0.751
       0.842
       0.927
       0.998
       1.064
       1.130
       1.204
       1.294
       1.398
       1.495
       1.563
       1.598
       1.613
       1.620
       1.632
       1.661
       1.701
       1.726
       1.718
       1.693
       1.686
       1.711
       1.750
       1.770
       1.754
       1.705
       1.642
       1.589
       1.551
       1.509
       1.447
       1.376
       1.318
       1.282
       1.261
       1.244
       1.217
       1.163
       1.076
       0.967
       0.858
       0.763
       0.682
       0.607
       0.524
       0.423
       0.317
       0.239
       0.204
       0.188
       0.149
       0.071
      -0.028
      -0.126
      -0.212
      -0.288
      -0.362
      -0.446
      -0.540
      -0.622
      -0.679
      -0.716
      -0.753
      -0.801
      -0.861
      -0.934
      -1.020
      -1.100
      -1.156
      -1.186
      -1.208
      -1.233
      -1.259
      -1.275
      -1.264
      -1.218
      -1.151
      -1.100
      -1.084
      -1.088
      -1.080
      -1.055
      -1.023
      -0.990
      -0.957
      -0.918
      -0.868
      -0.794
      -0.694
      -0.586
      -0.490
      -0.413
      -0.356
      -0.322
      -0.301
      -0.270
      -0.221
      -0.175
      -0.155
      -0.158
      -0.157
      -0.133
      -0.091
      -0.052
      -0.039
      -0.061
      -0.103
      -0.138
      -0.158
      -0.178
      -0.212
      -0.253
      -0.283
      -0.293
      -0.280
      -0.250
      -0.217
      -0.201
      -0.212
      -0.242
      -0.279
      -0.313
      -0.341
      -0.361
      -0.383
      -0.422
      -0.474
      -0.514
      -0.521
      -0.506
      -0.496
      -0.507
      -0.539
      -0.585
      -0.631
      -0.665
      -0.685
      -0.698
      -0.707
      -0.699
      -0.666
      -0.608
      -0.532
      -0.443
      -0.351
      -0.272
      -0.211
      -0.153
      -0.078
       0.021
       0.134
       0.245
       0.345
       0.435
       0.538
       0.670
       0.821
       0.948
       1.028
       1.072
       1.107
       1.142
       1.174
       1.199
       1.215
       1.224
       1.235
       1.266
       1.315
       1.365
       1.399
       1.414
       1.410
       1.384
       1.348
       1.329
       1.335
       1.347
       1.339
       1.308
       1.272
       1.253
       1.262
       1.284
       1.287
       1.241
       1.157
       1.069
       0.992
       0.914
       0.818
       0.707
       0.595
       0.491
       0.404
       0.336
       0.280
       0.215
       0.132
       0.038
      -0.064
      -0.166
      -0.255
      -0.321
      -0.373
      -0.437
      -0.522
      -0.606
      -0.666
      -0.701
      -0.732
      -0.782
      -0.863
      -0.973
      -1.088
      -1.184
      -1.262
      -1.335
      -1.410
      -1.471
      -1.505
      -1.511
      -1.497
      -1.470
      -1.447
      -1.440
      -1.454
      -1.476
      -1.491
      -1.491
      -1.476
      -1.452
      -1.433
      -1.428
      -1.419
      -1.380
      -1.303
      -1.216
      -1.146
      -1.097
      -1.058
      -1.015
      -0.960
      -0.893
      -0.820
      -0.750
      -0.678
      -0.585
      -0.468
      -0.340
      -0.217
      -0.109
      -0.023
       0.036
       0.077
       0.125
       0.191
       0.268
       0.341
       0.406
       0.464
       0.527
       0.611
       0.719
       0.829
       0.909
       0.951
       0.973
       0.990
       1.000
       0.999
       0.991
       0.976
       0.960
       0.952
       0.964
       0.987
       1.002
       0.997
       0.977
       0.946
       0.911
       0.894
       0.907
       0.937
       0.953
       0.945
       0.931
       0.939
       0.981
       1.046
       1.105
       1.126
       1.102
       1.058
       1.025
       1.003
       0.979
       0.944
       0.909
       0.880
       0.865
       0.867
       0.886
       0.903
       0.899
       0.871
       0.830
       0.787
       0.751
       0.728
       0.712
       0.681
       0.622
       0.548
       0.492
       0.465
       0.446
       0.410
       0.344
       0.254
       0.158
       0.073
       0.005
      -0.063
      -0.140
      -0.219
      -0.280
      -0.319
      -0.344
      -0.367
      -0.399
      -0.450
      -0.528
      -0.623
      -0.709
      -0.772
      -0.816
      -0.854
      -0.895
      -0.944
      -0.983
      -0.982
      -0.930
      -0.859
      -0.813
      -0.803
      -0.808
      -0.802
      -0.776
      -0.738
      -0.703
      -0.681
      -0.670
      -0.647
      -0.595
      -0.522
      -0.453
      -0.403
      -0.380
      -0.383
      -0.409
      -0.435
      -0.444
      -0.443
      -0.456
      -0.493
      -0.542
      -0.581
      -0.592
      -0.572
      -0.543
      -0.540
      -0.576
      -0.634
      -0.684
      -0.725
      -0.765
      -0.806
      -0.837
      -0.850
      -0.840
      -0.804
      -0.753
      -0.708
      -0.689
      -0.694
      -0.711
      -0.734
      -0.756
      -0.762
      -0.753
      -0.748
      -0.763
      -0.782
      -0.774
      -0.727
      -0.654
      -0.577
      -0.519
      -0.483
      -0.456
      -0.413
      -0.346
      -0.268
      -0.193
      -0.118
      -0.030
       0.069
       0.177
