Origin Time       04/04/2011 11:31:40
Lat.              29.6 N	
Long.             80.8 E	
Depth (Km)         10.0
Magnitude         5.7
 Region           NEPAL-INDIA-BORDER-REGION                                        
 Above details taken from IMD 
     
Station Code      CHA
Station Lat.       30.412  N
Station Long.      79.320  E
Station Height(m) 1578.0
Site Class        A   Vs30 between 700 m/sec to 1400 m/sec * 
Record Time       04.04.2011 11:28:37.334
Sampling Rate     200. Hz
 Record Duration  137.790 Sec.
 Direction         E-W (E positive)
Max. Acceleration     11.124 cm/sec**2
     
  * For reference see Site Classification link of website 
     
 Base Line Corrected and Low Pass Filtered (Cut Off at 35 Hz) Time History
 Acceleration data in cm/sec**2
    
[...]
      -0.203
      -0.273
      -0.328
      -0.361
      -0.385
      -0.409
      -0.423
      -0.421
      -0.411
      -0.402
      -0.385
      -0.361
      -0.347
      -0.348
      -0.351
      -0.344
      -0.333
      -0.323
      -0.310
      -0.288
      -0.268
      -0.247
      -0.207
      -0.140
      -0.063
       0.013
       0.088
       0.157
       0.201
       0.208
       0.190
       0.157
       0.112
       0.064
       0.030
       0.013
      -0.002
      -0.024
      -0.036
      -0.025
       0.004
       0.050
       0.119
       0.206
       0.295
       0.380
       0.472
       0.573
       0.662
       0.723
       0.759
       0.771
       0.751
       0.697
       0.625
       0.552
       0.477
       0.404
       0.345
       0.298
       0.245
       0.175
       0.095
       0.011
      -0.082
      -0.183
      -0.273
      -0.343
      -0.404
      -0.462
      -0.507
      -0.528
      -0.526
      -0.502
      -0.443
      -0.352
      -0.248
      -0.146
      -0.047
       0.043
       0.105
       0.131
       0.126
       0.086
       0.000
      -0.132
      -0.283
      -0.427
      -0.549
      -0.637
      -0.675
      -0.667
      -0.631
      -0.580
      -0.505
      -0.405
      -0.294
      -0.179
      -0.057
       0.067
       0.174
       0.260
       0.335
       0.405
       0.455
       0.483
       0.497
       0.505
       0.504
       0.500
       0.515
       0.567
       0.653
       0.770
       0.915
       1.068
       1.196
       1.281
       1.330
       1.349
       1.323
       1.244
       1.123
       0.971
       0.792
       0.600
       0.420
       0.270
       0.151
       0.060
       0.000
      -0.041
      -0.083
      -0.135
      -0.193
      -0.257
      -0.338
      -0.436
      -0.535
      -0.621
      -0.693
      -0.745
      -0.754
      -0.707
      -0.605
      -0.457
      -0.271
      -0.066
       0.129
       0.303
       0.463
       0.609
       0.719
       0.773
       0.771
       0.721
       0.629
       0.513
       0.396
       0.286
       0.176
       0.061
      -0.044
      -0.136
      -0.222
      -0.300
      -0.356
      -0.380
      -0.377
      -0.348
      -0.285
      -0.192
      -0.091
       0.003
       0.096
       0.193
       0.287
       0.370
       0.439
       0.489
       0.511
       0.509
       0.503
       0.502
       0.495
       0.477
       0.457
       0.438
       0.409
       0.362
       0.301
       0.226
       0.126
       0.001
      -0.138
      -0.283
      -0.435
      -0.592
      -0.741
      -0.876
      -1.000
      -1.110
      -1.185
      -1.215
      -1.211
      -1.183
      -1.130
      -1.058
      -0.982
      -0.907
      -0.823
      -0.729
      -0.636
      -0.547
      -0.450
      -0.346
      -0.245
      -0.154
      -0.070
       0.000
       0.036
       0.030
      -0.010
      -0.077
      -0.178
      -0.311
      -0.468
      -0.643
      -0.840
      -1.045
      -1.233
      -1.390
      -1.517
      -1.612
      -1.669
      -1.699
      -1.727
      -1.762
      -1.792
      -1.807
      -1.819
      -1.833
      -1.837
      -1.819
      -1.774
      -1.700
      -1.586
      -1.429
      -1.242
      -1.033
      -0.811
      -0.590
      -0.390
      -0.216
      -0.057
       0.086
       0.193
       0.257
       0.292
       0.314
       0.328
       0.338
       0.361
       0.404
       0.458
       0.520
       0.592
       0.667
       0.723
       0.752
       0.770
       0.791
       0.821
       0.873
       0.967
       1.111
       1.286
       1.475
       1.667
       1.845
       1.981
       2.059
       2.084
       2.064
       1.998
       1.897
       1.789
       1.690
       1.594
       1.496
       1.399
       1.303
       1.200
       1.093
       0.997
       0.923
       0.863
       0.810
       0.772
       0.752
       0.740
       0.738
       0.761
       0.810
       0.865
       0.914
       0.963
       1.018
       1.067
       1.099
       1.115
       1.110
       1.076
       1.015
       0.948
       0.888
       0.832
       0.782
       0.751
       0.736
       0.717
       0.676
       0.613
       0.527
       0.414
       0.286
       0.167
       0.062
      -0.042
      -0.142
      -0.218
      -0.259
      -0.275
      -0.276
      -0.264
      -0.249
      -0.252
      -0.278
      -0.319
      -0.372
      -0.449
      -0.552
      -0.671
      -0.801
      -0.947
      -1.096
      -1.221
      -1.304
      -1.351
      -1.360
      -1.322
      -1.238
      -1.134
      -1.030
      -0.932
      -0.850
      -0.804
      -0.800
      -0.832
      -0.895
      -0.991
      -1.103
      -1.197
      -1.251
      -1.267
      -1.252
      -1.206
      -1.150
      -1.113
      -1.106
      -1.116
      -1.136
      -1.169
      -1.213
      -1.255
      -1.292
      -1.326
      -1.344
      -1.318
      -1.241
      -1.130
      -1.001
      -0.862
      -0.728
      -0.625
      -0.561
      -0.525
      -0.515
      -0.537
      -0.579
      -0.608
      -0.598
      -0.544
      -0.441
      -0.277
      -0.063
       0.178
       0.429
       0.695
       0.962
       1.203
       1.399
       1.551
       1.662
       1.723
       1.741
       1.739
       1.723
       1.687
       1.633
       1.576
       1.525
       1.477
       1.438
       1.425
       1.438
       1.453
       1.450
       1.429
       1.388
       1.317
       1.220
       1.112
       0.992
       0.839
       0.649
       0.441
       0.237
       0.041
      -0.139
      -0.286
      -0.406
      -0.511
      -0.602
      -0.656
      -0.670
      -0.654
      -0.617
      -0.559
      -0.494
      -0.450
      -0.439
      -0.453
      -0.494
      -0.566
      -0.657
      -0.735
      -0.789
      -0.817
      -0.808
      -0.742
      -0.619
      -0.459
      -0.275
      -0.074
       0.121
       0.280
       0.400
       0.493
       0.554
       0.565
       0.523
       0.442
       0.330
       0.184
       0.014
      -0.162
      -0.339
      -0.520
      -0.690
      -0.827
      -0.931
      -1.023
      -1.114
      -1.199
      -1.287
      -1.394
      -1.514
      -1.626
      -1.718
      -1.794
      -1.844
      -1.846
      -1.793
      -1.700
      -1.576
      -1.429
      -1.282
      -1.164
      -1.075
      -0.994
      -0.908
      -0.822
      -0.729
      -0.622
      -0.512
      -0.417
      -0.332
      -0.237
      -0.129
      -0.019
       0.097
       0.234
       0.391
       0.552
       0.713
       0.878
       1.037
       1.174
       1.293
       1.411
       1.530
       1.636
       1.729
       1.821
       1.906
       1.967
       2.001
       2.019
       2.013
       1.962
       1.863
       1.731
       1.579
       1.411
       1.244
       1.101
       0.979
       0.860
       0.748
       0.659
       0.596
       0.551
       0.527
       0.537
       0.579
       0.634
       0.695
       0.765
       0.831
       0.880
       0.920
       0.969
       1.023
       1.060
       1.075
       1.080
       1.077
       1.060
       1.036
       1.015
       0.988
       0.932
       0.844
       0.741
       0.638
       0.543
       0.477
       0.458
       0.478
       0.510
       0.542
       0.582
       0.628
       0.664
       0.684
       0.696
       0.690
       0.649
       0.577
       0.496
       0.412
       0.319
       0.221
       0.128
       0.026
      -0.113
      -0.296
      -0.508
      -0.739
      -0.982
      -1.213
      -1.408
      -1.569
      -1.705
      -1.805
      -1.848
      -1.840
      -1.802
      -1.749
      -1.683
      -1.617
      -1.566
      -1.524
      -1.486
      -1.466
      -1.479
      -1.507
      -1.524
      -1.524
      -1.511
      -1.479
      -1.427
      -1.370
      -1.325
      -1.278
      -1.213
      -1.137
      -1.070
      -1.010
      -0.951
      -0.900
      -0.860
      -0.813
      -0.747
      -0.669
      -0.595
      -0.518
      -0.424
      -0.306
      -0.162
       0.025
       0.260
       0.520
       0.776
       1.023
       1.262
       1.484
       1.670
       1.815
       1.916
       1.961
       1.941
       1.873
       1.773
       1.629
       1.425
       1.171
       0.898
       0.627
       0.368
       0.132
      -0.068
      -0.234
      -0.371
      -0.472
      -0.533
      -0.577
      -0.633
      -0.711
      -0.801
      -0.904
      -1.030
      -1.175
      -1.323
      -1.470
      -1.619
      -1.759
      -1.878
      -1.980
      -2.080
      -2.173
      -2.245
      -2.296
      -2.334
      -2.358
      -2.352
      -2.314
      -2.243
      -2.133
      -1.971
      -1.771
      -1.554
      -1.330
      -1.099
      -0.874
      -0.672
      -0.493
      -0.332
      -0.200
      -0.113
      -0.065
      -0.030
       0.007
       0.051
       0.120
       0.233
       0.391
       0.585
       0.813
       1.074
       1.348
       1.610
       1.852
       2.072
       2.253
       2.366
       2.405
       2.371
       2.259
       2.069
       1.820
       1.538
       1.229
       0.896
       0.563
       0.263
       0.005
      -0.211
      -0.372
      -0.468
      -0.507
      -0.497
      -0.422
      -0.265
      -0.027
       0.276
       0.626
       0.999
       1.360
       1.696
       2.025
       2.365
       2.705
       3.020
       3.299
       3.535
       3.700
       3.766
       3.728
       3.592
       3.365
       3.063
       2.719
       2.362
       2.010
       1.678
       1.392
       1.172
       1.014
       0.907
       0.850
       0.844
       0.874
       0.924
       0.994
       1.085
       1.185
       1.286
       1.399
       1.530
       1.668
       1.792
       1.896
       1.981
       2.035
       2.043
       2.007
       1.934
       1.823
       1.671
       1.488
       1.283
       1.042
       0.746
       0.394
       0.004
      -0.406
      -0.818
      -1.205
      -1.541
      -1.817
      -2.036
      -2.194
      -2.285
      -2.320
      -2.312
      -2.272
      -2.211
      -2.162
      -2.156
      -2.195
      -2.245
      -2.287
      -2.332
      -2.402
      -2.505
      -2.632
      -2.769
      -2.898
      -3.010
      -3.115
      -3.219
      -3.317
      -3.391
      -3.442
      -3.484
      -3.519
      -3.534
      -3.528
      -3.512
      -3.485
      -3.439
      -3.377
      -3.318
      -3.267
      -3.228
      -3.211
      -3.229
      -3.271
      -3.316
      -3.360
      -3.408
      -3.457
      -3.497
      -3.531
      -3.568
      -3.601
      -3.623
      -3.639
      -3.660
      -3.681
      -3.694
      -3.698
      -3.692
      -3.649
      -3.543
      -3.369
      -3.135
      -2.841
      -2.488
      -2.090
      -1.658
      -1.190
      -0.687
      -0.170
       0.338
       0.828
       1.291
       1.703
       2.035
       2.277
       2.424
       2.467
       2.406
       2.256
       2.032
       1.731
       1.359
       0.945
       0.526
       0.125
      -0.246
      -0.581
      -0.881
      -1.153
      -1.395
      -1.583
      -1.699
      -1.748
      -1.748
      -1.707
      -1.633
      -1.540
      -1.437
      -1.319
      -1.189
      -1.065
      -0.965
      -0.892
      -0.839
      -0.803
      -0.773
      -0.722
      -0.633
      -0.507
      -0.355
      -0.180
       0.022
       0.241
       0.468
       0.703
       0.948
       1.198
       1.447
       1.695
       1.941
       2.174
       2.391
       2.608
       2.852
       3.134
       3.450
       3.797
       4.174
       4.568
       4.952
       5.314
       5.661
       5.999
       6.318
       6.611
       6.878
       7.109
       7.283
       7.391
       7.447
       7.454
       7.403
       7.301
       7.172
       7.035
       6.891
       6.746
       6.613
       6.487
       6.346
       6.181
       6.003
       5.819
       5.625
       5.424
       5.231
       5.042
       4.831
       4.583
       4.298
       3.967
       3.582
       3.155
       2.719
       2.290
       1.870
       1.471
       1.117
       0.813
       0.551
       0.338
       0.186
       0.083
       0.006
      -0.052
      -0.084
      -0.104
      -0.133
      -0.182
      -0.254
      -0.363
      -0.516
      -0.694
      -0.866
      -1.026
      -1.175
      -1.297
      -1.382
      -1.443
      -1.500
      -1.560
      -1.633
      -1.737
      -1.886
      -2.064
      -2.259
      -2.477
      -2.728
      -3.004
      -3.292
      -3.592
      -3.900
      -4.193
      -4.461
      -4.717
      -4.978
      -5.250
      -5.533
      -5.833
      -6.139
      -6.422
      -6.659
      -6.853
      -7.015
      -7.144
      -7.238
      -7.305
      -7.336
      -7.300
      -7.168
      -6.940
      -6.640
      -6.288
      -5.898
      -5.487
      -5.061
      -4.602
      -4.091
      -3.537
      -2.963
      -2.380
      -1.794
      -1.227
      -0.704
      -0.233
       0.187
       0.542
       0.814
       1.000
       1.115
       1.170
       1.163
       1.109
       1.041
       0.981
       0.938
       0.932
       0.991
       1.131
       1.350
       1.663
       2.103
       2.676
       3.362
       4.140
       4.995
       5.893
       6.787
       7.651
       8.472
       9.223
       9.864
      10.374
      10.755
      11.004
      11.121
      11.124
      11.032
      10.838
      10.529
      10.112
       9.612
       9.040
       8.403
       7.718
       6.998
       6.232
       5.409
       4.549
       3.686
       2.838
       2.021
       1.266
       0.601
       0.030
      -0.451
      -0.830
      -1.096
      -1.261
      -1.343
      -1.357
      -1.328
      -1.304
      -1.318
      -1.371
      -1.455
      -1.570
      -1.717
      -1.879
      -2.048
      -2.237
      -2.449
      -2.667
      -2.875
      -3.077
      -3.276
      -3.467
      -3.657
      -3.875
      -4.149
      -4.472
      -4.817
      -5.169
      -5.524
      -5.879
      -6.241
      -6.626
      -7.037
      -7.455
      -7.864
      -8.265
      -8.661
      -9.040
      -9.387
      -9.701
      -9.977
     -10.196
     -10.339
     -10.401
     -10.377
     -10.248
     -10.002
      -9.652
      -9.228
      -8.746
      -8.213
      -7.645
      -7.055
      -6.441
      -5.799
      -5.151
      -4.524
      -3.930
      -3.373
      -2.870
      -2.448
      -2.108
      -1.844
      -1.663
      -1.575
      -1.573
      -1.634
      -1.753
      -1.927
      -2.133
      -2.336
      -2.518
      -2.683
      -2.824
      -2.928
      -2.995
      -3.036
      -3.047
      -3.017
      -2.950
      -2.863
      -2.744
      -2.570
      -2.337
      -2.050
      -1.701
      -1.275
      -0.783
      -0.253
       0.304
       0.894
       1.507
       2.123
       2.737
       3.345
       3.919
       4.423
       4.841
       5.172
       5.407
       5.538
       5.580
       5.555
       5.458
       5.274
       5.017
       4.719
       4.407
       4.100
       3.831
       3.626
       3.476
       3.366
       3.314
       3.352
       3.489
       3.715
       4.026
       4.415
       4.844
       5.272
       5.689
       6.098
       6.477
       6.798
       7.048
       7.229
       7.327
       7.332
       7.257
       7.117
       6.903
       6.609
       6.253
       5.855
       5.421
       4.956
       4.491
       4.055
       3.649
       3.269
       2.916
       2.579
       2.234
       1.868
       1.495
       1.123
       0.737
       0.328
      -0.099
      -0.538
      -0.990
      -1.435
      -1.831
      -2.142
      -2.361
      -2.483
      -2.500
      -2.415
      -2.252
      -2.024
      -1.731
      -1.385
      -1.022
      -0.672
      -0.345
      -0.055
       0.176
       0.348
       0.486
       0.613
       0.732
       0.846
       0.968
       1.108
       1.270
       1.471
       1.739
       2.083
       2.485
       2.927
       3.403
       3.898
       4.372
       4.773
       5.067
       5.228
       5.232
       5.067
       4.742
       4.272
       3.660
       2.909
       2.050
       1.141
       0.233
      -0.637
      -1.435
      -2.136
      -2.740
      -3.268
      -3.723
      -4.098
      -4.405
      -4.662
      -4.873
      -5.034
      -5.154
      -5.249
      -5.311
      -5.315
      -5.241
      -5.074
      -4.791
      -4.387
      -3.906
      -3.410
      -2.936
      -2.486
      -2.053
      -1.637
      -1.236
      -0.858
      -0.529
      -0.265
      -0.047
       0.154
       0.344
       0.508
       0.636
       0.716
       0.725
       0.646
       0.500
       0.312
       0.096
      -0.137
      -0.360
      -0.556
      -0.729
      -0.874
      -0.963
      -0.979
      -0.928
      -0.816
      -0.640
      -0.407
      -0.151
       0.099
       0.330
       0.527
       0.670
       0.747
       0.760
       0.696
       0.535
       0.277
      -0.048
      -0.406
      -0.765
      -1.079
      -1.290
      -1.374
      -1.337
      -1.189
      -0.923
      -0.549
      -0.094
       0.418
       0.975
       1.560
       2.151
       2.736
       3.312
       3.859
       4.336
       4.720
       5.010
       5.203
       5.292
       5.287
       5.218
       5.114
       4.979
       4.809
       4.608
       4.377
       4.099
       3.761
       3.369
       2.933
       2.450
       1.911
       1.315
       0.674
      -0.011
      -0.732
      -1.461
      -2.161
      -2.809
      -3.393
      -3.896
      -4.316
      -4.672
      -4.990
      -5.277
      -5.534
      -5.772
      -6.005
      -6.240
      -6.479
      -6.735
      -7.004
      -7.258
      -7.471
      -7.633
      -7.731
      -7.747
      -7.676
      -7.523
      -7.289
      -6.967
      -6.575
      -6.153
      -5.727
      -5.299
      -4.869
      -4.440
      -3.999
      -3.528
      -3.020
      -2.489
      -1.945
      -1.396
      -0.865
      -0.388
       0.015
       0.339
       0.574
       0.701
       0.728
       0.693
       0.640
       0.596
       0.585
       0.630
       0.742
       0.904
       1.100
       1.326
       1.583
       1.854
       2.118
       2.365
       2.592
       2.777
       2.895
       2.936
       2.909
       2.818
       2.670
       2.483
       2.277
       2.044
       1.769
       1.445
       1.079
       0.663
       0.194
      -0.302
      -0.780
      -1.204
      -1.554
      -1.801
      -1.933
      -1.964
      -1.912
      -1.777
      -1.556
      -1.264
      -0.920
      -0.538
      -0.136
       0.265
       0.662
       1.069
       1.493
       1.918
       2.332
       2.728
       3.088
       3.392
       3.642
       3.856
       4.036
       4.160
       4.215
       4.200
       4.114
       3.949
       3.712
       3.423
       3.100
       2.751
       2.396
       2.068
       1.787
       1.558
       1.383
       1.275
       1.237
       1.252
       1.300
       1.378
       1.483
       1.603
       1.727
       1.862
       2.009
       2.149
       2.266
       2.368
       2.463
       2.547
       2.609
