Origin Time       25/02/2009 04:04:21
Lat.              30.6 N 
Long.             79.3 E 
Depth (Km)         10.0
Magnitude         3.7
 Region           Uttarakhand                                                      
 Above details taken from IMD 
   
Station Code      CHA
Station Lat.       30.412
Station Long.      79.320
Station Height(m) 1578.0
Site Class        A   Vs30 between 700 m/sec to 1400 m/sec * 
Record Time       25.02.2009 04:04:12.284
Sampling Rate     200. Hz
 Record Duration   69.040 Sec.
 Direction         Vert. (Up positive)
Max. Acceleration     -4.474 cm/sec**2
     
  * For reference see Site Classification link of website 
     
 Base Line Corrected and Low Pass Filtered (Cut Off at 35 Hz) Time History
 Acceleration data in cm/sec**2
    
[...]
       0.009
       0.001
      -0.015
      -0.029
      -0.029
      -0.012
       0.011
       0.021
       0.010
      -0.014
      -0.028
      -0.017
       0.009
       0.028
       0.020
      -0.008
      -0.030
      -0.026
      -0.001
       0.023
       0.024
       0.005
      -0.017
      -0.024
      -0.011
       0.013
       0.030
       0.024
      -0.002
      -0.031
      -0.036
      -0.010
       0.027
       0.044
       0.026
      -0.011
      -0.036
      -0.033
      -0.011
       0.008
       0.012
       0.001
      -0.014
      -0.021
      -0.014
       0.003
       0.019
       0.023
       0.013
       0.001
      -0.003
       0.000
       0.000
      -0.010
      -0.022
      -0.022
      -0.010
       0.006
       0.018
       0.022
       0.018
       0.003
      -0.018
      -0.037
      -0.039
      -0.025
      -0.008
      -0.001
      -0.004
      -0.006
       0.001
       0.010
       0.011
       0.003
      -0.002
       0.002
       0.011
       0.013
       0.001
      -0.017
      -0.026
      -0.020
      -0.005
       0.012
       0.022
       0.024
       0.015
      -0.001
      -0.019
      -0.026
      -0.018
       0.001
       0.014
       0.014
       0.004
      -0.003
       0.001
       0.013
       0.021
       0.019
       0.009
      -0.003
      -0.013
      -0.018
      -0.021
      -0.018
      -0.009
       0.007
       0.025
       0.036
       0.033
       0.017
      -0.002
      -0.012
      -0.011
      -0.004
      -0.001
      -0.001
      -0.002
       0.002
       0.011
       0.023
       0.029
       0.025
       0.013
      -0.002
      -0.011
      -0.012
      -0.006
       0.004
       0.012
       0.015
       0.010
       0.001
      -0.006
      -0.002
       0.012
       0.024
       0.022
       0.008
      -0.005
      -0.007
       0.002
       0.009
       0.005
      -0.005
      -0.010
      -0.002
       0.015
       0.031
       0.033
       0.019
      -0.003
      -0.020
      -0.022
      -0.009
       0.008
       0.020
       0.021
       0.014
       0.005
      -0.001
      -0.004
      -0.008
      -0.012
      -0.014
      -0.012
      -0.007
      -0.001
       0.005
       0.010
       0.012
       0.009
       0.000
      -0.009
      -0.014
      -0.013
      -0.009
      -0.005
       0.000
       0.006
       0.008
       0.006
      -0.001
      -0.004
      -0.001
       0.005
       0.007
       0.002
      -0.005
      -0.009
      -0.007
      -0.002
       0.002
       0.005
       0.007
       0.007
       0.005
       0.000
      -0.004
      -0.006
      -0.004
      -0.001
       0.004
       0.008
       0.009
       0.003
      -0.009
      -0.022
      -0.025
      -0.018
      -0.008
      -0.002
      -0.004
      -0.007
      -0.006
       0.002
       0.011
       0.015
       0.014
       0.009
       0.005
       0.000
      -0.005
      -0.010
      -0.012
      -0.009
      -0.001
       0.008
       0.011
       0.008
       0.001
      -0.005
      -0.011
      -0.013
      -0.009
       0.003
       0.015
       0.020
       0.015
       0.006
      -0.002
      -0.003
      -0.002
      -0.001
       0.000
       0.003
       0.008
       0.011
       0.010
       0.006
       0.003
       0.003
       0.006
       0.008
       0.009
       0.007
       0.002
      -0.005
      -0.013
      -0.018
      -0.017
      -0.012
      -0.005
       0.004
       0.015
       0.022
       0.021
       0.010
      -0.006
      -0.014
      -0.010
      -0.001
       0.004
       0.001
      -0.005
      -0.008
      -0.006
      -0.003
      -0.002
      -0.004
      -0.007
      -0.007
      -0.006
      -0.004
       0.001
       0.006
       0.009
       0.005
      -0.004
      -0.009
      -0.005
       0.005
       0.011
       0.007
      -0.003
      -0.011
      -0.013
      -0.009
      -0.005
      -0.004
      -0.007
      -0.010
      -0.010
      -0.008
      -0.004
      -0.001
      -0.001
      -0.004
      -0.006
      -0.003
       0.001
       0.002
      -0.003
      -0.010
      -0.012
      -0.007
       0.001
       0.005
       0.000
      -0.011
      -0.019
      -0.022
      -0.017
      -0.006
       0.005
       0.012
       0.013
       0.009
       0.003
      -0.001
      -0.002
      -0.002
      -0.003
      -0.005
      -0.007
      -0.006
      -0.003
       0.004
       0.012
       0.017
       0.014
       0.004
      -0.009
      -0.013
      -0.009
      -0.001
      -0.001
      -0.008
      -0.012
      -0.005
       0.013
       0.028
       0.028
       0.013
      -0.004
      -0.009
      -0.003
       0.005
       0.005
      -0.002
      -0.009
      -0.012
      -0.009
       0.001
       0.015
       0.030
       0.038
       0.033
       0.014
      -0.007
      -0.022
      -0.024
      -0.018
      -0.008
       0.002
       0.012
       0.022
       0.029
       0.030
       0.023
       0.007
      -0.013
      -0.030
      -0.033
      -0.019
       0.008
       0.033
       0.041
       0.029
       0.006
      -0.012
      -0.019
      -0.015
      -0.010
      -0.007
      -0.004
       0.002
       0.012
       0.022
       0.024
       0.012
      -0.009
      -0.023
      -0.021
      -0.003
       0.017
       0.026
       0.022
       0.008
      -0.004
      -0.012
      -0.013
      -0.009
      -0.005
      -0.004
      -0.006
      -0.006
       0.004
       0.023
       0.038
       0.037
       0.018
      -0.008
      -0.028
      -0.031
      -0.017
       0.005
       0.027
       0.041
       0.042
       0.032
       0.017
       0.002
      -0.006
      -0.006
      -0.002
       0.004
       0.010
       0.015
       0.021
       0.026
       0.029
       0.025
       0.013
       0.000
      -0.008
      -0.008
      -0.004
      -0.003
      -0.004
      -0.002
       0.006
       0.016
       0.022
       0.018
       0.007
      -0.007
      -0.016
      -0.016
      -0.007
       0.005
       0.012
       0.009
       0.004
       0.007
       0.020
       0.031
       0.028
       0.012
      -0.003
      -0.005
       0.004
       0.012
       0.011
       0.004
       0.001
       0.004
       0.009
       0.006
      -0.003
      -0.011
      -0.010
      -0.002
       0.009
       0.017
       0.016
       0.009
      -0.001
      -0.006
      -0.001
       0.011
       0.018
       0.013
      -0.001
      -0.014
      -0.016
      -0.007
       0.007
       0.017
       0.019
       0.013
       0.005
      -0.003
      -0.005
      -0.002
       0.002
       0.002
      -0.005
      -0.017
      -0.025
      -0.024
      -0.015
      -0.004
       0.001
      -0.003
      -0.011
      -0.016
      -0.013
      -0.003
       0.010
       0.019
       0.019
       0.012
       0.000
      -0.009
      -0.013
      -0.010
      -0.005
      -0.001
      -0.001
      -0.001
       0.001
       0.005
       0.005
      -0.003
      -0.015
      -0.024
      -0.027
      -0.022
      -0.015
      -0.009
      -0.003
       0.003
       0.006
       0.006
       0.003
       0.002
       0.004
       0.003
      -0.006
      -0.018
      -0.026
      -0.022
      -0.009
       0.006
       0.014
       0.015
       0.009
       0.001
      -0.008
      -0.012
      -0.012
      -0.007
      -0.002
      -0.001
      -0.003
      -0.005
      -0.003
       0.002
       0.005
       0.002
      -0.005
      -0.012
      -0.014
      -0.009
       0.001
       0.010
       0.014
       0.013
       0.006
      -0.001
      -0.007
      -0.008
      -0.003
       0.007
       0.016
       0.017
       0.010
       0.002
       0.003
       0.010
       0.014
       0.007
      -0.008
      -0.022
      -0.024
      -0.011
       0.010
       0.023
       0.020
       0.003
      -0.011
      -0.012
      -0.001
       0.007
       0.003
      -0.006
      -0.010
      -0.008
      -0.006
      -0.007
      -0.006
       0.000
       0.007
       0.006
      -0.002
      -0.007
      -0.003
       0.007
       0.013
       0.011
       0.008
       0.011
       0.013
       0.008
      -0.003
      -0.011
      -0.011
      -0.006
      -0.003
      -0.002
      -0.002
      -0.001
       0.000
       0.002
       0.008
       0.020
       0.025
       0.016
      -0.002
      -0.014
      -0.013
      -0.010
      -0.014
      -0.023
      -0.022
      -0.005
       0.017
       0.025
       0.011
      -0.013
      -0.030
      -0.030
      -0.017
      -0.001
       0.012
       0.018
       0.017
       0.010
       0.002
      -0.002
       0.000
       0.005
       0.006
       0.004
       0.002
       0.002
       0.002
       0.000
      -0.004
      -0.009
      -0.009
      -0.005
      -0.001
       0.003
       0.006
       0.011
       0.013
       0.010
      -0.001
      -0.012
      -0.015
      -0.009
       0.002
       0.014
       0.021
       0.020
       0.012
       0.002
      -0.002
       0.002
       0.013
       0.020
       0.016
       0.003
      -0.012
      -0.019
      -0.019
      -0.013
      -0.006
       0.000
       0.005
       0.008
       0.006
       0.003
       0.004
       0.009
       0.011
       0.003
      -0.016
      -0.034
      -0.039
      -0.025
      -0.001
       0.019
       0.022
       0.007
      -0.012
      -0.022
      -0.017
      -0.007
      -0.004
      -0.012
      -0.018
      -0.010
       0.010
       0.023
       0.018
      -0.001
      -0.016
      -0.016
      -0.006
       0.003
       0.005
       0.006
       0.009
       0.014
       0.013
       0.003
      -0.011
      -0.023
      -0.028
      -0.023
      -0.010
       0.004
       0.012
       0.013
       0.011
       0.012
       0.014
       0.008
      -0.007
      -0.022
      -0.027
      -0.019
      -0.002
       0.013
       0.023
       0.025
       0.020
       0.010
      -0.001
      -0.007
      -0.007
      -0.004
      -0.004
      -0.007
      -0.009
      -0.005
       0.004
       0.012
       0.013
       0.010
       0.005
       0.002
       0.001
       0.002
       0.003
       0.005
       0.007
       0.006
       0.002
      -0.004
      -0.008
      -0.009
      -0.004
       0.003
       0.007
       0.005
       0.003
       0.006
       0.013
       0.016
       0.007
      -0.009
      -0.020
      -0.020
      -0.012
      -0.004
       0.002
       0.008
       0.015
       0.021
       0.020
       0.015
       0.010
       0.008
       0.008
       0.008
       0.006
       0.007
       0.011
       0.014
       0.014
       0.009
       0.005
       0.003
       0.006
       0.012
       0.018
       0.021
       0.019
       0.013
       0.007
       0.003
       0.004
       0.007
       0.011
       0.014
       0.017
       0.019
       0.019
       0.015
       0.007
       0.000
      -0.004
      -0.004
      -0.003
      -0.004
      -0.005
      -0.004
       0.001
       0.006
       0.008
       0.007
       0.005
       0.003
       0.003
       0.003
       0.004
       0.007
       0.009
       0.010
       0.009
       0.005
      -0.001
      -0.009
      -0.017
      -0.017
      -0.006
       0.012
       0.026
       0.027
       0.017
       0.006
       0.001
       0.003
       0.007
       0.010
       0.012
       0.013
       0.016
       0.017
       0.016
       0.010
       0.004
      -0.002
      -0.005
      -0.002
       0.005
       0.014
       0.020
       0.020
       0.014
       0.006
      -0.001
      -0.005
      -0.002
       0.003
       0.009
       0.011
       0.011
       0.011
       0.011
       0.011
       0.011
       0.008
       0.003
      -0.004
      -0.010
      -0.011
      -0.006
       0.001
       0.007
       0.011
       0.011
       0.009
       0.002
      -0.005
      -0.009
      -0.005
       0.005
       0.012
       0.013
       0.008
       0.001
      -0.003
      -0.007
      -0.012
      -0.015
      -0.013
      -0.004
       0.006
       0.009
       0.005
      -0.001
      -0.002
       0.003
       0.010
       0.013
       0.010
       0.004
       0.000
       0.000
       0.001
       0.003
       0.004
       0.003
       0.000
      -0.004
      -0.008
      -0.010
      -0.008
      -0.004
      -0.001
      -0.002
      -0.007
      -0.009
      -0.004
       0.006
       0.015
       0.014
       0.003
      -0.010
      -0.016
      -0.010
       0.002
       0.009
       0.008
       0.004
       0.005
       0.012
       0.020
       0.021
       0.014
       0.005
       0.000
      -0.002
      -0.004
      -0.008
      -0.010
      -0.007
       0.003
       0.014
       0.022
       0.020
       0.010
      -0.003
      -0.012
      -0.011
      -0.003
       0.006
       0.008
       0.001
      -0.007
      -0.010
      -0.005
       0.002
       0.002
      -0.004
      -0.011
      -0.011
      -0.001
       0.011
       0.019
       0.023
       0.025
       0.029
       0.041
       0.069
       0.115
       0.175
       0.236
       0.292
       0.349
       0.419
       0.510
       0.606
       0.683
       0.718
       0.704
       0.648
       0.556
       0.437
       0.302
       0.165
       0.044
      -0.053
      -0.127
      -0.177
      -0.190
      -0.149
      -0.049
       0.090
       0.208
       0.221
       0.043
      -0.381
      -1.044
      -1.877
      -2.768
      -3.589
      -4.203
      -4.474
      -4.279
      -3.547
      -2.320
      -0.784
       0.748
       1.944
       2.587
       2.665
       2.363
       1.952
       1.653
       1.565
       1.669
       1.876
       2.079
       2.179
       2.117
       1.900
       1.609
       1.344
       1.151
       0.977
       0.715
       0.296
      -0.247
      -0.792
      -1.197
      -1.370
      -1.294
      -1.009
      -0.585
      -0.114
       0.283
       0.466
       0.315
      -0.202
      -0.989
      -1.843
      -2.522
      -2.824
      -2.643
      -2.009
      -1.098
      -0.187
       0.450
       0.658
       0.460
       0.013
      -0.487
      -0.894
      -1.118
      -1.095
      -0.766
      -0.112
       0.802
       1.793
       2.602
       2.993
       2.873
       2.350
       1.678
       1.107
       0.760
       0.612
       0.580
       0.602
       0.645
       0.657
       0.564
       0.325
      -0.010
      -0.331
      -0.557
      -0.690
      -0.798
      -0.943
      -1.133
      -1.323
      -1.459
      -1.506
      -1.455
      -1.304
      -1.045
      -0.672
      -0.214
       0.238
       0.562
       0.673
       0.583
       0.385
       0.185
       0.047
      -0.014
       0.000
       0.087
       0.219
       0.328
       0.321
       0.147
      -0.145
      -0.413
      -0.501
      -0.340
       0.000
       0.350
       0.552
       0.553
       0.429
       0.309
       0.285
       0.361
       0.487
       0.614
       0.731
       0.837
       0.913
       0.925
       0.855
       0.723
       0.571
       0.422
       0.263
       0.063
      -0.181
      -0.424
      -0.606
      -0.698
      -0.730
      -0.769
      -0.864
      -1.013
      -1.162
      -1.256
      -1.279
      -1.264
      -1.256
      -1.243
      -1.143
      -0.849
      -0.325
       0.348
       1.012
       1.530
       1.834
       1.917
       1.776
       1.415
       0.875
       0.258
      -0.308
      -0.727
      -0.953
      -0.977
      -0.812
      -0.508
      -0.171
       0.072
       0.132
       0.007
      -0.237
      -0.515
      -0.766
      -0.948
      -1.024
      -0.954
      -0.715
      -0.325
       0.137
       0.547
       0.786
       0.806
       0.670
       0.515
       0.457
       0.512
       0.598
       0.632
       0.607
       0.590
       0.637
       0.721
       0.739
       0.596
       0.278
      -0.142
      -0.546
      -0.829
      -0.920
      -0.801
      -0.511
      -0.143
       0.191
       0.399
       0.444
       0.338
       0.127
      -0.119
      -0.325
      -0.436
      -0.431
      -0.326
      -0.145
       0.089
       0.349
       0.584
       0.731
       0.742
       0.617
       0.400
       0.157
      -0.054
      -0.205
      -0.304
      -0.371
      -0.407
      -0.374
      -0.223
       0.041
       0.330
       0.508
       0.488
       0.289
       0.020
      -0.204
      -0.330
      -0.375
      -0.388
      -0.392
      -0.373
      -0.290
      -0.133
       0.059
       0.210
       0.267
       0.231
       0.151
       0.080
       0.043
       0.043
       0.078
       0.143
       0.212
       0.242
       0.203
       0.102
      -0.011
      -0.094
      -0.141
      -0.186
      -0.274
      -0.420
      -0.606
      -0.798
      -0.963
      -1.076
      -1.103
      -1.004
      -0.738
      -0.307
       0.229
       0.748
       1.113
       1.221
       1.054
       0.690
       0.264
      -0.085
      -0.271
      -0.284
      -0.178
      -0.022
       0.130
       0.259
       0.368
       0.445
       0.456
       0.359
       0.146
      -0.124
      -0.354
      -0.454
      -0.396
      -0.212
       0.032
       0.267
       0.436
       0.503
       0.455
       0.309
       0.105
      -0.120
      -0.337
      -0.530
      -0.674
      -0.725
      -0.642
      -0.422
      -0.132
       0.110
       0.211
       0.167
       0.073
       0.043
       0.117
       0.225
       0.254
       0.157
      -0.003
      -0.110
      -0.086
       0.049
       0.209
       0.313
       0.333
       0.288
       0.203
       0.084
      -0.071
      -0.245
      -0.385
      -0.427
      -0.343
      -0.165
       0.035
       0.205
       0.337
       0.454
       0.564
       0.641
       0.642
       0.545
       0.360
       0.117
      -0.145
      -0.378
      -0.520
      -0.516
      -0.348
      -0.055
       0.278
       0.557
       0.707
       0.696
       0.536
       0.266
      -0.058
      -0.386
      -0.671
      -0.875
      -0.972
      -0.956
      -0.842
      -0.644
      -0.369
      -0.035
       0.309
       0.575
       0.680
       0.594
       0.356
       0.049
      -0.242
      -0.452
      -0.546
      -0.521
      -0.401
      -0.234
      -0.062
       0.090
       0.208
       0.279
       0.287
       0.230
       0.119
      -0.027
      -0.190
      -0.334
      -0.406
      -0.343
      -0.122
       0.217
       0.579
       0.856
       0.971
       0.896
       0.655
       0.311
      -0.046
      -0.329
      -0.492
      -0.540
      -0.515
      -0.460
      -0.383
      -0.271
      -0.118
       0.042
       0.142
       0.118
      -0.040
      -0.288
      -0.555
      -0.782
      -0.921
      -0.926
      -0.752
      -0.399
       0.056
       0.469
       0.701
       0.691
       0.490
       0.212
      -0.023
      -0.144
      -0.133
      -0.001
       0.220
       0.485
       0.725
       0.867
       0.866
       0.733
       0.530
       0.330
       0.170
       0.040
      -0.077
      -0.171
      -0.195
      -0.101
       0.112
       0.392
       0.647
       0.783
       0.725
       0.457
       0.031
      -0.430
      -0.782
      -0.933
      -0.898
      -0.783
