Origin Time       01/05/2009 22:36:25 UTC
Lat.              29.9 N 
Long.             80.1 E 
Depth (Km)         10.0
Magnitude         4.6
 Region           Bageshwar-Uttarakhand                                            
 Above details taken from IMD 
    
Station Code      CHA
Station Lat.       30.412  N
Station Long.      79.320  E
Station Height(m) 1578.0
Site Class        A   Vs30 between 700 m/sec to 1400 m/sec * 
Record Time       01.05.2010 22:35:11.319 UTC
Sampling Rate     200. Hz
 Record Duration   81.315 Sec.
 Direction         N-S (N positive)
Max. Acceleration      4.775 cm/sec**2
     
  * For reference see Site Classification link of website 
     
 Base Line Corrected and Low Pass Filtered (Cut Off at 35 Hz) Time History
 Acceleration data in cm/sec**2
    
[...]
      -0.297
      -0.257
      -0.208
      -0.163
      -0.135
      -0.123
      -0.119
      -0.118
      -0.116
      -0.109
      -0.094
      -0.078
      -0.073
      -0.076
      -0.078
      -0.074
      -0.065
      -0.049
      -0.025
       0.006
       0.040
       0.074
       0.098
       0.093
       0.049
      -0.017
      -0.080
      -0.126
      -0.156
      -0.178
      -0.191
      -0.195
      -0.186
      -0.159
      -0.118
      -0.073
      -0.032
       0.019
       0.102
       0.228
       0.384
       0.540
       0.664
       0.722
       0.702
       0.615
       0.484
       0.327
       0.161
       0.009
      -0.103
      -0.162
      -0.175
      -0.159
      -0.140
      -0.145
      -0.189
      -0.249
      -0.285
      -0.263
      -0.174
      -0.027
       0.157
       0.347
       0.503
       0.588
       0.579
       0.466
       0.273
       0.049
      -0.155
      -0.312
      -0.422
      -0.494
      -0.531
      -0.538
      -0.517
      -0.468
      -0.390
      -0.292
      -0.184
      -0.068
       0.059
       0.192
       0.310
       0.392
       0.426
       0.406
       0.339
       0.247
       0.150
       0.058
      -0.030
      -0.109
      -0.170
      -0.204
      -0.209
      -0.182
      -0.122
      -0.037
       0.062
       0.166
       0.263
       0.328
       0.331
       0.259
       0.134
      -0.008
      -0.130
      -0.210
      -0.244
      -0.247
      -0.236
      -0.219
      -0.190
      -0.152
      -0.107
      -0.052
       0.024
       0.120
       0.218
       0.294
       0.329
       0.314
       0.257
       0.188
       0.137
       0.112
       0.091
       0.043
      -0.047
      -0.178
      -0.332
      -0.478
      -0.583
      -0.634
      -0.634
      -0.600
      -0.542
      -0.468
      -0.379
      -0.274
      -0.159
      -0.060
      -0.007
      -0.012
      -0.053
      -0.098
      -0.125
      -0.126
      -0.106
      -0.081
      -0.069
      -0.069
      -0.065
      -0.042
       0.003
       0.069
       0.164
       0.287
       0.426
       0.561
       0.671
       0.738
       0.756
       0.732
       0.686
       0.626
       0.546
       0.435
       0.294
       0.134
      -0.029
      -0.171
      -0.273
      -0.328
      -0.347
      -0.340
      -0.314
      -0.277
      -0.242
      -0.212
      -0.183
      -0.147
      -0.111
      -0.084
      -0.074
      -0.087
      -0.118
      -0.151
      -0.167
      -0.157
      -0.132
      -0.101
      -0.061
      -0.001
       0.089
       0.206
       0.338
       0.455
       0.520
       0.517
       0.455
       0.353
       0.230
       0.103
       0.001
      -0.055
      -0.068
      -0.056
      -0.046
      -0.059
      -0.097
      -0.137
      -0.140
      -0.079
       0.046
       0.208
       0.370
       0.497
       0.562
       0.570
       0.542
       0.498
       0.435
       0.345
       0.229
       0.098
      -0.035
      -0.161
      -0.268
      -0.353
      -0.423
      -0.481
      -0.521
      -0.536
      -0.531
      -0.511
      -0.478
      -0.431
      -0.377
      -0.327
      -0.295
      -0.296
      -0.343
      -0.418
      -0.484
      -0.505
      -0.475
      -0.413
      -0.343
      -0.287
      -0.260
      -0.259
      -0.263
      -0.252
      -0.217
      -0.157
      -0.078
       0.014
       0.099
       0.161
       0.195
       0.209
       0.214
       0.224
       0.249
       0.289
       0.323
       0.329
       0.302
       0.257
       0.210
       0.182
       0.188
       0.231
       0.296
       0.364
       0.429
       0.482
       0.504
       0.471
       0.379
       0.248
       0.106
      -0.018
      -0.107
      -0.160
      -0.193
      -0.222
      -0.255
      -0.292
      -0.335
      -0.384
      -0.436
      -0.485
      -0.526
      -0.541
      -0.502
      -0.391
      -0.225
      -0.042
       0.126
       0.262
       0.365
       0.442
       0.500
       0.541
       0.556
       0.533
       0.475
       0.390
       0.279
       0.144
       0.003
      -0.113
      -0.173
      -0.162
      -0.086
       0.019
       0.098
       0.116
       0.076
       0.012
      -0.040
      -0.060
      -0.042
       0.002
       0.052
       0.088
       0.105
       0.104
       0.080
       0.031
      -0.023
      -0.051
      -0.034
       0.020
       0.080
       0.106
       0.064
      -0.045
      -0.181
      -0.295
      -0.362
      -0.382
      -0.372
      -0.341
      -0.296
      -0.234
      -0.153
      -0.063
       0.003
       0.016
      -0.025
      -0.079
      -0.104
      -0.075
       0.004
       0.103
       0.190
       0.242
       0.264
       0.271
       0.277
       0.281
       0.277
       0.259
       0.218
       0.154
       0.083
       0.019
      -0.034
      -0.089
      -0.150
      -0.209
      -0.256
      -0.279
      -0.266
      -0.206
      -0.106
       0.009
       0.112
       0.177
       0.184
       0.126
       0.022
      -0.089
      -0.174
      -0.214
      -0.209
      -0.173
      -0.131
      -0.105
      -0.098
      -0.099
      -0.101
      -0.112
      -0.134
      -0.168
      -0.206
      -0.242
      -0.258
      -0.243
      -0.201
      -0.154
      -0.114
      -0.082
      -0.046
       0.003
       0.071
       0.150
       0.217
       0.240
       0.206
       0.124
       0.019
      -0.080
      -0.145
      -0.162
      -0.138
      -0.094
      -0.044
       0.010
       0.072
       0.141
       0.222
       0.316
       0.411
       0.481
       0.503
       0.469
       0.384
       0.271
       0.162
       0.089
       0.063
       0.075
       0.111
       0.162
       0.222
       0.280
       0.326
       0.349
       0.343
       0.302
       0.235
       0.157
       0.073
      -0.018
      -0.115
      -0.205
      -0.281
      -0.340
      -0.379
      -0.393
      -0.385
      -0.367
      -0.350
      -0.340
      -0.340
      -0.360
      -0.403
      -0.458
      -0.511
      -0.542
      -0.526
      -0.436
      -0.268
      -0.043
       0.201
       0.417
       0.557
       0.585
       0.504
       0.360
       0.214
       0.110
       0.062
       0.058
       0.069
       0.064
       0.039
       0.020
       0.046
       0.136
       0.283
       0.455
       0.606
       0.686
       0.670
       0.563
       0.385
       0.159
      -0.089
      -0.333
      -0.551
      -0.731
      -0.853
      -0.898
      -0.865
      -0.780
      -0.681
      -0.600
      -0.553
      -0.544
      -0.562
      -0.579
      -0.574
      -0.537
      -0.462
      -0.347
      -0.204
      -0.063
       0.047
       0.114
       0.153
       0.191
       0.254
       0.349
       0.457
       0.541
       0.580
       0.581
       0.567
       0.555
       0.550
       0.551
       0.546
       0.524
       0.482
       0.439
       0.410
       0.396
       0.381
       0.354
       0.316
       0.271
       0.233
       0.213
       0.211
       0.219
       0.232
       0.260
       0.308
       0.366
       0.415
       0.436
       0.415
       0.344
       0.227
       0.081
      -0.089
      -0.285
      -0.513
      -0.756
      -0.992
      -1.209
      -1.402
      -1.561
      -1.671
      -1.719
      -1.695
      -1.590
      -1.405
      -1.157
      -0.877
      -0.598
      -0.353
      -0.168
      -0.049
       0.018
       0.049
       0.059
       0.062
       0.084
       0.151
       0.271
       0.438
       0.638
       0.850
       1.048
       1.211
       1.329
       1.396
       1.407
       1.355
       1.246
       1.093
       0.911
       0.724
       0.556
       0.425
       0.329
       0.260
       0.217
       0.196
       0.185
       0.177
       0.181
       0.216
       0.295
       0.412
       0.551
       0.682
       0.772
       0.797
       0.763
       0.689
       0.584
       0.439
       0.236
      -0.039
      -0.392
      -0.810
      -1.252
      -1.672
      -2.029
      -2.296
      -2.451
      -2.476
      -2.369
      -2.137
      -1.789
      -1.339
      -0.822
      -0.279
       0.249
       0.733
       1.147
       1.470
       1.690
       1.800
       1.792
       1.676
       1.483
       1.256
       1.028
       0.815
       0.628
       0.472
       0.339
       0.215
       0.093
      -0.026
      -0.142
      -0.248
      -0.332
      -0.381
      -0.395
      -0.376
      -0.313
      -0.196
      -0.037
       0.121
       0.234
       0.276
       0.252
       0.186
       0.110
       0.046
      -0.009
      -0.071
      -0.158
      -0.284
      -0.462
      -0.695
      -0.966
      -1.241
      -1.489
      -1.685
      -1.807
      -1.842
      -1.802
      -1.711
      -1.597
      -1.481
      -1.378
      -1.296
      -1.224
      -1.141
      -1.031
      -0.882
      -0.684
      -0.439
      -0.166
       0.108
       0.365
       0.613
       0.868
       1.138
       1.421
       1.700
       1.951
       2.157
       2.320
       2.435
       2.477
       2.402
       2.186
       1.842
       1.409
       0.931
       0.444
      -0.035
      -0.505
      -0.964
      -1.386
      -1.732
      -1.970
      -2.095
      -2.114
      -2.041
      -1.897
      -1.703
      -1.466
      -1.188
      -0.880
      -0.566
      -0.261
       0.039
       0.343
       0.645
       0.938
       1.211
       1.453
       1.647
       1.783
       1.865
       1.901
       1.895
       1.850
       1.769
       1.641
       1.442
       1.148
       0.751
       0.258
      -0.298
      -0.856
      -1.338
      -1.671
      -1.817
      -1.769
      -1.552
      -1.204
      -0.763
      -0.244
       0.350
       1.001
       1.667
       2.292
       2.826
       3.225
       3.454
       3.500
       3.383
       3.133
       2.773
       2.323
       1.806
       1.251
       0.682
       0.116
      -0.437
      -0.977
      -1.495
      -1.967
      -2.356
      -2.641
      -2.820
      -2.903
      -2.904
      -2.846
      -2.748
      -2.611
      -2.424
      -2.188
      -1.929
      -1.683
      -1.466
      -1.275
      -1.100
      -0.932
      -0.761
      -0.592
      -0.440
      -0.325
      -0.268
      -0.284
      -0.375
      -0.517
      -0.663
      -0.767
      -0.805
      -0.775
      -0.693
      -0.589
      -0.498
      -0.442
      -0.418
      -0.409
      -0.387
      -0.322
      -0.186
       0.020
       0.269
       0.520
       0.753
       0.975
       1.203
       1.452
       1.720
       1.982
       2.198
       2.333
       2.369
       2.302
       2.131
       1.873
       1.563
       1.239
       0.934
       0.665
       0.433
       0.214
      -0.032
      -0.331
      -0.674
      -1.021
      -1.328
      -1.560
      -1.706
      -1.774
      -1.790
      -1.767
      -1.693
      -1.550
      -1.338
      -1.083
      -0.825
      -0.601
      -0.426
      -0.281
      -0.131
       0.054
       0.275
       0.525
       0.804
       1.112
       1.426
       1.707
       1.915
       2.017
       1.997
       1.861
       1.632
       1.336
       0.990
       0.610
       0.216
      -0.163
      -0.505
      -0.783
      -0.966
      -1.029
      -0.968
      -0.802
      -0.560
      -0.268
       0.047
       0.364
       0.664
       0.920
       1.098
       1.176
       1.163
       1.082
       0.945
       0.753
       0.512
       0.237
      -0.050
      -0.331
      -0.592
      -0.828
      -1.038
      -1.210
      -1.317
      -1.335
      -1.270
      -1.152
      -1.013
      -0.873
      -0.734
      -0.579
      -0.373
      -0.100
       0.219
       0.528
       0.774
       0.924
       0.969
       0.920
       0.800
       0.627
       0.405
       0.146
      -0.128
      -0.384
      -0.605
      -0.787
      -0.926
      -1.022
      -1.080
      -1.113
      -1.127
      -1.119
      -1.080
      -1.000
      -0.870
      -0.685
      -0.449
      -0.161
       0.186
       0.595
       1.035
       1.456
       1.809
       2.069
       2.229
       2.285
       2.231
       2.053
       1.732
       1.262
       0.665
      -0.010
      -0.703
      -1.352
      -1.898
      -2.305
      -2.571
      -2.718
      -2.765
      -2.722
      -2.598
      -2.399
      -2.119
      -1.748
      -1.283
      -0.740
      -0.144
       0.466
       1.033
       1.506
       1.855
       2.083
       2.205
       2.240
       2.211
       2.136
       2.023
       1.876
       1.702
       1.516
       1.341
       1.207
       1.149
       1.175
       1.256
       1.330
       1.340
       1.243
       1.015
       0.653
       0.181
      -0.350
      -0.885
      -1.378
      -1.790
      -2.099
      -2.307
      -2.430
      -2.473
      -2.430
      -2.291
      -2.059
      -1.743
      -1.363
      -0.945
      -0.518
      -0.106
       0.265
       0.556
       0.734
       0.794
       0.758
       0.662
       0.541
       0.426
       0.342
       0.280
       0.206
       0.084
      -0.102
      -0.337
      -0.583
      -0.793
      -0.938
      -1.024
      -1.084
      -1.155
      -1.261
      -1.416
      -1.617
      -1.835
      -2.018
      -2.106
      -2.050
      -1.819
      -1.403
      -0.829
      -0.155
       0.562
       1.273
       1.942
       2.548
       3.091
       3.582
       4.022
       4.392
       4.655
       4.775
       4.713
       4.439
       3.949
       3.268
       2.437
       1.513
       0.571
      -0.310
      -1.079
      -1.716
      -2.216
      -2.578
      -2.813
      -2.955
      -3.021
      -3.000
      -2.864
      -2.602
      -2.222
      -1.752
      -1.235
      -0.739
      -0.335
      -0.063
       0.077
       0.123
       0.132
       0.149
       0.188
       0.228
       0.242
       0.213
       0.140
       0.034
      -0.090
      -0.210
      -0.312
      -0.387
      -0.422
      -0.404
      -0.341
      -0.263
      -0.207
      -0.193
      -0.216
      -0.251
      -0.269
      -0.247
      -0.185
      -0.092
       0.030
       0.200
       0.430
       0.713
       1.021
       1.318
       1.566
       1.733
       1.811
       1.814
       1.761
       1.661
       1.512
       1.307
       1.032
       0.671
       0.217
      -0.302
      -0.838
      -1.331
      -1.711
      -1.914
      -1.895
      -1.653
      -1.236
      -0.734
      -0.251
       0.124
       0.362
       0.492
       0.569
       0.644
       0.753
       0.907
       1.094
       1.273
       1.402
       1.444
       1.373
       1.176
       0.868
       0.487
       0.077
      -0.342
      -0.770
      -1.218
      -1.688
      -2.176
      -2.653
      -3.074
      -3.398
      -3.594
      -3.642
      -3.523
      -3.238
      -2.808
      -2.270
      -1.661
      -1.023
      -0.394
       0.197
       0.742
       1.240
       1.682
       2.054
       2.343
       2.532
       2.604
       2.547
       2.372
       2.100
       1.759
       1.381
       0.997
       0.628
       0.282
      -0.036
      -0.322
      -0.573
      -0.796
      -0.988
      -1.137
      -1.228
      -1.261
      -1.234
      -1.137
      -0.954
      -0.682
      -0.338
       0.047
       0.441
       0.814
       1.160
       1.485
       1.789
       2.045
       2.204
       2.230
       2.110
       1.863
       1.533
       1.181
       0.859
       0.596
       0.403
       0.280
       0.214
       0.178
       0.149
       0.124
       0.110
       0.107
       0.108
       0.114
       0.127
       0.145
       0.154
       0.135
       0.060
      -0.095
      -0.338
      -0.634
      -0.925
      -1.159
      -1.307
      -1.366
      -1.348
      -1.274
      -1.163
      -1.030
      -0.895
      -0.796
      -0.770
      -0.837
      -0.989
      -1.199
      -1.420
      -1.585
      -1.639
      -1.556
      -1.354
      -1.073
      -0.761
      -0.463
      -0.205
       0.012
       0.204
       0.384
       0.554
       0.707
       0.831
       0.918
       0.980
       1.043
       1.133
       1.244
       1.348
       1.415
       1.419
       1.334
       1.145
       0.860
       0.504
       0.115
      -0.265
      -0.592
      -0.827
      -0.963
      -1.018
      -1.021
      -0.990
      -0.931
      -0.830
      -0.667
      -0.436
      -0.170
       0.073
       0.251
       0.352
       0.391
       0.392
       0.379
       0.362
       0.342
       0.316
       0.287
       0.255
       0.203
       0.110
      -0.027
      -0.192
      -0.361
      -0.519
      -0.650
      -0.742
      -0.788
      -0.780
      -0.711
      -0.584
      -0.424
      -0.269
      -0.145
      -0.058
      -0.007
       0.019
       0.040
       0.084
       0.167
       0.294
       0.461
       0.666
       0.898
       1.152
       1.432
       1.737
       2.040
       2.284
       2.411
       2.386
       2.207
       1.898
       1.501
       1.054
       0.586
       0.111
      -0.354
      -0.790
      -1.180
      -1.505
      -1.742
      -1.867
      -1.874
      -1.775
      -1.587
      -1.331
      -1.040
      -0.750
      -0.487
      -0.253
      -0.043
       0.148
       0.320
       0.465
       0.560
       0.578
       0.513
       0.391
       0.247
       0.122
       0.038
      -0.001
      -0.012
      -0.021
      -0.036
      -0.049
      -0.064
      -0.107
      -0.204
      -0.361
      -0.562
      -0.775
      -0.961
      -1.091
      -1.159
      -1.179
      -1.166
      -1.130
      -1.077
      -1.010
      -0.916
      -0.771
      -0.555
      -0.264
       0.093
       0.490
       0.897
       1.276
       1.601
       1.852
       2.009
       2.053
       1.974
       1.767
       1.432
       0.976
       0.431
      -0.150
      -0.716
      -1.230
      -1.665
      -1.997
      -2.212
      -2.310
      -2.294
      -2.163
      -1.919
      -1.579
      -1.175
      -0.753
      -0.362
      -0.037
       0.221
       0.445
       0.665
       0.887
       1.092
       1.251
       1.339
       1.344
       1.286
       1.210
       1.152
       1.130
       1.146
       1.198
       1.279
       1.371
       1.449
       1.490
       1.477
       1.401
       1.276
       1.127
       0.978
       0.828
       0.662
       0.466
       0.232
      -0.029
      -0.281
      -0.480
      -0.604
      -0.655
      -0.652
      -0.607
      -0.538
      -0.480
      -0.465
      -0.507
      -0.594
      -0.704
      -0.812
      -0.906
      -0.990
      -1.077
      -1.171
      -1.255
      -1.301
      -1.293
      -1.223
      -1.093
      -0.919
      -0.723
      -0.521
      -0.313
      -0.089
       0.149
       0.392
       0.627
       0.841
       1.017
       1.146
       1.227
       1.251
       1.197
       1.052
       0.835
       0.585
       0.342
       0.128
      -0.054
      -0.221
      -0.391
      -0.564
      -0.713
      -0.799
      -0.792
      -0.673
      -0.437
      -0.108
       0.253
       0.570
       0.783
       0.858
       0.791
       0.613
       0.376
       0.128
      -0.109
      -0.329
      -0.530
      -0.705
      -0.848
