Origin Time       04/04/2011 11:31:40
Lat.              29.6 N	
Long.             80.8 E	
Depth (Km)         10.0
Magnitude         5.7
 Region           NEPAL-INDIA-BORDER-REGION                                        
 Above details taken from IMD 
   
Station Code      CHA
Station Lat.       30.412
Station Long.      79.320
Station Height(m) 1578.0
Site Class        A   Vs30 between 700 m/sec to 1400 m/sec * 
Record Time       04.04.2011 11:28:37.334
Sampling Rate     200. Hz
 Record Duration  137.790 Sec.
 Direction         Vert. (Up positive)
Max. Acceleration     -8.763 cm/sec**2
     
  * For reference see Site Classification link of website 
     
 Base Line Corrected and Low Pass Filtered (Cut Off at 35 Hz) Time History
 Acceleration data in cm/sec**2
    
[...]
      -0.024
       0.008
      -0.020
      -0.090
      -0.164
      -0.243
      -0.323
      -0.356
      -0.303
      -0.189
      -0.055
       0.111
       0.319
       0.520
       0.666
       0.774
       0.878
       0.964
       1.010
       1.044
       1.092
       1.119
       1.077
       0.977
       0.847
       0.679
       0.464
       0.250
       0.085
      -0.042
      -0.157
      -0.240
      -0.267
      -0.270
      -0.286
      -0.295
      -0.269
      -0.235
      -0.223
      -0.200
      -0.131
      -0.055
      -0.031
      -0.054
      -0.093
      -0.160
      -0.273
      -0.395
      -0.472
      -0.515
      -0.570
      -0.640
      -0.712
      -0.808
      -0.952
      -1.105
      -1.218
      -1.297
      -1.364
      -1.400
      -1.380
      -1.331
      -1.289
      -1.237
      -1.145
      -1.033
      -0.932
      -0.828
      -0.708
      -0.597
      -0.515
      -0.422
      -0.274
      -0.079
       0.142
       0.402
       0.697
       0.968
       1.164
       1.301
       1.407
       1.461
       1.444
       1.386
       1.317
       1.217
       1.076
       0.941
       0.845
       0.761
       0.662
       0.583
       0.545
       0.509
       0.434
       0.342
       0.255
       0.138
      -0.032
      -0.208
      -0.339
      -0.431
      -0.501
      -0.518
      -0.457
      -0.356
      -0.253
      -0.131
       0.032
       0.211
       0.382
       0.580
       0.834
       1.108
       1.354
       1.584
       1.817
       2.022
       2.164
       2.247
       2.263
       2.156
       1.886
       1.488
       1.021
       0.515
       0.002
      -0.449
      -0.794
      -1.056
      -1.263
      -1.394
      -1.439
      -1.436
      -1.411
      -1.336
      -1.195
      -1.031
      -0.886
      -0.742
      -0.590
      -0.483
      -0.461
      -0.493
      -0.531
      -0.579
      -0.639
      -0.657
      -0.595
      -0.485
      -0.371
      -0.244
      -0.089
       0.052
       0.140
       0.203
       0.288
       0.388
       0.491
       0.630
       0.829
       1.040
       1.205
       1.322
       1.403
       1.424
       1.362
       1.240
       1.078
       0.848
       0.535
       0.187
      -0.143
      -0.455
      -0.748
      -0.971
      -1.084
      -1.116
      -1.100
      -1.029
      -0.914
      -0.824
      -0.809
      -0.839
      -0.870
      -0.918
      -0.996
      -1.055
      -1.043
      -0.970
      -0.851
      -0.645
      -0.327
       0.051
       0.418
       0.753
       1.046
       1.244
       1.312
       1.292
       1.238
       1.150
       1.019
       0.890
       0.799
       0.715
       0.598
       0.461
       0.331
       0.193
       0.040
      -0.092
      -0.172
      -0.218
      -0.234
      -0.173
      -0.011
       0.204
       0.407
       0.577
       0.684
       0.671
       0.514
       0.262
      -0.034
      -0.364
      -0.703
      -0.985
      -1.181
      -1.323
      -1.428
      -1.461
      -1.415
      -1.337
      -1.260
      -1.168
      -1.067
      -1.010
      -1.018
      -1.051
      -1.078
      -1.106
      -1.121
      -1.061
      -0.907
      -0.707
      -0.503
      -0.282
      -0.046
       0.158
       0.308
       0.429
       0.522
       0.536
       0.450
       0.308
       0.146
      -0.039
      -0.220
      -0.323
      -0.319
      -0.263
      -0.213
      -0.171
      -0.147
      -0.198
      -0.361
      -0.611
      -0.918
      -1.282
      -1.666
      -1.979
      -2.166
      -2.249
      -2.247
      -2.111
      -1.815
      -1.419
      -1.000
      -0.581
      -0.175
       0.173
       0.438
       0.664
       0.890
       1.089
       1.228
       1.334
       1.433
       1.485
       1.444
       1.330
       1.184
       1.010
       0.808
       0.625
       0.507
       0.442
       0.403
       0.404
       0.456
       0.519
       0.562
       0.603
       0.658
       0.698
       0.696
       0.679
       0.670
       0.649
       0.608
       0.590
       0.620
       0.663
       0.684
       0.700
       0.718
       0.699
       0.625
       0.543
       0.489
       0.444
       0.388
       0.350
       0.340
       0.317
       0.266
       0.234
       0.252
       0.286
       0.316
       0.380
       0.505
       0.647
       0.763
       0.850
       0.898
       0.856
       0.713
       0.528
       0.357
       0.210
       0.103
       0.075
       0.125
       0.201
       0.279
       0.385
       0.522
       0.640
       0.704
       0.717
       0.670
       0.529
       0.307
       0.061
      -0.186
      -0.468
      -0.794
      -1.125
      -1.439
      -1.749
      -2.034
      -2.232
      -2.318
      -2.338
      -2.320
      -2.243
      -2.094
      -1.908
      -1.713
      -1.504
      -1.289
      -1.094
      -0.918
      -0.724
      -0.520
      -0.359
      -0.248
      -0.127
       0.036
       0.198
       0.315
       0.389
       0.411
       0.340
       0.168
      -0.064
      -0.327
      -0.629
      -0.938
      -1.165
      -1.263
      -1.264
      -1.202
      -1.048
      -0.795
      -0.492
      -0.170
       0.204
       0.651
       1.118
       1.539
       1.905
       2.217
       2.431
       2.512
       2.482
       2.370
       2.162
       1.857
       1.498
       1.125
       0.730
       0.319
      -0.040
      -0.290
      -0.444
      -0.536
      -0.560
      -0.508
      -0.416
      -0.316
      -0.183
      -0.001
       0.188
       0.343
       0.475
       0.596
       0.661
       0.627
       0.515
       0.363
       0.168
      -0.069
      -0.298
      -0.481
      -0.638
      -0.808
      -0.988
      -1.168
      -1.352
      -1.523
      -1.640
      -1.698
      -1.744
      -1.796
      -1.821
      -1.804
      -1.781
      -1.758
      -1.682
      -1.512
      -1.260
      -0.938
      -0.532
      -0.061
       0.413
       0.854
       1.276
       1.667
       1.984
       2.217
       2.409
       2.568
       2.648
       2.616
       2.477
       2.222
       1.830
       1.337
       0.833
       0.371
      -0.055
      -0.439
      -0.746
      -0.963
      -1.117
      -1.207
      -1.203
      -1.114
      -0.979
      -0.798
      -0.527
      -0.162
       0.248
       0.668
       1.096
       1.504
       1.837
       2.076
       2.255
       2.391
       2.473
       2.518
       2.573
       2.653
       2.736
       2.830
       2.965
       3.132
       3.269
       3.331
       3.308
       3.181
       2.928
       2.577
       2.194
       1.817
       1.442
       1.093
       0.816
       0.615
       0.448
       0.296
       0.172
       0.063
      -0.076
      -0.250
      -0.415
      -0.552
      -0.694
      -0.841
      -0.943
      -0.976
      -0.981
      -0.983
      -0.948
      -0.864
      -0.803
      -0.836
      -0.952
      -1.119
      -1.365
      -1.719
      -2.135
      -2.542
      -2.920
      -3.273
      -3.555
      -3.719
      -3.778
      -3.773
      -3.700
      -3.548
      -3.351
      -3.151
      -2.946
      -2.736
      -2.562
      -2.464
      -2.424
      -2.412
      -2.434
      -2.488
      -2.522
      -2.491
      -2.409
      -2.298
      -2.137
      -1.930
      -1.735
      -1.598
      -1.504
      -1.431
      -1.396
      -1.394
      -1.366
      -1.278
      -1.160
      -1.035
      -0.867
      -0.639
      -0.388
      -0.139
       0.139
       0.472
       0.846
       1.265
       1.762
       2.340
       2.947
       3.545
       4.134
       4.695
       5.184
       5.595
       5.950
       6.235
       6.401
       6.437
       6.383
       6.255
       6.050
       5.804
       5.580
       5.393
       5.212
       5.036
       4.881
       4.706
       4.438
       4.045
       3.544
       2.922
       2.147
       1.234
       0.250
      -0.768
      -1.798
      -2.772
      -3.593
      -4.222
      -4.670
      -4.921
      -4.941
      -4.760
      -4.472
      -4.146
      -3.806
      -3.497
      -3.273
      -3.129
      -3.005
      -2.878
      -2.788
      -2.750
      -2.741
      -2.769
      -2.880
      -3.082
      -3.325
      -3.598
      -3.947
      -4.377
      -4.809
      -5.168
      -5.444
      -5.611
      -5.582
      -5.301
      -4.817
      -4.205
      -3.472
      -2.609
      -1.670
      -0.715
       0.252
       1.235
       2.173
       2.995
       3.691
       4.282
       4.754
       5.101
       5.358
       5.564
       5.709
       5.780
       5.796
       5.773
       5.686
       5.510
       5.250
       4.910
       4.484
       4.001
       3.523
       3.092
       2.721
       2.450
       2.334
       2.362
       2.465
       2.598
       2.760
       2.922
       3.019
       3.027
       2.976
       2.872
       2.688
       2.438
       2.179
       1.934
       1.678
       1.412
       1.154
       0.882
       0.535
       0.100
      -0.386
      -0.904
      -1.450
      -1.980
      -2.426
      -2.778
      -3.074
      -3.326
      -3.517
      -3.666
      -3.821
      -3.981
      -4.110
      -4.215
      -4.344
      -4.511
      -4.689
      -4.877
      -5.097
      -5.323
      -5.494
      -5.593
      -5.659
      -5.712
      -5.742
      -5.756
      -5.779
      -5.800
      -5.776
      -5.693
      -5.564
      -5.369
      -5.072
      -4.680
      -4.232
      -3.725
      -3.126
      -2.447
      -1.746
      -1.047
      -0.325
       0.405
       1.073
       1.640
       2.125
       2.534
       2.835
       3.020
       3.137
       3.206
       3.193
       3.092
       2.952
       2.809
       2.647
       2.468
       2.329
       2.270
       2.262
       2.274
       2.320
       2.402
       2.473
       2.506
       2.529
       2.547
       2.504
       2.361
       2.161
       1.955
       1.737
       1.503
       1.309
       1.213
       1.215
       1.301
       1.490
       1.768
       2.056
       2.277
       2.408
       2.431
       2.296
       1.991
       1.577
       1.116
       0.617
       0.099
      -0.378
      -0.785
      -1.151
      -1.484
      -1.734
      -1.871
      -1.929
      -1.936
      -1.879
      -1.769
      -1.657
      -1.553
      -1.412
      -1.227
      -1.058
      -0.931
      -0.785
      -0.570
      -0.296
       0.031
       0.442
       0.918
       1.362
       1.709
       1.966
       2.123
       2.109
       1.893
       1.539
       1.118
       0.655
       0.186
      -0.210
      -0.492
      -0.705
      -0.898
      -1.072
      -1.232
      -1.410
      -1.612
      -1.805
      -1.970
      -2.106
      -2.179
      -2.128
      -1.934
      -1.626
      -1.218
      -0.715
      -0.165
       0.357
       0.810
       1.179
       1.415
       1.466
       1.345
       1.110
       0.790
       0.395
      -0.022
      -0.390
      -0.687
      -0.923
      -1.074
      -1.114
      -1.074
      -1.016
      -0.960
      -0.896
      -0.841
      -0.807
      -0.736
      -0.542
      -0.206
       0.248
       0.823
       1.536
       2.339
       3.137
       3.863
       4.468
       4.866
       4.954
       4.710
       4.190
       3.456
       2.575
       1.657
       0.818
       0.083
      -0.593
      -1.214
      -1.722
      -2.108
      -2.438
      -2.736
      -2.936
      -2.988
      -2.930
      -2.801
      -2.578
      -2.249
      -1.875
      -1.511
      -1.133
      -0.713
      -0.295
       0.060
       0.336
       0.527
       0.590
       0.505
       0.317
       0.088
      -0.152
      -0.367
      -0.489
      -0.483
      -0.383
      -0.217
       0.021
       0.310
       0.569
       0.744
       0.849
       0.899
       0.860
       0.711
       0.488
       0.227
      -0.063
      -0.348
      -0.563
      -0.684
      -0.744
      -0.753
      -0.684
      -0.546
      -0.406
      -0.305
      -0.238
      -0.209
      -0.245
      -0.324
      -0.381
      -0.379
      -0.326
      -0.211
       0.000
       0.297
       0.631
       0.965
       1.275
       1.506
       1.615
       1.629
       1.610
       1.556
       1.418
       1.193
       0.927
       0.643
       0.331
      -0.004
      -0.348
      -0.723
      -1.153
      -1.609
      -2.038
      -2.429
      -2.790
      -3.094
      -3.314
      -3.477
      -3.607
      -3.641
      -3.489
      -3.141
      -2.655
      -2.073
      -1.423
      -0.790
      -0.285
       0.047
       0.229
       0.279
       0.222
       0.149
       0.169
       0.295
       0.463
       0.643
       0.860
       1.088
       1.237
       1.257
       1.180
       1.045
       0.858
       0.656
       0.533
       0.552
       0.709
       1.008
       1.496
       2.176
       2.971
       3.790
       4.594
       5.344
       5.971
       6.417
       6.673
       6.741
       6.633
       6.393
       6.087
       5.759
       5.438
       5.177
       5.034
       5.016
       5.083
       5.193
       5.300
       5.337
       5.258
       5.076
       4.816
       4.465
       4.022
       3.549
       3.117
       2.723
       2.326
       1.914
       1.478
       0.965
       0.331
      -0.389
      -1.136
      -1.915
      -2.751
      -3.608
      -4.418
      -5.170
      -5.886
      -6.532
      -7.059
      -7.487
      -7.874
      -8.212
      -8.443
      -8.579
      -8.684
      -8.763
      -8.750
      -8.640
      -8.509
      -8.390
      -8.228
      -7.978
      -7.667
      -7.316
      -6.896
      -6.423
      -5.990
      -5.653
      -5.367
      -5.053
      -4.675
      -4.199
      -3.565
      -2.760
      -1.845
      -0.892
       0.072
       1.016
       1.876
       2.615
       3.239
       3.753
       4.139
       4.393
       4.545
       4.623
       4.649
       4.660
       4.681
       4.707
       4.737
       4.800
       4.904
       4.995
       5.005
       4.920
       4.730
       4.392
       3.881
       3.247
       2.557
       1.823
       1.040
       0.253
      -0.488
      -1.186
      -1.858
      -2.469
      -2.972
      -3.377
      -3.695
      -3.867
      -3.833
      -3.625
      -3.331
      -2.983
      -2.578
      -2.172
      -1.850
      -1.610
      -1.379
      -1.128
      -0.874
      -0.589
      -0.202
       0.292
       0.821
       1.330
       1.807
       2.215
       2.483
       2.577
       2.515
       2.305
       1.950
       1.496
       1.029
       0.597
       0.215
      -0.075
      -0.228
      -0.270
      -0.278
      -0.303
      -0.359
      -0.492
      -0.755
      -1.113
      -1.448
      -1.677
      -1.784
      -1.760
      -1.582
      -1.281
      -0.944
      -0.645
      -0.434
      -0.374
      -0.527
      -0.870
      -1.309
      -1.757
      -2.153
      -2.418
      -2.471
      -2.292
      -1.898
      -1.285
      -0.454
       0.533
       1.570
       2.572
       3.471
       4.189
       4.683
       4.991
       5.193
       5.336
       5.451
       5.577
       5.711
       5.777
       5.693
       5.444
       5.052
       4.510
       3.828
       3.072
       2.323
       1.612
       0.958
       0.421
       0.051
      -0.182
      -0.338
      -0.447
      -0.538
      -0.688
      -0.968
      -1.374
      -1.865
      -2.425
      -3.015
      -3.504
      -3.745
      -3.687
      -3.363
      -2.804
      -2.056
      -1.254
      -0.569
      -0.078
       0.237
       0.366
       0.260
      -0.066
      -0.518
      -1.037
      -1.631
      -2.266
      -2.834
      -3.249
      -3.513
      -3.646
      -3.653
      -3.573
      -3.489
      -3.449
      -3.438
      -3.445
      -3.483
      -3.537
      -3.551
      -3.502
      -3.402
      -3.232
      -2.936
      -2.494
      -1.931
      -1.257
      -0.462
       0.402
       1.228
       1.943
       2.540
       3.013
       3.357
       3.629
       3.917
       4.256
       4.629
       5.041
       5.515
       6.026
       6.514
       6.958
       7.357
       7.653
       7.765
       7.676
       7.435
       7.071
       6.592
       6.031
       5.441
       4.837
       4.224
       3.631
       3.073
       2.517
       1.932
       1.347
       0.798
       0.272
      -0.256
      -0.757
      -1.186
      -1.535
      -1.793
      -1.902
      -1.810
      -1.549
      -1.182
      -0.751
      -0.306
       0.047
       0.207
       0.148
      -0.117
      -0.593
      -1.253
      -1.998
      -2.718
      -3.367
      -3.929
      -4.356
      -4.611
      -4.724
      -4.752
      -4.705
      -4.589
      -4.458
      -4.373
      -4.328
      -4.292
      -4.278
      -4.304
      -4.317
      -4.235
      -4.045
      -3.791
      -3.497
      -3.170
      -2.861
      -2.641
      -2.522
      -2.466
      -2.456
      -2.488
      -2.523
      -2.511
      -2.452
      -2.373
      -2.249
      -2.024
      -1.680
      -1.246
      -0.726
      -0.115
       0.546
       1.191
       1.795
       2.364
       2.882
       3.324
       3.718
       4.104
       4.467
       4.756
       4.954
       5.068
       5.075
       4.942
       4.673
       4.289
       3.794
       3.193
       2.535
       1.867
       1.195
       0.533
      -0.058
      -0.528
      -0.900
      -1.215
      -1.453
      -1.586
      -1.654
      -1.718
      -1.766
      -1.752
      -1.705
      -1.683
      -1.681
      -1.650
      -1.610
      -1.618
      -1.664
      -1.687
      -1.685
      -1.717
      -1.783
      -1.826
      -1.832
      -1.841
      -1.851
      -1.815
      -1.743
      -1.702
      -1.704
      -1.695
      -1.643
      -1.575
      -1.490
      -1.351
      -1.160
      -0.962
      -0.763
      -0.529
      -0.277
      -0.064
       0.098
       0.240
       0.357
       0.412
       0.427
       0.472
       0.571
       0.700
       0.867
       1.107
       1.406
       1.708
       1.984
       2.241
       2.464
       2.632
       2.761
       2.874
       2.956
       2.984
       2.965
       2.908
       2.787
       2.591
       2.363
       2.140
       1.901
       1.619
       1.301
       0.941
       0.496
      -0.052
      -0.635
      -1.170
      -1.622
      -1.969
      -2.160
      -2.183
      -2.101
      -1.985
      -1.845
      -1.686
      -1.557
      -1.495
      -1.462
      -1.406
      -1.330
      -1.252
      -1.149
      -0.999
      -0.824
      -0.646
      -0.428
      -0.135
       0.201
       0.522
       0.816
       1.076
       1.239
       1.243
       1.128
       0.980
       0.824
       0.635
       0.438
       0.287
       0.169
       0.019
      -0.159
      -0.289
      -0.340
      -0.357
      -0.358
      -0.309
      -0.213
      -0.131
      -0.101
      -0.105
      -0.138
      -0.224
      -0.348
      -0.447
      -0.481
      -0.461
      -0.393
      -0.269
      -0.108
       0.063
       0.258
       0.513
       0.828
       1.174
       1.538
       1.901
       2.200
       2.366
       2.390
       2.291
       2.076
       1.765
       1.428
       1.121
       0.834
       0.541
       0.261
       0.017
      -0.220
      -0.466
