Origin Time       04/10/2007 5:14:15 
Lat.              32.5 N 
Long.             76.0 E 
Depth (Km)         10.0
Magnitude         3.8
 Region           CHAMBA-HIMACHAL                                                  
 Above details taken from IMD 
     
Station Code      CHA
Station Lat.       32.555  N
Station Long.      76.126  E
Station Height(m)  952.0
Site Class        A   Vs30 between 700 m/sec to 1400 m/sec * 
Record Time       04.10.2007 05:14:02.534
Sampling Rate     200. Hz
 Record Duration   33.770 Sec.
 Direction         E-W (E positive)
Max. Acceleration    -24.719 cm/sec**2
     
  * For reference see Site Classification link of website 
     
 Base Line Corrected and Low Pass Filtered (Cut Off at 35 Hz) Time History
 Acceleration data in cm/sec**2
    
[...]
      -0.001
       0.004
       0.007
       0.009
       0.009
       0.007
       0.001
      -0.010
      -0.017
      -0.014
      -0.001
       0.012
       0.014
       0.004
      -0.006
      -0.007
       0.003
       0.013
       0.016
       0.007
      -0.006
      -0.013
      -0.009
       0.001
       0.008
       0.008
       0.005
       0.000
      -0.006
      -0.012
      -0.016
      -0.012
      -0.002
       0.008
       0.013
       0.011
       0.005
       0.000
       0.000
       0.003
       0.006
       0.008
       0.012
       0.013
       0.010
       0.003
      -0.002
      -0.001
       0.006
       0.012
       0.009
      -0.004
      -0.021
      -0.030
      -0.020
       0.006
       0.028
       0.031
       0.016
      -0.002
      -0.011
      -0.009
      -0.005
      -0.003
       0.000
       0.003
       0.004
      -0.002
      -0.011
      -0.012
      -0.004
       0.005
       0.004
      -0.005
      -0.013
      -0.013
      -0.008
      -0.003
       0.002
       0.007
       0.008
       0.002
      -0.011
      -0.019
      -0.018
      -0.011
      -0.003
       0.000
       0.000
       0.000
      -0.001
      -0.001
      -0.001
      -0.001
      -0.002
      -0.003
      -0.002
       0.001
       0.007
       0.011
       0.010
       0.002
      -0.003
       0.000
       0.012
       0.022
       0.021
       0.009
      -0.004
      -0.006
       0.004
       0.016
       0.019
       0.009
      -0.003
      -0.006
       0.002
       0.011
       0.012
       0.004
      -0.006
      -0.013
      -0.015
      -0.012
      -0.006
      -0.001
       0.000
      -0.004
      -0.012
      -0.015
      -0.010
       0.002
       0.008
       0.001
      -0.015
      -0.027
      -0.025
      -0.012
       0.002
       0.011
       0.012
       0.008
       0.001
      -0.004
      -0.007
      -0.010
      -0.012
      -0.012
      -0.008
       0.001
       0.009
       0.013
       0.008
      -0.002
      -0.014
      -0.020
      -0.018
      -0.010
       0.000
       0.006
       0.008
       0.004
      -0.003
      -0.008
      -0.010
      -0.012
      -0.014
      -0.013
      -0.006
       0.007
       0.016
       0.012
      -0.003
      -0.014
      -0.014
      -0.002
       0.010
       0.013
       0.007
      -0.002
      -0.008
      -0.008
      -0.003
       0.006
       0.014
       0.015
       0.009
       0.001
      -0.002
       0.005
       0.013
       0.015
       0.005
      -0.009
      -0.018
      -0.015
      -0.004
       0.004
       0.001
      -0.007
      -0.012
      -0.008
       0.000
       0.005
       0.003
      -0.004
      -0.012
      -0.016
      -0.013
      -0.005
       0.002
       0.005
       0.003
       0.002
       0.003
       0.008
       0.013
       0.012
       0.005
      -0.004
      -0.008
      -0.006
      -0.004
      -0.001
       0.003
       0.011
       0.018
       0.022
       0.018
       0.008
      -0.004
      -0.012
      -0.013
      -0.010
      -0.006
      -0.005
      -0.005
      -0.006
      -0.006
      -0.004
       0.000
       0.001
      -0.001
      -0.004
      -0.005
      -0.004
      -0.003
      -0.004
      -0.005
      -0.003
       0.002
       0.006
       0.009
       0.009
       0.005
      -0.002
      -0.010
      -0.015
      -0.016
      -0.014
      -0.010
      -0.003
       0.003
       0.005
       0.001
      -0.006
      -0.014
      -0.018
      -0.017
      -0.010
      -0.002
       0.003
       0.004
       0.003
       0.001
      -0.001
      -0.003
      -0.003
      -0.002
      -0.003
      -0.005
      -0.009
      -0.013
      -0.014
      -0.013
      -0.009
      -0.008
      -0.010
      -0.017
      -0.024
      -0.027
      -0.022
      -0.010
       0.001
       0.003
      -0.005
      -0.015
      -0.018
      -0.012
      -0.003
       0.000
      -0.004
      -0.009
      -0.010
      -0.006
      -0.003
      -0.005
      -0.010
      -0.015
      -0.014
      -0.009
      -0.004
      -0.001
      -0.001
      -0.002
      -0.003
      -0.004
      -0.004
      -0.002
       0.000
       0.001
      -0.001
      -0.005
      -0.010
      -0.012
      -0.008
      -0.006
      -0.010
      -0.018
      -0.020
      -0.010
       0.002
       0.003
      -0.007
      -0.017
      -0.014
       0.004
       0.024
       0.028
       0.012
      -0.016
      -0.036
      -0.040
      -0.030
      -0.016
      -0.007
      -0.005
      -0.006
      -0.007
      -0.005
      -0.002
      -0.001
       0.001
       0.004
       0.006
       0.004
      -0.002
      -0.007
      -0.010
      -0.011
      -0.015
      -0.019
      -0.018
      -0.013
      -0.007
      -0.005
      -0.009
      -0.014
      -0.017
      -0.015
      -0.009
      -0.004
      -0.002
      -0.004
      -0.007
      -0.007
      -0.001
       0.007
       0.013
       0.011
       0.001
      -0.012
      -0.022
      -0.024
      -0.020
      -0.011
      -0.002
       0.004
       0.006
       0.006
       0.008
       0.009
       0.005
      -0.007
      -0.024
      -0.038
      -0.042
      -0.033
      -0.013
       0.008
       0.018
       0.010
      -0.006
      -0.018
      -0.016
      -0.003
       0.011
       0.014
       0.003
      -0.011
      -0.017
      -0.012
      -0.004
      -0.001
      -0.006
      -0.009
      -0.007
      -0.001
       0.002
      -0.003
      -0.015
      -0.027
      -0.035
      -0.034
      -0.025
      -0.014
      -0.008
      -0.010
      -0.016
      -0.016
      -0.006
       0.007
       0.009
       0.000
      -0.014
      -0.022
      -0.020
      -0.008
       0.006
       0.014
       0.011
       0.002
      -0.005
      -0.006
      -0.003
      -0.004
      -0.005
      -0.003
       0.004
       0.012
       0.013
       0.003
      -0.009
      -0.014
      -0.008
       0.000
      -0.003
      -0.016
      -0.029
      -0.029
      -0.019
      -0.008
      -0.003
      -0.004
      -0.007
      -0.009
      -0.008
      -0.002
       0.003
       0.003
      -0.001
      -0.006
      -0.005
       0.000
       0.003
       0.001
      -0.002
      -0.002
       0.003
       0.007
       0.003
      -0.008
      -0.019
      -0.023
      -0.020
      -0.015
      -0.008
       0.001
       0.008
       0.007
      -0.001
      -0.010
      -0.013
      -0.006
       0.007
       0.016
       0.018
       0.010
      -0.002
      -0.014
      -0.021
      -0.018
      -0.004
       0.017
       0.033
       0.034
       0.017
      -0.005
      -0.020
      -0.020
      -0.008
       0.004
       0.008
       0.001
      -0.010
      -0.014
      -0.009
      -0.003
       0.000
      -0.002
      -0.005
      -0.007
      -0.007
      -0.008
      -0.011
      -0.013
      -0.010
      -0.003
       0.003
       0.001
      -0.005
      -0.009
      -0.006
      -0.002
       0.001
       0.003
       0.007
       0.011
       0.008
      -0.006
      -0.027
      -0.043
      -0.043
      -0.025
      -0.004
       0.003
      -0.009
      -0.025
      -0.030
      -0.019
      -0.003
       0.005
       0.000
      -0.014
      -0.028
      -0.036
      -0.040
      -0.041
      -0.039
      -0.031
      -0.018
      -0.005
      -0.001
      -0.006
      -0.015
      -0.022
      -0.023
      -0.020
      -0.017
      -0.017
      -0.019
      -0.018
      -0.011
      -0.002
       0.005
       0.007
       0.003
      -0.005
      -0.011
      -0.010
      -0.004
       0.003
       0.007
       0.006
       0.002
      -0.003
      -0.005
      -0.002
       0.004
       0.008
       0.007
       0.002
      -0.005
      -0.009
      -0.009
      -0.008
      -0.010
      -0.015
      -0.019
      -0.014
       0.001
       0.017
       0.022
       0.012
      -0.004
      -0.014
      -0.015
      -0.009
      -0.004
      -0.004
      -0.007
      -0.011
      -0.014
      -0.017
      -0.020
      -0.019
      -0.013
      -0.006
      -0.002
      -0.001
      -0.001
      -0.002
      -0.004
      -0.010
      -0.015
      -0.013
      -0.005
       0.006
       0.010
       0.004
      -0.008
      -0.017
      -0.011
       0.006
       0.023
       0.025
       0.009
      -0.014
      -0.030
      -0.031
      -0.019
      -0.006
       0.000
      -0.002
      -0.005
      -0.004
      -0.002
      -0.002
      -0.006
      -0.008
      -0.007
      -0.005
      -0.004
      -0.004
      -0.004
      -0.003
      -0.004
      -0.007
      -0.010
      -0.008
       0.000
       0.007
       0.008
       0.006
       0.006
       0.009
       0.012
       0.012
       0.007
       0.000
      -0.008
      -0.017
      -0.024
      -0.022
      -0.012
       0.003
       0.014
       0.016
       0.007
      -0.009
      -0.024
      -0.028
      -0.016
       0.005
       0.022
       0.025
       0.014
      -0.003
      -0.016
      -0.018
      -0.012
      -0.004
       0.001
      -0.001
      -0.004
      -0.006
      -0.003
       0.000
      -0.002
      -0.008
      -0.013
      -0.011
      -0.002
       0.007
       0.009
       0.004
      -0.006
      -0.012
      -0.010
      -0.002
       0.005
       0.005
      -0.003
      -0.015
      -0.023
      -0.024
      -0.020
      -0.012
      -0.004
       0.001
       0.002
      -0.002
      -0.008
      -0.012
      -0.012
      -0.007
      -0.002
      -0.004
      -0.012
      -0.021
      -0.024
      -0.020
      -0.009
       0.003
       0.008
       0.002
      -0.008
      -0.016
      -0.017
      -0.016
      -0.017
      -0.017
      -0.012
      -0.003
       0.007
       0.010
       0.002
      -0.013
      -0.027
      -0.032
      -0.027
      -0.017
      -0.009
      -0.005
      -0.003
       0.000
       0.003
       0.003
      -0.001
      -0.008
      -0.012
      -0.015
      -0.017
      -0.019
      -0.016
      -0.006
       0.005
       0.011
       0.010
       0.009
       0.009
       0.006
      -0.003
      -0.014
      -0.016
      -0.007
       0.004
       0.008
       0.004
      -0.005
      -0.008
      -0.006
      -0.003
      -0.002
      -0.003
      -0.003
      -0.003
      -0.006
      -0.011
      -0.013
      -0.007
       0.004
       0.010
       0.007
      -0.005
      -0.017
      -0.022
      -0.017
      -0.008
      -0.005
      -0.010
      -0.016
      -0.012
      -0.001
       0.006
       0.002
      -0.011
      -0.023
      -0.024
      -0.017
      -0.010
      -0.009
      -0.012
      -0.011
      -0.003
       0.005
       0.006
      -0.002
      -0.011
      -0.015
      -0.014
      -0.008
      -0.002
       0.003
       0.003
      -0.002
      -0.011
      -0.019
      -0.020
      -0.010
       0.006
       0.016
       0.013
       0.000
      -0.010
      -0.013
      -0.010
      -0.006
      -0.004
      -0.004
      -0.005
      -0.006
      -0.007
      -0.007
      -0.005
       0.000
       0.006
       0.009
       0.006
      -0.003
      -0.012
      -0.015
      -0.011
      -0.002
       0.005
       0.008
       0.005
      -0.003
      -0.011
      -0.017
      -0.018
      -0.013
      -0.006
      -0.001
       0.000
       0.000
       0.004
       0.012
       0.019
       0.018
       0.007
      -0.006
      -0.013
      -0.008
       0.003
       0.013
       0.012
       0.004
      -0.005
      -0.007
      -0.003
       0.003
       0.006
       0.006
       0.003
      -0.002
      -0.003
      -0.002
       0.000
       0.000
       0.000
       0.001
       0.003
       0.001
      -0.004
      -0.010
      -0.013
      -0.010
      -0.002
       0.008
       0.013
       0.008
      -0.003
      -0.012
      -0.014
      -0.012
      -0.013
      -0.018
      -0.023
      -0.021
      -0.011
       0.000
       0.006
       0.003
      -0.005
      -0.011
      -0.013
      -0.014
      -0.017
      -0.019
      -0.016
      -0.008
       0.001
       0.005
       0.002
      -0.006
      -0.011
      -0.010
      -0.005
      -0.001
      -0.002
      -0.007
      -0.010
      -0.008
      -0.004
       0.000
      -0.001
      -0.006
      -0.006
       0.000
       0.009
       0.010
      -0.001
      -0.015
      -0.023
      -0.019
      -0.007
       0.005
       0.010
       0.004
      -0.008
      -0.017
      -0.014
      -0.002
       0.012
       0.018
       0.017
       0.011
       0.003
      -0.006
      -0.018
      -0.021
      -0.003
       0.035
       0.053
       0.004
      -0.109
      -0.193
      -0.142
       0.000
      -0.064
      -0.769
      -2.383
      -4.645
      -6.551
      -6.553
      -3.490
       2.053
       7.256
       8.609
       4.744
      -2.042
      -7.435
      -8.651
      -6.295
      -2.733
       0.687
       4.133
       7.508
       9.368
       8.099
       3.775
      -1.382
      -4.439
      -4.041
      -1.786
      -1.080
      -3.820
      -8.138
     -10.179
      -8.284
      -4.605
      -2.314
      -2.060
      -1.717
       0.879
       5.450
       9.179
       8.879
       3.940
      -2.225
      -4.530
      -1.157
       4.280
       6.733
       5.607
       5.245
       9.329
      16.052
      19.627
      16.099
       7.183
      -1.375
      -4.771
      -2.660
       1.434
       3.573
       2.348
      -1.018
      -4.944
      -9.350
     -14.954
     -21.053
     -24.719
     -22.764
     -14.758
      -4.119
       4.126
       7.209
       6.714
       6.786
       9.970
      14.630
      16.630
      13.664
       7.668
       2.732
       0.883
       0.345
      -2.080
      -7.298
     -12.726
     -14.698
     -12.044
      -7.260
      -3.950
      -3.139
      -2.569
       0.151
       4.369
       7.035
       6.185
       2.981
       0.204
      -0.627
      -0.239
      -0.055
      -0.344
      -0.194
       1.013
       2.632
       3.438
       2.962
       1.804
       0.782
       0.206
       0.078
       0.485
       1.329
       1.820
       0.811
      -2.056
      -5.561
      -7.406
      -5.840
      -1.165
       4.227
       7.459
       7.139
       4.147
       0.824
      -0.659
       0.382
       2.800
       4.335
       3.054
      -1.155
      -6.120
      -8.692
      -7.068
      -2.267
       2.583
       4.518
       2.735
      -1.102
      -4.184
      -4.435
      -1.798
       1.767
       3.589
       2.159
      -1.672
      -5.243
      -6.110
      -3.865
      -0.150
       2.894
       4.092
       3.537
       2.048
       0.587
      -0.088
       0.351
       1.627
       2.886
       3.169
       2.297
       1.460
       2.439
       5.592
       8.595
       7.918
       2.166
      -5.986
     -11.577
     -11.435
      -6.693
      -1.434
       0.980
       0.341
      -1.024
      -0.757
       1.448
       3.677
       3.511
       0.304
      -3.829
      -5.351
      -2.143
       4.532
      10.777
      13.009
      10.473
       5.173
      -0.385
      -5.245
      -9.862
     -14.151
     -16.085
     -12.782
      -3.469
       8.533
      17.182
      17.764
      10.291
      -0.693
      -9.543
     -13.012
     -11.172
      -6.092
      -0.290
       4.077
       5.773
       4.912
       2.608
      -0.132
      -3.011
      -5.757
      -7.242
      -5.953
      -1.592
       4.023
       7.990
       8.439
       5.805
       2.315
       0.363
       1.087
       3.855
       6.717
       7.680
       6.153
       3.343
       0.950
      -0.577
      -2.239
      -4.772
      -6.965
      -6.135
      -0.650
       7.897
      15.208
      17.280
      13.208
       5.430
      -2.356
      -7.475
      -9.184
      -8.301
      -6.396
      -5.045
      -5.186
      -6.670
      -8.320
      -8.721
      -7.331
      -4.909
      -2.751
      -1.455
      -0.517
       0.880
       2.758
       4.097
       3.692
       1.246
      -2.285
      -5.263
      -6.293
      -4.949
      -2.000
       1.052
       2.936
       3.366
       2.970
       2.476
       1.982
       1.056
      -0.486
      -2.099
      -2.943
      -2.717
      -1.896
      -1.158
      -0.771
      -0.657
      -0.921
      -1.943
      -3.744
      -5.498
      -6.108
      -5.365
      -4.200
      -3.545
      -3.150
      -1.892
       0.740
       3.763
       5.528
       5.307
       3.893
       2.703
       2.481
       2.881
       3.065
       2.529
       1.418
       0.298
      -0.243
       0.123
       1.296
       2.688
       3.421
       2.891
       1.328
      -0.320
      -1.177
      -1.064
      -0.299
       0.864
       2.282
       3.488
       3.640
       2.307
       0.252
      -0.932
      -0.259
       1.598
       2.834
       2.141
      -0.154
      -2.425
      -3.060
      -1.601
       1.051
       3.340
       4.160
       3.582
       2.665
       2.465
       3.149
       4.000
       4.237
       3.802
       3.370
       3.668
       4.721
       5.700
       5.456
       3.343
      -0.295
      -4.303
      -7.398
      -8.807
      -8.498
      -7.063
      -5.409
      -4.317
      -4.000
      -3.987
      -3.559
      -2.461
      -1.234
      -0.796
      -1.629
      -3.316
      -4.869
      -5.501
      -5.153
      -4.317
      -3.406
      -2.310
      -0.643
       1.577
       3.581
       4.379
       3.729
       2.455
       1.661
       1.621
       1.596
       0.762
      -0.818
      -2.260
      -2.778
      -2.385
      -1.706
      -1.304
      -1.304
      -1.487
      -1.570
      -1.360
      -0.779
       0.165
       1.367
       2.595
       3.510
       3.828
       3.547
       2.984
       2.507
       2.209
       1.919
       1.527
       1.166
       0.979
       0.770
       0.078
      -1.284
      -2.816
      -3.626
      -3.179
      -1.733
      -0.031
       1.361
       2.337
       2.972
       3.090
       2.269
       0.350
      -2.040
      -3.659
      -3.557
      -1.939
      -0.115
       0.549
      -0.250
      -1.518
      -1.822
      -0.463
       2.015
       4.342
       5.534
       5.468
       4.598
       3.300
       1.591
      -0.552
      -2.776
      -4.390
      -4.859
      -4.240
      -3.118
      -2.131
      -1.526
      -1.091
      -0.409
       0.833
       2.615
       4.511
       5.814
       5.926
       4.815
       3.117
       1.706
       1.066
       1.017
       1.005
       0.642
      -0.005
      -0.585
      -0.888
      -1.092
      -1.579
      -2.535
      -3.705
      -4.530
      -4.520
      -3.559
      -2.005
      -0.558
       0.082
      -0.317
      -1.241
      -1.679
      -0.852
       1.115
       3.201
       4.241
       3.806
       2.473
       1.318
       1.095
       1.740
       2.483
       2.397
       1.010
      -1.373
      -3.800
      -5.168
      -4.829
      -2.929
      -0.299
       2.016
       3.241
       3.076
       1.652
      -0.583
      -2.939
      -4.642
      -5.153
      -4.453
      -3.051
      -1.632
      -0.618
       0.014
       0.517
       0.957
       1.002
       0.180
      -1.579
      -3.636
      -4.960
      -4.861
      -3.480
      -1.585
       0.112
       1.446
