Origin Time       01/05/2009 22:36:25
Lat.              29.9 N 
Long.             80.1 E 
Depth (Km)         10.0
Magnitude         4.6
 Region           Bageshwar-Uttarakhand                                            
 Above details taken from IMD 
   
Station Code      CHA
Station Lat.       30.412
Station Long.      79.320
Station Height(m) 1578.0
Site Class        A   Vs30 between 700 m/sec to 1400 m/sec * 
Record Time       01.05.2010 22:35:11.319
Sampling Rate     200. Hz
 Record Duration   81.315 Sec.
 Direction         Vert. (Up positive)
Max. Acceleration      2.094 cm/sec**2
     
  * For reference see Site Classification link of website 
     
 Base Line Corrected and Low Pass Filtered (Cut Off at 35 Hz) Time History
 Acceleration data in cm/sec**2
    
[...]
      -0.013
      -0.313
      -0.541
      -0.651
      -0.641
      -0.535
      -0.367
      -0.187
      -0.049
       0.019
       0.016
      -0.042
      -0.135
      -0.226
      -0.276
      -0.272
      -0.224
      -0.145
      -0.039
       0.074
       0.168
       0.227
       0.256
       0.256
       0.224
       0.170
       0.123
       0.091
       0.063
       0.032
       0.010
       0.001
      -0.001
      -0.001
       0.004
       0.009
      -0.002
      -0.037
      -0.086
      -0.135
      -0.175
      -0.191
      -0.164
      -0.099
      -0.018
       0.066
       0.154
       0.240
       0.296
       0.296
       0.240
       0.139
       0.013
      -0.107
      -0.185
      -0.206
      -0.187
      -0.138
      -0.060
       0.041
       0.137
       0.205
       0.238
       0.229
       0.161
       0.037
      -0.118
      -0.270
      -0.393
      -0.462
      -0.451
      -0.356
      -0.205
      -0.037
       0.116
       0.220
       0.239
       0.168
       0.047
      -0.070
      -0.141
      -0.140
      -0.059
       0.076
       0.212
       0.306
       0.349
       0.352
       0.326
       0.292
       0.278
       0.296
       0.333
       0.371
       0.400
       0.407
       0.365
       0.261
       0.106
      -0.083
      -0.291
      -0.498
      -0.671
      -0.788
      -0.852
      -0.866
      -0.818
      -0.697
      -0.515
      -0.298
      -0.071
       0.138
       0.298
       0.398
       0.450
       0.464
       0.433
       0.356
       0.244
       0.110
      -0.046
      -0.216
      -0.367
      -0.461
      -0.483
      -0.436
      -0.319
      -0.149
       0.042
       0.221
       0.374
       0.490
       0.548
       0.529
       0.440
       0.302
       0.133
      -0.046
      -0.200
      -0.305
      -0.359
      -0.366
      -0.326
      -0.248
      -0.168
      -0.123
      -0.127
      -0.174
      -0.251
      -0.330
      -0.369
      -0.340
      -0.251
      -0.125
       0.018
       0.164
       0.293
       0.393
       0.474
       0.548
       0.604
       0.620
       0.593
       0.529
       0.439
       0.341
       0.266
       0.226
       0.204
       0.173
       0.131
       0.086
       0.036
      -0.026
      -0.094
      -0.153
      -0.202
      -0.237
      -0.242
      -0.208
      -0.147
      -0.088
      -0.050
      -0.041
      -0.073
      -0.145
      -0.232
      -0.301
      -0.340
      -0.355
      -0.345
      -0.300
      -0.221
      -0.118
       0.003
       0.126
       0.218
       0.251
       0.227
       0.173
       0.108
       0.045
       0.007
       0.014
       0.065
       0.141
       0.230
       0.323
       0.395
       0.412
       0.352
       0.217
       0.023
      -0.195
      -0.379
      -0.478
      -0.479
      -0.401
      -0.271
      -0.127
      -0.015
       0.027
       0.001
      -0.067
      -0.151
      -0.229
      -0.264
      -0.227
      -0.122
       0.007
       0.121
       0.196
       0.220
       0.194
       0.135
       0.066
      -0.007
      -0.082
      -0.139
      -0.150
      -0.110
      -0.034
       0.063
       0.167
       0.254
       0.296
       0.290
       0.248
       0.165
       0.031
      -0.145
      -0.327
      -0.475
      -0.558
      -0.557
      -0.476
      -0.356
      -0.252
      -0.194
      -0.180
      -0.192
      -0.208
      -0.200
      -0.141
      -0.037
       0.078
       0.182
       0.265
       0.327
       0.368
       0.407
       0.463
       0.527
       0.571
       0.575
       0.541
       0.467
       0.354
       0.218
       0.088
      -0.021
      -0.116
      -0.200
      -0.265
      -0.306
      -0.329
      -0.335
      -0.328
      -0.328
      -0.354
      -0.396
      -0.417
      -0.391
      -0.320
      -0.210
      -0.069
       0.090
       0.250
       0.405
       0.555
       0.677
       0.728
       0.683
       0.552
       0.360
       0.137
      -0.074
      -0.235
      -0.335
      -0.403
      -0.458
      -0.496
      -0.502
      -0.467
      -0.388
      -0.268
      -0.135
      -0.020
       0.065
       0.133
       0.195
       0.247
       0.288
       0.328
       0.361
       0.369
       0.339
       0.278
       0.190
       0.068
      -0.083
      -0.239
      -0.372
      -0.464
      -0.493
      -0.439
      -0.304
      -0.118
       0.093
       0.318
       0.541
       0.729
       0.840
       0.852
       0.753
       0.551
       0.281
      -0.005
      -0.277
      -0.524
      -0.729
      -0.859
      -0.893
      -0.843
      -0.737
      -0.600
      -0.459
      -0.337
      -0.234
      -0.125
       0.016
       0.190
       0.388
       0.593
       0.773
       0.884
       0.900
       0.827
       0.677
       0.457
       0.193
      -0.068
      -0.286
      -0.454
      -0.575
      -0.648
      -0.664
      -0.620
      -0.509
      -0.329
      -0.114
       0.072
       0.179
       0.206
       0.195
       0.192
       0.231
       0.320
       0.423
       0.471
       0.412
       0.239
      -0.021
      -0.321
      -0.605
      -0.814
      -0.918
      -0.922
      -0.844
      -0.693
      -0.493
      -0.295
      -0.140
      -0.029
       0.065
       0.167
       0.289
       0.420
       0.532
       0.584
       0.560
       0.489
       0.408
       0.330
       0.242
       0.132
      -0.006
      -0.166
      -0.315
      -0.397
      -0.369
      -0.235
      -0.026
       0.211
       0.417
       0.534
       0.533
       0.435
       0.278
       0.083
      -0.136
      -0.351
      -0.532
      -0.661
      -0.732
      -0.739
      -0.684
      -0.578
      -0.427
      -0.228
       0.007
       0.240
       0.436
       0.589
       0.706
       0.779
       0.796
       0.755
       0.659
       0.511
       0.325
       0.136
      -0.021
      -0.135
      -0.207
      -0.229
      -0.196
      -0.120
      -0.022
       0.087
       0.193
       0.259
       0.245
       0.135
      -0.063
      -0.320
      -0.584
      -0.776
      -0.837
      -0.759
      -0.578
      -0.337
      -0.090
       0.106
       0.205
       0.208
       0.148
       0.066
       0.002
       0.000
       0.085
       0.240
       0.418
       0.568
       0.643
       0.608
       0.460
       0.244
       0.029
      -0.143
      -0.256
      -0.302
      -0.279
      -0.209
      -0.123
      -0.043
       0.022
       0.074
       0.126
       0.207
       0.318
       0.418
       0.444
       0.371
       0.222
       0.037
      -0.145
      -0.294
      -0.398
      -0.473
      -0.544
      -0.613
      -0.661
      -0.675
      -0.651
      -0.582
      -0.465
      -0.318
      -0.157
       0.018
       0.218
       0.438
       0.652
       0.835
       0.952
       0.944
       0.757
       0.392
      -0.083
      -0.566
      -0.958
      -1.185
      -1.220
      -1.090
      -0.848
      -0.533
      -0.177
       0.178
       0.478
       0.698
       0.838
       0.912
       0.931
       0.912
       0.866
       0.784
       0.648
       0.463
       0.251
       0.021
      -0.232
      -0.496
      -0.736
      -0.911
      -0.990
      -0.951
      -0.800
      -0.578
      -0.342
      -0.124
       0.072
       0.239
       0.359
       0.419
       0.423
       0.371
       0.275
       0.165
       0.082
       0.035
       0.003
      -0.032
      -0.071
      -0.111
      -0.147
      -0.162
      -0.137
      -0.076
      -0.004
       0.062
       0.124
       0.176
       0.209
       0.217
       0.204
       0.166
       0.091
      -0.011
      -0.113
      -0.195
      -0.260
      -0.312
      -0.359
      -0.410
      -0.468
      -0.505
      -0.481
      -0.383
      -0.236
      -0.062
       0.125
       0.308
       0.462
       0.575
       0.658
       0.722
       0.759
       0.761
       0.724
       0.639
       0.491
       0.274
       0.009
      -0.266
      -0.503
      -0.653
      -0.680
      -0.597
      -0.454
      -0.294
      -0.138
      -0.003
       0.084
       0.108
       0.075
      -0.003
      -0.106
      -0.201
      -0.245
      -0.228
      -0.175
      -0.122
      -0.085
      -0.069
      -0.067
      -0.049
       0.026
       0.172
       0.354
       0.510
       0.576
       0.502
       0.276
      -0.048
      -0.366
      -0.585
      -0.662
      -0.597
      -0.411
      -0.149
       0.128
       0.376
       0.581
       0.728
       0.785
       0.732
       0.579
       0.362
       0.129
      -0.072
      -0.203
      -0.263
      -0.290
      -0.322
      -0.370
      -0.431
      -0.501
      -0.568
      -0.608
      -0.615
      -0.601
      -0.574
      -0.524
      -0.444
      -0.348
      -0.246
      -0.135
      -0.011
       0.114
       0.231
       0.344
       0.456
       0.547
       0.596
       0.597
       0.555
       0.477
       0.381
       0.290
       0.209
       0.116
      -0.005
      -0.133
      -0.231
      -0.267
      -0.224
      -0.102
       0.063
       0.203
       0.253
       0.200
       0.067
      -0.100
      -0.246
      -0.322
      -0.313
      -0.247
      -0.162
      -0.076
       0.005
       0.071
       0.116
       0.139
       0.133
       0.083
      -0.006
      -0.094
      -0.143
      -0.149
      -0.131
      -0.100
      -0.050
       0.029
       0.146
       0.295
       0.438
       0.518
       0.503
       0.418
       0.311
       0.209
       0.111
       0.015
      -0.079
      -0.172
      -0.262
      -0.338
      -0.396
      -0.445
      -0.485
      -0.499
      -0.463
      -0.373
      -0.236
      -0.063
       0.108
       0.220
       0.234
       0.162
       0.043
      -0.091
      -0.224
      -0.332
      -0.392
      -0.391
      -0.334
      -0.224
      -0.075
       0.084
       0.226
       0.348
       0.455
       0.539
       0.592
       0.616
       0.616
       0.585
       0.509
       0.392
       0.235
       0.032
      -0.210
      -0.454
      -0.649
      -0.764
      -0.786
      -0.705
      -0.526
      -0.291
      -0.059
       0.123
       0.231
       0.249
       0.183
       0.068
      -0.052
      -0.154
      -0.231
      -0.275
      -0.280
      -0.252
      -0.196
      -0.106
       0.018
       0.142
       0.220
       0.232
       0.189
       0.112
       0.024
      -0.047
      -0.083
      -0.091
      -0.074
      -0.012
       0.127
       0.341
       0.587
       0.802
       0.925
       0.917
       0.780
       0.565
       0.333
       0.115
      -0.089
      -0.275
      -0.422
      -0.509
      -0.530
      -0.478
      -0.366
      -0.234
      -0.131
      -0.081
      -0.080
      -0.125
      -0.205
      -0.286
      -0.317
      -0.266
      -0.139
       0.033
       0.207
       0.330
       0.365
       0.307
       0.163
      -0.057
      -0.335
      -0.611
      -0.812
      -0.891
      -0.836
      -0.657
      -0.372
      -0.027
       0.313
       0.593
       0.779
       0.853
       0.814
       0.685
       0.493
       0.243
      -0.062
      -0.379
      -0.629
      -0.742
      -0.695
      -0.515
      -0.259
      -0.004
       0.189
       0.314
       0.397
       0.452
       0.463
       0.407
       0.275
       0.077
      -0.151
      -0.341
      -0.426
      -0.392
      -0.286
      -0.165
      -0.063
       0.008
       0.048
       0.075
       0.117
       0.186
       0.265
       0.338
       0.400
       0.450
       0.487
       0.515
       0.538
       0.534
       0.474
       0.348
       0.171
      -0.045
      -0.291
      -0.539
      -0.740
      -0.854
      -0.868
      -0.786
      -0.622
      -0.410
      -0.197
      -0.005
       0.176
       0.352
       0.508
       0.616
       0.642
       0.552
       0.340
       0.062
      -0.181
      -0.307
      -0.305
      -0.217
      -0.107
      -0.034
      -0.031
      -0.089
      -0.172
      -0.252
      -0.325
      -0.371
      -0.343
      -0.202
       0.054
       0.392
       0.754
       1.069
       1.261
       1.286
       1.144
       0.862
       0.478
       0.043
      -0.380
      -0.751
      -1.052
      -1.264
      -1.363
      -1.338
      -1.202
      -0.978
      -0.690
      -0.384
      -0.125
       0.042
       0.109
       0.089
       0.002
      -0.119
      -0.229
      -0.294
      -0.299
      -0.238
      -0.106
       0.072
       0.252
       0.399
       0.507
       0.574
       0.582
       0.510
       0.359
       0.151
      -0.069
      -0.230
      -0.258
      -0.129
       0.112
       0.398
       0.670
       0.879
       0.964
       0.874
       0.607
       0.212
      -0.220
      -0.577
      -0.762
      -0.737
      -0.536
      -0.235
       0.091
       0.365
       0.529
       0.562
       0.492
       0.362
       0.198
       0.016
      -0.165
      -0.327
      -0.462
      -0.550
      -0.564
      -0.506
      -0.423
      -0.370
      -0.365
      -0.392
      -0.427
      -0.446
      -0.432
      -0.376
      -0.286
      -0.168
      -0.019
       0.144
       0.277
       0.339
       0.323
       0.234
       0.072
      -0.159
      -0.424
      -0.676
      -0.865
      -0.951
      -0.910
      -0.756
      -0.551
      -0.355
      -0.175
       0.020
       0.261
       0.558
       0.902
       1.257
       1.576
       1.826
       2.002
       2.094
       2.058
       1.847
       1.444
       0.881
       0.218
      -0.462
      -1.062
      -1.499
      -1.738
      -1.780
      -1.648
      -1.386
      -1.053
      -0.702
      -0.367
      -0.081
       0.116
       0.203
       0.214
       0.205
       0.204
       0.204
       0.196
       0.182
       0.170
       0.168
       0.183
       0.201
       0.195
       0.149
       0.081
       0.029
       0.014
       0.043
       0.116
       0.214
       0.289
       0.298
       0.238
       0.139
       0.035
      -0.047
      -0.081
      -0.046
       0.048
       0.170
       0.277
       0.322
       0.253
       0.051
      -0.250
      -0.579
      -0.862
      -1.043
      -1.092
      -1.022
      -0.890
      -0.763
      -0.674
      -0.615
      -0.567
      -0.510
      -0.418
      -0.273
      -0.072
       0.189
       0.519
       0.913
       1.322
       1.677
       1.929
       2.049
       2.016
       1.814
       1.451
       0.958
       0.375
      -0.242
      -0.813
      -1.261
      -1.548
      -1.671
      -1.643
      -1.482
      -1.224
      -0.899
      -0.514
      -0.074
       0.373
       0.747
       0.976
       1.023
       0.874
       0.551
       0.140
      -0.231
      -0.460
      -0.506
      -0.385
      -0.145
       0.145
       0.415
       0.611
       0.702
       0.658
       0.468
       0.165
      -0.180
      -0.497
      -0.733
      -0.851
      -0.838
      -0.719
      -0.542
      -0.337
      -0.116
       0.105
       0.299
       0.455
       0.577
       0.665
       0.712
       0.721
       0.703
       0.651
       0.546
       0.379
       0.163
      -0.086
      -0.360
      -0.637
      -0.892
      -1.109
      -1.280
      -1.385
      -1.391
      -1.280
      -1.053
      -0.720
      -0.303
       0.146
       0.551
       0.851
       1.006
       0.996
       0.830
       0.572
       0.324
       0.169
       0.140
       0.223
       0.376
       0.540
       0.667
       0.754
       0.829
       0.896
       0.925
       0.890
       0.795
       0.661
       0.498
       0.312
       0.101
      -0.135
      -0.384
      -0.602
      -0.737
      -0.782
      -0.776
      -0.768
      -0.784
      -0.830
      -0.898
      -0.958
      -0.972
      -0.927
      -0.848
      -0.774
      -0.727
      -0.705
      -0.686
      -0.631
      -0.523
      -0.396
      -0.314
      -0.308
      -0.344
      -0.370
      -0.348
      -0.272
      -0.149
      -0.002
       0.145
       0.283
       0.412
       0.512
       0.549
       0.516
       0.449
       0.392
       0.369
       0.393
       0.471
       0.591
       0.726
       0.864
       1.010
       1.161
       1.282
       1.336
       1.310
       1.205
       1.025
       0.792
       0.533
       0.266
      -0.014
      -0.298
      -0.554
      -0.744
      -0.850
      -0.874
      -0.831
      -0.748
      -0.656
      -0.565
      -0.468
      -0.364
      -0.270
      -0.187
      -0.094
       0.017
       0.125
       0.197
       0.217
       0.181
       0.091
      -0.030
      -0.131
      -0.163
      -0.106
       0.036
       0.237
       0.437
       0.549
       0.507
       0.303
      -0.021
      -0.401
      -0.777
      -1.106
      -1.377
      -1.594
      -1.739
      -1.755
      -1.598
      -1.281
      -0.863
      -0.416
      -0.002
       0.338
       0.600
       0.812
       0.989
       1.106
       1.121
       1.022
       0.843
       0.648
       0.516
       0.518
       0.670
       0.918
       1.174
       1.364
       1.439
       1.373
       1.165
       0.839
       0.421
      -0.071
      -0.608
      -1.125
      -1.550
      -1.831
      -1.940
      -1.862
      -1.615
      -1.254
      -0.846
      -0.437
      -0.044
       0.318
       0.648
       0.951
       1.227
       1.449
       1.589
       1.637
       1.590
       1.441
       1.191
       0.866
       0.517
       0.192
      -0.070
      -0.253
      -0.378
      -0.492
      -0.622
      -0.737
      -0.790
      -0.763
      -0.674
      -0.544
      -0.391
      -0.236
      -0.091
       0.041
       0.165
       0.266
       0.326
       0.332
       0.271
       0.124
      -0.113
      -0.403
      -0.684
      -0.910
      -1.057
      -1.121
      -1.111
      -1.055
      -0.967
      -0.841
      -0.664
      -0.449
      -0.219
       0.010
       0.225
       0.398
       0.498
       0.515
       0.457
       0.333
       0.161
      -0.021
      -0.172
      -0.274
      -0.322
      -0.303
      -0.218
      -0.102
      -0.007
       0.040
       0.037
      -0.007
      -0.079
      -0.151
      -0.193
      -0.187
      -0.118
       0.031
       0.264
       0.541
       0.800
       0.992
       1.101
       1.129
       1.091
       1.021
       0.961
       0.932
       0.937
       0.964
       0.979
       0.920
       0.738
       0.446
       0.108
      -0.207
      -0.467
      -0.674
      -0.859
      -1.059
      -1.277
      -1.448
      -1.462
      -1.242
      -0.783
      -0.164
       0.475
       0.969
       1.209
       1.192
       1.013
       0.783
       0.578
       0.424
       0.303
       0.157
      -0.060
      -0.345
      -0.652
      -0.933
      -1.157
      -1.298
      -1.345
      -1.319
      -1.249
      -1.143
      -0.995
      -0.824
      -0.663
      -0.512
      -0.342
      -0.156
       0.004
       0.102
       0.136
       0.102
      -0.011
      -0.181
      -0.332
      -0.386
      -0.302
      -0.081
       0.258
       0.672
       1.092
       1.451
       1.700
       1.813
       1.781
       1.608
       1.321
       0.953
       0.550
       0.173
      -0.122
      -0.318
      -0.439
