Origin Time       21/9/2009 9:43:47	 
Lat.              30.9 N	
Long.             79.1 E	
Depth (Km)         13.0
Magnitude         4.7
 Region           UTTARKASHI-UTTARAKHAND                                           
 Above details taken from IMD 
   
Station Code      CHA
Station Lat.       30.412
Station Long.      79.320
Station Height(m) 1578.0
Site Class        A   Vs30 between 700 m/sec to 1400 m/sec * 
Record Time       21.09.2009 09:43:50.149
Sampling Rate     200. Hz
 Record Duration   81.370 Sec.
 Direction         Vert. (Up positive)
Max. Acceleration     -6.315 cm/sec**2
     
  * For reference see Site Classification link of website 
     
 Base Line Corrected and Low Pass Filtered (Cut Off at 35 Hz) Time History
 Acceleration data in cm/sec**2
    
[...]
      -0.014
      -0.005
      -0.003
      -0.007
      -0.007
       0.000
       0.009
       0.006
      -0.007
      -0.018
      -0.013
       0.005
       0.018
       0.016
       0.006
       0.003
       0.011
       0.018
       0.014
      -0.001
      -0.011
      -0.007
       0.006
       0.015
       0.013
       0.008
       0.010
       0.018
       0.019
       0.007
      -0.010
      -0.018
      -0.012
      -0.001
       0.001
      -0.005
      -0.006
       0.005
       0.020
       0.023
       0.009
      -0.009
      -0.014
      -0.005
       0.006
       0.008
       0.004
       0.006
       0.016
       0.025
       0.021
       0.007
      -0.004
       0.000
       0.010
       0.009
      -0.006
      -0.018
      -0.011
       0.012
       0.029
       0.027
       0.011
       0.000
       0.002
       0.010
       0.010
       0.003
       0.000
       0.010
       0.023
       0.024
       0.011
      -0.003
      -0.004
       0.007
       0.017
       0.014
       0.005
       0.006
       0.018
       0.030
       0.025
       0.007
      -0.009
      -0.009
       0.003
       0.011
       0.005
      -0.007
      -0.011
      -0.003
       0.004
       0.000
      -0.012
      -0.017
      -0.005
       0.012
       0.019
       0.011
       0.001
       0.004
       0.020
       0.031
       0.026
       0.008
      -0.006
      -0.010
      -0.008
      -0.009
      -0.011
      -0.005
       0.011
       0.027
       0.029
       0.015
      -0.001
      -0.006
      -0.001
       0.002
      -0.003
      -0.009
      -0.003
       0.014
       0.029
       0.027
       0.011
      -0.004
      -0.006
       0.000
       0.001
      -0.005
      -0.008
       0.001
       0.017
       0.024
       0.013
      -0.007
      -0.017
      -0.012
      -0.001
       0.001
      -0.007
      -0.008
       0.005
       0.022
       0.024
       0.009
      -0.010
      -0.012
       0.002
       0.015
       0.011
      -0.002
      -0.007
       0.004
       0.016
       0.015
       0.000
      -0.014
      -0.015
      -0.007
      -0.002
      -0.005
      -0.007
       0.001
       0.014
       0.016
       0.001
      -0.020
      -0.027
      -0.014
       0.004
       0.010
       0.000
      -0.007
       0.002
       0.019
       0.025
       0.010
      -0.012
      -0.023
      -0.017
      -0.005
       0.000
      -0.002
      -0.001
       0.005
       0.012
       0.008
      -0.005
      -0.013
      -0.009
       0.000
       0.002
      -0.006
      -0.011
      -0.001
       0.017
       0.025
       0.013
      -0.006
      -0.012
      -0.001
       0.013
       0.011
      -0.002
      -0.008
       0.002
       0.018
       0.023
       0.010
      -0.008
      -0.014
      -0.007
      -0.001
      -0.005
      -0.013
      -0.010
       0.005
       0.020
       0.018
       0.000
      -0.018
      -0.018
      -0.005
       0.006
       0.005
      -0.001
       0.002
       0.011
       0.016
       0.007
      -0.008
      -0.015
      -0.005
       0.008
       0.009
      -0.003
      -0.011
      -0.004
       0.014
       0.025
       0.020
       0.006
       0.000
       0.007
       0.014
       0.009
      -0.002
      -0.006
       0.004
       0.016
       0.013
      -0.005
      -0.022
      -0.022
      -0.006
       0.006
       0.004
      -0.004
      -0.004
       0.007
       0.013
       0.004
      -0.015
      -0.023
      -0.013
       0.006
       0.013
       0.006
      -0.003
      -0.001
       0.009
       0.013
       0.002
      -0.017
      -0.025
      -0.019
      -0.006
      -0.001
      -0.004
      -0.005
       0.000
       0.007
       0.005
      -0.005
      -0.011
      -0.006
       0.005
       0.011
       0.006
       0.001
       0.003
       0.011
       0.011
       0.000
      -0.014
      -0.018
      -0.009
       0.000
      -0.003
      -0.017
      -0.026
      -0.019
       0.000
       0.013
       0.009
      -0.005
      -0.012
      -0.004
       0.010
       0.014
       0.005
      -0.004
      -0.003
       0.005
       0.006
      -0.004
      -0.014
      -0.012
       0.001
       0.012
       0.008
      -0.004
      -0.010
      -0.003
       0.009
       0.010
      -0.003
      -0.017
      -0.016
      -0.004
       0.005
       0.000
      -0.010
      -0.011
       0.000
       0.007
      -0.001
      -0.019
      -0.028
      -0.020
      -0.005
      -0.001
      -0.010
      -0.020
      -0.017
      -0.005
       0.002
      -0.002
      -0.009
      -0.006
       0.007
       0.014
       0.006
      -0.012
      -0.019
      -0.009
       0.008
       0.013
       0.002
      -0.012
      -0.016
      -0.009
      -0.005
      -0.010
      -0.013
      -0.004
       0.016
       0.028
       0.020
      -0.003
      -0.019
      -0.017
      -0.003
       0.005
       0.003
      -0.001
       0.004
       0.013
       0.013
       0.001
      -0.014
      -0.016
      -0.007
       0.000
      -0.005
      -0.013
      -0.012
       0.003
       0.016
       0.013
      -0.006
      -0.020
      -0.014
       0.005
       0.017
       0.011
      -0.003
      -0.007
       0.005
       0.017
       0.015
       0.001
      -0.007
       0.000
       0.012
       0.013
       0.004
      -0.003
       0.005
       0.020
       0.023
       0.009
      -0.009
      -0.012
       0.003
       0.018
       0.019
       0.008
       0.002
       0.007
       0.016
       0.014
      -0.001
      -0.013
      -0.010
       0.003
       0.006
      -0.006
      -0.022
      -0.021
      -0.002
       0.016
       0.016
      -0.001
      -0.016
      -0.014
       0.000
       0.006
      -0.003
      -0.014
      -0.012
       0.002
       0.012
       0.005
      -0.011
      -0.021
      -0.017
      -0.008
      -0.010
      -0.021
      -0.023
      -0.011
       0.007
       0.011
      -0.004
      -0.022
      -0.027
      -0.016
      -0.004
      -0.006
      -0.016
      -0.020
      -0.011
       0.002
       0.005
      -0.005
      -0.015
      -0.014
      -0.006
      -0.002
      -0.007
      -0.011
      -0.006
       0.005
       0.010
       0.001
      -0.015
      -0.020
      -0.010
       0.003
       0.004
      -0.007
      -0.015
      -0.008
       0.008
       0.016
       0.008
      -0.009
      -0.016
      -0.008
       0.003
       0.005
      -0.002
      -0.006
       0.000
       0.010
       0.011
       0.001
      -0.011
      -0.015
      -0.013
      -0.014
      -0.020
      -0.022
      -0.011
       0.007
       0.017
       0.010
      -0.007
      -0.018
      -0.014
      -0.001
       0.007
       0.004
      -0.003
      -0.002
       0.003
       0.003
      -0.005
      -0.014
      -0.014
      -0.006
      -0.001
      -0.008
      -0.018
      -0.016
       0.001
       0.019
       0.018
      -0.003
      -0.025
      -0.028
      -0.012
       0.004
       0.005
      -0.004
      -0.006
       0.005
       0.017
       0.016
       0.001
      -0.012
      -0.010
       0.000
       0.004
      -0.003
      -0.010
      -0.007
       0.002
       0.005
      -0.006
      -0.019
      -0.020
      -0.006
       0.008
       0.010
       0.002
      -0.002
       0.004
       0.013
       0.012
      -0.001
      -0.012
      -0.011
       0.001
       0.010
       0.006
      -0.003
      -0.007
       0.000
       0.007
       0.002
      -0.011
      -0.019
      -0.010
       0.008
       0.018
       0.013
       0.004
       0.005
       0.012
       0.014
       0.001
      -0.018
      -0.026
      -0.020
      -0.010
      -0.009
      -0.015
      -0.016
      -0.006
       0.009
       0.013
       0.001
      -0.016
      -0.022
      -0.017
      -0.010
      -0.009
      -0.010
      -0.003
       0.010
       0.017
       0.011
      -0.007
      -0.019
      -0.018
      -0.010
      -0.008
      -0.014
      -0.017
      -0.005
       0.016
       0.027
       0.018
      -0.004
      -0.017
      -0.012
       0.000
       0.002
      -0.008
      -0.016
      -0.012
       0.000
       0.005
      -0.005
      -0.017
      -0.019
      -0.008
       0.001
       0.000
      -0.005
      -0.003
       0.008
       0.015
       0.006
      -0.013
      -0.025
      -0.017
       0.000
       0.007
      -0.004
      -0.019
      -0.021
      -0.006
       0.012
       0.017
       0.009
       0.002
       0.004
       0.008
       0.004
      -0.009
      -0.013
      -0.001
       0.020
       0.026
       0.011
      -0.010
      -0.017
      -0.006
       0.008
       0.008
      -0.002
      -0.007
       0.002
       0.013
       0.012
      -0.003
      -0.017
      -0.013
       0.002
       0.011
       0.003
      -0.011
      -0.013
       0.001
       0.015
       0.012
      -0.006
      -0.022
      -0.020
      -0.006
       0.004
       0.001
      -0.008
      -0.008
       0.003
       0.011
       0.006
      -0.010
      -0.020
      -0.017
      -0.007
      -0.004
      -0.010
      -0.012
      -0.002
       0.014
       0.019
       0.008
      -0.008
      -0.013
      -0.004
       0.005
       0.003
      -0.005
      -0.004
       0.007
       0.017
       0.013
      -0.004
      -0.017
      -0.014
      -0.001
       0.007
       0.003
      -0.003
       0.000
       0.010
       0.014
       0.003
      -0.013
      -0.019
      -0.010
       0.000
      -0.003
      -0.018
      -0.025
      -0.013
       0.010
       0.020
       0.010
      -0.010
      -0.018
      -0.010
       0.002
       0.005
      -0.002
      -0.005
       0.002
       0.009
       0.006
      -0.008
      -0.016
      -0.009
       0.006
       0.014
       0.006
      -0.007
      -0.010
       0.001
       0.011
       0.006
      -0.010
      -0.023
      -0.019
      -0.005
       0.004
       0.003
       0.000
       0.005
       0.016
       0.019
       0.006
      -0.014
      -0.026
      -0.022
      -0.013
      -0.008
      -0.007
      -0.001
       0.014
       0.025
       0.019
       0.000
      -0.016
      -0.018
      -0.010
      -0.006
      -0.012
      -0.018
      -0.010
       0.011
       0.027
       0.023
       0.003
      -0.014
      -0.014
      -0.003
       0.003
      -0.002
      -0.010
      -0.007
       0.006
       0.016
       0.011
      -0.004
      -0.017
      -0.019
      -0.014
      -0.008
      -0.002
       0.007
       0.018
       0.020
       0.007
      -0.012
      -0.021
      -0.014
       0.001
       0.006
      -0.001
      -0.008
      -0.001
       0.017
       0.027
       0.017
      -0.007
      -0.022
      -0.016
       0.001
       0.010
       0.004
      -0.004
      -0.002
       0.010
       0.018
       0.015
       0.005
       0.004
       0.017
       0.039
       0.061
       0.087
       0.127
       0.191
       0.272
       0.361
       0.456
       0.568
       0.706
       0.867
       1.032
       1.183
       1.312
       1.415
       1.484
       1.493
       1.421
       1.259
       1.021
       0.725
       0.381
      -0.002
      -0.398
      -0.765
      -1.062
      -1.271
      -1.400
      -1.467
      -1.481
      -1.448
      -1.387
      -1.330
      -1.310
      -1.334
      -1.380
      -1.421
      -1.442
      -1.435
      -1.385
      -1.260
      -1.028
      -0.672
      -0.207
       0.335
       0.910
       1.461
       1.912
       2.175
       2.185
       1.932
       1.483
       0.955
       0.473
       0.133
      -0.021
      -0.002
       0.115
       0.206
       0.142
      -0.150
      -0.655
      -1.273
      -1.871
      -2.332
      -2.583
      -2.604
      -2.426
      -2.121
      -1.779
      -1.469
      -1.208
      -0.974
      -0.733
      -0.478
      -0.225
      -0.004
       0.164
       0.265
       0.295
       0.274
       0.265
       0.373
       0.696
       1.255
       1.949
       2.586
       2.963
       2.953
       2.548
       1.833
       0.954
       0.088
      -0.578
      -0.878
      -0.721
      -0.146
       0.672
       1.480
       2.024
       2.122
       1.718
       0.893
      -0.153
      -1.169
      -1.935
      -2.329
      -2.349
      -2.083
      -1.667
      -1.248
      -0.956
      -0.860
      -0.939
      -1.088
      -1.180
      -1.140
      -0.982
      -0.770
      -0.551
      -0.322
      -0.049
       0.293
       0.695
       1.121
       1.519
       1.828
       1.995
       2.003
       1.896
       1.768
       1.703
       1.722
       1.770
       1.768
       1.661
       1.423
       1.015
       0.359
      -0.611
      -1.852
      -3.145
      -4.146
      -4.529
      -4.133
      -3.029
      -1.478
       0.162
       1.549
       2.453
       2.839
       2.860
       2.759
       2.707
       2.692
       2.553
       2.124
       1.370
       0.408
      -0.585
      -1.452
      -2.091
      -2.435
      -2.462
      -2.220
      -1.825
      -1.412
      -1.062
      -0.798
      -0.631
      -0.615
      -0.808
      -1.187
      -1.587
      -1.756
      -1.478
      -0.682
       0.544
       1.995
       3.410
       4.507
       5.032
       4.851
       4.024
       2.797
       1.511
       0.475
      -0.108
      -0.165
       0.231
       0.847
       1.330
       1.326
       0.643
      -0.663
      -2.324
      -3.994
      -5.358
      -6.182
      -6.315
      -5.707
      -4.427
      -2.675
      -0.755
       0.982
       2.214
       2.737
       2.531
       1.755
       0.688
      -0.366
      -1.154
      -1.517
      -1.408
      -0.900
      -0.161
       0.609
       1.240
       1.630
       1.735
       1.575
       1.238
       0.876
       0.641
       0.594
       0.679
       0.791
       0.858
       0.865
       0.787
       0.557
       0.100
      -0.576
      -1.355
      -2.078
      -2.632
      -2.967
      -3.066
      -2.917
      -2.537
      -1.996
      -1.396
      -0.808
      -0.228
       0.392
       1.088
       1.834
       2.549
       3.128
       3.487
       3.578
       3.393
       2.953
       2.308
       1.542
       0.792
       0.231
      -0.002
       0.116
       0.464
       0.831
       1.023
       0.942
       0.592
       0.038
      -0.640
      -1.357
      -2.015
      -2.503
      -2.717
      -2.591
      -2.124
      -1.398
      -0.566
       0.180
       0.676
       0.847
       0.736
       0.489
       0.283
       0.243
       0.389
       0.636
       0.852
       0.937
       0.861
       0.653
       0.360
       0.019
      -0.336
      -0.663
      -0.907
      -1.019
      -0.969
      -0.758
      -0.411
       0.035
       0.538
       1.038
       1.446
       1.652
       1.567
       1.176
       0.567
      -0.097
      -0.645
      -0.962
      -1.028
      -0.908
      -0.716
      -0.555
      -0.482
      -0.506
      -0.619
      -0.820
      -1.088
      -1.343
      -1.453
      -1.305
      -0.883
      -0.287
       0.339
       0.874
       1.247
       1.407
       1.312
       0.960
       0.424
      -0.160
      -0.650
      -0.964
      -1.089
      -1.050
      -0.881
      -0.613
      -0.278
       0.106
       0.535
       1.011
       1.509
       1.957
       2.253
       2.306
       2.084
       1.624
       1.017
       0.377
      -0.191
      -0.604
      -0.809
      -0.795
      -0.602
      -0.317
      -0.048
       0.109
       0.096
      -0.110
      -0.505
      -1.046
      -1.638
      -2.139
      -2.404
      -2.356
      -2.023
      -1.517
      -0.988
      -0.572
      -0.358
      -0.371
      -0.550
      -0.754
      -0.807
      -0.580
      -0.050
       0.700
       1.521
       2.264
       2.806
       3.060
       2.982
       2.586
       1.966
       1.269
       0.645
       0.188
      -0.087
      -0.212
      -0.228
      -0.171
      -0.083
      -0.030
      -0.083
      -0.284
      -0.615
      -1.012
      -1.387
      -1.648
      -1.720
      -1.578
      -1.280
      -0.959
      -0.754
      -0.718
      -0.781
      -0.799
      -0.644
      -0.275
       0.269
       0.899
       1.514
       2.020
       2.343
       2.438
       2.299
       1.942
       1.403
       0.723
      -0.038
      -0.802
      -1.474
      -1.962
      -2.194
      -2.142
      -1.828
      -1.329
      -0.751
      -0.203
       0.231
       0.512
       0.646
       0.663
       0.597
       0.476
       0.330
       0.204
       0.153
       0.205
       0.346
       0.513
       0.627
       0.624
       0.471
       0.169
      -0.230
      -0.629
      -0.907
      -0.982
      -0.864
      -0.654
      -0.480
      -0.432
      -0.526
      -0.722
      -0.952
      -1.139
      -1.202
      -1.072
      -0.715
      -0.153
       0.534
       1.236
       1.842
       2.265
       2.453
       2.386
       2.077
       1.566
       0.912
       0.193
      -0.486
      -0.986
      -1.153
      -0.874
      -0.142
       0.895
       1.966
       2.759
       3.032
       2.681
       1.765
       0.475
      -0.930
      -2.202
      -3.171
      -3.762
      -3.957
      -3.749
      -3.133
      -2.157
      -0.986
       0.113
       0.865
       1.116
       0.902
       0.405
      -0.142
      -0.544
      -0.681
      -0.518
      -0.110
       0.407
       0.858
       1.106
       1.106
       0.895
       0.549
       0.139
      -0.279
      -0.644
      -0.895
      -0.993
      -0.950
      -0.814
      -0.631
      -0.409
      -0.130
       0.216
       0.587
       0.905
       1.099
       1.144
       1.053
       0.848
       0.543
       0.168
      -0.202
      -0.459
      -0.526
      -0.417
      -0.232
      -0.078
       0.004
       0.041
       0.076
       0.120
       0.151
       0.158
       0.149
       0.133
       0.103
       0.046
      -0.026
      -0.072
      -0.041
       0.085
       0.289
       0.544
       0.828
       1.119
       1.378
       1.556
       1.608
       1.510
       1.250
       0.824
       0.255
      -0.384
      -0.969
      -1.373
      -1.519
      -1.416
      -1.143
      -0.803
      -0.485
      -0.241
      -0.102
      -0.097
      -0.252
      -0.570
      -1.009
      -1.478
      -1.870
      -2.089
      -2.066
      -1.767
      -1.206
      -0.460
       0.340
       1.050
       1.557
       1.801
       1.762
       1.462
       0.985
       0.488
       0.154
       0.105
       0.335
       0.729
       1.137
       1.444
       1.577
       1.482
       1.123
       0.513
      -0.273
      -1.110
      -1.856
      -2.366
      -2.495
      -2.129
      -1.259
      -0.036
       1.244
       2.259
       2.787
       2.763
       2.254
       1.387
       0.319
      -0.766
      -1.667
      -2.209
      -2.298
      -1.964
      -1.338
      -0.614
       0.015
       0.410
       0.521
       0.398
       0.155
      -0.087
      -0.245
      -0.290
      -0.229
      -0.067
       0.204
       0.587
       1.044
       1.471
       1.726
       1.699
       1.369
       0.827
       0.219
      -0.320
      -0.714
      -0.953
      -1.080
      -1.157
      -1.236
      -1.328
