Origin Time       15/05/2009 18:39:22 UTC
Lat.              30.5 N 
Long.             79.3 E 
Depth (Km)         15.0
Magnitude         4.1
 Region           Chamoli-Uttarakhand                                              
 Above details taken from IMD 
    
Station Code      CHA
Station Lat.       30.412  N
Station Long.      79.320  E
Station Height(m) 1578.0
Site Class        A   Vs30 between 700 m/sec to 1400 m/sec * 
Record Time       15.05.2009 18:42:37.579 UTC
Sampling Rate     200. Hz
 Record Duration   65.250 Sec.
 Direction         N-S (N positive)
Max. Acceleration     -2.899 cm/sec**2
     
  * For reference see Site Classification link of website 
     
 Base Line Corrected and Low Pass Filtered (Cut Off at 35 Hz) Time History
 Acceleration data in cm/sec**2
    
[...]
      -0.004
       0.000
       0.002
       0.003
       0.002
      -0.001
      -0.003
      -0.003
       0.000
       0.004
       0.006
       0.004
      -0.001
      -0.005
      -0.005
      -0.002
       0.002
       0.002
       0.000
      -0.001
       0.000
      -0.001
      -0.005
      -0.012
      -0.017
      -0.018
      -0.013
      -0.007
      -0.002
      -0.001
      -0.003
      -0.005
      -0.005
      -0.004
      -0.003
      -0.001
       0.001
       0.002
      -0.001
      -0.005
      -0.007
      -0.004
       0.001
       0.004
       0.004
      -0.001
      -0.008
      -0.012
      -0.012
      -0.009
      -0.006
      -0.006
      -0.008
      -0.012
      -0.014
      -0.012
      -0.006
       0.002
       0.007
       0.007
       0.004
       0.001
       0.000
       0.001
       0.004
       0.005
       0.004
       0.002
       0.002
       0.003
       0.004
       0.001
      -0.006
      -0.013
      -0.015
      -0.011
      -0.004
       0.001
       0.003
       0.003
       0.003
       0.003
       0.001
      -0.001
      -0.003
      -0.001
       0.004
       0.009
       0.012
       0.012
       0.009
       0.006
       0.004
       0.004
       0.006
       0.006
       0.006
       0.005
       0.002
      -0.001
      -0.003
      -0.005
      -0.006
      -0.007
      -0.007
      -0.006
      -0.004
      -0.002
       0.000
      -0.001
      -0.002
      -0.002
       0.001
       0.005
       0.005
       0.003
      -0.001
      -0.003
      -0.002
       0.001
       0.001
      -0.003
      -0.008
      -0.009
      -0.005
       0.000
       0.001
      -0.001
      -0.003
      -0.003
      -0.002
      -0.002
      -0.004
      -0.005
      -0.002
       0.002
       0.006
       0.008
       0.008
       0.008
       0.009
       0.009
       0.006
      -0.001
      -0.009
      -0.014
      -0.013
      -0.005
       0.004
       0.006
       0.000
      -0.010
      -0.017
      -0.017
      -0.011
      -0.003
       0.001
       0.001
      -0.002
      -0.005
      -0.006
      -0.006
      -0.008
      -0.011
      -0.014
      -0.015
      -0.016
      -0.016
      -0.016
      -0.015
      -0.011
      -0.006
      -0.003
      -0.004
      -0.009
      -0.012
      -0.009
      -0.004
       0.000
      -0.003
      -0.009
      -0.013
      -0.012
      -0.006
       0.001
       0.003
       0.002
      -0.002
      -0.005
      -0.009
      -0.014
      -0.016
      -0.012
      -0.005
       0.001
       0.002
      -0.003
      -0.009
      -0.010
      -0.003
       0.009
       0.016
       0.015
       0.007
      -0.004
      -0.012
      -0.014
      -0.011
      -0.007
      -0.005
      -0.006
      -0.008
      -0.009
      -0.008
      -0.006
      -0.003
      -0.001
      -0.001
      -0.003
      -0.005
      -0.005
      -0.004
      -0.002
      -0.001
      -0.003
      -0.005
      -0.006
      -0.006
      -0.006
      -0.007
      -0.009
      -0.010
      -0.007
      -0.002
       0.002
       0.003
       0.001
      -0.001
      -0.002
      -0.001
      -0.002
      -0.004
      -0.007
      -0.010
      -0.010
      -0.009
      -0.007
      -0.005
      -0.003
      -0.003
      -0.002
       0.000
       0.004
       0.006
       0.005
       0.001
      -0.002
      -0.003
      -0.003
      -0.003
      -0.004
      -0.006
      -0.007
      -0.007
      -0.007
      -0.007
      -0.006
      -0.004
      -0.001
       0.002
       0.004
       0.004
       0.002
      -0.001
      -0.001
       0.002
       0.007
       0.010
       0.006
      -0.003
      -0.012
      -0.017
      -0.014
      -0.007
      -0.001
       0.002
       0.001
      -0.001
      -0.003
      -0.005
      -0.007
      -0.008
      -0.008
      -0.005
       0.000
       0.005
       0.008
       0.010
       0.015
       0.024
       0.037
       0.047
       0.047
       0.032
       0.006
      -0.029
      -0.063
      -0.088
      -0.099
      -0.096
      -0.082
      -0.064
      -0.050
      -0.043
      -0.044
      -0.052
      -0.066
      -0.082
      -0.091
      -0.081
      -0.048
       0.001
       0.050
       0.086
       0.106
       0.116
       0.116
       0.093
       0.029
      -0.071
      -0.173
      -0.221
      -0.182
      -0.074
       0.047
       0.124
       0.140
       0.116
       0.085
       0.055
       0.008
      -0.070
      -0.162
      -0.222
      -0.213
      -0.132
      -0.007
       0.128
       0.253
       0.359
       0.435
       0.462
       0.425
       0.326
       0.193
       0.062
      -0.037
      -0.087
      -0.087
      -0.048
       0.008
       0.046
       0.033
      -0.049
      -0.186
      -0.342
      -0.470
      -0.535
      -0.524
      -0.447
      -0.324
      -0.176
      -0.020
       0.124
       0.230
       0.275
       0.248
       0.161
       0.060
      -0.005
      -0.002
       0.061
       0.150
       0.225
       0.264
       0.270
       0.255
       0.220
       0.149
       0.022
      -0.148
      -0.316
      -0.422
      -0.437
      -0.379
      -0.295
      -0.217
      -0.145
      -0.055
       0.061
       0.167
       0.210
       0.164
       0.073
       0.019
       0.070
       0.214
       0.364
       0.414
       0.323
       0.135
      -0.046
      -0.133
      -0.108
      -0.017
       0.070
       0.111
       0.105
       0.081
       0.065
       0.061
       0.055
       0.027
      -0.028
      -0.093
      -0.141
      -0.150
      -0.114
      -0.045
       0.033
       0.087
       0.093
       0.046
      -0.031
      -0.099
      -0.131
      -0.132
      -0.126
      -0.126
      -0.121
      -0.085
      -0.010
       0.087
       0.162
       0.176
       0.106
      -0.035
      -0.210
      -0.369
      -0.469
      -0.484
      -0.417
      -0.296
      -0.165
      -0.063
      -0.016
      -0.020
      -0.050
      -0.078
      -0.087
      -0.068
      -0.011
       0.102
       0.273
       0.473
       0.634
       0.690
       0.616
       0.445
       0.238
       0.048
      -0.113
      -0.255
      -0.387
      -0.486
      -0.506
      -0.411
      -0.197
       0.094
       0.395
       0.632
       0.746
       0.717
       0.576
       0.393
       0.238
       0.146
       0.097
       0.048
      -0.030
      -0.126
      -0.211
      -0.264
      -0.297
      -0.331
      -0.376
      -0.414
      -0.417
      -0.370
      -0.290
      -0.210
      -0.159
      -0.140
      -0.131
      -0.102
      -0.037
       0.054
       0.141
       0.182
       0.147
       0.035
      -0.116
      -0.237
      -0.257
      -0.145
       0.064
       0.285
       0.428
       0.456
       0.402
       0.333
       0.305
       0.327
       0.361
       0.363
       0.315
       0.241
       0.179
       0.153
       0.150
       0.129
       0.058
      -0.073
      -0.245
      -0.423
      -0.575
      -0.684
      -0.749
      -0.767
      -0.735
      -0.638
      -0.466
      -0.231
       0.031
       0.259
       0.399
       0.432
       0.380
       0.293
       0.219
       0.180
       0.171
       0.169
       0.152
       0.115
       0.059
      -0.011
      -0.097
      -0.191
      -0.274
      -0.323
      -0.331
      -0.309
      -0.273
      -0.229
      -0.155
      -0.022
       0.187
       0.454
       0.725
       0.937
       1.038
       1.005
       0.846
       0.595
       0.302
       0.012
      -0.248
      -0.472
      -0.672
      -0.856
      -1.009
      -1.091
      -1.061
      -0.904
      -0.646
      -0.334
      -0.013
       0.286
       0.539
       0.716
       0.789
       0.752
       0.634
       0.481
       0.335
       0.212
       0.109
       0.017
      -0.069
      -0.143
      -0.198
      -0.234
      -0.265
      -0.304
      -0.347
      -0.365
      -0.324
      -0.220
      -0.091
       0.003
       0.026
      -0.003
      -0.025
       0.016
       0.127
       0.260
       0.353
       0.373
       0.334
       0.277
       0.232
       0.197
       0.149
       0.072
      -0.025
      -0.109
      -0.155
      -0.161
      -0.133
      -0.074
       0.027
       0.165
       0.306
       0.393
       0.388
       0.299
       0.177
       0.073
      -0.002
      -0.071
      -0.164
      -0.281
      -0.390
      -0.459
      -0.483
      -0.478
      -0.465
      -0.454
      -0.438
      -0.409
      -0.362
      -0.299
      -0.229
      -0.153
      -0.066
       0.043
       0.181
       0.337
       0.486
       0.591
       0.629
       0.597
       0.516
       0.408
       0.278
       0.118
      -0.085
      -0.317
      -0.532
      -0.673
      -0.708
      -0.652
      -0.553
      -0.454
      -0.360
      -0.237
      -0.058
       0.155
       0.323
       0.366
       0.264
       0.081
      -0.081
      -0.160
      -0.162
      -0.135
      -0.109
      -0.063
       0.042
       0.211
       0.384
       0.470
       0.426
       0.298
       0.203
       0.235
       0.396
       0.593
       0.712
       0.702
       0.598
       0.480
       0.404
       0.368
       0.330
       0.247
       0.109
      -0.061
      -0.227
      -0.360
      -0.446
      -0.487
      -0.497
      -0.490
      -0.473
      -0.437
      -0.361
      -0.232
      -0.063
       0.103
       0.208
       0.209
       0.104
      -0.063
      -0.224
      -0.325
      -0.351
      -0.331
      -0.298
      -0.270
      -0.229
      -0.147
      -0.004
       0.189
       0.384
       0.511
       0.516
       0.391
       0.190
      -0.011
      -0.160
      -0.254
      -0.319
      -0.374
      -0.403
      -0.376
      -0.286
      -0.175
      -0.103
      -0.104
      -0.154
      -0.190
      -0.147
      -0.007
       0.196
       0.391
       0.510
       0.519
       0.431
       0.293
       0.165
       0.087
       0.063
       0.061
       0.027
      -0.079
      -0.247
      -0.407
      -0.464
      -0.360
      -0.123
       0.143
       0.315
       0.332
       0.226
       0.095
       0.022
       0.023
       0.047
       0.036
      -0.016
      -0.049
       0.009
       0.172
       0.373
       0.512
       0.523
       0.426
       0.305
       0.242
       0.262
       0.315
       0.317
       0.215
       0.021
      -0.208
      -0.404
      -0.533
      -0.595
      -0.614
      -0.612
      -0.595
      -0.551
      -0.452
      -0.279
      -0.043
       0.200
       0.365
       0.381
       0.244
       0.026
      -0.172
      -0.274
      -0.270
      -0.200
      -0.105
       0.002
       0.139
       0.312
       0.483
       0.579
       0.534
       0.340
       0.056
      -0.221
      -0.424
      -0.550
      -0.662
      -0.829
      -1.071
      -1.333
      -1.518
      -1.556
      -1.449
      -1.271
      -1.116
      -1.028
      -0.971
      -0.851
      -0.586
      -0.162
       0.352
       0.844
       1.215
       1.431
       1.523
       1.544
       1.526
       1.448
       1.264
       0.944
       0.514
       0.051
      -0.346
      -0.600
      -0.676
      -0.588
      -0.395
      -0.178
       0.000
       0.129
       0.258
       0.452
       0.733
       1.048
       1.297
       1.397
       1.341
       1.197
       1.053
       0.945
       0.828
       0.621
       0.297
      -0.080
      -0.386
      -0.519
      -0.465
      -0.286
      -0.061
       0.166
       0.397
       0.632
       0.834
       0.933
       0.865
       0.612
       0.228
      -0.185
      -0.517
      -0.703
      -0.752
      -0.734
      -0.744
      -0.853
      -1.082
      -1.387
      -1.676
      -1.839
      -1.802
      -1.557
      -1.164
      -0.706
      -0.237
       0.239
       0.756
       1.334
       1.935
       2.463
       2.803
       2.884
       2.719
       2.397
       2.030
       1.683
       1.344
       0.949
       0.446
      -0.152
      -0.759
      -1.255
      -1.546
      -1.594
      -1.416
      -1.057
      -0.579
      -0.059
       0.408
       0.737
       0.874
       0.829
       0.663
       0.447
       0.223
      -0.008
      -0.259
      -0.527
      -0.774
      -0.950
      -1.028
      -1.018
      -0.962
      -0.910
      -0.893
      -0.929
      -1.011
      -1.117
      -1.213
      -1.270
      -1.281
      -1.262
      -1.238
      -1.221
      -1.193
      -1.117
      -0.950
      -0.678
      -0.322
       0.065
       0.423
       0.697
       0.846
       0.834
       0.648
       0.322
      -0.062
      -0.405
      -0.638
      -0.742
      -0.745
      -0.687
      -0.598
      -0.503
      -0.419
      -0.365
      -0.354
      -0.389
      -0.455
      -0.531
      -0.594
      -0.623
      -0.600
      -0.500
      -0.299
       0.008
       0.386
       0.764
       1.057
       1.205
       1.194
       1.051
       0.820
       0.545
       0.266
       0.027
      -0.136
      -0.197
      -0.157
      -0.038
       0.122
       0.292
       0.457
       0.615
       0.768
       0.908
       1.017
       1.077
       1.082
       1.038
       0.955
       0.838
       0.683
       0.485
       0.241
      -0.035
      -0.312
      -0.529
      -0.606
      -0.476
      -0.132
       0.348
       0.813
       1.106
       1.137
       0.917
       0.537
       0.094
      -0.369
      -0.872
      -1.447
      -2.066
      -2.608
      -2.899
      -2.812
      -2.334
      -1.579
      -0.724
       0.073
       0.715
       1.181
       1.497
       1.701
       1.809
       1.804
       1.655
       1.355
       0.950
       0.530
       0.191
       0.001
      -0.025
       0.089
       0.294
       0.538
       0.776
       0.978
       1.123
       1.191
       1.153
       0.980
       0.661
       0.214
      -0.319
      -0.874
      -1.373
      -1.741
      -1.926
      -1.901
      -1.670
      -1.252
      -0.693
      -0.069
       0.527
       1.017
       1.370
       1.606
       1.768
       1.884
       1.945
       1.931
       1.835
       1.677
       1.494
       1.318
       1.159
       1.013
       0.862
       0.688
       0.468
       0.184
      -0.162
      -0.540
      -0.894
      -1.171
      -1.350
      -1.459
      -1.546
      -1.646
      -1.750
      -1.807
      -1.763
      -1.595
      -1.332
      -1.037
      -0.780
      -0.608
      -0.531
      -0.526
      -0.551
      -0.568
      -0.567
      -0.560
      -0.577
      -0.632
      -0.710
      -0.783
      -0.819
      -0.809
      -0.755
      -0.673
      -0.571
      -0.455
      -0.332
      -0.215
      -0.114
      -0.039
       0.011
       0.037
       0.037
       0.009
      -0.048
      -0.128
      -0.220
      -0.312
      -0.397
      -0.459
      -0.475
      -0.419
      -0.274
      -0.045
       0.245
       0.566
       0.880
       1.148
       1.331
       1.409
       1.387
       1.291
       1.158
       1.020
       0.897
       0.800
       0.726
       0.666
       0.608
       0.554
       0.513
       0.497
       0.495
       0.482
       0.437
       0.364
       0.291
       0.257
       0.285
       0.377
       0.512
       0.661
       0.798
       0.909
       0.987
       1.033
       1.042
       1.005
       0.917
       0.786
       0.635
       0.490
       0.362
       0.241
       0.101
      -0.078
      -0.292
      -0.519
      -0.729
      -0.908
      -1.057
      -1.194
      -1.327
      -1.446
      -1.521
      -1.523
      -1.439
      -1.287
      -1.111
      -0.966
      -0.891
      -0.892
      -0.935
      -0.963
      -0.927
      -0.814
      -0.654
      -0.502
      -0.402
      -0.361
      -0.348
      -0.319
      -0.243
      -0.124
       0.014
       0.147
       0.270
       0.397
       0.542
       0.701
       0.852
       0.961
       1.000
       0.965
       0.880
       0.788
       0.728
       0.717
       0.741
       0.770
       0.769
       0.713
       0.592
       0.402
       0.142
      -0.180
      -0.548
      -0.929
      -1.280
      -1.555
      -1.718
      -1.745
      -1.637
      -1.426
      -1.162
      -0.890
      -0.630
      -0.376
      -0.123
       0.112
       0.301
       0.430
       0.517
       0.608
       0.741
       0.920
       1.108
       1.253
       1.318
       1.297
       1.213
       1.098
       0.972
       0.845
       0.719
       0.599
       0.490
       0.384
       0.266
       0.123
      -0.039
      -0.198
      -0.327
      -0.412
      -0.455
      -0.468
      -0.454
      -0.416
      -0.367
      -0.338
      -0.371
      -0.493
      -0.688
      -0.897
      -1.047
      -1.086
      -1.008
      -0.841
      -0.620
      -0.363
      -0.076
       0.226
       0.503
       0.694
       0.734
       0.604
       0.352
       0.078
      -0.119
      -0.192
      -0.161
      -0.090
      -0.038
      -0.026
      -0.041
      -0.051
      -0.045
      -0.035
      -0.056
      -0.132
      -0.256
      -0.388
      -0.471
      -0.473
      -0.397
      -0.277
      -0.149
      -0.033
       0.070
       0.171
       0.277
       0.387
       0.489
       0.564
       0.601
       0.601
       0.583
       0.573
       0.587
       0.617
       0.626
       0.572
       0.443
       0.276
       0.140
       0.089
       0.128
       0.208
       0.263
       0.257
       0.201
       0.135
       0.089
       0.071
       0.067
       0.066
       0.065
       0.073
       0.093
       0.127
       0.179
       0.258
       0.372
       0.516
       0.672
       0.822
       0.956
       1.077
       1.188
       1.283
       1.350
       1.379
       1.368
       1.328
       1.268
       1.183
       1.047
       0.832
       0.531
       0.177
      -0.173
      -0.457
      -0.637
      -0.709
      -0.698
      -0.643
      -0.585
      -0.556
      -0.567
      -0.606
      -0.647
      -0.661
      -0.631
      -0.565
      -0.483
      -0.407
      -0.352
      -0.313
      -0.283
      -0.262
      -0.268
      -0.331
      -0.474
      -0.690
      -0.940
      -1.171
      -1.341
      -1.435
      -1.467
      -1.466
      -1.445
      -1.396
      -1.304
      -1.170
      -1.024
      -0.907
      -0.849
      -0.843
      -0.859
      -0.854
      -0.811
      -0.738
      -0.662
      -0.604
      -0.563
      -0.515
      -0.438
      -0.330
      -0.216
      -0.130
      -0.089
      -0.083
      -0.089
      -0.085
      -0.062
      -0.024
       0.017
       0.044
       0.043
       0.012
      -0.035
      -0.068
      -0.059
       0.004
       0.110
       0.231
       0.340
       0.429
       0.509
       0.598
       0.701
       0.802
       0.871
       0.886
       0.851
       0.790
       0.734
       0.699
       0.679
       0.653
       0.598
       0.503
       0.376
       0.244
       0.134
       0.064
       0.038
       0.052
       0.106
       0.203
       0.348
       0.538
       0.758
       0.978
       1.170
       1.317
       1.413
       1.467
       1.489
       1.481
       1.430
       1.324
       1.158
       0.945
       0.706
       0.465
       0.246
       0.062
      -0.078
      -0.175
