Origin Time       17/7/2009 11:07:47  UTC
Lat.              32.3 N 
Long.             76.1 E 
Depth (Km)         39.3
Magnitude         3.7
 Region           CHAMBA-(H.P.)                                                    
 Above details taken from IMD 
    
Station Code      CHA
Station Lat.       32.555  N
Station Long.      76.126  E
Station Height(m)  952.0
Site Class        A   Vs30 between 700 m/sec to 1400 m/sec * 
Record Time       17.07.2009 11:07:38.459 UTC
Sampling Rate     200. Hz
 Record Duration   73.265 Sec.
 Direction         N-S (N positive)
Max. Acceleration      9.723 cm/sec**2
     
  * For reference see Site Classification link of website 
     
 Base Line Corrected and Low Pass Filtered (Cut Off at 35 Hz) Time History
 Acceleration data in cm/sec**2
    
[...]
      -0.007
      -0.013
      -0.019
      -0.029
      -0.038
      -0.038
      -0.027
      -0.009
       0.006
       0.013
       0.015
       0.016
       0.019
       0.020
       0.020
       0.017
       0.012
       0.008
       0.006
       0.004
      -0.002
      -0.011
      -0.018
      -0.018
      -0.013
      -0.007
      -0.006
      -0.009
      -0.013
      -0.012
      -0.003
       0.006
       0.006
      -0.005
      -0.017
      -0.020
      -0.013
      -0.003
       0.005
       0.011
       0.014
       0.013
       0.009
       0.003
      -0.001
       0.000
       0.005
       0.007
       0.002
      -0.011
      -0.025
      -0.029
      -0.020
       0.000
       0.019
       0.029
       0.025
       0.012
       0.000
      -0.005
      -0.002
       0.002
       0.002
      -0.005
      -0.017
      -0.024
      -0.019
      -0.004
       0.009
       0.013
       0.006
      -0.005
      -0.017
      -0.026
      -0.032
      -0.031
      -0.024
      -0.009
       0.008
       0.022
       0.024
       0.017
       0.007
      -0.001
      -0.007
      -0.013
      -0.015
      -0.010
       0.001
       0.008
       0.006
      -0.003
      -0.010
      -0.008
       0.003
       0.017
       0.024
       0.022
       0.016
       0.013
       0.014
       0.015
       0.011
       0.005
       0.000
      -0.004
      -0.008
      -0.012
      -0.012
      -0.011
      -0.012
      -0.015
      -0.014
      -0.006
       0.007
       0.016
       0.017
       0.012
       0.006
       0.000
      -0.005
      -0.006
      -0.005
      -0.003
      -0.005
      -0.008
      -0.010
      -0.006
       0.002
       0.010
       0.016
       0.017
       0.012
       0.004
      -0.002
      -0.007
      -0.012
      -0.016
      -0.015
      -0.007
       0.006
       0.014
       0.017
       0.017
       0.015
       0.010
       0.001
      -0.007
      -0.013
      -0.012
      -0.004
       0.006
       0.013
       0.011
       0.003
      -0.003
      -0.004
       0.001
       0.008
       0.012
       0.009
       0.002
      -0.008
      -0.016
      -0.019
      -0.018
      -0.012
      -0.005
       0.001
       0.005
       0.006
       0.006
       0.005
       0.001
      -0.003
      -0.005
      -0.003
       0.002
       0.006
       0.005
       0.000
      -0.004
      -0.005
      -0.006
      -0.012
      -0.019
      -0.021
      -0.011
       0.003
       0.011
       0.006
      -0.009
      -0.023
      -0.025
      -0.012
       0.004
       0.010
       0.003
      -0.009
      -0.016
      -0.015
      -0.013
      -0.017
      -0.024
      -0.027
      -0.016
       0.006
       0.026
       0.031
       0.019
      -0.004
      -0.023
      -0.030
      -0.023
      -0.005
       0.018
       0.041
       0.052
       0.040
       0.003
      -0.042
      -0.071
      -0.071
      -0.048
      -0.019
       0.008
       0.027
       0.025
      -0.005
      -0.055
      -0.097
      -0.104
      -0.064
       0.011
       0.094
       0.154
       0.162
       0.107
       0.006
      -0.083
      -0.098
      -0.028
       0.064
       0.090
       0.032
      -0.037
      -0.030
       0.053
       0.127
       0.108
       0.001
      -0.116
      -0.163
      -0.127
      -0.060
      -0.036
      -0.084
      -0.165
      -0.201
      -0.155
      -0.063
       0.019
       0.082
       0.166
       0.290
       0.397
       0.396
       0.256
       0.056
      -0.084
      -0.106
      -0.061
      -0.055
      -0.145
      -0.290
      -0.363
      -0.248
       0.051
       0.371
       0.493
       0.314
      -0.075
      -0.447
      -0.592
      -0.427
      -0.037
       0.366
       0.552
       0.406
       0.004
      -0.414
      -0.595
      -0.436
      -0.053
       0.309
       0.469
       0.428
       0.333
       0.304
       0.302
       0.183
      -0.135
      -0.537
      -0.752
      -0.553
       0.032
       0.669
       0.904
       0.497
      -0.350
      -1.101
      -1.271
      -0.777
       0.033
       0.676
       0.857
       0.604
       0.179
      -0.118
      -0.142
       0.011
       0.104
      -0.017
      -0.242
      -0.280
       0.047
       0.554
       0.802
       0.486
      -0.257
      -0.927
      -1.059
      -0.573
       0.199
       0.782
       0.874
       0.472
      -0.188
      -0.765
      -0.949
      -0.638
      -0.055
       0.375
       0.367
       0.033
      -0.254
      -0.223
       0.074
       0.390
       0.542
       0.523
       0.425
       0.345
       0.338
       0.367
       0.286
      -0.040
      -0.559
      -0.991
      -1.033
      -0.629
      -0.028
       0.389
       0.366
      -0.073
      -0.648
      -0.984
      -0.818
      -0.145
       0.769
       1.514
       1.744
       1.368
       0.609
      -0.119
      -0.482
      -0.452
      -0.277
      -0.221
      -0.328
      -0.451
      -0.473
      -0.424
      -0.393
      -0.385
      -0.317
      -0.131
       0.122
       0.312
       0.329
       0.194
       0.095
       0.262
       0.701
       1.056
       0.858
       0.016
      -0.980
      -1.439
      -1.095
      -0.317
       0.266
       0.297
      -0.101
      -0.530
      -0.644
      -0.357
       0.156
       0.614
       0.839
       0.843
       0.728
       0.543
       0.293
       0.072
       0.042
       0.191
       0.222
      -0.177
      -0.902
      -1.406
      -1.199
      -0.370
       0.463
       0.708
       0.278
      -0.446
      -1.000
      -1.128
      -0.791
      -0.066
       0.874
       1.721
       2.067
       1.619
       0.460
      -0.854
      -1.567
      -1.235
      -0.102
       1.013
       1.320
       0.645
      -0.473
      -1.242
      -1.215
      -0.542
       0.250
       0.700
       0.685
       0.352
      -0.077
      -0.412
      -0.495
      -0.253
       0.151
       0.315
      -0.093
      -0.924
      -1.524
      -1.259
      -0.138
       1.124
       1.707
       1.374
       0.585
       0.014
       0.001
       0.430
       0.989
       1.387
       1.382
       0.780
      -0.393
      -1.713
      -2.490
      -2.250
      -1.172
      -0.038
       0.352
      -0.205
      -1.183
      -1.770
      -1.476
      -0.416
       0.878
       1.848
       2.198
       1.953
       1.349
       0.710
       0.335
       0.389
       0.784
       1.160
       1.060
       0.252
      -1.005
      -2.045
      -2.245
      -1.534
      -0.482
       0.157
       0.047
      -0.510
      -0.891
      -0.701
      -0.043
       0.656
       1.015
       0.927
       0.527
       0.045
      -0.303
      -0.381
      -0.164
       0.224
       0.518
       0.434
      -0.110
      -0.813
      -1.111
      -0.614
       0.471
       1.391
       1.451
       0.629
      -0.395
      -0.864
      -0.596
      -0.017
       0.354
       0.379
       0.248
       0.119
      -0.075
      -0.461
      -0.973
      -1.306
      -1.120
      -0.318
       0.799
       1.651
       1.749
       1.076
       0.126
      -0.486
      -0.506
      -0.174
       0.087
       0.059
      -0.175
      -0.413
      -0.524
      -0.489
      -0.345
      -0.130
       0.131
       0.398
       0.572
       0.531
       0.249
      -0.140
      -0.438
      -0.541
      -0.489
      -0.357
      -0.145
       0.147
       0.386
       0.358
       0.029
      -0.334
      -0.395
      -0.113
       0.197
       0.208
      -0.031
      -0.126
       0.216
       0.804
       1.099
       0.738
      -0.069
      -0.687
      -0.608
       0.093
       0.813
       0.912
       0.227
      -0.831
      -1.635
      -1.817
      -1.462
      -0.918
      -0.442
      -0.029
       0.440
       0.924
       1.162
       0.920
       0.271
      -0.393
      -0.646
      -0.327
       0.379
       1.073
       1.332
       0.900
      -0.120
      -1.199
      -1.625
      -1.009
       0.343
       1.572
       1.872
       1.063
      -0.318
      -1.457
      -1.846
      -1.529
      -0.884
      -0.236
       0.303
       0.694
       0.801
       0.492
      -0.123
      -0.626
      -0.556
       0.194
       1.221
       1.857
       1.641
       0.683
      -0.370
      -0.781
      -0.290
       0.658
       1.232
       0.853
      -0.380
      -1.792
      -2.638
      -2.571
      -1.761
      -0.697
       0.115
       0.386
       0.175
      -0.118
       0.013
       0.792
       1.898
       2.659
       2.592
       1.798
       0.806
       0.073
      -0.337
      -0.633
      -0.993
      -1.403
      -1.726
      -1.829
      -1.661
      -1.253
      -0.673
       0.028
       0.793
       1.488
       1.860
       1.657
       0.879
      -0.099
      -0.742
      -0.764
      -0.339
       0.096
       0.228
       0.060
      -0.201
      -0.368
      -0.375
      -0.254
      -0.068
       0.122
       0.285
       0.423
       0.532
       0.570
       0.508
       0.371
       0.191
      -0.091
      -0.575
      -1.221
      -1.755
      -1.847
      -1.419
      -0.732
      -0.163
       0.073
       0.008
      -0.170
      -0.233
       0.015
       0.651
       1.545
       2.359
       2.702
       2.336
       1.316
      -0.027
      -1.233
      -1.910
      -1.892
      -1.309
      -0.529
       0.014
       0.074
      -0.238
      -0.525
      -0.410
       0.177
       0.960
       1.556
       1.724
       1.421
       0.740
      -0.128
      -0.875
      -1.188
      -0.999
      -0.625
      -0.553
      -0.972
      -1.529
      -1.599
      -0.864
       0.381
       1.448
       1.807
       1.445
       0.799
       0.350
       0.261
       0.331
       0.269
      -0.012
      -0.346
      -0.508
      -0.444
      -0.328
      -0.406
      -0.746
      -1.111
      -1.103
      -0.504
       0.452
       1.199
       1.306
       0.871
       0.418
       0.357
       0.589
       0.664
       0.284
      -0.385
      -0.907
      -1.016
      -0.831
      -0.680
      -0.765
      -0.981
      -1.033
      -0.719
      -0.138
       0.358
       0.453
       0.162
      -0.150
      -0.077
       0.436
       1.006
       1.138
       0.700
       0.077
      -0.174
       0.154
       0.722
       0.971
       0.643
      -0.001
      -0.436
      -0.342
       0.160
       0.633
       0.678
       0.214
      -0.490
      -1.038
      -1.194
      -1.015
      -0.734
      -0.534
      -0.441
      -0.386
      -0.312
      -0.191
       0.015
       0.342
       0.774
       1.230
       1.614
       1.828
       1.738
       1.238
       0.402
      -0.450
      -0.951
      -0.994
      -0.815
      -0.780
      -1.049
      -1.458
      -1.697
      -1.610
      -1.299
      -0.939
      -0.539
       0.045
       0.862
       1.692
       2.178
       2.105
       1.553
       0.812
       0.179
      -0.172
      -0.199
       0.051
       0.417
       0.605
       0.313
      -0.503
      -1.484
      -2.067
      -1.918
      -1.213
      -0.475
      -0.116
      -0.119
      -0.130
       0.176
       0.797
       1.434
       1.754
       1.645
       1.241
       0.748
       0.278
      -0.176
      -0.650
      -1.140
      -1.580
      -1.842
      -1.780
      -1.336
      -0.662
      -0.079
       0.160
       0.098
       0.038
       0.240
       0.665
       1.027
       1.079
       0.832
       0.504
       0.302
       0.272
       0.341
       0.427
       0.502
       0.552
       0.513
       0.300
      -0.093
      -0.497
      -0.647
      -0.411
       0.032
       0.311
       0.184
      -0.269
      -0.770
      -1.108
      -1.240
      -1.180
      -0.903
      -0.402
       0.192
       0.634
       0.739
       0.528
       0.207
      -0.010
      -0.077
      -0.125
      -0.287
      -0.496
      -0.497
      -0.085
       0.664
       1.429
       1.898
       1.953
       1.651
       1.097
       0.380
      -0.374
      -0.990
      -1.324
      -1.396
      -1.395
      -1.526
      -1.807
      -2.034
      -1.932
      -1.386
      -0.525
       0.388
       1.142
       1.638
       1.836
       1.714
       1.355
       1.004
       0.953
       1.296
       1.806
       2.059
       1.738
       0.866
      -0.184
      -0.928
      -1.105
      -0.871
      -0.671
      -0.876
      -1.474
      -2.102
      -2.382
      -2.228
      -1.867
      -1.608
      -1.591
      -1.671
      -1.518
      -0.849
       0.358
       1.842
       3.221
       4.199
       4.626
       4.431
       3.574
       2.131
       0.408
      -1.116
      -2.025
      -2.227
      -1.997
      -1.755
      -1.762
      -1.985
      -2.198
      -2.184
      -1.857
      -1.251
      -0.443
       0.475
       1.394
       2.150
       2.539
       2.404
       1.761
       0.838
      -0.028
      -0.586
      -0.786
      -0.726
      -0.504
      -0.132
       0.398
       1.009
       1.511
       1.670
       1.315
       0.424
      -0.827
      -2.121
      -3.162
      -3.840
      -4.209
      -4.298
      -3.924
      -2.750
      -0.603
       2.203
       4.868
       6.523
       6.747
       5.789
       4.319
       2.930
       1.790
       0.681
      -0.655
      -2.178
      -3.505
      -4.184
      -4.068
      -3.488
      -3.054
      -3.166
      -3.576
      -3.405
      -1.733
       1.615
       5.702
       8.881
       9.723
       7.845
       4.082
      -0.069
      -3.291
      -5.002
      -5.347
      -4.789
      -3.719
      -2.358
      -0.939
       0.127
       0.342
      -0.515
      -2.070
      -3.392
      -3.479
      -1.914
       0.751
       3.223
       4.261
       3.516
       1.743
       0.128
      -0.704
      -1.066
      -1.597
      -2.291
      -2.227
      -0.400
       3.054
       6.462
       7.603
       5.412
       0.960
      -3.180
      -4.761
      -3.382
      -0.496
       1.940
       2.860
       2.394
       1.201
      -0.198
      -1.470
      -2.214
      -2.050
      -1.061
       0.047
       0.410
      -0.323
      -1.836
      -3.600
      -5.341
      -6.986
      -8.211
      -8.242
      -6.325
      -2.538
       1.884
       5.202
       6.383
       5.864
       5.130
       5.410
       6.650
       7.650
       7.227
       5.253
       2.647
       0.414
      -1.216
      -2.720
      -4.448
      -5.999
      -6.498
      -5.439
      -3.197
      -0.736
       1.092
       1.991
       2.154
       1.973
       1.823
       1.950
       2.379
       2.842
       2.865
       2.072
       0.552
      -1.035
      -1.845
      -1.521
      -0.606
      -0.212
      -1.097
      -2.954
      -4.573
      -4.786
      -3.347
      -1.031
       1.028
       2.097
       2.148
       1.647
       1.128
       0.884
       0.936
       1.188
       1.590
       2.098
       2.511
       2.414
       1.386
      -0.636
      -3.172
      -5.357
      -6.350
      -5.720
      -3.651
      -0.945
       1.269
       2.102
       1.480
       0.257
      -0.345
       0.423
       2.392
       4.747
       6.658
       7.655
       7.539
       6.170
       3.544
       0.103
      -3.148
      -5.052
      -5.019
      -3.483
      -1.672
      -0.845
      -1.563
      -3.492
      -5.732
      -7.306
      -7.486
      -5.936
      -2.854
       0.912
       4.048
       5.391
       4.661
       2.685
       0.861
       0.246
       0.972
       2.364
       3.529
       3.889
       3.326
       2.029
       0.330
      -1.316
      -2.369
      -2.438
      -1.619
      -0.562
      -0.050
      -0.386
      -1.132
      -1.519
      -1.119
      -0.163
       0.771
       1.286
       1.404
       1.367
       1.331
       1.253
       0.988
       0.417
      -0.482
      -1.589
      -2.616
      -3.150
      -2.871
      -1.816
      -0.448
       0.640
       1.199
       1.509
       2.055
       2.969
       3.821
       3.974
       3.154
       1.660
       0.044
      -1.385
      -2.715
      -4.111
      -5.356
      -5.787
      -4.788
      -2.455
       0.180
       1.660
       1.070
      -1.268
      -3.899
      -5.136
      -4.097
      -1.165
       2.378
       5.199
       6.599
       6.619
       5.623
       3.885
       1.632
      -0.592
      -1.870
      -1.511
       0.205
       2.015
       2.626
       1.758
       0.247
      -0.863
      -1.233
      -1.253
      -1.340
      -1.391
      -0.926
       0.331
       2.033
       3.314
       3.309
       1.743
      -0.839
      -3.353
      -4.780
      -4.652
      -3.147
      -0.877
       1.352
       2.729
       2.684
       1.214
      -0.970
      -2.748
      -3.259
      -2.444
      -1.025
       0.051
       0.262
      -0.207
      -0.681
      -0.516
       0.424
       1.653
       2.395
       2.169
       1.172
       0.135
      -0.284
      -0.059
       0.250
       0.106
      -0.445
      -0.852
      -0.685
      -0.167
      -0.013
      -0.688
      -1.807
      -2.319
      -1.384
       0.852
       3.292
       4.698
       4.532
       3.158
       1.385
      -0.128
      -1.132
      -1.653
      -1.751
      -1.435
      -0.771
      -0.006
       0.480
       0.405
      -0.196
      -0.986
      -1.567
      -1.704
      -1.356
      -0.590
       0.422
       1.321
       1.608
       0.948
      -0.470
      -1.931
      -2.625
      -2.163
      -0.737
       1.110
       2.820
       3.980
       4.341
       3.824
       2.573
       0.961
      -0.554
      -1.640
      -2.233
      -2.525
      -2.804
      -3.257
      -3.818
      -4.173
      -3.965
      -3.081
      -1.765
      -0.441
       0.605
       1.389
       2.099
       2.846
       3.577
       4.173
       4.563
       4.684
       4.403
       3.585
       2.257
       0.618
      -1.123
      -2.823
      -4.247
      -4.925
      -4.410
      -2.753
      -0.659
       0.982
       1.756
       1.901
       1.857
       1.742
       1.353
       0.608
      -0.171
      -0.508
      -0.278
       0.077
      -0.165
      -1.471
      -3.687
      -6.052
      -7.546
      -7.392
      -5.495
      -2.565
       0.228
       1.937
       2.384
       2.158
       2.118
       2.799
       4.147
       5.659
       6.739
       6.991
       6.335
       4.944
       3.113
       1.169
      -0.549
      -1.711
      -2.066
      -1.546
      -0.339
       1.119
       2.242
       2.508
       1.733
       0.250
      -1.226
      -2.072
      -2.227
      -2.251
      -2.843
      -4.218
      -5.864
      -6.883
      -6.623
      -5.126
      -3.056
      -1.208
      -0.002
       0.662
       1.161
       1.774
       2.495
       3.110
       3.380
       3.178
       2.513
       1.478
       0.199
      -1.196
      -2.541
      -3.608
      -4.131
      -3.931
      -3.071
      -1.857
      -0.628
       0.503
       1.697
       3.131
       4.688
       5.908
       6.278
       5.605
       4.142
       2.422
       0.938
      -0.067
      -0.612
      -0.871
      -1.060
      -1.349
      -1.776
      -2.155
      -2.109
      -1.311
       0.226
       2.065
       3.564
       4.228
       3.953
