Origin Time       17/9/2010 19:21:09	
Lat.              36.5 N	
Long.             70.8 E	
Depth (Km)        167.0
Magnitude         6.5
 Region           Hindukush                                                        
 Above details taken from IMD 
   
Station Code      CHA
Station Lat.       30.412
Station Long.      79.320
Station Height(m) 1578.0
Site Class        A   Vs30 between 700 m/sec to 1400 m/sec * 
Record Time       17.09.2010 19:23:30.929
Sampling Rate     200. Hz
 Record Duration   90.255 Sec.
 Direction         Vert. (Up positive)
Max. Acceleration      0.634 cm/sec**2
     
  * For reference see Site Classification link of website 
     
 Base Line Corrected and Low Pass Filtered (Cut Off at 35 Hz) Time History
 Acceleration data in cm/sec**2
    
[...]
       0.132
       0.169
       0.187
       0.186
       0.192
       0.213
       0.228
       0.224
       0.207
       0.177
       0.137
       0.109
       0.117
       0.148
       0.168
       0.170
       0.176
       0.187
       0.187
       0.170
       0.145
       0.111
       0.057
      -0.001
      -0.038
      -0.050
      -0.057
      -0.062
      -0.060
      -0.060
      -0.075
      -0.093
      -0.088
      -0.068
      -0.069
      -0.101
      -0.140
      -0.165
      -0.171
      -0.158
      -0.125
      -0.092
      -0.074
      -0.063
      -0.039
      -0.010
      -0.001
      -0.016
      -0.040
      -0.070
      -0.107
      -0.136
      -0.133
      -0.106
      -0.079
      -0.065
      -0.061
      -0.067
      -0.079
      -0.080
      -0.062
      -0.050
      -0.073
      -0.120
      -0.155
      -0.162
      -0.156
      -0.147
      -0.132
      -0.117
      -0.107
      -0.092
      -0.060
      -0.030
      -0.024
      -0.038
      -0.049
      -0.055
      -0.062
      -0.062
      -0.040
      -0.008
       0.009
       0.011
       0.014
       0.021
       0.028
       0.038
       0.049
       0.041
       0.004
      -0.030
      -0.029
      -0.001
       0.024
       0.039
       0.052
       0.063
       0.064
       0.064
       0.070
       0.064
       0.033
      -0.008
      -0.034
      -0.047
      -0.058
      -0.059
      -0.043
      -0.032
      -0.045
      -0.070
      -0.081
      -0.084
      -0.096
      -0.118
      -0.142
      -0.174
      -0.209
      -0.218
      -0.188
      -0.143
      -0.114
      -0.097
      -0.076
      -0.058
      -0.053
      -0.053
      -0.051
      -0.063
      -0.102
      -0.145
      -0.167
      -0.169
      -0.168
      -0.162
      -0.154
      -0.161
      -0.187
      -0.203
      -0.183
      -0.150
      -0.140
      -0.157
      -0.180
      -0.197
      -0.200
      -0.183
      -0.154
      -0.135
      -0.137
      -0.138
      -0.118
      -0.091
      -0.079
      -0.077
      -0.077
      -0.081
      -0.090
      -0.086
      -0.059
      -0.024
       0.001
       0.020
       0.037
       0.051
       0.063
       0.093
       0.142
       0.182
       0.191
       0.188
       0.199
       0.225
       0.255
       0.289
       0.323
       0.343
       0.346
       0.348
       0.351
       0.338
       0.295
       0.236
       0.177
       0.116
       0.056
       0.015
      -0.004
      -0.025
      -0.063
      -0.106
      -0.137
      -0.158
      -0.170
      -0.168
      -0.169
      -0.199
      -0.255
      -0.297
      -0.300
      -0.283
      -0.270
      -0.257
      -0.237
      -0.221
      -0.209
      -0.187
      -0.159
      -0.150
      -0.165
      -0.175
      -0.162
      -0.139
      -0.114
      -0.072
      -0.016
       0.025
       0.040
       0.054
       0.090
       0.137
       0.178
       0.210
       0.225
       0.213
       0.193
       0.203
       0.247
       0.289
       0.308
       0.322
       0.348
       0.379
       0.407
       0.438
       0.465
       0.463
       0.432
       0.403
       0.395
       0.397
       0.397
       0.398
       0.397
       0.374
       0.334
       0.306
       0.305
       0.308
       0.286
       0.240
       0.182
       0.121
       0.073
       0.052
       0.048
       0.035
       0.011
      -0.004
      -0.005
      -0.009
      -0.024
      -0.045
      -0.076
      -0.128
      -0.186
      -0.222
      -0.224
      -0.210
      -0.192
      -0.175
      -0.167
      -0.177
      -0.186
      -0.168
      -0.134
      -0.124
      -0.147
      -0.175
      -0.182
      -0.166
      -0.129
      -0.074
      -0.017
       0.021
       0.047
       0.086
       0.136
       0.170
       0.178
       0.176
       0.170
       0.157
       0.149
       0.166
       0.204
       0.233
       0.238
       0.231
       0.223
       0.211
       0.202
       0.199
       0.183
       0.129
       0.053
      -0.002
      -0.020
      -0.024
      -0.036
      -0.052
      -0.069
      -0.090
      -0.110
      -0.124
      -0.142
      -0.187
      -0.250
      -0.309
      -0.359
      -0.410
      -0.450
      -0.461
      -0.452
      -0.455
      -0.479
      -0.504
      -0.517
      -0.519
      -0.505
      -0.479
      -0.464
      -0.475
      -0.484
      -0.455
      -0.396
      -0.336
      -0.286
      -0.233
      -0.178
      -0.133
      -0.089
      -0.032
       0.021
       0.046
       0.052
       0.068
       0.100
       0.138
       0.186
       0.247
       0.294
       0.301
       0.286
       0.288
       0.314
       0.335
       0.332
       0.308
       0.271
       0.230
       0.208
       0.220
       0.241
       0.245
       0.236
       0.239
       0.251
       0.256
       0.249
       0.241
       0.226
       0.196
       0.167
       0.160
       0.172
       0.186
       0.200
       0.216
       0.223
       0.213
       0.201
       0.203
       0.200
       0.162
       0.092
       0.019
      -0.037
      -0.074
      -0.091
      -0.094
      -0.098
      -0.113
      -0.121
      -0.106
      -0.080
      -0.066
      -0.067
      -0.078
      -0.099
      -0.125
      -0.134
      -0.115
      -0.086
      -0.074
      -0.080
      -0.097
      -0.122
      -0.150
      -0.165
      -0.169
      -0.187
      -0.235
      -0.287
      -0.308
      -0.299
      -0.280
      -0.258
      -0.230
      -0.208
      -0.193
      -0.165
      -0.116
      -0.073
      -0.061
      -0.069
      -0.075
      -0.073
      -0.064
      -0.032
       0.028
       0.087
       0.115
       0.122
       0.127
       0.133
       0.136
       0.144
       0.154
       0.141
       0.104
       0.080
       0.099
       0.142
       0.177
       0.204
       0.232
       0.252
       0.258
       0.265
       0.280
       0.279
       0.248
       0.213
       0.202
       0.212
       0.229
       0.256
       0.286
       0.294
       0.271
       0.247
       0.250
       0.267
       0.268
       0.246
       0.209
       0.159
       0.107
       0.076
       0.069
       0.062
       0.035
       0.000
      -0.027
      -0.050
      -0.081
      -0.114
      -0.149
      -0.198
      -0.264
      -0.323
      -0.356
      -0.371
      -0.380
      -0.384
      -0.388
      -0.405
      -0.427
      -0.424
      -0.391
      -0.359
      -0.356
      -0.373
      -0.388
      -0.389
      -0.367
      -0.314
      -0.248
      -0.200
      -0.172
      -0.136
      -0.078
      -0.022
       0.013
       0.033
       0.044
       0.043
       0.036
       0.046
       0.078
       0.106
       0.113
       0.109
       0.113
       0.122
       0.135
       0.156
       0.171
       0.157
       0.122
       0.103
       0.118
       0.143
       0.152
       0.150
       0.150
       0.150
       0.150
       0.157
       0.164
       0.148
       0.108
       0.069
       0.048
       0.037
       0.038
       0.061
       0.094
       0.107
       0.089
       0.066
       0.059
       0.061
       0.058
       0.049
       0.028
      -0.008
      -0.042
      -0.050
      -0.036
      -0.028
      -0.037
      -0.042
      -0.034
      -0.023
      -0.012
       0.004
       0.019
       0.016
       0.002
       0.005
       0.032
       0.066
       0.103
       0.148
       0.187
       0.202
       0.203
       0.220
       0.253
       0.271
       0.260
       0.239
       0.225
       0.220
       0.229
       0.260
       0.301
       0.330
       0.347
       0.373
       0.405
       0.419
       0.406
       0.384
       0.359
       0.322
       0.280
       0.260
       0.263
       0.267
       0.255
       0.229
       0.189
       0.131
       0.069
       0.023
      -0.014
      -0.071
      -0.147
      -0.210
      -0.246
      -0.265
      -0.276
      -0.273
      -0.263
      -0.261
      -0.265
      -0.262
      -0.255
      -0.261
      -0.278
      -0.292
      -0.300
      -0.308
      -0.306
      -0.277
      -0.234
      -0.207
      -0.200
      -0.194
      -0.181
      -0.169
      -0.162
      -0.160
      -0.178
      -0.223
      -0.268
      -0.284
      -0.279
      -0.284
      -0.301
      -0.310
      -0.306
      -0.301
      -0.293
      -0.273
      -0.256
      -0.259
      -0.271
      -0.267
      -0.248
      -0.228
      -0.198
      -0.153
      -0.112
      -0.099
      -0.096
      -0.068
      -0.017
       0.025
       0.045
       0.047
       0.032
       0.005
      -0.013
      -0.009
      -0.002
      -0.018
      -0.046
      -0.059
      -0.059
      -0.068
      -0.086
      -0.100
      -0.118
      -0.151
      -0.184
      -0.189
      -0.166
      -0.135
      -0.106
      -0.076
      -0.053
      -0.039
      -0.018
       0.023
       0.060
       0.061
       0.034
       0.013
       0.014
       0.032
       0.059
       0.091
       0.114
       0.125
       0.141
       0.175
       0.213
       0.229
       0.225
       0.213
       0.194
       0.162
       0.136
       0.131
       0.140
       0.139
       0.124
       0.103
       0.082
       0.064
       0.065
       0.084
       0.096
       0.083
       0.063
       0.063
       0.082
       0.097
       0.107
       0.117
       0.118
       0.109
       0.104
       0.114
       0.118
       0.097
       0.064
       0.039
       0.022
       0.013
       0.023
       0.054
       0.078
       0.073
       0.061
       0.072
       0.106
       0.139
       0.155
       0.147
       0.112
       0.067
       0.049
       0.071
       0.103
       0.116
       0.119
       0.129
       0.145
       0.155
       0.163
       0.169
       0.154
       0.114
       0.074
       0.055
       0.052
       0.054
       0.067
       0.091
       0.105
       0.104
       0.114
       0.150
       0.188
       0.195
       0.169
       0.130
       0.092
       0.067
       0.068
       0.088
       0.099
       0.087
       0.073
       0.073
       0.070
       0.045
       0.003
      -0.050
      -0.119
      -0.198
      -0.259
      -0.288
      -0.300
      -0.311
      -0.314
      -0.305
      -0.288
      -0.263
      -0.215
      -0.155
      -0.122
      -0.128
      -0.138
      -0.115
      -0.066
      -0.012
       0.045
       0.104
       0.153
       0.195
       0.245
       0.302
       0.337
       0.333
       0.309
       0.286
       0.264
       0.239
       0.228
       0.233
       0.230
       0.204
       0.171
       0.147
       0.128
       0.106
       0.082
       0.050
      -0.009
      -0.089
      -0.152
      -0.178
      -0.189
      -0.204
      -0.219
      -0.226
      -0.233
      -0.242
      -0.245
      -0.243
      -0.258
      -0.295
      -0.328
      -0.341
      -0.342
      -0.335
      -0.313
      -0.284
      -0.273
      -0.284
      -0.292
      -0.283
      -0.275
      -0.284
      -0.304
      -0.329
      -0.359
      -0.384
      -0.387
      -0.376
      -0.374
      -0.381
      -0.376
      -0.355
      -0.339
      -0.337
      -0.335
      -0.327
      -0.322
      -0.316
      -0.290
      -0.240
      -0.186
      -0.136
      -0.085
      -0.040
      -0.014
       0.003
       0.040
       0.093
       0.128
       0.128
       0.115
       0.113
       0.126
       0.153
       0.197
       0.244
       0.276
       0.296
       0.328
       0.376
       0.421
       0.450
       0.470
       0.485
       0.491
       0.497
       0.526
       0.572
       0.610
       0.623
       0.620
       0.609
       0.592
       0.583
       0.588
       0.584
       0.543
       0.476
       0.425
       0.409
       0.407
       0.405
       0.407
       0.410
       0.401
       0.385
       0.373
       0.353
       0.303
       0.229
       0.161
       0.107
       0.058
       0.020
       0.010
       0.018
       0.009
      -0.021
      -0.048
      -0.057
      -0.059
      -0.062
      -0.071
      -0.102
      -0.161
      -0.215
      -0.226
      -0.204
      -0.191
      -0.198
      -0.210
      -0.217
      -0.232
      -0.255
      -0.281
      -0.320
      -0.383
      -0.455
      -0.509
      -0.541
      -0.564
      -0.573
      -0.558
      -0.535
      -0.532
      -0.539
      -0.523
      -0.479
      -0.432
      -0.396
      -0.367
      -0.340
      -0.314
      -0.272
      -0.206
      -0.135
      -0.084
      -0.050
      -0.010
       0.033
       0.059
       0.070
       0.079
       0.084
       0.076
       0.065
       0.073
       0.096
       0.115
       0.121
       0.117
       0.099
       0.064
       0.034
       0.025
       0.016
      -0.025
      -0.097
      -0.167
      -0.214
      -0.240
      -0.251
      -0.250
      -0.255
      -0.273
      -0.288
      -0.281
      -0.267
      -0.271
      -0.291
      -0.307
      -0.314
      -0.314
      -0.295
      -0.248
      -0.187
      -0.141
      -0.116
      -0.097
      -0.080
      -0.068
      -0.049
      -0.026
      -0.020
      -0.045
      -0.073
      -0.071
      -0.043
      -0.015
       0.005
       0.024
       0.042
       0.054
       0.072
       0.104
       0.126
       0.124
       0.115
       0.126
       0.154
       0.187
       0.234
       0.302
       0.371
       0.420
       0.460
       0.509
       0.559
       0.592
       0.610
       0.617
       0.611
       0.596
       0.595
       0.617
       0.634
       0.625
       0.607
       0.600
       0.596
       0.575
       0.540
       0.496
       0.435
       0.357
       0.286
       0.245
       0.223
       0.205
       0.192
       0.185
       0.168
       0.139
       0.122
       0.132
       0.148
       0.138
       0.106
       0.071
       0.039
       0.013
       0.003
       0.006
       0.002
      -0.024
      -0.051
      -0.061
      -0.065
      -0.081
      -0.103
      -0.122
      -0.143
      -0.166
      -0.168
      -0.135
      -0.087
      -0.051
      -0.031
      -0.019
      -0.013
      -0.003
       0.026
       0.067
       0.085
       0.062
       0.026
       0.014
       0.024
       0.034
       0.041
       0.045
       0.039
       0.025
       0.019
       0.024
       0.023
       0.004
      -0.017
      -0.028
      -0.037
      -0.048
      -0.040
      -0.011
       0.011
       0.003
      -0.022
      -0.044
      -0.060
      -0.071
      -0.078
      -0.095
      -0.145
      -0.219
      -0.277
      -0.296
      -0.300
      -0.308
      -0.312
      -0.303
      -0.295
      -0.295
      -0.290
      -0.280
      -0.284
      -0.308
      -0.325
      -0.320
      -0.304
      -0.281
      -0.242
      -0.193
      -0.159
      -0.142
      -0.110
      -0.049
       0.014
       0.050
       0.062
       0.061
       0.053
       0.053
       0.081
       0.131
       0.172
       0.195
       0.221
       0.261
       0.296
       0.311
       0.314
       0.306
       0.274
       0.226
       0.191
       0.182
       0.179
       0.167
       0.151
       0.131
       0.097
       0.061
       0.045
       0.048
       0.032
      -0.019
      -0.082
      -0.132
      -0.169
      -0.193
      -0.202
      -0.204
      -0.215
      -0.231
      -0.227
      -0.204
      -0.190
      -0.200
      -0.220
      -0.236
      -0.254
      -0.265
      -0.247
      -0.200
      -0.156
      -0.144
      -0.155
      -0.171
      -0.185
      -0.195
      -0.198
      -0.211
      -0.253
      -0.313
      -0.352
      -0.350
      -0.327
      -0.305
      -0.286
      -0.264
      -0.244
      -0.227
      -0.210
      -0.200
      -0.210
      -0.233
      -0.244
      -0.231
      -0.201
      -0.156
      -0.096
      -0.031
       0.019
       0.054
       0.093
       0.142
       0.188
       0.225
       0.252
       0.259
       0.249
       0.245
       0.271
       0.311
       0.335
       0.344
       0.357
       0.376
       0.383
       0.377
       0.369
       0.349
       0.306
       0.259
       0.241
       0.254
       0.273
       0.293
       0.316
       0.332
       0.326
       0.317
       0.326
       0.341
       0.323
       0.268
       0.203
       0.144
       0.090
       0.047
       0.024
       0.004
      -0.034
      -0.077
      -0.100
      -0.107
      -0.127
      -0.159
      -0.185
      -0.205
      -0.228
      -0.239
      -0.213
      -0.155
      -0.099
      -0.055
      -0.013
       0.028
       0.060
       0.098
       0.151
       0.198
       0.208
       0.191
       0.189
       0.218
       0.254
       0.284
       0.308
       0.321
       0.314
       0.295
       0.283
       0.267
       0.225
       0.158
       0.092
       0.036
      -0.011
      -0.039
      -0.039
      -0.029
      -0.043
      -0.080
      -0.113
      -0.128
      -0.136
      -0.148
      -0.174
      -0.224
      -0.293
      -0.353
      -0.375
      -0.372
      -0.370
      -0.369
      -0.353
      -0.322
      -0.293
      -0.267
      -0.242
      -0.225
      -0.227
      -0.238
      -0.239
      -0.233
      -0.227
      -0.212
      -0.183
      -0.160
      -0.161
      -0.175
      -0.178
      -0.171
      -0.175
      -0.199
      -0.241
      -0.296
      -0.350
      -0.380
      -0.380
      -0.373
      -0.376
      -0.373
      -0.344
      -0.298
      -0.254
      -0.212
      -0.170
      -0.143
      -0.131
      -0.106
      -0.046
       0.035
       0.111
       0.181
       0.244
       0.287
       0.307
       0.332
       0.371
       0.397
       0.380
       0.340
       0.316
       0.316
       0.330
       0.354
       0.386
       0.408
       0.410
       0.411
       0.427
       0.435
       0.411
       0.363
       0.316
       0.272
       0.227
       0.194
       0.184
       0.177
       0.148
       0.100
       0.050
       0.002
      -0.047
      -0.088
      -0.122
      -0.169
      -0.239
      -0.305
      -0.337
      -0.342
      -0.343
      -0.345
      -0.339
      -0.329
      -0.320
      -0.304
      -0.280
      -0.267
      -0.279
      -0.297
      -0.296
      -0.273
      -0.231
      -0.169
      -0.095
      -0.035
       0.002
       0.039
       0.099
       0.174
       0.245
       0.301
       0.337
       0.349
       0.354
       0.380
       0.428
       0.466
       0.479
       0.485
       0.499
       0.508
       0.504
       0.493
       0.479
       0.446
       0.395
       0.354
       0.337
       0.329
       0.316
       0.303
       0.287
       0.250
       0.199
       0.171
       0.175
       0.179
       0.148
       0.090
       0.027
      -0.032
      -0.077
      -0.097
      -0.102
      -0.119
      -0.158
      -0.192
      -0.204
      -0.210
      -0.225
      -0.240
      -0.251
      -0.273
      -0.301
      -0.307
      -0.282
      -0.250
      -0.232
      -0.223
      -0.216
      -0.217
      -0.223
      -0.218
      -0.207
      -0.223
      -0.267
      -0.304
      -0.303
      -0.280
      -0.253
      -0.223
      -0.184
      -0.150
      -0.124
      -0.094
      -0.064
      -0.053
      -0.068
      -0.086
      -0.094
      -0.107
      -0.125
      -0.126
      -0.108
      -0.093
