Origin Time       25/02/2009 04:04:21 UTC
Lat.              30.6 N 
Long.             79.3 E 
Depth (Km)         10.0
Magnitude         3.7
 Region           Uttarakhand                                                      
 Above details taken from IMD 
    
Station Code      CHA
Station Lat.       30.412  N
Station Long.      79.320  E
Station Height(m) 1578.0
Site Class        A   Vs30 between 700 m/sec to 1400 m/sec * 
Record Time       25.02.2009 04:04:12.284 UTC
Sampling Rate     200. Hz
 Record Duration   69.040 Sec.
 Direction         N-S (N positive)
Max. Acceleration     -2.116 cm/sec**2
     
  * For reference see Site Classification link of website 
     
 Base Line Corrected and Low Pass Filtered (Cut Off at 35 Hz) Time History
 Acceleration data in cm/sec**2
    
[...]
       0.008
       0.014
       0.016
       0.016
       0.012
       0.005
      -0.003
      -0.009
      -0.012
      -0.010
       0.000
       0.014
       0.024
       0.027
       0.024
       0.019
       0.014
       0.009
       0.008
       0.016
       0.030
       0.042
       0.046
       0.039
       0.026
       0.014
       0.010
       0.014
       0.015
       0.004
      -0.018
      -0.046
      -0.069
      -0.083
      -0.089
      -0.093
      -0.100
      -0.109
      -0.109
      -0.092
      -0.065
      -0.043
      -0.032
      -0.030
      -0.029
      -0.036
      -0.066
      -0.137
      -0.238
      -0.324
      -0.333
      -0.223
      -0.015
       0.209
       0.364
       0.413
       0.389
       0.368
       0.408
       0.509
       0.619
       0.677
       0.656
       0.573
       0.465
       0.361
       0.265
       0.161
       0.030
      -0.132
      -0.308
      -0.456
      -0.519
      -0.453
      -0.257
       0.005
       0.218
       0.282
       0.161
      -0.102
      -0.414
      -0.686
      -0.856
      -0.902
      -0.836
      -0.697
      -0.525
      -0.354
      -0.207
      -0.105
      -0.059
      -0.061
      -0.091
      -0.121
      -0.125
      -0.078
       0.036
       0.216
       0.430
       0.637
       0.817
       0.984
       1.162
       1.340
       1.442
       1.378
       1.116
       0.721
       0.314
      -0.017
      -0.266
      -0.485
      -0.716
      -0.945
      -1.113
      -1.170
      -1.116
      -0.994
      -0.849
      -0.695
      -0.532
      -0.380
      -0.282
      -0.267
      -0.314
      -0.351
      -0.303
      -0.154
       0.044
       0.204
       0.268
       0.244
       0.197
       0.193
       0.256
       0.368
       0.496
       0.619
       0.729
       0.818
       0.862
       0.831
       0.710
       0.500
       0.212
      -0.141
      -0.530
      -0.894
      -1.149
      -1.228
      -1.124
      -0.887
      -0.587
      -0.277
       0.022
       0.295
       0.522
       0.665
       0.703
       0.648
       0.549
       0.456
       0.378
       0.289
       0.153
      -0.036
      -0.248
      -0.433
      -0.557
      -0.606
      -0.584
      -0.491
      -0.335
      -0.144
       0.019
       0.084
       0.020
      -0.138
      -0.308
      -0.408
      -0.403
      -0.315
      -0.187
      -0.044
       0.123
       0.332
       0.577
       0.825
       1.030
       1.168
       1.235
       1.241
       1.194
       1.097
       0.960
       0.799
       0.631
       0.464
       0.290
       0.106
      -0.073
      -0.208
      -0.267
      -0.251
      -0.199
      -0.167
      -0.197
      -0.291
      -0.420
      -0.538
      -0.618
      -0.657
      -0.664
      -0.643
      -0.594
      -0.528
      -0.473
      -0.459
      -0.491
      -0.526
      -0.502
      -0.382
      -0.189
       0.007
       0.151
       0.240
       0.301
       0.349
       0.363
       0.299
       0.137
      -0.095
      -0.325
      -0.474
      -0.495
      -0.391
      -0.199
       0.035
       0.270
       0.477
       0.629
       0.708
       0.707
       0.642
       0.546
       0.459
       0.400
       0.363
       0.334
       0.310
       0.287
       0.251
       0.167
       0.001
      -0.249
      -0.547
      -0.835
      -1.061
      -1.201
      -1.269
      -1.295
      -1.305
      -1.311
      -1.307
      -1.273
      -1.193
      -1.069
      -0.928
      -0.801
      -0.693
      -0.573
      -0.397
      -0.140
       0.173
       0.473
       0.684
       0.768
       0.749
       0.698
       0.679
       0.716
       0.786
       0.847
       0.875
       0.883
       0.904
       0.962
       1.042
       1.105
       1.114
       1.066
       0.989
       0.919
       0.871
       0.828
       0.753
       0.619
       0.421
       0.187
      -0.041
      -0.227
      -0.350
      -0.407
      -0.415
      -0.396
      -0.367
      -0.337
      -0.312
      -0.305
      -0.331
      -0.401
      -0.512
      -0.645
      -0.768
      -0.843
      -0.846
      -0.784
      -0.687
      -0.593
      -0.518
      -0.452
      -0.373
      -0.268
      -0.156
      -0.069
      -0.025
      -0.002
       0.055
       0.196
       0.432
       0.720
       0.985
       1.157
       1.210
       1.172
       1.099
       1.038
       0.999
       0.959
       0.879
       0.735
       0.536
       0.322
       0.143
       0.026
      -0.045
      -0.113
      -0.212
      -0.342
      -0.462
      -0.524
      -0.509
      -0.457
      -0.428
      -0.462
      -0.541
      -0.611
      -0.628
      -0.592
      -0.548
      -0.546
      -0.606
      -0.699
      -0.773
      -0.793
      -0.749
      -0.653
      -0.515
      -0.348
      -0.175
      -0.027
       0.074
       0.128
       0.154
       0.169
       0.173
       0.147
       0.082
       0.001
      -0.053
      -0.049
       0.003
       0.068
       0.110
       0.116
       0.091
       0.042
      -0.029
      -0.127
      -0.252
      -0.390
      -0.517
      -0.610
      -0.656
      -0.657
      -0.613
      -0.524
      -0.399
      -0.253
      -0.099
       0.056
       0.209
       0.344
       0.436
       0.454
       0.394
       0.293
       0.219
       0.226
       0.318
       0.442
       0.532
       0.550
       0.503
       0.431
       0.363
       0.306
       0.250
       0.192
       0.148
       0.137
       0.162
       0.205
       0.244
       0.275
       0.313
       0.375
       0.459
       0.536
       0.572
       0.547
       0.471
       0.368
       0.258
       0.150
       0.050
      -0.033
      -0.086
      -0.109
      -0.110
      -0.098
      -0.078
      -0.050
      -0.018
      -0.002
      -0.028
      -0.115
      -0.253
      -0.394
      -0.478
      -0.466
      -0.354
      -0.176
       0.012
       0.158
       0.229
       0.223
       0.164
       0.086
       0.021
      -0.022
      -0.053
      -0.095
      -0.157
      -0.222
      -0.256
      -0.239
      -0.185
      -0.130
      -0.113
      -0.136
      -0.167
      -0.160
      -0.098
      -0.003
       0.088
       0.169
       0.261
       0.381
       0.510
       0.596
       0.585
       0.460
       0.253
       0.028
      -0.154
      -0.260
      -0.287
      -0.257
      -0.211
      -0.189
      -0.215
      -0.277
      -0.335
      -0.346
      -0.301
      -0.227
      -0.170
      -0.163
      -0.205
      -0.264
      -0.301
      -0.300
      -0.269
      -0.225
      -0.182
      -0.158
      -0.169
      -0.225
      -0.307
      -0.375
      -0.382
      -0.317
      -0.211
      -0.117
      -0.068
      -0.048
      -0.008
       0.088
       0.231
       0.367
       0.441
       0.432
       0.365
       0.293
       0.253
       0.239
       0.210
       0.124
      -0.026
      -0.205
      -0.356
      -0.428
      -0.406
      -0.311
      -0.185
      -0.066
       0.022
       0.071
       0.081
       0.064
       0.034
       0.003
      -0.023
      -0.041
      -0.046
      -0.023
       0.038
       0.132
       0.242
       0.332
       0.370
       0.341
       0.256
       0.153
       0.072
       0.035
       0.036
       0.050
       0.063
       0.095
       0.189
       0.368
       0.597
       0.783
       0.834
       0.723
       0.508
       0.297
       0.174
       0.146
       0.142
       0.076
      -0.084
      -0.299
      -0.485
      -0.572
      -0.547
      -0.458
      -0.374
      -0.331
      -0.317
      -0.287
      -0.221
      -0.141
      -0.104
      -0.158
      -0.303
      -0.484
      -0.618
      -0.638
      -0.524
      -0.307
      -0.048
       0.193
       0.369
       0.456
       0.454
       0.391
       0.312
       0.263
       0.270
       0.337
       0.445
       0.569
       0.685
       0.779
       0.831
       0.821
       0.732
       0.557
       0.312
       0.039
      -0.203
      -0.357
      -0.400
      -0.353
      -0.270
      -0.206
      -0.195
      -0.240
      -0.329
      -0.455
      -0.626
      -0.846
      -1.087
      -1.277
      -1.332
      -1.213
      -0.956
      -0.653
      -0.404
      -0.263
      -0.223
      -0.234
      -0.242
      -0.217
      -0.151
      -0.043
       0.103
       0.271
       0.423
       0.510
       0.499
       0.406
       0.296
       0.256
       0.334
       0.503
       0.682
       0.796
       0.827
       0.808
       0.783
       0.758
       0.694
       0.543
       0.291
      -0.022
      -0.323
      -0.551
      -0.671
      -0.677
      -0.580
      -0.412
      -0.227
      -0.093
      -0.059
      -0.132
      -0.264
      -0.384
      -0.438
      -0.415
      -0.348
      -0.279
      -0.226
      -0.188
      -0.155
      -0.123
      -0.095
      -0.076
      -0.068
      -0.068
      -0.072
      -0.070
      -0.041
       0.053
       0.242
       0.517
       0.812
       1.035
       1.122
       1.087
       1.017
       1.012
       1.107
       1.244
       1.304
       1.194
       0.919
       0.578
       0.299
       0.157
       0.132
       0.128
       0.038
      -0.187
      -0.508
      -0.828
      -1.047
      -1.109
      -1.021
      -0.837
      -0.627
      -0.454
      -0.346
      -0.297
      -0.282
      -0.271
      -0.253
      -0.231
      -0.225
      -0.253
      -0.323
      -0.412
      -0.469
      -0.427
      -0.236
       0.095
       0.488
       0.825
       1.010
       1.003
       0.829
       0.547
       0.211
      -0.142
      -0.492
      -0.811
      -1.049
      -1.150
      -1.082
      -0.868
      -0.588
      -0.347
      -0.220
      -0.215
      -0.251
      -0.212
      -0.029
       0.268
       0.559
       0.722
       0.717
       0.603
       0.492
       0.465
       0.527
       0.623
       0.686
       0.684
       0.634
       0.573
       0.529
       0.499
       0.445
       0.319
       0.109
      -0.141
      -0.357
      -0.479
      -0.497
      -0.459
      -0.437
      -0.490
      -0.635
      -0.838
      -1.034
      -1.156
      -1.165
      -1.070
      -0.927
      -0.804
      -0.738
      -0.709
      -0.658
      -0.544
      -0.378
      -0.223
      -0.143
      -0.166
      -0.257
      -0.345
      -0.368
      -0.313
      -0.214
      -0.126
      -0.085
      -0.090
      -0.118
      -0.144
      -0.154
      -0.141
      -0.095
       0.003
       0.164
       0.371
       0.588
       0.785
       0.951
       1.095
       1.231
       1.365
       1.493
       1.594
       1.634
       1.579
       1.411
       1.148
       0.856
       0.621
       0.506
       0.500
       0.528
       0.501
       0.383
       0.213
       0.064
      -0.006
       0.000
       0.028
       0.015
      -0.072
      -0.218
      -0.379
      -0.512
      -0.582
      -0.572
      -0.483
      -0.351
      -0.231
      -0.179
      -0.213
      -0.303
      -0.389
      -0.417
      -0.384
      -0.333
      -0.315
      -0.350
      -0.414
      -0.475
      -0.517
      -0.563
      -0.647
      -0.790
      -0.973
      -1.145
      -1.253
      -1.271
      -1.205
      -1.087
      -0.960
      -0.861
      -0.806
      -0.764
      -0.671
      -0.464
      -0.122
       0.313
       0.754
       1.113
       1.355
       1.512
       1.649
       1.802
       1.948
       2.019
       1.953
       1.723
       1.360
       0.929
       0.502
       0.125
      -0.185
      -0.424
      -0.591
      -0.687
      -0.712
      -0.673
      -0.578
      -0.447
      -0.316
      -0.233
      -0.237
      -0.340
      -0.506
      -0.671
      -0.776
      -0.802
      -0.771
      -0.705
      -0.599
      -0.419
      -0.144
       0.217
       0.619
       1.002
       1.313
       1.513
       1.584
       1.519
       1.320
       0.998
       0.578
       0.111
      -0.339
      -0.715
      -0.984
      -1.149
      -1.223
      -1.216
      -1.127
      -0.957
      -0.727
      -0.467
      -0.208
       0.028
       0.223
       0.356
       0.409
       0.378
       0.281
       0.168
       0.094
       0.092
       0.141
       0.179
       0.134
      -0.033
      -0.314
      -0.661
      -1.006
      -1.292
      -1.478
      -1.541
      -1.468
      -1.263
      -0.944
      -0.545
      -0.101
       0.357
       0.793
       1.161
       1.410
       1.508
       1.458
       1.294
       1.065
       0.810
       0.542
       0.261
      -0.034
      -0.331
      -0.606
      -0.817
      -0.908
      -0.832
      -0.571
      -0.157
       0.335
       0.811
       1.194
       1.441
       1.550
       1.542
       1.438
       1.254
       1.001
       0.708
       0.414
       0.156
      -0.047
      -0.210
      -0.368
      -0.548
      -0.742
      -0.909
      -0.999
      -0.985
      -0.873
      -0.696
      -0.497
      -0.318
      -0.191
      -0.123
      -0.104
      -0.103
      -0.084
      -0.021
       0.084
       0.195
       0.262
       0.248
       0.150
       0.010
      -0.106
      -0.134
      -0.045
       0.146
       0.397
       0.664
       0.914
       1.114
       1.236
       1.261
       1.185
       1.025
       0.812
       0.575
       0.327
       0.061
      -0.238
      -0.574
      -0.923
      -1.240
      -1.481
      -1.623
      -1.686
      -1.726
      -1.800
      -1.920
      -2.049
      -2.116
      -2.072
      -1.909
      -1.666
      -1.404
      -1.167
      -0.973
      -0.804
      -0.632
      -0.430
      -0.188
       0.086
       0.371
       0.646
       0.896
       1.118
       1.316
       1.498
       1.660
       1.792
       1.869
       1.874
       1.810
       1.705
       1.595
       1.497
       1.407
       1.302
       1.168
       1.007
       0.843
       0.706
       0.612
       0.564
       0.554
       0.575
       0.620
       0.673
       0.700
       0.667
       0.555
       0.368
       0.135
      -0.114
      -0.362
      -0.613
      -0.872
      -1.135
      -1.377
      -1.557
      -1.635
      -1.585
      -1.415
      -1.169
      -0.911
      -0.692
      -0.533
      -0.424
      -0.338
      -0.255
      -0.170
      -0.096
      -0.049
      -0.032
      -0.042
      -0.073
      -0.123
      -0.185
      -0.244
      -0.284
      -0.295
      -0.277
      -0.231
      -0.164
      -0.086
      -0.013
       0.046
       0.087
       0.114
       0.130
       0.126
       0.080
      -0.037
      -0.233
      -0.481
      -0.729
      -0.914
      -0.983
      -0.915
      -0.725
      -0.458
      -0.166
       0.110
       0.355
       0.567
       0.744
       0.873
       0.933
       0.904
       0.787
       0.605
       0.396
       0.197
       0.034
      -0.081
      -0.153
      -0.195
      -0.210
      -0.189
      -0.117
       0.004
       0.152
       0.294
       0.406
       0.486
       0.553
       0.626
       0.705
       0.769
       0.790
       0.756
       0.674
       0.565
       0.443
       0.320
       0.200
       0.082
      -0.036
      -0.157
      -0.273
      -0.369
      -0.418
      -0.392
      -0.285
      -0.119
       0.062
       0.214
       0.314
       0.356
       0.346
       0.293
       0.208
       0.093
      -0.056
      -0.241
      -0.445
      -0.640
      -0.788
      -0.865
      -0.865
      -0.800
      -0.696
      -0.573
      -0.447
      -0.327
      -0.224
      -0.148
      -0.111
      -0.122
      -0.182
      -0.278
      -0.388
      -0.490
      -0.564
      -0.601
      -0.593
      -0.543
      -0.469
      -0.389
      -0.319
      -0.252
      -0.172
      -0.060
       0.083
       0.233
       0.353
       0.420
       0.442
       0.443
       0.438
       0.431
       0.423
       0.424
       0.449
       0.510
       0.595
       0.678
       0.732
       0.749
       0.747
       0.746
       0.746
       0.722
       0.646
       0.509
       0.330
       0.155
       0.031
      -0.007
       0.047
       0.172
       0.327
       0.461
       0.526
       0.508
       0.423
       0.309
       0.200
       0.105
       0.014
      -0.090
      -0.218
      -0.360
      -0.491
      -0.585
      -0.631
      -0.640
      -0.630
      -0.614
      -0.599
      -0.591
      -0.599
      -0.630
      -0.693
      -0.787
      -0.903
      -1.020
      -1.110
      -1.146
      -1.101
      -0.969
      -0.769
      -0.535
      -0.301
      -0.082
       0.119
       0.300
       0.450
       0.551
       0.592
       0.574
       0.520
       0.459
       0.411
       0.383
       0.376
       0.388
       0.421
       0.472
       0.538
       0.607
       0.661
       0.675
       0.630
       0.527
       0.386
       0.245
       0.141
       0.097
       0.105
       0.131
       0.131
       0.081
      -0.016
      -0.128
      -0.220
      -0.264
      -0.257
      -0.221
      -0.187
      -0.180
      -0.208
      -0.264
      -0.329
      -0.387
      -0.436
      -0.486
      -0.553
      -0.649
      -0.767
      -0.881
      -0.954
      -0.955
      -0.876
      -0.735
      -0.561
      -0.373
      -0.173
       0.049
       0.290
       0.532
       0.742
       0.890
       0.962
       0.969
       0.933
       0.872
       0.791
       0.685
       0.555
       0.406
       0.251
       0.110
       0.000
      -0.068
      -0.096
      -0.093
      -0.069
      -0.033
       0.010
       0.057
       0.104
       0.146
       0.169
       0.161
       0.116
       0.040
      -0.047
      -0.116
      -0.144
      -0.125
      -0.074
      -0.011
       0.052
       0.108
       0.157
       0.199
       0.235
       0.267
       0.290
       0.301
       0.305
       0.305
       0.304
       0.296
       0.271
       0.217
       0.129
       0.009
      -0.129
      -0.272
      -0.410
      -0.537
      -0.640
      -0.706
      -0.723
      -0.691
      -0.612
      -0.498
      -0.366
      -0.232
      -0.110
      -0.005
       0.077
       0.127
       0.135
       0.095
       0.012
      -0.099
      -0.215
      -0.311
      -0.371
      -0.386
      -0.349
      -0.268
      -0.166
      -0.072
      -0.011
       0.011
       0.005
      -0.009
      -0.015
      -0.003
       0.019
       0.035
       0.032
       0.009
      -0.022
      -0.048
      -0.060
      -0.061
      -0.062
      -0.070
      -0.083
      -0.090
      -0.079
      -0.044
       0.019
       0.110
       0.225
       0.344
       0.442
       0.497
       0.495
       0.439
       0.352
       0.269
       0.214
       0.194
       0.195
       0.204
       0.217
       0.244
       0.297
       0.374
       0.451
       0.495
       0.484
       0.424
       0.342
       0.267
       0.210
       0.163
       0.109
       0.036
      -0.058
      -0.160
      -0.258
      -0.349
      -0.431
      -0.503
      -0.554
      -0.578
      -0.579
      -0.569
      -0.564
      -0.568
      -0.568
      -0.539
      -0.467
      -0.359
      -0.242
      -0.145
      -0.078
      -0.037
      -0.005
       0.035
       0.092
       0.159
       0.217
       0.252
       0.258
       0.243
       0.221
