Origin Time       31/1/2009 03:07:15 
Lat.              32.5 N 
Long.             75.9 E 
Depth (Km)         10.0
Magnitude         3.7
 Region           HIMACHAL-PRADESH                                                 
 Above details taken from IMD 
     
Station Code      CHA
Station Lat.       32.555  N
Station Long.      76.126  E
Station Height(m)  943.0
Site Class        A   Vs30 between 700 m/sec to 1400 m/sec * 
Record Time       31.01.2009 03:07:11.784
Sampling Rate     200. Hz
 Record Duration   65.130 Sec.
 Direction         E-W (E positive)
Max. Acceleration     -3.461 cm/sec**2
     
  * For reference see Site Classification link of website 
     
 Base Line Corrected and Low Pass Filtered (Cut Off at 35 Hz) Time History
 Acceleration data in cm/sec**2
    
[...]
       0.026
       0.217
       0.325
       0.177
      -0.182
      -0.491
      -0.496
      -0.178
       0.234
       0.471
       0.423
       0.183
      -0.080
      -0.249
      -0.286
      -0.201
      -0.036
       0.128
       0.188
       0.096
      -0.082
      -0.204
      -0.180
      -0.044
       0.079
       0.106
       0.063
       0.037
       0.058
       0.051
      -0.069
      -0.273
      -0.400
      -0.302
       0.003
       0.328
       0.460
       0.334
       0.058
      -0.186
      -0.281
      -0.225
      -0.098
       0.025
       0.107
       0.143
       0.135
       0.083
       0.004
      -0.057
      -0.060
      -0.009
       0.040
       0.029
      -0.039
      -0.092
      -0.050
       0.086
       0.204
       0.172
      -0.012
      -0.174
      -0.102
       0.226
       0.563
       0.587
       0.217
      -0.273
      -0.488
      -0.294
       0.051
       0.156
      -0.103
      -0.470
      -0.569
      -0.269
       0.218
       0.554
       0.546
       0.242
      -0.155
      -0.423
      -0.439
      -0.235
       0.025
       0.170
       0.166
       0.125
       0.185
       0.341
       0.426
       0.259
      -0.165
      -0.620
      -0.798
      -0.544
       0.021
       0.583
       0.839
       0.676
       0.217
      -0.267
      -0.525
      -0.486
      -0.289
      -0.165
      -0.245
      -0.442
      -0.509
      -0.242
       0.303
       0.800
       0.903
       0.538
      -0.026
      -0.408
      -0.421
      -0.192
       0.007
       0.032
      -0.011
       0.086
       0.360
       0.581
       0.449
      -0.079
      -0.679
      -0.906
      -0.586
       0.030
       0.505
       0.601
       0.421
       0.202
       0.049
      -0.102
      -0.320
      -0.553
      -0.677
      -0.595
      -0.270
       0.272
       0.889
       1.277
       1.088
       0.248
      -0.840
      -1.502
      -1.326
      -0.521
       0.271
       0.554
       0.410
       0.344
       0.690
       1.211
       1.310
       0.651
      -0.460
      -1.328
      -1.465
      -0.953
      -0.301
       0.012
      -0.087
      -0.231
       0.044
       0.828
       1.652
       1.805
       0.936
      -0.607
      -1.989
      -2.461
      -1.828
      -0.487
       0.878
       1.676
       1.651
       0.941
      -0.026
      -0.756
      -0.963
      -0.723
      -0.362
      -0.146
      -0.061
       0.106
       0.477
       0.890
       1.037
       0.787
       0.350
       0.073
       0.081
       0.131
      -0.126
      -0.734
      -1.306
      -1.334
      -0.657
       0.353
       1.084
       1.187
       0.790
       0.255
      -0.190
      -0.545
      -0.831
      -0.916
      -0.626
      -0.007
       0.600
       0.794
       0.456
      -0.160
      -0.654
      -0.789
      -0.601
      -0.268
       0.083
       0.425
       0.736
       0.911
       0.817
       0.439
      -0.030
      -0.301
      -0.221
       0.092
       0.354
       0.340
       0.024
      -0.440
      -0.835
      -0.974
      -0.768
      -0.262
       0.360
       0.851
       1.040
       0.899
       0.508
      -0.023
      -0.567
      -0.948
      -0.987
      -0.646
      -0.131
       0.238
       0.304
       0.199
       0.174
       0.334
       0.570
       0.689
       0.592
       0.321
      -0.001
      -0.269
      -0.431
      -0.462
      -0.342
      -0.091
       0.182
       0.287
       0.078
      -0.403
      -0.886
      -1.055
      -0.797
      -0.288
       0.169
       0.372
       0.342
       0.256
       0.308
       0.565
       0.903
       1.030
       0.669
      -0.175
      -1.102
      -1.583
      -1.391
      -0.784
      -0.221
       0.079
       0.275
       0.631
       1.164
       1.574
       1.513
       0.913
       0.053
      -0.672
      -1.053
      -1.137
      -1.056
      -0.844
      -0.448
       0.113
       0.661
       0.932
       0.771
       0.258
      -0.331
      -0.699
      -0.697
      -0.402
      -0.052
       0.117
       0.041
      -0.124
      -0.132
       0.143
       0.589
       0.924
       0.922
       0.586
       0.101
      -0.351
      -0.698
      -0.906
      -0.893
      -0.582
      -0.034
       0.530
       0.890
       0.949
       0.705
       0.193
      -0.471
      -1.021
      -1.138
      -0.675
       0.204
       1.093
       1.544
       1.304
       0.469
      -0.523
      -1.162
      -1.210
      -0.835
      -0.424
      -0.242
      -0.254
      -0.221
       0.037
       0.452
       0.756
       0.721
       0.389
       0.060
       0.011
       0.221
       0.380
       0.210
      -0.249
      -0.659
      -0.691
      -0.307
       0.234
       0.612
       0.653
       0.378
      -0.069
      -0.470
      -0.603
      -0.356
       0.161
       0.639
       0.769
       0.461
      -0.116
      -0.684
      -1.021
      -1.038
      -0.766
      -0.320
       0.143
       0.493
       0.696
       0.807
       0.870
       0.812
       0.469
      -0.205
      -0.977
      -1.431
      -1.282
      -0.620
       0.163
       0.688
       0.848
       0.793
       0.737
       0.772
       0.797
       0.600
       0.060
      -0.670
      -1.209
      -1.239
      -0.783
      -0.192
       0.167
       0.210
       0.133
       0.144
       0.249
       0.275
       0.079
      -0.294
      -0.621
      -0.654
      -0.299
       0.299
       0.826
       0.998
       0.750
       0.270
      -0.153
      -0.333
      -0.303
      -0.249
      -0.322
      -0.495
      -0.589
      -0.440
      -0.065
       0.328
       0.518
       0.456
       0.273
       0.103
      -0.075
      -0.354
      -0.700
      -0.877
      -0.648
      -0.045
       0.599
       0.935
       0.886
       0.646
       0.420
       0.217
      -0.079
      -0.485
      -0.815
      -0.817
      -0.414
       0.189
       0.631
       0.672
       0.365
      -0.012
      -0.201
      -0.151
       0.022
       0.184
       0.278
       0.284
       0.163
      -0.093
      -0.367
      -0.437
      -0.168
       0.299
       0.606
       0.468
      -0.089
      -0.744
      -1.117
      -1.011
      -0.496
       0.175
       0.722
       0.977
       0.923
       0.643
       0.238
      -0.190
      -0.514
      -0.586
      -0.325
       0.166
       0.600
       0.674
       0.298
      -0.289
      -0.671
      -0.585
      -0.154
       0.235
       0.292
       0.058
      -0.199
      -0.264
      -0.135
       0.049
       0.171
       0.230
       0.280
       0.324
       0.275
       0.063
      -0.247
      -0.460
      -0.413
      -0.127
       0.209
       0.397
       0.376
       0.235
       0.105
       0.045
      -0.007
      -0.161
      -0.446
      -0.730
      -0.805
      -0.582
      -0.213
       0.015
      -0.047
      -0.248
      -0.276
       0.017
       0.442
       0.634
       0.388
      -0.147
      -0.558
      -0.475
       0.128
       0.858
       1.149
       0.723
      -0.128
      -0.741
      -0.634
       0.088
       0.864
       1.190
       1.009
       0.636
       0.381
       0.275
       0.144
      -0.123
      -0.433
      -0.603
      -0.565
      -0.436
      -0.405
      -0.552
      -0.775
      -0.850
      -0.607
      -0.075
       0.510
       0.850
       0.777
       0.356
      -0.172
      -0.549
      -0.641
      -0.475
      -0.186
       0.066
       0.164
       0.089
      -0.054
      -0.090
       0.089
       0.418
       0.687
       0.713
       0.484
       0.158
      -0.081
      -0.162
      -0.142
      -0.114
      -0.115
      -0.127
      -0.137
      -0.153
      -0.176
      -0.188
      -0.189
      -0.187
      -0.144
       0.021
       0.332
       0.647
       0.716
       0.365
      -0.339
      -1.082
      -1.470
      -1.264
      -0.535
       0.360
       0.986
       1.099
       0.778
       0.334
       0.062
       0.032
       0.080
      -0.013
      -0.319
      -0.698
      -0.901
      -0.753
      -0.298
       0.214
       0.485
       0.375
       0.004
      -0.331
      -0.364
      -0.044
       0.445
       0.821
       0.893
       0.674
       0.348
       0.143
       0.171
       0.362
       0.524
       0.485
       0.208
      -0.194
      -0.535
      -0.664
      -0.547
      -0.300
      -0.132
      -0.210
      -0.521
      -0.860
      -0.965
      -0.726
      -0.294
       0.030
       0.034
      -0.230
      -0.493
      -0.484
      -0.139
       0.372
       0.794
       0.963
       0.881
       0.668
       0.473
       0.427
       0.601
       0.941
       1.241
       1.232
       0.758
      -0.068
      -0.877
      -1.251
      -0.992
      -0.283
       0.409
       0.638
       0.265
      -0.488
      -1.229
      -1.631
      -1.558
      -1.056
      -0.295
       0.460
       0.906
       0.828
       0.250
      -0.510
      -1.000
      -0.901
      -0.236
       0.633
       1.188
       1.050
       0.235
      -0.781
      -1.301
      -0.876
       0.336
       1.641
       2.279
       1.927
       0.846
      -0.386
      -1.255
      -1.522
      -1.229
      -0.625
      -0.067
       0.120
      -0.177
      -0.766
      -1.255
      -1.309
      -0.873
      -0.180
       0.456
       0.849
       1.003
       1.014
       0.961
       0.851
       0.661
       0.415
       0.225
       0.219
       0.416
       0.694
       0.931
       1.133
       1.385
       1.661
       1.746
       1.405
       0.606
      -0.394
      -1.190
      -1.463
      -1.155
      -0.507
       0.070
       0.219
      -0.153
      -0.847
      -1.515
      -1.868
      -1.796
      -1.409
      -0.962
      -0.720
      -0.768
      -0.932
      -0.872
      -0.326
       0.663
       1.716
       2.326
       2.177
       1.370
       0.368
      -0.297
      -0.372
      -0.054
       0.182
      -0.044
      -0.705
      -1.399
      -1.683
      -1.437
      -0.949
      -0.674
      -0.864
      -1.348
      -1.669
      -1.476
      -0.834
      -0.148
       0.223
       0.277
       0.299
       0.511
       0.848
       1.082
       1.117
       1.092
       1.186
       1.402
       1.583
       1.615
       1.568
       1.619
       1.841
       2.093
       2.095
       1.634
       0.735
      -0.322
      -1.154
      -1.535
      -1.569
      -1.603
      -1.897
      -2.350
      -2.572
      -2.258
      -1.498
      -0.687
      -0.159
       0.061
       0.168
       0.316
       0.489
       0.603
       0.645
       0.677
       0.739
       0.806
       0.834
       0.798
       0.679
       0.462
       0.206
       0.080
       0.241
       0.633
       0.932
       0.789
       0.176
      -0.507
      -0.726
      -0.290
       0.448
       0.875
       0.655
       0.008
      -0.525
      -0.577
      -0.249
       0.031
      -0.107
      -0.713
      -1.517
      -2.120
      -2.218
      -1.744
      -0.887
       0.032
       0.725
       1.056
       1.058
       0.873
       0.685
       0.631
       0.722
       0.821
       0.723
       0.315
      -0.304
      -0.860
      -1.080
      -0.888
      -0.461
      -0.106
      -0.065
      -0.374
      -0.879
      -1.323
      -1.440
      -1.047
      -0.168
       0.891
       1.625
       1.623
       0.863
      -0.211
      -0.976
      -1.086
      -0.718
      -0.364
      -0.354
      -0.565
      -0.587
      -0.165
       0.542
       1.109
       1.254
       1.105
       1.064
       1.407
       1.993
       2.358
       2.100
       1.199
       0.025
      -0.912
      -1.237
      -0.862
      -0.007
       0.855
       1.195
       0.721
      -0.413
      -1.655
      -2.389
      -2.300
      -1.507
      -0.427
       0.487
       0.945
       0.896
       0.519
       0.105
      -0.167
      -0.394
      -0.835
      -1.529
      -2.063
      -1.850
      -0.770
       0.519
       1.030
       0.316
      -1.075
      -2.028
      -1.777
      -0.474
       1.045
       1.988
       2.102
       1.575
       0.638
      -0.591
      -1.899
      -2.799
      -2.743
      -1.589
       0.168
       1.698
       2.398
       2.219
       1.535
       0.780
       0.229
       0.009
       0.179
       0.741
       1.554
       2.300
       2.594
       2.211
       1.268
       0.186
      -0.586
      -0.876
      -0.870
      -0.892
      -1.101
      -1.367
      -1.429
      -1.140
      -0.590
      -0.011
       0.412
       0.683
       0.965
       1.370
       1.765
       1.817
       1.290
       0.319
      -0.639
      -1.177
      -1.260
      -1.178
      -1.176
      -1.196
      -0.996
      -0.511
      -0.044
      -0.035
      -0.657
      -1.638
      -2.440
      -2.605
      -1.977
      -0.738
       0.687
       1.795
       2.201
       1.843
       1.059
       0.424
       0.397
       1.007
       1.825
       2.239
       1.872
       0.836
      -0.328
      -1.018
      -0.973
      -0.441
       0.019
      -0.069
      -0.788
      -1.807
      -2.628
      -2.878
      -2.465
      -1.532
      -0.337
       0.834
       1.701
       2.049
       1.838
       1.282
       0.768
       0.630
       0.931
       1.401
       1.606
       1.268
       0.492
      -0.293
      -0.657
      -0.486
      -0.003
       0.468
       0.715
       0.638
       0.161
      -0.739
      -1.895
      -2.936
      -3.461
      -3.273
      -2.455
      -1.278
      -0.041
       1.020
       1.752
       2.087
       2.055
       1.766
       1.341
       0.856
       0.355
      -0.105
      -0.458
      -0.697
      -0.884
      -1.074
      -1.221
      -1.174
      -0.799
      -0.110
       0.700
       1.359
       1.670
       1.575
       1.118
       0.373
      -0.525
      -1.306
      -1.582
      -1.075
       0.096
       1.358
       2.007
       1.704
       0.739
      -0.182
      -0.481
      -0.135
       0.361
       0.455
       0.011
      -0.600
      -0.839
      -0.457
       0.319
       0.980
       1.109
       0.640
      -0.179
      -0.997
      -1.557
      -1.733
      -1.483
      -0.853
      -0.022
       0.711
       1.057
       0.881
       0.252
      -0.591
      -1.324
      -1.642
      -1.400
      -0.725
       0.027
       0.487
       0.503
       0.201
      -0.147
      -0.303
      -0.152
       0.276
       0.829
       1.276
       1.399
       1.105
       0.475
      -0.265
      -0.846
      -1.049
      -0.812
      -0.284
       0.233
       0.456
       0.296
      -0.108
      -0.523
      -0.780
      -0.810
      -0.597
      -0.163
       0.393
       0.884
       1.118
       0.995
       0.555
      -0.052
      -0.594
      -0.827
      -0.625
      -0.099
       0.426
       0.626
       0.414
      -0.012
      -0.341
      -0.383
      -0.183
       0.047
       0.100
      -0.085
      -0.398
      -0.648
      -0.675
      -0.435
       0.002
       0.488
       0.856
       1.004
       0.964
       0.908
       1.038
       1.399
       1.776
       1.803
       1.243
       0.210
      -0.896
      -1.681
      -1.991
      -1.910
      -1.593
      -1.155
      -0.677
      -0.234
       0.150
       0.514
       0.874
       1.105
       0.991
       0.449
      -0.317
      -0.921
      -1.081
      -0.796
      -0.298
       0.141
       0.350
       0.287
       0.016
      -0.297
      -0.406
      -0.100
       0.613
       1.404
       1.800
       1.546
       0.835
       0.146
      -0.180
      -0.201
      -0.247
      -0.562
      -1.085
      -1.555
      -1.793
      -1.835
      -1.822
      -1.787
      -1.594
      -1.075
      -0.234
       0.694
       1.362
       1.529
       1.198
       0.598
       0.043
      -0.258
      -0.308
      -0.270
      -0.295
      -0.389
      -0.416
      -0.238
       0.147
       0.607
       0.982
       1.189
       1.234
       1.155
       0.985
       0.783
       0.656
       0.701
       0.899
       1.081
       1.029
       0.647
       0.047
      -0.532
      -0.894
      -1.021
      -1.046
      -1.098
      -1.158
      -1.083
      -0.802
      -0.450
      -0.278
      -0.389
      -0.580
      -0.485
       0.086
       0.927
       1.538
       1.496
       0.781
      -0.196
      -0.882
      -0.935
      -0.408
       0.342
       0.902
       1.036
       0.764
       0.289
      -0.165
      -0.487
      -0.688
      -0.793
      -0.736
      -0.399
       0.216
       0.871
       1.204
       1.000
       0.385
      -0.235
      -0.463
      -0.199
       0.279
       0.521
       0.244
      -0.442
      -1.119
      -1.395
      -1.210
      -0.838
      -0.621
      -0.673
      -0.832
      -0.864
      -0.685
      -0.401
      -0.177
      -0.065
       0.034
       0.263
       0.658
       1.078
       1.281
       1.091
       0.527
      -0.179
      -0.701
      -0.792
      -0.421
       0.205
       0.753
       0.950
       0.735
       0.288
      -0.078
      -0.107
       0.240
       0.767
       1.180
       1.289
       1.096
       0.735
       0.339
      -0.031
      -0.366
      -0.650
      -0.852
      -0.964
      -1.029
      -1.097
      -1.148
      -1.091
      -0.859
      -0.498
      -0.159
       0.029
       0.074
       0.100
       0.222
       0.415
       0.532
       0.434
       0.118
      -0.281
      -0.587
      -0.670
      -0.470
      -0.008
       0.568
       0.986
       1.009
       0.638
       0.161
      -0.073
       0.033
       0.240
       0.205
      -0.171
      -0.628
      -0.783
      -0.469
       0.125
       0.649
       0.884
       0.876
       0.819
       0.837
       0.894
       0.856
       0.633
       0.259
      -0.125
      -0.367
      -0.411
      -0.350
      -0.369
      -0.613
      -1.063
      -1.530
      -1.782
      -1.702
      -1.351
      -0.909
      -0.539
      -0.304
      -0.146
       0.067
       0.447
       0.998
       1.565
       1.899
       1.812
       1.316
       0.615
      -0.029
      -0.456
      -0.661
      -0.737
      -0.775
      -0.808
      -0.808
      -0.717
      -0.510
      -0.233
       0.017
       0.168
       0.231
       0.298
       0.446
       0.651
       0.784
       0.711
       0.403
      -0.014
      -0.328
      -0.378
      -0.156
       0.217
       0.594
       0.890
       1.077
       1.113
       0.933
       0.515
      -0.038
      -0.528
      -0.789
      -0.800
      -0.687
      -0.618
      -0.674
      -0.802
      -0.855
      -0.702
      -0.318
       0.164
       0.517
       0.544
       0.232
      -0.216
      -0.494
      -0.397
       0.035
       0.552
       0.875
       0.885
       0.663
       0.371
       0.119
      -0.080
      -0.241
      -0.344
      -0.356
      -0.285
      -0.193
      -0.126
      -0.066
       0.033
       0.165
       0.244
       0.170
      -0.080
      -0.427
      -0.731
      -0.869
      -0.779
      -0.474
      -0.052
       0.344
       0.592
       0.683
       0.721
       0.823
       0.995
       1.104
       0.975
       0.542
      -0.081
      -0.658
      -0.981
      -0.993
      -0.792
      -0.531
