Origin Time       15/05/2009 18:39:22
Lat.              30.5 N 
Long.             79.3 E 
Depth (Km)         15.0
Magnitude         4.1
 Region           Chamoli-Uttarakhand                                              
 Above details taken from IMD 
   
Station Code      CHA
Station Lat.       30.412
Station Long.      79.320
Station Height(m) 1578.0
Site Class        A   Vs30 between 700 m/sec to 1400 m/sec * 
Record Time       15.05.2009 18:42:37.579
Sampling Rate     200. Hz
 Record Duration   65.250 Sec.
 Direction         Vert. (Up positive)
Max. Acceleration      3.012 cm/sec**2
     
  * For reference see Site Classification link of website 
     
 Base Line Corrected and Low Pass Filtered (Cut Off at 35 Hz) Time History
 Acceleration data in cm/sec**2
    
[...]
      -0.003
      -0.001
      -0.001
      -0.004
      -0.010
      -0.016
      -0.018
      -0.014
      -0.006
       0.004
       0.011
       0.012
       0.008
       0.001
      -0.004
      -0.006
      -0.004
       0.000
       0.003
       0.004
       0.005
       0.005
       0.004
       0.000
      -0.004
      -0.005
       0.000
       0.006
       0.009
       0.007
       0.002
       0.000
       0.002
       0.005
       0.007
       0.006
       0.003
       0.001
      -0.001
      -0.003
      -0.005
      -0.006
      -0.007
      -0.006
      -0.003
       0.001
       0.004
       0.005
       0.000
      -0.007
      -0.013
      -0.011
      -0.004
       0.004
       0.008
       0.007
       0.003
       0.000
      -0.001
      -0.003
      -0.005
      -0.007
      -0.009
      -0.010
      -0.011
      -0.008
      -0.002
       0.004
       0.007
       0.004
      -0.002
      -0.007
      -0.008
      -0.005
      -0.001
       0.000
      -0.001
      -0.003
      -0.004
      -0.004
      -0.005
      -0.005
      -0.005
      -0.004
      -0.004
      -0.005
      -0.007
      -0.008
      -0.006
      -0.003
       0.002
       0.004
       0.004
       0.002
      -0.002
      -0.006
      -0.009
      -0.010
      -0.010
      -0.008
      -0.003
       0.003
       0.005
       0.000
      -0.009
      -0.017
      -0.020
      -0.017
      -0.012
      -0.006
       0.000
       0.003
       0.005
       0.005
       0.002
      -0.001
      -0.002
      -0.001
      -0.001
      -0.003
      -0.008
      -0.012
      -0.014
      -0.012
      -0.009
      -0.006
      -0.004
      -0.006
      -0.009
      -0.012
      -0.015
      -0.016
      -0.015
      -0.012
      -0.009
      -0.007
      -0.005
      -0.006
      -0.009
      -0.013
      -0.013
      -0.009
      -0.003
       0.000
      -0.003
      -0.009
      -0.013
      -0.012
      -0.008
      -0.004
      -0.003
      -0.006
      -0.011
      -0.015
      -0.015
      -0.014
      -0.011
      -0.008
      -0.007
      -0.007
      -0.008
      -0.008
      -0.006
      -0.005
      -0.005
      -0.006
      -0.007
      -0.006
      -0.001
       0.004
       0.007
       0.005
       0.001
      -0.003
      -0.005
      -0.004
      -0.002
       0.000
      -0.001
      -0.003
      -0.003
       0.001
       0.006
       0.010
       0.007
       0.001
      -0.004
      -0.005
      -0.003
      -0.004
      -0.010
      -0.016
      -0.020
      -0.019
      -0.015
      -0.011
      -0.009
      -0.008
      -0.008
      -0.008
      -0.008
      -0.006
      -0.003
       0.000
       0.002
       0.002
       0.000
      -0.001
      -0.002
       0.000
       0.001
       0.000
      -0.002
      -0.005
      -0.007
      -0.008
      -0.007
      -0.006
      -0.005
      -0.002
       0.001
       0.002
      -0.001
      -0.008
      -0.014
      -0.013
      -0.008
      -0.003
      -0.003
      -0.007
      -0.010
      -0.007
      -0.001
       0.006
       0.009
       0.007
       0.003
      -0.001
      -0.005
      -0.008
      -0.010
      -0.010
      -0.010
      -0.009
      -0.008
      -0.008
      -0.009
      -0.010
      -0.009
      -0.004
       0.003
       0.009
       0.010
       0.004
      -0.004
      -0.010
      -0.010
      -0.006
      -0.003
      -0.002
      -0.003
      -0.003
      -0.001
       0.002
       0.005
       0.005
       0.003
      -0.001
      -0.005
      -0.008
      -0.009
      -0.008
      -0.007
      -0.003
       0.000
       0.000
      -0.002
      -0.007
      -0.011
      -0.012
      -0.013
      -0.014
      -0.016
      -0.018
      -0.015
      -0.009
      -0.004
      -0.003
      -0.006
      -0.009
      -0.009
      -0.006
      -0.004
      -0.006
      -0.010
      -0.014
      -0.015
      -0.012
      -0.007
      -0.003
      -0.003
      -0.006
      -0.010
      -0.012
      -0.011
      -0.010
      -0.012
      -0.015
      -0.017
      -0.015
      -0.010
      -0.005
      -0.003
      -0.003
      -0.005
      -0.006
      -0.005
      -0.004
      -0.006
      -0.011
      -0.014
      -0.013
      -0.009
      -0.004
      -0.003
      -0.006
      -0.013
      -0.020
      -0.026
      -0.032
      -0.041
      -0.055
      -0.073
      -0.095
      -0.122
      -0.154
      -0.192
      -0.233
      -0.266
      -0.273
      -0.228
      -0.111
       0.086
       0.350
       0.644
       0.920
       1.124
       1.212
       1.156
       0.953
       0.634
       0.261
      -0.084
      -0.325
      -0.422
      -0.385
      -0.275
      -0.166
      -0.121
      -0.166
      -0.297
      -0.488
      -0.700
      -0.888
      -1.015
      -1.070
      -1.069
      -1.027
      -0.940
      -0.783
      -0.555
      -0.309
      -0.133
      -0.096
      -0.192
      -0.341
      -0.439
      -0.415
      -0.247
       0.054
       0.463
       0.934
       1.375
       1.658
       1.663
       1.353
       0.797
       0.151
      -0.408
      -0.749
      -0.817
      -0.636
      -0.278
       0.164
       0.595
       0.933
       1.122
       1.140
       1.002
       0.751
       0.438
       0.116
      -0.168
      -0.364
      -0.431
      -0.375
      -0.259
      -0.185
      -0.243
      -0.466
      -0.820
      -1.222
      -1.573
      -1.789
      -1.818
      -1.642
      -1.268
      -0.725
      -0.066
       0.617
       1.194
       1.535
       1.571
       1.335
       0.940
       0.520
       0.172
      -0.049
      -0.109
       0.001
       0.234
       0.481
       0.608
       0.547
       0.340
       0.114
      -0.008
       0.011
       0.097
       0.127
       0.013
      -0.231
      -0.502
      -0.665
      -0.641
      -0.453
      -0.214
      -0.045
       0.000
      -0.040
      -0.087
      -0.097
      -0.089
      -0.113
      -0.187
      -0.280
      -0.340
      -0.333
      -0.255
      -0.113
       0.074
       0.275
       0.448
       0.560
       0.605
       0.586
       0.485
       0.264
      -0.084
      -0.486
      -0.795
      -0.868
      -0.655
      -0.244
       0.197
       0.510
       0.625
       0.571
       0.425
       0.252
       0.076
      -0.097
      -0.237
      -0.275
      -0.145
       0.150
       0.515
       0.817
       0.961
       0.932
       0.771
       0.509
       0.150
      -0.301
      -0.795
      -1.225
      -1.477
      -1.495
      -1.308
      -1.000
      -0.647
      -0.295
       0.018
       0.233
       0.282
       0.141
      -0.121
      -0.362
      -0.445
      -0.323
      -0.051
       0.263
       0.528
       0.705
       0.800
       0.833
       0.809
       0.721
       0.556
       0.313
       0.012
      -0.306
      -0.586
      -0.765
      -0.794
      -0.656
      -0.385
      -0.064
       0.204
       0.340
       0.320
       0.172
      -0.035
      -0.222
      -0.306
      -0.237
      -0.016
       0.288
       0.569
       0.728
       0.710
       0.508
       0.160
      -0.261
      -0.655
      -0.933
      -1.053
      -1.034
      -0.927
      -0.770
      -0.567
      -0.312
      -0.031
       0.217
       0.363
       0.371
       0.257
       0.075
      -0.097
      -0.181
      -0.107
       0.152
       0.568
       1.046
       1.454
       1.667
       1.620
       1.328
       0.864
       0.315
      -0.232
      -0.690
      -0.972
      -1.021
      -0.847
      -0.530
      -0.181
       0.101
       0.263
       0.292
       0.206
       0.047
      -0.127
      -0.264
      -0.333
      -0.327
      -0.258
      -0.140
       0.002
       0.130
       0.200
       0.190
       0.107
      -0.017
      -0.149
      -0.268
      -0.359
      -0.396
      -0.338
      -0.157
       0.133
       0.463
       0.731
       0.845
       0.757
       0.482
       0.087
      -0.324
      -0.647
      -0.813
      -0.819
      -0.708
      -0.531
      -0.320
      -0.090
       0.132
       0.294
       0.347
       0.286
       0.147
      -0.026
      -0.220
      -0.438
      -0.666
      -0.853
      -0.931
      -0.855
      -0.626
      -0.285
       0.102
       0.470
       0.771
       0.981
       1.091
       1.094
       0.979
       0.752
       0.459
       0.187
       0.031
       0.044
       0.197
       0.386
       0.487
       0.422
       0.211
      -0.053
      -0.273
      -0.418
      -0.522
      -0.619
      -0.680
      -0.630
      -0.431
      -0.143
       0.101
       0.193
       0.121
      -0.051
      -0.243
      -0.409
      -0.540
      -0.622
      -0.628
      -0.541
      -0.374
      -0.166
       0.055
       0.283
       0.516
       0.725
       0.839
       0.786
       0.537
       0.147
      -0.272
      -0.598
      -0.761
      -0.764
      -0.670
      -0.553
      -0.453
      -0.363
      -0.255
      -0.120
       0.021
       0.139
       0.240
       0.361
       0.529
       0.721
       0.864
       0.883
       0.755
       0.513
       0.230
      -0.012
      -0.135
      -0.084
       0.134
       0.429
       0.657
       0.695
       0.507
       0.147
      -0.292
      -0.717
      -1.045
      -1.195
      -1.120
      -0.845
      -0.483
      -0.186
      -0.051
      -0.071
      -0.147
      -0.166
      -0.060
       0.167
       0.456
       0.721
       0.869
       0.818
       0.529
       0.040
      -0.522
      -0.970
      -1.126
      -0.909
      -0.387
       0.243
       0.756
       1.016
       1.035
       0.935
       0.844
       0.800
       0.758
       0.642
       0.433
       0.177
      -0.048
      -0.199
      -0.299
      -0.409
      -0.560
      -0.714
      -0.787
      -0.717
      -0.519
      -0.272
      -0.066
       0.041
       0.025
      -0.113
      -0.332
      -0.536
      -0.614
      -0.519
      -0.310
      -0.113
      -0.023
      -0.046
      -0.127
      -0.220
      -0.308
      -0.365
      -0.350
      -0.233
      -0.051
       0.101
       0.137
       0.042
      -0.131
      -0.303
      -0.401
      -0.368
      -0.161
       0.219
       0.709
       1.189
       1.546
       1.713
       1.688
       1.501
       1.190
       0.782
       0.302
      -0.200
      -0.638
      -0.904
      -0.929
      -0.736
      -0.445
      -0.199
      -0.079
      -0.081
      -0.152
      -0.249
      -0.340
      -0.383
      -0.322
      -0.139
       0.116
       0.341
       0.458
       0.455
       0.373
       0.247
       0.076
      -0.158
      -0.452
      -0.757
      -0.990
      -1.065
      -0.943
      -0.655
      -0.299
       0.008
       0.198
       0.276
       0.294
       0.300
       0.302
       0.288
       0.266
       0.288
       0.428
       0.723
       1.124
       1.485
       1.621
       1.398
       0.813
       0.016
      -0.746
      -1.238
      -1.349
      -1.131
      -0.767
      -0.461
      -0.340
      -0.412
      -0.594
      -0.778
      -0.884
      -0.882
      -0.780
      -0.616
      -0.441
      -0.302
      -0.227
      -0.220
      -0.270
      -0.352
      -0.431
      -0.445
      -0.339
      -0.102
       0.194
       0.434
       0.551
       0.589
       0.675
       0.910
       1.276
       1.652
       1.909
       1.999
       1.949
       1.808
       1.586
       1.270
       0.852
       0.344
      -0.219
      -0.778
      -1.235
      -1.484
      -1.466
      -1.219
      -0.851
      -0.458
      -0.066
       0.337
       0.730
       1.026
       1.120
       0.960
       0.591
       0.124
      -0.320
      -0.656
      -0.862
      -0.966
      -1.004
      -0.987
      -0.907
      -0.766
      -0.598
      -0.434
      -0.253
       0.014
       0.398
       0.828
       1.157
       1.272
       1.175
       0.960
       0.721
       0.498
       0.289
       0.092
      -0.090
      -0.273
      -0.508
      -0.844
      -1.274
      -1.711
      -2.005
      -2.020
      -1.697
      -1.104
      -0.404
       0.210
       0.595
       0.708
       0.595
       0.362
       0.132
       0.000
      -0.006
       0.068
       0.137
       0.156
       0.162
       0.243
       0.458
       0.767
       1.046
       1.142
       0.948
       0.456
      -0.230
      -0.929
      -1.468
      -1.756
      -1.813
      -1.721
      -1.544
      -1.294
      -0.951
      -0.505
       0.012
       0.526
       0.938
       1.160
       1.164
       1.011
       0.832
       0.763
       0.862
       1.086
       1.320
       1.446
       1.384
       1.115
       0.674
       0.133
      -0.418
      -0.892
      -1.224
      -1.400
      -1.465
      -1.495
      -1.548
      -1.618
      -1.648
      -1.570
      -1.351
      -0.987
      -0.486
       0.130
       0.794
       1.393
       1.822
       2.065
       2.196
       2.291
       2.345
       2.271
       1.992
       1.514
       0.918
       0.302
      -0.252
      -0.675
      -0.908
      -0.932
      -0.800
      -0.635
      -0.559
      -0.634
      -0.840
      -1.101
      -1.331
      -1.465
      -1.495
      -1.467
      -1.454
      -1.507
      -1.614
      -1.717
      -1.749
      -1.658
      -1.409
      -0.990
      -0.434
       0.169
       0.699
       1.058
       1.202
       1.130
       0.858
       0.430
      -0.062
      -0.462
      -0.606
      -0.398
       0.139
       0.879
       1.657
       2.324
       2.787
       3.012
       3.012
       2.824
       2.473
       1.973
       1.361
       0.730
       0.214
      -0.074
      -0.112
       0.016
       0.176
       0.260
       0.224
       0.092
      -0.085
      -0.266
      -0.432
      -0.588
      -0.738
      -0.871
      -0.972
      -1.031
      -1.060
      -1.067
      -1.057
      -1.030
      -1.006
      -1.010
      -1.048
      -1.073
      -1.005
      -0.778
      -0.394
       0.060
       0.445
       0.630
       0.559
       0.283
      -0.074
      -0.392
      -0.606
      -0.703
      -0.673
      -0.480
      -0.103
       0.414
       0.949
       1.365
       1.580
       1.579
       1.382
       1.007
       0.489
      -0.101
      -0.655
      -1.058
      -1.226
      -1.115
      -0.733
      -0.146
       0.525
       1.144
       1.598
       1.819
       1.788
       1.529
       1.110
       0.624
       0.152
      -0.271
      -0.649
      -0.975
      -1.216
      -1.334
      -1.329
      -1.244
      -1.137
      -1.037
      -0.937
      -0.795
      -0.557
      -0.191
       0.263
       0.674
       0.888
       0.829
       0.564
       0.250
       0.014
      -0.117
      -0.185
      -0.220
      -0.205
      -0.107
       0.079
       0.322
       0.578
       0.795
       0.908
       0.847
       0.570
       0.100
      -0.467
      -1.000
      -1.389
      -1.574
      -1.556
      -1.381
      -1.113
      -0.821
      -0.564
      -0.388
      -0.310
      -0.296
      -0.273
      -0.168
       0.035
       0.280
       0.480
       0.571
       0.548
       0.447
       0.313
       0.187
       0.107
       0.101
       0.164
       0.251
       0.291
       0.234
       0.085
      -0.075
      -0.134
      -0.009
       0.300
       0.720
       1.143
       1.478
       1.679
       1.736
       1.665
       1.505
       1.300
       1.082
       0.846
       0.556
       0.184
      -0.249
      -0.681
      -1.049
      -1.321
      -1.490
      -1.547
      -1.481
      -1.308
      -1.083
      -0.877
      -0.738
      -0.665
      -0.631
      -0.612
      -0.594
      -0.566
      -0.517
      -0.434
      -0.322
      -0.196
      -0.079
       0.012
       0.077
       0.130
       0.190
       0.267
       0.361
       0.462
       0.568
       0.677
       0.774
       0.838
       0.855
       0.836
       0.805
       0.775
       0.739
       0.686
       0.630
       0.606
       0.640
       0.726
       0.815
       0.846
       0.767
       0.564
       0.259
      -0.093
      -0.430
      -0.710
      -0.922
      -1.074
      -1.180
      -1.242
      -1.249
      -1.189
      -1.049
      -0.832
      -0.579
      -0.361
      -0.254
      -0.282
      -0.393
      -0.485
      -0.462
      -0.286
       0.006
       0.338
       0.634
       0.849
       0.962
       0.968
       0.867
       0.664
       0.384
       0.081
      -0.167
      -0.289
      -0.254
      -0.088
       0.139
       0.351
       0.482
       0.485
       0.324
       0.005
      -0.417
      -0.832
      -1.124
      -1.219
      -1.110
      -0.840
      -0.486
      -0.142
       0.092
       0.137
      -0.027
      -0.338
      -0.669
      -0.878
      -0.866
      -0.620
      -0.225
       0.173
       0.434
       0.507
       0.441
       0.337
       0.263
       0.207
       0.116
      -0.034
      -0.191
      -0.258
      -0.162
       0.096
       0.431
       0.727
       0.889
       0.888
       0.749
       0.532
       0.309
       0.154
       0.137
       0.293
       0.594
       0.945
       1.225
       1.335
       1.236
       0.953
       0.553
       0.121
      -0.266
      -0.550
      -0.701
      -0.710
      -0.599
      -0.422
      -0.253
      -0.158
      -0.162
      -0.239
      -0.342
      -0.437
      -0.523
      -0.605
      -0.663
      -0.653
      -0.534
      -0.307
      -0.017
       0.252
       0.419
       0.434
       0.298
       0.062
      -0.197
      -0.407
      -0.512
      -0.484
      -0.314
      -0.020
       0.342
       0.689
       0.936
       1.026
       0.945
       0.723
       0.422
       0.130
      -0.060
      -0.075
       0.093
       0.385
       0.692
       0.903
       0.954
       0.844
       0.624
       0.348
       0.048
      -0.277
      -0.635
      -0.996
      -1.292
      -1.436
      -1.375
      -1.124
      -0.763
      -0.398
      -0.116
       0.049
       0.113
       0.108
       0.064
      -0.001
      -0.066
      -0.101
      -0.082
      -0.018
       0.047
       0.062
      -0.001
      -0.130
      -0.296
      -0.466
      -0.605
      -0.667
      -0.608
      -0.427
      -0.178
       0.047
       0.166
       0.147
       0.016
      -0.170
      -0.353
      -0.490
      -0.562
      -0.561
      -0.493
      -0.365
      -0.182
       0.042
       0.280
       0.479
       0.582
       0.557
       0.419
       0.239
       0.102
       0.077
       0.177
       0.369
       0.591
       0.783
       0.906
       0.945
       0.898
       0.776
       0.593
       0.367
       0.121
      -0.113
      -0.304
      -0.417
      -0.428
      -0.341
      -0.184
      -0.003
       0.161
       0.281
       0.343
       0.341
       0.278
       0.168
       0.034
      -0.095
      -0.187
      -0.225
      -0.210
      -0.173
      -0.157
      -0.194
      -0.285
      -0.408
      -0.533
      -0.642
      -0.724
      -0.764
      -0.742
      -0.640
      -0.462
      -0.232
       0.013
       0.232
       0.384
       0.441
       0.401
       0.296
       0.182
       0.106
       0.094
       0.149
       0.251
       0.367
       0.455
       0.476
       0.419
       0.312
       0.207
       0.153
       0.166
       0.228
