Origin Time       17/9/2010 19:21:09	 UTC
Lat.              36.5 N	
Long.             70.8 E	
Depth (Km)        167.0
Magnitude         6.5
 Region           Hindukush                                                        
 Above details taken from IMD 
    
Station Code      CHA
Station Lat.       30.412  N
Station Long.      79.320  E
Station Height(m) 1578.0
Site Class        A   Vs30 between 700 m/sec to 1400 m/sec * 
Record Time       17.09.2010 19:23:30.929 UTC
Sampling Rate     200. Hz
 Record Duration   90.255 Sec.
 Direction         N-S (N positive)
Max. Acceleration     -3.108 cm/sec**2
     
  * For reference see Site Classification link of website 
     
 Base Line Corrected and Low Pass Filtered (Cut Off at 35 Hz) Time History
 Acceleration data in cm/sec**2
    
[...]
      -1.004
      -0.979
      -0.941
      -0.894
      -0.835
      -0.768
      -0.707
      -0.666
      -0.636
      -0.598
      -0.550
      -0.501
      -0.465
      -0.449
      -0.452
      -0.457
      -0.440
      -0.392
      -0.333
      -0.283
      -0.239
      -0.191
      -0.136
      -0.080
      -0.022
       0.034
       0.079
       0.115
       0.158
       0.224
       0.311
       0.411
       0.520
       0.627
       0.715
       0.783
       0.849
       0.928
       1.006
       1.061
       1.086
       1.092
       1.096
       1.115
       1.155
       1.206
       1.246
       1.264
       1.273
       1.283
       1.290
       1.284
       1.267
       1.240
       1.199
       1.146
       1.098
       1.065
       1.038
       1.006
       0.961
       0.902
       0.826
       0.745
       0.674
       0.608
       0.520
       0.397
       0.261
       0.142
       0.048
      -0.028
      -0.094
      -0.156
      -0.221
      -0.288
      -0.348
      -0.402
      -0.462
      -0.535
      -0.611
      -0.678
      -0.734
      -0.781
      -0.809
      -0.815
      -0.808
      -0.799
      -0.787
      -0.765
      -0.730
      -0.683
      -0.628
      -0.580
      -0.556
      -0.544
      -0.514
      -0.444
      -0.344
      -0.240
      -0.145
      -0.060
       0.017
       0.094
       0.178
       0.258
       0.315
       0.341
       0.354
       0.371
       0.394
       0.418
       0.443
       0.463
       0.464
       0.444
       0.418
       0.396
       0.374
       0.342
       0.292
       0.218
       0.122
       0.028
      -0.036
      -0.068
      -0.096
      -0.136
      -0.181
      -0.222
      -0.259
      -0.298
      -0.342
      -0.399
      -0.475
      -0.558
      -0.628
      -0.677
      -0.713
      -0.744
      -0.767
      -0.788
      -0.814
      -0.839
      -0.849
      -0.838
      -0.825
      -0.823
      -0.827
      -0.825
      -0.802
      -0.744
      -0.652
      -0.544
      -0.440
      -0.344
      -0.239
      -0.121
       0.001
       0.117
       0.225
       0.323
       0.409
       0.496
       0.600
       0.721
       0.845
       0.963
       1.068
       1.154
       1.219
       1.277
       1.338
       1.390
       1.408
       1.382
       1.332
       1.281
       1.238
       1.201
       1.159
       1.096
       1.007
       0.909
       0.822
       0.742
       0.646
       0.525
       0.393
       0.263
       0.146
       0.049
      -0.021
      -0.076
      -0.136
      -0.209
      -0.284
      -0.349
      -0.400
      -0.436
      -0.465
      -0.508
      -0.579
      -0.663
      -0.724
      -0.748
      -0.747
      -0.740
      -0.734
      -0.734
      -0.738
      -0.738
      -0.731
      -0.729
      -0.748
      -0.788
      -0.831
      -0.867
      -0.895
      -0.914
      -0.922
      -0.932
      -0.958
      -1.001
      -1.046
      -1.080
      -1.104
      -1.127
      -1.160
      -1.211
      -1.273
      -1.319
      -1.324
      -1.294
      -1.252
      -1.205
      -1.146
      -1.069
      -0.978
      -0.874
      -0.762
      -0.653
      -0.553
      -0.454
      -0.343
      -0.217
      -0.082
       0.063
       0.210
       0.343
       0.452
       0.549
       0.649
       0.751
       0.838
       0.897
       0.927
       0.942
       0.957
       0.991
       1.041
       1.088
       1.116
       1.135
       1.162
       1.196
       1.228
       1.254
       1.275
       1.289
       1.295
       1.309
       1.344
       1.395
       1.449
       1.498
       1.536
       1.555
       1.555
       1.552
       1.555
       1.544
       1.499
       1.418
       1.319
       1.219
       1.128
       1.052
       0.985
       0.910
       0.818
       0.716
       0.617
       0.516
       0.403
       0.274
       0.136
      -0.009
      -0.156
      -0.288
      -0.397
      -0.490
      -0.580
      -0.669
      -0.747
      -0.815
      -0.870
      -0.906
      -0.927
      -0.952
      -0.989
      -1.024
      -1.032
      -1.010
      -0.971
      -0.922
      -0.865
      -0.802
      -0.733
      -0.655
      -0.572
      -0.499
      -0.446
      -0.401
      -0.349
      -0.286
      -0.213
      -0.128
      -0.032
       0.062
       0.140
       0.203
       0.263
       0.323
       0.380
       0.423
       0.437
       0.406
       0.341
       0.272
       0.219
       0.170
       0.104
       0.017
      -0.079
      -0.178
      -0.275
      -0.367
      -0.460
      -0.568
      -0.684
      -0.781
      -0.841
      -0.867
      -0.877
      -0.878
      -0.876
      -0.876
      -0.873
      -0.853
      -0.814
      -0.777
      -0.765
      -0.773
      -0.782
      -0.775
      -0.745
      -0.696
      -0.642
      -0.598
      -0.565
      -0.531
      -0.488
      -0.448
      -0.424
      -0.417
      -0.424
      -0.441
      -0.455
      -0.449
      -0.418
      -0.372
      -0.327
      -0.284
      -0.242
      -0.196
      -0.138
      -0.060
       0.026
       0.098
       0.152
       0.212
       0.298
       0.410
       0.528
       0.640
       0.737
       0.816
       0.885
       0.952
       1.011
       1.045
       1.045
       1.025
       0.996
       0.964
       0.935
       0.917
       0.908
       0.887
       0.844
       0.788
       0.733
       0.683
       0.640
       0.600
       0.549
       0.473
       0.385
       0.311
       0.262
       0.221
       0.174
       0.123
       0.071
       0.016
      -0.045
      -0.106
      -0.173
      -0.259
      -0.359
      -0.454
      -0.530
      -0.590
      -0.634
      -0.663
      -0.690
      -0.732
      -0.784
      -0.826
      -0.845
      -0.851
      -0.861
      -0.880
      -0.899
      -0.904
      -0.878
      -0.813
      -0.723
      -0.633
      -0.544
      -0.443
      -0.326
      -0.203
      -0.088
       0.015
       0.103
       0.174
       0.238
       0.307
       0.380
       0.447
       0.505
       0.550
       0.577
       0.582
       0.580
       0.590
       0.604
       0.602
       0.576
       0.548
       0.543
       0.571
       0.630
       0.706
       0.783
       0.850
       0.914
       0.991
       1.075
       1.149
       1.202
       1.237
       1.258
       1.267
       1.274
       1.288
       1.301
       1.292
       1.255
       1.194
       1.115
       1.025
       0.930
       0.830
       0.706
       0.545
       0.362
       0.192
       0.050
      -0.077
      -0.202
      -0.324
      -0.438
      -0.541
      -0.626
      -0.689
      -0.742
      -0.800
      -0.860
      -0.905
      -0.926
      -0.928
      -0.908
      -0.867
      -0.820
      -0.787
      -0.769
      -0.750
      -0.720
      -0.684
      -0.654
      -0.643
      -0.656
      -0.686
      -0.709
      -0.703
      -0.679
      -0.659
      -0.650
      -0.644
      -0.637
      -0.628
      -0.617
      -0.603
      -0.597
      -0.604
      -0.611
      -0.602
      -0.570
      -0.520
      -0.459
      -0.395
      -0.343
      -0.308
      -0.273
      -0.223
      -0.168
      -0.132
      -0.127
      -0.145
      -0.167
      -0.178
      -0.171
      -0.154
      -0.149
      -0.166
      -0.195
      -0.218
      -0.235
      -0.256
      -0.285
      -0.323
      -0.368
      -0.415
      -0.445
      -0.443
      -0.415
      -0.378
      -0.344
      -0.317
      -0.295
      -0.271
      -0.231
      -0.176
      -0.130
      -0.112
      -0.110
      -0.096
      -0.055
       0.001
       0.055
       0.096
       0.121
       0.134
       0.151
       0.174
       0.186
       0.171
       0.132
       0.089
       0.049
       0.016
      -0.003
      -0.007
      -0.007
      -0.013
      -0.022
      -0.019
       0.000
       0.035
       0.081
       0.124
       0.149
       0.159
       0.185
       0.249
       0.345
       0.446
       0.539
       0.625
       0.706
       0.782
       0.858
       0.929
       0.980
       1.000
       1.004
       1.009
       1.021
       1.038
       1.062
       1.085
       1.088
       1.067
       1.039
       1.019
       1.001
       0.962
       0.895
       0.804
       0.707
       0.624
       0.570
       0.533
       0.487
       0.419
       0.348
       0.292
       0.250
       0.211
       0.168
       0.120
       0.061
      -0.005
      -0.061
      -0.095
      -0.119
      -0.144
      -0.176
      -0.215
      -0.262
      -0.314
      -0.355
      -0.383
      -0.417
      -0.469
      -0.530
      -0.578
      -0.595
      -0.575
      -0.521
      -0.448
      -0.377
      -0.315
      -0.250
      -0.175
      -0.100
      -0.039
       0.004
       0.029
       0.034
       0.028
       0.026
       0.033
       0.037
       0.020
      -0.022
      -0.084
      -0.159
      -0.234
      -0.300
      -0.363
      -0.445
      -0.546
      -0.639
      -0.700
      -0.728
      -0.738
      -0.738
      -0.729
      -0.716
      -0.698
      -0.671
      -0.639
      -0.619
      -0.615
      -0.614
      -0.607
      -0.594
      -0.576
      -0.548
      -0.515
      -0.499
      -0.512
      -0.544
      -0.579
      -0.608
      -0.633
      -0.664
      -0.713
      -0.780
      -0.840
      -0.860
      -0.832
      -0.783
      -0.733
      -0.676
      -0.603
      -0.512
      -0.407
      -0.291
      -0.174
      -0.067
       0.032
       0.139
       0.261
       0.392
       0.523
       0.650
       0.764
       0.850
       0.913
       0.973
       1.034
       1.080
       1.093
       1.076
       1.042
       1.007
       0.988
       0.987
       0.992
       0.983
       0.959
       0.933
       0.909
       0.879
       0.841
       0.795
       0.741
       0.675
       0.605
       0.547
       0.506
       0.473
       0.444
       0.417
       0.386
       0.348
       0.311
       0.289
       0.275
       0.244
       0.193
       0.142
       0.110
       0.104
       0.118
       0.148
       0.183
       0.216
       0.250
       0.297
       0.350
       0.391
       0.413
       0.424
       0.428
       0.425
       0.419
       0.415
       0.408
       0.381
       0.333
       0.272
       0.209
       0.143
       0.074
      -0.002
      -0.095
      -0.208
      -0.319
      -0.399
      -0.446
      -0.478
      -0.509
      -0.538
      -0.558
      -0.574
      -0.584
      -0.588
      -0.596
      -0.620
      -0.655
      -0.683
      -0.699
      -0.703
      -0.690
      -0.658
      -0.620
      -0.598
      -0.591
      -0.577
      -0.543
      -0.499
      -0.465
      -0.457
      -0.476
      -0.508
      -0.526
      -0.519
      -0.505
      -0.509
      -0.532
      -0.561
      -0.585
      -0.607
      -0.626
      -0.644
      -0.671
      -0.708
      -0.742
      -0.753
      -0.733
      -0.693
      -0.639
      -0.579
      -0.528
      -0.489
      -0.446
      -0.385
      -0.320
      -0.277
      -0.266
      -0.267
      -0.259
      -0.227
      -0.171
      -0.103
      -0.041
       0.006
       0.050
       0.105
       0.166
       0.217
       0.255
       0.283
       0.306
       0.325
       0.352
       0.394
       0.446
       0.491
       0.521
       0.536
       0.537
       0.534
       0.540
       0.556
       0.560
       0.536
       0.496
       0.467
       0.463
       0.477
       0.499
       0.521
       0.537
       0.543
       0.545
       0.548
       0.539
       0.508
       0.460
       0.407
       0.353
       0.298
       0.252
       0.225
       0.206
       0.178
       0.133
       0.085
       0.044
       0.015
      -0.003
      -0.020
      -0.050
      -0.090
      -0.118
      -0.116
      -0.096
      -0.081
      -0.075
      -0.068
      -0.060
      -0.057
      -0.060
      -0.073
      -0.103
      -0.153
      -0.208
      -0.255
      -0.294
      -0.327
      -0.348
      -0.360
      -0.375
      -0.401
      -0.421
      -0.419
      -0.402
      -0.389
      -0.387
      -0.390
      -0.387
      -0.361
      -0.299
      -0.208
      -0.110
      -0.025
       0.051
       0.127
       0.202
       0.267
       0.318
       0.352
       0.366
       0.365
       0.368
       0.388
       0.419
       0.452
       0.479
       0.497
       0.501
       0.499
       0.510
       0.537
       0.557
       0.550
       0.523
       0.498
       0.493
       0.512
       0.550
       0.592
       0.623
       0.643
       0.664
       0.693
       0.714
       0.714
       0.696
       0.671
       0.641
       0.612
       0.594
       0.593
       0.599
       0.598
       0.586
       0.568
       0.550
       0.541
       0.550
       0.566
       0.567
       0.549
       0.538
       0.558
       0.601
       0.648
       0.690
       0.727
       0.757
       0.781
       0.805
       0.823
       0.816
       0.778
       0.727
       0.683
       0.650
       0.625
       0.604
       0.578
       0.529
       0.456
       0.377
       0.305
       0.235
       0.149
       0.037
      -0.103
      -0.268
      -0.437
      -0.583
      -0.704
      -0.823
      -0.957
      -1.101
      -1.248
      -1.400
      -1.558
      -1.716
      -1.873
      -2.035
      -2.199
      -2.348
      -2.473
      -2.580
      -2.677
      -2.766
      -2.851
      -2.933
      -3.005
      -3.049
      -3.065
      -3.073
      -3.090
      -3.108
      -3.106
      -3.069
      -2.995
      -2.889
      -2.766
      -2.638
      -2.502
      -2.347
      -2.173
      -1.991
      -1.810
      -1.631
      -1.451
      -1.267
      -1.074
      -0.865
      -0.638
      -0.406
      -0.180
       0.032
       0.225
       0.405
       0.581
       0.758
       0.921
       1.045
       1.132
       1.206
       1.290
       1.385
       1.483
       1.576
       1.656
       1.721
       1.784
       1.856
       1.932
       1.989
       2.021
       2.044
       2.074
       2.117
       2.178
       2.257
       2.339
       2.400
       2.438
       2.468
       2.499
       2.527
       2.544
       2.540
       2.500
       2.424
       2.334
       2.260
       2.203
       2.136
       2.047
       1.946
       1.845
       1.747
       1.652
       1.559
       1.456
       1.333
       1.205
       1.100
       1.025
       0.970
       0.927
       0.895
       0.866
       0.826
       0.779
       0.741
       0.711
       0.671
       0.604
       0.506
       0.388
       0.263
       0.152
       0.066
      -0.013
      -0.110
      -0.228
      -0.346
      -0.456
      -0.565
      -0.681
      -0.803
      -0.933
      -1.067
      -1.191
      -1.287
      -1.359
      -1.420
      -1.482
      -1.545
      -1.607
      -1.666
      -1.709
      -1.729
      -1.740
      -1.769
      -1.821
      -1.876
      -1.911
      -1.919
      -1.908
      -1.891
      -1.881
      -1.878
      -1.866
      -1.829
      -1.773
      -1.717
      -1.668
      -1.621
      -1.569
      -1.504
      -1.416
      -1.293
      -1.143
      -0.983
      -0.828
      -0.677
      -0.524
      -0.361
      -0.181
       0.004
       0.171
       0.306
       0.429
       0.570
       0.736
       0.909
       1.072
       1.216
       1.337
       1.435
       1.519
       1.593
       1.647
       1.668
       1.664
       1.648
       1.624
       1.594
       1.563
       1.534
       1.491
       1.418
       1.324
       1.230
       1.142
       1.048
       0.936
       0.798
       0.636
       0.466
       0.317
       0.200
       0.096
      -0.016
      -0.134
      -0.243
      -0.344
      -0.447
      -0.554
      -0.665
      -0.786
      -0.921
      -1.055
      -1.170
      -1.259
      -1.331
      -1.390
      -1.446
      -1.513
      -1.593
      -1.663
      -1.702
      -1.718
      -1.734
      -1.761
      -1.788
      -1.797
      -1.774
      -1.720
      -1.645
      -1.568
      -1.493
      -1.407
      -1.300
      -1.181
      -1.063
      -0.952
      -0.844
      -0.739
      -0.633
      -0.514
      -0.375
      -0.225
      -0.077
       0.060
       0.187
       0.303
       0.415
       0.533
       0.654
       0.754
       0.821
       0.869
       0.927
       1.007
       1.100
       1.195
       1.278
       1.341
       1.384
       1.420
       1.456
       1.476
       1.466
       1.433
       1.392
       1.354
       1.324
       1.311
       1.310
       1.305
       1.282
       1.249
       1.225
       1.213
       1.210
       1.212
       1.205
       1.176
       1.132
       1.102
       1.103
       1.119
       1.129
       1.130
       1.128
       1.123
       1.109
       1.089
       1.061
       1.014
       0.948
       0.878
       0.819
       0.773
       0.739
       0.725
       0.726
       0.721
       0.700
       0.676
       0.668
       0.669
       0.660
       0.632
       0.587
       0.534
       0.492
       0.475
       0.477
       0.473
       0.451
       0.423
       0.399
       0.376
       0.343
       0.295
       0.230
       0.145
       0.049
      -0.038
      -0.106
      -0.164
      -0.226
      -0.301
      -0.393
      -0.507
      -0.631
      -0.745
      -0.847
      -0.960
      -1.106
      -1.274
      -1.442
      -1.590
      -1.712
      -1.811
      -1.901
      -1.998
      -2.102
      -2.199
      -2.277
      -2.344
      -2.408
      -2.468
      -2.520
      -2.565
      -2.597
      -2.602
      -2.577
      -2.534
      -2.486
      -2.438
      -2.382
      -2.313
      -2.229
      -2.132
      -2.040
      -1.966
      -1.899
      -1.811
      -1.685
      -1.529
      -1.366
      -1.202
      -1.038
      -0.871
      -0.698
      -0.521
      -0.353
      -0.210
      -0.095
       0.009
       0.117
       0.231
       0.348
       0.464
       0.567
       0.641
       0.688
       0.726
       0.768
       0.809
       0.840
       0.857
       0.855
       0.837
       0.825
       0.843
       0.887
       0.936
       0.980
       1.027
       1.081
       1.132
       1.179
       1.224
       1.267
       1.303
       1.336
       1.382
       1.444
       1.518
       1.605
       1.705
       1.803
       1.881
       1.942
       2.004
       2.069
       2.112
       2.115
       2.082
       2.030
       1.969
       1.907
       1.840
       1.752
       1.631
       1.487
       1.343
       1.206
       1.066
       0.918
       0.768
       0.624
       0.488
       0.371
       0.288
       0.235
       0.195
       0.157
       0.122
       0.089
       0.061
       0.044
       0.040
       0.027
      -0.016
      -0.087
      -0.154
      -0.195
      -0.215
      -0.230
      -0.250
      -0.277
      -0.305
      -0.324
      -0.326
      -0.325
      -0.340
      -0.373
      -0.410
      -0.439
      -0.460
      -0.469
      -0.462
      -0.445
      -0.436
      -0.446
      -0.468
      -0.494
      -0.518
      -0.538
      -0.558
      -0.595
      -0.659
      -0.730
      -0.777
      -0.792
      -0.795
      -0.804
      -0.819
      -0.841
      -0.865
      -0.883
      -0.893
      -0.906
      -0.934
      -0.974
      -1.008
