Origin Time       01/05/2009 22:36:25
Lat.              29.9 N 
Long.             80.1 E 
Depth (Km)         10.0
Magnitude         4.6
 Region           Bageshwar-Uttarakhand                                            
 Above details taken from IMD 
     
Station Code      CHA
Station Lat.       30.412  N
Station Long.      79.320  E
Station Height(m) 1578.0
Site Class        A   Vs30 between 700 m/sec to 1400 m/sec * 
Record Time       01.05.2010 22:35:11.319
Sampling Rate     200. Hz
 Record Duration   81.315 Sec.
 Direction         E-W (E positive)
Max. Acceleration     -2.362 cm/sec**2
     
  * For reference see Site Classification link of website 
     
 Base Line Corrected and Low Pass Filtered (Cut Off at 35 Hz) Time History
 Acceleration data in cm/sec**2
    
[...]
       0.396
       0.193
       0.008
      -0.116
      -0.165
      -0.144
      -0.073
       0.023
       0.112
       0.174
       0.207
       0.219
       0.219
       0.219
       0.216
       0.199
       0.148
       0.064
      -0.042
      -0.166
      -0.310
      -0.468
      -0.614
      -0.719
      -0.767
      -0.752
      -0.679
      -0.572
      -0.460
      -0.362
      -0.281
      -0.217
      -0.179
      -0.173
      -0.194
      -0.232
      -0.273
      -0.301
      -0.303
      -0.274
      -0.226
      -0.169
      -0.104
      -0.032
       0.047
       0.135
       0.227
       0.302
       0.332
       0.309
       0.250
       0.179
       0.109
       0.041
      -0.023
      -0.083
      -0.135
      -0.165
      -0.158
      -0.117
      -0.067
      -0.034
      -0.028
      -0.045
      -0.069
      -0.083
      -0.073
      -0.045
      -0.021
      -0.009
      -0.002
       0.013
       0.034
       0.052
       0.058
       0.039
      -0.013
      -0.095
      -0.182
      -0.247
      -0.277
      -0.266
      -0.221
      -0.158
      -0.102
      -0.067
      -0.049
      -0.033
      -0.011
       0.023
       0.067
       0.113
       0.155
       0.198
       0.260
       0.345
       0.435
       0.509
       0.559
       0.585
       0.584
       0.561
       0.521
       0.462
       0.374
       0.258
       0.131
       0.023
      -0.051
      -0.090
      -0.102
      -0.101
      -0.095
      -0.082
      -0.052
      -0.015
       0.005
      -0.010
      -0.054
      -0.103
      -0.133
      -0.130
      -0.091
      -0.038
      -0.008
      -0.020
      -0.057
      -0.086
      -0.080
      -0.036
       0.036
       0.115
       0.173
       0.195
       0.182
       0.145
       0.089
       0.025
      -0.037
      -0.087
      -0.123
      -0.139
      -0.123
      -0.073
      -0.004
       0.063
       0.115
       0.149
       0.157
       0.138
       0.103
       0.062
       0.016
      -0.035
      -0.085
      -0.121
      -0.142
      -0.147
      -0.136
      -0.109
      -0.074
      -0.038
      -0.001
       0.035
       0.059
       0.054
       0.013
      -0.058
      -0.144
      -0.221
      -0.267
      -0.279
      -0.273
      -0.260
      -0.230
      -0.169
      -0.078
       0.024
       0.120
       0.198
       0.252
       0.279
       0.289
       0.290
       0.285
       0.266
       0.223
       0.155
       0.072
      -0.003
      -0.041
      -0.038
      -0.019
      -0.015
      -0.033
      -0.056
      -0.074
      -0.087
      -0.100
      -0.126
      -0.175
      -0.247
      -0.324
      -0.384
      -0.417
      -0.427
      -0.413
      -0.372
      -0.302
      -0.199
      -0.065
       0.089
       0.233
       0.333
       0.377
       0.366
       0.308
       0.211
       0.095
      -0.020
      -0.117
      -0.186
      -0.214
      -0.199
      -0.161
      -0.127
      -0.113
      -0.118
      -0.139
      -0.167
      -0.191
      -0.205
      -0.213
      -0.225
      -0.238
      -0.244
      -0.238
      -0.221
      -0.191
      -0.143
      -0.079
      -0.011
       0.050
       0.092
       0.108
       0.104
       0.097
       0.104
       0.115
       0.110
       0.088
       0.071
       0.086
       0.142
       0.226
       0.308
       0.355
       0.354
       0.324
       0.297
       0.292
       0.305
       0.322
       0.328
       0.315
       0.289
       0.270
       0.282
       0.327
       0.386
       0.441
       0.476
       0.482
       0.449
       0.384
       0.295
       0.186
       0.063
      -0.053
      -0.129
      -0.139
      -0.084
       0.016
       0.132
       0.232
       0.295
       0.315
       0.298
       0.246
       0.163
       0.060
      -0.042
      -0.138
      -0.225
      -0.299
      -0.343
      -0.350
      -0.322
      -0.269
      -0.204
      -0.143
      -0.101
      -0.072
      -0.044
      -0.019
      -0.021
      -0.077
      -0.193
      -0.351
      -0.511
      -0.629
      -0.669
      -0.628
      -0.526
      -0.392
      -0.245
      -0.104
       0.019
       0.122
       0.204
       0.251
       0.246
       0.191
       0.119
       0.067
       0.051
       0.063
       0.085
       0.096
       0.087
       0.069
       0.058
       0.061
       0.068
       0.070
       0.064
       0.051
       0.030
       0.004
      -0.017
      -0.028
      -0.030
      -0.021
       0.002
       0.032
       0.056
       0.066
       0.061
       0.032
      -0.037
      -0.148
      -0.275
      -0.386
      -0.459
      -0.484
      -0.461
      -0.396
      -0.300
      -0.185
      -0.062
       0.047
       0.119
       0.145
       0.144
       0.141
       0.154
       0.185
       0.227
       0.265
       0.284
       0.280
       0.264
       0.240
       0.206
       0.164
       0.132
       0.126
       0.146
       0.177
       0.205
       0.225
       0.234
       0.238
       0.240
       0.231
       0.196
       0.131
       0.055
      -0.017
      -0.084
      -0.163
      -0.258
      -0.365
      -0.463
      -0.527
      -0.539
      -0.508
      -0.468
      -0.442
      -0.429
      -0.413
      -0.382
      -0.336
      -0.278
      -0.220
      -0.179
      -0.157
      -0.134
      -0.085
       0.003
       0.122
       0.248
       0.351
       0.406
       0.415
       0.404
       0.396
       0.398
       0.406
       0.421
       0.440
       0.452
       0.449
       0.437
       0.418
       0.378
       0.307
       0.206
       0.092
      -0.019
      -0.111
      -0.171
      -0.192
      -0.182
      -0.158
      -0.125
      -0.087
      -0.046
      -0.003
       0.035
       0.057
       0.044
      -0.012
      -0.102
      -0.209
      -0.321
      -0.425
      -0.498
      -0.521
      -0.490
      -0.414
      -0.301
      -0.163
      -0.019
       0.117
       0.234
       0.328
       0.387
       0.406
       0.387
       0.331
       0.236
       0.107
      -0.037
      -0.165
      -0.256
      -0.296
      -0.286
      -0.238
      -0.179
      -0.127
      -0.082
      -0.037
       0.003
       0.027
       0.029
       0.019
       0.008
       0.005
       0.018
       0.046
       0.076
       0.096
       0.105
       0.111
       0.115
       0.121
       0.133
       0.150
       0.162
       0.157
       0.137
       0.109
       0.076
       0.040
       0.009
      -0.008
      -0.011
       0.001
       0.033
       0.087
       0.148
       0.191
       0.208
       0.210
       0.216
       0.233
       0.261
       0.288
       0.291
       0.257
       0.185
       0.086
      -0.032
      -0.158
      -0.268
      -0.339
      -0.363
      -0.349
      -0.316
      -0.291
      -0.296
      -0.337
      -0.393
      -0.430
      -0.430
      -0.394
      -0.326
      -0.229
      -0.110
       0.017
       0.141
       0.262
       0.379
       0.491
       0.586
       0.644
       0.639
       0.562
       0.429
       0.276
       0.131
       0.017
      -0.042
      -0.032
       0.041
       0.158
       0.308
       0.485
       0.672
       0.832
       0.926
       0.931
       0.842
       0.677
       0.471
       0.256
       0.044
      -0.162
      -0.351
      -0.497
      -0.579
      -0.592
      -0.546
      -0.460
      -0.361
      -0.266
      -0.174
      -0.072
       0.037
       0.135
       0.205
       0.236
       0.222
       0.162
       0.066
      -0.054
      -0.186
      -0.325
      -0.451
      -0.545
      -0.598
      -0.608
      -0.576
      -0.497
      -0.379
      -0.244
      -0.114
      -0.002
       0.087
       0.157
       0.220
       0.282
       0.330
       0.344
       0.316
       0.246
       0.134
      -0.027
      -0.227
      -0.438
      -0.627
      -0.773
      -0.852
      -0.846
      -0.753
      -0.597
      -0.422
      -0.277
      -0.203
      -0.211
      -0.274
      -0.342
      -0.380
      -0.373
      -0.325
      -0.243
      -0.133
      -0.007
       0.123
       0.235
       0.293
       0.266
       0.160
       0.013
      -0.131
      -0.252
      -0.354
      -0.445
      -0.535
      -0.621
      -0.682
      -0.687
      -0.618
      -0.485
      -0.312
      -0.125
       0.049
       0.195
       0.309
       0.393
       0.439
       0.433
       0.366
       0.250
       0.105
      -0.046
      -0.173
      -0.250
      -0.277
      -0.272
      -0.249
      -0.201
      -0.114
       0.022
       0.202
       0.415
       0.642
       0.861
       1.054
       1.210
       1.309
       1.325
       1.241
       1.046
       0.743
       0.353
      -0.070
      -0.462
      -0.778
      -1.012
      -1.171
      -1.244
      -1.209
      -1.057
      -0.793
      -0.433
      -0.008
       0.442
       0.875
       1.254
       1.548
       1.733
       1.809
       1.805
       1.752
       1.665
       1.545
       1.383
       1.177
       0.938
       0.700
       0.507
       0.380
       0.306
       0.257
       0.212
       0.152
       0.052
      -0.106
      -0.323
      -0.587
      -0.876
      -1.155
      -1.385
      -1.540
      -1.609
      -1.586
      -1.455
      -1.205
      -0.847
      -0.411
       0.070
       0.558
       1.013
       1.404
       1.707
       1.905
       1.979
       1.920
       1.733
       1.428
       1.016
       0.524
       0.002
      -0.496
      -0.932
      -1.288
      -1.557
      -1.739
      -1.843
      -1.875
      -1.837
      -1.733
      -1.573
      -1.365
      -1.113
      -0.829
      -0.531
      -0.232
       0.064
       0.345
       0.589
       0.775
       0.903
       0.984
       1.033
       1.058
       1.063
       1.035
       0.946
       0.776
       0.534
       0.260
       0.000
      -0.211
      -0.356
      -0.449
      -0.521
      -0.601
      -0.693
      -0.792
      -0.890
      -0.985
      -1.065
      -1.122
      -1.161
      -1.187
      -1.196
      -1.183
      -1.147
      -1.091
      -1.013
      -0.909
      -0.772
      -0.590
      -0.350
      -0.055
       0.258
       0.535
       0.742
       0.869
       0.918
       0.894
       0.797
       0.625
       0.384
       0.104
      -0.152
      -0.323
      -0.377
      -0.325
      -0.202
      -0.058
       0.060
       0.131
       0.172
       0.218
       0.279
       0.339
       0.369
       0.346
       0.267
       0.145
       0.005
      -0.137
      -0.283
      -0.444
      -0.618
      -0.780
      -0.885
      -0.878
      -0.711
      -0.378
       0.071
       0.549
       0.977
       1.310
       1.527
       1.630
       1.626
       1.510
       1.265
       0.883
       0.402
      -0.101
      -0.550
      -0.889
      -1.097
      -1.180
      -1.163
      -1.065
      -0.884
      -0.610
      -0.253
       0.150
       0.543
       0.867
       1.071
       1.138
       1.092
       0.990
       0.880
       0.786
       0.717
       0.657
       0.582
       0.470
       0.328
       0.183
       0.058
      -0.044
      -0.125
      -0.181
      -0.206
      -0.189
      -0.119
       0.004
       0.164
       0.339
       0.511
       0.668
       0.788
       0.843
       0.813
       0.695
       0.494
       0.229
      -0.058
      -0.317
      -0.516
      -0.638
      -0.678
      -0.635
      -0.522
      -0.362
      -0.176
       0.019
       0.200
       0.340
       0.418
       0.432
       0.399
       0.346
       0.304
       0.293
       0.301
       0.298
       0.258
       0.178
       0.070
      -0.042
      -0.124
      -0.153
      -0.132
      -0.086
      -0.041
      -0.006
       0.012
       0.008
      -0.022
      -0.075
      -0.146
      -0.228
      -0.308
      -0.368
      -0.408
      -0.435
      -0.459
      -0.474
      -0.475
      -0.451
      -0.393
      -0.303
      -0.200
      -0.121
      -0.095
      -0.140
      -0.262
      -0.454
      -0.683
      -0.899
      -1.065
      -1.173
      -1.233
      -1.256
      -1.253
      -1.230
      -1.187
      -1.119
      -1.026
      -0.903
      -0.733
      -0.497
      -0.206
       0.101
       0.374
       0.574
       0.687
       0.717
       0.687
       0.621
       0.526
       0.396
       0.235
       0.069
      -0.077
      -0.194
      -0.286
      -0.358
      -0.417
      -0.465
      -0.498
      -0.510
      -0.497
      -0.455
      -0.375
      -0.245
      -0.079
       0.086
       0.209
       0.270
       0.268
       0.213
       0.128
       0.038
      -0.045
      -0.127
      -0.215
      -0.300
      -0.367
      -0.396
      -0.373
      -0.284
      -0.130
       0.074
       0.302
       0.522
       0.701
       0.809
       0.842
       0.820
       0.772
       0.721
       0.693
       0.712
       0.785
       0.897
       1.028
       1.156
       1.252
       1.280
       1.212
       1.048
       0.814
       0.544
       0.282
       0.079
      -0.039
      -0.078
      -0.071
      -0.035
       0.029
       0.125
       0.256
       0.425
       0.622
       0.819
       0.985
       1.105
       1.165
       1.154
       1.068
       0.925
       0.756
       0.592
       0.469
       0.429
       0.497
       0.665
       0.890
       1.111
       1.262
       1.278
       1.120
       0.798
       0.354
      -0.156
      -0.682
      -1.186
      -1.635
      -2.001
      -2.252
      -2.362
      -2.334
      -2.201
      -1.997
      -1.737
      -1.425
      -1.070
      -0.692
      -0.313
       0.030
       0.292
       0.431
       0.437
       0.324
       0.126
      -0.104
      -0.305
      -0.422
      -0.432
      -0.341
      -0.172
       0.046
       0.275
       0.479
       0.628
       0.705
       0.710
       0.667
       0.615
       0.568
       0.497
       0.356
       0.131
      -0.149
      -0.424
      -0.635
      -0.747
      -0.764
      -0.719
      -0.653
      -0.587
      -0.528
      -0.484
      -0.465
      -0.469
      -0.487
      -0.511
      -0.527
      -0.522
      -0.487
      -0.436
      -0.388
      -0.356
      -0.352
      -0.384
      -0.446
      -0.513
      -0.554
      -0.553
      -0.517
      -0.462
      -0.412
      -0.391
      -0.409
      -0.450
      -0.495
      -0.536
      -0.575
      -0.605
      -0.610
      -0.578
      -0.515
      -0.436
      -0.368
      -0.339
      -0.366
      -0.445
      -0.549
      -0.646
      -0.698
      -0.664
      -0.520
      -0.281
       0.021
       0.358
       0.713
       1.069
       1.401
       1.677
       1.866
       1.945
       1.908
       1.775
       1.570
       1.305
       0.986
       0.638
       0.302
       0.014
      -0.209
      -0.374
      -0.503
      -0.617
      -0.714
      -0.759
      -0.716
      -0.571
      -0.337
      -0.025
       0.351
       0.758
       1.138
       1.435
       1.608
       1.639
       1.524
       1.278
       0.932
       0.527
       0.121
      -0.217
      -0.433
      -0.510
      -0.469
      -0.340
      -0.155
       0.059
       0.278
       0.490
       0.678
       0.817
       0.887
       0.893
       0.862
       0.815
       0.756
       0.674
       0.557
       0.395
       0.186
      -0.043
      -0.248
      -0.384
      -0.420
      -0.343
      -0.164
       0.077
       0.319
       0.511
       0.627
       0.662
       0.622
       0.524
       0.385
       0.206
      -0.011
      -0.257
      -0.513
      -0.757
      -0.966
      -1.112
      -1.174
      -1.161
      -1.107
      -1.041
      -0.974
      -0.891
      -0.764
      -0.560
      -0.262
       0.114
       0.522
       0.915
       1.256
       1.519
       1.682
       1.739
       1.694
       1.542
       1.282
       0.921
       0.484
      -0.004
      -0.516
      -1.011
      -1.437
      -1.743
      -1.903
      -1.911
      -1.784
      -1.558
      -1.282
      -0.999
      -0.734
      -0.509
      -0.344
      -0.259
      -0.263
      -0.355
      -0.515
      -0.698
      -0.849
      -0.934
      -0.956
      -0.932
      -0.881
      -0.817
      -0.747
      -0.668
      -0.575
      -0.480
      -0.412
      -0.397
      -0.436
      -0.510
      -0.595
      -0.668
      -0.720
      -0.755
      -0.788
      -0.816
      -0.821
      -0.779
      -0.677
      -0.511
      -0.281
      -0.010
       0.271
       0.531
       0.749
       0.904
       0.977
       0.972
       0.924
       0.873
       0.841
       0.831
       0.839
       0.856
       0.873
       0.881
       0.878
       0.861
       0.835
       0.816
       0.836
       0.905
       1.012
       1.128
       1.226
       1.280
       1.269
       1.191
       1.063
       0.901
       0.718
       0.527
       0.353
       0.220
       0.127
       0.059
      -0.004
      -0.078
      -0.176
      -0.300
      -0.441
      -0.585
      -0.722
      -0.835
      -0.899
      -0.896
      -0.821
      -0.682
      -0.503
      -0.325
      -0.192
      -0.124
      -0.110
      -0.131
      -0.182
      -0.275
      -0.420
      -0.617
      -0.844
      -1.058
      -1.201
      -1.237
      -1.164
      -1.003
      -0.782
      -0.525
      -0.258
       0.003
       0.257
       0.503
       0.736
       0.939
       1.091
       1.166
       1.141
       1.022
       0.849
       0.671
       0.514
       0.384
       0.279
       0.202
       0.161
       0.174
       0.251
       0.375
       0.500
       0.582
       0.609
       0.593
       0.550
       0.493
       0.423
       0.338
       0.227
       0.099
      -0.018
      -0.095
      -0.126
      -0.118
      -0.077
      -0.008
       0.083
       0.188
       0.295
       0.381
       0.412
       0.361
       0.234
       0.057
      -0.147
      -0.363
      -0.578
      -0.777
      -0.945
      -1.057
      -1.090
      -1.037
      -0.920
      -0.763
      -0.574
      -0.353
      -0.106
       0.150
       0.391
       0.582
       0.684
       0.671
       0.552
       0.357
       0.125
      -0.102
      -0.277
      -0.365
      -0.351
      -0.241
      -0.052
       0.180
       0.400
       0.552
       0.604
       0.562
       0.450
       0.302
       0.149
       0.012
      -0.100
      -0.185
      -0.240
      -0.275
      -0.311
      -0.370
      -0.449
      -0.530
      -0.596
      -0.637
      -0.644
      -0.616
      -0.558
      -0.481
      -0.392
      -0.294
      -0.195
      -0.104
      -0.017
       0.072
       0.165
       0.249
       0.309
       0.324
       0.277
       0.169
       0.024
      -0.132
      -0.294
      -0.473
      -0.672
      -0.870
      -1.034
      -1.127
      -1.120
      -1.016
      -0.851
      -0.669
      -0.492
      -0.315
      -0.137
       0.027
       0.151
       0.217
       0.216
       0.159
       0.074
      -0.018
      -0.107
      -0.196
      -0.282
      -0.358
      -0.413
      -0.439
      -0.424
      -0.361
      -0.251
      -0.091
       0.133
       0.429
       0.774
       1.104
       1.340
       1.418
       1.311
       1.044
       0.688
       0.334
       0.053
      -0.121
      -0.185
      -0.153
      -0.050
