Origin Time       25/02/2009 04:04:21
Lat.              30.6 N 
Long.             79.3 E 
Depth (Km)         10.0
Magnitude         3.7
 Region           Uttarakhand                                                      
 Above details taken from IMD 
     
Station Code      CHA
Station Lat.       30.412  N
Station Long.      79.320  E
Station Height(m) 1578.0
Site Class        A   Vs30 between 700 m/sec to 1400 m/sec * 
Record Time       25.02.2009 04:04:12.284
Sampling Rate     200. Hz
 Record Duration   69.040 Sec.
 Direction         E-W (E positive)
Max. Acceleration      3.716 cm/sec**2
     
  * For reference see Site Classification link of website 
     
 Base Line Corrected and Low Pass Filtered (Cut Off at 35 Hz) Time History
 Acceleration data in cm/sec**2
    
[...]
       0.002
      -0.005
      -0.010
      -0.007
       0.000
       0.004
       0.003
      -0.001
      -0.003
      -0.003
      -0.002
      -0.003
      -0.009
      -0.014
      -0.015
      -0.011
      -0.007
      -0.005
      -0.003
      -0.002
      -0.001
      -0.002
      -0.002
       0.001
       0.005
       0.005
       0.000
      -0.008
      -0.016
      -0.018
      -0.012
       0.002
       0.015
       0.018
       0.012
       0.002
      -0.007
      -0.010
      -0.006
       0.000
       0.003
       0.003
       0.003
       0.005
       0.010
       0.013
       0.013
       0.010
       0.006
       0.002
      -0.003
      -0.006
      -0.009
      -0.010
      -0.011
      -0.012
      -0.012
      -0.012
      -0.010
      -0.009
      -0.009
      -0.010
      -0.011
      -0.008
      -0.002
       0.002
       0.002
      -0.001
      -0.008
      -0.016
      -0.020
      -0.017
      -0.007
       0.002
       0.006
       0.007
       0.007
       0.007
       0.006
       0.002
      -0.004
      -0.012
      -0.016
      -0.014
      -0.006
       0.002
       0.005
       0.001
      -0.007
      -0.013
      -0.013
      -0.008
      -0.006
      -0.009
      -0.013
      -0.013
      -0.006
      -0.001
      -0.002
      -0.007
      -0.012
      -0.011
      -0.008
      -0.003
       0.001
       0.002
       0.003
       0.005
       0.009
       0.011
       0.009
       0.007
       0.006
       0.008
       0.008
       0.006
       0.000
      -0.008
      -0.013
      -0.011
      -0.004
       0.002
       0.002
      -0.004
      -0.008
      -0.008
      -0.005
       0.000
       0.003
       0.006
       0.007
       0.007
       0.007
       0.006
       0.005
       0.005
       0.007
       0.008
       0.008
       0.004
       0.000
      -0.004
      -0.009
      -0.014
      -0.016
      -0.013
      -0.006
       0.000
       0.003
      -0.001
      -0.009
      -0.018
      -0.020
      -0.016
      -0.006
       0.006
       0.017
       0.021
       0.016
       0.005
      -0.004
      -0.008
      -0.007
      -0.004
      -0.002
      -0.004
      -0.008
      -0.010
      -0.007
       0.002
       0.012
       0.016
       0.014
       0.010
       0.004
      -0.001
      -0.004
      -0.005
      -0.004
      -0.001
       0.004
       0.009
       0.010
       0.004
      -0.004
      -0.010
      -0.011
      -0.006
       0.002
       0.008
       0.009
       0.004
       0.000
      -0.001
      -0.003
      -0.014
      -0.031
      -0.047
      -0.051
      -0.044
      -0.035
      -0.035
      -0.050
      -0.072
      -0.088
      -0.086
      -0.070
      -0.050
      -0.036
      -0.029
      -0.027
      -0.027
      -0.025
      -0.020
      -0.011
      -0.004
      -0.005
      -0.017
      -0.040
      -0.065
      -0.080
      -0.074
      -0.049
      -0.012
       0.028
       0.066
       0.100
       0.124
       0.123
       0.073
      -0.040
      -0.201
      -0.363
      -0.470
      -0.488
      -0.419
      -0.296
      -0.163
      -0.062
      -0.029
      -0.085
      -0.228
      -0.423
      -0.606
      -0.696
      -0.631
      -0.395
      -0.031
       0.389
       0.792
       1.124
       1.359
       1.484
       1.495
       1.397
       1.219
       1.013
       0.830
       0.689
       0.562
       0.395
       0.144
      -0.203
      -0.613
      -1.007
      -1.290
      -1.386
      -1.273
      -0.994
      -0.643
      -0.333
      -0.163
      -0.178
      -0.348
      -0.584
      -0.781
      -0.853
      -0.756
      -0.495
      -0.121
       0.288
       0.646
       0.890
       0.998
       0.988
       0.909
       0.812
       0.737
       0.699
       0.687
       0.661
       0.566
       0.365
       0.068
      -0.264
      -0.553
      -0.738
      -0.794
      -0.737
      -0.612
      -0.467
      -0.330
      -0.201
      -0.068
       0.065
       0.174
       0.244
       0.288
       0.360
       0.515
       0.771
       1.075
       1.318
       1.391
       1.237
       0.890
       0.460
       0.082
      -0.144
      -0.187
      -0.078
       0.115
       0.304
       0.398
       0.334
       0.101
      -0.248
      -0.630
      -0.963
      -1.197
      -1.318
      -1.334
      -1.263
      -1.123
      -0.934
      -0.730
      -0.556
      -0.452
      -0.428
      -0.465
      -0.527
      -0.580
      -0.603
      -0.585
      -0.522
      -0.410
      -0.263
      -0.111
       0.005
       0.064
       0.080
       0.083
       0.091
       0.090
       0.057
      -0.010
      -0.089
      -0.154
      -0.196
      -0.226
      -0.246
      -0.231
      -0.139
       0.044
       0.278
       0.492
       0.626
       0.669
       0.648
       0.603
       0.557
       0.512
       0.460
       0.397
       0.334
       0.294
       0.294
       0.320
       0.333
       0.281
       0.130
      -0.116
      -0.412
      -0.687
      -0.867
      -0.903
      -0.796
      -0.597
      -0.393
      -0.264
      -0.246
      -0.320
      -0.427
      -0.501
      -0.484
      -0.341
      -0.069
       0.295
       0.690
       1.047
       1.312
       1.464
       1.514
       1.491
       1.422
       1.317
       1.175
       0.998
       0.801
       0.603
       0.416
       0.237
       0.047
      -0.165
      -0.383
      -0.556
      -0.630
      -0.575
      -0.406
      -0.166
       0.093
       0.327
       0.504
       0.600
       0.596
       0.487
       0.294
       0.063
      -0.140
      -0.257
      -0.257
      -0.151
       0.010
       0.161
       0.249
       0.244
       0.138
      -0.057
      -0.308
      -0.564
      -0.774
      -0.918
      -1.001
      -1.047
      -1.078
      -1.116
      -1.180
      -1.271
      -1.369
      -1.440
      -1.454
      -1.394
      -1.256
      -1.045
      -0.774
      -0.472
      -0.178
       0.075
       0.271
       0.414
       0.516
       0.587
       0.636
       0.674
       0.713
       0.761
       0.820
       0.882
       0.933
       0.955
       0.932
       0.858
       0.737
       0.582
       0.407
       0.235
       0.101
       0.035
       0.049
       0.128
       0.236
       0.333
       0.391
       0.401
       0.367
       0.303
       0.220
       0.124
       0.019
      -0.089
      -0.197
      -0.303
      -0.396
      -0.472
      -0.525
      -0.560
      -0.577
      -0.577
      -0.561
      -0.541
      -0.529
      -0.539
      -0.568
      -0.592
      -0.579
      -0.503
      -0.366
      -0.195
      -0.028
       0.107
       0.195
       0.237
       0.246
       0.244
       0.259
       0.317
       0.429
       0.577
       0.719
       0.813
       0.840
       0.814
       0.757
       0.681
       0.585
       0.465
       0.320
       0.159
      -0.008
      -0.179
      -0.359
      -0.548
      -0.732
      -0.884
      -0.982
      -1.022
      -1.016
      -0.986
      -0.944
      -0.891
      -0.821
      -0.733
      -0.636
      -0.537
      -0.433
      -0.308
      -0.143
       0.067
       0.315
       0.583
       0.841
       1.057
       1.206
       1.278
       1.277
       1.208
       1.080
       0.903
       0.697
       0.489
       0.306
       0.174
       0.109
       0.110
       0.153
       0.196
       0.194
       0.126
       0.010
      -0.109
      -0.186
      -0.201
      -0.170
      -0.124
      -0.093
      -0.094
      -0.123
      -0.170
      -0.227
      -0.290
      -0.348
      -0.387
      -0.388
      -0.350
      -0.288
      -0.226
      -0.181
      -0.159
      -0.157
      -0.173
      -0.200
      -0.229
      -0.246
      -0.242
      -0.215
      -0.179
      -0.154
      -0.162
      -0.214
      -0.308
      -0.422
      -0.513
      -0.541
      -0.483
      -0.346
      -0.158
       0.042
       0.220
       0.357
       0.447
       0.500
       0.526
       0.537
       0.546
       0.568
       0.609
       0.657
       0.687
       0.680
       0.632
       0.556
       0.468
       0.379
       0.292
       0.209
       0.135
       0.072
       0.017
      -0.038
      -0.101
      -0.176
      -0.267
      -0.377
      -0.497
      -0.605
      -0.674
      -0.685
      -0.642
      -0.571
      -0.517
      -0.516
      -0.578
      -0.676
      -0.768
      -0.816
      -0.803
      -0.729
      -0.604
      -0.446
      -0.276
      -0.112
       0.033
       0.144
       0.214
       0.246
       0.253
       0.254
       0.265
       0.295
       0.350
       0.426
       0.511
       0.587
       0.630
       0.626
       0.571
       0.481
       0.376
       0.278
       0.210
       0.196
       0.252
       0.369
       0.506
       0.610
       0.640
       0.585
       0.467
       0.328
       0.208
       0.130
       0.093
       0.084
       0.089
       0.091
       0.076
       0.034
      -0.033
      -0.112
      -0.187
      -0.248
      -0.297
      -0.345
      -0.396
      -0.438
      -0.450
      -0.425
      -0.370
      -0.303
      -0.237
      -0.177
      -0.128
      -0.099
      -0.107
      -0.163
      -0.261
      -0.376
      -0.475
      -0.529
      -0.520
      -0.447
      -0.317
      -0.152
       0.014
       0.146
       0.216
       0.221
       0.178
       0.128
       0.112
       0.148
       0.218
       0.285
       0.316
       0.310
       0.289
       0.276
       0.282
       0.296
       0.303
       0.296
       0.281
       0.255
       0.204
       0.106
      -0.049
      -0.247
      -0.453
      -0.628
      -0.741
      -0.777
      -0.740
      -0.646
      -0.517
      -0.368
      -0.212
      -0.067
       0.046
       0.106
       0.111
       0.084
       0.066
       0.094
       0.179
       0.307
       0.447
       0.569
       0.636
       0.621
       0.514
       0.332
       0.118
      -0.067
      -0.161
      -0.134
      -0.010
       0.145
       0.257
       0.285
       0.227
       0.110
      -0.035
      -0.176
      -0.287
      -0.340
      -0.306
      -0.173
       0.039
       0.272
       0.454
       0.532
       0.492
       0.360
       0.182
       0.007
      -0.124
      -0.183
      -0.158
      -0.061
       0.073
       0.195
       0.259
       0.243
       0.152
       0.015
      -0.129
      -0.243
      -0.308
      -0.317
      -0.280
      -0.218
      -0.163
      -0.147
      -0.190
      -0.286
      -0.418
      -0.567
      -0.710
      -0.816
      -0.843
      -0.761
      -0.567
      -0.291
       0.006
       0.255
       0.403
       0.437
       0.377
       0.266
       0.153
       0.083
       0.088
       0.181
       0.350
       0.556
       0.728
       0.789
       0.685
       0.419
       0.051
      -0.331
      -0.645
      -0.838
      -0.884
      -0.781
      -0.554
      -0.256
       0.037
       0.259
       0.385
       0.434
       0.446
       0.441
       0.417
       0.365
       0.291
       0.213
       0.150
       0.105
       0.065
       0.001
      -0.111
      -0.269
      -0.433
      -0.532
      -0.504
      -0.331
      -0.051
       0.256
       0.507
       0.653
       0.693
       0.648
       0.551
       0.438
       0.350
       0.319
       0.344
       0.388
       0.398
       0.345
       0.244
       0.144
       0.091
       0.090
       0.103
       0.086
       0.020
      -0.068
      -0.130
      -0.130
      -0.060
       0.049
       0.142
       0.161
       0.064
      -0.158
      -0.484
      -0.865
      -1.243
      -1.565
      -1.793
      -1.908
      -1.897
      -1.754
      -1.478
      -1.072
      -0.559
       0.005
       0.530
       0.919
       1.119
       1.154
       1.116
       1.119
       1.245
       1.501
       1.813
       2.064
       2.160
       2.072
       1.837
       1.523
       1.195
       0.898
       0.664
       0.500
       0.384
       0.264
       0.080
      -0.201
      -0.562
      -0.947
      -1.284
      -1.517
      -1.616
      -1.585
      -1.467
      -1.333
      -1.266
      -1.321
      -1.497
      -1.733
      -1.931
      -1.997
      -1.866
      -1.517
      -0.972
      -0.314
       0.321
       0.780
       0.958
       0.844
       0.531
       0.159
      -0.134
      -0.261
      -0.209
      -0.031
       0.189
       0.369
       0.455
       0.427
       0.291
       0.078
      -0.164
      -0.394
      -0.593
      -0.777
      -0.969
      -1.183
      -1.401
      -1.592
      -1.721
      -1.773
      -1.737
      -1.602
      -1.350
      -0.967
      -0.454
       0.161
       0.814
       1.417
       1.886
       2.175
       2.296
       2.306
       2.279
       2.274
       2.315
       2.390
       2.470
       2.532
       2.570
       2.576
       2.546
       2.472
       2.345
       2.149
       1.855
       1.445
       0.930
       0.354
      -0.215
      -0.715
      -1.103
      -1.363
      -1.497
      -1.515
      -1.440
      -1.305
      -1.155
      -1.036
      -0.975
      -0.974
      -1.017
      -1.083
      -1.149
      -1.195
      -1.205
      -1.165
      -1.076
      -0.960
      -0.862
      -0.824
      -0.871
      -0.994
      -1.161
      -1.319
      -1.421
      -1.433
      -1.340
      -1.141
      -0.841
      -0.448
       0.031
       0.583
       1.181
       1.787
       2.364
       2.883
       3.318
       3.620
       3.716
       3.543
       3.088
       2.403
       1.574
       0.704
      -0.109
      -0.787
      -1.294
      -1.645
      -1.882
      -2.048
      -2.165
      -2.240
      -2.267
      -2.240
      -2.157
      -2.021
      -1.842
      -1.626
      -1.377
      -1.097
      -0.799
      -0.503
      -0.224
       0.043
       0.316
       0.605
       0.883
       1.104
       1.234
       1.274
       1.247
       1.180
       1.098
       1.025
       0.979
       0.958
       0.935
       0.869
       0.718
       0.462
       0.116
      -0.271
      -0.633
      -0.911
      -1.071
      -1.108
      -1.039
      -0.887
      -0.678
      -0.448
      -0.237
      -0.082
      -0.003
       0.002
      -0.058
      -0.170
      -0.314
      -0.460
      -0.585
      -0.674
      -0.729
      -0.742
      -0.693
      -0.554
      -0.308
       0.030
       0.411
       0.768
       1.041
       1.202
       1.251
       1.212
       1.111
       0.971
       0.815
       0.677
       0.601
       0.624
       0.738
       0.883
       0.974
       0.955
       0.826
       0.632
       0.423
       0.227
       0.054
      -0.092
      -0.202
      -0.255
      -0.239
      -0.162
      -0.052
       0.050
       0.116
       0.138
       0.130
       0.111
       0.093
       0.067
       0.015
      -0.081
      -0.236
      -0.454
      -0.727
      -1.030
      -1.321
      -1.553
      -1.691
      -1.708
      -1.595
      -1.364
      -1.054
      -0.718
      -0.401
      -0.127
       0.107
       0.316
       0.523
       0.734
       0.938
       1.105
       1.200
       1.192
       1.068
       0.838
       0.531
       0.185
      -0.164
      -0.474
      -0.709
      -0.848
      -0.891
      -0.854
      -0.763
      -0.638
      -0.497
      -0.348
      -0.181
       0.018
       0.255
       0.510
       0.739
       0.884
       0.898
       0.765
       0.514
       0.201
      -0.108
      -0.363
      -0.536
      -0.623
      -0.644
      -0.630
      -0.616
      -0.621
      -0.653
      -0.703
      -0.758
      -0.802
      -0.827
      -0.829
      -0.808
      -0.769
      -0.720
      -0.663
      -0.590
      -0.489
      -0.351
      -0.174
       0.035
       0.259
       0.467
       0.631
       0.733
       0.769
       0.742
       0.658
       0.532
       0.396
       0.303
       0.307
       0.439
       0.691
       1.014
       1.342
       1.624
       1.823
       1.915
       1.886
       1.743
       1.523
       1.278
       1.058
       0.891
       0.778
       0.704
       0.654
       0.612
       0.572
       0.519
       0.437
       0.305
       0.118
      -0.112
      -0.354
      -0.575
      -0.755
      -0.891
      -0.990
      -1.052
      -1.068
      -1.036
      -0.975
      -0.919
      -0.893
      -0.897
      -0.908
      -0.899
      -0.856
      -0.788
      -0.715
      -0.646
      -0.579
      -0.502
      -0.413
      -0.314
      -0.211
      -0.115
      -0.048
      -0.034
      -0.082
      -0.182
      -0.309
      -0.434
      -0.530
      -0.577
      -0.559
      -0.467
      -0.303
      -0.079
       0.176
       0.432
       0.666
       0.868
       1.028
       1.128
       1.150
       1.088
       0.961
       0.808
       0.666
       0.557
       0.485
       0.454
       0.469
       0.524
       0.593
       0.638
       0.635
       0.583
       0.497
       0.397
       0.289
       0.168
       0.021
      -0.158
      -0.356
      -0.547
      -0.701
      -0.805
      -0.862
      -0.889
      -0.909
      -0.937
      -0.981
      -1.032
      -1.077
      -1.106
      -1.109
      -1.075
      -0.997
      -0.874
      -0.715
      -0.539
      -0.371
      -0.235
      -0.155
      -0.145
      -0.210
      -0.342
      -0.514
      -0.697
      -0.870
      -1.021
      -1.141
      -1.211
      -1.209
      -1.121
      -0.956
      -0.736
      -0.496
      -0.266
      -0.059
       0.131
       0.328
       0.544
       0.774
       0.997
       1.191
       1.344
       1.458
       1.542
       1.601
       1.638
       1.660
       1.679
       1.708
       1.751
       1.792
       1.806
       1.767
       1.654
       1.466
       1.223
       0.956
       0.692
       0.449
       0.238
       0.061
      -0.087
      -0.223
      -0.360
      -0.503
      -0.642
      -0.763
      -0.846
      -0.883
      -0.875
      -0.831
      -0.765
      -0.689
      -0.617
      -0.558
      -0.510
      -0.457
      -0.377
      -0.264
      -0.136
      -0.026
       0.026
       0.002
      -0.091
      -0.213
      -0.319
      -0.377
      -0.379
      -0.330
      -0.246
      -0.146
      -0.056
      -0.004
      -0.007
      -0.066
      -0.158
      -0.246
      -0.294
      -0.289
      -0.238
      -0.155
      -0.055
       0.062
       0.194
       0.342
       0.500
       0.658
       0.803
       0.916
       0.978
       0.975
       0.910
       0.804
       0.688
       0.582
       0.489
       0.400
       0.291
       0.136
      -0.079
      -0.339
      -0.601
      -0.821
      -0.973
      -1.056
      -1.091
      -1.099
      -1.099
      -1.094
      -1.089
      -1.087
      -1.092
      -1.095
      -1.079
      -1.028
      -0.934
      -0.800
      -0.629
      -0.430
      -0.216
      -0.002
       0.191
       0.343
       0.447
       0.503
       0.517
       0.495
       0.440
       0.361
       0.266
       0.164
       0.064
      -0.017
      -0.054
      -0.031
       0.048
       0.154
       0.254
       0.322
       0.344
       0.331
       0.304
       0.288
       0.292
       0.310
       0.327
       0.326
       0.300
       0.244
       0.166
       0.075
      -0.013
      -0.080
