Origin Time       04/04/2011 11:31:40 UTC
Lat.              29.6 N	
Long.             80.8 E	
Depth (Km)         10.0
Magnitude         5.7
 Region           NEPAL-INDIA-BORDER-REGION                                        
 Above details taken from IMD 
    
Station Code      CHA
Station Lat.       30.412  N
Station Long.      79.320  E
Station Height(m) 1578.0
Site Class        A   Vs30 between 700 m/sec to 1400 m/sec * 
Record Time       04.04.2011 11:28:37.334 UTC
Sampling Rate     200. Hz
 Record Duration  137.790 Sec.
 Direction         N-S (N positive)
Max. Acceleration    -17.466 cm/sec**2
     
  * For reference see Site Classification link of website 
     
 Base Line Corrected and Low Pass Filtered (Cut Off at 35 Hz) Time History
 Acceleration data in cm/sec**2
    
[...]
       0.864
       0.807
       0.741
       0.662
       0.588
       0.542
       0.517
       0.490
       0.457
       0.431
       0.406
       0.368
       0.323
       0.293
       0.277
       0.268
       0.276
       0.319
       0.384
       0.442
       0.487
       0.536
       0.593
       0.647
       0.710
       0.801
       0.919
       1.042
       1.161
       1.265
       1.320
       1.288
       1.173
       1.004
       0.794
       0.538
       0.250
      -0.038
      -0.317
      -0.587
      -0.835
      -1.041
      -1.212
      -1.366
      -1.497
      -1.590
      -1.645
      -1.670
      -1.650
      -1.571
      -1.447
      -1.311
      -1.169
      -1.010
      -0.842
      -0.671
      -0.484
      -0.264
      -0.024
       0.212
       0.439
       0.660
       0.851
       0.988
       1.079
       1.153
       1.214
       1.253
       1.275
       1.291
       1.286
       1.242
       1.162
       1.062
       0.927
       0.733
       0.488
       0.221
      -0.056
      -0.344
      -0.625
      -0.874
      -1.090
      -1.284
      -1.453
      -1.583
      -1.682
      -1.760
      -1.803
      -1.785
      -1.707
      -1.588
      -1.432
      -1.240
      -1.033
      -0.836
      -0.652
      -0.472
      -0.308
      -0.175
      -0.064
       0.038
       0.123
       0.179
       0.217
       0.247
       0.256
       0.225
       0.169
       0.115
       0.070
       0.030
       0.012
       0.033
       0.080
       0.132
       0.192
       0.270
       0.353
       0.427
       0.503
       0.602
       0.718
       0.835
       0.955
       1.090
       1.231
       1.371
       1.520
       1.691
       1.869
       2.026
       2.163
       2.290
       2.399
       2.474
       2.520
       2.549
       2.549
       2.495
       2.387
       2.237
       2.043
       1.796
       1.519
       1.246
       0.981
       0.709
       0.430
       0.166
      -0.071
      -0.277
      -0.435
      -0.538
      -0.608
      -0.683
      -0.768
      -0.859
      -0.961
      -1.089
      -1.233
      -1.373
      -1.507
      -1.640
      -1.753
      -1.825
      -1.854
      -1.848
      -1.798
      -1.699
      -1.571
      -1.433
      -1.285
      -1.122
      -0.958
      -0.808
      -0.663
      -0.510
      -0.365
      -0.249
      -0.161
      -0.097
      -0.074
      -0.103
      -0.162
      -0.229
      -0.303
      -0.389
      -0.472
      -0.537
      -0.596
      -0.665
      -0.732
      -0.778
      -0.804
      -0.814
      -0.792
      -0.722
      -0.619
      -0.512
      -0.411
      -0.320
      -0.262
      -0.252
      -0.280
      -0.329
      -0.399
      -0.495
      -0.595
      -0.674
      -0.735
      -0.793
      -0.849
      -0.899
      -0.958
      -1.037
      -1.125
      -1.208
      -1.286
      -1.364
      -1.424
      -1.449
      -1.445
      -1.418
      -1.360
      -1.266
      -1.155
      -1.051
      -0.954
      -0.857
      -0.761
      -0.660
      -0.526
      -0.339
      -0.120
       0.095
       0.293
       0.473
       0.624
       0.735
       0.818
       0.889
       0.941
       0.962
       0.967
       0.972
       0.973
       0.953
       0.917
       0.876
       0.825
       0.754
       0.679
       0.628
       0.609
       0.620
       0.669
       0.762
       0.879
       0.992
       1.102
       1.222
       1.345
       1.461
       1.579
       1.709
       1.840
       1.949
       2.033
       2.094
       2.124
       2.127
       2.132
       2.165
       2.220
       2.285
       2.370
       2.493
       2.643
       2.797
       2.947
       3.097
       3.230
       3.325
       3.386
       3.425
       3.439
       3.421
       3.388
       3.353
       3.302
       3.207
       3.067
       2.898
       2.705
       2.483
       2.248
       2.018
       1.786
       1.539
       1.291
       1.063
       0.849
       0.629
       0.406
       0.186
      -0.041
      -0.283
      -0.530
      -0.763
      -0.986
      -1.211
      -1.430
      -1.640
      -1.857
      -2.096
      -2.341
      -2.578
      -2.814
      -3.058
      -3.300
      -3.529
      -3.753
      -3.983
      -4.208
      -4.422
      -4.641
      -4.874
      -5.109
      -5.332
      -5.548
      -5.760
      -5.943
      -6.074
      -6.153
      -6.181
      -6.144
      -6.038
      -5.886
      -5.707
      -5.490
      -5.222
      -4.909
      -4.563
      -4.186
      -3.794
      -3.425
      -3.107
      -2.836
      -2.602
      -2.415
      -2.286
      -2.197
      -2.131
      -2.091
      -2.073
      -2.050
      -1.991
      -1.886
      -1.724
      -1.484
      -1.158
      -0.775
      -0.370
       0.052
       0.498
       0.956
       1.411
       1.864
       2.320
       2.764
       3.175
       3.552
       3.900
       4.207
       4.459
       4.665
       4.833
       4.940
       4.963
       4.921
       4.856
       4.790
       4.726
       4.676
       4.652
       4.639
       4.618
       4.591
       4.575
       4.567
       4.550
       4.526
       4.505
       4.472
       4.408
       4.313
       4.203
       4.084
       3.956
       3.841
       3.757
       3.698
       3.650
       3.623
       3.630
       3.654
       3.676
       3.696
       3.721
       3.733
       3.711
       3.650
       3.553
       3.397
       3.165
       2.870
       2.538
       2.176
       1.787
       1.399
       1.031
       0.673
       0.308
      -0.056
      -0.408
      -0.762
      -1.136
      -1.518
      -1.889
      -2.252
      -2.618
      -2.977
      -3.325
      -3.682
      -4.064
      -4.460
      -4.853
      -5.247
      -5.648
      -6.042
      -6.415
      -6.766
      -7.086
      -7.340
      -7.509
      -7.609
      -7.664
      -7.674
      -7.636
      -7.556
      -7.443
      -7.286
      -7.087
      -6.868
      -6.644
      -6.412
      -6.171
      -5.942
      -5.736
      -5.541
      -5.347
      -5.167
      -5.008
      -4.847
      -4.664
      -4.462
      -4.251
      -4.018
      -3.749
      -3.442
      -3.104
      -2.724
      -2.301
      -1.854
      -1.391
      -0.892
      -0.347
       0.215
       0.759
       1.274
       1.751
       2.166
       2.499
       2.758
       2.958
       3.098
       3.184
       3.254
       3.336
       3.422
       3.497
       3.574
       3.673
       3.793
       3.928
       4.104
       4.349
       4.659
       5.011
       5.402
       5.837
       6.306
       6.789
       7.287
       7.801
       8.305
       8.763
       9.157
       9.476
       9.707
       9.854
       9.952
      10.012
       9.993
       9.849
       9.590
       9.259
       8.867
       8.397
       7.857
       7.274
       6.661
       6.032
       5.415
       4.845
       4.318
       3.812
       3.329
       2.882
       2.468
       2.081
       1.734
       1.442
       1.186
       0.939
       0.692
       0.443
       0.180
      -0.108
      -0.403
      -0.688
      -0.966
      -1.237
      -1.489
      -1.724
      -1.973
      -2.258
      -2.558
      -2.846
      -3.119
      -3.385
      -3.640
      -3.886
      -4.147
      -4.437
      -4.746
      -5.067
      -5.415
      -5.795
      -6.184
      -6.567
      -6.951
      -7.342
      -7.723
      -8.089
      -8.460
      -8.844
      -9.222
      -9.572
      -9.894
     -10.178
     -10.396
     -10.530
     -10.585
     -10.564
     -10.453
     -10.259
     -10.010
      -9.723
      -9.395
      -9.035
      -8.679
      -8.357
      -8.073
      -7.836
      -7.666
      -7.561
      -7.481
      -7.395
      -7.299
      -7.196
      -7.076
      -6.933
      -6.772
      -6.585
      -6.343
      -6.036
      -5.676
      -5.271
      -4.803
      -4.260
      -3.653
      -2.987
      -2.262
      -1.493
      -0.712
       0.067
       0.858
       1.665
       2.471
       3.261
       4.049
       4.838
       5.612
       6.354
       7.069
       7.757
       8.394
       8.965
       9.483
       9.959
      10.372
      10.700
      10.950
      11.141
      11.269
      11.328
      11.337
      11.323
      11.284
      11.204
      11.093
      10.972
      10.842
      10.694
      10.540
      10.403
      10.281
      10.163
      10.055
       9.972
       9.905
       9.841
       9.788
       9.757
       9.723
       9.646
       9.512
       9.322
       9.061
       8.718
       8.299
       7.818
       7.269
       6.653
       5.999
       5.332
       4.648
       3.942
       3.236
       2.559
       1.910
       1.287
       0.712
       0.195
      -0.288
      -0.764
      -1.231
      -1.680
      -2.125
      -2.575
      -3.015
      -3.435
      -3.855
      -4.289
      -4.728
      -5.169
      -5.633
      -6.132
      -6.650
      -7.172
      -7.692
      -8.184
      -8.606
      -8.935
      -9.174
      -9.319
      -9.351
      -9.279
      -9.141
      -8.964
      -8.750
      -8.511
      -8.274
      -8.049
      -7.828
      -7.612
      -7.420
      -7.243
      -7.053
      -6.843
      -6.639
      -6.458
      -6.293
      -6.148
      -6.032
      -5.927
      -5.790
      -5.596
      -5.348
      -5.038
      -4.644
      -4.162
      -3.615
      -3.005
      -2.310
      -1.521
      -0.661
       0.239
       1.157
       2.069
       2.952
       3.817
       4.698
       5.606
       6.507
       7.367
       8.184
       8.954
       9.654
      10.261
      10.773
      11.184
      11.460
      11.569
      11.519
      11.335
      11.020
      10.577
      10.035
       9.430
       8.779
       8.089
       7.394
       6.729
       6.100
       5.502
       4.945
       4.448
       3.998
       3.571
       3.162
       2.777
       2.416
       2.090
       1.823
       1.624
       1.469
       1.328
       1.194
       1.067
       0.932
       0.775
       0.591
       0.364
       0.071
      -0.279
      -0.653
      -1.035
      -1.444
      -1.894
      -2.369
      -2.855
      -3.359
      -3.877
      -4.390
      -4.893
      -5.394
      -5.887
      -6.350
      -6.781
      -7.209
      -7.646
      -8.080
      -8.514
      -8.968
      -9.455
      -9.967
     -10.511
     -11.099
     -11.722
     -12.347
     -12.954
     -13.545
     -14.106
     -14.611
     -15.057
     -15.455
     -15.798
     -16.059
     -16.221
     -16.283
     -16.236
     -16.054
     -15.735
     -15.294
     -14.734
     -14.044
     -13.231
     -12.321
     -11.333
     -10.268
      -9.136
      -7.966
      -6.777
      -5.579
      -4.391
      -3.241
      -2.143
      -1.098
      -0.129
       0.727
       1.449
       2.045
       2.529
       2.909
       3.213
       3.485
       3.748
       4.000
       4.243
       4.508
       4.821
       5.183
       5.590
       6.054
       6.578
       7.145
       7.739
       8.358
       8.989
       9.598
      10.156
      10.665
      11.138
      11.571
      11.956
      12.306
      12.624
      12.887
      13.065
      13.155
      13.166
      13.096
      12.947
      12.746
      12.521
      12.270
      11.983
      11.671
      11.356
      11.037
      10.710
      10.383
      10.064
       9.737
       9.387
       9.018
       8.632
       8.210
       7.740
       7.248
       6.773
       6.334
       5.952
       5.662
       5.492
       5.435
       5.478
       5.628
       5.887
       6.235
       6.650
       7.122
       7.621
       8.087
       8.469
       8.751
       8.923
       8.954
       8.827
       8.562
       8.186
       7.698
       7.096
       6.404
       5.645
       4.823
       3.938
       3.011
       2.053
       1.039
      -0.043
      -1.168
      -2.302
      -3.436
      -4.566
      -5.662
      -6.694
      -7.655
      -8.553
      -9.390
     -10.183
     -10.962
     -11.740
     -12.504
     -13.239
     -13.941
     -14.600
     -15.190
     -15.690
     -16.090
     -16.374
     -16.525
     -16.556
     -16.501
     -16.383
     -16.205
     -15.985
     -15.756
     -15.537
     -15.332
     -15.149
     -15.002
     -14.888
     -14.791
     -14.711
     -14.658
     -14.620
     -14.562
     -14.455
     -14.278
     -13.991
     -13.544
     -12.920
     -12.128
     -11.175
     -10.055
      -8.779
      -7.371
      -5.846
      -4.208
      -2.476
      -0.685
       1.135
       2.964
       4.758
       6.458
       8.023
       9.441
      10.707
      11.806
      12.739
      13.517
      14.137
      14.568
      14.793
      14.837
      14.729
      14.482
      14.114
      13.687
      13.269
      12.892
      12.570
      12.336
      12.220
      12.215
      12.298
      12.459
      12.693
      12.966
      13.235
      13.497
      13.766
      14.038
      14.288
      14.496
      14.638
      14.670
      14.548
      14.256
      13.790
      13.136
      12.298
      11.321
      10.261
       9.141
       7.972
       6.775
       5.577
       4.385
       3.212
       2.090
       1.047
       0.085
      -0.800
      -1.589
      -2.264
      -2.838
      -3.337
      -3.790
      -4.243
      -4.763
      -5.388
      -6.103
      -6.876
      -7.696
      -8.552
      -9.423
     -10.292
     -11.155
     -11.998
     -12.800
     -13.566
     -14.322
     -15.066
     -15.753
     -16.342
     -16.822
     -17.186
     -17.411
     -17.466
     -17.322
     -16.951
     -16.352
     -15.594
     -14.796
     -14.041
     -13.345
     -12.682
     -12.023
     -11.347
     -10.650
      -9.951
      -9.268
      -8.581
      -7.840
      -7.025
      -6.154
      -5.239
      -4.281
      -3.289
      -2.284
      -1.272
      -0.244
       0.792
       1.796
       2.746
       3.639
       4.471
       5.226
       5.907
       6.535
       7.109
       7.597
       7.972
       8.245
       8.425
       8.493
       8.441
       8.289
       8.071
       7.796
       7.472
       7.124
       6.764
       6.377
       5.949
       5.501
       5.057
       4.610
       4.141
       3.650
       3.143
       2.615
       2.072
       1.544
       1.058
       0.617
       0.225
      -0.106
      -0.371
      -0.580
      -0.741
      -0.856
      -0.942
      -1.020
      -1.083
      -1.104
      -1.078
      -1.027
      -0.973
      -0.930
      -0.921
      -0.972
      -1.079
      -1.222
      -1.396
      -1.599
      -1.801
      -1.947
      -2.008
      -1.980
      -1.854
      -1.607
      -1.236
      -0.751
      -0.151
       0.568
       1.384
       2.250
       3.147
       4.084
       5.057
       6.033
       6.992
       7.930
       8.815
       9.581
      10.180
      10.614
      10.889
      10.982
      10.869
      10.557
      10.056
       9.364
       8.499
       7.529
       6.524
       5.505
       4.478
       3.471
       2.519
       1.628
       0.803
       0.066
      -0.573
      -1.147
      -1.701
      -2.250
      -2.786
      -3.301
      -3.768
      -4.150
      -4.431
      -4.633
      -4.779
      -4.876
      -4.943
      -5.018
      -5.139
      -5.329
      -5.600
      -5.942
      -6.300
      -6.605
      -6.825
      -6.953
      -6.974
      -6.866
      -6.624
      -6.257
      -5.761
      -5.138
      -4.433
      -3.714
      -3.023
      -2.372
      -1.781
      -1.263
      -0.807
      -0.392
      -0.027
       0.259
       0.463
       0.604
       0.680
       0.667
       0.574
       0.451
       0.339
       0.249
       0.199
       0.216
       0.304
       0.442
       0.632
       0.909
       1.294
       1.767
       2.302
       2.889
       3.507
       4.118
       4.694
       5.231
       5.714
       6.121
       6.455
       6.747
       7.002
       7.188
       7.265
       7.207
       6.985
       6.582
       6.028
       5.393
       4.731
       4.059
       3.390
       2.754
       2.166
       1.621
       1.128
       0.718
       0.398
       0.135
      -0.114
      -0.375
      -0.681
      -1.072
      -1.570
      -2.167
      -2.859
      -3.640
      -4.471
      -5.302
      -6.112
      -6.912
      -7.697
      -8.428
      -9.071
      -9.614
     -10.049
     -10.376
     -10.619
     -10.812
     -10.955
     -11.020
     -10.989
     -10.853
     -10.599
     -10.231
      -9.792
      -9.330
      -8.857
      -8.359
      -7.840
      -7.311
      -6.758
      -6.152
      -5.491
      -4.785
      -4.026
      -3.198
      -2.314
      -1.399
      -0.463
       0.497
       1.467
       2.419
       3.339
       4.214
       5.014
       5.718
       6.356
       6.971
       7.553
       8.028
       8.337
       8.472
       8.450
       8.292
       8.040
       7.750
       7.444
       7.124
       6.816
       6.584
       6.468
       6.449
       6.488
       6.569
       6.681
       6.803
       6.921
       7.038
       7.144
       7.215
       7.244
       7.262
       7.285
       7.299
       7.284
       7.244
       7.189
       7.125
       7.071
       7.055
       7.077
       7.110
       7.146
       7.208
       7.296
       7.369
       7.380
       7.299
       7.101
       6.763
       6.301
       5.756
       5.149
       4.473
       3.732
       2.950
       2.125
       1.240
       0.300
      -0.665
      -1.645
      -2.649
      -3.673
      -4.695
      -5.714
      -6.736
      -7.743
      -8.691
      -9.554
     -10.320
     -10.969
     -11.486
     -11.882
     -12.177
     -12.364
     -12.424
     -12.364
     -12.207
     -11.956
     -11.614
     -11.208
     -10.777
     -10.331
      -9.877
      -9.441
      -9.049
      -8.699
      -8.374
      -8.079
      -7.822
      -7.582
      -7.326
      -7.046
      -6.745
      -6.408
      -6.021
      -5.598
      -5.162
      -4.714
      -4.248
      -3.782
      -3.349
      -2.950
      -2.569
      -2.210
      -1.882
      -1.579
      -1.282
      -0.994
      -0.732
      -0.496
      -0.270
      -0.056
       0.131
       0.300
       0.476
       0.666
       0.862
       1.071
       1.307
       1.563
       1.807
       2.017
       2.189
       2.306
       2.346
       2.305
       2.194
       2.008
       1.738
       1.408
       1.066
       0.750
       0.475
       0.257
       0.108
       0.018
      -0.040
      -0.075
      -0.078
      -0.054
      -0.012
       0.055
       0.167
       0.327
       0.531
       0.783
       1.092
       1.446
       1.826
       2.233
       2.665
       3.093
       3.487
       3.844
       4.179
       4.495
       4.794
       5.109
       5.477
       5.897
       6.338
       6.791
       7.259
       7.732
       8.179
       8.601
       9.026
       9.464
       9.901
      10.334
      10.779
      11.230
      11.658
      12.055
      12.439
      12.812
      13.142
      13.407
      13.616
      13.772
      13.857
      13.858
      13.774
      13.591
      13.277
      12.823
      12.246
      11.549
      10.709
       9.720
       8.609
       7.404
       6.121
       4.784
       3.436
       2.102
       0.783
      -0.511
      -1.754
      -2.939
      -4.077
      -5.166
      -6.184
