Origin Time       18/9/2011 12:40:47	
Lat.              27.6 N	
Long.             88.2 E	
Depth (Km)         10.0
Magnitude         6.8
 Region           India(Sikkim)-Nepar-Border                                       
 Above details taken from IMD 
     
Station Code      CMO
Station Lat.       30.412  N
Station Long.      79.320  E
Station Height(m) 1578.0
Site Class        A   Vs30 between 700 m/sec to 1400 m/sec * 
Record Time       18.09.2011 12:43:51.969
Sampling Rate     200. Hz
 Record Duration   92.255 Sec.
 Direction         E-W (E positive)
Max. Acceleration      1.700 cm/sec**2
     
  * For reference see Site Classification link of website 
     
 Base Line Corrected and Low Pass Filtered (Cut Off at 35 Hz) Time History
 Acceleration data in cm/sec**2
    
[...]
       0.185
       0.178
       0.143
       0.097
       0.062
       0.046
       0.046
       0.058
       0.084
       0.120
       0.155
       0.176
       0.182
       0.188
       0.209
       0.252
       0.318
       0.399
       0.478
       0.537
       0.563
       0.559
       0.543
       0.530
       0.525
       0.521
       0.514
       0.503
       0.490
       0.472
       0.440
       0.397
       0.359
       0.344
       0.356
       0.388
       0.429
       0.468
       0.496
       0.501
       0.481
       0.449
       0.425
       0.421
       0.437
       0.469
       0.511
       0.553
       0.582
       0.583
       0.553
       0.504
       0.458
       0.432
       0.427
       0.433
       0.440
       0.438
       0.420
       0.377
       0.310
       0.230
       0.150
       0.073
       0.003
      -0.055
      -0.100
      -0.142
      -0.197
      -0.274
      -0.368
      -0.461
      -0.535
      -0.582
      -0.613
      -0.641
      -0.680
      -0.740
      -0.824
      -0.925
      -1.030
      -1.122
      -1.200
      -1.266
      -1.321
      -1.358
      -1.380
      -1.399
      -1.428
      -1.471
      -1.514
      -1.538
      -1.531
      -1.490
      -1.425
      -1.356
      -1.302
      -1.275
      -1.272
      -1.273
      -1.257
      -1.212
      -1.140
      -1.050
      -0.947
      -0.834
      -0.722
      -0.627
      -0.558
      -0.510
      -0.468
      -0.420
      -0.361
      -0.293
      -0.222
      -0.160
      -0.124
      -0.119
      -0.134
      -0.146
      -0.137
      -0.105
      -0.058
      -0.004
       0.054
       0.113
       0.161
       0.187
       0.192
       0.189
       0.195
       0.215
       0.248
       0.285
       0.318
       0.335
       0.332
       0.314
       0.297
       0.294
       0.308
       0.337
       0.383
       0.446
       0.517
       0.579
       0.615
       0.621
       0.615
       0.619
       0.644
       0.684
       0.722
       0.745
       0.748
       0.726
       0.685
       0.640
       0.608
       0.596
       0.600
       0.621
       0.658
       0.703
       0.740
       0.752
       0.735
       0.705
       0.682
       0.679
       0.697
       0.724
       0.750
       0.762
       0.752
       0.716
       0.663
       0.611
       0.574
       0.551
       0.539
       0.538
       0.545
       0.548
       0.530
       0.486
       0.432
       0.388
       0.364
       0.359
       0.367
       0.378
       0.385
       0.379
       0.353
       0.307
       0.259
       0.224
       0.212
       0.219
       0.239
       0.265
       0.288
       0.293
       0.272
       0.228
       0.177
       0.135
       0.106
       0.087
       0.070
       0.046
       0.003
      -0.065
      -0.153
      -0.243
      -0.320
      -0.374
      -0.402
      -0.402
      -0.374
      -0.326
      -0.276
      -0.247
      -0.250
      -0.275
      -0.301
      -0.311
      -0.308
      -0.298
      -0.295
      -0.311
      -0.354
      -0.419
      -0.487
      -0.536
      -0.564
      -0.577
      -0.585
      -0.591
      -0.593
      -0.595
      -0.605
      -0.628
      -0.661
      -0.688
      -0.694
      -0.674
      -0.634
      -0.594
      -0.574
      -0.592
      -0.642
      -0.701
      -0.747
      -0.773
      -0.792
      -0.811
      -0.821
      -0.812
      -0.785
      -0.755
      -0.732
      -0.716
      -0.694
      -0.652
      -0.581
      -0.490
      -0.398
      -0.323
      -0.277
      -0.266
      -0.280
      -0.299
      -0.301
      -0.283
      -0.258
      -0.234
      -0.212
      -0.190
      -0.176
      -0.179
      -0.199
      -0.223
      -0.235
      -0.226
      -0.199
      -0.161
      -0.120
      -0.083
      -0.058
      -0.048
      -0.046
      -0.037
      -0.013
       0.029
       0.088
       0.166
       0.257
       0.341
       0.393
       0.408
       0.405
       0.412
       0.447
       0.508
       0.583
       0.659
       0.723
       0.763
       0.779
       0.779
       0.780
       0.797
       0.830
       0.877
       0.938
       1.011
       1.090
       1.157
       1.201
       1.226
       1.249
       1.287
       1.344
       1.415
       1.485
       1.538
       1.556
       1.534
       1.486
       1.441
       1.413
       1.400
       1.387
       1.368
       1.342
       1.311
       1.269
       1.201
       1.102
       0.979
       0.849
       0.726
       0.611
       0.501
       0.393
       0.281
       0.157
       0.019
      -0.117
      -0.231
      -0.313
      -0.366
      -0.395
      -0.406
      -0.407
      -0.419
      -0.459
      -0.532
      -0.624
      -0.713
      -0.779
      -0.821
      -0.847
      -0.871
      -0.902
      -0.950
      -1.014
      -1.083
      -1.139
      -1.177
      -1.203
      -1.223
      -1.233
      -1.227
      -1.212
      -1.200
      -1.202
      -1.212
      -1.212
      -1.186
      -1.128
      -1.045
      -0.959
      -0.891
      -0.855
      -0.851
      -0.863
      -0.867
      -0.853
      -0.823
      -0.788
      -0.749
      -0.700
      -0.646
      -0.606
      -0.595
      -0.611
      -0.636
      -0.652
      -0.652
      -0.638
      -0.619
      -0.604
      -0.602
      -0.618
      -0.644
      -0.665
      -0.668
      -0.650
      -0.613
      -0.561
      -0.492
      -0.406
      -0.317
      -0.242
      -0.187
      -0.141
      -0.084
      -0.006
       0.091
       0.194
       0.287
       0.354
       0.383
       0.379
       0.361
       0.348
       0.345
       0.348
       0.351
       0.358
       0.371
       0.384
       0.387
       0.375
       0.358
       0.351
       0.366
       0.404
       0.454
       0.507
       0.552
       0.573
       0.565
       0.538
       0.513
       0.505
       0.512
       0.532
       0.564
       0.609
       0.656
       0.690
       0.698
       0.680
       0.649
       0.624
       0.615
       0.619
       0.630
       0.634
       0.623
       0.592
       0.550
       0.514
       0.497
       0.496
       0.502
       0.513
       0.529
       0.548
       0.556
       0.541
       0.505
       0.467
       0.445
       0.455
       0.492
       0.542
       0.582
       0.595
       0.576
       0.530
       0.473
       0.418
       0.367
       0.319
       0.279
       0.259
       0.261
       0.269
       0.257
       0.217
       0.166
       0.133
       0.133
       0.164
       0.214
       0.263
       0.294
       0.292
       0.254
       0.191
       0.120
       0.051
      -0.018
      -0.089
      -0.163
      -0.231
      -0.295
      -0.362
      -0.440
      -0.525
      -0.600
      -0.645
      -0.657
      -0.644
      -0.620
      -0.603
      -0.606
      -0.633
      -0.671
      -0.699
      -0.704
      -0.685
      -0.649
      -0.598
      -0.537
      -0.473
      -0.423
      -0.402
      -0.411
      -0.438
      -0.461
      -0.471
      -0.471
      -0.473
      -0.488
      -0.522
      -0.576
      -0.638
      -0.687
      -0.706
      -0.698
      -0.672
      -0.633
      -0.585
      -0.534
      -0.495
      -0.483
      -0.494
      -0.515
      -0.526
      -0.519
      -0.493
      -0.455
      -0.414
      -0.378
      -0.357
      -0.354
      -0.357
      -0.347
      -0.314
      -0.260
      -0.193
      -0.118
      -0.041
       0.023
       0.063
       0.075
       0.072
       0.069
       0.080
       0.116
       0.181
       0.262
       0.325
       0.339
       0.297
       0.232
       0.190
       0.199
       0.249
       0.309
       0.360
       0.406
       0.452
       0.493
       0.513
       0.507
       0.489
       0.480
       0.489
       0.516
       0.549
       0.575
       0.580
       0.558
       0.515
       0.467
       0.431
       0.411
       0.399
       0.386
       0.369
       0.346
       0.314
       0.268
       0.213
       0.164
       0.137
       0.134
       0.149
       0.176
       0.205
       0.224
       0.217
       0.182
       0.132
       0.085
       0.052
       0.038
       0.040
       0.055
       0.073
       0.076
       0.049
      -0.008
      -0.077
      -0.129
      -0.148
      -0.135
      -0.106
      -0.074
      -0.051
      -0.048
      -0.067
      -0.099
      -0.130
      -0.152
      -0.168
      -0.177
      -0.177
      -0.169
      -0.167
      -0.181
      -0.213
      -0.250
      -0.274
      -0.268
      -0.227
      -0.162
      -0.094
      -0.044
      -0.026
      -0.037
      -0.064
      -0.085
      -0.097
      -0.109
      -0.132
      -0.163
      -0.192
      -0.220
      -0.260
      -0.323
      -0.402
      -0.476
      -0.525
      -0.542
      -0.529
      -0.499
      -0.464
      -0.437
      -0.430
      -0.439
      -0.449
      -0.445
      -0.424
      -0.399
      -0.384
      -0.381
      -0.386
      -0.400
      -0.425
      -0.455
      -0.478
      -0.475
      -0.434
      -0.354
      -0.243
      -0.124
      -0.019
       0.055
       0.100
       0.130
       0.160
       0.196
       0.237
       0.280
       0.328
       0.378
       0.420
       0.439
       0.434
       0.418
       0.414
       0.441
       0.500
       0.582
       0.673
       0.753
       0.805
       0.825
       0.826
       0.828
       0.838
       0.855
       0.876
       0.905
       0.939
       0.970
       0.982
       0.969
       0.932
       0.885
       0.842
       0.810
       0.786
       0.764
       0.734
       0.689
       0.625
       0.552
       0.491
       0.454
       0.437
       0.433
       0.442
       0.471
       0.515
       0.557
       0.580
       0.580
       0.566
       0.553
       0.548
       0.549
       0.551
       0.544
       0.516
       0.454
       0.358
       0.244
       0.136
       0.046
      -0.026
      -0.084
      -0.127
      -0.160
      -0.200
      -0.260
      -0.342
      -0.427
      -0.497
      -0.543
      -0.567
      -0.579
      -0.586
      -0.598
      -0.626
      -0.675
      -0.737
      -0.792
      -0.822
      -0.819
      -0.789
      -0.742
      -0.689
      -0.644
      -0.617
      -0.607
      -0.601
      -0.579
      -0.528
      -0.447
      -0.342
      -0.228
      -0.127
      -0.056
      -0.015
       0.014
       0.050
       0.101
       0.160
       0.217
       0.272
       0.326
       0.376
       0.411
       0.422
       0.414
       0.404
       0.409
       0.435
       0.471
       0.503
       0.515
       0.493
       0.435
       0.353
       0.264
       0.178
       0.093
       0.005
      -0.083
      -0.163
      -0.240
      -0.328
      -0.442
      -0.581
      -0.727
      -0.855
      -0.953
      -1.021
      -1.070
      -1.112
      -1.159
      -1.221
      -1.297
      -1.370
      -1.422
      -1.448
      -1.459
      -1.461
      -1.451
      -1.433
      -1.419
      -1.426
      -1.458
      -1.503
      -1.539
      -1.545
      -1.513
      -1.449
      -1.363
      -1.266
      -1.168
      -1.077
      -0.991
      -0.899
      -0.793
      -0.675
      -0.548
      -0.415
      -0.281
      -0.157
      -0.058
       0.012
       0.067
       0.125
       0.200
       0.295
       0.402
       0.508
       0.598
       0.662
       0.697
       0.714
       0.727
       0.749
       0.781
       0.821
       0.867
       0.919
       0.969
       1.002
       1.004
       0.982
       0.951
       0.928
       0.920
       0.927
       0.944
       0.961
       0.968
       0.958
       0.940
       0.932
       0.947
       0.983
       1.031
       1.083
       1.138
       1.194
       1.234
       1.238
       1.195
       1.112
       1.016
       0.930
       0.864
       0.817
       0.784
       0.757
       0.728
       0.693
       0.663
       0.650
       0.657
       0.676
       0.696
       0.710
       0.716
       0.710
       0.682
       0.628
       0.557
       0.491
       0.451
       0.443
       0.453
       0.462
       0.452
       0.411
       0.333
       0.226
       0.112
       0.009
      -0.077
      -0.140
      -0.178
      -0.188
      -0.177
      -0.164
      -0.160
      -0.166
      -0.172
      -0.163
      -0.129
      -0.072
      -0.008
       0.043
       0.060
       0.037
      -0.012
      -0.061
      -0.092
      -0.107
      -0.117
      -0.129
      -0.134
      -0.126
      -0.112
      -0.108
      -0.120
      -0.138
      -0.146
      -0.136
      -0.108
      -0.072
      -0.043
      -0.034
      -0.058
      -0.115
      -0.192
      -0.268
      -0.328
      -0.373
      -0.411
      -0.448
      -0.491
      -0.549
      -0.628
      -0.725
      -0.822
      -0.902
      -0.954
      -0.979
      -0.986
      -0.987
      -1.000
      -1.037
      -1.097
      -1.164
      -1.218
      -1.255
      -1.283
      -1.309
      -1.327
      -1.332
      -1.328
      -1.331
      -1.353
      -1.389
      -1.415
      -1.410
      -1.370
      -1.305
      -1.233
      -1.170
      -1.127
      -1.106
      -1.096
      -1.078
      -1.042
      -0.991
      -0.926
      -0.839
      -0.723
      -0.583
      -0.439
      -0.312
      -0.204
      -0.099
       0.029
       0.189
       0.371
       0.554
       0.718
       0.848
       0.941
       1.007
       1.069
       1.146
       1.239
       1.335
       1.426
       1.513
       1.596
       1.663
       1.700
       1.700
       1.671
       1.631
       1.598
       1.579
       1.573
       1.571
       1.562
       1.534
       1.480
       1.409
       1.343
       1.302
       1.287
       1.289
       1.294
       1.283
       1.241
       1.162
       1.060
       0.957
       0.869
       0.798
       0.732
       0.662
       0.586
       0.504
       0.412
       0.310
       0.203
       0.105
       0.030
      -0.023
      -0.058
      -0.081
      -0.096
      -0.110
      -0.139
      -0.196
      -0.277
      -0.363
      -0.437
      -0.493
      -0.534
      -0.566
      -0.594
      -0.629
      -0.675
      -0.727
      -0.771
      -0.798
      -0.806
      -0.802
      -0.788
      -0.765
      -0.739
      -0.723
      -0.728
      -0.754
      -0.787
      -0.808
      -0.809
      -0.791
      -0.761
      -0.730
      -0.712
      -0.717
      -0.742
      -0.767
      -0.780
      -0.782
      -0.784
      -0.790
      -0.794
      -0.797
      -0.810
      -0.847
      -0.909
      -0.976
      -1.022
      -1.026
      -0.986
      -0.920
      -0.846
      -0.784
      -0.746
      -0.735
      -0.737
      -0.734
      -0.712
      -0.673
      -0.616
      -0.542
      -0.449
      -0.354
      -0.273
      -0.218
      -0.184
      -0.152
      -0.107
      -0.043
       0.032
       0.106
       0.169
       0.212
       0.237
       0.251
       0.269
       0.299
       0.338
       0.377
       0.413
       0.447
       0.476
       0.489
       0.485
       0.473
       0.468
       0.486
       0.529
       0.594
       0.670
       0.740
       0.788
       0.805
       0.793
       0.765
       0.736
       0.715
       0.705
       0.706
       0.721
       0.743
       0.755
       0.741
       0.698
       0.643
       0.598
       0.578
       0.582
       0.598
       0.611
       0.605
       0.569
       0.505
       0.429
       0.360
       0.308
       0.271
       0.246
       0.233
       0.235
       0.247
       0.259
       0.261
       0.255
       0.251
       0.257
       0.273
       0.292
       0.307
       0.304
       0.273
       0.210
       0.135
       0.073
       0.038
       0.028
       0.033
       0.049
       0.070
       0.088
       0.090
       0.068
       0.033
       0.003
      -0.003
       0.021
       0.066
       0.114
       0.149
       0.158
       0.139
       0.100
       0.061
       0.033
       0.020
       0.019
       0.031
       0.059
       0.093
       0.117
       0.119
       0.100
       0.071
       0.046
       0.037
       0.049
       0.075
       0.105
       0.121
       0.111
       0.075
       0.028
      -0.010
      -0.033
      -0.048
      -0.062
      -0.072
      -0.072
      -0.069
      -0.078
      -0.103
      -0.130
      -0.143
      -0.130
      -0.098
      -0.063
      -0.048
      -0.070
      -0.136
      -0.234
      -0.340
      -0.427
      -0.487
      -0.533
      -0.580
      -0.628
      -0.670
      -0.701
      -0.729
      -0.765
      -0.810
      -0.849
      -0.866
      -0.852
      -0.810
      -0.755
      -0.706
      -0.684
      -0.696
      -0.732
      -0.773
      -0.805
      -0.823
      -0.831
      -0.836
      -0.851
      -0.886
      -0.945
      -1.023
      -1.103
      -1.167
      -1.203
      -1.211
      -1.196
      -1.158
      -1.099
      -1.029
      -0.958
      -0.889
      -0.809
      -0.709
      -0.590
      -0.460
      -0.322
      -0.178
      -0.034
       0.093
       0.188
       0.247
       0.278
       0.303
       0.339
       0.390
       0.447
       0.498
       0.536
       0.558
       0.569
       0.589
       0.630
       0.693
       0.770
       0.857
       0.959
       1.067
       1.162
       1.224
       1.249
       1.253
       1.255
       1.266
       1.288
       1.318
       1.347
       1.366
       1.365
       1.341
       1.305
       1.272
       1.255
       1.249
       1.246
       1.245
       1.245
       1.234
       1.194
       1.114
       1.005
       0.890
       0.787
       0.700
       0.623
       0.547
       0.463
       0.363
       0.246
       0.118
      -0.006
      -0.110
      -0.185
      -0.229
      -0.240
      -0.220
      -0.181
      -0.146
      -0.137
      -0.154
      -0.181
      -0.198
      -0.199
      -0.190
      -0.180
      -0.180
      -0.199
      -0.242
      -0.302
      -0.366
      -0.419
      -0.457
      -0.479
      -0.483
      -0.464
      -0.424
      -0.377
      -0.340
      -0.321
      -0.311
      -0.298
      -0.276
      -0.253
      -0.239
      -0.245
      -0.277
      -0.343
      -0.438
      -0.544
      -0.636
      -0.706
      -0.753
      -0.779
      -0.786
      -0.778
      -0.769
      -0.772
      -0.795
      -0.833
      -0.871
      -0.893
      -0.883
      -0.836
      -0.758
      -0.671
      -0.608
      -0.588
      -0.594
      -0.584
      -0.525
      -0.426
      -0.322
      -0.244
      -0.195
      -0.166
      -0.143
      -0.119
      -0.093
      -0.068
      -0.046
      -0.026
      -0.006
       0.013
       0.026
       0.026
       0.007
      -0.030
      -0.075
      -0.108
      -0.117
      -0.098
      -0.054
       0.008
       0.075
       0.126
       0.147
       0.143
       0.133
       0.138
       0.166
       0.208
       0.246
       0.265
       0.256
       0.223
       0.180
       0.146
       0.135
       0.151
       0.189
       0.241
       0.306
       0.379
       0.444
       0.479
       0.470
       0.425
       0.376
       0.353
       0.368
       0.406
       0.442
       0.451
       0.424
       0.374
       0.322
       0.282
       0.256
       0.235
       0.220
       0.215
       0.221
       0.229
       0.225
