Origin Time       17/7/2009 11:07:47 
Lat.              32.3 N 
Long.             76.1 E 
Depth (Km)         39.3
Magnitude         3.7
 Region           CHAMBA-(H.P.)                                                    
 Above details taken from IMD 
     
Station Code      CHA
Station Lat.       32.555  N
Station Long.      76.126  E
Station Height(m)  952.0
Site Class        A   Vs30 between 700 m/sec to 1400 m/sec * 
Record Time       17.07.2009 11:07:38.459
Sampling Rate     200. Hz
 Record Duration   73.265 Sec.
 Direction         E-W (E positive)
Max. Acceleration     -7.237 cm/sec**2
     
  * For reference see Site Classification link of website 
     
 Base Line Corrected and Low Pass Filtered (Cut Off at 35 Hz) Time History
 Acceleration data in cm/sec**2
    
[...]
       0.004
       0.162
       0.234
       0.468
       0.850
       0.980
       0.472
      -0.555
      -1.477
      -1.713
      -1.233
      -0.511
      -0.021
       0.164
       0.317
       0.724
       1.398
       1.994
       1.950
       0.869
      -1.041
      -2.883
      -3.587
      -2.703
      -0.776
       1.059
       1.898
       1.626
       0.823
       0.248
       0.338
       1.005
       1.745
       1.991
       1.499
       0.513
      -0.452
      -1.023
      -1.222
      -1.304
      -1.383
      -1.243
      -0.599
       0.453
       1.302
       1.230
       0.035
      -1.674
      -2.826
      -2.627
      -1.137
       0.785
       2.084
       2.190
       1.333
       0.330
       0.021
       0.691
       1.837
       2.506
       1.969
       0.273
      -1.765
      -3.116
      -3.234
      -2.378
      -1.305
      -0.603
      -0.238
       0.254
       1.146
       2.101
       2.418
       1.698
       0.302
      -0.885
      -1.166
      -0.601
       0.061
       0.067
      -0.644
      -1.369
      -1.267
      -0.138
       1.361
       2.221
       1.869
       0.568
      -0.820
      -1.459
      -1.067
      -0.021
       0.937
       1.175
       0.541
      -0.565
      -1.462
      -1.663
      -1.214
      -0.615
      -0.359
      -0.506
      -0.680
      -0.449
       0.290
       1.266
       2.041
       2.256
       1.767
       0.698
      -0.571
      -1.546
      -1.852
      -1.421
      -0.482
       0.597
       1.458
       1.837
       1.608
       0.836
      -0.236
      -1.274
      -1.954
      -2.075
      -1.685
      -1.102
      -0.694
      -0.533
      -0.290
       0.428
       1.614
       2.719
       2.995
       2.046
       0.154
      -1.823
      -2.916
      -2.582
      -1.026
       0.889
       2.132
       2.115
       1.053
      -0.206
      -0.777
      -0.348
       0.622
       1.253
       0.916
      -0.262
      -1.497
      -1.986
      -1.566
      -0.760
      -0.211
      -0.088
      -0.068
       0.185
       0.623
       0.909
       0.808
       0.425
       0.088
       0.056
       0.308
       0.563
       0.499
       0.056
      -0.443
      -0.511
       0.058
       0.926
       1.399
       0.973
      -0.239
      -1.535
      -2.121
      -1.663
      -0.481
       0.713
       1.311
       1.151
       0.496
      -0.261
      -0.864
      -1.234
      -1.348
      -1.169
      -0.704
      -0.097
       0.401
       0.593
       0.493
       0.331
       0.374
       0.716
       1.191
       1.481
       1.362
       0.896
       0.407
       0.222
       0.390
       0.624
       0.528
      -0.057
      -0.914
      -1.624
      -1.917
      -1.873
      -1.774
      -1.762
      -1.667
      -1.175
      -0.162
       1.120
       2.151
       2.459
       1.950
       1.017
       0.286
       0.132
       0.362
       0.400
      -0.137
      -1.041
      -1.673
      -1.545
      -0.753
       0.120
       0.521
       0.391
       0.185
       0.433
       1.223
       2.056
       2.225
       1.419
       0.015
      -1.211
      -1.712
      -1.569
      -1.295
      -1.303
      -1.538
      -1.588
      -1.085
      -0.029
       1.191
       2.044
       2.153
       1.487
       0.359
      -0.733
      -1.318
      -1.178
      -0.483
       0.270
       0.578
       0.320
      -0.147
      -0.327
      -0.049
       0.377
       0.464
       0.019
      -0.652
      -0.977
      -0.590
       0.357
       1.291
       1.639
       1.215
       0.296
      -0.625
      -1.171
      -1.240
      -0.949
      -0.476
       0.052
       0.554
       0.915
       0.953
       0.544
      -0.186
      -0.811
      -0.860
      -0.219
       0.711
       1.305
       1.221
       0.684
       0.264
       0.345
       0.775
       1.011
       0.622
      -0.326
      -1.350
      -1.965
      -2.020
      -1.706
      -1.291
      -0.868
      -0.325
       0.410
       1.142
       1.474
       1.167
       0.415
      -0.281
      -0.527
      -0.327
      -0.006
       0.097
      -0.143
      -0.606
      -1.024
      -1.115
      -0.725
       0.078
       1.011
       1.722
       1.986
       1.796
       1.321
       0.770
       0.280
      -0.110
      -0.414
      -0.665
      -0.917
      -1.224
      -1.563
      -1.746
      -1.488
      -0.662
       0.484
       1.411
       1.671
       1.261
       0.606
       0.161
       0.025
      -0.081
      -0.480
      -1.169
      -1.757
      -1.778
      -1.091
      -0.026
       0.877
       1.288
       1.273
       1.098
       0.898
       0.572
       0.000
      -0.710
      -1.192
      -1.073
      -0.281
       0.846
       1.745
       1.982
       1.530
       0.728
      -0.021
      -0.551
      -0.940
      -1.274
      -1.480
      -1.414
      -1.067
      -0.624
      -0.304
      -0.160
      -0.055
       0.175
       0.515
       0.715
       0.459
      -0.321
      -1.251
      -1.662
      -1.039
       0.534
       2.314
       3.339
       3.077
       1.819
       0.465
      -0.162
       0.038
       0.424
       0.239
      -0.671
      -1.732
      -2.174
      -1.715
      -0.749
       0.032
       0.181
      -0.264
      -0.949
      -1.529
      -1.846
      -1.873
      -1.585
      -0.951
      -0.064
       0.801
       1.335
       1.422
       1.205
       0.937
       0.802
       0.877
       1.166
       1.601
       2.002
       2.124
       1.794
       1.027
       0.023
      -0.951
      -1.674
      -2.031
      -2.022
      -1.757
      -1.435
      -1.275
      -1.368
      -1.552
      -1.476
      -0.887
       0.076
       0.913
       1.161
       0.802
       0.291
       0.172
       0.626
       1.347
       1.824
       1.745
       1.208
       0.594
       0.257
       0.276
       0.438
       0.400
      -0.046
      -0.774
      -1.358
      -1.390
      -0.864
      -0.268
      -0.210
      -0.862
      -1.731
      -2.031
      -1.320
       0.151
       1.674
       2.609
       2.741
       2.248
       1.463
       0.688
       0.130
      -0.123
      -0.153
      -0.185
      -0.421
      -0.854
      -1.263
      -1.395
      -1.180
      -0.778
      -0.436
      -0.285
      -0.262
      -0.217
      -0.070
       0.148
       0.403
       0.735
       1.183
       1.642
       1.847
       1.556
       0.771
      -0.217
      -0.997
      -1.293
      -1.093
      -0.598
      -0.076
       0.277
       0.401
       0.345
       0.189
      -0.070
      -0.554
      -1.378
      -2.435
      -3.288
      -3.369
      -2.371
      -0.544
       1.421
       2.847
       3.497
       3.610
       3.539
       3.384
       2.972
       2.155
       1.063
       0.046
      -0.637
      -1.039
      -1.460
      -2.131
      -2.951
      -3.538
      -3.573
      -3.087
      -2.388
      -1.696
      -0.939
       0.073
       1.291
       2.327
       2.739
       2.365
       1.388
       0.133
      -1.121
      -2.150
      -2.716
      -2.585
      -1.669
      -0.124
       1.669
       3.251
       4.251
       4.508
       4.079
       3.158
       1.957
       0.685
      -0.416
      -1.106
      -1.338
      -1.397
      -1.739
      -2.545
      -3.426
      -3.646
      -2.746
      -1.004
       0.710
       1.580
       1.443
       0.829
       0.424
       0.454
       0.589
       0.407
      -0.090
      -0.461
      -0.332
       0.142
       0.385
       0.006
      -0.704
      -0.931
      -0.062
       1.697
       3.394
       4.023
       3.245
       1.565
      -0.102
      -1.056
      -1.205
      -0.997
      -1.022
      -1.560
      -2.391
      -2.980
      -2.893
      -2.109
      -0.980
       0.054
       0.742
       1.083
       1.185
       1.111
       0.826
       0.300
      -0.352
      -0.799
      -0.628
       0.347
       1.844
       3.169
       3.642
       3.073
       1.901
       0.861
       0.460
       0.657
       0.950
       0.748
      -0.228
      -1.716
      -3.022
      -3.460
      -2.863
      -1.777
      -1.106
      -1.422
      -2.488
      -3.405
      -3.322
      -2.131
      -0.538
       0.541
       0.726
       0.383
       0.175
       0.431
       0.922
       1.188
       1.000
       0.520
       0.090
      -0.024
       0.291
       1.046
       2.101
       3.043
       3.261
       2.334
       0.461
      -1.537
      -2.735
      -2.762
      -2.007
      -1.214
      -0.836
      -0.754
      -0.572
      -0.107
       0.431
       0.739
       0.802
       0.901
       1.251
       1.702
       1.842
       1.387
       0.439
      -0.617
      -1.407
      -1.743
      -1.604
      -1.058
      -0.266
       0.480
       0.854
       0.690
       0.100
      -0.635
      -1.265
      -1.670
      -1.794
      -1.555
      -0.850
       0.331
       1.797
       3.163
       3.999
       3.982
       3.001
       1.220
      -0.868
      -2.524
      -3.083
      -2.376
      -0.877
       0.619
       1.571
       1.964
       2.080
       2.047
       1.708
       0.909
      -0.170
      -1.073
      -1.457
      -1.383
      -1.227
      -1.329
      -1.733
      -2.206
      -2.447
      -2.289
      -1.742
      -0.930
      -0.040
       0.701
       1.111
       1.187
       1.134
       1.160
       1.243
       1.157
       0.762
       0.203
      -0.247
      -0.476
      -0.575
      -0.582
      -0.302
       0.504
       1.750
       2.904
       3.268
       2.440
       0.610
      -1.504
      -3.013
      -3.330
      -2.496
      -1.150
      -0.123
       0.095
      -0.382
      -1.045
      -1.412
      -1.310
      -0.845
      -0.220
       0.419
       1.032
       1.647
       2.254
       2.739
       2.936
       2.782
       2.415
       2.058
       1.777
       1.385
       0.625
      -0.538
      -1.815
      -2.801
      -3.261
      -3.218
      -2.808
      -2.129
      -1.256
      -0.353
       0.332
       0.647
       0.721
       0.900
       1.444
       2.206
       2.644
       2.198
       0.762
      -1.141
      -2.639
      -3.070
      -2.400
      -1.187
      -0.131
       0.414
       0.589
       0.766
       1.166
       1.667
       1.945
       1.735
       0.985
      -0.169
      -1.481
      -2.652
      -3.395
      -3.566
      -3.227
      -2.549
      -1.622
      -0.432
       0.943
       2.150
       2.677
       2.240
       1.066
      -0.199
      -0.895
      -0.683
       0.398
       2.073
       3.895
       5.204
       5.235
       3.555
       0.561
      -2.485
      -4.164
      -3.882
      -2.300
      -0.771
      -0.274
      -0.775
      -1.504
      -1.773
      -1.545
      -1.322
      -1.599
      -2.387
      -3.170
      -3.246
      -2.194
      -0.191
       2.035
       3.587
       3.914
       3.089
       1.698
       0.448
      -0.164
       0.046
       1.001
       2.410
       3.766
       4.445
       3.999
       2.478
       0.469
      -1.266
      -2.278
      -2.638
      -2.687
      -2.606
      -2.241
      -1.353
      -0.043
       1.134
       1.553
       1.080
       0.249
      -0.187
       0.045
       0.473
       0.288
      -0.900
      -2.659
      -3.985
      -4.011
      -2.617
      -0.505
       1.246
       1.838
       1.166
      -0.218
      -1.505
      -2.080
      -1.783
      -0.872
       0.216
       1.096
       1.514
       1.337
       0.588
      -0.457
      -1.270
      -1.293
      -0.273
       1.515
       3.364
       4.508
       4.563
       3.756
       2.755
       2.184
       2.175
       2.292
       1.916
       0.775
      -0.830
      -2.270
      -3.104
      -3.390
      -3.569
      -4.023
      -4.688
      -5.008
      -4.320
      -2.405
       0.199
       2.417
       3.317
       2.748
       1.426
       0.382
       0.239
       0.863
       1.615
       1.908
       1.585
       0.880
       0.115
      -0.557
      -1.153
      -1.700
      -2.109
      -2.205
      -1.889
      -1.244
      -0.481
       0.217
       0.790
       1.220
       1.423
       1.270
       0.766
       0.168
      -0.141
       0.052
       0.580
       1.034
       1.141
       1.025
       1.068
       1.459
       1.896
       1.801
       0.910
      -0.358
      -1.201
      -1.146
      -0.462
       0.136
       0.172
      -0.207
      -0.462
      -0.208
       0.452
       1.033
       1.040
       0.281
      -1.015
      -2.322
      -3.072
      -2.969
      -2.165
      -1.156
      -0.454
      -0.235
      -0.261
      -0.116
       0.425
       1.182
       1.696
       1.608
       0.971
       0.216
      -0.189
      -0.087
       0.306
       0.574
       0.328
      -0.602
      -2.011
      -3.280
      -3.617
      -2.575
      -0.474
       1.682
       2.840
       2.603
       1.432
       0.188
      -0.543
      -0.790
      -0.979
      -1.452
      -2.152
      -2.668
      -2.545
      -1.612
      -0.104
       1.492
       2.747
       3.514
       3.922
       4.145
       4.174
       3.800
       2.822
       1.346
      -0.137
      -1.016
      -1.036
      -0.553
      -0.310
      -0.862
      -2.108
      -3.341
      -3.733
      -2.877
      -1.011
       1.180
       2.974
       3.958
       4.130
       3.784
       3.266
       2.740
       2.093
       1.030
      -0.659
      -2.864
      -5.094
      -6.703
      -7.237
      -6.667
      -5.342
      -3.746
      -2.229
      -0.905
       0.275
       1.345
       2.211
       2.679
       2.596
       1.990
       1.122
       0.402
       0.179
       0.490
       0.992
       1.183
       0.785
      -0.022
      -0.726
      -0.852
      -0.284
       0.699
       1.636
       2.175
       2.235
       1.975
       1.608
       1.215
       0.709
      -0.021
      -0.929
      -1.773
      -2.258
      -2.241
      -1.825
      -1.281
      -0.864
      -0.672
      -0.625
      -0.563
      -0.353
       0.044
       0.554
       1.027
       1.307
       1.331
       1.167
       0.959
       0.800
       0.662
       0.443
       0.112
      -0.205
      -0.280
       0.036
       0.664
       1.299
       1.603
       1.443
       0.972
       0.483
       0.143
      -0.131
      -0.549
      -1.209
      -1.973
      -2.561
      -2.742
      -2.449
      -1.779
      -0.923
      -0.097
       0.563
       1.066
       1.526
       2.007
       2.405
       2.501
       2.145
       1.396
       0.482
      -0.379
      -1.106
      -1.742
      -2.297
      -2.639
      -2.526
      -1.804
      -0.581
       0.755
       1.723
       2.015
       1.657
       0.980
       0.424
       0.298
       0.608
       1.046
       1.168
       0.664
      -0.423
      -1.695
      -2.626
      -2.876
      -2.491
      -1.834
      -1.302
      -1.054
      -0.989
      -0.936
      -0.837
      -0.751
      -0.693
      -0.531
      -0.057
       0.804
       1.870
       2.768
       3.172
       2.981
       2.326
       1.435
       0.497
      -0.358
      -1.018
      -1.375
      -1.375
      -1.052
      -0.512
       0.112
       0.678
       1.035
       1.060
       0.726
       0.167
      -0.343
      -0.498
      -0.145
       0.572
       1.252
       1.487
       1.172
       0.596
       0.208
       0.225
       0.431
       0.379
      -0.176
      -1.015
      -1.599
      -1.482
      -0.618
       0.639
       1.781
       2.411
       2.392
       1.856
       1.092
       0.353
      -0.301
      -1.005
      -1.896
      -2.884
      -3.614
      -3.701
      -3.043
      -1.936
      -0.873
      -0.196
       0.097
       0.244
       0.443
       0.675
       0.747
       0.498
      -0.034
      -0.604
      -0.934
      -0.895
      -0.590
      -0.254
      -0.088
      -0.134
      -0.282
      -0.377
      -0.324
      -0.134
       0.120
       0.369
       0.597
       0.838
       1.123
       1.406
       1.536
       1.334
       0.752
      -0.028
      -0.665
      -0.881
      -0.674
      -0.303
      -0.046
       0.073
       0.338
       1.082
       2.332
       3.675
       4.486
       4.349
       3.303
       1.762
       0.220
      -0.974
      -1.691
      -1.987
      -2.059
      -2.141
      -2.342
      -2.543
      -2.480
      -1.965
      -1.043
       0.022
       0.914
       1.426
       1.522
       1.281
       0.805
       0.171
      -0.545
      -1.209
      -1.635
      -1.683
      -1.384
      -0.951
      -0.625
      -0.498
      -0.464
      -0.342
      -0.030
       0.425
       0.857
       1.081
       0.988
       0.609
       0.101
      -0.337
      -0.565
      -0.548
      -0.333
      -0.002
       0.358
       0.671
       0.886
       1.003
       1.053
       1.041
       0.915
       0.622
       0.217
      -0.107
      -0.170
      -0.006
       0.110
      -0.108
      -0.678
      -1.287
      -1.523
      -1.205
      -0.514
       0.160
       0.523
       0.572
       0.532
       0.617
       0.816
       0.890
       0.562
      -0.239
      -1.301
      -2.250
      -2.771
      -2.763
      -2.337
      -1.709
      -1.070
      -0.502
       0.027
       0.602
       1.260
       1.928
       2.467
       2.765
       2.804
       2.626
       2.251
       1.653
       0.837
      -0.066
      -0.799
      -1.137
      -1.053
      -0.758
      -0.540
      -0.537
      -0.643
      -0.629
      -0.345
       0.161
       0.675
       0.965
       0.903
       0.517
      -0.066
      -0.698
      -1.243
      -1.556
      -1.490
      -0.999
      -0.226
       0.525
       0.962
       0.998
       0.797
       0.640
       0.700
       0.909
       1.012
       0.794
       0.244
      -0.457
      -1.113
      -1.643
      -2.055
      -2.326
      -2.356
      -2.037
      -1.379
      -0.559
       0.166
       0.594
       0.676
       0.511
       0.266
       0.078
       0.007
       0.041
       0.137
       0.271
       0.439
       0.622
       0.766
       0.806
       0.726
       0.607
       0.598
       0.799
       1.135
       1.342
       1.131
       0.431
      -0.485
      -1.149
      -1.206
      -0.659
       0.156
       0.802
       1.011
       0.796
       0.375
       0.004
      -0.164
      -0.136
      -0.044
      -0.047
      -0.217
      -0.485
      -0.685
      -0.667
      -0.408
      -0.025
       0.307
       0.472
       0.470
       0.363
       0.181
      -0.111
      -0.552
      -1.069
      -1.444
      -1.416
      -0.863
       0.078
       1.049
       1.660
       1.702
       1.247
       0.575
      -0.014
      -0.365
      -0.506
      -0.565
      -0.639
      -0.725
      -0.726
      -0.548
      -0.189
       0.229
       0.521
       0.550
       0.317
      -0.050
      -0.393
      -0.629
      -0.764
      -0.838
      -0.854
      -0.789
      -0.644
      -0.478
      -0.369
      -0.359
      -0.431
      -0.531
      -0.588
      -0.531
      -0.296
       0.138
       0.709
       1.257
       1.591
       1.598
       1.332
       0.988
       0.773
       0.764
       0.865
       0.869
       0.610
       0.070
      -0.603
      -1.188
