Origin Time       31/1/2009 03:07:15  UTC
Lat.              32.5 N 
Long.             75.9 E 
Depth (Km)         10.0
Magnitude         3.7
 Region           HIMACHAL-PRADESH                                                 
 Above details taken from IMD 
    
Station Code      CHA
Station Lat.       32.555  N
Station Long.      76.126  E
Station Height(m)  943.0
Site Class        A   Vs30 between 700 m/sec to 1400 m/sec * 
Record Time       31.01.2009 03:07:11.784 UTC
Sampling Rate     200. Hz
 Record Duration   65.130 Sec.
 Direction         N-S (N positive)
Max. Acceleration      6.361 cm/sec**2
     
  * For reference see Site Classification link of website 
     
 Base Line Corrected and Low Pass Filtered (Cut Off at 35 Hz) Time History
 Acceleration data in cm/sec**2
    
[...]
       0.013
       0.015
       0.013
       0.010
       0.005
       0.001
      -0.001
       0.001
       0.004
       0.007
       0.007
       0.007
       0.007
       0.008
       0.011
       0.012
       0.010
       0.006
       0.005
       0.009
       0.017
       0.021
       0.019
       0.011
       0.004
       0.005
       0.013
       0.019
       0.014
       0.001
      -0.010
      -0.009
       0.005
       0.020
       0.029
       0.027
       0.019
       0.008
       0.000
      -0.004
      -0.005
      -0.005
      -0.007
      -0.007
      -0.002
       0.005
       0.007
       0.002
      -0.008
      -0.014
      -0.012
      -0.004
       0.003
       0.002
      -0.003
      -0.009
      -0.011
      -0.010
      -0.005
       0.001
       0.007
       0.009
       0.007
       0.003
      -0.003
      -0.009
      -0.012
      -0.011
      -0.007
      -0.002
       0.001
       0.004
       0.005
       0.005
       0.004
       0.003
       0.003
       0.000
      -0.006
      -0.013
      -0.016
      -0.013
      -0.005
       0.006
       0.014
       0.016
       0.011
       0.003
      -0.006
      -0.012
      -0.013
      -0.008
       0.000
       0.003
       0.001
      -0.003
      -0.004
       0.000
       0.005
       0.008
       0.007
       0.003
      -0.002
      -0.003
      -0.003
      -0.003
      -0.003
      -0.001
       0.002
       0.004
       0.004
       0.000
      -0.007
      -0.016
      -0.022
      -0.021
      -0.013
      -0.004
      -0.001
      -0.005
      -0.012
      -0.018
      -0.021
      -0.022
      -0.022
      -0.021
      -0.015
      -0.007
      -0.002
      -0.004
      -0.011
      -0.016
      -0.016
      -0.013
      -0.010
      -0.007
      -0.003
      -0.002
      -0.003
      -0.005
      -0.004
      -0.002
      -0.001
      -0.002
      -0.004
      -0.004
      -0.003
      -0.003
      -0.004
      -0.006
      -0.007
      -0.007
      -0.006
      -0.010
      -0.016
      -0.021
      -0.017
      -0.006
       0.003
       0.005
       0.000
      -0.008
      -0.013
      -0.011
      -0.004
       0.003
       0.005
       0.001
      -0.004
      -0.008
      -0.010
      -0.012
      -0.011
      -0.007
      -0.002
       0.004
       0.005
       0.001
      -0.006
      -0.009
      -0.004
       0.008
       0.018
       0.018
       0.009
      -0.004
      -0.011
      -0.009
      -0.001
       0.003
      -0.002
      -0.014
      -0.021
      -0.018
      -0.007
       0.003
       0.003
      -0.007
      -0.020
      -0.022
      -0.014
      -0.003
       0.005
       0.012
       0.023
       0.032
       0.021
      -0.017
      -0.059
      -0.065
      -0.020
       0.042
       0.064
       0.023
      -0.040
      -0.060
      -0.019
       0.034
       0.037
      -0.009
      -0.039
      -0.010
       0.043
       0.042
      -0.032
      -0.108
      -0.097
      -0.001
       0.085
       0.081
       0.020
       0.002
       0.065
       0.121
       0.052
      -0.131
      -0.266
      -0.200
       0.038
       0.250
       0.252
       0.055
      -0.163
      -0.233
      -0.145
      -0.021
       0.027
       0.003
      -0.014
       0.028
       0.103
       0.147
       0.120
       0.038
      -0.058
      -0.124
      -0.122
      -0.026
       0.148
       0.318
       0.355
       0.174
      -0.164
      -0.446
      -0.446
      -0.120
       0.317
       0.543
       0.389
      -0.020
      -0.373
      -0.428
      -0.196
       0.105
       0.258
       0.216
       0.097
       0.032
       0.038
       0.029
      -0.062
      -0.186
      -0.216
      -0.080
       0.146
       0.303
       0.291
       0.139
      -0.052
      -0.208
      -0.305
      -0.322
      -0.215
       0.022
       0.282
       0.383
       0.214
      -0.142
      -0.439
      -0.452
      -0.171
       0.175
       0.305
       0.137
      -0.142
      -0.256
      -0.114
       0.114
       0.180
       0.019
      -0.201
      -0.270
      -0.133
       0.096
       0.261
       0.280
       0.165
       0.000
      -0.095
      -0.044
       0.099
       0.148
      -0.048
      -0.426
      -0.698
      -0.601
      -0.162
       0.304
       0.475
       0.290
      -0.034
      -0.224
      -0.159
       0.091
       0.377
       0.578
       0.635
       0.540
       0.337
       0.114
      -0.057
      -0.185
      -0.354
      -0.596
      -0.787
      -0.711
      -0.273
       0.340
       0.744
       0.647
       0.116
      -0.444
      -0.620
      -0.340
       0.106
       0.372
       0.350
       0.203
       0.136
       0.193
       0.247
       0.178
       0.007
      -0.152
      -0.235
      -0.289
      -0.362
      -0.400
      -0.284
       0.022
       0.382
       0.600
       0.593
       0.450
       0.278
       0.059
      -0.280
      -0.673
      -0.869
      -0.668
      -0.172
       0.266
       0.343
       0.075
      -0.239
      -0.305
      -0.093
       0.171
       0.256
       0.142
      -0.007
      -0.033
       0.078
       0.217
       0.268
       0.189
       0.009
      -0.208
      -0.391
      -0.474
      -0.428
      -0.275
      -0.057
       0.180
       0.395
       0.553
       0.645
       0.683
       0.626
       0.361
      -0.176
      -0.816
      -1.183
      -0.997
      -0.375
       0.231
       0.430
       0.235
      -0.011
      -0.012
       0.195
       0.321
       0.144
      -0.249
      -0.523
      -0.393
       0.095
       0.568
       0.636
       0.244
      -0.258
      -0.437
      -0.193
       0.158
       0.228
      -0.054
      -0.399
      -0.495
      -0.323
      -0.115
      -0.038
       0.007
       0.221
       0.610
       0.906
       0.821
       0.356
      -0.182
      -0.450
      -0.343
      -0.033
       0.210
       0.224
       0.026
      -0.269
      -0.572
      -0.840
      -1.007
      -0.935
      -0.505
       0.208
       0.870
       1.096
       0.770
       0.156
      -0.313
      -0.379
      -0.120
       0.193
       0.350
       0.338
       0.277
       0.266
       0.279
       0.178
      -0.135
      -0.563
      -0.826
      -0.677
      -0.140
       0.469
       0.768
       0.603
       0.127
      -0.358
      -0.628
      -0.630
      -0.425
      -0.118
       0.151
       0.231
       0.042
      -0.310
      -0.550
      -0.448
      -0.041
       0.381
       0.544
       0.417
       0.187
       0.045
       0.027
       0.036
       0.008
       0.008
       0.142
       0.385
       0.561
       0.505
       0.202
      -0.229
      -0.645
      -0.915
      -0.896
      -0.500
       0.128
       0.570
       0.440
      -0.200
      -0.795
      -0.784
      -0.148
       0.552
       0.710
       0.245
      -0.347
      -0.472
       0.025
       0.752
       1.147
       0.970
       0.436
      -0.065
      -0.325
      -0.405
      -0.451
      -0.494
      -0.449
      -0.250
       0.045
       0.288
       0.349
       0.200
      -0.072
      -0.305
      -0.355
      -0.208
       0.017
       0.188
       0.282
       0.357
       0.426
       0.416
       0.263
       0.020
      -0.169
      -0.217
      -0.176
      -0.172
      -0.244
      -0.314
      -0.315
      -0.308
      -0.409
      -0.595
      -0.650
      -0.354
       0.268
       0.906
       1.172
       0.869
       0.127
      -0.657
      -1.041
      -0.813
      -0.144
       0.518
       0.781
       0.593
       0.207
      -0.111
      -0.294
      -0.411
      -0.478
      -0.390
      -0.058
       0.442
       0.873
       0.973
       0.650
       0.080
      -0.376
      -0.443
      -0.188
       0.024
      -0.132
      -0.605
      -1.000
      -0.959
      -0.509
      -0.015
       0.183
       0.056
      -0.153
      -0.191
      -0.009
       0.254
       0.425
       0.434
       0.345
       0.280
       0.312
       0.389
       0.384
       0.229
       0.010
      -0.104
      -0.050
       0.046
       0.003
      -0.191
      -0.334
      -0.234
       0.043
       0.198
       0.013
      -0.394
      -0.675
      -0.613
      -0.312
      -0.024
       0.146
       0.288
       0.480
       0.631
       0.567
       0.249
      -0.150
      -0.388
      -0.351
      -0.120
       0.122
       0.223
       0.141
      -0.047
      -0.198
      -0.211
      -0.098
       0.039
       0.107
       0.082
      -0.006
      -0.100
      -0.152
      -0.146
      -0.098
      -0.035
       0.026
       0.078
       0.112
       0.137
       0.186
       0.279
       0.356
       0.286
      -0.002
      -0.369
      -0.532
      -0.348
      -0.010
       0.122
      -0.094
      -0.423
      -0.491
      -0.164
       0.328
       0.611
       0.484
       0.033
      -0.458
      -0.706
      -0.581
      -0.190
       0.198
       0.349
       0.251
       0.085
       0.039
       0.136
       0.240
       0.189
      -0.052
      -0.341
      -0.440
      -0.196
       0.291
       0.688
       0.668
       0.202
      -0.370
      -0.613
      -0.391
       0.008
       0.165
      -0.050
      -0.368
      -0.421
      -0.134
       0.211
       0.275
       0.008
      -0.305
      -0.328
       0.010
       0.449
       0.613
       0.319
      -0.272
      -0.748
      -0.744
      -0.230
       0.427
       0.729
       0.451
      -0.166
      -0.626
      -0.603
      -0.190
       0.234
       0.357
       0.175
      -0.087
      -0.213
      -0.165
      -0.039
       0.076
       0.181
       0.296
       0.368
       0.285
       0.021
      -0.278
      -0.370
      -0.119
       0.376
       0.825
       0.935
       0.620
       0.048
      -0.491
      -0.781
      -0.774
      -0.559
      -0.286
      -0.084
      -0.004
       0.014
       0.091
       0.302
       0.581
       0.740
       0.610
       0.198
      -0.273
      -0.515
      -0.390
      -0.024
       0.291
       0.317
       0.036
      -0.375
      -0.672
      -0.679
      -0.371
       0.091
       0.407
       0.324
      -0.129
      -0.596
      -0.654
      -0.213
       0.368
       0.590
       0.270
      -0.292
      -0.596
      -0.388
       0.134
       0.525
       0.483
       0.072
      -0.361
      -0.476
      -0.187
       0.300
       0.666
       0.718
       0.495
       0.197
       0.011
      -0.018
       0.022
       0.013
      -0.091
      -0.244
      -0.366
      -0.405
      -0.366
      -0.300
      -0.267
      -0.271
      -0.236
      -0.057
       0.274
       0.597
       0.682
       0.446
       0.052
      -0.227
      -0.264
      -0.172
      -0.131
      -0.169
      -0.150
       0.019
       0.234
       0.291
       0.123
      -0.107
      -0.166
       0.024
       0.316
       0.468
       0.343
      -0.002
      -0.368
      -0.546
      -0.449
      -0.169
       0.089
       0.157
       0.034
      -0.140
      -0.228
      -0.200
      -0.095
       0.056
       0.216
       0.306
       0.235
       0.003
      -0.274
      -0.462
      -0.506
      -0.442
      -0.327
      -0.202
      -0.118
      -0.128
      -0.236
      -0.347
      -0.330
      -0.131
       0.173
       0.444
       0.593
       0.608
       0.531
       0.412
       0.313
       0.284
       0.328
       0.378
       0.357
       0.270
       0.237
       0.388
       0.713
       1.004
       0.984
       0.543
      -0.119
      -0.591
      -0.561
      -0.078
       0.441
       0.518
      -0.027
      -0.929
      -1.670
      -1.857
      -1.487
      -0.904
      -0.517
      -0.520
      -0.811
      -1.108
      -1.145
      -0.815
      -0.207
       0.453
       0.922
       1.066
       0.919
       0.631
       0.364
       0.215
       0.223
       0.400
       0.702
       0.967
       0.952
       0.515
      -0.200
      -0.784
      -0.859
      -0.411
       0.138
       0.261
      -0.232
      -1.000
      -1.443
      -1.207
      -0.482
       0.156
       0.233
      -0.240
      -0.829
      -1.101
      -0.981
      -0.693
      -0.397
       0.022
       0.772
       1.810
       2.761
       3.185
       2.912
       2.142
       1.300
       0.816
       0.931
       1.562
       2.280
       2.496
       1.834
       0.419
      -1.143
      -2.136
      -2.197
      -1.534
      -0.741
      -0.371
      -0.584
      -1.101
      -1.462
      -1.388
      -1.000
      -0.709
      -0.864
      -1.419
      -1.901
      -1.759
      -0.812
       0.555
       1.619
       1.797
       1.012
      -0.292
      -1.448
      -1.932
      -1.573
      -0.563
       0.677
       1.680
       2.149
       2.101
       1.809
       1.512
       1.129
       0.323
      -1.061
      -2.622
      -3.538
      -3.177
      -1.633
       0.294
       1.619
       1.753
       0.772
      -0.702
      -1.868
      -2.175
      -1.588
      -0.515
       0.581
       1.545
       2.536
       3.649
       4.572
       4.695
       3.627
       1.645
      -0.384
      -1.592
      -1.691
      -1.118
      -0.642
      -0.747
      -1.288
      -1.706
      -1.609
      -1.195
      -1.056
      -1.553
      -2.397
      -2.917
      -2.761
      -2.281
      -2.144
      -2.566
      -2.989
      -2.586
      -1.096
       0.859
       2.288
       2.656
       2.239
       1.788
       1.920
       2.784
       4.125
       5.488
       6.361
       6.298
       5.111
       3.024
       0.623
      -1.425
      -2.696
      -3.162
      -3.116
      -2.927
      -2.801
      -2.684
      -2.380
      -1.774
      -0.969
      -0.243
       0.123
       0.023
      -0.374
      -0.675
      -0.489
       0.253
       1.138
       1.496
       0.914
      -0.385
      -1.657
      -2.182
      -1.821
      -1.113
      -0.830
      -1.306
      -2.095
      -2.254
      -1.079
       1.258
       3.680
       4.858
       4.116
       1.929
      -0.369
      -1.485
      -1.016
       0.368
       1.547
       1.830
       1.349
       0.718
       0.363
       0.203
      -0.115
      -0.781
      -1.633
      -2.317
      -2.550
      -2.252
      -1.507
      -0.488
       0.617
       1.638
       2.439
       2.891
       2.880
       2.420
       1.795
       1.492
       1.857
       2.710
       3.327
       2.923
       1.312
      -0.802
      -2.247
      -2.240
      -1.024
       0.266
       0.459
      -0.737
      -2.532
      -3.729
      -3.692
      -2.749
      -1.767
      -1.369
      -1.507
      -1.646
      -1.286
      -0.370
       0.650
       1.092
       0.512
      -0.910
      -2.377
      -2.949
      -2.180
      -0.457
       1.241
       1.988
       1.462
       0.054
      -1.459
      -2.378
      -2.378
      -1.542
      -0.225
       1.149
       2.244
       2.905
       3.172
       3.208
       3.131
       2.862
       2.161
       0.887
      -0.722
      -2.052
      -2.484
      -1.855
      -0.605
       0.523
       0.956
       0.583
      -0.295
      -1.201
      -1.701
      -1.520
      -0.621
       0.714
       1.941
       2.546
       2.423
       1.973
       1.733
       1.827
       1.827
       1.220
       0.022
      -1.135
      -1.585
      -1.282
      -0.816
      -0.787
      -1.210
      -1.559
      -1.343
      -0.630
      -0.008
      -0.075
      -0.918
      -2.020
      -2.659
      -2.455
      -1.626
      -0.748
      -0.258
      -0.161
      -0.171
      -0.091
      -0.003
      -0.109
      -0.420
      -0.662
      -0.493
       0.177
       1.092
       1.859
       2.236
       2.220
       1.917
       1.403
       0.769
       0.231
       0.094
       0.517
       1.302
       1.964
       2.081
       1.614
       0.918
       0.430
       0.316
       0.361
       0.203
      -0.335
      -1.090
      -1.683
      -1.799
      -1.379
      -0.647
       0.033
       0.338
       0.166
      -0.277
      -0.590
      -0.476
       0.007
       0.492
       0.643
       0.441
       0.157
       0.027
       0.008
      -0.139
      -0.560
      -1.140
      -1.582
      -1.614
      -1.123
      -0.204
       0.815
       1.439
       1.275
       0.365
      -0.706
      -1.153
      -0.552
       0.810
       2.110
       2.547
       1.858
       0.426
      -1.021
      -1.864
      -1.895
      -1.355
      -0.734
      -0.499
      -0.852
      -1.627
      -2.372
      -2.618
      -2.184
      -1.286
      -0.344
       0.353
       0.831
       1.311
       1.921
       2.516
       2.753
       2.359
       1.377
       0.215
      -0.562
      -0.575
       0.093
       0.909
       1.233
       0.774
      -0.214
      -1.147
      -1.552
      -1.351
      -0.815
      -0.294
       0.053
       0.316
       0.683
       1.207
       1.695
       1.850
       1.540
       0.936
       0.369
       0.050
      -0.041
      -0.019
       0.065
       0.199
       0.268
       0.043
      -0.594
      -1.430
      -2.005
      -1.987
      -1.473
      -0.889
      -0.613
      -0.673
      -0.783
      -0.640
      -0.181
       0.398
       0.813
       0.885
       0.651
       0.349
       0.268
       0.521
       0.887
       0.926
       0.326
      -0.778
      -1.818
      -2.181
      -1.674
      -0.667
       0.204
       0.512
       0.284
      -0.148
      -0.475
      -0.607
      -0.590
      -0.449
      -0.161
       0.226
       0.550
       0.687
       0.719
       0.883
       1.288
       1.722
       1.812
       1.398
       0.721
       0.205
       0.059
       0.110
       0.004
      -0.418
      -0.939
      -1.135
      -0.739
       0.106
       0.906
       1.149
       0.669
      -0.235
      -1.002
      -1.183
      -0.707
       0.124
       0.870
       1.216
       1.096
       0.637
       0.040
      -0.519
      -0.934
      -1.166
      -1.225
      -1.122
      -0.849
      -0.407
       0.142
       0.659
       0.990
       1.074
       0.980
       0.837
       0.720
       0.601
       0.394
       0.039
      -0.442
      -0.933
      -1.267
      -1.284
      -0.941
      -0.401
      -0.016
      -0.123
      -0.786
      -1.694
      -2.353
      -2.404
      -1.815
      -0.812
       0.312
       1.294
       1.901
       1.953
       1.470
       0.777
       0.375
       0.589
       1.288
       1.962
       2.130
       1.723
       1.086
       0.620
       0.412
       0.202
      -0.312
      -1.148
      -1.984
      -2.399
      -2.197
      -1.544
      -0.845
      -0.495
      -0.655
      -1.181
      -1.690
      -1.763
      -1.209
      -0.232
       0.668
       1.039
       0.853
       0.536
       0.596
       1.160
       1.862
       2.193
       1.959
       1.411
       0.961
       0.807
       0.819
       0.725
       0.357
      -0.246
      -0.900
      -1.378
      -1.520
      -1.308
      -0.900
      -0.545
      -0.425
      -0.534
      -0.706
      -0.767
      -0.663
      -0.465
      -0.281
      -0.147
       0.000
       0.260
       0.673
       1.141
       1.447
       1.387
       0.941
       0.343
      -0.054
      -0.042
       0.265
       0.523
       0.460
       0.107
      -0.268
