Origin Time       21/9/2009 9:43:47	  UTC
Lat.              30.9 N	
Long.             79.1 E	
Depth (Km)         13.0
Magnitude         4.7
 Region           UTTARKASHI-UTTARAKHAND                                           
 Above details taken from IMD 
    
Station Code      CHA
Station Lat.       30.412  N
Station Long.      79.320  E
Station Height(m) 1578.0
Site Class        A   Vs30 between 700 m/sec to 1400 m/sec * 
Record Time       21.09.2009 09:43:50.149 UTC
Sampling Rate     200. Hz
 Record Duration   81.370 Sec.
 Direction         N-S (N positive)
Max. Acceleration    -11.377 cm/sec**2
     
  * For reference see Site Classification link of website 
     
 Base Line Corrected and Low Pass Filtered (Cut Off at 35 Hz) Time History
 Acceleration data in cm/sec**2
    
[...]
      -0.297
      -0.286
      -0.337
      -0.424
      -0.527
      -0.635
      -0.739
      -0.807
      -0.805
      -0.729
      -0.622
      -0.535
      -0.484
      -0.433
      -0.340
      -0.206
      -0.084
      -0.027
      -0.030
      -0.036
       0.012
       0.118
       0.239
       0.335
       0.410
       0.500
       0.639
       0.825
       1.026
       1.202
       1.324
       1.367
       1.311
       1.151
       0.915
       0.654
       0.407
       0.188
      -0.004
      -0.160
      -0.259
      -0.288
      -0.263
      -0.209
      -0.143
      -0.048
       0.095
       0.277
       0.453
       0.577
       0.638
       0.665
       0.686
       0.696
       0.673
       0.618
       0.556
       0.515
       0.482
       0.419
       0.301
       0.145
      -0.010
      -0.145
      -0.274
      -0.405
      -0.500
      -0.491
      -0.351
      -0.131
       0.066
       0.165
       0.161
       0.086
      -0.044
      -0.250
      -0.550
      -0.900
      -1.200
      -1.347
      -1.299
      -1.091
      -0.784
      -0.426
      -0.050
       0.311
       0.606
       0.794
       0.862
       0.822
       0.697
       0.511
       0.289
       0.072
      -0.096
      -0.185
      -0.201
      -0.181
      -0.163
      -0.164
      -0.187
      -0.229
      -0.294
      -0.382
      -0.491
      -0.614
      -0.734
      -0.819
      -0.821
      -0.705
      -0.475
      -0.188
       0.072
       0.251
       0.356
       0.443
       0.562
       0.716
       0.861
       0.940
       0.907
       0.741
       0.444
       0.047
      -0.388
      -0.795
      -1.124
      -1.373
      -1.574
      -1.753
      -1.892
      -1.932
      -1.817
      -1.542
      -1.162
      -0.758
      -0.389
      -0.073
       0.195
       0.426
       0.625
       0.794
       0.932
       1.025
       1.041
       0.961
       0.797
       0.598
       0.414
       0.260
       0.117
      -0.031
      -0.179
      -0.305
      -0.390
      -0.436
      -0.449
      -0.426
      -0.353
      -0.216
      -0.011
       0.251
       0.559
       0.894
       1.218
       1.473
       1.609
       1.618
       1.529
       1.376
       1.176
       0.930
       0.644
       0.336
       0.025
      -0.280
      -0.568
      -0.801
      -0.909
      -0.826
      -0.553
      -0.183
       0.153
       0.373
       0.488
       0.571
       0.675
       0.786
       0.856
       0.849
       0.781
       0.692
       0.605
       0.518
       0.417
       0.297
       0.159
      -0.001
      -0.181
      -0.355
      -0.469
      -0.477
      -0.375
      -0.218
      -0.082
      -0.030
      -0.089
      -0.259
      -0.527
      -0.865
      -1.225
      -1.548
      -1.789
      -1.940
      -2.027
      -2.064
      -2.030
      -1.888
      -1.623
      -1.270
      -0.888
      -0.524
      -0.186
       0.145
       0.486
       0.830
       1.147
       1.395
       1.521
       1.466
       1.208
       0.798
       0.350
      -0.022
      -0.275
      -0.454
      -0.635
      -0.844
      -1.038
      -1.137
      -1.093
      -0.919
      -0.677
      -0.436
      -0.240
      -0.095
       0.035
       0.210
       0.486
       0.867
       1.288
       1.655
       1.901
       2.020
       2.054
       2.040
       1.981
       1.859
       1.665
       1.420
       1.154
       0.891
       0.649
       0.458
       0.356
       0.346
       0.377
       0.356
       0.220
      -0.026
      -0.319
      -0.597
      -0.836
      -1.038
      -1.185
      -1.224
      -1.104
      -0.825
      -0.457
      -0.085
       0.243
       0.515
       0.723
       0.838
       0.834
       0.717
       0.535
       0.338
       0.154
      -0.006
      -0.114
      -0.123
      -0.001
       0.223
       0.467
       0.651
       0.750
       0.787
       0.792
       0.762
       0.670
       0.503
       0.273
       0.003
      -0.294
      -0.612
      -0.935
      -1.220
      -1.419
      -1.513
      -1.526
      -1.506
      -1.486
      -1.473
      -1.461
      -1.442
      -1.404
      -1.331
      -1.212
      -1.051
      -0.875
      -0.708
      -0.559
      -0.420
      -0.280
      -0.150
      -0.048
       0.028
       0.105
       0.210
       0.335
       0.433
       0.462
       0.411
       0.307
       0.188
       0.076
      -0.021
      -0.103
      -0.167
      -0.209
      -0.229
      -0.234
      -0.224
      -0.201
      -0.167
      -0.142
      -0.148
      -0.193
      -0.261
      -0.324
      -0.358
      -0.352
      -0.295
      -0.171
       0.026
       0.274
       0.514
       0.684
       0.762
       0.783
       0.799
       0.830
       0.858
       0.854
       0.814
       0.747
       0.646
       0.480
       0.236
      -0.038
      -0.251
      -0.321
      -0.236
      -0.056
       0.148
       0.335
       0.492
       0.601
       0.640
       0.614
       0.581
       0.609
       0.713
       0.828
       0.862
       0.778
       0.624
       0.481
       0.382
       0.286
       0.129
      -0.107
      -0.379
      -0.621
      -0.791
      -0.871
      -0.843
      -0.677
      -0.373
       0.016
       0.391
       0.667
       0.816
       0.861
       0.833
       0.728
       0.533
       0.259
      -0.044
      -0.314
      -0.516
      -0.654
      -0.747
      -0.811
      -0.866
      -0.935
      -1.030
      -1.128
      -1.174
      -1.115
      -0.944
      -0.708
      -0.468
      -0.255
      -0.056
       0.152
       0.366
       0.544
       0.635
       0.596
       0.415
       0.111
      -0.264
      -0.635
      -0.937
      -1.134
      -1.229
      -1.248
      -1.210
      -1.116
      -0.958
      -0.747
      -0.519
      -0.311
      -0.136
       0.025
       0.189
       0.358
       0.520
       0.672
       0.830
       1.004
       1.168
       1.263
       1.234
       1.071
       0.807
       0.484
       0.127
      -0.244
      -0.580
      -0.804
      -0.852
      -0.713
      -0.437
      -0.101
       0.219
       0.467
       0.598
       0.582
       0.431
       0.217
       0.046
      -0.001
       0.086
       0.255
       0.440
       0.592
       0.683
       0.696
       0.634
       0.536
       0.476
       0.512
       0.649
       0.826
       0.955
       0.978
       0.885
       0.700
       0.435
       0.093
      -0.313
      -0.735
      -1.091
      -1.303
      -1.327
      -1.179
      -0.925
      -0.652
      -0.430
      -0.285
      -0.207
      -0.168
      -0.158
      -0.194
      -0.297
      -0.453
      -0.591
      -0.621
      -0.495
      -0.249
       0.020
       0.213
       0.278
       0.225
       0.098
      -0.050
      -0.161
      -0.176
      -0.050
       0.210
       0.542
       0.854
       1.086
       1.215
       1.234
       1.125
       0.874
       0.514
       0.141
      -0.144
      -0.296
      -0.357
      -0.410
      -0.496
      -0.592
      -0.647
      -0.653
      -0.655
      -0.698
      -0.779
      -0.845
      -0.844
      -0.755
      -0.596
      -0.398
      -0.185
       0.023
       0.210
       0.360
       0.466
       0.531
       0.555
       0.524
       0.426
       0.269
       0.090
      -0.065
      -0.159
      -0.179
      -0.128
      -0.026
       0.103
       0.243
       0.397
       0.587
       0.835
       1.135
       1.434
       1.645
       1.697
       1.574
       1.330
       1.043
       0.768
       0.510
       0.244
      -0.050
      -0.366
      -0.684
      -0.982
      -1.243
      -1.451
      -1.585
      -1.623
      -1.544
      -1.327
      -0.950
      -0.415
       0.228
       0.872
       1.389
       1.692
       1.762
       1.639
       1.379
       1.032
       0.633
       0.223
      -0.159
      -0.478
      -0.721
      -0.889
      -0.975
      -0.969
      -0.868
      -0.705
      -0.537
      -0.417
      -0.359
      -0.335
      -0.301
      -0.223
      -0.083
       0.115
       0.350
       0.586
       0.774
       0.879
       0.904
       0.881
       0.835
       0.753
       0.607
       0.392
       0.148
      -0.065
      -0.211
      -0.293
      -0.336
      -0.351
      -0.337
      -0.301
      -0.279
      -0.310
      -0.403
      -0.530
      -0.660
      -0.796
      -0.965
      -1.169
      -1.367
      -1.501
      -1.551
      -1.544
      -1.507
      -1.415
      -1.198
      -0.810
      -0.285
       0.256
       0.682
       0.916
       0.957
       0.842
       0.608
       0.287
      -0.090
      -0.485
      -0.855
      -1.151
      -1.319
      -1.301
      -1.068
      -0.653
      -0.164
       0.266
       0.548
       0.683
       0.736
       0.774
       0.812
       0.823
       0.774
       0.648
       0.445
       0.179
      -0.130
      -0.444
      -0.713
      -0.903
      -1.014
      -1.069
      -1.079
      -1.021
      -0.873
      -0.656
      -0.444
      -0.315
      -0.294
      -0.344
      -0.392
      -0.377
      -0.269
      -0.077
       0.163
       0.398
       0.577
       0.678
       0.717
       0.730
       0.735
       0.712
       0.630
       0.493
       0.361
       0.320
       0.422
       0.657
       0.957
       1.227
       1.391
       1.424
       1.360
       1.280
       1.267
       1.353
       1.494
       1.601
       1.601
       1.490
       1.319
       1.129
       0.913
       0.632
       0.276
      -0.102
      -0.410
      -0.573
      -0.575
      -0.455
      -0.273
      -0.078
       0.086
       0.165
       0.105
      -0.114
      -0.452
      -0.828
      -1.161
      -1.391
      -1.467
      -1.338
      -0.977
      -0.428
       0.179
       0.686
       0.990
       1.088
       1.045
       0.922
       0.736
       0.487
       0.200
      -0.068
      -0.258
      -0.341
      -0.329
      -0.252
      -0.151
      -0.073
      -0.059
      -0.133
      -0.271
      -0.417
      -0.508
      -0.522
      -0.474
      -0.400
      -0.327
      -0.272
      -0.250
      -0.258
      -0.268
      -0.239
      -0.153
      -0.040
       0.040
       0.046
      -0.010
      -0.073
      -0.103
      -0.113
      -0.157
      -0.268
      -0.416
      -0.529
      -0.544
      -0.453
      -0.286
      -0.079
       0.143
       0.342
       0.464
       0.454
       0.296
       0.036
      -0.246
      -0.490
      -0.673
      -0.786
      -0.804
      -0.689
      -0.438
      -0.104
       0.224
       0.464
       0.574
       0.546
       0.394
       0.164
      -0.051
      -0.127
       0.034
       0.432
       0.961
       1.478
       1.884
       2.150
       2.271
       2.222
       1.960
       1.470
       0.806
       0.079
      -0.581
      -1.069
      -1.323
      -1.329
      -1.131
      -0.833
      -0.570
      -0.448
      -0.491
      -0.644
      -0.820
      -0.959
      -1.032
      -1.022
      -0.914
      -0.702
      -0.431
      -0.191
      -0.086
      -0.169
      -0.413
      -0.725
      -0.993
      -1.132
      -1.103
      -0.921
      -0.648
      -0.364
      -0.131
       0.020
       0.080
       0.045
      -0.093
      -0.312
      -0.541
      -0.677
      -0.641
      -0.431
      -0.127
       0.168
       0.385
       0.502
       0.516
       0.421
       0.226
      -0.023
      -0.255
      -0.414
      -0.482
      -0.473
      -0.398
      -0.257
      -0.057
       0.157
       0.308
       0.329
       0.206
      -0.011
      -0.235
      -0.383
      -0.402
      -0.288
      -0.096
       0.078
       0.156
       0.126
       0.063
       0.069
       0.193
       0.387
       0.539
       0.558
       0.441
       0.254
       0.071
      -0.068
      -0.154
      -0.181
      -0.146
      -0.071
      -0.015
      -0.044
      -0.181
      -0.383
      -0.574
      -0.703
      -0.771
      -0.815
      -0.863
      -0.918
      -0.985
      -1.080
      -1.221
      -1.397
      -1.562
      -1.681
      -1.748
      -1.777
      -1.752
      -1.601
      -1.250
      -0.703
      -0.074
       0.478
       0.864
       1.103
       1.247
       1.293
       1.187
       0.891
       0.428
      -0.138
      -0.735
      -1.303
      -1.784
      -2.127
      -2.314
      -2.369
      -2.345
      -2.274
      -2.141
      -1.893
      -1.482
      -0.902
      -0.184
       0.615
       1.421
       2.159
       2.771
       3.232
       3.538
       3.702
       3.743
       3.673
       3.494
       3.207
       2.829
       2.399
       1.956
       1.507
       1.037
       0.545
       0.075
      -0.296
      -0.516
      -0.586
      -0.561
      -0.501
      -0.440
      -0.392
      -0.365
      -0.357
      -0.341
      -0.262
      -0.075
       0.217
       0.577
       0.987
       1.471
       2.067
       2.774
       3.537
       4.285
       4.964
       5.543
       5.982
       6.232
       6.278
       6.165
       5.973
       5.722
       5.319
       4.609
       3.489
       1.989
       0.258
      -1.510
      -3.143
      -4.504
      -5.483
      -5.980
      -5.928
      -5.310
      -4.172
      -2.621
      -0.810
       1.085
       2.904
       4.538
       5.921
       7.004
       7.718
       7.978
       7.728
       6.971
       5.770
       4.224
       2.442
       0.517
      -1.483
      -3.502
      -5.471
      -7.308
      -8.910
     -10.176
     -11.016
     -11.377
     -11.252
     -10.660
      -9.623
      -8.160
      -6.310
      -4.181
      -1.970
       0.085
       1.797
       3.109
       4.048
       4.640
       4.850
       4.613
       3.911
       2.837
       1.592
       0.402
      -0.593
      -1.386
      -2.036
      -2.575
      -2.974
      -3.213
      -3.336
      -3.422
      -3.519
      -3.618
      -3.691
      -3.728
      -3.719
      -3.643
      -3.491
      -3.292
      -3.085
      -2.856
      -2.526
      -2.021
      -1.366
      -0.686
      -0.122
       0.263
       0.487
       0.585
       0.568
       0.439
       0.241
       0.054
      -0.056
      -0.077
      -0.036
       0.033
       0.091
       0.091
      -0.014
      -0.238
      -0.534
      -0.821
      -1.021
      -1.086
      -1.000
      -0.761
      -0.367
       0.181
       0.871
       1.665
       2.485
       3.240
       3.857
       4.304
       4.571
       4.641
       4.501
       4.173
       3.734
       3.274
       2.834
       2.381
       1.859
       1.249
       0.584
      -0.083
      -0.704
      -1.226
      -1.588
      -1.751
      -1.734
      -1.611
      -1.468
      -1.351
      -1.260
      -1.191
      -1.161
      -1.191
      -1.269
      -1.357
      -1.411
      -1.404
      -1.311
      -1.101
      -0.758
      -0.320
       0.118
       0.445
       0.573
       0.467
       0.135
      -0.384
      -1.018
      -1.669
      -2.231
      -2.634
      -2.874
      -2.994
      -3.018
      -2.892
      -2.490
      -1.697
      -0.497
       1.006
       2.635
       4.217
       5.628
       6.766
       7.527
       7.807
       7.547
       6.778
       5.621
       4.246
       2.830
       1.525
       0.448
      -0.330
      -0.798
      -0.997
      -0.989
      -0.820
      -0.503
      -0.025
       0.620
       1.411
       2.307
       3.251
       4.172
       4.989
       5.627
       6.051
       6.261
       6.259
       6.017
       5.487
       4.654
       3.587
       2.423
       1.288
       0.219
      -0.848
      -1.996
      -3.225
      -4.435
      -5.492
      -6.319
      -6.916
      -7.319
      -7.541
      -7.559
      -7.336
      -6.846
      -6.091
      -5.096
      -3.923
      -2.666
      -1.440
      -0.345
       0.564
       1.260
       1.725
       1.939
       1.901
       1.642
       1.214
       0.666
       0.033
      -0.644
      -1.303
      -1.855
      -2.225
      -2.381
      -2.348
      -2.183
      -1.946
      -1.685
      -1.429
      -1.192
      -0.981
      -0.824
      -0.786
      -0.952
      -1.363
      -1.966
      -2.615
      -3.142
      -3.433
      -3.472
      -3.301
      -2.954
      -2.416
      -1.663
      -0.731
       0.249
       1.104
       1.693
       1.958
       1.911
       1.593
       1.053
       0.354
      -0.419
      -1.176
      -1.853
      -2.422
      -2.862
      -3.125
      -3.141
      -2.861
      -2.308
      -1.558
      -0.695
       0.235
       1.225
       2.280
       3.386
       4.496
       5.527
       6.375
       6.947
       7.197
       7.157
       6.922
       6.591
       6.205
       5.747
       5.184
       4.529
       3.859
       3.267
       2.801
       2.439
       2.112
       1.762
       1.391
       1.055
       0.841
       0.828
       1.055
       1.486
       2.007
       2.456
       2.693
       2.661
       2.390
       1.941
       1.355
       0.633
      -0.232
      -1.215
      -2.248
      -3.244
      -4.131
      -4.869
      -5.449
      -5.884
      -6.205
      -6.442
      -6.602
      -6.670
      -6.632
      -6.500
      -6.319
      -6.130
      -5.948
      -5.748
      -5.492
      -5.147
      -4.699
      -4.143
      -3.476
      -2.719
      -1.927
      -1.199
      -0.645
      -0.330
      -0.257
      -0.380
      -0.644
      -1.003
      -1.420
      -1.843
      -2.200
      -2.418
      -2.445
      -2.262
      -1.865
      -1.265
      -0.486
       0.421
       1.398
       2.392
       3.364
       4.267
       5.043
       5.633
       5.996
       6.124
       6.020
       5.679
       5.097
       4.295
       3.360
       2.423
       1.618
       1.021
       0.654
       0.531
       0.687
       1.152
       1.897
       2.803
       3.687
       4.379
       4.775
       4.860
       4.678
       4.293
       3.765
       3.142
       2.462
       1.762
       1.073
       0.416
      -0.206
      -0.812
      -1.422
      -2.027
      -2.577
      -3.001
      -3.255
      -3.350
      -3.343
      -3.290
      -3.206
      -3.071
      -2.878
      -2.675
      -2.540
      -2.531
      -2.653
      -2.869
      -3.133
      -3.388
      -3.548
      -3.509
      -3.201
      -2.636
      -1.909
      -1.132
      -0.369
       0.380
       1.128
       1.862
       2.534
       3.093
       3.506
       3.755
       3.825
       3.707
       3.410
       2.959
       2.393
       1.755
       1.102
       0.517
       0.114
       0.012
       0.286
       0.937
       1.894
       3.052
       4.299
       5.518
       6.578
       7.337
       7.675
       7.525
       6.887
       5.822
       4.441
       2.880
       1.273
      -0.281
      -1.734
      -3.077
      -4.285
      -5.276
      -5.925
      -6.140
      -5.922
      -5.352
      -4.534
      -3.534
      -2.397
      -1.186
      -0.010
       1.000
       1.739
       2.161
       2.266
       2.061
       1.563
       0.810
      -0.124
      -1.147
      -2.175
      -3.139
      -3.971
      -4.603
      -4.986
      -5.118
      -5.035
      -4.773
      -4.329
      -3.686
      -2.851
      -1.895
      -0.939
      -0.104
       0.527
       0.919
       1.081
       1.049
       0.886
       0.655
