Origin Time       04/10/2007 5:14:15  UTC
Lat.              32.5 N 
Long.             76.0 E 
Depth (Km)         10.0
Magnitude         3.8
 Region           CHAMBA-HIMACHAL                                                  
 Above details taken from IMD 
    
Station Code      CHA
Station Lat.       32.555  N
Station Long.      76.126  E
Station Height(m)  952.0
Site Class        A   Vs30 between 700 m/sec to 1400 m/sec * 
Record Time       04.10.2007 05:14:02.534 UTC
Sampling Rate     200. Hz
 Record Duration   33.770 Sec.
 Direction         N-S (N positive)
Max. Acceleration     28.845 cm/sec**2
     
  * For reference see Site Classification link of website 
     
 Base Line Corrected and Low Pass Filtered (Cut Off at 35 Hz) Time History
 Acceleration data in cm/sec**2
    
[...]
      -0.007
      -0.004
       0.002
       0.004
       0.001
      -0.005
      -0.009
      -0.008
      -0.004
      -0.001
       0.001
       0.000
      -0.003
      -0.009
      -0.017
      -0.023
      -0.024
      -0.016
      -0.003
       0.007
       0.006
      -0.006
      -0.019
      -0.024
      -0.015
      -0.002
       0.006
       0.001
      -0.011
      -0.019
      -0.016
      -0.006
       0.002
       0.003
      -0.001
      -0.006
      -0.010
      -0.014
      -0.017
      -0.016
      -0.012
      -0.006
      -0.003
      -0.005
      -0.010
      -0.014
      -0.012
      -0.006
      -0.001
       0.000
       0.000
      -0.001
       0.000
       0.002
       0.003
       0.003
       0.002
      -0.002
      -0.007
      -0.010
      -0.008
      -0.004
      -0.002
      -0.006
      -0.013
      -0.017
      -0.013
      -0.002
       0.009
       0.011
       0.005
      -0.006
      -0.012
      -0.009
      -0.002
      -0.001
      -0.012
      -0.028
      -0.036
      -0.030
      -0.016
      -0.001
       0.007
       0.006
       0.000
      -0.005
      -0.007
      -0.009
      -0.014
      -0.019
      -0.020
      -0.015
      -0.008
      -0.004
      -0.002
      -0.002
      -0.003
      -0.005
      -0.009
      -0.013
      -0.013
      -0.007
       0.003
       0.009
       0.006
      -0.003
      -0.010
      -0.009
      -0.003
       0.000
      -0.003
      -0.009
      -0.013
      -0.009
       0.002
       0.013
       0.017
       0.014
       0.009
       0.007
       0.003
      -0.005
      -0.015
      -0.020
      -0.015
      -0.006
       0.000
      -0.002
      -0.010
      -0.016
      -0.011
       0.001
       0.011
       0.012
       0.008
       0.002
      -0.005
      -0.015
      -0.021
      -0.017
      -0.006
       0.000
      -0.003
      -0.011
      -0.012
      -0.004
       0.004
       0.004
      -0.004
      -0.014
      -0.020
      -0.020
      -0.021
      -0.025
      -0.029
      -0.027
      -0.020
      -0.010
      -0.001
       0.003
       0.002
      -0.003
      -0.008
      -0.008
      -0.005
      -0.006
      -0.009
      -0.012
      -0.010
      -0.005
       0.001
       0.004
       0.004
       0.002
       0.000
      -0.002
      -0.005
      -0.010
      -0.014
      -0.014
      -0.010
      -0.005
      -0.005
      -0.009
      -0.013
      -0.013
      -0.008
       0.000
       0.006
       0.009
       0.008
       0.005
       0.004
       0.005
       0.007
       0.008
       0.007
       0.003
      -0.002
      -0.007
      -0.009
      -0.007
      -0.002
       0.005
       0.008
       0.007
       0.003
       0.002
       0.005
       0.011
       0.012
       0.008
       0.000
      -0.008
      -0.012
      -0.012
      -0.008
      -0.005
      -0.003
       0.001
       0.010
       0.020
       0.026
       0.024
       0.015
       0.003
      -0.004
      -0.003
       0.000
      -0.003
      -0.016
      -0.028
      -0.030
      -0.016
       0.007
       0.026
       0.033
       0.023
       0.005
      -0.011
      -0.017
      -0.013
      -0.004
       0.004
       0.007
       0.004
      -0.002
      -0.006
      -0.005
      -0.002
       0.000
      -0.001
      -0.001
      -0.001
       0.001
       0.003
       0.000
      -0.007
      -0.019
      -0.029
      -0.031
      -0.021
      -0.002
       0.017
       0.024
       0.015
      -0.003
      -0.016
      -0.015
      -0.004
       0.006
       0.006
      -0.001
      -0.007
      -0.007
      -0.002
       0.001
      -0.001
      -0.008
      -0.017
      -0.021
      -0.017
      -0.009
       0.000
       0.004
       0.003
      -0.003
      -0.008
      -0.009
      -0.011
      -0.017
      -0.023
      -0.021
      -0.009
       0.005
       0.012
       0.011
       0.005
       0.000
      -0.003
      -0.005
      -0.009
      -0.017
      -0.026
      -0.031
      -0.029
      -0.024
      -0.021
      -0.021
      -0.020
      -0.012
       0.002
       0.015
       0.017
       0.006
      -0.012
      -0.023
      -0.021
      -0.010
      -0.003
      -0.006
      -0.014
      -0.019
      -0.014
      -0.002
       0.006
       0.001
      -0.015
      -0.030
      -0.034
      -0.025
      -0.012
      -0.003
      -0.002
      -0.006
      -0.011
      -0.010
      -0.006
      -0.006
      -0.013
      -0.020
      -0.022
      -0.017
      -0.015
      -0.018
      -0.024
      -0.024
      -0.014
      -0.001
       0.004
      -0.002
      -0.013
      -0.017
      -0.006
       0.011
       0.018
       0.012
       0.000
      -0.004
       0.002
       0.013
       0.016
       0.007
      -0.009
      -0.017
      -0.011
       0.004
       0.014
       0.012
       0.003
      -0.003
      -0.002
       0.003
       0.006
       0.004
      -0.001
      -0.006
      -0.006
      -0.002
       0.005
       0.010
       0.011
       0.007
       0.000
      -0.006
      -0.005
       0.004
       0.018
       0.028
       0.028
       0.018
       0.003
      -0.006
      -0.007
       0.001
       0.009
       0.009
       0.003
      -0.005
      -0.009
      -0.007
      -0.001
       0.002
       0.001
      -0.001
       0.001
       0.007
       0.014
       0.015
       0.011
       0.007
       0.005
       0.005
       0.003
      -0.002
      -0.005
      -0.005
      -0.001
       0.003
       0.004
       0.003
       0.003
       0.004
       0.003
      -0.001
      -0.007
      -0.010
      -0.009
      -0.004
       0.001
       0.002
      -0.001
      -0.004
      -0.003
       0.002
       0.006
       0.006
       0.001
      -0.003
      -0.004
      -0.007
      -0.014
      -0.023
      -0.031
      -0.030
      -0.016
       0.003
       0.015
       0.013
       0.001
      -0.011
      -0.014
      -0.007
       0.002
       0.006
       0.001
      -0.009
      -0.015
      -0.011
      -0.001
       0.008
       0.009
       0.003
      -0.005
      -0.009
      -0.006
       0.002
       0.009
       0.008
       0.003
       0.002
       0.007
       0.016
       0.022
       0.021
       0.011
      -0.001
      -0.010
      -0.010
      -0.003
       0.004
       0.007
       0.008
       0.008
       0.009
       0.011
       0.011
       0.005
      -0.004
      -0.011
      -0.010
      -0.001
       0.008
       0.015
       0.016
       0.014
       0.009
       0.005
       0.002
      -0.001
      -0.005
      -0.009
      -0.009
      -0.005
      -0.001
       0.002
       0.007
       0.015
       0.020
       0.018
       0.012
       0.009
       0.009
       0.008
       0.004
      -0.003
      -0.006
      -0.003
       0.006
       0.014
       0.014
       0.007
      -0.001
      -0.005
      -0.005
      -0.001
       0.005
       0.011
       0.012
       0.005
      -0.006
      -0.011
      -0.007
       0.003
       0.012
       0.016
       0.010
      -0.002
      -0.013
      -0.019
      -0.018
      -0.014
      -0.008
      -0.003
      -0.003
      -0.008
      -0.015
      -0.016
      -0.009
       0.000
       0.004
      -0.001
      -0.013
      -0.024
      -0.024
      -0.010
       0.009
       0.020
       0.017
       0.007
      -0.002
      -0.006
      -0.002
       0.005
       0.009
       0.008
       0.003
       0.000
       0.001
       0.004
       0.003
      -0.002
      -0.007
      -0.010
      -0.006
       0.001
       0.006
       0.003
      -0.006
      -0.012
      -0.012
      -0.005
       0.004
       0.010
       0.012
       0.011
       0.009
       0.005
       0.002
      -0.003
      -0.008
      -0.009
      -0.004
       0.004
       0.010
       0.009
       0.001
      -0.009
      -0.015
      -0.013
      -0.006
      -0.001
       0.002
       0.005
       0.009
       0.014
       0.014
       0.011
       0.005
       0.000
      -0.004
      -0.007
      -0.007
      -0.003
       0.003
       0.008
       0.010
       0.009
       0.008
       0.010
       0.013
       0.011
       0.004
      -0.001
      -0.001
       0.004
       0.008
       0.009
       0.007
       0.002
      -0.005
      -0.009
      -0.007
      -0.001
       0.002
       0.000
      -0.004
       0.001
       0.016
       0.031
       0.035
       0.023
       0.001
      -0.014
      -0.012
       0.002
       0.015
       0.018
       0.012
       0.006
       0.005
       0.007
       0.009
       0.007
       0.001
      -0.007
      -0.013
      -0.015
      -0.013
      -0.009
      -0.004
       0.001
       0.005
       0.007
       0.008
       0.006
       0.001
      -0.003
      -0.002
       0.003
       0.010
       0.014
       0.013
       0.008
      -0.001
      -0.011
      -0.018
      -0.020
      -0.017
      -0.010
      -0.001
       0.006
       0.010
       0.011
       0.012
       0.014
       0.013
       0.007
      -0.001
      -0.005
      -0.003
       0.002
       0.004
       0.001
      -0.004
      -0.006
      -0.003
       0.002
       0.002
      -0.003
      -0.007
      -0.007
      -0.003
       0.002
       0.009
       0.016
       0.018
       0.014
       0.005
      -0.005
      -0.011
      -0.010
      -0.005
      -0.001
      -0.002
      -0.008
      -0.012
      -0.009
      -0.003
       0.001
      -0.001
      -0.007
      -0.010
      -0.007
       0.002
       0.009
       0.008
      -0.001
      -0.012
      -0.016
      -0.011
       0.001
       0.011
       0.013
       0.005
      -0.006
      -0.009
      -0.003
       0.005
       0.006
      -0.002
      -0.013
      -0.021
      -0.023
      -0.017
      -0.005
       0.008
       0.015
       0.012
       0.003
      -0.006
      -0.008
      -0.004
       0.000
      -0.002
      -0.012
      -0.021
      -0.020
      -0.007
       0.008
       0.016
       0.015
       0.010
       0.003
      -0.003
      -0.008
      -0.010
      -0.009
      -0.006
      -0.003
      -0.001
      -0.002
      -0.005
      -0.005
      -0.002
       0.000
      -0.002
      -0.007
      -0.011
      -0.013
      -0.014
      -0.011
      -0.005
       0.001
       0.002
      -0.002
      -0.005
      -0.006
      -0.003
       0.003
       0.007
       0.007
       0.004
       0.001
      -0.001
      -0.002
      -0.004
      -0.001
       0.009
       0.023
       0.032
       0.027
       0.007
      -0.014
      -0.021
      -0.003
       0.028
       0.040
       0.012
      -0.042
      -0.072
      -0.055
      -0.070
      -0.323
      -1.053
      -2.362
      -4.035
      -5.442
      -5.642
      -3.835
      -0.117
       4.074
       6.565
       5.978
       2.861
      -0.808
      -3.306
      -4.216
      -3.846
      -2.164
       1.007
       4.815
       7.219
       6.597
       3.388
      -0.167
      -1.903
      -1.341
       0.177
       0.670
      -0.866
      -3.607
      -5.770
      -6.520
      -6.693
      -7.220
      -7.343
      -5.285
      -0.713
       4.204
       6.538
       5.113
       1.345
      -1.875
      -2.149
       0.790
       4.930
       7.903
       9.239
      10.177
      11.156
      10.604
       7.093
       1.992
      -1.339
      -1.067
       1.329
       3.021
       2.743
       1.257
      -0.399
      -2.299
      -5.310
      -9.808
     -14.791
     -18.086
     -17.653
     -13.132
      -6.388
      -0.454
       2.423
       2.139
       0.571
       0.157
       2.275
       6.409
      10.667
      13.308
      13.911
      12.969
      10.561
       6.112
      -0.165
      -6.077
      -8.577
      -6.453
      -1.685
       2.147
       2.791
       0.687
      -2.298
      -5.013
      -7.567
      -9.880
     -10.382
      -7.045
      -0.081
       6.939
       9.546
       6.383
       0.564
      -3.208
      -2.826
      -0.087
       1.815
       1.579
       0.454
       0.046
       0.229
      -0.388
      -2.284
      -4.094
      -4.114
      -2.262
      -0.092
       1.017
       1.299
       2.136
       4.351
       7.120
       8.606
       7.660
       4.899
       2.128
       0.782
       0.887
       1.333
       0.829
      -1.350
      -5.055
      -9.150
     -11.835
     -11.635
      -8.572
      -4.345
      -1.094
       0.198
       0.191
       0.238
       1.065
       2.323
       3.130
       2.880
       1.646
       0.084
      -0.982
      -1.035
      -0.123
       1.301
       2.732
       3.829
       4.364
       4.172
       3.328
       2.385
       2.231
       3.400
       5.372
       6.697
       6.079
       3.533
       0.399
      -1.960
      -3.451
      -5.034
      -7.214
      -9.039
      -8.936
      -6.491
      -3.112
      -0.838
      -0.647
      -1.901
      -3.060
      -2.664
      -0.006
       4.386
       8.629
      10.342
       8.330
       3.707
      -0.792
      -2.808
      -1.848
       0.924
       4.047
       6.709
       8.474
       8.525
       5.687
      -0.457
      -8.501
     -15.533
     -18.849
     -17.609
     -12.993
      -6.932
      -0.872
       4.327
       7.673
       7.756
       3.506
      -4.536
     -13.666
     -19.939
     -20.157
     -13.689
      -2.922
       8.016
      15.539
      18.523
      18.495
      17.739
      16.818
      13.937
       7.095
      -2.943
     -11.923
     -14.663
      -8.730
       3.798
      17.594
      27.045
      28.845
      23.011
      12.194
      -0.039
     -10.871
     -18.871
     -23.512
     -24.398
     -21.187
     -14.245
      -5.209
       3.327
       8.853
       9.990
       7.052
       1.979
      -2.422
      -3.835
      -1.700
       2.585
       6.791
       9.378
      10.200
      10.066
       9.815
       9.663
       9.090
       7.184
       3.336
      -2.017
      -7.319
     -10.949
     -12.624
     -13.567
     -15.032
     -16.696
     -16.687
     -13.260
      -6.540
       1.141
       6.451
       6.937
       2.596
      -3.752
      -7.833
      -6.647
      -0.734
       6.066
       9.461
       7.775
       2.608
      -3.098
      -7.264
      -9.210
      -8.881
      -6.432
      -2.663
       0.813
       2.514
       2.301
       1.375
       1.015
       1.482
       2.192
       2.722
       3.438
       5.176
       8.464
      12.906
      17.061
      18.922
      16.983
      11.384
       4.144
      -2.012
      -5.424
      -6.421
      -6.628
      -7.443
      -9.105
     -10.987
     -12.409
     -12.876
     -11.768
      -8.489
      -3.478
       1.150
       2.803
       0.846
      -2.350
      -3.304
      -0.627
       3.831
       7.138
       8.281
       8.715
      10.032
      11.640
      11.125
       6.844
      -0.126
      -6.658
     -10.039
      -9.793
      -7.478
      -5.101
      -3.805
      -3.673
      -4.250
      -4.989
      -5.367
      -4.988
      -3.845
      -2.407
      -1.234
      -0.402
       0.642
       2.550
       5.357
       8.253
      10.040
       9.923
       8.064
       5.471
       3.260
       1.846
       0.801
      -0.454
      -1.834
      -2.548
      -1.920
      -0.210
       1.456
       2.001
       1.255
      -0.005
      -0.747
      -0.428
       0.747
       2.064
       2.738
       2.268
       0.578
      -1.971
      -4.601
      -6.236
      -5.944
      -3.624
      -0.379
       2.029
       2.405
       0.992
      -0.895
      -2.118
      -2.579
      -2.849
      -3.128
      -2.824
      -1.283
       1.163
       3.088
       3.013
       0.617
      -2.992
      -6.053
      -7.239
      -6.270
      -3.843
      -1.147
       0.745
       1.392
       1.191
       1.081
       1.807
       3.284
       4.638
       4.986
       4.258
       3.285
       3.037
       3.742
       4.658
       4.704
       3.353
       1.044
      -1.178
      -2.386
      -2.264
      -1.099
       0.520
       1.977
       2.767
       2.622
       1.675
       0.460
      -0.362
      -0.421
       0.154
       0.874
       1.237
       1.008
       0.299
      -0.572
      -1.294
      -1.703
      -1.763
      -1.478
      -0.906
      -0.275
      -0.009
      -0.518
      -1.887
      -3.754
      -5.531
      -6.737
      -7.178
      -6.858
      -5.867
      -4.453
      -3.134
      -2.526
      -2.857
      -3.607
      -3.770
      -2.620
      -0.295
       2.335
       4.380
       5.509
       5.903
       5.784
       5.139
       3.913
       2.363
       1.057
       0.466
       0.554
       0.844
       0.865
       0.531
       0.065
      -0.327
      -0.606
      -0.714
      -0.421
       0.487
       1.840
       3.025
       3.408
       2.866
       1.891
       1.162
       0.987
       1.107
       1.030
       0.538
      -0.105
      -0.415
      -0.135
       0.572
       1.300
       1.759
       1.952
       2.070
       2.225
       2.279
       1.919
       0.928
      -0.607
      -2.332
      -3.860
      -4.969
      -5.579
      -5.637
      -5.071
      -3.916
      -2.448
      -1.162
      -0.518
      -0.632
      -1.184
      -1.642
      -1.647
      -1.225
      -0.655
      -0.183
       0.152
       0.455
       0.820
       1.247
       1.636
       1.805
       1.542
       0.742
      -0.425
      -1.465
      -1.800
      -1.209
      -0.134
       0.521
       0.070
      -1.322
      -2.658
      -2.842
      -1.551
       0.530
       2.296
       3.092
       3.131
       3.146
       3.658
       4.516
       5.072
       4.775
       3.666
       2.384
       1.706
       1.982
       2.885
       3.670
       3.713
       2.942
       1.835
       1.030
       0.857
       1.121
       1.261
       0.755
      -0.487
      -1.996
      -3.012
      -2.965
      -1.863
      -0.306
       0.884
       1.139
       0.453
      -0.652
      -1.477
      -1.606
      -1.172
      -0.703
      -0.664
      -1.103
      -1.722
      -2.238
      -2.627
      -3.031
      -3.468
      -3.729
      -3.543
      -2.834
      -1.815
      -0.863
      -0.325
      -0.388
      -1.045
      -2.103
      -3.247
      -4.157
      -4.654
      -4.766
      -4.676
      -4.560
      -4.433
      -4.132
      -3.451
      -2.361
      -1.119
      -0.140
       0.311
       0.367
       0.518
       1.238
       2.578
       4.080
       5.134
       5.478
       5.367
       5.261
       5.342
       5.361
       4.922
       3.911
       2.633
       1.569
       0.991
       0.816
       0.765
       0.634
       0.418
       0.227
       0.144
       0.165
       0.215
       0.182
      -0.042
      -0.477
      -0.963
      -1.189
      -0.893
      -0.117
       0.743
       1.186
       0.995
       0.418
      -0.047
      -0.091
       0.158
       0.289
      -0.001
      -0.637
      -1.247
      -1.475
      -1.221
      -0.657
      -0.053
       0.390
       0.587
       0.516
       0.165
      -0.458
      -1.271
      -2.063
      -2.531
      -2.406
      -1.619
      -0.410
       0.766
       1.499
       1.676
       1.515
       1.349
       1.375
       1.577
       1.857
       2.169
       2.521
       2.874
       3.091
       3.011
       2.579
       1.901
       1.177
