Origin Time       18/9/2011 12:40:47	
Lat.              27.6 N	
Long.             88.2 E	
Depth (Km)         10.0
Magnitude         6.8
 Region           India(Sikkim)-Nepar-Border                                       
 Above details taken from IMD 
   
Station Code      CMO
Station Lat.       30.412
Station Long.      79.320
Station Height(m) 1578.0
Site Class        A   Vs30 between 700 m/sec to 1400 m/sec * 
Record Time       18.09.2011 12:43:51.969
Sampling Rate     200. Hz
 Record Duration   92.255 Sec.
 Direction         Vert. (Up positive)
Max. Acceleration     -0.614 cm/sec**2
     
  * For reference see Site Classification link of website 
     
 Base Line Corrected and Low Pass Filtered (Cut Off at 35 Hz) Time History
 Acceleration data in cm/sec**2
    
[...]
      -0.287
      -0.291
      -0.296
      -0.295
      -0.282
      -0.262
      -0.246
      -0.237
      -0.230
      -0.222
      -0.210
      -0.187
      -0.143
      -0.083
      -0.015
       0.054
       0.121
       0.172
       0.196
       0.196
       0.189
       0.186
       0.197
       0.231
       0.285
       0.338
       0.371
       0.383
       0.384
       0.375
       0.344
       0.294
       0.242
       0.207
       0.194
       0.201
       0.216
       0.216
       0.191
       0.151
       0.117
       0.102
       0.107
       0.126
       0.151
       0.158
       0.132
       0.076
       0.004
      -0.080
      -0.173
      -0.258
      -0.311
      -0.327
      -0.321
      -0.311
      -0.307
      -0.317
      -0.345
      -0.381
      -0.402
      -0.397
      -0.372
      -0.340
      -0.310
      -0.289
      -0.275
      -0.255
      -0.220
      -0.178
      -0.140
      -0.105
      -0.060
      -0.008
       0.034
       0.055
       0.059
       0.052
       0.039
       0.027
       0.030
       0.052
       0.083
       0.114
       0.141
       0.164
       0.179
       0.186
       0.191
       0.195
       0.200
       0.214
       0.246
       0.297
       0.352
       0.402
       0.441
       0.465
       0.466
       0.454
       0.448
       0.457
       0.464
       0.457
       0.439
       0.418
       0.393
       0.360
       0.323
       0.284
       0.244
       0.204
       0.166
       0.123
       0.057
      -0.035
      -0.140
      -0.238
      -0.311
      -0.347
      -0.340
      -0.303
      -0.262
      -0.229
      -0.192
      -0.147
      -0.106
      -0.085
      -0.080
      -0.082
      -0.084
      -0.080
      -0.069
      -0.060
      -0.068
      -0.101
      -0.149
      -0.200
      -0.244
      -0.268
      -0.258
      -0.223
      -0.185
      -0.159
      -0.144
      -0.141
      -0.160
      -0.195
      -0.222
      -0.218
      -0.187
      -0.145
      -0.108
      -0.090
      -0.099
      -0.131
      -0.163
      -0.173
      -0.159
      -0.127
      -0.081
      -0.023
       0.032
       0.075
       0.102
       0.112
       0.102
       0.082
       0.074
       0.087
       0.104
       0.103
       0.085
       0.066
       0.050
       0.040
       0.047
       0.080
       0.134
       0.192
       0.241
       0.276
       0.289
       0.278
       0.252
       0.226
       0.202
       0.180
       0.168
       0.169
       0.174
       0.171
       0.163
       0.151
       0.126
       0.085
       0.041
       0.013
      -0.002
      -0.023
      -0.055
      -0.090
      -0.121
      -0.151
      -0.183
      -0.214
      -0.240
      -0.251
      -0.239
      -0.209
      -0.185
      -0.190
      -0.227
      -0.279
      -0.331
      -0.369
      -0.377
      -0.349
      -0.304
      -0.268
      -0.246
      -0.230
      -0.217
      -0.210
      -0.202
      -0.180
      -0.142
      -0.099
      -0.061
      -0.031
      -0.018
      -0.027
      -0.050
      -0.070
      -0.075
      -0.060
      -0.022
       0.031
       0.081
       0.113
       0.132
       0.148
       0.156
       0.142
       0.115
       0.100
       0.110
       0.137
       0.170
       0.204
       0.236
       0.261
       0.290
       0.335
       0.395
       0.457
       0.506
       0.538
       0.543
       0.516
       0.461
       0.389
       0.304
       0.210
       0.128
       0.079
       0.061
       0.051
       0.032
       0.004
      -0.033
      -0.082
      -0.135
      -0.168
      -0.172
      -0.156
      -0.138
      -0.126
      -0.123
      -0.129
      -0.140
      -0.149
      -0.157
      -0.170
      -0.183
      -0.183
      -0.166
      -0.146
      -0.132
      -0.130
      -0.144
      -0.175
      -0.203
      -0.201
      -0.169
      -0.141
      -0.147
      -0.185
      -0.229
      -0.263
      -0.281
      -0.284
      -0.277
      -0.263
      -0.234
      -0.182
      -0.122
      -0.085
      -0.085
      -0.109
      -0.135
      -0.147
      -0.137
      -0.097
      -0.040
       0.013
       0.058
       0.108
       0.165
       0.212
       0.234
       0.241
       0.246
       0.247
       0.236
       0.209
       0.167
       0.111
       0.049
       0.004
      -0.013
      -0.006
       0.017
       0.052
       0.089
       0.110
       0.110
       0.100
       0.086
       0.061
       0.025
       0.000
      -0.001
       0.014
       0.027
       0.028
       0.010
      -0.031
      -0.091
      -0.147
      -0.178
      -0.180
      -0.159
      -0.119
      -0.064
      -0.002
       0.059
       0.120
       0.171
       0.198
       0.196
       0.187
       0.187
       0.183
       0.155
       0.100
       0.033
      -0.035
      -0.095
      -0.132
      -0.142
      -0.139
      -0.141
      -0.153
      -0.165
      -0.175
      -0.181
      -0.182
      -0.179
      -0.179
      -0.183
      -0.172
      -0.138
      -0.091
      -0.053
      -0.029
      -0.012
      -0.005
      -0.004
       0.009
       0.049
       0.105
       0.156
       0.189
       0.206
       0.203
       0.176
       0.135
       0.099
       0.080
       0.075
       0.077
       0.078
       0.062
       0.023
      -0.027
      -0.070
      -0.104
      -0.129
      -0.136
      -0.119
      -0.096
      -0.085
      -0.087
      -0.090
      -0.097
      -0.116
      -0.140
      -0.151
      -0.142
      -0.119
      -0.090
      -0.063
      -0.054
      -0.071
      -0.099
      -0.116
      -0.111
      -0.088
      -0.052
      -0.010
       0.024
       0.041
       0.053
       0.069
       0.082
       0.082
       0.076
       0.088
       0.118
       0.148
       0.161
       0.157
       0.141
       0.116
       0.098
       0.100
       0.122
       0.152
       0.175
       0.185
       0.173
       0.142
       0.106
       0.081
       0.071
       0.070
       0.084
       0.123
       0.178
       0.226
       0.254
       0.266
       0.261
       0.236
       0.197
       0.164
       0.156
       0.170
       0.198
       0.229
       0.249
       0.251
       0.239
       0.229
       0.226
       0.225
       0.223
       0.220
       0.204
       0.162
       0.095
       0.020
      -0.053
      -0.126
      -0.192
      -0.240
      -0.270
      -0.299
      -0.335
      -0.368
      -0.392
      -0.411
      -0.433
      -0.450
      -0.452
      -0.434
      -0.397
      -0.344
      -0.291
      -0.260
      -0.256
      -0.270
      -0.290
      -0.308
      -0.310
      -0.282
      -0.226
      -0.161
      -0.094
      -0.018
       0.066
       0.141
       0.194
       0.233
       0.265
       0.289
       0.297
       0.284
       0.246
       0.183
       0.105
       0.034
      -0.013
      -0.033
      -0.027
       0.002
       0.039
       0.063
       0.071
       0.076
       0.089
       0.107
       0.124
       0.144
       0.168
       0.187
       0.195
       0.196
       0.186
       0.151
       0.089
       0.022
      -0.026
      -0.046
      -0.049
      -0.044
      -0.042
      -0.049
      -0.065
      -0.084
      -0.104
      -0.131
      -0.159
      -0.170
      -0.152
      -0.121
      -0.097
      -0.086
      -0.082
      -0.080
      -0.077
      -0.066
      -0.046
      -0.030
      -0.030
      -0.043
      -0.056
      -0.064
      -0.070
      -0.078
      -0.092
      -0.111
      -0.123
      -0.113
      -0.079
      -0.044
      -0.032
      -0.048
      -0.081
      -0.122
      -0.157
      -0.167
      -0.150
      -0.122
      -0.106
      -0.100
      -0.093
      -0.084
      -0.083
      -0.092
      -0.102
      -0.101
      -0.089
      -0.069
      -0.052
      -0.055
      -0.076
      -0.094
      -0.090
      -0.062
      -0.016
       0.042
       0.106
       0.159
       0.188
       0.199
       0.200
       0.190
       0.163
       0.133
       0.119
       0.130
       0.164
       0.220
       0.289
       0.347
       0.372
       0.361
       0.330
       0.296
       0.268
       0.250
       0.235
       0.205
       0.153
       0.096
       0.049
       0.013
      -0.021
      -0.048
      -0.050
      -0.031
      -0.010
      -0.005
      -0.020
      -0.047
      -0.079
      -0.104
      -0.116
      -0.123
      -0.133
      -0.144
      -0.149
      -0.153
      -0.164
      -0.188
      -0.225
      -0.273
      -0.321
      -0.346
      -0.327
      -0.274
      -0.219
      -0.187
      -0.176
      -0.176
      -0.173
      -0.149
      -0.094
      -0.023
       0.035
       0.065
       0.075
       0.077
       0.069
       0.041
      -0.012
      -0.084
      -0.152
      -0.191
      -0.193
      -0.178
      -0.176
      -0.186
      -0.183
      -0.152
      -0.097
      -0.034
       0.027
       0.075
       0.098
       0.099
       0.093
       0.088
       0.086
       0.091
       0.114
       0.149
       0.178
       0.193
       0.196
       0.191
       0.177
       0.153
       0.124
       0.095
       0.072
       0.067
       0.092
       0.133
       0.164
       0.170
       0.157
       0.129
       0.079
       0.009
      -0.062
      -0.110
      -0.124
      -0.112
      -0.089
      -0.075
      -0.076
      -0.078
      -0.061
      -0.027
       0.006
       0.029
       0.055
       0.099
       0.158
       0.216
       0.249
       0.248
       0.226
       0.208
       0.199
       0.179
       0.131
       0.068
       0.012
      -0.047
      -0.128
      -0.221
      -0.290
      -0.312
      -0.291
      -0.246
      -0.199
      -0.169
      -0.158
      -0.145
      -0.118
      -0.094
      -0.097
      -0.110
      -0.089
      -0.019
       0.066
       0.127
       0.157
       0.163
       0.149
       0.125
       0.113
       0.130
       0.166
       0.202
       0.228
       0.244
       0.245
       0.229
       0.204
       0.178
       0.148
       0.118
       0.100
       0.105
       0.123
       0.135
       0.138
       0.139
       0.143
       0.153
       0.175
       0.208
       0.235
       0.237
       0.219
       0.194
       0.162
       0.109
       0.032
      -0.049
      -0.103
      -0.115
      -0.097
      -0.077
      -0.084
      -0.118
      -0.149
      -0.150
      -0.118
      -0.068
      -0.013
       0.041
       0.083
       0.103
       0.098
       0.072
       0.028
      -0.031
      -0.096
      -0.154
      -0.202
      -0.238
      -0.260
      -0.275
      -0.298
      -0.342
      -0.402
      -0.458
      -0.491
      -0.483
      -0.432
      -0.355
      -0.281
      -0.225
      -0.177
      -0.125
      -0.076
      -0.038
      -0.007
       0.029
       0.071
       0.106
       0.126
       0.131
       0.117
       0.088
       0.063
       0.064
       0.100
       0.163
       0.234
       0.289
       0.311
       0.292
       0.243
       0.181
       0.115
       0.056
       0.018
       0.003
      -0.004
      -0.016
      -0.035
      -0.051
      -0.069
      -0.097
      -0.130
      -0.153
      -0.160
      -0.158
      -0.153
      -0.146
      -0.135
      -0.117
      -0.089
      -0.055
      -0.026
      -0.009
       0.005
       0.022
       0.039
       0.042
       0.032
       0.019
       0.003
      -0.017
      -0.034
      -0.036
      -0.021
      -0.001
       0.022
       0.056
       0.098
       0.132
       0.143
       0.136
       0.124
       0.119
       0.125
       0.139
       0.142
       0.120
       0.077
       0.033
       0.000
      -0.016
      -0.010
       0.020
       0.061
       0.090
       0.100
       0.100
       0.094
       0.072
       0.029
      -0.021
      -0.062
      -0.087
      -0.099
      -0.106
      -0.120
      -0.151
      -0.195
      -0.236
      -0.254
      -0.237
      -0.182
      -0.105
      -0.038
      -0.003
       0.006
       0.008
       0.010
       0.006
      -0.003
       0.000
       0.023
       0.048
       0.055
       0.033
      -0.015
      -0.079
      -0.139
      -0.174
      -0.171
      -0.131
      -0.068
      -0.002
       0.044
       0.054
       0.037
       0.010
      -0.021
      -0.058
      -0.091
      -0.099
      -0.070
      -0.020
       0.028
       0.055
       0.053
       0.014
      -0.048
      -0.106
      -0.139
      -0.148
      -0.144
      -0.132
      -0.106
      -0.065
      -0.010
       0.053
       0.110
       0.144
       0.163
       0.188
       0.219
       0.225
       0.178
       0.083
      -0.023
      -0.106
      -0.147
      -0.146
      -0.121
      -0.095
      -0.070
      -0.033
       0.016
       0.047
       0.032
      -0.023
      -0.083
      -0.118
      -0.122
      -0.101
      -0.073
      -0.052
      -0.036
      -0.012
       0.023
       0.056
       0.085
       0.124
       0.186
       0.255
       0.306
       0.330
       0.338
       0.341
       0.345
       0.356
       0.373
       0.389
       0.397
       0.401
       0.403
       0.392
       0.362
       0.326
       0.302
       0.296
       0.304
       0.316
       0.321
       0.308
       0.276
       0.234
       0.183
       0.116
       0.036
      -0.034
      -0.074
      -0.091
      -0.106
      -0.133
      -0.173
      -0.228
      -0.299
      -0.378
      -0.451
      -0.511
      -0.555
      -0.579
      -0.586
      -0.588
      -0.595
      -0.604
      -0.610
      -0.614
      -0.613
      -0.593
      -0.546
      -0.486
      -0.434
      -0.391
      -0.345
      -0.292
      -0.234
      -0.168
      -0.097
      -0.042
      -0.014
       0.003
       0.031
       0.056
       0.041
      -0.019
      -0.074
      -0.069
       0.003
       0.113
       0.221
       0.302
       0.344
       0.356
       0.349
       0.331
       0.309
       0.295
       0.304
       0.332
       0.358
       0.369
       0.364
       0.337
       0.272
       0.172
       0.068
      -0.002
      -0.018
       0.003
       0.031
       0.045
       0.044
       0.038
       0.025
      -0.010
      -0.068
      -0.121
      -0.142
      -0.132
      -0.113
      -0.097
      -0.083
      -0.067
      -0.046
      -0.017
       0.023
       0.060
       0.079
       0.083
       0.082
       0.076
       0.061
       0.042
       0.031
       0.030
       0.036
       0.052
       0.078
       0.103
       0.115
       0.117
       0.119
       0.112
       0.080
       0.039
       0.030
       0.069
       0.134
       0.189
       0.217
       0.210
       0.170
       0.113
       0.065
       0.036
       0.020
       0.004
      -0.015
      -0.038
      -0.066
      -0.088
      -0.091
      -0.083
      -0.085
      -0.101
      -0.107
      -0.083
      -0.046
      -0.024
      -0.035
      -0.080
      -0.149
      -0.216
      -0.251
      -0.240
      -0.201
      -0.160
      -0.129
      -0.104
      -0.090
      -0.091
      -0.101
      -0.104
      -0.082
      -0.025
       0.060
       0.145
       0.198
       0.219
       0.230
       0.242
       0.236
       0.195
       0.128
       0.063
       0.014
      -0.010
      -0.003
       0.032
       0.082
       0.136
       0.194
       0.255
       0.312
       0.360
       0.397
       0.414
       0.391
       0.324
       0.233
       0.142
       0.065
       0.012
      -0.012
      -0.024
      -0.051
      -0.101
      -0.154
      -0.190
      -0.213
      -0.230
      -0.237
      -0.224
      -0.199
      -0.170
      -0.139
      -0.109
      -0.086
      -0.072
      -0.061
      -0.057
      -0.065
      -0.073
      -0.056
      -0.010
       0.027
       0.023
      -0.019
      -0.068
      -0.105
      -0.121
      -0.113
      -0.089
      -0.069
      -0.062
      -0.054
      -0.039
      -0.034
      -0.061
      -0.113
      -0.158
      -0.179
      -0.182
      -0.180
      -0.179
      -0.183
      -0.195
      -0.212
      -0.231
      -0.258
      -0.288
      -0.302
      -0.285
      -0.252
      -0.233
      -0.240
      -0.265
      -0.297
      -0.328
      -0.348
      -0.346
      -0.323
      -0.291
      -0.254
      -0.210
      -0.167
      -0.142
      -0.137
      -0.145
      -0.154
      -0.154
      -0.135
      -0.101
      -0.066
      -0.046
      -0.039
      -0.034
      -0.027
      -0.016
       0.009
       0.055
       0.112
       0.158
       0.187
       0.205
       0.209
       0.185
       0.138
       0.095
       0.084
       0.116
       0.182
       0.255
       0.299
       0.296
       0.260
       0.221
       0.193
       0.179
       0.179
       0.192
       0.205
       0.201
       0.180
       0.154
       0.128
       0.105
       0.099
       0.122
       0.168
       0.213
       0.239
       0.242
       0.221
       0.177
       0.122
       0.080
       0.065
       0.080
       0.122
       0.180
       0.230
       0.252
       0.251
       0.244
       0.237
       0.220
       0.194
       0.169
       0.143
       0.103
       0.044
      -0.023
      -0.087
      -0.148
      -0.197
      -0.223
      -0.219
      -0.193
      -0.153
      -0.104
      -0.057
      -0.029
      -0.028
      -0.051
      -0.093
      -0.147
      -0.197
      -0.221
      -0.218
      -0.198
      -0.170
      -0.130
      -0.085
      -0.050
      -0.033
      -0.019
       0.003
       0.031
       0.059
       0.081
       0.091
       0.083
       0.062
       0.043
       0.031
       0.024
       0.028
       0.053
       0.101
       0.155
       0.200
       0.232
       0.252
       0.255
       0.249
       0.247
       0.249
       0.235
       0.197
       0.148
       0.100
       0.056
       0.011
      -0.027
      -0.045
      -0.041
      -0.013
       0.032
       0.078
       0.098
       0.078
       0.029
      -0.027
      -0.070
      -0.081
      -0.048
       0.013
       0.068
       0.094
       0.094
       0.075
       0.039
      -0.012
      -0.060
      -0.088
      -0.093
      -0.087
      -0.082
      -0.092
      -0.135
      -0.211
      -0.301
      -0.379
      -0.434
      -0.462
      -0.461
      -0.435
      -0.398
      -0.358
      -0.314
      -0.271
      -0.245
      -0.237
      -0.231
      -0.214
      -0.195
      -0.193
      -0.214
      -0.250
      -0.295
      -0.333
      -0.343
      -0.311
      -0.242
      -0.152
      -0.056
       0.034
       0.104
       0.148
       0.174
       0.188
       0.195
       0.201
       0.221
       0.261
       0.307
       0.341
       0.358
       0.360
       0.343
       0.307
       0.266
       0.238
       0.223
       0.210
       0.197
       0.187
       0.180
       0.172
       0.161
       0.148
       0.134
       0.120
       0.112
       0.109
       0.099
       0.071
       0.028
      -0.020
      -0.069
      -0.113
      -0.131
      -0.107
      -0.052
       0.006
       0.043
       0.057
       0.048
       0.025
       0.008
       0.017
       0.049
       0.085
       0.106
       0.114
       0.110
       0.098
       0.081
       0.070
       0.072
       0.096
       0.147
       0.211
       0.256
       0.257
       0.216
       0.155
       0.089
       0.024
