Origin Time       20/06/2011 06:27:18
Lat.              30.5 N	
Long.             79.4 E	
Depth (Km)         12.0
Magnitude         4.6
 Region           Chamoli-Uttarakhand                                              
 Above details taken from IMD 
   
Station Code      CMO
Station Lat.       30.412
Station Long.      79.320
Station Height(m) 1578.0
Site Class        A   Vs30 between 700 m/sec to 1400 m/sec * 
Record Time       20.06.2011 06:26:52.239
Sampling Rate     200. Hz
 Record Duration  108.980 Sec.
 Direction         Vert. (Up positive)
Max. Acceleration     32.959 cm/sec**2
     
  * For reference see Site Classification link of website 
     
 Base Line Corrected and Low Pass Filtered (Cut Off at 35 Hz) Time History
 Acceleration data in cm/sec**2
    
[...]
       0.001
       0.003
       0.003
       0.002
       0.001
      -0.004
      -0.011
      -0.012
      -0.007
       0.001
       0.008
       0.013
       0.017
       0.018
       0.014
       0.009
       0.005
       0.002
       0.001
       0.005
       0.008
       0.005
      -0.001
      -0.001
       0.008
       0.014
       0.011
      -0.002
      -0.016
      -0.025
      -0.024
      -0.013
       0.002
       0.008
       0.004
      -0.001
       0.000
       0.003
       0.002
      -0.002
      -0.005
      -0.007
      -0.005
       0.001
       0.008
       0.010
       0.007
       0.009
       0.017
       0.022
       0.017
       0.005
      -0.002
      -0.001
       0.007
       0.014
       0.014
       0.007
       0.002
       0.006
       0.014
       0.015
       0.007
      -0.001
       0.000
       0.007
       0.013
       0.016
       0.012
       0.005
      -0.002
      -0.002
       0.003
       0.006
       0.007
       0.012
       0.022
       0.028
       0.024
       0.014
       0.006
       0.003
       0.002
       0.001
      -0.001
      -0.003
      -0.002
       0.004
       0.011
       0.011
       0.008
       0.010
       0.021
       0.029
       0.026
       0.014
       0.003
       0.001
       0.008
       0.019
       0.024
       0.020
       0.014
       0.012
       0.013
       0.007
      -0.003
      -0.006
       0.004
       0.018
       0.023
       0.017
       0.005
      -0.004
      -0.006
       0.002
       0.012
       0.015
       0.012
       0.008
       0.008
       0.010
       0.011
       0.015
       0.020
       0.019
       0.013
       0.009
       0.012
       0.016
       0.017
       0.013
       0.010
       0.010
       0.014
       0.020
       0.021
       0.015
       0.005
       0.000
      -0.002
      -0.004
      -0.007
      -0.005
       0.005
       0.016
       0.020
       0.020
       0.016
       0.010
       0.003
      -0.001
       0.001
       0.003
       0.005
       0.009
       0.013
       0.015
       0.016
       0.018
       0.016
       0.009
      -0.001
      -0.001
       0.007
       0.011
       0.002
      -0.013
      -0.022
      -0.018
      -0.005
       0.011
       0.021
       0.023
       0.018
       0.012
       0.005
      -0.005
      -0.014
      -0.015
      -0.008
      -0.003
      -0.005
      -0.009
      -0.005
       0.004
       0.011
       0.014
       0.012
       0.005
      -0.005
      -0.010
      -0.009
      -0.003
       0.004
       0.011
       0.014
       0.009
       0.001
      -0.002
       0.001
       0.005
       0.006
       0.010
       0.019
       0.027
       0.025
       0.012
      -0.005
      -0.016
      -0.015
       0.000
       0.016
       0.021
       0.014
       0.005
       0.002
       0.005
       0.008
       0.012
       0.016
       0.017
       0.012
       0.003
      -0.005
      -0.010
      -0.008
       0.003
       0.014
       0.017
       0.007
      -0.006
      -0.015
      -0.016
      -0.007
       0.009
       0.021
       0.019
       0.007
      -0.002
       0.000
       0.010
       0.015
       0.015
       0.009
       0.002
      -0.002
      -0.003
      -0.002
       0.001
       0.006
       0.016
       0.022
       0.018
       0.004
      -0.006
      -0.002
       0.009
       0.018
       0.020
       0.015
       0.005
      -0.005
      -0.009
      -0.006
       0.000
       0.008
       0.017
       0.023
       0.021
       0.012
       0.001
      -0.003
      -0.003
      -0.003
       0.000
       0.004
       0.009
       0.013
       0.016
       0.016
       0.012
       0.007
       0.006
       0.010
       0.012
       0.012
       0.011
       0.010
       0.004
      -0.007
      -0.015
      -0.014
      -0.008
       0.003
       0.015
       0.025
       0.030
       0.028
       0.023
       0.017
       0.008
      -0.002
      -0.006
      -0.002
       0.005
       0.009
       0.010
       0.008
       0.004
       0.002
       0.002
       0.005
       0.004
       0.001
      -0.002
      -0.002
      -0.001
       0.004
       0.014
       0.023
       0.023
       0.013
       0.002
      -0.003
      -0.002
       0.003
       0.012
       0.021
       0.023
       0.017
       0.009
       0.002
      -0.001
       0.001
       0.006
       0.010
       0.007
       0.001
      -0.001
       0.005
       0.011
       0.015
       0.017
       0.018
       0.016
       0.007
      -0.003
      -0.008
      -0.009
      -0.007
      -0.003
      -0.001
      -0.003
      -0.006
      -0.003
       0.009
       0.019
       0.021
       0.015
       0.006
      -0.002
      -0.007
      -0.008
      -0.005
       0.000
       0.006
       0.016
       0.024
       0.026
       0.019
       0.006
      -0.007
      -0.017
      -0.020
      -0.011
       0.007
       0.023
       0.026
       0.018
       0.003
      -0.011
      -0.015
      -0.005
       0.013
       0.025
       0.023
       0.015
       0.009
       0.010
       0.012
       0.011
       0.008
       0.005
       0.008
       0.016
       0.018
       0.006
      -0.011
      -0.016
      -0.004
       0.015
       0.022
       0.012
      -0.005
      -0.019
      -0.020
      -0.011
       0.000
       0.006
       0.007
       0.008
       0.010
       0.010
       0.005
      -0.003
      -0.007
      -0.008
      -0.004
       0.006
       0.014
       0.014
       0.008
       0.005
       0.009
       0.013
       0.011
       0.005
      -0.002
      -0.006
      -0.006
      -0.001
       0.003
      -0.001
      -0.005
      -0.002
       0.010
       0.019
       0.017
       0.009
       0.002
       0.000
       0.001
       0.004
       0.008
       0.007
       0.002
      -0.003
      -0.005
      -0.006
      -0.007
      -0.009
      -0.012
      -0.015
      -0.011
       0.006
       0.032
       0.056
       0.072
       0.092
       0.128
       0.189
       0.278
       0.396
       0.549
       0.745
       1.002
       1.348
       1.797
       2.346
       2.969
       3.630
       4.286
       4.897
       5.439
       5.908
       6.318
       6.694
       7.067
       7.441
       7.755
       7.860
       7.545
       6.606
       4.922
       2.532
      -0.337
      -3.298
      -5.898
      -7.754
      -8.689
      -8.826
      -8.587
      -8.567
      -9.303
     -11.054
     -13.680
     -16.652
     -19.196
     -20.552
     -20.276
     -18.453
     -15.679
     -12.799
     -10.535
      -9.198
      -8.603
      -8.206
      -7.344
      -5.472
      -2.341
       1.917
       6.831
      11.787
      16.281
      20.083
      23.270
      26.087
      28.708
      30.984
      32.386
      32.283
      30.418
      27.203
      23.509
      20.024
      16.688
      12.721
       7.258
       0.105
      -7.987
     -15.747
     -22.135
     -26.816
     -29.994
     -31.898
     -32.482
     -31.619
     -29.505
     -26.764
     -24.070
     -21.639
     -19.096
     -15.865
     -11.676
      -6.743
      -1.548
       3.380
       7.451
       9.986
      10.493
       9.139
       6.916
       5.184
       4.866
       5.946
       7.621
       8.898
       9.149
       8.348
       7.008
       5.979
       6.188
       8.336
      12.546
      18.102
      23.485
      26.840
      26.753
      22.920
      16.264
       8.411
       0.927
      -5.182
      -9.550
     -12.272
     -13.711
     -14.373
     -14.785
     -15.353
     -16.218
     -17.192
     -17.843
     -17.709
     -16.551
     -14.472
     -11.871
      -9.261
      -7.036
      -5.270
      -3.666
      -1.766
       0.664
       3.381
       5.789
       7.343
       7.893
       7.703
       7.224
       6.852
       6.807
       7.109
       7.587
       7.939
       7.886
       7.360
       6.549
       5.748
       5.154
       4.791
       4.573
       4.370
       4.019
       3.347
       2.286
       0.977
      -0.266
      -1.129
      -1.458
      -1.288
      -0.794
      -0.223
       0.181
       0.290
       0.152
      -0.043
      -0.100
       0.042
       0.294
       0.529
       0.695
       0.773
       0.608
      -0.148
      -1.817
      -4.363
      -7.256
      -9.720
     -11.139
     -11.277
     -10.213
      -8.170
      -5.440
      -2.400
       0.532
       3.053
       5.073
       6.632
       7.697
       8.084
       7.589
       6.192
       4.146
       1.924
       0.062
      -1.012
      -1.127
      -0.440
       0.611
       1.491
       1.792
       1.357
       0.255
      -1.336
      -3.241
      -5.311
      -7.380
      -9.200
     -10.458
     -10.900
     -10.471
      -9.391
      -8.068
      -6.923
      -6.188
      -5.805
      -5.454
      -4.710
      -3.245
      -0.996
       1.834
       4.925
       8.022
      10.999
      13.748
      16.012
      17.355
      17.327
      15.764
      12.993
       9.773
       6.950
       5.068
       4.179
       3.970
       4.012
       3.901
       3.273
       1.811
      -0.666
      -4.084
      -8.070
     -11.998
     -15.102
     -16.660
     -16.203
     -13.711
      -9.715
      -5.214
      -1.375
       0.915
       1.427
       0.620
      -0.714
      -1.954
      -2.915
      -3.705
      -4.347
      -4.553
      -3.857
      -1.976
       0.902
       4.122
       6.843
       8.436
       8.734
       8.011
       6.720
       5.255
       3.901
       2.917
       2.530
       2.793
       3.470
       4.141
       4.445
       4.257
       3.641
       2.688
       1.424
      -0.144
      -1.887
      -3.486
      -4.508
      -4.577
      -3.542
      -1.548
       0.952
       3.257
       4.589
       4.372
       2.485
      -0.703
      -4.524
      -8.295
     -11.490
     -13.727
     -14.705
     -14.212
     -12.267
      -9.202
      -5.566
      -1.866
       1.603
       4.722
       7.393
       9.462
      10.803
      11.448
      11.576
      11.371
      10.907
      10.170
       9.155
       7.869
       6.265
       4.225
       1.717
      -1.003
      -3.373
      -4.755
      -4.817
      -3.790
      -2.421
      -1.598
      -1.856
      -3.102
      -4.711
      -5.888
      -6.005
      -4.806
      -2.503
       0.235
       2.486
       3.483
       2.987
       1.359
      -0.668
      -2.326
      -3.067
      -2.715
      -1.534
      -0.177
       0.533
      -0.049
      -2.077
      -5.103
      -8.239
     -10.535
     -11.336
     -10.472
      -8.212
      -5.070
      -1.585
       1.821
       4.857
       7.281
       8.828
       9.218
       8.308
       6.265
       3.639
       1.245
      -0.122
       0.026
       1.684
       4.332
       7.072
       8.889
       8.984
       7.078
       3.541
      -0.743
      -4.749
      -7.714
      -9.346
      -9.748
      -9.171
      -7.865
      -6.069
      -4.047
      -2.022
      -0.096
       1.682
       3.116
       3.789
       3.303
       1.656
      -0.576
      -2.423
      -2.930
      -1.543
       1.689
       6.150
      10.842
      14.645
      16.577
      16.024
      12.921
       7.821
       1.727
      -4.276
      -9.396
     -13.199
     -15.357
     -15.402
     -12.906
      -8.075
      -2.202
       2.620
       4.564
       3.186
      -0.267
      -3.631
      -5.139
      -4.342
      -2.029
       0.627
       2.905
       4.708
       6.141
       7.081
       7.171
       6.136
       4.007
       1.076
      -2.239
      -5.436
      -7.902
      -9.004
      -8.338
      -5.969
      -2.453
       1.366
       4.612
       6.521
       6.540
       4.517
       0.924
      -3.122
      -6.229
      -7.367
      -6.363
      -3.895
      -1.022
       1.394
       2.956
       3.623
       3.468
       2.567
       1.046
      -0.879
      -2.934
      -4.798
      -6.036
      -6.111
      -4.640
      -1.781
       1.601
       4.279
       5.317
       4.583
       2.717
       0.634
      -1.009
      -1.996
      -2.311
      -1.816
      -0.220
       2.611
       6.276
       9.787
      11.945
      11.965
       9.943
       6.860
       4.047
       2.420
       1.975
       1.923
       1.356
      -0.033
      -1.735
      -2.843
      -2.790
      -1.841
      -0.983
      -1.274
      -3.104
      -5.879
      -8.379
      -9.515
      -8.952
      -7.213
      -5.296
      -4.178
      -4.467
      -6.258
      -9.137
     -12.290
     -14.761
     -15.802
     -15.178
     -13.224
     -10.614
      -7.950
      -5.449
      -2.912
       0.036
       3.602
       7.601
      11.443
      14.353
      15.710
      15.321
      13.462
      10.708
       7.728
       5.164
       3.579
       3.379
       4.701
       7.349
      10.855
      14.614
      18.011
      20.476
      21.544
      20.992
      18.977
      16.060
      12.976
      10.273
       8.018
       5.774
       2.888
      -1.076
      -6.011
     -11.273
     -16.017
     -19.582
     -21.659
     -22.188
     -21.212
     -18.903
     -15.741
     -12.583
     -10.380
      -9.606
      -9.818
      -9.830
      -8.527
      -5.729
      -2.398
       0.007
       0.470
      -1.041
      -3.708
      -6.391
      -8.166
      -8.643
      -8.015
      -6.853
      -5.753
      -4.996
      -4.423
      -3.552
      -1.824
       1.222
       5.871
      12.108
      19.384
      26.433
      31.487
      32.959
      30.225
      23.980
      15.951
       8.199
       2.399
      -0.593
      -0.854
       0.767
       2.992
       4.523
       4.413
       2.267
      -1.748
      -7.077
     -12.992
     -18.734
     -23.554
     -26.712
     -27.509
     -25.456
     -20.559
     -13.562
      -5.897
       0.761
       5.098
       6.560
       5.358
       2.222
      -1.841
      -5.663
      -8.059
      -8.124
      -5.570
      -0.863
       4.958
      10.612
      14.900
      17.008
      16.806
      14.982
      12.846
      11.807
      12.777
      15.708
      19.429
      22.036
      21.885
      18.705
      13.832
       9.152
       5.579
       2.501
      -1.322
      -6.380
     -11.863
     -16.304
     -18.647
     -18.712
     -16.875
     -13.586
      -9.341
      -4.961
      -1.600
      -0.236
      -1.118
      -3.689
      -7.074
     -10.670
     -14.343
     -18.123
     -21.768
     -24.630
     -25.923
     -25.126
     -22.170
     -17.390
     -11.367
      -4.782
       1.704
       7.565
      12.470
      16.248
      18.754
      19.742
      18.890
      16.132
      12.066
       7.934
       4.930
       3.350
       2.493
       1.455
      -0.016
      -1.450
      -2.264
      -2.260
      -1.532
      -0.083
       2.274
       5.554
       9.240
      12.431
      14.459
      15.314
      15.439
      15.153
      14.355
      12.746
      10.211
       6.912
       3.030
      -1.462
      -6.672
     -12.376
     -17.772
     -21.712
     -23.262
     -22.174
     -18.972
     -14.727
     -10.709
      -8.014
      -7.149
      -7.803
      -9.063
     -10.024
     -10.328
     -10.170
      -9.870
      -9.474
      -8.683
      -7.080
      -4.365
      -0.480
       4.362
       9.689
      14.825
      18.988
      21.459
      21.846
      20.379
      17.966
      15.800
      14.749
      15.007
      16.220
      17.825
      19.256
      20.005
      19.713
      18.316
      16.071
      13.391
      10.576
       7.647
       4.391
       0.588
      -3.717
      -8.107
     -11.938
     -14.667
     -16.101
     -16.437
     -16.134
     -15.718
     -15.604
     -15.964
     -16.702
     -17.581
     -18.424
     -19.211
     -19.970
     -20.560
     -20.589
     -19.598
     -17.393
     -14.238
     -10.730
      -7.432
      -4.541
      -1.849
       0.983
       4.073
       7.153
       9.731
      11.423
      12.175
      12.223
      11.874
      11.340
      10.727
      10.147
       9.827
      10.057
      10.953
      12.239
      13.328
      13.709
      13.297
      12.392
      11.330
      10.196
       8.850
       7.177
       5.268
       3.382
       1.742
       0.373
      -0.921
      -2.444
      -4.417
      -6.826
      -9.397
     -11.711
     -13.382
     -14.191
     -14.144
     -13.436
     -12.344
     -11.087
      -9.722
      -8.159
      -6.241
      -3.895
      -1.262
       1.268
       3.197
       4.167
       4.137
       3.354
       2.204
       1.044
       0.136
      -0.349
      -0.287
       0.412
       1.768
       3.690
       5.989
       8.416
      10.691
      12.512
      13.608
      13.848
      13.298
      12.151
      10.611
       8.849
       7.023
       5.235
       3.407
       1.257
      -1.485
      -4.780
      -8.229
     -11.306
     -13.681
     -15.319
     -16.334
     -16.759
     -16.473
     -15.357
     -13.526
     -11.439
      -9.754
      -9.034
      -9.462
     -10.748
     -12.246
     -13.213
     -13.069
     -11.547
      -8.711
      -4.876
      -0.519
       3.801
       7.543
      10.290
      11.862
      12.368
      12.150
      11.598
      10.947
      10.231
       9.418
       8.565
       7.849
       7.458
       7.491
       7.895
       8.468
       8.889
       8.797
       7.920
       6.199
       3.827
       1.189
      -1.257
      -3.110
      -4.157
      -4.444
      -4.210
      -3.723
      -3.135
      -2.496
      -1.853
      -1.274
      -0.775
      -0.288
       0.267
       0.884
       1.464
       1.857
       1.915
       1.544
       0.788
      -0.143
      -0.963
      -1.490
      -1.737
      -1.854
      -1.964
      -2.052
      -1.981
      -1.630
      -1.013
      -0.276
       0.417
       0.976
       1.389
       1.682
       1.904
       2.116
       2.378
       2.712
       3.068
       3.309
       3.263
       2.835
       2.083
       1.179
       0.282
      -0.543
      -1.295
      -1.959
      -2.476
      -2.799
      -2.951
      -2.998
      -2.951
      -2.719
      -2.169
      -1.259
      -0.094
       1.111
       2.123
       2.758
       2.925
       2.660
       2.123
       1.520
       0.989
       0.539
       0.086
      -0.497
      -1.311
      -2.372
      -3.557
      -4.633
      -5.355
      -5.572
      -5.281
      -4.642
      -3.936
      -3.447
      -3.294
      -3.346
      -3.287
      -2.810
      -1.795
      -0.374
       1.123
       2.295
       2.799
       2.464
       1.337
      -0.341
      -2.210
      -3.871
      -4.954
      -5.221
      -4.664
      -3.526
      -2.189
      -0.990
      -0.087
       0.545
       1.063
       1.688
       2.603
       3.840
       5.229
       6.477
       7.333
       7.686
       7.577
       7.152
       6.601
       6.080
       5.647
       5.251
       4.773
       4.093
       3.147
       1.971
       0.688
      -0.554
      -1.661
      -2.624
      -3.493
      -4.304
      -5.038
      -5.631
      -6.027
      -6.225
      -6.281
      -6.252
      -6.144
      -5.921
      -5.576
      -5.182
      -4.856
      -4.651
      -4.477
      -4.156
      -3.579
      -2.823
      -2.096
      -1.551
      -1.149
      -0.688
       0.023
       0.997
