Origin Time       20/06/2011 06:27:18 UTC
Lat.              30.5 N	
Long.             79.4 E	
Depth (Km)         12.0
Magnitude         4.6
 Region           Chamoli-Uttarakhand                                              
 Above details taken from IMD 
    
Station Code      CMO
Station Lat.       30.412  N
Station Long.      79.320  E
Station Height(m) 1578.0
Site Class        A   Vs30 between 700 m/sec to 1400 m/sec * 
Record Time       20.06.2011 06:26:52.239 UTC
Sampling Rate     200. Hz
 Record Duration  108.980 Sec.
 Direction         N-S (N positive)
Max. Acceleration    -47.813 cm/sec**2
     
  * For reference see Site Classification link of website 
     
 Base Line Corrected and Low Pass Filtered (Cut Off at 35 Hz) Time History
 Acceleration data in cm/sec**2
    
[...]
       0.000
      -0.003
      -0.002
       0.002
       0.009
       0.015
       0.013
       0.002
      -0.011
      -0.017
      -0.016
      -0.010
      -0.005
       0.000
      -0.001
      -0.006
      -0.011
      -0.011
      -0.008
      -0.007
      -0.009
      -0.011
      -0.013
      -0.015
      -0.013
      -0.005
       0.004
       0.005
       0.002
       0.000
       0.001
       0.000
      -0.003
      -0.005
      -0.007
      -0.010
      -0.014
      -0.014
      -0.010
      -0.003
       0.004
       0.009
       0.007
      -0.002
      -0.012
      -0.013
      -0.007
       0.001
       0.005
       0.005
       0.003
       0.001
       0.002
       0.006
       0.006
       0.000
      -0.004
      -0.002
       0.004
       0.004
       0.000
      -0.002
      -0.001
       0.000
      -0.003
      -0.005
      -0.008
      -0.009
      -0.008
      -0.004
       0.000
       0.000
      -0.003
      -0.003
      -0.001
       0.002
       0.004
       0.005
       0.003
      -0.002
      -0.004
       0.001
       0.005
       0.001
      -0.008
      -0.014
      -0.015
      -0.015
      -0.014
      -0.011
      -0.006
      -0.001
       0.004
       0.008
       0.006
      -0.002
      -0.008
      -0.007
      -0.003
      -0.003
      -0.009
      -0.015
      -0.019
      -0.020
      -0.017
      -0.008
       0.003
       0.011
       0.016
       0.017
       0.010
      -0.003
      -0.012
      -0.011
      -0.002
       0.004
       0.006
       0.005
       0.004
       0.002
       0.001
       0.005
       0.010
       0.009
       0.000
      -0.012
      -0.022
      -0.023
      -0.015
       0.000
       0.010
       0.010
       0.004
       0.002
       0.004
       0.005
       0.006
       0.007
       0.007
       0.002
      -0.005
      -0.008
      -0.005
       0.002
       0.007
       0.008
       0.007
       0.004
       0.005
       0.008
       0.010
       0.007
       0.005
       0.010
       0.015
       0.014
       0.008
       0.008
       0.013
       0.018
       0.018
       0.015
       0.006
      -0.007
      -0.019
      -0.025
      -0.025
      -0.020
      -0.010
       0.005
       0.016
       0.013
      -0.001
      -0.014
      -0.017
      -0.009
       0.004
       0.012
       0.011
       0.000
      -0.010
      -0.011
      -0.006
       0.000
       0.004
       0.005
       0.002
      -0.004
      -0.010
      -0.011
      -0.010
      -0.009
      -0.006
      -0.001
       0.003
       0.001
      -0.006
      -0.011
      -0.009
      -0.003
       0.003
       0.006
       0.003
      -0.004
      -0.008
      -0.006
      -0.004
      -0.009
      -0.017
      -0.019
      -0.015
      -0.010
      -0.009
      -0.012
      -0.017
      -0.020
      -0.018
      -0.010
      -0.005
      -0.008
      -0.016
      -0.018
      -0.010
       0.002
       0.011
       0.015
       0.013
       0.004
      -0.004
      -0.010
      -0.014
      -0.015
      -0.011
      -0.003
       0.004
       0.003
      -0.004
      -0.012
      -0.016
      -0.017
      -0.011
       0.001
       0.010
       0.009
       0.001
      -0.009
      -0.015
      -0.017
      -0.016
      -0.013
      -0.013
      -0.018
      -0.021
      -0.017
      -0.011
      -0.007
      -0.007
      -0.007
      -0.005
      -0.005
      -0.005
      -0.004
      -0.003
      -0.003
      -0.005
      -0.009
      -0.015
      -0.022
      -0.023
      -0.019
      -0.016
      -0.019
      -0.023
      -0.023
      -0.018
      -0.012
      -0.006
      -0.001
       0.000
      -0.007
      -0.014
      -0.015
      -0.012
      -0.007
      -0.002
       0.003
       0.002
      -0.006
      -0.015
      -0.019
      -0.017
      -0.015
      -0.014
      -0.014
      -0.016
      -0.019
      -0.018
      -0.008
       0.003
       0.006
      -0.001
      -0.012
      -0.019
      -0.023
      -0.023
      -0.022
      -0.025
      -0.031
      -0.032
      -0.024
      -0.013
      -0.007
      -0.007
      -0.007
      -0.004
       0.000
       0.002
      -0.002
      -0.012
      -0.025
      -0.033
      -0.029
      -0.016
      -0.004
       0.003
       0.005
       0.005
       0.005
       0.006
       0.009
       0.009
       0.005
      -0.002
      -0.005
      -0.004
      -0.001
       0.002
       0.004
       0.003
      -0.003
      -0.006
      -0.003
       0.003
       0.003
      -0.003
      -0.011
      -0.017
      -0.018
      -0.014
      -0.007
      -0.004
      -0.009
      -0.018
      -0.023
      -0.022
      -0.016
      -0.006
       0.005
       0.012
       0.011
       0.007
       0.005
       0.005
       0.004
       0.003
       0.000
      -0.005
      -0.014
      -0.020
      -0.021
      -0.017
      -0.011
      -0.003
       0.006
       0.011
       0.007
      -0.001
      -0.007
      -0.008
      -0.007
      -0.006
      -0.006
      -0.009
      -0.015
      -0.019
      -0.015
      -0.007
      -0.004
      -0.005
      -0.008
      -0.011
      -0.013
      -0.012
      -0.006
      -0.001
      -0.001
      -0.003
      -0.005
      -0.003
      -0.002
      -0.003
      -0.007
      -0.014
      -0.020
      -0.019
      -0.010
      -0.001
       0.001
      -0.006
      -0.017
      -0.029
      -0.039
      -0.044
      -0.045
      -0.048
      -0.063
      -0.091
      -0.126
      -0.166
      -0.211
      -0.260
      -0.311
      -0.362
      -0.411
      -0.451
      -0.479
      -0.504
      -0.537
      -0.586
      -0.643
      -0.695
      -0.725
      -0.714
      -0.650
      -0.527
      -0.353
      -0.146
       0.054
       0.201
       0.252
       0.192
       0.049
      -0.111
      -0.207
      -0.179
      -0.033
       0.147
       0.246
       0.177
      -0.089
      -0.529
      -1.080
      -1.650
      -2.139
      -2.477
      -2.651
      -2.703
      -2.695
      -2.672
      -2.637
      -2.561
      -2.425
      -2.236
      -2.010
      -1.752
      -1.451
      -1.087
      -0.625
      -0.012
       0.783
       1.726
       2.715
       3.609
       4.273
       4.628
       4.716
       4.719
       4.879
       5.342
       6.063
       6.826
       7.379
       7.552
       7.293
       6.620
       5.563
       4.154
       2.486
       0.757
      -0.768
      -1.910
      -2.699
      -3.380
      -4.264
      -5.535
      -7.141
      -8.837
     -10.335
     -11.414
     -11.936
     -11.811
     -11.022
      -9.672
      -7.962
      -6.085
      -4.109
      -2.003
       0.242
       2.519
       4.647
       6.493
       8.041
       9.336
      10.371
      11.056
      11.302
      11.141
      10.720
      10.161
       9.416
       8.258
       6.479
       4.120
       1.532
      -0.821
      -2.649
      -3.968
      -4.984
      -5.867
      -6.625
      -7.109
      -7.093
      -6.369
      -4.847
      -2.635
      -0.042
       2.536
       4.773
       6.522
       7.800
       8.687
       9.206
       9.320
       9.047
       8.548
       8.063
       7.721
       7.404
       6.802
       5.613
       3.728
       1.314
      -1.262
      -3.593
      -5.395
      -6.628
      -7.499
      -8.338
      -9.390
     -10.649
     -11.861
     -12.690
     -12.870
     -12.279
     -10.924
      -8.943
      -6.598
      -4.203
      -2.020
      -0.209
       1.123
       1.887
       2.050
       1.706
       1.055
       0.280
      -0.549
      -1.438
      -2.328
      -2.998
      -3.143
      -2.586
      -1.433
      -0.035
       1.223
       2.102
       2.575
       2.773
       2.891
       3.079
       3.366
       3.637
       3.713
       3.475
       2.936
       2.200
       1.362
       0.423
      -0.691
      -2.039
      -3.570
      -5.099
      -6.389
      -7.263
      -7.680
      -7.730
      -7.535
      -7.128
      -6.397
      -5.163
      -3.335
      -1.037
       1.398
       3.569
       5.189
       6.183
       6.626
       6.601
       6.101
       5.074
       3.541
       1.694
      -0.136
      -1.598
      -2.482
      -2.812
      -2.808
      -2.724
      -2.657
      -2.480
      -1.972
      -1.029
       0.214
       1.472
       2.514
       3.299
       3.935
       4.526
       5.030
       5.274
       5.101
       4.526
       3.782
       3.183
       2.919
       2.939
       3.015
       2.937
       2.678
       2.399
       2.302
       2.468
       2.816
       3.203
       3.537
       3.814
       4.080
       4.366
       4.656
       4.878
       4.934
       4.713
       4.128
       3.150
       1.845
       0.352
      -1.192
      -2.724
      -4.270
      -5.881
      -7.539
      -9.098
     -10.319
     -10.982
     -11.015
     -10.541
      -9.811
      -9.070
      -8.433
      -7.846
      -7.164
      -6.274
      -5.154
      -3.830
      -2.313
      -0.614
       1.188
       2.920
       4.389
       5.501
       6.318
       7.015
       7.755
       8.582
       9.411
      10.108
      10.595
      10.854
      10.870
      10.568
       9.836
       8.615
       6.960
       5.040
       3.068
       1.235
      -0.334
      -1.583
      -2.515
      -3.181
      -3.657
      -4.000
      -4.241
      -4.409
      -4.567
      -4.780
      -5.066
      -5.395
      -5.757
      -6.212
      -6.823
      -7.554
      -8.221
      -8.571
      -8.415
      -7.723
      -6.637
      -5.396
      -4.225
      -3.234
      -2.367
      -1.442
      -0.274
       1.194
       2.854
       4.501
       5.947
       7.101
       7.958
       8.526
       8.741
       8.458
       7.576
       6.182
       4.569
       3.057
       1.788
       0.680
      -0.424
      -1.592
      -2.755
      -3.769
      -4.490
      -4.825
      -4.753
      -4.360
      -3.842
      -3.449
      -3.363
      -3.612
      -4.076
      -4.597
      -5.078
      -5.489
      -5.808
      -5.983
      -5.947
      -5.667
      -5.165
      -4.507
      -3.782
      -3.083
      -2.498
      -2.094
      -1.906
      -1.904
      -1.984
      -1.976
      -1.678
      -0.918
       0.365
       2.059
       3.899
       5.560
       6.790
       7.491
       7.710
       7.592
       7.327
       7.120
       7.140
       7.458
       8.000
       8.545
       8.823
       8.643
       7.968
       6.892
       5.563
       4.137
       2.769
       1.596
       0.688
       0.024
      -0.467
      -0.862
      -1.229
      -1.671
      -2.324
      -3.299
      -4.560
      -5.873
      -6.876
      -7.259
      -6.922
      -6.025
      -4.897
      -3.867
      -3.126
      -2.690
      -2.487
      -2.477
      -2.670
      -3.040
      -3.455
      -3.706
      -3.622
      -3.157
      -2.408
      -1.563
      -0.795
      -0.148
       0.492
       1.279
       2.245
       3.263
       4.153
       4.827
       5.330
       5.765
       6.194
       6.586
       6.863
       6.985
       6.984
       6.916
       6.777
       6.483
       5.917
       4.994
       3.705
       2.141
       0.506
      -0.936
      -1.962
      -2.481
      -2.566
      -2.407
      -2.200
      -2.064
      -2.045
      -2.180
      -2.535
      -3.155
      -3.966
      -4.764
      -5.298
      -5.392
      -5.011
      -4.243
      -3.243
      -2.159
      -1.085
      -0.049
       0.934
       1.802
       2.429
       2.667
       2.439
       1.827
       1.092
       0.578
       0.532
       0.932
       1.482
       1.799
       1.672
       1.207
       0.740
       0.575
       0.742
       0.962
       0.864
       0.279
      -0.638
      -1.552
      -2.224
      -2.663
      -3.068
      -3.626
      -4.369
      -5.164
      -5.816
      -6.193
      -6.295
      -6.201
      -5.952
      -5.469
      -4.626
      -3.447
      -2.221
      -1.369
      -1.144
      -1.422
      -1.767
      -1.737
      -1.191
      -0.372
       0.311
       0.618
       0.661
       0.789
       1.284
       2.160
       3.183
       4.070
       4.659
       4.953
       5.019
       4.887
       4.533
       3.971
       3.329
       2.795
       2.460
       2.243
       1.961
       1.498
       0.890
       0.270
      -0.260
      -0.726
      -1.249
      -1.951
      -2.866
      -3.927
      -5.017
      -6.039
      -6.940
      -7.693
      -8.232
      -8.440
      -8.204
      -7.493
      -6.385
      -5.034
      -3.613
      -2.296
      -1.230
      -0.504
      -0.132
      -0.075
      -0.252
      -0.536
      -0.765
      -0.800
      -0.590
      -0.160
       0.446
       1.197
       2.047
       2.914
       3.713
       4.397
       4.954
       5.372
       5.641
       5.768
       5.774
       5.634
       5.226
       4.368
       2.957
       1.091
      -0.944
      -2.835
      -4.387
      -5.516
      -6.101
      -5.909
      -4.690
      -2.380
       0.768
       4.224
       7.370
       9.719
      11.045
      11.391
      10.943
       9.910
       8.476
       6.861
       5.392
       4.487
       4.484
       5.434
       7.065
       8.988
      10.988
      13.111
      15.481
      18.032
      20.425
      22.210
      23.088
      23.086
      22.513
      21.746
      20.961
      20.000
      18.522
      16.297
      13.378
       9.929
       5.875
       0.784
      -5.777
     -13.728
     -22.309
     -30.459
     -37.359
     -42.642
     -46.180
     -47.813
     -47.396
     -45.053
     -41.344
     -37.065
     -32.787
     -28.522
     -23.863
     -18.534
     -12.834
      -7.540
      -3.353
      -0.411
       1.751
       3.831
       6.274
       9.016
      11.620
      13.675
      15.166
      16.519
      18.301
      20.790
      23.763
      26.664
      28.969
      30.435
      31.043
      30.783
      29.561
      27.306
      24.117
      20.264
      16.102
      11.959
       8.028
       4.274
       0.499
      -3.421
      -7.332
     -10.876
     -13.799
     -16.179
     -18.376
     -20.801
     -23.696
     -27.019
     -30.478
     -33.676
     -36.279
     -38.055
     -38.776
     -38.139
     -35.822
     -31.664
     -25.845
     -18.930
     -11.671
      -4.645
       1.926
       8.037
      13.608
      18.380
      22.083
      24.657
      26.303
      27.338
      28.018
      28.458
      28.684
      28.685
      28.395
      27.642
      26.219
      24.073
      21.417
      18.582
      15.748
      12.857
       9.808
       6.693
       3.799
       1.397
      -0.466
      -1.965
      -3.318
      -4.619
      -5.831
      -6.894
      -7.858
      -8.902
     -10.252
     -12.049
     -14.289
     -16.863
     -19.625
     -22.394
     -24.940
     -27.011
     -28.412
     -29.023
     -28.788
     -27.742
     -26.059
     -24.005
     -21.803
     -19.511
     -17.063
     -14.421
     -11.698
      -9.162
      -7.098
      -5.625
      -4.600
      -3.714
      -2.718
      -1.571
      -0.386
       0.761
       1.929
       3.219
       4.636
       6.060
       7.348
       8.427
       9.278
       9.884
      10.222
      10.323
      10.303
      10.305
      10.395
      10.516
      10.555
      10.453
      10.238
       9.959
       9.612
       9.097
       8.249
       6.920
       5.076
       2.827
       0.388
      -1.997
      -4.108
      -5.780
      -6.925
      -7.542
      -7.712
      -7.574
      -7.269
      -6.835
      -6.146
      -5.006
      -3.343
      -1.326
       0.736
       2.592
       4.156
       5.461
       6.554
       7.447
       8.141
       8.656
       9.027
       9.283
       9.440
       9.514
       9.541
       9.584
       9.701
       9.917
      10.228
      10.642
      11.216
      12.034
      13.140
      14.491
      15.943
      17.302
      18.391
      19.133
      19.587
      19.891
      20.161
      20.438
      20.693
      20.860
      20.831
      20.450
      19.542
      17.980
      15.766
      13.053
      10.088
       7.104
       4.256
       1.639
      -0.646
      -2.497
      -3.904
      -4.986
      -5.930
      -6.883
      -7.912
      -9.045
     -10.315
     -11.736
     -13.274
     -14.853
     -16.382
     -17.785
     -18.970
     -19.797
     -20.093
     -19.748
     -18.823
     -17.574
     -16.338
     -15.358
     -14.662
     -14.079
     -13.372
     -12.395
     -11.162
      -9.793
      -8.409
      -7.055
      -5.728
      -4.464
      -3.369
      -2.575
      -2.168
      -2.133
      -2.384
      -2.845
      -3.519
      -4.470
      -5.727
      -7.217
      -8.800
     -10.354
     -11.833
     -13.235
     -14.545
     -15.707
     -16.639
     -17.275
     -17.592
     -17.629
     -17.471
     -17.211
     -16.901
     -16.520
     -16.003
     -15.280
     -14.303
     -13.031
     -11.457
      -9.646
      -7.730
      -5.832
      -3.991
      -2.164
      -0.293
       1.645
       3.626
       5.595
       7.485
       9.240
      10.847
      12.323
      13.679
      14.880
      15.846
      16.477
      16.701
      16.503
      15.919
      14.988
      13.732
      12.182
      10.433
       8.631
       6.911
       5.345
       3.942
       2.694
       1.627
       0.823
       0.374
       0.322
       0.628
       1.219
       2.025
       2.979
       3.978
       4.884
       5.576
       5.998
       6.161
       6.115
       5.914
       5.618
       5.312
       5.114
       5.149
       5.498
       6.157
       7.039
       8.045
       9.127
      10.313
      11.663
      13.178
      14.752
      16.218
      17.457
      18.457
      19.267
      19.907
      20.321
      20.407
      20.079
      19.315
      18.176
      16.771
      15.191
      13.466
      11.590
       9.561
       7.414
       5.201
       2.985
       0.831
      -1.199
      -3.071
      -4.784
      -6.351
      -7.773
      -9.021
     -10.028
     -10.716
     -11.028
     -10.961
     -10.573
      -9.971
      -9.276
      -8.581
      -7.918
      -7.278
      -6.639
      -6.003
      -5.393
      -4.857
      -4.456
      -4.210
      -4.068
      -3.918
      -3.654
      -3.226
      -2.636
      -1.914
      -1.094
      -0.208
       0.704
       1.581
       2.316
       2.766
       2.801
       2.344
       1.389
      -0.007
      -1.740
      -3.673
      -5.674
      -7.642
      -9.527
     -11.313
     -12.997
     -14.548
     -15.895
     -16.941
     -17.616
     -17.929
     -17.974
     -17.871
     -17.713
     -17.540
     -17.365
     -17.202
     -17.060
     -16.908
     -16.664
     -16.239
     -15.596
     -14.776
     -13.850
     -12.865
     -11.816
     -10.669
      -9.403
      -8.042
      -6.651
      -5.313
      -4.088
      -2.996
      -2.044
      -1.255
      -0.667
      -0.294
      -0.091
       0.032
       0.175
       0.406
       0.739
       1.155
       1.633
       2.171
       2.769
       3.405
       4.047
       4.677
       5.285
       5.851
       6.338
       6.708
       6.944
       7.064
       7.114
       7.154
       7.230
       7.352
       7.498
       7.637
       7.748
       7.836
       7.944
       8.140
       8.458
       8.860
       9.264
       9.608
