Origin Time       20/06/2011 06:27:18
Lat.              30.5 N	
Long.             79.4 E	
Depth (Km)         12.0
Magnitude         4.6
 Region           Chamoli-Uttarakhand                                              
 Above details taken from IMD 
     
Station Code      CMO
Station Lat.       30.412  N
Station Long.      79.320  E
Station Height(m) 1578.0
Site Class        A   Vs30 between 700 m/sec to 1400 m/sec * 
Record Time       20.06.2011 06:26:52.239
Sampling Rate     200. Hz
 Record Duration  108.980 Sec.
 Direction         E-W (E positive)
Max. Acceleration    -33.442 cm/sec**2
     
  * For reference see Site Classification link of website 
     
 Base Line Corrected and Low Pass Filtered (Cut Off at 35 Hz) Time History
 Acceleration data in cm/sec**2
    
[...]
       0.000
      -0.002
      -0.002
      -0.005
      -0.009
      -0.009
      -0.004
      -0.001
      -0.001
      -0.001
      -0.001
      -0.007
      -0.014
      -0.016
      -0.014
      -0.014
      -0.015
      -0.015
      -0.016
      -0.021
      -0.025
      -0.020
      -0.009
      -0.003
      -0.004
      -0.006
      -0.005
      -0.002
       0.000
       0.001
      -0.004
      -0.017
      -0.032
      -0.038
      -0.035
      -0.029
      -0.024
      -0.015
      -0.008
      -0.007
      -0.009
      -0.008
      -0.003
      -0.005
      -0.013
      -0.021
      -0.024
      -0.024
      -0.021
      -0.015
      -0.010
      -0.011
      -0.014
      -0.013
      -0.007
      -0.003
      -0.002
       0.000
       0.000
      -0.004
      -0.009
      -0.009
      -0.006
      -0.009
      -0.015
      -0.018
      -0.016
      -0.014
      -0.013
      -0.009
      -0.003
      -0.002
      -0.005
      -0.005
      -0.003
      -0.002
      -0.005
      -0.007
      -0.010
      -0.019
      -0.028
      -0.028
      -0.021
      -0.016
      -0.014
      -0.011
      -0.005
      -0.001
      -0.002
      -0.006
      -0.012
      -0.020
      -0.024
      -0.018
      -0.011
      -0.012
      -0.019
      -0.022
      -0.017
      -0.012
      -0.011
      -0.012
      -0.013
      -0.014
      -0.013
      -0.005
       0.004
       0.006
       0.000
      -0.006
      -0.011
      -0.016
      -0.017
      -0.014
      -0.010
      -0.012
      -0.016
      -0.014
      -0.009
      -0.010
      -0.018
      -0.023
      -0.021
      -0.016
      -0.009
       0.000
       0.006
       0.004
      -0.003
      -0.008
      -0.011
      -0.014
      -0.016
      -0.013
      -0.007
      -0.004
      -0.003
      -0.001
      -0.002
      -0.009
      -0.018
      -0.019
      -0.013
      -0.006
      -0.004
      -0.005
      -0.008
      -0.013
      -0.016
      -0.011
       0.000
       0.006
       0.007
       0.006
       0.002
      -0.007
      -0.021
      -0.032
      -0.038
      -0.040
      -0.034
      -0.020
      -0.005
       0.003
       0.004
       0.003
       0.003
       0.001
      -0.001
       0.001
       0.003
       0.000
      -0.008
      -0.011
      -0.011
      -0.012
      -0.015
      -0.016
      -0.015
      -0.012
      -0.008
       0.002
       0.012
       0.016
       0.014
       0.012
       0.009
       0.003
      -0.006
      -0.009
      -0.009
      -0.012
      -0.019
      -0.021
      -0.017
      -0.011
      -0.004
       0.003
       0.006
       0.003
      -0.001
       0.002
       0.008
       0.007
      -0.005
      -0.017
      -0.022
      -0.021
      -0.015
      -0.010
      -0.009
      -0.015
      -0.017
      -0.006
       0.009
       0.016
       0.009
      -0.003
      -0.015
      -0.025
      -0.029
      -0.021
      -0.007
       0.004
       0.009
       0.010
       0.004
      -0.005
      -0.012
      -0.009
       0.002
       0.010
       0.010
       0.007
       0.003
      -0.005
      -0.011
      -0.012
      -0.008
      -0.004
      -0.002
       0.000
       0.000
      -0.004
      -0.007
      -0.003
       0.007
       0.012
       0.011
       0.004
      -0.005
      -0.017
      -0.023
      -0.017
      -0.005
       0.002
       0.002
       0.002
       0.003
      -0.002
      -0.010
      -0.014
      -0.011
      -0.008
      -0.006
      -0.006
      -0.010
      -0.018
      -0.023
      -0.020
      -0.014
      -0.014
      -0.018
      -0.019
      -0.014
      -0.010
      -0.007
      -0.002
       0.004
       0.004
       0.000
      -0.004
      -0.008
      -0.013
      -0.016
      -0.013
      -0.005
       0.000
      -0.001
      -0.003
      -0.003
      -0.003
      -0.004
      -0.003
      -0.002
      -0.004
      -0.008
      -0.008
      -0.008
      -0.012
      -0.018
      -0.019
      -0.015
      -0.013
      -0.015
      -0.016
      -0.015
      -0.013
      -0.009
      -0.001
       0.005
       0.006
       0.003
       0.003
       0.006
       0.005
      -0.001
      -0.005
      -0.006
      -0.008
      -0.012
      -0.013
      -0.012
      -0.011
      -0.011
      -0.007
      -0.002
       0.001
       0.002
       0.003
       0.005
       0.004
       0.001
       0.000
      -0.001
      -0.005
      -0.007
      -0.004
       0.002
       0.002
      -0.002
      -0.006
      -0.008
      -0.012
      -0.014
      -0.011
      -0.006
      -0.004
      -0.006
      -0.005
      -0.004
      -0.005
      -0.008
      -0.004
       0.006
       0.013
       0.016
       0.013
       0.004
      -0.010
      -0.021
      -0.022
      -0.017
      -0.013
      -0.014
      -0.012
      -0.006
       0.000
       0.005
       0.011
       0.013
       0.009
       0.002
      -0.002
      -0.004
      -0.012
      -0.024
      -0.034
      -0.039
      -0.046
      -0.056
      -0.070
      -0.089
      -0.112
      -0.131
      -0.135
      -0.122
      -0.098
      -0.068
      -0.035
      -0.010
       0.003
       0.014
       0.048
       0.123
       0.244
       0.410
       0.615
       0.841
       1.049
       1.195
       1.249
       1.213
       1.126
       1.043
       1.012
       1.052
       1.150
       1.263
       1.307
       1.192
       0.882
       0.443
       0.004
      -0.332
      -0.542
      -0.660
      -0.748
      -0.890
      -1.174
      -1.620
      -2.118
      -2.486
      -2.610
      -2.553
      -2.513
      -2.687
      -3.128
      -3.719
      -4.233
      -4.416
      -4.064
      -3.133
      -1.867
      -0.747
      -0.212
      -0.323
      -0.697
      -0.770
      -0.186
       0.988
       2.352
       3.483
       4.196
       4.591
       4.900
       5.261
       5.624
       5.833
       5.773
       5.454
       4.977
       4.458
       3.969
       3.505
       2.974
       2.242
       1.221
      -0.055
      -1.393
      -2.501
      -3.150
      -3.359
      -3.422
      -3.704
      -4.353
      -5.170
      -5.729
      -5.670
      -4.967
      -3.966
      -3.163
      -2.869
      -3.044
      -3.398
      -3.622
      -3.539
      -3.092
      -2.308
      -1.294
      -0.255
       0.578
       1.119
       1.543
       2.195
       3.323
       4.867
       6.501
       7.853
       8.705
       9.042
       8.980
       8.669
       8.216
       7.640
       6.852
       5.693
       4.003
       1.723
      -1.029
      -3.946
      -6.636
      -8.769
     -10.195
     -10.942
     -11.149
     -10.938
     -10.308
      -9.111
      -7.210
      -4.702
      -1.984
       0.444
       2.289
       3.608
       4.681
       5.756
       6.843
       7.724
       8.136
       7.948
       7.207
       6.055
       4.648
       3.105
       1.500
      -0.113
      -1.648
      -2.970
      -3.942
      -4.489
      -4.618
      -4.377
      -3.834
      -3.082
      -2.238
      -1.413
      -0.706
      -0.233
      -0.133
      -0.489
      -1.216
      -2.029
      -2.534
      -2.398
      -1.544
      -0.243
       1.010
       1.788
       2.012
       1.974
       2.107
       2.666
       3.531
       4.269
       4.387
       3.636
       2.141
       0.286
      -1.550
      -3.208
      -4.759
      -6.325
      -7.873
      -9.160
      -9.858
      -9.745
      -8.793
      -7.160
      -5.116
      -2.956
      -0.892
       1.009
       2.777
       4.422
       5.839
       6.827
       7.205
       6.930
       6.120
       4.985
       3.708
       2.390
       1.091
      -0.086
      -0.999
      -1.580
      -1.930
      -2.232
      -2.562
      -2.779
      -2.626
      -1.947
      -0.833
       0.413
       1.464
       2.149
       2.503
       2.663
       2.720
       2.619
       2.180
       1.247
      -0.154
      -1.768
      -3.234
      -4.253
      -4.699
      -4.589
      -4.012
      -3.074
      -1.900
      -0.652
       0.485
       1.358
       1.909
       2.181
       2.262
       2.209
       2.034
       1.755
       1.417
       1.066
       0.716
       0.385
       0.141
       0.084
       0.270
       0.657
       1.129
       1.554
       1.868
       2.128
       2.478
       3.066
       3.952
       5.058
       6.186
       7.095
       7.597
       7.602
       7.080
       6.042
       4.567
       2.866
       1.243
      -0.026
      -0.822
      -1.207
      -1.352
      -1.427
      -1.511
      -1.590
      -1.626
      -1.651
      -1.780
      -2.135
      -2.732
      -3.430
      -3.989
      -4.215
      -4.095
      -3.808
      -3.592
      -3.596
      -3.811
      -4.131
      -4.420
      -4.577
      -4.572
      -4.464
      -4.333
      -4.161
      -3.791
      -3.031
      -1.819
      -0.300
       1.252
       2.583
       3.555
       4.153
       4.419
       4.400
       4.155
       3.803
       3.521
       3.477
       3.715
       4.097
       4.369
       4.295
       3.806
       3.031
       2.209
       1.540
       1.058
       0.609
      -0.044
      -1.042
      -2.309
      -3.592
      -4.640
      -5.351
      -5.782
      -6.054
      -6.280
      -6.536
      -6.830
      -7.065
      -7.069
      -6.688
      -5.869
      -4.677
      -3.250
      -1.763
      -0.383
       0.756
       1.564
       2.020
       2.198
       2.262
       2.366
       2.527
       2.594
       2.358
       1.704
       0.674
      -0.575
      -1.842
      -2.948
      -3.762
      -4.219
      -4.314
      -4.078
      -3.523
      -2.618
      -1.332
       0.282
       2.048
       3.749
       5.249
       6.516
       7.523
       8.156
       8.247
       7.700
       6.569
       5.013
       3.234
       1.448
      -0.097
      -1.169
      -1.660
      -1.659
      -1.377
      -0.982
      -0.494
       0.131
       0.828
       1.369
       1.495
       1.126
       0.455
      -0.147
      -0.335
       0.031
       0.852
       1.893
       2.923
       3.759
       4.255
       4.310
       3.923
       3.198
       2.252
       1.112
      -0.272
      -1.874
      -3.442
      -4.496
      -4.575
      -3.573
      -1.901
      -0.294
       0.626
       0.686
       0.179
      -0.419
      -0.763
      -0.795
      -0.672
      -0.568
      -0.542
      -0.541
      -0.474
      -0.250
       0.204
       0.858
       1.502
       1.804
       1.529
       0.741
      -0.211
      -0.921
      -1.200
      -1.172
      -1.138
      -1.299
      -1.625
      -1.971
      -2.294
      -2.699
      -3.271
      -3.897
      -4.299
      -4.233
      -3.656
      -2.722
      -1.651
      -0.582
       0.454
       1.446
       2.317
       2.935
       3.186
       3.028
       2.493
       1.685
       0.802
       0.106
      -0.196
      -0.100
       0.158
       0.256
       0.024
      -0.420
      -0.770
      -0.801
      -0.592
      -0.477
      -0.755
      -1.382
      -1.932
      -1.861
      -0.897
       0.743
       2.463
       3.645
       4.006
       3.706
       3.145
       2.629
       2.166
       1.518
       0.449
      -1.019
      -2.511
      -3.460
      -3.433
      -2.433
      -0.939
       0.343
       0.888
       0.616
      -0.164
      -1.035
      -1.741
      -2.238
      -2.579
      -2.786
      -2.849
      -2.809
      -2.802
      -2.981
      -3.369
      -3.781
      -3.922
      -3.617
      -2.966
      -2.258
      -1.685
      -1.141
      -0.279
       1.211
       3.305
       5.553
       7.243
       7.759
       6.910
       5.016
       2.700
       0.547
      -1.148
      -2.413
      -3.441
      -4.370
      -5.163
      -5.648
      -5.658
      -5.147
      -4.238
      -3.185
      -2.260
      -1.618
      -1.197
      -0.763
      -0.076
       0.905
       1.957
       2.695
       2.799
       2.189
       1.022
      -0.453
      -2.031
      -3.560
      -4.915
      -6.050
      -7.079
      -8.250
      -9.755
     -11.527
     -13.199
     -14.283
     -14.466
     -13.830
     -12.819
     -11.965
     -11.576
     -11.610
     -11.786
     -11.795
     -11.466
     -10.827
     -10.074
      -9.447
      -9.067
      -8.841
      -8.487
      -7.680
      -6.209
      -4.090
      -1.534
       1.186
       3.879
       6.449
       8.793
      10.728
      12.035
      12.580
      12.406
      11.744
      10.948
      10.372
      10.244
      10.629
      11.502
      12.852
      14.702
      17.034
      19.712
      22.502
      25.195
      27.702
      30.001
      31.907
      32.889
      32.211
      29.390
      24.607
      18.678
      12.630
       7.223
       2.714
      -1.070
      -4.467
      -7.666
     -10.553
     -12.802
     -14.135
     -14.519
     -14.166
     -13.367
     -12.316
     -11.119
      -9.937
      -9.053
      -8.729
      -8.991
      -9.567
     -10.041
     -10.064
      -9.505
      -8.425
      -6.891
      -4.756
      -1.661
       2.654
       7.998
      13.712
      19.026
      23.466
      26.927
      29.489
      31.210
      32.069
      32.041
      31.232
      29.964
      28.661
      27.582
      26.646
      25.541
      24.006
      22.080
      20.140
      18.656
      17.827
      17.393
      16.802
      15.534
      13.306
      10.094
       6.049
       1.421
      -3.516
      -8.520
     -13.402
     -18.034
     -22.354
     -26.303
     -29.703
     -32.212
     -33.442
     -33.113
     -31.104
     -27.505
     -22.735
     -17.568
     -12.912
      -9.440
      -7.351
      -6.413
      -6.209
      -6.412
      -6.969
      -8.119
     -10.192
     -13.323
     -17.247
     -21.275
     -24.439
     -25.822
     -24.992
     -22.233
     -18.362
     -14.247
     -10.433
      -7.079
      -4.112
      -1.447
       0.863
       2.620
       3.594
       3.658
       2.850
       1.328
      -0.677
      -2.910
      -5.141
      -7.240
      -9.168
     -10.907
     -12.442
     -13.793
     -15.009
     -16.128
     -17.160
     -18.119
     -18.989
     -19.666
     -19.983
     -19.826
     -19.208
     -18.215
     -16.939
     -15.479
     -13.966
     -12.519
     -11.161
      -9.793
      -8.267
      -6.485
      -4.428
      -2.132
       0.309
       2.759
       5.089
       7.250
       9.263
      11.116
      12.709
      13.893
      14.576
      14.777
      14.621
      14.311
      14.071
      14.045
      14.237
      14.532
      14.784
      14.892
      14.834
      14.679
      14.569
      14.639
      14.897
      15.144
      15.042
      14.298
      12.820
      10.748
       8.337
       5.810
       3.290
       0.826
      -1.501
      -3.512
      -4.956
      -5.614
      -5.399
      -4.386
      -2.805
      -0.994
       0.705
       2.068
       3.066
       3.834
       4.566
       5.415
       6.409
       7.426
       8.218
       8.510
       8.119
       7.073
       5.610
       4.055
       2.641
       1.420
       0.300
      -0.823
      -1.943
      -2.908
      -3.486
      -3.512
      -2.980
      -2.023
      -0.803
       0.585
       2.132
       3.871
       5.803
       7.834
       9.736
      11.192
      11.909
      11.743
      10.757
       9.158
       7.189
       5.049
       2.851
       0.626
      -1.617
      -3.802
      -5.768
      -7.320
      -8.321
      -8.738
      -8.653
      -8.216
      -7.578
      -6.838
      -6.044
      -5.244
      -4.502
      -3.903
      -3.554
      -3.563
      -3.951
      -4.590
      -5.257
      -5.766
      -6.039
      -6.063
      -5.831
      -5.349
      -4.663
      -3.859
      -3.032
      -2.263
      -1.607
      -1.093
      -0.723
      -0.476
      -0.301
      -0.125
       0.131
       0.516
       1.014
       1.546
       1.999
       2.283
       2.378
       2.332
       2.232
       2.145
       2.096
       2.075
       2.063
       2.042
       1.997
       1.913
       1.787
       1.643
       1.575
       1.744
       2.283
       3.165
       4.175
       5.022
       5.500
       5.574
       5.353
       4.981
       4.550
       4.033
       3.322
       2.308
       0.967
      -0.631
      -2.377
      -4.179
      -5.972
      -7.683
      -9.212
     -10.449
     -11.317
     -11.769
     -11.765
     -11.248
     -10.188
      -8.642
      -6.771
      -4.807
      -2.985
      -1.475
      -0.332
       0.496
       1.099
       1.544
       1.872
       2.119
       2.308
       2.433
       2.472
       2.421
       2.302
       2.147
       2.005
       1.963
       2.123
       2.557
       3.278
       4.267
       5.495
       6.905
       8.392
       9.800
      10.958
      11.731
      12.083
      12.094
      11.898
      11.571
      11.093
      10.400
       9.460
       8.305
       7.029
       5.769
       4.661
       3.808
       3.252
       2.976
       2.915
       2.980
       3.111
       3.310
       3.616
       4.032
       4.480
       4.818
       4.904
       4.661
       4.115
       3.376
       2.570
       1.786
       1.074
       0.464
      -0.030
      -0.429
      -0.790
      -1.180
      -1.666
      -2.308
      -3.135
      -4.100
      -5.088
      -5.971
      -6.666
      -7.169
      -7.557
      -7.948
      -8.427
      -8.976
      -9.504
      -9.934
     -10.273
     -10.591
     -10.972
     -11.480
     -12.141
     -12.919
     -13.722
     -14.436
     -14.968
     -15.284
     -15.425
     -15.482
     -15.541
     -15.616
     -15.622
     -15.417
     -14.892
     -14.051
     -13.013
     -11.924
     -10.853
      -9.764
      -8.569
      -7.202
      -5.651
      -3.974
      -2.283
      -0.722
       0.600
       1.636
       2.381
       2.824
       2.953
       2.788
       2.398
       1.891
       1.381
       0.961
       0.679
       0.538
       0.512
       0.563
       0.645
       0.703
       0.707
       0.670
       0.616
       0.535
       0.385
       0.136
      -0.188
      -0.500
      -0.695
      -0.704
      -0.514
      -0.148
       0.386
       1.132
       2.141
       3.408
       4.829
       6.225
       7.410
       8.285
       8.870
       9.268
       9.576
       9.825
       9.999
      10.095
      10.157
      10.256
      10.450
      10.753
      11.123
      11.490
      11.798
      12.026
      12.181
      12.276
      12.329
      12.362
      12.378
      12.332
      12.139
      11.732
      11.111
      10.345
       9.519
       8.679
       7.778
       6.701
       5.346
       3.734
       2.014
       0.378
      -1.052
      -2.265
      -3.331
      -4.318
      -5.218
      -5.932
      -6.331
      -6.336
      -5.937
      -5.172
      -4.120
      -2.907
      -1.666
      -0.473
       0.671
       1.808
       2.981
       4.201
       5.421
       6.542
       7.464
       8.137
       8.559
       8.725
       8.620
       8.241
       7.630
       6.849
       5.943
       4.918
       3.759
       2.470
       1.113
      -0.195
      -1.339
      -2.269
      -3.002
      -3.573
      -3.989
      -4.239
      -4.325
      -4.308
      -4.331
      -4.583
      -5.190
      -6.124
      -7.228
      -8.322
      -9.291
     -10.098
