Origin Time       02/10/2012 03:45:28
Lat.              32.4 N 
Long.             76.4 E 
Depth (Km)         10.0
Magnitude         4.5
 Region           Chamba-DISTT.-HIMACHAL                                           
 Above details taken from IMD 
     
Station Code      CHM
Station Lat.       32.555  N
Station Long.      76.126  E
Station Height(m)  952.0
Site Class        A   Vs30 between 700 m/sec to 1400 m/sec * 
Record Time       02.10.2012 03:44:44.174
Sampling Rate     200. Hz
 Record Duration   73.970 Sec.
 Direction         E-W (E positive)
Max. Acceleration      6.088 cm/sec**2
     
  * For reference see Site Classification link of website 
     
 Base Line Corrected and Low Pass Filtered (Cut Off at 35 Hz) Time History
 Acceleration data in cm/sec**2
    
[...]
       0.141
       0.728
       1.051
       0.894
       0.391
      -0.119
      -0.414
      -0.535
      -0.631
      -0.728
      -0.676
      -0.329
       0.260
       0.820
       1.053
       0.849
       0.357
      -0.153
      -0.474
      -0.567
      -0.516
      -0.417
      -0.297
      -0.131
       0.061
       0.187
       0.161
       0.021
      -0.090
      -0.097
      -0.101
      -0.243
      -0.460
      -0.456
       0.015
       0.823
       1.491
       1.574
       1.019
       0.146
      -0.671
      -1.252
      -1.575
      -1.619
      -1.323
      -0.696
       0.110
       0.861
       1.359
       1.505
       1.290
       0.784
       0.124
      -0.508
      -0.949
      -1.110
      -0.983
      -0.587
       0.058
       0.887
       1.695
       2.159
       2.009
       1.234
       0.107
      -0.990
      -1.745
      -1.961
      -1.560
      -0.650
       0.416
       1.172
       1.347
       1.014
       0.435
      -0.192
      -0.786
      -1.228
      -1.343
      -1.086
      -0.679
      -0.420
      -0.352
      -0.220
       0.197
       0.778
       1.135
       1.010
       0.549
       0.153
       0.081
       0.202
       0.161
      -0.220
      -0.727
      -0.926
      -0.579
       0.116
       0.674
       0.713
       0.259
      -0.288
      -0.451
      -0.034
       0.715
       1.259
       1.156
       0.387
      -0.625
      -1.349
      -1.494
      -1.087
      -0.324
       0.557
       1.278
       1.568
       1.324
       0.748
       0.233
       0.048
       0.112
       0.075
      -0.346
      -1.073
      -1.675
      -1.710
      -1.112
      -0.279
       0.231
       0.140
      -0.353
      -0.766
      -0.722
      -0.190
       0.555
       1.165
       1.419
       1.292
       0.909
       0.437
      -0.009
      -0.390
      -0.699
      -0.905
      -0.950
      -0.773
      -0.317
       0.448
       1.439
       2.365
       2.784
       2.367
       1.203
      -0.193
      -1.226
      -1.649
      -1.666
      -1.627
      -1.635
      -1.465
      -0.855
       0.148
       1.118
       1.522
       1.115
       0.137
      -0.839
      -1.280
      -1.026
      -0.351
       0.264
       0.475
       0.271
      -0.085
      -0.293
      -0.239
      -0.032
       0.139
       0.190
       0.194
       0.251
       0.334
       0.304
       0.084
      -0.229
      -0.441
      -0.444
      -0.289
      -0.104
       0.015
       0.052
       0.043
       0.031
       0.055
       0.171
       0.459
       0.949
       1.516
       1.884
       1.831
       1.386
       0.779
       0.160
      -0.546
      -1.413
      -2.196
      -2.394
      -1.753
      -0.641
       0.231
       0.493
       0.460
       0.701
       1.334
       1.826
       1.514
       0.268
      -1.358
      -2.558
      -2.833
      -2.211
      -1.079
       0.116
       1.070
       1.646
       1.823
       1.620
       1.071
       0.260
      -0.629
      -1.331
      -1.611
      -1.386
      -0.762
       0.014
       0.653
       0.948
       0.894
       0.691
       0.556
       0.510
       0.388
       0.078
      -0.299
      -0.498
      -0.421
      -0.222
      -0.116
      -0.141
      -0.146
      -0.023
       0.099
      -0.014
      -0.371
      -0.606
      -0.260
       0.743
       1.926
       2.592
       2.373
       1.469
       0.391
      -0.500
      -1.217
      -1.951
      -2.698
      -3.126
      -2.842
      -1.785
      -0.357
       0.870
       1.570
       1.806
       1.800
       1.632
       1.188
       0.384
      -0.614
      -1.428
      -1.725
      -1.438
      -0.763
       0.028
       0.738
       1.235
       1.411
       1.221
       0.784
       0.359
       0.161
       0.166
       0.129
      -0.159
      -0.615
      -0.871
      -0.610
       0.081
       0.721
       0.832
       0.357
      -0.317
      -0.735
      -0.749
      -0.567
      -0.469
      -0.525
      -0.594
      -0.548
      -0.453
      -0.478
      -0.634
      -0.672
      -0.310
       0.419
       1.105
       1.299
       0.944
       0.415
       0.140
       0.207
       0.383
       0.439
       0.367
       0.263
       0.106
      -0.233
      -0.758
      -1.218
      -1.284
      -0.863
      -0.183
       0.431
       0.827
       1.083
       1.326
       1.527
       1.496
       1.079
       0.371
      -0.299
      -0.626
      -0.583
      -0.412
      -0.363
      -0.472
      -0.565
      -0.455
      -0.115
       0.296
       0.543
       0.478
       0.133
      -0.321
      -0.701
      -0.906
      -0.916
      -0.740
      -0.417
      -0.038
       0.270
       0.415
       0.369
       0.137
      -0.256
      -0.714
      -1.018
      -0.919
      -0.344
       0.469
       1.096
       1.239
       0.962
       0.592
       0.404
       0.400
       0.387
       0.219
      -0.070
      -0.324
      -0.397
      -0.240
       0.075
       0.365
       0.401
       0.049
      -0.615
      -1.312
      -1.724
      -1.692
      -1.266
      -0.607
       0.146
       0.915
       1.615
       2.086
       2.140
       1.670
       0.742
      -0.412
      -1.466
      -2.095
      -2.085
      -1.434
      -0.377
       0.712
       1.500
       1.820
       1.661
       1.103
       0.281
      -0.599
      -1.279
      -1.547
      -1.359
      -0.874
      -0.345
       0.055
       0.337
       0.618
       0.955
       1.257
       1.350
       1.124
       0.638
       0.099
      -0.256
      -0.312
      -0.173
      -0.086
      -0.233
      -0.557
      -0.811
      -0.802
      -0.575
      -0.344
      -0.257
      -0.267
      -0.205
       0.037
       0.423
       0.792
       0.944
       0.758
       0.281
      -0.288
      -0.761
      -1.082
      -1.266
      -1.240
      -0.840
      -0.027
       0.940
       1.634
       1.795
       1.516
       1.090
       0.712
       0.355
      -0.109
      -0.713
      -1.317
      -1.674
      -1.586
      -1.059
      -0.344
       0.210
       0.405
       0.342
       0.311
       0.509
       0.856
       1.067
       0.913
       0.421
      -0.130
      -0.422
      -0.332
      -0.015
       0.231
       0.196
      -0.098
      -0.437
      -0.591
      -0.468
      -0.154
       0.192
       0.449
       0.576
       0.557
       0.365
       0.009
      -0.393
      -0.639
      -0.608
      -0.401
      -0.264
      -0.350
      -0.563
      -0.664
      -0.501
      -0.124
       0.307
       0.672
       0.928
       1.046
       0.986
       0.753
       0.452
       0.225
       0.120
       0.046
      -0.139
      -0.458
      -0.755
      -0.811
      -0.557
      -0.167
       0.079
       0.047
      -0.157
      -0.320
      -0.339
      -0.272
      -0.242
      -0.311
      -0.459
      -0.623
      -0.711
      -0.600
      -0.201
       0.449
       1.145
       1.612
       1.658
       1.266
       0.577
      -0.182
      -0.758
      -0.935
      -0.611
       0.131
       1.021
       1.677
       1.784
       1.263
       0.343
      -0.588
      -1.247
      -1.607
      -1.804
      -1.900
      -1.788
      -1.328
      -0.547
       0.319
       0.991
       1.325
       1.354
       1.173
       0.846
       0.406
      -0.092
      -0.555
      -0.885
      -1.011
      -0.897
      -0.560
      -0.095
       0.324
       0.514
       0.373
      -0.039
      -0.514
      -0.799
      -0.746
      -0.392
       0.092
       0.555
       0.951
       1.254
       1.321
       0.932
       0.042
      -1.027
      -1.717
      -1.648
      -0.928
      -0.067
       0.443
       0.497
       0.378
       0.412
       0.627
       0.748
       0.544
       0.124
      -0.138
       0.018
       0.465
       0.825
       0.837
       0.571
       0.293
       0.174
       0.133
      -0.028
      -0.402
      -0.890
      -1.317
      -1.590
      -1.715
      -1.691
      -1.457
      -0.956
      -0.244
       0.509
       1.119
       1.497
       1.686
       1.786
       1.835
       1.773
       1.507
       1.031
       0.472
       0.013
      -0.234
      -0.289
      -0.239
      -0.136
       0.041
       0.293
       0.509
       0.482
       0.060
      -0.690
      -1.459
      -1.871
      -1.740
      -1.194
      -0.563
      -0.126
       0.053
       0.084
       0.080
       0.062
      -0.004
      -0.134
      -0.307
      -0.493
      -0.645
      -0.664
      -0.418
       0.140
       0.872
       1.475
       1.657
       1.337
       0.700
       0.044
      -0.441
      -0.787
      -1.134
      -1.513
      -1.742
      -1.573
      -0.975
      -0.252
       0.162
       0.038
      -0.507
      -1.139
      -1.537
      -1.495
      -0.911
       0.179
       1.498
       2.529
       2.775
       2.130
       1.042
       0.266
       0.361
       1.291
       2.402
       2.824
       2.032
       0.224
      -1.749
      -2.897
      -2.719
      -1.515
      -0.150
       0.570
       0.419
      -0.225
      -0.806
      -1.055
      -1.098
      -1.187
      -1.374
      -1.441
      -1.100
      -0.264
       0.848
       1.838
       2.391
       2.461
       2.236
       1.944
       1.682
       1.438
       1.215
       1.095
       1.160
       1.363
       1.520
       1.435
       1.021
       0.325
      -0.556
      -1.573
      -2.715
      -3.881
      -4.763
      -4.931
      -4.120
      -2.498
      -0.613
       0.951
       1.923
       2.378
       2.488
       2.291
       1.737
       0.938
       0.277
       0.194
       0.797
       1.690
       2.222
       1.975
       1.064
      -0.027
      -0.901
      -1.538
      -2.125
      -2.664
      -2.831
      -2.307
      -1.231
      -0.234
       0.052
      -0.466
      -1.286
      -1.789
      -1.745
      -1.379
      -1.027
      -0.768
      -0.389
       0.353
       1.443
       2.570
       3.344
       3.548
       3.229
       2.561
       1.666
       0.563
      -0.703
      -1.932
      -2.802
      -3.052
      -2.650
      -1.815
      -0.905
      -0.247
       0.013
      -0.017
      -0.042
       0.218
       0.809
       1.480
       1.866
       1.769
       1.295
       0.764
       0.467
       0.505
       0.784
       1.108
       1.278
       1.157
       0.725
       0.127
      -0.361
      -0.491
      -0.224
       0.226
       0.551
       0.586
       0.403
       0.177
      -0.039
      -0.405
      -1.146
      -2.300
      -3.558
      -4.383
      -4.327
      -3.348
      -1.854
      -0.430
       0.563
       1.169
       1.668
       2.234
       2.738
       2.858
       2.371
       1.370
       0.256
      -0.481
      -0.527
       0.086
       1.001
       1.691
       1.706
       0.895
      -0.504
      -1.961
      -2.921
      -3.056
      -2.408
      -1.351
      -0.404
       0.044
      -0.032
      -0.299
      -0.308
       0.191
       1.096
       2.038
       2.619
       2.662
       2.303
       1.868
       1.616
       1.544
       1.423
       1.002
       0.212
      -0.787
      -1.717
      -2.343
      -2.612
      -2.668
      -2.717
      -2.842
      -2.922
      -2.746
      -2.209
      -1.432
      -0.667
      -0.095
       0.325
       0.801
       1.497
       2.358
       3.126
       3.503
       3.319
       2.576
       1.422
       0.132
      -0.906
      -1.272
      -0.711
       0.656
       2.275
       3.390
       3.449
       2.423
       0.778
      -0.852
      -2.047
      -2.724
      -2.990
      -2.915
      -2.483
      -1.718
      -0.818
      -0.102
       0.195
       0.094
      -0.162
      -0.316
      -0.260
      -0.048
       0.223
       0.499
       0.781
       1.088
       1.432
       1.804
       2.134
       2.258
       1.964
       1.139
      -0.082
      -1.317
      -2.140
      -2.340
      -2.034
      -1.537
      -1.117
      -0.843
      -0.615
      -0.329
       0.016
       0.369
       0.746
       1.220
       1.753
       2.096
       1.929
       1.174
       0.180
      -0.451
      -0.292
       0.539
       1.404
       1.573
       0.737
      -0.805
      -2.408
      -3.530
      -3.986
      -3.898
      -3.463
      -2.815
      -2.018
      -1.149
      -0.345
       0.241
       0.522
       0.553
       0.509
       0.569
       0.786
       1.038
       1.132
       0.978
       0.703
       0.589
       0.842
       1.386
       1.868
       1.911
       1.406
       0.595
      -0.101
      -0.372
      -0.189
       0.228
       0.558
       0.532
       0.065
      -0.648
      -1.174
      -1.114
      -0.439
       0.418
       0.853
       0.552
      -0.289
      -1.158
      -1.655
      -1.757
      -1.708
      -1.628
      -1.257
      -0.150
       1.784
       3.933
       5.279
       5.153
       3.763
       1.976
       0.589
      -0.210
      -0.740
      -1.312
      -1.875
      -2.130
      -1.910
      -1.415
      -1.075
      -1.198
      -1.733
      -2.305
      -2.491
      -2.105
      -1.289
      -0.368
       0.397
       0.946
       1.362
       1.732
       2.082
       2.412
       2.695
       2.806
       2.471
       1.413
      -0.372
      -2.446
      -4.096
      -4.749
      -4.312
      -3.162
      -1.842
      -0.753
      -0.062
       0.223
       0.175
      -0.023
      -0.060
       0.417
       1.591
       3.293
       5.009
       6.088
       6.047
       4.802
       2.723
       0.482
      -1.228
      -1.976
      -1.768
      -1.026
      -0.397
      -0.448
      -1.363
      -2.809
      -4.085
      -4.486
      -3.704
      -2.015
      -0.131
       1.195
       1.579
       1.172
       0.480
      -0.017
      -0.137
       0.021
       0.298
       0.634
       1.031
       1.412
       1.584
       1.347
       0.677
      -0.185
      -0.821
      -0.860
      -0.215
       0.849
       1.848
       2.341
       2.116
       1.254
       0.052
      -1.124
      -2.011
      -2.551
      -2.853
      -3.052
      -3.177
      -3.160
      -2.940
      -2.548
      -2.077
      -1.560
      -0.909
       0.010
       1.224
       2.559
       3.702
       4.363
       4.423
       3.955
       3.134
       2.144
       1.157
       0.333
      -0.230
      -0.585
      -0.943
      -1.506
      -2.277
      -3.025
      -3.478
      -3.520
      -3.213
      -2.650
      -1.867
      -0.923
      -0.029
       0.511
       0.535
       0.214
      -0.064
       0.000
       0.402
       0.928
       1.402
       1.814
       2.211
       2.554
       2.746
       2.785
       2.825
       3.022
       3.298
       3.317
       2.744
       1.579
       0.221
      -0.802
      -1.207
      -1.073
      -0.664
      -0.187
       0.263
       0.600
       0.679
       0.403
      -0.152
      -0.732
      -1.039
      -0.906
      -0.356
       0.435
       1.212
       1.703
       1.691
       1.122
       0.183
      -0.761
      -1.381
      -1.619
      -1.714
      -1.990
      -2.588
      -3.355
      -3.964
      -4.129
      -3.802
      -3.210
      -2.736
      -2.674
      -3.040
      -3.567
      -3.889
      -3.754
      -3.117
      -2.096
      -0.872
       0.389
       1.572
       2.609
       3.442
       3.997
       4.193
       3.997
       3.493
       2.873
       2.347
       2.039
       1.946
       1.992
       2.102
       2.224
       2.285
       2.166
       1.742
       0.985
       0.035
      -0.843
      -1.400
      -1.551
      -1.398
      -1.124
      -0.870
      -0.675
      -0.528
      -0.428
      -0.400
      -0.439
      -0.469
      -0.347
       0.045
       0.705
       1.478
       2.141
       2.527
       2.587
       2.350
       1.874
       1.254
       0.675
       0.352
       0.351
       0.450
       0.248
      -0.500
      -1.611
      -2.576
      -2.973
      -2.799
      -2.439
      -2.301
      -2.466
      -2.662
      -2.541
      -2.000
      -1.253
      -0.631
      -0.326
      -0.304
      -0.432
      -0.626
      -0.876
      -1.145
      -1.290
      -1.114
      -0.493
       0.516
       1.692
       2.757
       3.490
       3.799
       3.725
       3.381
       2.875
       2.288
       1.697
       1.222
       0.982
       0.997
       1.116
       1.078
       0.662
      -0.156
      -1.156
      -1.970
      -2.276
      -1.992
      -1.337
      -0.687
      -0.308
      -0.183
      -0.079
       0.208
       0.648
       0.994
       0.992
       0.563
      -0.166
      -0.982
      -1.700
      -2.214
      -2.481
      -2.511
      -2.356
      -2.069
      -1.663
      -1.106
      -0.392
       0.400
       1.106
       1.548
       1.603
       1.223
       0.450
      -0.573
      -1.598
      -2.357
      -2.675
      -2.549
      -2.104
      -1.484
      -0.763
       0.024
       0.799
       1.397
       1.636
       1.462
       1.056
       0.774
       0.921
       1.513
       2.235
       2.647
       2.490
       1.839
       0.995
       0.236
      -0.330
      -0.719
      -0.927
      -0.858
      -0.410
       0.384
       1.322
       2.125
       2.569
       2.548
       2.071
       1.255
       0.305
      -0.529
      -1.054
      -1.228
      -1.146
      -0.946
      -0.703
      -0.421
      -0.091
       0.247
       0.523
       0.693
       0.761
       0.735
       0.567
       0.166
      -0.508
      -1.361
      -2.169
      -2.696
      -2.808
      -2.518
      -1.953
      -1.301
      -0.781
      -0.585
      -0.764
      -1.148
      -1.414
      -1.279
      -0.702
       0.113
       0.897
       1.538
       2.115
       2.722
       3.274
       3.490
       3.116
       2.162
       0.939
      -0.136
      -0.776
      -0.929
      -0.727
      -0.387
      -0.131
      -0.137
      -0.487
      -1.113
      -1.803
      -2.286
      -2.383
      -2.117
      -1.687
      -1.313
      -1.075
      -0.886
      -0.593
      -0.110
       0.515
       1.122
       1.528
       1.623
       1.445
       1.174
       1.037
       1.183
       1.586
       2.061
       2.384
       2.424
       2.194
       1.775
       1.210
       0.483
      -0.400
      -1.316
      -2.051
      -2.436
      -2.469
      -2.317
      -2.182
      -2.155
      -2.156
      -2.018
      -1.630
      -1.035
      -0.391
       0.155
       0.567
       0.888
       1.158
       1.364
       1.484
       1.516
       1.460
       1.278
       0.918
       0.408
      -0.089
      -0.352
      -0.273
       0.030
       0.285
       0.268
      -0.022
      -0.377
      -0.562
      -0.517
      -0.393
      -0.400
      -0.589
      -0.788
      -0.757
      -0.412
       0.101
       0.563
       0.887
       1.144
       1.389
       1.519
       1.337
       0.779
       0.047
      -0.505
      -0.625
      -0.329
       0.152
       0.536
       0.651
       0.474
       0.112
      -0.241
      -0.383
      -0.198
       0.251
       0.736
       0.979
       0.822
       0.321
      -0.291
      -0.750
      -0.892
      -0.700
      -0.274
       0.226
       0.633
       0.817
       0.732
       0.446
       0.119
      -0.063
       0.018
