Origin Time       6/11/2013 14:53:08	
Lat.              31.4 N	
Long.             76.1 E	
Depth (Km)         10.0
Magnitude         4.9
 Region           Hoshiarpur-Punjab                                                
 Above details taken from IMD 
   
Station Code      CHM
Station Lat.       32.555
Station Long.      76.126
Station Height(m)  952.0
Site Class        A   Vs30 between 700 m/sec to 1400 m/sec * 
Record Time       06.11.2013 14:52:37.384
Sampling Rate     200. Hz
 Record Duration   66.630 Sec.
 Direction         Vert. (Up positive)
Max. Acceleration      2.141 cm/sec**2
     
  * For reference see Site Classification link of website 
     
 Base Line Corrected and Low Pass Filtered (Cut Off at 35 Hz) Time History
 Acceleration data in cm/sec**2
    
[...]
      -0.545
      -0.305
      -0.020
       0.215
       0.316
       0.252
       0.076
      -0.093
      -0.140
      -0.023
       0.200
       0.406
       0.482
       0.394
       0.193
      -0.025
      -0.177
      -0.230
      -0.206
      -0.149
      -0.084
      -0.003
       0.108
       0.227
       0.288
       0.211
      -0.022
      -0.337
      -0.589
      -0.651
      -0.489
      -0.187
       0.105
       0.258
       0.237
       0.105
      -0.024
      -0.070
      -0.030
       0.037
       0.071
       0.061
       0.044
       0.067
       0.142
       0.232
       0.278
       0.235
       0.102
      -0.071
      -0.214
      -0.278
      -0.262
      -0.201
      -0.139
      -0.090
      -0.040
       0.036
       0.139
       0.233
       0.261
       0.180
      -0.001
      -0.219
      -0.388
      -0.444
      -0.379
      -0.242
      -0.093
       0.025
       0.103
       0.155
       0.196
       0.235
       0.263
       0.265
       0.226
       0.151
       0.062
      -0.010
      -0.051
      -0.077
      -0.119
      -0.195
      -0.287
      -0.342
      -0.314
      -0.195
      -0.025
       0.137
       0.247
       0.300
       0.311
       0.295
       0.257
       0.192
       0.107
       0.021
      -0.038
      -0.041
       0.026
       0.149
       0.282
       0.360
       0.338
       0.218
       0.046
      -0.116
      -0.238
      -0.328
      -0.401
      -0.455
      -0.466
      -0.413
      -0.309
      -0.195
      -0.107
      -0.060
      -0.032
       0.006
       0.066
       0.137
       0.198
       0.236
       0.258
       0.273
       0.288
       0.294
       0.271
       0.203
       0.090
      -0.041
      -0.150
      -0.201
      -0.184
      -0.125
      -0.066
      -0.047
      -0.079
      -0.137
      -0.175
      -0.151
      -0.060
       0.067
       0.181
       0.250
       0.271
       0.257
       0.208
       0.111
      -0.051
      -0.257
      -0.452
      -0.566
      -0.551
      -0.414
      -0.212
      -0.018
       0.115
       0.181
       0.218
       0.269
       0.345
       0.412
       0.418
       0.342
       0.206
       0.058
      -0.061
      -0.140
      -0.186
      -0.216
      -0.243
      -0.270
      -0.289
      -0.278
      -0.222
      -0.127
      -0.025
       0.042
       0.054
       0.035
       0.028
       0.059
       0.116
       0.159
       0.153
       0.090
      -0.003
      -0.088
      -0.135
      -0.136
      -0.102
      -0.058
      -0.031
      -0.036
      -0.073
      -0.125
      -0.164
      -0.161
      -0.094
       0.048
       0.243
       0.410
       0.448
       0.332
       0.167
       0.118
       0.234
       0.392
       0.424
       0.311
       0.202
       0.225
       0.322
       0.311
       0.093
      -0.225
      -0.466
      -0.567
      -0.594
      -0.601
      -0.557
      -0.416
      -0.208
      -0.026
       0.057
       0.032
      -0.049
      -0.110
      -0.088
       0.031
       0.203
       0.368
       0.497
       0.594
       0.656
       0.638
       0.499
       0.255
       0.002
      -0.144
      -0.128
       0.000
       0.116
       0.105
      -0.069
      -0.343
      -0.596
      -0.726
      -0.703
      -0.559
      -0.344
      -0.090
       0.185
       0.448
       0.639
       0.702
       0.615
       0.415
       0.177
      -0.025
      -0.157
      -0.225
      -0.260
      -0.298
      -0.364
      -0.462
      -0.559
      -0.595
      -0.522
      -0.338
      -0.099
       0.115
       0.245
       0.278
       0.245
       0.192
       0.158
       0.156
       0.182
       0.221
       0.256
       0.264
       0.223
       0.118
      -0.035
      -0.193
      -0.296
      -0.298
      -0.196
      -0.032
       0.121
       0.199
       0.172
       0.049
      -0.127
      -0.297
      -0.406
      -0.419
      -0.336
      -0.186
      -0.013
       0.153
       0.298
       0.421
       0.512
       0.544
       0.493
       0.363
       0.196
       0.051
      -0.038
      -0.070
      -0.074
      -0.084
      -0.116
      -0.169
      -0.234
      -0.306
      -0.384
      -0.452
      -0.476
      -0.417
      -0.261
      -0.033
       0.207
       0.382
       0.433
       0.340
       0.136
      -0.108
      -0.313
      -0.419
      -0.395
      -0.240
       0.016
       0.311
       0.566
       0.701
       0.665
       0.456
       0.131
      -0.206
      -0.443
      -0.508
      -0.409
      -0.222
      -0.049
       0.039
       0.032
      -0.037
      -0.120
      -0.172
      -0.155
      -0.050
       0.138
       0.371
       0.583
       0.699
       0.669
       0.484
       0.186
      -0.145
      -0.416
      -0.552
      -0.525
      -0.365
      -0.144
       0.050
       0.154
       0.152
       0.071
      -0.039
      -0.129
      -0.167
      -0.145
      -0.071
       0.041
       0.179
       0.323
       0.436
       0.477
       0.422
       0.278
       0.090
      -0.084
      -0.201
      -0.255
      -0.279
      -0.319
      -0.395
      -0.483
      -0.524
      -0.469
      -0.314
      -0.101
       0.112
       0.283
       0.394
       0.446
       0.445
       0.400
       0.327
       0.241
       0.159
       0.090
       0.039
       0.013
       0.012
       0.020
       0.012
      -0.037
      -0.124
      -0.223
      -0.294
      -0.306
      -0.252
      -0.144
      -0.008
       0.121
       0.209
       0.241
       0.225
       0.180
       0.123
       0.052
      -0.033
      -0.127
      -0.215
      -0.291
      -0.357
      -0.423
      -0.494
      -0.560
      -0.595
      -0.565
      -0.443
      -0.226
       0.057
       0.349
       0.580
       0.698
       0.689
       0.585
       0.436
       0.283
       0.140
       0.006
      -0.108
      -0.171
      -0.157
      -0.079
       0.003
       0.024
      -0.043
      -0.165
      -0.279
      -0.333
      -0.309
      -0.221
      -0.091
       0.069
       0.246
       0.418
       0.546
       0.579
       0.487
       0.287
       0.050
      -0.139
      -0.226
      -0.224
      -0.196
      -0.200
      -0.247
      -0.303
      -0.320
      -0.270
      -0.150
       0.018
       0.199
       0.350
       0.430
       0.423
       0.343
       0.223
       0.100
       0.000
      -0.050
      -0.030
       0.058
       0.171
       0.237
       0.191
       0.024
      -0.208
      -0.416
      -0.515
      -0.462
      -0.270
       0.005
       0.280
       0.475
       0.543
       0.488
       0.354
       0.200
       0.070
      -0.020
      -0.072
      -0.101
      -0.123
      -0.158
      -0.215
      -0.288
      -0.354
      -0.375
      -0.321
      -0.187
      -0.003
       0.174
       0.283
       0.286
       0.181
       0.011
      -0.158
      -0.250
      -0.224
      -0.098
       0.052
       0.128
       0.071
      -0.105
      -0.323
      -0.491
      -0.557
      -0.526
      -0.438
      -0.337
      -0.245
      -0.160
      -0.073
       0.012
       0.082
       0.132
       0.176
       0.249
       0.373
       0.527
       0.646
       0.647
       0.486
       0.182
      -0.174
      -0.468
      -0.611
      -0.580
      -0.415
      -0.190
       0.024
       0.186
       0.286
       0.334
       0.347
       0.345
       0.349
       0.370
       0.399
       0.414
       0.391
       0.324
       0.225
       0.112
       0.003
      -0.091
      -0.158
      -0.195
      -0.205
      -0.204
      -0.207
      -0.220
      -0.237
      -0.240
      -0.209
      -0.129
      -0.001
       0.150
       0.281
       0.339
       0.293
       0.145
      -0.059
      -0.255
      -0.386
      -0.422
      -0.367
      -0.250
      -0.116
      -0.006
       0.058
       0.078
       0.079
       0.088
       0.117
       0.155
       0.172
       0.135
       0.024
      -0.145
      -0.319
      -0.431
      -0.437
      -0.343
      -0.198
      -0.063
       0.019
       0.032
      -0.022
      -0.122
      -0.236
      -0.317
      -0.320
      -0.230
      -0.066
       0.128
       0.304
       0.420
       0.449
       0.391
       0.287
       0.204
       0.206
       0.314
       0.483
       0.627
       0.662
       0.554
       0.338
       0.107
      -0.041
      -0.053
       0.051
       0.199
       0.311
       0.338
       0.261
       0.079
      -0.189
      -0.500
      -0.777
      -0.931
      -0.897
      -0.678
      -0.351
      -0.029
       0.187
       0.245
       0.151
      -0.039
      -0.237
      -0.358
      -0.355
      -0.244
      -0.087
       0.043
       0.098
       0.075
       0.000
      -0.092
      -0.176
      -0.241
      -0.286
      -0.312
      -0.320
      -0.311
      -0.279
      -0.212
      -0.107
       0.030
       0.182
       0.334
       0.477
       0.599
       0.672
       0.659
       0.532
       0.298
      -0.002
      -0.305
      -0.545
      -0.675
      -0.678
      -0.569
      -0.387
      -0.173
       0.045
       0.257
       0.448
       0.594
       0.666
       0.650
       0.553
       0.404
       0.238
       0.091
      -0.008
      -0.051
      -0.052
      -0.043
      -0.045
      -0.062
      -0.081
      -0.085
      -0.061
      -0.004
       0.080
       0.174
       0.246
       0.272
       0.244
       0.187
       0.139
       0.129
       0.158
       0.203
       0.237
       0.232
       0.169
       0.043
      -0.131
      -0.324
      -0.499
      -0.619
      -0.652
      -0.579
      -0.404
      -0.164
       0.078
       0.260
       0.348
       0.351
       0.305
       0.252
       0.215
       0.192
       0.161
       0.101
       0.014
      -0.075
      -0.140
      -0.179
      -0.222
      -0.303
      -0.437
      -0.598
      -0.741
      -0.828
      -0.844
      -0.791
      -0.674
      -0.497
      -0.271
      -0.028
       0.193
       0.360
       0.458
       0.480
       0.416
       0.258
       0.029
      -0.215
      -0.405
      -0.498
      -0.497
      -0.428
      -0.318
      -0.168
       0.029
       0.268
       0.519
       0.732
       0.858
       0.876
       0.796
       0.647
       0.463
       0.267
       0.075
      -0.104
      -0.254
      -0.342
      -0.332
      -0.209
      -0.002
       0.226
       0.415
       0.536
       0.591
       0.583
       0.506
       0.353
       0.137
      -0.109
      -0.339
      -0.503
      -0.553
      -0.471
      -0.292
      -0.091
       0.059
       0.137
       0.169
       0.193
       0.219
       0.235
       0.230
       0.218
       0.221
       0.248
       0.282
       0.286
       0.221
       0.077
      -0.120
      -0.313
      -0.441
      -0.476
      -0.433
      -0.355
      -0.275
      -0.201
      -0.126
      -0.052
       0.009
       0.035
       0.017
      -0.036
      -0.100
      -0.144
      -0.152
      -0.134
      -0.128
      -0.177
      -0.295
      -0.450
      -0.582
      -0.648
      -0.646
      -0.612
      -0.576
      -0.535
      -0.458
      -0.321
      -0.126
       0.099
       0.321
       0.511
       0.656
       0.756
       0.812
       0.821
       0.769
       0.644
       0.450
       0.208
      -0.040
      -0.240
      -0.344
      -0.324
      -0.187
       0.028
       0.263
       0.462
       0.589
       0.639
       0.631
       0.598
       0.573
       0.580
       0.614
       0.640
       0.609
       0.482
       0.247
      -0.078
      -0.458
      -0.844
      -1.176
      -1.391
      -1.436
      -1.298
      -1.004
      -0.618
      -0.223
       0.107
       0.323
       0.408
       0.377
       0.260
       0.096
      -0.075
      -0.219
      -0.315
      -0.368
      -0.396
      -0.412
      -0.408
      -0.360
      -0.250
      -0.084
       0.108
       0.287
       0.422
       0.494
       0.492
       0.418
       0.284
       0.116
      -0.056
      -0.196
      -0.269
      -0.245
      -0.124
       0.052
       0.198
       0.233
       0.126
      -0.074
      -0.268
      -0.371
      -0.363
      -0.281
      -0.173
      -0.057
       0.083
       0.255
       0.433
       0.554
       0.564
       0.466
       0.332
       0.259
       0.309
       0.464
       0.643
       0.752
       0.739
       0.617
       0.443
       0.285
       0.183
       0.143
       0.145
       0.166
       0.186
       0.191
       0.160
       0.068
      -0.100
      -0.330
      -0.567
      -0.735
      -0.770
      -0.662
      -0.463
      -0.255
      -0.110
      -0.065
      -0.115
      -0.239
      -0.406
      -0.580
      -0.714
      -0.761
      -0.693
      -0.510
      -0.242
       0.059
       0.329
       0.507
       0.562
       0.497
       0.343
       0.150
      -0.025
      -0.119
      -0.082
       0.096
       0.363
       0.617
       0.749
       0.696
       0.458
       0.100
      -0.282
      -0.585
      -0.734
      -0.708
      -0.538
      -0.296
      -0.070
       0.060
       0.039
      -0.139
      -0.423
      -0.713
      -0.898
      -0.911
      -0.755
      -0.499
      -0.239
      -0.071
      -0.059
      -0.217
      -0.499
      -0.804
      -0.997
      -0.971
      -0.689
      -0.216
       0.299
       0.686
       0.832
       0.731
       0.476
       0.206
       0.053
       0.099
       0.366
       0.809
       1.331
       1.804
       2.102
       2.141
       1.898
       1.419
       0.815
       0.232
      -0.192
      -0.383
      -0.356
      -0.204
      -0.045
       0.031
      -0.001
      -0.101
      -0.191
      -0.212
      -0.159
      -0.080
      -0.043
      -0.090
      -0.218
      -0.387
      -0.545
      -0.646
      -0.668
      -0.620
      -0.531
      -0.436
      -0.352
      -0.276
      -0.197
      -0.118
      -0.058
      -0.036
      -0.040
      -0.032
       0.033
       0.172
       0.356
       0.535
       0.664
       0.725
       0.724
       0.673
       0.576
       0.426
       0.230
       0.013
      -0.182
      -0.326
      -0.411
      -0.449
      -0.461
      -0.469
      -0.499
      -0.578
      -0.716
      -0.890
      -1.048
      -1.130
      -1.094
      -0.929
      -0.651
      -0.296
       0.094
       0.470
       0.783
       0.987
       1.051
       0.978
       0.805
       0.595
       0.403
       0.252
       0.144
       0.082
       0.084
       0.160
       0.287
       0.404
       0.441
       0.360
       0.178
      -0.044
      -0.236
      -0.352
      -0.399
      -0.416
      -0.453
      -0.535
      -0.643
      -0.734
      -0.766
      -0.724
      -0.613
      -0.446
      -0.233
       0.006
       0.226
       0.365
       0.378
       0.257
       0.040
      -0.205
      -0.399
      -0.479
      -0.424
      -0.265
      -0.071
       0.089
       0.186
       0.242
       0.297
       0.374
       0.467
       0.552
       0.620
       0.679
       0.730
       0.753
       0.709
       0.569
       0.346
       0.082
      -0.164
      -0.334
      -0.385
      -0.301
      -0.118
       0.083
       0.214
       0.230
       0.157
       0.066
       0.019
       0.034
       0.093
       0.169
       0.249
       0.322
       0.368
       0.363
       0.289
       0.150
      -0.041
      -0.260
      -0.473
      -0.637
      -0.708
      -0.673
      -0.557
      -0.410
      -0.278
      -0.175
      -0.089
       0.001
       0.100
       0.181
       0.203
       0.133
      -0.022
      -0.223
      -0.413
      -0.540
      -0.578
      -0.528
      -0.411
      -0.252
      -0.070
       0.128
       0.329
       0.505
       0.625
       0.673
       0.652
       0.584
       0.487
       0.372
       0.237
       0.071
      -0.138
      -0.379
      -0.610
      -0.759
      -0.764
      -0.606
      -0.325
       0.004
       0.299
       0.498
       0.563
       0.486
       0.291
       0.038
      -0.199
      -0.353
      -0.392
      -0.320
      -0.171
      -0.003
       0.131
       0.208
       0.242
       0.267
       0.293
       0.295
       0.235
       0.095
      -0.102
      -0.318
      -0.514
      -0.663
      -0.749
      -0.759
      -0.690
      -0.545
      -0.343
      -0.118
       0.079
       0.203
       0.236
       0.201
       0.150
       0.131
       0.170
       0.258
       0.366
       0.462
       0.527
       0.560
       0.566
       0.549
       0.512
       0.467
       0.431
       0.420
       0.425
       0.409
       0.334
       0.185
      -0.004
      -0.171
      -0.261
      -0.266
      -0.232
      -0.226
      -0.295
      -0.438
      -0.620
      -0.792
      -0.916
      -0.954
      -0.875
      -0.663
      -0.343
       0.012
       0.302
       0.446
       0.414
       0.247
       0.036
      -0.120
      -0.158
      -0.078
       0.071
       0.223
       0.330
       0.378
       0.371
       0.317
       0.222
       0.105
       0.011
      -0.010
       0.066
       0.213
       0.368
       0.464
       0.463
       0.368
       0.214
       0.046
      -0.089
      -0.162
      -0.164
      -0.111
      -0.030
       0.045
       0.082
       0.066
      -0.001
      -0.100
      -0.211
      -0.316
      -0.404
      -0.468
      -0.510
      -0.532
      -0.537
      -0.517
      -0.461
      -0.358
      -0.220
      -0.075
       0.039
       0.104
       0.132
       0.153
       0.185
       0.215
       0.205
       0.125
      -0.021
      -0.182
      -0.296
      -0.315
      -0.235
      -0.090
       0.063
       0.178
       0.231
       0.226
       0.181
       0.115
       0.041
      -0.033
      -0.088
      -0.096
      -0.029
       0.111
       0.274
       0.373
       0.328
       0.121
      -0.186
      -0.483
      -0.665
      -0.688
      -0.571
      -0.372
      -0.145
       0.075
       0.266
       0.410
       0.491
       0.506
       0.475
       0.432
       0.405
       0.407
       0.422
       0.413
       0.343
       0.200
       0.008
      -0.179
      -0.302
      -0.326
      -0.246
      -0.083
       0.125
       0.338
       0.515
       0.616
       0.611
       0.485
       0.252
      -0.056
      -0.390
      -0.695
      -0.916
      -1.010
      -0.958
      -0.775
      -0.500
      -0.199
       0.057
       0.210
       0.245
       0.189
       0.100
       0.030
       0.010
       0.050
       0.152
       0.308
       0.487
       0.630
       0.672
       0.568
       0.317
      -0.032
      -0.395
      -0.672
      -0.778
      -0.678
      -0.414
      -0.089
       0.184
       0.335
       0.365
       0.321
       0.254
       0.191
       0.143
       0.120
       0.127
       0.149
       0.138
       0.037
      -0.188
      -0.499
      -0.792
      -0.940
      -0.864
      -0.578
      -0.183
       0.185
       0.411
       0.442
       0.295
       0.049
      -0.195
      -0.356
      -0.400
      -0.337
      -0.194
      -0.002
       0.207
       0.380
       0.456
       0.395
       0.214
      -0.003
      -0.143
      -0.129
       0.039
       0.288
       0.511
       0.616
       0.565
       0.378
       0.117
      -0.140
      -0.329
