Origin Time       11/11/2012 20:23:12 UTC
Lat.              32.3 N 
Long.             76.2 E 
Depth (Km)          5.0
Magnitude         4.0
 Region           Chamba-KANGRA-DISTT.-BORDER                                      
 Above details taken from IMD 
    
Station Code      CHM
Station Lat.       32.555  N
Station Long.      76.126  E
Station Height(m)  952.0
Site Class        A   Vs30 between 700 m/sec to 1400 m/sec * 
Record Time       11.11.2012 20:22:03.019 UTC
Sampling Rate     200. Hz
 Record Duration   70.860 Sec.
 Direction         N-S (N positive)
Max. Acceleration     -2.169 cm/sec**2
     
  * For reference see Site Classification link of website 
     
 Base Line Corrected and Low Pass Filtered (Cut Off at 35 Hz) Time History
 Acceleration data in cm/sec**2
    
[...]
       0.227
       0.131
      -0.047
      -0.298
      -0.589
      -0.847
      -0.967
      -0.849
      -0.469
       0.076
       0.580
       0.820
       0.682
       0.238
      -0.287
      -0.651
      -0.725
      -0.542
      -0.233
       0.073
       0.309
       0.443
       0.443
       0.299
       0.078
      -0.068
       0.010
       0.337
       0.758
       1.020
       0.929
       0.471
      -0.178
      -0.745
      -1.005
      -0.891
      -0.532
      -0.177
      -0.037
      -0.159
      -0.410
      -0.589
      -0.560
      -0.312
       0.085
       0.555
       1.040
       1.456
       1.662
       1.510
       0.973
       0.218
      -0.449
      -0.779
      -0.738
      -0.512
      -0.347
      -0.369
      -0.520
      -0.638
      -0.610
      -0.451
      -0.270
      -0.152
      -0.091
      -0.003
       0.177
       0.418
       0.597
       0.585
       0.359
       0.038
      -0.181
      -0.156
       0.108
       0.458
       0.683
       0.647
       0.367
      -0.006
      -0.304
      -0.454
      -0.506
      -0.550
      -0.618
      -0.648
      -0.551
      -0.312
      -0.021
       0.179
       0.201
       0.074
      -0.082
      -0.156
      -0.119
      -0.033
       0.016
      -0.014
      -0.083
      -0.105
      -0.012
       0.185
       0.400
       0.525
       0.495
       0.316
       0.059
      -0.184
      -0.338
      -0.381
      -0.332
      -0.229
      -0.098
       0.054
       0.220
       0.362
       0.418
       0.340
       0.147
      -0.073
      -0.224
      -0.266
      -0.246
      -0.257
      -0.357
      -0.513
      -0.622
      -0.580
      -0.358
      -0.014
       0.355
       0.675
       0.913
       1.055
       1.087
       0.991
       0.774
       0.468
       0.121
      -0.214
      -0.475
      -0.602
      -0.566
      -0.407
      -0.216
      -0.066
       0.024
       0.086
       0.142
       0.172
       0.122
      -0.035
      -0.259
      -0.463
      -0.568
      -0.547
      -0.427
      -0.266
      -0.116
       0.003
       0.109
       0.244
       0.434
       0.644
       0.785
       0.759
       0.534
       0.179
      -0.172
      -0.406
      -0.488
      -0.465
      -0.404
      -0.342
      -0.276
      -0.190
      -0.088
      -0.004
       0.028
       0.003
      -0.050
      -0.081
      -0.058
       0.002
       0.035
      -0.036
      -0.240
      -0.521
      -0.742
      -0.762
      -0.533
      -0.151
       0.200
       0.366
       0.324
       0.198
       0.156
       0.294
       0.563
       0.822
       0.953
       0.928
       0.789
       0.570
       0.266
      -0.127
      -0.552
      -0.883
      -0.991
      -0.833
      -0.491
      -0.129
       0.096
       0.122
       0.010
      -0.098
      -0.077
       0.107
       0.387
       0.642
       0.774
       0.748
       0.602
       0.409
       0.226
       0.069
      -0.066
      -0.165
      -0.191
      -0.115
       0.037
       0.175
       0.190
       0.038
      -0.217
      -0.437
      -0.502
      -0.399
      -0.233
      -0.145
      -0.205
      -0.372
      -0.529
      -0.572
      -0.476
      -0.297
      -0.116
       0.019
       0.120
       0.219
       0.309
       0.330
       0.223
       0.004
      -0.222
      -0.323
      -0.240
      -0.020
       0.220
       0.379
       0.421
       0.381
       0.325
       0.299
       0.294
       0.252
       0.114
      -0.131
      -0.427
      -0.685
      -0.841
      -0.873
      -0.797
      -0.635
      -0.415
      -0.179
       0.017
       0.125
       0.139
       0.108
       0.114
       0.222
       0.436
       0.690
       0.885
       0.945
       0.850
       0.647
       0.409
       0.205
       0.068
      -0.005
      -0.043
      -0.078
      -0.124
      -0.178
      -0.229
      -0.278
      -0.332
      -0.393
      -0.438
      -0.429
      -0.334
      -0.159
       0.040
       0.174
       0.173
       0.036
      -0.150
      -0.253
      -0.189
       0.016
       0.239
       0.354
       0.322
       0.212
       0.137
       0.160
       0.251
       0.322
       0.308
       0.210
       0.080
      -0.047
      -0.175
      -0.327
      -0.495
      -0.620
      -0.630
      -0.496
      -0.259
      -0.014
       0.146
       0.169
       0.073
      -0.078
      -0.208
      -0.267
      -0.247
      -0.178
      -0.100
      -0.035
       0.015
       0.053
       0.074
       0.073
       0.062
       0.072
       0.125
       0.211
       0.290
       0.313
       0.255
       0.122
      -0.053
      -0.230
      -0.370
      -0.443
      -0.444
      -0.390
      -0.305
      -0.207
      -0.102
       0.007
       0.104
       0.171
       0.195
       0.187
       0.172
       0.183
       0.245
       0.358
       0.490
       0.588
       0.600
       0.507
       0.339
       0.151
      -0.006
      -0.109
      -0.156
      -0.145
      -0.077
       0.027
       0.120
       0.145
       0.071
      -0.082
      -0.254
      -0.383
      -0.435
      -0.417
      -0.362
      -0.308
      -0.274
      -0.257
      -0.234
      -0.183
      -0.094
       0.027
       0.170
       0.315
       0.428
       0.470
       0.409
       0.245
       0.026
      -0.172
      -0.281
      -0.277
      -0.190
      -0.078
       0.011
       0.061
       0.064
       0.010
      -0.106
      -0.255
      -0.371
      -0.391
      -0.307
      -0.183
      -0.103
      -0.109
      -0.168
      -0.211
      -0.190
      -0.100
       0.022
       0.137
       0.215
       0.237
       0.201
       0.127
       0.057
       0.031
       0.067
       0.150
       0.244
       0.310
       0.315
       0.252
       0.138
       0.018
      -0.057
      -0.051
       0.033
       0.145
       0.214
       0.183
       0.050
      -0.134
      -0.288
      -0.350
      -0.301
      -0.162
       0.026
       0.211
       0.344
       0.386
       0.322
       0.179
       0.019
      -0.089
      -0.114
      -0.081
      -0.047
      -0.049
      -0.075
      -0.081
      -0.042
       0.018
       0.047
       0.008
      -0.083
      -0.176
      -0.223
      -0.215
      -0.174
      -0.131
      -0.106
      -0.097
      -0.083
      -0.040
       0.040
       0.141
       0.228
       0.266
       0.242
       0.175
       0.098
       0.048
       0.039
       0.058
       0.068
       0.040
      -0.022
      -0.080
      -0.087
      -0.032
       0.047
       0.089
       0.053
      -0.050
      -0.174
      -0.278
      -0.345
      -0.380
      -0.383
      -0.351
      -0.291
      -0.231
      -0.197
      -0.191
      -0.175
      -0.100
       0.056
       0.258
       0.429
       0.494
       0.422
       0.245
       0.035
      -0.127
      -0.195
      -0.164
      -0.070
       0.040
       0.123
       0.160
       0.157
       0.136
       0.111
       0.080
       0.027
      -0.051
      -0.126
      -0.157
      -0.132
      -0.091
      -0.092
      -0.157
      -0.234
      -0.236
      -0.107
       0.124
       0.367
       0.540
       0.621
       0.638
       0.616
       0.543
       0.383
       0.143
      -0.108
      -0.272
      -0.297
      -0.213
      -0.108
      -0.064
      -0.105
      -0.199
      -0.289
      -0.327
      -0.290
      -0.187
      -0.057
       0.041
       0.068
       0.027
      -0.042
      -0.100
      -0.136
      -0.159
      -0.162
      -0.113
       0.018
       0.209
       0.381
       0.447
       0.384
       0.253
       0.155
       0.149
       0.207
       0.248
       0.204
       0.064
      -0.128
      -0.306
      -0.419
      -0.445
      -0.396
      -0.318
      -0.264
      -0.257
      -0.272
      -0.256
      -0.171
      -0.035
       0.101
       0.199
       0.265
       0.335
       0.428
       0.510
       0.518
       0.412
       0.217
       0.003
      -0.163
      -0.260
      -0.306
      -0.324
      -0.318
      -0.274
      -0.186
      -0.074
       0.016
       0.040
      -0.006
      -0.090
      -0.165
      -0.203
      -0.200
      -0.168
      -0.116
      -0.052
       0.015
       0.069
       0.098
       0.101
       0.096
       0.110
       0.160
       0.242
       0.332
       0.401
       0.422
       0.389
       0.316
       0.229
       0.149
       0.084
       0.037
       0.016
       0.031
       0.066
       0.068
      -0.018
      -0.191
      -0.370
      -0.444
      -0.366
      -0.196
      -0.059
      -0.050
      -0.166
      -0.320
      -0.403
      -0.368
      -0.247
      -0.110
      -0.002
       0.088
       0.191
       0.308
       0.392
       0.395
       0.314
       0.208
       0.136
       0.106
       0.057
      -0.074
      -0.286
      -0.491
      -0.585
      -0.523
      -0.361
      -0.207
      -0.139
      -0.152
      -0.186
      -0.193
      -0.181
      -0.194
      -0.242
      -0.271
      -0.203
      -0.005
       0.261
       0.483
       0.580
       0.564
       0.508
       0.470
       0.440
       0.361
       0.203
       0.009
      -0.132
      -0.146
      -0.043
       0.095
       0.160
       0.092
      -0.086
      -0.283
      -0.405
      -0.412
      -0.340
      -0.255
      -0.199
      -0.169
      -0.133
      -0.074
       0.004
       0.083
       0.160
       0.237
       0.315
       0.376
       0.396
       0.365
       0.294
       0.203
       0.111
       0.026
      -0.035
      -0.049
       0.003
       0.103
       0.186
       0.181
       0.073
      -0.070
      -0.147
      -0.125
      -0.080
      -0.136
      -0.331
      -0.551
      -0.617
      -0.450
      -0.154
       0.076
       0.139
       0.108
       0.146
       0.325
       0.555
       0.673
       0.600
       0.403
       0.215
       0.108
       0.053
      -0.010
      -0.083
      -0.110
      -0.056
       0.038
       0.076
       0.002
      -0.153
      -0.303
      -0.385
      -0.394
      -0.358
      -0.293
      -0.204
      -0.112
      -0.073
      -0.131
      -0.269
      -0.398
      -0.421
      -0.301
      -0.088
       0.124
       0.261
       0.306
       0.290
       0.252
       0.217
       0.186
       0.152
       0.103
       0.035
      -0.040
      -0.096
      -0.096
      -0.022
       0.110
       0.237
       0.292
       0.240
       0.099
      -0.093
      -0.301
      -0.501
      -0.648
      -0.686
      -0.585
      -0.374
      -0.123
       0.116
       0.337
       0.552
       0.745
       0.858
       0.841
       0.701
       0.499
       0.299
       0.120
      -0.049
      -0.210
      -0.316
      -0.306
      -0.158
       0.070
       0.263
       0.312
       0.179
      -0.083
      -0.356
      -0.529
      -0.550
      -0.442
      -0.268
      -0.091
       0.048
       0.120
       0.102
      -0.016
      -0.211
      -0.420
      -0.558
      -0.572
      -0.468
      -0.311
      -0.172
      -0.081
      -0.020
       0.042
       0.106
       0.148
       0.153
       0.145
       0.159
       0.199
       0.228
       0.207
       0.150
       0.113
       0.137
       0.191
       0.191
       0.079
      -0.104
      -0.244
      -0.244
      -0.102
       0.098
       0.260
       0.348
       0.382
       0.390
       0.367
       0.294
       0.180
       0.077
       0.039
       0.069
       0.119
       0.132
       0.097
       0.046
       0.016
       0.007
      -0.018
      -0.098
      -0.235
      -0.379
      -0.449
      -0.380
      -0.170
       0.107
       0.335
       0.432
       0.395
       0.295
       0.214
       0.186
       0.179
       0.156
       0.115
       0.097
       0.137
       0.227
       0.317
       0.359
       0.331
       0.236
       0.089
      -0.092
      -0.288
      -0.477
      -0.635
      -0.743
      -0.790
      -0.775
      -0.700
      -0.567
      -0.382
      -0.173
      -0.002
       0.065
       0.011
      -0.100
      -0.159
      -0.097
       0.060
       0.211
       0.265
       0.214
       0.133
       0.109
       0.159
       0.226
       0.235
       0.173
       0.103
       0.109
       0.213
       0.345
       0.382
       0.238
      -0.082
      -0.478
      -0.824
      -1.034
      -1.090
      -1.008
      -0.810
      -0.521
      -0.194
       0.100
       0.301
       0.407
       0.473
       0.568
       0.728
       0.947
       1.186
       1.395
       1.523
       1.526
       1.387
       1.123
       0.777
       0.387
      -0.032
      -0.466
      -0.875
      -1.194
      -1.363
      -1.368
      -1.243
      -1.046
      -0.824
      -0.612
      -0.438
      -0.325
      -0.274
      -0.261
      -0.248
      -0.215
      -0.172
      -0.143
      -0.133
      -0.109
      -0.021
       0.158
       0.404
       0.659
       0.861
       0.973
       0.990
       0.922
       0.784
       0.584
       0.329
       0.037
      -0.255
      -0.500
      -0.679
      -0.808
      -0.920
      -1.018
      -1.055
      -0.962
      -0.699
      -0.298
       0.158
       0.584
       0.926
       1.158
       1.263
       1.225
       1.054
       0.811
       0.586
       0.438
       0.359
       0.300
       0.230
       0.167
       0.149
       0.180
       0.216
       0.186
       0.045
      -0.205
      -0.523
      -0.854
      -1.162
      -1.435
      -1.681
      -1.907
      -2.089
      -2.169
      -2.072
      -1.757
      -1.245
      -0.613
       0.045
       0.656
       1.166
       1.524
       1.689
       1.662
       1.510
       1.339
       1.235
       1.218
       1.249
       1.272
       1.245
       1.144
       0.944
       0.634
       0.233
      -0.190
      -0.540
      -0.738
      -0.761
      -0.653
      -0.506
      -0.414
      -0.433
      -0.568
      -0.781
      -1.009
      -1.179
      -1.224
      -1.093
      -0.777
      -0.314
       0.204
       0.666
       0.981
       1.118
       1.111
       1.035
       0.966
       0.945
       0.958
       0.938
       0.799
       0.483
       0.005
      -0.552
      -1.071
      -1.460
      -1.687
      -1.775
      -1.756
      -1.645
      -1.445
      -1.179
      -0.902
      -0.685
      -0.566
      -0.518
      -0.459
      -0.311
      -0.047
       0.281
       0.589
       0.817
       0.969
       1.089
       1.214
       1.343
       1.448
       1.515
       1.549
       1.567
       1.562
       1.506
       1.366
       1.138
       0.855
       0.560
       0.281
       0.013
      -0.268
      -0.564
      -0.843
      -1.051
      -1.162
      -1.187
      -1.168
      -1.130
      -1.055
      -0.895
      -0.606
      -0.188
       0.301
       0.768
       1.117
       1.286
       1.258
       1.054
       0.715
       0.292
      -0.159
      -0.575
      -0.894
      -1.080
      -1.151
      -1.173
      -1.221
      -1.331
      -1.475
      -1.590
      -1.614
      -1.523
      -1.335
      -1.089
      -0.834
      -0.605
      -0.419
      -0.275
      -0.157
      -0.046
       0.079
       0.239
       0.459
       0.757
       1.128
       1.531
       1.886
       2.112
       2.157
       2.031
       1.791
       1.497
       1.185
       0.855
       0.504
       0.148
      -0.176
      -0.435
      -0.621
      -0.752
      -0.852
      -0.935
      -1.000
      -1.043
      -1.060
      -1.040
      -0.966
      -0.826
      -0.629
      -0.408
      -0.208
      -0.063
       0.023
       0.078
       0.140
       0.238
       0.370
       0.509
       0.624
       0.701
       0.747
       0.768
       0.760
       0.708
       0.603
       0.450
       0.259
       0.040
      -0.197
      -0.430
      -0.625
      -0.750
      -0.797
      -0.794
      -0.776
      -0.758
      -0.719
      -0.624
      -0.458
      -0.237
       0.005
       0.243
       0.467
       0.676
       0.855
       0.976
       1.012
       0.959
       0.841
       0.701
       0.576
       0.478
       0.395
       0.303
       0.190
       0.070
      -0.033
      -0.105
      -0.148
      -0.177
      -0.206
      -0.237
      -0.262
      -0.269
      -0.253
      -0.218
      -0.183
      -0.169
      -0.191
      -0.240
      -0.292
      -0.322
      -0.317
      -0.278
      -0.211
      -0.120
      -0.011
       0.105
       0.208
       0.277
       0.292
       0.243
       0.135
      -0.006
      -0.143
      -0.250
      -0.323
      -0.376
      -0.420
      -0.459
      -0.487
      -0.497
      -0.483
      -0.438
      -0.358
      -0.240
      -0.093
       0.059
       0.186
       0.266
       0.294
       0.286
       0.272
       0.273
       0.301
       0.349
       0.400
       0.425
       0.403
       0.330
       0.227
       0.125
       0.046
      -0.014
      -0.071
      -0.141
      -0.223
      -0.312
      -0.407
      -0.503
      -0.585
      -0.626
      -0.603
      -0.512
      -0.376
      -0.235
      -0.127
      -0.068
      -0.050
      -0.039
      -0.003
       0.069
       0.161
       0.250
       0.329
       0.400
       0.465
       0.509
       0.513
       0.463
       0.365
       0.234
       0.092
      -0.037
      -0.130
      -0.170
      -0.151
      -0.087
       0.001
       0.093
       0.177
       0.248
       0.295
       0.315
       0.313
       0.309
       0.329
       0.382
       0.446
       0.474
       0.425
       0.299
       0.151
       0.049
       0.024
       0.051
       0.070
       0.044
      -0.012
      -0.059
      -0.079
      -0.098
      -0.162
      -0.290
      -0.453
      -0.595
      -0.669
      -0.663
      -0.600
      -0.519
      -0.455
      -0.422
      -0.414
      -0.410
      -0.386
      -0.325
      -0.227
      -0.108
       0.003
       0.081
       0.115
       0.118
       0.121
       0.152
       0.222
       0.323
       0.424
       0.495
       0.508
       0.456
       0.352
       0.224
       0.108
       0.027
      -0.021
      -0.068
      -0.143
      -0.250
      -0.364
      -0.456
      -0.510
      -0.533
      -0.534
      -0.513
      -0.461
      -0.373
      -0.256
      -0.125
       0.001
       0.113
       0.205
       0.277
       0.335
       0.382
       0.424
       0.452
       0.449
       0.403
       0.323
       0.237
       0.176
       0.147
       0.135
       0.129
       0.135
       0.167
       0.229
       0.293
       0.325
       0.312
       0.271
       0.230
       0.201
       0.178
       0.151
       0.119
       0.086
       0.055
       0.023
      -0.007
      -0.033
      -0.049
      -0.063
      -0.092
      -0.149
      -0.232
      -0.314
      -0.354
      -0.326
      -0.233
      -0.108
       0.008
       0.085
       0.114
       0.096
       0.038
      -0.049
      -0.149
      -0.237
      -0.295
      -0.320
      -0.321
      -0.309
      -0.285
      -0.237
      -0.161
      -0.064
       0.039
       0.134
       0.220
       0.296
       0.353
       0.372
       0.336
       0.248
       0.132
       0.017
      -0.077
      -0.143
      -0.171
      -0.146
      -0.055
       0.088
       0.238
       0.334
       0.333
       0.228
       0.050
