Origin Time       2/8/2013 21:37:40	  UTC
Lat.              33.4 N	
Long.             75.9 E	
Depth (Km)         20.0
Magnitude         5.2
 Region           KISHTWAR-JK                                                      
 Above details taken from IMD 
    
Station Code      CHM
Station Lat.       32.555  N
Station Long.      76.126  E
Station Height(m)  952.0
Site Class        A   Vs30 between 700 m/sec to 1400 m/sec * 
Record Time       02.08.2013 21:37:23.729 UTC
Sampling Rate     200. Hz
 Record Duration   72.720 Sec.
 Direction         N-S (N positive)
Max. Acceleration     -1.810 cm/sec**2
     
  * For reference see Site Classification link of website 
     
 Base Line Corrected and Low Pass Filtered (Cut Off at 35 Hz) Time History
 Acceleration data in cm/sec**2
    
[...]
       0.108
       0.259
       0.404
       0.536
       0.642
       0.718
       0.768
       0.789
       0.772
       0.704
       0.581
       0.413
       0.221
       0.028
      -0.154
      -0.319
      -0.469
      -0.610
      -0.747
      -0.873
      -0.967
      -1.003
      -0.963
      -0.851
      -0.688
      -0.497
      -0.297
      -0.097
       0.089
       0.244
       0.354
       0.418
       0.452
       0.470
       0.485
       0.504
       0.536
       0.594
       0.681
       0.782
       0.860
       0.881
       0.829
       0.722
       0.589
       0.456
       0.331
       0.213
       0.101
      -0.006
      -0.112
      -0.222
      -0.330
      -0.420
      -0.463
      -0.443
      -0.365
      -0.254
      -0.133
      -0.009
       0.125
       0.273
       0.417
       0.524
       0.565
       0.532
       0.435
       0.294
       0.123
      -0.065
      -0.250
      -0.411
      -0.535
      -0.633
      -0.729
      -0.842
      -0.970
      -1.088
      -1.163
      -1.167
      -1.088
      -0.930
      -0.720
      -0.492
      -0.282
      -0.113
       0.016
       0.118
       0.214
       0.315
       0.425
       0.541
       0.652
       0.746
       0.805
       0.816
       0.777
       0.700
       0.609
       0.523
       0.451
       0.385
       0.304
       0.179
      -0.008
      -0.250
      -0.518
      -0.765
      -0.950
      -1.052
      -1.076
      -1.049
      -1.009
      -0.987
      -0.989
      -0.996
      -0.970
      -0.878
      -0.710
      -0.481
      -0.215
       0.062
       0.326
       0.548
       0.700
       0.765
       0.756
       0.711
       0.675
       0.675
       0.710
       0.749
       0.749
       0.676
       0.518
       0.293
       0.036
      -0.213
      -0.427
      -0.591
      -0.698
      -0.739
      -0.706
      -0.593
      -0.414
      -0.206
      -0.018
       0.114
       0.180
       0.194
       0.184
       0.173
       0.171
       0.182
       0.205
       0.237
       0.280
       0.333
       0.397
       0.472
       0.546
       0.606
       0.633
       0.615
       0.545
       0.418
       0.236
       0.014
      -0.212
      -0.396
      -0.490
      -0.477
      -0.374
      -0.227
      -0.086
       0.019
       0.088
       0.135
       0.173
       0.200
       0.203
       0.167
       0.086
      -0.033
      -0.172
      -0.301
      -0.398
      -0.458
      -0.487
      -0.498
      -0.495
      -0.473
      -0.427
      -0.361
      -0.286
      -0.214
      -0.152
      -0.100
      -0.049
       0.017
       0.112
       0.244
       0.402
       0.566
       0.710
       0.823
       0.905
       0.961
       0.991
       0.987
       0.945
       0.873
       0.783
       0.688
       0.587
       0.470
       0.330
       0.172
       0.013
      -0.133
      -0.265
      -0.394
      -0.528
      -0.655
      -0.748
      -0.778
      -0.735
      -0.636
      -0.521
      -0.436
      -0.406
      -0.428
      -0.475
      -0.510
      -0.508
      -0.462
      -0.381
      -0.278
      -0.166
      -0.055
       0.039
       0.098
       0.107
       0.067
      -0.001
      -0.067
      -0.100
      -0.083
      -0.018
       0.074
       0.170
       0.255
       0.321
       0.364
       0.372
       0.331
       0.245
       0.139
       0.058
       0.042
       0.107
       0.236
       0.391
       0.528
       0.620
       0.659
       0.652
       0.610
       0.539
       0.446
       0.338
       0.234
       0.153
       0.107
       0.099
       0.118
       0.147
       0.159
       0.128
       0.041
      -0.102
      -0.276
      -0.451
      -0.597
      -0.703
      -0.772
      -0.814
      -0.835
      -0.831
      -0.784
      -0.675
      -0.497
      -0.264
      -0.011
       0.226
       0.423
       0.560
       0.620
       0.584
       0.453
       0.255
       0.048
      -0.109
      -0.176
      -0.139
      -0.018
       0.148
       0.307
       0.408
       0.421
       0.341
       0.185
      -0.011
      -0.210
      -0.373
      -0.470
      -0.493
      -0.459
      -0.401
      -0.353
      -0.323
      -0.298
      -0.265
      -0.221
      -0.185
      -0.168
      -0.158
      -0.119
      -0.014
       0.157
       0.346
       0.487
       0.534
       0.496
       0.419
       0.351
       0.307
       0.278
       0.252
       0.237
       0.255
       0.318
       0.404
       0.465
       0.445
       0.315
       0.081
      -0.218
      -0.534
      -0.823
      -1.052
      -1.190
      -1.219
      -1.138
      -0.971
      -0.765
      -0.570
      -0.414
      -0.299
      -0.204
      -0.111
      -0.022
       0.048
       0.080
       0.070
       0.038
       0.014
       0.024
       0.072
       0.147
       0.234
       0.332
       0.451
       0.593
       0.737
       0.847
       0.881
       0.824
       0.694
       0.535
       0.390
       0.289
       0.238
       0.227
       0.238
       0.248
       0.230
       0.174
       0.089
       0.000
      -0.072
      -0.126
      -0.180
      -0.255
      -0.360
      -0.487
      -0.622
      -0.753
      -0.873
      -0.974
      -1.043
      -1.070
      -1.058
      -1.022
      -0.978
      -0.930
      -0.865
      -0.758
      -0.592
      -0.366
      -0.096
       0.186
       0.438
       0.617
       0.699
       0.689
       0.622
       0.544
       0.488
       0.463
       0.462
       0.469
       0.468
       0.441
       0.377
       0.270
       0.132
      -0.013
      -0.129
      -0.190
      -0.184
      -0.118
      -0.013
       0.099
       0.186
       0.221
       0.196
       0.125
       0.041
      -0.026
      -0.067
      -0.103
      -0.162
      -0.255
      -0.357
      -0.432
      -0.453
      -0.421
      -0.360
      -0.295
      -0.249
      -0.236
      -0.259
      -0.308
      -0.363
      -0.404
      -0.424
      -0.419
      -0.380
      -0.289
      -0.136
       0.065
       0.275
       0.448
       0.555
       0.590
       0.571
       0.529
       0.495
       0.495
       0.535
       0.599
       0.649
       0.648
       0.580
       0.450
       0.276
       0.077
      -0.133
      -0.335
      -0.496
      -0.583
      -0.581
      -0.503
      -0.386
      -0.281
      -0.226
      -0.229
      -0.268
      -0.304
      -0.303
      -0.253
      -0.163
      -0.049
       0.070
       0.180
       0.270
       0.334
       0.367
       0.367
       0.330
       0.252
       0.137
       0.000
      -0.127
      -0.207
      -0.208
      -0.122
       0.036
       0.223
       0.391
       0.501
       0.540
       0.510
       0.425
       0.301
       0.168
       0.063
       0.023
       0.065
       0.176
       0.315
       0.423
       0.460
       0.413
       0.306
       0.179
       0.068
      -0.009
      -0.055
      -0.088
      -0.136
      -0.214
      -0.319
      -0.430
      -0.524
      -0.593
      -0.647
      -0.698
      -0.744
      -0.768
      -0.757
      -0.711
      -0.642
      -0.564
      -0.479
      -0.375
      -0.243
      -0.082
       0.098
       0.280
       0.450
       0.598
       0.705
       0.755
       0.738
       0.666
       0.571
       0.482
       0.411
       0.347
       0.271
       0.175
       0.072
      -0.009
      -0.042
      -0.011
       0.080
       0.214
       0.363
       0.493
       0.569
       0.567
       0.486
       0.343
       0.174
       0.008
      -0.143
      -0.283
      -0.414
      -0.527
      -0.603
      -0.622
      -0.586
      -0.516
      -0.442
      -0.386
      -0.353
      -0.338
      -0.335
      -0.344
      -0.368
      -0.399
      -0.416
      -0.397
      -0.330
      -0.221
      -0.085
       0.065
       0.223
       0.378
       0.511
       0.600
       0.637
       0.635
       0.622
       0.623
       0.642
       0.665
       0.669
       0.639
       0.574
       0.484
       0.377
       0.257
       0.128
       0.000
      -0.108
      -0.178
      -0.209
      -0.221
      -0.242
      -0.284
      -0.335
      -0.360
      -0.336
      -0.265
      -0.174
      -0.098
      -0.057
      -0.050
      -0.069
      -0.104
      -0.155
      -0.225
      -0.310
      -0.395
      -0.461
      -0.495
      -0.496
      -0.462
      -0.397
      -0.301
      -0.183
      -0.051
       0.086
       0.225
       0.357
       0.467
       0.537
       0.552
       0.518
       0.448
       0.359
       0.257
       0.145
       0.028
      -0.085
      -0.178
      -0.237
      -0.254
      -0.234
      -0.186
      -0.123
      -0.052
       0.022
       0.089
       0.134
       0.136
       0.084
      -0.008
      -0.103
      -0.159
      -0.157
      -0.118
      -0.087
      -0.101
      -0.155
      -0.211
      -0.221
      -0.162
      -0.047
       0.091
       0.218
       0.312
       0.358
       0.350
       0.291
       0.198
       0.095
      -0.002
      -0.097
      -0.202
      -0.319
      -0.434
      -0.527
      -0.592
      -0.649
      -0.715
      -0.783
      -0.819
      -0.784
      -0.668
      -0.498
      -0.317
      -0.157
      -0.026
       0.078
       0.161
       0.223
       0.264
       0.290
       0.312
       0.341
       0.384
       0.447
       0.528
       0.614
       0.688
       0.731
       0.736
       0.711
       0.664
       0.598
       0.501
       0.363
       0.188
       0.001
      -0.161
      -0.273
      -0.330
      -0.345
      -0.336
      -0.324
      -0.329
      -0.362
      -0.425
      -0.505
      -0.576
      -0.619
      -0.628
      -0.611
      -0.581
      -0.546
      -0.502
      -0.447
      -0.377
      -0.294
      -0.198
      -0.084
       0.049
       0.204
       0.376
       0.547
       0.682
       0.735
       0.678
       0.520
       0.314
       0.125
      -0.011
      -0.095
      -0.154
      -0.198
      -0.213
      -0.172
      -0.068
       0.075
       0.219
       0.340
       0.437
       0.521
       0.596
       0.645
       0.646
       0.594
       0.502
       0.399
       0.309
       0.239
       0.182
       0.133
       0.088
       0.045
       0.002
      -0.044
      -0.095
      -0.158
      -0.238
      -0.336
      -0.446
      -0.550
      -0.626
      -0.667
      -0.683
      -0.698
      -0.738
      -0.811
      -0.899
      -0.956
      -0.937
      -0.820
      -0.618
      -0.368
      -0.106
       0.148
       0.392
       0.620
       0.813
       0.947
       1.015
       1.037
       1.052
       1.092
       1.158
       1.214
       1.215
       1.135
       0.982
       0.789
       0.587
       0.390
       0.194
      -0.004
      -0.203
      -0.395
      -0.573
      -0.722
      -0.819
      -0.838
      -0.765
      -0.618
      -0.446
      -0.306
      -0.235
      -0.229
      -0.253
      -0.266
      -0.247
      -0.200
      -0.143
      -0.082
      -0.004
       0.110
       0.264
       0.432
       0.580
       0.678
       0.724
       0.728
       0.704
       0.652
       0.566
       0.438
       0.276
       0.105
      -0.042
      -0.139
      -0.181
      -0.187
      -0.180
      -0.164
      -0.131
      -0.072
       0.007
       0.084
       0.139
       0.166
       0.167
       0.140
       0.078
      -0.028
      -0.169
      -0.318
      -0.433
      -0.475
      -0.426
      -0.290
      -0.095
       0.119
       0.311
       0.438
       0.471
       0.405
       0.264
       0.100
      -0.025
      -0.073
      -0.041
       0.031
       0.091
       0.097
       0.040
      -0.065
      -0.196
      -0.333
      -0.458
      -0.553
      -0.602
      -0.597
      -0.549
      -0.472
      -0.383
      -0.293
      -0.213
      -0.150
      -0.108
      -0.084
      -0.070
      -0.058
      -0.047
      -0.038
      -0.039
      -0.052
      -0.076
      -0.106
      -0.136
      -0.162
      -0.178
      -0.181
      -0.167
      -0.138
      -0.103
      -0.063
      -0.005
       0.093
       0.242
       0.420
       0.581
       0.675
       0.676
       0.580
       0.403
       0.162
      -0.112
      -0.378
      -0.586
      -0.700
      -0.707
      -0.612
      -0.433
      -0.201
       0.040
       0.238
       0.353
       0.377
       0.344
       0.307
       0.299
       0.315
       0.315
       0.261
       0.149
       0.005
      -0.134
      -0.243
      -0.312
      -0.334
      -0.295
      -0.182
       0.001
       0.223
       0.423
       0.536
       0.518
       0.368
       0.126
      -0.142
      -0.376
      -0.537
      -0.612
      -0.608
      -0.542
      -0.431
      -0.292
      -0.141
      -0.004
       0.092
       0.128
       0.117
       0.095
       0.101
       0.148
       0.212
       0.252
       0.239
       0.172
       0.078
      -0.008
      -0.061
      -0.081
      -0.083
      -0.090
      -0.117
      -0.170
      -0.247
      -0.346
      -0.462
      -0.586
      -0.695
      -0.763
      -0.766
      -0.693
      -0.548
      -0.343
      -0.094
       0.189
       0.494
       0.802
       1.085
       1.301
       1.414
       1.403
       1.274
       1.056
       0.795
       0.540
       0.333
       0.195
       0.126
       0.110
       0.121
       0.126
       0.092
      -0.006
      -0.173
      -0.399
      -0.663
      -0.940
      -1.210
      -1.453
      -1.646
      -1.769
      -1.810
      -1.765
      -1.635
      -1.419
      -1.122
      -0.765
      -0.390
      -0.038
       0.260
       0.503
       0.708
       0.897
       1.081
       1.259
       1.419
       1.542
       1.605
       1.585
       1.474
       1.278
       1.025
       0.743
       0.453
       0.176
      -0.064
      -0.237
      -0.326
      -0.342
      -0.322
      -0.304
      -0.304
      -0.315
      -0.321
      -0.316
      -0.301
      -0.283
      -0.262
      -0.236
      -0.206
      -0.171
      -0.125
      -0.047
       0.081
       0.255
       0.441
       0.592
       0.676
       0.690
       0.661
       0.609
       0.532
       0.404
       0.205
      -0.062
      -0.365
      -0.663
      -0.924
      -1.128
      -1.258
      -1.295
      -1.226
      -1.054
      -0.807
      -0.525
      -0.247
       0.004
       0.221
       0.400
       0.543
       0.660
       0.776
       0.914
       1.075
       1.225
       1.311
       1.293
       1.169
       0.971
       0.741
       0.501
       0.254
      -0.004
      -0.266
      -0.504
      -0.684
      -0.789
      -0.822
      -0.806
      -0.759
      -0.689
      -0.595
      -0.490
      -0.402
      -0.371
      -0.427
      -0.562
      -0.734
      -0.881
      -0.954
      -0.928
      -0.811
      -0.624
      -0.393
      -0.137
       0.123
       0.365
       0.569
       0.725
       0.832
       0.897
       0.924
       0.905
       0.821
       0.650
       0.393
       0.086
      -0.210
      -0.431
      -0.530
      -0.493
      -0.336
      -0.101
       0.150
       0.351
       0.451
       0.433
       0.323
       0.175
       0.039
      -0.061
      -0.130
      -0.190
      -0.253
      -0.304
      -0.305
      -0.211
       0.001
       0.317
       0.683
       1.027
       1.276
       1.382
       1.323
       1.111
       0.777
       0.370
      -0.053
      -0.431
      -0.709
      -0.857
      -0.877
      -0.809
      -0.709
      -0.634
      -0.620
      -0.673
      -0.776
      -0.888
      -0.962
      -0.959
      -0.868
      -0.712
      -0.527
      -0.342
      -0.169
      -0.011
       0.125
       0.232
       0.309
       0.369
       0.432
       0.510
       0.592
       0.654
       0.673
       0.644
       0.572
       0.476
       0.368
       0.261
       0.163
       0.080
       0.015
      -0.035
      -0.078
      -0.126
      -0.190
      -0.276
      -0.385
      -0.509
      -0.637
      -0.755
      -0.850
      -0.910
      -0.931
      -0.917
      -0.878
      -0.822
      -0.745
      -0.633
      -0.466
      -0.230
       0.072
       0.421
       0.781
       1.109
       1.364
       1.520
       1.562
       1.488
       1.307
       1.047
       0.749
       0.467
       0.249
       0.120
       0.073
       0.074
       0.077
       0.050
      -0.015
      -0.104
      -0.205
      -0.314
      -0.436
      -0.569
      -0.700
      -0.811
      -0.893
      -0.948
      -0.984
      -0.994
      -0.961
      -0.859
      -0.676
      -0.417
      -0.110
       0.202
       0.470
       0.658
       0.750
       0.758
       0.708
       0.619
       0.502
       0.359
       0.201
       0.051
      -0.068
      -0.145
      -0.187
      -0.205
      -0.200
      -0.156
      -0.060
       0.078
       0.226
       0.338
       0.388
       0.381
       0.347
       0.317
       0.304
       0.295
       0.267
       0.202
       0.100
      -0.026
      -0.149
      -0.242
      -0.277
      -0.244
      -0.151
      -0.036
       0.060
       0.110
       0.118
       0.112
       0.121
       0.152
       0.189
       0.212
       0.213
       0.207
       0.213
       0.236
       0.254
       0.242
       0.185
       0.094
       0.000
      -0.065
      -0.080
      -0.039
       0.050
       0.169
       0.293
       0.393
       0.443
       0.427
       0.347
       0.224
       0.093
      -0.013
      -0.077
      -0.103
      -0.114
      -0.137
      -0.192
      -0.283
      -0.392
      -0.490
      -0.547
      -0.551
      -0.502
      -0.409
      -0.282
      -0.133
       0.022
       0.156
       0.246
       0.281
       0.270
       0.234
       0.191
       0.149
       0.102
       0.038
      -0.057
      -0.194
      -0.371
      -0.572
      -0.758
      -0.888
      -0.921
      -0.844
      -0.671
      -0.440
      -0.198
       0.015
       0.175
       0.277
       0.324
       0.320
       0.264
       0.156
       0.005
      -0.158
      -0.296
      -0.385
      -0.425
      -0.437
      -0.443
      -0.444
      -0.413
      -0.319
      -0.149
       0.079
       0.321
       0.531
       0.676
       0.746
       0.750
       0.701
       0.617
       0.514
       0.412
       0.328
       0.276
       0.263
       0.280
       0.307
       0.307
       0.244
       0.100
      -0.105
      -0.327
      -0.515
      -0.639
      -0.696
      -0.701
      -0.665
      -0.585
      -0.457
      -0.289
      -0.110
       0.042
       0.148
       0.214
       0.266
       0.325
       0.389
       0.439
       0.451
       0.417
       0.343
       0.250
       0.162
       0.098
       0.065
       0.057
       0.056
       0.047
       0.025
      -0.008
      -0.054
      -0.124
      -0.234
      -0.394
      -0.597
      -0.815
      -1.013
      -1.162
      -1.251
      -1.290
      -1.293
      -1.263
      -1.189
      -1.051
      -0.848
      -0.595
      -0.313
      -0.015
       0.297
       0.616
       0.912
       1.138
       1.246
       1.216
       1.073
       0.876
       0.694
       0.580
       0.552
       0.596
       0.684
       0.785
       0.872
       0.925
       0.930
       0.877
       0.761
       0.593
       0.397
