Origin Time       04/06/2013 17:34:44 UTC
Lat.              32.7 N 
Long.             76.7 E 
Depth (Km)         18.0
Magnitude         4.8
 Region           Lahul-Spiti-Himachal-Pradesh                                     
 Above details taken from IMD 
    
Station Code      CHM
Station Lat.       32.555  N
Station Long.      76.126  E
Station Height(m)  952.0
Site Class        A   Vs30 between 700 m/sec to 1400 m/sec * 
Record Time       04.06.2013 17:31:41.394 UTC
Sampling Rate     200. Hz
 Record Duration   76.830 Sec.
 Direction         N-S (N positive)
Max. Acceleration     19.116 cm/sec**2
     
  * For reference see Site Classification link of website 
     
 Base Line Corrected and Low Pass Filtered (Cut Off at 35 Hz) Time History
 Acceleration data in cm/sec**2
    
[...]
      -0.051
      -0.255
      -0.451
      -0.492
      -0.360
      -0.175
      -0.072
      -0.057
      -0.001
       0.223
       0.572
       0.822
       0.752
       0.353
      -0.150
      -0.481
      -0.527
      -0.388
      -0.243
      -0.194
      -0.220
      -0.241
      -0.201
      -0.108
      -0.004
       0.077
       0.127
       0.160
       0.183
       0.190
       0.177
       0.171
       0.231
       0.396
       0.608
       0.719
       0.610
       0.299
      -0.053
      -0.267
      -0.272
      -0.137
       0.001
       0.043
      -0.007
      -0.070
      -0.068
      -0.007
       0.042
       0.018
      -0.062
      -0.128
      -0.131
      -0.094
      -0.084
      -0.155
      -0.313
      -0.510
      -0.678
      -0.752
      -0.699
      -0.533
      -0.313
      -0.106
       0.055
       0.171
       0.256
       0.330
       0.434
       0.606
       0.825
       0.984
       0.970
       0.770
       0.482
       0.224
       0.039
      -0.100
      -0.227
      -0.333
      -0.387
      -0.381
      -0.335
      -0.272
      -0.205
      -0.141
      -0.102
      -0.114
      -0.183
      -0.293
      -0.398
      -0.431
      -0.326
      -0.083
       0.195
       0.365
       0.355
       0.225
       0.094
       0.016
      -0.059
      -0.204
      -0.407
      -0.562
      -0.551
      -0.342
      -0.015
       0.296
       0.488
       0.529
       0.433
       0.233
      -0.011
      -0.217
      -0.314
      -0.288
      -0.181
      -0.056
       0.041
       0.086
       0.075
       0.022
      -0.051
      -0.118
      -0.154
      -0.137
      -0.058
       0.072
       0.236
       0.420
       0.593
       0.694
       0.666
       0.535
       0.414
       0.417
       0.545
       0.682
       0.675
       0.444
       0.027
      -0.450
      -0.833
      -1.008
      -0.957
      -0.766
      -0.584
      -0.528
      -0.601
      -0.701
      -0.713
      -0.615
      -0.482
      -0.387
      -0.324
      -0.226
      -0.050
       0.179
       0.396
       0.547
       0.597
       0.522
       0.336
       0.128
       0.039
       0.171
       0.489
       0.831
       1.046
       1.101
       1.068
       0.994
       0.836
       0.527
       0.088
      -0.362
      -0.686
      -0.810
      -0.742
      -0.546
      -0.330
      -0.225
      -0.335
      -0.665
      -1.072
      -1.318
      -1.207
      -0.720
      -0.046
       0.542
       0.859
       0.893
       0.741
       0.489
       0.173
      -0.162
      -0.394
      -0.362
       0.000
       0.563
       1.049
       1.211
       0.992
       0.531
       0.046
      -0.306
      -0.485
      -0.559
      -0.623
      -0.715
      -0.775
      -0.701
      -0.473
      -0.193
      -0.006
       0.017
      -0.081
      -0.207
      -0.294
      -0.317
      -0.243
      -0.021
       0.371
       0.865
       1.315
       1.588
       1.640
       1.513
       1.281
       1.004
       0.710
       0.387
      -0.016
      -0.548
      -1.189
      -1.816
      -2.245
      -2.334
      -2.079
      -1.604
      -1.059
      -0.525
      -0.019
       0.431
       0.753
       0.887
       0.867
       0.800
       0.754
       0.699
       0.549
       0.278
      -0.034
      -0.266
      -0.359
      -0.353
      -0.327
      -0.310
      -0.249
      -0.069
       0.240
       0.585
       0.824
       0.839
       0.603
       0.196
      -0.240
      -0.586
      -0.806
      -0.945
      -1.044
      -1.070
      -0.932
      -0.572
      -0.056
       0.444
       0.777
       0.911
       0.926
       0.918
       0.914
       0.883
       0.793
       0.644
       0.450
       0.198
      -0.154
      -0.621
      -1.114
      -1.433
      -1.392
      -0.984
      -0.409
       0.059
       0.276
       0.294
       0.271
       0.312
       0.390
       0.396
       0.259
       0.026
      -0.152
      -0.125
       0.133
       0.490
       0.730
       0.718
       0.521
       0.368
       0.453
       0.750
       1.006
       0.947
       0.491
      -0.193
      -0.804
      -1.089
      -0.999
      -0.727
      -0.562
      -0.658
      -0.913
      -1.087
      -1.037
      -0.818
      -0.606
      -0.543
      -0.649
      -0.835
      -0.939
      -0.796
      -0.349
       0.274
       0.787
       0.924
       0.668
       0.316
       0.289
       0.801
       1.655
       2.364
       2.511
       2.044
       1.257
       0.532
       0.113
       0.033
       0.179
       0.365
       0.418
       0.238
      -0.162
      -0.696
      -1.252
      -1.729
      -2.033
      -2.114
      -1.984
      -1.706
      -1.335
      -0.900
      -0.441
      -0.040
       0.206
       0.266
       0.216
       0.191
       0.293
       0.526
       0.795
       0.976
       0.994
       0.870
       0.688
       0.524
       0.388
       0.236
       0.044
      -0.110
      -0.077
       0.232
       0.709
       1.076
       1.077
       0.689
       0.142
      -0.269
      -0.397
      -0.319
      -0.215
      -0.195
      -0.228
      -0.229
      -0.186
      -0.191
      -0.348
      -0.644
      -0.934
      -1.052
      -0.931
      -0.639
      -0.308
      -0.024
       0.207
       0.409
       0.564
       0.617
       0.539
       0.380
       0.243
       0.206
       0.256
       0.289
       0.187
      -0.083
      -0.426
      -0.677
      -0.707
      -0.503
      -0.191
       0.012
      -0.072
      -0.445
      -0.894
      -1.142
      -1.051
      -0.702
      -0.291
       0.042
       0.299
       0.568
       0.907
       1.243
       1.392
       1.208
       0.729
       0.179
      -0.182
      -0.237
      -0.078
       0.069
       0.027
      -0.185
      -0.357
      -0.293
       0.013
       0.379
       0.610
       0.638
       0.521
       0.377
       0.306
       0.313
       0.287
       0.077
      -0.365
      -0.899
      -1.282
      -1.332
      -1.047
      -0.594
      -0.159
       0.180
       0.462
       0.704
       0.815
       0.669
       0.264
      -0.228
      -0.585
      -0.705
      -0.647
      -0.517
      -0.352
      -0.102
       0.256
       0.616
       0.770
       0.577
       0.117
      -0.349
      -0.567
      -0.465
      -0.157
       0.177
       0.412
       0.534
       0.575
       0.517
       0.262
      -0.246
      -0.880
      -1.340
      -1.342
      -0.823
       0.028
       0.916
       1.593
       1.915
       1.807
       1.248
       0.326
      -0.727
      -1.597
      -2.021
      -1.875
      -1.191
      -0.161
       0.867
       1.465
       1.323
       0.466
      -0.716
      -1.695
      -2.114
      -1.939
      -1.366
      -0.625
       0.106
       0.679
       0.948
       0.831
       0.392
      -0.163
      -0.601
      -0.794
      -0.764
      -0.615
      -0.424
      -0.179
       0.186
       0.695
       1.252
       1.671
       1.805
       1.673
       1.449
       1.325
       1.368
       1.465
       1.402
       1.023
       0.380
      -0.261
      -0.595
      -0.499
      -0.118
       0.250
       0.330
      -0.011
      -0.721
      -1.577
      -2.254
      -2.470
      -2.143
      -1.433
      -0.647
      -0.048
       0.267
       0.338
       0.232
      -0.011
      -0.325
      -0.544
      -0.468
      -0.017
       0.674
       1.343
       1.778
       1.905
       1.744
       1.311
       0.611
      -0.277
      -1.118
      -1.568
      -1.380
      -0.620
       0.301
       0.849
       0.720
       0.064
      -0.617
      -0.857
      -0.587
      -0.154
       0.025
      -0.172
      -0.534
      -0.790
      -0.881
      -0.937
      -1.038
      -1.060
      -0.781
      -0.126
       0.726
       1.475
       1.906
       1.981
       1.777
       1.369
       0.776
       0.005
      -0.855
      -1.581
      -1.908
      -1.696
      -1.051
      -0.253
       0.426
       0.848
       0.995
       0.905
       0.667
       0.427
       0.320
       0.347
       0.330
       0.041
      -0.578
      -1.296
      -1.727
      -1.628
      -1.078
      -0.363
       0.292
       0.855
       1.366
       1.743
       1.762
       1.257
       0.358
      -0.514
      -0.909
      -0.695
      -0.175
       0.152
      -0.004
      -0.493
      -0.871
      -0.774
      -0.212
       0.476
       0.938
       1.089
       1.097
       1.121
       1.093
       0.819
       0.269
      -0.273
      -0.427
      -0.098
       0.379
       0.511
       0.088
      -0.619
      -1.074
      -0.892
      -0.123
       0.799
       1.374
       1.360
       0.847
       0.074
      -0.787
      -1.652
      -2.400
      -2.855
      -2.929
      -2.736
      -2.482
      -2.256
      -1.973
      -1.548
      -1.040
      -0.569
      -0.101
       0.577
       1.597
       2.726
       3.435
       3.312
       2.446
       1.364
       0.628
       0.468
       0.755
       1.220
       1.637
       1.862
       1.816
       1.513
       1.105
       0.817
       0.766
       0.840
       0.769
       0.339
      -0.451
      -1.397
      -2.223
      -2.741
      -2.941
      -2.987
      -3.070
      -3.220
      -3.224
      -2.767
      -1.688
      -0.169
       1.303
       2.204
       2.307
       1.829
       1.241
       0.895
       0.805
       0.759
       0.614
       0.462
       0.530
       0.929
       1.474
       1.748
       1.378
       0.353
      -0.895
      -1.756
      -1.880
      -1.406
      -0.804
      -0.478
      -0.477
      -0.513
      -0.235
       0.452
       1.300
       1.917
       2.114
       2.047
       2.012
       2.066
       1.881
       1.035
      -0.508
      -2.167
      -3.047
      -2.626
      -1.241
       0.106
       0.555
       0.088
      -0.534
      -0.531
       0.217
       1.167
       1.651
       1.384
       0.544
      -0.492
      -1.426
      -2.136
      -2.619
      -2.913
      -3.065
      -3.116
      -3.063
      -2.812
      -2.208
      -1.159
       0.243
       1.730
       3.010
       3.940
       4.571
       5.037
       5.388
       5.510
       5.172
       4.179
       2.550
       0.595
      -1.190
      -2.425
      -3.098
      -3.533
      -4.039
      -4.567
      -4.732
      -4.214
      -3.145
      -2.049
      -1.402
      -1.214
      -1.045
      -0.394
       0.878
       2.416
       3.591
       3.883
       3.159
       1.671
      -0.175
      -2.041
      -3.665
      -4.702
      -4.663
      -3.128
      -0.116
       3.710
       7.254
       9.499
       9.939
       8.656
       6.088
       2.781
      -0.680
      -3.670
      -5.620
      -6.264
      -5.842
      -5.011
      -4.463
      -4.487
      -4.801
      -4.805
      -4.033
      -2.478
      -0.553
       1.231
       2.604
       3.579
       4.183
       4.175
       3.143
       0.988
      -1.701
      -3.867
      -4.670
      -4.003
      -2.371
      -0.338
       1.844
       4.128
       6.295
       7.788
       7.951
       6.501
       3.825
       0.857
      -1.425
      -2.543
      -2.732
      -2.682
      -2.988
      -3.722
      -4.457
      -4.695
      -4.299
      -3.528
      -2.696
      -1.831
      -0.684
       0.935
       2.839
       4.441
       5.079
       4.492
       3.034
       1.419
       0.154
      -0.799
      -1.796
      -2.938
      -3.752
      -3.496
      -1.834
       0.723
       3.042
       4.088
       3.595
       2.157
       0.721
      -0.101
      -0.323
      -0.289
      -0.117
       0.507
       1.933
       3.912
       5.364
       4.944
       2.069
      -2.411
      -6.572
      -8.655
      -8.224
      -6.265
      -4.182
      -2.637
      -1.250
       0.706
       3.414
       6.253
       8.265
       8.796
       7.755
       5.470
       2.446
      -0.758
      -3.568
      -5.545
      -6.580
      -6.904
      -6.817
      -6.336
      -5.133
      -2.900
       0.194
       3.395
       5.760
       6.739
       6.412
       5.233
       3.562
       1.440
      -1.213
      -4.231
      -7.044
      -8.901
      -9.291
      -8.222
      -6.164
      -3.699
      -1.158
       1.484
       4.417
       7.691
      11.036
      13.857
      15.352
      14.708
      11.444
       5.826
      -0.979
      -7.324
     -11.883
     -14.234
     -14.720
     -13.777
     -11.408
      -7.333
      -1.612
       4.909
      10.796
      14.695
      15.883
      14.351
      10.547
       5.158
      -0.947
      -6.759
     -11.340
     -14.092
     -14.863
     -13.775
     -11.034
      -6.955
      -2.185
       2.288
       5.508
       7.081
       7.373
       7.159
       6.994
       6.826
       6.145
       4.473
       1.776
      -1.513
      -4.767
      -7.436
      -9.142
      -9.651
      -8.859
      -6.857
      -4.000
      -0.851
       2.031
       4.348
       6.182
       7.840
       9.494
      10.912
      11.519
      10.796
       8.652
       5.460
       1.799
      -1.758
      -4.659
      -6.325
      -6.302
      -4.563
      -1.683
       1.335
       3.509
       4.317
       3.827
       2.471
       0.682
      -1.308
      -3.357
      -5.221
      -6.537
      -7.098
      -7.120
      -7.212
      -7.969
      -9.507
     -11.282
     -12.334
     -11.777
      -9.215
      -4.872
       0.558
       6.206
      11.295
      15.295
      17.929
      19.116
      18.924
      17.540
      15.216
      12.121
       8.204
       3.263
      -2.693
      -9.049
     -14.559
     -17.885
     -18.357
     -16.369
     -13.065
      -9.575
      -6.431
      -3.555
      -0.717
       1.994
       4.089
       5.022
       4.657
       3.461
       2.243
       1.649
       1.799
       2.315
       2.659
       2.503
       1.926
       1.329
       1.176
       1.707
       2.792
       4.011
       4.918
       5.305
       5.301
       5.189
       5.104
       4.840
       3.953
       2.108
      -0.581
      -3.489
      -5.786
      -6.917
      -6.935
      -6.427
      -6.091
      -6.250
      -6.641
      -6.632
      -5.741
      -4.100
      -2.467
      -1.735
      -2.298
      -3.780
      -5.324
      -6.166
      -6.008
      -4.967
      -3.266
      -1.017
       1.735
       4.862
       8.090
      11.073
      13.482
      15.010
      15.345
      14.217
      11.569
       7.721
       3.360
      -0.722
      -4.018
      -6.507
      -8.486
     -10.172
     -11.383
     -11.580
     -10.234
      -7.269
      -3.259
       0.776
       3.892
       5.713
       6.508
       6.777
       6.714
       6.053
       4.453
       2.021
      -0.523
      -2.231
      -2.514
      -1.501
       0.069
       1.305
       1.644
       1.081
       0.051
      -0.952
      -1.720
      -2.420
      -3.342
      -4.567
      -5.811
      -6.602
      -6.632
      -5.982
      -5.020
      -4.067
      -3.153
      -2.085
      -0.746
       0.696
       1.876
       2.533
       2.760
       2.952
       3.476
       4.338
       5.136
       5.367
       4.823
       3.749
       2.668
       2.021
       1.925
       2.212
       2.644
       3.060
       3.390
       3.588
       3.627
       3.504
       3.196
       2.599
       1.549
      -0.042
      -2.051
      -4.134
      -5.869
      -6.952
      -7.313
      -7.087
      -6.516
      -5.847
      -5.244
      -4.722
      -4.134
      -3.283
      -2.096
      -0.701
       0.670
       1.831
       2.726
       3.377
       3.824
       4.110
       4.266
       4.264
       3.961
       3.176
       1.885
       0.380
      -0.801
      -1.204
      -0.797
      -0.042
       0.410
       0.204
      -0.430
      -0.866
      -0.618
       0.229
       1.098
       1.447
       1.254
       1.038
       1.374
       2.343
       3.412
       3.836
       3.231
       1.816
       0.156
      -1.308
      -2.485
      -3.478
      -4.269
      -4.622
      -4.298
      -3.350
      -2.179
      -1.288
      -0.926
      -0.942
      -0.931
      -0.572
       0.125
       0.842
       1.217
       1.107
       0.635
       0.009
      -0.664
      -1.374
      -2.054
      -2.486
      -2.410
      -1.733
      -0.614
       0.656
       1.865
       2.960
       3.943
       4.700
       4.991
       4.620
       3.625
       2.286
       0.954
      -0.139
      -0.949
      -1.539
      -1.954
      -2.161
      -2.092
      -1.729
      -1.158
      -0.536
       0.000
       0.402
       0.724
       1.064
       1.466
       1.868
       2.126
       2.130
       1.903
       1.592
       1.329
       1.089
       0.705
       0.055
      -0.757
      -1.428
      -1.684
      -1.490
      -1.060
      -0.678
      -0.519
      -0.602
      -0.850
      -1.163
      -1.458
      -1.679
      -1.804
      -1.868
      -1.957
      -2.139
      -2.387
      -2.564
      -2.522
      -2.224
      -1.767
      -1.278
      -0.800
      -0.268
       0.409
       1.258
       2.202
       3.087
       3.753
       4.082
       4.023
       3.597
       2.887
       2.027
       1.160
       0.373
      -0.329
      -0.974
      -1.540
      -1.927
      -2.032
      -1.835
      -1.429
      -0.948
      -0.469
       0.011
       0.520
       1.019
       1.381
       1.445
       1.111
       0.410
      -0.477
      -1.281
      -1.751
      -1.754
      -1.301
      -0.500
       0.490
       1.458
       2.154
       2.354
       1.985
       1.184
       0.252
      -0.512
      -0.979
      -1.241
      -1.491
      -1.840
      -2.216
      -2.453
      -2.473
      -2.362
      -2.252
      -2.142
      -1.852
      -1.175
      -0.085
       1.192
       2.311
       3.005
       3.219
       3.096
       2.863
       2.696
       2.643
       2.627
       2.528
       2.281
       1.922
       1.554
       1.244
       0.948
       0.550
      -0.012
      -0.639
      -1.122
      -1.307
      -1.208
      -0.972
      -0.743
      -0.580
      -0.485
      -0.482
      -0.649
      -1.063
      -1.714
      -2.444
      -2.995
      -3.143
      -2.844
      -2.271
      -1.697
      -1.317
      -1.158
      -1.111
      -1.038
      -0.852
      -0.557
      -0.225
       0.053
       0.227
       0.311
       0.369
       0.474
       0.664
       0.912
       1.141
       1.273
       1.282
       1.185
       0.988
       0.665
       0.224
      -0.217
      -0.461
      -0.386
      -0.081
       0.208
       0.286
       0.187
       0.128
       0.279
       0.581
       0.801
       0.757
       0.492
       0.210
       0.073
       0.078
       0.114
       0.101
       0.040
      -0.032
      -0.079
      -0.055
       0.115
       0.488
       1.037
       1.625
       2.052
       2.160
       1.925
       1.477
       1.004
       0.602
       0.184
      -0.438
      -1.342
      -2.337
      -3.018
      -3.023
      -2.291
      -1.114
       0.064
       0.929
       1.448
       1.796
       2.128
       2.379
       2.290
       1.635
       0.473
      -0.816
      -1.768
      -2.149
      -2.079
      -1.871
      -1.737
      -1.631
      -1.333
      -0.668
       0.338
       1.464
