Origin Time       13/07/2013 17:49:33
Lat.              32.2 N 
Long.             76.3 E 
Depth (Km)         10.0
Magnitude         4.5
 Region           Kangra-HIMACHAL-PRADESH                                          
 Above details taken from IMD 
   
Station Code      CHM
Station Lat.       32.555
Station Long.      76.126
Station Height(m)  952.0
Site Class        A   Vs30 between 700 m/sec to 1400 m/sec * 
Record Time       13.07.2013 17:49:21.719
Sampling Rate     200. Hz
 Record Duration   66.895 Sec.
 Direction         Vert. (Up positive)
Max. Acceleration     -5.607 cm/sec**2
     
  * For reference see Site Classification link of website 
     
 Base Line Corrected and Low Pass Filtered (Cut Off at 35 Hz) Time History
 Acceleration data in cm/sec**2
    
[...]
      -0.007
      -0.022
      -0.035
      -0.048
      -0.058
      -0.062
      -0.058
      -0.042
      -0.014
       0.022
       0.051
       0.058
       0.042
       0.015
      -0.006
      -0.010
       0.006
       0.036
       0.056
       0.041
      -0.010
      -0.062
      -0.074
      -0.032
       0.030
       0.059
       0.034
      -0.016
      -0.035
       0.004
       0.067
       0.086
       0.030
      -0.066
      -0.134
      -0.134
      -0.081
      -0.027
      -0.013
      -0.038
      -0.053
      -0.006
       0.112
       0.251
       0.344
       0.364
       0.321
       0.228
       0.085
      -0.101
      -0.293
      -0.457
      -0.579
      -0.639
      -0.588
      -0.380
      -0.045
       0.305
       0.542
       0.591
       0.453
       0.214
       0.022
      -0.011
       0.070
       0.071
      -0.144
      -0.465
      -0.610
      -0.399
       0.048
       0.411
       0.432
       0.130
      -0.210
      -0.260
       0.050
       0.419
       0.434
       0.000
      -0.502
      -0.561
      -0.075
       0.499
       0.569
       0.003
      -0.719
      -0.948
      -0.475
       0.296
       0.770
       0.720
       0.398
       0.157
       0.087
       0.055
      -0.043
      -0.184
      -0.327
      -0.463
      -0.536
      -0.435
      -0.130
       0.244
       0.491
       0.512
       0.340
       0.070
      -0.178
      -0.285
      -0.212
      -0.067
      -0.013
      -0.098
      -0.198
      -0.148
       0.081
       0.341
       0.427
       0.249
      -0.073
      -0.303
      -0.299
      -0.128
       0.034
       0.085
       0.060
       0.032
       0.022
       0.007
      -0.029
      -0.087
      -0.176
      -0.283
      -0.359
      -0.330
      -0.147
       0.161
       0.486
       0.696
       0.707
       0.517
       0.179
      -0.222
      -0.559
      -0.682
      -0.507
      -0.114
       0.285
       0.499
       0.486
       0.332
       0.149
      -0.004
      -0.129
      -0.257
      -0.406
      -0.544
      -0.583
      -0.444
      -0.132
       0.230
       0.483
       0.530
       0.390
       0.149
      -0.088
      -0.221
      -0.184
       0.005
       0.222
       0.302
       0.161
      -0.130
      -0.394
      -0.475
      -0.363
      -0.201
      -0.159
      -0.270
      -0.380
      -0.288
       0.058
       0.499
       0.788
       0.790
       0.551
       0.213
      -0.101
      -0.331
      -0.444
      -0.418
      -0.276
      -0.114
      -0.049
      -0.119
      -0.227
      -0.219
      -0.015
       0.312
       0.589
       0.690
       0.646
       0.605
       0.625
       0.541
       0.130
      -0.563
      -1.132
      -1.153
      -0.624
       0.008
       0.276
       0.105
      -0.236
      -0.461
      -0.478
      -0.344
      -0.148
       0.036
       0.191
       0.393
       0.720
       1.079
       1.200
       0.896
       0.300
      -0.245
      -0.539
      -0.687
      -0.889
      -1.136
      -1.180
      -0.799
      -0.064
       0.667
       0.998
       0.782
       0.237
      -0.202
      -0.216
       0.144
       0.525
       0.602
       0.347
      -0.015
      -0.243
      -0.261
      -0.143
      -0.016
       0.003
      -0.134
      -0.370
      -0.556
      -0.559
      -0.374
      -0.119
       0.087
       0.231
       0.367
       0.501
       0.570
       0.536
       0.452
       0.372
       0.221
      -0.158
      -0.774
      -1.339
      -1.434
      -0.888
       0.028
       0.797
       1.060
       0.846
       0.441
       0.091
      -0.141
      -0.271
      -0.242
       0.022
       0.440
       0.742
       0.706
       0.383
       0.041
      -0.112
      -0.135
      -0.251
      -0.585
      -0.995
      -1.178
      -0.952
      -0.418
       0.134
       0.450
       0.451
       0.223
      -0.046
      -0.137
       0.057
       0.407
       0.631
       0.563
       0.309
       0.109
       0.048
      -0.006
      -0.219
      -0.582
      -0.908
      -0.961
      -0.620
       0.044
       0.768
       1.216
       1.162
       0.640
      -0.063
      -0.582
      -0.693
      -0.442
      -0.075
       0.170
       0.237
       0.240
       0.270
       0.257
       0.052
      -0.352
      -0.725
      -0.785
      -0.456
       0.054
       0.451
       0.590
       0.524
       0.368
       0.160
      -0.121
      -0.429
      -0.594
      -0.454
      -0.034
       0.423
       0.648
       0.588
       0.410
       0.276
       0.160
      -0.070
      -0.401
      -0.606
      -0.476
      -0.078
       0.260
       0.253
      -0.090
      -0.495
      -0.656
      -0.460
      -0.038
       0.341
       0.455
       0.285
       0.022
      -0.096
       0.025
       0.241
       0.271
      -0.058
      -0.596
      -0.900
      -0.588
       0.264
       1.068
       1.172
       0.435
      -0.618
      -1.223
      -1.002
      -0.208
       0.560
       0.849
       0.616
       0.142
      -0.231
      -0.326
      -0.198
      -0.052
      -0.028
      -0.041
       0.159
       0.695
       1.312
       1.498
       0.913
      -0.252
      -1.383
      -1.916
      -1.737
      -1.170
      -0.607
      -0.195
       0.167
       0.603
       1.080
       1.396
       1.312
       0.715
      -0.222
      -1.026
      -1.170
      -0.510
       0.495
       1.067
       0.728
      -0.272
      -1.132
      -1.170
      -0.402
       0.487
       0.787
       0.405
      -0.099
      -0.121
       0.407
       1.009
       1.154
       0.693
      -0.087
      -0.719
      -0.866
      -0.532
      -0.054
       0.142
      -0.112
      -0.594
      -0.877
      -0.684
      -0.089
       0.549
       0.850
       0.664
       0.157
      -0.327
      -0.526
      -0.424
      -0.216
      -0.102
      -0.112
      -0.116
       0.020
       0.298
       0.583
       0.706
       0.569
       0.195
      -0.281
      -0.686
      -0.909
      -0.940
      -0.818
      -0.543
      -0.101
       0.432
       0.860
       1.007
       0.887
       0.677
       0.508
       0.334
       0.027
      -0.407
      -0.769
      -0.832
      -0.543
      -0.068
       0.336
       0.487
       0.364
       0.080
      -0.205
      -0.381
      -0.421
      -0.356
      -0.225
      -0.046
       0.188
       0.473
       0.742
       0.847
       0.656
       0.187
      -0.348
      -0.683
      -0.700
      -0.492
      -0.243
      -0.067
       0.046
       0.146
       0.221
       0.177
      -0.053
      -0.375
      -0.548
      -0.382
       0.053
       0.448
       0.526
       0.287
      -0.028
      -0.187
      -0.143
       0.006
       0.161
       0.270
       0.309
       0.252
       0.106
      -0.074
      -0.221
      -0.287
      -0.245
      -0.073
       0.211
       0.498
       0.608
       0.425
       0.026
      -0.362
      -0.565
      -0.578
      -0.477
      -0.257
       0.150
       0.696
       1.139
       1.193
       0.745
      -0.061
      -0.918
      -1.496
      -1.585
      -1.208
      -0.615
      -0.107
       0.199
       0.412
       0.635
       0.779
       0.656
       0.256
      -0.170
      -0.338
      -0.192
       0.104
       0.361
       0.500
       0.500
       0.344
       0.044
      -0.301
      -0.540
      -0.561
      -0.352
      -0.004
       0.322
       0.479
       0.421
       0.217
      -0.033
      -0.262
      -0.403
      -0.353
      -0.050
       0.399
       0.724
       0.690
       0.271
      -0.357
      -0.951
      -1.290
      -1.232
      -0.770
      -0.089
       0.517
       0.839
       0.885
       0.811
       0.744
       0.634
       0.320
      -0.269
      -0.933
      -1.283
      -1.040
      -0.303
       0.488
       0.876
       0.718
       0.241
      -0.176
      -0.306
      -0.203
      -0.074
      -0.043
      -0.063
      -0.042
       0.027
       0.079
       0.083
       0.059
       0.015
      -0.069
      -0.163
      -0.166
      -0.011
       0.248
       0.476
       0.564
       0.474
       0.212
      -0.179
      -0.583
      -0.837
      -0.824
      -0.565
      -0.187
       0.180
       0.457
       0.596
       0.572
       0.404
       0.146
      -0.162
      -0.493
      -0.764
      -0.809
      -0.514
       0.009
       0.440
       0.512
       0.256
      -0.022
      -0.049
       0.150
       0.286
       0.136
      -0.199
      -0.379
      -0.184
       0.256
       0.578
       0.537
       0.203
      -0.152
      -0.329
      -0.341
      -0.318
      -0.334
      -0.336
      -0.229
       0.013
       0.320
       0.569
       0.645
       0.487
       0.134
      -0.264
      -0.519
      -0.528
      -0.331
      -0.047
       0.215
       0.377
       0.381
       0.219
      -0.016
      -0.191
      -0.256
      -0.273
      -0.313
      -0.330
      -0.205
       0.091
       0.410
       0.527
       0.325
      -0.115
      -0.561
      -0.772
      -0.626
      -0.184
       0.350
       0.741
       0.828
       0.581
       0.108
      -0.378
      -0.655
      -0.599
      -0.252
       0.216
       0.618
       0.837
       0.844
       0.654
       0.297
      -0.182
      -0.690
      -1.071
      -1.173
      -0.965
      -0.568
      -0.142
       0.263
       0.684
       1.074
       1.230
       0.954
       0.306
      -0.361
      -0.649
      -0.438
       0.028
       0.330
       0.199
      -0.292
      -0.814
      -1.061
      -0.966
      -0.667
      -0.327
      -0.019
       0.257
       0.511
       0.743
       0.922
       0.982
       0.840
       0.485
       0.035
      -0.315
      -0.423
      -0.311
      -0.151
      -0.126
      -0.268
      -0.435
      -0.469
      -0.351
      -0.174
       0.000
       0.203
       0.455
       0.670
       0.715
       0.551
       0.278
       0.018
      -0.194
      -0.382
      -0.527
      -0.537
      -0.337
       0.014
       0.317
       0.367
       0.102
      -0.344
      -0.738
      -0.892
      -0.759
      -0.415
      -0.004
       0.332
       0.522
       0.591
       0.609
       0.603
       0.529
       0.345
       0.101
      -0.068
      -0.044
       0.163
       0.408
       0.493
       0.288
      -0.186
      -0.749
      -1.137
      -1.135
      -0.701
      -0.009
       0.650
       1.043
       1.095
       0.851
       0.385
      -0.227
      -0.854
      -1.296
      -1.367
      -1.019
      -0.383
       0.289
       0.741
       0.850
       0.667
       0.353
       0.033
      -0.263
      -0.525
      -0.667
      -0.570
      -0.227
       0.196
       0.461
       0.429
       0.146
      -0.197
      -0.380
      -0.285
       0.040
       0.420
       0.678
       0.744
       0.637
       0.385
      -0.007
      -0.489
      -0.914
      -1.102
      -0.960
      -0.533
       0.060
       0.682
       1.183
       1.390
       1.188
       0.639
      -0.011
      -0.474
      -0.620
      -0.552
      -0.491
      -0.569
      -0.699
      -0.672
      -0.375
       0.073
       0.415
       0.485
       0.345
       0.194
       0.159
       0.189
       0.144
      -0.026
      -0.207
      -0.231
      -0.056
       0.169
       0.236
       0.076
      -0.168
      -0.277
      -0.183
      -0.039
      -0.064
      -0.296
      -0.511
      -0.426
       0.009
       0.530
       0.771
       0.566
       0.083
      -0.325
      -0.404
      -0.186
       0.065
       0.138
       0.110
       0.287
       0.846
       1.543
       1.819
       1.256
      -0.044
      -1.528
      -2.607
      -3.023
      -2.851
      -2.243
      -1.222
       0.235
       1.950
       3.432
       4.090
       3.606
       2.149
       0.269
      -1.401
      -2.423
      -2.675
      -2.302
      -1.578
      -0.776
      -0.089
       0.369
       0.552
       0.463
       0.167
      -0.189
      -0.385
      -0.212
       0.402
       1.318
       2.218
       2.698
       2.406
       1.210
      -0.640
      -2.539
      -3.814
      -4.091
      -3.430
      -2.141
      -0.520
       1.224
       2.832
       3.878
       3.906
       2.775
       0.905
      -0.892
      -1.907
      -1.967
      -1.420
      -0.739
      -0.168
       0.292
       0.639
       0.723
       0.371
      -0.366
      -1.121
      -1.428
      -1.041
      -0.111
       0.939
       1.690
       1.925
       1.644
       0.966
       0.080
      -0.774
      -1.355
      -1.535
      -1.369
      -1.033
      -0.682
      -0.359
      -0.028
       0.322
       0.627
       0.804
       0.826
       0.731
       0.581
       0.425
       0.297
       0.190
       0.019
      -0.326
      -0.838
      -1.311
      -1.455
      -1.128
      -0.450
       0.325
       1.012
       1.560
       1.956
       2.106
       1.865
       1.162
       0.097
      -1.059
      -1.972
      -2.376
      -2.197
      -1.592
      -0.878
      -0.371
      -0.205
      -0.260
      -0.254
       0.060
       0.730
       1.606
       2.430
       2.958
       3.003
       2.462
       1.350
      -0.161
      -1.753
      -3.056
      -3.752
      -3.665
      -2.811
      -1.447
      -0.019
       1.010
       1.398
       1.234
       0.836
       0.542
       0.554
       0.908
       1.503
       2.135
       2.545
       2.463
       1.678
       0.136
      -1.946
      -4.041
      -5.452
      -5.607
      -4.344
      -2.020
       0.640
       2.866
       4.167
       4.462
       3.969
       2.988
       1.776
       0.555
      -0.452
      -1.068
      -1.260
      -1.160
      -1.004
      -1.022
      -1.341
      -1.906
      -2.473
      -2.704
      -2.351
      -1.382
       0.012
       1.504
       2.748
       3.451
       3.430
       2.663
       1.331
      -0.184
      -1.412
      -1.999
      -1.872
      -1.252
      -0.511
       0.030
       0.201
      -0.010
      -0.496
      -1.066
      -1.470
      -1.460
      -0.902
       0.144
       1.421
       2.542
       3.123
       2.916
       1.925
       0.438
      -1.060
      -2.072
      -2.286
      -1.684
      -0.533
       0.721
       1.612
       1.826
       1.324
       0.348
      -0.718
      -1.525
      -1.879
      -1.749
      -1.232
      -0.526
       0.123
       0.540
       0.726
       0.826
       0.978
       1.178
       1.299
       1.215
       0.896
       0.406
      -0.183
      -0.836
      -1.496
      -2.002
      -2.106
      -1.634
      -0.658
       0.491
       1.399
       1.789
       1.635
       1.101
       0.399
      -0.333
      -1.024
      -1.572
      -1.779
      -1.431
      -0.490
       0.769
       1.828
       2.202
       1.729
       0.683
      -0.399
      -1.043
      -1.102
      -0.763
      -0.334
      -0.038
       0.063
       0.011
      -0.137
      -0.357
      -0.657
      -1.007
      -1.256
      -1.156
      -0.529
       0.551
       1.714
       2.480
       2.505
       1.758
       0.526
      -0.724
      -1.545
      -1.700
      -1.250
      -0.477
       0.298
       0.867
       1.149
       1.105
       0.703
      -0.021
      -0.884
      -1.581
      -1.824
      -1.497
      -0.698
       0.322
       1.277
       1.928
       2.126
       1.827
       1.096
       0.102
      -0.896
      -1.601
      -1.777
      -1.367
      -0.554
       0.309
       0.873
       0.953
       0.577
      -0.070
      -0.740
      -1.174
      -1.164
      -0.626
       0.312
       1.311
       1.941
       1.902
       1.181
       0.048
      -1.111
      -1.964
      -2.317
      -2.094
      -1.329
      -0.212
       0.886
       1.534
       1.490
       0.897
       0.221
      -0.063
       0.209
       0.811
       1.346
       1.524
       1.294
       0.759
       0.041
      -0.786
      -1.640
      -2.345
      -2.626
      -2.229
      -1.118
       0.416
       1.849
       2.689
       2.714
       2.024
       0.933
      -0.179
      -0.975
      -1.271
      -1.112
      -0.752
      -0.498
      -0.525
      -0.783
      -1.061
      -1.143
      -0.936
      -0.484
       0.121
       0.823
       1.560
       2.160
       2.349
       1.911
       0.877
      -0.444
      -1.605
      -2.245
      -2.251
      -1.792
      -1.189
      -0.693
      -0.332
       0.025
       0.449
       0.828
       0.970
       0.857
       0.720
       0.832
       1.189
       1.436
       1.148
       0.217
      -1.009
      -1.965
      -2.260
      -1.890
      -1.143
      -0.342
       0.324
       0.792
       1.037
       1.039
       0.824
       0.502
       0.217
       0.066
       0.055
       0.153
       0.343
       0.606
       0.855
       0.920
       0.643
       0.014
      -0.787
      -1.464
      -1.747
      -1.499
      -0.774
       0.182
       1.029
       1.497
       1.527
       1.255
       0.846
       0.359
      -0.216
      -0.820
      -1.259
      -1.314
      -0.903
      -0.156
       0.639
       1.186
       1.319
       1.069
       0.588
       0.023
      -0.553
      -1.077
      -1.409
      -1.387
      -0.980
      -0.365
       0.167
       0.398
       0.297
       0.006
      -0.268
      -0.365
      -0.244
       0.027
       0.355
       0.674
       0.936
       1.047
       0.870
       0.321
      -0.497
      -1.270
      -1.619
      -1.340
      -0.552
       0.367
       1.017
       1.203
       0.979
       0.527
       0.001
      -0.512
      -0.929
      -1.145
      -1.092
      -0.817
      -0.472
      -0.190
       0.001
       0.160
       0.341
       0.539
       0.712
       0.828
       0.873
       0.849
       0.750
       0.561
       0.257
      -0.162
      -0.620
      -0.961
      -1.030
      -0.795
      -0.413
      -0.151
      -0.189
      -0.482
      -0.777
      -0.800
      -0.446
       0.152
       0.712
       0.986
       0.917
       0.672
       0.498
       0.510
       0.604
       0.559
       0.256
      -0.215
      -0.620
      -0.757
      -0.585
      -0.236
       0.107
       0.326
       0.414
       0.435
       0.453
       0.498
       0.551
       0.554
       0.442
       0.206
      -0.069
      -0.241
      -0.227
      -0.086
       0.011
      -0.081
      -0.351
      -0.636
      -0.747
      -0.609
      -0.300
       0.030
       0.246
       0.301
       0.234
       0.138
       0.076
       0.039
      -0.027
      -0.138
      -0.239
      -0.245
      -0.134
       0.021
       0.104
       0.039
      -0.156
      -0.379
      -0.513
      -0.483
      -0.299
      -0.046
       0.172
       0.297
       0.334
       0.314
       0.248
       0.129
      -0.021
      -0.127
      -0.109
       0.050
       0.286
       0.496
       0.600
       0.578
       0.472
       0.352
       0.266
       0.207
       0.130
       0.023
      -0.058
      -0.034
       0.104
       0.247
       0.244
       0.032
      -0.292
      -0.544
      -0.602
      -0.500
      -0.376
      -0.332
      -0.340
      -0.288
      -0.109
       0.131
       0.262
       0.151
      -0.182
      -0.564
      -0.787
      -0.742
      -0.471
      -0.120
       0.143
       0.192
