Origin Time       6/11/2013 14:53:08	
Lat.              31.4 N	
Long.             76.1 E	
Depth (Km)         10.0
Magnitude         4.9
 Region           Hoshiarpur-Punjab                                                
 Above details taken from IMD 
     
Station Code      CHM
Station Lat.       32.555  N
Station Long.      76.126  E
Station Height(m)  952.0
Site Class        A   Vs30 between 700 m/sec to 1400 m/sec * 
Record Time       06.11.2013 14:52:37.384
Sampling Rate     200. Hz
 Record Duration   66.630 Sec.
 Direction         E-W (E positive)
Max. Acceleration     -1.484 cm/sec**2
     
  * For reference see Site Classification link of website 
     
 Base Line Corrected and Low Pass Filtered (Cut Off at 35 Hz) Time History
 Acceleration data in cm/sec**2
    
[...]
      -0.058
      -0.010
       0.003
      -0.022
      -0.068
      -0.114
      -0.138
      -0.134
      -0.101
      -0.042
       0.038
       0.135
       0.241
       0.334
       0.389
       0.384
       0.319
       0.220
       0.131
       0.083
       0.081
       0.103
       0.117
       0.108
       0.081
       0.044
      -0.002
      -0.068
      -0.158
      -0.255
      -0.328
      -0.346
      -0.301
      -0.207
      -0.095
       0.004
       0.070
       0.100
       0.099
       0.074
       0.030
      -0.023
      -0.068
      -0.083
      -0.056
       0.000
       0.055
       0.080
       0.069
       0.032
      -0.014
      -0.061
      -0.104
      -0.127
      -0.108
      -0.033
       0.080
       0.193
       0.267
       0.287
       0.268
       0.225
       0.160
       0.065
      -0.049
      -0.152
      -0.203
      -0.187
      -0.126
      -0.058
      -0.010
       0.020
       0.045
       0.070
       0.087
       0.082
       0.057
       0.030
       0.019
       0.029
       0.040
       0.033
       0.003
      -0.036
      -0.062
      -0.065
      -0.052
      -0.041
      -0.048
      -0.076
      -0.121
      -0.170
      -0.207
      -0.220
      -0.197
      -0.131
      -0.033
       0.073
       0.163
       0.224
       0.252
       0.246
       0.199
       0.100
      -0.045
      -0.206
      -0.334
      -0.390
      -0.363
      -0.268
      -0.134
       0.016
       0.161
       0.280
       0.347
       0.348
       0.290
       0.198
       0.106
       0.035
      -0.013
      -0.048
      -0.078
      -0.104
      -0.117
      -0.115
      -0.107
      -0.108
      -0.130
      -0.170
      -0.203
      -0.203
      -0.155
      -0.071
       0.022
       0.099
       0.146
       0.158
       0.135
       0.078
      -0.008
      -0.106
      -0.191
      -0.239
      -0.242
      -0.202
      -0.126
      -0.022
       0.099
       0.212
       0.285
       0.294
       0.239
       0.145
       0.050
      -0.015
      -0.035
      -0.017
       0.017
       0.041
       0.041
       0.017
      -0.012
      -0.028
      -0.021
       0.003
       0.030
       0.051
       0.070
       0.100
       0.151
       0.212
       0.259
       0.264
       0.223
       0.157
       0.093
       0.046
       0.014
      -0.016
      -0.052
      -0.092
      -0.130
      -0.157
      -0.173
      -0.182
      -0.180
      -0.162
      -0.125
      -0.079
      -0.042
      -0.024
      -0.015
       0.006
       0.048
       0.096
       0.117
       0.097
       0.054
       0.031
       0.050
       0.094
       0.120
       0.096
       0.029
      -0.044
      -0.084
      -0.078
      -0.041
       0.001
       0.035
       0.063
       0.093
       0.129
       0.160
       0.165
       0.128
       0.048
      -0.065
      -0.188
      -0.296
      -0.360
      -0.360
      -0.293
      -0.177
      -0.044
       0.075
       0.160
       0.202
       0.195
       0.140
       0.044
      -0.067
      -0.160
      -0.202
      -0.177
      -0.093
       0.021
       0.123
       0.184
       0.192
       0.157
       0.093
       0.014
      -0.067
      -0.127
      -0.140
      -0.091
       0.002
       0.103
       0.173
       0.194
       0.174
       0.133
       0.082
       0.026
      -0.035
      -0.097
      -0.152
      -0.192
      -0.212
      -0.213
      -0.193
      -0.154
      -0.097
      -0.033
       0.024
       0.060
       0.067
       0.047
       0.011
      -0.029
      -0.064
      -0.094
      -0.124
      -0.157
      -0.187
      -0.199
      -0.178
      -0.121
      -0.039
       0.053
       0.141
       0.209
       0.238
       0.217
       0.148
       0.056
      -0.028
      -0.082
      -0.107
      -0.115
      -0.120
      -0.125
      -0.124
      -0.108
      -0.073
      -0.020
       0.040
       0.098
       0.148
       0.190
       0.227
       0.259
       0.273
       0.247
       0.166
       0.031
      -0.129
      -0.278
      -0.384
      -0.438
      -0.447
      -0.420
      -0.351
      -0.226
      -0.044
       0.167
       0.351
       0.456
       0.460
       0.385
       0.273
       0.170
       0.101
       0.061
       0.036
       0.012
      -0.008
      -0.009
       0.019
       0.072
       0.128
       0.165
       0.171
       0.145
       0.097
       0.040
      -0.015
      -0.062
      -0.111
      -0.182
      -0.284
      -0.404
      -0.501
      -0.529
      -0.467
      -0.334
      -0.177
      -0.039
       0.065
       0.145
       0.215
       0.272
       0.301
       0.294
       0.260
       0.215
       0.169
       0.119
       0.058
      -0.015
      -0.091
      -0.157
      -0.195
      -0.195
      -0.156
      -0.090
      -0.024
       0.013
       0.006
      -0.041
      -0.112
      -0.186
      -0.248
      -0.283
      -0.280
      -0.239
      -0.169
      -0.092
      -0.025
       0.022
       0.055
       0.085
       0.123
       0.175
       0.235
       0.294
       0.338
       0.355
       0.344
       0.307
       0.245
       0.153
       0.025
      -0.128
      -0.269
      -0.354
      -0.362
      -0.317
      -0.269
      -0.245
      -0.228
      -0.176
      -0.068
       0.065
       0.163
       0.182
       0.125
       0.039
      -0.022
      -0.033
      -0.009
       0.013
       0.012
       0.002
       0.006
       0.032
       0.069
       0.101
       0.124
       0.144
       0.158
       0.149
       0.105
       0.036
      -0.028
      -0.060
      -0.065
      -0.070
      -0.093
      -0.114
      -0.094
      -0.022
       0.067
       0.123
       0.130
       0.117
       0.126
       0.172
       0.231
       0.272
       0.278
       0.245
       0.176
       0.077
      -0.034
      -0.131
      -0.201
      -0.243
      -0.269
      -0.293
      -0.324
      -0.358
      -0.379
      -0.366
      -0.309
      -0.222
      -0.129
      -0.045
       0.034
       0.116
       0.196
       0.246
       0.242
       0.188
       0.112
       0.051
       0.029
       0.042
       0.066
       0.076
       0.061
       0.024
      -0.023
      -0.068
      -0.100
      -0.113
      -0.104
      -0.075
      -0.038
       0.000
       0.028
       0.038
       0.024
      -0.012
      -0.063
      -0.119
      -0.174
      -0.217
      -0.236
      -0.219
      -0.166
      -0.089
      -0.009
       0.059
       0.111
       0.149
       0.172
       0.174
       0.152
       0.108
       0.059
       0.024
       0.016
       0.029
       0.044
       0.037
      -0.002
      -0.069
      -0.148
      -0.220
      -0.261
      -0.253
      -0.189
      -0.083
       0.034
       0.130
       0.181
       0.178
       0.128
       0.051
      -0.027
      -0.090
      -0.140
      -0.192
      -0.252
      -0.303
      -0.319
      -0.291
      -0.236
      -0.181
      -0.135
      -0.084
      -0.004
       0.109
       0.234
       0.335
       0.392
       0.410
       0.408
       0.395
       0.360
       0.283
       0.160
       0.009
      -0.138
      -0.260
      -0.347
      -0.395
      -0.400
      -0.361
      -0.282
      -0.181
      -0.080
       0.006
       0.077
       0.138
       0.191
       0.228
       0.239
       0.224
       0.193
       0.157
       0.119
       0.080
       0.048
       0.038
       0.066
       0.133
       0.223
       0.308
       0.358
       0.352
       0.279
       0.149
      -0.011
      -0.166
      -0.284
      -0.355
      -0.380
      -0.369
      -0.328
      -0.257
      -0.160
      -0.057
       0.026
       0.068
       0.077
       0.078
       0.090
       0.106
       0.104
       0.077
       0.043
       0.028
       0.040
       0.062
       0.069
       0.052
       0.023
       0.002
       0.003
       0.024
       0.056
       0.088
       0.112
       0.115
       0.079
      -0.008
      -0.144
      -0.305
      -0.453
      -0.557
      -0.596
      -0.563
      -0.469
      -0.330
      -0.172
      -0.016
       0.126
       0.241
       0.311
       0.316
       0.251
       0.138
       0.018
      -0.067
      -0.098
      -0.076
      -0.024
       0.035
       0.082
       0.113
       0.126
       0.121
       0.098
       0.053
      -0.015
      -0.107
      -0.211
      -0.305
      -0.358
      -0.349
      -0.276
      -0.156
      -0.021
       0.096
       0.171
       0.195
       0.179
       0.149
       0.126
       0.120
       0.127
       0.144
       0.171
       0.208
       0.247
       0.269
       0.252
       0.188
       0.091
      -0.014
      -0.097
      -0.142
      -0.152
      -0.145
      -0.142
      -0.153
      -0.168
      -0.165
      -0.126
      -0.057
       0.012
       0.043
       0.026
      -0.018
      -0.054
      -0.060
      -0.037
      -0.002
       0.031
       0.064
       0.103
       0.147
       0.183
       0.198
       0.188
       0.164
       0.149
       0.153
       0.167
       0.165
       0.124
       0.046
      -0.048
      -0.135
      -0.206
      -0.261
      -0.303
      -0.330
      -0.342
      -0.343
      -0.339
      -0.325
      -0.281
      -0.186
      -0.041
       0.124
       0.265
       0.345
       0.357
       0.320
       0.256
       0.181
       0.092
      -0.014
      -0.134
      -0.252
      -0.352
      -0.419
      -0.442
      -0.411
      -0.321
      -0.181
      -0.018
       0.140
       0.274
       0.378
       0.446
       0.470
       0.440
       0.361
       0.256
       0.160
       0.095
       0.064
       0.052
       0.037
       0.011
      -0.020
      -0.038
      -0.030
      -0.001
       0.031
       0.046
       0.036
       0.002
      -0.049
      -0.115
      -0.188
      -0.259
      -0.316
      -0.348
      -0.352
      -0.326
      -0.276
      -0.209
      -0.137
      -0.071
      -0.016
       0.033
       0.081
       0.128
       0.165
       0.184
       0.186
       0.182
       0.180
       0.183
       0.188
       0.191
       0.193
       0.193
       0.184
       0.152
       0.087
      -0.005
      -0.096
      -0.147
      -0.138
      -0.075
       0.006
       0.068
       0.094
       0.088
       0.066
       0.034
      -0.013
      -0.086
      -0.181
      -0.279
      -0.345
      -0.352
      -0.290
      -0.179
      -0.061
       0.020
       0.041
       0.008
      -0.053
      -0.114
      -0.164
      -0.201
      -0.220
      -0.206
      -0.138
      -0.007
       0.171
       0.356
       0.499
       0.562
       0.527
       0.404
       0.223
       0.023
      -0.153
      -0.271
      -0.314
      -0.281
      -0.186
      -0.057
       0.071
       0.158
       0.175
       0.116
      -0.001
      -0.137
      -0.252
      -0.318
      -0.326
      -0.285
      -0.215
      -0.131
      -0.036
       0.072
       0.193
       0.311
       0.396
       0.424
       0.385
       0.294
       0.179
       0.074
      -0.001
      -0.045
      -0.070
      -0.089
      -0.109
      -0.132
      -0.158
      -0.190
      -0.231
      -0.284
      -0.340
      -0.379
      -0.383
      -0.340
      -0.258
      -0.155
      -0.055
       0.026
       0.086
       0.128
       0.158
       0.178
       0.192
       0.207
       0.228
       0.250
       0.257
       0.231
       0.165
       0.064
      -0.052
      -0.164
      -0.255
      -0.313
      -0.337
      -0.335
      -0.321
      -0.306
      -0.286
      -0.250
      -0.191
      -0.111
      -0.020
       0.076
       0.180
       0.296
       0.421
       0.537
       0.618
       0.641
       0.604
       0.519
       0.402
       0.262
       0.104
      -0.054
      -0.171
      -0.195
      -0.103
       0.079
       0.286
       0.460
       0.578
       0.648
       0.680
       0.668
       0.592
       0.441
       0.229
      -0.005
      -0.210
      -0.350
      -0.412
      -0.411
      -0.368
      -0.297
      -0.205
      -0.095
       0.025
       0.143
       0.249
       0.333
       0.386
       0.395
       0.359
       0.284
       0.184
       0.067
      -0.067
      -0.212
      -0.351
      -0.458
      -0.507
      -0.486
      -0.411
      -0.314
      -0.225
      -0.155
      -0.092
      -0.022
       0.045
       0.066
      -0.002
      -0.167
      -0.389
      -0.604
      -0.775
      -0.909
      -1.040
      -1.185
      -1.314
      -1.372
      -1.316
      -1.153
      -0.932
      -0.713
      -0.534
      -0.407
      -0.330
      -0.301
      -0.307
      -0.313
      -0.262
      -0.106
       0.156
       0.471
       0.767
       0.994
       1.144
       1.235
       1.283
       1.286
       1.237
       1.140
       1.007
       0.848
       0.671
       0.490
       0.334
       0.244
       0.246
       0.328
       0.440
       0.523
       0.536
       0.469
       0.331
       0.136
      -0.098
      -0.340
      -0.544
      -0.665
      -0.689
      -0.628
      -0.513
      -0.366
      -0.198
      -0.011
       0.183
       0.355
       0.474
       0.529
       0.532
       0.511
       0.480
       0.430
       0.344
       0.219
       0.067
      -0.094
      -0.253
      -0.390
      -0.474
      -0.469
      -0.358
      -0.162
       0.071
       0.282
       0.423
       0.462
       0.388
       0.210
      -0.049
      -0.365
      -0.711
      -1.047
      -1.321
      -1.477
      -1.484
      -1.346
      -1.103
      -0.804
      -0.497
      -0.216
       0.016
       0.180
       0.266
       0.274
       0.218
       0.129
       0.047
       0.009
       0.032
       0.103
       0.191
       0.266
       0.318
       0.356
       0.400
       0.462
       0.535
       0.602
       0.649
       0.672
       0.679
       0.678
       0.664
       0.626
       0.551
       0.441
       0.301
       0.138
      -0.044
      -0.236
      -0.415
      -0.551
      -0.617
      -0.603
      -0.513
      -0.369
      -0.202
      -0.045
       0.076
       0.159
       0.219
       0.277
       0.339
       0.391
       0.407
       0.368
       0.270
       0.119
      -0.072
      -0.284
      -0.486
      -0.648
      -0.743
      -0.767
      -0.723
      -0.624
      -0.480
      -0.306
      -0.124
       0.039
       0.163
       0.238
       0.258
       0.211
       0.091
      -0.090
      -0.291
      -0.448
      -0.511
      -0.467
      -0.345
      -0.199
      -0.070
       0.033
       0.129
       0.230
       0.326
       0.386
       0.385
       0.331
       0.253
       0.179
       0.111
       0.026
      -0.094
      -0.234
      -0.347
      -0.377
      -0.301
      -0.149
       0.019
       0.154
       0.243
       0.313
       0.400
       0.517
       0.649
       0.760
       0.816
       0.800
       0.725
       0.620
       0.519
       0.439
       0.376
       0.313
       0.236
       0.147
       0.063
       0.007
      -0.007
       0.014
       0.042
       0.042
      -0.008
      -0.110
      -0.243
      -0.386
      -0.524
      -0.647
      -0.752
      -0.829
      -0.866
      -0.850
      -0.772
      -0.637
      -0.464
      -0.276
      -0.098
       0.054
       0.169
       0.237
       0.260
       0.255
       0.245
       0.250
       0.269
       0.295
       0.322
       0.354
       0.397
       0.445
       0.480
       0.487
       0.461
       0.415
       0.356
       0.281
       0.173
       0.015
      -0.196
      -0.436
      -0.661
      -0.834
      -0.943
      -1.001
      -1.031
      -1.049
      -1.053
      -1.031
      -0.967
      -0.846
      -0.665
      -0.436
      -0.197
       0.002
       0.123
       0.158
       0.137
       0.104
       0.090
       0.108
       0.158
       0.243
       0.366
       0.525
       0.695
       0.842
       0.934
       0.966
       0.962
       0.943
       0.911
       0.833
       0.673
       0.428
       0.144
      -0.104
      -0.263
      -0.323
      -0.313
      -0.269
      -0.204
      -0.114
      -0.004
       0.100
       0.154
       0.132
       0.042
      -0.076
      -0.180
      -0.255
      -0.309
      -0.346
      -0.360
      -0.332
      -0.256
      -0.146
      -0.032
       0.053
       0.087
       0.059
      -0.025
      -0.139
      -0.244
      -0.298
      -0.290
      -0.238
      -0.178
      -0.131
      -0.093
      -0.044
       0.023
       0.099
       0.167
       0.223
       0.278
       0.344
       0.425
       0.510
       0.580
       0.625
       0.643
       0.639
       0.620
       0.581
       0.511
       0.394
       0.223
       0.009
      -0.216
      -0.407
      -0.524
      -0.554
      -0.509
      -0.418
      -0.314
      -0.219
      -0.151
      -0.120
      -0.132
      -0.184
      -0.262
      -0.340
      -0.393
      -0.402
      -0.368
      -0.302
      -0.215
      -0.109
       0.018
       0.161
       0.303
       0.420
       0.494
       0.523
       0.518
       0.494
       0.462
       0.423
       0.369
       0.284
       0.159
       0.004
      -0.151
      -0.268
      -0.328
      -0.340
      -0.336
      -0.344
      -0.369
      -0.398
      -0.418
      -0.420
      -0.408
      -0.387
      -0.362
      -0.341
      -0.333
      -0.334
      -0.321
      -0.262
      -0.143
       0.021
       0.186
       0.315
       0.399
       0.451
       0.491
       0.512
       0.489
       0.395
       0.232
       0.035
      -0.139
      -0.244
      -0.261
      -0.207
      -0.121
      -0.049
      -0.023
      -0.050
      -0.117
      -0.206
      -0.308
      -0.416
      -0.510
      -0.551
      -0.501
      -0.354
      -0.153
       0.040
       0.178
       0.252
       0.270
       0.245
       0.186
       0.110
       0.044
       0.012
       0.023
       0.068
       0.132
       0.208
       0.303
       0.416
       0.535
       0.629
       0.664
       0.619
       0.502
       0.343
       0.181
       0.041
      -0.068
      -0.157
      -0.234
      -0.292
      -0.311
      -0.270
      -0.166
      -0.025
       0.118
       0.243
       0.354
       0.467
       0.587
       0.696
       0.767
       0.786
       0.751
       0.661
       0.508
       0.289
       0.026
      -0.227
      -0.412
      -0.499
      -0.504
      -0.469
      -0.428
      -0.387
      -0.333
      -0.265
      -0.208
      -0.203
      -0.276
      -0.422
      -0.605
      -0.784
      -0.927
      -1.015
      -1.030
      -0.954
      -0.785
      -0.540
      -0.262
       0.001
       0.214
       0.359
       0.431
       0.436
       0.383
       0.295
       0.202
       0.136
       0.116
       0.141
       0.189
       0.231
       0.249
       0.236
       0.206
       0.178
       0.163
       0.162
       0.162
       0.151
       0.126
       0.087
       0.036
      -0.027
      -0.102
      -0.177
      -0.230
      -0.235
      -0.179
      -0.073
       0.055
       0.168
       0.238
       0.251
       0.203
       0.105
      -0.023
      -0.152
      -0.253
      -0.306
      -0.303
      -0.245
      -0.143
      -0.015
       0.110
       0.196
       0.220
       0.179
       0.092
      -0.010
