Origin Time       21/8/2014 08:11:17  UTC
Lat.              32.3 N 
Long.             76.5 E 
Depth (Km)         10.0
Magnitude         5.0
 Region           CHAMBA-Kangra-Border-(H.P.)                                      
 Above details taken from IMD 
    
Station Code      CHM
Station Lat.       32.555  N
Station Long.      76.126  E
Station Height(m)  952.0
Site Class        A   Vs30 between 700 m/sec to 1400 m/sec * 
Record Time       21.08.2014 08:08:27.364 UTC
Sampling Rate     200. Hz
 Record Duration  101.345 Sec.
 Direction         N-S (N positive)
Max. Acceleration      7.509 cm/sec**2
     
  * For reference see Site Classification link of website 
     
 Base Line Corrected and Low Pass Filtered (Cut Off at 35 Hz) Time History
 Acceleration data in cm/sec**2
    
[...]
       1.584
       2.779
       3.710
       4.353
       4.598
       4.244
       3.139
       1.355
      -0.765
      -2.749
      -4.208
      -4.982
      -5.131
      -4.805
      -4.095
      -2.973
      -1.387
       0.588
       2.664
       4.430
       5.550
       5.910
       5.599
       4.761
       3.489
       1.849
      -0.034
      -1.914
      -3.467
      -4.383
      -4.482
      -3.785
      -2.533
      -1.105
       0.124
       0.927
       1.309
       1.453
       1.577
       1.785
       2.023
       2.155
       2.094
       1.856
       1.499
       1.032
       0.394
      -0.460
      -1.455
      -2.378
      -2.957
      -2.991
      -2.453
      -1.513
      -0.458
       0.454
       1.093
       1.450
       1.547
       1.373
       0.928
       0.320
      -0.225
      -0.485
      -0.408
      -0.179
      -0.096
      -0.349
      -0.878
      -1.404
      -1.622
      -1.394
      -0.817
      -0.117
       0.509
       0.980
       1.304
       1.505
       1.579
       1.503
       1.281
       0.966
       0.634
       0.318
      -0.022
      -0.447
      -0.938
      -1.358
      -1.515
      -1.303
      -0.786
      -0.156
       0.398
       0.793
       1.063
       1.284
       1.490
       1.655
       1.719
       1.633
       1.386
       1.022
       0.622
       0.259
      -0.043
      -0.294
      -0.494
      -0.613
      -0.614
      -0.507
      -0.361
      -0.268
      -0.294
      -0.452
      -0.717
      -1.068
      -1.498
      -1.987
      -2.465
      -2.814
      -2.902
      -2.625
      -1.952
      -0.960
       0.148
       1.088
       1.626
       1.731
       1.596
       1.481
       1.504
       1.582
       1.557
       1.378
       1.131
       0.922
       0.736
       0.453
      -0.001
      -0.536
      -0.959
      -1.152
      -1.198
      -1.295
      -1.568
      -1.929
      -2.137
      -1.990
      -1.486
      -0.817
      -0.229
       0.118
       0.181
       0.009
      -0.297
      -0.603
      -0.762
      -0.679
      -0.353
       0.121
       0.607
       1.000
       1.270
       1.453
       1.610
       1.776
       1.935
       2.038
       2.043
       1.938
       1.732
       1.434
       1.056
       0.648
       0.279
      -0.006
      -0.236
      -0.489
      -0.820
      -1.208
      -1.568
      -1.816
      -1.919
      -1.887
      -1.738
      -1.486
      -1.158
      -0.805
      -0.487
      -0.228
       0.007
       0.290
       0.675
       1.138
       1.557
       1.764
       1.627
       1.147
       0.482
      -0.122
      -0.471
      -0.526
      -0.397
      -0.221
      -0.064
       0.074
       0.184
       0.202
       0.056
      -0.249
      -0.594
      -0.793
      -0.706
      -0.324
       0.210
       0.674
       0.884
       0.782
       0.447
       0.031
      -0.338
      -0.600
      -0.736
      -0.722
      -0.528
      -0.167
       0.242
       0.509
       0.481
       0.169
      -0.240
      -0.502
      -0.491
      -0.268
      -0.015
       0.105
       0.058
      -0.065
      -0.124
      -0.023
       0.240
       0.575
       0.856
       0.986
       0.945
       0.771
       0.512
       0.198
      -0.124
      -0.353
      -0.357
      -0.078
       0.388
       0.809
       0.953
       0.737
       0.279
      -0.188
      -0.473
      -0.530
      -0.444
      -0.333
      -0.268
      -0.244
      -0.215
      -0.155
      -0.095
      -0.105
      -0.243
      -0.512
      -0.834
      -1.093
      -1.196
      -1.133
      -0.982
      -0.854
      -0.824
      -0.877
      -0.916
      -0.816
      -0.503
      -0.001
       0.577
       1.083
       1.405
       1.506
       1.422
       1.210
       0.908
       0.531
       0.095
      -0.347
      -0.709
      -0.899
      -0.880
      -0.690
      -0.437
      -0.227
      -0.093
       0.019
       0.201
       0.494
       0.834
       1.087
       1.128
       0.922
       0.532
       0.073
      -0.351
      -0.681
      -0.896
      -0.978
      -0.889
      -0.598
      -0.129
       0.405
       0.838
       1.043
       1.014
       0.872
       0.789
       0.874
       1.103
       1.335
       1.412
       1.257
       0.905
       0.454
      -0.003
      -0.416
      -0.760
      -1.001
      -1.096
      -1.027
      -0.820
      -0.532
      -0.218
       0.084
       0.338
       0.493
       0.508
       0.389
       0.198
       0.016
      -0.112
      -0.207
      -0.327
      -0.514
      -0.755
      -0.978
      -1.096
      -1.050
      -0.843
      -0.548
      -0.288
      -0.177
      -0.262
      -0.475
      -0.663
      -0.671
      -0.432
      -0.005
       0.459
       0.795
       0.905
       0.799
       0.583
       0.394
       0.304
       0.288
       0.271
       0.220
       0.179
       0.215
       0.326
       0.424
       0.404
       0.251
       0.059
      -0.041
       0.006
       0.122
       0.150
      -0.025
      -0.390
      -0.803
      -1.090
      -1.159
      -1.047
      -0.858
      -0.666
      -0.457
      -0.173
       0.209
       0.611
       0.879
       0.886
       0.629
       0.262
       0.007
       0.017
       0.284
       0.652
       0.923
       0.965
       0.764
       0.403
      -0.001
      -0.356
      -0.603
      -0.709
      -0.661
      -0.485
      -0.262
      -0.109
      -0.118
      -0.294
      -0.535
      -0.693
      -0.672
      -0.497
      -0.285
      -0.140
      -0.076
      -0.026
       0.084
       0.281
       0.532
       0.763
       0.880
       0.802
       0.502
       0.045
      -0.409
      -0.677
      -0.644
      -0.332
       0.114
       0.519
       0.763
       0.815
       0.706
       0.472
       0.136
      -0.275
      -0.700
      -1.056
      -1.287
      -1.391
      -1.414
      -1.411
      -1.416
      -1.432
      -1.425
      -1.338
      -1.120
      -0.767
      -0.332
       0.106
       0.488
       0.796
       1.038
       1.212
       1.288
       1.234
       1.043
       0.764
       0.485
       0.303
       0.278
       0.408
       0.626
       0.837
       0.952
       0.913
       0.715
       0.414
       0.105
      -0.130
      -0.278
      -0.390
      -0.527
      -0.687
      -0.794
      -0.757
      -0.563
      -0.299
      -0.093
      -0.011
      -0.011
      -0.007
       0.035
       0.071
       0.041
      -0.047
      -0.111
      -0.075
       0.065
       0.245
       0.392
       0.472
       0.482
       0.422
       0.292
       0.104
      -0.108
      -0.296
      -0.415
      -0.437
      -0.353
      -0.184
       0.026
       0.220
       0.359
       0.439
       0.477
       0.478
       0.413
       0.239
      -0.049
      -0.375
      -0.618
      -0.684
      -0.571
      -0.355
      -0.125
       0.088
       0.311
       0.573
       0.855
       1.086
       1.191
       1.147
       0.995
       0.820
       0.695
       0.636
       0.595
       0.500
       0.320
       0.094
      -0.106
      -0.242
      -0.341
      -0.450
      -0.574
      -0.662
      -0.661
      -0.575
      -0.472
      -0.420
      -0.418
      -0.390
      -0.256
      -0.011
       0.257
       0.437
       0.490
       0.497
       0.589
       0.826
       1.122
       1.276
       1.117
       0.617
      -0.082
      -0.765
      -1.268
      -1.540
      -1.617
      -1.547
      -1.358
      -1.065
      -0.705
      -0.342
      -0.025
       0.245
       0.514
       0.810
       1.081
       1.219
       1.140
       0.860
       0.477
       0.082
      -0.314
      -0.748
      -1.213
      -1.604
      -1.759
      -1.568
      -1.038
      -0.275
       0.566
       1.329
       1.873
       2.102
       1.980
       1.535
       0.843
       0.005
      -0.861
      -1.627
      -2.177
      -2.425
      -2.350
      -2.018
      -1.569
      -1.153
      -0.844
      -0.601
      -0.318
       0.074
       0.544
       0.987
       1.314
       1.513
       1.638
       1.730
       1.770
       1.686
       1.411
       0.931
       0.308
      -0.336
      -0.870
      -1.192
      -1.259
      -1.091
      -0.767
      -0.415
      -0.184
      -0.172
      -0.353
      -0.573
      -0.656
      -0.547
      -0.362
      -0.286
      -0.399
      -0.595
      -0.662
      -0.454
      -0.008
       0.484
       0.823
       0.933
       0.876
       0.757
       0.632
       0.480
       0.261
      -0.030
      -0.337
      -0.580
      -0.691
      -0.637
      -0.431
      -0.121
       0.236
       0.612
       1.004
       1.388
       1.653
       1.621
       1.148
       0.266
      -0.768
      -1.578
      -1.862
      -1.557
      -0.851
      -0.066
       0.512
       0.745
       0.666
       0.408
       0.122
      -0.087
      -0.154
      -0.034
       0.297
       0.797
       1.319
       1.644
       1.590
       1.130
       0.402
      -0.374
      -1.005
      -1.382
      -1.473
      -1.307
      -0.943
      -0.468
       0.015
       0.393
       0.554
       0.436
       0.080
      -0.346
      -0.612
      -0.557
      -0.197
       0.286
       0.665
       0.805
       0.723
       0.540
       0.384
       0.320
       0.339
       0.390
       0.411
       0.350
       0.184
      -0.067
      -0.349
      -0.602
      -0.791
      -0.910
      -0.951
      -0.873
      -0.629
      -0.225
       0.225
       0.535
       0.569
       0.333
      -0.041
      -0.423
      -0.794
      -1.212
      -1.657
      -1.931
      -1.732
      -0.875
       0.510
       1.970
       2.963
       3.152
       2.581
       1.596
       0.605
      -0.123
      -0.522
      -0.650
      -0.579
      -0.348
       0.022
       0.476
       0.906
       1.166
       1.125
       0.736
       0.085
      -0.608
      -1.077
      -1.151
      -0.869
      -0.472
      -0.252
      -0.353
      -0.683
      -0.978
      -0.996
      -0.671
      -0.140
       0.358
       0.631
       0.639
       0.502
       0.405
       0.471
       0.663
       0.799
       0.666
       0.173
      -0.581
      -1.372
      -1.985
      -2.303
      -2.277
      -1.862
      -1.006
       0.263
       1.734
       3.024
       3.728
       3.615
       2.736
       1.386
      -0.062
      -1.310
      -2.217
      -2.767
      -2.987
      -2.875
      -2.394
      -1.540
      -0.423
       0.734
       1.687
       2.292
       2.552
       2.562
       2.420
       2.172
       1.817
       1.344
       0.788
       0.239
      -0.199
      -0.487
      -0.705
      -1.006
      -1.475
      -2.018
      -2.386
      -2.340
      -1.819
      -0.985
      -0.100
       0.635
       1.161
       1.507
       1.702
       1.719
       1.510
       1.071
       0.474
      -0.159
      -0.703
      -1.058
      -1.151
      -0.941
      -0.454
       0.193
       0.793
       1.124
       1.050
       0.589
      -0.093
      -0.755
      -1.172
      -1.215
      -0.871
      -0.246
       0.466
       1.025
       1.212
       0.912
       0.167
      -0.815
      -1.732
      -2.311
      -2.413
      -2.066
      -1.413
      -0.631
       0.131
       0.778
       1.254
       1.522
       1.571
       1.437
       1.209
       0.999
       0.872
       0.809
       0.737
       0.612
       0.481
       0.459
       0.624
       0.930
       1.215
       1.301
       1.106
       0.671
       0.106
      -0.491
      -1.056
      -1.521
      -1.771
      -1.675
      -1.186
      -0.423
       0.344
       0.842
       0.929
       0.633
       0.078
      -0.614
      -1.360
      -2.100
      -2.781
      -3.364
      -3.826
      -4.127
      -4.180
      -3.869
      -3.111
      -1.915
      -0.396
       1.268
       2.893
       4.316
       5.378
       5.923
       5.828
       5.070
       3.767
       2.148
       0.480
      -1.015
      -2.197
      -2.996
      -3.375
      -3.303
      -2.765
      -1.823
      -0.658
       0.461
       1.285
       1.701
       1.767
       1.637
       1.439
       1.214
       0.939
       0.599
       0.224
      -0.144
      -0.505
      -0.921
      -1.461
      -2.106
      -2.686
      -2.935
      -2.633
      -1.750
      -0.480
       0.867
       1.998
       2.716
       2.918
       2.586
       1.807
       0.808
      -0.094
      -0.620
      -0.681
      -0.434
      -0.207
      -0.319
      -0.925
      -1.941
      -3.096
      -4.038
      -4.445
      -4.104
      -2.963
      -1.171
       0.943
       2.952
       4.461
       5.229
       5.217
       4.566
       3.526
       2.373
       1.341
       0.580
       0.149
       0.018
       0.082
       0.190
       0.191
       0.009
      -0.323
      -0.702
      -1.039
      -1.327
      -1.629
      -1.999
      -2.412
      -2.768
      -2.953
      -2.916
      -2.676
      -2.289
      -1.795
      -1.186
      -0.431
       0.470
       1.455
       2.398
       3.165
       3.668
       3.881
       3.824
       3.534
       3.046
       2.388
       1.589
       0.685
      -0.277
      -1.250
      -2.184
      -3.018
      -3.665
      -4.036
      -4.081
      -3.829
      -3.390
      -2.913
      -2.541
      -2.371
      -2.435
      -2.693
      -3.035
      -3.282
      -3.221
      -2.684
      -1.632
      -0.194
       1.401
       2.943
       4.329
       5.541
       6.548
       7.250
       7.509
       7.250
       6.530
       5.503
       4.331
       3.116
       1.916
       0.786
      -0.209
      -1.017
      -1.639
      -2.110
      -2.461
      -2.687
      -2.768
      -2.723
      -2.641
      -2.630
      -2.728
      -2.844
      -2.791
      -2.388
      -1.556
      -0.363
       1.005
       2.297
       3.278
       3.812
       3.905
       3.669
       3.240
       2.691
       2.025
       1.230
       0.338
      -0.551
      -1.331
      -1.963
      -2.490
      -2.979
      -3.420
      -3.710
      -3.733
      -3.480
      -3.092
      -2.781
      -2.699
      -2.846
      -3.085
      -3.233
      -3.161
      -2.826
      -2.255
      -1.497
      -0.584
       0.453
       1.556
       2.623
       3.534
       4.214
       4.673
       4.991
       5.258
       5.507
       5.688
       5.697
       5.428
       4.814
       3.848
       2.582
       1.141
      -0.290
      -1.501
      -2.330
      -2.718
      -2.733
      -2.519
      -2.219
      -1.906
      -1.593
      -1.285
      -1.050
      -1.004
      -1.245
      -1.768
      -2.452
      -3.121
      -3.633
      -3.936
      -4.053
      -4.037
      -3.929
      -3.740
      -3.456
      -3.045
      -2.470
      -1.717
      -0.824
       0.130
       1.063
       1.927
       2.696
       3.333
       3.785
       4.014
       4.045
       3.950
       3.807
       3.653
       3.484
       3.293
       3.095
       2.916
       2.767
       2.624
       2.450
       2.234
       1.995
       1.759
       1.518
       1.234
       0.881
       0.477
       0.077
      -0.272
      -0.558
      -0.804
      -1.036
      -1.266
      -1.489
      -1.679
      -1.801
      -1.828
      -1.764
      -1.652
      -1.543
      -1.476
      -1.459
      -1.483
      -1.546
      -1.651
      -1.793
      -1.949
      -2.095
      -2.215
      -2.298
      -2.316
      -2.222
      -1.966
      -1.536
      -0.967
      -0.323
       0.331
       0.944
       1.479
       1.896
       2.163
       2.267
       2.216
       2.041
       1.772
       1.439
       1.074
       0.709
       0.368
       0.056
      -0.234
      -0.483
      -0.642
      -0.652
      -0.494
      -0.207
       0.133
       0.455
       0.716
       0.885
       0.921
       0.767
       0.391
      -0.176
      -0.830
      -1.437
      -1.890
      -2.142
      -2.191
      -2.047
      -1.716
      -1.211
      -0.584
       0.076
       0.660
       1.075
       1.279
       1.295
       1.193
       1.059
       0.952
       0.877
       0.804
       0.700
       0.569
       0.442
       0.343
       0.266
       0.185
       0.092
       0.013
      -0.019
      -0.013
      -0.027
      -0.128
      -0.330
      -0.580
      -0.807
      -0.974
      -1.091
      -1.171
      -1.198
      -1.136
      -0.981
      -0.786
      -0.640
      -0.599
      -0.637
      -0.657
      -0.552
      -0.276
       0.130
       0.563
       0.915
       1.136
       1.248
       1.329
       1.459
       1.674
       1.947
       2.211
       2.395
       2.444
       2.314
       1.970
       1.397
       0.641
      -0.177
      -0.885
      -1.336
      -1.479
      -1.370
      -1.130
      -0.889
      -0.734
      -0.706
      -0.808
      -1.016
      -1.284
      -1.544
      -1.716
      -1.743
      -1.620
      -1.392
      -1.132
      -0.891
      -0.685
      -0.503
      -0.330
      -0.167
      -0.028
       0.068
       0.111
       0.109
       0.075
       0.014
      -0.073
      -0.177
      -0.262
      -0.269
      -0.137
       0.160
       0.597
       1.094
       1.541
       1.841
       1.949
       1.891
       1.736
       1.546
       1.335
       1.080
       0.757
       0.385
       0.022
      -0.263
      -0.423
      -0.452
      -0.375
      -0.230
      -0.041
       0.178
       0.412
       0.615
       0.718
       0.657
       0.413
       0.025
      -0.421
      -0.838
      -1.176
      -1.439
      -1.663
      -1.869
      -2.040
      -2.119
      -2.055
      -1.841
      -1.524
      -1.178
      -0.865
      -0.610
      -0.402
      -0.203
       0.031
       0.324
       0.669
       1.032
       1.380
       1.688
       1.931
       2.051
       1.977
       1.682
       1.231
       0.764
       0.418
       0.241
       0.191
       0.192
       0.202
       0.215
       0.228
       0.207
       0.120
      -0.024
      -0.165
      -0.245
      -0.271
      -0.308
      -0.433
      -0.670
      -0.977
      -1.266
      -1.452
      -1.484
      -1.358
      -1.108
      -0.789
      -0.438
      -0.068
       0.319
       0.692
       0.989
       1.142
       1.131
       1.017
       0.906
       0.876
       0.923
       0.972
       0.952
       0.859
       0.758
       0.709
       0.715
       0.728
       0.719
       0.702
       0.702
       0.691
       0.577
       0.281
      -0.187
      -0.718
      -1.173
      -1.470
      -1.607
      -1.621
      -1.531
      -1.320
      -0.975
      -0.518
      -0.022
       0.418
       0.719
       0.855
       0.860
       0.815
       0.797
       0.833
       0.891
       0.908
       0.845
       0.717
       0.581
       0.492
       0.466
       0.476
       0.482
       0.456
       0.389
       0.278
       0.113
      -0.118
      -0.417
      -0.756
      -1.075
      -1.304
      -1.390
      -1.335
      -1.195
      -1.042
      -0.920
      -0.820
      -0.695
      -0.501
      -0.229
       0.094
       0.406
       0.634
       0.720
       0.656
       0.494
       0.317
       0.192
       0.141
       0.141
       0.150
       0.128
       0.055
      -0.071
      -0.231
      -0.383
      -0.472
      -0.461
      -0.347
      -0.160
