Origin Time       03/10/2012 10:49:28 UTC
Lat.              32.4 N 
Long.             76.3 E 
Depth (Km)         10.0
Magnitude         3.6
 Region           Chamba-DISTT.-HIMACHAL-PRADESH                                   
 Above details taken from IMD 
    
Station Code      CHM
Station Lat.       32.555  N
Station Long.      76.126  E
Station Height(m)  952.0
Site Class        A   Vs30 between 700 m/sec to 1400 m/sec * 
Record Time       03.10.2012 10:48:45.129 UTC
Sampling Rate     200. Hz
 Record Duration   68.010 Sec.
 Direction         N-S (N positive)
Max. Acceleration      3.541 cm/sec**2
     
  * For reference see Site Classification link of website 
     
 Base Line Corrected and Low Pass Filtered (Cut Off at 35 Hz) Time History
 Acceleration data in cm/sec**2
    
[...]
      -0.017
      -0.017
      -0.017
      -0.013
      -0.006
       0.002
       0.006
       0.007
       0.008
       0.009
       0.008
       0.002
      -0.008
      -0.017
      -0.022
      -0.020
      -0.011
       0.001
       0.008
       0.008
       0.001
      -0.007
      -0.013
      -0.017
      -0.017
      -0.015
      -0.011
      -0.008
      -0.005
      -0.002
       0.000
       0.001
      -0.001
      -0.006
      -0.012
      -0.017
      -0.020
      -0.019
      -0.015
      -0.011
      -0.008
      -0.005
      -0.003
      -0.003
      -0.008
      -0.014
      -0.015
      -0.009
       0.003
       0.014
       0.019
       0.014
       0.003
      -0.006
      -0.007
      -0.001
       0.005
       0.005
      -0.002
      -0.011
      -0.018
      -0.019
      -0.011
       0.003
       0.019
       0.031
       0.032
       0.022
       0.006
      -0.006
      -0.008
      -0.002
       0.005
       0.004
      -0.003
      -0.012
      -0.015
      -0.010
      -0.003
       0.001
       0.002
       0.001
       0.002
       0.003
       0.002
      -0.003
      -0.009
      -0.012
      -0.011
      -0.010
      -0.012
      -0.017
      -0.020
      -0.016
      -0.008
       0.002
       0.010
       0.012
       0.009
       0.006
       0.004
       0.000
      -0.008
      -0.016
      -0.020
      -0.020
      -0.018
      -0.020
      -0.025
      -0.031
      -0.033
      -0.027
      -0.013
       0.005
       0.022
       0.030
       0.023
      -0.001
      -0.037
      -0.066
      -0.070
      -0.041
       0.003
       0.030
       0.027
       0.010
       0.009
       0.035
       0.065
       0.062
       0.015
      -0.046
      -0.070
      -0.032
       0.039
       0.085
       0.069
       0.004
      -0.061
      -0.079
      -0.038
       0.029
       0.073
       0.058
      -0.012
      -0.086
      -0.106
      -0.050
       0.042
       0.098
       0.073
      -0.010
      -0.077
      -0.075
      -0.020
       0.019
      -0.001
      -0.047
      -0.046
       0.044
       0.184
       0.281
       0.256
       0.102
      -0.098
      -0.229
      -0.218
      -0.087
       0.064
       0.140
       0.111
       0.018
      -0.074
      -0.121
      -0.119
      -0.090
      -0.058
      -0.034
      -0.018
      -0.010
      -0.015
      -0.033
      -0.051
      -0.043
       0.011
       0.104
       0.205
       0.272
       0.274
       0.206
       0.082
      -0.068
      -0.204
      -0.275
      -0.246
      -0.130
      -0.005
       0.029
      -0.060
      -0.194
      -0.241
      -0.136
       0.059
       0.226
       0.299
       0.301
       0.274
       0.215
       0.092
      -0.091
      -0.274
      -0.371
      -0.341
      -0.205
      -0.036
       0.090
       0.130
       0.093
       0.032
       0.012
       0.064
       0.162
       0.244
       0.257
       0.187
       0.051
      -0.109
      -0.236
      -0.270
      -0.191
      -0.053
       0.039
       0.014
      -0.101
      -0.213
      -0.251
      -0.207
      -0.104
       0.041
       0.209
       0.369
       0.483
       0.517
       0.438
       0.236
      -0.048
      -0.307
      -0.425
      -0.348
      -0.128
       0.104
       0.224
       0.183
       0.026
      -0.147
      -0.249
      -0.250
      -0.177
      -0.088
      -0.022
       0.018
       0.054
       0.086
       0.070
      -0.033
      -0.185
      -0.270
      -0.199
      -0.001
       0.206
       0.321
       0.331
       0.291
       0.247
       0.203
       0.140
       0.057
      -0.015
      -0.037
      -0.011
       0.000
      -0.078
      -0.244
      -0.403
      -0.446
      -0.343
      -0.176
      -0.048
       0.007
       0.026
       0.039
       0.009
      -0.123
      -0.323
      -0.428
      -0.258
       0.200
       0.716
       0.978
       0.837
       0.421
       0.005
      -0.212
      -0.226
      -0.162
      -0.129
      -0.129
      -0.096
       0.006
       0.112
       0.095
      -0.116
      -0.442
      -0.675
      -0.628
      -0.286
       0.172
       0.499
       0.560
       0.400
       0.164
      -0.033
      -0.143
      -0.156
      -0.088
       0.003
       0.033
      -0.023
      -0.095
      -0.090
       0.006
       0.107
       0.119
       0.039
      -0.053
      -0.079
      -0.038
       0.007
       0.001
      -0.048
      -0.069
      -0.004
       0.129
       0.247
       0.272
       0.192
       0.057
      -0.056
      -0.099
      -0.088
      -0.086
      -0.154
      -0.280
      -0.393
      -0.428
      -0.385
      -0.310
      -0.221
      -0.082
       0.158
       0.492
       0.824
       1.014
       0.966
       0.700
       0.339
       0.013
      -0.231
      -0.421
      -0.575
      -0.653
      -0.613
      -0.495
      -0.411
      -0.414
      -0.422
      -0.286
       0.042
       0.427
       0.655
       0.610
       0.381
       0.189
       0.211
       0.427
       0.631
       0.609
       0.325
      -0.058
      -0.344
      -0.469
      -0.518
      -0.577
      -0.610
      -0.514
      -0.278
      -0.039
       0.049
      -0.015
      -0.086
      -0.048
       0.055
       0.100
       0.062
       0.050
       0.165
       0.357
       0.463
       0.361
       0.079
      -0.217
      -0.351
      -0.260
      -0.050
       0.094
       0.061
      -0.079
      -0.151
      -0.051
       0.154
       0.288
       0.243
       0.083
      -0.017
       0.052
       0.218
       0.280
       0.095
      -0.283
      -0.634
      -0.739
      -0.529
      -0.116
       0.278
       0.446
       0.304
      -0.042
      -0.343
      -0.356
      -0.023
       0.466
       0.803
       0.781
       0.439
       0.008
      -0.289
      -0.413
      -0.462
      -0.504
      -0.468
      -0.230
       0.204
       0.639
       0.808
       0.580
       0.063
      -0.455
      -0.704
      -0.599
      -0.255
       0.124
       0.373
       0.410
       0.234
      -0.075
      -0.379
      -0.539
      -0.498
      -0.292
       0.002
       0.326
       0.636
       0.847
       0.838
       0.536
       0.040
      -0.392
      -0.529
      -0.363
      -0.112
      -0.004
      -0.081
      -0.214
      -0.285
      -0.293
      -0.279
      -0.207
      -0.001
       0.312
       0.553
       0.545
       0.293
      -0.033
      -0.274
      -0.399
      -0.437
      -0.365
      -0.143
       0.159
       0.340
       0.242
      -0.073
      -0.349
      -0.356
      -0.096
       0.208
       0.314
       0.172
      -0.058
      -0.153
      -0.020
       0.235
       0.401
       0.345
       0.115
      -0.118
      -0.228
      -0.237
      -0.260
      -0.351
      -0.436
      -0.391
      -0.180
       0.110
       0.345
       0.437
       0.366
       0.167
      -0.075
      -0.219
      -0.153
       0.098
       0.358
       0.434
       0.281
       0.036
      -0.116
      -0.101
       0.006
       0.080
       0.066
       0.004
      -0.051
      -0.111
      -0.224
      -0.375
      -0.457
      -0.365
      -0.124
       0.124
       0.249
       0.228
       0.133
       0.038
      -0.011
       0.029
       0.212
       0.535
       0.870
       1.002
       0.773
       0.222
      -0.413
      -0.836
      -0.888
      -0.630
      -0.271
      -0.014
       0.063
       0.008
      -0.074
      -0.122
      -0.160
      -0.242
      -0.352
      -0.377
      -0.206
       0.141
       0.478
       0.602
       0.461
       0.185
      -0.061
      -0.228
      -0.370
      -0.505
      -0.543
      -0.375
      -0.027
       0.312
       0.447
       0.346
       0.145
       0.004
      -0.034
      -0.025
      -0.020
      -0.008
       0.031
       0.061
       0.014
      -0.116
      -0.232
      -0.209
      -0.014
       0.248
       0.416
       0.394
       0.205
      -0.048
      -0.280
      -0.450
      -0.522
      -0.430
      -0.128
       0.324
       0.752
       0.957
       0.826
       0.394
      -0.171
      -0.636
      -0.814
      -0.668
      -0.324
       0.028
       0.253
       0.313
       0.228
       0.035
      -0.207
      -0.396
      -0.421
      -0.227
       0.122
       0.463
       0.621
       0.504
       0.153
      -0.292
      -0.648
      -0.753
      -0.530
      -0.055
       0.439
       0.679
       0.531
       0.103
      -0.328
      -0.511
      -0.381
      -0.085
       0.167
       0.272
       0.292
       0.344
       0.444
       0.477
       0.313
      -0.040
      -0.399
      -0.530
      -0.332
       0.070
       0.408
       0.471
       0.253
      -0.073
      -0.316
      -0.409
      -0.407
      -0.392
      -0.382
      -0.338
      -0.246
      -0.157
      -0.128
      -0.133
      -0.072
       0.109
       0.340
       0.484
       0.476
       0.382
       0.313
       0.296
       0.258
       0.131
      -0.048
      -0.162
      -0.131
      -0.010
       0.051
      -0.049
      -0.250
      -0.367
      -0.263
       0.006
       0.243
       0.299
       0.203
       0.088
       0.034
       0.006
      -0.061
      -0.159
      -0.208
      -0.153
      -0.023
       0.089
       0.099
      -0.016
      -0.209
      -0.386
      -0.448
      -0.327
      -0.027
       0.358
       0.658
       0.718
       0.494
       0.096
      -0.282
      -0.476
      -0.439
      -0.252
      -0.057
       0.027
      -0.025
      -0.145
      -0.239
      -0.255
      -0.217
      -0.182
      -0.178
      -0.186
      -0.163
      -0.090
      -0.001
       0.044
       0.020
      -0.011
       0.063
       0.308
       0.650
       0.905
       0.905
       0.641
       0.267
      -0.024
      -0.144
      -0.145
      -0.134
      -0.160
      -0.202
      -0.240
      -0.304
      -0.431
      -0.587
      -0.676
      -0.609
      -0.383
      -0.081
       0.182
       0.313
       0.272
       0.098
      -0.110
      -0.239
      -0.223
      -0.083
       0.102
       0.258
       0.357
       0.408
       0.432
       0.445
       0.445
       0.401
       0.288
       0.135
       0.032
       0.044
       0.120
       0.121
      -0.042
      -0.321
      -0.574
      -0.689
      -0.645
      -0.479
      -0.251
      -0.038
       0.084
       0.074
      -0.026
      -0.113
      -0.091
       0.062
       0.283
       0.471
       0.528
       0.415
       0.189
      -0.016
      -0.075
       0.018
       0.128
       0.089
      -0.134
      -0.400
      -0.500
      -0.340
      -0.014
       0.265
       0.337
       0.206
       0.011
      -0.109
      -0.127
      -0.113
      -0.139
      -0.197
      -0.232
      -0.211
      -0.153
      -0.100
      -0.079
      -0.082
      -0.074
      -0.025
       0.071
       0.186
       0.289
       0.383
       0.496
       0.622
       0.684
       0.585
       0.295
      -0.089
      -0.395
      -0.492
      -0.380
      -0.181
      -0.043
      -0.042
      -0.169
      -0.390
      -0.676
      -0.978
      -1.190
      -1.188
      -0.911
      -0.409
       0.183
       0.710
       1.059
       1.184
       1.085
       0.787
       0.328
      -0.197
      -0.611
      -0.710
      -0.415
       0.116
       0.556
       0.636
       0.348
      -0.058
      -0.297
      -0.280
      -0.153
      -0.125
      -0.255
      -0.387
      -0.286
       0.143
       0.742
       1.172
       1.146
       0.634
      -0.102
      -0.680
      -0.853
      -0.654
      -0.318
      -0.062
       0.079
       0.210
       0.400
       0.540
       0.419
      -0.060
      -0.715
      -1.153
      -1.060
      -0.462
       0.275
       0.747
       0.846
       0.834
       1.057
       1.568
       1.991
       1.792
       0.738
      -0.852
      -2.283
      -2.965
      -2.797
      -2.150
      -1.512
      -1.100
      -0.768
      -0.246
       0.518
       1.234
       1.491
       1.136
       0.453
      -0.019
       0.117
       0.831
       1.685
       2.112
       1.740
       0.608
      -0.838
      -1.970
      -2.324
      -1.863
      -0.950
      -0.054
       0.566
       0.947
       1.260
       1.579
       1.801
       1.754
       1.353
       0.663
      -0.168
      -1.009
      -1.785
      -2.427
      -2.788
      -2.648
      -1.850
      -0.501
       0.953
       1.928
       2.072
       1.514
       0.749
       0.236
       0.040
      -0.152
      -0.681
      -1.527
      -2.255
      -2.328
      -1.554
      -0.278
       0.843
       1.314
       1.133
       0.725
       0.574
       0.859
       1.387
       1.824
       1.980
       1.876
       1.586
       1.087
       0.282
      -0.814
      -1.966
      -2.814
      -3.044
      -2.498
      -1.198
       0.599
       2.350
       3.361
       3.164
       1.884
       0.183
      -1.202
      -1.946
      -2.194
      -2.241
      -2.194
      -1.945
      -1.382
      -0.572
       0.259
       0.854
       1.042
       0.780
       0.188
      -0.463
      -0.850
      -0.792
      -0.383
       0.092
       0.408
       0.620
       0.982
       1.640
       2.365
       2.624
       1.980
       0.506
      -1.162
      -2.217
      -2.210
      -1.318
      -0.155
       0.665
       0.858
       0.486
      -0.221
      -1.015
      -1.653
      -1.881
      -1.498
      -0.487
       0.923
       2.320
       3.285
       3.541
       3.001
       1.761
       0.079
      -1.657
      -2.989
      -3.494
      -2.928
      -1.362
       0.726
       2.544
       3.317
       2.728
       1.126
      -0.695
      -1.998
      -2.460
      -2.176
      -1.427
      -0.495
       0.366
       0.918
       0.996
       0.608
      -0.040
      -0.619
      -0.828
      -0.519
       0.246
       1.219
       2.050
       2.405
       2.093
       1.154
      -0.137
      -1.369
      -2.158
      -2.304
      -1.878
      -1.158
      -0.457
       0.034
       0.282
       0.334
       0.246
       0.074
      -0.075
      -0.056
       0.207
       0.603
       0.839
       0.626
      -0.085
      -1.017
      -1.704
      -1.767
      -1.147
      -0.133
       0.820
       1.366
       1.451
       1.282
       1.122
       1.087
       1.082
       0.931
       0.595
       0.263
       0.228
       0.589
       1.080
       1.198
       0.600
      -0.582
      -1.788
      -2.433
      -2.318
      -1.722
      -1.117
      -0.795
      -0.699
      -0.573
      -0.254
       0.145
       0.327
       0.088
      -0.465
      -0.959
      -1.027
      -0.583
       0.135
       0.766
       1.080
       1.077
       0.908
       0.722
       0.566
       0.401
       0.170
      -0.114
      -0.356
      -0.427
      -0.258
       0.102
       0.498
       0.752
       0.750
       0.503
       0.139
      -0.149
      -0.221
      -0.098
       0.026
      -0.063
      -0.393
      -0.737
      -0.809
      -0.553
      -0.229
      -0.173
      -0.431
      -0.690
      -0.577
      -0.047
       0.551
       0.786
       0.508
      -0.072
      -0.598
      -0.822
      -0.701
      -0.327
       0.152
       0.593
       0.892
       1.005
       0.935
       0.700
       0.329
      -0.113
      -0.502
      -0.683
      -0.545
      -0.098
       0.506
       1.037
       1.313
       1.287
       1.035
       0.676
       0.299
      -0.034
      -0.259
      -0.325
      -0.240
      -0.071
       0.124
       0.351
       0.632
       0.903
       0.985
       0.714
       0.092
      -0.665
      -1.253
      -1.450
      -1.227
      -0.753
      -0.287
      -0.020
       0.027
      -0.028
      -0.079
      -0.147
      -0.314
      -0.571
      -0.758
      -0.694
      -0.350
       0.117
       0.502
       0.704
       0.735
       0.629
       0.372
      -0.058
      -0.588
      -1.013
      -1.102
      -0.755
      -0.094
       0.607
       1.083
       1.209
       1.004
       0.561
      -0.019
      -0.640
      -1.173
      -1.450
      -1.334
      -0.839
      -0.183
       0.330
       0.511
       0.413
       0.235
       0.105
      -0.032
      -0.312
      -0.750
      -1.140
      -1.172
      -0.683
       0.166
       0.939
       1.226
       0.931
       0.330
      -0.176
      -0.370
      -0.310
      -0.149
       0.092
       0.524
       1.180
       1.825
       2.055
       1.604
       0.603
      -0.479
      -1.134
      -1.139
      -0.648
      -0.026
       0.420
       0.585
       0.525
       0.331
       0.050
      -0.295
      -0.662
      -0.967
      -1.122
      -1.091
      -0.932
      -0.760
      -0.660
      -0.607
      -0.500
      -0.278
      -0.012
       0.142
       0.096
      -0.074
      -0.186
      -0.119
       0.084
       0.270
       0.340
       0.344
       0.414
       0.612
       0.852
       0.980
       0.936
       0.812
       0.745
       0.783
       0.853
       0.857
       0.777
       0.658
       0.532
       0.366
       0.107
      -0.243
      -0.600
      -0.854
      -0.943
      -0.893
      -0.792
      -0.739
      -0.796
      -0.947
      -1.082
      -1.049
      -0.773
      -0.355
      -0.023
       0.037
      -0.168
      -0.436
      -0.537
      -0.380
      -0.065
       0.222
       0.366
       0.405
       0.471
       0.654
       0.895
       1.006
       0.809
       0.289
      -0.354
      -0.805
      -0.839
      -0.476
       0.026
       0.358
       0.392
       0.267
       0.247
       0.480
       0.863
       1.117
       1.009
       0.530
      -0.100
      -0.604
      -0.838
      -0.840
      -0.723
      -0.560
      -0.375
      -0.206
      -0.128
      -0.183
      -0.333
      -0.481
      -0.559
      -0.570
      -0.556
      -0.517
      -0.382
      -0.079
       0.358
       0.740
       0.827
       0.510
      -0.058
      -0.554
      -0.716
      -0.541
      -0.241
      -0.018
       0.125
       0.338
       0.698
       1.052
       1.127
       0.799
       0.259
      -0.114
      -0.056
       0.355
       0.758
       0.801
       0.421
      -0.114
      -0.433
      -0.368
      -0.076
       0.138
       0.126
       0.015
       0.059
       0.359
       0.738
       0.871
       0.570
      -0.053
      -0.676
      -1.026
      -1.074
      -0.997
      -0.967
      -0.986
      -0.914
      -0.625
      -0.122
       0.480
       1.049
       1.495
       1.751
       1.749
       1.437
       0.837
       0.068
      -0.695
      -1.275
      -1.543
      -1.434
      -0.971
      -0.296
       0.338
       0.669
       0.567
       0.129
      -0.380
      -0.693
      -0.700
      -0.486
      -0.238
      -0.103
      -0.109
      -0.182
      -0.232
      -0.232
      -0.237
      -0.329
      -0.527
      -0.739
      -0.804
      -0.617
      -0.222
       0.197
       0.448
       0.463
       0.317
       0.140
       0.008
      -0.075
      -0.128
      -0.138
      -0.074
       0.090
       0.348
       0.668
       0.995
       1.240
       1.303
       1.130
       0.773
       0.396
       0.184
       0.203
       0.330
       0.339
       0.084
      -0.363
      -0.766
      -0.936
