Origin Time       03/10/2012 10:04:34 UTC
Lat.              32.4 N 
Long.             76.3 E 
Depth (Km)          5.0
Magnitude         3.8
 Region           Chamba-DISTT.-HIMACHAL-PRADESH                                   
 Above details taken from IMD 
    
Station Code      CHM
Station Lat.       32.555  N
Station Long.      76.126  E
Station Height(m)  952.0
Site Class        A   Vs30 between 700 m/sec to 1400 m/sec * 
Record Time       03.10.2012 10:03:53.254 UTC
Sampling Rate     200. Hz
 Record Duration   66.985 Sec.
 Direction         N-S (N positive)
Max. Acceleration      4.239 cm/sec**2
     
  * For reference see Site Classification link of website 
     
 Base Line Corrected and Low Pass Filtered (Cut Off at 35 Hz) Time History
 Acceleration data in cm/sec**2
    
[...]
       0.009
       0.002
      -0.001
       0.004
       0.009
       0.010
       0.005
       0.000
      -0.001
       0.007
       0.020
       0.032
       0.035
       0.027
       0.013
       0.000
      -0.005
       0.003
       0.020
       0.035
       0.039
       0.029
       0.014
       0.002
      -0.003
      -0.002
       0.003
       0.012
       0.021
       0.029
       0.032
       0.029
       0.023
       0.015
       0.009
       0.005
       0.002
       0.002
       0.006
       0.010
       0.012
       0.011
       0.010
       0.017
       0.030
       0.036
       0.028
       0.010
      -0.002
       0.002
       0.017
       0.029
       0.028
       0.014
      -0.004
      -0.012
      -0.008
       0.004
       0.012
       0.012
       0.006
       0.002
       0.006
       0.016
       0.024
       0.024
       0.017
       0.010
       0.007
       0.010
       0.016
       0.022
       0.027
       0.029
       0.025
       0.012
      -0.002
      -0.008
       0.003
       0.024
       0.041
       0.045
       0.036
       0.022
       0.013
       0.013
       0.015
       0.011
       0.000
      -0.011
      -0.014
      -0.006
       0.009
       0.025
       0.034
       0.035
       0.027
       0.015
       0.005
      -0.001
      -0.004
      -0.004
      -0.002
       0.002
       0.009
       0.018
       0.026
       0.026
       0.019
       0.007
      -0.001
      -0.002
       0.002
       0.005
       0.005
       0.005
       0.004
       0.004
       0.004
       0.006
       0.010
       0.014
       0.017
       0.021
       0.025
       0.028
       0.026
       0.018
       0.007
      -0.003
      -0.004
       0.005
       0.018
       0.025
       0.019
       0.006
      -0.002
       0.002
       0.016
       0.023
       0.016
       0.000
      -0.009
      -0.007
       0.000
       0.003
       0.000
       0.001
       0.008
       0.017
       0.018
       0.009
      -0.001
      -0.005
      -0.003
      -0.003
      -0.004
      -0.001
       0.009
       0.021
       0.023
       0.010
      -0.009
      -0.017
      -0.009
       0.005
       0.007
      -0.007
      -0.021
      -0.013
       0.020
       0.054
       0.057
       0.024
      -0.020
      -0.043
      -0.037
      -0.020
      -0.015
      -0.024
      -0.028
      -0.010
       0.024
       0.051
       0.054
       0.045
       0.044
       0.052
       0.042
      -0.013
      -0.098
      -0.166
      -0.169
      -0.098
       0.012
       0.109
       0.158
       0.153
       0.109
       0.044
      -0.028
      -0.088
      -0.112
      -0.086
      -0.024
       0.029
       0.034
      -0.010
      -0.063
      -0.083
      -0.060
      -0.016
       0.023
       0.045
       0.057
       0.062
       0.064
       0.062
       0.052
       0.034
       0.010
      -0.014
      -0.035
      -0.054
      -0.065
      -0.064
      -0.055
      -0.043
      -0.022
       0.018
       0.078
       0.133
       0.150
       0.099
      -0.025
      -0.179
      -0.279
      -0.243
      -0.072
       0.142
       0.287
       0.315
       0.258
       0.163
       0.045
      -0.100
      -0.250
      -0.332
      -0.281
      -0.106
       0.087
       0.173
       0.120
       0.012
      -0.035
       0.017
       0.096
       0.103
       0.010
      -0.110
      -0.141
      -0.019
       0.192
       0.340
       0.307
       0.106
      -0.132
      -0.274
      -0.276
      -0.180
      -0.064
       0.019
       0.052
       0.057
       0.073
       0.125
       0.191
       0.206
       0.126
      -0.017
      -0.134
      -0.147
      -0.056
       0.059
       0.096
       0.005
      -0.163
      -0.295
      -0.292
      -0.140
       0.093
       0.298
       0.386
       0.323
       0.157
      -0.015
      -0.098
      -0.065
       0.023
       0.078
       0.052
      -0.024
      -0.074
      -0.056
      -0.002
       0.015
      -0.039
      -0.111
      -0.105
       0.017
       0.187
       0.270
       0.165
      -0.104
      -0.385
      -0.495
      -0.348
      -0.023
       0.306
       0.493
       0.501
       0.383
       0.223
       0.094
       0.023
      -0.002
      -0.012
      -0.021
      -0.028
      -0.037
      -0.071
      -0.149
      -0.257
      -0.347
      -0.365
      -0.283
      -0.119
       0.069
       0.207
       0.256
       0.221
       0.137
       0.038
      -0.039
      -0.053
       0.018
       0.137
       0.227
       0.244
       0.213
       0.175
       0.109
      -0.055
      -0.324
      -0.584
      -0.660
      -0.482
      -0.156
       0.125
       0.248
       0.256
       0.257
       0.283
       0.270
       0.158
      -0.016
      -0.144
      -0.159
      -0.093
      -0.050
      -0.098
      -0.196
      -0.216
      -0.065
       0.207
       0.422
       0.427
       0.219
      -0.064
      -0.266
      -0.325
      -0.276
      -0.176
      -0.058
       0.075
       0.216
       0.328
       0.349
       0.232
       0.005
      -0.221
      -0.318
      -0.225
       0.014
       0.286
       0.453
       0.415
       0.156
      -0.217
      -0.515
      -0.581
      -0.392
      -0.061
       0.252
       0.441
       0.493
       0.446
       0.339
       0.182
      -0.021
      -0.236
      -0.389
      -0.394
      -0.209
       0.096
       0.352
       0.387
       0.163
      -0.177
      -0.397
      -0.340
      -0.047
       0.259
       0.347
       0.153
      -0.176
      -0.398
      -0.361
      -0.103
       0.187
       0.316
       0.237
       0.061
      -0.053
      -0.046
       0.016
       0.025
      -0.050
      -0.131
      -0.107
       0.056
       0.260
       0.351
       0.246
      -0.002
      -0.245
      -0.353
      -0.303
      -0.180
      -0.092
      -0.082
      -0.115
      -0.125
      -0.082
      -0.012
       0.023
      -0.025
      -0.123
      -0.159
      -0.029
       0.243
       0.491
       0.539
       0.349
       0.061
      -0.130
      -0.115
       0.060
       0.254
       0.340
       0.273
       0.091
      -0.124
      -0.291
      -0.359
      -0.317
      -0.189
      -0.007
       0.190
       0.334
       0.333
       0.129
      -0.220
      -0.547
      -0.675
      -0.525
      -0.148
       0.310
       0.674
       0.805
       0.647
       0.259
      -0.195
      -0.511
      -0.559
      -0.374
      -0.122
       0.034
       0.070
       0.088
       0.169
       0.265
       0.252
       0.096
      -0.065
      -0.044
       0.181
       0.402
       0.354
      -0.028
      -0.521
      -0.788
      -0.648
      -0.197
       0.285
       0.540
       0.488
       0.243
      -0.011
      -0.152
      -0.166
      -0.097
       0.007
       0.106
       0.173
       0.203
       0.196
       0.140
       0.016
      -0.162
      -0.330
      -0.394
      -0.298
      -0.074
       0.164
       0.291
       0.250
       0.078
      -0.127
      -0.261
      -0.248
      -0.081
       0.158
       0.332
       0.343
       0.202
       0.007
      -0.144
      -0.206
      -0.184
      -0.099
       0.021
       0.138
       0.205
       0.183
       0.057
      -0.129
      -0.270
      -0.246
      -0.022
       0.295
       0.513
       0.484
       0.219
      -0.117
      -0.328
      -0.330
      -0.189
      -0.045
      -0.008
      -0.093
      -0.242
      -0.362
      -0.374
      -0.254
      -0.060
       0.109
       0.178
       0.146
       0.071
       0.026
       0.053
       0.146
       0.268
       0.372
       0.427
       0.432
       0.397
       0.309
       0.113
      -0.233
      -0.666
      -0.985
      -0.957
      -0.498
       0.220
       0.853
       1.110
       0.937
       0.517
       0.107
      -0.148
      -0.271
      -0.364
      -0.463
      -0.493
      -0.351
      -0.037
       0.307
       0.495
       0.447
       0.235
       0.014
      -0.110
      -0.146
      -0.176
      -0.259
      -0.362
      -0.382
      -0.243
       0.030
       0.315
       0.468
       0.417
       0.187
      -0.125
      -0.401
      -0.556
      -0.559
      -0.429
      -0.200
       0.087
       0.378
       0.588
       0.618
       0.417
       0.039
      -0.349
      -0.561
      -0.506
      -0.237
       0.104
       0.389
       0.550
       0.561
       0.416
       0.147
      -0.156
      -0.363
      -0.380
      -0.222
      -0.012
       0.094
       0.025
      -0.152
      -0.285
      -0.263
      -0.103
       0.077
       0.165
       0.140
       0.076
       0.076
       0.176
       0.305
       0.332
       0.188
      -0.044
      -0.185
      -0.128
       0.044
       0.111
      -0.076
      -0.438
      -0.697
      -0.601
      -0.146
       0.404
       0.723
       0.668
       0.365
       0.058
      -0.094
      -0.095
      -0.050
      -0.042
      -0.067
      -0.055
       0.038
       0.162
       0.194
       0.056
      -0.204
      -0.433
      -0.497
      -0.367
      -0.127
       0.090
       0.183
       0.139
       0.021
      -0.086
      -0.126
      -0.079
       0.052
       0.241
       0.435
       0.565
       0.566
       0.411
       0.139
      -0.153
      -0.365
      -0.451
      -0.437
      -0.365
      -0.244
      -0.057
       0.176
       0.364
       0.404
       0.266
       0.031
      -0.156
      -0.190
      -0.068
       0.122
       0.269
       0.308
       0.244
       0.131
       0.027
      -0.038
      -0.067
      -0.082
      -0.094
      -0.095
      -0.072
      -0.038
      -0.036
      -0.098
      -0.206
      -0.293
      -0.287
      -0.148
       0.106
       0.390
       0.580
       0.584
       0.390
       0.076
      -0.248
      -0.484
      -0.567
      -0.483
      -0.279
      -0.053
       0.087
       0.086
      -0.013
      -0.101
      -0.097
      -0.018
       0.046
       0.028
      -0.052
      -0.105
      -0.071
       0.032
       0.131
       0.175
       0.184
       0.209
       0.274
       0.354
       0.401
       0.391
       0.329
       0.223
       0.072
      -0.117
      -0.307
      -0.434
      -0.438
      -0.306
      -0.086
       0.116
       0.197
       0.121
      -0.045
      -0.174
      -0.174
      -0.056
       0.085
       0.148
       0.112
       0.046
       0.060
       0.205
       0.417
       0.540
       0.439
       0.103
      -0.329
      -0.657
      -0.743
      -0.592
      -0.336
      -0.132
      -0.047
      -0.023
       0.046
       0.195
       0.327
       0.291
       0.040
      -0.290
      -0.460
      -0.321
       0.049
       0.400
       0.508
       0.345
       0.083
      -0.071
      -0.033
       0.117
       0.233
       0.235
       0.153
       0.059
      -0.016
      -0.095
      -0.192
      -0.264
      -0.235
      -0.069
       0.177
       0.383
       0.440
       0.329
       0.138
      -0.014
      -0.070
      -0.077
      -0.112
      -0.191
      -0.235
      -0.158
       0.017
       0.166
       0.172
       0.049
      -0.070
      -0.055
       0.098
       0.265
       0.306
       0.185
      -0.009
      -0.148
      -0.156
      -0.054
       0.079
       0.159
       0.131
      -0.011
      -0.228
      -0.443
      -0.579
      -0.601
      -0.521
      -0.377
      -0.196
       0.007
       0.211
       0.368
       0.417
       0.330
       0.150
      -0.028
      -0.123
      -0.129
      -0.104
      -0.097
      -0.095
      -0.046
       0.066
       0.177
       0.203
       0.127
       0.025
      -0.014
       0.023
       0.072
       0.082
       0.074
       0.112
       0.214
       0.317
       0.324
       0.190
      -0.042
      -0.274
      -0.416
      -0.420
      -0.283
      -0.039
       0.241
       0.446
       0.463
       0.249
      -0.114
      -0.446
      -0.593
      -0.537
      -0.389
      -0.248
      -0.098
       0.149
       0.504
       0.844
       1.016
       1.005
       0.950
       1.005
       1.170
       1.251
       0.982
       0.213
      -0.951
      -2.149
      -2.926
      -2.983
      -2.339
      -1.317
      -0.339
       0.320
       0.649
       0.824
       1.006
       1.198
       1.271
       1.135
       0.878
       0.719
       0.799
       0.993
       0.947
       0.371
      -0.640
      -1.582
      -1.859
      -1.241
      -0.078
       0.900
       1.051
       0.259
      -0.986
      -1.907
      -1.957
      -1.162
      -0.037
       0.840
       1.220
       1.226
       1.078
       0.825
       0.384
      -0.215
      -0.694
      -0.704
      -0.175
       0.533
       0.842
       0.391
      -0.678
      -1.813
      -2.444
      -2.343
      -1.677
      -0.755
       0.263
       1.382
       2.537
       3.414
       3.579
       2.852
       1.527
       0.190
      -0.715
      -1.183
      -1.514
      -1.917
      -2.244
      -2.147
      -1.470
      -0.470
       0.372
       0.758
       0.769
       0.696
       0.713
       0.744
       0.592
       0.182
      -0.353
      -0.760
      -0.833
      -0.513
       0.101
       0.811
       1.386
       1.628
       1.444
       0.912
       0.286
      -0.127
      -0.148
       0.144
       0.449
       0.423
      -0.121
      -1.111
      -2.261
      -3.211
      -3.673
      -3.493
      -2.652
      -1.239
       0.535
       2.326
       3.690
       4.239
       3.825
       2.639
       1.120
      -0.277
      -1.272
      -1.793
      -1.861
      -1.514
      -0.849
      -0.095
       0.424
       0.466
       0.039
      -0.601
      -1.120
      -1.277
      -0.996
      -0.359
       0.437
       1.142
       1.570
       1.701
       1.653
       1.522
       1.255
       0.734
      -0.030
      -0.786
      -1.195
      -1.115
      -0.754
      -0.515
      -0.656
      -1.083
      -1.438
      -1.406
      -0.935
      -0.230
       0.441
       0.938
       1.319
       1.743
       2.279
       2.765
       2.845
       2.228
       0.970
      -0.476
      -1.539
      -1.944
      -1.886
      -1.795
      -1.914
      -2.102
      -2.038
      -1.601
      -0.996
      -0.524
      -0.265
      -0.026
       0.416
       1.065
       1.674
       1.950
       1.776
       1.275
       0.705
       0.273
       0.026
      -0.119
      -0.248
      -0.347
      -0.332
      -0.164
       0.059
       0.164
       0.062
      -0.145
      -0.221
      -0.024
       0.317
       0.469
       0.198
      -0.367
      -0.787
      -0.667
      -0.010
       0.762
       1.133
       0.903
       0.316
      -0.189
      -0.378
      -0.395
      -0.558
      -0.992
      -1.466
      -1.597
      -1.195
      -0.427
       0.334
       0.796
       0.909
       0.813
       0.671
       0.566
       0.493
       0.419
       0.330
       0.231
       0.119
      -0.017
      -0.163
      -0.277
      -0.335
      -0.393
      -0.551
      -0.847
      -1.181
      -1.380
      -1.331
      -1.051
      -0.628
      -0.132
       0.405
       0.941
       1.384
       1.632
       1.632
       1.403
       1.011
       0.559
       0.192
       0.054
       0.180
       0.416
       0.508
       0.292
      -0.170
      -0.665
      -1.005
      -1.137
      -1.102
      -0.937
      -0.632
      -0.188
       0.316
       0.705
       0.778
       0.435
      -0.231
      -0.935
      -1.346
      -1.258
      -0.692
       0.129
       0.897
       1.357
       1.401
       1.089
       0.578
       0.034
      -0.420
      -0.712
      -0.796
      -0.641
      -0.249
       0.309
       0.867
       1.211
       1.194
       0.837
       0.329
      -0.088
      -0.265
      -0.223
      -0.117
      -0.117
      -0.289
      -0.547
      -0.721
      -0.689
      -0.472
      -0.215
      -0.073
      -0.097
      -0.182
      -0.141
       0.137
       0.571
       0.939
       1.049
       0.892
       0.610
       0.319
      -0.005
      -0.443
      -0.960
      -1.340
      -1.339
      -0.896
      -0.196
       0.486
       0.973
       1.233
       1.262
       0.995
       0.390
      -0.420
      -1.101
      -1.340
      -1.101
      -0.672
      -0.433
      -0.550
      -0.868
      -1.065
      -0.922
      -0.478
       0.051
       0.483
       0.799
       1.056
       1.216
       1.107
       0.610
      -0.141
      -0.778
      -0.950
      -0.602
      -0.020
       0.393
       0.421
       0.185
       0.023
       0.206
       0.715
       1.259
       1.514
       1.347
       0.859
       0.239
      -0.388
      -0.977
      -1.464
      -1.693
      -1.473
      -0.755
       0.249
       1.125
       1.490
       1.240
       0.590
      -0.106
      -0.618
      -0.937
      -1.155
      -1.266
      -1.121
      -0.593
       0.217
       0.964
       1.286
       1.081
       0.577
       0.129
      -0.053
      -0.005
       0.107
       0.171
       0.185
       0.167
       0.070
      -0.188
      -0.611
      -1.075
      -1.388
      -1.412
      -1.120
      -0.580
       0.080
       0.694
       1.083
       1.129
       0.854
       0.419
       0.034
      -0.159
      -0.159
      -0.074
      -0.027
      -0.063
      -0.124
      -0.112
       0.017
       0.210
       0.364
       0.418
       0.395
       0.357
       0.333
       0.290
       0.174
      -0.023
      -0.237
      -0.363
      -0.332
      -0.164
       0.036
       0.158
       0.159
       0.065
      -0.080
      -0.268
      -0.513
      -0.793
      -1.001
      -0.988
      -0.671
      -0.121
       0.436
       0.754
       0.730
       0.482
       0.269
       0.295
       0.553
       0.837
       0.920
       0.734
       0.379
      -0.014
      -0.391
      -0.753
      -1.038
      -1.110
      -0.882
      -0.430
       0.047
       0.385
       0.552
       0.604
       0.576
       0.442
       0.167
      -0.211
      -0.576
      -0.790
      -0.780
      -0.578
      -0.283
       0.012
       0.264
       0.470
       0.629
       0.710
       0.671
       0.497
       0.224
      -0.080
      -0.356
      -0.582
      -0.772
      -0.945
      -1.086
      -1.140
      -1.045
      -0.787
      -0.410
       0.025
       0.484
       0.923
       1.228
       1.228
       0.828
       0.155
      -0.472
      -0.741
      -0.572
      -0.154
       0.236
       0.453
       0.546
       0.638
       0.764
       0.846
       0.796
       0.608
       0.363
       0.144
      -0.015
      -0.138
      -0.270
      -0.440
      -0.640
      -0.799
      -0.814
      -0.603
      -0.185
       0.322
       0.761
       1.034
       1.113
       0.997
       0.682
       0.207
      -0.281
      -0.557
      -0.465
      -0.052
       0.449
       0.766
       0.759
       0.470
       0.037
      -0.423
      -0.836
      -1.132
      -1.213
      -1.027
      -0.654
      -0.291
      -0.125
      -0.199
      -0.402
      -0.569
      -0.598
      -0.482
      -0.257
       0.064
       0.497
       1.023
       1.510
       1.744
       1.563
       0.987
       0.215
      -0.507
      -1.011
      -1.236
      -1.178
      -0.875
      -0.430
