Origin Time       11/11/2012 20:23:12
Lat.              32.3 N 
Long.             76.2 E 
Depth (Km)          5.0
Magnitude         4.0
 Region           Chamba-KANGRA-DISTT.-BORDER                                      
 Above details taken from IMD 
   
Station Code      CHM
Station Lat.       32.555
Station Long.      76.126
Station Height(m)  952.0
Site Class        A   Vs30 between 700 m/sec to 1400 m/sec * 
Record Time       11.11.2012 20:22:03.019
Sampling Rate     200. Hz
 Record Duration   70.860 Sec.
 Direction         Vert. (Up positive)
Max. Acceleration     -3.383 cm/sec**2
     
  * For reference see Site Classification link of website 
     
 Base Line Corrected and Low Pass Filtered (Cut Off at 35 Hz) Time History
 Acceleration data in cm/sec**2
    
[...]
      -0.003
      -0.001
       0.003
       0.004
      -0.001
      -0.008
      -0.013
      -0.011
      -0.002
       0.008
       0.011
       0.006
      -0.001
      -0.006
      -0.007
      -0.003
       0.002
       0.005
       0.004
       0.001
       0.000
       0.001
       0.000
      -0.001
       0.000
       0.004
       0.009
       0.012
       0.012
       0.009
       0.008
       0.009
       0.009
       0.007
       0.001
      -0.003
      -0.003
       0.001
       0.003
       0.001
      -0.004
      -0.007
      -0.004
       0.002
       0.008
       0.009
       0.008
       0.006
       0.004
       0.001
      -0.004
      -0.008
      -0.010
      -0.007
      -0.002
       0.002
       0.006
       0.006
       0.005
       0.003
       0.003
       0.004
       0.006
       0.005
       0.002
       0.001
       0.003
       0.008
       0.011
       0.011
       0.005
      -0.001
      -0.004
      -0.003
      -0.001
       0.000
      -0.001
      -0.003
      -0.003
      -0.003
      -0.003
      -0.001
       0.001
      -0.001
      -0.007
      -0.013
      -0.014
      -0.009
      -0.002
       0.005
       0.008
       0.007
       0.002
      -0.003
      -0.006
      -0.003
       0.005
       0.011
       0.011
       0.007
       0.004
       0.004
       0.007
       0.009
       0.009
       0.006
       0.002
      -0.001
      -0.002
       0.001
       0.003
       0.002
      -0.001
      -0.002
       0.000
       0.002
       0.000
      -0.006
      -0.012
      -0.014
      -0.013
      -0.009
      -0.003
       0.005
       0.011
       0.012
       0.007
       0.002
       0.002
       0.007
       0.013
       0.016
       0.014
       0.011
       0.008
       0.008
       0.009
       0.009
       0.007
       0.003
       0.001
       0.002
       0.002
       0.001
       0.000
       0.002
       0.005
       0.007
       0.006
       0.003
       0.002
       0.003
       0.007
       0.012
       0.013
       0.010
       0.005
       0.001
       0.000
       0.001
       0.002
       0.002
      -0.001
      -0.005
      -0.007
      -0.006
      -0.002
       0.000
       0.000
      -0.002
      -0.004
      -0.002
       0.003
       0.008
       0.011
       0.011
       0.008
       0.005
       0.002
       0.003
       0.008
       0.014
       0.019
       0.020
       0.018
       0.013
       0.006
       0.001
       0.000
       0.004
       0.009
       0.011
       0.010
       0.009
       0.006
       0.004
       0.000
      -0.002
       0.000
       0.007
       0.014
       0.016
       0.013
       0.007
       0.005
       0.007
       0.011
       0.013
       0.012
       0.008
       0.002
      -0.003
      -0.005
      -0.003
       0.002
       0.005
       0.006
       0.004
       0.001
      -0.001
       0.001
       0.006
       0.011
       0.015
       0.020
       0.024
       0.022
       0.013
       0.001
      -0.006
      -0.001
       0.011
       0.022
       0.023
       0.017
       0.009
       0.005
       0.004
       0.005
       0.006
       0.005
       0.005
       0.005
       0.005
       0.004
       0.003
       0.003
       0.003
       0.004
       0.004
       0.005
       0.008
       0.011
       0.014
       0.015
       0.014
       0.014
       0.014
       0.014
       0.015
       0.015
       0.015
       0.015
       0.016
       0.017
       0.017
       0.012
       0.006
       0.000
      -0.002
      -0.001
       0.004
       0.010
       0.013
       0.012
       0.007
       0.002
       0.000
       0.003
       0.009
       0.015
       0.016
       0.013
       0.008
       0.005
       0.004
       0.006
       0.009
       0.011
       0.013
       0.014
       0.015
       0.017
       0.016
       0.012
       0.005
       0.000
      -0.002
      -0.001
       0.003
       0.009
       0.016
       0.018
       0.016
       0.010
       0.004
       0.002
       0.002
       0.001
      -0.002
      -0.005
      -0.007
      -0.005
       0.000
       0.006
       0.009
       0.007
       0.004
       0.002
       0.003
       0.005
       0.005
       0.002
      -0.002
      -0.004
      -0.002
       0.001
       0.004
       0.004
       0.001
      -0.002
      -0.004
      -0.004
      -0.002
       0.000
       0.001
      -0.001
      -0.005
      -0.007
      -0.006
      -0.001
       0.004
       0.007
       0.007
       0.004
       0.003
       0.004
       0.005
       0.004
      -0.001
      -0.004
       0.000
       0.009
       0.016
       0.017
       0.012
       0.006
       0.005
       0.007
       0.008
       0.007
       0.002
      -0.003
      -0.005
      -0.004
      -0.005
      -0.009
      -0.013
      -0.013
      -0.007
       0.001
       0.005
       0.003
      -0.003
      -0.007
      -0.006
       0.001
       0.011
       0.018
       0.017
       0.010
       0.002
      -0.003
      -0.003
       0.001
       0.005
       0.008
       0.009
       0.009
       0.007
       0.004
       0.000
      -0.002
      -0.002
      -0.002
      -0.001
       0.001
       0.004
       0.006
       0.006
       0.003
      -0.001
      -0.001
       0.002
       0.006
       0.007
       0.005
       0.005
       0.008
       0.015
       0.021
       0.021
       0.018
       0.012
       0.007
       0.002
      -0.002
      -0.002
       0.001
       0.006
       0.011
       0.012
       0.007
       0.001
      -0.001
       0.003
       0.010
       0.013
       0.011
       0.008
       0.009
       0.013
       0.013
       0.007
      -0.002
      -0.006
      -0.002
       0.005
       0.012
       0.013
       0.009
       0.005
       0.001
       0.001
       0.002
       0.005
       0.005
       0.004
       0.002
      -0.001
      -0.004
      -0.006
      -0.007
      -0.007
      -0.004
       0.003
       0.011
       0.016
       0.017
       0.015
       0.012
       0.011
       0.013
       0.017
       0.019
       0.018
       0.013
       0.007
       0.004
       0.006
       0.012
       0.015
       0.014
       0.009
       0.006
       0.006
       0.008
       0.009
       0.006
       0.001
      -0.001
       0.000
       0.002
       0.004
       0.004
       0.002
       0.001
       0.001
       0.000
      -0.001
      -0.002
       0.001
       0.006
       0.011
       0.014
       0.016
       0.015
       0.012
       0.006
      -0.001
      -0.003
       0.003
       0.011
       0.014
       0.012
       0.008
       0.006
       0.008
       0.011
       0.012
       0.011
       0.011
       0.014
       0.018
       0.018
       0.013
       0.005
      -0.004
      -0.007
      -0.003
       0.005
       0.011
       0.011
       0.006
       0.000
      -0.006
      -0.011
      -0.013
      -0.010
      -0.002
       0.007
       0.011
       0.010
       0.007
       0.005
       0.004
       0.002
      -0.001
      -0.004
      -0.004
      -0.001
       0.003
       0.008
       0.010
       0.009
       0.005
       0.004
       0.005
       0.004
      -0.002
      -0.011
      -0.015
      -0.013
      -0.008
      -0.003
       0.000
       0.001
       0.004
       0.008
       0.012
       0.013
       0.009
       0.001
      -0.009
      -0.016
      -0.015
      -0.009
      -0.004
      -0.003
      -0.005
      -0.005
      -0.002
       0.001
       0.002
       0.001
       0.002
       0.002
      -0.001
      -0.008
      -0.013
      -0.012
      -0.005
       0.001
       0.001
      -0.006
      -0.013
      -0.015
      -0.011
      -0.004
       0.000
      -0.002
      -0.007
      -0.009
      -0.004
       0.003
       0.007
       0.005
      -0.002
      -0.006
      -0.005
       0.001
       0.004
       0.003
      -0.002
      -0.005
      -0.004
       0.000
       0.004
       0.007
       0.009
       0.010
       0.010
       0.007
       0.003
       0.000
       0.000
       0.004
       0.010
       0.012
       0.010
       0.004
      -0.001
      -0.001
       0.000
      -0.001
      -0.005
      -0.010
      -0.011
      -0.006
       0.002
       0.011
       0.016
       0.015
       0.008
      -0.001
      -0.004
      -0.002
       0.002
       0.004
       0.004
       0.003
       0.001
      -0.004
      -0.010
      -0.015
      -0.012
      -0.004
       0.005
       0.009
       0.005
      -0.002
      -0.006
      -0.006
      -0.003
       0.003
       0.007
       0.009
       0.008
       0.007
       0.007
       0.008
       0.008
       0.006
       0.004
       0.001
      -0.001
      -0.004
      -0.006
      -0.006
      -0.004
       0.000
       0.006
       0.011
       0.014
       0.013
       0.010
       0.006
       0.001
      -0.005
      -0.011
      -0.014
      -0.012
      -0.004
       0.004
       0.007
       0.001
      -0.010
      -0.017
      -0.014
      -0.003
       0.008
       0.012
       0.008
       0.002
      -0.001
       0.000
       0.002
       0.002
       0.001
       0.002
       0.006
       0.011
       0.012
       0.008
       0.002
       0.000
       0.003
       0.009
       0.013
       0.011
       0.006
       0.000
      -0.005
      -0.011
      -0.017
      -0.018
      -0.013
      -0.003
       0.007
       0.014
       0.015
       0.009
       0.003
       0.000
       0.002
       0.003
       0.000
      -0.007
      -0.009
      -0.004
       0.007
       0.019
       0.025
       0.021
       0.010
      -0.002
      -0.010
      -0.010
       0.000
       0.011
       0.016
       0.010
      -0.001
      -0.010
      -0.011
      -0.005
       0.004
       0.010
       0.012
       0.010
       0.006
       0.001
      -0.001
       0.002
       0.007
       0.013
       0.014
       0.009
       0.003
       0.001
       0.006
       0.014
       0.017
       0.012
       0.004
      -0.001
       0.001
       0.009
       0.014
       0.014
       0.009
       0.006
       0.007
       0.012
       0.016
       0.017
       0.016
       0.013
       0.007
      -0.002
      -0.015
      -0.031
      -0.043
      -0.052
      -0.058
      -0.061
      -0.059
      -0.049
      -0.032
      -0.013
       0.004
       0.018
       0.031
       0.047
       0.070
       0.097
       0.120
       0.132
       0.129
       0.109
       0.075
       0.022
      -0.051
      -0.135
      -0.210
      -0.248
      -0.224
      -0.136
      -0.016
       0.088
       0.134
       0.108
       0.029
      -0.071
      -0.158
      -0.206
      -0.192
      -0.114
       0.013
       0.159
       0.290
       0.378
       0.397
       0.327
       0.181
       0.006
      -0.130
      -0.182
      -0.143
      -0.042
       0.069
       0.126
       0.092
      -0.018
      -0.149
      -0.242
      -0.277
      -0.259
      -0.194
      -0.079
       0.071
       0.215
       0.304
       0.318
       0.275
       0.196
       0.088
      -0.046
      -0.169
      -0.208
      -0.130
       0.010
       0.102
       0.081
      -0.017
      -0.102
      -0.118
      -0.074
      -0.007
       0.056
       0.102
       0.128
       0.147
       0.152
       0.101
      -0.070
      -0.348
      -0.609
      -0.685
      -0.500
      -0.139
       0.225
       0.462
       0.550
       0.542
       0.482
       0.369
       0.191
      -0.023
      -0.191
      -0.239
      -0.163
      -0.039
       0.037
       0.020
      -0.071
      -0.181
      -0.267
      -0.290
      -0.211
      -0.026
       0.192
       0.319
       0.283
       0.127
      -0.026
      -0.084
      -0.044
       0.020
       0.045
       0.040
       0.087
       0.248
       0.454
       0.515
       0.284
      -0.174
      -0.602
      -0.759
      -0.615
      -0.335
      -0.110
       0.007
       0.088
       0.201
       0.332
       0.406
       0.365
       0.208
      -0.016
      -0.214
      -0.274
      -0.144
       0.100
       0.287
       0.273
       0.062
      -0.205
      -0.358
      -0.314
      -0.120
       0.100
       0.240
       0.271
       0.240
       0.209
       0.194
       0.161
       0.063
      -0.102
      -0.274
      -0.359
      -0.298
      -0.119
       0.078
       0.182
       0.146
       0.007
      -0.135
      -0.181
      -0.102
       0.023
       0.060
      -0.057
      -0.243
      -0.334
      -0.237
      -0.006
       0.215
       0.314
       0.280
       0.185
       0.116
       0.097
       0.079
      -0.003
      -0.151
      -0.292
      -0.341
      -0.258
      -0.057
       0.200
       0.395
       0.409
       0.231
       0.012
      -0.039
       0.128
       0.342
       0.375
       0.179
      -0.071
      -0.170
      -0.080
       0.058
       0.086
      -0.025
      -0.177
      -0.248
      -0.179
       0.012
       0.248
       0.427
       0.484
       0.432
       0.336
       0.231
       0.085
      -0.151
      -0.463
      -0.776
      -1.016
      -1.142
      -1.130
      -0.957
      -0.638
      -0.228
       0.221
       0.704
       1.206
       1.606
       1.686
       1.271
       0.396
      -0.678
      -1.595
      -2.059
      -1.952
      -1.362
      -0.541
       0.214
       0.709
       0.933
       1.013
       1.093
       1.223
       1.354
       1.395
       1.280
       0.966
       0.392
      -0.493
      -1.628
      -2.735
      -3.383
      -3.208
      -2.138
      -0.465
       1.272
       2.514
       2.920
       2.495
       1.547
       0.502
      -0.302
      -0.703
      -0.700
      -0.386
       0.094
       0.567
       0.847
       0.776
       0.318
      -0.371
      -0.969
      -1.168
      -0.889
      -0.368
      -0.004
      -0.070
      -0.496
      -0.924
      -0.991
      -0.616
      -0.033
       0.457
       0.753
       0.975
       1.250
       1.525
       1.598
       1.323
       0.748
       0.086
      -0.425
      -0.672
      -0.718
      -0.742
      -0.887
      -1.128
      -1.280
      -1.167
      -0.806
      -0.406
      -0.181
      -0.145
      -0.093
       0.196
       0.731
       1.239
       1.358
       0.918
       0.100
      -0.652
      -0.918
      -0.593
       0.044
       0.536
       0.584
       0.250
      -0.137
      -0.276
      -0.127
       0.103
       0.185
       0.093
       0.012
       0.135
       0.427
       0.614
       0.410
      -0.199
      -0.884
      -1.179
      -0.826
       0.016
       0.847
       1.154
       0.744
      -0.142
      -1.015
      -1.452
      -1.334
      -0.836
      -0.245
       0.256
       0.651
       1.001
       1.300
       1.420
       1.215
       0.664
      -0.048
      -0.630
      -0.868
      -0.781
      -0.597
      -0.560
      -0.719
      -0.878
      -0.756
      -0.218
       0.591
       1.334
       1.684
       1.510
       0.919
       0.176
      -0.430
      -0.725
      -0.718
      -0.553
      -0.376
      -0.218
      -0.015
       0.261
       0.525
       0.634
       0.523
       0.268
       0.027
      -0.068
       0.002
       0.137
       0.170
      -0.037
      -0.492
      -1.031
      -1.394
      -1.392
      -1.032
      -0.500
      -0.013
       0.319
       0.524
       0.696
       0.887
       1.032
       0.988
       0.654
       0.091
      -0.484
      -0.844
      -0.903
      -0.768
      -0.632
      -0.615
      -0.658
      -0.572
      -0.204
       0.419
       1.077
       1.496
       1.512
       1.167
       0.663
       0.223
      -0.056
      -0.235
      -0.424
      -0.628
      -0.723
      -0.577
      -0.204
       0.201
       0.404
       0.304
       0.000
      -0.301
      -0.431
      -0.366
      -0.212
      -0.107
      -0.128
      -0.246
      -0.351
      -0.313
      -0.063
       0.350
       0.763
       0.981
       0.897
       0.563
       0.163
      -0.125
      -0.255
      -0.330
      -0.462
      -0.634
      -0.707
      -0.567
      -0.259
       0.037
       0.133
      -0.023
      -0.303
      -0.459
      -0.286
       0.201
       0.742
       1.003
       0.828
       0.364
      -0.062
      -0.207
      -0.090
       0.053
      -0.002
      -0.256
      -0.482
      -0.437
      -0.102
       0.270
       0.368
       0.099
      -0.331
      -0.582
      -0.461
      -0.056
       0.345
       0.491
       0.354
       0.126
       0.035
       0.143
       0.298
       0.271
      -0.032
      -0.470
      -0.772
      -0.741
      -0.408
      -0.008
       0.215
       0.200
       0.114
       0.192
       0.531
       0.997
       1.322
       1.295
       0.893
       0.265
      -0.372
      -0.844
      -1.089
      -1.153
      -1.116
      -1.006
      -0.773
      -0.356
       0.208
       0.741
       1.020
       0.928
       0.543
       0.088
      -0.223
      -0.315
      -0.274
      -0.235
      -0.262
      -0.296
      -0.238
      -0.063
       0.138
       0.237
       0.194
       0.101
       0.095
       0.222
       0.387
       0.441
       0.299
      -0.013
      -0.382
      -0.664
      -0.741
      -0.570
      -0.218
       0.171
       0.471
       0.635
       0.690
       0.664
       0.542
       0.289
      -0.091
      -0.501
      -0.772
      -0.754
      -0.429
       0.046
       0.417
       0.493
       0.268
      -0.096
      -0.393
      -0.505
      -0.445
      -0.301
      -0.147
       0.000
       0.167
       0.360
       0.518
       0.527
       0.312
      -0.064
      -0.403
      -0.488
      -0.253
       0.159
       0.492
       0.564
       0.381
       0.109
      -0.081
      -0.152
      -0.188
      -0.275
      -0.377
      -0.354
      -0.101
       0.327
       0.723
       0.861
       0.656
       0.224
      -0.212
      -0.496
      -0.630
      -0.709
      -0.777
      -0.768
      -0.595
      -0.266
       0.107
       0.391
       0.522
       0.508
       0.395
       0.226
       0.037
      -0.128
      -0.226
      -0.232
      -0.159
      -0.045
       0.064
       0.142
       0.191
       0.220
       0.213
       0.129
      -0.057
      -0.291
      -0.441
      -0.381
      -0.098
       0.275
       0.535
       0.551
       0.341
       0.044
      -0.195
      -0.315
      -0.342
      -0.312
      -0.217
      -0.029
       0.232
       0.458
       0.510
       0.317
      -0.053
      -0.420
      -0.595
      -0.498
      -0.192
       0.168
       0.437
       0.553
       0.535
       0.433
       0.278
       0.086
      -0.108
      -0.235
      -0.238
      -0.130
      -0.006
       0.014
      -0.135
      -0.408
      -0.668
      -0.771
      -0.652
      -0.356
       0.025
       0.400
       0.701
       0.864
       0.840
       0.634
       0.325
       0.031
      -0.157
      -0.213
      -0.178
      -0.126
      -0.118
      -0.162
      -0.231
      -0.292
      -0.333
      -0.346
      -0.310
      -0.197
      -0.004
       0.230
       0.439
       0.540
       0.472
       0.232
      -0.097
      -0.383
      -0.519
      -0.478
      -0.310
      -0.102
       0.066
       0.152
       0.158
       0.119
       0.081
       0.067
       0.081
