Origin Time       02/10/2012 03:45:28
Lat.              32.4 N 
Long.             76.4 E 
Depth (Km)         10.0
Magnitude         4.5
 Region           Chamba-DISTT.-HIMACHAL                                           
 Above details taken from IMD 
   
Station Code      CHM
Station Lat.       32.555
Station Long.      76.126
Station Height(m)  952.0
Site Class        A   Vs30 between 700 m/sec to 1400 m/sec * 
Record Time       02.10.2012 03:44:44.174
Sampling Rate     200. Hz
 Record Duration   73.970 Sec.
 Direction         Vert. (Up positive)
Max. Acceleration     -5.974 cm/sec**2
     
  * For reference see Site Classification link of website 
     
 Base Line Corrected and Low Pass Filtered (Cut Off at 35 Hz) Time History
 Acceleration data in cm/sec**2
    
[...]
       0.007
       0.008
       0.005
       0.002
      -0.001
       0.000
       0.004
       0.009
       0.013
       0.012
       0.007
      -0.001
      -0.006
      -0.006
      -0.003
      -0.003
      -0.005
      -0.006
      -0.004
       0.001
       0.007
       0.008
       0.002
      -0.009
      -0.019
      -0.020
      -0.012
       0.001
       0.009
       0.008
       0.001
      -0.007
      -0.012
      -0.015
      -0.015
      -0.012
      -0.008
      -0.005
      -0.004
      -0.001
       0.005
       0.009
       0.008
      -0.002
      -0.014
      -0.020
      -0.015
      -0.001
       0.013
       0.018
       0.013
       0.003
      -0.005
      -0.006
      -0.003
       0.001
       0.002
       0.000
      -0.002
      -0.003
      -0.002
      -0.002
      -0.004
      -0.007
      -0.011
      -0.013
      -0.012
      -0.008
       0.000
       0.010
       0.018
       0.018
       0.012
       0.003
      -0.003
      -0.002
       0.003
       0.006
       0.007
       0.008
       0.012
       0.017
       0.019
       0.012
       0.000
      -0.011
      -0.017
      -0.015
      -0.009
      -0.003
       0.000
       0.000
      -0.003
      -0.007
      -0.009
      -0.005
       0.003
       0.009
       0.008
       0.000
      -0.008
      -0.007
       0.003
       0.012
       0.012
       0.002
      -0.009
      -0.011
      -0.007
      -0.003
      -0.003
      -0.003
       0.000
       0.004
       0.004
      -0.001
      -0.007
      -0.009
      -0.008
      -0.008
      -0.011
      -0.013
      -0.008
       0.002
       0.010
       0.009
       0.000
      -0.013
      -0.024
      -0.029
      -0.034
      -0.040
      -0.048
      -0.053
      -0.055
      -0.055
      -0.054
      -0.051
      -0.041
      -0.025
      -0.010
       0.002
       0.020
       0.052
       0.095
       0.132
       0.140
       0.115
       0.082
       0.067
       0.078
       0.099
       0.115
       0.136
       0.171
       0.202
       0.187
       0.100
      -0.033
      -0.152
      -0.218
      -0.236
      -0.233
      -0.206
      -0.131
      -0.020
       0.057
       0.029
      -0.088
      -0.197
      -0.220
      -0.176
      -0.137
      -0.117
      -0.051
       0.117
       0.328
       0.452
       0.409
       0.246
       0.069
      -0.058
      -0.123
      -0.128
      -0.086
      -0.048
      -0.068
      -0.136
      -0.201
      -0.260
      -0.384
      -0.592
      -0.742
      -0.623
      -0.172
       0.426
       0.890
       1.079
       1.066
       0.963
       0.744
       0.309
      -0.295
      -0.803
      -0.957
      -0.748
      -0.400
      -0.126
       0.014
       0.069
       0.084
       0.067
       0.013
      -0.066
      -0.107
      -0.008
       0.276
       0.619
       0.762
       0.536
       0.046
      -0.387
      -0.510
      -0.366
      -0.225
      -0.281
      -0.445
      -0.445
      -0.121
       0.401
       0.805
       0.851
       0.543
       0.092
      -0.287
      -0.512
      -0.629
      -0.688
      -0.659
      -0.444
       0.023
       0.659
       1.188
       1.259
       0.702
      -0.276
      -1.167
      -1.503
      -1.170
      -0.420
       0.371
       0.932
       1.116
       0.855
       0.189
      -0.641
      -1.260
      -1.389
      -1.016
      -0.310
       0.572
       1.468
       2.064
       1.960
       1.055
      -0.195
      -1.042
      -1.074
      -0.563
      -0.140
      -0.164
      -0.454
      -0.588
      -0.367
       0.069
       0.444
       0.584
       0.486
       0.299
       0.216
       0.286
       0.293
      -0.043
      -0.681
      -1.155
      -0.983
      -0.169
       0.749
       1.177
       0.951
       0.374
      -0.157
      -0.521
      -0.857
      -1.225
      -1.405
      -1.101
      -0.300
       0.672
       1.452
       1.889
       1.950
       1.530
       0.536
      -0.864
      -2.202
      -2.974
      -2.897
      -1.949
      -0.318
       1.581
       3.132
       3.767
       3.316
       2.111
       0.693
      -0.577
      -1.583
      -2.205
      -2.199
      -1.454
      -0.282
       0.701
       1.031
       0.710
       0.076
      -0.498
      -0.757
      -0.573
      -0.022
       0.526
       0.540
      -0.240
      -1.433
      -2.187
      -1.906
      -0.895
      -0.152
      -0.338
      -0.964
      -0.804
       0.767
       2.955
       4.203
       3.636
       1.751
      -0.238
      -1.517
      -2.109
      -2.424
      -2.604
      -2.350
      -1.314
       0.392
       2.075
       2.931
       2.682
       1.766
       0.848
       0.213
      -0.282
      -0.735
      -0.886
      -0.390
       0.653
       1.563
       1.550
       0.403
      -1.217
      -2.242
      -2.091
      -1.180
      -0.481
      -0.520
      -0.850
      -0.586
       0.568
       1.909
       2.387
       1.599
       0.110
      -1.148
      -1.687
      -1.679
      -1.533
      -1.407
      -1.150
      -0.603
       0.185
       1.009
       1.711
       2.221
       2.399
       1.929
       0.572
      -1.377
      -2.997
      -3.323
      -2.164
      -0.317
       1.114
       1.639
       1.660
       1.885
       2.509
       2.974
       2.515
       0.938
      -1.098
      -2.554
      -2.810
      -2.107
      -1.268
      -0.937
      -1.063
      -1.110
      -0.736
      -0.113
       0.449
       0.984
       1.749
       2.666
       3.127
       2.529
       0.932
      -0.919
      -2.257
      -2.887
      -3.125
      -3.252
      -3.130
      -2.374
      -0.832
       1.140
       2.835
       3.606
       3.226
       1.996
       0.575
      -0.388
      -0.597
      -0.199
       0.409
       0.840
       0.864
       0.432
      -0.311
      -1.045
      -1.406
      -1.223
      -0.637
       0.017
       0.493
       0.813
       1.158
       1.568
       1.739
       1.172
      -0.372
      -2.466
      -4.074
      -4.134
      -2.288
       0.707
       3.264
       3.922
       2.413
      -0.044
      -1.706
      -1.784
      -1.011
      -0.703
      -1.323
      -2.059
      -1.758
      -0.130
       1.912
       2.958
       2.157
      -0.098
      -2.304
      -2.806
      -1.032
       1.977
       4.304
       4.655
       3.266
       1.430
       0.184
      -0.486
      -1.269
      -2.547
      -3.887
      -4.377
      -3.390
      -1.087
       1.616
       3.557
       3.980
       2.943
       1.217
      -0.286
      -1.108
      -1.381
      -1.435
      -1.358
      -1.009
      -0.402
       0.120
       0.200
      -0.120
      -0.452
      -0.472
      -0.192
       0.160
       0.400
       0.533
       0.705
       1.025
       1.333
       1.211
       0.388
      -0.800
      -1.505
      -1.076
       0.292
       1.671
       2.135
       1.416
      -0.028
      -1.443
      -2.273
      -2.410
      -2.104
      -1.627
      -1.007
      -0.097
       1.058
       1.980
       1.994
       0.850
      -0.851
      -1.920
      -1.437
       0.442
       2.480
       3.267
       2.300
       0.312
      -1.431
      -2.142
      -1.934
      -1.438
      -1.112
      -0.886
      -0.376
       0.581
       1.620
       2.045
       1.409
      -0.055
      -1.495
      -1.962
      -1.037
       0.823
       2.487
       2.862
       1.678
      -0.278
      -1.784
      -2.146
      -1.663
      -1.183
      -1.214
      -1.467
      -1.213
      -0.051
       1.673
       3.065
       3.284
       2.086
       0.036
      -1.736
      -2.191
      -1.110
       0.689
       1.946
       1.935
       0.961
      -0.056
      -0.458
      -0.344
      -0.300
      -0.742
      -1.473
      -1.826
      -1.224
       0.249
       1.748
       2.214
       1.202
      -0.680
      -2.147
      -2.183
      -0.791
       1.025
       2.042
       1.707
       0.444
      -0.824
      -1.475
      -1.581
      -1.619
      -1.871
      -2.122
      -1.904
      -0.962
       0.503
       1.999
       3.057
       3.442
       3.175
       2.461
       1.559
       0.641
      -0.238
      -1.018
      -1.527
      -1.599
      -1.278
      -0.800
      -0.352
       0.079
       0.522
       0.791
       0.576
      -0.212
      -1.252
      -2.019
      -2.162
      -1.669
      -0.752
       0.346
       1.403
       2.182
       2.474
       2.232
       1.608
       0.794
      -0.129
      -1.130
      -2.008
      -2.353
      -1.800
      -0.401
       1.261
       2.333
       2.187
       0.835
      -1.027
      -2.416
      -2.701
      -2.001
      -1.018
      -0.402
      -0.220
       0.019
       0.796
       2.006
       2.892
       2.618
       1.006
      -1.186
      -2.750
      -2.884
      -1.699
      -0.009
       1.321
       1.882
       1.783
       1.398
       1.060
       0.873
       0.708
       0.354
      -0.248
      -0.885
      -1.189
      -0.958
      -0.409
      -0.097
      -0.488
      -1.526
      -2.584
      -2.877
      -2.002
      -0.222
       1.685
       2.870
       2.918
       2.108
       1.196
       0.814
       0.953
       1.054
       0.635
      -0.204
      -0.935
      -1.184
      -1.058
      -0.914
      -0.928
      -0.987
      -0.911
      -0.635
      -0.215
       0.217
       0.472
       0.407
       0.096
      -0.180
      -0.181
       0.074
       0.392
       0.618
       0.688
       0.529
       0.077
      -0.542
      -0.978
      -0.938
      -0.499
      -0.048
       0.124
       0.087
       0.115
       0.336
       0.622
       0.779
       0.742
       0.567
       0.321
       0.054
      -0.160
      -0.240
      -0.172
      -0.060
      -0.044
      -0.157
      -0.286
      -0.316
      -0.277
      -0.317
      -0.493
      -0.646
      -0.537
      -0.085
       0.553
       1.113
       1.381
       1.248
       0.714
      -0.083
      -0.873
      -1.370
      -1.426
      -1.080
      -0.465
       0.294
       1.066
       1.635
       1.732
       1.222
       0.266
      -0.754
      -1.483
      -1.774
      -1.699
      -1.421
      -1.068
      -0.663
      -0.156
       0.453
       1.007
       1.256
       1.085
       0.653
       0.261
       0.103
       0.173
       0.374
       0.637
       0.900
       1.057
       1.002
       0.727
       0.325
      -0.095
      -0.473
      -0.771
      -0.906
      -0.780
      -0.404
       0.017
       0.201
       0.059
      -0.192
      -0.231
       0.019
       0.258
       0.061
      -0.732
      -1.796
      -2.481
      -2.255
      -1.127
       0.320
       1.361
       1.657
       1.433
       1.184
       1.204
       1.350
       1.219
       0.570
      -0.358
      -0.960
      -0.763
       0.111
       0.965
       1.066
       0.245
      -0.982
      -1.846
      -1.911
      -1.323
      -0.602
      -0.206
      -0.205
      -0.263
       0.067
       0.908
       1.827
       2.122
       1.448
       0.237
      -0.581
      -0.379
       0.599
       1.449
       1.429
       0.600
      -0.286
      -0.524
      -0.111
       0.294
       0.038
      -0.881
      -1.791
      -1.954
      -1.203
      -0.047
       0.780
       0.872
       0.363
      -0.252
      -0.503
      -0.274
       0.128
       0.253
      -0.036
      -0.396
      -0.365
       0.095
       0.484
       0.220
      -0.789
      -1.993
      -2.590
      -2.113
      -0.753
       0.820
       1.957
       2.405
       2.288
       1.825
       1.160
       0.389
      -0.364
      -0.964
      -1.303
      -1.308
      -0.997
      -0.526
      -0.145
      -0.022
      -0.139
      -0.344
      -0.483
      -0.481
      -0.336
      -0.085
       0.221
       0.534
       0.787
       0.860
       0.612
       0.022
      -0.687
      -1.124
      -1.030
      -0.507
       0.060
       0.306
       0.127
      -0.334
      -0.840
      -1.158
      -1.089
      -0.501
       0.561
       1.774
       2.623
       2.692
       2.002
       1.083
       0.653
       1.066
       1.997
       2.672
       2.466
       1.364
      -0.109
      -1.340
      -2.014
      -2.190
      -2.158
      -2.242
      -2.602
      -3.038
      -3.009
      -1.997
      -0.015
       2.218
       3.655
       3.590
       2.121
       0.089
      -1.425
      -1.761
      -1.084
      -0.265
      -0.247
      -1.307
      -2.749
      -3.369
      -2.401
      -0.202
       1.974
       2.987
       2.680
       1.832
       1.318
       1.348
       1.479
       1.215
       0.529
      -0.158
      -0.412
      -0.187
       0.139
       0.109
      -0.411
      -1.097
      -1.415
      -1.071
      -0.266
       0.449
       0.625
       0.247
      -0.342
      -0.791
      -1.008
      -1.111
      -1.217
      -1.324
      -1.360
      -1.253
      -0.949
      -0.403
       0.394
       1.391
       2.440
       3.262
       3.500
       2.938
       1.747
       0.459
      -0.448
      -0.963
      -1.478
      -2.253
      -2.967
      -2.893
      -1.577
       0.608
       2.576
       3.225
       2.184
       0.086
      -1.844
      -2.575
      -1.877
      -0.314
       1.286
       2.364
       2.769
       2.551
       1.740
       0.358
      -1.393
      -2.981
      -3.654
      -2.885
      -0.850
       1.541
       3.221
       3.654
       3.017
       1.775
       0.198
      -1.671
      -3.680
      -5.335
      -5.974
      -5.192
      -3.137
      -0.462
       2.008
       3.637
       4.167
       3.709
       2.637
       1.446
       0.584
       0.300
       0.560
       1.086
       1.492
       1.473
       0.950
       0.058
      -1.004
      -2.091
      -3.043
      -3.567
      -3.292
      -2.061
      -0.208
       1.487
       2.209
       1.640
       0.227
      -1.068
      -1.391
      -0.524
       1.069
       2.628
       3.522
       3.458
       2.466
       0.818
      -1.056
      -2.665
      -3.589
      -3.625
      -2.859
      -1.610
      -0.260
       0.908
       1.760
       2.238
       2.282
       1.829
       0.889
      -0.391
      -1.724
      -2.761
      -3.198
      -2.874
      -1.852
      -0.435
       0.952
       1.959
       2.459
       2.483
       2.076
       1.261
       0.195
      -0.739
      -1.100
      -0.690
       0.308
       1.464
       2.359
       2.746
       2.548
       1.765
       0.453
      -1.195
      -2.810
      -3.975
      -4.454
      -4.267
      -3.586
      -2.586
      -1.425
      -0.273
       0.701
       1.385
       1.763
       1.920
       2.008
       2.142
       2.293
       2.285
       1.957
       1.330
       0.620
       0.067
      -0.260
      -0.525
      -0.965
      -1.621
      -2.221
      -2.364
      -1.880
      -1.009
      -0.223
       0.154
       0.196
       0.295
       0.799
       1.668
       2.464
       2.703
       2.246
       1.330
       0.273
      -0.765
      -1.718
      -2.439
      -2.691
      -2.288
      -1.210
       0.370
       2.090
       3.414
       3.783
       2.885
       0.887
      -1.583
      -3.676
      -4.683
      -4.320
      -2.843
      -0.905
       0.789
       1.832
       2.276
       2.472
       2.686
       2.815
       2.469
       1.373
      -0.284
      -1.904
      -2.859
      -2.834
      -1.927
      -0.542
       0.771
       1.519
       1.501
       0.911
       0.204
      -0.257
      -0.440
      -0.587
      -0.904
      -1.327
      -1.561
      -1.347
      -0.678
       0.196
       0.942
       1.339
       1.387
       1.258
       1.114
       0.949
       0.631
       0.109
      -0.439
      -0.702
      -0.478
       0.158
       0.861
       1.205
       0.960
       0.262
      -0.508
      -1.058
      -1.416
      -1.786
      -2.201
      -2.365
      -1.876
      -0.632
       0.963
       2.206
       2.581
       2.114
       1.287
       0.575
       0.078
      -0.425
      -1.081
      -1.725
      -2.011
      -1.721
      -0.876
       0.360
       1.745
       2.902
       3.335
       2.706
       1.200
      -0.437
      -1.349
      -1.195
      -0.393
       0.274
       0.325
      -0.099
      -0.547
      -0.813
      -1.113
      -1.685
      -2.331
      -2.473
      -1.720
      -0.331
       0.936
       1.444
       1.153
       0.549
       0.175
       0.243
       0.614
       1.072
       1.538
       2.044
       2.501
       2.589
       1.924
       0.422
      -1.496
      -3.067
      -3.617
      -2.956
      -1.483
       0.061
       1.007
       1.084
       0.435
      -0.584
      -1.601
      -2.285
      -2.343
      -1.623
      -0.284
       1.159
       2.066
       2.045
       1.191
      -0.044
      -1.178
      -1.930
      -2.166
      -1.783
      -0.782
       0.512
       1.456
       1.475
       0.535
      -0.760
      -1.573
      -1.393
      -0.321
       1.082
       2.177
       2.598
       2.382
       1.873
       1.493
       1.509
       1.936
       2.600
       3.267
       3.708
       3.717
       3.141
       1.934
       0.210
      -1.725
      -3.408
      -4.375
      -4.390
      -3.582
      -2.387
      -1.320
      -0.752
      -0.754
      -1.070
      -1.252
      -0.950
      -0.157
       0.802
       1.531
       1.791
       1.532
       0.796
      -0.317
      -1.623
      -2.850
      -3.700
      -3.949
      -3.539
      -2.638
      -1.584
      -0.678
       0.014
       0.655
       1.405
       2.196
       2.777
       2.953
       2.769
       2.445
       2.164
       1.952
       1.722
       1.393
       0.916
       0.217
      -0.793
      -2.087
      -3.371
      -4.108
      -3.796
      -2.334
      -0.151
       2.028
       3.594
       4.319
       4.308
       3.787
       2.957
       2.007
       1.154
       0.590
       0.356
       0.291
       0.153
      -0.199
      -0.707
      -1.217
      -1.630
      -1.965
      -2.248
      -2.384
      -2.188
      -1.565
      -0.686
       0.063
       0.323
       0.018
      -0.616
      -1.229
      -1.605
      -1.758
      -1.822
      -1.860
      -1.781
      -1.414
      -0.677
       0.283
       1.130
       1.541
       1.421
       0.930
       0.300
      -0.344
      -0.979
      -1.521
      -1.735
      -1.346
      -0.254
       1.356
       3.081
       4.481
       5.220
       5.145
       4.301
       2.931
       1.427
       0.243
      -0.274
      -0.057
       0.612
       1.241
       1.386
       0.854
      -0.293
      -1.847
      -3.516
      -4.924
      -5.663
      -5.468
      -4.410
      -2.904
      -1.499
      -0.580
      -0.200
      -0.118
      -0.028
       0.202
       0.450
       0.490
       0.224
      -0.233
      -0.674
      -0.955
      -0.992
      -0.689
       0.028
       1.045
       2.005
       2.526
       2.526
       2.296
       2.225
       2.425
       2.660
       2.612
       2.225
       1.768
       1.571
       1.706
       1.904
       1.777
       1.119
       0.055
      -1.046
      -1.797
      -2.010
      -1.777
      -1.386
      -1.129
      -1.126
      -1.289
      -1.449
      -1.521
      -1.555
      -1.631
      -1.734
      -1.729
