Origin Time       04/06/2013 17:34:44
Lat.              32.7 N 
Long.             76.7 E 
Depth (Km)         18.0
Magnitude         4.8
 Region           Lahul-Spiti-Himachal-Pradesh                                     
 Above details taken from IMD 
     
Station Code      CHM
Station Lat.       32.555  N
Station Long.      76.126  E
Station Height(m)  952.0
Site Class        A   Vs30 between 700 m/sec to 1400 m/sec * 
Record Time       04.06.2013 17:31:41.394
Sampling Rate     200. Hz
 Record Duration   76.830 Sec.
 Direction         E-W (E positive)
Max. Acceleration    -23.066 cm/sec**2
     
  * For reference see Site Classification link of website 
     
 Base Line Corrected and Low Pass Filtered (Cut Off at 35 Hz) Time History
 Acceleration data in cm/sec**2
    
[...]
      -1.175
      -0.727
      -0.287
      -0.041
      -0.023
      -0.095
      -0.069
       0.149
       0.488
       0.787
       0.929
       0.930
       0.894
       0.909
       0.963
       0.952
       0.774
       0.425
       0.008
      -0.348
      -0.575
      -0.689
      -0.748
      -0.786
      -0.801
      -0.763
      -0.637
      -0.414
      -0.150
       0.035
       0.029
      -0.172
      -0.436
      -0.575
      -0.481
      -0.187
       0.177
       0.496
       0.737
       0.927
       1.076
       1.135
       1.049
       0.818
       0.515
       0.237
       0.050
      -0.052
      -0.130
      -0.243
      -0.373
      -0.430
      -0.353
      -0.220
      -0.213
      -0.443
      -0.819
      -1.111
      -1.153
      -0.968
      -0.728
      -0.578
      -0.517
      -0.417
      -0.160
       0.237
       0.627
       0.854
       0.867
       0.739
       0.584
       0.469
       0.393
       0.328
       0.272
       0.244
       0.269
       0.356
       0.487
       0.604
       0.622
       0.477
       0.171
      -0.221
      -0.588
      -0.849
      -0.978
      -1.006
      -0.983
      -0.947
      -0.891
      -0.760
      -0.498
      -0.096
       0.394
       0.868
       1.194
       1.244
       0.971
       0.472
      -0.035
      -0.342
      -0.384
      -0.240
      -0.034
       0.142
       0.233
       0.186
      -0.049
      -0.466
      -0.949
      -1.287
      -1.267
      -0.830
      -0.150
       0.462
       0.789
       0.853
       0.838
       0.858
       0.841
       0.628
       0.190
      -0.304
      -0.616
      -0.627
      -0.396
      -0.053
       0.309
       0.638
       0.879
       0.955
       0.797
       0.385
      -0.225
      -0.880
      -1.369
      -1.522
      -1.321
      -0.907
      -0.464
      -0.089
       0.228
       0.523
       0.772
       0.898
       0.830
       0.579
       0.255
       0.007
      -0.067
       0.013
       0.124
       0.134
       0.004
      -0.182
      -0.290
      -0.242
      -0.064
       0.116
       0.140
      -0.072
      -0.415
      -0.624
      -0.487
      -0.050
       0.395
       0.585
       0.512
       0.362
       0.268
       0.191
       0.060
      -0.070
      -0.043
       0.208
       0.570
       0.831
       0.854
       0.672
       0.457
       0.382
       0.470
       0.562
       0.439
       0.026
      -0.510
      -0.872
      -0.880
      -0.630
      -0.422
      -0.524
      -0.969
      -1.522
      -1.818
      -1.597
      -0.904
      -0.089
       0.427
       0.470
       0.214
      -0.022
      -0.054
       0.084
       0.298
       0.585
       1.010
       1.563
       2.087
       2.361
       2.235
       1.703
       0.875
      -0.075
      -0.962
      -1.641
      -2.049
      -2.194
      -2.090
      -1.718
      -1.064
      -0.213
       0.614
       1.130
       1.124
       0.591
      -0.228
      -0.957
      -1.291
      -1.145
      -0.663
      -0.070
       0.467
       0.881
       1.142
       1.199
       1.022
       0.662
       0.253
      -0.068
      -0.255
      -0.358
      -0.426
      -0.425
      -0.255
       0.135
       0.647
       1.053
       1.108
       0.686
      -0.127
      -1.031
      -1.626
      -1.613
      -0.965
       0.050
       1.008
       1.534
       1.454
       0.848
       0.003
      -0.723
      -1.062
      -0.950
      -0.521
       0.021
       0.524
       0.931
       1.238
       1.422
       1.401
       1.052
       0.305
      -0.741
      -1.762
      -2.336
      -2.188
      -1.387
      -0.327
       0.516
       0.864
       0.755
       0.416
       0.056
      -0.225
      -0.373
      -0.317
      -0.023
       0.412
       0.791
       0.945
       0.831
       0.505
       0.038
      -0.506
      -1.038
      -1.411
      -1.452
      -1.068
      -0.354
       0.418
       0.948
       1.115
       1.032
       0.892
       0.749
       0.459
      -0.138
      -0.975
      -1.715
      -1.953
      -1.520
      -0.632
       0.268
       0.817
       0.943
       0.818
       0.646
       0.511
       0.374
       0.184
      -0.015
      -0.080
       0.116
       0.557
       1.057
       1.351
       1.241
       0.721
       0.001
      -0.613
      -0.912
      -0.893
      -0.676
      -0.339
       0.127
       0.675
       1.097
       1.108
       0.590
      -0.274
      -1.123
      -1.682
      -1.918
      -1.931
      -1.759
      -1.324
      -0.584
       0.310
       1.062
       1.441
       1.422
       1.155
       0.801
       0.422
       0.012
      -0.362
      -0.493
      -0.162
       0.602
       1.434
       1.858
       1.648
       0.957
       0.126
      -0.584
      -1.094
      -1.407
      -1.488
      -1.258
      -0.712
      -0.036
       0.461
       0.558
       0.299
      -0.072
      -0.340
      -0.462
      -0.501
      -0.465
      -0.280
       0.085
       0.510
       0.766
       0.704
       0.373
      -0.019
      -0.264
      -0.283
      -0.119
       0.130
       0.386
       0.581
       0.632
       0.451
       0.002
      -0.638
      -1.292
      -1.761
      -1.914
      -1.713
      -1.197
      -0.457
       0.368
       1.103
       1.583
       1.716
       1.504
       1.030
       0.433
      -0.141
      -0.589
      -0.857
      -0.882
      -0.571
       0.108
       1.014
       1.856
       2.354
       2.347
       1.797
       0.767
      -0.518
      -1.667
      -2.295
      -2.266
      -1.761
      -1.071
      -0.379
       0.248
       0.708
       0.806
       0.416
      -0.359
      -1.200
      -1.753
      -1.814
      -1.396
      -0.683
       0.123
       0.919
       1.688
       2.345
       2.643
       2.295
       1.233
      -0.244
      -1.571
      -2.195
      -1.869
      -0.775
       0.567
       1.612
       2.088
       2.063
       1.731
       1.155
       0.268
      -0.895
      -2.017
      -2.619
      -2.383
      -1.400
      -0.149
       0.763
       0.958
       0.512
      -0.124
      -0.494
      -0.489
      -0.358
      -0.394
      -0.610
      -0.688
      -0.233
       0.862
       2.238
       3.222
       3.266
       2.333
       0.916
      -0.346
      -1.088
      -1.340
      -1.319
      -1.180
      -0.922
      -0.486
       0.116
       0.717
       1.056
       0.929
       0.337
      -0.498
      -1.269
      -1.744
      -1.826
      -1.503
      -0.825
       0.068
       0.929
       1.516
       1.733
       1.657
       1.426
       1.113
       0.720
       0.240
      -0.296
      -0.826
      -1.250
      -1.424
      -1.216
      -0.657
      -0.027
       0.268
       0.033
      -0.488
      -0.765
      -0.436
       0.324
       0.874
       0.599
      -0.560
      -1.986
      -2.805
      -2.498
      -1.229
       0.328
       1.466
       1.818
       1.445
       0.684
      -0.072
      -0.538
      -0.605
      -0.318
       0.183
       0.712
       1.077
       1.146
       0.911
       0.494
       0.056
      -0.282
      -0.474
      -0.559
      -0.666
      -0.955
      -1.436
      -1.828
      -1.670
      -0.684
       0.929
       2.517
       3.348
       3.059
       1.865
       0.382
      -0.788
      -1.396
      -1.556
      -1.488
      -1.267
      -0.833
      -0.178
       0.521
       0.984
       1.043
       0.765
       0.347
      -0.063
      -0.440
      -0.814
      -1.140
      -1.274
      -1.063
      -0.504
       0.201
       0.761
       0.995
       0.922
       0.660
       0.284
      -0.182
      -0.625
      -0.789
      -0.445
       0.357
       1.240
       1.759
       1.714
       1.236
       0.592
      -0.030
      -0.572
      -1.009
      -1.273
      -1.260
      -0.916
      -0.290
       0.471
       1.161
       1.579
       1.585
       1.155
       0.406
      -0.427
      -1.073
      -1.361
      -1.311
      -1.102
      -0.887
      -0.638
      -0.198
       0.481
       1.165
       1.451
       1.068
       0.082
      -1.165
      -2.268
      -2.920
      -2.955
      -2.336
      -1.176
       0.246
       1.536
       2.346
       2.553
       2.313
       1.898
       1.465
       0.961
       0.268
      -0.591
      -1.377
      -1.766
      -1.558
      -0.813
       0.165
       0.989
       1.403
       1.384
       1.056
       0.534
      -0.088
      -0.640
      -0.840
      -0.454
       0.452
       1.449
       1.975
       1.707
       0.797
      -0.269
      -1.052
      -1.472
      -1.758
      -2.111
      -2.435
      -2.379
      -1.643
      -0.270
       1.286
       2.394
       2.656
       2.168
       1.414
       0.857
       0.573
       0.265
      -0.379
      -1.319
      -2.143
      -2.398
      -1.991
      -1.260
      -0.672
      -0.402
      -0.217
       0.217
       0.913
       1.460
       1.374
       0.556
      -0.577
      -1.418
      -1.626
      -1.324
      -0.892
      -0.579
      -0.295
       0.218
       1.043
       1.916
       2.436
       2.403
       1.956
       1.395
       0.923
       0.560
       0.242
      -0.072
      -0.396
      -0.750
      -1.124
      -1.434
      -1.574
      -1.521
      -1.353
      -1.147
      -0.889
      -0.509
      -0.003
       0.502
       0.801
       0.749
       0.389
      -0.034
      -0.225
      -0.085
       0.136
      -0.015
      -0.798
      -1.964
      -2.819
      -2.665
      -1.284
       0.860
       2.868
       3.931
       3.822
       2.991
       2.158
       1.747
       1.625
       1.379
       0.792
       0.022
      -0.646
      -1.109
      -1.450
      -1.739
      -1.918
      -1.934
      -1.884
      -1.946
      -2.161
      -2.315
      -2.093
      -1.378
      -0.426
       0.271
       0.389
       0.067
      -0.194
       0.028
       0.693
       1.348
       1.564
       1.324
       1.016
       1.068
       1.605
       2.390
       3.028
       3.212
       2.810
       1.840
       0.418
      -1.214
      -2.682
      -3.586
      -3.722
      -3.203
      -2.312
      -1.236
       0.008
       1.357
       2.466
       2.817
       2.112
       0.565
      -1.211
      -2.583
      -3.196
      -2.993
      -2.065
      -0.561
       1.259
       2.971
       4.047
       4.060
       2.929
       1.042
      -0.858
      -2.013
      -2.049
      -1.146
       0.149
       1.345
       2.273
       3.018
       3.598
       3.736
       2.945
       0.913
      -2.117
      -5.285
      -7.486
      -7.951
      -6.624
      -4.095
      -1.213
       1.281
       2.891
       3.362
       2.710
       1.320
      -0.068
      -0.637
       0.044
       1.711
       3.544
       4.661
       4.638
       3.640
       2.140
       0.487
      -1.228
      -2.929
      -4.262
      -4.650
      -3.717
      -1.644
       0.871
       2.992
       4.160
       4.296
       3.714
       2.840
       1.906
       0.848
      -0.514
      -2.187
      -3.864
      -5.051
      -5.343
      -4.667
      -3.339
      -1.920
      -0.931
      -0.599
      -0.766
      -1.004
      -0.841
       0.029
       1.615
       3.577
       5.304
       6.189
       5.968
       4.851
       3.289
       1.594
      -0.209
      -2.160
      -4.034
      -5.279
      -5.331
      -4.044
      -1.919
       0.102
       1.187
       1.158
       0.627
       0.543
       1.418
       2.833
       3.675
       2.978
       0.683
      -2.333
      -4.910
      -6.391
      -6.902
      -7.018
      -7.154
      -7.179
      -6.505
      -4.556
      -1.254
       2.823
       6.702
       9.502
      10.819
      10.809
       9.997
       8.919
       7.745
       6.071
       3.181
      -1.223
      -6.394
     -10.677
     -12.474
     -11.287
      -8.012
      -4.297
      -1.467
       0.182
       1.265
       2.561
       4.297
       6.011
       7.028
       7.061
       6.420
       5.714
       5.329
       5.094
       4.318
       2.172
      -1.773
      -7.074
     -12.292
     -15.407
     -14.734
      -9.884
      -2.154
       6.002
      12.155
      14.950
      14.366
      11.160
       6.129
      -0.168
      -7.147
     -13.855
     -19.046
     -21.684
     -21.440
     -18.758
     -14.466
      -9.301
      -3.722
       1.941
       7.272
      11.728
      14.805
      16.248
      16.165
      15.017
      13.505
      12.337
      11.910
      12.070
      12.179
      11.501
       9.615
       6.525
       2.477
      -2.174
      -6.843
     -10.557
     -12.181
     -11.074
      -7.648
      -3.219
       0.776
       3.524
       4.945
       5.199
       4.181
       1.513
      -2.931
      -8.418
     -13.285
     -15.651
     -14.491
     -10.287
      -4.713
       0.391
       3.959
       5.895
       6.560
       6.159
       4.582
       1.751
      -1.946
      -5.550
      -7.894
      -8.192
      -6.503
      -3.775
      -1.395
      -0.474
      -1.223
      -2.828
      -3.921
      -3.407
      -1.097
       2.277
       5.608
       8.082
       9.471
       9.970
       9.810
       8.979
       7.250
       4.478
       0.999
      -2.214
      -3.888
      -3.144
      -0.109
       4.047
       7.663
       9.424
       8.953
       6.857
       4.214
       1.872
       0.038
      -1.639
      -3.665
      -6.349
      -9.683
     -13.400
     -17.066
     -20.182
     -22.291
     -23.066
     -22.313
     -19.927
     -15.894
     -10.381
      -3.866
       2.843
       8.796
      13.272
      16.077
      17.516
      18.034
      17.820
      16.737
      14.637
      11.791
       9.000
       7.231
       7.016
       8.096
       9.556
      10.323
       9.684
       7.525
       4.237
       0.437
      -3.286
      -6.479
      -8.795
      -9.997
     -10.020
      -9.042
      -7.429
      -5.590
      -3.849
      -2.417
      -1.379
      -0.668
      -0.088
       0.514
       1.004
       0.893
      -0.353
      -2.820
      -5.892
      -8.566
     -10.094
     -10.374
      -9.773
      -8.630
      -6.999
      -4.837
      -2.328
       0.077
       1.973
       3.320
       4.462
       5.814
       7.519
       9.302
      10.589
      10.772
       9.485
       6.803
       3.259
      -0.362
      -3.339
      -5.250
      -6.006
      -5.719
      -4.572
      -2.745
      -0.424
       2.164
       4.704
       6.826
       8.203
       8.671
       8.276
       7.217
       5.753
       4.126
       2.518
       1.025
      -0.338
      -1.584
      -2.704
      -3.649
      -4.387
      -4.954
      -5.441
      -5.924
      -6.369
      -6.576
      -6.244
      -5.149
      -3.354
      -1.277
       0.495
       1.566
       2.008
       2.272
       2.768
       3.449
       3.770
       3.080
       1.138
      -1.668
      -4.547
      -6.773
      -8.041
      -8.460
      -8.275
      -7.619
      -6.486
      -4.884
      -2.937
      -0.804
       1.458
       3.876
       6.378
       8.623
      10.070
      10.249
       9.045
       6.793
       4.154
       1.856
       0.425
       0.021
       0.428
       1.192
       1.821
       1.973
       1.560
       0.728
      -0.238
      -1.026
      -1.387
      -1.204
      -0.539
       0.364
       1.161
       1.561
       1.460
       0.935
       0.109
      -0.990
      -2.436
      -4.235
      -6.140
      -7.652
      -8.250
      -7.719
      -6.287
      -4.482
      -2.837
      -1.683
      -1.108
      -1.014
      -1.209
      -1.484
      -1.662
      -1.596
      -1.119
      -0.084
       1.513
       3.426
       5.222
       6.502
       7.089
       7.026
       6.465
       5.572
       4.522
       3.482
       2.559
       1.763
       1.075
       0.545
       0.303
       0.431
       0.842
       1.304
       1.578
       1.549
       1.264
       0.850
       0.402
      -0.102
      -0.769
      -1.657
      -2.668
      -3.565
      -4.125
      -4.289
      -4.180
      -4.004
      -3.934
      -4.048
      -4.301
      -4.530
      -4.482
      -3.919
      -2.765
      -1.192
       0.435
       1.742
       2.529
       2.841
       2.883
       2.853
       2.808
       2.636
       2.178
       1.398
       0.478
      -0.261
      -0.556
      -0.367
       0.105
       0.563
       0.807
       0.832
       0.768
       0.710
       0.599
       0.271
      -0.371
      -1.217
      -1.982
      -2.363
      -2.216
      -1.621
      -0.819
      -0.049
       0.595
       1.192
       1.864
       2.624
       3.328
       3.770
       3.798
       3.362
       2.515
       1.409
       0.298
      -0.521
      -0.824
      -0.568
       0.084
       0.839
       1.386
       1.528
       1.242
       0.660
      -0.024
      -0.660
      -1.187
      -1.617
      -1.984
      -2.287
      -2.468
      -2.422
      -2.070
      -1.436
      -0.657
       0.102
       0.753
       1.311
       1.812
       2.237
       2.508
       2.545
       2.324
       1.887
       1.328
       0.756
       0.235
      -0.244
      -0.731
      -1.226
      -1.623
      -1.769
      -1.608
      -1.280
      -1.065
      -1.191
      -1.647
      -2.184
      -2.477
      -2.337
      -1.795
      -1.055
      -0.370
       0.095
       0.345
       0.514
       0.722
       0.936
       0.990
       0.757
       0.305
      -0.123
      -0.280
      -0.080
       0.362
       0.830
       1.146
       1.255
       1.191
       0.987
       0.614
       0.025
      -0.744
      -1.518
      -2.042
      -2.109
      -1.679
      -0.912
      -0.113
       0.399
       0.430
       0.025
      -0.545
      -0.924
      -0.874
      -0.402
       0.267
       0.874
       1.313
       1.681
       2.143
       2.728
       3.264
       3.503
       3.315
       2.784
       2.115
       1.470
       0.875
       0.282
      -0.313
      -0.808
      -1.069
      -1.058
      -0.895
      -0.791
      -0.909
      -1.268
      -1.759
      -2.258
      -2.711
      -3.089
      -3.303
      -3.191
      -2.651
      -1.773
      -0.827
      -0.099
       0.284
       0.389
       0.377
       0.392
       0.496
       0.656
       0.768
       0.715
       0.456
       0.062
      -0.309
      -0.507
      -0.457
      -0.176
       0.253
       0.720
       1.108
       1.329
       1.355
       1.242
       1.109
       1.070
       1.146
       1.255
       1.273
       1.129
       0.860
       0.560
       0.295
       0.058
      -0.184
      -0.409
      -0.522
      -0.424
      -0.118
       0.260
       0.524
       0.552
       0.348
       0.011
      -0.353
      -0.692
      -1.010
      -1.338
      -1.702
      -2.092
      -2.426
      -2.553
      -2.321
      -1.703
      -0.881
      -0.176
       0.136
       0.006
      -0.402
      -0.860
      -1.219
      -1.433
      -1.474
      -1.295
      -0.873
      -0.264
       0.412
       1.051
       1.615
       2.116
       2.556
       2.881
       3.009
       2.892
       2.583
       2.204
       1.848
       1.517
       1.161
       0.771
       0.397
       0.081
      -0.220
      -0.594
      -1.065
      -1.514
      -1.740
      -1.592
