Origin Time       12/7/2009 14:00:32 
Lat.              36.5 N 
Long.             70.9 E 
Depth (Km)        170.0
Magnitude         6.3
 Region           Hindukush-Region-Afganistan                                      
 Above details taken from IMD 
   
Station Code      CHM
Station Lat.       32.555
Station Long.      76.126
Station Height(m)  952.0
Site Class        A   Vs30 between 700 m/sec to 1400 m/sec * 
Record Time       12.07.2012 19:29:30.149
Sampling Rate     200. Hz
 Record Duration   65.030 Sec.
 Direction         Vert. (Up positive)
Max. Acceleration     -1.013 cm/sec**2
     
  * For reference see Site Classification link of website 
     
 Base Line Corrected and Low Pass Filtered (Cut Off at 35 Hz) Time History
 Acceleration data in cm/sec**2
    
[...]
      -0.081
      -0.111
      -0.119
      -0.116
      -0.110
      -0.098
      -0.073
      -0.036
       0.005
       0.043
       0.076
       0.102
       0.116
       0.113
       0.085
       0.036
      -0.021
      -0.066
      -0.088
      -0.092
      -0.090
      -0.088
      -0.086
      -0.080
      -0.074
      -0.073
      -0.081
      -0.103
      -0.132
      -0.156
      -0.168
      -0.168
      -0.163
      -0.158
      -0.154
      -0.147
      -0.130
      -0.087
      -0.014
       0.078
       0.162
       0.208
       0.209
       0.178
       0.141
       0.119
       0.115
       0.115
       0.104
       0.079
       0.051
       0.034
       0.033
       0.040
       0.043
       0.035
       0.021
       0.012
       0.016
       0.027
       0.034
       0.028
       0.015
       0.009
       0.022
       0.056
       0.096
       0.114
       0.089
       0.023
      -0.057
      -0.119
      -0.141
      -0.120
      -0.071
      -0.022
       0.006
       0.008
      -0.012
      -0.043
      -0.075
      -0.095
      -0.094
      -0.071
      -0.039
      -0.012
       0.001
       0.000
      -0.012
      -0.023
      -0.017
       0.012
       0.060
       0.117
       0.171
       0.212
       0.233
       0.227
       0.194
       0.139
       0.079
       0.033
       0.012
       0.017
       0.033
       0.047
       0.046
       0.024
      -0.015
      -0.059
      -0.097
      -0.123
      -0.138
      -0.140
      -0.132
      -0.118
      -0.109
      -0.105
      -0.102
      -0.094
      -0.078
      -0.051
      -0.011
       0.041
       0.089
       0.118
       0.116
       0.085
       0.037
      -0.008
      -0.036
      -0.046
      -0.049
      -0.053
      -0.056
      -0.055
      -0.046
      -0.026
       0.006
       0.049
       0.099
       0.148
       0.186
       0.201
       0.184
       0.138
       0.080
       0.030
      -0.001
      -0.009
      -0.003
       0.003
       0.000
      -0.013
      -0.031
      -0.057
      -0.093
      -0.136
      -0.169
      -0.175
      -0.151
      -0.102
      -0.044
       0.003
       0.028
       0.030
       0.022
       0.017
       0.016
       0.015
       0.010
       0.006
       0.016
       0.052
       0.113
       0.172
       0.197
       0.171
       0.107
       0.035
      -0.017
      -0.043
      -0.051
      -0.051
      -0.050
      -0.044
      -0.029
      -0.009
       0.003
       0.000
      -0.017
      -0.035
      -0.046
      -0.048
      -0.039
      -0.024
      -0.008
       0.007
       0.019
       0.028
       0.028
       0.014
      -0.012
      -0.043
      -0.062
      -0.057
      -0.021
       0.034
       0.084
       0.106
       0.095
       0.057
      -0.001
      -0.068
      -0.133
      -0.182
      -0.204
      -0.196
      -0.160
      -0.112
      -0.069
      -0.046
      -0.040
      -0.039
      -0.030
      -0.004
       0.043
       0.102
       0.159
       0.201
       0.221
       0.219
       0.192
       0.143
       0.081
       0.025
      -0.008
      -0.008
       0.022
       0.072
       0.120
       0.148
       0.145
       0.109
       0.047
      -0.025
      -0.096
      -0.158
      -0.210
      -0.250
      -0.267
      -0.249
      -0.203
      -0.148
      -0.110
      -0.101
      -0.115
      -0.130
      -0.126
      -0.103
      -0.085
      -0.095
      -0.131
      -0.166
      -0.171
      -0.137
      -0.074
       0.003
       0.083
       0.167
       0.256
       0.338
       0.388
       0.390
       0.348
       0.289
       0.242
       0.216
       0.204
       0.187
       0.149
       0.094
       0.038
       0.000
      -0.014
      -0.013
      -0.011
      -0.020
      -0.044
      -0.076
      -0.105
      -0.125
      -0.142
      -0.163
      -0.186
      -0.201
      -0.199
      -0.179
      -0.150
      -0.121
      -0.101
      -0.092
      -0.090
      -0.090
      -0.093
      -0.100
      -0.105
      -0.096
      -0.066
      -0.022
       0.021
       0.046
       0.046
       0.029
       0.013
       0.013
       0.034
       0.069
       0.112
       0.157
       0.196
       0.211
       0.186
       0.119
       0.025
      -0.064
      -0.115
      -0.113
      -0.067
      -0.006
       0.040
       0.053
       0.031
      -0.014
      -0.063
      -0.100
      -0.115
      -0.107
      -0.083
      -0.049
      -0.016
       0.005
       0.015
       0.020
       0.027
       0.034
       0.038
       0.036
       0.025
       0.008
      -0.009
      -0.015
      -0.003
       0.028
       0.069
       0.106
       0.122
       0.108
       0.070
       0.026
      -0.007
      -0.027
      -0.038
      -0.047
      -0.052
      -0.048
      -0.029
       0.001
       0.033
       0.053
       0.054
       0.032
      -0.010
      -0.059
      -0.094
      -0.095
      -0.058
       0.000
       0.051
       0.072
       0.052
       0.002
      -0.057
      -0.105
      -0.132
      -0.140
      -0.134
      -0.117
      -0.096
      -0.078
      -0.067
      -0.057
      -0.040
      -0.013
       0.028
       0.078
       0.126
       0.149
       0.131
       0.077
       0.010
      -0.046
      -0.076
      -0.081
      -0.068
      -0.047
      -0.024
      -0.003
       0.016
       0.028
       0.032
       0.029
       0.019
       0.003
      -0.014
      -0.024
      -0.021
      -0.007
       0.018
       0.056
       0.106
       0.157
       0.190
       0.191
       0.165
       0.126
       0.091
       0.067
       0.045
       0.011
      -0.045
      -0.114
      -0.174
      -0.200
      -0.175
      -0.103
      -0.010
       0.068
       0.107
       0.105
       0.076
       0.038
       0.004
      -0.014
      -0.015
      -0.008
      -0.008
      -0.018
      -0.029
      -0.024
       0.009
       0.073
       0.151
       0.218
       0.249
       0.240
       0.199
       0.142
       0.080
       0.023
      -0.025
      -0.059
      -0.073
      -0.065
      -0.038
      -0.009
       0.008
       0.008
      -0.003
      -0.016
      -0.018
      -0.005
       0.020
       0.045
       0.055
       0.042
       0.008
      -0.038
      -0.084
      -0.113
      -0.114
      -0.091
      -0.051
       0.000
       0.060
       0.124
       0.183
       0.227
       0.253
       0.257
       0.238
       0.197
       0.141
       0.083
       0.041
       0.028
       0.043
       0.071
       0.092
       0.098
       0.085
       0.055
       0.009
      -0.043
      -0.089
      -0.119
      -0.131
      -0.127
      -0.113
      -0.091
      -0.065
      -0.044
      -0.032
      -0.037
      -0.059
      -0.091
      -0.127
      -0.157
      -0.174
      -0.175
      -0.162
      -0.141
      -0.115
      -0.082
      -0.047
      -0.022
      -0.018
      -0.028
      -0.026
       0.010
       0.080
       0.161
       0.221
       0.235
       0.202
       0.145
       0.089
       0.055
       0.045
       0.054
       0.071
       0.089
       0.111
       0.147
       0.201
       0.265
       0.320
       0.349
       0.345
       0.315
       0.273
       0.235
       0.209
       0.195
       0.188
       0.181
       0.165
       0.131
       0.075
       0.006
      -0.057
      -0.100
      -0.122
      -0.133
      -0.144
      -0.165
      -0.195
      -0.236
      -0.289
      -0.355
      -0.430
      -0.498
      -0.543
      -0.558
      -0.546
      -0.514
      -0.472
      -0.432
      -0.401
      -0.375
      -0.345
      -0.307
      -0.264
      -0.226
      -0.195
      -0.165
      -0.129
      -0.077
      -0.006
       0.072
       0.136
       0.174
       0.194
       0.217
       0.257
       0.305
       0.343
       0.358
       0.350
       0.326
       0.288
       0.235
       0.169
       0.109
       0.072
       0.066
       0.079
       0.093
       0.091
       0.070
       0.035
      -0.003
      -0.030
      -0.044
      -0.049
      -0.050
      -0.055
      -0.071
      -0.106
      -0.158
      -0.216
      -0.261
      -0.280
      -0.272
      -0.250
      -0.234
      -0.242
      -0.274
      -0.317
      -0.353
      -0.376
      -0.390
      -0.395
      -0.386
      -0.350
      -0.279
      -0.180
      -0.078
       0.006
       0.064
       0.105
       0.138
       0.161
       0.163
       0.137
       0.088
       0.029
      -0.019
      -0.037
      -0.013
       0.046
       0.130
       0.224
       0.315
       0.383
       0.412
       0.398
       0.348
       0.284
       0.230
       0.202
       0.201
       0.214
       0.230
       0.244
       0.248
       0.235
       0.199
       0.146
       0.091
       0.044
       0.012
       0.003
       0.019
       0.053
       0.087
       0.097
       0.063
      -0.015
      -0.113
      -0.195
      -0.234
      -0.230
      -0.205
      -0.181
      -0.172
      -0.174
      -0.178
      -0.179
      -0.177
      -0.183
      -0.197
      -0.207
      -0.198
      -0.168
      -0.132
      -0.112
      -0.116
      -0.137
      -0.151
      -0.143
      -0.117
      -0.095
      -0.094
      -0.115
      -0.145
      -0.169
      -0.173
      -0.152
      -0.109
      -0.060
      -0.022
      -0.005
      -0.008
      -0.024
      -0.042
      -0.050
      -0.034
       0.012
       0.085
       0.169
       0.242
       0.277
       0.261
       0.203
       0.127
       0.060
       0.022
       0.021
       0.057
       0.112
       0.159
       0.174
       0.149
       0.092
       0.022
      -0.044
      -0.093
      -0.126
      -0.144
      -0.147
      -0.135
      -0.115
      -0.104
      -0.116
      -0.154
      -0.206
      -0.245
      -0.249
      -0.213
      -0.148
      -0.072
       0.003
       0.078
       0.146
       0.201
       0.237
       0.263
       0.295
       0.347
       0.420
       0.487
       0.507
       0.455
       0.341
       0.209
       0.099
       0.028
      -0.013
      -0.039
      -0.058
      -0.071
      -0.081
      -0.098
      -0.141
      -0.225
      -0.349
      -0.491
      -0.619
      -0.695
      -0.697
      -0.625
      -0.504
      -0.369
      -0.249
      -0.156
      -0.092
      -0.053
      -0.039
      -0.046
      -0.065
      -0.083
      -0.078
      -0.032
       0.059
       0.182
       0.312
       0.419
       0.481
       0.494
       0.475
       0.452
       0.438
       0.435
       0.436
       0.440
       0.444
       0.445
       0.433
       0.398
       0.325
       0.211
       0.071
      -0.069
      -0.187
      -0.279
      -0.350
      -0.406
      -0.444
      -0.457
      -0.444
      -0.417
      -0.390
      -0.367
      -0.336
      -0.283
      -0.208
      -0.128
      -0.063
      -0.016
       0.022
       0.063
       0.112
       0.165
       0.213
       0.250
       0.271
       0.271
       0.243
       0.190
       0.130
       0.087
       0.080
       0.112
       0.179
       0.265
       0.345
       0.400
       0.428
       0.435
       0.422
       0.381
       0.306
       0.208
       0.109
       0.029
      -0.027
      -0.065
      -0.101
      -0.145
      -0.193
      -0.223
      -0.220
      -0.181
      -0.125
      -0.070
      -0.027
      -0.001
       0.006
      -0.007
      -0.039
      -0.076
      -0.089
      -0.058
       0.016
       0.107
       0.186
       0.236
       0.252
       0.236
       0.195
       0.141
       0.087
       0.048
       0.030
       0.032
       0.041
       0.037
       0.004
      -0.052
      -0.108
      -0.139
      -0.129
      -0.085
      -0.026
       0.025
       0.050
       0.048
       0.026
      -0.003
      -0.028
      -0.035
      -0.012
       0.046
       0.132
       0.227
       0.302
       0.332
       0.318
       0.285
       0.268
       0.283
       0.319
       0.350
       0.349
       0.303
       0.215
       0.101
      -0.032
      -0.180
      -0.335
      -0.477
      -0.571
      -0.597
      -0.562
      -0.500
      -0.458
      -0.471
      -0.542
      -0.642
      -0.727
      -0.765
      -0.751
      -0.692
      -0.604
      -0.500
      -0.391
      -0.282
      -0.180
      -0.091
      -0.016
       0.051
       0.125
       0.210
       0.304
       0.399
       0.480
       0.533
       0.549
       0.533
       0.503
       0.477
       0.465
       0.465
       0.471
       0.481
       0.509
       0.567
       0.651
       0.729
       0.765
       0.740
       0.662
       0.550
       0.417
       0.272
       0.128
       0.002
      -0.090
      -0.143
      -0.171
      -0.196
      -0.242
      -0.311
      -0.393
      -0.471
      -0.534
      -0.575
      -0.585
      -0.565
      -0.524
      -0.486
      -0.477
      -0.514
      -0.586
      -0.657
      -0.681
      -0.636
      -0.530
      -0.395
      -0.267
      -0.165
      -0.094
      -0.048
      -0.019
       0.000
       0.023
       0.069
       0.145
       0.236
       0.311
       0.344
       0.334
       0.298
       0.259
       0.226
       0.201
       0.174
       0.145
       0.118
       0.100
       0.091
       0.089
       0.090
       0.097
       0.112
       0.134
       0.160
       0.195
       0.242
       0.302
       0.364
       0.399
       0.381
       0.300
       0.178
       0.047
      -0.078
      -0.207
      -0.353
      -0.519
      -0.692
      -0.847
      -0.960
      -1.013
      -1.006
      -0.950
      -0.859
      -0.745
      -0.615
      -0.479
      -0.347
      -0.227
      -0.129
      -0.060
      -0.016
       0.015
       0.051
       0.104
       0.185
       0.295
       0.422
       0.544
       0.648
       0.726
       0.768
       0.760
       0.696
       0.588
       0.460
       0.331
       0.207
       0.087
      -0.027
      -0.126
      -0.194
      -0.221
      -0.211
      -0.182
      -0.148
      -0.116
      -0.085
      -0.058
      -0.038
      -0.036
      -0.060
      -0.110
      -0.171
      -0.220
      -0.240
      -0.232
      -0.207
      -0.175
      -0.145
      -0.124
      -0.118
      -0.128
      -0.154
      -0.193
      -0.237
      -0.278
      -0.306
      -0.309
      -0.276
      -0.211
      -0.146
      -0.119
      -0.146
      -0.204
      -0.256
      -0.277
      -0.266
      -0.225
      -0.149
      -0.028
       0.134
       0.311
       0.465
       0.559
       0.579
       0.532
       0.441
       0.329
       0.217
       0.125
       0.067
       0.040
       0.035
       0.042
       0.053
       0.066
       0.082
       0.107
       0.143
       0.188
       0.239
       0.294
       0.349
       0.393
       0.411
       0.389
       0.323
       0.217
       0.086
      -0.040
      -0.126
      -0.148
      -0.107
      -0.032
       0.033
       0.052
       0.020
      -0.037
      -0.083
      -0.097
      -0.084
      -0.064
      -0.053
      -0.053
      -0.058
      -0.064
      -0.076
      -0.100
      -0.135
      -0.169
      -0.192
      -0.201
      -0.200
      -0.186
      -0.156
      -0.109
      -0.053
       0.005
       0.057
       0.104
       0.157
       0.233
       0.333
       0.437
       0.508
       0.517
       0.469
       0.391
       0.321
       0.280
       0.264
       0.253
       0.225
       0.178
       0.118
       0.055
      -0.014
      -0.087
      -0.150
      -0.173
      -0.125
       0.001
       0.177
       0.341
       0.433
       0.424
       0.320
       0.157
      -0.014
      -0.149
      -0.222
      -0.234
      -0.204
      -0.149
      -0.088
      -0.045
      -0.050
      -0.128
      -0.280
      -0.467
      -0.620
      -0.670
      -0.594
      -0.435
      -0.277
      -0.194
      -0.210
      -0.296
      -0.392
      -0.446
      -0.434
      -0.359
      -0.235
      -0.074
       0.105
       0.267
       0.368
       0.388
       0.342
       0.270
       0.209
       0.171
       0.140
       0.094
       0.022
      -0.066
      -0.150
      -0.223
      -0.281
      -0.320
      -0.323
      -0.271
      -0.161
      -0.012
       0.136
       0.240
       0.282
       0.276
       0.262
       0.270
       0.310
       0.362
       0.401
       0.409
       0.384
       0.347
       0.318
       0.308
       0.314
       0.324
       0.326
       0.316
       0.294
       0.266
       0.229
       0.172
       0.089
      -0.007
      -0.085
      -0.124
      -0.129
      -0.122
      -0.127
      -0.154
      -0.203
      -0.262
      -0.321
      -0.366
      -0.391
      -0.387
      -0.349
      -0.275
      -0.172
      -0.053
       0.068
       0.176
       0.263
       0.328
       0.374
       0.401
       0.407
       0.397
       0.381
       0.375
       0.388
       0.420
       0.458
       0.480
       0.463
       0.401
       0.301
       0.175
       0.034
      -0.113
      -0.258
      -0.398
      -0.533
      -0.658
      -0.754
      -0.802
      -0.797
      -0.756
      -0.701
      -0.644
      -0.574
      -0.475
      -0.342
      -0.199
      -0.085
      -0.026
      -0.019
      -0.040
      -0.053
      -0.030
       0.035
       0.117
       0.170
       0.160
       0.086
      -0.019
      -0.114
      -0.170
      -0.182
      -0.161
      -0.121
      -0.066
       0.002
       0.069
       0.106
       0.091
       0.019
      -0.082
      -0.170
      -0.214
      -0.207
      -0.174
      -0.146
      -0.137
      -0.141
      -0.152
      -0.170
      -0.192
      -0.206
      -0.192
      -0.140
      -0.059
       0.028
       0.089
       0.098
       0.050
      -0.039
      -0.134
      -0.199
      -0.213
      -0.168
      -0.079
       0.028
       0.126
       0.197
       0.235
       0.243
       0.228
       0.201
       0.171
       0.139
       0.110
       0.086
       0.070
       0.060
       0.051
       0.042
       0.039
       0.046
       0.070
       0.113
       0.174
       0.242
       0.304
       0.342
       0.343
       0.302
       0.227
       0.135
       0.042
      -0.041
      -0.108
      -0.152
      -0.170
      -0.161
      -0.130
      -0.085
      -0.038
      -0.005
      -0.001
      -0.030
      -0.085
      -0.150
      -0.202
      -0.221
      -0.202
      -0.164
      -0.131
      -0.119
      -0.125
      -0.145
      -0.176
      -0.211
      -0.240
      -0.257
      -0.265
      -0.269
      -0.272
      -0.265
      -0.244
      -0.209
      -0.168
      -0.118
      -0.036
       0.105
       0.303
       0.512
       0.671
       0.736
       0.699
       0.583
       0.426
       0.271
       0.156
       0.101
       0.108
       0.165
       0.251
       0.343
       0.416
       0.448
       0.426
       0.347
       0.226
       0.099
       0.001
      -0.043
      -0.032
       0.019
       0.085
       0.150
       0.207
       0.253
       0.286
       0.300
       0.294
       0.282
       0.274
       0.268
       0.248
       0.200
       0.124
       0.023
      -0.095
      -0.220
      -0.336
      -0.419
      -0.443
      -0.393
      -0.279
      -0.137
      -0.013
       0.058
       0.063
       0.011
      -0.071
      -0.148
      -0.198
      -0.215
