Origin Time       2/8/2013 21:37:40	 
Lat.              33.4 N	
Long.             75.9 E	
Depth (Km)         20.0
Magnitude         5.2
 Region           KISHTWAR-JK                                                      
 Above details taken from IMD 
     
Station Code      CHM
Station Lat.       32.555  N
Station Long.      76.126  E
Station Height(m)  952.0
Site Class        A   Vs30 between 700 m/sec to 1400 m/sec * 
Record Time       02.08.2013 21:37:23.729
Sampling Rate     200. Hz
 Record Duration   72.720 Sec.
 Direction         E-W (E positive)
Max. Acceleration      1.487 cm/sec**2
     
  * For reference see Site Classification link of website 
     
 Base Line Corrected and Low Pass Filtered (Cut Off at 35 Hz) Time History
 Acceleration data in cm/sec**2
    
[...]
      -0.739
      -0.735
      -0.741
      -0.724
      -0.642
      -0.478
      -0.251
       0.000
       0.246
       0.479
       0.693
       0.864
       0.953
       0.934
       0.822
       0.661
       0.496
       0.353
       0.238
       0.145
       0.071
       0.011
      -0.037
      -0.065
      -0.056
      -0.004
       0.065
       0.094
       0.027
      -0.150
      -0.383
      -0.585
      -0.681
      -0.651
      -0.524
      -0.349
      -0.163
       0.020
       0.191
       0.336
       0.437
       0.487
       0.496
       0.486
       0.475
       0.473
       0.485
       0.501
       0.497
       0.439
       0.311
       0.134
      -0.036
      -0.141
      -0.159
      -0.115
      -0.067
      -0.058
      -0.095
      -0.154
      -0.205
      -0.243
      -0.284
      -0.350
      -0.444
      -0.551
      -0.641
      -0.682
      -0.644
      -0.514
      -0.300
      -0.040
       0.216
       0.424
       0.567
       0.653
       0.707
       0.744
       0.772
       0.785
       0.779
       0.752
       0.689
       0.566
       0.364
       0.096
      -0.188
      -0.419
      -0.551
      -0.586
      -0.566
      -0.538
      -0.523
      -0.510
      -0.479
      -0.423
      -0.357
      -0.302
      -0.262
      -0.217
      -0.144
      -0.030
       0.111
       0.255
       0.382
       0.485
       0.557
       0.585
       0.552
       0.447
       0.278
       0.071
      -0.134
      -0.304
      -0.422
      -0.492
      -0.520
      -0.514
      -0.476
      -0.411
      -0.335
      -0.275
      -0.248
      -0.247
      -0.242
      -0.195
      -0.081
       0.088
       0.269
       0.412
       0.486
       0.485
       0.425
       0.324
       0.202
       0.087
       0.014
       0.018
       0.113
       0.282
       0.485
       0.679
       0.832
       0.921
       0.929
       0.836
       0.642
       0.368
       0.060
      -0.231
      -0.468
      -0.623
      -0.682
      -0.636
      -0.488
      -0.261
      -0.001
       0.235
       0.408
       0.505
       0.542
       0.538
       0.502
       0.432
       0.325
       0.188
       0.035
      -0.120
      -0.271
      -0.416
      -0.556
      -0.695
      -0.821
      -0.903
      -0.901
      -0.788
      -0.579
      -0.329
      -0.105
       0.044
       0.111
       0.124
       0.119
       0.117
       0.114
       0.093
       0.049
       0.001
      -0.017
       0.012
       0.076
       0.131
       0.143
       0.102
       0.032
      -0.031
      -0.065
      -0.071
      -0.076
      -0.112
      -0.198
      -0.317
      -0.426
      -0.476
      -0.443
      -0.336
      -0.188
      -0.034
       0.115
       0.265
       0.434
       0.621
       0.796
       0.909
       0.916
       0.803
       0.600
       0.373
       0.191
       0.106
       0.131
       0.243
       0.388
       0.501
       0.527
       0.447
       0.284
       0.090
      -0.084
      -0.207
      -0.280
      -0.325
      -0.364
      -0.405
      -0.438
      -0.444
      -0.412
      -0.355
      -0.298
      -0.255
      -0.216
      -0.156
      -0.056
       0.075
       0.201
       0.287
       0.324
       0.323
       0.305
       0.284
       0.263
       0.246
       0.233
       0.221
       0.202
       0.168
       0.113
       0.038
      -0.055
      -0.162
      -0.282
      -0.411
      -0.540
      -0.649
      -0.710
      -0.695
      -0.598
      -0.439
      -0.249
      -0.061
       0.097
       0.208
       0.252
       0.214
       0.095
      -0.079
      -0.262
      -0.406
      -0.488
      -0.511
      -0.492
      -0.434
      -0.328
      -0.165
       0.047
       0.274
       0.472
       0.607
       0.671
       0.679
       0.659
       0.633
       0.602
       0.551
       0.467
       0.358
       0.252
       0.171
       0.105
       0.017
      -0.123
      -0.300
      -0.453
      -0.516
      -0.467
      -0.342
      -0.211
      -0.121
      -0.076
      -0.043
       0.003
       0.055
       0.075
       0.028
      -0.093
      -0.257
      -0.409
      -0.496
      -0.484
      -0.366
      -0.161
       0.086
       0.321
       0.497
       0.595
       0.623
       0.598
       0.523
       0.393
       0.212
       0.002
      -0.197
      -0.351
      -0.443
      -0.480
      -0.473
      -0.433
      -0.364
      -0.276
      -0.191
      -0.146
      -0.167
      -0.252
      -0.366
      -0.461
      -0.510
      -0.519
      -0.507
      -0.482
      -0.431
      -0.337
      -0.201
      -0.044
       0.104
       0.229
       0.331
       0.415
       0.476
       0.509
       0.516
       0.514
       0.513
       0.505
       0.465
       0.365
       0.199
      -0.008
      -0.219
      -0.401
      -0.537
      -0.616
      -0.631
      -0.576
      -0.451
      -0.271
      -0.060
       0.153
       0.343
       0.489
       0.570
       0.576
       0.514
       0.413
       0.308
       0.230
       0.194
       0.202
       0.256
       0.351
       0.476
       0.600
       0.682
       0.683
       0.591
       0.428
       0.243
       0.086
      -0.021
      -0.097
      -0.183
      -0.306
      -0.452
      -0.569
      -0.607
      -0.552
      -0.436
      -0.315
      -0.228
      -0.172
      -0.114
      -0.014
       0.140
       0.326
       0.501
       0.628
       0.683
       0.659
       0.554
       0.376
       0.141
      -0.114
      -0.346
      -0.517
      -0.611
      -0.634
      -0.610
      -0.570
      -0.535
      -0.511
      -0.488
      -0.456
      -0.417
      -0.384
      -0.366
      -0.357
      -0.322
      -0.222
      -0.033
       0.227
       0.507
       0.756
       0.943
       1.062
       1.114
       1.087
       0.971
       0.768
       0.510
       0.243
       0.009
      -0.164
      -0.267
      -0.307
      -0.300
      -0.272
      -0.252
      -0.257
      -0.285
      -0.313
      -0.313
      -0.267
      -0.168
      -0.023
       0.147
       0.305
       0.401
       0.393
       0.272
       0.072
      -0.150
      -0.341
      -0.471
      -0.527
      -0.502
      -0.396
      -0.224
      -0.024
       0.152
       0.258
       0.267
       0.175
      -0.001
      -0.225
      -0.443
      -0.604
      -0.671
      -0.642
      -0.534
      -0.371
      -0.166
       0.072
       0.326
       0.571
       0.780
       0.943
       1.064
       1.148
       1.183
       1.148
       1.030
       0.841
       0.617
       0.395
       0.192
       0.001
      -0.193
      -0.397
      -0.598
      -0.771
      -0.888
      -0.935
      -0.918
      -0.866
      -0.820
      -0.812
      -0.833
      -0.839
      -0.771
      -0.590
      -0.304
       0.028
       0.328
       0.526
       0.592
       0.550
       0.462
       0.389
       0.366
       0.389
       0.432
       0.467
       0.470
       0.420
       0.305
       0.137
      -0.043
      -0.175
      -0.211
      -0.147
      -0.016
       0.128
       0.241
       0.301
       0.304
       0.249
       0.134
      -0.040
      -0.260
      -0.490
      -0.679
      -0.781
      -0.765
      -0.619
      -0.357
      -0.019
       0.331
       0.620
       0.794
       0.838
       0.772
       0.625
       0.424
       0.194
      -0.038
      -0.235
      -0.370
      -0.438
      -0.459
      -0.462
      -0.463
      -0.452
      -0.405
      -0.304
      -0.162
      -0.018
       0.079
       0.100
       0.042
      -0.069
      -0.204
      -0.335
      -0.435
      -0.479
      -0.442
      -0.315
      -0.113
       0.120
       0.325
       0.456
       0.504
       0.501
       0.490
       0.498
       0.523
       0.546
       0.548
       0.527
       0.491
       0.449
       0.408
       0.359
       0.288
       0.173
      -0.005
      -0.243
      -0.510
      -0.752
      -0.914
      -0.972
      -0.939
      -0.848
      -0.730
      -0.599
      -0.459
      -0.310
      -0.160
      -0.017
       0.104
       0.192
       0.237
       0.236
       0.202
       0.159
       0.137
       0.159
       0.230
       0.335
       0.446
       0.538
       0.601
       0.635
       0.637
       0.590
       0.476
       0.285
       0.037
      -0.222
      -0.439
      -0.580
      -0.635
      -0.615
      -0.532
      -0.395
      -0.220
      -0.039
       0.105
       0.173
       0.159
       0.098
       0.052
       0.065
       0.135
       0.214
       0.247
       0.205
       0.101
      -0.031
      -0.160
      -0.275
      -0.370
      -0.435
      -0.443
      -0.369
      -0.207
       0.014
       0.240
       0.419
       0.522
       0.544
       0.487
       0.355
       0.162
      -0.058
      -0.256
      -0.393
      -0.450
      -0.428
      -0.332
      -0.165
       0.057
       0.294
       0.488
       0.592
       0.582
       0.466
       0.264
      -0.001
      -0.302
      -0.599
      -0.841
      -0.977
      -0.985
      -0.873
      -0.682
      -0.460
      -0.253
      -0.091
       0.011
       0.061
       0.082
       0.096
       0.114
       0.131
       0.141
       0.154
       0.187
       0.245
       0.311
       0.353
       0.348
       0.291
       0.192
       0.068
      -0.072
      -0.219
      -0.357
      -0.463
      -0.507
      -0.462
      -0.327
      -0.128
       0.089
       0.279
       0.419
       0.509
       0.567
       0.607
       0.630
       0.630
       0.601
       0.551
       0.503
       0.490
       0.529
       0.606
       0.686
       0.727
       0.711
       0.647
       0.561
       0.467
       0.365
       0.244
       0.098
      -0.066
      -0.224
      -0.349
      -0.425
      -0.460
      -0.484
      -0.526
      -0.592
      -0.662
      -0.701
      -0.693
      -0.648
      -0.594
      -0.546
      -0.487
      -0.386
      -0.232
      -0.059
       0.068
       0.090
      -0.002
      -0.161
      -0.311
      -0.390
      -0.375
      -0.280
      -0.126
       0.073
       0.305
       0.540
       0.734
       0.838
       0.831
       0.728
       0.571
       0.410
       0.281
       0.202
       0.162
       0.142
       0.124
       0.103
       0.090
       0.101
       0.143
       0.209
       0.273
       0.299
       0.253
       0.128
      -0.053
      -0.244
      -0.396
      -0.476
      -0.473
      -0.396
      -0.265
      -0.103
       0.063
       0.208
       0.314
       0.378
       0.412
       0.439
       0.476
       0.522
       0.557
       0.548
       0.480
       0.358
       0.209
       0.053
      -0.101
      -0.255
      -0.407
      -0.538
      -0.624
      -0.654
      -0.636
      -0.589
      -0.527
      -0.446
      -0.336
      -0.193
      -0.029
       0.136
       0.280
       0.395
       0.484
       0.551
       0.585
       0.566
       0.486
       0.360
       0.222
       0.099
      -0.010
      -0.123
      -0.250
      -0.380
      -0.486
      -0.548
      -0.565
      -0.555
      -0.543
      -0.545
      -0.563
      -0.586
      -0.596
      -0.575
      -0.516
      -0.428
      -0.333
      -0.250
      -0.190
      -0.150
      -0.120
      -0.095
      -0.078
      -0.070
      -0.059
      -0.022
       0.057
       0.175
       0.304
       0.411
       0.477
       0.501
       0.490
       0.445
       0.359
       0.234
       0.086
      -0.058
      -0.177
      -0.259
      -0.305
      -0.317
      -0.297
      -0.244
      -0.159
      -0.050
       0.067
       0.170
       0.244
       0.286
       0.305
       0.320
       0.345
       0.384
       0.425
       0.446
       0.427
       0.351
       0.222
       0.063
      -0.090
      -0.202
      -0.252
      -0.246
      -0.202
      -0.143
      -0.089
      -0.046
      -0.009
       0.028
       0.067
       0.098
       0.105
       0.084
       0.048
       0.026
       0.040
       0.092
       0.161
       0.217
       0.233
       0.202
       0.139
       0.078
       0.058
       0.104
       0.208
       0.332
       0.430
       0.472
       0.458
       0.401
       0.309
       0.176
      -0.008
      -0.242
      -0.504
      -0.748
      -0.917
      -0.962
      -0.864
      -0.643
      -0.357
      -0.079
       0.131
       0.252
       0.298
       0.309
       0.316
       0.329
       0.335
       0.313
       0.255
       0.167
       0.061
      -0.055
      -0.171
      -0.268
      -0.318
      -0.300
      -0.223
      -0.127
      -0.057
      -0.039
      -0.062
      -0.093
      -0.100
      -0.071
      -0.013
       0.059
       0.127
       0.180
       0.212
       0.231
       0.247
       0.267
       0.294
       0.329
       0.376
       0.430
       0.472
       0.469
       0.388
       0.226
       0.017
      -0.182
      -0.329
      -0.412
      -0.450
      -0.470
      -0.484
      -0.485
      -0.451
      -0.362
      -0.210
      -0.015
       0.184
       0.342
       0.424
       0.421
       0.358
       0.273
       0.201
       0.148
       0.095
       0.018
      -0.086
      -0.197
      -0.284
      -0.331
      -0.339
      -0.319
      -0.277
      -0.220
      -0.169
      -0.149
      -0.188
      -0.292
      -0.449
      -0.633
      -0.810
      -0.946
      -1.011
      -0.980
      -0.839
      -0.593
      -0.268
       0.092
       0.443
       0.760
       1.034
       1.258
       1.417
       1.487
       1.455
       1.326
       1.129
       0.892
       0.639
       0.385
       0.143
      -0.075
      -0.255
      -0.384
      -0.453
      -0.465
      -0.438
      -0.400
      -0.373
      -0.369
      -0.382
      -0.402
      -0.420
      -0.432
      -0.442
      -0.452
      -0.454
      -0.435
      -0.387
      -0.317
      -0.245
      -0.183
      -0.124
      -0.042
       0.080
       0.236
       0.391
       0.505
       0.553
       0.533
       0.471
       0.404
       0.354
       0.316
       0.249
       0.104
      -0.138
      -0.430
      -0.679
      -0.795
      -0.750
      -0.589
      -0.400
      -0.255
      -0.171
      -0.116
      -0.042
       0.066
       0.186
       0.281
       0.335
       0.361
       0.380
       0.392
       0.364
       0.255
       0.052
      -0.212
      -0.474
      -0.665
      -0.748
      -0.722
      -0.626
      -0.507
      -0.402
      -0.324
      -0.263
      -0.208
      -0.155
      -0.109
      -0.077
      -0.050
      -0.009
       0.070
       0.198
       0.365
       0.542
       0.691
       0.787
       0.830
       0.835
       0.815
       0.766
       0.667
       0.506
       0.299
       0.088
      -0.077
      -0.173
      -0.215
      -0.237
      -0.275
      -0.338
      -0.406
      -0.446
      -0.425
      -0.337
      -0.205
      -0.068
       0.038
       0.102
       0.142
       0.188
       0.262
       0.366
       0.477
       0.566
       0.617
       0.633
       0.626
       0.606
       0.563
       0.473
       0.312
       0.082
      -0.183
      -0.422
      -0.578
      -0.631
      -0.603
      -0.539
      -0.473
      -0.411
      -0.338
      -0.240
      -0.120
       0.001
       0.111
       0.213
       0.331
       0.480
       0.647
       0.789
       0.859
       0.833
       0.725
       0.579
       0.440
       0.324
       0.215
       0.088
      -0.059
      -0.192
      -0.261
      -0.233
      -0.129
      -0.013
       0.044
       0.007
      -0.106
      -0.241
      -0.337
      -0.361
      -0.321
      -0.260
      -0.230
      -0.263
      -0.353
      -0.460
      -0.533
      -0.539
      -0.475
      -0.360
      -0.217
      -0.067
       0.077
       0.205
       0.309
       0.378
       0.397
       0.353
       0.239
       0.064
      -0.150
      -0.370
      -0.562
      -0.703
      -0.771
      -0.751
      -0.628
      -0.404
      -0.105
       0.217
       0.505
       0.717
       0.832
       0.849
       0.774
       0.624
       0.433
       0.245
       0.101
       0.023
       0.006
       0.023
       0.044
       0.053
       0.053
       0.062
       0.089
       0.124
       0.145
       0.137
       0.110
       0.081
       0.057
       0.013
      -0.087
      -0.255
      -0.456
      -0.621
      -0.690
      -0.641
      -0.490
      -0.277
      -0.047
       0.161
       0.314
       0.387
       0.378
       0.306
       0.211
       0.132
       0.099
       0.121
       0.190
       0.279
       0.351
       0.375
       0.335
       0.242
       0.113
      -0.035
      -0.194
      -0.362
      -0.531
      -0.681
      -0.783
      -0.808
      -0.742
      -0.595
      -0.403
      -0.211
      -0.062
       0.025
       0.052
       0.033
      -0.011
      -0.057
      -0.076
      -0.040
       0.070
       0.243
       0.430
       0.572
       0.629
       0.609
       0.552
       0.496
       0.442
       0.363
       0.238
       0.074
      -0.100
      -0.252
      -0.368
      -0.455
      -0.522
      -0.572
      -0.601
      -0.600
      -0.569
      -0.515
      -0.450
      -0.381
      -0.316
      -0.254
      -0.194
      -0.131
      -0.066
      -0.005
       0.042
       0.073
       0.091
       0.099
       0.101
       0.092
       0.069
       0.026
      -0.035
      -0.101
      -0.152
      -0.174
      -0.167
      -0.149
      -0.137
      -0.131
      -0.112
      -0.055
       0.048
       0.176
       0.286
       0.337
       0.311
       0.221
       0.110
       0.026
       0.000
       0.035
       0.106
       0.178
       0.224
       0.238
       0.223
       0.190
       0.153
       0.129
       0.132
       0.154
       0.164
       0.124
       0.018
      -0.127
      -0.267
      -0.359
      -0.388
      -0.353
      -0.258
      -0.108
       0.078
       0.265
       0.403
       0.454
       0.403
       0.275
       0.125
       0.010
      -0.040
      -0.033
      -0.016
      -0.036
      -0.110
      -0.213
      -0.294
      -0.312
      -0.263
      -0.178
      -0.099
      -0.052
      -0.034
      -0.030
      -0.022
      -0.003
       0.028
       0.062
       0.083
       0.078
       0.045
      -0.001
      -0.031
      -0.024
       0.026
       0.108
       0.204
       0.304
       0.408
       0.516
       0.619
       0.694
       0.714
       0.670
       0.572
       0.443
       0.306
       0.170
       0.037
      -0.085
      -0.178
      -0.220
      -0.199
      -0.125
      -0.029
       0.055
       0.100
       0.103
       0.074
       0.036
       0.011
       0.012
       0.040
       0.082
       0.118
       0.134
       0.134
       0.141
       0.174
       0.228
       0.282
       0.314
       0.328
       0.344
       0.374
       0.400
       0.382
       0.288
       0.115
      -0.107
      -0.335
      -0.529
      -0.659
      -0.711
      -0.683
      -0.595
      -0.480
      -0.369
      -0.281
      -0.218
      -0.175
      -0.155
      -0.171
      -0.231
      -0.325
      -0.415
      -0.458
      -0.423
      -0.305
      -0.127
       0.080
       0.287
       0.470
       0.610
       0.686
       0.692
       0.641
       0.556
       0.459
       0.357
