Origin Time       03/10/2012 17:48:28
Lat.              32.4 N 
Long.             76.3 E 
Depth (Km)         10.0
Magnitude         3.4
 Region           Chamba-DISTT.-HIMACHAL-PRADESH                                   
 Above details taken from IMD 
   
Station Code      CHM
Station Lat.       32.555
Station Long.      76.126
Station Height(m)  952.0
Site Class        A   Vs30 between 700 m/sec to 1400 m/sec * 
Record Time       03.10.2012 17:47:40.519
Sampling Rate     200. Hz
 Record Duration   65.050 Sec.
 Direction         Vert. (Up positive)
Max. Acceleration      1.524 cm/sec**2
     
  * For reference see Site Classification link of website 
     
 Base Line Corrected and Low Pass Filtered (Cut Off at 35 Hz) Time History
 Acceleration data in cm/sec**2
    
[...]
       0.004
      -0.002
      -0.008
      -0.009
      -0.006
       0.001
       0.007
       0.011
       0.012
       0.009
       0.005
       0.000
      -0.004
      -0.005
      -0.005
      -0.005
      -0.006
      -0.007
      -0.007
      -0.006
      -0.004
      -0.002
       0.000
       0.001
       0.003
       0.004
       0.006
       0.007
       0.005
       0.001
      -0.003
      -0.006
      -0.008
      -0.007
      -0.005
      -0.003
      -0.002
      -0.002
      -0.002
      -0.004
      -0.004
      -0.003
       0.000
       0.002
       0.003
       0.004
       0.004
       0.004
       0.002
       0.000
      -0.001
      -0.001
       0.001
       0.002
       0.002
       0.001
       0.000
       0.001
       0.001
       0.001
       0.001
       0.003
       0.005
       0.008
       0.009
       0.006
      -0.002
      -0.012
      -0.016
      -0.010
       0.001
       0.011
       0.013
       0.007
      -0.003
      -0.010
      -0.012
      -0.008
      -0.003
       0.000
       0.002
       0.003
       0.005
       0.007
       0.009
       0.011
       0.010
       0.004
      -0.004
      -0.010
      -0.012
      -0.011
      -0.008
      -0.008
      -0.011
      -0.015
      -0.016
      -0.013
      -0.008
      -0.004
      -0.003
      -0.004
      -0.006
      -0.007
      -0.005
       0.001
       0.006
       0.007
       0.004
      -0.002
      -0.008
      -0.013
      -0.014
      -0.008
       0.001
       0.008
       0.012
       0.013
       0.010
       0.008
       0.006
       0.005
       0.000
      -0.009
      -0.018
      -0.021
      -0.017
      -0.009
       0.000
       0.006
       0.010
       0.012
       0.010
       0.006
       0.001
      -0.002
      -0.005
      -0.008
      -0.008
      -0.008
      -0.006
      -0.005
      -0.004
      -0.005
      -0.003
      -0.002
      -0.001
      -0.002
      -0.002
      -0.002
      -0.002
      -0.004
      -0.006
      -0.003
       0.003
       0.009
       0.011
       0.009
       0.004
      -0.001
      -0.006
      -0.011
      -0.013
      -0.011
      -0.006
       0.000
       0.003
       0.001
      -0.002
      -0.005
      -0.005
      -0.002
       0.003
       0.007
       0.008
       0.005
       0.001
       0.000
       0.001
       0.001
      -0.001
      -0.003
      -0.003
       0.001
       0.009
       0.019
       0.026
       0.030
       0.027
       0.015
      -0.003
      -0.023
      -0.035
      -0.032
      -0.015
       0.008
       0.029
       0.045
       0.060
       0.071
       0.069
       0.048
       0.014
      -0.015
      -0.030
      -0.048
      -0.088
      -0.143
      -0.180
      -0.162
      -0.086
       0.022
       0.126
       0.205
       0.249
       0.250
       0.198
       0.096
      -0.029
      -0.142
      -0.222
      -0.266
      -0.276
      -0.241
      -0.153
      -0.029
       0.081
       0.134
       0.129
       0.112
       0.135
       0.198
       0.248
       0.228
       0.135
       0.014
      -0.086
      -0.150
      -0.194
      -0.242
      -0.300
      -0.330
      -0.263
      -0.068
       0.189
       0.369
       0.380
       0.263
       0.144
       0.099
       0.094
       0.048
      -0.062
      -0.177
      -0.228
      -0.208
      -0.163
      -0.134
      -0.113
      -0.066
       0.024
       0.130
       0.210
       0.231
       0.193
       0.115
       0.019
      -0.072
      -0.134
      -0.152
      -0.138
      -0.123
      -0.117
      -0.092
      -0.012
       0.104
       0.180
       0.165
       0.091
       0.048
       0.077
       0.129
       0.115
       0.002
      -0.148
      -0.227
      -0.178
      -0.057
       0.009
      -0.058
      -0.192
      -0.227
      -0.064
       0.202
       0.357
       0.271
       0.028
      -0.151
      -0.123
       0.051
       0.181
       0.129
      -0.067
      -0.238
      -0.247
      -0.109
       0.044
       0.096
       0.047
      -0.011
       0.001
       0.076
       0.139
       0.116
      -0.001
      -0.143
      -0.213
      -0.159
      -0.015
       0.142
       0.252
       0.305
       0.305
       0.249
       0.137
      -0.008
      -0.156
      -0.301
      -0.444
      -0.554
      -0.575
      -0.470
      -0.263
      -0.014
       0.220
       0.402
       0.509
       0.519
       0.429
       0.262
       0.060
      -0.130
      -0.268
      -0.322
      -0.267
      -0.104
       0.125
       0.319
       0.356
       0.179
      -0.134
      -0.390
      -0.427
      -0.242
       0.013
       0.164
       0.155
       0.066
       0.020
       0.057
       0.103
       0.055
      -0.098
      -0.239
      -0.227
      -0.040
       0.183
       0.261
       0.126
      -0.126
      -0.311
      -0.297
      -0.099
       0.136
       0.244
       0.174
       0.009
      -0.112
      -0.108
       0.002
       0.133
       0.188
       0.102
      -0.109
      -0.325
      -0.379
      -0.205
       0.079
       0.256
       0.223
       0.083
       0.039
       0.177
       0.374
       0.408
       0.168
      -0.230
      -0.513
      -0.475
      -0.149
       0.217
       0.367
       0.234
      -0.046
      -0.261
      -0.279
      -0.121
       0.073
       0.162
       0.111
       0.005
      -0.054
      -0.049
      -0.031
      -0.032
      -0.028
       0.012
       0.065
       0.072
       0.018
      -0.034
      -0.008
       0.087
       0.141
       0.058
      -0.113
      -0.204
      -0.100
       0.110
       0.193
      -0.001
      -0.375
      -0.640
      -0.552
      -0.114
       0.425
       0.749
       0.696
       0.352
      -0.032
      -0.225
      -0.187
      -0.073
      -0.080
      -0.245
      -0.402
      -0.348
      -0.049
       0.329
       0.565
       0.538
       0.268
      -0.114
      -0.417
      -0.480
      -0.287
       0.007
       0.196
       0.205
       0.122
       0.067
       0.063
       0.024
      -0.139
      -0.410
      -0.640
      -0.623
      -0.240
       0.399
       0.967
       1.114
       0.733
       0.068
      -0.468
      -0.604
      -0.392
      -0.098
       0.055
       0.040
      -0.038
      -0.076
      -0.036
       0.057
       0.127
       0.091
      -0.047
      -0.148
      -0.064
       0.178
       0.354
       0.263
      -0.051
      -0.323
      -0.319
      -0.051
       0.248
       0.335
       0.133
      -0.223
      -0.489
      -0.475
      -0.187
       0.158
       0.296
       0.141
      -0.129
      -0.232
      -0.052
       0.246
       0.364
       0.139
      -0.299
      -0.632
      -0.601
      -0.211
       0.290
       0.609
       0.626
       0.447
       0.264
       0.174
       0.109
      -0.067
      -0.377
      -0.641
      -0.598
      -0.156
       0.460
       0.840
       0.718
       0.196
      -0.346
      -0.566
      -0.421
      -0.144
       0.000
      -0.055
      -0.155
      -0.102
       0.134
       0.375
       0.387
       0.108
      -0.269
      -0.446
      -0.290
       0.039
       0.249
       0.190
      -0.017
      -0.132
      -0.038
       0.163
       0.274
       0.189
      -0.034
      -0.241
      -0.311
      -0.222
      -0.035
       0.172
       0.337
       0.409
       0.341
       0.109
      -0.234
      -0.560
      -0.738
      -0.714
      -0.529
      -0.247
       0.085
       0.410
       0.632
       0.653
       0.464
       0.184
      -0.027
      -0.079
      -0.009
       0.054
       0.005
      -0.142
      -0.247
      -0.182
       0.031
       0.216
       0.214
       0.043
      -0.129
      -0.149
      -0.012
       0.150
       0.199
       0.105
      -0.049
      -0.168
      -0.239
      -0.320
      -0.441
      -0.525
      -0.438
      -0.121
       0.319
       0.658
       0.710
       0.465
       0.089
      -0.206
      -0.308
      -0.265
      -0.201
      -0.189
      -0.180
      -0.077
       0.129
       0.311
       0.325
       0.162
      -0.016
      -0.022
       0.176
       0.420
       0.490
       0.277
      -0.132
      -0.513
      -0.660
      -0.538
      -0.303
      -0.150
      -0.127
      -0.088
       0.135
       0.514
       0.809
       0.774
       0.392
      -0.110
      -0.459
      -0.534
      -0.416
      -0.264
      -0.182
      -0.175
      -0.184
      -0.157
      -0.090
      -0.014
       0.044
       0.083
       0.120
       0.167
       0.216
       0.245
       0.229
       0.157
       0.050
      -0.047
      -0.104
      -0.120
      -0.108
      -0.072
      -0.034
      -0.040
      -0.125
      -0.247
      -0.295
      -0.184
       0.055
       0.283
       0.368
       0.292
       0.163
       0.114
       0.187
       0.299
       0.326
       0.213
       0.012
      -0.184
      -0.330
      -0.445
      -0.563
      -0.653
      -0.620
      -0.384
       0.026
       0.452
       0.697
       0.657
       0.386
       0.054
      -0.180
      -0.256
      -0.226
      -0.176
      -0.135
      -0.066
       0.072
       0.245
       0.339
       0.253
      -0.007
      -0.318
      -0.528
      -0.558
      -0.430
      -0.218
       0.020
       0.255
       0.468
       0.628
       0.686
       0.599
       0.367
       0.057
      -0.203
      -0.295
      -0.192
       0.012
       0.156
       0.120
      -0.104
      -0.424
      -0.707
      -0.846
      -0.786
      -0.529
      -0.139
       0.276
       0.603
       0.774
       0.781
       0.661
       0.473
       0.292
       0.174
       0.122
       0.081
      -0.009
      -0.166
      -0.356
      -0.526
      -0.622
      -0.597
      -0.444
      -0.226
      -0.050
       0.019
       0.015
       0.035
       0.136
       0.285
       0.407
       0.452
       0.417
       0.321
       0.185
       0.034
      -0.105
      -0.219
      -0.304
      -0.348
      -0.317
      -0.202
      -0.060
       0.010
      -0.043
      -0.166
      -0.239
      -0.179
      -0.002
       0.196
       0.332
       0.391
       0.410
       0.412
       0.379
       0.289
       0.140
      -0.049
      -0.263
      -0.478
      -0.631
      -0.636
      -0.439
      -0.089
       0.264
       0.454
       0.421
       0.256
       0.127
       0.127
       0.187
       0.151
      -0.037
      -0.260
      -0.345
      -0.253
      -0.121
      -0.111
      -0.242
      -0.370
      -0.329
      -0.075
       0.270
       0.511
       0.515
       0.311
       0.065
      -0.063
      -0.041
       0.031
       0.034
      -0.063
      -0.188
      -0.250
      -0.214
      -0.109
       0.014
       0.112
       0.154
       0.130
       0.066
       0.020
       0.035
       0.097
       0.149
       0.149
       0.106
       0.068
       0.069
       0.098
       0.112
       0.074
      -0.005
      -0.067
      -0.066
      -0.018
       0.005
      -0.064
      -0.228
      -0.413
      -0.515
      -0.460
      -0.252
       0.026
       0.257
       0.356
       0.317
       0.217
       0.158
       0.190
       0.270
       0.303
       0.240
       0.118
       0.018
      -0.028
      -0.065
      -0.154
      -0.287
      -0.371
      -0.302
      -0.065
       0.231
       0.425
       0.407
       0.189
      -0.109
      -0.338
      -0.411
      -0.336
      -0.186
      -0.035
       0.083
       0.172
       0.240
       0.277
       0.258
       0.164
       0.010
      -0.158
      -0.284
      -0.338
      -0.319
      -0.238
      -0.104
       0.068
       0.245
       0.383
       0.440
       0.395
       0.261
       0.097
      -0.017
      -0.042
      -0.005
       0.023
       0.001
      -0.064
      -0.141
      -0.210
      -0.258
      -0.263
      -0.197
      -0.064
       0.090
       0.202
       0.221
       0.145
       0.013
      -0.111
      -0.179
      -0.179
      -0.138
      -0.088
      -0.042
       0.015
       0.093
       0.176
       0.223
       0.207
       0.156
       0.135
       0.176
       0.225
       0.178
      -0.020
      -0.308
      -0.542
      -0.592
      -0.423
      -0.117
       0.172
       0.311
       0.269
       0.138
       0.051
       0.068
       0.149
       0.207
       0.194
       0.113
      -0.012
      -0.160
      -0.309
      -0.431
      -0.493
      -0.460
      -0.312
      -0.057
       0.260
       0.565
       0.780
       0.830
       0.670
       0.317
      -0.119
      -0.481
      -0.653
      -0.626
      -0.483
      -0.316
      -0.163
      -0.015
       0.131
       0.244
       0.279
       0.237
       0.188
       0.218
       0.351
       0.519
       0.610
       0.545
       0.327
       0.024
      -0.276
      -0.513
      -0.672
      -0.761
      -0.779
      -0.692
      -0.461
      -0.098
       0.307
       0.614
       0.713
       0.589
       0.322
       0.025
      -0.208
      -0.325
      -0.312
      -0.206
      -0.094
      -0.050
      -0.058
      -0.015
       0.170
       0.472
       0.753
       0.869
       0.767
       0.482
       0.080
      -0.380
      -0.833
      -1.174
      -1.278
      -1.077
      -0.611
      -0.019
       0.535
       0.928
       1.099
       1.039
       0.783
       0.415
       0.034
      -0.293
      -0.557
      -0.779
      -0.967
      -1.087
      -1.078
      -0.887
      -0.503
       0.021
       0.578
       1.055
       1.380
       1.524
       1.465
       1.193
       0.744
       0.225
      -0.240
      -0.574
      -0.768
      -0.848
      -0.839
      -0.779
      -0.717
      -0.687
      -0.655
      -0.533
      -0.256
       0.132
       0.495
       0.724
       0.828
       0.901
       0.989
       1.028
       0.896
       0.529
      -0.026
      -0.635
      -1.135
      -1.390
      -1.326
      -0.946
      -0.336
       0.345
       0.894
       1.137
       1.013
       0.605
       0.092
      -0.345
      -0.597
      -0.654
      -0.589
      -0.508
      -0.476
      -0.485
      -0.463
      -0.337
      -0.096
       0.198
       0.449
       0.591
       0.636
       0.650
       0.683
       0.712
       0.651
       0.429
       0.066
      -0.316
      -0.573
      -0.628
      -0.511
      -0.319
      -0.156
      -0.092
      -0.148
      -0.278
      -0.379
      -0.338
      -0.124
       0.179
       0.428
       0.538
       0.529
       0.481
       0.440
       0.380
       0.243
       0.016
      -0.234
      -0.393
      -0.385
      -0.231
      -0.036
       0.095
       0.121
       0.055
      -0.080
      -0.267
      -0.462
      -0.587
      -0.573
      -0.422
      -0.217
      -0.047
       0.064
       0.159
       0.291
       0.458
       0.595
       0.637
       0.582
       0.480
       0.375
       0.260
       0.092
      -0.143
      -0.399
      -0.592
      -0.652
      -0.576
      -0.423
      -0.273
      -0.164
      -0.077
       0.041
       0.210
       0.397
       0.528
       0.536
       0.405
       0.187
      -0.024
      -0.156
      -0.200
      -0.223
      -0.301
      -0.444
      -0.561
      -0.515
      -0.246
       0.159
       0.519
       0.687
       0.641
       0.470
       0.299
       0.206
       0.190
       0.189
       0.126
      -0.036
      -0.278
      -0.549
      -0.787
      -0.932
      -0.934
      -0.779
      -0.503
      -0.161
       0.213
       0.603
       0.972
       1.226
       1.262
       1.044
       0.632
       0.149
      -0.287
      -0.603
      -0.769
      -0.782
      -0.661
      -0.447
      -0.195
       0.034
       0.193
       0.255
       0.208
       0.064
      -0.116
      -0.236
      -0.207
      -0.023
       0.233
       0.434
       0.491
       0.388
       0.176
      -0.066
      -0.260
      -0.356
      -0.350
      -0.273
      -0.162
      -0.046
       0.060
       0.133
       0.162
       0.154
       0.138
       0.130
       0.115
       0.066
      -0.024
      -0.128
      -0.208
      -0.240
      -0.221
      -0.166
      -0.093
      -0.020
       0.038
       0.075
       0.086
       0.072
       0.036
      -0.015
      -0.076
      -0.144
      -0.204
      -0.219
      -0.138
       0.052
       0.291
       0.480
       0.545
       0.485
       0.364
       0.250
       0.167
       0.089
      -0.033
      -0.223
      -0.456
      -0.658
      -0.744
      -0.665
      -0.430
      -0.103
       0.236
       0.511
       0.676
       0.711
       0.627
       0.452
       0.215
      -0.058
      -0.342
      -0.598
      -0.766
      -0.788
      -0.640
      -0.363
      -0.056
       0.184
       0.316
       0.366
       0.368
       0.324
       0.217
       0.057
      -0.095
      -0.150
      -0.061
       0.127
       0.299
       0.347
       0.258
       0.110
      -0.009
      -0.091
      -0.187
      -0.320
      -0.419
      -0.367
      -0.117
       0.244
       0.551
       0.670
       0.569
       0.308
      -0.010
      -0.292
      -0.482
      -0.560
      -0.525
      -0.384
      -0.142
       0.175
       0.510
       0.769
       0.860
       0.728
       0.388
      -0.079
      -0.558
      -0.942
      -1.156
      -1.173
      -1.011
      -0.728
      -0.393
      -0.060
       0.251
       0.536
       0.773
       0.916
       0.917
       0.770
       0.514
       0.208
      -0.116
      -0.442
      -0.736
      -0.922
      -0.912
      -0.670
      -0.263
       0.159
       0.439
       0.506
       0.412
       0.292
       0.262
       0.334
       0.427
       0.447
       0.383
       0.309
       0.309
       0.386
       0.441
       0.354
       0.082
      -0.299
      -0.636
      -0.795
      -0.735
      -0.509
      -0.227
       0.016
       0.175
       0.250
       0.248
       0.166
      -0.002
      -0.221
      -0.413
      -0.484
      -0.374
      -0.101
       0.248
       0.553
       0.721
       0.720
       0.586
       0.380
       0.144
      -0.112
      -0.373
      -0.600
      -0.737
      -0.756
      -0.674
      -0.531
      -0.360
      -0.189
      -0.046
       0.047
       0.089
       0.100
       0.099
       0.089
       0.058
       0.007
      -0.034
      -0.026
       0.050
       0.160
       0.238
       0.236
       0.159
       0.061
       0.004
       0.026
       0.118
       0.231
       0.303
       0.296
       0.224
       0.140
       0.094
       0.092
       0.096
       0.064
       0.007
      -0.018
       0.040
       0.165
       0.271
       0.266
       0.121
      -0.116
      -0.348
      -0.500
      -0.545
      -0.505
      -0.423
      -0.326
      -0.213
      -0.076
       0.070
       0.176
       0.193
       0.118
       0.001
      -0.099
      -0.150
      -0.156
      -0.129
      -0.074
       0.004
       0.082
       0.124
       0.101
       0.014
      -0.107
      -0.229
      -0.335
      -0.421
      -0.463
      -0.408
      -0.212
       0.108
       0.457
       0.729
       0.877
       0.925
       0.915
       0.856
       0.731
       0.542
       0.325
       0.123
      -0.043
      -0.180
      -0.301
      -0.412
      -0.507
      -0.573
      -0.605
      -0.608
      -0.586
