Origin Time       11/11/2012 20:23:12
Lat.              32.3 N 
Long.             76.2 E 
Depth (Km)          5.0
Magnitude         4.0
 Region           Chamba-KANGRA-DISTT.-BORDER                                      
 Above details taken from IMD 
     
Station Code      CHM
Station Lat.       32.555  N
Station Long.      76.126  E
Station Height(m)  952.0
Site Class        A   Vs30 between 700 m/sec to 1400 m/sec * 
Record Time       11.11.2012 20:22:03.019
Sampling Rate     200. Hz
 Record Duration   70.860 Sec.
 Direction         E-W (E positive)
Max. Acceleration      2.268 cm/sec**2
     
  * For reference see Site Classification link of website 
     
 Base Line Corrected and Low Pass Filtered (Cut Off at 35 Hz) Time History
 Acceleration data in cm/sec**2
    
[...]
      -0.275
       0.059
       0.401
       0.634
       0.692
       0.598
       0.441
       0.307
       0.217
       0.137
       0.033
      -0.073
      -0.126
      -0.106
      -0.066
      -0.092
      -0.211
      -0.357
      -0.425
      -0.365
      -0.216
      -0.059
       0.048
       0.112
       0.185
       0.313
       0.487
       0.631
       0.645
       0.466
       0.122
      -0.276
      -0.589
      -0.729
      -0.710
      -0.637
      -0.626
      -0.705
      -0.771
      -0.653
      -0.244
       0.401
       1.078
       1.552
       1.675
       1.437
       0.922
       0.238
      -0.511
      -1.207
      -1.707
      -1.877
      -1.659
      -1.113
      -0.400
       0.285
       0.795
       1.082
       1.197
       1.221
       1.188
       1.039
       0.684
       0.112
      -0.537
      -1.020
      -1.145
      -0.892
      -0.410
       0.089
       0.464
       0.693
       0.828
       0.900
       0.876
       0.690
       0.322
      -0.156
      -0.615
      -0.940
      -1.096
      -1.125
      -1.084
      -0.977
      -0.760
      -0.399
       0.074
       0.564
       0.969
       1.221
       1.292
       1.174
       0.878
       0.450
      -0.027
      -0.459
      -0.779
      -0.968
      -1.029
      -0.956
      -0.725
      -0.328
       0.177
       0.665
       0.978
       1.008
       0.757
       0.336
      -0.094
      -0.404
      -0.555
      -0.593
      -0.598
      -0.616
      -0.621
      -0.542
      -0.329
      -0.004
       0.343
       0.603
       0.717
       0.705
       0.655
       0.648
       0.688
       0.686
       0.544
       0.254
      -0.088
      -0.359
      -0.519
      -0.619
      -0.722
      -0.818
      -0.822
      -0.658
      -0.334
       0.051
       0.363
       0.502
       0.440
       0.233
      -0.015
      -0.206
      -0.302
      -0.318
      -0.278
      -0.183
      -0.030
       0.161
       0.349
       0.499
       0.601
       0.669
       0.720
       0.756
       0.747
       0.653
       0.446
       0.141
      -0.197
      -0.501
      -0.740
      -0.927
      -1.073
      -1.140
      -1.061
      -0.810
      -0.459
      -0.146
       0.025
       0.063
       0.076
       0.178
       0.406
       0.700
       0.954
       1.081
       1.048
       0.875
       0.608
       0.304
       0.018
      -0.208
      -0.364
      -0.472
      -0.560
      -0.619
      -0.596
      -0.442
      -0.166
       0.142
       0.349
       0.362
       0.189
      -0.072
      -0.297
      -0.406
      -0.396
      -0.333
      -0.302
      -0.337
      -0.385
      -0.347
      -0.173
       0.085
       0.314
       0.438
       0.466
       0.465
       0.487
       0.531
       0.553
       0.497
       0.337
       0.099
      -0.161
      -0.394
      -0.584
      -0.732
      -0.820
      -0.807
      -0.658
      -0.391
      -0.073
       0.214
       0.410
       0.499
       0.487
       0.391
       0.228
       0.037
      -0.124
      -0.193
      -0.149
      -0.025
       0.126
       0.270
       0.419
       0.593
       0.779
       0.911
       0.910
       0.739
       0.430
       0.077
      -0.220
      -0.402
      -0.488
      -0.541
      -0.610
      -0.677
      -0.677
      -0.556
      -0.325
      -0.060
       0.137
       0.200
       0.131
      -0.003
      -0.129
      -0.205
      -0.232
      -0.226
      -0.192
      -0.121
      -0.012
       0.120
       0.243
       0.329
       0.378
       0.405
       0.431
       0.451
       0.429
       0.325
       0.133
      -0.095
      -0.268
      -0.323
      -0.268
      -0.183
      -0.146
      -0.179
      -0.242
      -0.279
      -0.269
      -0.229
      -0.189
      -0.159
      -0.131
      -0.083
      -0.007
       0.083
       0.166
       0.227
       0.270
       0.293
       0.274
       0.188
       0.051
      -0.065
      -0.076
       0.034
       0.186
       0.261
       0.185
      -0.016
      -0.231
      -0.344
      -0.309
      -0.185
      -0.091
      -0.108
      -0.217
      -0.322
      -0.344
      -0.294
      -0.249
      -0.273
      -0.345
      -0.374
      -0.263
       0.021
       0.429
       0.846
       1.152
       1.271
       1.194
       0.958
       0.609
       0.194
      -0.228
      -0.578
      -0.775
      -0.779
      -0.620
      -0.375
      -0.118
       0.112
       0.299
       0.407
       0.393
       0.252
       0.057
      -0.088
      -0.129
      -0.110
      -0.118
      -0.195
      -0.297
      -0.344
      -0.296
      -0.191
      -0.099
      -0.056
      -0.033
       0.031
       0.167
       0.342
       0.489
       0.552
       0.514
       0.388
       0.195
      -0.035
      -0.261
      -0.432
      -0.520
      -0.533
      -0.505
      -0.467
      -0.424
      -0.351
      -0.231
      -0.070
       0.096
       0.222
       0.279
       0.269
       0.222
       0.183
       0.186
       0.227
       0.271
       0.276
       0.222
       0.119
      -0.007
      -0.125
      -0.206
      -0.225
      -0.171
      -0.054
       0.093
       0.225
       0.301
       0.297
       0.221
       0.107
      -0.003
      -0.075
      -0.105
      -0.112
      -0.113
      -0.111
      -0.088
      -0.029
       0.065
       0.171
       0.263
       0.314
       0.301
       0.213
       0.072
      -0.062
      -0.131
      -0.115
      -0.052
       0.002
       0.015
      -0.007
      -0.039
      -0.065
      -0.089
      -0.124
      -0.173
      -0.227
      -0.274
      -0.305
      -0.314
      -0.292
      -0.226
      -0.113
       0.026
       0.156
       0.231
       0.226
       0.150
       0.046
      -0.033
      -0.062
      -0.041
       0.020
       0.116
       0.235
       0.341
       0.379
       0.310
       0.142
      -0.065
      -0.234
      -0.317
      -0.312
      -0.252
      -0.177
      -0.103
      -0.031
       0.041
       0.100
       0.124
       0.101
       0.035
      -0.059
      -0.166
      -0.267
      -0.338
      -0.353
      -0.294
      -0.160
       0.026
       0.220
       0.366
       0.412
       0.339
       0.171
      -0.022
      -0.165
      -0.220
      -0.201
      -0.155
      -0.122
      -0.103
      -0.079
      -0.039
      -0.010
      -0.025
      -0.083
      -0.137
      -0.118
       0.013
       0.233
       0.473
       0.650
       0.692
       0.559
       0.268
      -0.095
      -0.401
      -0.542
      -0.493
      -0.311
      -0.095
       0.078
       0.180
       0.226
       0.249
       0.271
       0.284
       0.261
       0.173
       0.024
      -0.147
      -0.291
      -0.376
      -0.400
      -0.379
      -0.331
      -0.268
      -0.192
      -0.104
       0.003
       0.136
       0.290
       0.432
       0.505
       0.466
       0.320
       0.124
      -0.047
      -0.140
      -0.147
      -0.098
      -0.039
       0.000
       0.019
       0.044
       0.088
       0.136
       0.149
       0.105
       0.020
      -0.069
      -0.132
      -0.161
      -0.165
      -0.149
      -0.113
      -0.060
      -0.007
       0.029
       0.039
       0.025
      -0.012
      -0.071
      -0.135
      -0.163
      -0.114
       0.009
       0.143
       0.204
       0.158
       0.050
      -0.031
      -0.034
       0.015
       0.038
      -0.010
      -0.100
      -0.153
      -0.111
       0.000
       0.101
       0.124
       0.071
      -0.004
      -0.043
      -0.042
      -0.038
      -0.073
      -0.153
      -0.236
      -0.266
      -0.208
      -0.074
       0.082
       0.192
       0.215
       0.166
       0.102
       0.075
       0.090
       0.107
       0.084
       0.025
      -0.029
      -0.041
      -0.001
       0.071
       0.150
       0.213
       0.232
       0.175
       0.039
      -0.132
      -0.266
      -0.310
      -0.260
      -0.154
      -0.037
       0.058
       0.121
       0.153
       0.156
       0.131
       0.070
      -0.034
      -0.160
      -0.255
      -0.254
      -0.127
       0.086
       0.284
       0.366
       0.294
       0.129
      -0.010
      -0.035
       0.053
       0.161
       0.182
       0.080
      -0.090
      -0.234
      -0.298
      -0.296
      -0.281
      -0.291
      -0.316
      -0.314
      -0.260
      -0.161
      -0.059
       0.006
       0.018
       0.001
      -0.001
       0.049
       0.150
       0.261
       0.333
       0.351
       0.331
       0.294
       0.229
       0.108
      -0.063
      -0.224
      -0.295
      -0.239
      -0.087
       0.092
       0.238
       0.318
       0.322
       0.246
       0.099
      -0.090
      -0.267
      -0.371
      -0.361
      -0.242
      -0.057
       0.143
       0.318
       0.450
       0.517
       0.488
       0.347
       0.122
      -0.105
      -0.246
      -0.263
      -0.192
      -0.106
      -0.053
      -0.029
       0.007
       0.076
       0.166
       0.236
       0.246
       0.172
       0.005
      -0.225
      -0.441
      -0.541
      -0.459
      -0.219
       0.064
       0.257
       0.290
       0.188
       0.039
      -0.079
      -0.140
      -0.154
      -0.136
      -0.085
      -0.006
       0.076
       0.122
       0.105
       0.041
      -0.018
      -0.020
       0.043
       0.127
       0.150
       0.048
      -0.183
      -0.469
      -0.687
      -0.730
      -0.561
      -0.236
       0.122
       0.384
       0.470
       0.384
       0.195
      -0.009
      -0.163
      -0.251
      -0.296
      -0.337
      -0.389
      -0.421
      -0.363
      -0.170
       0.124
       0.407
       0.555
       0.517
       0.345
       0.139
      -0.034
      -0.162
      -0.260
      -0.313
      -0.276
      -0.123
       0.099
       0.276
       0.310
       0.194
       0.025
      -0.072
      -0.040
       0.078
       0.183
       0.207
       0.154
       0.081
       0.050
       0.080
       0.137
       0.157
       0.092
      -0.062
      -0.245
      -0.358
      -0.308
      -0.066
       0.297
       0.639
       0.823
       0.787
       0.560
       0.224
      -0.126
      -0.413
      -0.584
      -0.611
      -0.501
      -0.292
      -0.042
       0.186
       0.342
       0.397
       0.353
       0.232
       0.066
      -0.122
      -0.324
      -0.533
      -0.720
      -0.827
      -0.785
      -0.547
      -0.132
       0.360
       0.769
       0.950
       0.859
       0.578
       0.252
      -0.002
      -0.156
      -0.246
      -0.313
      -0.357
      -0.350
      -0.262
      -0.093
       0.132
       0.365
       0.539
       0.578
       0.433
       0.127
      -0.237
      -0.517
      -0.611
      -0.508
      -0.282
      -0.031
       0.169
       0.280
       0.288
       0.192
       0.022
      -0.152
      -0.245
      -0.202
      -0.033
       0.200
       0.415
       0.547
       0.561
       0.453
       0.246
      -0.010
      -0.241
      -0.383
      -0.413
      -0.357
      -0.267
      -0.174
      -0.080
       0.034
       0.160
       0.249
       0.230
       0.057
      -0.243
      -0.573
      -0.811
      -0.867
      -0.733
      -0.466
      -0.158
       0.121
       0.333
       0.472
       0.540
       0.538
       0.473
       0.358
       0.214
       0.060
      -0.095
      -0.243
      -0.368
      -0.440
      -0.422
      -0.300
      -0.098
       0.120
       0.278
       0.320
       0.239
       0.078
      -0.081
      -0.166
      -0.147
      -0.060
       0.028
       0.067
       0.063
       0.061
       0.099
       0.162
       0.209
       0.224
       0.243
       0.327
       0.490
       0.666
       0.745
       0.655
       0.404
       0.072
      -0.252
      -0.511
      -0.687
      -0.778
      -0.788
      -0.722
      -0.590
      -0.409
      -0.191
       0.054
       0.308
       0.525
       0.646
       0.628
       0.481
       0.266
       0.055
      -0.110
      -0.222
      -0.280
      -0.278
      -0.212
      -0.109
      -0.017
       0.023
       0.013
      -0.014
      -0.025
      -0.019
      -0.027
      -0.086
      -0.215
      -0.400
      -0.604
      -0.772
      -0.852
      -0.797
      -0.589
      -0.257
       0.129
       0.482
       0.736
       0.866
       0.884
       0.819
       0.711
       0.606
       0.551
       0.551
       0.552
       0.461
       0.207
      -0.194
      -0.635
      -0.973
      -1.105
      -1.019
      -0.782
      -0.499
      -0.258
      -0.094
       0.011
       0.114
       0.264
       0.476
       0.707
       0.881
       0.933
       0.843
       0.644
       0.400
       0.178
       0.030
      -0.004
       0.087
       0.280
       0.510
       0.696
       0.775
       0.725
       0.563
       0.310
      -0.021
      -0.426
      -0.874
      -1.296
      -1.596
      -1.694
      -1.561
      -1.237
      -0.807
      -0.368
       0.005
       0.273
       0.425
       0.464
       0.417
       0.335
       0.281
       0.290
       0.351
       0.414
       0.432
       0.389
       0.298
       0.164
      -0.026
      -0.288
      -0.611
      -0.937
      -1.187
      -1.290
      -1.220
      -1.002
      -0.710
      -0.441
      -0.268
      -0.205
      -0.214
      -0.244
      -0.263
      -0.269
      -0.259
      -0.204
      -0.050
       0.250
       0.698
       1.229
       1.731
       2.099
       2.268
       2.221
       1.975
       1.560
       1.024
       0.434
      -0.124
      -0.557
      -0.803
      -0.858
      -0.771
      -0.631
      -0.523
      -0.508
      -0.606
      -0.786
      -0.974
      -1.076
      -1.016
      -0.776
      -0.401
       0.035
       0.457
       0.809
       1.052
       1.160
       1.135
       1.013
       0.847
       0.696
       0.605
       0.602
       0.687
       0.836
       1.001
       1.127
       1.163
       1.078
       0.866
       0.556
       0.205
      -0.117
      -0.359
      -0.507
      -0.587
      -0.644
      -0.705
      -0.771
      -0.826
      -0.859
      -0.876
      -0.900
      -0.950
      -1.030
      -1.123
      -1.203
      -1.251
      -1.264
      -1.247
      -1.198
      -1.110
      -0.983
      -0.839
      -0.715
      -0.642
      -0.623
      -0.626
      -0.605
      -0.528
      -0.400
      -0.256
      -0.128
      -0.022
       0.089
       0.236
       0.416
       0.582
       0.660
       0.605
       0.439
       0.240
       0.096
       0.047
       0.073
       0.114
       0.131
       0.129
       0.152
       0.242
       0.404
       0.598
       0.764
       0.863
       0.905
       0.939
       1.011
       1.122
       1.237
       1.307
       1.310
       1.251
       1.147
       1.013
       0.854
       0.680
       0.503
       0.332
       0.165
       0.001
      -0.144
      -0.225
      -0.201
      -0.072
       0.110
       0.255
       0.290
       0.196
       0.011
      -0.198
      -0.379
      -0.517
      -0.617
      -0.681
      -0.689
      -0.620
      -0.481
      -0.309
      -0.149
      -0.030
       0.041
       0.071
       0.060
      -0.001
      -0.132
      -0.353
      -0.669
      -1.045
      -1.403
      -1.642
      -1.690
      -1.544
      -1.273
      -0.967
      -0.684
      -0.423
      -0.162
       0.096
       0.305
       0.412
       0.402
       0.321
       0.248
       0.249
       0.344
       0.502
       0.664
       0.789
       0.869
       0.923
       0.963
       0.970
       0.912
       0.771
       0.565
       0.340
       0.147
       0.013
      -0.059
      -0.094
      -0.123
      -0.166
      -0.221
      -0.276
      -0.319
      -0.344
      -0.349
      -0.338
      -0.321
      -0.303
      -0.286
      -0.257
      -0.203
      -0.120
      -0.016
       0.089
       0.171
       0.206
       0.168
       0.045
      -0.159
      -0.407
      -0.638
      -0.786
      -0.811
      -0.720
      -0.555
      -0.365
      -0.179
       0.007
       0.207
       0.423
       0.632
       0.797
       0.895
       0.933
       0.937
       0.926
       0.896
       0.823
       0.695
       0.531
       0.377
       0.272
       0.222
       0.204
       0.190
       0.174
       0.168
       0.179
       0.188
       0.163
       0.088
      -0.032
      -0.176
      -0.329
      -0.478
      -0.612
      -0.709
      -0.750
      -0.731
      -0.660
      -0.547
      -0.397
      -0.216
      -0.016
       0.173
       0.314
       0.381
       0.375
       0.317
       0.236
       0.143
       0.041
      -0.070
      -0.176
      -0.254
      -0.287
      -0.277
      -0.239
      -0.191
      -0.145
      -0.107
      -0.082
      -0.071
      -0.069
      -0.066
      -0.051
      -0.019
       0.028
       0.072
       0.084
       0.042
      -0.047
      -0.153
      -0.237
      -0.277
      -0.270
      -0.222
      -0.142
      -0.043
       0.050
       0.104
       0.093
       0.022
      -0.076
      -0.156
      -0.188
      -0.166
      -0.106
      -0.025
       0.067
       0.162
       0.247
       0.301
       0.313
       0.292
       0.258
       0.231
       0.221
       0.233
       0.271
       0.328
       0.376
       0.378
       0.310
       0.181
       0.028
      -0.108
      -0.210
      -0.287
      -0.362
      -0.446
      -0.532
      -0.598
      -0.622
      -0.598
      -0.534
      -0.443
      -0.328
      -0.187
      -0.028
       0.123
       0.220
       0.236
       0.179
       0.094
       0.036
       0.038
       0.096
       0.185
       0.276
       0.353
       0.411
       0.455
       0.487
       0.504
       0.503
       0.485
       0.461
       0.435
       0.409
       0.372
       0.313
       0.220
       0.092
      -0.054
      -0.183
      -0.258
      -0.260
      -0.200
      -0.120
      -0.058
      -0.025
      -0.002
       0.037
       0.098
       0.148
       0.140
       0.042
      -0.126
      -0.303
      -0.416
      -0.425
      -0.344
      -0.222
      -0.111
      -0.037
       0.001
       0.011
      -0.003
      -0.046
      -0.117
      -0.200
      -0.264
      -0.282
      -0.252
      -0.194
      -0.138
      -0.102
      -0.087
      -0.085
      -0.081
      -0.065
      -0.031
       0.011
       0.047
       0.070
       0.095
       0.143
       0.216
       0.295
       0.348
       0.358
       0.339
       0.317
       0.308
       0.307
       0.296
       0.265
       0.222
       0.188
       0.174
       0.172
       0.163
       0.130
       0.068
      -0.012
      -0.094
      -0.166
      -0.226
      -0.275
      -0.317
      -0.352
      -0.375
      -0.376
      -0.350
      -0.306
      -0.263
      -0.234
      -0.222
      -0.210
      -0.181
      -0.124
      -0.050
       0.019
       0.058
       0.061
       0.040
       0.027
       0.044
       0.100
       0.175
       0.241
       0.267
       0.244
       0.186
       0.128
       0.102
       0.117
       0.154
       0.180
       0.175
       0.136
       0.076
       0.008
      -0.061
      -0.123
      -0.169
      -0.190
      -0.185
      -0.161
      -0.126
      -0.087
      -0.044
