Origin Time       1/5/2013 06:57:12	  UTC
Lat.              33.1 N	
Long.             75.8 E	
Depth (Km)         15.0
Magnitude         5.8
 Region           JK-HP-Border                                                     
 Above details taken from IMD 
    
Station Code      CHM
Station Lat.       32.555  N
Station Long.      76.126  E
Station Height(m)  952.0
Site Class        A   Vs30 between 700 m/sec to 1400 m/sec * 
Record Time       01.05.2013 06:54:48.064 UTC
Sampling Rate     200. Hz
 Record Duration  119.220 Sec.
 Direction         N-S (N positive)
Max. Acceleration    -10.953 cm/sec**2
     
  * For reference see Site Classification link of website 
     
 Base Line Corrected and Low Pass Filtered (Cut Off at 35 Hz) Time History
 Acceleration data in cm/sec**2
    
[...]
       1.966
       1.497
       1.197
       1.249
       1.612
       2.047
       2.277
       2.193
       1.905
       1.593
       1.319
       0.971
       0.400
      -0.409
      -1.294
      -2.022
      -2.428
      -2.473
      -2.216
      -1.756
      -1.190
      -0.590
      -0.005
       0.516
       0.894
       1.032
       0.884
       0.523
       0.120
      -0.179
      -0.363
      -0.538
      -0.799
      -1.110
      -1.319
      -1.272
      -0.923
      -0.337
       0.374
       1.094
       1.707
       2.095
       2.186
       2.002
       1.645
       1.224
       0.780
       0.300
      -0.211
      -0.687
      -1.044
      -1.266
      -1.414
      -1.563
      -1.723
      -1.839
      -1.864
      -1.807
      -1.714
      -1.594
      -1.395
      -1.054
      -0.578
      -0.063
       0.369
       0.649
       0.796
       0.879
       0.949
       1.004
       1.013
       0.955
       0.828
       0.607
       0.228
      -0.365
      -1.136
      -1.925
      -2.517
      -2.744
      -2.567
      -2.059
      -1.338
      -0.510
       0.331
       1.047
       1.442
       1.343
       0.731
      -0.183
      -1.047
      -1.552
      -1.596
      -1.292
      -0.849
      -0.437
      -0.124
       0.101
       0.266
       0.384
       0.426
       0.344
       0.116
      -0.211
      -0.524
      -0.715
      -0.759
      -0.730
      -0.730
      -0.807
      -0.912
      -0.924
      -0.711
      -0.214
       0.488
       1.184
       1.627
       1.687
       1.449
       1.173
       1.117
       1.350
       1.701
       1.905
       1.817
       1.531
       1.287
       1.260
       1.421
       1.580
       1.549
       1.284
       0.891
       0.534
       0.314
       0.234
       0.235
       0.257
       0.256
       0.192
       0.023
      -0.260
      -0.612
      -0.950
      -1.202
      -1.352
      -1.443
      -1.518
      -1.570
      -1.533
      -1.336
      -0.983
      -0.572
      -0.240
      -0.077
      -0.074
      -0.136
      -0.139
       0.019
       0.387
       0.947
       1.624
       2.304
       2.845
       3.095
       2.923
       2.288
       1.313
       0.279
      -0.488
      -0.789
      -0.644
      -0.242
       0.185
       0.491
       0.653
       0.714
       0.710
       0.625
       0.438
       0.191
      -0.001
      -0.014
       0.203
       0.589
       1.015
       1.330
       1.413
       1.199
       0.726
       0.130
      -0.410
      -0.775
      -0.983
      -1.159
      -1.437
      -1.861
      -2.356
      -2.775
      -2.970
      -2.844
      -2.381
      -1.637
      -0.716
       0.278
       1.249
       2.094
       2.700
       2.958
       2.815
       2.285
       1.435
       0.365
      -0.792
      -1.862
      -2.662
      -3.068
      -3.069
      -2.761
      -2.275
      -1.695
      -1.046
      -0.352
       0.287
       0.690
       0.691
       0.255
      -0.474
      -1.243
      -1.809
      -2.029
      -1.875
      -1.433
      -0.884
      -0.475
      -0.421
      -0.788
      -1.432
      -2.057
      -2.371
      -2.229
      -1.683
      -0.916
      -0.134
       0.527
       1.017
       1.339
       1.491
       1.450
       1.190
       0.739
       0.194
      -0.303
      -0.628
      -0.720
      -0.588
      -0.295
       0.070
       0.419
       0.695
       0.907
       1.120
       1.397
       1.721
       1.966
       1.953
       1.573
       0.883
       0.093
      -0.541
      -0.863
      -0.879
      -0.720
      -0.544
      -0.453
      -0.463
      -0.528
      -0.588
      -0.607
      -0.586
      -0.540
      -0.460
      -0.313
      -0.090
       0.135
       0.214
       0.027
      -0.390
      -0.827
      -1.020
      -0.832
      -0.326
       0.313
       0.934
       1.477
       1.910
       2.168
       2.200
       2.061
       1.920
       1.939
       2.134
       2.346
       2.370
       2.112
       1.661
       1.216
       0.931
       0.820
       0.774
       0.664
       0.422
       0.051
      -0.410
      -0.902
      -1.329
      -1.554
      -1.464
      -1.054
      -0.474
       0.041
       0.318
       0.346
       0.253
       0.180
       0.170
       0.153
       0.059
      -0.086
      -0.150
      -0.002
       0.373
       0.840
       1.182
       1.229
       0.936
       0.380
      -0.298
      -0.955
      -1.455
      -1.677
      -1.547
      -1.102
      -0.521
      -0.042
       0.173
       0.126
      -0.048
      -0.206
      -0.283
      -0.291
      -0.256
      -0.202
      -0.172
      -0.230
      -0.406
      -0.625
      -0.720
      -0.542
      -0.072
       0.563
       1.169
       1.600
       1.822
       1.899
       1.903
       1.835
       1.607
       1.124
       0.402
      -0.384
      -0.980
      -1.201
      -1.042
      -0.673
      -0.334
      -0.217
      -0.376
      -0.709
      -1.013
      -1.088
      -0.855
      -0.413
       0.011
       0.209
       0.116
      -0.159
      -0.412
      -0.461
      -0.232
       0.212
       0.701
       1.035
       1.071
       0.784
       0.263
      -0.344
      -0.887
      -1.253
      -1.370
      -1.220
      -0.849
      -0.369
       0.086
       0.408
       0.533
       0.433
       0.103
      -0.415
      -1.019
      -1.562
      -1.917
      -2.035
      -1.948
      -1.704
      -1.307
      -0.739
      -0.035
       0.658
       1.137
       1.259
       1.020
       0.551
       0.026
      -0.425
      -0.762
      -1.022
      -1.258
      -1.477
      -1.622
      -1.623
      -1.477
      -1.272
      -1.129
      -1.106
      -1.137
      -1.074
      -0.786
      -0.252
       0.429
       1.098
       1.614
       1.902
       1.952
       1.791
       1.465
       1.040
       0.646
       0.480
       0.735
       1.471
       2.518
       3.519
       4.107
       4.114
       3.642
       2.959
       2.299
       1.726
       1.154
       0.507
      -0.156
      -0.640
      -0.760
      -0.495
      -0.037
       0.318
       0.349
       0.027
      -0.521
      -1.134
      -1.723
      -2.256
      -2.692
      -2.919
      -2.775
      -2.124
      -0.951
       0.571
       2.089
       3.182
       3.560
       3.220
       2.448
       1.639
       1.055
       0.719
       0.497
       0.278
       0.083
       0.026
       0.190
       0.525
       0.870
       1.054
       1.000
       0.745
       0.395
       0.065
      -0.172
      -0.318
      -0.459
      -0.721
      -1.172
      -1.734
      -2.195
      -2.341
      -2.101
      -1.605
      -1.094
      -0.767
      -0.681
      -0.744
      -0.800
      -0.735
      -0.538
      -0.308
      -0.189
      -0.270
      -0.513
      -0.771
      -0.893
      -0.842
      -0.707
      -0.618
      -0.645
      -0.777
      -0.961
      -1.153
      -1.320
      -1.413
      -1.374
      -1.185
      -0.915
      -0.694
      -0.600
      -0.571
      -0.417
       0.037
       0.801
       1.676
       2.371
       2.676
       2.583
       2.235
       1.767
       1.170
       0.328
      -0.796
      -1.998
      -2.855
      -2.974
      -2.276
      -1.083
       0.078
       0.809
       1.039
       0.957
       0.787
       0.608
       0.358
      -0.042
      -0.583
      -1.159
      -1.634
      -1.909
      -1.947
      -1.769
      -1.440
      -1.052
      -0.696
      -0.439
      -0.313
      -0.323
      -0.454
      -0.672
      -0.911
      -1.092
      -1.146
      -1.038
      -0.763
      -0.348
       0.156
       0.671
       1.102
       1.386
       1.502
       1.458
       1.243
       0.836
       0.253
      -0.397
      -0.944
      -1.240
      -1.224
      -0.908
      -0.332
       0.447
       1.315
       2.085
       2.563
       2.642
       2.371
       1.933
       1.556
       1.404
       1.498
       1.693
       1.744
       1.441
       0.746
      -0.171
      -1.023
      -1.575
      -1.741
      -1.573
      -1.155
      -0.548
       0.184
       0.919
       1.487
       1.750
       1.657
       1.234
       0.534
      -0.354
      -1.271
      -1.996
      -2.337
      -2.235
      -1.784
      -1.155
      -0.494
       0.104
       0.543
       0.682
       0.394
      -0.320
      -1.262
      -2.118
      -2.619
      -2.658
      -2.264
      -1.503
      -0.405
       1.000
       2.609
       4.198
       5.462
       6.121
       6.054
       5.368
       4.348
       3.285
       2.292
       1.265
       0.064
      -1.276
      -2.491
      -3.268
      -3.481
      -3.261
      -2.843
      -2.373
      -1.843
      -1.199
      -0.474
       0.171
       0.533
       0.503
       0.149
      -0.323
      -0.694
      -0.860
      -0.868
      -0.841
      -0.864
      -0.929
      -0.957
      -0.849
      -0.505
       0.171
       1.213
       2.501
       3.700
       4.343
       4.048
       2.740
       0.734
      -1.413
      -3.151
      -4.170
      -4.456
      -4.205
      -3.667
      -3.037
      -2.435
      -1.950
      -1.649
      -1.544
      -1.555
      -1.517
      -1.248
      -0.631
       0.340
       1.554
       2.807
       3.863
       4.544
       4.816
       4.784
       4.612
       4.405
       4.148
       3.756
       3.157
       2.360
       1.466
       0.636
       0.061
      -0.106
       0.166
       0.725
       1.282
       1.549
       1.364
       0.727
      -0.265
      -1.486
      -2.811
      -4.101
      -5.191
      -5.916
      -6.137
      -5.764
      -4.773
      -3.236
      -1.357
       0.542
       2.096
       2.998
       3.083
       2.367
       1.033
      -0.604
      -2.162
      -3.289
      -3.760
      -3.554
      -2.869
      -2.044
      -1.422
      -1.227
      -1.508
      -2.126
      -2.781
      -3.080
      -2.671
      -1.408
       0.550
       2.787
       4.803
       6.206
       6.823
       6.683
       5.932
       4.762
       3.390
       2.062
       1.020
       0.416
       0.240
       0.354
       0.590
       0.833
       1.015
       1.080
       0.986
       0.749
       0.445
       0.141
      -0.178
      -0.596
      -1.167
      -1.836
      -2.487
      -3.076
      -3.688
      -4.455
      -5.395
      -6.335
      -6.984
      -7.066
      -6.394
      -4.880
      -2.560
       0.347
       3.397
       6.017
       7.705
       8.210
       7.575
       6.037
       3.922
       1.583
      -0.623
      -2.380
      -3.471
      -3.816
      -3.464
      -2.565
      -1.338
      -0.044
       1.050
       1.728
       1.885
       1.562
       0.913
       0.142
      -0.558
      -1.030
      -1.185
      -1.045
      -0.743
      -0.454
      -0.281
      -0.207
      -0.141
      -0.017
       0.164
       0.374
       0.627
       1.011
       1.637
       2.546
       3.639
       4.691
       5.424
       5.599
       5.078
       3.861
       2.089
       0.011
      -2.081
      -3.916
      -5.263
      -5.939
      -5.830
      -4.952
      -3.515
      -1.910
      -0.594
       0.109
       0.179
      -0.112
      -0.381
      -0.382
      -0.115
       0.243
       0.497
       0.534
       0.324
      -0.114
      -0.694
      -1.233
      -1.489
      -1.305
      -0.714
       0.092
       0.924
       1.718
       2.493
       3.191
       3.580
       3.375
       2.468
       1.059
      -0.443
      -1.661
      -2.431
      -2.793
      -2.850
      -2.638
      -2.120
      -1.282
      -0.216
       0.901
       1.910
       2.766
       3.498
       4.091
       4.419
       4.321
       3.764
       2.924
       2.095
       1.493
       1.142
       0.910
       0.648
       0.294
      -0.141
      -0.629
      -1.160
      -1.724
      -2.276
      -2.734
      -2.997
      -3.029
      -2.933
      -2.945
      -3.284
      -3.948
      -4.658
      -5.031
      -4.848
      -4.177
      -3.265
      -2.324
      -1.428
      -0.579
       0.173
       0.707
       0.938
       0.934
       0.901
       1.051
       1.466
       2.050
       2.600
       2.898
       2.794
       2.237
       1.277
       0.044
      -1.280
      -2.499
      -3.434
      -3.950
      -3.977
      -3.531
      -2.703
      -1.632
      -0.470
       0.630
       1.528
       2.123
       2.393
       2.407
       2.291
       2.161
       2.069
       2.006
       1.934
       1.834
       1.744
       1.742
       1.903
       2.253
       2.747
       3.308
       3.862
       4.346
       4.673
       4.701
       4.255
       3.210
       1.583
      -0.441
      -2.567
      -4.530
      -6.218
      -7.680
      -9.000
     -10.117
     -10.736
     -10.454
      -9.045
      -6.707
      -4.028
      -1.663
       0.034
       1.133
       1.910
       2.535
       2.952
       3.024
       2.761
       2.376
       2.153
       2.242
       2.584
       3.000
       3.343
       3.583
       3.775
       3.982
       4.197
       4.338
       4.294
       4.003
       3.502
       2.912
       2.374
       1.951
       1.601
       1.223
       0.770
       0.322
       0.065
       0.164
       0.623
       1.214
       1.535
       1.196
       0.061
      -1.602
      -3.194
      -4.059
      -3.804
      -2.479
      -0.504
       1.577
       3.325
       4.496
       4.957
       4.582
       3.244
       0.931
      -2.130
      -5.442
      -8.352
     -10.282
     -10.953
     -10.492
      -9.331
      -7.956
      -6.660
      -5.472
      -4.259
      -2.890
      -1.327
       0.385
       2.170
       3.937
       5.567
       6.925
       7.924
       8.586
       9.043
       9.446
       9.860
      10.222
      10.397
      10.263
       9.736
       8.732
       7.130
       4.818
       1.845
      -1.466
      -4.573
      -6.956
      -8.357
      -8.840
      -8.644
      -7.993
      -7.029
      -5.884
      -4.780
      -4.007
      -3.781
      -4.100
      -4.721
      -5.270
      -5.430
      -5.077
      -4.309
      -3.350
      -2.393
      -1.511
      -0.682
       0.128
       0.923
       1.736
       2.696
       3.973
       5.603
       7.330
       8.672
       9.171
       8.655
       7.288
       5.409
       3.341
       1.315
      -0.497
      -1.959
      -2.991
      -3.574
      -3.705
      -3.349
      -2.471
      -1.141
       0.400
       1.799
       2.741
       3.069
       2.784
       1.977
       0.783
      -0.620
      -2.016
      -3.210
      -4.078
      -4.563
      -4.608
      -4.123
      -3.053
      -1.493
       0.248
       1.736
       2.602
       2.726
       2.248
       1.417
       0.411
      -0.707
      -1.903
      -3.086
      -4.110
      -4.849
      -5.240
      -5.297
      -5.104
      -4.797
      -4.525
      -4.372
      -4.289
      -4.093
      -3.541
      -2.460
      -0.840
       1.144
       3.194
       4.990
       6.294
       7.013
       7.195
       6.970
       6.472
       5.787
       4.965
       4.064
       3.174
       2.409
       1.861
       1.537
       1.351
       1.169
       0.900
       0.529
       0.078
      -0.457
      -1.110
      -1.886
      -2.705
      -3.428
      -3.936
      -4.212
      -4.326
      -4.346
      -4.269
      -4.035
      -3.597
      -2.970
      -2.202
      -1.312
      -0.287
       0.854
       2.002
       2.962
       3.544
       3.666
       3.369
       2.739
       1.816
       0.595
      -0.871
      -2.415
      -3.800
      -4.825
      -5.391
      -5.492
      -5.174
      -4.520
      -3.667
      -2.803
      -2.091
      -1.576
      -1.143
      -0.601
       0.179
       1.176
       2.255
       3.269
       4.158
       4.977
       5.836
       6.762
       7.589
       7.996
       7.714
       6.757
       5.470
       4.332
       3.666
       3.495
       3.627
       3.851
       4.048
       4.146
       4.021
       3.499
       2.464
       0.952
      -0.844
      -2.651
      -4.202
      -5.306
      -5.919
      -6.184
      -6.332
      -6.494
      -6.576
      -6.348
      -5.692
      -4.762
      -3.894
      -3.342
      -3.089
      -2.902
      -2.562
      -2.063
      -1.603
      -1.411
      -1.559
      -1.895
      -2.120
      -1.949
      -1.253
      -0.112
       1.236
       2.502
       3.437
       3.889
       3.806
       3.217
       2.205
       0.884
      -0.593
      -2.020
      -3.125
      -3.623
      -3.318
      -2.210
      -0.514
       1.438
       3.353
       5.046
       6.407
       7.321
       7.659
       7.351
       6.482
       5.279
       4.010
       2.829
       1.728
       0.614
      -0.547
      -1.657
      -2.573
      -3.248
      -3.788
      -4.333
      -4.896
      -5.326
      -5.448
      -5.234
      -4.821
      -4.370
      -3.948
      -3.551
      -3.226
      -3.085
      -3.185
      -3.377
      -3.338
      -2.758
      -1.558
       0.064
       1.785
       3.353
       4.683
       5.796
       6.695
       7.302
       7.491
       7.159
       6.277
       4.894
       3.139
       1.221
      -0.580
      -1.990
      -2.842
      -3.149
      -3.078
      -2.847
      -2.607
      -2.400
      -2.183
      -1.896
      -1.512
      -1.053
      -0.581
      -0.156
       0.174
       0.350
       0.274
      -0.160
      -0.971
      -2.012
      -3.014
      -3.713
      -3.961
      -3.728
      -3.043
      -1.958
      -0.574
       0.932
       2.342
       3.483
       4.296
       4.828
       5.146
       5.261
       5.116
       4.639
       3.820
       2.741
       1.533
       0.341
      -0.690
      -1.421
      -1.761
      -1.748
      -1.555
      -1.389
      -1.328
      -1.259
      -0.972
      -0.342
       0.563
       1.529
       2.345
       2.914
       3.250
       3.385
       3.288
       2.869
       2.067
       0.957
      -0.224
      -1.161
      -1.625
      -1.619
      -1.378
      -1.197
      -1.229
      -1.411
      -1.573
      -1.604
      -1.517
      -1.382
      -1.206
      -0.908
      -0.406
       0.265
       0.931
       1.384
       1.536
       1.478
       1.398
       1.432
       1.577
       1.746
       1.889
       2.047
       2.273
       2.519
       2.609
       2.357
       1.730
       0.917
       0.232
      -0.071
       0.047
       0.400
       0.716
       0.809
       0.670
       0.406
       0.104
      -0.264
      -0.799
      -1.561
      -2.501
      -3.506
      -4.495
      -5.456
      -6.369
      -7.111
      -7.463
      -7.251
      -6.487
      -5.362
      -4.104
      -2.849
      -1.619
      -0.417
       0.696
       1.610
       2.245
       2.607
       2.778
       2.865
       2.964
       3.153
       3.476
       3.903
       4.316
       4.568
       4.569
       4.341
       3.975
       3.551
       3.116
       2.743
       2.580
       2.787
       3.388
       4.188
       4.864
       5.175
       5.067
       4.597
       3.770
       2.526
       0.885
      -0.928
      -2.539
      -3.643
      -4.145
      -4.132
      -3.748
      -3.156
      -2.609
      -2.470
      -3.082
      -4.519
      -6.468
      -8.349
      -9.619
     -10.012
      -9.584
