Origin Time       6/11/2013 14:53:08	 UTC
Lat.              31.4 N	
Long.             76.1 E	
Depth (Km)         10.0
Magnitude         4.9
 Region           Hoshiarpur-Punjab                                                
 Above details taken from IMD 
    
Station Code      CHM
Station Lat.       32.555  N
Station Long.      76.126  E
Station Height(m)  952.0
Site Class        A   Vs30 between 700 m/sec to 1400 m/sec * 
Record Time       06.11.2013 14:52:37.384 UTC
Sampling Rate     200. Hz
 Record Duration   66.630 Sec.
 Direction         N-S (N positive)
Max. Acceleration      1.425 cm/sec**2
     
  * For reference see Site Classification link of website 
     
 Base Line Corrected and Low Pass Filtered (Cut Off at 35 Hz) Time History
 Acceleration data in cm/sec**2
    
[...]
       0.115
       0.161
       0.206
       0.250
       0.288
       0.313
       0.314
       0.283
       0.216
       0.121
       0.024
      -0.041
      -0.054
      -0.033
      -0.026
      -0.081
      -0.193
      -0.307
      -0.360
      -0.338
      -0.277
      -0.221
      -0.175
      -0.116
      -0.025
       0.087
       0.185
       0.239
       0.242
       0.206
       0.150
       0.082
      -0.001
      -0.096
      -0.192
      -0.269
      -0.308
      -0.307
      -0.277
      -0.234
      -0.179
      -0.104
      -0.007
       0.096
       0.187
       0.255
       0.299
       0.318
       0.309
       0.270
       0.208
       0.136
       0.064
      -0.006
      -0.076
      -0.137
      -0.175
      -0.180
      -0.162
      -0.138
      -0.119
      -0.107
      -0.100
      -0.107
      -0.137
      -0.186
      -0.234
      -0.252
      -0.226
      -0.161
      -0.075
       0.011
       0.081
       0.124
       0.133
       0.114
       0.083
       0.063
       0.072
       0.108
       0.153
       0.185
       0.187
       0.158
       0.109
       0.052
      -0.002
      -0.051
      -0.094
      -0.130
      -0.156
      -0.164
      -0.151
      -0.116
      -0.057
       0.025
       0.127
       0.239
       0.346
       0.423
       0.451
       0.422
       0.351
       0.265
       0.191
       0.135
       0.087
       0.032
      -0.038
      -0.112
      -0.172
      -0.197
      -0.186
      -0.151
      -0.116
      -0.096
      -0.098
      -0.116
      -0.137
      -0.148
      -0.144
      -0.128
      -0.113
      -0.103
      -0.096
      -0.081
      -0.052
      -0.011
       0.028
       0.056
       0.073
       0.082
       0.084
       0.074
       0.052
       0.029
       0.020
       0.032
       0.054
       0.065
       0.041
      -0.028
      -0.130
      -0.237
      -0.311
      -0.323
      -0.258
      -0.128
       0.030
       0.167
       0.240
       0.230
       0.156
       0.058
      -0.020
      -0.055
      -0.050
      -0.027
      -0.002
       0.018
       0.033
       0.038
       0.025
      -0.012
      -0.063
      -0.107
      -0.122
      -0.099
      -0.048
       0.012
       0.059
       0.085
       0.096
       0.107
       0.130
       0.167
       0.201
       0.216
       0.197
       0.146
       0.075
      -0.005
      -0.082
      -0.154
      -0.217
      -0.264
      -0.285
      -0.278
      -0.247
      -0.204
      -0.152
      -0.091
      -0.020
       0.057
       0.125
       0.166
       0.172
       0.147
       0.103
       0.059
       0.024
       0.004
      -0.002
       0.004
       0.010
       0.006
      -0.014
      -0.041
      -0.058
      -0.053
      -0.030
      -0.007
      -0.005
      -0.033
      -0.081
      -0.127
      -0.146
      -0.130
      -0.084
      -0.026
       0.025
       0.052
       0.054
       0.038
       0.020
       0.014
       0.032
       0.073
       0.126
       0.175
       0.202
       0.194
       0.150
       0.079
      -0.001
      -0.068
      -0.107
      -0.109
      -0.080
      -0.034
       0.014
       0.053
       0.083
       0.111
       0.149
       0.202
       0.262
       0.310
       0.327
       0.299
       0.232
       0.146
       0.065
       0.005
      -0.027
      -0.038
      -0.041
      -0.047
      -0.059
      -0.074
      -0.085
      -0.081
      -0.056
      -0.012
       0.041
       0.086
       0.110
       0.103
       0.067
       0.014
      -0.047
      -0.109
      -0.174
      -0.245
      -0.320
      -0.388
      -0.435
      -0.454
      -0.449
      -0.426
      -0.387
      -0.328
      -0.248
      -0.156
      -0.062
       0.024
       0.097
       0.157
       0.203
       0.239
       0.270
       0.302
       0.330
       0.345
       0.330
       0.276
       0.186
       0.082
      -0.007
      -0.058
      -0.068
      -0.056
      -0.044
      -0.047
      -0.063
      -0.076
      -0.077
      -0.062
      -0.035
       0.007
       0.066
       0.132
       0.181
       0.187
       0.140
       0.052
      -0.049
      -0.139
      -0.200
      -0.224
      -0.211
      -0.171
      -0.123
      -0.086
      -0.071
      -0.065
      -0.042
       0.016
       0.104
       0.191
       0.241
       0.239
       0.190
       0.117
       0.041
      -0.027
      -0.086
      -0.134
      -0.171
      -0.192
      -0.196
      -0.183
      -0.158
      -0.132
      -0.116
      -0.114
      -0.112
      -0.087
      -0.020
       0.088
       0.216
       0.332
       0.407
       0.431
       0.408
       0.356
       0.292
       0.226
       0.161
       0.096
       0.030
      -0.035
      -0.100
      -0.165
      -0.230
      -0.282
      -0.303
      -0.288
      -0.252
      -0.224
      -0.219
      -0.229
      -0.223
      -0.177
      -0.096
      -0.009
       0.054
       0.083
       0.084
       0.066
       0.029
      -0.028
      -0.093
      -0.142
      -0.151
      -0.115
      -0.058
      -0.018
      -0.025
      -0.076
      -0.138
      -0.167
      -0.132
      -0.034
       0.106
       0.258
       0.392
       0.489
       0.533
       0.514
       0.437
       0.319
       0.184
       0.057
      -0.048
      -0.125
      -0.174
      -0.197
      -0.198
      -0.185
      -0.160
      -0.128
      -0.091
      -0.059
      -0.042
      -0.049
      -0.081
      -0.127
      -0.173
      -0.203
      -0.203
      -0.168
      -0.102
      -0.021
       0.057
       0.116
       0.150
       0.161
       0.157
       0.151
       0.166
       0.221
       0.325
       0.460
       0.583
       0.640
       0.591
       0.430
       0.186
      -0.090
      -0.341
      -0.527
      -0.634
      -0.667
      -0.640
      -0.572
      -0.485
      -0.405
      -0.351
      -0.326
      -0.312
      -0.286
      -0.229
      -0.143
      -0.046
       0.036
       0.083
       0.086
       0.053
      -0.006
      -0.074
      -0.134
      -0.166
      -0.158
      -0.104
      -0.011
       0.107
       0.236
       0.366
       0.494
       0.615
       0.712
       0.762
       0.749
       0.675
       0.563
       0.442
       0.329
       0.225
       0.119
       0.002
      -0.124
      -0.249
      -0.362
      -0.453
      -0.513
      -0.527
      -0.490
      -0.409
      -0.308
      -0.214
      -0.147
      -0.109
      -0.092
      -0.083
      -0.070
      -0.048
      -0.011
       0.043
       0.113
       0.189
       0.255
       0.303
       0.332
       0.351
       0.365
       0.368
       0.344
       0.278
       0.164
       0.009
      -0.166
      -0.335
      -0.471
      -0.557
      -0.590
      -0.578
      -0.540
      -0.494
      -0.454
      -0.419
      -0.378
      -0.329
      -0.283
      -0.263
      -0.282
      -0.329
      -0.378
      -0.406
      -0.408
      -0.388
      -0.350
      -0.286
      -0.179
      -0.023
       0.166
       0.358
       0.514
       0.607
       0.627
       0.578
       0.481
       0.357
       0.230
       0.117
       0.029
      -0.026
      -0.041
      -0.013
       0.056
       0.155
       0.260
       0.345
       0.391
       0.398
       0.375
       0.327
       0.255
       0.155
       0.028
      -0.116
      -0.256
      -0.363
      -0.410
      -0.382
      -0.285
      -0.147
      -0.003
       0.121
       0.210
       0.260
       0.272
       0.251
       0.209
       0.162
       0.120
       0.087
       0.055
       0.019
      -0.012
      -0.010
       0.057
       0.197
       0.386
       0.577
       0.727
       0.823
       0.878
       0.915
       0.944
       0.960
       0.947
       0.890
       0.779
       0.612
       0.388
       0.122
      -0.160
      -0.426
      -0.649
      -0.815
      -0.931
      -1.012
      -1.069
      -1.099
      -1.096
      -1.063
      -1.014
      -0.971
      -0.944
      -0.933
      -0.928
      -0.918
      -0.891
      -0.838
      -0.750
      -0.631
      -0.503
      -0.402
      -0.355
      -0.361
      -0.387
      -0.384
      -0.320
      -0.186
       0.005
       0.232
       0.469
       0.687
       0.861
       0.979
       1.045
       1.076
       1.078
       1.047
       0.970
       0.843
       0.673
       0.481
       0.295
       0.133
       0.006
      -0.087
      -0.152
      -0.186
      -0.179
      -0.124
      -0.025
       0.104
       0.240
       0.362
       0.455
       0.504
       0.489
       0.397
       0.235
       0.031
      -0.170
      -0.330
      -0.422
      -0.440
      -0.386
      -0.278
      -0.137
       0.014
       0.159
       0.288
       0.392
       0.453
       0.456
       0.398
       0.299
       0.191
       0.099
       0.029
      -0.036
      -0.117
      -0.221
      -0.338
      -0.449
      -0.542
      -0.625
      -0.711
      -0.806
      -0.891
      -0.937
      -0.921
      -0.848
      -0.748
      -0.660
      -0.605
      -0.578
      -0.553
      -0.500
      -0.405
      -0.274
      -0.127
       0.018
       0.153
       0.276
       0.392
       0.509
       0.633
       0.762
       0.889
       1.004
       1.104
       1.196
       1.283
       1.354
       1.377
       1.315
       1.149
       0.892
       0.586
       0.278
       0.007
      -0.208
      -0.374
      -0.511
      -0.643
      -0.778
      -0.910
      -1.022
      -1.101
      -1.138
      -1.127
      -1.063
      -0.943
      -0.780
      -0.598
      -0.430
      -0.293
      -0.184
      -0.085
       0.021
       0.135
       0.246
       0.340
       0.414
       0.478
       0.540
       0.600
       0.650
       0.684
       0.701
       0.708
       0.708
       0.695
       0.653
       0.559
       0.399
       0.180
      -0.073
      -0.317
      -0.513
      -0.633
      -0.678
      -0.674
      -0.658
      -0.662
      -0.700
      -0.767
      -0.843
      -0.905
      -0.930
      -0.904
      -0.821
      -0.682
      -0.503
      -0.303
      -0.101
       0.085
       0.248
       0.385
       0.502
       0.607
       0.697
       0.759
       0.770
       0.714
       0.593
       0.427
       0.240
       0.053
      -0.118
      -0.246
      -0.292
      -0.222
      -0.028
       0.261
       0.586
       0.880
       1.087
       1.181
       1.162
       1.053
       0.880
       0.673
       0.453
       0.240
       0.057
      -0.072
      -0.132
      -0.126
      -0.085
      -0.054
      -0.070
      -0.147
      -0.264
      -0.379
      -0.451
      -0.461
      -0.419
      -0.353
      -0.296
      -0.269
      -0.275
      -0.305
      -0.348
      -0.395
      -0.442
      -0.482
      -0.507
      -0.508
      -0.483
      -0.438
      -0.387
      -0.346
      -0.322
      -0.310
      -0.297
      -0.270
      -0.222
      -0.160
      -0.100
      -0.052
      -0.014
       0.029
       0.089
       0.165
       0.236
       0.276
       0.267
       0.206
       0.102
      -0.027
      -0.156
      -0.257
      -0.296
      -0.251
      -0.119
       0.073
       0.277
       0.440
       0.533
       0.555
       0.526
       0.465
       0.382
       0.285
       0.186
       0.106
       0.062
       0.054
       0.076
       0.121
       0.193
       0.292
       0.410
       0.524
       0.608
       0.645
       0.627
       0.556
       0.435
       0.282
       0.124
      -0.008
      -0.101
      -0.164
      -0.217
      -0.275
      -0.331
      -0.364
      -0.358
      -0.311
      -0.242
      -0.185
      -0.175
      -0.241
      -0.393
      -0.621
      -0.891
      -1.141
      -1.306
      -1.342
      -1.239
      -1.028
      -0.754
      -0.463
      -0.193
       0.027
       0.177
       0.250
       0.257
       0.218
       0.154
       0.084
       0.020
      -0.025
      -0.034
       0.002
       0.079
       0.180
       0.284
       0.377
       0.467
       0.567
       0.686
       0.818
       0.940
       1.027
       1.066
       1.057
       1.006
       0.913
       0.777
       0.601
       0.400
       0.195
       0.006
      -0.155
      -0.284
      -0.382
      -0.447
      -0.477
      -0.468
      -0.421
      -0.342
      -0.237
      -0.102
       0.065
       0.250
       0.409
       0.480
       0.415
       0.219
      -0.053
      -0.323
      -0.530
      -0.658
      -0.722
      -0.742
      -0.719
      -0.644
      -0.520
      -0.372
      -0.241
      -0.152
      -0.103
      -0.070
      -0.029
       0.028
       0.088
       0.128
       0.130
       0.096
       0.039
      -0.019
      -0.062
      -0.089
      -0.114
      -0.161
      -0.241
      -0.337
      -0.416
      -0.443
      -0.408
      -0.329
      -0.235
      -0.152
      -0.087
      -0.028
       0.049
       0.164
       0.327
       0.531
       0.754
       0.965
       1.121
       1.180
       1.119
       0.951
       0.724
       0.505
       0.339
       0.242
       0.200
       0.185
       0.174
       0.148
       0.092
       0.000
      -0.123
      -0.258
      -0.380
      -0.465
      -0.504
      -0.513
      -0.524
      -0.569
      -0.663
      -0.795
      -0.929
      -1.025
      -1.053
      -1.011
      -0.920
      -0.811
      -0.717
      -0.655
      -0.621
      -0.591
      -0.523
      -0.378
      -0.140
       0.174
       0.519
       0.841
       1.103
       1.290
       1.398
       1.425
       1.370
       1.247
       1.084
       0.909
       0.737
       0.566
       0.388
       0.207
       0.042
      -0.083
      -0.159
      -0.195
      -0.211
      -0.222
      -0.226
      -0.213
      -0.175
      -0.121
      -0.081
      -0.084
      -0.144
      -0.254
      -0.392
      -0.533
      -0.648
      -0.708
      -0.688
      -0.579
      -0.397
      -0.185
       0.009
       0.155
       0.256
       0.337
       0.415
       0.485
       0.523
       0.506
       0.433
       0.324
       0.201
       0.075
      -0.053
      -0.183
      -0.304
      -0.402
      -0.471
      -0.512
      -0.534
      -0.545
      -0.542
      -0.519
      -0.472
      -0.401
      -0.315
      -0.225
      -0.144
      -0.082
      -0.046
      -0.034
      -0.036
      -0.038
      -0.020
       0.030
       0.115
       0.230
       0.363
       0.505
       0.641
       0.751
       0.809
       0.792
       0.696
       0.539
       0.358
       0.193
       0.071
       0.008
       0.003
       0.043
       0.105
       0.146
       0.124
       0.012
      -0.179
      -0.404
      -0.603
      -0.727
      -0.753
      -0.689
      -0.558
      -0.396
      -0.241
      -0.127
      -0.068
      -0.056
      -0.060
      -0.042
       0.025
       0.145
       0.294
       0.436
       0.542
       0.606
       0.638
       0.652
       0.639
       0.576
       0.443
       0.257
       0.066
      -0.064
      -0.091
      -0.010
       0.141
       0.311
       0.461
       0.569
       0.628
       0.628
       0.559
       0.420
       0.230
       0.021
      -0.174
      -0.345
      -0.495
      -0.632
      -0.757
      -0.855
      -0.914
      -0.927
      -0.896
      -0.831
      -0.748
      -0.662
      -0.587
      -0.525
      -0.465
      -0.393
      -0.300
      -0.195
      -0.096
      -0.021
       0.025
       0.052
       0.072
       0.090
       0.103
       0.104
       0.095
       0.091
       0.115
       0.186
       0.298
       0.423
       0.517
       0.544
       0.488
       0.360
       0.187
       0.003
      -0.163
      -0.286
      -0.354
      -0.371
      -0.356
      -0.330
      -0.306
      -0.279
      -0.238
      -0.173
      -0.082
       0.029
       0.145
       0.239
       0.275
       0.223
       0.081
      -0.111
      -0.282
      -0.362
      -0.311
      -0.125
       0.167
       0.517
       0.869
       1.163
       1.350
       1.403
       1.323
       1.143
       0.905
       0.644
       0.378
       0.115
      -0.141
      -0.370
      -0.547
      -0.642
      -0.638
      -0.543
      -0.386
      -0.214
      -0.070
       0.026
       0.079
       0.103
       0.099
       0.054
      -0.053
      -0.229
      -0.449
      -0.669
      -0.844
      -0.950
      -0.973
      -0.906
      -0.742
      -0.490
      -0.190
       0.090
       0.287
       0.366
       0.343
       0.258
       0.155
       0.054
      -0.037
      -0.119
      -0.184
      -0.228
      -0.257
      -0.292
      -0.349
      -0.424
      -0.487
      -0.500
      -0.443
      -0.324
      -0.177
      -0.034
       0.089
       0.188
       0.265
       0.321
       0.356
       0.378
       0.400
       0.428
       0.455
       0.458
       0.425
       0.359
       0.286
       0.241
       0.249
       0.313
       0.416
       0.528
       0.622
       0.684
       0.710
       0.706
       0.675
       0.617
       0.525
       0.398
       0.245
       0.090
      -0.039
      -0.124
      -0.168
      -0.193
      -0.229
      -0.296
      -0.394
      -0.505
      -0.607
      -0.682
      -0.725
      -0.739
      -0.724
      -0.678
      -0.599
      -0.489
      -0.363
      -0.247
      -0.167
      -0.133
      -0.128
      -0.123
      -0.084
       0.007
       0.145
       0.310
       0.472
       0.605
       0.685
       0.697
       0.632
       0.493
       0.303
       0.099
      -0.068
      -0.157
      -0.160
      -0.106
      -0.049
      -0.046
      -0.115
      -0.232
      -0.340
      -0.384
      -0.349
      -0.261
      -0.176
      -0.140
      -0.171
      -0.254
      -0.359
      -0.457
      -0.524
      -0.540
      -0.494
      -0.386
      -0.235
      -0.074
       0.060
       0.149
       0.194
       0.221
       0.260
       0.332
       0.435
       0.548
       0.638
       0.670
       0.620
       0.480
       0.263
       0.004
      -0.249
      -0.445
      -0.546
      -0.529
      -0.401
      -0.191
       0.050
       0.267
       0.416
       0.476
       0.453
       0.374
       0.280
       0.206
       0.169
       0.164
       0.170
       0.163
       0.131
       0.070
      -0.016
      -0.127
      -0.257
      -0.394
      -0.513
      -0.588
      -0.605
      -0.568
      -0.504
      -0.442
      -0.405
      -0.393
      -0.386
      -0.356
      -0.281
      -0.154
       0.020
       0.221
       0.428
       0.615
       0.752
       0.812
       0.776
       0.655
       0.488
       0.334
       0.239
       0.222
       0.266
       0.335
       0.384
       0.371
       0.279
       0.122
      -0.060
      -0.215
      -0.315
      -0.362
      -0.380
      -0.394
      -0.411
      -0.424
      -0.420
      -0.391
      -0.339
      -0.274
      -0.208
      -0.154
      -0.120
      -0.109
      -0.109
      -0.097
      -0.049
       0.056
       0.214
       0.401
       0.572
       0.685
       0.713
       0.663
       0.558
       0.430
       0.295
       0.157
       0.008
      -0.160
      -0.348
      -0.545
      -0.728
      -0.858
      -0.907
      -0.866
      -0.756
      -0.611
      -0.459
      -0.306
      -0.142
       0.042
       0.234
       0.408
       0.539
