Origin Time       06/11/2012 12:21:12
Lat.              32.3 N 
Long.             76.2 E 
Depth (Km)          5.0
Magnitude         4.1
 Region           Chamba-KANGRA-DISTT.-BORDER                                      
 Above details taken from IMD 
   
Station Code      CHM
Station Lat.       32.555
Station Long.      76.126
Station Height(m)  952.0
Site Class        A   Vs30 between 700 m/sec to 1400 m/sec * 
Record Time       06.11.2012 12:20:06.859
Sampling Rate     200. Hz
 Record Duration   68.615 Sec.
 Direction         Vert. (Up positive)
Max. Acceleration      3.386 cm/sec**2
     
  * For reference see Site Classification link of website 
     
 Base Line Corrected and Low Pass Filtered (Cut Off at 35 Hz) Time History
 Acceleration data in cm/sec**2
    
[...]
      -0.010
      -0.015
      -0.009
       0.003
       0.015
       0.019
       0.013
       0.005
       0.004
       0.009
       0.013
       0.008
      -0.004
      -0.015
      -0.016
      -0.003
       0.016
       0.029
       0.025
       0.008
      -0.011
      -0.021
      -0.025
      -0.023
      -0.017
      -0.005
       0.012
       0.026
       0.030
       0.021
       0.004
      -0.011
      -0.016
      -0.012
      -0.005
       0.001
       0.004
       0.005
       0.004
       0.003
       0.002
       0.001
      -0.003
      -0.010
      -0.011
      -0.002
       0.012
       0.025
       0.026
       0.014
      -0.005
      -0.021
      -0.026
      -0.020
      -0.010
      -0.004
      -0.002
       0.000
       0.003
       0.006
       0.005
       0.002
       0.000
       0.003
       0.011
       0.023
       0.032
       0.032
       0.022
       0.005
      -0.012
      -0.020
      -0.015
      -0.004
       0.003
       0.004
       0.002
       0.003
       0.006
       0.008
       0.007
       0.006
       0.003
       0.000
       0.000
       0.005
       0.007
       0.001
      -0.012
      -0.023
      -0.022
      -0.008
       0.010
       0.017
       0.011
       0.001
      -0.002
       0.002
       0.006
       0.005
      -0.001
      -0.008
      -0.013
      -0.015
      -0.008
       0.003
       0.010
       0.002
      -0.018
      -0.036
      -0.040
      -0.027
      -0.009
      -0.005
      -0.020
      -0.040
      -0.039
      -0.008
       0.039
       0.072
       0.077
       0.054
       0.013
      -0.031
      -0.064
      -0.074
      -0.059
      -0.029
       0.002
       0.028
       0.051
       0.076
       0.094
       0.080
       0.013
      -0.088
      -0.165
      -0.165
      -0.081
       0.043
       0.136
       0.147
       0.063
      -0.068
      -0.157
      -0.130
       0.005
       0.151
       0.206
       0.154
       0.059
      -0.008
      -0.037
      -0.065
      -0.123
      -0.200
      -0.247
      -0.203
      -0.046
       0.167
       0.317
       0.298
       0.120
      -0.088
      -0.186
      -0.146
      -0.050
       0.019
       0.048
       0.059
       0.058
       0.052
       0.067
       0.101
       0.066
      -0.118
      -0.362
      -0.433
      -0.196
       0.191
       0.423
       0.352
       0.105
      -0.087
      -0.104
       0.013
       0.131
       0.115
      -0.079
      -0.328
      -0.391
      -0.147
       0.231
       0.404
       0.203
      -0.190
      -0.428
      -0.328
      -0.019
       0.228
       0.261
       0.147
       0.058
       0.081
       0.145
       0.103
      -0.104
      -0.350
      -0.425
      -0.239
       0.065
       0.249
       0.227
       0.123
       0.096
       0.146
       0.140
      -0.012
      -0.257
      -0.451
      -0.467
      -0.253
       0.148
       0.585
       0.836
       0.735
       0.313
      -0.191
      -0.527
      -0.615
      -0.532
      -0.344
      -0.051
       0.294
       0.512
       0.454
       0.189
      -0.060
      -0.177
      -0.245
      -0.358
      -0.428
      -0.265
       0.155
       0.586
       0.715
       0.446
      -0.019
      -0.369
      -0.427
      -0.244
      -0.020
       0.060
      -0.043
      -0.208
      -0.266
      -0.150
       0.045
       0.165
       0.152
       0.083
       0.065
       0.116
       0.182
       0.205
       0.160
       0.040
      -0.131
      -0.262
      -0.233
      -0.005
       0.293
       0.417
       0.210
      -0.226
      -0.566
      -0.538
      -0.194
       0.135
       0.169
      -0.037
      -0.164
       0.018
       0.410
       0.672
       0.535
       0.042
      -0.478
      -0.663
      -0.407
       0.052
       0.340
       0.280
       0.042
      -0.065
       0.059
       0.204
       0.086
      -0.321
      -0.726
      -0.769
      -0.338
       0.319
       0.798
       0.842
       0.499
       0.017
      -0.353
      -0.497
      -0.444
      -0.300
      -0.151
      -0.006
       0.166
       0.344
       0.423
       0.310
       0.043
      -0.224
      -0.359
      -0.364
      -0.325
      -0.265
      -0.098
       0.212
       0.496
       0.501
       0.202
      -0.100
      -0.100
       0.138
       0.243
      -0.010
      -0.401
      -0.512
      -0.199
       0.267
       0.524
       0.463
       0.206
      -0.118
      -0.437
      -0.622
      -0.530
      -0.196
       0.146
       0.331
       0.441
       0.612
       0.755
       0.624
       0.155
      -0.390
      -0.669
      -0.584
      -0.316
      -0.114
      -0.095
      -0.236
      -0.432
      -0.541
      -0.432
      -0.083
       0.373
       0.731
       0.875
       0.833
       0.670
       0.380
      -0.062
      -0.565
      -0.909
      -0.913
      -0.606
      -0.203
       0.070
       0.124
       0.034
      -0.021
       0.138
       0.536
       0.948
       1.016
       0.592
      -0.062
      -0.489
      -0.489
      -0.295
      -0.251
      -0.396
      -0.434
      -0.102
       0.477
       0.859
       0.680
       0.012
      -0.662
      -0.843
      -0.440
       0.181
       0.532
       0.394
      -0.096
      -0.637
      -0.969
      -0.960
      -0.613
      -0.071
       0.463
       0.847
       1.036
       1.025
       0.811
       0.427
      -0.024
      -0.434
      -0.761
      -0.991
      -1.054
      -0.844
      -0.362
       0.183
       0.507
       0.508
       0.349
       0.274
       0.352
       0.458
       0.451
       0.323
       0.187
       0.163
       0.274
       0.406
       0.359
      -0.009
      -0.637
      -1.233
      -1.450
      -1.104
      -0.303
       0.618
       1.274
       1.410
       1.023
       0.360
      -0.232
      -0.530
      -0.567
      -0.531
      -0.538
      -0.509
      -0.284
       0.138
       0.500
       0.465
      -0.052
      -0.713
      -0.968
      -0.516
       0.398
       1.143
       1.214
       0.625
      -0.151
      -0.622
      -0.652
      -0.462
      -0.335
      -0.335
      -0.284
       0.006
       0.507
       0.985
       1.226
       1.211
       1.019
       0.655
       0.063
      -0.658
      -1.200
      -1.297
      -1.020
      -0.705
      -0.546
      -0.379
       0.049
       0.648
       0.958
       0.610
      -0.235
      -0.954
      -0.971
      -0.225
       0.799
       1.433
       1.276
       0.435
      -0.564
      -1.159
      -1.182
      -0.942
      -0.832
      -0.831
      -0.482
       0.536
       1.875
       2.662
       2.270
       0.909
      -0.542
      -1.268
      -1.087
      -0.435
       0.087
       0.148
      -0.143
      -0.405
      -0.331
       0.015
       0.231
      -0.051
      -0.760
      -1.366
      -1.312
      -0.485
       0.669
       1.486
       1.544
       0.920
       0.104
      -0.343
      -0.184
       0.318
       0.613
       0.344
      -0.321
      -0.845
      -0.844
      -0.425
      -0.044
      -0.056
      -0.417
      -0.756
      -0.680
      -0.081
       0.761
       1.349
       1.333
       0.785
       0.128
      -0.224
      -0.185
       0.004
       0.032
      -0.225
      -0.631
      -0.907
      -0.818
      -0.336
       0.315
       0.772
       0.767
       0.316
      -0.272
      -0.611
      -0.483
       0.032
       0.614
       0.886
       0.657
       0.091
      -0.380
      -0.397
      -0.019
       0.294
       0.115
      -0.514
      -1.077
      -1.044
      -0.342
       0.574
       1.091
       0.887
       0.129
      -0.668
      -0.997
      -0.693
      -0.038
       0.465
       0.514
       0.258
       0.140
       0.421
       0.874
       0.972
       0.435
      -0.430
      -0.966
      -0.769
      -0.055
       0.554
       0.574
       0.015
      -0.715
      -1.175
      -1.155
      -0.726
      -0.125
       0.398
       0.706
       0.826
       0.865
       0.856
       0.694
       0.271
      -0.309
      -0.690
      -0.560
      -0.011
       0.439
       0.303
      -0.388
      -1.085
      -1.239
      -0.776
      -0.072
       0.479
       0.786
       0.972
       1.074
       0.932
       0.389
      -0.446
      -1.195
      -1.454
      -1.076
      -0.240
       0.663
       1.238
       1.252
       0.722
      -0.107
      -0.871
      -1.256
      -1.150
      -0.677
      -0.064
       0.529
       1.040
       1.397
       1.452
       1.082
       0.325
      -0.598
      -1.377
      -1.719
      -1.450
      -0.643
       0.343
       1.021
       1.077
       0.589
      -0.055
      -0.449
      -0.462
      -0.275
      -0.155
      -0.157
      -0.087
       0.227
       0.658
       0.856
       0.616
       0.112
      -0.276
      -0.306
      -0.054
       0.207
       0.233
      -0.025
      -0.418
      -0.730
      -0.845
      -0.810
      -0.742
      -0.647
      -0.364
       0.262
       1.128
       1.823
       1.920
       1.340
       0.426
      -0.352
      -0.738
      -0.765
      -0.605
      -0.404
      -0.259
      -0.219
      -0.274
      -0.367
      -0.465
      -0.602
      -0.799
      -0.929
      -0.727
      -0.019
       1.017
       1.855
       1.958
       1.218
       0.105
      -0.669
      -0.693
      -0.135
       0.489
       0.798
       0.783
       0.635
       0.443
       0.104
      -0.514
      -1.357
      -2.124
      -2.401
      -1.910
      -0.710
       0.767
       1.922
       2.321
       1.930
       1.075
       0.180
      -0.485
      -0.843
      -0.893
      -0.627
      -0.110
       0.425
       0.638
       0.304
      -0.469
      -1.258
      -1.610
      -1.359
      -0.704
       0.035
       0.692
       1.258
       1.670
       1.711
       1.224
       0.371
      -0.401
      -0.698
      -0.479
      -0.031
       0.297
       0.309
      -0.006
      -0.526
      -1.010
      -1.173
      -0.859
      -0.180
       0.553
       1.064
       1.263
       1.175
       0.816
       0.197
      -0.568
      -1.231
      -1.528
      -1.330
      -0.699
       0.159
       0.955
       1.379
       1.219
       0.523
      -0.361
      -0.963
      -1.012
      -0.603
      -0.075
       0.270
       0.336
       0.213
       0.042
      -0.081
      -0.133
      -0.123
      -0.059
       0.058
       0.210
       0.353
       0.441
       0.468
       0.452
       0.397
       0.260
      -0.004
      -0.366
      -0.695
      -0.802
      -0.561
      -0.027
       0.539
       0.805
       0.648
       0.291
       0.111
       0.253
       0.471
       0.395
      -0.089
      -0.714
      -1.075
      -0.963
      -0.525
      -0.120
       0.009
      -0.067
      -0.082
       0.121
       0.423
       0.553
       0.358
      -0.054
      -0.383
      -0.367
       0.009
       0.505
       0.829
       0.856
       0.651
       0.310
      -0.150
      -0.723
      -1.267
      -1.494
      -1.153
      -0.267
       0.801
       1.559
       1.709
       1.308
       0.648
      -0.007
      -0.568
      -1.056
      -1.442
      -1.548
      -1.167
      -0.304
       0.670
       1.176
       0.858
      -0.088
      -1.001
      -1.255
      -0.735
       0.130
       0.774
       0.959
       0.897
       0.944
       1.173
       1.253
       0.768
      -0.316
      -1.510
      -2.128
      -1.801
      -0.719
       0.532
       1.371
       1.544
       1.175
       0.574
      -0.035
      -0.616
      -1.189
      -1.612
      -1.579
      -0.886
       0.298
       1.463
       2.083
       1.933
       1.139
       0.032
      -1.024
      -1.735
      -1.936
      -1.632
      -0.948
      -0.030
       0.985
       1.885
       2.314
       1.943
       0.801
      -0.602
      -1.606
      -1.908
      -1.690
      -1.271
      -0.739
      -0.006
       0.857
       1.500
       1.572
       1.051
       0.275
      -0.336
      -0.565
      -0.473
      -0.254
      -0.057
       0.117
       0.349
       0.645
       0.843
       0.702
       0.129
      -0.666
      -1.270
      -1.358
      -0.931
      -0.291
       0.228
       0.498
       0.612
       0.682
       0.678
       0.469
       0.006
      -0.558
      -0.941
      -0.913
      -0.465
       0.170
       0.649
       0.737
       0.469
       0.117
      -0.047
       0.035
       0.212
       0.330
       0.397
       0.494
       0.576
       0.444
      -0.049
      -0.797
      -1.470
      -1.743
      -1.465
      -0.698
       0.331
       1.270
       1.722
       1.433
       0.481
      -0.703
      -1.583
      -1.836
      -1.478
      -0.761
       0.018
       0.642
       1.034
       1.250
       1.383
       1.429
       1.272
       0.851
       0.290
      -0.167
      -0.355
      -0.317
      -0.246
      -0.340
      -0.661
      -1.080
      -1.328
      -1.154
      -0.513
       0.340
       0.961
       1.004
       0.475
      -0.260
      -0.748
      -0.738
      -0.273
       0.430
       1.095
       1.459
       1.352
       0.803
       0.032
      -0.695
      -1.210
      -1.429
      -1.252
      -0.585
       0.486
       1.561
       2.058
       1.599
       0.326
      -1.140
      -2.098
      -2.202
      -1.569
      -0.565
       0.477
       1.346
       1.876
       1.881
       1.225
      -0.031
      -1.540
      -2.718
      -2.951
      -1.937
       0.034
       2.124
       3.386
       3.326
       2.163
       0.585
      -0.744
      -1.510
      -1.711
      -1.438
      -0.762
       0.189
       1.136
       1.705
       1.611
       0.832
      -0.376
      -1.577
      -2.343
      -2.429
      -1.865
      -0.903
       0.131
       0.961
       1.396
       1.344
       0.833
       0.053
      -0.670
      -1.002
      -0.780
      -0.125
       0.649
       1.242
       1.519
       1.460
       1.063
       0.344
      -0.570
      -1.409
      -1.874
      -1.835
      -1.440
      -1.010
      -0.758
      -0.583
      -0.178
       0.607
       1.555
       2.230
       2.335
       1.893
       1.142
       0.322
      -0.416
      -0.954
      -1.177
      -1.033
      -0.613
      -0.131
       0.221
       0.374
       0.370
       0.262
       0.053
      -0.264
      -0.624
      -0.857
      -0.787
      -0.388
       0.134
       0.457
       0.383
      -0.024
      -0.520
      -0.892
      -1.076
      -1.075
      -0.850
      -0.334
       0.434
       1.238
       1.791
       1.938
       1.737
       1.366
       0.944
       0.464
      -0.104
      -0.687
      -1.087
      -1.111
      -0.730
      -0.135
       0.328
       0.348
      -0.140
      -0.857
      -1.335
      -1.263
      -0.725
      -0.101
       0.270
       0.350
       0.359
       0.526
       0.872
       1.179
       1.154
       0.650
      -0.191
      -1.004
      -1.430
      -1.342
      -0.897
      -0.391
      -0.033
       0.170
       0.333
       0.508
       0.591
       0.446
       0.117
      -0.143
      -0.089
       0.271
       0.667
       0.790
       0.518
      -0.042
      -0.639
      -1.000
      -0.942
      -0.477
       0.175
       0.710
       0.926
       0.806
       0.449
      -0.028
      -0.500
      -0.784
      -0.692
      -0.195
       0.458
       0.873
       0.812
       0.374
      -0.124
      -0.457
      -0.634
      -0.767
      -0.854
      -0.756
      -0.383
       0.155
       0.591
       0.691
       0.424
      -0.012
      -0.298
      -0.187
       0.331
       1.001
       1.461
       1.478
       1.065
       0.414
      -0.287
      -0.942
      -1.506
      -1.892
      -1.961
      -1.603
      -0.841
       0.159
       1.137
       1.825
       2.035
       1.712
       0.963
       0.010
      -0.897
      -1.565
      -1.888
      -1.824
      -1.395
      -0.730
      -0.062
       0.369
       0.479
       0.420
       0.473
       0.810
       1.315
       1.644
       1.499
       0.881
       0.096
      -0.495
      -0.743
      -0.737
      -0.631
      -0.484
      -0.251
       0.111
       0.550
       0.894
       0.903
       0.427
      -0.430
      -1.278
      -1.661
      -1.360
      -0.543
       0.357
       0.926
       0.987
       0.632
       0.105
      -0.369
      -0.698
      -0.922
      -1.108
      -1.222
      -1.085
      -0.504
       0.500
       1.576
       2.203
       2.058
       1.255
       0.238
      -0.581
      -1.069
      -1.313
      -1.383
      -1.221
      -0.749
      -0.036
       0.701
       1.238
       1.470
       1.400
       1.067
       0.536
      -0.068
      -0.546
      -0.717
      -0.534
      -0.149
       0.172
       0.216
      -0.006
      -0.257
      -0.260
       0.061
       0.488
       0.680
       0.447
      -0.106
      -0.684
      -1.034
      -1.086
      -0.929
      -0.678
      -0.389
      -0.051
       0.362
       0.818
       1.195
       1.322
       1.092
       0.563
      -0.060
      -0.543
      -0.777
      -0.832
      -0.865
      -0.962
      -1.068
      -1.058
      -0.864
      -0.518
      -0.080
       0.423
       0.944
       1.336
       1.398
       1.064
       0.538
       0.190
       0.256
       0.612
       0.859
       0.663
       0.040
      -0.694
      -1.213
      -1.418
      -1.404
      -1.242
      -0.853
      -0.138
       0.795
       1.582
       1.844
       1.510
       0.889
       0.390
       0.158
      -0.016
      -0.421
      -1.078
      -1.659
      -1.742
      -1.172
      -0.206
       0.666
       1.050
       0.872
       0.357
      -0.158
      -0.413
      -0.322
       0.013
       0.387
       0.597
       0.553
       0.285
      -0.122
      -0.606
      -1.129
      -1.607
      -1.851
      -1.632
      -0.862
       0.251
       1.264
       1.758
       1.616
       1.070
       0.486
       0.094
      -0.120
      -0.284
      -0.444
      -0.494
      -0.291
       0.179
       0.761
       1.251
       1.514
       1.508
       1.225
       0.691
       0.029
      -0.535
      -0.792
      -0.718
      -0.503
      -0.399
      -0.522
      -0.779
      -0.953
      -0.865
      -0.484
       0.061
       0.550
       0.791
       0.736
       0.499
       0.258
       0.124
       0.086
       0.054
      -0.041
      -0.190
      -0.340
      -0.475
      -0.662
      -0.973
      -1.371
      -1.671
      -1.648
      -1.187
      -0.356
       0.624
       1.467
       1.926
       1.889
       1.414
       0.691
      -0.056
      -0.640
      -0.953
      -0.985
      -0.822
      -0.610
      -0.463
      -0.394
      -0.310
      -0.089
       0.296
       0.730
       1.030
       1.107
       1.049
       1.015
       1.065
       1.092
       0.936
       0.535
       0.000
      -0.452
      -0.643
      -0.549
      -0.309
      -0.113
      -0.058
      -0.099
      -0.118
      -0.052
       0.038
       0.028
      -0.137
      -0.369
      -0.525
      -0.548
      -0.532
      -0.613
      -0.820
      -1.036
      -1.103
      -0.950
      -0.634
      -0.264
       0.094
       0.417
       0.670
       0.765
       0.632
       0.317
      -0.011
      -0.172
      -0.110
