Origin Time       02/10/2012 08:34:52
Lat.              32.3 N 
Long.             76.3 E 
Depth (Km)         10.0
Magnitude         4.9
 Region           Chamba-DISTT.-HIMACHAL                                           
 Above details taken from IMD 
   
Station Code      CHM
Station Lat.       32.555
Station Long.      76.126
Station Height(m)  952.0
Site Class        A   Vs30 between 700 m/sec to 1400 m/sec * 
Record Time       02.10.2012 08:34:09.139
Sampling Rate     200. Hz
 Record Duration   76.160 Sec.
 Direction         Vert. (Up positive)
Max. Acceleration    -11.596 cm/sec**2
     
  * For reference see Site Classification link of website 
     
 Base Line Corrected and Low Pass Filtered (Cut Off at 35 Hz) Time History
 Acceleration data in cm/sec**2
    
[...]
       0.008
       0.006
      -0.005
      -0.021
      -0.031
      -0.025
      -0.002
       0.028
       0.051
       0.056
       0.045
       0.024
       0.003
      -0.011
      -0.019
      -0.019
      -0.015
      -0.007
       0.002
       0.009
       0.013
       0.014
       0.011
       0.008
       0.006
       0.007
       0.011
       0.015
       0.015
       0.009
       0.002
      -0.002
      -0.002
      -0.003
      -0.006
      -0.006
       0.002
       0.018
       0.032
       0.036
       0.030
       0.019
       0.010
       0.004
       0.002
       0.004
       0.011
       0.021
       0.029
       0.030
       0.018
      -0.003
      -0.024
      -0.032
      -0.024
      -0.007
       0.007
       0.012
       0.016
       0.022
       0.028
       0.018
      -0.013
      -0.050
      -0.067
      -0.046
       0.002
       0.050
       0.072
       0.060
       0.027
      -0.009
      -0.032
      -0.032
      -0.014
       0.010
       0.024
       0.024
       0.014
       0.006
       0.004
       0.006
       0.006
       0.001
      -0.008
      -0.012
      -0.007
       0.008
       0.023
       0.030
       0.024
       0.008
      -0.011
      -0.023
      -0.024
      -0.016
       0.001
       0.021
       0.036
       0.036
       0.014
      -0.017
      -0.037
      -0.035
      -0.014
       0.008
       0.018
       0.015
       0.009
       0.010
       0.019
       0.029
       0.031
       0.022
       0.007
      -0.008
      -0.015
      -0.013
      -0.009
      -0.010
      -0.018
      -0.025
      -0.022
      -0.007
       0.010
       0.019
       0.021
       0.019
       0.017
       0.015
       0.009
      -0.001
      -0.006
      -0.004
       0.003
       0.006
       0.001
      -0.006
      -0.008
      -0.003
       0.005
       0.014
       0.020
       0.026
       0.030
       0.031
       0.025
       0.012
      -0.004
      -0.011
      -0.004
       0.010
       0.019
       0.016
       0.003
      -0.010
      -0.013
      -0.008
       0.001
       0.006
       0.006
       0.006
       0.010
       0.015
       0.018
       0.013
       0.003
      -0.008
      -0.014
      -0.013
      -0.006
       0.004
       0.010
       0.011
       0.008
       0.005
       0.003
      -0.001
      -0.007
      -0.010
      -0.007
       0.001
       0.007
       0.006
      -0.003
      -0.013
      -0.017
      -0.015
      -0.010
      -0.008
      -0.012
      -0.018
      -0.020
      -0.016
      -0.006
       0.005
       0.012
       0.015
       0.014
       0.011
       0.007
       0.003
      -0.001
      -0.003
      -0.002
       0.004
       0.015
       0.023
       0.024
       0.012
      -0.007
      -0.021
      -0.024
      -0.017
      -0.007
      -0.001
       0.001
       0.000
      -0.002
      -0.006
      -0.011
      -0.014
      -0.013
      -0.007
       0.001
       0.008
       0.011
       0.009
       0.006
       0.002
       0.000
      -0.004
      -0.010
      -0.015
      -0.017
      -0.013
      -0.008
      -0.004
      -0.002
      -0.001
       0.001
       0.004
       0.005
       0.000
      -0.009
      -0.015
      -0.014
      -0.006
       0.001
       0.003
      -0.001
      -0.005
      -0.004
       0.001
       0.005
       0.002
      -0.006
      -0.013
      -0.012
      -0.007
      -0.001
       0.002
       0.001
      -0.001
      -0.004
      -0.005
      -0.005
      -0.003
      -0.002
      -0.001
       0.001
       0.004
       0.008
       0.011
       0.011
       0.010
       0.009
       0.006
       0.001
      -0.006
      -0.012
      -0.013
      -0.010
      -0.007
      -0.008
      -0.011
      -0.009
      -0.001
       0.007
       0.009
       0.004
      -0.006
      -0.010
      -0.004
       0.007
       0.015
       0.014
       0.006
      -0.001
      -0.002
       0.000
      -0.001
      -0.007
      -0.014
      -0.017
      -0.013
      -0.007
      -0.002
       0.000
       0.000
      -0.002
      -0.007
      -0.011
      -0.013
      -0.011
      -0.005
       0.004
       0.012
       0.017
       0.016
       0.007
      -0.002
      -0.005
      -0.004
      -0.003
      -0.009
      -0.021
      -0.031
      -0.033
      -0.024
      -0.007
       0.014
       0.034
       0.047
       0.047
       0.032
       0.011
      -0.008
      -0.019
      -0.024
      -0.025
      -0.021
      -0.012
       0.003
       0.018
       0.027
       0.026
       0.018
       0.006
      -0.006
      -0.012
      -0.012
      -0.006
       0.002
       0.009
       0.012
       0.008
       0.001
      -0.007
      -0.010
      -0.008
       0.000
       0.009
       0.015
       0.015
       0.008
      -0.003
      -0.014
      -0.018
      -0.015
      -0.009
      -0.007
      -0.009
      -0.008
      -0.001
       0.009
       0.015
       0.012
       0.002
      -0.006
      -0.008
      -0.001
       0.008
       0.014
       0.013
       0.008
       0.002
      -0.002
      -0.006
      -0.010
      -0.012
      -0.009
       0.000
       0.010
       0.013
       0.010
       0.003
       0.001
       0.004
       0.009
       0.009
       0.003
      -0.009
      -0.020
      -0.023
      -0.019
      -0.009
       0.000
       0.003
       0.000
      -0.002
       0.000
       0.006
       0.010
       0.008
       0.004
       0.001
      -0.001
      -0.007
      -0.016
      -0.021
      -0.017
      -0.007
       0.005
       0.011
       0.011
       0.008
       0.003
       0.001
       0.003
       0.007
       0.011
       0.011
       0.007
       0.001
      -0.001
       0.001
       0.006
       0.008
       0.006
       0.003
       0.002
       0.005
       0.008
       0.008
       0.004
      -0.003
      -0.007
      -0.005
       0.001
       0.006
       0.010
       0.015
       0.022
       0.024
       0.016
      -0.003
      -0.024
      -0.034
      -0.029
      -0.015
      -0.001
       0.009
       0.016
       0.021
       0.024
       0.022
       0.014
       0.004
      -0.003
      -0.003
       0.002
       0.010
       0.015
       0.013
       0.006
      -0.003
      -0.008
      -0.008
      -0.005
      -0.003
      -0.001
       0.003
       0.007
       0.011
       0.008
      -0.002
      -0.014
      -0.018
      -0.010
       0.007
       0.023
       0.024
       0.010
      -0.009
      -0.018
      -0.012
       0.002
       0.010
       0.008
       0.001
      -0.002
       0.001
       0.004
       0.002
      -0.003
      -0.009
      -0.009
      -0.005
       0.000
       0.007
       0.014
       0.020
       0.022
       0.017
       0.008
       0.000
      -0.002
       0.000
       0.005
       0.009
       0.010
       0.008
       0.004
       0.000
      -0.003
       0.000
       0.006
       0.012
       0.013
       0.009
       0.003
       0.001
       0.003
       0.006
       0.005
       0.000
      -0.005
      -0.003
       0.005
       0.013
       0.015
       0.010
       0.003
      -0.001
       0.000
       0.003
       0.005
       0.004
       0.002
      -0.001
      -0.001
       0.000
       0.003
       0.008
       0.015
       0.020
       0.021
       0.015
       0.003
      -0.008
      -0.010
      -0.004
       0.005
       0.010
       0.008
       0.003
       0.000
       0.000
       0.000
      -0.002
      -0.005
      -0.003
       0.003
       0.007
       0.007
       0.003
      -0.001
       0.001
       0.006
       0.009
       0.005
      -0.002
      -0.005
       0.001
       0.009
       0.011
       0.004
      -0.005
      -0.011
      -0.015
      -0.016
      -0.011
       0.000
       0.011
       0.013
       0.005
      -0.003
      -0.001
       0.010
       0.017
       0.010
      -0.008
      -0.021
      -0.020
      -0.005
       0.011
       0.016
       0.010
      -0.002
      -0.010
      -0.014
      -0.019
      -0.027
      -0.030
      -0.020
       0.001
       0.018
       0.019
       0.007
      -0.004
      -0.001
       0.011
       0.020
       0.020
       0.015
       0.013
       0.015
       0.017
       0.018
       0.016
       0.011
       0.001
      -0.011
      -0.016
      -0.008
       0.012
       0.029
       0.032
       0.020
       0.004
      -0.005
      -0.002
       0.003
       0.002
      -0.005
      -0.014
      -0.018
      -0.017
      -0.014
      -0.011
      -0.010
      -0.010
      -0.013
      -0.017
      -0.022
      -0.027
      -0.031
      -0.035
      -0.037
      -0.033
      -0.025
      -0.017
      -0.015
      -0.025
      -0.043
      -0.056
      -0.052
      -0.024
       0.022
       0.071
       0.112
       0.139
       0.150
       0.146
       0.127
       0.098
       0.073
       0.064
       0.064
       0.048
       0.003
      -0.048
      -0.065
      -0.038
      -0.006
      -0.017
      -0.064
      -0.077
      -0.002
       0.114
       0.147
       0.023
      -0.193
      -0.357
      -0.388
      -0.328
      -0.255
      -0.172
      -0.020
       0.227
       0.509
       0.711
       0.749
       0.627
       0.414
       0.165
      -0.126
      -0.458
      -0.739
      -0.813
      -0.638
      -0.368
      -0.217
      -0.227
      -0.216
       0.027
       0.485
       0.856
       0.790
       0.242
      -0.389
      -0.558
      -0.097
       0.575
       0.820
       0.396
      -0.320
      -0.694
      -0.412
       0.269
       0.755
       0.611
      -0.084
      -0.785
      -0.932
      -0.429
       0.285
       0.640
       0.434
      -0.047
      -0.352
      -0.269
       0.065
       0.370
       0.468
       0.326
      -0.025
      -0.505
      -0.901
      -0.917
      -0.431
       0.269
       0.645
       0.383
      -0.244
      -0.553
      -0.078
       0.903
       1.512
       1.068
      -0.189
      -1.235
      -1.210
      -0.237
       0.713
       0.744
      -0.197
      -1.360
      -1.852
      -1.304
      -0.060
       1.125
       1.594
       1.158
       0.211
      -0.492
      -0.340
       0.601
       1.532
       1.583
       0.648
      -0.488
      -0.924
      -0.497
       0.155
       0.259
      -0.410
      -1.406
      -1.981
      -1.590
      -0.254
       1.367
       2.318
       2.031
       0.863
      -0.137
      -0.184
       0.464
       0.782
       0.073
      -1.278
      -2.187
      -1.940
      -0.844
       0.153
       0.418
       0.165
       0.064
       0.416
       0.840
       0.774
       0.146
      -0.588
      -0.943
      -0.786
      -0.278
       0.309
       0.657
       0.504
      -0.119
      -0.787
      -0.982
      -0.570
       0.074
       0.494
       0.647
       0.859
       1.272
       1.535
       1.193
       0.274
      -0.732
      -1.418
      -1.721
      -1.624
      -0.945
       0.345
       1.782
       2.686
       2.739
       2.125
       1.148
      -0.029
      -1.231
      -2.125
      -2.431
      -2.196
      -1.673
      -0.970
      -0.028
       0.983
       1.456
       0.801
      -0.840
      -2.481
      -3.044
      -2.196
      -0.473
       1.267
       2.398
       2.722
       2.468
       2.142
       2.120
       2.265
       2.063
       1.238
       0.049
      -1.086
      -2.102
      -3.256
      -4.680
      -6.059
      -6.668
      -5.738
      -2.982
       0.989
       4.828
       7.242
       7.751
       6.715
       4.755
       2.333
      -0.187
      -2.360
      -3.751
      -4.119
      -3.447
      -1.895
       0.113
       1.827
       2.460
       1.772
       0.323
      -0.951
      -1.445
      -1.130
      -0.240
       1.021
       2.367
       3.231
       2.990
       1.477
      -0.787
      -2.904
      -4.151
      -4.320
      -3.676
      -2.640
      -1.467
      -0.209
       1.009
       1.800
       1.775
       1.050
       0.372
       0.566
       1.733
       3.038
       3.412
       2.521
       0.978
      -0.376
      -1.229
      -1.764
      -2.131
      -2.230
      -1.935
      -1.263
      -0.304
       0.752
       1.429
       1.137
      -0.174
      -1.723
      -2.577
      -2.568
      -2.210
      -1.698
      -0.472
       1.907
       4.706
       6.383
       6.127
       4.623
       3.015
       1.437
      -0.910
      -4.225
      -7.210
      -8.083
      -6.350
      -3.263
      -0.555
       1.043
       2.017
       3.148
       4.581
       5.628
       5.241
       2.861
      -0.880
      -4.279
      -5.740
      -5.087
      -3.635
      -2.841
      -2.900
      -2.722
      -1.163
       1.779
       4.882
       6.641
       6.367
       4.605
       2.638
       1.491
       1.203
       0.904
      -0.335
      -2.557
      -4.674
      -5.227
      -3.575
      -0.495
       2.359
       3.649
       3.149
       1.592
      -0.103
      -1.466
      -2.527
      -3.405
      -3.918
      -3.596
      -2.110
       0.268
       2.591
       3.749
       3.293
       1.879
       0.810
       0.932
       1.895
       2.568
       2.206
       1.120
       0.159
      -0.348
      -0.962
      -2.429
      -4.665
      -6.542
      -6.704
      -4.678
      -1.322
       1.736
       3.170
       2.748
       1.347
       0.287
       0.462
       1.769
       3.177
       3.479
       2.433
       1.330
       2.030
       4.846
       7.426
       6.424
       0.802
      -6.679
     -11.596
     -11.552
      -7.739
      -3.260
      -0.377
       0.788
       1.544
       3.026
       5.000
       5.945
       4.444
       0.739
      -3.144
      -4.974
      -4.036
      -1.396
       1.231
       2.664
       2.643
       1.644
       0.507
      -0.070
      -0.031
       0.029
      -0.481
      -1.411
      -1.850
      -0.929
       1.272
       3.553
       4.400
       3.163
       0.624
      -1.589
      -2.332
      -1.836
      -1.330
      -1.693
      -2.501
      -2.570
      -1.514
      -0.469
      -0.841
      -2.350
      -2.898
      -0.764
       3.299
       6.589
       7.032
       4.976
       2.484
       1.153
       0.721
      -0.383
      -3.199
      -6.775
      -8.559
      -6.564
      -1.413
       3.809
       5.970
       4.353
       0.917
      -1.694
      -2.348
      -1.854
      -1.544
      -1.721
      -1.605
      -0.573
       0.985
       2.194
       2.757
       3.107
       3.539
       3.612
       2.678
       0.893
      -0.616
      -0.793
       0.115
       0.538
      -0.938
      -3.936
      -6.261
      -5.790
      -2.547
       1.193
       3.004
       2.504
       1.428
       1.614
       3.067
       4.052
       2.980
       0.082
      -2.780
      -3.881
      -3.154
      -1.978
      -1.572
      -1.747
      -1.320
       0.334
       2.374
       3.294
       2.521
       0.957
      -0.102
      -0.339
      -0.512
      -1.204
      -1.766
      -0.809
       2.037
       5.070
       5.669
       2.804
      -1.794
      -5.219
      -6.055
      -5.262
      -4.578
      -4.477
      -3.891
      -1.646
       2.105
       5.842
       7.845
       7.417
       5.180
       2.390
       0.035
      -1.536
      -2.385
      -2.622
      -2.293
      -1.489
      -0.463
       0.354
       0.507
      -0.216
      -1.593
      -3.062
      -4.025
      -4.073
      -3.011
      -0.894
       1.818
       4.227
       5.351
       4.740
       2.817
       0.594
      -0.989
      -1.519
      -1.104
      -0.096
       1.105
       2.060
       2.282
       1.422
      -0.417
      -2.571
      -4.102
      -4.322
      -3.205
      -1.371
       0.340
       1.432
       1.952
       2.180
       2.210
       1.928
       1.322
       0.651
       0.251
       0.224
       0.329
       0.129
      -0.732
      -2.242
      -3.888
      -4.805
      -4.217
      -1.954
       1.284
       4.234
       5.822
       5.795
       4.693
       3.207
       1.607
      -0.231
      -2.304
      -4.137
      -5.041
      -4.689
      -3.350
      -1.573
       0.197
       1.589
       2.168
       1.695
       0.577
      -0.277
      -0.308
       0.106
       0.103
      -0.651
      -1.535
      -1.580
      -0.451
       1.169
       2.132
       1.825
       0.661
      -0.356
      -0.507
       0.172
       1.067
       1.469
       1.060
       0.241
      -0.070
       0.679
       1.889
       2.188
       0.828
      -1.443
      -3.079
      -3.194
      -2.200
      -1.167
      -0.764
      -0.829
      -0.742
      -0.082
       0.997
       1.893
       1.972
       0.986
      -0.725
      -2.334
      -2.932
      -2.040
       0.102
       2.635
       4.441
       4.639
       3.121
       0.749
      -1.194
      -1.994
      -1.955
      -1.831
      -1.899
      -1.735
      -0.885
       0.400
       1.182
       0.630
      -1.125
      -2.873
      -3.210
      -1.724
       0.648
       2.502
       3.151
       2.885
       2.227
       1.316
       0.120
      -1.051
      -1.626
      -1.377
      -0.717
      -0.270
      -0.251
      -0.382
      -0.348
      -0.147
       0.047
       0.189
       0.409
       0.857
       1.569
       2.391
       2.880
       2.408
       0.669
      -1.779
      -3.623
      -3.735
      -2.132
       0.006
       1.367
       1.596
       1.362
       1.376
       1.511
       1.081
      -0.099
      -1.257
      -1.425
      -0.498
       0.645
       0.998
       0.265
      -1.083
      -2.361
      -3.159
      -3.405
      -3.102
      -2.166
      -0.578
       1.345
       2.985
       3.775
       3.517
       2.435
       1.077
       0.121
      -0.010
       0.457
       0.759
       0.322
      -0.627
      -1.283
      -1.111
      -0.358
       0.263
       0.256
      -0.351
      -1.177
      -1.734
      -1.562
      -0.445
       1.239
       2.482
       2.314
       0.765
      -0.941
      -1.386
      -0.299
       1.132
       1.341
      -0.201
      -2.564
      -4.212
      -4.226
      -2.850
      -1.072
       0.253
       1.028
       1.826
       3.205
       5.017
       6.333
       6.063
       3.789
       0.192
      -3.210
      -4.904
      -4.354
      -2.361
      -0.405
       0.570
       0.794
       1.094
       1.753
       2.064
       1.039
      -1.475
      -4.349
      -5.865
      -5.005
      -2.332
       0.373
       1.546
       1.126
       0.456
       0.868
       2.406
       3.912
       4.246
       3.297
       1.897
       0.946
       0.702
       0.741
       0.408
      -0.691
      -2.394
      -4.034
      -4.842
      -4.432
      -2.967
      -0.922
       1.203
       2.896
       3.593
       2.955
       1.241
      -0.768
      -2.329
      -3.095
      -2.932
      -1.735
       0.273
       2.220
       3.006
       2.206
       0.417
      -1.344
      -2.420
      -2.696
      -2.285
      -1.278
       0.222
       1.980
       3.550
       4.305
       3.666
       1.519
      -1.529
      -4.397
      -6.091
      -6.107
      -4.460
      -1.576
       1.748
       4.467
       5.696
       5.235
       3.709
       2.133
       1.233
       1.064
       1.192
       1.212
       1.120
       1.173
       1.448
