Origin Time       15/07/2013 17:49:11
Lat.              32.6 N 
Long.             76.7 E 
Depth (Km)         30.0
Magnitude         4.4
 Region           Lahul-Spiti-DISTT.-HIMACHAL-PRADESH                              
 Above details taken from IMD 
     
Station Code      CHM
Station Lat.       32.555  N
Station Long.      76.126  E
Station Height(m)  952.0
Site Class        A   Vs30 between 700 m/sec to 1400 m/sec * 
Record Time       15.07.2013 17:49:00.929
Sampling Rate     200. Hz
 Record Duration   65.670 Sec.
 Direction         E-W (E positive)
Max. Acceleration      1.925 cm/sec**2
     
  * For reference see Site Classification link of website 
     
 Base Line Corrected and Low Pass Filtered (Cut Off at 35 Hz) Time History
 Acceleration data in cm/sec**2
    
[...]
      -0.190
      -0.149
      -0.080
      -0.006
       0.050
       0.083
       0.101
       0.105
       0.093
       0.066
       0.041
       0.034
       0.046
       0.049
       0.010
      -0.074
      -0.167
      -0.220
      -0.209
      -0.151
      -0.081
      -0.023
       0.030
       0.093
       0.159
       0.195
       0.168
       0.079
      -0.034
      -0.125
      -0.164
      -0.154
      -0.117
      -0.074
      -0.036
       0.005
       0.058
       0.121
       0.173
       0.189
       0.156
       0.087
       0.009
      -0.056
      -0.103
      -0.133
      -0.142
      -0.113
      -0.035
       0.068
       0.146
       0.150
       0.078
      -0.027
      -0.113
      -0.150
      -0.143
      -0.109
      -0.058
       0.010
       0.091
       0.172
       0.227
       0.233
       0.184
       0.099
       0.023
      -0.012
      -0.004
       0.015
       0.012
      -0.021
      -0.062
      -0.080
      -0.063
      -0.027
      -0.010
      -0.038
      -0.102
      -0.158
      -0.164
      -0.111
      -0.029
       0.040
       0.078
       0.089
       0.094
       0.103
       0.112
       0.108
       0.082
       0.035
      -0.017
      -0.054
      -0.058
      -0.027
       0.021
       0.047
       0.017
      -0.069
      -0.167
      -0.215
      -0.181
      -0.090
       0.003
       0.060
       0.078
       0.082
       0.093
       0.108
       0.108
       0.078
       0.026
      -0.027
      -0.060
      -0.071
      -0.069
      -0.054
      -0.017
       0.041
       0.099
       0.125
       0.103
       0.056
       0.025
       0.028
       0.038
       0.016
      -0.051
      -0.132
      -0.181
      -0.179
      -0.145
      -0.114
      -0.107
      -0.118
      -0.126
      -0.109
      -0.059
       0.009
       0.063
       0.076
       0.050
       0.019
       0.014
       0.041
       0.082
       0.109
       0.107
       0.079
       0.041
       0.016
       0.018
       0.048
       0.092
       0.130
       0.149
       0.142
       0.110
       0.057
      -0.012
      -0.085
      -0.152
      -0.200
      -0.223
      -0.213
      -0.170
      -0.101
      -0.026
       0.039
       0.088
       0.120
       0.130
       0.114
       0.080
       0.052
       0.045
       0.048
       0.029
      -0.023
      -0.083
      -0.112
      -0.088
      -0.029
       0.026
       0.055
       0.063
       0.071
       0.096
       0.135
       0.168
       0.170
       0.122
       0.019
      -0.114
      -0.230
      -0.274
      -0.219
      -0.087
       0.056
       0.140
       0.136
       0.073
       0.012
      -0.003
       0.026
       0.060
       0.066
       0.040
       0.007
      -0.015
      -0.024
      -0.037
      -0.066
      -0.105
      -0.134
      -0.133
      -0.089
      -0.010
       0.081
       0.147
       0.161
       0.120
       0.050
      -0.011
      -0.042
      -0.047
      -0.045
      -0.056
      -0.081
      -0.107
      -0.115
      -0.092
      -0.044
       0.010
       0.047
       0.056
       0.045
       0.035
       0.045
       0.080
       0.128
       0.164
       0.167
       0.128
       0.061
      -0.010
      -0.055
      -0.064
      -0.042
      -0.008
       0.021
       0.044
       0.063
       0.074
       0.073
       0.063
       0.052
       0.045
       0.035
       0.006
      -0.052
      -0.132
      -0.212
      -0.260
      -0.255
      -0.194
      -0.101
      -0.008
       0.063
       0.111
       0.138
       0.140
       0.105
       0.038
      -0.030
      -0.061
      -0.038
       0.021
       0.073
       0.090
       0.072
       0.040
       0.007
      -0.024
      -0.053
      -0.065
      -0.037
       0.043
       0.144
       0.210
       0.195
       0.103
      -0.009
      -0.083
      -0.098
      -0.078
      -0.062
      -0.064
      -0.074
      -0.072
      -0.049
      -0.019
       0.004
       0.018
       0.036
       0.067
       0.100
       0.104
       0.063
      -0.008
      -0.067
      -0.078
      -0.046
      -0.011
      -0.009
      -0.042
      -0.074
      -0.072
      -0.027
       0.036
       0.080
       0.089
       0.072
       0.057
       0.062
       0.084
       0.100
       0.088
       0.036
      -0.047
      -0.136
      -0.196
      -0.197
      -0.134
      -0.035
       0.047
       0.075
       0.052
       0.021
       0.032
       0.103
       0.203
       0.272
       0.267
       0.191
       0.080
      -0.018
      -0.083
      -0.123
      -0.155
      -0.185
      -0.199
      -0.178
      -0.107
      -0.001
       0.099
       0.143
       0.109
       0.019
      -0.076
      -0.131
      -0.137
      -0.117
      -0.106
      -0.117
      -0.138
      -0.144
      -0.130
      -0.102
      -0.066
      -0.016
       0.060
       0.152
       0.230
       0.264
       0.246
       0.198
       0.151
       0.124
       0.119
       0.120
       0.113
       0.085
       0.025
      -0.067
      -0.175
      -0.267
      -0.315
      -0.307
      -0.245
      -0.143
      -0.026
       0.065
       0.097
       0.064
      -0.004
      -0.056
      -0.061
      -0.023
       0.029
       0.059
       0.046
       0.000
      -0.050
      -0.070
      -0.046
       0.003
       0.046
       0.061
       0.053
       0.042
       0.042
       0.056
       0.073
       0.084
       0.086
       0.079
       0.061
       0.022
      -0.041
      -0.116
      -0.170
      -0.178
      -0.140
      -0.089
      -0.058
      -0.054
      -0.048
      -0.011
       0.053
       0.111
       0.126
       0.094
       0.038
      -0.012
      -0.040
      -0.050
      -0.055
      -0.065
      -0.076
      -0.072
      -0.041
       0.013
       0.073
       0.118
       0.143
       0.157
       0.169
       0.176
       0.165
       0.130
       0.087
       0.063
       0.068
       0.082
       0.070
       0.012
      -0.074
      -0.161
      -0.234
      -0.298
      -0.355
      -0.384
      -0.347
      -0.224
      -0.043
       0.134
       0.242
       0.250
       0.176
       0.072
      -0.007
      -0.028
       0.008
       0.069
       0.115
       0.130
       0.131
       0.157
       0.220
       0.290
       0.313
       0.250
       0.111
      -0.055
      -0.192
      -0.262
      -0.255
      -0.186
      -0.092
      -0.024
      -0.016
      -0.067
      -0.140
      -0.197
      -0.227
      -0.245
      -0.257
      -0.241
      -0.162
      -0.009
       0.172
       0.302
       0.322
       0.231
       0.091
      -0.021
      -0.060
      -0.031
       0.034
       0.098
       0.141
       0.160
       0.160
       0.142
       0.096
       0.014
      -0.097
      -0.208
      -0.283
      -0.295
      -0.235
      -0.123
       0.002
       0.099
       0.136
       0.109
       0.036
      -0.048
      -0.108
      -0.122
      -0.084
      -0.008
       0.084
       0.162
       0.197
       0.167
       0.068
      -0.068
      -0.193
      -0.261
      -0.254
      -0.185
      -0.088
       0.004
       0.070
       0.098
       0.086
       0.038
      -0.032
      -0.098
      -0.129
      -0.106
      -0.022
       0.111
       0.263
       0.392
       0.451
       0.421
       0.325
       0.210
       0.113
       0.039
      -0.032
      -0.114
      -0.195
      -0.254
      -0.271
      -0.250
      -0.205
      -0.153
      -0.107
      -0.085
      -0.107
      -0.174
      -0.253
      -0.283
      -0.221
      -0.075
       0.101
       0.243
       0.316
       0.330
       0.315
       0.298
       0.283
       0.263
       0.241
       0.232
       0.243
       0.249
       0.208
       0.094
      -0.069
      -0.221
      -0.309
      -0.323
      -0.303
      -0.300
      -0.336
      -0.394
      -0.429
      -0.413
      -0.346
      -0.250
      -0.149
      -0.052
       0.045
       0.146
       0.245
       0.331
       0.394
       0.421
       0.401
       0.339
       0.258
       0.184
       0.121
       0.048
      -0.058
      -0.183
      -0.280
      -0.305
      -0.252
      -0.160
      -0.088
      -0.070
      -0.093
      -0.124
      -0.138
      -0.142
      -0.155
      -0.183
      -0.201
      -0.180
      -0.108
      -0.007
       0.088
       0.155
       0.204
       0.264
       0.356
       0.465
       0.542
       0.536
       0.440
       0.302
       0.188
       0.126
       0.083
       0.000
      -0.150
      -0.327
      -0.455
      -0.479
      -0.404
      -0.282
      -0.169
      -0.088
      -0.028
       0.028
       0.082
       0.113
       0.099
       0.038
      -0.050
      -0.131
      -0.170
      -0.154
      -0.095
      -0.021
       0.051
       0.126
       0.218
       0.327
       0.425
       0.474
       0.443
       0.327
       0.154
      -0.024
      -0.149
      -0.193
      -0.168
      -0.114
      -0.082
      -0.102
      -0.168
      -0.230
      -0.230
      -0.149
      -0.034
       0.040
       0.044
       0.022
       0.047
       0.149
       0.276
       0.329
       0.235
       0.007
      -0.267
      -0.480
      -0.574
      -0.561
      -0.489
      -0.392
      -0.276
      -0.134
       0.021
       0.156
       0.232
       0.231
       0.176
       0.117
       0.101
       0.140
       0.208
       0.257
       0.253
       0.202
       0.142
       0.116
       0.146
       0.219
       0.289
       0.301
       0.227
       0.086
      -0.058
      -0.141
      -0.144
      -0.100
      -0.062
      -0.070
      -0.132
      -0.232
      -0.341
      -0.421
      -0.431
      -0.344
      -0.173
       0.017
       0.141
       0.156
       0.089
       0.019
       0.006
       0.061
       0.156
       0.255
       0.324
       0.326
       0.229
       0.038
      -0.189
      -0.367
      -0.439
      -0.395
      -0.269
      -0.100
       0.068
       0.190
       0.214
       0.124
      -0.038
      -0.173
      -0.186
      -0.055
       0.148
       0.307
       0.343
       0.277
       0.196
       0.189
       0.279
       0.411
       0.494
       0.455
       0.293
       0.073
      -0.110
      -0.202
      -0.223
      -0.240
      -0.309
      -0.417
      -0.500
      -0.493
      -0.387
      -0.238
      -0.120
      -0.074
      -0.086
      -0.116
      -0.136
      -0.144
      -0.139
      -0.099
       0.010
       0.197
       0.421
       0.601
       0.658
       0.571
       0.388
       0.205
       0.103
       0.105
       0.169
       0.229
       0.239
       0.192
       0.101
      -0.025
      -0.180
      -0.347
      -0.494
      -0.592
      -0.639
      -0.651
      -0.639
      -0.588
      -0.481
      -0.326
      -0.158
      -0.009
       0.116
       0.239
       0.385
       0.547
       0.695
       0.788
       0.806
       0.762
       0.684
       0.587
       0.463
       0.297
       0.088
      -0.150
      -0.398
      -0.632
      -0.819
      -0.919
      -0.907
      -0.785
      -0.585
      -0.358
      -0.164
      -0.045
      -0.008
      -0.026
      -0.060
      -0.081
      -0.081
      -0.050
       0.030
       0.170
       0.350
       0.506
       0.568
       0.504
       0.343
       0.161
       0.034
      -0.007
       0.012
       0.037
       0.027
      -0.019
      -0.068
      -0.088
      -0.073
      -0.041
      -0.016
      -0.013
      -0.042
      -0.109
      -0.209
      -0.312
      -0.362
      -0.301
      -0.104
       0.194
       0.512
       0.751
       0.834
       0.740
       0.513
       0.247
       0.039
      -0.060
      -0.079
      -0.095
      -0.174
      -0.323
      -0.481
      -0.555
      -0.479
      -0.251
       0.057
       0.335
       0.494
       0.496
       0.361
       0.142
      -0.089
      -0.263
      -0.333
      -0.300
      -0.208
      -0.112
      -0.033
       0.056
       0.191
       0.364
       0.508
       0.553
       0.490
       0.393
       0.357
       0.419
       0.522
       0.560
       0.455
       0.207
      -0.117
      -0.434
      -0.694
      -0.888
      -1.024
      -1.097
      -1.076
      -0.919
      -0.604
      -0.151
       0.363
       0.812
       1.079
       1.109
       0.944
       0.681
       0.403
       0.129
      -0.163
      -0.481
      -0.777
      -0.977
      -1.031
      -0.962
      -0.839
      -0.725
      -0.629
      -0.513
      -0.345
      -0.135
       0.065
       0.211
       0.305
       0.390
       0.501
       0.619
       0.671
       0.582
       0.333
      -0.016
      -0.352
      -0.562
      -0.580
      -0.402
      -0.087
       0.267
       0.565
       0.758
       0.853
       0.884
       0.869
       0.793
       0.625
       0.354
       0.012
      -0.334
      -0.606
      -0.761
      -0.816
      -0.824
      -0.834
      -0.856
      -0.858
      -0.794
      -0.649
      -0.441
      -0.211
       0.012
       0.235
       0.487
       0.781
       1.084
       1.319
       1.407
       1.316
       1.067
       0.715
       0.330
      -0.018
      -0.254
      -0.329
      -0.244
      -0.063
       0.121
       0.225
       0.211
       0.084
      -0.122
      -0.354
      -0.547
      -0.632
      -0.573
      -0.398
      -0.214
      -0.157
      -0.311
      -0.644
      -1.005
      -1.207
      -1.122
      -0.738
      -0.142
       0.537
       1.174
       1.664
       1.925
       1.921
       1.678
       1.279
       0.810
       0.329
      -0.147
      -0.603
      -0.992
      -1.237
      -1.269
      -1.075
      -0.714
      -0.294
       0.065
       0.270
       0.280
       0.112
      -0.160
      -0.432
      -0.610
      -0.647
      -0.553
      -0.360
      -0.094
       0.240
       0.617
       0.961
       1.150
       1.078
       0.729
       0.197
      -0.353
      -0.763
      -0.938
      -0.874
      -0.656
      -0.427
      -0.336
      -0.463
      -0.776
      -1.138
      -1.372
      -1.342
      -1.020
      -0.488
       0.103
       0.596
       0.881
       0.918
       0.743
       0.450
       0.166
      -0.001
       0.004
       0.161
       0.404
       0.658
       0.871
       1.014
       1.073
       1.046
       0.934
       0.726
       0.408
      -0.009
      -0.455
      -0.811
      -0.975
      -0.922
      -0.719
      -0.481
      -0.304
      -0.218
      -0.190
      -0.159
      -0.090
       0.004
       0.085
       0.125
       0.136
       0.153
       0.204
       0.291
       0.400
       0.512
       0.604
       0.643
       0.574
       0.351
      -0.030
      -0.490
      -0.887
      -1.069
      -0.951
      -0.563
      -0.034
       0.457
       0.759
       0.799
       0.599
       0.259
      -0.097
      -0.371
      -0.530
      -0.589
      -0.569
      -0.461
      -0.237
       0.104
       0.505
       0.868
       1.110
       1.210
       1.195
       1.102
       0.941
       0.708
       0.418
       0.115
      -0.153
      -0.363
      -0.522
      -0.647
      -0.753
      -0.835
      -0.873
      -0.838
      -0.705
      -0.475
      -0.190
       0.078
       0.255
       0.303
       0.226
       0.058
      -0.160
      -0.387
      -0.578
      -0.686
      -0.676
      -0.547
      -0.327
      -0.059
       0.225
       0.504
       0.751
       0.923
       0.969
       0.855
       0.592
       0.248
      -0.088
      -0.338
      -0.471
      -0.505
      -0.493
      -0.486
      -0.499
      -0.493
      -0.388
      -0.123
       0.285
       0.723
       1.029
       1.085
       0.882
       0.510
       0.094
      -0.272
      -0.544
      -0.698
      -0.710
      -0.561
      -0.270
       0.078
       0.362
       0.490
       0.447
       0.278
       0.029
      -0.285
      -0.669
      -1.101
      -1.509
      -1.796
      -1.882
      -1.721
      -1.313
      -0.705
       0.002
       0.654
       1.094
       1.224
       1.051
       0.677
       0.249
      -0.109
      -0.324
      -0.374
      -0.275
      -0.068
       0.182
       0.406
       0.558
       0.644
       0.705
       0.777
       0.849
       0.869
       0.777
       0.560
       0.266
      -0.017
      -0.217
      -0.310
      -0.320
      -0.289
      -0.235
      -0.153
      -0.024
       0.153
       0.353
       0.534
       0.665
       0.734
       0.745
       0.708
       0.620
       0.471
       0.246
      -0.055
      -0.400
      -0.721
      -0.926
      -0.948
      -0.784
      -0.510
      -0.243
      -0.076
      -0.049
      -0.143
      -0.308
      -0.489
      -0.640
      -0.727
      -0.735
      -0.666
      -0.541
      -0.391
      -0.246
      -0.124
      -0.031
       0.036
       0.100
       0.192
       0.343
       0.543
       0.741
       0.859
       0.853
       0.744
       0.610
       0.537
       0.556
       0.627
       0.679
       0.657
       0.547
       0.370
       0.163
      -0.037
      -0.199
      -0.300
      -0.336
      -0.323
      -0.300
      -0.307
      -0.364
      -0.453
      -0.533
      -0.563
      -0.525
      -0.433
      -0.316
      -0.205
      -0.121
      -0.076
      -0.074
      -0.108
      -0.165
      -0.226
      -0.278
      -0.315
      -0.332
      -0.322
      -0.278
      -0.204
      -0.120
      -0.064
      -0.066
      -0.127
      -0.212
      -0.261
      -0.224
      -0.084
       0.131
       0.371
       0.586
       0.752
       0.868
       0.945
       0.989
       0.992
       0.935
       0.800
       0.577
       0.286
      -0.028
      -0.297
      -0.459
      -0.476
      -0.356
      -0.150
       0.059
       0.192
       0.204
       0.097
      -0.088
      -0.291
      -0.470
      -0.607
      -0.703
      -0.763
      -0.782
      -0.749
      -0.650
      -0.482
      -0.247
       0.041
       0.356
       0.656
       0.885
       0.987
       0.937
       0.751
       0.487
       0.221
       0.013
      -0.115
      -0.182
      -0.220
      -0.245
      -0.257
      -0.242
      -0.202
      -0.153
      -0.117
      -0.102
      -0.099
      -0.091
      -0.064
      -0.018
       0.041
       0.101
       0.149
       0.180
       0.195
       0.206
       0.225
       0.259
       0.306
       0.355
       0.393
       0.404
       0.372
       0.280
       0.121
      -0.093
      -0.321
      -0.517
      -0.646
      -0.707
      -0.720
      -0.713
      -0.698
      -0.671
      -0.626
      -0.558
      -0.465
      -0.345
      -0.202
      -0.047
       0.103
       0.229
       0.320
       0.372
       0.385
       0.358
       0.292
       0.201
       0.108
       0.044
       0.025
       0.037
       0.052
       0.049
       0.029
       0.003
      -0.021
      -0.056
      -0.118
      -0.216
      -0.342
      -0.473
      -0.577
      -0.627
      -0.603
      -0.499
      -0.331
      -0.133
       0.062
       0.234
       0.381
       0.508
       0.614
       0.685
       0.701
       0.660
       0.580
       0.498
       0.441
       0.410
       0.381
       0.326
       0.241
       0.145
       0.060
      -0.012
      -0.089
      -0.184
      -0.283
      -0.350
      -0.358
