Origin Time       12/7/2009 14:00:32 
Lat.              36.5 N 
Long.             70.9 E 
Depth (Km)        170.0
Magnitude         6.3
 Region           Hindukush-Region-Afganistan                                      
 Above details taken from IMD 
     
Station Code      CHM
Station Lat.       32.555  N
Station Long.      76.126  E
Station Height(m)  952.0
Site Class        A   Vs30 between 700 m/sec to 1400 m/sec * 
Record Time       12.07.2012 19:29:30.149
Sampling Rate     200. Hz
 Record Duration   65.030 Sec.
 Direction         E-W (E positive)
Max. Acceleration     -1.088 cm/sec**2
     
  * For reference see Site Classification link of website 
     
 Base Line Corrected and Low Pass Filtered (Cut Off at 35 Hz) Time History
 Acceleration data in cm/sec**2
    
[...]
       0.079
       0.089
       0.100
       0.112
       0.117
       0.108
       0.083
       0.050
       0.018
      -0.002
      -0.011
      -0.013
      -0.014
      -0.022
      -0.038
      -0.063
      -0.092
      -0.117
      -0.131
      -0.133
      -0.129
      -0.125
      -0.129
      -0.139
      -0.145
      -0.137
      -0.109
      -0.072
      -0.040
      -0.019
      -0.006
       0.010
       0.031
       0.054
       0.073
       0.084
       0.088
       0.088
       0.082
       0.066
       0.035
      -0.008
      -0.057
      -0.102
      -0.142
      -0.173
      -0.195
      -0.202
      -0.191
      -0.162
      -0.119
      -0.069
      -0.016
       0.041
       0.093
       0.127
       0.130
       0.105
       0.069
       0.042
       0.035
       0.046
       0.067
       0.089
       0.111
       0.132
       0.150
       0.160
       0.159
       0.145
       0.117
       0.074
       0.020
      -0.038
      -0.086
      -0.120
      -0.138
      -0.148
      -0.153
      -0.157
      -0.158
      -0.152
      -0.134
      -0.105
      -0.074
      -0.049
      -0.032
      -0.019
      -0.002
       0.020
       0.043
       0.058
       0.058
       0.043
       0.019
      -0.009
      -0.031
      -0.038
      -0.028
      -0.009
       0.004
       0.003
      -0.009
      -0.023
      -0.028
      -0.020
      -0.004
       0.014
       0.033
       0.054
       0.081
       0.105
       0.114
       0.104
       0.083
       0.063
       0.053
       0.054
       0.061
       0.072
       0.086
       0.107
       0.133
       0.158
       0.174
       0.178
       0.168
       0.143
       0.101
       0.048
      -0.007
      -0.048
      -0.069
      -0.071
      -0.062
      -0.052
      -0.044
      -0.032
      -0.015
       0.005
       0.019
       0.019
       0.005
      -0.015
      -0.033
      -0.043
      -0.049
      -0.059
      -0.076
      -0.093
      -0.096
      -0.080
      -0.049
      -0.020
      -0.005
      -0.006
      -0.011
      -0.011
      -0.001
       0.011
       0.015
       0.011
       0.004
       0.000
       0.002
       0.009
       0.016
       0.021
       0.025
       0.031
       0.044
       0.067
       0.096
       0.124
       0.137
       0.130
       0.102
       0.066
       0.039
       0.027
       0.029
       0.035
       0.036
       0.029
       0.018
       0.008
       0.003
       0.003
       0.005
       0.006
       0.004
      -0.005
      -0.024
      -0.045
      -0.059
      -0.055
      -0.038
      -0.017
      -0.004
       0.001
       0.003
       0.012
       0.026
       0.037
       0.036
       0.020
      -0.007
      -0.040
      -0.073
      -0.104
      -0.128
      -0.140
      -0.137
      -0.120
      -0.095
      -0.072
      -0.059
      -0.055
      -0.055
      -0.054
      -0.051
      -0.054
      -0.063
      -0.074
      -0.079
      -0.070
      -0.044
      -0.005
       0.040
       0.081
       0.107
       0.117
       0.109
       0.089
       0.062
       0.034
       0.008
      -0.014
      -0.030
      -0.040
      -0.047
      -0.059
      -0.078
      -0.101
      -0.119
      -0.122
      -0.111
      -0.091
      -0.073
      -0.061
      -0.053
      -0.042
      -0.027
      -0.007
       0.014
       0.033
       0.047
       0.053
       0.054
       0.052
       0.049
       0.043
       0.034
       0.022
       0.006
      -0.016
      -0.043
      -0.076
      -0.111
      -0.146
      -0.172
      -0.179
      -0.162
      -0.126
      -0.088
      -0.064
      -0.058
      -0.061
      -0.060
      -0.048
      -0.034
      -0.026
      -0.025
      -0.023
      -0.013
       0.013
       0.057
       0.113
       0.168
       0.206
       0.219
       0.213
       0.198
       0.184
       0.172
       0.158
       0.137
       0.114
       0.104
       0.116
       0.145
       0.171
       0.178
       0.158
       0.118
       0.068
       0.018
      -0.031
      -0.078
      -0.118
      -0.140
      -0.132
      -0.093
      -0.038
       0.016
       0.059
       0.087
       0.102
       0.105
       0.097
       0.079
       0.058
       0.040
       0.029
       0.026
       0.028
       0.039
       0.062
       0.098
       0.142
       0.185
       0.214
       0.222
       0.210
       0.185
       0.157
       0.130
       0.108
       0.095
       0.097
       0.111
       0.136
       0.164
       0.191
       0.213
       0.223
       0.223
       0.217
       0.209
       0.202
       0.195
       0.189
       0.181
       0.166
       0.142
       0.110
       0.072
       0.030
      -0.016
      -0.065
      -0.117
      -0.168
      -0.210
      -0.232
      -0.231
      -0.216
      -0.200
      -0.191
      -0.188
      -0.181
      -0.164
      -0.133
      -0.098
      -0.069
      -0.052
      -0.049
      -0.061
      -0.083
      -0.106
      -0.124
      -0.134
      -0.140
      -0.143
      -0.143
      -0.139
      -0.134
      -0.132
      -0.134
      -0.138
      -0.146
      -0.155
      -0.162
      -0.162
      -0.154
      -0.138
      -0.115
      -0.084
      -0.048
      -0.013
       0.007
      -0.002
      -0.036
      -0.079
      -0.110
      -0.115
      -0.099
      -0.075
      -0.052
      -0.036
      -0.028
      -0.024
      -0.025
      -0.032
      -0.051
      -0.080
      -0.115
      -0.140
      -0.143
      -0.118
      -0.069
      -0.006
       0.060
       0.120
       0.169
       0.207
       0.234
       0.251
       0.255
       0.245
       0.224
       0.205
       0.199
       0.203
       0.204
       0.189
       0.158
       0.124
       0.097
       0.079
       0.061
       0.034
      -0.001
      -0.031
      -0.042
      -0.031
      -0.006
       0.019
       0.033
       0.028
       0.001
      -0.043
      -0.093
      -0.139
      -0.171
      -0.186
      -0.186
      -0.177
      -0.161
      -0.139
      -0.111
      -0.086
      -0.072
      -0.076
      -0.097
      -0.124
      -0.153
      -0.176
      -0.189
      -0.187
      -0.173
      -0.151
      -0.125
      -0.092
      -0.047
       0.009
       0.067
       0.113
       0.138
       0.142
       0.138
       0.134
       0.137
       0.143
       0.148
       0.147
       0.133
       0.099
       0.044
      -0.027
      -0.101
      -0.166
      -0.212
      -0.239
      -0.254
      -0.255
      -0.239
      -0.202
      -0.154
      -0.111
      -0.083
      -0.071
      -0.069
      -0.075
      -0.093
      -0.125
      -0.164
      -0.196
      -0.210
      -0.209
      -0.206
      -0.210
      -0.218
      -0.225
      -0.231
      -0.243
      -0.269
      -0.309
      -0.357
      -0.406
      -0.451
      -0.489
      -0.518
      -0.535
      -0.534
      -0.510
      -0.466
      -0.408
      -0.341
      -0.266
      -0.185
      -0.104
      -0.028
       0.039
       0.092
       0.130
       0.149
       0.149
       0.132
       0.106
       0.087
       0.084
       0.098
       0.116
       0.131
       0.137
       0.137
       0.133
       0.130
       0.124
       0.111
       0.089
       0.064
       0.044
       0.031
       0.024
       0.018
       0.013
       0.010
       0.007
       0.003
      -0.005
      -0.021
      -0.048
      -0.088
      -0.135
      -0.179
      -0.206
      -0.208
      -0.182
      -0.134
      -0.076
      -0.012
       0.055
       0.128
       0.202
       0.272
       0.328
       0.368
       0.398
       0.428
       0.462
       0.499
       0.533
       0.561
       0.585
       0.610
       0.640
       0.672
       0.697
       0.707
       0.693
       0.657
       0.604
       0.543
       0.480
       0.419
       0.363
       0.313
       0.269
       0.236
       0.210
       0.186
       0.159
       0.128
       0.099
       0.075
       0.056
       0.041
       0.027
       0.009
      -0.021
      -0.065
      -0.116
      -0.163
      -0.198
      -0.222
      -0.240
      -0.258
      -0.281
      -0.310
      -0.338
      -0.361
      -0.375
      -0.381
      -0.380
      -0.370
      -0.344
      -0.301
      -0.246
      -0.192
      -0.149
      -0.116
      -0.087
      -0.060
      -0.043
      -0.039
      -0.048
      -0.064
      -0.082
      -0.107
      -0.146
      -0.199
      -0.259
      -0.313
      -0.349
      -0.368
      -0.377
      -0.385
      -0.391
      -0.386
      -0.364
      -0.329
      -0.290
      -0.256
      -0.227
      -0.199
      -0.168
      -0.136
      -0.109
      -0.080
      -0.035
       0.036
       0.124
       0.213
       0.289
       0.345
       0.384
       0.404
       0.399
       0.362
       0.294
       0.211
       0.127
       0.052
      -0.015
      -0.079
      -0.136
      -0.177
      -0.196
      -0.195
      -0.177
      -0.150
      -0.115
      -0.074
      -0.029
       0.015
       0.053
       0.085
       0.119
       0.163
       0.222
       0.291
       0.363
       0.431
       0.491
       0.544
       0.589
       0.619
       0.622
       0.587
       0.517
       0.426
       0.335
       0.261
       0.212
       0.182
       0.154
       0.115
       0.060
      -0.003
      -0.065
      -0.123
      -0.178
      -0.232
      -0.279
      -0.309
      -0.308
      -0.270
      -0.201
      -0.116
      -0.032
       0.039
       0.093
       0.129
       0.154
       0.168
       0.171
       0.159
       0.130
       0.093
       0.057
       0.035
       0.033
       0.048
       0.066
       0.077
       0.075
       0.066
       0.052
       0.030
      -0.005
      -0.050
      -0.097
      -0.130
      -0.137
      -0.111
      -0.058
       0.013
       0.091
       0.164
       0.222
       0.254
       0.261
       0.243
       0.202
       0.139
       0.061
      -0.019
      -0.088
      -0.149
      -0.216
      -0.296
      -0.386
      -0.469
      -0.531
      -0.572
      -0.601
      -0.624
      -0.631
      -0.606
      -0.547
      -0.468
      -0.387
      -0.317
      -0.257
      -0.203
      -0.155
      -0.119
      -0.102
      -0.105
      -0.117
      -0.117
      -0.093
      -0.045
       0.013
       0.069
       0.112
       0.140
       0.160
       0.181
       0.205
       0.226
       0.236
       0.230
       0.209
       0.174
       0.129
       0.080
       0.031
      -0.012
      -0.047
      -0.073
      -0.093
      -0.109
      -0.121
      -0.130
      -0.138
      -0.144
      -0.144
      -0.132
      -0.108
      -0.082
      -0.068
      -0.077
      -0.106
      -0.141
      -0.167
      -0.178
      -0.181
      -0.187
      -0.193
      -0.179
      -0.124
      -0.025
       0.100
       0.224
       0.330
       0.418
       0.494
       0.559
       0.607
       0.626
       0.610
       0.562
       0.493
       0.423
       0.370
       0.346
       0.348
       0.365
       0.390
       0.419
       0.447
       0.468
       0.483
       0.493
       0.504
       0.517
       0.528
       0.532
       0.529
       0.518
       0.502
       0.478
       0.434
       0.359
       0.251
       0.116
      -0.037
      -0.198
      -0.360
      -0.513
      -0.644
      -0.742
      -0.803
      -0.835
      -0.851
      -0.857
      -0.846
      -0.806
      -0.735
      -0.649
      -0.570
      -0.514
      -0.484
      -0.470
      -0.461
      -0.446
      -0.423
      -0.392
      -0.355
      -0.314
      -0.266
      -0.211
      -0.149
      -0.080
      -0.010
       0.055
       0.113
       0.160
       0.188
       0.191
       0.172
       0.141
       0.117
       0.116
       0.137
       0.170
       0.199
       0.216
       0.220
       0.219
       0.214
       0.204
       0.182
       0.141
       0.077
      -0.009
      -0.108
      -0.209
      -0.308
      -0.407
      -0.510
      -0.621
      -0.740
      -0.862
      -0.974
      -1.054
      -1.085
      -1.057
      -0.971
      -0.835
      -0.663
      -0.469
      -0.266
      -0.064
       0.127
       0.289
       0.407
       0.474
       0.497
       0.491
       0.477
       0.469
       0.473
       0.481
       0.481
       0.464
       0.432
       0.396
       0.369
       0.361
       0.369
       0.387
       0.409
       0.433
       0.464
       0.505
       0.550
       0.588
       0.606
       0.591
       0.549
       0.498
       0.458
       0.441
       0.439
       0.440
       0.434
       0.418
       0.401
       0.390
       0.383
       0.364
       0.315
       0.227
       0.103
      -0.050
      -0.222
      -0.402
      -0.578
      -0.735
      -0.857
      -0.933
      -0.956
      -0.926
      -0.843
      -0.714
      -0.557
      -0.397
      -0.256
      -0.142
      -0.048
       0.033
       0.104
       0.164
       0.215
       0.261
       0.303
       0.342
       0.374
       0.399
       0.412
       0.414
       0.400
       0.369
       0.319
       0.260
       0.203
       0.163
       0.147
       0.155
       0.174
       0.188
       0.187
       0.169
       0.143
       0.118
       0.103
       0.101
       0.118
       0.154
       0.207
       0.269
       0.330
       0.377
       0.400
       0.395
       0.356
       0.280
       0.164
       0.016
      -0.143
      -0.291
      -0.414
      -0.514
      -0.604
      -0.698
      -0.799
      -0.898
      -0.983
      -1.044
      -1.079
      -1.088
      -1.074
      -1.034
      -0.964
      -0.859
      -0.716
      -0.544
      -0.351
      -0.146
       0.063
       0.264
       0.437
       0.558
       0.613
       0.600
       0.532
       0.437
       0.343
       0.263
       0.194
       0.127
       0.056
      -0.013
      -0.074
      -0.132
      -0.198
      -0.285
      -0.388
      -0.484
      -0.549
      -0.571
      -0.555
      -0.512
      -0.449
      -0.370
      -0.285
      -0.206
      -0.139
      -0.089
      -0.055
      -0.043
      -0.059
      -0.104
      -0.166
      -0.226
      -0.261
      -0.259
      -0.220
      -0.151
      -0.067
       0.016
       0.083
       0.124
       0.144
       0.151
       0.154
       0.156
       0.153
       0.146
       0.140
       0.150
       0.189
       0.262
       0.361
       0.474
       0.590
       0.701
       0.804
       0.897
       0.977
       1.033
       1.054
       1.031
       0.965
       0.869
       0.759
       0.651
       0.549
       0.455
       0.368
       0.296
       0.242
       0.200
       0.156
       0.103
       0.041
      -0.025
      -0.093
      -0.159
      -0.220
      -0.265
      -0.281
      -0.264
      -0.220
      -0.166
      -0.112
      -0.059
      -0.006
       0.047
       0.089
       0.109
       0.106
       0.088
       0.067
       0.051
       0.042
       0.031
       0.007
      -0.034
      -0.090
      -0.153
      -0.207
      -0.237
      -0.230
      -0.187
      -0.124
      -0.063
      -0.018
       0.007
       0.019
       0.023
       0.019
       0.007
      -0.010
      -0.026
      -0.032
      -0.029
      -0.024
      -0.025
      -0.036
      -0.057
      -0.085
      -0.120
      -0.161
      -0.206
      -0.251
      -0.286
      -0.306
      -0.309
      -0.298
      -0.277
      -0.244
      -0.194
      -0.123
      -0.033
       0.074
       0.190
       0.310
       0.434
       0.564
       0.697
       0.819
       0.919
       0.988
       1.027
       1.035
       1.012
       0.956
       0.867
       0.747
       0.605
       0.450
       0.291
       0.133
      -0.024
      -0.181
      -0.339
      -0.494
      -0.639
      -0.764
      -0.863
      -0.932
      -0.971
      -0.976
      -0.947
      -0.885
      -0.795
      -0.683
      -0.558
      -0.434
      -0.323
      -0.227
      -0.135
      -0.037
       0.072
       0.182
       0.276
       0.335
       0.351
       0.323
       0.258
       0.158
       0.031
      -0.107
      -0.236
      -0.336
      -0.400
      -0.428
      -0.426
      -0.403
      -0.371
      -0.344
      -0.336
      -0.357
      -0.401
      -0.453
      -0.495
      -0.519
      -0.532
      -0.540
      -0.548
      -0.552
      -0.548
      -0.538
      -0.534
      -0.547
      -0.579
      -0.620
      -0.651
      -0.658
      -0.637
      -0.591
      -0.529
      -0.464
      -0.400
      -0.338
      -0.275
      -0.212
      -0.159
      -0.121
      -0.093
      -0.066
      -0.033
       0.004
       0.036
       0.060
       0.086
       0.131
       0.209
       0.320
       0.448
       0.576
       0.689
       0.785
       0.867
       0.938
       0.992
       1.015
       1.002
       0.963
       0.918
       0.881
       0.852
       0.820
       0.773
       0.706
       0.622
       0.532
       0.452
       0.394
       0.362
       0.353
       0.355
       0.359
       0.354
       0.340
       0.318
       0.292
       0.262
       0.230
       0.192
       0.145
       0.099
       0.075
       0.100
       0.184
       0.307
       0.436
       0.543
       0.622
       0.682
       0.726
       0.736
       0.685
       0.559
       0.377
       0.183
       0.015
      -0.116
      -0.219
      -0.305
      -0.370
      -0.407
      -0.418
      -0.419
      -0.429
      -0.459
      -0.501
      -0.536
      -0.547
      -0.527
      -0.470
      -0.384
      -0.279
      -0.170
      -0.063
       0.046
       0.150
       0.235
       0.278
       0.270
       0.223
       0.157
       0.093
       0.033
      -0.027
      -0.099
      -0.183
      -0.276
      -0.377
      -0.483
      -0.593
      -0.694
      -0.770
      -0.802
      -0.777
      -0.701
      -0.592
      -0.472
      -0.353
      -0.243
      -0.150
      -0.085
      -0.053
      -0.043
      -0.034
      -0.013
       0.016
       0.036
       0.036
       0.021
       0.005
      -0.008
      -0.030
      -0.078
      -0.158
      -0.254
      -0.346
      -0.420
      -0.470
      -0.495
      -0.493
      -0.465
      -0.417
      -0.365
      -0.323
      -0.297
      -0.278
      -0.257
      -0.228
      -0.202
      -0.187
      -0.185
      -0.194
      -0.213
      -0.243
      -0.291
      -0.359
      -0.448
      -0.544
      -0.623
      -0.662
      -0.645
      -0.577
      -0.476
      -0.360
      -0.243
      -0.128
      -0.018
       0.087
       0.183
       0.264
       0.327
       0.365
       0.378
       0.375
       0.377
       0.402
       0.456
       0.524
       0.582
       0.613
       0.612
       0.589
       0.561
       0.535
       0.503
       0.451
       0.374
       0.286
       0.207
       0.154
       0.126
       0.113
       0.115
       0.143
       0.210
       0.317
       0.438
       0.543
       0.621
       0.681
       0.742
       0.812
       0.876
       0.914
       0.908
       0.858
       0.779
       0.689
       0.595
       0.500
       0.400
       0.288
       0.158
       0.011
      -0.147
      -0.298
      -0.430
      -0.538
      -0.623
      -0.681
      -0.701
      -0.665
      -0.574
      -0.442
      -0.296
      -0.155
      -0.025
       0.090
       0.180
       0.234
       0.252
       0.254
