Origin Time       1/5/2013 06:57:12	 
Lat.              33.1 N	
Long.             75.8 E	
Depth (Km)         15.0
Magnitude         5.8
 Region           JK-HP-Border                                                     
 Above details taken from IMD 
   
Station Code      CHM
Station Lat.       32.555
Station Long.      76.126
Station Height(m)  952.0
Site Class        A   Vs30 between 700 m/sec to 1400 m/sec * 
Record Time       01.05.2013 06:54:48.064
Sampling Rate     200. Hz
 Record Duration  119.220 Sec.
 Direction         Vert. (Up positive)
Max. Acceleration    -10.451 cm/sec**2
     
  * For reference see Site Classification link of website 
     
 Base Line Corrected and Low Pass Filtered (Cut Off at 35 Hz) Time History
 Acceleration data in cm/sec**2
    
[...]
      -1.117
      -3.312
      -5.065
      -6.084
      -6.092
      -5.007
      -3.100
      -0.902
       1.114
       2.724
       3.835
       4.291
       3.924
       2.812
       1.416
       0.334
      -0.115
      -0.098
      -0.061
      -0.293
      -0.648
      -0.661
       0.066
       1.513
       3.229
       4.607
       5.225
       4.980
       3.992
       2.435
       0.468
      -1.737
      -3.890
      -5.545
      -6.210
      -5.621
      -3.968
      -1.856
      -0.011
       1.052
       1.155
       0.386
      -0.984
      -2.542
      -3.796
      -4.358
      -4.146
      -3.416
      -2.563
      -1.876
      -1.430
      -1.166
      -0.996
      -0.805
      -0.390
       0.517
       2.067
       4.086
       6.028
       7.233
       7.305
       6.351
       4.904
       3.596
       2.833
       2.650
       2.792
       2.928
       2.843
       2.514
       2.048
       1.557
       1.043
       0.367
      -0.653
      -2.049
      -3.581
      -4.839
      -5.528
      -5.702
      -5.692
      -5.786
      -5.950
      -5.863
      -5.220
      -4.020
      -2.558
      -1.184
      -0.092
       0.688
       1.170
       1.373
       1.395
       1.431
       1.648
       2.011
       2.275
       2.189
       1.732
       1.151
       0.769
       0.735
       0.924
       1.070
       1.028
       0.888
       0.847
       0.960
       1.007
       0.624
      -0.421
      -2.016
      -3.715
      -4.920
      -5.129
      -4.144
      -2.146
       0.386
       2.882
       4.838
       5.871
       5.755
       4.541
       2.616
       0.545
      -1.228
      -2.538
      -3.370
      -3.652
      -3.235
      -2.066
      -0.323
       1.632
       3.436
       4.837
       5.695
       5.943
       5.601
       4.811
       3.748
       2.470
       0.858
      -1.220
      -3.641
      -5.962
      -7.638
      -8.387
      -8.359
      -7.989
      -7.658
      -7.459
      -7.193
      -6.564
      -5.411
      -3.810
      -2.029
      -0.384
       0.899
       1.777
       2.362
       2.819
       3.238
       3.592
       3.792
       3.795
       3.688
       3.698
       4.096
       5.000
       6.209
       7.252
       7.689
       7.430
       6.721
       5.799
       4.605
       2.871
       0.508
      -2.158
      -4.538
      -6.177
      -7.016
      -7.291
      -7.214
      -6.777
      -5.851
      -4.440
      -2.797
      -1.292
      -0.205
       0.366
       0.484
       0.320
       0.109
       0.057
       0.229
       0.539
       0.840
       1.013
       0.974
       0.656
       0.044
      -0.750
      -1.447
      -1.660
      -1.043
       0.503
       2.680
       4.856
       6.335
       6.700
       5.946
       4.354
       2.279
       0.080
      -1.820
      -2.951
      -2.997
      -1.996
      -0.346
       1.381
       2.642
       3.049
       2.440
       0.941
      -1.013
      -2.778
      -3.748
      -3.645
      -2.683
      -1.411
      -0.344
       0.313
       0.602
       0.572
       0.174
      -0.597
      -1.561
      -2.374
      -2.699
      -2.369
      -1.471
      -0.341
       0.579
       1.000
       1.008
       0.986
       1.267
       1.805
       2.209
       2.115
       1.518
       0.737
       0.073
      -0.452
      -1.013
      -1.702
      -2.394
      -2.869
      -2.995
      -2.733
      -2.034
      -0.848
       0.719
       2.335
       3.633
       4.491
       5.101
       5.696
       6.239
       6.399
       5.834
       4.476
       2.537
       0.311
      -1.979
      -4.143
      -5.898
      -6.827
      -6.491
      -4.678
      -1.681
       1.646
       4.216
       5.298
       4.909
       3.658
       2.197
       0.809
      -0.534
      -1.835
      -2.905
      -3.550
      -3.835
      -4.070
      -4.482
      -4.904
      -4.860
      -3.997
      -2.463
      -0.824
       0.387
       1.035
       1.289
       1.261
       0.849
      -0.002
      -0.940
      -1.273
      -0.493
       1.230
       3.106
       4.296
       4.452
       3.763
       2.573
       1.089
      -0.544
      -1.979
      -2.631
      -2.021
      -0.162
       2.398
       4.893
       6.668
       7.264
       6.375
       3.938
       0.377
      -3.332
      -6.032
      -7.004
      -6.327
      -4.687
      -2.824
      -1.128
       0.323
       1.477
       2.158
       2.225
       1.795
       1.238
       0.918
       0.944
       1.176
       1.413
       1.536
       1.515
       1.337
       0.996
       0.562
       0.223
       0.201
       0.592
       1.257
       1.872
       2.093
       1.728
       0.829
      -0.334
      -1.431
      -2.297
      -3.077
      -4.101
      -5.521
      -7.038
      -8.017
      -7.932
      -6.728
      -4.797
      -2.657
      -0.681
       0.939
       2.118
       2.861
       3.283
       3.526
       3.576
       3.185
       2.086
       0.345
      -1.486
      -2.655
      -2.724
      -1.888
      -0.798
      -0.055
       0.201
       0.281
       0.579
       1.202
       1.893
       2.272
       2.130
       1.531
       0.696
      -0.167
      -0.931
      -1.538
      -1.951
      -2.127
      -2.014
      -1.574
      -0.846
       0.013
       0.796
       1.380
       1.804
       2.190
       2.597
       2.968
       3.207
       3.294
       3.313
       3.341
       3.322
       3.048
       2.332
       1.263
       0.277
      -0.100
       0.326
       1.237
       2.055
       2.395
       2.282
       1.952
       1.525
       0.892
      -0.138
      -1.598
      -3.264
      -4.727
      -5.574
      -5.573
      -4.769
      -3.475
      -2.134
      -1.134
      -0.663
      -0.695
      -1.079
      -1.636
      -2.158
      -2.374
      -2.004
      -0.958
       0.525
       1.959
       2.883
       3.064
       2.506
       1.323
      -0.303
      -2.037
      -3.351
      -3.694
      -2.803
      -0.919
       1.336
       3.301
       4.543
       4.893
       4.329
       2.953
       1.101
      -0.572
      -1.255
      -0.408
       1.830
       4.595
       6.722
       7.329
       6.130
       3.376
      -0.370
      -4.343
      -7.636
      -9.390
      -9.163
      -7.204
      -4.355
      -1.609
       0.323
       1.157
       0.909
      -0.213
      -1.770
      -3.074
      -3.448
      -2.648
      -1.074
       0.486
       1.343
       1.199
       0.091
      -1.769
      -4.004
      -5.995
      -6.979
      -6.404
      -4.275
      -1.172
       2.071
       4.759
       6.511
       7.223
       6.976
       6.036
       4.877
       4.080
       4.041
       4.646
       5.223
       4.941
       3.402
       0.941
      -1.628
      -3.585
      -4.687
      -5.115
      -5.138
      -4.842
      -4.142
      -2.986
      -1.542
      -0.189
       0.702
       1.016
       0.994
       1.042
       1.393
       1.904
       2.157
       1.783
       0.713
      -0.825
      -2.468
      -3.885
      -4.844
      -5.263
      -5.252
      -5.087
      -5.013
      -5.005
      -4.729
      -3.817
      -2.245
      -0.419
       1.152
       2.283
       3.184
       4.101
       4.941
       5.311
       4.940
       4.006
       2.998
       2.293
       1.914
       1.699
       1.592
       1.666
       1.872
       1.892
       1.369
       0.310
      -0.756
      -1.119
      -0.409
       1.127
       2.846
       4.147
       4.761
       4.730
       4.221
       3.392
       2.392
       1.416
       0.738
       0.605
       1.019
       1.608
       1.785
       1.155
      -0.167
      -1.651
      -2.773
      -3.320
      -3.352
      -2.975
      -2.294
      -1.545
      -1.131
      -1.394
      -2.311
      -3.484
      -4.451
      -4.968
      -4.977
      -4.367
      -2.951
      -0.749
       1.759
       3.790
       4.773
       4.730
       4.166
       3.558
       2.956
       2.080
       0.782
      -0.624
      -1.520
      -1.474
      -0.542
       0.894
       2.514
       4.207
       5.849
       7.057
       7.325
       6.470
       4.931
       3.501
       2.673
       2.215
       1.424
      -0.184
      -2.429
      -4.663
      -6.315
      -7.236
      -7.543
      -7.255
      -6.140
      -3.951
      -0.803
       2.701
       5.719
       7.613
       8.179
       7.570
       6.083
       4.063
       1.931
       0.108
      -1.172
      -1.982
      -2.563
      -3.047
      -3.351
      -3.343
      -3.091
      -2.898
      -3.064
      -3.592
      -4.146
      -4.306
      -3.909
      -3.173
      -2.538
      -2.365
      -2.704
      -3.235
      -3.415
      -2.819
      -1.486
      -0.024
       0.716
       0.228
      -1.263
      -2.940
      -3.957
      -3.919
      -2.944
      -1.381
       0.430
       2.177
       3.484
       3.953
       3.403
       2.070
       0.550
      -0.491
      -0.625
       0.212
       1.776
       3.589
       5.004
       5.362
       4.315
       2.136
      -0.299
      -1.967
      -2.247
      -1.175
       0.726
       2.807
       4.535
       5.560
       5.716
       5.033
       3.684
       1.838
      -0.424
      -2.983
      -5.465
      -7.272
      -7.975
      -7.732
      -7.256
      -7.284
      -8.008
      -8.945
      -9.314
      -8.557
      -6.645
      -4.056
      -1.519
       0.322
       1.170
       1.172
       0.781
       0.487
       0.593
       1.149
       2.047
       3.154
       4.365
       5.558
       6.525
       7.006
       6.794
       5.852
       4.340
       2.586
       1.021
       0.053
      -0.179
       0.008
      -0.031
      -0.808
      -2.281
      -3.859
      -4.875
      -5.074
      -4.718
      -4.257
      -3.900
      -3.462
      -2.569
      -1.054
       0.836
       2.585
       3.793
       4.437
       4.760
       4.934
       4.877
       4.400
       3.517
       2.566
       2.019
       2.178
       3.014
       4.211
       5.324
       5.929
       5.746
       4.718
       3.046
       1.140
      -0.490
      -1.414
      -1.443
      -0.730
       0.295
       1.143
       1.479
       1.216
       0.432
      -0.760
      -2.282
      -4.029
      -5.721
      -6.837
      -6.793
      -5.333
      -2.808
      -0.031
       2.209
       3.558
       4.074
       3.937
       3.283
       2.306
       1.369
       0.843
       0.788
       0.869
       0.678
       0.146
      -0.422
      -0.719
      -0.766
      -0.816
      -0.982
      -1.047
      -0.681
       0.186
       1.208
       1.814
       1.522
       0.161
      -2.054
      -4.588
      -6.735
      -7.851
      -7.601
      -6.119
      -3.956
      -1.774
       0.020
       1.434
       2.712
       3.973
       5.014
       5.465
       5.151
       4.327
       3.566
       3.360
       3.760
       4.315
       4.387
       3.596
       2.064
       0.295
      -1.153
      -1.907
      -1.792
      -0.784
       0.938
       2.892
       4.372
       4.759
       3.843
       1.875
      -0.675
      -3.393
      -5.951
      -7.934
      -8.764
      -7.963
      -5.600
      -2.478
       0.238
       1.696
       1.788
       0.970
      -0.250
      -1.610
      -2.991
      -4.214
      -5.056
      -5.441
      -5.509
      -5.466
      -5.381
      -5.115
      -4.406
      -3.029
      -0.943
       1.619
       4.170
       6.182
       7.365
       7.793
       7.730
       7.342
       6.594
       5.410
       3.888
       2.320
       0.996
       0.014
      -0.728
      -1.379
      -1.997
      -2.558
      -3.075
      -3.614
      -4.181
      -4.612
      -4.677
      -4.310
      -3.720
      -3.209
      -2.889
      -2.635
      -2.297
      -1.923
      -1.697
      -1.712
      -1.861
      -1.995
      -2.116
      -2.341
      -2.646
      -2.708
      -2.126
      -0.828
       0.777
       2.116
       2.905
       3.245
       3.298
       2.991
       2.145
       0.848
      -0.413
      -1.083
      -0.981
      -0.414
       0.133
       0.380
       0.315
      -0.003
      -0.595
      -1.433
      -2.192
      -2.263
      -1.180
       0.892
       3.126
       4.578
       4.836
       4.189
       3.228
       2.318
       1.433
       0.412
      -0.695
      -1.538
      -1.739
      -1.239
      -0.356
       0.541
       1.414
       2.537
       4.077
       5.725
       6.808
       6.758
       5.484
       3.330
       0.752
      -1.913
      -4.426
      -6.466
      -7.591
      -7.437
      -6.030
      -3.853
      -1.582
       0.313
       1.693
       2.546
       2.748
       2.151
       0.904
      -0.423
      -1.149
      -0.988
      -0.233
       0.562
       1.055
       1.283
       1.433
       1.545
       1.518
       1.369
       1.377
       1.898
       2.984
       4.233
       5.032
       4.975
       4.062
       2.581
       0.859
      -0.869
      -2.449
      -3.758
      -4.726
      -5.407
      -5.990
      -6.639
      -7.286
      -7.567
      -7.018
      -5.369
      -2.745
       0.327
       3.054
       4.640
       4.600
       2.979
       0.318
      -2.652
      -5.305
      -7.177
      -7.844
      -6.923
      -4.339
      -0.600
       3.302
       6.353
       8.003
       8.300
       7.688
       6.710
       5.830
       5.329
       5.230
       5.283
       5.100
       4.336
       2.812
       0.504
      -2.460
      -5.731
      -8.671
     -10.451
     -10.374
      -8.251
      -4.612
      -0.558
       2.662
       4.145
       3.657
       1.645
      -1.015
      -3.395
      -4.849
      -5.140
      -4.347
      -2.671
      -0.345
       2.262
       4.528
       5.728
       5.501
       4.234
       2.926
       2.513
       3.211
       4.433
       5.298
       5.243
       4.261
       2.728
       1.122
      -0.170
      -0.909
      -1.009
      -0.550
       0.221
       0.929
       1.207
       0.876
       0.060
      -0.903
      -1.667
      -2.039
      -1.949
      -1.334
      -0.151
       1.431
       2.879
       3.438
       2.597
       0.525
      -1.928
      -3.771
      -4.540
      -4.516
      -4.334
      -4.372
      -4.496
      -4.326
      -3.674
      -2.709
      -1.766
      -1.079
      -0.695
      -0.558
      -0.582
      -0.638
      -0.531
      -0.052
       0.904
       2.248
       3.693
       4.827
       5.285
       4.943
       3.998
       2.848
       1.859
       1.220
       0.951
       1.003
       1.336
       1.927
       2.690
       3.360
       3.512
       2.794
       1.224
      -0.708
      -2.306
      -3.152
      -3.375
      -3.429
      -3.570
      -3.588
      -3.114
      -2.112
      -0.967
      -0.038
       0.754
       1.767
       3.070
       4.199
       4.566
       4.053
       3.086
       2.110
       1.121
      -0.173
      -1.789
      -3.199
      -3.701
      -3.011
      -1.442
       0.421
       2.102
       3.295
       3.736
       3.201
       1.685
      -0.471
      -2.687
      -4.392
      -5.214
      -5.063
      -4.150
      -2.931
      -1.919
      -1.418
      -1.351
      -1.350
      -1.038
      -0.273
       0.829
       2.056
       3.272
       4.394
       5.229
       5.407
       4.568
       2.683
       0.184
      -2.243
      -4.030
      -4.928
      -4.964
      -4.317
      -3.275
      -2.212
      -1.472
      -1.224
      -1.421
      -1.874
      -2.312
      -2.399
      -1.809
      -0.436
       1.424
       3.176
       4.286
       4.608
       4.362
       3.819
       3.044
       1.933
       0.481
      -1.068
      -2.358
      -3.197
      -3.685
      -4.058
      -4.425
      -4.642
      -4.439
      -3.665
      -2.434
      -1.065
       0.093
       0.813
       1.019
       0.789
       0.360
       0.110
       0.409
       1.371
       2.681
       3.694
       3.795
       2.794
       1.060
      -0.738
      -2.076
      -2.815
      -3.031
      -2.687
      -1.589
       0.269
       2.370
       3.828
       3.987
       2.889
       1.186
      -0.392
      -1.467
      -2.026
      -2.174
      -1.995
      -1.620
      -1.298
      -1.278
      -1.607
      -2.084
      -2.423
      -2.436
      -2.070
      -1.354
      -0.417
       0.453
       0.877
       0.628
      -0.165
      -1.054
      -1.539
      -1.322
      -0.385
       1.061
       2.640
       3.890
       4.405
       4.032
       2.957
       1.605
       0.398
      -0.424
      -0.829
      -0.897
      -0.706
      -0.302
       0.253
       0.831
       1.277
       1.500
       1.522
       1.426
       1.263
       1.016
       0.638
       0.109
      -0.552
      -1.293
      -2.049
      -2.740
      -3.267
      -3.461
      -3.056
      -1.839
       0.074
       2.090
       3.362
       3.320
       2.060
       0.264
      -1.282
      -2.146
      -2.350
      -2.124
      -1.624
      -0.860
       0.159
       1.248
       2.073
       2.407
       2.423
       2.653
       3.540
       4.971
       6.254
       6.611
       5.714
       3.787
       1.333
      -1.155
      -3.257
      -4.569
      -4.754
      -3.740
      -1.859
       0.251
       1.966
       2.978
       3.327
       3.192
       2.678
       1.852
       0.930
       0.298
       0.211
       0.471
       0.484
      -0.275
      -1.807
      -3.572
      -4.907
      -5.457
      -5.274
      -4.553
      -3.355
      -1.603
       0.665
       3.097
       5.135
       6.326
       6.523
       5.825
       4.404
       2.470
       0.373
      -1.368
      -2.252
      -2.085
      -1.145
      -0.059
       0.570
       0.532
       0.118
      -0.158
       0.021
       0.550
       1.094
       1.478
       1.831
       2.310
       2.687
       2.328
       0.699
      -2.013
      -4.816
      -6.509
      -6.462
      -4.958
      -2.886
      -1.160
      -0.282
      -0.252
      -0.739
      -1.370
      -1.929
      -2.315
      -2.355
      -1.729
      -0.226
       1.896
       3.893
       5.021
       5.088
       4.518
       3.829
       3.107
       2.044
       0.487
      -1.157
      -2.143
      -2.054
      -1.224
      -0.489
      -0.514
      -1.333
      -2.453
      -3.308
      -3.605
      -3.324
      -2.575
      -1.521
      -0.401
       0.488
       0.910
       0.762
       0.051
      -1.163
      -2.718
      -4.285
      -5.423
      -5.762
      -5.161
      -3.737
      -1.803
       0.217
       1.900
       2.969
       3.398
       3.383
       3.184
       2.991
       2.889
       2.878
       2.895
       2.848
       2.688
       2.466
       2.262
       2.038
       1.612
       0.841
      -0.149
      -0.962
      -1.203
      -0.807
      -0.090
       0.523
       0.839
       0.957
       1.001
       0.841
       0.119
      -1.382
      -3.402
      -5.222
      -6.070
      -5.585
      -4.007
      -1.947
       0.052
       1.798
       3.344
       4.657
       5.457
       5.404
       4.430
       2.873
       1.280
       0.056
      -0.767
      -1.503
      -2.493
      -3.721
      -4.716
      -4.937
      -4.311
      -3.378
      -2.825
      -2.861
      -3.055
      -2.812
      -1.993
      -1.087
