Origin Time       09/07/2013 13:49:13
Lat.              32.9 N 
Long.             78.4 E 
Depth (Km)         10.0
Magnitude         5.1
 Region           J&K-HIMACHAL-Border                                              
 Above details taken from IMD 
     
Station Code      CHM
Station Lat.       32.555  N
Station Long.      76.126  E
Station Height(m)  952.0
Site Class        A   Vs30 between 700 m/sec to 1400 m/sec * 
Record Time       09.07.2013 21:59:43.264
Sampling Rate     200. Hz
 Record Duration   65.035 Sec.
 Direction         E-W (E positive)
Max. Acceleration     -1.451 cm/sec**2
     
  * For reference see Site Classification link of website 
     
 Base Line Corrected and Low Pass Filtered (Cut Off at 35 Hz) Time History
 Acceleration data in cm/sec**2
    
[...]
      -0.022
      -0.023
      -0.016
      -0.004
       0.006
       0.010
       0.008
       0.003
       0.002
       0.005
       0.009
       0.009
       0.004
      -0.002
      -0.004
      -0.002
       0.001
       0.001
      -0.002
      -0.005
      -0.003
       0.005
       0.013
       0.015
       0.010
      -0.001
      -0.011
      -0.016
      -0.015
      -0.013
      -0.009
      -0.005
       0.001
       0.006
       0.007
       0.000
      -0.011
      -0.020
      -0.022
      -0.017
      -0.009
      -0.004
      -0.004
      -0.008
      -0.010
      -0.008
      -0.001
       0.004
       0.004
      -0.001
      -0.009
      -0.014
      -0.014
      -0.012
      -0.012
      -0.011
      -0.009
      -0.002
       0.005
       0.009
       0.006
      -0.002
      -0.010
      -0.016
      -0.016
      -0.012
      -0.005
       0.002
       0.006
       0.006
       0.003
       0.000
      -0.003
      -0.007
      -0.010
      -0.013
      -0.015
      -0.017
      -0.020
      -0.022
      -0.020
      -0.013
      -0.003
       0.005
       0.007
       0.003
      -0.002
      -0.002
       0.000
       0.001
      -0.005
      -0.015
      -0.022
      -0.020
      -0.013
      -0.006
      -0.002
       0.000
       0.001
       0.002
       0.003
       0.003
       0.000
      -0.003
      -0.006
      -0.006
      -0.002
       0.003
       0.008
       0.010
       0.008
       0.005
       0.001
      -0.002
      -0.003
      -0.003
      -0.003
      -0.004
      -0.006
      -0.009
      -0.009
      -0.005
       0.001
       0.006
       0.008
       0.007
       0.003
      -0.002
      -0.005
      -0.005
      -0.002
       0.002
       0.003
       0.003
       0.002
       0.002
       0.002
       0.000
      -0.006
      -0.012
      -0.015
      -0.012
      -0.006
       0.000
       0.001
      -0.002
      -0.006
      -0.008
      -0.008
      -0.006
      -0.005
      -0.004
      -0.001
       0.003
       0.005
       0.005
       0.004
       0.004
       0.005
       0.005
       0.003
       0.000
      -0.004
      -0.006
      -0.007
      -0.007
      -0.007
      -0.009
      -0.009
      -0.009
      -0.008
      -0.007
      -0.006
      -0.005
      -0.003
       0.000
       0.002
       0.002
       0.000
      -0.004
      -0.007
      -0.008
      -0.007
      -0.003
       0.000
       0.001
       0.002
       0.003
       0.004
       0.003
       0.000
      -0.005
      -0.007
      -0.006
      -0.002
       0.002
       0.008
       0.013
       0.014
       0.009
       0.000
      -0.008
      -0.012
      -0.012
      -0.009
      -0.006
      -0.003
       0.000
       0.002
       0.002
       0.000
      -0.003
      -0.005
      -0.006
      -0.006
      -0.003
       0.000
       0.002
       0.000
      -0.003
      -0.004
      -0.001
       0.005
       0.009
       0.008
       0.000
      -0.011
      -0.021
      -0.023
      -0.017
      -0.007
       0.001
       0.006
       0.008
       0.008
       0.007
       0.004
       0.002
       0.003
       0.007
       0.010
       0.008
       0.002
      -0.003
      -0.004
      -0.003
      -0.001
       0.001
       0.003
       0.006
       0.009
       0.011
       0.009
       0.003
      -0.006
      -0.013
      -0.015
      -0.011
      -0.003
       0.005
       0.010
       0.011
       0.011
       0.009
       0.005
      -0.001
      -0.006
      -0.010
      -0.011
      -0.012
      -0.010
      -0.004
       0.004
       0.011
       0.013
       0.010
       0.004
      -0.003
      -0.008
      -0.012
      -0.013
      -0.013
      -0.010
      -0.005
       0.002
       0.010
       0.016
       0.020
       0.021
       0.018
       0.010
       0.000
      -0.007
      -0.008
      -0.001
       0.007
       0.011
       0.009
       0.003
      -0.001
      -0.003
      -0.003
      -0.001
       0.000
       0.001
       0.000
      -0.001
      -0.001
       0.000
       0.003
       0.005
       0.007
       0.005
       0.002
       0.000
       0.000
       0.001
       0.000
       0.000
       0.000
       0.002
       0.003
       0.003
       0.003
       0.003
       0.002
      -0.002
      -0.008
      -0.014
      -0.017
      -0.017
      -0.016
      -0.014
      -0.010
      -0.006
      -0.004
      -0.006
      -0.008
      -0.009
      -0.008
      -0.006
      -0.004
      -0.004
      -0.004
      -0.005
      -0.008
      -0.011
      -0.012
      -0.012
      -0.009
      -0.005
      -0.003
      -0.006
      -0.015
      -0.024
      -0.029
      -0.027
      -0.022
      -0.016
      -0.009
      -0.002
       0.005
       0.011
       0.014
       0.012
       0.006
       0.000
      -0.003
      -0.006
      -0.010
      -0.016
      -0.020
      -0.018
      -0.010
      -0.002
      -0.001
      -0.008
      -0.017
      -0.021
      -0.016
      -0.007
      -0.002
      -0.003
      -0.009
      -0.016
      -0.018
      -0.013
      -0.003
       0.007
       0.011
       0.008
       0.000
      -0.010
      -0.018
      -0.020
      -0.018
      -0.013
      -0.006
       0.001
       0.005
       0.003
      -0.004
      -0.010
      -0.012
      -0.010
      -0.007
      -0.006
      -0.008
      -0.013
      -0.020
      -0.021
      -0.014
      -0.003
       0.007
       0.008
       0.001
      -0.010
      -0.021
      -0.027
      -0.027
      -0.024
      -0.020
      -0.013
      -0.003
       0.008
       0.017
       0.019
       0.016
       0.010
       0.003
      -0.003
      -0.008
      -0.012
      -0.013
      -0.009
      -0.002
       0.002
       0.002
      -0.003
      -0.009
      -0.014
      -0.015
      -0.014
      -0.012
      -0.009
      -0.009
      -0.011
      -0.015
      -0.017
      -0.015
      -0.008
      -0.001
       0.006
       0.008
       0.007
       0.001
      -0.007
      -0.014
      -0.014
      -0.007
       0.001
       0.006
       0.004
      -0.001
      -0.007
      -0.010
      -0.010
      -0.009
      -0.010
      -0.011
      -0.009
      -0.006
      -0.002
      -0.001
      -0.003
      -0.005
      -0.008
      -0.010
      -0.010
      -0.009
      -0.006
      -0.005
      -0.007
      -0.015
      -0.022
      -0.022
      -0.013
       0.001
       0.011
       0.014
       0.011
       0.004
      -0.003
      -0.010
      -0.015
      -0.018
      -0.018
      -0.014
      -0.005
       0.003
       0.007
       0.004
      -0.003
      -0.008
      -0.009
      -0.009
      -0.011
      -0.015
      -0.016
      -0.012
      -0.005
      -0.002
      -0.004
      -0.007
      -0.007
      -0.004
       0.000
       0.000
      -0.006
      -0.014
      -0.019
      -0.018
      -0.013
      -0.009
      -0.006
      -0.005
      -0.004
      -0.005
      -0.006
      -0.008
      -0.007
      -0.004
      -0.002
      -0.001
      -0.003
      -0.005
      -0.005
      -0.001
       0.005
       0.010
       0.011
       0.007
       0.000
      -0.007
      -0.010
      -0.008
      -0.004
      -0.004
      -0.008
      -0.011
      -0.009
      -0.003
       0.002
       0.004
       0.003
      -0.002
      -0.008
      -0.012
      -0.012
      -0.009
      -0.006
      -0.006
      -0.007
      -0.008
      -0.007
      -0.006
      -0.009
      -0.014
      -0.017
      -0.016
      -0.011
      -0.008
      -0.009
      -0.014
      -0.016
      -0.013
      -0.002
       0.009
       0.013
       0.005
      -0.009
      -0.022
      -0.026
      -0.022
      -0.016
      -0.013
      -0.015
      -0.017
      -0.013
      -0.004
       0.005
       0.008
       0.003
      -0.006
      -0.014
      -0.017
      -0.015
      -0.011
      -0.009
      -0.007
      -0.005
      -0.001
       0.002
       0.003
       0.000
      -0.003
      -0.005
      -0.004
      -0.002
       0.000
       0.000
      -0.001
      -0.001
       0.000
       0.004
       0.007
       0.009
       0.008
       0.004
      -0.001
      -0.006
      -0.012
      -0.019
      -0.023
      -0.019
      -0.006
       0.009
       0.020
       0.021
       0.013
       0.000
      -0.012
      -0.018
      -0.018
      -0.014
      -0.010
      -0.007
      -0.006
      -0.008
      -0.010
      -0.008
      -0.003
       0.002
       0.003
      -0.001
      -0.007
      -0.014
      -0.018
      -0.016
      -0.010
      -0.001
       0.007
       0.009
       0.007
       0.003
       0.000
       0.000
       0.001
       0.000
      -0.001
      -0.002
      -0.002
      -0.003
      -0.006
      -0.009
      -0.013
      -0.016
      -0.018
      -0.018
      -0.017
      -0.016
      -0.016
      -0.016
      -0.016
      -0.015
      -0.014
      -0.014
      -0.016
      -0.019
      -0.018
      -0.012
      -0.002
       0.004
       0.003
      -0.004
      -0.014
      -0.019
      -0.019
      -0.014
      -0.010
      -0.010
      -0.012
      -0.013
      -0.014
      -0.014
      -0.015
      -0.018
      -0.020
      -0.020
      -0.019
      -0.019
      -0.021
      -0.023
      -0.020
      -0.009
       0.004
       0.011
       0.006
      -0.008
      -0.022
      -0.029
      -0.026
      -0.017
      -0.009
      -0.006
      -0.006
      -0.005
       0.000
       0.009
       0.012
       0.005
      -0.009
      -0.022
      -0.025
      -0.018
      -0.008
      -0.002
      -0.002
      -0.003
      -0.004
      -0.006
      -0.009
      -0.013
      -0.017
      -0.018
      -0.016
      -0.013
      -0.012
      -0.015
      -0.018
      -0.018
      -0.015
      -0.009
      -0.007
      -0.008
      -0.011
      -0.014
      -0.017
      -0.018
      -0.018
      -0.015
      -0.010
      -0.006
      -0.002
      -0.001
      -0.001
      -0.002
      -0.004
      -0.006
      -0.006
      -0.004
      -0.001
       0.003
       0.005
       0.004
      -0.002
      -0.009
      -0.011
      -0.007
       0.000
       0.002
       0.000
      -0.005
      -0.008
      -0.012
      -0.021
      -0.035
      -0.047
      -0.047
      -0.030
      -0.004
       0.018
       0.027
       0.021
       0.012
       0.009
       0.013
       0.014
       0.002
      -0.023
      -0.040
      -0.029
       0.007
       0.037
       0.029
      -0.015
      -0.059
      -0.068
      -0.041
      -0.004
       0.023
       0.040
       0.056
       0.071
       0.076
       0.056
       0.011
      -0.045
      -0.093
      -0.112
      -0.100
      -0.068
      -0.031
       0.000
       0.027
       0.055
       0.078
       0.077
       0.046
       0.004
      -0.021
      -0.014
       0.017
       0.053
       0.080
       0.085
       0.060
       0.003
      -0.067
      -0.121
      -0.141
      -0.129
      -0.098
      -0.058
      -0.020
       0.012
       0.040
       0.071
       0.110
       0.148
       0.158
       0.123
       0.048
      -0.031
      -0.080
      -0.094
      -0.095
      -0.106
      -0.126
      -0.126
      -0.082
      -0.004
       0.069
       0.101
       0.089
       0.069
       0.082
       0.128
       0.158
       0.116
      -0.001
      -0.140
      -0.229
      -0.240
      -0.197
      -0.139
      -0.082
      -0.021
       0.043
       0.090
       0.101
       0.076
       0.037
       0.007
      -0.001
       0.015
       0.046
       0.081
       0.102
       0.097
       0.061
       0.003
      -0.053
      -0.089
      -0.101
      -0.098
      -0.096
      -0.104
      -0.115
      -0.105
      -0.048
       0.052
       0.149
       0.186
       0.149
       0.076
       0.013
      -0.022
      -0.041
      -0.060
      -0.078
      -0.077
      -0.047
       0.010
       0.067
       0.090
       0.060
      -0.005
      -0.063
      -0.080
      -0.055
      -0.016
       0.003
      -0.005
      -0.020
      -0.017
       0.016
       0.065
       0.105
       0.108
       0.061
      -0.024
      -0.107
      -0.148
      -0.133
      -0.080
      -0.020
       0.032
       0.068
       0.080
       0.055
      -0.005
      -0.060
      -0.065
       0.001
       0.106
       0.194
       0.221
       0.180
       0.093
      -0.011
      -0.116
      -0.211
      -0.281
      -0.297
      -0.234
      -0.100
       0.056
       0.166
       0.188
       0.134
       0.052
      -0.013
      -0.048
      -0.066
      -0.086
      -0.115
      -0.140
      -0.131
      -0.069
       0.042
       0.165
       0.253
       0.268
       0.201
       0.086
      -0.021
      -0.079
      -0.090
      -0.093
      -0.117
      -0.148
      -0.136
      -0.060
       0.034
       0.061
      -0.017
      -0.140
      -0.188
      -0.089
       0.114
       0.298
       0.366
       0.311
       0.192
       0.073
      -0.021
      -0.093
      -0.136
      -0.122
      -0.038
       0.075
       0.130
       0.049
      -0.160
      -0.397
      -0.543
      -0.540
      -0.411
      -0.200
       0.078
       0.416
       0.755
       0.956
       0.876
       0.490
      -0.074
      -0.607
      -0.946
      -1.043
      -0.923
      -0.626
      -0.195
       0.295
       0.716
       0.937
       0.892
       0.617
       0.232
      -0.128
      -0.357
      -0.412
      -0.318
      -0.139
       0.069
       0.286
       0.492
       0.618
       0.548
       0.205
      -0.362
      -0.966
      -1.381
      -1.451
      -1.138
      -0.522
       0.232
       0.911
       1.332
       1.410
       1.193
       0.810
       0.379
      -0.042
      -0.430
      -0.743
      -0.916
      -0.912
      -0.763
      -0.551
      -0.347
      -0.163
       0.036
       0.274
       0.524
       0.712
       0.774
       0.713
       0.592
       0.456
       0.271
      -0.050
      -0.526
      -1.020
      -1.291
      -1.171
      -0.711
      -0.150
       0.278
       0.521
       0.697
       0.921
       1.153
       1.211
       0.940
       0.361
      -0.316
      -0.827
      -1.019
      -0.922
      -0.685
      -0.443
      -0.237
      -0.024
       0.241
       0.517
       0.688
       0.636
       0.340
      -0.096
      -0.503
      -0.745
      -0.773
      -0.624
      -0.371
      -0.086
       0.176
       0.371
       0.468
       0.459
       0.375
       0.265
       0.173
       0.124
       0.126
       0.171
       0.229
       0.242
       0.167
       0.011
      -0.168
      -0.308
      -0.392
      -0.432
      -0.428
      -0.356
      -0.196
       0.024
       0.224
       0.320
       0.279
       0.144
       0.001
      -0.086
      -0.111
      -0.119
      -0.145
      -0.164
      -0.107
       0.071
       0.329
       0.546
       0.596
       0.440
       0.155
      -0.123
      -0.284
      -0.302
      -0.229
      -0.133
      -0.053
       0.002
       0.023
      -0.017
      -0.136
      -0.302
      -0.435
      -0.460
      -0.366
      -0.209
      -0.054
       0.077
       0.208
       0.347
       0.458
       0.479
       0.395
       0.259
       0.155
       0.135
       0.177
       0.205
       0.151
       0.005
      -0.175
      -0.303
      -0.334
      -0.291
      -0.238
      -0.215
      -0.205
      -0.164
      -0.061
       0.086
       0.220
       0.285
       0.252
       0.136
      -0.018
      -0.160
      -0.257
      -0.300
      -0.300
      -0.263
      -0.186
      -0.065
       0.080
       0.217
       0.323
       0.405
       0.477
       0.532
       0.534
       0.437
       0.224
      -0.075
      -0.382
      -0.605
      -0.687
      -0.626
      -0.474
      -0.291
      -0.111
       0.061
       0.220
       0.333
       0.357
       0.275
       0.129
      -0.008
      -0.074
      -0.061
      -0.020
      -0.017
      -0.081
      -0.176
      -0.226
      -0.177
      -0.051
       0.079
       0.149
       0.169
       0.206
       0.306
       0.425
       0.447
       0.283
      -0.026
      -0.329
      -0.479
      -0.452
      -0.348
      -0.287
      -0.293
      -0.287
      -0.177
       0.038
       0.257
       0.363
       0.322
       0.204
       0.109
       0.081
       0.087
       0.067
      -0.001
      -0.074
      -0.089
      -0.016
       0.109
       0.210
       0.229
       0.164
       0.063
      -0.022
      -0.070
      -0.096
      -0.117
      -0.134
      -0.135
      -0.111
      -0.078
      -0.060
      -0.072
      -0.102
      -0.130
      -0.144
      -0.150
      -0.153
      -0.143
      -0.100
      -0.020
       0.068
       0.118
       0.107
       0.059
       0.022
       0.024
       0.062
       0.120
       0.199
       0.306
       0.419
       0.481
       0.433
       0.260
       0.008
      -0.256
      -0.476
      -0.623
      -0.680
      -0.626
      -0.456
      -0.196
       0.079
       0.285
       0.369
       0.342
       0.254
       0.163
       0.092
       0.040
      -0.004
      -0.037
      -0.043
      -0.007
       0.072
       0.165
       0.217
       0.177
       0.037
      -0.148
      -0.291
      -0.334
      -0.285
      -0.191
      -0.082
       0.045
       0.190
       0.311
       0.337
       0.232
       0.035
      -0.166
      -0.300
      -0.353
      -0.351
      -0.314
      -0.237
      -0.113
       0.043
       0.194
       0.304
       0.361
       0.371
       0.346
       0.297
       0.229
       0.145
       0.055
      -0.031
      -0.101
      -0.156
      -0.204
      -0.248
      -0.274
      -0.264
      -0.215
      -0.152
      -0.111
      -0.103
      -0.102
      -0.070
       0.011
       0.127
       0.240
       0.314
       0.329
       0.282
       0.188
       0.074
      -0.022
      -0.074
      -0.079
      -0.070
      -0.089
      -0.147
      -0.213
      -0.236
      -0.192
      -0.099
       0.006
       0.089
       0.136
       0.144
       0.125
       0.090
       0.050
       0.007
      -0.036
      -0.073
      -0.093
      -0.087
      -0.071
      -0.078
      -0.126
      -0.195
      -0.222
      -0.147
       0.035
       0.264
       0.445
       0.502
       0.423
       0.251
       0.058
      -0.113
      -0.254
      -0.375
      -0.462
      -0.471
      -0.365
      -0.161
       0.060
       0.207
       0.244
       0.210
       0.177
       0.178
       0.181
       0.138
       0.045
      -0.036
      -0.042
       0.025
       0.091
       0.074
      -0.033
      -0.156
      -0.204
      -0.151
      -0.048
       0.023
       0.025
      -0.020
      -0.056
      -0.046
       0.010
       0.079
       0.110
       0.065
      -0.052
      -0.197
      -0.302
      -0.327
      -0.280
      -0.200
      -0.109
      -0.002
       0.131
       0.267
       0.344
       0.313
       0.182
       0.017
      -0.097
      -0.119
      -0.070
      -0.010
       0.018
       0.009
      -0.011
      -0.014
       0.004
       0.032
       0.062
       0.091
       0.121
       0.139
       0.122
       0.050
      -0.067
      -0.184
      -0.249
      -0.236
      -0.163
      -0.082
      -0.036
      -0.036
      -0.052
      -0.043
       0.014
       0.096
       0.160
       0.173
       0.138
       0.083
