Origin Time       04/06/2013 17:34:44
Lat.              32.7 N 
Long.             76.7 E 
Depth (Km)         18.0
Magnitude         4.8
 Region           Lahul-Spiti-Himachal-Pradesh                                     
 Above details taken from IMD 
   
Station Code      CHM
Station Lat.       32.555
Station Long.      76.126
Station Height(m)  952.0
Site Class        A   Vs30 between 700 m/sec to 1400 m/sec * 
Record Time       04.06.2013 17:31:41.394
Sampling Rate     200. Hz
 Record Duration   76.830 Sec.
 Direction         Vert. (Up positive)
Max. Acceleration    -23.179 cm/sec**2
     
  * For reference see Site Classification link of website 
     
 Base Line Corrected and Low Pass Filtered (Cut Off at 35 Hz) Time History
 Acceleration data in cm/sec**2
    
[...]
       0.666
       0.332
      -0.280
      -0.802
      -0.830
      -0.279
       0.572
       1.332
       1.758
       1.772
       1.348
       0.507
      -0.584
      -1.571
      -2.076
      -1.919
      -1.193
      -0.157
       0.897
       1.678
       1.932
       1.567
       0.770
      -0.053
      -0.528
      -0.563
      -0.342
      -0.107
       0.041
       0.136
       0.196
       0.154
      -0.038
      -0.296
      -0.449
      -0.399
      -0.235
      -0.174
      -0.380
      -0.805
      -1.195
      -1.262
      -0.895
      -0.233
       0.465
       1.000
       1.305
       1.375
       1.201
       0.787
       0.198
      -0.446
      -1.017
      -1.414
      -1.542
      -1.316
      -0.720
       0.114
       0.930
       1.491
       1.728
       1.737
       1.632
       1.438
       1.106
       0.607
      -0.031
      -0.732
      -1.378
      -1.817
      -1.902
      -1.584
      -0.973
      -0.280
       0.311
       0.704
       0.844
       0.650
       0.072
      -0.768
      -1.529
      -1.814
      -1.414
      -0.438
       0.756
       1.738
       2.201
       2.071
       1.486
       0.662
      -0.230
      -1.056
      -1.627
      -1.707
      -1.188
      -0.253
       0.657
       1.105
       0.940
       0.372
      -0.213
      -0.538
      -0.572
      -0.457
      -0.343
      -0.297
      -0.309
      -0.323
      -0.286
      -0.175
      -0.008
       0.193
       0.428
       0.692
       0.938
       1.096
       1.122
       0.988
       0.655
       0.133
      -0.412
      -0.702
      -0.576
      -0.167
       0.198
       0.289
       0.134
      -0.088
      -0.279
      -0.486
      -0.759
      -1.010
      -1.075
      -0.902
      -0.618
      -0.373
      -0.163
       0.110
       0.425
       0.611
       0.558
       0.405
       0.409
       0.652
       0.918
       0.881
       0.425
      -0.215
      -0.616
      -0.526
      -0.091
       0.287
       0.336
       0.120
      -0.125
      -0.282
      -0.420
      -0.601
      -0.755
      -0.747
      -0.513
      -0.068
       0.525
       1.133
       1.531
       1.518
       1.101
       0.541
       0.158
       0.091
       0.224
       0.323
       0.204
      -0.167
      -0.668
      -1.063
      -1.121
      -0.788
      -0.271
       0.086
       0.082
      -0.188
      -0.463
      -0.582
      -0.605
      -0.672
      -0.805
      -0.861
      -0.674
      -0.231
       0.264
       0.517
       0.371
      -0.063
      -0.497
      -0.668
      -0.433
       0.264
       1.383
       2.674
       3.649
       3.821
       3.022
       1.506
      -0.238
      -1.722
      -2.597
      -2.698
      -2.100
      -1.106
      -0.112
       0.579
       0.839
       0.659
       0.098
      -0.677
      -1.356
      -1.590
      -1.227
      -0.455
       0.292
       0.625
       0.423
      -0.136
      -0.733
      -1.085
      -1.084
      -0.796
      -0.334
       0.270
       1.053
       1.923
       2.549
       2.549
       1.827
       0.708
      -0.283
      -0.764
      -0.672
      -0.201
       0.346
       0.689
       0.657
       0.227
      -0.487
      -1.307
      -2.064
      -2.600
      -2.743
      -2.356
      -1.480
      -0.400
       0.516
       1.056
       1.238
       1.179
       0.945
       0.554
       0.053
      -0.422
      -0.672
      -0.522
       0.032
       0.748
       1.269
       1.386
       1.183
       0.888
       0.619
       0.327
      -0.037
      -0.396
      -0.597
      -0.526
      -0.169
       0.365
       0.828
       0.925
       0.540
      -0.103
      -0.588
      -0.685
      -0.553
      -0.525
      -0.732
      -0.964
      -0.908
      -0.459
       0.204
       0.795
       1.111
       1.110
       0.898
       0.639
       0.417
       0.153
      -0.289
      -0.889
      -1.390
      -1.481
      -1.074
      -0.417
       0.061
       0.037
      -0.466
      -1.110
      -1.492
      -1.410
      -0.949
      -0.344
       0.207
       0.649
       1.037
       1.421
       1.768
       1.988
       1.994
       1.739
       1.227
       0.579
       0.049
      -0.116
       0.070
       0.285
       0.178
      -0.308
      -0.941
      -1.469
      -1.808
      -1.953
      -1.833
      -1.346
      -0.535
       0.350
       0.995
       1.239
       1.172
       1.020
       0.915
       0.778
       0.468
       0.005
      -0.412
      -0.617
      -0.636
      -0.604
      -0.572
      -0.463
      -0.193
       0.198
       0.525
       0.562
       0.215
      -0.355
      -0.790
      -0.773
      -0.242
       0.614
       1.512
       2.174
       2.321
       1.726
       0.409
      -1.217
      -2.506
      -2.969
      -2.535
      -1.492
      -0.218
       1.016
       2.077
       2.856
       3.164
       2.775
       1.630
       0.030
      -1.447
      -2.279
      -2.306
      -1.741
      -0.944
      -0.208
       0.288
       0.439
       0.185
      -0.456
      -1.319
      -2.066
      -2.293
      -1.751
      -0.532
       0.944
       2.149
       2.727
       2.642
       2.109
       1.391
       0.604
      -0.270
      -1.202
      -1.968
      -2.257
      -1.911
      -1.052
      -0.003
       0.868
       1.286
       1.172
       0.697
       0.182
      -0.152
      -0.349
      -0.594
      -0.909
      -1.037
      -0.712
      -0.037
       0.507
       0.532
       0.161
      -0.109
       0.019
       0.353
       0.504
       0.361
       0.159
       0.164
       0.423
       0.816
       1.196
       1.430
       1.380
       0.932
       0.085
      -0.982
      -1.897
      -2.232
      -1.757
      -0.663
       0.484
       1.065
       0.819
       0.048
      -0.611
      -0.705
      -0.350
      -0.064
      -0.210
      -0.628
      -0.831
      -0.525
       0.116
       0.623
       0.610
       0.071
      -0.626
      -0.996
      -0.775
      -0.034
       0.929
       1.766
       2.180
       2.035
       1.442
       0.667
      -0.099
      -0.835
      -1.520
      -1.969
      -1.963
      -1.456
      -0.591
       0.449
       1.449
       2.075
       1.970
       1.066
      -0.247
      -1.347
      -1.807
      -1.629
      -1.116
      -0.554
      -0.011
       0.581
       1.197
       1.612
       1.567
       0.977
      -0.024
      -1.176
      -2.176
      -2.695
      -2.465
      -1.459
      -0.013
       1.296
       1.979
       1.904
       1.277
       0.421
      -0.391
      -0.927
      -1.005
      -0.632
      -0.077
       0.343
       0.599
       0.948
       1.547
       2.153
       2.297
       1.704
       0.492
      -0.953
      -2.192
      -2.889
      -2.938
      -2.509
      -1.877
      -1.142
      -0.181
       1.035
       2.155
       2.602
       2.099
       0.992
      -0.010
      -0.413
      -0.276
      -0.040
      -0.073
      -0.353
      -0.498
      -0.119
       0.775
       1.688
       1.995
       1.458
       0.416
      -0.534
      -1.033
      -1.165
      -1.255
      -1.511
      -1.812
      -1.797
      -1.180
      -0.045
       1.132
       1.793
       1.685
       0.966
       0.002
      -0.882
      -1.458
      -1.569
      -1.167
      -0.386
       0.511
       1.277
       1.744
       1.787
       1.321
       0.375
      -0.822
      -1.833
      -2.148
      -1.488
      -0.116
       1.185
       1.629
       1.024
      -0.121
      -1.092
      -1.521
      -1.484
      -1.193
      -0.730
      -0.065
       0.789
       1.678
       2.314
       2.387
       1.755
       0.640
      -0.406
      -0.826
      -0.465
       0.301
       0.873
       0.861
       0.270
      -0.640
      -1.560
      -2.218
      -2.400
      -2.045
      -1.369
      -0.806
      -0.702
      -0.987
      -1.156
      -0.630
       0.763
       2.578
       4.037
       4.555
       4.071
       2.963
       1.654
       0.294
      -1.241
      -3.019
      -4.712
      -5.608
      -5.099
      -3.231
      -0.762
       1.401
       2.848
       3.765
       4.435
       4.742
       4.264
       2.864
       1.045
      -0.388
      -1.026
      -1.142
      -1.275
      -1.672
      -2.161
      -2.447
      -2.393
      -2.023
      -1.382
      -0.477
       0.660
       1.849
       2.688
       2.698
       1.707
       0.161
      -1.074
      -1.400
      -0.988
      -0.584
      -0.798
      -1.561
      -2.263
      -2.373
      -1.886
      -1.179
      -0.490
       0.337
       1.518
       2.852
       3.729
       3.692
       2.889
       1.871
       0.977
       0.032
      -1.270
      -2.753
      -3.664
      -3.270
      -1.569
       0.589
       2.105
       2.394
       1.672
       0.624
      -0.179
      -0.627
      -0.977
      -1.467
      -1.994
      -2.138
      -1.525
      -0.208
       1.300
       2.381
       2.712
       2.351
       1.530
       0.470
      -0.645
      -1.631
      -2.367
      -2.830
      -2.991
      -2.684
      -1.746
      -0.320
       1.084
       1.952
       2.166
       1.963
       1.531
       0.832
      -0.108
      -0.875
      -0.864
       0.135
       1.630
       2.796
       3.108
       2.582
       1.505
       0.112
      -1.420
      -2.795
      -3.626
      -3.706
      -3.191
      -2.435
      -1.624
      -0.651
       0.601
       1.915
       2.794
       2.870
       2.193
       1.095
      -0.118
      -1.261
      -2.160
      -2.597
      -2.425
      -1.655
      -0.416
       1.095
       2.585
       3.663
       3.976
       3.389
       2.065
       0.375
      -1.251
      -2.457
      -3.031
      -2.928
      -2.277
      -1.347
      -0.448
       0.258
       0.843
       1.475
       2.154
       2.630
       2.615
       2.046
       1.064
      -0.170
      -1.558
      -2.967
      -4.162
      -4.858
      -4.788
      -3.732
      -1.683
       0.912
       3.170
       4.234
       3.836
       2.455
       0.947
       0.021
      -0.065
       0.505
       1.294
       1.863
       1.962
       1.584
       0.898
       0.097
      -0.768
      -1.826
      -3.145
      -4.383
      -4.797
      -3.804
      -1.608
       0.833
       2.533
       3.189
       3.207
       3.130
       3.100
       2.844
       2.068
       0.795
      -0.685
      -2.095
      -3.313
      -4.237
      -4.571
      -3.886
      -2.007
       0.602
       2.879
       3.791
       3.103
       1.606
       0.517
       0.546
       1.422
       2.241
       2.243
       1.352
       0.098
      -0.871
      -1.281
      -1.366
      -1.577
      -2.111
      -2.678
      -2.748
      -2.058
      -0.867
       0.267
       0.925
       1.027
       0.731
       0.231
      -0.289
      -0.587
      -0.360
       0.591
       2.088
       3.470
       3.852
       2.703
       0.315
      -2.271
      -3.924
      -4.130
      -3.157
      -1.598
       0.160
       2.015
       3.772
       4.874
       4.667
       2.964
       0.326
      -2.297
      -4.221
      -5.343
      -5.860
      -5.722
      -4.475
      -1.725
       2.167
       5.892
       7.851
       7.225
       4.537
       1.204
      -1.504
      -3.160
      -4.023
      -4.395
      -4.209
      -3.215
      -1.446
       0.580
       2.155
       2.883
       2.929
       2.808
       2.893
       3.072
       2.811
       1.602
      -0.555
      -3.046
      -5.027
      -5.988
      -5.969
      -5.263
      -3.972
      -1.940
       0.857
       3.899
       6.205
       6.891
       5.754
       3.420
       0.966
      -0.689
      -1.242
      -1.022
      -0.602
      -0.321
      -0.125
       0.174
       0.497
       0.422
      -0.470
      -2.122
      -3.875
      -4.812
      -4.321
      -2.460
       0.095
       2.442
       3.896
       4.259
       3.803
       2.995
       2.122
       1.132
      -0.130
      -1.484
      -2.314
      -2.078
      -0.966
       0.083
       0.165
      -0.763
      -1.884
      -2.306
      -1.810
      -0.867
      -0.023
       0.697
       1.801
       3.715
       6.139
       8.004
       8.141
       6.086
       2.354
      -1.927
      -5.601
      -7.898
      -8.572
      -7.838
      -6.130
      -3.833
      -1.205
       1.466
       3.705
       4.961
       4.950
       3.902
       2.446
       1.282
       0.890
       1.410
       2.609
       3.912
       4.556
       3.852
       1.459
      -2.402
      -6.859
     -10.539
     -12.074
     -10.806
      -7.168
      -2.379
       2.331
       6.244
       9.052
      10.440
       9.995
       7.560
       3.607
      -0.820
      -4.548
      -6.751
      -7.201
      -6.308
      -4.951
      -4.077
      -4.149
      -4.830
      -5.213
      -4.461
      -2.348
       0.697
       3.916
       6.561
       8.070
       8.197
       7.134
       5.453
       3.792
       2.494
       1.499
       0.577
      -0.327
      -0.963
      -0.995
      -0.415
       0.302
       0.559
       0.219
      -0.188
       0.067
       1.185
       2.580
       3.302
       2.731
       0.926
      -1.581
      -4.223
      -6.657
      -8.656
      -9.859
      -9.757
      -8.074
      -5.228
      -2.322
      -0.493
      -0.123
      -0.623
      -0.927
      -0.164
       2.004
       5.396
       9.378
      12.914
      14.748
      13.798
       9.600
       2.565
      -6.047
     -14.408
     -20.604
     -23.179
     -21.549
     -16.117
      -8.013
       1.331
      10.465
      17.963
      22.453
      22.927
      19.267
      12.540
       4.646
      -2.468
      -7.485
      -9.882
      -9.739
      -7.551
      -4.167
      -0.659
       2.024
       3.447
       3.777
       3.478
       2.888
       2.079
       1.090
       0.195
      -0.141
       0.359
       1.472
       2.544
       2.853
       1.960
      -0.150
      -3.063
      -6.038
      -8.238
      -9.063
      -8.376
      -6.460
      -3.737
      -0.463
       3.329
       7.540
      11.564
      14.126
      13.712
       9.469
       1.964
      -6.861
     -14.566
     -19.294
     -20.276
     -17.612
     -11.849
      -3.897
       4.801
      12.361
      17.013
      17.795
      14.895
       9.498
       3.339
      -1.802
      -4.555
      -4.339
      -1.579
       2.316
       5.349
       5.721
       2.714
      -2.856
      -9.050
     -13.883
     -16.199
     -15.715
     -12.489
      -6.679
       0.988
       8.708
      13.995
      14.952
      11.401
       4.974
      -1.777
      -6.531
      -8.018
      -6.296
      -2.550
       1.441
       3.978
       4.047
       1.667
      -2.084
      -5.466
      -6.841
      -5.469
      -1.819
       2.802
       7.004
       9.863
      10.979
      10.247
       7.700
       3.579
      -1.535
      -6.662
     -10.547
     -12.010
     -10.473
      -6.358
      -0.937
       4.331
       8.379
      10.605
      10.627
       8.254
       3.801
      -1.684
      -6.687
      -9.882
     -10.686
      -9.357
      -6.693
      -3.621
      -0.933
       0.820
       1.416
       1.051
       0.291
      -0.197
      -0.022
       0.760
       1.799
       2.732
       3.322
       3.349
       2.459
       0.249
      -3.289
      -7.290
     -10.084
     -10.036
      -6.626
      -0.854
       5.396
      10.456
      13.537
      14.610
      13.914
      11.714
       8.444
       4.866
       1.857
      -0.020
      -0.756
      -0.783
      -0.690
      -0.993
      -1.985
      -3.632
      -5.556
      -7.184
      -7.974
      -7.568
      -5.881
      -3.168
      -0.058
       2.560
       3.815
       3.208
       0.900
      -2.254
      -5.051
      -6.514
      -6.312
      -4.763
      -2.532
      -0.305
       1.411
       2.334
       2.397
       1.719
       0.599
      -0.497
      -1.037
      -0.627
       0.769
       2.772
       4.739
       5.989
       5.997
       4.552
       1.954
      -0.909
      -2.836
      -2.947
      -1.293
       1.098
       2.870
       3.241
       2.431
       1.318
       0.666
       0.586
       0.627
       0.303
      -0.495
      -1.515
      -2.453
      -3.190
      -3.769
      -4.204
      -4.327
      -3.835
      -2.531
      -0.587
       1.442
       2.939
       3.634
       3.694
       3.398
       2.781
       1.671
       0.088
      -1.477
      -2.287
      -1.934
      -0.700
       0.662
       1.492
       1.585
       1.074
       0.131
      -1.155
      -2.642
      -4.002
      -4.834
      -4.903
      -4.275
      -3.232
      -2.068
      -0.970
      -0.005
       0.842
       1.628
       2.429
       3.269
       4.051
       4.574
       4.677
       4.429
       4.129
       4.049
       4.139
       4.046
       3.470
       2.504
       1.558
       0.923
       0.474
      -0.166
      -1.211
      -2.481
      -3.553
      -4.044
      -3.783
      -2.816
      -1.351
       0.286
       1.711
       2.564
       2.598
       1.742
       0.144
      -1.814
      -3.601
      -4.744
      -5.036
      -4.576
      -3.650
      -2.560
      -1.544
      -0.737
      -0.153
       0.286
       0.658
       0.917
       0.902
       0.488
      -0.260
      -1.098
      -1.777
      -2.217
      -2.520
      -2.807
      -3.043
      -3.007
      -2.464
      -1.401
      -0.085
       1.116
       1.981
       2.511
       2.820
       3.024
       3.217
       3.460
       3.725
       3.887
       3.849
       3.694
       3.646
       3.829
       4.093
       4.120
       3.692
       2.833
       1.721
       0.566
      -0.416
      -1.025
      -1.230
      -1.289
      -1.597
      -2.295
      -3.100
      -3.567
      -3.541
      -3.284
      -3.167
      -3.266
      -3.274
      -2.789
      -1.689
      -0.285
       0.883
       1.405
       1.226
       0.571
      -0.274
      -1.091
      -1.698
      -1.919
      -1.650
      -0.953
      -0.018
       0.946
       1.762
       2.276
       2.376
       2.073
       1.519
       0.915
       0.395
       0.025
      -0.111
       0.106
       0.736
       1.683
       2.683
       3.387
       3.496
       2.912
       1.839
       0.703
      -0.126
      -0.578
      -0.843
      -1.085
      -1.234
      -1.072
      -0.526
       0.161
       0.561
       0.398
      -0.225
      -0.910
      -1.312
      -1.395
      -1.391
      -1.529
      -1.842
      -2.197
      -2.455
      -2.581
      -2.624
      -2.649
      -2.664
      -2.602
      -2.388
      -2.004
      -1.485
      -0.843
      -0.059
       0.828
       1.680
       2.359
       2.866
       3.281
       3.584
       3.584
       3.088
       2.113
       0.899
      -0.271
      -1.236
      -1.936
      -2.310
      -2.248
      -1.704
      -0.838
      -0.041
       0.269
      -0.067
      -0.800
      -1.398
      -1.377
      -0.573
       0.797
       2.300
       3.492
       4.072
       3.945
       3.187
       1.926
       0.287
      -1.536
      -3.167
      -4.103
      -3.976
      -2.814
      -1.053
       0.697
       1.937
       2.427
       2.191
       1.450
       0.532
      -0.282
      -0.870
      -1.254
      -1.470
      -1.485
