Origin Time       03/10/2012 10:04:34
Lat.              32.4 N 
Long.             76.3 E 
Depth (Km)          5.0
Magnitude         3.8
 Region           Chamba-DISTT.-HIMACHAL-PRADESH                                   
 Above details taken from IMD 
   
Station Code      CHM
Station Lat.       32.555
Station Long.      76.126
Station Height(m)  952.0
Site Class        A   Vs30 between 700 m/sec to 1400 m/sec * 
Record Time       03.10.2012 10:03:53.254
Sampling Rate     200. Hz
 Record Duration   66.985 Sec.
 Direction         Vert. (Up positive)
Max. Acceleration      3.605 cm/sec**2
     
  * For reference see Site Classification link of website 
     
 Base Line Corrected and Low Pass Filtered (Cut Off at 35 Hz) Time History
 Acceleration data in cm/sec**2
    
[...]
      -0.007
      -0.027
      -0.025
      -0.008
       0.007
       0.010
       0.004
       0.002
       0.010
       0.021
       0.021
       0.004
      -0.022
      -0.040
      -0.037
      -0.016
       0.009
       0.025
       0.028
       0.022
       0.014
       0.003
      -0.009
      -0.018
      -0.019
      -0.009
       0.006
       0.016
       0.018
       0.012
       0.003
      -0.009
      -0.021
      -0.027
      -0.024
      -0.014
       0.001
       0.016
       0.023
       0.015
      -0.003
      -0.019
      -0.024
      -0.016
      -0.001
       0.014
       0.023
       0.023
       0.016
       0.006
      -0.001
      -0.003
      -0.004
      -0.006
      -0.010
      -0.012
      -0.010
      -0.004
       0.000
      -0.002
      -0.004
      -0.003
       0.002
       0.006
       0.005
      -0.003
      -0.013
      -0.019
      -0.021
      -0.017
      -0.008
       0.004
       0.013
       0.011
      -0.001
      -0.017
      -0.025
      -0.022
      -0.012
      -0.006
      -0.013
      -0.028
      -0.034
      -0.022
      -0.001
       0.014
       0.013
       0.001
      -0.015
      -0.029
      -0.030
      -0.011
       0.022
       0.051
       0.054
       0.026
      -0.014
      -0.037
      -0.031
      -0.006
       0.017
       0.025
       0.020
       0.008
      -0.004
      -0.011
      -0.014
      -0.013
      -0.013
      -0.017
      -0.024
      -0.029
      -0.025
      -0.009
       0.010
       0.019
       0.014
      -0.004
      -0.025
      -0.039
      -0.035
      -0.014
       0.016
       0.038
       0.039
       0.017
      -0.016
      -0.043
      -0.051
      -0.037
      -0.012
       0.009
       0.019
       0.016
       0.005
      -0.005
      -0.005
       0.009
       0.028
       0.034
       0.018
      -0.016
      -0.045
      -0.052
      -0.033
      -0.004
       0.019
       0.022
       0.008
      -0.012
      -0.022
      -0.017
      -0.002
       0.012
       0.019
       0.013
      -0.003
      -0.020
      -0.024
      -0.012
      -0.002
      -0.011
      -0.034
      -0.044
      -0.024
       0.012
       0.032
       0.016
      -0.018
      -0.034
      -0.021
      -0.001
      -0.001
      -0.020
      -0.030
      -0.013
       0.017
       0.030
       0.014
      -0.018
      -0.040
      -0.043
      -0.036
      -0.036
      -0.040
      -0.034
      -0.005
       0.033
       0.051
       0.035
      -0.001
      -0.033
      -0.053
      -0.066
      -0.071
      -0.056
      -0.013
       0.044
       0.091
       0.114
       0.124
       0.123
       0.094
       0.018
      -0.094
      -0.194
      -0.234
      -0.213
      -0.168
      -0.130
      -0.078
       0.045
       0.248
       0.448
       0.510
       0.369
       0.093
      -0.173
      -0.335
      -0.399
      -0.406
      -0.345
      -0.172
       0.101
       0.358
       0.457
       0.348
       0.110
      -0.119
      -0.241
      -0.250
      -0.205
      -0.164
      -0.132
      -0.064
       0.071
       0.225
       0.292
       0.217
       0.058
      -0.068
      -0.109
      -0.100
      -0.077
      -0.026
       0.074
       0.177
       0.196
       0.087
      -0.109
      -0.303
      -0.411
      -0.396
      -0.280
      -0.110
       0.086
       0.312
       0.535
       0.664
       0.622
       0.417
       0.105
      -0.277
      -0.661
      -0.886
      -0.792
      -0.398
       0.073
       0.400
       0.521
       0.490
       0.344
       0.105
      -0.146
      -0.288
      -0.271
      -0.153
      -0.005
       0.152
       0.306
       0.393
       0.325
       0.085
      -0.234
      -0.491
      -0.602
      -0.585
      -0.491
      -0.295
       0.076
       0.601
       1.060
       1.169
       0.824
       0.191
      -0.452
      -0.896
      -1.046
      -0.878
      -0.459
       0.027
       0.367
       0.477
       0.444
       0.382
       0.281
       0.055
      -0.281
      -0.532
      -0.474
      -0.102
       0.306
       0.392
       0.035
      -0.511
      -0.799
      -0.558
       0.091
       0.745
       1.035
       0.881
       0.513
       0.268
       0.292
       0.396
       0.234
      -0.323
      -1.006
      -1.372
      -1.193
      -0.615
       0.006
       0.370
       0.373
       0.114
      -0.163
      -0.186
       0.161
       0.714
       1.105
       1.023
       0.465
      -0.249
      -0.717
      -0.752
      -0.473
      -0.152
       0.011
      -0.010
      -0.101
      -0.098
       0.097
       0.405
       0.567
       0.341
      -0.238
      -0.818
      -0.986
      -0.617
       0.024
       0.511
       0.602
       0.397
       0.179
       0.131
       0.211
       0.288
       0.300
       0.233
       0.030
      -0.335
      -0.682
      -0.702
      -0.310
       0.174
       0.343
       0.172
       0.026
       0.186
       0.482
       0.488
       0.001
      -0.755
      -1.328
      -1.361
      -0.772
       0.210
       1.129
       1.520
       1.201
       0.430
      -0.265
      -0.494
      -0.308
      -0.093
      -0.169
      -0.480
      -0.684
      -0.495
       0.078
       0.750
       1.153
       1.035
       0.429
      -0.310
      -0.710
      -0.547
      -0.056
       0.275
       0.157
      -0.249
      -0.521
      -0.402
      -0.034
       0.227
       0.167
      -0.110
      -0.325
      -0.289
      -0.015
       0.367
       0.734
       0.981
       0.984
       0.656
       0.078
      -0.491
      -0.807
      -0.843
      -0.761
      -0.689
      -0.599
      -0.397
      -0.060
       0.348
       0.736
       0.994
       0.986
       0.634
       0.053
      -0.457
      -0.602
      -0.322
       0.154
       0.467
       0.383
      -0.040
      -0.501
      -0.693
      -0.555
      -0.295
      -0.159
      -0.180
      -0.175
       0.044
       0.470
       0.878
       0.974
       0.597
      -0.123
      -0.794
      -1.022
      -0.723
      -0.188
       0.192
       0.281
       0.266
       0.395
       0.684
       0.867
       0.649
      -0.017
      -0.844
      -1.414
      -1.455
      -0.991
      -0.286
       0.338
       0.679
       0.725
       0.624
       0.565
       0.622
       0.667
       0.473
      -0.034
      -0.623
      -0.904
      -0.650
      -0.006
       0.589
       0.705
       0.249
      -0.410
      -0.700
      -0.356
       0.280
       0.549
       0.131
      -0.619
      -0.996
      -0.625
       0.221
       0.915
       1.059
       0.768
       0.438
       0.294
       0.209
      -0.086
      -0.686
      -1.390
      -1.826
      -1.668
      -0.841
       0.365
       1.395
       1.762
       1.392
       0.666
       0.093
      -0.095
      -0.090
      -0.254
      -0.698
      -1.106
      -1.013
      -0.282
       0.702
       1.312
       1.171
       0.425
      -0.401
      -0.815
      -0.700
      -0.319
      -0.023
       0.034
      -0.037
      -0.005
       0.289
       0.771
       1.116
       0.968
       0.297
      -0.480
      -0.825
      -0.557
      -0.006
       0.306
       0.108
      -0.424
      -0.831
      -0.752
      -0.220
       0.354
       0.559
       0.338
       0.007
      -0.074
       0.178
       0.518
       0.583
       0.199
      -0.440
      -0.875
      -0.733
      -0.033
       0.801
       1.213
       0.904
       0.051
      -0.798
      -1.154
      -0.987
      -0.680
      -0.599
      -0.713
      -0.675
      -0.190
       0.707
       1.657
       2.179
       1.938
       0.968
      -0.304
      -1.301
      -1.661
      -1.447
      -1.009
      -0.656
      -0.406
      -0.044
       0.577
       1.281
       1.645
       1.361
       0.517
      -0.448
      -1.064
      -1.122
      -0.725
      -0.144
       0.372
       0.670
       0.677
       0.379
      -0.125
      -0.600
      -0.777
      -0.537
       0.006
       0.588
       0.947
       0.932
       0.528
      -0.147
      -0.878
      -1.423
      -1.594
      -1.315
      -0.623
       0.345
       1.371
       2.151
       2.349
       1.758
       0.511
      -0.880
      -1.784
      -1.876
      -1.335
      -0.642
      -0.167
       0.086
       0.351
       0.766
       1.162
       1.166
       0.561
      -0.436
      -1.242
      -1.319
      -0.597
       0.454
       1.176
       1.193
       0.632
      -0.036
      -0.393
      -0.389
      -0.314
      -0.453
      -0.760
      -0.894
      -0.586
       0.072
       0.689
       0.908
       0.665
       0.181
      -0.217
      -0.283
       0.014
       0.463
       0.727
       0.574
       0.072
      -0.447
      -0.642
      -0.449
      -0.134
      -0.056
      -0.326
      -0.698
      -0.788
      -0.411
       0.253
       0.802
       0.911
       0.556
       0.027
      -0.288
      -0.202
       0.148
       0.451
       0.500
       0.313
       0.028
      -0.232
      -0.385
      -0.363
      -0.171
       0.049
       0.084
      -0.140
      -0.464
      -0.626
      -0.506
      -0.236
      -0.078
      -0.166
      -0.352
      -0.314
       0.165
       0.973
       1.695
       1.865
       1.272
       0.144
      -0.939
      -1.421
      -1.221
      -0.803
      -0.704
      -0.957
      -1.052
      -0.496
       0.639
       1.727
       2.083
       1.473
       0.268
      -0.813
      -1.192
      -0.825
      -0.181
       0.190
       0.119
      -0.101
      -0.052
       0.374
       0.846
       0.882
       0.334
      -0.425
      -0.832
      -0.660
      -0.203
       0.048
      -0.138
      -0.567
      -0.828
      -0.615
       0.043
       0.811
       1.291
       1.317
       1.031
       0.685
       0.375
      -0.009
      -0.579
      -1.239
      -1.687
      -1.628
      -0.988
      -0.005
       0.866
       1.198
       0.885
       0.246
      -0.229
      -0.293
      -0.117
      -0.033
      -0.146
      -0.261
      -0.168
       0.089
       0.276
       0.245
       0.079
      -0.024
       0.043
       0.252
       0.503
       0.670
       0.603
       0.214
      -0.395
      -0.939
      -1.160
      -1.021
      -0.674
      -0.258
       0.194
       0.651
       0.972
       0.967
       0.610
       0.115
      -0.239
      -0.353
      -0.345
      -0.334
      -0.276
      -0.049
       0.322
       0.614
       0.579
       0.158
      -0.448
      -0.909
      -0.978
      -0.652
      -0.146
       0.289
       0.527
       0.569
       0.465
       0.283
       0.106
      -0.016
      -0.121
      -0.277
      -0.445
      -0.459
      -0.205
       0.204
       0.492
       0.464
       0.181
      -0.114
      -0.208
      -0.056
       0.228
       0.480
       0.568
       0.429
       0.075
      -0.392
      -0.793
      -0.964
      -0.866
      -0.606
      -0.294
       0.076
       0.550
       1.012
       1.164
       0.792
       0.026
      -0.720
      -1.071
      -0.916
      -0.390
       0.259
       0.756
       0.891
       0.643
       0.222
      -0.091
      -0.175
      -0.132
      -0.111
      -0.133
      -0.096
       0.062
       0.273
       0.376
       0.257
      -0.080
      -0.518
      -0.895
      -1.053
      -0.893
      -0.418
       0.223
       0.754
       0.916
       0.670
       0.259
       0.008
       0.044
       0.219
       0.304
       0.214
       0.026
      -0.161
      -0.302
      -0.382
      -0.386
      -0.324
      -0.253
      -0.217
      -0.177
      -0.027
       0.290
       0.676
       0.905
       0.770
       0.254
      -0.411
      -0.865
      -0.860
      -0.446
       0.080
       0.406
       0.429
       0.251
       0.028
      -0.152
      -0.263
      -0.300
      -0.276
      -0.223
      -0.141
       0.021
       0.281
       0.519
       0.549
       0.309
      -0.032
      -0.222
      -0.166
       0.001
       0.075
      -0.009
      -0.150
      -0.228
      -0.228
      -0.223
      -0.261
      -0.304
      -0.273
      -0.139
       0.054
       0.235
       0.355
       0.411
       0.428
       0.428
       0.385
       0.239
      -0.037
      -0.362
      -0.578
      -0.579
      -0.407
      -0.188
       0.008
       0.212
       0.444
       0.612
       0.560
       0.221
      -0.296
      -0.754
      -0.928
      -0.740
      -0.315
       0.104
       0.341
       0.411
       0.444
       0.495
       0.469
       0.248
      -0.140
      -0.514
      -0.684
      -0.605
      -0.394
      -0.219
      -0.154
      -0.127
      -0.009
       0.238
       0.512
       0.655
       0.588
       0.367
       0.159
       0.150
       0.400
       0.746
       0.875
       0.570
      -0.080
      -0.732
      -1.064
      -1.029
      -0.860
      -0.836
      -1.012
      -1.135
      -0.861
      -0.070
       0.964
       1.729
       1.839
       1.308
       0.536
       0.004
      -0.071
       0.127
       0.195
      -0.130
      -0.732
      -1.195
      -1.148
      -0.569
       0.220
       0.838
       1.126
       1.145
       0.981
       0.600
      -0.052
      -0.865
      -1.563
      -1.879
      -1.738
      -1.252
      -0.603
       0.064
       0.666
       1.176
       1.580
       1.826
       1.813
       1.459
       0.788
      -0.072
      -0.982
      -1.851
      -2.584
      -2.966
      -2.666
      -1.474
       0.414
       2.342
       3.537
       3.605
       2.744
       1.489
       0.261
      -0.841
      -1.855
      -2.684
      -3.027
      -2.610
      -1.451
       0.068
       1.391
       2.098
       2.108
       1.647
       1.046
       0.521
       0.091
      -0.338
      -0.813
      -1.236
      -1.428
      -1.274
      -0.817
      -0.222
       0.342
       0.776
       1.046
       1.157
       1.130
       0.965
       0.645
       0.204
      -0.218
      -0.420
      -0.326
      -0.106
      -0.085
      -0.471
      -1.151
      -1.737
      -1.857
      -1.418
      -0.629
       0.203
       0.891
       1.403
       1.738
       1.845
       1.644
       1.132
       0.441
      -0.206
      -0.608
      -0.697
      -0.561
      -0.356
      -0.218
      -0.209
      -0.343
      -0.604
      -0.955
      -1.311
      -1.504
      -1.326
      -0.676
       0.288
       1.183
       1.653
       1.598
       1.163
       0.565
      -0.020
      -0.431
      -0.507
      -0.184
       0.397
       0.931
       1.114
       0.822
       0.170
      -0.570
      -1.145
      -1.467
      -1.617
      -1.676
      -1.557
      -1.044
      -0.026
       1.294
       2.419
       2.851
       2.408
       1.368
       0.294
      -0.337
      -0.442
      -0.335
      -0.405
      -0.767
      -1.188
      -1.339
      -1.118
      -0.733
      -0.500
      -0.545
      -0.673
      -0.514
       0.130
       1.044
       1.700
       1.682
       1.051
       0.288
      -0.135
      -0.145
      -0.032
      -0.092
      -0.352
      -0.611
      -0.699
      -0.642
      -0.599
      -0.666
      -0.761
      -0.670
      -0.238
       0.473
       1.187
       1.599
       1.589
       1.274
       0.848
       0.392
      -0.145
      -0.771
      -1.295
      -1.433
      -1.090
      -0.514
      -0.105
      -0.056
      -0.211
      -0.258
      -0.030
       0.382
       0.740
       0.842
       0.643
       0.280
      -0.019
      -0.102
      -0.027
      -0.018
      -0.249
      -0.638
      -0.879
      -0.685
      -0.033
       0.819
       1.513
       1.774
       1.491
       0.708
      -0.358
      -1.336
      -1.846
      -1.728
      -1.148
      -0.468
       0.018
       0.245
       0.341
       0.459
       0.628
       0.743
       0.671
       0.409
       0.124
       0.032
       0.205
       0.488
       0.611
       0.395
      -0.098
      -0.607
      -0.846
      -0.716
      -0.383
      -0.143
      -0.169
      -0.349
      -0.406
      -0.179
       0.200
       0.412
       0.214
      -0.361
      -1.019
      -1.401
      -1.274
      -0.637
       0.308
       1.261
       1.955
       2.254
       2.161
       1.756
       1.116
       0.291
      -0.650
      -1.556
      -2.203
      -2.374
      -1.974
      -1.120
      -0.144
       0.549
       0.721
       0.466
       0.159
       0.181
       0.631
       1.257
       1.649
       1.535
       0.937
       0.110
      -0.651
      -1.163
      -1.396
      -1.405
      -1.244
      -0.937
      -0.518
      -0.078
       0.269
       0.491
       0.677
       0.932
       1.213
       1.307
       1.022
       0.415
      -0.183
      -0.446
      -0.367
      -0.277
      -0.502
      -1.008
      -1.425
      -1.404
      -0.920
      -0.235
       0.357
       0.719
       0.861
       0.826
       0.639
       0.331
      -0.035
      -0.376
      -0.613
      -0.677
      -0.516
      -0.138
       0.345
       0.741
       0.886
       0.750
       0.452
       0.173
       0.048
       0.100
       0.249
       0.349
       0.256
      -0.099
      -0.651
      -1.199
      -1.483
      -1.319
      -0.721
       0.097
       0.830
       1.255
       1.350
       1.263
       1.151
       1.018
       0.713
       0.117
      -0.653
      -1.265
      -1.427
      -1.137
      -0.661
      -0.280
      -0.082
      -0.001
       0.011
      -0.095
      -0.369
      -0.737
      -1.019
      -1.048
      -0.765
      -0.214
       0.506
       1.256
       1.864
       2.143
       1.969
       1.358
       0.482
      -0.399
      -1.059
      -1.414
      -1.530
      -1.514
      -1.406
      -1.157
      -0.727
      -0.164
       0.405
       0.868
       1.179
       1.337
       1.338
       1.168
       0.840
       0.421
       0.022
      -0.266
      -0.435
      -0.568
      -0.737
      -0.898
      -0.900
      -0.632
      -0.152
       0.343
       0.687
       0.853
       0.922
       0.955
       0.945
       0.854
       0.689
       0.501
       0.326
       0.143
      -0.101
      -0.428
      -0.789
      -1.086
      -1.207
      -1.071
      -0.696
      -0.236
       0.068
       0.041
      -0.278
      -0.656
      -0.825
      -0.669
      -0.272
       0.167
       0.479
       0.634
       0.731
       0.871
       1.026
       1.045
       0.811
       0.367
      -0.105
      -0.454
      -0.683
      -0.909
      -1.216
      -1.539
      -1.684
      -1.462
      -0.816
       0.127
       1.100
       1.798
       2.002
       1.684
       1.010
       0.216
      -0.526
      -1.120
      -1.453
      -1.364
      -0.769
       0.178
       1.102
       1.622
       1.580
       1.086
       0.384
      -0.298
      -0.798
      -0.999
      -0.827
      -0.312
       0.370
       0.941
       1.146
       0.882
       0.255
      -0.481
      -1.056
      -1.311
      -1.223
      -0.861
      -0.339
       0.176
       0.494
       0.508
       0.284
       0.026
      -0.086
      -0.027
       0.095
       0.179
       0.227
       0.299
       0.394
       0.406
       0.222
      -0.146
      -0.531
      -0.733
      -0.644
      -0.294
       0.196
       0.648
       0.878
       0.772
       0.371
      -0.140
