Origin Time       02/10/2012 03:45:28 UTC
Lat.              32.4 N 
Long.             76.4 E 
Depth (Km)         10.0
Magnitude         4.5
 Region           Chamba-DISTT.-HIMACHAL                                           
 Above details taken from IMD 
    
Station Code      CHM
Station Lat.       32.555  N
Station Long.      76.126  E
Station Height(m)  952.0
Site Class        A   Vs30 between 700 m/sec to 1400 m/sec * 
Record Time       02.10.2012 03:44:44.174 UTC
Sampling Rate     200. Hz
 Record Duration   73.970 Sec.
 Direction         N-S (N positive)
Max. Acceleration     -8.206 cm/sec**2
     
  * For reference see Site Classification link of website 
     
 Base Line Corrected and Low Pass Filtered (Cut Off at 35 Hz) Time History
 Acceleration data in cm/sec**2
    
[...]
      -0.006
      -0.004
      -0.002
       0.000
       0.000
      -0.001
      -0.003
      -0.004
      -0.004
      -0.003
      -0.004
      -0.007
      -0.012
      -0.015
      -0.015
      -0.012
      -0.008
      -0.004
       0.001
       0.002
      -0.001
      -0.005
      -0.006
      -0.002
       0.002
       0.003
      -0.002
      -0.008
      -0.009
      -0.005
       0.000
       0.003
      -0.001
      -0.007
      -0.013
      -0.014
      -0.010
      -0.003
       0.002
       0.006
       0.008
       0.009
       0.010
       0.010
       0.007
       0.002
      -0.006
      -0.014
      -0.019
      -0.020
      -0.018
      -0.011
      -0.003
       0.006
       0.011
       0.009
       0.001
      -0.010
      -0.016
      -0.014
      -0.006
       0.003
       0.007
       0.006
      -0.001
      -0.009
      -0.015
      -0.017
      -0.015
      -0.010
      -0.006
      -0.001
       0.001
       0.001
      -0.003
      -0.008
      -0.011
      -0.011
      -0.007
      -0.001
       0.003
       0.005
       0.005
       0.004
       0.004
       0.005
       0.004
       0.001
      -0.004
      -0.009
      -0.009
      -0.004
       0.003
       0.011
       0.016
       0.019
       0.018
       0.015
       0.011
       0.007
       0.002
      -0.005
      -0.013
      -0.019
      -0.019
      -0.013
      -0.003
       0.004
       0.003
      -0.003
      -0.009
      -0.009
      -0.003
       0.002
       0.003
      -0.001
      -0.007
      -0.011
      -0.013
      -0.013
      -0.012
      -0.011
      -0.009
      -0.005
      -0.002
       0.001
       0.003
       0.003
       0.002
      -0.003
      -0.010
      -0.015
      -0.016
      -0.013
      -0.009
      -0.008
      -0.009
      -0.009
      -0.004
       0.003
       0.006
       0.004
       0.000
      -0.001
       0.001
       0.004
       0.003
      -0.003
      -0.011
      -0.014
      -0.012
      -0.005
       0.001
       0.004
       0.005
       0.007
       0.010
       0.014
       0.018
       0.017
       0.014
       0.010
       0.006
       0.003
      -0.001
      -0.005
      -0.009
      -0.010
      -0.007
      -0.004
       0.000
       0.003
       0.005
       0.007
       0.012
       0.017
       0.019
       0.016
       0.010
       0.004
      -0.001
      -0.006
      -0.014
      -0.023
      -0.029
      -0.028
      -0.020
      -0.010
      -0.006
      -0.010
      -0.019
      -0.026
      -0.027
      -0.021
      -0.012
      -0.005
       0.001
       0.009
       0.016
       0.017
       0.010
       0.003
       0.009
       0.032
       0.058
       0.072
       0.072
       0.070
       0.073
       0.071
       0.045
      -0.007
      -0.059
      -0.071
      -0.036
       0.013
       0.035
       0.016
      -0.021
      -0.048
      -0.066
      -0.087
      -0.118
      -0.142
      -0.134
      -0.084
      -0.010
       0.058
       0.093
       0.092
       0.073
       0.062
       0.075
       0.097
       0.104
       0.092
       0.088
       0.111
       0.135
       0.110
       0.016
      -0.104
      -0.178
      -0.180
      -0.147
      -0.143
      -0.175
      -0.186
      -0.123
      -0.009
       0.067
       0.037
      -0.072
      -0.176
      -0.210
      -0.167
      -0.080
       0.017
       0.110
       0.198
       0.270
       0.304
       0.283
       0.207
       0.093
      -0.033
      -0.130
      -0.159
      -0.112
      -0.047
      -0.048
      -0.155
      -0.311
      -0.393
      -0.316
      -0.102
       0.130
       0.260
       0.251
       0.170
       0.120
       0.158
       0.248
       0.296
       0.237
       0.085
      -0.083
      -0.206
      -0.280
      -0.328
      -0.344
      -0.292
      -0.133
       0.132
       0.434
       0.641
       0.609
       0.293
      -0.174
      -0.515
      -0.504
      -0.146
       0.309
       0.566
       0.509
       0.234
      -0.108
      -0.444
      -0.743
      -0.918
      -0.821
      -0.382
       0.258
       0.785
       0.913
       0.583
       0.016
      -0.434
      -0.521
      -0.255
       0.141
       0.417
       0.463
       0.328
       0.109
      -0.146
      -0.402
      -0.549
      -0.429
      -0.013
       0.481
       0.711
       0.488
      -0.064
      -0.621
      -0.905
      -0.849
      -0.543
      -0.098
       0.412
       0.883
       1.129
       0.962
       0.367
      -0.399
      -0.924
      -0.908
      -0.364
       0.393
       0.960
       1.078
       0.767
       0.252
      -0.221
      -0.542
      -0.745
      -0.886
      -0.934
      -0.794
      -0.422
       0.082
       0.512
       0.696
       0.616
       0.395
       0.187
       0.068
       0.021
      -0.027
      -0.132
      -0.286
      -0.397
      -0.340
      -0.073
       0.300
       0.580
       0.615
       0.416
       0.141
      -0.031
      -0.038
       0.035
       0.044
      -0.075
      -0.255
      -0.386
      -0.422
      -0.397
      -0.346
      -0.278
      -0.213
      -0.200
      -0.252
      -0.283
      -0.152
       0.197
       0.643
       0.926
       0.816
       0.279
      -0.461
      -1.024
      -1.111
      -0.714
      -0.100
       0.413
       0.676
       0.738
       0.703
       0.590
       0.335
      -0.079
      -0.524
      -0.799
      -0.799
      -0.582
      -0.282
       0.013
       0.257
       0.382
       0.309
       0.067
      -0.130
      -0.031
       0.397
       0.860
       0.935
       0.440
      -0.356
      -0.934
      -0.951
      -0.505
       0.012
       0.270
       0.223
       0.030
      -0.149
      -0.255
      -0.284
      -0.213
       0.002
       0.348
       0.702
       0.879
       0.760
       0.372
      -0.143
      -0.618
      -0.922
      -0.958
      -0.685
      -0.176
       0.354
       0.647
       0.572
       0.218
      -0.188
      -0.433
      -0.403
      -0.093
       0.388
       0.844
       1.078
       1.013
       0.721
       0.339
      -0.037
      -0.385
      -0.702
      -0.938
      -0.996
      -0.804
      -0.403
       0.036
       0.308
       0.300
       0.051
      -0.302
      -0.625
      -0.859
      -0.986
      -0.955
      -0.675
      -0.121
       0.564
       1.120
       1.343
       1.240
       0.967
       0.652
       0.275
      -0.231
      -0.793
      -1.147
      -1.025
      -0.416
       0.353
       0.837
       0.827
       0.525
       0.354
       0.557
       0.957
       1.122
       0.790
       0.139
      -0.378
      -0.476
      -0.304
      -0.285
      -0.687
      -1.346
      -1.798
      -1.668
      -0.966
      -0.050
       0.654
       0.903
       0.711
       0.289
      -0.079
      -0.179
       0.018
       0.352
       0.626
       0.753
       0.775
       0.721
       0.518
       0.064
      -0.597
      -1.210
      -1.465
      -1.233
      -0.653
       0.001
       0.506
       0.780
       0.839
       0.729
       0.499
       0.230
       0.042
       0.036
       0.202
       0.390
       0.412
       0.212
      -0.051
      -0.143
       0.011
       0.220
       0.200
      -0.132
      -0.562
      -0.804
      -0.789
      -0.684
      -0.641
      -0.601
      -0.387
       0.064
       0.591
       0.918
       0.870
       0.498
       0.024
      -0.324
      -0.448
      -0.383
      -0.224
      -0.072
      -0.022
      -0.120
      -0.292
      -0.343
      -0.128
       0.260
       0.509
       0.347
      -0.184
      -0.718
      -0.840
      -0.404
       0.364
       1.037
       1.288
       1.086
       0.661
       0.273
       0.003
      -0.268
      -0.668
      -1.118
      -1.296
      -0.874
       0.141
       1.261
       1.795
       1.376
       0.285
      -0.742
      -1.063
      -0.585
       0.230
       0.765
       0.713
       0.247
      -0.229
      -0.480
      -0.604
      -0.820
      -1.155
      -1.389
      -1.281
      -0.800
      -0.148
       0.403
       0.683
       0.676
       0.485
       0.277
       0.205
       0.318
       0.510
       0.599
       0.486
       0.251
       0.093
       0.142
       0.335
       0.477
       0.432
       0.264
       0.168
       0.287
       0.568
       0.790
       0.722
       0.293
      -0.340
      -0.891
      -1.144
      -1.085
      -0.859
      -0.605
      -0.371
      -0.149
       0.040
       0.125
       0.046
      -0.199
      -0.549
      -0.919
      -1.216
      -1.336
      -1.177
      -0.704
      -0.026
       0.606
       0.934
       0.884
       0.629
       0.455
       0.515
       0.689
       0.713
       0.462
       0.104
      -0.046
       0.176
       0.617
       0.930
       0.841
       0.351
      -0.278
      -0.699
      -0.716
      -0.392
       0.041
       0.378
       0.556
       0.615
       0.590
       0.477
       0.263
      -0.032
      -0.378
      -0.773
      -1.220
      -1.652
      -1.894
      -1.756
      -1.195
      -0.404
       0.278
       0.585
       0.484
       0.165
      -0.124
      -0.241
      -0.189
      -0.025
       0.230
       0.582
       1.005
       1.393
       1.607
       1.565
       1.281
       0.844
       0.362
      -0.053
      -0.301
      -0.349
      -0.274
      -0.235
      -0.355
      -0.609
      -0.814
      -0.787
      -0.524
      -0.252
      -0.256
      -0.610
      -1.058
      -1.191
      -0.795
      -0.044
       0.647
       0.971
       0.925
       0.722
       0.526
       0.325
       0.028
      -0.344
      -0.616
      -0.582
      -0.176
       0.463
       1.040
       1.246
       0.921
       0.157
      -0.726
      -1.356
      -1.519
      -1.250
      -0.743
      -0.203
       0.247
       0.551
       0.684
       0.632
       0.414
       0.076
      -0.320
      -0.681
      -0.868
      -0.741
      -0.286
       0.320
       0.815
       1.049
       1.088
       1.095
       1.135
       1.106
       0.844
       0.298
      -0.368
      -0.853
      -0.942
      -0.678
      -0.324
      -0.126
      -0.116
      -0.141
      -0.078
       0.014
      -0.013
      -0.199
      -0.419
      -0.524
      -0.497
      -0.438
      -0.432
      -0.449
      -0.379
      -0.133
       0.266
       0.667
       0.862
       0.718
       0.298
      -0.141
      -0.301
      -0.065
       0.402
       0.762
       0.770
       0.456
       0.069
      -0.161
      -0.218
      -0.285
      -0.541
      -0.965
      -1.352
      -1.476
      -1.268
      -0.830
      -0.327
       0.121
       0.455
       0.638
       0.659
       0.563
       0.473
       0.524
       0.758
       1.060
       1.211
       1.055
       0.628
       0.139
      -0.204
      -0.339
      -0.339
      -0.293
      -0.222
      -0.125
      -0.057
      -0.110
      -0.323
      -0.619
      -0.851
      -0.903
      -0.754
      -0.484
      -0.230
      -0.119
      -0.199
      -0.411
      -0.609
      -0.640
      -0.420
       0.017
       0.537
       0.981
       1.254
       1.367
       1.413
       1.467
       1.501
       1.374
       0.961
       0.299
      -0.383
      -0.830
      -0.970
      -0.975
      -1.098
      -1.412
      -1.704
      -1.640
      -1.082
      -0.253
       0.412
       0.601
       0.332
      -0.097
      -0.358
      -0.295
       0.017
       0.383
       0.633
       0.702
       0.632
       0.496
       0.330
       0.128
      -0.094
      -0.248
      -0.220
       0.026
       0.374
       0.622
       0.636
       0.452
       0.234
       0.121
       0.103
       0.045
      -0.162
      -0.511
      -0.895
      -1.206
      -1.377
      -1.367
      -1.137
      -0.709
      -0.208
       0.191
       0.410
       0.525
       0.664
       0.838
       0.920
       0.814
       0.617
       0.548
       0.688
       0.837
       0.667
       0.021
      -0.939
      -1.860
      -2.441
      -2.572
      -2.318
      -1.826
      -1.243
      -0.647
      -0.031
       0.649
       1.383
       2.054
       2.498
       2.661
       2.676
       2.744
       2.926
       3.062
       2.902
       2.316
       1.386
       0.344
      -0.567
      -1.224
      -1.672
      -2.066
      -2.563
      -3.221
      -3.918
      -4.353
      -4.159
      -3.153
      -1.578
      -0.070
       0.730
       0.661
       0.203
       0.089
       0.682
       1.666
       2.345
       2.274
       1.658
       1.167
       1.341
       2.135
       2.976
       3.238
       2.659
       1.389
      -0.200
      -1.668
      -2.552
      -2.495
      -1.529
      -0.252
       0.428
      -0.080
      -1.558
      -3.102
      -3.810
      -3.430
      -2.423
      -1.441
      -0.750
      -0.130
       0.760
       1.929
       2.982
       3.436
       3.139
       2.365
       1.538
       0.883
       0.363
      -0.076
      -0.296
      -0.095
       0.418
       0.677
       0.033
      -1.606
      -3.483
      -4.430
      -3.741
      -1.746
       0.414
       1.608
       1.463
       0.456
      -0.596
      -1.188
      -1.371
      -1.475
      -1.624
      -1.545
      -0.851
       0.458
       1.831
       2.539
       2.267
       1.379
       0.642
       0.675
       1.592
       3.042
       4.521
       5.654
       6.254
       6.194
       5.292
       3.364
       0.453
      -2.954
      -5.999
      -7.855
      -8.206
      -7.382
      -6.036
      -4.698
      -3.596
      -2.816
      -2.442
      -2.442
      -2.460
      -1.896
      -0.350
       1.943
       4.153
       5.403
       5.387
       4.526
       3.567
       2.990
       2.754
       2.549
       2.227
       1.967
       1.992
       2.211
       2.176
       1.408
      -0.229
      -2.412
      -4.531
      -5.981
      -6.402
      -5.819
      -4.608
      -3.293
      -2.256
      -1.552
      -0.966
      -0.248
       0.653
       1.513
       1.970
       1.794
       1.109
       0.405
       0.261
       0.954
       2.210
       3.338
       3.662
       2.961
       1.551
       0.012
      -1.168
      -1.750
      -1.711
      -1.151
      -0.248
       0.800
       1.820
       2.666
       3.149
       3.063
       2.329
       1.117
      -0.232
      -1.420
      -2.322
      -2.900
      -3.078
      -2.753
      -1.959
      -0.959
      -0.118
       0.354
       0.528
       0.638
       0.872
       1.291
       1.884
       2.601
       3.292
       3.658
       3.352
       2.195
       0.351
      -1.695
      -3.378
      -4.348
      -4.645
      -4.609
      -4.593
      -4.694
      -4.687
      -4.205
      -3.035
      -1.307
       0.535
       1.990
       2.796
       3.058
       3.085
       3.081
       2.984
       2.609
       1.931
       1.200
       0.761
       0.764
       1.085
       1.515
       1.984
       2.560
       3.214
       3.653
       3.434
       2.315
       0.525
      -1.308
      -2.551
      -2.952
      -2.727
      -2.336
      -2.159
      -2.318
      -2.690
      -3.052
      -3.228
      -3.170
      -2.922
      -2.500
      -1.829
      -0.841
       0.344
       1.370
       1.840
       1.623
       0.980
       0.370
       0.126
       0.260
       0.553
       0.806
       1.024
       1.374
       1.978
       2.702
       3.132
       2.791
       1.494
      -0.443
      -2.323
      -3.480
      -3.663
      -3.089
      -2.188
      -1.317
      -0.664
      -0.313
      -0.281
      -0.475
      -0.661
      -0.556
      -0.001
       0.956
       2.122
       3.283
       4.219
       4.665
       4.346
       3.167
       1.359
      -0.581
      -2.138
      -2.998
      -3.111
      -2.642
      -1.915
      -1.350
      -1.308
      -1.891
      -2.810
      -3.484
      -3.348
      -2.206
      -0.401
       1.331
       2.260
       2.069
       1.031
      -0.141
      -0.655
      -0.053
       1.562
       3.591
       5.273
       6.075
       5.902
       5.037
       3.896
       2.787
       1.827
       1.020
       0.368
      -0.112
      -0.446
      -0.746
      -1.157
      -1.765
      -2.525
      -3.288
      -3.876
      -4.181
      -4.225
      -4.145
      -4.096
      -4.115
      -4.025
      -3.494
      -2.279
      -0.476
       1.430
       2.810
       3.240
       2.700
       1.531
       0.269
      -0.520
      -0.383
       0.851
       2.898
       5.029
       6.345
       6.240
       4.742
       2.451
       0.140
      -1.652
      -2.730
      -3.090
      -2.784
      -1.971
      -1.005
      -0.374
      -0.440
      -1.229
      -2.440
      -3.675
      -4.666
      -5.284
      -5.394
      -4.775
      -3.302
      -1.206
       0.915
       2.451
       3.199
       3.423
       3.499
       3.543
       3.419
       3.034
       2.536
       2.157
       1.912
       1.549
       0.828
      -0.172
      -1.067
      -1.486
      -1.373
      -0.981
      -0.602
      -0.341
      -0.121
       0.140
       0.389
       0.463
       0.241
      -0.214
      -0.660
      -0.838
      -0.678
      -0.364
      -0.156
      -0.152
      -0.177
       0.069
       0.744
       1.692
       2.499
       2.729
       2.203
       1.119
      -0.093
      -1.071
      -1.746
      -2.275
      -2.770
      -3.104
      -2.999
      -2.310
      -1.213
      -0.115
       0.613
       0.859
       0.784
       0.653
       0.667
       0.888
       1.246
       1.564
       1.593
       1.111
       0.109
      -1.104
      -2.016
      -2.203
      -1.572
      -0.354
       1.071
       2.355
       3.213
       3.413
       2.829
       1.584
       0.109
      -1.020
      -1.410
      -1.095
      -0.493
      -0.095
      -0.138
      -0.526
      -1.002
      -1.374
      -1.581
      -1.596
      -1.348
      -0.785
      -0.016
       0.624
       0.725
       0.073
      -1.152
      -2.411
      -3.097
      -2.840
      -1.641
       0.211
       2.285
       4.094
       5.161
       5.172
       4.170
       2.607
       1.129
       0.198
      -0.153
      -0.245
      -0.446
      -0.891
      -1.449
      -1.911
      -2.189
      -2.336
      -2.407
      -2.355
      -2.073
      -1.542
      -0.905
      -0.376
      -0.088
      -0.014
      -0.035
      -0.064
      -0.098
      -0.173
      -0.269
      -0.284
      -0.115
       0.233
       0.623
       0.899
       1.024
       1.094
       1.220
       1.385
       1.443
       1.240
       0.737
       0.007
      -0.825
      -1.604
      -2.129
      -2.203
      -1.785
      -1.102
      -0.527
      -0.306
      -0.379
      -0.496
      -0.481
      -0.359
      -0.232
      -0.089
       0.220
       0.822
       1.637
       2.376
       2.714
       2.520
       1.947
       1.338
       1.002
       1.033
       1.296
       1.549
       1.616
       1.466
       1.169
       0.781
       0.298
      -0.289
      -0.901
      -1.374
      -1.572
      -1.514
      -1.368
      -1.294
      -1.287
      -1.169
      -0.764
      -0.062
       0.755
       1.444
       1.837
       1.889
       1.623
       1.077
       0.299
      -0.618
      -1.534
      -2.309
      -2.852
