Origin Time       05/06/2013 22:04:00
Lat.              32.8 N 
Long.             76.3 E 
Depth (Km)         10.0
Magnitude         4.5
 Region           Chamba-Himavhal-Pradesh                                          
 Above details taken from IMD 
   
Station Code      CHM
Station Lat.       32.555
Station Long.      76.126
Station Height(m)  952.0
Site Class        A   Vs30 between 700 m/sec to 1400 m/sec * 
Record Time       05.06.2013 22:00:49.959
Sampling Rate     200. Hz
 Record Duration   75.225 Sec.
 Direction         Vert. (Up positive)
Max. Acceleration      4.586 cm/sec**2
     
  * For reference see Site Classification link of website 
     
 Base Line Corrected and Low Pass Filtered (Cut Off at 35 Hz) Time History
 Acceleration data in cm/sec**2
    
[...]
       0.003
       0.005
       0.012
       0.016
       0.014
       0.005
      -0.005
      -0.012
      -0.013
      -0.010
      -0.005
      -0.001
       0.002
       0.004
       0.007
       0.008
       0.007
       0.003
      -0.001
      -0.002
       0.000
       0.004
       0.008
       0.007
       0.004
       0.003
       0.003
       0.004
       0.003
       0.001
       0.000
      -0.003
      -0.008
      -0.013
      -0.015
      -0.014
      -0.010
      -0.004
       0.004
       0.009
       0.009
       0.002
      -0.006
      -0.013
      -0.014
      -0.009
      -0.002
       0.003
       0.007
       0.009
       0.010
       0.008
       0.005
       0.006
       0.012
       0.020
       0.024
       0.021
       0.014
       0.004
      -0.002
      -0.002
       0.005
       0.012
       0.014
       0.013
       0.013
       0.016
       0.018
       0.016
       0.008
      -0.001
      -0.007
      -0.006
       0.000
       0.005
       0.007
       0.007
       0.006
       0.006
       0.007
       0.008
       0.011
       0.014
       0.015
       0.013
       0.009
       0.001
      -0.008
      -0.016
      -0.022
      -0.023
      -0.021
      -0.015
      -0.005
       0.005
       0.011
       0.011
       0.005
      -0.002
      -0.006
      -0.003
       0.003
       0.009
       0.010
       0.006
       0.003
       0.002
       0.004
       0.007
       0.007
       0.002
      -0.004
      -0.004
       0.004
       0.013
       0.017
       0.014
       0.008
       0.003
       0.000
      -0.004
      -0.010
      -0.018
      -0.025
      -0.030
      -0.029
      -0.023
      -0.010
       0.006
       0.021
       0.028
       0.025
       0.014
       0.002
      -0.005
      -0.003
       0.006
       0.017
       0.023
       0.024
       0.023
       0.018
       0.007
      -0.009
      -0.021
      -0.023
      -0.017
      -0.009
      -0.004
       0.001
       0.007
       0.014
       0.016
       0.013
       0.007
       0.003
       0.006
       0.014
       0.019
       0.017
       0.009
       0.001
      -0.007
      -0.013
      -0.014
      -0.008
      -0.001
       0.002
      -0.001
      -0.008
      -0.013
      -0.014
      -0.010
      -0.003
       0.006
       0.011
       0.012
       0.011
       0.010
       0.011
       0.012
       0.010
       0.004
      -0.004
      -0.008
      -0.003
       0.006
       0.015
       0.020
       0.019
       0.013
       0.004
      -0.005
      -0.011
      -0.014
      -0.015
      -0.013
      -0.009
      -0.004
       0.000
       0.002
       0.003
       0.003
       0.003
       0.004
       0.006
       0.007
       0.006
       0.006
       0.006
       0.006
       0.001
      -0.006
      -0.010
      -0.007
       0.003
       0.015
       0.022
       0.021
       0.012
       0.000
      -0.008
      -0.008
      -0.002
       0.005
       0.010
       0.011
       0.009
       0.006
       0.002
      -0.003
      -0.009
      -0.010
      -0.004
       0.007
       0.019
       0.027
       0.029
       0.026
       0.017
       0.007
      -0.001
      -0.006
      -0.006
      -0.004
      -0.001
       0.000
      -0.004
      -0.009
      -0.011
      -0.009
      -0.004
       0.001
       0.005
       0.005
       0.002
      -0.001
      -0.002
      -0.002
      -0.002
      -0.001
       0.003
       0.008
       0.013
       0.015
       0.015
       0.014
       0.014
       0.015
       0.013
       0.006
      -0.005
      -0.012
      -0.009
       0.000
       0.006
       0.007
       0.003
       0.001
       0.003
       0.009
       0.017
       0.022
       0.023
       0.020
       0.015
       0.009
       0.001
      -0.007
      -0.012
      -0.015
      -0.011
      -0.002
       0.009
       0.013
       0.009
       0.001
      -0.005
      -0.008
      -0.009
      -0.010
      -0.008
      -0.004
       0.002
       0.007
       0.009
       0.011
       0.011
       0.008
       0.002
      -0.007
      -0.014
      -0.018
      -0.016
      -0.014
      -0.012
      -0.008
       0.000
       0.009
       0.014
       0.012
       0.004
      -0.004
      -0.009
      -0.008
      -0.003
       0.003
       0.005
       0.002
      -0.002
      -0.005
      -0.003
       0.002
       0.007
       0.007
      -0.003
      -0.018
      -0.025
      -0.021
      -0.007
       0.006
       0.011
       0.008
       0.002
      -0.002
      -0.006
      -0.012
      -0.021
      -0.025
      -0.020
      -0.010
       0.000
       0.006
       0.007
       0.005
      -0.001
      -0.007
      -0.011
      -0.012
      -0.008
      -0.003
       0.001
       0.002
       0.000
      -0.005
      -0.009
      -0.013
      -0.012
      -0.003
       0.009
       0.016
       0.012
       0.001
      -0.006
      -0.006
      -0.003
      -0.001
      -0.002
      -0.005
      -0.007
      -0.006
      -0.002
       0.003
       0.004
       0.001
      -0.004
      -0.009
      -0.011
      -0.010
      -0.007
      -0.004
      -0.002
      -0.001
       0.000
       0.001
       0.002
       0.002
       0.000
      -0.005
      -0.009
      -0.010
      -0.008
      -0.007
      -0.013
      -0.023
      -0.031
      -0.033
      -0.028
      -0.018
      -0.009
      -0.003
       0.000
       0.005
       0.012
       0.019
       0.019
       0.010
      -0.001
      -0.007
      -0.005
       0.001
       0.003
      -0.003
      -0.013
      -0.020
      -0.018
      -0.009
      -0.001
       0.003
       0.003
       0.000
      -0.004
      -0.006
      -0.006
      -0.005
      -0.003
       0.001
       0.005
       0.007
       0.001
      -0.008
      -0.015
      -0.013
      -0.003
       0.008
       0.016
       0.017
       0.012
       0.003
      -0.004
      -0.005
      -0.001
       0.007
       0.013
       0.014
       0.005
      -0.009
      -0.021
      -0.025
      -0.023
      -0.016
      -0.007
       0.000
       0.002
       0.001
      -0.002
      -0.005
      -0.008
      -0.010
      -0.010
      -0.010
      -0.008
      -0.006
      -0.002
       0.000
      -0.002
      -0.004
      -0.005
      -0.002
       0.002
       0.005
       0.008
       0.008
       0.008
       0.009
       0.011
       0.011
       0.007
       0.002
       0.000
       0.001
       0.003
       0.004
       0.005
       0.006
       0.003
      -0.005
      -0.014
      -0.022
      -0.024
      -0.016
      -0.001
       0.016
       0.027
       0.032
       0.029
       0.020
       0.009
       0.002
       0.002
       0.005
       0.007
       0.006
       0.004
       0.000
      -0.004
      -0.007
      -0.007
      -0.002
       0.004
       0.007
       0.007
       0.003
      -0.005
      -0.011
      -0.014
      -0.011
      -0.004
       0.004
       0.012
       0.018
       0.019
       0.017
       0.009
      -0.005
      -0.020
      -0.028
      -0.023
      -0.006
       0.010
       0.017
       0.014
       0.008
       0.006
       0.008
       0.012
       0.009
      -0.003
      -0.018
      -0.027
      -0.028
      -0.021
      -0.013
      -0.008
      -0.006
      -0.006
      -0.005
      -0.002
       0.003
       0.006
       0.006
       0.006
       0.009
       0.012
       0.015
       0.013
       0.008
       0.000
      -0.006
      -0.009
      -0.008
      -0.009
      -0.011
      -0.012
      -0.010
      -0.007
      -0.002
       0.002
       0.005
       0.004
       0.002
      -0.003
      -0.009
      -0.015
      -0.017
      -0.013
      -0.002
       0.011
       0.020
       0.024
       0.019
       0.006
      -0.008
      -0.018
      -0.020
      -0.016
      -0.007
       0.003
       0.007
       0.006
       0.000
      -0.006
      -0.007
      -0.003
       0.003
       0.008
       0.009
       0.004
      -0.003
      -0.008
      -0.010
      -0.009
      -0.006
      -0.002
       0.002
       0.006
       0.012
       0.018
       0.022
       0.018
       0.007
      -0.004
      -0.011
      -0.012
      -0.012
      -0.013
      -0.019
      -0.025
      -0.028
      -0.025
      -0.016
      -0.009
      -0.008
      -0.011
      -0.016
      -0.017
      -0.012
      -0.001
       0.012
       0.019
       0.018
       0.012
       0.005
       0.000
      -0.003
      -0.004
      -0.003
       0.002
       0.013
       0.025
       0.030
       0.023
       0.006
      -0.012
      -0.023
      -0.024
      -0.018
      -0.007
       0.003
       0.009
       0.007
      -0.002
      -0.011
      -0.018
      -0.019
      -0.016
      -0.010
      -0.006
      -0.003
      -0.001
      -0.001
      -0.001
       0.001
       0.005
       0.008
       0.004
      -0.005
      -0.012
      -0.012
      -0.006
       0.001
       0.006
       0.008
       0.004
      -0.003
      -0.010
      -0.015
      -0.017
      -0.017
      -0.014
      -0.007
       0.000
       0.005
       0.007
       0.005
      -0.001
      -0.006
      -0.009
      -0.008
      -0.005
       0.001
       0.006
       0.009
       0.007
       0.001
      -0.004
      -0.003
       0.002
       0.006
       0.006
       0.003
      -0.002
      -0.007
      -0.009
      -0.009
      -0.008
      -0.006
      -0.002
       0.003
       0.004
       0.001
      -0.003
      -0.005
      -0.003
       0.001
       0.004
       0.001
      -0.006
      -0.013
      -0.014
      -0.008
       0.000
       0.005
       0.004
       0.000
      -0.004
      -0.005
      -0.004
      -0.005
      -0.009
      -0.016
      -0.018
      -0.011
      -0.001
       0.007
       0.007
       0.001
      -0.005
      -0.007
      -0.002
       0.005
       0.007
       0.000
      -0.012
      -0.022
      -0.025
      -0.019
      -0.008
      -0.002
      -0.002
      -0.004
      -0.001
       0.005
       0.007
       0.001
      -0.007
      -0.010
      -0.005
       0.005
       0.011
       0.010
       0.003
      -0.002
      -0.002
       0.003
       0.006
       0.004
      -0.002
      -0.005
      -0.005
       0.000
       0.007
       0.012
       0.014
       0.013
       0.010
       0.005
      -0.002
      -0.008
      -0.010
      -0.007
      -0.003
      -0.001
      -0.001
      -0.001
      -0.001
      -0.001
      -0.001
      -0.001
       0.000
       0.005
       0.012
       0.017
       0.014
       0.003
      -0.011
      -0.021
      -0.022
      -0.013
       0.001
       0.013
       0.017
       0.013
       0.008
       0.005
       0.003
      -0.002
      -0.005
      -0.004
       0.000
       0.003
       0.001
      -0.005
      -0.012
      -0.015
      -0.014
      -0.010
      -0.007
      -0.005
      -0.005
      -0.006
      -0.006
      -0.007
      -0.007
      -0.004
      -0.001
       0.002
       0.005
       0.009
       0.012
       0.014
       0.012
       0.006
      -0.002
      -0.011
      -0.016
      -0.014
      -0.007
       0.002
       0.010
       0.013
       0.012
       0.011
       0.008
       0.003
      -0.007
      -0.016
      -0.018
      -0.011
       0.002
       0.011
       0.013
       0.008
      -0.001
      -0.008
      -0.009
      -0.006
      -0.004
      -0.005
      -0.006
      -0.006
      -0.006
      -0.008
      -0.009
      -0.008
      -0.004
       0.002
       0.006
       0.006
       0.003
      -0.001
      -0.005
      -0.009
      -0.012
      -0.013
      -0.012
      -0.009
      -0.005
      -0.003
      -0.002
      -0.004
      -0.008
      -0.011
      -0.010
      -0.008
      -0.008
      -0.012
      -0.016
      -0.015
      -0.007
       0.000
       0.001
      -0.005
      -0.013
      -0.014
      -0.007
       0.003
       0.011
       0.010
       0.005
      -0.001
      -0.002
       0.001
       0.004
       0.002
      -0.007
      -0.016
      -0.018
      -0.013
      -0.006
      -0.003
      -0.002
      -0.001
       0.000
       0.001
       0.001
      -0.001
      -0.006
      -0.013
      -0.020
      -0.022
      -0.019
      -0.011
      -0.003
       0.001
       0.004
       0.012
       0.028
       0.049
       0.067
       0.081
       0.094
       0.113
       0.137
       0.159
       0.168
       0.154
       0.118
       0.072
       0.029
      -0.011
      -0.055
      -0.114
      -0.194
      -0.286
      -0.380
      -0.461
      -0.515
      -0.529
      -0.493
      -0.396
      -0.231
      -0.001
       0.265
       0.517
       0.694
       0.752
       0.684
       0.530
       0.349
       0.188
       0.074
       0.017
       0.000
      -0.031
      -0.127
      -0.281
      -0.402
      -0.368
      -0.121
       0.299
       0.769
       1.154
       1.348
       1.286
       0.942
       0.356
      -0.344
      -0.982
      -1.452
      -1.778
      -2.036
      -2.237
      -2.301
      -2.093
      -1.472
      -0.364
       1.100
       2.523
       3.406
       3.442
       2.657
       1.306
      -0.269
      -1.680
      -2.510
      -2.485
      -1.683
      -0.571
       0.257
       0.461
       0.142
      -0.308
      -0.528
      -0.378
       0.116
       0.848
       1.605
       2.054
       1.944
       1.337
       0.545
      -0.195
      -0.914
      -1.751
      -2.677
      -3.428
      -3.646
      -3.051
      -1.567
       0.562
       2.752
       4.272
       4.586
       3.607
       1.704
      -0.471
      -2.221
      -3.036
      -2.772
      -1.699
      -0.345
       0.773
       1.369
       1.424
       1.070
       0.478
      -0.161
      -0.591
      -0.546
       0.074
       1.047
       1.904
       2.196
       1.769
       0.812
      -0.290
      -1.157
      -1.545
      -1.404
      -0.902
      -0.349
      -0.020
       0.009
      -0.159
      -0.437
      -0.860
      -1.435
      -1.930
      -1.941
      -1.249
      -0.068
       1.090
       1.811
       2.012
       1.855
       1.502
       1.002
       0.377
      -0.231
      -0.587
      -0.551
      -0.247
       0.025
       0.073
      -0.008
       0.056
       0.448
       1.102
       1.740
       2.036
       1.780
       0.992
      -0.076
      -1.081
      -1.805
      -2.240
      -2.478
      -2.528
      -2.288
      -1.670
      -0.731
       0.307
       1.116
       1.368
       0.921
      -0.001
      -0.850
      -1.070
      -0.474
       0.648
       1.771
       2.454
       2.533
       2.115
       1.436
       0.668
      -0.170
      -1.091
      -1.931
      -2.352
      -2.116
      -1.323
      -0.326
       0.566
       1.242
       1.672
       1.745
       1.314
       0.389
      -0.754
      -1.677
      -2.024
      -1.742
      -1.110
      -0.529
      -0.191
       0.029
       0.330
       0.634
       0.571
      -0.102
      -1.101
      -1.703
      -1.301
       0.087
       1.798
       2.957
       3.013
       2.015
       0.499
      -0.856
      -1.555
      -1.425
      -0.601
       0.553
       1.580
       2.111
       2.009
       1.374
       0.429
      -0.581
      -1.418
      -1.855
      -1.745
      -1.120
      -0.243
       0.489
       0.766
       0.541
       0.008
      -0.587
      -1.093
      -1.410
      -1.401
      -0.969
      -0.253
       0.341
       0.408
      -0.118
      -0.891
      -1.418
      -1.392
      -0.839
      -0.004
       0.827
       1.449
       1.755
       1.729
       1.450
       1.059
       0.661
       0.272
      -0.097
      -0.303
      -0.146
       0.366
       0.894
       1.039
       0.719
       0.224
      -0.126
      -0.266
      -0.332
      -0.415
      -0.456
      -0.366
      -0.163
      -0.009
      -0.101
      -0.521
      -1.152
      -1.741
      -2.068
      -2.031
      -1.603
      -0.810
       0.206
       1.166
       1.784
       1.954
       1.752
       1.297
       0.676
       0.013
      -0.482
      -0.639
      -0.482
      -0.216
      -0.031
       0.050
       0.160
       0.436
       0.864
       1.261
       1.393
       1.162
       0.677
       0.146
      -0.299
      -0.667
      -1.034
      -1.411
      -1.695
      -1.724
      -1.385
      -0.710
       0.108
       0.810
       1.210
       1.274
       1.075
       0.688
       0.131
      -0.563
      -1.258
      -1.718
      -1.741
      -1.285
      -0.482
       0.431
       1.170
       1.463
       1.193
       0.533
      -0.089
      -0.285
       0.013
       0.562
       1.053
       1.302
       1.238
       0.840
       0.175
      -0.537
      -1.018
      -1.116
      -0.882
      -0.471
      -0.015
       0.390
       0.667
       0.787
       0.818
       0.859
       0.899
       0.758
       0.228
      -0.705
      -1.750
      -2.452
      -2.465
      -1.779
      -0.705
       0.336
       1.048
       1.346
       1.294
       0.994
       0.523
      -0.051
      -0.604
      -0.924
      -0.815
      -0.283
       0.412
       0.926
       1.085
       0.921
       0.516
      -0.106
      -0.882
      -1.607
      -1.994
      -1.864
      -1.245
      -0.342
       0.556
       1.170
       1.344
       1.120
       0.705
       0.329
       0.130
       0.154
       0.407
       0.859
       1.395
       1.797
       1.818
       1.309
       0.326
      -0.846
      -1.814
      -2.280
      -2.185
      -1.672
      -0.912
      -0.013
       0.891
       1.521
       1.532
       0.779
      -0.470
      -1.636
      -2.201
      -2.042
      -1.446
      -0.796
      -0.244
       0.322
       1.001
       1.617
       1.805
       1.360
       0.489
      -0.300
      -0.580
      -0.274
       0.378
       1.030
       1.406
       1.374
       0.962
       0.343
      -0.255
      -0.688
      -0.949
      -1.078
      -1.060
      -0.856
      -0.520
      -0.215
      -0.102
      -0.222
      -0.504
      -0.822
      -1.025
      -0.930
      -0.409
       0.497
       1.539
       2.371
       2.714
       2.475
       1.746
       0.755
      -0.220
      -0.942
      -1.312
      -1.405
      -1.398
      -1.402
      -1.361
      -1.141
      -0.735
      -0.363
      -0.310
      -0.648
      -1.134
      -1.369
      -1.061
      -0.175
       1.068
       2.294
       3.128
       3.316
       2.798
       1.694
       0.285
      -1.000
      -1.688
      -1.518
      -0.673
       0.272
       0.745
       0.565
      -0.023
      -0.651
      -1.130
      -1.465
      -1.658
      -1.580
      -1.067
      -0.155
       0.821
       1.393
       1.297
       0.670
      -0.076
      -0.597
      -0.858
      -1.051
      -1.306
      -1.497
      -1.332
      -0.636
       0.436
       1.469
       2.069
       2.124
       1.831
       1.501
       1.359
       1.443
       1.626
       1.672
       1.340
       0.545
      -0.550
      -1.590
      -2.238
      -2.375
      -2.139
      -1.790
      -1.494
      -1.198
      -0.703
       0.107
       1.079
       1.844
       2.076
       1.719
       1.008
       0.275
      -0.274
      -0.625
      -0.853
      -0.990
      -1.000
      -0.860
      -0.613
      -0.354
      -0.165
      -0.093
      -0.149
      -0.293
