Origin Time       17/6/2014 17:31:08 
Lat.              32.2 N 
Long.             76.1 E 
Depth (Km)         10.0
Magnitude         4.1
 Region           Kangra-(H.P.)                                                    
 Above details taken from IMD 
     
Station Code      CHM
Station Lat.       32.555  N
Station Long.      76.126  E
Station Height(m)  952.0
Site Class        A   Vs30 between 700 m/sec to 1400 m/sec * 
Record Time       17.06.2014 17:27:23.104
Sampling Rate     200. Hz
 Record Duration   70.040 Sec.
 Direction         E-W (E positive)
Max. Acceleration      4.329 cm/sec**2
     
  * For reference see Site Classification link of website 
     
 Base Line Corrected and Low Pass Filtered (Cut Off at 35 Hz) Time History
 Acceleration data in cm/sec**2
    
[...]
      -0.019
      -0.014
      -0.002
       0.007
       0.009
       0.007
       0.002
      -0.002
      -0.005
      -0.006
      -0.008
      -0.010
      -0.011
      -0.010
      -0.004
       0.000
       0.000
      -0.002
      -0.002
       0.003
       0.009
       0.013
       0.019
       0.025
       0.028
       0.019
       0.003
      -0.007
      -0.001
       0.015
       0.018
      -0.004
      -0.037
      -0.055
      -0.042
      -0.008
       0.026
       0.041
       0.041
       0.035
       0.032
       0.034
       0.036
       0.035
       0.027
       0.017
       0.009
       0.009
       0.016
       0.023
       0.018
      -0.006
      -0.048
      -0.092
      -0.108
      -0.076
      -0.008
       0.057
       0.080
       0.058
       0.025
       0.016
       0.034
       0.047
       0.024
      -0.029
      -0.077
      -0.092
      -0.073
      -0.039
      -0.006
       0.018
       0.028
       0.026
       0.020
       0.018
       0.024
       0.030
       0.023
      -0.006
      -0.050
      -0.077
      -0.045
       0.058
       0.186
       0.247
       0.171
      -0.018
      -0.204
      -0.269
      -0.189
      -0.040
       0.090
       0.165
       0.205
       0.223
       0.205
       0.135
       0.030
      -0.071
      -0.142
      -0.186
      -0.200
      -0.161
      -0.048
       0.104
       0.201
       0.163
       0.010
      -0.135
      -0.153
      -0.034
       0.103
       0.116
      -0.039
      -0.262
      -0.374
      -0.251
       0.069
       0.403
       0.546
       0.431
       0.170
      -0.040
      -0.085
      -0.006
       0.063
       0.029
      -0.081
      -0.146
      -0.069
       0.120
       0.256
       0.165
      -0.153
      -0.473
      -0.518
      -0.224
       0.177
       0.363
       0.228
      -0.028
      -0.124
       0.005
       0.156
       0.111
      -0.105
      -0.252
      -0.158
       0.074
       0.188
       0.075
      -0.088
      -0.055
       0.205
       0.460
       0.473
       0.236
      -0.060
      -0.241
      -0.300
      -0.317
      -0.321
      -0.253
      -0.068
       0.174
       0.347
       0.366
       0.259
       0.118
       0.003
      -0.098
      -0.222
      -0.351
      -0.396
      -0.283
      -0.031
       0.240
       0.405
       0.431
       0.379
       0.330
       0.303
       0.250
       0.111
      -0.121
      -0.379
      -0.547
      -0.518
      -0.274
       0.064
       0.285
       0.243
      -0.015
      -0.274
      -0.347
      -0.250
      -0.165
      -0.229
      -0.371
      -0.371
      -0.100
       0.315
       0.582
       0.525
       0.255
       0.057
       0.079
       0.190
       0.156
      -0.058
      -0.227
      -0.100
       0.319
       0.747
       0.865
       0.593
       0.151
      -0.144
      -0.155
      -0.021
      -0.010
      -0.236
      -0.544
      -0.649
      -0.409
       0.023
       0.323
       0.266
      -0.108
      -0.558
      -0.837
      -0.854
      -0.677
      -0.421
      -0.157
       0.102
       0.354
       0.575
       0.740
       0.832
       0.844
       0.755
       0.541
       0.215
      -0.146
      -0.414
      -0.488
      -0.371
      -0.177
      -0.053
      -0.048
      -0.066
       0.037
       0.278
       0.471
       0.355
      -0.138
      -0.759
      -1.089
      -0.879
      -0.272
       0.297
       0.453
       0.182
      -0.193
      -0.313
      -0.090
       0.259
       0.452
       0.397
       0.244
       0.212
       0.362
       0.540
       0.514
       0.192
      -0.276
      -0.590
      -0.534
      -0.157
       0.250
       0.385
       0.164
      -0.244
      -0.588
      -0.747
      -0.764
      -0.726
      -0.627
      -0.374
       0.078
       0.609
       0.974
       0.989
       0.700
       0.353
       0.184
       0.225
       0.316
       0.295
       0.146
      -0.012
      -0.055
       0.039
       0.194
       0.316
       0.366
       0.368
       0.327
       0.182
      -0.150
      -0.651
      -1.154
      -1.425
      -1.321
      -0.892
      -0.345
       0.079
       0.248
       0.205
       0.083
      -0.024
      -0.121
      -0.227
      -0.283
      -0.164
       0.190
       0.674
       1.069
       1.187
       0.968
       0.484
      -0.107
      -0.605
      -0.834
      -0.720
      -0.346
       0.095
       0.421
       0.572
       0.594
       0.542
       0.404
       0.129
      -0.263
      -0.635
      -0.828
      -0.790
      -0.595
      -0.357
      -0.136
       0.051
       0.190
       0.276
       0.347
       0.443
       0.525
       0.483
       0.271
       0.021
      -0.031
       0.238
       0.697
       1.042
       1.008
       0.536
      -0.198
      -0.896
      -1.320
      -1.417
      -1.302
      -1.112
      -0.869
      -0.504
      -0.005
       0.489
       0.775
       0.764
       0.560
       0.348
       0.235
       0.201
       0.193
       0.210
       0.261
       0.283
       0.148
      -0.179
      -0.532
      -0.634
      -0.334
       0.242
       0.778
       1.016
       0.922
       0.649
       0.359
       0.086
      -0.243
      -0.684
      -1.160
      -1.466
      -1.420
      -1.021
      -0.470
      -0.030
       0.169
       0.198
       0.239
       0.426
       0.733
       0.976
       0.933
       0.521
      -0.107
      -0.634
      -0.786
      -0.506
       0.036
       0.576
       0.905
       0.945
       0.738
       0.376
      -0.043
      -0.427
      -0.679
      -0.717
      -0.526
      -0.194
       0.128
       0.313
       0.329
       0.222
       0.060
      -0.110
      -0.265
      -0.379
      -0.418
      -0.381
      -0.337
      -0.373
      -0.480
      -0.491
      -0.198
       0.410
       1.037
       1.268
       0.930
       0.252
      -0.340
      -0.615
      -0.683
      -0.780
      -0.948
      -0.960
      -0.555
       0.280
       1.228
       1.840
       1.854
       1.356
       0.680
       0.124
      -0.231
      -0.478
      -0.711
      -0.928
      -1.062
      -1.052
      -0.864
      -0.493
      -0.006
       0.427
       0.597
       0.420
       0.034
      -0.303
      -0.413
      -0.315
      -0.149
      -0.021
       0.078
       0.216
       0.406
       0.560
       0.551
       0.330
      -0.016
      -0.323
      -0.457
      -0.383
      -0.146
       0.173
       0.479
       0.687
       0.766
       0.764
       0.736
       0.636
       0.316
      -0.305
      -1.093
      -1.731
      -1.916
      -1.555
      -0.789
       0.094
       0.796
       1.118
       1.038
       0.733
       0.473
       0.421
       0.513
       0.519
       0.270
      -0.157
      -0.471
      -0.417
      -0.029
       0.356
       0.396
       0.055
      -0.375
      -0.574
      -0.473
      -0.252
      -0.109
      -0.084
      -0.085
      -0.014
       0.146
       0.319
       0.353
       0.101
      -0.465
      -1.149
      -1.584
      -1.448
      -0.691
       0.382
       1.281
       1.641
       1.444
       0.986
       0.604
       0.406
       0.254
      -0.023
      -0.408
      -0.710
      -0.751
      -0.528
      -0.188
       0.088
       0.191
       0.115
      -0.049
      -0.172
      -0.183
      -0.145
      -0.189
      -0.339
      -0.424
      -0.215
       0.302
       0.832
       0.983
       0.619
      -0.017
      -0.524
      -0.673
      -0.541
      -0.345
      -0.189
       0.010
       0.366
       0.826
       1.152
       1.104
       0.631
      -0.102
      -0.832
      -1.331
      -1.461
      -1.203
      -0.675
      -0.107
       0.284
       0.433
       0.434
       0.417
       0.408
       0.343
       0.193
       0.035
      -0.008
       0.104
       0.304
       0.494
       0.621
       0.663
       0.589
       0.368
       0.010
      -0.418
      -0.841
      -1.197
      -1.428
      -1.442
      -1.148
      -0.547
       0.189
       0.782
       1.014
       0.867
       0.502
       0.123
      -0.156
      -0.316
      -0.383
      -0.369
      -0.280
      -0.132
       0.059
       0.282
       0.513
       0.690
       0.731
       0.600
       0.363
       0.165
       0.121
       0.230
       0.379
       0.434
       0.334
       0.103
      -0.198
      -0.528
      -0.856
      -1.117
      -1.222
      -1.113
      -0.800
      -0.351
       0.146
       0.596
       0.899
       0.994
       0.909
       0.732
       0.517
       0.234
      -0.160
      -0.593
      -0.870
      -0.840
      -0.550
      -0.219
      -0.030
       0.035
       0.137
       0.360
       0.583
       0.576
       0.233
      -0.298
      -0.715
      -0.782
      -0.505
      -0.111
       0.131
       0.117
      -0.043
      -0.146
      -0.079
       0.116
       0.314
       0.415
       0.387
       0.256
       0.103
       0.049
       0.179
       0.447
       0.687
       0.737
       0.583
       0.359
       0.199
       0.089
      -0.103
      -0.467
      -0.914
      -1.219
      -1.190
      -0.819
      -0.299
       0.095
       0.184
      -0.009
      -0.284
      -0.413
      -0.306
      -0.043
       0.219
       0.373
       0.400
       0.345
       0.260
       0.189
       0.159
       0.184
       0.266
       0.387
       0.504
       0.555
       0.480
       0.262
      -0.041
      -0.309
      -0.433
      -0.392
      -0.268
      -0.190
      -0.243
      -0.427
      -0.651
      -0.777
      -0.685
      -0.367
       0.025
       0.267
       0.250
       0.085
       0.003
       0.102
       0.231
       0.151
      -0.163
      -0.429
      -0.307
       0.245
       0.875
       1.125
       0.820
       0.208
      -0.264
      -0.304
       0.024
       0.404
       0.523
       0.277
      -0.191
      -0.614
      -0.783
      -0.665
      -0.405
      -0.198
      -0.136
      -0.152
      -0.102
       0.081
       0.302
       0.387
       0.253
       0.002
      -0.145
      -0.049
       0.229
       0.469
       0.485
       0.278
       0.040
       0.006
       0.249
       0.595
       0.731
       0.452
      -0.167
      -0.816
      -1.180
      -1.155
      -0.876
      -0.552
      -0.284
      -0.020
       0.317
       0.691
       0.944
       0.927
       0.618
       0.157
      -0.240
      -0.399
      -0.296
      -0.080
       0.028
      -0.092
      -0.341
      -0.463
      -0.268
       0.176
       0.579
       0.664
       0.407
       0.035
      -0.190
      -0.210
      -0.180
      -0.276
      -0.496
      -0.664
      -0.621
      -0.396
      -0.187
      -0.171
      -0.336
      -0.481
      -0.396
      -0.037
       0.434
       0.776
       0.840
       0.656
       0.383
       0.181
       0.109
       0.107
       0.080
       0.010
      -0.026
       0.047
       0.185
       0.239
       0.113
      -0.118
      -0.259
      -0.202
      -0.043
       0.011
      -0.136
      -0.345
      -0.368
      -0.095
       0.304
       0.515
       0.363
      -0.024
      -0.349
      -0.427
      -0.339
      -0.323
      -0.506
      -0.763
      -0.815
      -0.478
       0.148
       0.726
       0.925
       0.673
       0.215
      -0.078
       0.008
       0.371
       0.677
       0.621
       0.177
      -0.367
      -0.619
      -0.394
       0.128
       0.553
       0.614
       0.387
       0.197
       0.282
       0.567
       0.754
       0.611
       0.174
      -0.332
      -0.718
      -0.962
      -1.134
      -1.238
      -1.167
      -0.817
      -0.222
       0.433
       0.935
       1.143
       1.001
       0.511
      -0.229
      -0.966
      -1.353
      -1.170
      -0.522
       0.216
       0.683
       0.793
       0.712
       0.606
       0.451
       0.135
      -0.304
      -0.588
      -0.437
       0.131
       0.753
       1.008
       0.771
       0.289
      -0.069
      -0.125
      -0.013
      -0.017
      -0.317
      -0.857
      -1.397
      -1.664
      -1.501
      -0.946
      -0.197
       0.497
       0.975
       1.200
       1.194
       0.965
       0.514
      -0.074
      -0.583
      -0.766
      -0.528
      -0.027
       0.423
       0.585
       0.441
       0.159
      -0.081
      -0.208
      -0.257
      -0.281
      -0.304
      -0.337
      -0.396
      -0.466
      -0.442
      -0.164
       0.429
       1.152
       1.621
       1.508
       0.799
      -0.175
      -0.961
      -1.275
      -1.134
      -0.747
      -0.316
       0.075
       0.411
       0.646
       0.700
       0.544
       0.287
       0.146
       0.292
       0.686
       1.069
       1.142
       0.792
       0.163
      -0.464
      -0.868
      -0.970
      -0.798
      -0.447
      -0.097
       0.025
      -0.204
      -0.644
      -0.952
      -0.860
      -0.438
      -0.038
       0.047
      -0.144
      -0.304
      -0.194
       0.120
       0.345
       0.259
      -0.089
      -0.422
      -0.453
      -0.075
       0.605
       1.350
       1.916
       2.107
       1.805
       1.021
      -0.033
      -0.994
      -1.520
      -1.506
      -1.120
      -0.654
      -0.294
      -0.028
       0.260
       0.616
       0.924
       0.956
       0.537
      -0.319
      -1.390
      -2.363
      -2.986
      -3.168
      -2.974
      -2.536
      -1.942
      -1.184
      -0.191
       1.061
       2.443
       3.649
       4.329
       4.297
       3.660
       2.746
       1.889
       1.234
       0.718
       0.203
      -0.379
      -0.971
      -1.446
      -1.693
      -1.660
      -1.393
      -1.037
      -0.800
      -0.824
      -1.076
      -1.362
      -1.480
      -1.378
      -1.157
      -0.936
      -0.714
      -0.386
       0.114
       0.669
       1.042
       1.090
       0.927
       0.831
       0.974
       1.257
       1.431
       1.378
       1.249
       1.298
       1.597
       1.917
       1.890
       1.297
       0.230
      -0.999
      -2.047
      -2.665
      -2.724
      -2.214
      -1.291
      -0.271
       0.467
       0.662
       0.302
      -0.406
      -1.179
      -1.795
      -2.124
      -2.096
      -1.690
      -0.989
      -0.207
       0.409
       0.776
       1.043
       1.438
       2.001
       2.482
       2.528
       1.997
       1.114
       0.300
      -0.161
      -0.321
      -0.453
      -0.756
      -1.163
      -1.416
      -1.309
      -0.886
      -0.421
      -0.192
      -0.243
      -0.342
      -0.168
       0.389
       1.107
       1.586
       1.543
       0.998
       0.211
      -0.507
      -0.924
      -0.911
      -0.448
       0.321
       1.063
       1.392
       1.133
       0.487
      -0.101
      -0.289
      -0.090
       0.209
       0.365
       0.367
       0.329
       0.232
      -0.125
      -0.890
      -1.888
      -2.658
      -2.781
      -2.201
      -1.241
      -0.343
       0.218
       0.434
       0.463
       0.473
       0.558
       0.740
       0.993
       1.268
       1.501
       1.632
       1.615
       1.413
       1.018
       0.475
      -0.088
      -0.511
      -0.691
      -0.635
      -0.409
      -0.058
       0.394
       0.863
       1.172
       1.145
       0.761
       0.178
      -0.378
      -0.773
      -0.996
      -1.100
      -1.133
      -1.154
      -1.256
      -1.522
      -1.926
      -2.271
      -2.244
      -1.588
      -0.299
       1.261
       2.489
       2.849
       2.210
       0.951
      -0.265
      -0.886
      -0.775
      -0.210
       0.350
       0.545
       0.279
      -0.276
      -0.814
      -1.042
      -0.802
      -0.092
       0.927
       1.930
       2.488
       2.245
       1.152
      -0.430
      -1.895
      -2.708
      -2.678
      -1.977
      -0.965
       0.024
       0.790
       1.257
       1.413
       1.285
       0.958
       0.601
       0.430
       0.588
       1.003
       1.377
       1.356
       0.784
      -0.166
      -1.114
      -1.745
      -1.976
      -1.907
      -1.645
      -1.225
      -0.667
      -0.067
       0.421
       0.694
       0.771
       0.750
       0.714
       0.678
       0.619
       0.531
       0.415
       0.250
      -0.022
      -0.424
      -0.856
      -1.083
      -0.870
      -0.156
       0.849
       1.753
       2.186
       2.009
       1.370
       0.594
      -0.016
      -0.356
      -0.565
      -0.905
      -1.533
      -2.325
      -2.911
      -2.938
      -2.352
      -1.447
      -0.636
      -0.121
       0.214
       0.618
       1.173
       1.689
       1.882
       1.640
       1.106
       0.523
       0.023
      -0.414
      -0.835
      -1.175
      -1.273
      -1.012
      -0.460
       0.143
       0.539
       0.627
       0.535
       0.517
       0.763
       1.245
       1.721
       1.899
       1.634
       1.023
       0.329
      -0.191
      -0.430
      -0.460
      -0.450
      -0.516
      -0.644
      -0.714
      -0.616
      -0.351
      -0.042
       0.146
       0.092
      -0.249
      -0.851
      -1.617
      -2.353
      -2.797
      -2.724
      -2.093
      -1.092
      -0.039
       0.794
       1.297
       1.493
       1.463
       1.310
       1.161
       1.152
       1.355
       1.713
       2.040
       2.111
       1.791
       1.141
       0.415
      -0.085
      -0.218
      -0.131
      -0.164
      -0.592
      -1.401
      -2.270
      -2.787
      -2.699
      -2.049
      -1.124
      -0.290
       0.180
       0.191
      -0.174
      -0.695
      -1.078
      -1.050
      -0.481
       0.504
       1.527
       2.141
       2.095
       1.500
       0.747
       0.249
       0.196
       0.516
       1.003
       1.476
       1.829
       1.991
       1.879
       1.432
       0.699
      -0.133
      -0.839
      -1.310
      -1.627
      -1.955
      -2.368
      -2.757
      -2.919
      -2.744
      -2.311
      -1.784
      -1.237
      -0.595
       0.241
       1.221
       2.119
       2.662
       2.700
       2.271
       1.558
       0.785
       0.130
      -0.303
      -0.483
      -0.431
      -0.219
       0.041
       0.232
       0.283
       0.207
       0.090
       0.007
      -0.027
      -0.043
      -0.055
      -0.053
      -0.061
      -0.175
      -0.496
      -0.996
      -1.484
      -1.717
      -1.570
      -1.089
      -0.425
       0.266
       0.857
       1.242
       1.354
       1.203
       0.884
       0.541
       0.310
       0.261
       0.376
       0.559
       0.693
       0.705
       0.584
       0.339
      -0.042
      -0.567
      -1.148
      -1.580
      -1.640
      -1.259
      -0.608
       0.006
       0.334
       0.334
       0.156
       0.006
       0.017
       0.190
       0.426
       0.605
       0.669
       0.664
       0.689
       0.803
       0.957
       1.019
       0.874
       0.507
       0.017
      -0.445
      -0.760
      -0.909
      -0.969
      -1.039
      -1.138
      -1.181
      -1.057
      -0.762
      -0.422
      -0.193
      -0.123
      -0.132
      -0.122
      -0.084
      -0.074
      -0.123
      -0.189
      -0.214
      -0.170
      -0.040
       0.225
       0.661
       1.177
       1.533
