Origin Time       05/06/2013 22:04:00
Lat.              32.8 N 
Long.             76.3 E 
Depth (Km)         10.0
Magnitude         4.5
 Region           Chamba-Himavhal-Pradesh                                          
 Above details taken from IMD 
     
Station Code      CHM
Station Lat.       32.555  N
Station Long.      76.126  E
Station Height(m)  952.0
Site Class        A   Vs30 between 700 m/sec to 1400 m/sec * 
Record Time       05.06.2013 22:00:49.959
Sampling Rate     200. Hz
 Record Duration   75.225 Sec.
 Direction         E-W (E positive)
Max. Acceleration     -6.908 cm/sec**2
     
  * For reference see Site Classification link of website 
     
 Base Line Corrected and Low Pass Filtered (Cut Off at 35 Hz) Time History
 Acceleration data in cm/sec**2
    
[...]
      -1.353
      -1.280
      -1.028
      -0.796
      -0.686
      -0.661
      -0.608
      -0.443
      -0.184
       0.043
       0.103
      -0.031
      -0.237
      -0.342
      -0.257
      -0.013
       0.321
       0.696
       1.074
       1.368
       1.456
       1.269
       0.873
       0.462
       0.218
       0.175
       0.214
       0.210
       0.159
       0.143
       0.180
       0.156
      -0.058
      -0.438
      -0.791
      -0.930
      -0.839
      -0.676
      -0.605
      -0.641
      -0.632
      -0.404
       0.061
       0.562
       0.818
       0.699
       0.350
       0.069
       0.074
       0.346
       0.680
       0.860
       0.798
       0.546
       0.205
      -0.160
      -0.531
      -0.874
      -1.098
      -1.101
      -0.875
      -0.547
      -0.278
      -0.098
       0.135
       0.576
       1.185
       1.721
       1.930
       1.740
       1.245
       0.554
      -0.290
      -1.218
      -2.017
      -2.387
      -2.158
      -1.458
      -0.634
      -0.002
       0.365
       0.611
       0.885
       1.158
       1.238
       0.962
       0.366
      -0.344
      -0.966
      -1.410
      -1.644
      -1.585
      -1.139
      -0.360
       0.461
       0.934
       0.851
       0.338
      -0.232
      -0.486
      -0.272
       0.295
       0.924
       1.328
       1.366
       1.089
       0.661
       0.237
      -0.125
      -0.448
      -0.745
      -0.952
      -0.957
      -0.736
      -0.422
      -0.209
      -0.189
      -0.269
      -0.288
      -0.189
      -0.092
      -0.172
      -0.459
      -0.757
      -0.757
      -0.291
       0.521
       1.349
       1.880
       1.977
       1.672
       1.073
       0.331
      -0.351
      -0.751
      -0.750
      -0.428
      -0.001
       0.349
       0.575
       0.707
       0.711
       0.461
      -0.119
      -0.899
      -1.532
      -1.662
      -1.168
      -0.261
       0.656
       1.227
       1.305
       0.963
       0.417
      -0.081
      -0.354
      -0.387
      -0.316
      -0.298
      -0.364
      -0.387
      -0.229
       0.081
       0.330
       0.288
      -0.089
      -0.607
      -0.977
      -1.013
      -0.729
      -0.283
       0.166
       0.540
       0.791
       0.824
       0.529
      -0.067
      -0.705
      -1.013
      -0.764
      -0.050
       0.798
       1.445
       1.729
       1.675
       1.397
       1.009
       0.582
       0.133
      -0.355
      -0.886
      -1.401
      -1.774
      -1.876
      -1.653
      -1.153
      -0.498
       0.185
       0.780
       1.179
       1.300
       1.121
       0.727
       0.290
      -0.008
      -0.063
       0.095
       0.313
       0.404
       0.291
       0.106
       0.113
       0.484
       1.091
       1.543
       1.458
       0.741
      -0.348
      -1.376
      -1.983
      -2.041
      -1.669
      -1.149
      -0.790
      -0.769
      -1.035
      -1.323
      -1.313
      -0.854
      -0.093
       0.606
       0.920
       0.816
       0.569
       0.516
       0.765
       1.103
       1.204
       0.922
       0.417
       0.012
      -0.067
       0.153
       0.455
       0.631
       0.629
       0.529
       0.405
       0.233
      -0.055
      -0.462
      -0.872
      -1.130
      -1.156
      -0.994
      -0.750
      -0.488
      -0.180
       0.236
       0.748
       1.233
       1.516
       1.490
       1.190
       0.753
       0.314
      -0.061
      -0.363
      -0.560
      -0.579
      -0.367
       0.023
       0.431
       0.684
       0.699
       0.505
       0.186
      -0.180
      -0.531
      -0.808
      -0.953
      -0.968
      -0.945
      -1.011
      -1.205
      -1.418
      -1.458
      -1.209
      -0.724
      -0.191
       0.201
       0.365
       0.344
       0.246
       0.170
       0.162
       0.223
       0.329
       0.445
       0.528
       0.536
       0.453
       0.298
       0.098
      -0.124
      -0.345
      -0.508
      -0.539
      -0.394
      -0.111
       0.209
       0.472
       0.654
       0.785
       0.888
       0.930
       0.867
       0.703
       0.513
       0.365
       0.246
       0.084
      -0.152
      -0.374
      -0.446
      -0.325
      -0.131
      -0.048
      -0.153
      -0.336
      -0.398
      -0.230
       0.101
       0.415
       0.558
       0.488
       0.243
      -0.106
      -0.490
      -0.829
      -1.050
      -1.120
      -1.068
      -0.942
      -0.764
      -0.513
      -0.168
       0.241
       0.625
       0.881
       0.942
       0.800
       0.506
       0.171
      -0.055
      -0.055
       0.173
       0.483
       0.669
       0.612
       0.377
       0.155
       0.110
       0.240
       0.385
       0.371
       0.168
      -0.088
      -0.220
      -0.174
      -0.060
      -0.038
      -0.165
      -0.356
      -0.497
      -0.563
      -0.629
      -0.764
      -0.944
      -1.054
      -0.980
      -0.673
      -0.183
       0.364
       0.816
       1.065
       1.106
       1.011
       0.855
       0.661
       0.426
       0.184
       0.023
       0.024
       0.184
       0.389
       0.494
       0.418
       0.191
      -0.091
      -0.333
      -0.487
      -0.535
      -0.473
      -0.314
      -0.126
      -0.014
      -0.059
      -0.243
      -0.442
      -0.502
      -0.348
      -0.043
       0.246
       0.332
       0.128
      -0.288
      -0.693
      -0.828
      -0.550
       0.074
       0.789
       1.278
       1.338
       0.988
       0.443
      -0.040
      -0.331
      -0.481
      -0.622
      -0.818
      -0.993
      -1.021
      -0.846
      -0.545
      -0.251
      -0.049
       0.065
       0.143
       0.233
       0.341
       0.450
       0.537
       0.593
       0.610
       0.571
       0.456
       0.278
       0.109
       0.030
       0.063
       0.146
       0.187
       0.155
       0.099
       0.086
       0.136
       0.202
       0.222
       0.169
       0.064
      -0.063
      -0.216
      -0.419
      -0.672
      -0.922
      -1.097
      -1.158
      -1.108
      -0.958
      -0.712
      -0.381
       0.005
       0.401
       0.752
       0.991
       1.059
       0.959
       0.786
       0.673
       0.681
       0.740
       0.708
       0.497
       0.145
      -0.215
      -0.463
      -0.564
      -0.572
      -0.557
      -0.528
      -0.427
      -0.190
       0.160
       0.498
       0.680
       0.642
       0.445
       0.208
       0.022
      -0.092
      -0.154
      -0.188
      -0.212
      -0.260
      -0.387
      -0.633
      -0.966
      -1.249
      -1.291
      -0.965
      -0.310
       0.472
       1.116
       1.426
       1.371
       1.093
       0.801
       0.620
       0.504
       0.294
      -0.116
      -0.669
      -1.169
      -1.416
      -1.321
      -0.936
      -0.394
       0.164
       0.634
       0.951
       1.072
       0.981
       0.721
       0.407
       0.179
       0.121
       0.203
       0.317
       0.344
       0.222
      -0.039
      -0.368
      -0.664
      -0.842
      -0.864
      -0.754
      -0.565
      -0.334
      -0.057
       0.287
       0.685
       1.058
       1.298
       1.331
       1.155
       0.817
       0.361
      -0.202
      -0.850
      -1.500
      -1.995
      -2.175
      -1.981
      -1.515
      -0.988
      -0.580
      -0.314
      -0.057
       0.341
       0.897
       1.446
       1.754
       1.674
       1.232
       0.594
      -0.029
      -0.483
      -0.699
      -0.689
      -0.518
      -0.278
      -0.065
       0.068
       0.136
       0.212
       0.364
       0.583
       0.779
       0.834
       0.682
       0.351
      -0.043
      -0.352
      -0.472
      -0.405
      -0.250
      -0.127
      -0.103
      -0.166
      -0.248
      -0.266
      -0.168
       0.037
       0.281
       0.496
       0.664
       0.809
       0.928
       0.952
       0.794
       0.445
       0.007
      -0.381
      -0.658
      -0.874
      -1.125
      -1.430
      -1.669
      -1.656
      -1.287
      -0.647
       0.030
       0.513
       0.719
       0.715
       0.617
       0.476
       0.262
      -0.050
      -0.401
      -0.650
      -0.687
      -0.517
      -0.248
       0.009
       0.226
       0.450
       0.705
       0.928
       0.996
       0.831
       0.497
       0.177
       0.055
       0.190
       0.489
       0.788
       0.945
       0.892
       0.622
       0.185
      -0.316
      -0.736
      -0.937
      -0.851
      -0.511
      -0.024
       0.478
       0.888
       1.139
       1.195
       1.052
       0.762
       0.440
       0.219
       0.151
       0.148
       0.035
      -0.294
      -0.755
      -1.110
      -1.152
      -0.867
      -0.448
      -0.141
      -0.059
      -0.136
      -0.233
      -0.276
      -0.307
      -0.420
      -0.669
      -1.001
      -1.274
      -1.342
      -1.133
      -0.695
      -0.169
       0.278
       0.535
       0.615
       0.652
       0.810
       1.144
       1.519
       1.676
       1.418
       0.768
      -0.022
      -0.630
      -0.869
      -0.779
      -0.559
      -0.404
      -0.376
      -0.406
      -0.380
      -0.249
      -0.047
       0.141
       0.239
       0.190
      -0.041
      -0.437
      -0.893
      -1.217
      -1.209
      -0.777
      -0.016
       0.813
       1.410
       1.574
       1.291
       0.722
       0.128
      -0.234
      -0.223
       0.131
       0.636
       1.032
       1.131
       0.908
       0.483
       0.009
      -0.423
      -0.810
      -1.168
      -1.478
      -1.676
      -1.698
      -1.530
      -1.229
      -0.897
      -0.638
      -0.519
      -0.545
      -0.665
      -0.774
      -0.740
      -0.459
       0.079
       0.747
       1.338
       1.692
       1.797
       1.766
       1.695
       1.553
       1.226
       0.678
       0.060
      -0.368
      -0.443
      -0.240
      -0.014
       0.006
      -0.228
      -0.585
      -0.901
      -1.107
      -1.244
      -1.376
      -1.496
      -1.517
      -1.349
      -0.975
      -0.468
       0.075
       0.590
       1.056
       1.447
       1.729
       1.901
       2.012
       2.095
       2.070
       1.759
       1.051
       0.071
      -0.807
      -1.163
      -0.792
       0.152
       1.214
       1.888
       1.907
       1.384
       0.714
       0.299
       0.305
       0.585
       0.818
       0.733
       0.300
      -0.240
      -0.535
      -0.380
       0.135
       0.700
       1.037
       1.097
       1.049
       1.092
       1.292
       1.568
       1.795
       1.897
       1.847
       1.627
       1.218
       0.635
      -0.048
      -0.737
      -1.372
      -1.942
      -2.449
      -2.863
      -3.129
      -3.197
      -3.068
      -2.798
      -2.477
      -2.177
      -1.921
      -1.692
      -1.469
      -1.254
      -1.075
      -0.956
      -0.898
      -0.874
      -0.840
      -0.770
      -0.677
      -0.605
      -0.590
      -0.614
      -0.628
      -0.602
      -0.573
      -0.613
      -0.747
      -0.908
      -0.980
      -0.903
      -0.740
      -0.628
      -0.652
      -0.766
      -0.843
      -0.789
      -0.619
      -0.421
      -0.268
      -0.158
      -0.036
       0.142
       0.382
       0.680
       1.067
       1.601
       2.286
       2.999
       3.514
       3.634
       3.331
       2.754
       2.118
       1.556
       1.075
       0.621
       0.171
      -0.257
      -0.653
      -1.050
      -1.494
      -1.962
      -2.319
      -2.373
      -1.993
      -1.214
      -0.247
       0.635
       1.244
       1.564
       1.728
       1.912
       2.222
       2.640
       3.053
       3.301
       3.252
       2.847
       2.132
       1.241
       0.346
      -0.409
      -0.965
      -1.332
      -1.537
      -1.571
      -1.400
      -1.034
      -0.583
      -0.232
      -0.142
      -0.348
      -0.753
      -1.184
      -1.477
      -1.514
      -1.252
      -0.738
      -0.106
       0.470
       0.866
       1.057
       1.109
       1.126
       1.186
       1.298
       1.415
       1.468
       1.400
       1.182
       0.813
       0.309
      -0.309
      -1.033
      -1.846
      -2.681
      -3.386
      -3.765
      -3.687
      -3.196
      -2.520
      -1.941
      -1.586
      -1.327
      -0.880
      -0.064
       1.007
       1.972
       2.462
       2.350
       1.789
       1.061
       0.377
      -0.205
      -0.705
      -1.123
      -1.397
      -1.453
      -1.252
      -0.809
      -0.188
       0.477
       0.970
       1.056
       0.608
      -0.297
      -1.392
      -2.369
      -3.027
      -3.321
      -3.285
      -2.940
      -2.264
      -1.256
      -0.013
       1.268
       2.373
       3.195
       3.775
       4.231
       4.618
       4.866
       4.829
       4.423
       3.700
       2.807
       1.873
       0.957
       0.075
      -0.723
      -1.321
      -1.595
      -1.506
      -1.144
      -0.681
      -0.247
       0.142
       0.574
       1.138
       1.839
       2.581
       3.207
       3.569
       3.576
       3.216
       2.536
       1.636
       0.666
      -0.193
      -0.775
      -1.019
      -1.009
      -0.929
      -0.940
      -1.082
      -1.267
      -1.375
      -1.364
      -1.323
      -1.415
      -1.781
      -2.463
      -3.400
      -4.459
      -5.481
      -6.302
      -6.794
      -6.908
      -6.693
      -6.237
      -5.582
      -4.674
      -3.425
      -1.834
      -0.070
       1.587
       2.877
       3.680
       4.038
       4.092
       3.985
       3.801
       3.562
       3.266
       2.923
       2.553
       2.166
       1.755
       1.312
       0.829
       0.304
      -0.235
      -0.695
      -0.939
      -0.876
      -0.556
      -0.160
       0.133
       0.279
       0.392
       0.624
       1.038
       1.567
       2.084
       2.491
       2.752
       2.866
       2.823
       2.602
       2.182
       1.568
       0.790
      -0.101
      -1.045
      -1.993
      -2.897
      -3.707
      -4.374
      -4.864
      -5.172
      -5.301
      -5.221
      -4.861
      -4.155
      -3.100
      -1.790
      -0.387
       0.942
       2.083
       3.005
       3.746
       4.360
       4.869
       5.236
       5.415
       5.395
       5.238
       5.036
       4.849
       4.638
       4.264
       3.556
       2.437
       0.998
      -0.526
      -1.890
      -2.963
      -3.765
      -4.398
      -4.961
      -5.499
      -5.985
      -6.330
      -6.402
      -6.083
      -5.338
      -4.254
      -3.013
      -1.801
      -0.724
       0.213
       1.039
       1.741
       2.260
       2.560
       2.689
       2.749
       2.810
       2.844
       2.751
       2.456
       1.984
       1.457
       1.007
       0.694
       0.489
       0.331
       0.183
       0.041
      -0.090
      -0.211
      -0.314
      -0.352
      -0.239
       0.091
       0.625
       1.249
       1.804
       2.166
       2.304
       2.273
       2.161
       2.034
       1.895
       1.701
       1.404
       1.012
       0.594
       0.247
       0.036
      -0.059
      -0.138
      -0.323
      -0.688
      -1.230
      -1.902
      -2.649
      -3.406
      -4.061
      -4.446
      -4.406
      -3.892
      -2.997
      -1.906
      -0.808
       0.146
       0.859
       1.281
       1.435
       1.417
       1.351
       1.330
       1.375
       1.457
       1.529
       1.548
       1.472
       1.254
       0.867
       0.344
      -0.210
      -0.681
      -1.026
      -1.304
      -1.607
      -1.967
      -2.324
      -2.587
      -2.713
      -2.711
      -2.602
      -2.377
      -2.020
      -1.542
      -0.984
      -0.385
       0.235
       0.854
       1.417
       1.846
       2.089
       2.173
       2.184
       2.207
       2.267
       2.323
       2.302
       2.150
       1.860
       1.478
       1.076
       0.709
       0.384
       0.071
      -0.260
      -0.605
      -0.906
      -1.060
      -0.965
      -0.593
      -0.046
       0.487
       0.848
       1.009
       1.068
       1.137
       1.229
       1.249
       1.084
       0.717
       0.255
      -0.140
      -0.364
      -0.413
      -0.363
      -0.301
      -0.293
      -0.367
      -0.527
      -0.746
      -0.962
      -1.097
      -1.105
      -1.017
      -0.933
      -0.962
      -1.141
      -1.408
      -1.648
      -1.757
      -1.687
      -1.446
      -1.087
      -0.686
      -0.324
      -0.058
       0.095
       0.161
       0.181
       0.190
       0.203
       0.212
       0.198
       0.151
       0.084
       0.023
      -0.007
       0.003
       0.048
       0.112
       0.172
       0.195
       0.136
      -0.028
      -0.269
      -0.515
      -0.679
      -0.706
      -0.592
      -0.371
      -0.098
       0.181
       0.439
       0.654
       0.799
       0.850
       0.812
       0.724
       0.638
       0.593
       0.609
       0.701
       0.892
       1.194
       1.571
       1.927
       2.149
       2.176
       2.030
       1.785
       1.507
       1.220
       0.908
       0.552
       0.156
      -0.246
      -0.596
      -0.831
      -0.911
      -0.843
      -0.683
      -0.521
      -0.443
      -0.497
      -0.669
      -0.902
      -1.132
      -1.327
      -1.488
      -1.615
      -1.685
      -1.651
      -1.472
      -1.133
      -0.653
      -0.090
       0.463
       0.899
       1.126
       1.112
       0.900
       0.586
       0.261
      -0.025
      -0.260
      -0.447
      -0.589
      -0.693
      -0.778
      -0.868
      -0.977
      -1.098
      -1.219
      -1.331
      -1.432
      -1.515
      -1.548
      -1.483
      -1.281
      -0.934
      -0.477
       0.033
       0.539
       0.994
       1.359
       1.611
       1.751
       1.805
       1.814
       1.808
       1.787
       1.726
       1.590
       1.352
       0.997
       0.541
       0.042
      -0.408
      -0.710
      -0.814
      -0.746
      -0.590
      -0.425
      -0.278
      -0.124
       0.063
       0.273
       0.464
       0.606
       0.712
       0.824
       0.984
       1.190
       1.398
       1.538
       1.558
       1.452
       1.252
       0.998
       0.714
       0.397
       0.035
      -0.368
      -0.788
      -1.179
      -1.498
      -1.710
      -1.806
      -1.807
      -1.768
      -1.749
      -1.773
      -1.797
      -1.724
      -1.471
      -1.042
      -0.532
      -0.071
       0.260
       0.465
       0.618
       0.795
       1.023
       1.269
       1.463
       1.543
       1.473
       1.237
       0.830
       0.273
      -0.359
      -0.942
      -1.362
      -1.587
      -1.689
      -1.784
      -1.940
      -2.132
      -2.274
      -2.289
      -2.163
      -1.933
      -1.658
      -1.385
      -1.135
      -0.895
      -0.624
      -0.266
       0.214
       0.799
       1.407
       1.932
       2.300
       2.501
       2.578
       2.572
       2.488
       2.293
       1.965
       1.523
       1.034
       0.574
       0.200
      -0.070
      -0.245
      -0.346
      -0.398
      -0.425
      -0.449
      -0.467
      -0.446
