Origin Time       03/10/2012 10:49:28
Lat.              32.4 N 
Long.             76.3 E 
Depth (Km)         10.0
Magnitude         3.6
 Region           Chamba-DISTT.-HIMACHAL-PRADESH                                   
 Above details taken from IMD 
     
Station Code      CHM
Station Lat.       32.555  N
Station Long.      76.126  E
Station Height(m)  952.0
Site Class        A   Vs30 between 700 m/sec to 1400 m/sec * 
Record Time       03.10.2012 10:48:45.129
Sampling Rate     200. Hz
 Record Duration   68.010 Sec.
 Direction         E-W (E positive)
Max. Acceleration     -2.543 cm/sec**2
     
  * For reference see Site Classification link of website 
     
 Base Line Corrected and Low Pass Filtered (Cut Off at 35 Hz) Time History
 Acceleration data in cm/sec**2
    
[...]
       0.008
       0.014
       0.018
       0.015
       0.009
       0.006
       0.009
       0.014
       0.014
       0.008
       0.000
      -0.002
       0.005
       0.016
       0.019
       0.010
      -0.006
      -0.014
      -0.005
       0.015
       0.033
       0.039
       0.032
       0.019
       0.007
      -0.003
      -0.007
      -0.001
       0.016
       0.036
       0.046
       0.037
       0.012
      -0.018
      -0.039
      -0.042
      -0.026
       0.000
       0.021
       0.030
       0.027
       0.019
       0.009
      -0.008
      -0.039
      -0.079
      -0.104
      -0.093
      -0.040
       0.029
       0.070
       0.058
       0.006
      -0.039
      -0.033
       0.025
       0.090
       0.108
       0.050
      -0.057
      -0.138
      -0.122
      -0.005
       0.136
       0.199
       0.143
       0.017
      -0.084
      -0.107
      -0.082
      -0.087
      -0.147
      -0.192
      -0.121
       0.082
       0.290
       0.342
       0.190
      -0.046
      -0.192
      -0.172
      -0.048
       0.060
       0.084
       0.045
       0.003
      -0.010
      -0.004
      -0.009
      -0.035
      -0.060
      -0.055
      -0.014
       0.038
       0.062
       0.045
       0.018
       0.029
       0.090
       0.160
       0.178
       0.115
      -0.005
      -0.143
      -0.271
      -0.366
      -0.379
      -0.251
       0.016
       0.312
       0.474
       0.419
       0.218
       0.027
      -0.059
      -0.055
      -0.032
      -0.038
      -0.069
      -0.093
      -0.079
      -0.023
       0.029
       0.018
      -0.059
      -0.126
      -0.098
       0.014
       0.101
       0.067
      -0.066
      -0.183
      -0.188
      -0.078
       0.075
       0.193
       0.243
       0.227
       0.149
       0.018
      -0.140
      -0.264
      -0.283
      -0.168
       0.037
       0.233
       0.332
       0.294
       0.143
      -0.048
      -0.188
      -0.224
      -0.176
      -0.104
      -0.039
       0.032
       0.123
       0.185
       0.133
      -0.062
      -0.318
      -0.505
      -0.533
      -0.389
      -0.112
       0.237
       0.575
       0.794
       0.798
       0.573
       0.208
      -0.149
      -0.370
      -0.408
      -0.308
      -0.157
      -0.023
       0.072
       0.125
       0.115
       0.031
      -0.075
      -0.104
      -0.016
       0.103
       0.105
      -0.060
      -0.274
      -0.355
      -0.214
       0.064
       0.288
       0.298
       0.075
      -0.249
      -0.472
      -0.460
      -0.238
       0.057
       0.287
       0.411
       0.476
       0.549
       0.628
       0.614
       0.363
      -0.171
      -0.812
      -1.210
      -1.081
      -0.464
       0.273
       0.704
       0.655
       0.287
      -0.077
      -0.214
      -0.147
      -0.065
      -0.113
      -0.238
      -0.253
      -0.057
       0.237
       0.406
       0.340
       0.130
      -0.056
      -0.134
      -0.130
      -0.078
       0.025
       0.183
       0.335
       0.398
       0.348
       0.252
       0.188
       0.148
       0.042
      -0.203
      -0.534
      -0.789
      -0.815
      -0.600
      -0.282
      -0.029
       0.111
       0.219
       0.363
       0.481
       0.430
       0.176
      -0.109
      -0.161
       0.121
       0.547
       0.773
       0.593
       0.116
      -0.341
      -0.545
      -0.518
      -0.443
      -0.421
      -0.379
      -0.191
       0.128
       0.402
       0.452
       0.258
      -0.040
      -0.261
      -0.311
      -0.214
      -0.068
       0.040
       0.092
       0.144
       0.250
       0.382
       0.432
       0.299
      -0.025
      -0.433
      -0.760
      -0.854
      -0.653
      -0.244
       0.177
       0.435
       0.498
       0.465
       0.429
       0.394
       0.314
       0.171
      -0.008
      -0.198
      -0.381
      -0.503
      -0.494
      -0.345
      -0.153
      -0.034
      -0.010
      -0.008
       0.028
       0.070
       0.075
       0.095
       0.249
       0.563
       0.856
       0.845
       0.413
      -0.233
      -0.687
      -0.667
      -0.259
       0.141
       0.168
      -0.187
      -0.566
      -0.577
      -0.164
       0.351
       0.586
       0.451
       0.168
      -0.021
      -0.112
      -0.279
      -0.586
      -0.850
      -0.815
      -0.431
       0.092
       0.514
       0.778
       0.950
       1.025
       0.882
       0.466
      -0.064
      -0.432
      -0.493
      -0.360
      -0.290
      -0.440
      -0.749
      -0.995
      -0.946
      -0.516
       0.158
       0.761
       1.001
       0.836
       0.508
       0.310
       0.304
       0.278
       0.020
      -0.398
      -0.635
      -0.421
       0.131
       0.587
       0.593
       0.194
      -0.241
      -0.388
      -0.218
       0.071
       0.290
       0.379
       0.353
       0.222
      -0.004
      -0.267
      -0.467
      -0.521
      -0.405
      -0.133
       0.243
       0.598
       0.724
       0.464
      -0.113
      -0.678
      -0.875
      -0.612
      -0.147
       0.148
       0.102
      -0.142
      -0.298
      -0.189
       0.134
       0.478
       0.653
       0.581
       0.309
      -0.018
      -0.228
      -0.225
      -0.067
       0.075
       0.047
      -0.168
      -0.433
      -0.559
      -0.440
      -0.159
       0.057
       0.032
      -0.147
      -0.167
       0.210
       0.845
       1.274
       1.118
       0.443
      -0.310
      -0.733
      -0.744
      -0.527
      -0.267
      -0.044
       0.087
       0.057
      -0.107
      -0.234
      -0.149
       0.131
       0.416
       0.546
       0.520
       0.395
       0.148
      -0.288
      -0.825
      -1.160
      -0.997
      -0.360
       0.352
       0.687
       0.520
       0.128
      -0.094
       0.034
       0.372
       0.636
       0.623
       0.339
      -0.048
      -0.337
      -0.434
      -0.386
      -0.311
      -0.278
      -0.254
      -0.158
       0.038
       0.275
       0.460
       0.543
       0.526
       0.418
       0.232
       0.010
      -0.164
      -0.242
      -0.266
      -0.319
      -0.424
      -0.513
      -0.520
      -0.459
      -0.381
      -0.290
      -0.113
       0.203
       0.600
       0.908
       0.957
       0.696
       0.239
      -0.220
      -0.520
      -0.610
      -0.531
      -0.349
      -0.130
       0.057
       0.155
       0.172
       0.189
       0.269
       0.363
       0.337
       0.148
      -0.067
      -0.126
      -0.002
       0.139
       0.132
      -0.023
      -0.193
      -0.260
      -0.192
      -0.017
       0.207
       0.381
       0.386
       0.179
      -0.138
      -0.377
      -0.419
      -0.293
      -0.103
       0.093
       0.285
       0.412
       0.344
       0.013
      -0.435
      -0.699
      -0.578
      -0.157
       0.258
       0.411
       0.290
       0.074
      -0.063
      -0.099
      -0.118
      -0.171
      -0.222
      -0.224
      -0.209
      -0.240
      -0.296
      -0.251
      -0.023
       0.291
       0.479
       0.427
       0.253
       0.184
       0.310
       0.496
       0.530
       0.358
       0.118
      -0.026
      -0.065
      -0.113
      -0.239
      -0.372
      -0.398
      -0.301
      -0.179
      -0.120
      -0.110
      -0.077
       0.011
       0.115
       0.177
       0.166
       0.082
      -0.055
      -0.190
      -0.222
      -0.075
       0.214
       0.480
       0.547
       0.371
       0.076
      -0.169
      -0.290
      -0.322
      -0.308
      -0.227
      -0.044
       0.194
       0.347
       0.314
       0.124
      -0.100
      -0.267
      -0.363
      -0.380
      -0.266
       0.015
       0.388
       0.675
       0.717
       0.483
       0.088
      -0.281
      -0.463
      -0.388
      -0.123
       0.152
       0.240
       0.072
      -0.230
      -0.431
      -0.357
      -0.015
       0.415
       0.693
       0.663
       0.344
      -0.079
      -0.383
      -0.453
      -0.338
      -0.174
      -0.069
      -0.047
      -0.058
      -0.024
       0.098
       0.254
       0.305
       0.154
      -0.126
      -0.308
      -0.204
       0.131
       0.410
       0.352
      -0.049
      -0.496
      -0.636
      -0.364
       0.103
       0.432
       0.453
       0.252
       0.038
      -0.063
      -0.076
      -0.096
      -0.169
      -0.250
      -0.253
      -0.131
       0.076
       0.258
       0.322
       0.270
       0.192
       0.176
       0.216
       0.235
       0.185
       0.106
       0.070
       0.072
       0.010
      -0.199
      -0.502
      -0.724
      -0.724
      -0.511
      -0.220
       0.017
       0.157
       0.233
       0.286
       0.333
       0.380
       0.427
       0.477
       0.525
       0.530
       0.414
       0.119
      -0.307
      -0.685
      -0.826
      -0.702
      -0.471
      -0.322
      -0.295
      -0.276
      -0.165
       0.001
       0.107
       0.113
       0.083
       0.080
       0.081
       0.029
      -0.061
      -0.090
       0.014
       0.219
       0.400
       0.440
       0.321
       0.134
       0.015
       0.028
       0.121
       0.177
       0.130
       0.033
       0.017
       0.159
       0.388
       0.515
       0.378
      -0.025
      -0.533
      -0.928
      -1.072
      -0.973
      -0.741
      -0.499
      -0.290
      -0.070
       0.222
       0.558
       0.806
       0.820
       0.572
       0.193
      -0.109
      -0.206
      -0.136
      -0.047
      -0.056
      -0.133
      -0.140
       0.023
       0.312
       0.578
       0.689
       0.606
       0.354
      -0.031
      -0.495
      -0.926
      -1.162
      -1.081
      -0.702
      -0.210
       0.153
       0.246
       0.129
       0.000
       0.032
       0.246
       0.512
       0.657
       0.576
       0.294
      -0.041
      -0.245
      -0.206
       0.040
       0.341
       0.528
       0.508
       0.297
       0.000
      -0.246
      -0.342
      -0.295
      -0.213
      -0.208
      -0.302
      -0.427
      -0.513
      -0.563
      -0.622
      -0.689
      -0.683
      -0.514
      -0.170
       0.254
       0.629
       0.868
       0.951
       0.903
       0.754
       0.534
       0.273
       0.009
      -0.225
      -0.412
      -0.536
      -0.556
      -0.399
      -0.014
       0.534
       1.035
       1.232
       0.999
       0.437
      -0.207
      -0.707
      -0.968
      -0.995
      -0.809
      -0.429
       0.072
       0.517
       0.704
       0.555
       0.191
      -0.167
      -0.383
      -0.459
      -0.430
      -0.270
       0.039
       0.378
       0.520
       0.344
      -0.010
      -0.232
      -0.123
       0.218
       0.480
       0.406
      -0.005
      -0.504
      -0.796
      -0.738
      -0.405
       0.011
       0.341
       0.516
       0.538
       0.424
       0.190
      -0.139
      -0.492
      -0.747
      -0.756
      -0.420
       0.208
       0.889
       1.296
       1.205
       0.645
      -0.131
      -0.815
      -1.196
      -1.215
      -0.938
      -0.526
      -0.187
      -0.067
      -0.137
      -0.202
      -0.067
       0.264
       0.576
       0.638
       0.435
       0.179
       0.079
       0.120
       0.098
      -0.117
      -0.406
      -0.521
      -0.366
      -0.110
       0.008
      -0.047
      -0.078
       0.095
       0.400
       0.568
       0.422
       0.092
      -0.078
       0.159
       0.701
       1.156
       1.155
       0.633
      -0.151
      -0.838
      -1.189
      -1.154
      -0.805
      -0.277
       0.255
       0.598
       0.643
       0.447
       0.187
      -0.019
      -0.224
      -0.531
      -0.870
      -0.950
      -0.534
       0.256
       0.959
       1.152
       0.805
       0.276
      -0.018
       0.070
       0.356
       0.528
       0.404
       0.064
      -0.226
      -0.233
       0.076
       0.505
       0.769
       0.675
       0.222
      -0.428
      -1.034
      -1.372
      -1.310
      -0.864
      -0.212
       0.360
       0.614
       0.501
       0.179
      -0.116
      -0.234
      -0.176
      -0.013
       0.221
       0.530
       0.872
       1.088
       0.980
       0.470
      -0.297
      -1.027
      -1.465
      -1.540
      -1.360
      -1.076
      -0.767
      -0.437
      -0.090
       0.204
       0.339
       0.269
       0.061
      -0.153
      -0.284
      -0.330
      -0.311
      -0.197
       0.047
       0.367
       0.613
       0.672
       0.594
       0.532
       0.583
       0.697
       0.762
       0.747
       0.717
       0.735
       0.752
       0.631
       0.255
      -0.361
      -1.061
      -1.634
      -1.910
      -1.812
      -1.380
      -0.772
      -0.223
       0.082
       0.145
       0.150
       0.285
       0.552
       0.770
       0.780
       0.628
       0.511
       0.559
       0.692
       0.704
       0.472
       0.062
      -0.341
      -0.571
      -0.570
      -0.375
      -0.080
       0.180
       0.255
       0.040
      -0.422
      -0.905
      -1.097
      -0.797
      -0.079
       0.725
       1.216
       1.169
       0.659
      -0.018
      -0.557
      -0.819
      -0.846
      -0.728
      -0.478
      -0.024
       0.682
       1.535
       2.260
       2.532
       2.157
       1.191
      -0.093
      -1.334
      -2.217
      -2.543
      -2.275
      -1.565
      -0.723
      -0.077
       0.190
       0.128
      -0.053
      -0.125
       0.039
       0.440
       0.965
       1.424
       1.624
       1.471
       1.034
       0.498
       0.039
      -0.291
      -0.567
      -0.891
      -1.269
      -1.574
      -1.616
      -1.268
      -0.540
       0.412
       1.343
       1.961
       1.996
       1.328
       0.120
      -1.172
      -2.013
      -2.104
      -1.534
      -0.646
       0.213
       0.847
       1.183
       1.194
       0.886
       0.364
      -0.148
      -0.399
      -0.253
       0.215
       0.777
       1.182
       1.253
       0.914
       0.217
      -0.622
      -1.264
      -1.418
      -1.042
      -0.403
       0.083
       0.122
      -0.269
      -0.801
      -1.111
      -0.975
      -0.395
       0.436
       1.228
       1.714
       1.767
       1.475
       1.072
       0.762
       0.565
       0.329
      -0.095
      -0.695
      -1.266
      -1.549
      -1.420
      -0.968
      -0.401
       0.133
       0.598
       0.963
       1.066
       0.687
      -0.198
      -1.247
      -1.924
      -1.867
      -1.129
      -0.098
       0.799
       1.328
       1.490
       1.414
       1.233
       1.021
       0.807
       0.610
       0.451
       0.325
       0.170
      -0.104
      -0.533
      -1.046
      -1.495
      -1.760
      -1.811
      -1.692
      -1.457
      -1.132
      -0.726
      -0.275
       0.151
       0.467
       0.624
       0.637
       0.576
       0.510
       0.462
       0.411
       0.334
       0.239
       0.150
       0.083
       0.043
       0.060
       0.192
       0.482
       0.874
       1.173
       1.131
       0.645
      -0.106
      -0.751
      -1.000
      -0.854
      -0.559
      -0.367
      -0.345
      -0.386
      -0.362
      -0.268
      -0.206
      -0.250
      -0.345
      -0.347
      -0.158
       0.170
       0.494
       0.721
       0.882
       1.060
       1.262
       1.380
       1.282
       0.940
       0.449
      -0.067
      -0.546
      -0.986
      -1.357
      -1.539
      -1.385
      -0.847
      -0.062
       0.702
       1.207
       1.353
       1.188
       0.834
       0.430
       0.101
      -0.078
      -0.117
      -0.097
      -0.126
      -0.270
      -0.526
      -0.830
      -1.079
      -1.164
      -1.010
      -0.625
      -0.115
       0.349
       0.603
       0.569
       0.268
      -0.201
      -0.703
      -1.092
      -1.238
      -1.084
      -0.698
      -0.255
       0.062
       0.203
       0.298
       0.549
       1.045
       1.634
       2.016
       1.981
       1.583
       1.070
       0.640
       0.291
      -0.089
      -0.506
      -0.788
      -0.730
      -0.322
       0.203
       0.527
       0.490
       0.192
      -0.118
      -0.263
      -0.270
      -0.305
      -0.474
      -0.708
      -0.836
      -0.764
      -0.563
      -0.399
      -0.370
      -0.420
      -0.402
      -0.239
      -0.016
       0.075
      -0.110
      -0.549
      -1.051
      -1.356
      -1.272
      -0.776
      -0.053
       0.579
       0.826
       0.605
       0.109
      -0.305
      -0.347
       0.011
       0.553
       0.995
       1.177
       1.117
       0.934
       0.741
       0.599
       0.527
       0.504
       0.466
       0.340
       0.111
      -0.136
      -0.283
      -0.285
      -0.220
      -0.204
      -0.278
      -0.374
      -0.406
      -0.359
      -0.287
      -0.221
      -0.129
       0.027
       0.196
       0.229
       0.010
      -0.412
      -0.833
      -1.064
      -1.081
      -1.009
      -0.948
      -0.848
      -0.560
      -0.025
       0.601
       1.020
       1.020
       0.648
       0.187
      -0.044
       0.096
       0.496
       0.894
       1.078
       1.018
       0.857
       0.769
       0.841
       1.045
       1.309
       1.555
       1.710
       1.707
       1.535
       1.262
       0.998
       0.798
       0.622
       0.395
       0.092
      -0.244
      -0.555
      -0.827
      -1.074
      -1.295
      -1.445
      -1.487
      -1.453
      -1.454
      -1.598
      -1.891
      -2.219
      -2.442
      -2.504
      -2.442
      -2.304
      -2.066
      -1.668
      -1.113
      -0.539
      -0.141
      -0.012
      -0.053
      -0.036
       0.205
       0.631
       1.033
       1.204
       1.094
       0.819
       0.556
       0.434
       0.503
       0.756
       1.140
       1.547
       1.815
       1.799
       1.453
       0.879
       0.266
      -0.217
      -0.502
      -0.598
      -0.537
      -0.336
      -0.028
       0.311
       0.579
       0.706
       0.702
       0.650
       0.646
       0.731
       0.874
       1.001
       1.064
       1.049
       0.949
       0.732
       0.362
      -0.129
      -0.601
      -0.861
      -0.786
      -0.431
       0.002
       0.301
       0.380
       0.306
       0.209
       0.169
       0.170
       0.138
       0.003
      -0.263
      -0.633
      -1.049
      -1.437
      -1.733
      -1.887
      -1.865
      -1.644
      -1.231
      -0.690
      -0.153
       0.231
       0.379
       0.328
       0.214
       0.171
       0.233
       0.316
       0.299
       0.134
      -0.115
      -0.321
      -0.375
      -0.246
       0.029
       0.364
       0.649
       0.789
       0.750
       0.592
       0.441
       0.395
       0.449
       0.507
       0.482
       0.374
       0.262
       0.201
       0.163
       0.070
      -0.104
      -0.290
      -0.375
      -0.311
      -0.154
      -0.013
       0.049
       0.053
       0.062
       0.097
       0.112
       0.032
      -0.178
      -0.482
      -0.791
      -1.023
      -1.122
      -1.057
      -0.818
