Origin Time       02/10/2012 08:34:52
Lat.              32.3 N 
Long.             76.3 E 
Depth (Km)         10.0
Magnitude         4.9
 Region           Chamba-DISTT.-HIMACHAL                                           
 Above details taken from IMD 
     
Station Code      CHM
Station Lat.       32.555  N
Station Long.      76.126  E
Station Height(m)  952.0
Site Class        A   Vs30 between 700 m/sec to 1400 m/sec * 
Record Time       02.10.2012 08:34:09.139
Sampling Rate     200. Hz
 Record Duration   76.160 Sec.
 Direction         E-W (E positive)
Max. Acceleration    -11.867 cm/sec**2
     
  * For reference see Site Classification link of website 
     
 Base Line Corrected and Low Pass Filtered (Cut Off at 35 Hz) Time History
 Acceleration data in cm/sec**2
    
[...]
       1.147
       1.017
       0.310
      -0.619
      -1.238
      -1.358
      -1.234
      -1.207
      -1.363
      -1.547
      -1.543
      -1.145
      -0.228
       1.048
       2.119
       2.361
       1.706
       0.805
       0.445
       0.789
       1.280
       1.245
       0.512
      -0.545
      -1.397
      -1.713
      -1.444
      -0.779
      -0.074
       0.339
       0.391
       0.311
       0.315
       0.296
      -0.085
      -0.970
      -2.048
      -2.768
      -2.798
      -2.253
      -1.507
      -0.831
      -0.199
       0.593
       1.628
       2.672
       3.283
       3.160
       2.427
       1.570
       1.036
       0.839
       0.559
      -0.209
      -1.351
      -2.213
      -2.138
      -1.093
       0.211
       0.864
       0.512
      -0.334
      -0.715
      -0.073
       1.197
       2.001
       1.467
      -0.259
      -2.086
      -2.877
      -2.355
      -1.170
      -0.163
       0.392
       0.841
       1.555
       2.385
       2.717
       2.044
       0.507
      -1.090
      -1.838
      -1.440
      -0.455
       0.160
      -0.159
      -1.193
      -2.224
      -2.601
      -2.052
      -0.708
       0.957
       2.247
       2.618
       2.103
       1.271
       0.605
      -0.034
      -1.184
      -2.959
      -4.576
      -4.854
      -3.223
      -0.262
       2.768
       4.877
       5.883
       6.129
       5.834
       4.820
       2.840
       0.070
      -2.812
      -5.018
      -6.102
      -6.091
      -5.261
      -3.843
      -1.956
       0.214
       2.242
       3.550
       3.690
       2.633
       0.849
      -0.859
      -1.705
      -1.349
      -0.130
       1.122
       1.657
       1.279
       0.338
      -0.657
      -1.401
      -1.850
      -2.034
      -1.856
      -1.089
       0.385
       2.251
       3.736
       4.052
       3.013
       1.251
      -0.239
      -0.883
      -0.944
      -1.167
      -1.969
      -2.999
      -3.474
      -2.916
      -1.493
       0.287
       2.013
       3.432
       4.249
       4.114
       2.919
       1.032
      -0.815
      -1.937
      -2.057
      -1.398
      -0.513
       0.010
      -0.151
      -0.869
      -1.624
      -1.835
      -1.283
      -0.288
       0.521
       0.676
       0.185
      -0.540
      -1.051
      -1.169
      -0.977
      -0.596
      -0.087
       0.439
       0.749
       0.648
       0.210
      -0.215
      -0.282
       0.095
       0.753
       1.517
       2.330
       3.141
       3.720
       3.642
       2.524
       0.350
      -2.346
      -4.611
      -5.512
      -4.671
      -2.548
      -0.221
       1.299
       1.683
       1.314
       0.754
       0.275
      -0.099
      -0.311
      -0.231
       0.129
       0.566
       0.932
       1.278
       1.643
       1.784
       1.283
      -0.014
      -1.711
      -3.063
      -3.507
      -3.042
      -2.132
      -1.244
      -0.451
       0.514
       1.846
       3.308
       4.283
       4.142
       2.626
       0.008
      -2.969
      -5.303
      -6.086
      -4.919
      -2.144
       1.287
       4.219
       5.746
       5.510
       3.818
       1.510
      -0.401
      -1.217
      -0.912
      -0.101
       0.405
       0.164
      -0.631
      -1.366
      -1.516
      -1.059
      -0.488
      -0.408
      -1.021
      -1.932
      -2.478
      -2.263
      -1.403
      -0.327
       0.611
       1.327
       1.894
       2.329
       2.513
       2.292
       1.610
       0.550
      -0.703
      -1.867
      -2.537
      -2.281
      -0.934
       1.082
       2.786
       3.183
       2.003
      -0.014
      -1.634
      -2.052
      -1.422
      -0.576
      -0.249
      -0.520
      -0.869
      -0.725
      -0.001
       0.828
       1.157
       0.800
       0.156
      -0.164
       0.113
       0.707
       1.091
       0.985
       0.591
       0.363
       0.581
       1.089
       1.396
       1.031
      -0.096
      -1.569
      -2.666
      -2.862
      -2.239
      -1.390
      -0.818
      -0.456
       0.127
       1.069
       1.862
       1.718
       0.281
      -2.002
      -4.096
      -4.953
      -4.040
      -1.611
       1.397
       3.850
       5.039
       5.012
       4.324
       3.445
       2.391
       0.927
      -0.920
      -2.634
      -3.521
      -3.235
      -1.996
      -0.360
       1.131
       2.147
       2.527
       2.192
       1.173
      -0.279
      -1.680
      -2.537
      -2.638
      -2.140
      -1.352
      -0.481
       0.390
       1.138
       1.533
       1.383
       0.727
      -0.146
      -0.853
      -1.111
      -0.835
      -0.133
       0.738
       1.467
       1.803
       1.670
       1.196
       0.609
       0.050
      -0.541
      -1.336
      -2.353
      -3.244
      -3.377
      -2.270
      -0.089
       2.276
       3.738
       3.736
       2.529
       0.872
      -0.551
      -1.440
      -1.842
      -1.955
      -1.946
      -1.808
      -1.337
      -0.296
       1.256
       2.754
       3.352
       2.541
       0.651
      -1.296
      -2.312
      -2.121
      -1.216
      -0.339
       0.093
       0.197
       0.382
       0.932
       1.733
       2.329
       2.229
       1.280
      -0.158
      -1.373
      -1.746
      -1.187
      -0.226
       0.376
       0.230
      -0.422
      -1.010
      -1.187
      -1.073
      -1.003
      -1.102
      -1.125
      -0.680
       0.400
       1.857
       3.086
       3.446
       2.629
       0.878
      -1.111
      -2.588
      -3.170
      -2.943
      -2.212
      -1.183
       0.065
       1.389
       2.479
       3.003
       2.832
       2.084
       0.986
      -0.245
      -1.404
      -2.282
      -2.708
      -2.609
      -2.006
      -0.990
       0.216
       1.201
       1.484
       0.839
      -0.416
      -1.524
      -1.798
      -1.136
      -0.085
       0.633
       0.706
       0.426
       0.337
       0.691
       1.209
       1.330
       0.701
      -0.510
      -1.698
      -2.219
      -1.800
      -0.695
       0.526
       1.430
       2.016
       2.562
       3.126
       3.261
       2.335
       0.225
      -2.327
      -4.116
      -4.307
      -2.999
      -1.066
       0.506
       1.225
       1.210
       0.849
       0.387
      -0.151
      -0.740
      -1.200
      -1.341
      -1.176
      -0.861
      -0.406
       0.386
       1.612
       2.953
       3.825
       3.888
       3.355
       2.748
       2.365
       1.983
       1.091
      -0.555
      -2.536
      -3.929
      -3.976
      -2.746
      -1.163
      -0.304
      -0.549
      -1.359
      -1.862
      -1.659
      -1.070
      -0.655
      -0.602
      -0.595
      -0.233
       0.539
       1.381
       1.884
       1.886
       1.532
       1.099
       0.801
       0.684
       0.639
       0.503
       0.203
      -0.154
      -0.363
      -0.323
      -0.149
      -0.061
      -0.212
      -0.603
      -1.134
      -1.678
      -2.132
      -2.450
      -2.651
      -2.755
      -2.693
      -2.316
      -1.547
      -0.556
       0.271
       0.605
       0.477
       0.321
       0.651
       1.652
       3.013
       4.170
       4.714
       4.633
       4.203
       3.654
       2.927
       1.743
      -0.080
      -2.367
      -4.596
      -6.164
      -6.668
      -6.018
      -4.385
      -2.112
       0.345
       2.477
       3.853
       4.270
       3.797
       2.684
       1.226
      -0.282
      -1.528
      -2.193
      -2.063
      -1.176
       0.134
       1.389
       2.216
       2.521
       2.475
       2.350
       2.334
       2.436
       2.485
       2.242
       1.549
       0.467
      -0.711
      -1.600
      -1.936
      -1.712
      -1.178
      -0.720
      -0.723
      -1.423
      -2.756
      -4.261
      -5.186
      -4.823
      -2.935
      -0.001
       2.945
       4.880
       5.413
       4.973
       4.356
       4.002
       3.658
       2.713
       0.906
      -1.289
      -2.969
      -3.559
      -3.282
      -2.902
      -2.991
      -3.444
      -3.727
      -3.532
      -3.106
      -2.898
      -2.942
      -2.751
      -1.870
      -0.465
       0.761
       1.277
       1.288
       1.523
       2.413
       3.542
       3.981
       3.196
       1.628
       0.337
       0.077
       0.701
       1.405
       1.505
       0.957
       0.190
      -0.457
      -1.023
      -1.687
      -2.379
      -2.787
      -2.736
      -2.449
      -2.300
      -2.328
      -2.124
      -1.255
       0.238
       1.812
       2.930
       3.558
       4.108
       4.882
       5.615
       5.622
       4.468
       2.459
       0.448
      -0.862
      -1.423
      -1.696
      -2.129
      -2.817
      -3.570
      -4.132
      -4.267
      -3.775
      -2.619
      -1.091
       0.255
       0.953
       0.942
       0.551
       0.207
       0.156
       0.446
       1.059
       2.001
       3.202
       4.356
       4.949
       4.580
       3.329
       1.752
       0.434
      -0.476
      -1.247
      -2.069
      -2.651
      -2.455
      -1.384
      -0.123
       0.346
      -0.363
      -1.653
      -2.495
      -2.346
      -1.535
      -0.820
      -0.688
      -1.089
      -1.709
      -2.303
      -2.723
      -2.778
      -2.259
      -1.120
       0.435
       2.101
       3.659
       4.990
       5.946
       6.250
       5.568
       3.722
       0.937
      -2.081
      -4.388
      -5.313
      -4.867
      -3.679
      -2.480
      -1.565
      -0.733
       0.293
       1.349
       1.748
       0.728
      -1.876
      -5.285
      -8.073
      -8.956
      -7.512
      -4.317
      -0.454
       3.132
       5.949
       7.896
       9.045
       9.496
       9.309
       8.462
       6.866
       4.447
       1.320
      -2.076
      -4.992
      -6.623
      -6.495
      -4.723
      -1.957
       0.930
       3.158
       4.202
       3.816
       2.060
      -0.681
      -3.742
      -6.345
      -7.791
      -7.616
      -5.708
      -2.404
       1.487
       4.848
       6.621
       6.296
       4.250
       1.661
      -0.104
      -0.290
       0.838
       2.284
       3.076
       2.860
       1.932
       0.825
      -0.086
      -0.655
      -0.807
      -0.508
       0.046
       0.309
      -0.333
      -1.998
      -4.037
      -5.408
      -5.471
      -4.441
      -3.048
      -1.749
      -0.365
       1.448
       3.432
       4.610
       4.080
       1.969
      -0.477
      -1.836
      -1.649
      -0.680
      -0.111
      -0.485
      -1.345
      -1.775
      -1.205
       0.234
       1.956
       3.349
       3.988
       3.600
       2.060
      -0.450
      -3.322
      -5.716
      -6.989
      -7.011
      -6.065
      -4.498
      -2.520
      -0.319
       1.719
       3.068
       3.396
       2.865
       2.047
       1.476
       1.254
       1.053
       0.523
      -0.280
      -0.846
      -0.604
       0.587
       2.273
       3.731
       4.497
       4.629
       4.479
       4.266
       3.899
       3.192
       2.180
       1.131
       0.255
      -0.508
      -1.374
      -2.384
      -3.265
      -3.648
      -3.430
      -2.898
      -2.507
      -2.517
      -2.831
      -3.144
      -3.181
      -2.788
      -1.857
      -0.284
       1.903
       4.370
       6.471
       7.484
       6.940
       4.851
       1.726
      -1.621
      -4.350
      -5.836
      -5.821
      -4.463
      -2.304
      -0.116
       1.383
       1.829
       1.377
       0.597
       0.130
       0.300
       0.954
       1.635
       1.940
       1.754
       1.188
       0.358
      -0.706
      -1.971
      -3.252
      -4.200
      -4.415
      -3.618
      -1.840
       0.470
       2.582
       3.868
       4.180
       3.861
       3.356
       2.777
       1.861
       0.357
      -1.566
      -3.316
      -4.302
      -4.378
      -3.899
      -3.354
      -2.930
      -2.392
      -1.400
       0.017
       1.310
       1.781
       1.226
       0.255
      -0.084
       0.902
       3.022
       5.377
       7.022
       7.525
       6.997
       5.750
       4.012
       1.933
      -0.257
      -2.220
      -3.661
      -4.510
      -4.934
      -5.166
      -5.286
      -5.159
      -4.614
      -3.743
      -2.997
      -2.911
      -3.623
      -4.630
      -5.068
      -4.329
      -2.502
      -0.272
       1.605
       2.772
       3.337
       3.575
       3.606
       3.368
       2.856
       2.293
       2.036
       2.289
       2.930
       3.631
       4.121
       4.350
       4.396
       4.254
       3.709
       2.446
       0.309
      -2.482
      -5.354
      -7.611
      -8.711
      -8.443
      -6.971
      -4.756
      -2.384
      -0.338
       1.153
       2.119
       2.742
       3.220
       3.671
       4.068
       4.225
       3.892
       2.951
       1.582
       0.230
      -0.665
      -0.960
      -0.898
      -0.917
      -1.335
      -2.148
      -3.042
      -3.579
      -3.452
      -2.618
      -1.244
       0.454
       2.295
       4.073
       5.506
       6.294
       6.265
       5.464
       4.143
       2.705
       1.633
       1.328
       1.889
       2.982
       3.997
       4.391
       3.969
       2.872
       1.357
      -0.383
      -2.195
      -3.829
      -4.927
      -5.268
      -5.035
      -4.817
      -5.231
      -6.502
      -8.334
     -10.148
     -11.428
     -11.867
     -11.300
      -9.619
      -6.864
      -3.418
      -0.025
       2.514
       3.813
       4.154
       4.278
       4.846
       5.965
       7.149
       7.673
       7.078
       5.468
       3.453
       1.793
       0.997
       1.116
       1.801
       2.506
       2.715
       2.169
       1.044
      -0.062
      -0.470
       0.097
       1.259
       2.202
       2.195
       1.031
      -0.912
      -2.969
      -4.550
      -5.326
      -5.193
      -4.162
      -2.347
      -0.005
       2.456
       4.583
       6.028
       6.642
       6.473
       5.694
       4.516
       3.117
       1.614
       0.062
      -1.522
      -3.091
      -4.509
      -5.570
      -6.129
      -6.239
      -6.107
      -5.884
      -5.498
      -4.759
      -3.651
      -2.465
      -1.595
      -1.177
      -0.935
      -0.430
       0.562
       1.871
       3.101
       3.929
       4.250
       4.096
       3.519
       2.605
       1.599
       0.925
       0.979
       1.843
       3.198
       4.516
       5.364
       5.543
       5.044
       3.969
       2.495
       0.863
      -0.700
      -2.035
      -3.046
      -3.637
      -3.711
      -3.239
      -2.318
      -1.149
       0.055
       1.145
       2.018
       2.529
       2.450
       1.577
      -0.024
      -1.866
      -3.214
      -3.528
      -2.826
      -1.647
      -0.633
      -0.115
      -0.053
      -0.273
      -0.710
      -1.402
      -2.323
      -3.265
      -3.923
      -4.073
      -3.684
      -2.887
      -1.892
      -0.915
      -0.128
       0.387
       0.645
       0.681
       0.453
      -0.149
      -1.149
      -2.334
      -3.282
      -3.605
      -3.186
      -2.225
      -1.067
       0.032
       1.025
       2.037
       3.195
       4.460
       5.580
       6.196
       6.038
       5.101
       3.682
       2.224
       1.071
       0.307
      -0.214
      -0.686
      -1.155
      -1.463
      -1.369
      -0.783
       0.082
       0.797
       1.022
       0.778
       0.433
       0.407
       0.859
       1.596
       2.235
       2.469
       2.239
       1.736
       1.236
       0.894
       0.684
       0.491
       0.261
       0.045
      -0.065
      -0.040
       0.033
      -0.010
      -0.310
      -0.868
      -1.534
      -2.103
      -2.447
      -2.569
      -2.518
      -2.277
      -1.754
      -0.919
       0.069
       0.890
       1.255
       1.099
       0.579
      -0.075
      -0.686
      -1.138
      -1.337
      -1.259
      -1.016
      -0.826
      -0.837
      -0.989
      -1.052
      -0.829
      -0.325
       0.249
       0.608
       0.560
       0.122
      -0.510
      -1.108
      -1.545
      -1.791
      -1.794
      -1.452
      -0.751
       0.090
       0.709
       0.884
       0.719
       0.530
       0.565
       0.834
       1.180
       1.443
       1.566
       1.573
       1.490
       1.287
       0.899
       0.300
      -0.435
      -1.165
      -1.757
      -2.113
      -2.134
      -1.707
      -0.802
       0.391
       1.451
       1.916
       1.568
       0.567
      -0.660
      -1.680
      -2.249
      -2.333
      -2.010
      -1.399
      -0.632
       0.153
       0.856
       1.445
       1.924
       2.259
       2.326
       1.939
       0.971
      -0.485
      -2.064
      -3.266
      -3.696
      -3.243
      -2.066
      -0.442
       1.359
       3.090
       4.483
       5.260
       5.262
       4.577
       3.527
       2.497
       1.726
       1.222
       0.836
       0.412
      -0.108
      -0.689
      -1.252
      -1.703
      -1.917
      -1.755
      -1.162
      -0.296
       0.494
       0.857
       0.668
       0.095
      -0.561
      -1.073
      -1.365
      -1.429
      -1.231
      -0.772
      -0.208
       0.162
       0.105
      -0.324
      -0.803
      -1.008
      -0.876
      -0.603
      -0.388
      -0.226
       0.021
       0.369
       0.580
       0.358
      -0.300
      -0.984
      -1.158
      -0.617
       0.325
       1.100
       1.362
       1.227
       1.100
       1.276
       1.687
       1.978
       1.835
       1.245
       0.472
      -0.216
      -0.785
      -1.407
      -2.185
      -2.939
      -3.273
      -2.889
      -1.858
      -0.627
       0.269
       0.535
       0.259
      -0.211
      -0.515
      -0.479
      -0.158
       0.267
       0.635
       0.900
       1.120
       1.377
       1.679
       1.930
       1.978
       1.713
       1.153
       0.449
      -0.195
      -0.648
      -0.924
      -1.138
      -1.374
      -1.591
      -1.682
      -1.608
      -1.461
      -1.377
      -1.402
      -1.460
      -1.440
      -1.276
      -0.938
      -0.376
       0.454
       1.490
       2.521
       3.287
       3.652
       3.679
       3.541
       3.363
       3.154
       2.867
       2.481
       2.030
       1.559
       1.077
       0.554
      -0.052
      -0.754
      -1.514
      -2.249
      -2.882
      -3.404
      -3.871
      -4.314
      -4.639
      -4.632
      -4.091
      -2.997
      -1.560
      -0.125
       1.010
       1.730
       2.092
       2.218
       2.187
       2.012
       1.719
       1.408
       1.235
       1.320
       1.651
       2.067
       2.343
       2.311
       1.935
       1.314
       0.597
      -0.095
      -0.716
      -1.266
      -1.728
      -2.037
      -2.133
      -2.031
      -1.841
      -1.691
      -1.640
      -1.655
      -1.656
      -1.549
      -1.249
      -0.695
       0.092
       0.975
       1.731
       2.161
       2.205
       1.977
       1.679
       1.469
       1.365
       1.266
       1.074
       0.772
       0.394
      -0.082
      -0.762
      -1.740
      -2.945
      -4.121
      -4.966
      -5.318
