Origin Time       17/6/2014 17:31:08  UTC
Lat.              32.2 N 
Long.             76.1 E 
Depth (Km)         10.0
Magnitude         4.1
 Region           Kangra-(H.P.)                                                    
 Above details taken from IMD 
    
Station Code      CHM
Station Lat.       32.555  N
Station Long.      76.126  E
Station Height(m)  952.0
Site Class        A   Vs30 between 700 m/sec to 1400 m/sec * 
Record Time       17.06.2014 17:27:23.104 UTC
Sampling Rate     200. Hz
 Record Duration   70.040 Sec.
 Direction         N-S (N positive)
Max. Acceleration      6.928 cm/sec**2
     
  * For reference see Site Classification link of website 
     
 Base Line Corrected and Low Pass Filtered (Cut Off at 35 Hz) Time History
 Acceleration data in cm/sec**2
    
[...]
       0.006
      -0.001
      -0.009
      -0.011
      -0.007
      -0.001
       0.004
       0.004
       0.004
       0.006
       0.011
       0.017
       0.022
       0.023
       0.022
       0.017
       0.012
       0.006
       0.003
       0.003
       0.006
       0.009
       0.009
       0.007
       0.006
       0.007
       0.009
       0.010
       0.009
       0.006
       0.003
       0.001
       0.002
       0.005
       0.007
       0.006
       0.002
      -0.001
       0.000
       0.005
       0.009
       0.011
       0.010
       0.007
       0.006
       0.007
       0.009
       0.010
       0.012
       0.013
       0.013
       0.011
       0.007
       0.002
       0.000
       0.003
       0.010
       0.015
       0.013
       0.005
      -0.004
      -0.005
       0.000
       0.006
       0.006
       0.001
      -0.002
      -0.002
      -0.003
      -0.006
      -0.011
      -0.012
      -0.008
      -0.002
       0.001
       0.000
      -0.003
      -0.003
       0.001
       0.007
       0.007
       0.001
      -0.004
      -0.002
       0.009
       0.020
       0.020
       0.004
      -0.019
      -0.033
      -0.032
      -0.021
      -0.009
      -0.003
      -0.003
      -0.002
       0.001
       0.007
       0.011
       0.006
      -0.013
      -0.040
      -0.062
      -0.063
      -0.039
      -0.002
       0.028
       0.039
       0.032
       0.024
       0.026
       0.041
       0.059
       0.065
       0.052
       0.031
       0.017
       0.016
       0.014
      -0.004
      -0.031
      -0.048
      -0.043
      -0.029
      -0.028
      -0.046
      -0.064
      -0.059
      -0.031
       0.004
       0.035
       0.074
       0.140
       0.219
       0.258
       0.206
       0.063
      -0.102
      -0.202
      -0.193
      -0.112
      -0.042
      -0.039
      -0.087
      -0.114
      -0.070
       0.020
       0.080
       0.059
      -0.012
      -0.040
       0.034
       0.170
       0.256
       0.210
       0.050
      -0.126
      -0.214
      -0.177
      -0.057
       0.053
       0.079
       0.014
      -0.077
      -0.114
      -0.073
       0.005
       0.062
       0.080
       0.079
       0.070
       0.043
      -0.017
      -0.092
      -0.144
      -0.146
      -0.109
      -0.060
      -0.007
       0.063
       0.153
       0.216
       0.182
       0.032
      -0.160
      -0.268
      -0.221
      -0.058
       0.109
       0.194
       0.185
       0.132
       0.093
       0.092
       0.106
       0.096
       0.045
      -0.031
      -0.107
      -0.179
      -0.253
      -0.313
      -0.311
      -0.195
       0.024
       0.249
       0.346
       0.249
       0.032
      -0.143
      -0.160
      -0.044
       0.077
       0.097
       0.031
      -0.014
       0.039
       0.156
       0.224
       0.156
      -0.027
      -0.207
      -0.262
      -0.168
      -0.017
       0.057
       0.006
      -0.093
      -0.113
      -0.003
       0.163
       0.254
       0.198
       0.039
      -0.112
      -0.179
      -0.164
      -0.115
      -0.068
      -0.021
       0.034
       0.084
       0.094
       0.051
      -0.021
      -0.076
      -0.085
      -0.051
       0.018
       0.112
       0.212
       0.288
       0.308
       0.251
       0.114
      -0.068
      -0.206
      -0.216
      -0.111
      -0.022
      -0.084
      -0.285
      -0.460
      -0.439
      -0.219
       0.022
       0.088
      -0.051
      -0.235
      -0.275
      -0.127
       0.093
       0.228
       0.223
       0.154
       0.151
       0.274
       0.444
       0.501
       0.359
       0.101
      -0.079
      -0.068
       0.050
       0.072
      -0.117
      -0.413
      -0.587
      -0.492
      -0.193
       0.093
       0.182
       0.061
      -0.134
      -0.253
      -0.256
      -0.212
      -0.211
      -0.268
      -0.313
      -0.267
      -0.115
       0.076
       0.210
       0.241
       0.204
       0.190
       0.280
       0.487
       0.750
       0.973
       1.050
       0.905
       0.539
       0.054
      -0.387
      -0.658
      -0.737
      -0.692
      -0.610
      -0.536
      -0.472
      -0.419
      -0.400
      -0.435
      -0.491
      -0.473
      -0.278
       0.110
       0.583
       0.952
       1.066
       0.902
       0.561
       0.195
      -0.071
      -0.170
      -0.098
       0.075
       0.228
       0.239
       0.070
      -0.206
      -0.456
      -0.582
      -0.557
      -0.419
      -0.225
      -0.027
       0.123
       0.168
       0.057
      -0.198
      -0.486
      -0.640
      -0.550
      -0.239
       0.160
       0.500
       0.681
       0.657
       0.436
       0.111
      -0.139
      -0.139
       0.139
       0.529
       0.775
       0.701
       0.314
      -0.230
      -0.734
      -1.050
      -1.105
      -0.891
      -0.463
       0.064
       0.550
       0.858
       0.890
       0.618
       0.136
      -0.335
      -0.562
      -0.461
      -0.168
       0.086
       0.171
       0.139
       0.128
       0.196
       0.266
       0.219
       0.026
      -0.209
      -0.337
      -0.296
      -0.160
      -0.077
      -0.140
      -0.290
      -0.357
      -0.207
       0.129
       0.452
       0.546
       0.360
       0.042
      -0.204
      -0.286
      -0.250
      -0.163
      -0.039
       0.126
       0.275
       0.314
       0.211
       0.055
      -0.011
       0.076
       0.242
       0.347
       0.313
       0.189
       0.097
       0.105
       0.159
       0.137
      -0.016
      -0.201
      -0.231
      -0.010
       0.357
       0.617
       0.553
       0.136
      -0.461
      -0.986
      -1.262
      -1.251
      -1.034
      -0.728
      -0.416
      -0.131
       0.117
       0.316
       0.452
       0.514
       0.512
       0.471
       0.421
       0.384
       0.362
       0.335
       0.275
       0.154
      -0.021
      -0.181
      -0.211
      -0.037
       0.287
       0.589
       0.696
       0.553
       0.237
      -0.121
      -0.415
      -0.588
      -0.611
      -0.479
      -0.241
       0.001
       0.129
       0.078
      -0.136
      -0.432
      -0.701
      -0.847
      -0.821
      -0.643
      -0.391
      -0.164
      -0.031
      -0.004
      -0.033
      -0.018
       0.141
       0.459
       0.828
       1.073
       1.073
       0.846
       0.510
       0.193
      -0.030
      -0.135
      -0.119
       0.002
       0.165
       0.273
       0.258
       0.136
      -0.011
      -0.122
      -0.202
      -0.291
      -0.398
      -0.471
      -0.449
      -0.326
      -0.173
      -0.081
      -0.088
      -0.150
      -0.180
      -0.113
       0.041
       0.191
       0.234
       0.147
       0.018
      -0.045
      -0.029
      -0.018
      -0.082
      -0.182
      -0.207
      -0.086
       0.134
       0.320
       0.376
       0.335
       0.315
       0.387
       0.504
       0.539
       0.395
       0.084
      -0.290
      -0.579
      -0.666
      -0.510
      -0.164
       0.237
       0.532
       0.626
       0.534
       0.355
       0.178
       0.032
      -0.116
      -0.311
      -0.559
      -0.795
      -0.894
      -0.741
      -0.322
       0.224
       0.659
       0.768
       0.494
      -0.011
      -0.466
      -0.634
      -0.481
      -0.182
       0.037
       0.091
       0.088
       0.186
       0.415
       0.631
       0.642
       0.377
      -0.049
      -0.428
      -0.611
      -0.604
      -0.532
      -0.513
      -0.555
      -0.551
      -0.371
       0.017
       0.493
       0.843
       0.900
       0.671
       0.327
       0.070
      -0.021
      -0.024
      -0.055
      -0.135
      -0.190
      -0.162
      -0.082
      -0.029
      -0.026
      -0.020
       0.030
       0.089
       0.088
       0.020
      -0.043
      -0.038
       0.025
       0.092
       0.136
       0.158
       0.150
       0.079
      -0.074
      -0.266
      -0.407
      -0.410
      -0.248
       0.018
       0.262
       0.351
       0.211
      -0.117
      -0.470
      -0.645
      -0.522
      -0.147
       0.289
       0.586
       0.655
       0.538
       0.339
       0.136
      -0.036
      -0.158
      -0.200
      -0.148
      -0.027
       0.102
       0.187
       0.222
       0.235
       0.239
       0.210
       0.117
      -0.026
      -0.144
      -0.176
      -0.133
      -0.089
      -0.104
      -0.161
      -0.189
      -0.132
       0.000
       0.147
       0.246
       0.255
       0.158
      -0.038
      -0.274
      -0.447
      -0.477
      -0.373
      -0.221
      -0.113
      -0.082
      -0.104
      -0.131
      -0.117
      -0.036
       0.112
       0.285
       0.404
       0.396
       0.254
       0.052
      -0.100
      -0.145
      -0.104
      -0.050
      -0.034
      -0.056
      -0.074
      -0.058
      -0.025
      -0.021
      -0.085
      -0.199
      -0.299
      -0.317
      -0.223
      -0.038
       0.175
       0.336
       0.379
       0.294
       0.148
       0.043
       0.034
       0.093
       0.139
       0.115
       0.019
      -0.105
      -0.198
      -0.212
      -0.136
      -0.024
       0.030
      -0.041
      -0.194
      -0.287
      -0.190
       0.098
       0.423
       0.580
       0.458
       0.125
      -0.214
      -0.355
      -0.224
       0.079
       0.357
       0.447
       0.311
       0.047
      -0.186
      -0.275
      -0.205
      -0.058
       0.063
       0.086
      -0.011
      -0.209
      -0.456
      -0.674
      -0.774
      -0.688
      -0.401
       0.032
       0.492
       0.842
       0.980
       0.871
       0.546
       0.110
      -0.283
      -0.485
      -0.449
      -0.272
      -0.123
      -0.125
      -0.274
      -0.462
      -0.568
      -0.539
      -0.409
      -0.243
      -0.068
       0.154
       0.470
       0.855
       1.174
       1.247
       0.984
       0.478
      -0.039
      -0.366
      -0.467
      -0.462
      -0.491
      -0.601
      -0.741
      -0.810
      -0.722
      -0.448
      -0.056
       0.309
       0.508
       0.517
       0.440
       0.396
       0.413
       0.421
       0.357
       0.240
       0.138
       0.085
       0.043
      -0.052
      -0.223
      -0.430
      -0.591
      -0.636
      -0.548
      -0.374
      -0.196
      -0.075
      -0.003
       0.089
       0.265
       0.502
       0.681
       0.678
       0.478
       0.197
      -0.016
      -0.103
      -0.116
      -0.132
      -0.160
      -0.144
      -0.049
       0.078
       0.136
       0.074
      -0.061
      -0.155
      -0.125
       0.017
       0.164
       0.184
       0.005
      -0.322
      -0.637
      -0.754
      -0.588
      -0.225
       0.128
       0.294
       0.250
       0.123
       0.059
       0.094
       0.137
       0.100
       0.004
      -0.027
       0.110
       0.388
       0.656
       0.754
       0.639
       0.410
       0.214
       0.132
       0.124
       0.086
      -0.061
      -0.308
      -0.566
      -0.721
      -0.701
      -0.513
      -0.235
       0.034
       0.223
       0.312
       0.299
       0.172
      -0.059
      -0.320
      -0.485
      -0.458
      -0.253
       0.010
       0.201
       0.278
       0.280
       0.258
       0.220
       0.152
       0.075
       0.049
       0.112
       0.213
       0.249
       0.145
      -0.074
      -0.309
      -0.456
      -0.473
      -0.384
      -0.238
      -0.080
       0.049
       0.108
       0.065
      -0.070
      -0.235
      -0.355
      -0.379
      -0.303
      -0.162
      -0.018
       0.070
       0.086
       0.079
       0.133
       0.304
       0.570
       0.829
       0.949
       0.849
       0.544
       0.147
      -0.196
      -0.382
      -0.404
      -0.338
      -0.276
      -0.257
      -0.236
      -0.137
       0.062
       0.276
       0.367
       0.239
      -0.091
      -0.505
      -0.848
      -1.008
      -0.962
      -0.785
      -0.599
      -0.504
      -0.487
      -0.418
      -0.148
       0.344
       0.909
       1.345
       1.564
       1.637
       1.685
       1.722
       1.618
       1.214
       0.478
      -0.442
      -1.285
      -1.806
      -1.875
      -1.521
      -0.897
      -0.202
       0.391
       0.758
       0.828
       0.597
       0.150
      -0.331
      -0.641
      -0.669
      -0.463
      -0.186
       0.006
       0.047
      -0.052
      -0.250
      -0.508
      -0.782
      -0.988
      -1.014
      -0.776
      -0.279
       0.376
       1.045
       1.591
       1.915
       1.951
       1.669
       1.076
       0.246
      -0.659
      -1.399
      -1.747
      -1.589
      -0.980
      -0.107
       0.770
       1.395
       1.588
       1.331
       0.795
       0.266
      -0.027
      -0.072
      -0.072
      -0.272
      -0.764
      -1.431
      -2.039
      -2.369
      -2.303
      -1.846
      -1.115
      -0.287
       0.483
       1.132
       1.680
       2.159
       2.521
       2.596
       2.155
       1.060
      -0.565
      -2.274
      -3.443
      -3.599
      -2.702
      -1.158
       0.468
       1.796
       2.740
       3.343
       3.562
       3.256
       2.367
       1.077
      -0.267
      -1.398
      -2.315
      -3.209
      -4.193
      -5.069
      -5.365
      -4.610
      -2.683
       0.050
       2.897
       5.191
       6.557
       6.928
       6.373
       4.973
       2.862
       0.350
      -2.067
      -3.864
      -4.704
      -4.569
      -3.730
      -2.638
      -1.737
      -1.240
      -1.001
      -0.609
       0.299
       1.738
       3.291
       4.295
       4.183
       2.781
       0.436
      -2.122
      -4.103
      -5.021
      -4.876
      -4.040
      -2.929
      -1.732
      -0.396
       1.141
       2.725
       3.989
       4.583
       4.443
       3.853
       3.249
       2.880
       2.631
       2.132
       1.102
      -0.363
      -1.781
      -2.583
      -2.505
      -1.773
      -0.936
      -0.478
      -0.541
      -0.962
      -1.538
      -2.221
      -3.051
      -3.923
      -4.457
      -4.176
      -2.864
      -0.790
       1.418
       3.155
       4.160
       4.525
       4.467
       4.103
       3.424
       2.431
       1.265
       0.202
      -0.498
      -0.772
      -0.801
      -0.859
      -1.089
      -1.392
      -1.539
      -1.369
      -0.895
      -0.232
       0.533
       1.344
       2.063
       2.395
       2.009
       0.769
      -1.124
      -3.198
      -4.905
      -5.805
      -5.675
      -4.557
      -2.774
      -0.843
       0.719
       1.624
       1.915
       1.876
       1.807
       1.872
       2.116
       2.578
       3.294
       4.175
       4.890
       4.956
       4.021
       2.135
      -0.202
      -2.265
      -3.467
      -3.622
      -2.981
      -2.031
      -1.216
      -0.746
      -0.619
      -0.756
      -1.103
      -1.592
      -2.061
      -2.255
      -1.965
      -1.186
      -0.141
       0.843
       1.492
       1.651
       1.285
       0.489
      -0.457
      -1.124
      -1.124
      -0.350
       0.923
       2.199
       3.050
       3.318
       3.078
       2.478
       1.645
       0.693
      -0.242
      -1.046
      -1.691
      -2.219
      -2.655
      -2.955
      -3.056
      -2.961
      -2.735
      -2.412
      -1.931
      -1.212
      -0.284
       0.675
       1.447
       1.916
       2.115
       2.153
       2.116
       2.047
       1.980
       1.955
       1.987
       2.026
       1.985
       1.819
       1.576
       1.368
       1.277
       1.252
       1.093
       0.555
      -0.468
      -1.807
      -3.078
      -3.901
      -4.139
      -3.944
      -3.609
      -3.337
      -3.141
      -2.880
      -2.394
      -1.604
      -0.554
       0.606
       1.662
       2.389
       2.600
       2.218
       1.355
       0.353
      -0.298
      -0.169
       0.841
       2.373
       3.738
       4.289
       3.799
       2.586
       1.282
       0.427
       0.160
       0.196
       0.095
      -0.395
      -1.169
      -1.882
      -2.249
      -2.257
      -2.139
      -2.136
      -2.276
      -2.360
      -2.155
      -1.617
      -0.953
      -0.465
      -0.314
      -0.385
      -0.363
       0.053
       0.933
       2.055
       3.021
       3.475
       3.276
       2.535
       1.533
       0.601
      -0.001
      -0.178
      -0.038
       0.190
       0.305
       0.274
       0.203
       0.180
       0.152
      -0.042
      -0.505
      -1.159
      -1.774
      -2.106
      -2.042
      -1.659
      -1.178
      -0.839
      -0.760
      -0.865
      -0.956
      -0.879
      -0.662
      -0.492
      -0.521
      -0.669
      -0.613
      -0.035
       1.083
       2.368
       3.282
       3.493
       3.067
       2.358
       1.711
       1.244
       0.830
       0.263
      -0.568
      -1.586
      -2.554
      -3.184
      -3.290
      -2.885
      -2.164
      -1.366
      -0.623
       0.085
       0.832
       1.588
       2.160
       2.292
       1.880
       1.119
       0.433
       0.208
       0.509
       1.011
       1.229
       0.871
       0.046
      -0.836
      -1.368
      -1.392
      -1.025
      -0.500
       0.008
       0.440
       0.796
       1.046
       1.100
       0.846
       0.219
      -0.730
      -1.808
      -2.713
      -3.146
      -2.946
      -2.187
      -1.135
      -0.101
       0.706
       1.214
       1.444
       1.463
       1.393
       1.394
       1.575
       1.870
       2.056
       1.915
       1.407
       0.694
      -0.001
      -0.528
      -0.838
      -0.916
      -0.736
      -0.296
       0.305
       0.841
       1.036
       0.710
      -0.089
      -1.056
      -1.766
      -1.922
      -1.565
      -1.050
      -0.767
      -0.820
      -0.951
      -0.809
      -0.299
       0.324
       0.696
       0.664
       0.398
       0.196
       0.214
       0.347
       0.376
       0.199
      -0.079
      -0.266
      -0.267
      -0.146
      -0.027
       0.037
       0.097
       0.204
       0.302
       0.231
      -0.146
      -0.794
      -1.471
      -1.851
      -1.719
      -1.092
      -0.199
       0.654
       1.225
       1.429
       1.336
       1.118
       0.955
       0.954
       1.101
       1.279
       1.334
       1.158
       0.751
       0.213
      -0.313
      -0.728
      -1.034
      -1.305
      -1.588
      -1.819
      -1.824
      -1.415
      -0.536
       0.627
       1.661
       2.105
       1.710
       0.627
      -0.656
      -1.589
      -1.870
      -1.537
      -0.836
      -0.005
       0.813
       1.508
       1.920
       1.867
       1.284
       0.356
      -0.516
      -0.923
      -0.702
      -0.037
       0.661
       1.011
       0.866
       0.347
      -0.281
      -0.763
      -0.952
      -0.842
      -0.552
      -0.253
      -0.062
       0.028
       0.112
       0.246
       0.366
       0.351
       0.165
      -0.062
      -0.115
       0.119
       0.537
       0.842
       0.733
       0.114
      -0.805
      -1.609
      -1.928
      -1.658
      -1.000
      -0.300
       0.175
