Origin Time       13/07/2013 17:49:33 UTC
Lat.              32.2 N 
Long.             76.3 E 
Depth (Km)         10.0
Magnitude         4.5
 Region           Kangra-HIMACHAL-PRADESH                                          
 Above details taken from IMD 
    
Station Code      CHM
Station Lat.       32.555  N
Station Long.      76.126  E
Station Height(m)  952.0
Site Class        A   Vs30 between 700 m/sec to 1400 m/sec * 
Record Time       13.07.2013 17:49:21.719 UTC
Sampling Rate     200. Hz
 Record Duration   66.895 Sec.
 Direction         N-S (N positive)
Max. Acceleration      4.944 cm/sec**2
     
  * For reference see Site Classification link of website 
     
 Base Line Corrected and Low Pass Filtered (Cut Off at 35 Hz) Time History
 Acceleration data in cm/sec**2
    
[...]
      -0.010
      -0.003
       0.005
       0.009
       0.011
       0.011
       0.009
       0.008
       0.010
       0.013
       0.012
       0.006
      -0.004
      -0.010
      -0.010
      -0.006
      -0.004
      -0.005
      -0.006
      -0.001
       0.012
       0.026
       0.032
       0.023
       0.005
      -0.009
      -0.011
      -0.003
       0.008
       0.011
       0.007
       0.000
      -0.003
      -0.001
       0.005
       0.012
       0.016
       0.019
       0.020
       0.019
       0.016
       0.014
       0.013
       0.011
       0.001
      -0.019
      -0.046
      -0.063
      -0.053
      -0.017
       0.022
       0.030
      -0.005
      -0.049
      -0.046
       0.030
       0.140
       0.206
       0.173
       0.062
      -0.046
      -0.078
      -0.033
       0.019
      -0.001
      -0.092
      -0.164
      -0.116
       0.054
       0.224
       0.249
       0.096
      -0.120
      -0.231
      -0.159
       0.011
       0.107
       0.024
      -0.174
      -0.299
      -0.211
       0.041
       0.263
       0.301
       0.179
       0.057
       0.064
       0.169
       0.232
       0.141
      -0.073
      -0.270
      -0.319
      -0.204
      -0.029
       0.067
       0.015
      -0.146
      -0.295
      -0.316
      -0.176
       0.050
       0.236
       0.305
       0.268
       0.179
       0.068
      -0.058
      -0.168
      -0.199
      -0.121
       0.012
       0.099
       0.084
      -0.002
      -0.070
      -0.056
       0.029
       0.101
       0.083
      -0.010
      -0.076
      -0.027
       0.102
       0.175
       0.088
      -0.112
      -0.255
      -0.196
       0.050
       0.304
       0.365
       0.171
      -0.144
      -0.362
      -0.353
      -0.156
       0.075
       0.215
       0.243
       0.224
       0.208
       0.167
       0.038
      -0.174
      -0.343
      -0.325
      -0.109
       0.157
       0.291
       0.236
       0.076
      -0.062
      -0.116
      -0.108
      -0.085
      -0.064
      -0.022
       0.057
       0.146
       0.181
       0.119
      -0.018
      -0.151
      -0.197
      -0.133
      -0.008
       0.096
       0.125
       0.083
       0.010
      -0.057
      -0.104
      -0.129
      -0.124
      -0.079
       0.005
       0.101
       0.160
       0.147
       0.061
      -0.062
      -0.161
      -0.176
      -0.084
       0.070
       0.187
       0.183
       0.055
      -0.119
      -0.235
      -0.247
      -0.180
      -0.078
       0.041
       0.179
       0.300
       0.313
       0.141
      -0.173
      -0.448
      -0.497
      -0.287
       0.033
       0.249
       0.251
       0.095
      -0.064
      -0.115
      -0.065
       0.002
       0.040
       0.079
       0.161
       0.255
       0.267
       0.134
      -0.108
      -0.346
      -0.472
      -0.435
      -0.250
       0.011
       0.243
       0.360
       0.339
       0.220
       0.069
      -0.065
      -0.142
      -0.134
      -0.040
       0.088
       0.165
       0.131
      -0.010
      -0.190
      -0.314
      -0.303
      -0.140
       0.120
       0.362
       0.468
       0.392
       0.202
       0.038
       0.013
       0.125
       0.277
       0.354
       0.307
       0.159
      -0.036
      -0.254
      -0.493
      -0.715
      -0.818
      -0.691
      -0.330
       0.117
       0.438
       0.509
       0.378
       0.199
       0.089
       0.068
       0.100
       0.153
       0.206
       0.209
       0.096
      -0.143
      -0.407
      -0.535
      -0.437
      -0.184
       0.036
       0.065
      -0.106
      -0.331
      -0.418
      -0.267
       0.081
       0.489
       0.804
       0.903
       0.722
       0.301
      -0.203
      -0.576
      -0.680
      -0.533
      -0.287
      -0.105
      -0.054
      -0.089
      -0.113
      -0.052
       0.099
       0.280
       0.400
       0.395
       0.285
       0.168
       0.140
       0.197
       0.235
       0.145
      -0.074
      -0.316
      -0.453
      -0.432
      -0.314
      -0.226
      -0.263
      -0.391
      -0.445
      -0.267
       0.139
       0.573
       0.777
       0.645
       0.300
      -0.010
      -0.108
      -0.003
       0.157
       0.226
       0.163
       0.018
      -0.140
      -0.279
      -0.383
      -0.429
      -0.382
      -0.233
      -0.033
       0.133
       0.203
       0.176
       0.101
       0.026
      -0.030
      -0.057
      -0.030
       0.066
       0.188
       0.227
       0.087
      -0.212
      -0.510
      -0.602
      -0.384
       0.054
       0.484
       0.685
       0.587
       0.299
       0.022
      -0.093
      -0.035
       0.074
       0.091
      -0.034
      -0.215
      -0.310
      -0.257
      -0.134
      -0.086
      -0.170
      -0.282
      -0.244
       0.026
       0.402
       0.621
       0.491
       0.064
      -0.395
      -0.593
      -0.430
      -0.056
       0.244
       0.268
       0.042
      -0.205
      -0.243
      -0.030
       0.255
       0.378
       0.263
       0.052
      -0.029
       0.120
       0.385
       0.527
       0.386
       0.007
      -0.397
      -0.621
      -0.611
      -0.486
      -0.406
      -0.433
      -0.484
      -0.419
      -0.175
       0.160
       0.399
       0.401
       0.189
      -0.059
      -0.145
      -0.010
       0.218
       0.344
       0.290
       0.161
       0.119
       0.204
       0.285
       0.199
      -0.070
      -0.349
      -0.411
      -0.179
       0.203
       0.472
       0.451
       0.183
      -0.116
      -0.214
      -0.034
       0.304
       0.554
       0.517
       0.189
      -0.226
      -0.468
      -0.421
      -0.198
      -0.015
      -0.002
      -0.110
      -0.179
      -0.097
       0.096
       0.233
       0.174
      -0.068
      -0.329
      -0.414
      -0.247
       0.080
       0.363
       0.426
       0.238
      -0.060
      -0.265
      -0.251
      -0.058
       0.154
       0.229
       0.126
      -0.061
      -0.190
      -0.177
      -0.043
       0.125
       0.244
       0.271
       0.203
       0.061
      -0.104
      -0.232
      -0.285
      -0.267
      -0.211
      -0.130
      -0.017
       0.121
       0.226
       0.224
       0.085
      -0.138
      -0.340
      -0.424
      -0.349
      -0.156
       0.050
       0.150
       0.083
      -0.107
      -0.297
      -0.357
      -0.242
      -0.018
       0.192
       0.293
       0.279
       0.209
       0.155
       0.162
       0.228
       0.300
       0.296
       0.166
      -0.060
      -0.284
      -0.412
      -0.414
      -0.318
      -0.167
       0.008
       0.187
       0.341
       0.435
       0.421
       0.263
      -0.028
      -0.368
      -0.624
      -0.686
      -0.521
      -0.195
       0.158
       0.393
       0.425
       0.280
       0.088
      -0.011
       0.033
       0.146
       0.197
       0.109
      -0.077
      -0.227
      -0.212
      -0.006
       0.288
       0.496
       0.481
       0.235
      -0.104
      -0.325
      -0.293
      -0.062
       0.164
       0.205
       0.053
      -0.136
      -0.196
      -0.097
       0.055
       0.133
       0.103
       0.032
       0.015
       0.080
       0.162
       0.162
       0.045
      -0.111
      -0.179
      -0.098
       0.066
       0.180
       0.161
       0.040
      -0.088
      -0.162
      -0.192
      -0.222
      -0.255
      -0.233
      -0.095
       0.143
       0.360
       0.407
       0.232
      -0.062
      -0.295
      -0.344
      -0.225
      -0.058
       0.033
      -0.007
      -0.150
      -0.317
      -0.414
      -0.379
      -0.219
      -0.025
       0.085
       0.049
      -0.073
      -0.143
      -0.060
       0.142
       0.324
       0.362
       0.251
       0.093
      -0.018
      -0.065
      -0.102
      -0.181
      -0.298
      -0.388
      -0.361
      -0.168
       0.153
       0.473
       0.637
       0.559
       0.287
      -0.027
      -0.223
      -0.244
      -0.149
      -0.049
      -0.008
      -0.030
      -0.083
      -0.132
      -0.138
      -0.076
       0.033
       0.125
       0.144
       0.092
       0.039
       0.065
       0.188
       0.337
       0.399
       0.302
       0.084
      -0.138
      -0.257
      -0.259
      -0.223
      -0.237
      -0.300
      -0.317
      -0.195
       0.045
       0.253
       0.272
       0.082
      -0.179
      -0.325
      -0.282
      -0.131
      -0.020
      -0.011
      -0.045
      -0.021
       0.091
       0.211
       0.220
       0.068
      -0.173
      -0.359
      -0.376
      -0.225
      -0.009
       0.150
       0.207
       0.207
       0.231
       0.318
       0.423
       0.441
       0.283
      -0.039
      -0.399
      -0.630
      -0.642
      -0.467
      -0.220
      -0.019
       0.072
       0.055
      -0.008
      -0.032
       0.044
       0.223
       0.439
       0.593
       0.600
       0.440
       0.173
      -0.098
      -0.285
      -0.357
      -0.334
      -0.237
      -0.080
       0.112
       0.271
       0.306
       0.178
      -0.044
      -0.208
      -0.176
       0.060
       0.357
       0.516
       0.426
       0.139
      -0.176
      -0.376
      -0.429
      -0.403
      -0.376
      -0.360
      -0.305
      -0.170
       0.012
       0.163
       0.224
       0.203
       0.157
       0.131
       0.139
       0.159
       0.161
       0.113
       0.006
      -0.135
      -0.249
      -0.280
      -0.229
      -0.163
      -0.155
      -0.220
      -0.291
      -0.273
      -0.131
       0.065
       0.197
       0.204
       0.143
       0.132
       0.215
       0.314
       0.308
       0.156
      -0.057
      -0.189
      -0.158
      -0.001
       0.164
       0.241
       0.222
       0.168
       0.139
       0.138
       0.127
       0.079
       0.014
      -0.012
       0.034
       0.123
       0.179
       0.141
       0.026
      -0.089
      -0.139
      -0.136
      -0.151
      -0.243
      -0.389
      -0.493
      -0.453
      -0.241
       0.065
       0.329
       0.448
       0.410
       0.278
       0.126
      -0.005
      -0.102
      -0.149
      -0.124
      -0.018
       0.137
       0.270
       0.303
       0.198
      -0.002
      -0.192
      -0.277
      -0.233
      -0.116
       0.002
       0.087
       0.150
       0.200
       0.207
       0.115
      -0.095
      -0.376
      -0.622
      -0.737
      -0.671
      -0.441
      -0.120
       0.184
       0.372
       0.396
       0.289
       0.134
       0.009
      -0.054
      -0.066
      -0.056
      -0.045
      -0.038
      -0.025
      -0.006
       0.007
      -0.007
      -0.051
      -0.106
      -0.140
      -0.123
      -0.053
       0.038
       0.098
       0.090
       0.029
      -0.033
      -0.040
       0.027
       0.149
       0.285
       0.383
       0.398
       0.313
       0.154
      -0.017
      -0.133
      -0.160
      -0.120
      -0.061
      -0.020
       0.000
       0.024
       0.074
       0.154
       0.240
       0.293
       0.282
       0.214
       0.138
       0.110
       0.150
       0.225
       0.275
       0.252
       0.112
      -0.184
      -0.638
      -1.135
      -1.430
      -1.267
      -0.583
       0.388
       1.225
       1.598
       1.474
       1.091
       0.737
       0.519
       0.327
       0.005
      -0.417
      -0.681
      -0.515
       0.055
       0.611
       0.601
      -0.212
      -1.484
      -2.462
      -2.509
      -1.554
      -0.112
       1.147
       1.881
       2.190
       2.310
       2.233
       1.646
       0.263
      -1.765
      -3.772
      -4.925
      -4.733
      -3.317
      -1.261
       0.775
       2.362
       3.335
       3.648
       3.276
       2.276
       0.918
      -0.303
      -0.891
      -0.662
       0.094
       0.777
       0.868
       0.234
      -0.852
      -1.932
      -2.625
      -2.736
      -2.232
      -1.189
       0.226
       1.761
       3.096
       3.909
       3.949
       3.108
       1.486
      -0.561
      -2.477
      -3.713
      -4.008
      -3.513
      -2.648
      -1.760
      -0.891
       0.144
       1.445
       2.752
       3.507
       3.247
       2.019
       0.450
      -0.643
      -0.815
      -0.287
       0.252
       0.179
      -0.618
      -1.712
      -2.482
      -2.527
      -1.848
      -0.734
       0.467
       1.505
       2.248
       2.618
       2.523
       1.880
       0.729
      -0.666
      -1.839
      -2.339
      -1.990
      -1.008
       0.129
       0.941
       1.164
       0.849
       0.311
      -0.014
       0.187
       0.902
       1.751
       2.212
       1.951
       1.022
      -0.221
      -1.389
      -2.258
      -2.750
      -2.801
      -2.322
      -1.314
      -0.010
       1.146
       1.697
       1.425
       0.479
      -0.691
      -1.528
      -1.609
      -0.829
       0.545
       1.982
       2.921
       3.020
       2.266
       0.922
      -0.631
      -2.040
      -3.054
      -3.522
      -3.350
      -2.488
      -0.980
       0.912
       2.668
       3.676
       3.582
       2.558
       1.223
       0.242
      -0.097
       0.028
       0.225
       0.212
      -0.072
      -0.585
      -1.313
      -2.227
      -3.163
      -3.811
      -3.862
      -3.190
      -1.908
      -0.271
       1.460
       3.067
       4.321
       4.944
       4.708
       3.641
       2.123
       0.719
      -0.162
      -0.508
      -0.657
      -1.021
      -1.809
      -2.888
      -3.850
      -4.223
      -3.698
      -2.289
      -0.328
       1.656
       3.127
       3.707
       3.297
       2.117
       0.637
      -0.583
      -1.116
      -0.828
       0.097
       1.250
       2.160
       2.425
       1.827
       0.399
      -1.528
      -3.375
      -4.501
      -4.460
      -3.221
      -1.190
       0.964
       2.580
       3.233
       2.845
       1.678
       0.230
      -0.930
      -1.376
      -1.009
      -0.093
       0.893
       1.499
       1.499
       0.935
       0.040
      -0.880
      -1.541
      -1.760
      -1.508
      -0.915
      -0.211
       0.380
       0.730
       0.822
       0.714
       0.486
       0.234
       0.071
       0.109
       0.385
       0.788
       1.067
       0.963
       0.396
      -0.449
      -1.213
      -1.583
      -1.476
      -1.071
      -0.683
      -0.569
      -0.796
      -1.228
      -1.630
      -1.767
      -1.468
      -0.683
       0.466
       1.662
       2.502
       2.703
       2.269
       1.462
       0.608
      -0.091
      -0.575
      -0.811
      -0.713
      -0.220
       0.564
       1.324
       1.686
       1.458
       0.748
      -0.136
      -0.888
      -1.353
      -1.508
      -1.379
      -0.990
      -0.385
       0.338
       1.019
       1.483
       1.580
       1.245
       0.557
      -0.244
      -0.834
      -0.955
      -0.549
       0.201
       0.947
       1.318
       1.098
       0.321
      -0.737
      -1.697
      -2.247
      -2.257
      -1.782
      -0.982
      -0.034
       0.897
       1.634
       1.989
       1.849
       1.262
       0.447
      -0.317
      -0.832
      -1.032
      -0.946
      -0.635
      -0.183
       0.278
       0.583
       0.617
       0.396
       0.072
      -0.180
      -0.282
      -0.276
      -0.239
      -0.190
      -0.084
       0.109
       0.342
       0.497
       0.458
       0.193
      -0.228
      -0.669
      -0.998
      -1.128
      -1.032
      -0.735
      -0.306
       0.136
       0.456
       0.574
       0.517
       0.394
       0.297
       0.231
       0.129
      -0.044
      -0.223
      -0.278
      -0.121
       0.210
       0.567
       0.788
       0.798
       0.652
       0.478
       0.373
       0.324
       0.235
       0.036
      -0.229
      -0.424
      -0.441
      -0.318
      -0.233
      -0.369
      -0.761
      -1.248
      -1.573
      -1.538
      -1.103
      -0.387
       0.401
       1.049
       1.424
       1.518
       1.422
       1.244
       1.032
       0.757
       0.380
      -0.066
      -0.475
      -0.728
      -0.778
      -0.667
      -0.466
      -0.215
       0.095
       0.469
       0.852
       1.125
       1.175
       0.967
       0.580
       0.163
      -0.165
      -0.394
      -0.633
      -1.008
      -1.532
      -2.032
      -2.231
      -1.940
      -1.224
      -0.376
       0.315
       0.797
       1.266
       1.903
       2.598
       2.955
       2.613
       1.601
       0.371
      -0.523
      -0.827
      -0.706
      -0.524
      -0.514
      -0.643
      -0.739
      -0.703
      -0.591
      -0.514
      -0.495
      -0.443
      -0.272
      -0.007
       0.220
       0.298
       0.219
       0.055
      -0.135
      -0.330
      -0.509
      -0.599
      -0.505
      -0.190
       0.263
       0.686
       0.915
       0.868
       0.575
       0.148
      -0.282
      -0.628
      -0.857
      -0.964
      -0.936
      -0.746
      -0.405
      -0.003
       0.306
       0.392
       0.245
      -0.011
      -0.200
      -0.222
      -0.102
       0.065
       0.203
       0.301
       0.372
       0.400
       0.334
       0.157
      -0.059
      -0.165
      -0.040
       0.299
       0.686
       0.914
       0.875
       0.618
       0.295
       0.032
      -0.157
      -0.346
      -0.596
      -0.849
      -0.950
      -0.770
      -0.345
       0.122
       0.388
       0.344
       0.086
      -0.164
      -0.219
      -0.048
       0.228
       0.440
       0.474
       0.312
       0.000
      -0.380
      -0.736
      -0.969
      -0.998
      -0.799
      -0.431
       0.000
       0.399
       0.731
       1.002
       1.208
       1.296
       1.193
       0.873
       0.418
      -0.006
      -0.260
      -0.337
      -0.375
      -0.533
      -0.840
      -1.148
      -1.223
      -0.913
      -0.276
       0.437
       0.930
       1.051
       0.869
       0.588
       0.371
       0.237
       0.095
      -0.120
      -0.368
      -0.534
      -0.531
      -0.384
      -0.210
      -0.122
      -0.157
      -0.276
      -0.409
      -0.488
      -0.448
      -0.238
       0.142
       0.606
       1.006
       1.207
       1.158
       0.904
       0.533
       0.101
      -0.368
      -0.822
      -1.136
      -1.160
      -0.837
      -0.292
       0.212
       0.433
       0.311
       0.005
      -0.236
      -0.242
      -0.011
       0.339
       0.673
       0.892
       0.940
       0.793
       0.467
       0.034
      -0.389
      -0.689
      -0.805
      -0.758
      -0.638
      -0.551
      -0.554
      -0.622
      -0.676
      -0.637
      -0.485
      -0.268
      -0.073
       0.027
       0.013
      -0.073
      -0.153
      -0.163
      -0.095
       0.004
       0.082
       0.135
       0.212
       0.354
       0.520
       0.583
       0.432
       0.088
      -0.273
      -0.434
      -0.300
       0.037
       0.380
       0.581
       0.626
       0.600
       0.577
       0.552
       0.469
       0.308
       0.120
      -0.012
      -0.056
      -0.057
      -0.100
      -0.232
      -0.427
