Origin Time       14/12/2005 07:09:48
Lat.              30.9 N 
Long.             79.3 E 
Depth (Km)         25.7
Magnitude         5.2
 Region           Chamoli-Uttarakhand                                              
 Above details taken from IMD 
   
Station Code      CHM
Station Lat.       30.412
Station Long.      79.320
Station Height(m) 1578.0
Site Class        A   Vs30 between 700 m/sec to 1400 m/sec * 
Record Time       14.12.2005 07:09:26.424
Sampling Rate     200. Hz
 Record Duration   44.610 Sec.
 Direction         Vert. (Up positive)
Max. Acceleration    -41.130 cm/sec**2
     
  * For reference see Site Classification link of website 
     
 Base Line Corrected and Low Pass Filtered (Cut Off at 35 Hz) Time History
 Acceleration data in cm/sec**2
    
[...]
      -0.013
      -0.019
      -0.013
      -0.003
       0.003
       0.004
       0.002
       0.002
       0.007
       0.012
       0.011
       0.003
      -0.005
      -0.006
       0.000
       0.006
       0.005
      -0.004
      -0.013
      -0.012
       0.000
       0.016
       0.027
       0.027
       0.016
      -0.002
      -0.018
      -0.024
      -0.019
      -0.004
       0.009
       0.010
       0.000
      -0.016
      -0.024
      -0.019
      -0.004
       0.010
       0.011
       0.000
      -0.016
      -0.026
      -0.024
      -0.013
      -0.001
       0.006
       0.008
       0.005
       0.000
      -0.001
       0.000
       0.004
       0.008
       0.011
       0.011
       0.009
       0.003
      -0.006
      -0.014
      -0.017
      -0.014
      -0.008
      -0.004
      -0.003
      -0.005
      -0.005
      -0.003
      -0.001
       0.000
       0.003
       0.007
       0.009
       0.006
      -0.002
      -0.011
      -0.015
      -0.012
      -0.006
      -0.001
       0.000
      -0.003
      -0.008
      -0.013
      -0.019
      -0.022
      -0.021
      -0.014
      -0.003
       0.005
       0.008
       0.006
       0.000
      -0.005
      -0.006
      -0.004
      -0.002
      -0.002
      -0.004
      -0.004
      -0.001
       0.004
       0.009
       0.010
       0.008
       0.003
       0.000
      -0.001
       0.000
      -0.002
      -0.007
      -0.013
      -0.014
      -0.010
      -0.003
       0.001
      -0.002
      -0.008
      -0.010
      -0.005
       0.006
       0.015
       0.014
       0.004
      -0.008
      -0.012
      -0.008
      -0.002
       0.000
      -0.004
      -0.006
      -0.004
       0.004
       0.012
       0.015
       0.011
       0.003
      -0.005
      -0.008
      -0.005
       0.000
       0.002
       0.000
      -0.001
       0.003
       0.011
       0.018
       0.017
       0.009
      -0.002
      -0.008
      -0.007
      -0.003
      -0.001
      -0.003
      -0.005
      -0.002
       0.006
       0.015
       0.014
       0.003
      -0.010
      -0.015
      -0.007
       0.007
       0.016
       0.014
       0.005
      -0.004
      -0.007
      -0.005
      -0.002
      -0.003
      -0.006
      -0.010
      -0.010
      -0.007
      -0.001
       0.007
       0.013
       0.015
       0.009
      -0.003
      -0.013
      -0.018
      -0.013
      -0.002
       0.009
       0.015
       0.013
       0.007
       0.000
      -0.003
      -0.001
       0.004
       0.009
       0.013
       0.013
       0.009
       0.003
      -0.001
      -0.001
       0.003
       0.006
       0.006
       0.002
      -0.002
      -0.001
       0.004
       0.008
       0.006
      -0.003
      -0.012
      -0.016
      -0.010
       0.004
       0.019
       0.028
       0.030
       0.024
       0.012
       0.000
      -0.008
      -0.007
       0.001
       0.009
       0.011
       0.007
       0.002
      -0.002
      -0.005
      -0.010
      -0.015
      -0.016
      -0.008
       0.006
       0.014
       0.008
      -0.008
      -0.022
      -0.022
      -0.007
       0.013
       0.024
       0.021
       0.010
       0.002
      -0.001
       0.001
       0.002
       0.000
      -0.001
       0.000
       0.002
       0.003
       0.002
       0.003
       0.006
       0.008
       0.006
      -0.001
      -0.009
      -0.013
      -0.013
      -0.009
      -0.003
       0.002
       0.007
       0.012
       0.014
       0.013
       0.009
       0.003
      -0.001
      -0.003
      -0.005
      -0.007
      -0.010
      -0.011
      -0.009
      -0.004
       0.000
       0.002
       0.003
       0.003
       0.002
      -0.001
      -0.008
      -0.016
      -0.023
      -0.022
      -0.015
      -0.003
       0.009
       0.016
       0.019
       0.017
       0.010
       0.001
      -0.008
      -0.010
      -0.006
      -0.001
       0.000
      -0.002
      -0.005
      -0.004
      -0.001
       0.003
       0.004
       0.003
       0.002
       0.002
       0.001
      -0.001
      -0.003
      -0.006
      -0.007
      -0.005
       0.002
       0.008
       0.008
      -0.001
      -0.014
      -0.020
      -0.016
      -0.005
       0.006
       0.009
       0.004
      -0.002
      -0.004
      -0.001
       0.004
       0.004
       0.000
      -0.005
      -0.006
      -0.002
       0.001
       0.000
      -0.004
      -0.008
      -0.008
      -0.005
      -0.003
      -0.003
      -0.005
      -0.005
      -0.003
       0.001
       0.001
      -0.004
      -0.012
      -0.018
      -0.018
      -0.014
      -0.009
      -0.002
       0.005
       0.012
       0.015
       0.012
       0.006
       0.001
       0.001
       0.002
       0.001
      -0.005
      -0.010
      -0.010
      -0.003
       0.006
       0.011
       0.007
      -0.001
      -0.008
      -0.010
      -0.008
      -0.008
      -0.009
      -0.009
      -0.006
      -0.002
       0.001
      -0.003
      -0.011
      -0.018
      -0.020
      -0.018
      -0.015
      -0.013
      -0.012
      -0.009
      -0.003
       0.004
       0.010
       0.012
       0.008
       0.001
      -0.008
      -0.017
      -0.022
      -0.021
      -0.015
      -0.008
      -0.006
      -0.006
      -0.005
      -0.001
       0.005
       0.009
       0.008
       0.002
      -0.003
      -0.005
      -0.004
      -0.006
      -0.011
      -0.017
      -0.018
      -0.010
       0.001
       0.009
       0.009
       0.001
      -0.011
      -0.020
      -0.022
      -0.017
      -0.007
       0.002
       0.008
       0.010
       0.008
       0.003
      -0.002
      -0.005
      -0.003
      -0.001
       0.000
      -0.001
      -0.003
      -0.005
      -0.009
      -0.013
      -0.019
      -0.022
      -0.016
      -0.003
       0.009
       0.015
       0.013
       0.006
      -0.004
      -0.016
      -0.024
      -0.023
      -0.009
       0.010
       0.023
       0.024
       0.014
       0.000
      -0.012
      -0.019
      -0.018
      -0.010
      -0.001
       0.004
       0.001
      -0.007
      -0.013
      -0.013
      -0.007
       0.001
       0.005
       0.002
      -0.004
      -0.008
      -0.005
       0.001
       0.007
       0.006
      -0.001
      -0.009
      -0.012
      -0.010
      -0.006
      -0.001
       0.003
       0.006
       0.010
       0.013
       0.011
       0.003
      -0.007
      -0.016
      -0.018
      -0.013
      -0.004
       0.001
       0.000
      -0.006
      -0.012
      -0.013
      -0.008
      -0.001
       0.005
       0.007
       0.004
      -0.004
      -0.013
      -0.017
      -0.013
      -0.004
       0.005
       0.007
       0.001
      -0.010
      -0.020
      -0.025
      -0.018
      -0.002
       0.015
       0.021
       0.013
       0.001
      -0.003
       0.002
       0.007
       0.003
      -0.007
      -0.014
      -0.014
      -0.011
      -0.010
      -0.012
      -0.015
      -0.014
      -0.011
      -0.006
      -0.003
       0.000
       0.003
       0.005
       0.002
      -0.005
      -0.013
      -0.018
      -0.018
      -0.015
      -0.014
      -0.013
      -0.010
      -0.005
       0.001
       0.002
      -0.004
      -0.012
      -0.016
      -0.015
      -0.011
      -0.008
      -0.007
      -0.005
      -0.002
       0.000
      -0.001
      -0.007
      -0.013
      -0.016
      -0.016
      -0.014
      -0.012
      -0.008
      -0.001
       0.007
       0.013
       0.014
       0.007
      -0.006
      -0.017
      -0.017
      -0.006
       0.009
       0.015
       0.008
      -0.006
      -0.016
      -0.014
      -0.003
       0.007
       0.009
       0.005
      -0.001
      -0.008
      -0.014
      -0.018
      -0.016
      -0.006
       0.008
       0.016
       0.013
       0.001
      -0.010
      -0.013
      -0.007
       0.002
       0.006
       0.003
      -0.003
      -0.007
      -0.006
      -0.003
      -0.002
      -0.001
       0.001
       0.007
       0.015
       0.020
       0.021
       0.018
       0.015
       0.009
      -0.001
      -0.015
      -0.023
      -0.018
      -0.001
       0.016
       0.021
       0.011
      -0.003
      -0.010
      -0.005
       0.006
       0.014
       0.013
       0.007
       0.002
      -0.001
       0.001
       0.003
       0.003
       0.000
      -0.006
      -0.010
      -0.008
      -0.001
       0.008
       0.011
       0.008
       0.003
       0.002
       0.008
       0.014
       0.015
       0.008
       0.000
      -0.005
      -0.003
       0.000
      -0.001
      -0.007
      -0.012
      -0.012
      -0.003
       0.010
       0.021
       0.021
       0.012
       0.004
       0.002
       0.005
       0.008
       0.005
      -0.003
      -0.009
      -0.011
      -0.008
      -0.003
       0.001
       0.004
       0.006
       0.008
       0.010
       0.015
       0.021
       0.025
       0.022
       0.012
       0.000
      -0.005
       0.001
       0.010
       0.012
      -0.001
      -0.018
      -0.029
      -0.024
      -0.010
       0.001
       0.004
       0.002
       0.002
       0.007
       0.012
       0.011
       0.001
      -0.009
      -0.012
      -0.007
       0.000
       0.001
      -0.003
      -0.010
      -0.014
      -0.014
      -0.012
      -0.007
       0.001
       0.010
       0.015
       0.011
      -0.002
      -0.014
      -0.019
      -0.015
      -0.007
      -0.002
      -0.002
      -0.004
      -0.005
      -0.003
      -0.001
      -0.002
      -0.004
      -0.006
      -0.004
      -0.001
       0.002
       0.004
       0.009
       0.014
       0.017
       0.013
       0.005
      -0.004
      -0.008
      -0.009
      -0.008
      -0.007
      -0.006
      -0.002
       0.005
       0.014
       0.021
       0.023
       0.020
       0.011
       0.001
      -0.004
      -0.002
       0.004
       0.008
       0.005
      -0.004
      -0.015
      -0.022
      -0.019
      -0.010
      -0.002
      -0.001
      -0.006
      -0.010
      -0.005
       0.006
       0.016
       0.017
       0.010
       0.001
      -0.004
      -0.001
       0.005
       0.007
       0.003
      -0.004
      -0.011
      -0.014
      -0.012
      -0.005
       0.007
       0.018
       0.026
       0.027
       0.022
       0.013
       0.002
      -0.007
      -0.010
      -0.007
       0.000
       0.006
       0.007
       0.002
      -0.005
      -0.009
      -0.006
       0.002
       0.010
       0.011
       0.002
      -0.011
      -0.021
      -0.022
      -0.015
      -0.006
       0.001
       0.010
       0.025
       0.054
       0.114
       0.234
       0.455
       0.822
       1.373
       2.134
       3.105
       4.262
       5.560
       6.940
       8.306
       9.501
      10.283
      10.351
       9.444
       7.447
       4.446
       0.680
      -3.565
      -8.028
     -12.442
     -16.437
     -19.513
     -21.141
     -20.958
     -18.904
     -15.237
     -10.417
      -4.981
       0.525
       5.554
       9.565
      12.058
      12.710
      11.555
       9.048
       5.900
       2.786
       0.125
      -1.960
      -3.515
      -4.585
      -5.153
      -5.195
      -4.732
      -3.805
      -2.441
      -0.685
       1.327
       3.330
       5.003
       6.117
       6.637
       6.710
       6.523
       6.123
       5.349
       3.984
       1.995
      -0.343
      -2.529
      -4.110
      -4.956
      -5.299
      -5.479
      -5.650
      -5.713
      -5.481
      -4.913
      -4.208
      -3.643
      -3.302
      -2.989
      -2.405
      -1.397
      -0.083
       1.225
       2.250
       2.945
       3.476
       4.040
       4.660
       5.146
       5.263
       4.970
       4.487
       4.075
       3.746
       3.192
       2.062
       0.373
      -1.331
      -2.288
      -2.061
      -0.865
       0.606
       1.654
       1.986
       1.740
       1.202
       0.554
      -0.122
      -0.706
      -1.001
      -0.848
      -0.282
       0.449
       1.011
       1.145
       0.805
       0.240
      -0.073
       0.273
       1.238
       2.220
       2.424
       1.485
      -0.228
      -1.951
      -3.169
      -3.908
      -4.481
      -5.049
      -5.450
      -5.375
      -4.670
      -3.434
      -1.879
      -0.137
       1.780
       3.852
       5.860
       7.299
       7.550
       6.262
       3.661
       0.507
      -2.254
      -3.918
      -4.244
      -3.310
      -1.231
       1.916
       5.898
      10.102
      13.563
      15.297
      14.759
      12.098
       8.012
       3.319
      -1.412
      -5.916
      -9.981
     -13.210
     -15.091
     -15.292
     -13.875
     -11.228
      -7.863
      -4.267
      -0.893
       1.856
       3.717
       4.671
       4.912
       4.667
       4.042
       2.982
       1.395
      -0.686
      -2.986
      -5.013
      -6.205
      -6.119
      -4.620
      -2.020
       0.901
       3.078
       3.561
       1.970
      -1.264
      -5.082
      -8.269
      -9.886
      -9.431
      -6.771
      -1.980
       4.697
      12.717
      21.062
      28.226
      32.486
      32.427
      27.518
      18.402
       6.749
      -5.237
     -15.372
     -21.949
     -24.040
     -21.608
     -15.497
      -7.356
       0.544
       5.805
       6.641
       2.504
      -5.748
     -16.234
     -26.731
     -35.266
     -40.378
     -41.130
     -37.099
     -28.452
     -16.061
      -1.550
      12.871
      24.840
      32.382
      34.281
      30.214
      20.866
       8.071
      -5.347
     -16.170
     -21.712
     -20.730
     -13.914
      -3.604
       7.196
      15.974
      21.449
      23.661
      23.531
      22.192
      20.485
      18.783
      17.139
      15.560
      14.186
      13.219
      12.643
      12.044
      10.725
       8.066
       3.865
      -1.577
      -7.657
     -13.765
     -19.421
     -24.212
     -27.623
     -28.954
     -27.529
     -23.157
     -16.495
      -8.883
      -1.678
       4.414
       9.457
      13.824
      17.591
      20.317
      21.298
      19.903
      15.755
       8.918
       0.132
      -9.229
     -17.668
     -24.150
     -28.244
     -29.792
     -28.510
     -23.962
     -15.950
      -4.970
       7.671
      20.139
      30.532
      37.284
      39.351
      36.288
      28.460
      17.277
       4.999
      -5.992
     -13.994
     -18.344
     -19.259
     -17.399
     -13.572
      -8.778
      -4.324
      -1.553
      -1.235
      -3.097
      -5.863
      -7.844
      -7.903
      -6.255
      -4.469
      -4.552
      -7.693
     -13.453
     -19.927
     -24.718
     -26.069
     -23.490
     -17.671
      -9.865
      -1.163
       7.890
      17.102
      26.116
      33.980
      39.188
      40.240
      36.448
      28.394
      17.717
       6.482
      -3.377
     -10.303
     -13.246
     -11.874
      -6.822
       0.304
       7.296
      12.068
      13.371
      11.129
       6.255
       0.194
      -5.571
      -9.866
     -11.992
     -11.732
      -9.335
      -5.534
      -1.471
       1.620
       2.896
       2.257
       0.253
      -2.330
      -4.797
      -6.557
      -7.154
      -6.545
      -5.319
      -4.445
      -4.602
      -5.692
      -7.096
      -8.437
      -9.937
     -11.866
     -13.765
     -14.441
     -12.796
      -8.572
      -2.346
       4.895
      11.949
      17.362
      19.800
      18.855
      15.451
      11.291
       7.827
       5.570
       4.096
       2.642
       0.823
      -1.028
      -2.115
      -1.731
       0.319
       3.590
       7.119
       9.693
      10.237
       8.237
       3.969
      -1.673
      -7.611
     -12.874
     -16.607
     -18.063
     -16.852
     -13.317
      -8.614
      -4.176
      -0.848
       1.535
       3.747
       6.320
       8.990
      10.853
      11.072
       9.567
       7.141
       4.965
       3.853
       3.852
       4.376
       4.691
       4.370
       3.443
       2.254
       1.149
       0.183
      -0.897
      -2.301
      -3.796
      -4.720
      -4.468
      -3.033
      -1.107
       0.418
       1.120
       1.267
       1.477
       2.221
       3.565
       5.166
       6.387
       6.415
       4.456
       0.113
      -6.150
     -12.890
     -18.198
     -20.624
     -19.872
     -16.766
     -12.473
      -7.583
      -1.883
       4.946
      12.409
      18.963
      22.737
      22.674
      19.210
      13.938
       8.575
       4.082
       0.512
      -2.550
      -5.410
      -7.925
      -9.625
     -10.200
      -9.871
      -9.248
      -8.839
      -8.680
      -8.332
      -7.244
      -5.196
      -2.528
       0.023
       1.751
       2.399
       2.314
       2.236
       2.824
       4.236
       5.999
       7.205
       7.012
       5.237
       2.554
      -0.027
      -2.011
      -3.719
      -5.738
      -8.116
     -10.157
     -10.985
     -10.298
      -8.593
      -6.712
      -5.183
      -3.921
      -2.448
      -0.330
       2.503
       5.695
       8.629
      10.754
      11.920
      12.536
      13.405
      15.251
      18.240
      21.885
      25.314
      27.505
      27.370
      23.938
      16.807
       6.570
      -5.187
     -16.449
     -25.471
     -31.079
     -32.612
     -30.039
     -24.353
     -17.513
     -11.465
      -6.944
      -3.338
       0.163
       3.394
       5.225
       4.532
       1.181
      -3.640
      -8.003
     -10.477
     -10.954
     -10.269
      -9.204
      -7.939
      -6.120
      -3.241
       0.805
       5.341
       9.018
      10.230
       7.785
       1.978
      -4.630
      -8.152
      -6.123
       0.235
       6.830
      10.435
      11.278
      11.386
      11.525
      11.176
      10.665
      11.466
      14.010
      16.180
      15.046
      10.036
       3.533
      -1.699
      -4.971
      -7.508
     -10.464
     -13.659
     -16.461
     -19.378
     -23.857
     -30.021
     -35.235
     -35.945
     -30.706
     -20.586
      -7.327
       7.461
      21.322
      30.682
      32.832
      28.135
      19.534
      10.130
       1.818
      -4.443
      -8.111
      -8.951
      -6.788
      -1.142
       8.188
      19.793
      30.653
      37.905
      40.369
      38.427
      32.887
      24.190
      12.806
       0.133
     -11.519
     -20.180
     -25.396
     -28.041
     -29.134
     -28.904
     -26.853
     -22.728
     -17.505
     -13.035
     -10.522
      -9.716
      -9.611
      -9.336
      -8.400
      -6.859
      -5.369
      -4.408
      -3.289
      -0.439
       5.147
      12.789
      20.367
      25.652
      27.636
      26.722
      23.802
      19.425
      13.854
       7.552
       1.391
      -3.588
      -6.725
      -8.240
      -9.130
     -10.229
     -11.134
     -10.230
      -6.137
       0.678
       7.696
      11.922
      11.887
       8.259
       2.694
      -3.723
     -10.942
     -19.171
     -27.783
     -35.007
     -38.672
     -37.328
     -30.782
     -19.988
      -6.719
       6.830
      18.696
      27.803
      34.088
      37.991
      39.670
      38.668
      34.478
      27.552
      19.607
