Origin Time       13/07/2013 17:49:33
Lat.              32.2 N 
Long.             76.3 E 
Depth (Km)         10.0
Magnitude         4.5
 Region           Kangra-HIMACHAL-PRADESH                                          
 Above details taken from IMD 
     
Station Code      CHM
Station Lat.       32.555  N
Station Long.      76.126  E
Station Height(m)  952.0
Site Class        A   Vs30 between 700 m/sec to 1400 m/sec * 
Record Time       13.07.2013 17:49:21.719
Sampling Rate     200. Hz
 Record Duration   66.895 Sec.
 Direction         E-W (E positive)
Max. Acceleration      2.504 cm/sec**2
     
  * For reference see Site Classification link of website 
     
 Base Line Corrected and Low Pass Filtered (Cut Off at 35 Hz) Time History
 Acceleration data in cm/sec**2
    
[...]
       0.024
       0.019
       0.004
      -0.007
      -0.007
       0.004
       0.013
       0.008
      -0.012
      -0.035
      -0.046
      -0.037
      -0.013
       0.012
       0.024
       0.021
       0.009
      -0.004
      -0.016
      -0.028
      -0.035
      -0.032
      -0.018
      -0.003
      -0.001
      -0.012
      -0.024
      -0.020
      -0.001
       0.018
       0.022
       0.011
       0.005
       0.020
       0.041
       0.036
      -0.021
      -0.109
      -0.172
      -0.158
      -0.069
       0.030
       0.071
       0.039
      -0.010
       0.000
       0.075
       0.141
       0.113
      -0.011
      -0.126
      -0.120
       0.018
       0.171
       0.199
       0.060
      -0.144
      -0.250
      -0.175
       0.002
       0.112
       0.062
      -0.071
      -0.119
      -0.007
       0.175
       0.272
       0.215
       0.067
      -0.070
      -0.144
      -0.166
      -0.166
      -0.160
      -0.153
      -0.137
      -0.087
       0.035
       0.223
       0.395
       0.423
       0.236
      -0.090
      -0.360
      -0.398
      -0.202
       0.058
       0.185
       0.123
       0.006
       0.008
       0.158
       0.280
       0.167
      -0.172
      -0.470
      -0.456
      -0.143
       0.172
       0.214
       0.016
      -0.151
      -0.077
       0.173
       0.357
       0.304
       0.059
      -0.197
      -0.310
      -0.257
      -0.132
      -0.032
       0.023
       0.091
       0.202
       0.291
       0.244
       0.032
      -0.227
      -0.356
      -0.278
      -0.080
       0.087
       0.153
       0.168
       0.196
       0.214
       0.135
      -0.078
      -0.330
      -0.457
      -0.359
      -0.089
       0.191
       0.342
       0.346
       0.296
       0.272
       0.256
       0.152
      -0.092
      -0.396
      -0.590
      -0.549
      -0.292
       0.030
       0.246
       0.289
       0.231
       0.210
       0.289
       0.390
       0.358
       0.126
      -0.209
      -0.455
      -0.490
      -0.342
      -0.123
       0.086
       0.256
       0.362
       0.357
       0.210
      -0.034
      -0.268
      -0.378
      -0.310
      -0.106
       0.129
       0.291
       0.343
       0.308
       0.213
       0.046
      -0.198
      -0.445
      -0.548
      -0.404
      -0.071
       0.255
       0.395
       0.328
       0.173
       0.063
       0.040
       0.052
       0.030
      -0.037
      -0.104
      -0.121
      -0.087
      -0.046
      -0.036
      -0.045
      -0.027
       0.045
       0.131
       0.165
       0.108
      -0.033
      -0.219
      -0.397
      -0.491
      -0.422
      -0.164
       0.218
       0.583
       0.776
       0.697
       0.361
      -0.080
      -0.400
      -0.452
      -0.291
      -0.108
      -0.029
      -0.006
       0.067
       0.162
       0.131
      -0.091
      -0.360
      -0.442
      -0.240
       0.116
       0.378
       0.368
       0.106
      -0.192
      -0.254
       0.024
       0.441
       0.617
       0.323
      -0.299
      -0.852
      -1.028
      -0.818
      -0.421
      -0.017
       0.346
       0.692
       0.999
       1.160
       1.046
       0.624
       0.033
      -0.464
      -0.659
      -0.559
      -0.365
      -0.270
      -0.279
      -0.246
      -0.070
       0.174
       0.317
       0.270
       0.105
      -0.041
      -0.094
      -0.082
      -0.082
      -0.121
      -0.141
      -0.027
       0.271
       0.640
       0.831
       0.638
       0.082
      -0.578
      -1.029
      -1.112
      -0.882
      -0.503
      -0.112
       0.227
       0.477
       0.591
       0.539
       0.350
       0.114
      -0.091
      -0.249
      -0.398
      -0.548
      -0.635
      -0.548
      -0.240
       0.187
       0.515
       0.579
       0.416
       0.210
       0.098
       0.042
      -0.069
      -0.231
      -0.288
      -0.094
       0.306
       0.691
       0.829
       0.636
       0.203
      -0.276
      -0.623
      -0.750
      -0.689
      -0.534
      -0.348
      -0.126
       0.150
       0.426
       0.593
       0.578
       0.416
       0.207
       0.035
      -0.086
      -0.181
      -0.273
      -0.355
      -0.389
      -0.329
      -0.139
       0.164
       0.496
       0.736
       0.782
       0.607
       0.270
      -0.104
      -0.384
      -0.486
      -0.408
      -0.229
      -0.069
      -0.033
      -0.150
      -0.341
      -0.461
      -0.417
      -0.265
      -0.152
      -0.160
      -0.200
      -0.094
       0.224
       0.608
       0.801
       0.669
       0.326
       0.042
       0.018
       0.213
       0.375
       0.255
      -0.189
      -0.742
      -1.088
      -1.019
      -0.567
       0.029
       0.478
       0.615
       0.486
       0.269
       0.119
       0.048
      -0.029
      -0.169
      -0.310
      -0.324
      -0.150
       0.126
       0.329
       0.334
       0.162
      -0.049
      -0.165
      -0.167
      -0.152
      -0.206
      -0.290
      -0.257
       0.001
       0.425
       0.815
       0.973
       0.829
       0.451
      -0.035
      -0.505
      -0.867
      -1.060
      -1.060
      -0.882
      -0.558
      -0.123
       0.346
       0.702
       0.781
       0.540
       0.134
      -0.169
      -0.198
      -0.009
       0.186
       0.205
       0.036
      -0.172
      -0.236
      -0.080
       0.194
       0.362
       0.251
      -0.110
      -0.481
      -0.589
      -0.347
       0.083
       0.417
       0.484
       0.346
       0.212
       0.211
       0.245
       0.074
      -0.403
      -0.969
      -1.208
      -0.857
      -0.056
       0.747
       1.160
       1.122
       0.865
       0.630
       0.459
       0.223
      -0.176
      -0.653
      -0.984
      -0.993
      -0.700
      -0.300
       0.004
       0.157
       0.254
       0.407
       0.611
       0.752
       0.703
       0.430
       0.019
      -0.371
      -0.588
      -0.566
      -0.367
      -0.144
      -0.029
      -0.044
      -0.107
      -0.122
      -0.061
       0.027
       0.074
       0.059
       0.025
       0.053
       0.180
       0.334
       0.351
       0.113
      -0.312
      -0.680
      -0.745
      -0.462
      -0.032
       0.264
       0.289
       0.153
       0.079
       0.189
       0.390
       0.471
       0.300
      -0.054
      -0.385
      -0.506
      -0.373
      -0.072
       0.264
       0.533
       0.678
       0.671
       0.509
       0.221
      -0.119
      -0.425
      -0.632
      -0.720
      -0.691
      -0.535
      -0.240
       0.162
       0.552
       0.765
       0.703
       0.410
       0.037
      -0.265
      -0.441
      -0.521
      -0.550
      -0.539
      -0.461
      -0.289
      -0.023
       0.284
       0.539
       0.648
       0.570
       0.330
      -0.004
      -0.355
      -0.624
      -0.695
      -0.498
      -0.093
       0.326
       0.558
       0.538
       0.356
       0.153
       0.004
      -0.099
      -0.187
      -0.257
      -0.258
      -0.132
       0.128
       0.433
       0.626
       0.576
       0.291
      -0.080
      -0.357
      -0.457
      -0.426
      -0.366
      -0.339
      -0.330
      -0.267
      -0.083
       0.196
       0.429
       0.443
       0.199
      -0.133
      -0.315
      -0.267
      -0.129
      -0.082
      -0.153
      -0.202
      -0.114
       0.059
       0.145
       0.050
      -0.134
      -0.202
      -0.025
       0.318
       0.608
       0.683
       0.569
       0.423
       0.348
       0.299
       0.157
      -0.124
      -0.457
      -0.698
      -0.756
      -0.636
      -0.414
      -0.163
       0.082
       0.314
       0.525
       0.677
       0.706
       0.570
       0.288
      -0.042
      -0.299
      -0.419
      -0.428
      -0.394
      -0.350
      -0.264
      -0.101
       0.118
       0.307
       0.382
       0.327
       0.206
       0.110
       0.074
       0.046
      -0.053
      -0.232
      -0.395
      -0.431
      -0.320
      -0.154
      -0.039
      -0.014
      -0.048
      -0.113
      -0.196
      -0.260
      -0.222
      -0.013
       0.338
       0.711
       0.971
       1.037
       0.905
       0.619
       0.263
      -0.065
      -0.296
      -0.416
      -0.456
      -0.442
      -0.383
      -0.277
      -0.134
       0.014
       0.125
       0.168
       0.137
       0.068
       0.019
       0.012
       0.002
      -0.094
      -0.292
      -0.488
      -0.544
      -0.429
      -0.268
      -0.229
      -0.352
      -0.494
      -0.447
      -0.132
       0.328
       0.687
       0.774
       0.606
       0.352
       0.175
       0.112
       0.086
       0.023
      -0.072
      -0.148
      -0.179
      -0.193
      -0.239
      -0.342
      -0.476
      -0.562
      -0.502
      -0.241
       0.159
       0.523
       0.675
       0.563
       0.296
       0.051
      -0.054
      -0.026
       0.046
       0.068
       0.017
      -0.047
      -0.041
       0.062
       0.189
       0.226
       0.117
      -0.078
      -0.237
      -0.277
      -0.198
      -0.057
       0.094
       0.222
       0.297
       0.295
       0.221
       0.126
       0.056
      -0.008
      -0.141
      -0.368
      -0.585
      -0.618
      -0.381
       0.016
       0.345
       0.448
       0.362
       0.264
       0.289
       0.408
       0.462
       0.341
       0.107
      -0.049
       0.005
       0.209
       0.361
       0.287
      -0.015
      -0.371
      -0.568
      -0.512
      -0.288
      -0.083
      -0.039
      -0.159
      -0.320
      -0.374
      -0.260
      -0.032
       0.190
       0.310
       0.311
       0.246
       0.169
       0.093
       0.000
      -0.115
      -0.221
      -0.269
      -0.237
      -0.146
      -0.054
      -0.008
      -0.016
      -0.040
      -0.031
       0.017
       0.072
       0.096
       0.092
       0.093
       0.112
       0.125
       0.100
       0.041
      -0.008
      -0.011
       0.009
      -0.013
      -0.115
      -0.254
      -0.327
      -0.263
      -0.094
       0.072
       0.149
       0.149
       0.165
       0.268
       0.430
       0.534
       0.464
       0.199
      -0.167
      -0.481
      -0.626
      -0.586
      -0.439
      -0.286
      -0.173
      -0.069
       0.084
       0.288
       0.462
       0.507
       0.397
       0.200
       0.013
      -0.113
      -0.194
      -0.273
      -0.357
      -0.402
      -0.338
      -0.135
       0.157
       0.427
       0.566
       0.530
       0.352
       0.108
      -0.119
      -0.272
      -0.336
      -0.326
      -0.265
      -0.163
      -0.030
       0.080
       0.086
      -0.043
      -0.220
      -0.283
      -0.137
       0.154
       0.415
       0.510
       0.438
       0.301
       0.187
       0.104
      -0.004
      -0.180
      -0.396
      -0.552
      -0.555
      -0.392
      -0.136
       0.121
       0.326
       0.461
       0.502
       0.424
       0.237
       0.017
      -0.136
      -0.174
      -0.135
      -0.095
      -0.079
      -0.046
       0.047
       0.176
       0.256
       0.241
       0.193
       0.231
       0.386
       0.519
       0.406
      -0.050
      -0.683
      -1.141
      -1.142
      -0.680
      -0.020
       0.512
       0.763
       0.819
       0.854
       0.905
       0.796
       0.303
      -0.559
      -1.443
      -1.874
      -1.599
      -0.774
       0.164
       0.830
       1.106
       1.119
       1.018
       0.818
       0.424
      -0.189
      -0.846
      -1.242
      -1.156
      -0.629
       0.065
       0.605
       0.798
       0.616
       0.138
      -0.494
      -1.089
      -1.427
      -1.341
      -0.812
      -0.009
       0.796
       1.361
       1.566
       1.408
       0.942
       0.242
      -0.573
      -1.312
      -1.735
      -1.660
      -1.090
      -0.241
       0.574
       1.130
       1.373
       1.351
       1.083
       0.540
      -0.235
      -1.007
      -1.411
      -1.196
      -0.442
       0.442
       0.989
       0.991
       0.593
       0.118
      -0.211
      -0.394
      -0.539
      -0.664
      -0.634
      -0.303
       0.302
       0.940
       1.305
       1.233
       0.791
       0.213
      -0.223
      -0.324
      -0.075
       0.332
       0.582
       0.439
      -0.065
      -0.626
      -0.888
      -0.713
      -0.263
       0.147
       0.297
       0.203
       0.053
       0.025
       0.132
       0.224
       0.129
      -0.179
      -0.545
      -0.742
      -0.648
      -0.323
       0.070
       0.412
       0.682
       0.884
       0.956
       0.791
       0.353
      -0.241
      -0.765
      -1.014
      -0.913
      -0.551
      -0.127
       0.137
       0.102
      -0.212
      -0.617
      -0.838
      -0.667
      -0.088
       0.690
       1.335
       1.562
       1.271
       0.581
      -0.245
      -0.920
      -1.222
      -1.058
      -0.487
       0.277
       0.920
       1.168
       0.929
       0.330
      -0.391
      -1.039
      -1.517
      -1.760
      -1.660
      -1.113
      -0.167
       0.893
       1.653
       1.818
       1.397
       0.658
      -0.075
      -0.590
      -0.818
      -0.769
      -0.493
      -0.090
       0.280
       0.431
       0.242
      -0.267
      -0.915
      -1.424
      -1.533
      -1.104
      -0.197
       0.946
       1.963
       2.504
       2.374
       1.628
       0.567
      -0.411
      -0.991
      -1.064
      -0.732
      -0.223
       0.191
       0.277
      -0.068
      -0.735
      -1.403
      -1.664
      -1.254
      -0.232
       1.025
       2.035
       2.478
       2.337
       1.807
       1.101
       0.327
      -0.469
      -1.203
      -1.714
      -1.844
      -1.545
      -0.926
      -0.208
       0.366
       0.609
       0.446
      -0.043
      -0.635
      -1.041
      -1.024
      -0.512
       0.350
       1.255
       1.869
       1.980
       1.582
       0.846
       0.030
      -0.635
      -1.033
      -1.187
      -1.200
      -1.144
      -0.992
      -0.677
      -0.220
       0.219
       0.446
       0.395
       0.182
      -0.029
      -0.174
      -0.309
      -0.481
      -0.630
      -0.613
      -0.315
       0.244
       0.896
       1.409
       1.588
       1.358
       0.786
       0.048
      -0.623
      -1.013
      -1.014
      -0.694
      -0.280
      -0.037
      -0.094
      -0.364
      -0.599
      -0.561
      -0.160
       0.501
       1.199
       1.697
       1.836
       1.584
       1.041
       0.408
      -0.103
      -0.370
      -0.406
      -0.330
      -0.296
      -0.414
      -0.696
      -1.039
      -1.269
      -1.235
      -0.893
      -0.316
       0.353
       0.955
       1.347
       1.441
       1.259
       0.939
       0.663
       0.537
       0.519
       0.460
       0.228
      -0.182
      -0.651
      -1.030
      -1.250
      -1.341
      -1.359
      -1.291
      -1.050
      -0.574
       0.080
       0.742
       1.230
       1.448
       1.412
       1.185
       0.823
       0.355
      -0.188
      -0.747
      -1.231
      -1.529
      -1.553
      -1.287
      -0.815
      -0.302
       0.077
       0.230
       0.202
       0.147
       0.230
       0.519
       0.943
       1.334
       1.514
       1.360
       0.837
       0.000
      -0.997
      -1.903
      -2.433
      -2.375
      -1.720
      -0.718
       0.229
       0.781
       0.852
       0.628
       0.409
       0.404
       0.620
       0.902
       1.042
       0.903
       0.486
      -0.066
      -0.542
      -0.773
      -0.706
      -0.393
       0.081
       0.641
       1.199
       1.601
       1.643
       1.187
       0.290
      -0.765
      -1.613
      -2.005
      -1.936
      -1.591
      -1.192
      -0.846
      -0.513
      -0.089
       0.471
       1.087
       1.582
       1.780
       1.622
       1.203
       0.710
       0.296
       0.002
      -0.227
      -0.463
      -0.721
      -0.940
      -1.014
      -0.862
      -0.491
      -0.028
       0.335
       0.446
       0.297
       0.038
      -0.123
      -0.074
       0.118
       0.256
       0.179
      -0.110
      -0.441
      -0.615
      -0.558
      -0.368
      -0.212
      -0.171
      -0.167
      -0.049
       0.255
       0.667
       1.016
       1.165
       1.081
       0.826
       0.503
       0.192
      -0.076
      -0.308
      -0.494
      -0.590
      -0.552
      -0.403
      -0.243
      -0.185
      -0.281
      -0.504
      -0.783
      -1.026
      -1.134
      -1.020
      -0.673
      -0.194
       0.250
       0.531
       0.642
       0.678
       0.743
       0.859
       0.956
       0.944
       0.806
       0.618
       0.462
       0.335
       0.145
      -0.167
      -0.528
      -0.772
      -0.790
      -0.636
      -0.467
      -0.400
      -0.430
      -0.460
      -0.413
      -0.290
      -0.146
      -0.011
       0.155
       0.415
       0.760
       1.064
       1.159
       0.956
       0.513
      -0.019
      -0.486
      -0.785
      -0.861
      -0.713
      -0.404
      -0.045
       0.264
       0.489
       0.646
       0.747
       0.764
       0.647
       0.377
      -0.001
      -0.379
      -0.636
      -0.696
      -0.583
      -0.422
      -0.362
      -0.472
      -0.674
      -0.791
      -0.672
      -0.303
       0.178
       0.575
       0.772
       0.796
       0.754
       0.705
       0.595
       0.336
      -0.048
      -0.378
      -0.443
      -0.190
       0.204
       0.464
       0.423
       0.132
      -0.211
      -0.435
      -0.503
      -0.495
      -0.494
      -0.500
      -0.462
      -0.367
      -0.270
      -0.241
      -0.289
      -0.357
      -0.390
      -0.397
      -0.411
      -0.418
      -0.329
      -0.071
       0.315
       0.685
       0.897
       0.922
       0.852
       0.798
       0.802
       0.831
       0.846
       0.845
       0.847
       0.838
       0.769
       0.603
       0.359
       0.104
      -0.112
      -0.287
      -0.447
      -0.597
      -0.699
      -0.704
      -0.608
      -0.465
      -0.360
      -0.359
      -0.473
      -0.648
      -0.772
      -0.723
      -0.445
      -0.001
       0.456
       0.778
       0.912
       0.898
       0.795
       0.619
       0.345
      -0.041
      -0.496
      -0.917
      -1.200
      -1.288
      -1.197
      -0.986
      -0.729
      -0.493
      -0.307
      -0.154
       0.009
       0.198
       0.362
       0.423
       0.358
       0.249
       0.223
       0.334
       0.506
       0.589
       0.495
       0.280
       0.101
       0.100
       0.297
       0.585
       0.811
       0.869
       0.760
       0.577
       0.433
       0.379
       0.368
       0.304
       0.125
      -0.144
      -0.423
      -0.645
      -0.792
      -0.883
      -0.928
      -0.913
      -0.827
      -0.685
      -0.519
      -0.345
      -0.133
       0.164
       0.553
       0.955
       1.231
       1.266
       1.063
       0.748
       0.482
       0.326
       0.201
      -0.035
      -0.446
      -0.943
      -1.331
      -1.450
      -1.280
      -0.946
