Origin Time       15/07/2013 17:49:11
Lat.              32.6 N 
Long.             76.7 E 
Depth (Km)         30.0
Magnitude         4.4
 Region           Lahul-Spiti-DISTT.-HIMACHAL-PRADESH                              
 Above details taken from IMD 
   
Station Code      CHM
Station Lat.       32.555
Station Long.      76.126
Station Height(m)  952.0
Site Class        A   Vs30 between 700 m/sec to 1400 m/sec * 
Record Time       15.07.2013 17:49:00.929
Sampling Rate     200. Hz
 Record Duration   65.670 Sec.
 Direction         Vert. (Up positive)
Max. Acceleration      2.627 cm/sec**2
     
  * For reference see Site Classification link of website 
     
 Base Line Corrected and Low Pass Filtered (Cut Off at 35 Hz) Time History
 Acceleration data in cm/sec**2
    
[...]
      -0.004
       0.048
       0.102
       0.151
       0.183
       0.183
       0.136
       0.041
      -0.082
      -0.192
      -0.252
      -0.243
      -0.177
      -0.074
       0.049
       0.171
       0.262
       0.291
       0.244
       0.129
      -0.024
      -0.169
      -0.250
      -0.232
      -0.126
       0.015
       0.132
       0.192
       0.191
       0.140
       0.057
      -0.023
      -0.068
      -0.075
      -0.071
      -0.093
      -0.145
      -0.187
      -0.168
      -0.073
       0.060
       0.159
       0.167
       0.087
      -0.018
      -0.085
      -0.098
      -0.091
      -0.096
      -0.106
      -0.085
      -0.010
       0.103
       0.215
       0.282
       0.277
       0.201
       0.085
      -0.021
      -0.085
      -0.115
      -0.153
      -0.235
      -0.345
      -0.418
      -0.391
      -0.252
      -0.044
       0.169
       0.340
       0.449
       0.491
       0.466
       0.378
       0.234
       0.049
      -0.139
      -0.289
      -0.377
      -0.411
      -0.403
      -0.338
      -0.188
       0.034
       0.249
       0.370
       0.361
       0.262
       0.138
       0.037
      -0.024
      -0.053
      -0.074
      -0.105
      -0.132
      -0.118
      -0.030
       0.107
       0.212
       0.208
       0.091
      -0.057
      -0.137
      -0.107
      -0.012
       0.071
       0.088
       0.039
      -0.037
      -0.093
      -0.098
      -0.062
      -0.026
      -0.026
      -0.060
      -0.084
      -0.056
       0.032
       0.140
       0.213
       0.210
       0.140
       0.050
      -0.006
      -0.015
       0.000
       0.007
       0.004
       0.006
       0.016
       0.019
       0.002
      -0.027
      -0.050
      -0.060
      -0.065
      -0.070
      -0.062
      -0.026
       0.022
       0.038
      -0.011
      -0.100
      -0.162
      -0.145
      -0.055
       0.056
       0.146
       0.203
       0.232
       0.229
       0.177
       0.066
      -0.086
      -0.231
      -0.313
      -0.305
      -0.226
      -0.131
      -0.079
      -0.087
      -0.115
      -0.100
      -0.008
       0.129
       0.243
       0.284
       0.255
       0.198
       0.157
       0.142
       0.125
       0.065
      -0.055
      -0.201
      -0.302
      -0.295
      -0.175
      -0.003
       0.139
       0.200
       0.187
       0.142
       0.101
       0.063
      -0.004
      -0.122
      -0.261
      -0.346
      -0.319
      -0.189
      -0.029
       0.071
       0.071
       0.001
      -0.070
      -0.085
      -0.039
       0.036
       0.114
       0.186
       0.240
       0.248
       0.183
       0.061
      -0.051
      -0.075
       0.018
       0.177
       0.297
       0.288
       0.138
      -0.083
      -0.272
      -0.360
      -0.343
      -0.263
      -0.165
      -0.067
       0.030
       0.126
       0.197
       0.211
       0.157
       0.061
      -0.029
      -0.072
      -0.053
       0.022
       0.131
       0.235
       0.283
       0.225
       0.049
      -0.188
      -0.372
      -0.402
      -0.271
      -0.083
       0.034
       0.025
      -0.058
      -0.115
      -0.082
       0.027
       0.147
       0.212
       0.196
       0.122
       0.029
      -0.056
      -0.137
      -0.229
      -0.329
      -0.396
      -0.370
      -0.216
       0.036
       0.301
       0.482
       0.517
       0.406
       0.195
      -0.046
      -0.248
      -0.356
      -0.340
      -0.213
      -0.033
       0.124
       0.200
       0.183
       0.097
      -0.017
      -0.117
      -0.166
      -0.135
      -0.023
       0.127
       0.251
       0.292
       0.237
       0.111
      -0.041
      -0.177
      -0.266
      -0.288
      -0.246
      -0.170
      -0.103
      -0.071
      -0.069
      -0.065
      -0.035
       0.020
       0.083
       0.141
       0.192
       0.234
       0.240
       0.168
       0.011
      -0.171
      -0.285
      -0.276
      -0.164
      -0.022
       0.092
       0.156
       0.181
       0.183
       0.168
       0.139
       0.094
       0.028
      -0.060
      -0.154
      -0.218
      -0.201
      -0.088
       0.077
       0.204
       0.219
       0.111
      -0.063
      -0.215
      -0.277
      -0.239
      -0.147
      -0.053
       0.021
       0.089
       0.150
       0.173
       0.117
      -0.022
      -0.185
      -0.282
      -0.236
      -0.038
       0.237
       0.461
       0.530
       0.430
       0.227
       0.014
      -0.149
      -0.240
      -0.251
      -0.179
      -0.044
       0.103
       0.203
       0.212
       0.119
      -0.062
      -0.291
      -0.498
      -0.591
      -0.506
      -0.255
       0.069
       0.344
       0.481
       0.454
       0.297
       0.090
      -0.076
      -0.136
      -0.087
       0.020
       0.123
       0.195
       0.235
       0.246
       0.207
       0.089
      -0.106
      -0.315
      -0.431
      -0.379
      -0.176
       0.064
       0.211
       0.203
       0.068
      -0.119
      -0.291
      -0.397
      -0.408
      -0.323
      -0.173
      -0.008
       0.129
       0.211
       0.226
       0.174
       0.079
      -0.009
      -0.041
       0.000
       0.097
       0.216
       0.324
       0.396
       0.399
       0.301
       0.095
      -0.172
      -0.409
      -0.529
      -0.501
      -0.367
      -0.197
      -0.042
       0.093
       0.216
       0.307
       0.319
       0.224
       0.053
      -0.118
      -0.214
      -0.210
      -0.128
      -0.012
       0.092
       0.144
       0.129
       0.067
       0.002
      -0.027
      -0.014
       0.014
       0.018
      -0.027
      -0.100
      -0.155
      -0.148
      -0.085
      -0.011
       0.025
       0.019
       0.014
       0.059
       0.157
       0.256
       0.289
       0.240
       0.151
       0.085
       0.065
       0.061
       0.039
      -0.009
      -0.067
      -0.114
      -0.130
      -0.100
      -0.021
       0.081
       0.158
       0.161
       0.073
      -0.088
      -0.275
      -0.441
      -0.549
      -0.581
      -0.523
      -0.370
      -0.131
       0.156
       0.424
       0.610
       0.678
       0.629
       0.498
       0.337
       0.190
       0.087
       0.032
       0.015
       0.006
      -0.026
      -0.098
      -0.198
      -0.296
      -0.367
      -0.398
      -0.380
      -0.310
      -0.211
      -0.128
      -0.099
      -0.123
      -0.163
      -0.188
      -0.190
      -0.170
      -0.122
      -0.033
       0.092
       0.222
       0.313
       0.325
       0.252
       0.135
       0.045
       0.042
       0.133
       0.277
       0.404
       0.446
       0.375
       0.220
       0.046
      -0.100
      -0.221
      -0.338
      -0.441
      -0.488
      -0.448
      -0.327
      -0.164
      -0.005
       0.115
       0.184
       0.216
       0.239
       0.269
       0.287
       0.255
       0.160
       0.036
      -0.050
      -0.047
       0.030
       0.110
       0.113
       0.008
      -0.169
      -0.340
      -0.435
      -0.428
      -0.339
      -0.208
      -0.066
       0.070
       0.178
       0.222
       0.175
       0.045
      -0.109
      -0.204
      -0.169
       0.005
       0.244
       0.433
       0.492
       0.435
       0.331
       0.227
       0.109
      -0.052
      -0.231
      -0.345
      -0.325
      -0.188
      -0.036
       0.011
      -0.105
      -0.336
      -0.559
      -0.648
      -0.535
      -0.247
       0.117
       0.446
       0.666
       0.751
       0.697
       0.498
       0.159
      -0.264
      -0.638
      -0.811
      -0.696
      -0.343
       0.082
       0.398
       0.512
       0.454
       0.318
       0.186
       0.094
       0.042
       0.017
       0.008
       0.006
      -0.011
      -0.085
      -0.248
      -0.470
      -0.643
      -0.641
      -0.421
      -0.061
       0.293
       0.520
       0.596
       0.577
       0.532
       0.480
       0.387
       0.225
       0.025
      -0.143
      -0.235
      -0.262
      -0.261
      -0.262
      -0.269
      -0.272
      -0.246
      -0.153
       0.015
       0.213
       0.360
       0.398
       0.323
       0.169
      -0.015
      -0.176
      -0.264
      -0.259
      -0.179
      -0.066
       0.043
       0.122
       0.143
       0.090
      -0.015
      -0.118
      -0.166
      -0.135
      -0.026
       0.149
       0.359
       0.530
       0.560
       0.382
       0.024
      -0.389
      -0.702
      -0.819
      -0.740
      -0.533
      -0.275
      -0.017
       0.218
       0.415
       0.547
       0.584
       0.513
       0.364
       0.190
       0.030
      -0.112
      -0.246
      -0.348
      -0.361
      -0.242
      -0.023
       0.196
       0.312
       0.293
       0.197
       0.103
       0.036
      -0.044
      -0.189
      -0.393
      -0.590
      -0.702
      -0.691
      -0.574
      -0.395
      -0.199
      -0.003
       0.203
       0.431
       0.652
       0.786
       0.749
       0.525
       0.198
      -0.100
      -0.269
      -0.293
      -0.230
      -0.140
      -0.041
       0.080
       0.219
       0.317
       0.302
       0.157
      -0.044
      -0.181
      -0.195
      -0.134
      -0.103
      -0.155
      -0.230
      -0.209
      -0.024
       0.254
       0.459
       0.454
       0.244
      -0.040
      -0.250
      -0.333
      -0.335
      -0.314
      -0.270
      -0.165
       0.012
       0.217
       0.381
       0.457
       0.445
       0.368
       0.256
       0.125
      -0.012
      -0.140
      -0.235
      -0.278
      -0.259
      -0.184
      -0.065
       0.079
       0.211
       0.274
       0.219
       0.056
      -0.143
      -0.284
      -0.312
      -0.235
      -0.088
       0.096
       0.283
       0.423
       0.458
       0.363
       0.158
      -0.098
      -0.332
      -0.482
      -0.514
      -0.442
      -0.319
      -0.203
      -0.126
      -0.092
      -0.102
      -0.145
      -0.183
      -0.151
      -0.006
       0.216
       0.420
       0.513
       0.468
       0.319
       0.135
      -0.014
      -0.082
      -0.073
      -0.041
      -0.050
      -0.121
      -0.220
      -0.292
      -0.306
      -0.273
      -0.227
      -0.193
      -0.165
      -0.112
      -0.009
       0.141
       0.296
       0.408
       0.461
       0.484
       0.513
       0.541
       0.515
       0.380
       0.143
      -0.129
      -0.353
      -0.480
      -0.500
      -0.419
      -0.254
      -0.049
       0.117
       0.164
       0.051
      -0.196
      -0.487
      -0.700
      -0.721
      -0.500
      -0.096
       0.333
       0.614
       0.658
       0.517
       0.333
       0.232
       0.234
       0.266
       0.248
       0.160
       0.045
      -0.051
      -0.117
      -0.177
      -0.233
      -0.253
      -0.204
      -0.098
       0.013
       0.097
       0.188
       0.336
       0.528
       0.662
       0.615
       0.341
      -0.100
      -0.584
      -0.988
      -1.218
      -1.219
      -0.973
      -0.515
       0.059
       0.604
       0.971
       1.067
       0.903
       0.597
       0.305
       0.131
       0.078
       0.076
       0.074
       0.102
       0.218
       0.407
       0.537
       0.439
       0.058
      -0.477
      -0.921
      -1.078
      -0.914
      -0.555
      -0.171
       0.138
       0.363
       0.515
       0.565
       0.460
       0.182
      -0.218
      -0.638
      -0.969
      -1.132
      -1.089
      -0.844
      -0.449
       0.014
       0.458
       0.815
       1.048
       1.140
       1.078
       0.853
       0.483
       0.032
      -0.401
      -0.713
      -0.843
      -0.782
      -0.571
      -0.293
      -0.052
       0.062
       0.030
      -0.073
      -0.130
      -0.063
       0.124
       0.367
       0.601
       0.775
       0.839
       0.735
       0.421
      -0.086
      -0.684
      -1.212
      -1.500
      -1.455
      -1.105
      -0.591
      -0.097
       0.249
       0.416
       0.463
       0.463
       0.447
       0.403
       0.312
       0.192
       0.087
       0.037
       0.043
       0.075
       0.107
       0.133
       0.170
       0.224
       0.278
       0.287
       0.210
       0.056
      -0.113
      -0.208
      -0.178
      -0.038
       0.138
       0.261
       0.270
       0.155
      -0.050
      -0.293
      -0.524
      -0.697
      -0.760
      -0.670
      -0.422
      -0.065
       0.308
       0.599
       0.728
       0.644
       0.337
      -0.129
      -0.618
      -0.965
      -1.056
      -0.877
      -0.510
      -0.082
       0.296
       0.568
       0.739
       0.843
       0.900
       0.908
       0.855
       0.759
       0.671
       0.650
       0.723
       0.855
       0.950
       0.895
       0.626
       0.176
      -0.328
      -0.744
      -1.002
      -1.123
      -1.147
      -1.070
      -0.858
      -0.531
      -0.203
      -0.023
      -0.064
      -0.274
      -0.532
      -0.738
      -0.862
      -0.921
      -0.914
      -0.788
      -0.468
       0.069
       0.739
       1.361
       1.737
       1.744
       1.382
       0.772
       0.100
      -0.450
      -0.744
      -0.739
      -0.480
      -0.089
       0.262
       0.395
       0.187
      -0.358
      -1.092
      -1.762
      -2.124
      -2.026
      -1.441
      -0.462
       0.714
       1.805
       2.511
       2.627
       2.141
       1.242
       0.234
      -0.582
      -1.017
      -1.032
      -0.716
      -0.214
       0.331
       0.798
       1.071
       1.040
       0.667
       0.040
      -0.646
      -1.178
      -1.417
      -1.340
      -1.016
      -0.561
      -0.102
       0.259
       0.476
       0.569
       0.592
       0.596
       0.590
       0.547
       0.438
       0.266
       0.069
      -0.102
      -0.209
      -0.247
      -0.238
      -0.208
      -0.170
      -0.138
      -0.146
      -0.245
      -0.456
      -0.727
      -0.943
      -0.983
      -0.794
      -0.419
       0.039
       0.477
       0.839
       1.103
       1.243
       1.210
       0.959
       0.520
       0.021
      -0.359
      -0.486
      -0.348
      -0.054
       0.249
       0.459
       0.546
       0.520
       0.392
       0.181
      -0.066
      -0.271
      -0.356
      -0.285
      -0.089
       0.143
       0.292
       0.260
       0.012
      -0.393
      -0.818
      -1.102
      -1.140
      -0.913
      -0.477
       0.089
       0.697
       1.241
       1.592
       1.639
       1.344
       0.773
       0.070
      -0.600
      -1.107
      -1.377
      -1.390
      -1.161
      -0.734
      -0.200
       0.305
       0.635
       0.698
       0.500
       0.148
      -0.204
      -0.410
      -0.387
      -0.150
       0.189
       0.469
       0.564
       0.446
       0.189
      -0.079
      -0.239
      -0.226
      -0.058
       0.174
       0.344
       0.356
       0.194
      -0.067
      -0.316
      -0.459
      -0.454
      -0.304
      -0.044
       0.268
       0.541
       0.677
       0.605
       0.331
      -0.057
      -0.430
      -0.673
      -0.736
      -0.636
      -0.430
      -0.191
       0.016
       0.146
       0.185
       0.160
       0.126
       0.140
       0.230
       0.379
       0.533
       0.620
       0.588
       0.424
       0.163
      -0.139
      -0.440
      -0.713
      -0.939
      -1.081
      -1.093
      -0.945
      -0.656
      -0.299
       0.022
       0.228
       0.300
       0.279
       0.222
       0.166
       0.123
       0.107
       0.134
       0.223
       0.382
       0.596
       0.826
       1.009
       1.081
       0.995
       0.746
       0.375
      -0.045
      -0.428
      -0.711
      -0.869
      -0.918
      -0.889
      -0.809
      -0.685
      -0.516
      -0.304
      -0.079
       0.108
       0.208
       0.207
       0.130
       0.014
      -0.120
      -0.263
      -0.398
      -0.488
      -0.489
      -0.382
      -0.187
       0.042
       0.238
       0.356
       0.392
       0.375
       0.345
       0.321
       0.287
       0.214
       0.084
      -0.091
      -0.276
      -0.429
      -0.519
      -0.526
      -0.438
      -0.251
       0.019
       0.323
       0.589
       0.744
       0.747
       0.605
       0.371
       0.129
      -0.044
      -0.102
      -0.056
       0.035
       0.092
       0.068
      -0.030
      -0.150
      -0.229
      -0.225
      -0.134
       0.015
       0.176
       0.308
       0.380
       0.380
       0.306
       0.177
       0.026
      -0.104
      -0.177
      -0.171
      -0.079
       0.090
       0.299
       0.483
       0.574
       0.547
       0.431
       0.291
       0.181
       0.105
       0.032
      -0.071
      -0.210
      -0.353
      -0.447
      -0.439
      -0.316
      -0.121
       0.057
       0.121
       0.027
      -0.196
      -0.464
      -0.689
      -0.822
      -0.854
      -0.803
      -0.692
      -0.540
      -0.368
      -0.190
      -0.011
       0.171
       0.352
       0.523
       0.680
       0.822
       0.941
       1.000
       0.949
       0.757
       0.451
       0.112
      -0.159
      -0.299
      -0.299
      -0.200
      -0.061
       0.063
       0.135
       0.142
       0.097
       0.022
      -0.059
      -0.133
      -0.190
      -0.232
      -0.262
      -0.287
      -0.315
      -0.350
      -0.385
      -0.402
      -0.372
      -0.279
      -0.130
       0.037
       0.174
       0.243
       0.232
       0.155
       0.034
      -0.112
      -0.262
      -0.390
      -0.466
      -0.469
      -0.397
      -0.266
      -0.107
       0.042
       0.146
       0.181
       0.149
       0.077
       0.015
       0.003
       0.048
       0.113
       0.149
       0.130
       0.077
       0.031
       0.026
       0.063
       0.121
       0.169
       0.192
       0.190
       0.174
       0.153
       0.122
       0.068
      -0.016
      -0.123
      -0.234
      -0.334
      -0.416
      -0.481
      -0.520
      -0.517
      -0.457
      -0.338
      -0.168
       0.040
       0.268
       0.491
       0.669
       0.769
       0.773
       0.685
       0.520
       0.298
       0.051
      -0.167
      -0.298
      -0.309
      -0.211
      -0.048
       0.123
       0.259
       0.334
       0.336
       0.264
       0.133
      -0.032
      -0.194
      -0.320
      -0.393
      -0.414
      -0.398
      -0.358
      -0.295
      -0.202
      -0.080
       0.062
       0.205
       0.332
       0.429
       0.480
       0.468
       0.386
       0.244
       0.076
      -0.075
      -0.175
      -0.209
      -0.184
      -0.120
      -0.040
       0.033
       0.077
       0.073
       0.017
      -0.077
      -0.183
      -0.267
      -0.302
      -0.281
      -0.225
      -0.172
      -0.150
      -0.154
      -0.156
      -0.130
      -0.067
       0.019
       0.104
       0.172
       0.213
       0.226
       0.216
       0.187
       0.150
       0.114
       0.094
       0.100
       0.125
       0.149
       0.141
       0.087
      -0.009
      -0.117
      -0.200
      -0.231
      -0.208
      -0.154
      -0.103
