Origin Time       09/07/2013 13:49:13
Lat.              32.9 N 
Long.             78.4 E 
Depth (Km)         10.0
Magnitude         5.1
 Region           J&K-HIMACHAL-Border                                              
 Above details taken from IMD 
   
Station Code      CHM
Station Lat.       32.555
Station Long.      76.126
Station Height(m)  952.0
Site Class        A   Vs30 between 700 m/sec to 1400 m/sec * 
Record Time       09.07.2013 21:59:43.264
Sampling Rate     200. Hz
 Record Duration   65.035 Sec.
 Direction         Vert. (Up positive)
Max. Acceleration      3.676 cm/sec**2
     
  * For reference see Site Classification link of website 
     
 Base Line Corrected and Low Pass Filtered (Cut Off at 35 Hz) Time History
 Acceleration data in cm/sec**2
    
[...]
       0.005
       0.011
       0.010
       0.003
      -0.003
      -0.003
       0.004
       0.014
       0.020
       0.017
       0.008
      -0.003
      -0.008
      -0.006
      -0.001
       0.005
       0.009
       0.011
       0.011
       0.008
       0.002
      -0.006
      -0.010
      -0.007
       0.001
       0.009
       0.012
       0.014
       0.015
       0.016
       0.015
       0.014
       0.013
       0.010
       0.004
      -0.001
      -0.004
      -0.004
      -0.003
      -0.004
      -0.007
      -0.009
      -0.007
      -0.002
       0.004
       0.005
       0.002
      -0.004
      -0.011
      -0.015
      -0.014
      -0.008
       0.001
       0.007
       0.011
       0.012
       0.010
       0.005
      -0.001
      -0.004
      -0.003
      -0.001
       0.001
       0.004
       0.008
       0.014
       0.016
       0.014
       0.008
       0.000
      -0.002
       0.001
       0.007
       0.012
       0.011
       0.005
      -0.001
      -0.004
      -0.001
       0.005
       0.011
       0.013
       0.012
       0.011
       0.010
       0.006
       0.000
      -0.003
       0.002
       0.010
       0.015
       0.012
       0.004
      -0.006
      -0.011
      -0.009
      -0.003
       0.004
       0.007
       0.004
      -0.003
      -0.008
      -0.007
      -0.001
       0.005
       0.006
       0.004
       0.005
       0.009
       0.011
       0.010
       0.008
       0.006
       0.004
       0.002
       0.001
       0.003
       0.009
       0.014
       0.016
       0.012
       0.004
      -0.004
      -0.009
      -0.010
      -0.009
      -0.005
       0.000
       0.005
       0.007
       0.007
       0.007
       0.006
       0.005
       0.005
       0.006
       0.007
       0.003
      -0.002
      -0.007
      -0.007
      -0.004
       0.000
       0.001
       0.001
       0.001
       0.003
       0.008
       0.012
       0.012
       0.008
       0.002
      -0.001
      -0.001
       0.005
       0.012
       0.018
       0.017
       0.011
       0.006
       0.002
       0.000
      -0.001
      -0.002
      -0.002
       0.001
       0.008
       0.017
       0.023
       0.021
       0.013
       0.004
      -0.002
      -0.003
      -0.003
      -0.003
      -0.001
       0.003
       0.007
       0.008
       0.001
      -0.007
      -0.011
      -0.008
      -0.001
       0.004
       0.005
       0.002
      -0.002
      -0.004
       0.001
       0.008
       0.011
       0.006
      -0.003
      -0.011
      -0.011
      -0.004
       0.003
       0.004
      -0.002
      -0.010
      -0.015
      -0.015
      -0.012
      -0.009
      -0.007
      -0.006
      -0.005
      -0.003
       0.001
       0.005
       0.004
      -0.001
      -0.006
      -0.008
      -0.008
      -0.006
      -0.001
       0.006
       0.011
       0.012
       0.009
       0.003
      -0.005
      -0.013
      -0.017
      -0.015
      -0.005
       0.006
       0.013
       0.011
       0.003
      -0.006
      -0.010
      -0.009
      -0.004
       0.001
       0.004
       0.003
      -0.001
      -0.006
      -0.007
      -0.005
      -0.003
      -0.003
      -0.001
       0.005
       0.011
       0.012
       0.004
      -0.008
      -0.016
      -0.013
      -0.003
       0.008
       0.012
       0.010
       0.005
       0.003
       0.004
       0.007
       0.009
       0.007
       0.001
      -0.003
      -0.005
      -0.006
      -0.008
      -0.010
      -0.008
      -0.002
       0.003
       0.003
      -0.002
      -0.011
      -0.020
      -0.025
      -0.024
      -0.018
      -0.010
      -0.003
       0.000
       0.000
       0.000
       0.000
       0.000
      -0.003
      -0.008
      -0.011
      -0.009
      -0.003
       0.001
       0.000
      -0.004
      -0.009
      -0.012
      -0.008
       0.000
       0.009
       0.014
       0.013
       0.007
       0.000
      -0.005
      -0.009
      -0.010
      -0.010
      -0.007
      -0.004
      -0.003
      -0.004
      -0.006
      -0.008
      -0.009
      -0.012
      -0.015
      -0.013
      -0.007
       0.001
       0.006
       0.006
       0.002
      -0.004
      -0.009
      -0.010
      -0.008
      -0.004
       0.000
       0.000
      -0.003
      -0.006
      -0.005
       0.002
       0.010
       0.014
       0.009
       0.001
      -0.008
      -0.015
      -0.019
      -0.017
      -0.010
      -0.001
       0.006
       0.009
       0.008
       0.005
       0.002
       0.002
       0.001
      -0.002
      -0.007
      -0.011
      -0.010
      -0.004
       0.004
       0.010
       0.011
       0.007
      -0.001
      -0.007
      -0.008
      -0.003
       0.007
       0.015
       0.014
       0.006
      -0.006
      -0.014
      -0.017
      -0.014
      -0.008
      -0.001
       0.003
       0.000
      -0.008
      -0.017
      -0.020
      -0.015
      -0.005
       0.008
       0.017
       0.020
       0.016
       0.009
       0.003
       0.000
       0.001
       0.002
      -0.002
      -0.007
      -0.007
       0.000
       0.010
       0.012
       0.006
      -0.003
      -0.010
      -0.009
      -0.003
       0.006
       0.010
       0.006
      -0.001
      -0.005
      -0.003
       0.004
       0.011
       0.013
       0.010
       0.003
      -0.004
      -0.007
      -0.006
      -0.001
       0.005
       0.009
       0.008
       0.003
       0.000
       0.002
       0.008
       0.010
       0.009
       0.005
      -0.001
      -0.006
      -0.006
      -0.002
       0.002
       0.002
      -0.003
      -0.009
      -0.012
      -0.009
      -0.001
       0.007
       0.012
       0.010
       0.002
      -0.009
      -0.015
      -0.013
      -0.006
      -0.001
      -0.002
      -0.004
      -0.004
      -0.001
       0.000
      -0.003
      -0.007
      -0.007
      -0.003
       0.000
       0.002
       0.004
       0.006
       0.007
       0.007
       0.007
       0.006
       0.003
      -0.002
      -0.006
      -0.006
      -0.001
       0.004
       0.005
       0.001
      -0.002
      -0.001
       0.003
       0.004
      -0.001
      -0.008
      -0.014
      -0.014
      -0.010
      -0.004
      -0.001
       0.000
       0.003
       0.011
       0.021
       0.023
       0.013
      -0.004
      -0.017
      -0.019
      -0.011
       0.001
       0.010
       0.015
       0.014
       0.008
       0.001
       0.000
       0.006
       0.015
       0.019
       0.014
       0.003
      -0.006
      -0.012
      -0.014
      -0.011
      -0.005
       0.004
       0.009
       0.011
       0.011
       0.011
       0.007
       0.000
      -0.007
      -0.011
      -0.008
       0.000
       0.010
       0.018
       0.021
       0.018
       0.009
       0.001
      -0.004
      -0.003
       0.001
       0.004
       0.003
      -0.001
      -0.002
      -0.002
       0.001
       0.006
       0.011
       0.011
       0.004
      -0.008
      -0.018
      -0.023
      -0.022
      -0.017
      -0.011
      -0.004
       0.002
       0.005
       0.006
       0.005
       0.002
       0.000
       0.000
       0.000
      -0.001
      -0.003
      -0.007
      -0.010
      -0.013
      -0.013
      -0.011
      -0.009
      -0.006
      -0.001
       0.006
       0.008
       0.002
      -0.010
      -0.020
      -0.023
      -0.018
      -0.008
       0.002
       0.006
       0.001
      -0.006
      -0.010
      -0.007
      -0.003
      -0.001
      -0.003
      -0.004
      -0.002
       0.004
       0.010
       0.009
       0.003
      -0.005
      -0.009
      -0.010
      -0.012
      -0.014
      -0.018
      -0.022
      -0.023
      -0.018
      -0.010
      -0.005
      -0.006
      -0.010
      -0.013
      -0.012
      -0.006
       0.000
       0.002
      -0.001
      -0.007
      -0.010
      -0.007
      -0.001
       0.005
       0.007
       0.006
       0.005
       0.007
       0.011
       0.013
       0.008
      -0.002
      -0.013
      -0.019
      -0.016
      -0.008
       0.003
       0.010
       0.008
       0.001
      -0.003
      -0.003
       0.000
      -0.002
      -0.008
      -0.014
      -0.015
      -0.013
      -0.012
      -0.014
      -0.016
      -0.015
      -0.008
      -0.001
       0.002
       0.001
      -0.002
      -0.002
       0.000
       0.005
       0.010
       0.012
       0.007
      -0.003
      -0.011
      -0.010
      -0.002
       0.005
       0.004
      -0.005
      -0.016
      -0.023
      -0.020
      -0.010
       0.001
       0.007
       0.005
      -0.002
      -0.008
      -0.009
      -0.005
       0.000
       0.000
      -0.006
      -0.015
      -0.021
      -0.022
      -0.015
      -0.003
       0.006
       0.008
       0.003
      -0.005
      -0.011
      -0.016
      -0.017
      -0.015
      -0.008
      -0.002
      -0.002
      -0.008
      -0.015
      -0.017
      -0.015
      -0.012
      -0.011
      -0.009
      -0.001
       0.007
       0.011
       0.004
      -0.007
      -0.013
      -0.012
      -0.006
      -0.001
       0.000
      -0.002
      -0.005
      -0.007
      -0.009
      -0.010
      -0.011
      -0.010
      -0.007
      -0.001
       0.003
       0.004
       0.003
       0.001
      -0.001
      -0.002
      -0.003
      -0.005
      -0.007
      -0.008
      -0.008
      -0.010
      -0.011
      -0.009
      -0.002
       0.005
       0.008
       0.007
       0.004
       0.002
      -0.001
      -0.005
      -0.007
      -0.007
      -0.005
      -0.002
       0.001
       0.004
       0.006
       0.004
      -0.002
      -0.010
      -0.014
      -0.011
      -0.005
       0.000
       0.002
       0.002
      -0.001
      -0.004
      -0.007
      -0.007
      -0.002
       0.004
       0.009
       0.011
       0.008
       0.000
      -0.012
      -0.018
      -0.015
      -0.006
       0.000
       0.002
       0.001
       0.002
       0.005
       0.007
       0.006
       0.003
       0.000
      -0.001
      -0.001
      -0.002
      -0.004
      -0.007
      -0.011
      -0.016
      -0.017
      -0.012
      -0.004
       0.001
      -0.001
      -0.004
      -0.007
      -0.008
      -0.009
      -0.009
      -0.003
       0.006
       0.013
       0.013
       0.005
      -0.006
      -0.015
      -0.018
      -0.016
      -0.011
      -0.007
      -0.005
      -0.007
      -0.012
      -0.020
      -0.029
      -0.038
      -0.046
      -0.044
      -0.025
       0.007
       0.042
       0.067
       0.075
       0.066
       0.047
       0.031
       0.029
       0.042
       0.060
       0.064
       0.039
      -0.021
      -0.105
      -0.192
      -0.254
      -0.267
      -0.223
      -0.134
      -0.026
       0.083
       0.185
       0.269
       0.309
       0.267
       0.136
      -0.037
      -0.176
      -0.234
      -0.209
      -0.123
      -0.003
       0.106
       0.148
       0.096
      -0.007
      -0.081
      -0.085
      -0.053
      -0.046
      -0.074
      -0.072
       0.026
       0.190
       0.295
       0.227
      -0.006
      -0.270
      -0.417
      -0.374
      -0.179
       0.059
       0.227
       0.268
       0.211
       0.128
       0.058
      -0.008
      -0.092
      -0.165
      -0.160
      -0.033
       0.181
       0.367
       0.399
       0.223
      -0.098
      -0.430
      -0.633
      -0.633
      -0.443
      -0.146
       0.146
       0.337
       0.389
       0.331
       0.231
       0.144
       0.081
       0.022
      -0.049
      -0.104
      -0.086
       0.032
       0.184
       0.236
       0.100
      -0.170
      -0.394
      -0.415
      -0.235
      -0.014
       0.073
      -0.014
      -0.155
      -0.178
      -0.019
       0.224
       0.381
       0.364
       0.244
       0.162
       0.181
       0.218
       0.140
      -0.090
      -0.371
      -0.548
      -0.533
      -0.347
      -0.090
       0.117
       0.191
       0.123
      -0.004
      -0.071
      -0.010
       0.142
       0.274
       0.301
       0.229
       0.134
       0.069
       0.010
      -0.088
      -0.218
      -0.321
      -0.341
      -0.271
      -0.130
       0.049
       0.206
       0.266
       0.197
       0.049
      -0.083
      -0.128
      -0.082
       0.019
       0.130
       0.214
       0.240
       0.186
       0.060
      -0.093
      -0.209
      -0.245
      -0.205
      -0.132
      -0.074
      -0.052
      -0.054
      -0.055
      -0.032
       0.024
       0.106
       0.196
       0.260
       0.261
       0.172
       0.004
      -0.187
      -0.320
      -0.340
      -0.252
      -0.112
       0.021
       0.110
       0.144
       0.122
       0.045
      -0.067
      -0.165
      -0.185
      -0.085
       0.114
       0.328
       0.448
       0.406
       0.225
      -0.001
      -0.176
      -0.273
      -0.320
      -0.339
      -0.306
      -0.186
       0.009
       0.197
       0.280
       0.207
       0.014
      -0.193
      -0.285
      -0.191
       0.055
       0.332
       0.498
       0.469
       0.262
      -0.016
      -0.237
      -0.327
      -0.312
      -0.275
      -0.255
      -0.203
      -0.022
       0.308
       0.664
       0.838
       0.684
       0.216
      -0.437
      -1.135
      -1.776
      -2.232
      -2.287
      -1.716
      -0.471
       1.180
       2.731
       3.664
       3.676
       2.774
       1.229
      -0.528
      -2.019
      -2.830
      -2.746
      -1.856
      -0.550
       0.638
       1.284
       1.254
       0.707
      -0.040
      -0.681
      -1.012
      -0.937
      -0.450
       0.365
       1.287
       1.941
       1.917
       1.029
      -0.471
      -1.939
      -2.676
      -2.345
      -1.143
       0.368
       1.596
       2.171
       2.006
       1.240
       0.153
      -0.915
      -1.671
      -1.948
      -1.705
      -0.980
       0.108
       1.299
       2.190
       2.377
       1.703
       0.401
      -0.978
      -1.861
      -1.953
      -1.370
      -0.520
       0.176
       0.527
       0.613
       0.617
       0.607
       0.500
       0.226
      -0.093
      -0.197
       0.047
       0.457
       0.654
       0.405
      -0.164
      -0.685
      -0.867
      -0.715
      -0.461
      -0.335
      -0.379
      -0.463
      -0.425
      -0.207
       0.122
       0.422
       0.584
       0.607
       0.584
       0.602
       0.631
       0.525
       0.166
      -0.378
      -0.845
      -0.960
      -0.652
      -0.105
       0.385
       0.625
       0.633
       0.544
       0.457
       0.350
       0.136
      -0.228
      -0.677
      -1.046
      -1.156
      -0.920
      -0.414
       0.166
       0.619
       0.857
       0.921
       0.887
       0.763
       0.472
      -0.042
      -0.696
      -1.260
      -1.481
      -1.248
      -0.656
       0.045
       0.589
       0.826
       0.780
       0.591
       0.402
       0.275
       0.201
       0.157
       0.134
       0.121
       0.073
      -0.059
      -0.283
      -0.538
      -0.729
      -0.779
      -0.660
      -0.385
       0.015
       0.488
       0.943
       1.233
       1.209
       0.825
       0.206
      -0.398
      -0.765
      -0.852
      -0.793
      -0.757
      -0.785
      -0.761
      -0.535
      -0.086
       0.433
       0.807
       0.903
       0.762
       0.535
       0.354
       0.227
       0.070
      -0.165
      -0.409
      -0.528
      -0.449
      -0.243
      -0.066
      -0.046
      -0.171
      -0.311
      -0.326
      -0.171
       0.081
       0.315
       0.456
       0.478
       0.395
       0.236
       0.029
      -0.202
      -0.422
      -0.553
      -0.497
      -0.211
       0.232
       0.648
       0.840
       0.711
       0.313
      -0.183
      -0.581
      -0.753
      -0.676
      -0.423
      -0.108
       0.153
       0.285
       0.270
       0.154
       0.020
      -0.052
      -0.013
       0.125
       0.287
       0.369
       0.302
       0.090
      -0.193
      -0.447
      -0.579
      -0.534
      -0.324
      -0.025
       0.257
       0.446
       0.519
       0.483
       0.335
       0.076
      -0.248
      -0.520
      -0.607
      -0.468
      -0.199
       0.030
       0.099
       0.025
      -0.069
      -0.064
       0.056
       0.197
       0.243
       0.160
       0.035
       0.000
       0.107
       0.279
       0.366
       0.279
       0.060
      -0.159
      -0.269
      -0.262
      -0.196
      -0.127
      -0.066
      -0.009
       0.025
       0.007
      -0.071
      -0.176
      -0.265
      -0.317
      -0.321
      -0.263
      -0.125
       0.090
       0.337
       0.545
       0.654
       0.644
       0.534
       0.348
       0.095
      -0.212
      -0.520
      -0.721
      -0.707
      -0.442
      -0.018
       0.367
       0.514
       0.356
       0.011
      -0.296
      -0.402
      -0.305
      -0.128
       0.020
       0.127
       0.244
       0.371
       0.418
       0.278
      -0.040
      -0.383
      -0.558
      -0.480
      -0.210
       0.111
       0.366
       0.502
       0.502
       0.356
       0.072
      -0.287
      -0.595
      -0.718
      -0.606
      -0.328
      -0.019
       0.215
       0.340
       0.379
       0.359
       0.288
       0.174
       0.052
      -0.018
       0.026
       0.181
       0.351
       0.382
       0.174
      -0.223
      -0.620
      -0.825
      -0.769
      -0.529
      -0.221
       0.092
       0.395
       0.650
       0.772
       0.687
       0.417
       0.083
      -0.171
      -0.270
      -0.244
      -0.179
      -0.156
      -0.206
      -0.313
      -0.431
      -0.501
      -0.472
      -0.313
      -0.040
       0.290
       0.591
       0.773
       0.771
       0.575
       0.248
      -0.095
      -0.342
      -0.440
      -0.407
      -0.292
      -0.139
       0.014
       0.120
       0.133
       0.048
      -0.075
      -0.144
      -0.105
       0.028
       0.187
       0.302
       0.321
       0.219
       0.008
      -0.255
      -0.476
      -0.563
      -0.476
      -0.248
       0.033
       0.269
       0.384
       0.340
       0.153
      -0.097
      -0.286
      -0.313
      -0.163
       0.085
       0.323
       0.470
       0.499
       0.421
       0.268
       0.080
      -0.106
      -0.253
      -0.320
      -0.273
      -0.125
       0.046
       0.138
       0.090
      -0.071
      -0.262
      -0.404
      -0.459
      -0.427
      -0.313
      -0.116
       0.152
       0.434
       0.638
       0.689
       0.578
       0.360
       0.108
      -0.129
      -0.335
      -0.503
      -0.606
      -0.593
      -0.427
      -0.135
       0.175
       0.373
       0.394
       0.279
       0.120
      -0.009
      -0.093
      -0.150
      -0.182
      -0.155
      -0.030
       0.189
       0.425
       0.559
       0.503
       0.258
      -0.073
      -0.339
      -0.432
      -0.360
      -0.221
      -0.113
      -0.051
       0.018
       0.124
       0.209
       0.171
      -0.026
      -0.280
      -0.403
      -0.278
       0.031
       0.310
       0.365
       0.168
