Origin Time       05/06/2013 22:04:00 UTC
Lat.              32.8 N 
Long.             76.3 E 
Depth (Km)         10.0
Magnitude         4.5
 Region           Chamba-Himavhal-Pradesh                                          
 Above details taken from IMD 
    
Station Code      CHM
Station Lat.       32.555  N
Station Long.      76.126  E
Station Height(m)  952.0
Site Class        A   Vs30 between 700 m/sec to 1400 m/sec * 
Record Time       05.06.2013 22:00:49.959 UTC
Sampling Rate     200. Hz
 Record Duration   75.225 Sec.
 Direction         N-S (N positive)
Max. Acceleration      7.884 cm/sec**2
     
  * For reference see Site Classification link of website 
     
 Base Line Corrected and Low Pass Filtered (Cut Off at 35 Hz) Time History
 Acceleration data in cm/sec**2
    
[...]
      -0.107
      -0.181
      -0.094
       0.214
       0.574
       0.734
       0.578
       0.208
      -0.148
      -0.309
      -0.261
      -0.131
      -0.060
      -0.085
      -0.139
      -0.150
      -0.121
      -0.131
      -0.257
      -0.491
      -0.722
      -0.805
      -0.668
      -0.376
      -0.076
       0.121
       0.202
       0.205
       0.136
      -0.039
      -0.305
      -0.531
      -0.528
      -0.190
       0.395
       0.971
       1.271
       1.192
       0.849
       0.497
       0.361
       0.510
       0.816
       1.033
       0.950
       0.551
       0.048
      -0.278
      -0.302
      -0.146
      -0.041
      -0.108
      -0.281
      -0.416
      -0.455
      -0.493
      -0.675
      -1.016
      -1.315
      -1.291
      -0.843
      -0.188
       0.285
       0.320
      -0.012
      -0.387
      -0.477
      -0.169
       0.395
       0.941
       1.247
       1.261
       1.074
       0.809
       0.541
       0.319
       0.202
       0.238
       0.385
       0.501
       0.441
       0.187
      -0.144
      -0.413
      -0.576
      -0.696
      -0.831
      -0.949
      -0.961
      -0.848
      -0.710
      -0.681
      -0.764
      -0.797
      -0.590
      -0.117
       0.443
       0.855
       1.008
       0.944
       0.763
       0.516
       0.206
      -0.136
      -0.417
      -0.534
      -0.455
      -0.260
      -0.083
      -0.024
      -0.077
      -0.125
      -0.029
       0.249
       0.588
       0.792
       0.757
       0.553
       0.337
       0.197
       0.075
      -0.134
      -0.450
      -0.770
      -0.951
      -0.912
      -0.669
      -0.308
       0.063
       0.360
       0.542
       0.610
       0.588
       0.504
       0.388
       0.275
       0.211
       0.228
       0.297
       0.326
       0.213
      -0.069
      -0.422
      -0.699
      -0.808
      -0.779
      -0.703
      -0.629
      -0.525
      -0.337
      -0.074
       0.169
       0.287
       0.255
       0.154
       0.101
       0.148
       0.267
       0.405
       0.541
       0.660
       0.715
       0.641
       0.405
       0.057
      -0.282
      -0.474
      -0.431
      -0.197
       0.058
       0.140
      -0.022
      -0.319
      -0.557
      -0.626
      -0.575
      -0.535
      -0.572
      -0.605
      -0.478
      -0.114
       0.374
       0.748
       0.815
       0.587
       0.262
       0.058
       0.036
       0.092
       0.082
      -0.044
      -0.229
      -0.379
      -0.423
      -0.329
      -0.087
       0.266
       0.620
       0.809
       0.700
       0.300
      -0.223
      -0.635
      -0.791
      -0.716
      -0.544
      -0.395
      -0.303
      -0.242
      -0.201
      -0.192
      -0.200
      -0.151
       0.036
       0.370
       0.760
       1.063
       1.176
       1.077
       0.821
       0.514
       0.252
       0.083
      -0.008
      -0.055
      -0.072
      -0.054
      -0.025
      -0.052
      -0.196
      -0.439
      -0.652
      -0.676
      -0.456
      -0.111
       0.135
       0.119
      -0.132
      -0.425
      -0.547
      -0.428
      -0.164
       0.073
       0.177
       0.172
       0.154
       0.194
       0.287
       0.383
       0.444
       0.452
       0.379
       0.189
      -0.109
      -0.420
      -0.597
      -0.541
      -0.277
       0.066
       0.329
       0.395
       0.242
      -0.054
      -0.353
      -0.534
      -0.553
      -0.447
      -0.269
      -0.057
       0.171
       0.386
       0.550
       0.634
       0.626
       0.528
       0.348
       0.113
      -0.129
      -0.313
      -0.376
      -0.279
      -0.031
       0.308
       0.638
       0.855
       0.887
       0.723
       0.434
       0.143
      -0.031
      -0.047
       0.027
       0.067
      -0.033
      -0.296
      -0.652
      -0.985
      -1.186
      -1.192
      -0.988
      -0.620
      -0.193
       0.142
       0.272
       0.206
       0.076
       0.040
       0.159
       0.360
       0.509
       0.523
       0.438
       0.355
       0.334
       0.319
       0.194
      -0.091
      -0.436
      -0.643
      -0.577
      -0.276
       0.072
       0.274
       0.264
       0.116
      -0.037
      -0.110
      -0.100
      -0.062
      -0.062
      -0.146
      -0.319
      -0.548
      -0.769
      -0.914
      -0.934
      -0.809
      -0.537
      -0.138
       0.338
       0.809
       1.177
       1.370
       1.374
       1.231
       1.003
       0.726
       0.396
      -0.011
      -0.479
      -0.940
      -1.290
      -1.455
      -1.427
      -1.264
      -1.031
      -0.759
      -0.444
      -0.084
       0.289
       0.604
       0.790
       0.807
       0.676
       0.470
       0.293
       0.224
       0.279
       0.409
       0.554
       0.684
       0.808
       0.929
       1.012
       1.002
       0.871
       0.659
       0.460
       0.354
       0.346
       0.355
       0.267
      -0.006
      -0.488
      -1.128
      -1.803
      -2.337
      -2.559
      -2.374
      -1.839
      -1.146
      -0.536
      -0.155
       0.006
       0.054
       0.079
       0.089
       0.061
       0.024
       0.090
       0.382
       0.924
       1.579
       2.105
       2.287
       2.072
       1.590
       1.065
       0.676
       0.473
       0.383
       0.288
       0.098
      -0.210
      -0.584
      -0.926
      -1.147
      -1.214
      -1.159
      -1.039
      -0.894
      -0.744
      -0.613
      -0.538
      -0.536
      -0.583
      -0.627
      -0.623
      -0.555
      -0.422
      -0.230
       0.014
       0.297
       0.609
       0.932
       1.222
       1.388
       1.334
       1.043
       0.626
       0.269
       0.089
       0.048
       0.010
      -0.119
      -0.312
      -0.479
      -0.579
      -0.637
      -0.674
      -0.627
      -0.388
       0.078
       0.644
       1.086
       1.231
       1.070
       0.735
       0.380
       0.088
      -0.127
      -0.283
      -0.385
      -0.425
      -0.400
      -0.328
      -0.249
      -0.205
      -0.224
      -0.299
      -0.392
      -0.461
      -0.489
      -0.500
      -0.542
      -0.647
      -0.788
      -0.879
      -0.822
      -0.578
      -0.216
       0.121
       0.297
       0.275
       0.124
      -0.031
      -0.089
      -0.010
       0.189
       0.457
       0.729
       0.942
       1.044
       1.021
       0.913
       0.807
       0.792
       0.899
       1.066
       1.156
       1.028
       0.626
       0.034
      -0.553
      -0.946
      -1.075
      -1.014
      -0.889
      -0.795
      -0.764
      -0.797
      -0.889
      -1.009
      -1.099
      -1.098
      -0.977
      -0.755
      -0.488
      -0.248
      -0.089
      -0.006
       0.065
       0.199
       0.421
       0.680
       0.897
       1.017
       1.041
       0.999
       0.914
       0.781
       0.588
       0.347
       0.086
      -0.170
      -0.404
      -0.580
      -0.639
      -0.521
      -0.225
       0.166
       0.512
       0.683
       0.620
       0.362
       0.017
      -0.286
      -0.452
      -0.459
      -0.352
      -0.210
      -0.101
      -0.056
      -0.074
      -0.132
      -0.191
      -0.203
      -0.119
       0.088
       0.396
       0.730
       0.980
       1.061
       0.963
       0.758
       0.539
       0.342
       0.143
      -0.090
      -0.338
      -0.541
      -0.658
      -0.699
      -0.702
      -0.694
      -0.677
      -0.646
      -0.612
      -0.593
      -0.588
      -0.563
      -0.465
      -0.259
       0.032
       0.316
       0.479
       0.463
       0.320
       0.179
       0.140
       0.185
       0.207
       0.123
      -0.021
      -0.073
       0.094
       0.460
       0.846
       1.034
       0.911
       0.538
       0.097
      -0.236
      -0.395
      -0.427
      -0.421
      -0.427
      -0.436
      -0.425
      -0.400
      -0.399
      -0.437
      -0.466
      -0.391
      -0.160
       0.163
       0.417
       0.456
       0.250
      -0.094
      -0.412
      -0.591
      -0.624
      -0.595
      -0.609
      -0.708
      -0.836
      -0.867
      -0.704
      -0.367
       0.005
       0.256
       0.325
       0.271
       0.198
       0.159
       0.142
       0.129
       0.144
       0.223
       0.344
       0.407
       0.304
       0.030
      -0.291
      -0.481
      -0.435
      -0.179
       0.185
       0.549
       0.838
       0.993
       0.976
       0.798
       0.544
       0.348
       0.311
       0.431
       0.605
       0.696
       0.624
       0.398
       0.081
      -0.260
      -0.584
      -0.854
      -1.013
      -1.002
      -0.813
      -0.514
      -0.226
      -0.042
       0.038
       0.100
       0.242
       0.491
       0.780
       1.002
       1.080
       1.012
       0.841
       0.611
       0.337
       0.004
      -0.386
      -0.776
      -1.059
      -1.145
      -1.038
      -0.863
      -0.779
      -0.850
      -0.960
      -0.896
      -0.524
       0.081
       0.660
       0.955
       0.866
       0.496
       0.050
      -0.293
      -0.438
      -0.366
      -0.086
       0.380
       0.983
       1.610
       2.079
       2.201
       1.865
       1.116
       0.154
      -0.735
      -1.293
      -1.394
      -1.104
      -0.639
      -0.264
      -0.165
      -0.392
      -0.868
      -1.445
      -1.956
      -2.242
      -2.176
      -1.699
      -0.849
       0.226
       1.298
       2.127
       2.547
       2.533
       2.214
       1.819
       1.579
       1.621
       1.901
       2.222
       2.340
       2.095
       1.482
       0.600
      -0.454
      -1.635
      -2.881
      -4.026
      -4.806
      -5.011
      -4.635
      -3.885
      -3.042
      -2.286
      -1.655
      -1.136
      -0.756
      -0.578
      -0.613
      -0.757
      -0.817
      -0.622
      -0.111
       0.632
       1.425
       2.073
       2.444
       2.497
       2.276
       1.877
       1.402
       0.938
       0.543
       0.267
       0.166
       0.276
       0.574
       0.937
       1.194
       1.221
       1.022
       0.718
       0.461
       0.343
       0.367
       0.465
       0.533
       0.481
       0.292
       0.064
      -0.003
       0.281
       0.945
       1.791
       2.486
       2.776
       2.643
       2.285
       1.913
       1.556
       1.066
       0.299
      -0.694
      -1.658
      -2.316
      -2.571
      -2.563
      -2.550
      -2.707
      -3.004
      -3.248
      -3.243
      -2.946
      -2.472
      -1.976
      -1.512
      -1.016
      -0.401
       0.328
       1.049
       1.602
       1.882
       1.890
       1.721
       1.533
       1.506
       1.788
       2.427
       3.308
       4.155
       4.622
       4.452
       3.601
       2.261
       0.777
      -0.504
      -1.346
      -1.702
      -1.696
      -1.540
      -1.424
      -1.437
      -1.579
      -1.809
      -2.071
      -2.294
      -2.399
      -2.331
      -2.099
      -1.773
      -1.428
      -1.104
      -0.807
      -0.547
      -0.355
      -0.244
      -0.163
       0.004
       0.343
       0.809
       1.220
       1.381
       1.214
       0.789
       0.235
      -0.348
      -0.905
      -1.371
      -1.638
      -1.592
      -1.195
      -0.537
       0.190
       0.810
       1.253
       1.567
       1.847
       2.149
       2.459
       2.721
       2.869
       2.861
       2.685
       2.364
       1.928
       1.389
       0.738
      -0.026
      -0.858
      -1.665
      -2.359
      -2.908
      -3.347
      -3.739
      -4.108
      -4.421
      -4.616
      -4.650
      -4.532
      -4.310
      -4.033
      -3.717
      -3.330
      -2.826
      -2.176
      -1.385
      -0.470
       0.547
       1.621
       2.629
       3.377
       3.684
       3.528
       3.116
       2.788
       2.782
       3.057
       3.316
       3.232
       2.693
       1.865
       1.039
       0.402
      -0.069
      -0.510
      -0.976
      -1.348
      -1.423
      -1.119
      -0.593
      -0.160
      -0.061
      -0.285
      -0.566
      -0.582
      -0.175
       0.548
       1.316
       1.870
       2.097
       2.031
       1.763
       1.359
       0.848
       0.273
      -0.262
      -0.609
      -0.658
      -0.416
      -0.025
       0.307
       0.394
       0.148
      -0.386
      -1.052
      -1.643
      -1.986
      -2.025
      -1.839
      -1.593
      -1.431
      -1.376
      -1.321
      -1.115
      -0.688
      -0.104
       0.500
       1.007
       1.375
       1.616
       1.752
       1.793
       1.748
       1.658
       1.602
       1.687
       1.993
       2.530
       3.205
       3.843
       4.244
       4.281
       3.965
       3.434
       2.868
       2.376
       1.945
       1.462
       0.815
      -0.017
      -0.936
      -1.777
      -2.389
      -2.697
      -2.701
      -2.445
      -1.994
      -1.417
      -0.787
      -0.187
       0.291
       0.548
       0.498
       0.103
      -0.592
      -1.464
      -2.364
      -3.187
      -3.889
      -4.432
      -4.726
      -4.658
      -4.196
      -3.489
      -2.816
      -2.424
      -2.370
      -2.519
      -2.693
      -2.822
      -2.962
      -3.187
      -3.457
      -3.604
      -3.440
      -2.876
      -1.959
      -0.794
       0.536
       2.003
       3.579
       5.157
       6.537
       7.493
       7.884
       7.719
       7.123
       6.231
       5.107
       3.755
       2.206
       0.586
      -0.917
      -2.149
      -3.068
      -3.707
      -4.073
      -4.077
      -3.580
      -2.531
      -1.088
       0.403
       1.568
       2.202
       2.344
       2.179
       1.885
       1.547
       1.185
       0.839
       0.580
       0.448
       0.395
       0.322
       0.172
       0.002
      -0.065
       0.032
       0.196
       0.210
      -0.107
      -0.747
      -1.500
      -2.092
      -2.355
      -2.296
      -2.032
      -1.665
      -1.222
      -0.699
      -0.154
       0.276
       0.452
       0.344
       0.066
      -0.187
      -0.261
      -0.109
       0.229
       0.679
       1.148
       1.529
       1.707
       1.625
       1.328
       0.938
       0.568
       0.260
       0.000
      -0.223
      -0.401
      -0.530
      -0.648
      -0.826
      -1.130
      -1.570
      -2.078
      -2.511
      -2.703
      -2.530
      -1.967
      -1.084
      -0.016
       1.078
       2.049
       2.780
       3.223
       3.403
       3.381
       3.195
       2.853
       2.371
       1.815
       1.291
       0.879
       0.575
       0.293
      -0.062
      -0.509
      -0.981
      -1.392
      -1.728
      -2.071
      -2.530
      -3.128
      -3.754
      -4.220
      -4.387
      -4.238
      -3.864
      -3.376
      -2.832
      -2.231
      -1.554
      -0.808
      -0.033
       0.729
       1.480
       2.270
       3.153
       4.122
       5.074
       5.840
       6.264
       6.283
       5.936
       5.314
       4.500
       3.544
       2.484
       1.372
       0.275
      -0.747
      -1.657
      -2.433
      -3.047
      -3.455
      -3.614
      -3.528
      -3.273
      -2.984
      -2.794
      -2.764
      -2.860
      -2.991
      -3.064
      -3.027
      -2.859
      -2.556
      -2.138
      -1.666
      -1.211
      -0.805
      -0.410
       0.034
       0.539
       1.043
       1.442
       1.658
       1.674
       1.529
       1.294
       1.041
       0.810
       0.578
       0.272
      -0.168
      -0.711
      -1.224
      -1.537
      -1.532
      -1.192
      -0.595
       0.135
       0.852
       1.404
       1.667
       1.589
       1.230
       0.745
       0.317
       0.096
       0.148
       0.456
       0.925
       1.405
       1.742
       1.860
       1.810
       1.736
       1.776
       1.970
       2.249
       2.494
       2.609
       2.543
       2.268
       1.779
       1.116
       0.394
      -0.225
      -0.614
      -0.745
      -0.674
      -0.467
      -0.157
       0.240
       0.663
       0.987
       1.064
       0.810
       0.266
      -0.416
      -1.049
      -1.502
      -1.742
      -1.798
      -1.705
      -1.487
      -1.189
      -0.920
      -0.834
      -1.042
      -1.521
      -2.109
      -2.603
      -2.888
      -2.999
      -3.072
      -3.213
      -3.396
      -3.481
      -3.321
      -2.886
      -2.278
      -1.636
      -1.021
      -0.409
       0.231
       0.855
       1.355
       1.649
       1.754
       1.786
       1.867
       2.033
       2.203
       2.252
       2.112
       1.827
       1.518
       1.299
       1.208
       1.206
       1.225
       1.228
       1.208
       1.160
       1.045
       0.821
       0.483
       0.093
      -0.246
      -0.438
      -0.428
      -0.223
       0.113
       0.477
       0.771
       0.943
       0.997
       0.975
       0.930
       0.917
       0.985
       1.168
       1.456
       1.800
       2.131
       2.403
       2.601
       2.713
       2.704
       2.509
       2.062
       1.340
       0.391
      -0.658
      -1.636
      -2.393
      -2.852
      -3.027
      -2.989
      -2.819
      -2.575
      -2.303
      -2.052
      -1.889
      -1.868
      -1.998
      -2.230
      -2.473
      -2.631
      -2.639
      -2.470
      -2.130
      -1.651
      -1.098
      -0.559
      -0.136
       0.093
       0.110
      -0.029
      -0.225
      -0.387
      -0.478
      -0.509
      -0.497
      -0.435
      -0.299
      -0.089
       0.154
       0.379
       0.576
       0.781
       1.032
       1.324
       1.611
       1.844
       2.008
       2.101
       2.109
       1.990
       1.715
       1.310
       0.862
       0.474
       0.217
       0.099
       0.080
       0.107
       0.141
       0.156
       0.120
      -0.008
      -0.256
      -0.613
      -1.009
      -1.355
      -1.595
      -1.728
      -1.779
      -1.756
      -1.641
      -1.424
      -1.139
      -0.845
      -0.571
      -0.288
       0.054
       0.464
       0.893
       1.266
       1.540
       1.732
       1.871
       1.951
       1.920
       1.736
       1.428
       1.087
       0.797
       0.572
       0.361
       0.104
      -0.213
      -0.543
      -0.807
      -0.943
      -0.922
      -0.756
      -0.476
      -0.138
       0.188
       0.429
       0.544
       0.555
       0.542
       0.594
       0.759
       1.017
       1.294
       1.503
       1.582
       1.514
       1.321
       1.056
       0.786
       0.564
       0.408
       0.284
       0.125
      -0.131
      -0.506
      -0.964
      -1.425
      -1.798
      -2.012
      -2.035
      -1.884
      -1.623
      -1.340
      -1.125
      -1.023
      -1.023
      -1.063
      -1.070
      -0.992
      -0.824
      -0.602
      -0.383
      -0.221
      -0.145
      -0.136
      -0.137
      -0.078
       0.082
       0.325
       0.585
       0.770
       0.803
       0.651
       0.346
      -0.028
      -0.377
      -0.634
      -0.777
      -0.821
      -0.787
      -0.694
      -0.553
      -0.369
      -0.138
       0.148
       0.482
       0.827
       1.126
       1.337
