Origin Time       03/10/2012 10:04:34
Lat.              32.4 N 
Long.             76.3 E 
Depth (Km)          5.0
Magnitude         3.8
 Region           Chamba-DISTT.-HIMACHAL-PRADESH                                   
 Above details taken from IMD 
     
Station Code      CHM
Station Lat.       32.555  N
Station Long.      76.126  E
Station Height(m)  952.0
Site Class        A   Vs30 between 700 m/sec to 1400 m/sec * 
Record Time       03.10.2012 10:03:53.254
Sampling Rate     200. Hz
 Record Duration   66.985 Sec.
 Direction         E-W (E positive)
Max. Acceleration      2.313 cm/sec**2
     
  * For reference see Site Classification link of website 
     
 Base Line Corrected and Low Pass Filtered (Cut Off at 35 Hz) Time History
 Acceleration data in cm/sec**2
    
[...]
      -0.185
      -0.119
      -0.027
       0.016
      -0.021
      -0.101
      -0.141
      -0.073
       0.084
       0.222
       0.217
       0.038
      -0.225
      -0.421
      -0.435
      -0.239
       0.094
       0.409
       0.541
       0.421
       0.137
      -0.124
      -0.226
      -0.185
      -0.113
      -0.089
      -0.088
      -0.035
       0.090
       0.229
       0.311
       0.311
       0.229
       0.057
      -0.198
      -0.452
      -0.560
      -0.438
      -0.156
       0.114
       0.236
       0.215
       0.168
       0.198
       0.293
       0.333
       0.209
      -0.050
      -0.288
      -0.367
      -0.292
      -0.198
      -0.193
      -0.238
      -0.193
       0.023
       0.330
       0.548
       0.555
       0.381
       0.161
       0.006
      -0.068
      -0.107
      -0.133
      -0.128
      -0.093
      -0.091
      -0.188
      -0.355
      -0.459
      -0.390
      -0.187
       0.010
       0.130
       0.260
       0.522
       0.869
       1.052
       0.836
       0.241
      -0.441
      -0.880
      -0.949
      -0.747
      -0.453
      -0.171
       0.087
       0.342
       0.583
       0.750
       0.755
       0.537
       0.121
      -0.363
      -0.754
      -0.945
      -0.927
      -0.759
      -0.495
      -0.145
       0.284
       0.729
       1.052
       1.102
       0.808
       0.248
      -0.364
      -0.783
      -0.863
      -0.625
      -0.225
       0.156
       0.414
       0.531
       0.512
       0.343
       0.022
      -0.360
      -0.625
      -0.621
      -0.358
      -0.004
       0.266
       0.410
       0.499
       0.574
       0.544
       0.285
      -0.181
      -0.647
      -0.873
      -0.776
      -0.464
      -0.101
       0.224
       0.510
       0.747
       0.859
       0.743
       0.378
      -0.118
      -0.538
      -0.712
      -0.596
      -0.286
       0.057
       0.284
       0.334
       0.237
       0.085
      -0.045
      -0.141
      -0.253
      -0.418
      -0.591
      -0.648
      -0.467
      -0.024
       0.564
       1.079
       1.289
       1.063
       0.460
      -0.271
      -0.810
      -0.959
      -0.758
      -0.418
      -0.127
       0.084
       0.285
       0.493
       0.609
       0.522
       0.255
      -0.044
      -0.234
      -0.303
      -0.342
      -0.443
      -0.604
      -0.721
      -0.658
      -0.353
       0.115
       0.553
       0.762
       0.670
       0.378
       0.094
      -0.017
       0.051
       0.153
       0.121
      -0.079
      -0.298
      -0.325
      -0.097
       0.188
       0.219
      -0.112
      -0.533
      -0.591
      -0.070
       0.753
       1.305
       1.185
       0.488
      -0.310
      -0.762
      -0.786
      -0.633
      -0.575
      -0.633
      -0.599
      -0.274
       0.319
       0.935
       1.277
       1.200
       0.793
       0.291
      -0.109
      -0.366
      -0.553
      -0.722
      -0.831
      -0.774
      -0.483
      -0.001
       0.499
       0.809
       0.807
       0.523
       0.083
      -0.372
      -0.725
      -0.860
      -0.691
      -0.248
       0.298
       0.733
       0.939
       0.925
       0.713
       0.271
      -0.402
      -1.118
      -1.506
      -1.267
      -0.465
       0.452
       0.971
       0.899
       0.469
       0.107
       0.064
       0.252
       0.371
       0.205
      -0.186
      -0.542
      -0.639
      -0.466
      -0.195
      -0.009
       0.033
       0.009
       0.024
       0.104
       0.173
       0.138
      -0.008
      -0.158
      -0.180
      -0.029
       0.199
       0.351
       0.347
       0.229
       0.093
      -0.024
      -0.155
      -0.310
      -0.419
      -0.392
      -0.216
       0.023
       0.223
       0.347
       0.422
       0.466
       0.443
       0.295
       0.016
      -0.323
      -0.597
      -0.711
      -0.648
      -0.453
      -0.182
       0.134
       0.479
       0.812
       1.039
       1.041
       0.740
       0.161
      -0.542
      -1.132
      -1.387
      -1.210
      -0.675
       0.005
       0.587
       0.902
       0.916
       0.699
       0.360
      -0.010
      -0.345
      -0.588
      -0.699
      -0.667
      -0.499
      -0.205
       0.188
       0.584
       0.817
       0.737
       0.347
      -0.169
      -0.554
      -0.658
      -0.523
      -0.302
      -0.087
       0.170
       0.547
       0.973
       1.198
       0.987
       0.349
      -0.431
      -0.995
      -1.157
      -0.974
      -0.628
      -0.254
       0.116
       0.492
       0.822
       0.976
       0.825
       0.369
      -0.222
      -0.688
      -0.831
      -0.623
      -0.209
       0.198
       0.442
       0.468
       0.317
       0.086
      -0.109
      -0.192
      -0.180
      -0.178
      -0.267
      -0.405
      -0.458
      -0.332
      -0.073
       0.179
       0.310
       0.301
       0.192
       0.030
      -0.145
      -0.276
      -0.286
      -0.123
       0.176
       0.474
       0.619
       0.548
       0.327
       0.075
      -0.142
      -0.336
      -0.528
      -0.666
      -0.626
      -0.332
       0.124
       0.494
       0.566
       0.357
       0.104
       0.047
       0.196
       0.341
       0.266
      -0.058
      -0.445
      -0.644
      -0.512
      -0.125
       0.270
       0.423
       0.270
      -0.017
      -0.177
      -0.079
       0.175
       0.345
       0.274
       0.014
      -0.230
      -0.303
      -0.225
      -0.127
      -0.093
      -0.098
      -0.066
       0.015
       0.073
       0.024
      -0.125
      -0.245
      -0.188
       0.076
       0.398
       0.556
       0.431
       0.105
      -0.213
      -0.348
      -0.270
      -0.077
       0.115
       0.254
       0.331
       0.340
       0.265
       0.114
      -0.069
      -0.231
      -0.334
      -0.369
      -0.330
      -0.207
       0.008
       0.290
       0.562
       0.708
       0.645
       0.393
       0.075
      -0.173
      -0.302
      -0.356
      -0.380
      -0.361
      -0.266
      -0.123
      -0.014
       0.030
       0.057
       0.119
       0.185
       0.181
       0.106
       0.051
       0.085
       0.151
       0.104
      -0.125
      -0.424
      -0.590
      -0.514
      -0.275
      -0.053
       0.031
      -0.009
      -0.058
       0.000
       0.200
       0.461
       0.620
       0.549
       0.264
      -0.076
      -0.292
      -0.315
      -0.214
      -0.111
      -0.068
      -0.059
      -0.019
       0.075
       0.169
       0.180
       0.075
      -0.099
      -0.244
      -0.281
      -0.183
       0.016
       0.243
       0.402
       0.419
       0.303
       0.160
       0.106
       0.151
       0.170
       0.022
      -0.293
      -0.604
      -0.710
      -0.546
      -0.230
       0.059
       0.226
       0.296
       0.324
       0.317
       0.251
       0.138
       0.027
      -0.049
      -0.096
      -0.115
      -0.069
       0.062
       0.210
       0.240
       0.078
      -0.206
      -0.462
      -0.575
      -0.517
      -0.305
       0.011
       0.338
       0.546
       0.551
       0.393
       0.211
       0.119
       0.110
       0.075
      -0.085
      -0.355
      -0.605
      -0.684
      -0.520
      -0.180
       0.180
       0.405
       0.426
       0.288
       0.107
      -0.006
      -0.015
       0.020
       0.004
      -0.108
      -0.256
      -0.311
      -0.180
       0.106
       0.392
       0.502
       0.354
       0.028
      -0.291
      -0.431
      -0.341
      -0.113
       0.096
       0.183
       0.146
       0.066
       0.040
       0.106
       0.220
       0.280
       0.203
      -0.002
      -0.226
      -0.338
      -0.276
      -0.091
       0.110
       0.248
       0.308
       0.306
       0.239
       0.071
      -0.216
      -0.566
      -0.833
      -0.849
      -0.543
      -0.016
       0.500
       0.780
       0.750
       0.500
       0.178
      -0.132
      -0.423
      -0.686
      -0.846
      -0.805
      -0.534
      -0.115
       0.314
       0.657
       0.880
       0.964
       0.864
       0.549
       0.072
      -0.407
      -0.692
      -0.664
      -0.362
       0.039
       0.340
       0.438
       0.368
       0.228
       0.091
      -0.019
      -0.087
      -0.099
      -0.064
      -0.034
      -0.062
      -0.143
      -0.206
      -0.164
       0.007
       0.233
       0.387
       0.374
       0.203
      -0.023
      -0.185
      -0.222
      -0.157
      -0.045
       0.082
       0.248
       0.479
       0.738
       0.884
       0.743
       0.246
      -0.485
      -1.172
      -1.539
      -1.459
      -1.008
      -0.398
       0.148
       0.510
       0.687
       0.738
       0.685
       0.495
       0.149
      -0.273
      -0.590
      -0.634
      -0.379
       0.014
       0.297
       0.299
       0.054
      -0.223
      -0.297
      -0.099
       0.214
       0.374
       0.222
      -0.166
      -0.542
      -0.675
      -0.502
      -0.128
       0.287
       0.630
       0.850
       0.906
       0.732
       0.281
      -0.370
      -0.997
      -1.341
      -1.294
      -0.959
      -0.529
      -0.095
       0.392
       0.977
       1.529
       1.760
       1.444
       0.648
      -0.258
      -0.836
      -0.865
      -0.452
       0.093
       0.483
       0.592
       0.459
       0.211
      -0.023
      -0.170
      -0.245
      -0.325
      -0.488
      -0.739
      -0.975
      -1.023
      -0.747
      -0.159
       0.547
       1.106
       1.343
       1.265
       0.999
       0.656
       0.245
      -0.255
      -0.761
      -1.052
      -0.910
      -0.325
       0.446
       1.032
       1.196
       0.954
       0.492
      -0.003
      -0.432
      -0.772
      -1.008
      -1.112
      -1.062
      -0.865
      -0.556
      -0.173
       0.246
       0.616
       0.804
       0.721
       0.434
       0.176
       0.183
       0.472
       0.779
       0.753
       0.260
      -0.477
      -1.054
      -1.198
      -0.946
      -0.533
      -0.157
       0.146
       0.400
       0.538
       0.396
      -0.111
      -0.818
      -1.342
      -1.331
      -0.727
       0.194
       1.013
       1.436
       1.411
       1.075
       0.620
       0.174
      -0.238
      -0.659
      -1.097
      -1.438
      -1.477
      -1.062
      -0.244
       0.709
       1.466
       1.828
       1.788
       1.437
       0.854
       0.097
      -0.702
      -1.309
      -1.497
      -1.200
      -0.567
       0.127
       0.626
       0.801
       0.667
       0.340
      -0.032
      -0.317
      -0.434
      -0.363
      -0.154
       0.087
       0.235
       0.196
      -0.019
      -0.271
      -0.359
      -0.173
       0.180
       0.436
       0.409
       0.170
      -0.031
      -0.025
       0.105
       0.133
      -0.050
      -0.326
      -0.491
      -0.467
      -0.355
      -0.285
      -0.254
      -0.125
       0.198
       0.629
       0.937
       0.942
       0.675
       0.343
       0.137
       0.070
       0.004
      -0.186
      -0.485
      -0.754
      -0.858
      -0.764
      -0.539
      -0.277
      -0.028
       0.198
       0.390
       0.504
       0.475
       0.263
      -0.074
      -0.366
      -0.420
      -0.158
       0.293
       0.677
       0.798
       0.646
       0.362
       0.090
      -0.116
      -0.270
      -0.386
      -0.453
      -0.467
      -0.443
      -0.401
      -0.351
      -0.305
      -0.287
      -0.320
      -0.385
      -0.410
      -0.303
      -0.003
       0.470
       0.997
       1.381
       1.439
       1.122
       0.574
       0.056
      -0.225
      -0.257
      -0.199
      -0.249
      -0.477
      -0.784
      -0.962
      -0.831
      -0.357
       0.304
       0.866
       1.080
       0.898
       0.503
       0.160
       0.014
       0.005
      -0.030
      -0.193
      -0.454
      -0.705
      -0.846
      -0.846
      -0.732
      -0.530
      -0.234
       0.179
       0.680
       1.170
       1.522
       1.648
       1.525
       1.176
       0.668
       0.101
      -0.410
      -0.791
      -1.042
      -1.208
      -1.315
      -1.332
      -1.213
      -0.963
      -0.655
      -0.369
      -0.112
       0.171
       0.513
       0.848
       1.045
       1.016
       0.796
       0.523
       0.346
       0.330
       0.392
       0.344
       0.048
      -0.430
      -0.837
      -0.947
      -0.777
      -0.579
      -0.577
      -0.731
      -0.762
      -0.446
       0.129
       0.613
       0.714
       0.459
       0.143
       0.027
       0.088
       0.087
      -0.141
      -0.465
      -0.550
      -0.185
       0.496
       1.096
       1.270
       0.962
       0.384
      -0.181
      -0.554
      -0.666
      -0.500
      -0.083
       0.435
       0.772
       0.656
       0.048
      -0.787
      -1.441
      -1.630
      -1.340
      -0.752
      -0.092
       0.461
       0.789
       0.836
       0.652
       0.390
       0.211
       0.181
       0.249
       0.324
       0.349
       0.309
       0.208
       0.075
      -0.017
       0.025
       0.225
       0.483
       0.633
       0.573
       0.342
       0.070
      -0.136
      -0.265
      -0.391
      -0.611
      -0.958
      -1.355
      -1.630
      -1.629
      -1.303
      -0.722
       0.006
       0.785
       1.515
       2.069
       2.313
       2.196
       1.787
       1.224
       0.621
       0.026
      -0.547
      -1.063
      -1.456
      -1.678
      -1.731
      -1.657
      -1.491
      -1.241
      -0.908
      -0.525
      -0.157
       0.148
       0.394
       0.623
       0.859
       1.071
       1.188
       1.152
       0.955
       0.648
       0.322
       0.082
       0.002
       0.072
       0.190
       0.231
       0.147
       0.013
      -0.038
       0.068
       0.291
       0.505
       0.581
       0.445
       0.101
      -0.377
      -0.857
      -1.196
      -1.290
      -1.104
      -0.676
      -0.107
       0.451
       0.821
       0.868
       0.582
       0.124
      -0.256
      -0.364
      -0.178
       0.159
       0.447
       0.553
       0.465
       0.276
       0.096
      -0.001
      -0.005
       0.065
       0.170
       0.251
       0.228
       0.039
      -0.302
      -0.680
      -0.941
      -0.995
      -0.887
      -0.735
      -0.617
      -0.503
      -0.329
      -0.098
       0.089
       0.133
       0.051
      -0.021
       0.050
       0.265
       0.478
       0.510
       0.305
      -0.025
      -0.290
      -0.373
      -0.310
      -0.222
      -0.202
      -0.244
      -0.286
      -0.298
      -0.315
      -0.388
      -0.506
      -0.573
      -0.471
      -0.147
       0.331
       0.799
       1.079
       1.078
       0.845
       0.532
       0.285
       0.156
       0.112
       0.112
       0.163
       0.286
       0.457
       0.587
       0.601
       0.518
       0.446
       0.483
       0.613
       0.706
       0.622
       0.339
      -0.026
      -0.303
      -0.400
      -0.359
      -0.300
      -0.292
      -0.300
      -0.240
      -0.079
       0.118
       0.251
       0.288
       0.285
       0.321
       0.405
       0.475
       0.477
       0.426
       0.385
       0.369
       0.294
       0.040
      -0.421
      -0.956
      -1.349
      -1.463
      -1.335
      -1.120
      -0.958
      -0.879
      -0.827
      -0.747
      -0.636
      -0.535
      -0.476
      -0.457
      -0.450
      -0.438
      -0.422
      -0.405
      -0.356
      -0.229
      -0.006
       0.278
       0.552
       0.748
       0.834
       0.816
       0.722
       0.579
       0.391
       0.149
      -0.133
      -0.386
      -0.513
      -0.454
      -0.238
       0.029
       0.231
       0.310
       0.291
       0.252
       0.277
       0.403
       0.600
       0.777
       0.848
       0.780
       0.612
       0.428
       0.313
       0.327
       0.482
       0.720
       0.934
       1.022
       0.950
       0.763
       0.537
       0.311
       0.063
      -0.245
      -0.589
      -0.864
      -0.946
      -0.797
      -0.509
      -0.251
      -0.157
      -0.232
      -0.360
      -0.402
      -0.297
      -0.097
       0.084
       0.156
       0.107
      -0.017
      -0.159
      -0.289
      -0.400
      -0.479
      -0.505
      -0.461
      -0.361
      -0.254
      -0.188
      -0.179
      -0.199
      -0.207
      -0.185
      -0.154
      -0.139
      -0.139
      -0.122
      -0.059
       0.049
       0.165
       0.245
       0.257
       0.184
       0.036
      -0.141
      -0.258
      -0.220
       0.014
       0.394
       0.792
       1.076
       1.172
       1.092
       0.893
       0.639
       0.367
       0.099
      -0.139
      -0.317
      -0.419
      -0.467
      -0.502
      -0.554
      -0.610
      -0.620
      -0.545
      -0.393
      -0.220
      -0.084
      -0.014
       0.005
       0.003
       0.010
       0.050
       0.144
       0.290
       0.448
       0.532
       0.464
       0.232
      -0.093
      -0.406
      -0.638
      -0.781
      -0.853
      -0.850
      -0.737
      -0.495
      -0.166
       0.143
       0.329
       0.355
       0.268
       0.152
       0.065
       0.012
      -0.030
      -0.075
      -0.095
      -0.038
       0.135
       0.409
       0.729
       1.040
       1.308
       1.502
       1.562
       1.407
       1.003
       0.429
      -0.146
      -0.564
      -0.762
      -0.778
      -0.683
      -0.540
      -0.392
      -0.284
      -0.249
      -0.286
      -0.351
      -0.391
      -0.382
      -0.337
      -0.275
      -0.187
      -0.033
       0.219
       0.540
       0.839
       1.009
       0.990
       0.797
       0.498
       0.170
      -0.135
      -0.385
      -0.564
      -0.655
      -0.660
      -0.615
      -0.574
      -0.577
      -0.604
      -0.591
      -0.480
      -0.281
      -0.077
       0.020
      -0.050
      -0.231
      -0.376
      -0.348
      -0.132
       0.148
       0.330
       0.351
       0.280
       0.239
       0.285
       0.382
       0.459
       0.480
       0.463
       0.437
       0.414
       0.382
       0.336
       0.272
       0.172
       0.006
      -0.239
      -0.519
      -0.748
      -0.855
      -0.829
      -0.712
      -0.542
      -0.318
      -0.023
       0.318
       0.616
       0.766
       0.721
       0.536
       0.333
       0.222
       0.225
       0.282
       0.322
       0.317
       0.296
       0.298
       0.346
       0.433
       0.523
       0.552
       0.445
       0.159
      -0.285
      -0.793
      -1.246
      -1.534
      -1.599
      -1.437
      -1.095
      -0.651
      -0.192
       0.212
       0.512
       0.677
       0.697
       0.604
       0.480
       0.426
       0.492
       0.642
       0.777
       0.807
       0.713
       0.543
       0.357
       0.193
       0.065
      -0.018
      -0.049
      -0.037
      -0.026
      -0.067
      -0.183
      -0.336
      -0.450
      -0.466
      -0.381
      -0.250
      -0.150
      -0.130
      -0.193
      -0.297
      -0.366
      -0.320
