Origin Time       14/12/2005 07:09:48 UTC
Lat.              30.9 N 
Long.             79.3 E 
Depth (Km)         25.7
Magnitude         5.2
 Region           Chamoli-Uttarakhand                                              
 Above details taken from IMD 
    
Station Code      CHM
Station Lat.       30.412  N
Station Long.      79.320  E
Station Height(m) 1578.0
Site Class        A   Vs30 between 700 m/sec to 1400 m/sec * 
Record Time       14.12.2005 07:09:26.424 UTC
Sampling Rate     200. Hz
 Record Duration   44.610 Sec.
 Direction         N-S (N positive)
Max. Acceleration    -53.082 cm/sec**2
     
  * For reference see Site Classification link of website 
     
 Base Line Corrected and Low Pass Filtered (Cut Off at 35 Hz) Time History
 Acceleration data in cm/sec**2
    
[...]
      -0.005
      -0.003
      -0.001
      -0.003
      -0.005
      -0.004
       0.001
       0.006
       0.007
       0.001
      -0.006
      -0.011
      -0.010
      -0.005
      -0.001
       0.001
       0.001
       0.002
       0.008
       0.014
       0.013
       0.005
      -0.004
      -0.007
      -0.003
       0.003
       0.007
       0.007
       0.002
      -0.004
      -0.006
      -0.003
       0.001
       0.002
       0.000
      -0.002
      -0.002
       0.001
       0.005
       0.010
       0.012
       0.010
       0.006
       0.003
       0.001
      -0.002
      -0.005
      -0.005
      -0.004
      -0.002
      -0.001
      -0.001
      -0.002
      -0.004
      -0.006
      -0.006
      -0.002
       0.002
       0.003
       0.000
      -0.005
      -0.010
      -0.012
      -0.009
      -0.003
       0.004
       0.008
       0.011
       0.012
       0.011
       0.008
       0.007
       0.007
       0.008
       0.007
       0.004
       0.002
       0.001
       0.001
       0.002
       0.003
       0.004
       0.004
       0.005
       0.010
       0.015
       0.014
       0.007
      -0.002
      -0.006
      -0.005
      -0.002
       0.000
      -0.002
      -0.006
      -0.010
      -0.011
      -0.005
       0.004
       0.011
       0.013
       0.011
       0.006
       0.001
      -0.001
       0.001
       0.003
       0.002
      -0.001
      -0.003
      -0.003
      -0.003
      -0.003
      -0.002
       0.002
       0.005
       0.007
       0.006
       0.005
       0.004
       0.003
       0.002
      -0.002
      -0.007
      -0.011
      -0.011
      -0.006
      -0.004
      -0.004
      -0.005
       0.000
       0.010
       0.020
       0.027
       0.027
       0.019
       0.009
       0.001
       0.001
       0.003
       0.001
      -0.006
      -0.016
      -0.024
      -0.026
      -0.021
      -0.012
      -0.002
       0.002
       0.002
       0.001
       0.004
       0.009
       0.014
       0.014
       0.010
       0.002
      -0.003
      -0.002
       0.004
       0.008
       0.005
       0.000
      -0.003
      -0.002
      -0.001
      -0.003
      -0.004
      -0.003
       0.003
       0.010
       0.013
       0.009
       0.003
       0.000
       0.005
       0.010
       0.009
      -0.001
      -0.013
      -0.021
      -0.022
      -0.017
      -0.010
      -0.004
      -0.001
       0.000
       0.001
       0.000
      -0.002
      -0.006
      -0.008
      -0.007
      -0.004
       0.001
       0.008
       0.014
       0.016
       0.011
       0.003
      -0.002
      -0.002
       0.002
       0.007
       0.011
       0.009
       0.003
      -0.002
      -0.001
       0.003
       0.008
       0.011
       0.012
       0.011
       0.008
       0.005
       0.004
       0.004
       0.003
       0.001
       0.000
       0.000
      -0.001
      -0.002
      -0.002
       0.001
       0.004
       0.005
       0.004
       0.001
      -0.002
      -0.003
      -0.001
       0.005
       0.012
       0.017
       0.019
       0.019
       0.014
       0.005
      -0.002
      -0.003
       0.000
       0.004
       0.007
       0.008
       0.007
       0.005
       0.001
       0.000
       0.002
       0.003
       0.004
       0.003
       0.001
      -0.003
      -0.005
      -0.005
      -0.003
      -0.001
       0.000
       0.002
       0.005
       0.006
       0.004
       0.000
      -0.002
       0.000
       0.004
       0.010
       0.015
       0.016
       0.010
       0.001
      -0.006
      -0.010
      -0.010
      -0.005
       0.003
       0.009
       0.010
       0.008
       0.008
       0.011
       0.014
       0.015
       0.016
       0.020
       0.022
       0.016
      -0.003
      -0.033
      -0.068
      -0.103
      -0.145
      -0.222
      -0.354
      -0.534
      -0.711
      -0.825
      -0.848
      -0.806
      -0.752
      -0.717
      -0.677
      -0.566
      -0.336
      -0.013
       0.300
       0.488
       0.495
       0.358
       0.167
      -0.007
      -0.150
      -0.279
      -0.379
      -0.375
      -0.186
       0.178
       0.569
       0.793
       0.756
       0.529
       0.264
       0.054
      -0.132
      -0.379
      -0.715
      -1.040
      -1.189
      -1.059
      -0.712
      -0.318
       0.006
       0.323
       0.820
       1.598
       2.505
       3.176
       3.277
       2.766
       1.937
       1.201
       0.778
       0.557
       0.226
      -0.455
      -1.467
      -2.560
      -3.444
      -3.963
      -4.152
      -4.149
      -4.051
      -3.843
      -3.439
      -2.790
      -1.949
      -1.040
      -0.162
       0.676
       1.527
       2.405
       3.212
       3.773
       3.974
       3.853
       3.553
       3.175
       2.690
       2.024
       1.203
       0.399
      -0.188
      -0.503
      -0.691
      -0.986
      -1.525
      -2.234
      -2.854
      -3.099
      -2.830
      -2.126
      -1.216
      -0.330
       0.388
       0.886
       1.156
       1.224
       1.166
       1.095
       1.102
       1.207
       1.357
       1.467
       1.447
       1.247
       0.898
       0.527
       0.300
       0.313
       0.533
       0.842
       1.129
       1.330
       1.397
       1.271
       0.924
       0.430
      -0.011
      -0.167
       0.075
       0.615
       1.171
       1.441
       1.289
       0.835
       0.388
       0.259
       0.557
       1.109
       1.564
       1.625
       1.231
       0.539
      -0.240
      -0.997
      -1.716
      -2.356
      -2.771
      -2.787
      -2.374
      -1.723
      -1.125
      -0.755
      -0.556
      -0.336
       0.036
       0.503
       0.886
       1.019
       0.820
       0.266
      -0.631
      -1.787
      -3.004
      -4.018
      -4.621
      -4.749
      -4.483
      -3.984
      -3.438
      -2.994
      -2.685
      -2.380
      -1.868
      -1.060
      -0.147
       0.456
       0.387
      -0.380
      -1.467
      -2.309
      -2.484
      -1.936
      -0.953
       0.042
       0.765
       1.219
       1.650
       2.332
       3.327
       4.395
       5.120
       5.177
       4.521
       3.388
       2.104
       0.911
      -0.086
      -0.849
      -1.390
      -1.835
      -2.442
      -3.470
      -4.965
      -6.673
      -8.141
      -8.938
      -8.820
      -7.781
      -6.026
      -3.886
      -1.687
       0.385
       2.325
       4.194
       5.962
       7.437
       8.346
       8.466
       7.715
       6.142
       3.906
       1.290
      -1.253
      -3.138
      -3.834
      -3.125
      -1.283
       0.985
       2.826
       3.635
       3.344
       2.445
       1.698
       1.701
       2.557
       3.852
       4.947
       5.374
       5.103
       4.523
       4.177
       4.419
       5.195
       6.068
       6.450
       5.911
       4.380
       2.160
      -0.248
      -2.382
      -3.974
      -4.966
      -5.439
      -5.544
      -5.451
      -5.315
      -5.237
      -5.274
      -5.479
      -5.872
      -6.332
      -6.548
      -6.180
      -5.129
      -3.653
      -2.178
      -0.946
       0.163
       1.474
       3.157
       4.994
       6.478
       7.146
       6.869
       5.883
       4.569
       3.192
       1.809
       0.401
      -0.953
      -2.044
      -2.699
      -2.963
      -3.080
      -3.263
      -3.436
      -3.237
      -2.283
      -0.513
       1.666
       3.535
       4.422
       4.024
       2.516
       0.393
      -1.789
      -3.585
      -4.690
      -4.912
      -4.206
      -2.781
      -1.116
       0.249
       1.044
       1.452
       1.964
       2.968
       4.417
       5.808
       6.507
       6.134
       4.771
       2.915
       1.234
       0.239
       0.019
       0.184
       0.085
      -0.766
      -2.378
      -4.278
      -5.824
      -6.546
      -6.304
      -5.221
      -3.552
      -1.629
       0.145
       1.362
       1.769
       1.456
       0.882
       0.667
       1.205
       2.380
       3.624
       4.276
       3.968
       2.765
       1.022
      -0.830
      -2.436
      -3.565
      -4.134
      -4.210
      -3.966
      -3.591
      -3.240
      -3.047
      -3.134
      -3.527
      -4.012
      -4.149
      -3.550
      -2.250
      -0.799
       0.104
       0.156
      -0.298
      -0.575
      -0.210
       0.758
       1.974
       3.166
       4.314
       5.513
       6.754
       7.871
       8.635
       8.881
       8.598
       7.966
       7.266
       6.672
       6.068
       5.122
       3.629
       1.819
       0.317
      -0.335
      -0.191
       0.042
      -0.445
      -1.822
      -3.359
      -3.917
      -2.760
      -0.027
       3.439
       6.615
       8.691
       9.192
       7.961
       5.193
       1.469
      -2.369
      -5.563
      -7.804
      -9.330
     -10.670
     -12.177
     -13.721
     -14.734
     -14.566
     -12.892
      -9.939
      -6.438
      -3.287
      -1.095
       0.094
       0.657
       0.956
       1.057
       0.861
       0.440
       0.167
       0.435
       1.279
       2.307
       3.055
       3.394
       3.614
       4.112
       5.037
       6.197
       7.261
       7.953
       8.044
       7.255
       5.339
       2.356
      -1.125
      -4.183
      -6.034
      -6.519
      -6.192
      -5.927
      -6.302
      -7.219
      -8.028
      -8.022
      -6.936
      -5.085
      -3.108
      -1.591
      -0.826
      -0.784
      -1.201
      -1.687
      -1.860
      -1.523
      -0.780
       0.022
       0.493
       0.416
      -0.200
      -1.187
      -2.304
      -3.291
      -3.949
      -4.234
      -4.289
      -4.314
      -4.392
      -4.433
      -4.297
      -3.929
      -3.352
      -2.560
      -1.494
      -0.132
       1.449
       3.149
       4.972
       6.973
       9.030
      10.702
      11.450
      11.087
      10.018
       8.972
       8.441
       8.334
       8.132
       7.360
       5.960
       4.306
       2.889
       1.956
       1.373
       0.809
       0.039
      -0.916
      -1.903
      -2.833
      -3.708
      -4.458
      -4.812
      -4.454
      -3.339
      -1.857
      -0.608
       0.092
       0.552
       1.568
       3.840
       7.390
      11.469
      15.002
      17.156
      17.592
      16.315
      13.498
       9.506
       4.960
       0.547
      -3.356
      -6.835
     -10.176
     -13.403
     -16.069
     -17.526
     -17.416
     -15.889
     -13.344
     -10.005
      -5.776
      -0.562
       5.289
      10.881
      15.168
      17.548
      18.178
      17.777
      17.163
      16.922
      17.332
      18.372
      19.682
      20.630
      20.605
      19.295
      16.659
      12.727
       7.651
       2.030
      -3.078
      -6.837
      -9.369
     -11.677
     -14.701
     -18.507
     -22.387
     -25.488
     -27.244
     -27.426
     -26.092
     -23.668
     -20.981
     -18.922
     -17.863
     -17.358
     -16.489
     -14.604
     -11.836
      -8.961
      -6.872
      -6.114
      -6.621
      -7.579
      -7.614
      -5.480
      -0.998
       4.623
       9.497
      12.161
      12.223
      10.282
       7.368
       4.365
       1.652
      -0.891
      -3.463
      -5.885
      -7.665
      -8.507
      -8.689
      -8.840
      -9.260
      -9.519
      -8.742
      -6.396
      -2.895
       0.560
       2.801
       3.433
       2.950
       2.238
       1.946
       2.190
       2.720
       3.282
       3.834
       4.546
       5.683
       7.426
       9.686
      12.055
      13.958
      14.881
      14.592
      13.256
      11.315
       9.089
       6.422
       2.764
      -2.287
      -8.397
     -14.366
     -18.670
     -20.316
     -19.380
     -16.820
     -13.780
     -10.929
      -8.258
      -5.342
      -1.815
       2.252
       6.228
       9.068
       9.700
       7.591
       3.187
      -2.151
      -6.826
      -9.879
     -11.433
     -12.395
     -13.710
     -15.684
     -17.733
     -18.610
     -17.010
     -12.316
      -5.087
       3.154
      10.825
      17.214
      22.633
      27.684
      32.453
      36.441
      39.181
      40.692
      41.218
      40.622
      38.230
      33.339
      25.863
      16.493
       6.297
      -3.744
     -12.866
     -20.394
     -25.686
     -28.204
     -27.567
     -23.634
     -16.709
      -7.691
       2.187
      11.936
      21.117
      29.458
      36.230
      40.162
      40.124
      35.983
      28.848
      20.499
      12.547
       5.946
       1.012
      -2.371
      -4.587
      -6.158
      -7.547
      -8.852
      -9.621
      -9.082
      -6.767
      -3.001
       1.305
       5.376
       8.958
      11.957
      13.819
      13.491
      10.214
       4.370
      -2.553
      -8.878
     -13.599
     -16.423
     -17.221
     -15.697
     -11.618
      -5.276
       2.414
      10.355
      17.886
      24.968
      31.723
      37.850
      42.755
      46.139
      48.087
      48.458
      46.447
      40.977
      31.681
      19.617
       7.083
      -3.514
     -10.992
     -15.887
     -19.767
     -24.028
     -29.072
     -34.323
     -38.892
     -42.241
     -44.242
     -44.775
     -43.486
     -40.123
     -35.191
     -30.218
     -27.227
     -27.660
     -31.483
     -37.157
     -42.612
     -46.523
     -48.886
     -50.483
     -51.877
     -52.924
     -53.082
     -51.967
     -49.466
     -45.338
     -39.037
     -30.284
     -19.867
      -9.618
      -1.308
       4.583
       9.004
      13.297
      18.016
      22.613
      26.052
      27.553
      26.860
      24.107
      19.738
      14.569
       9.781
       6.552
       5.497
       6.399
       8.540
      11.264
      14.137
      16.767
      18.766
      19.875
      20.086
      19.713
      19.321
      19.374
      19.775
      19.846
      18.853
      16.457
      12.728
       7.862
       2.109
      -3.900
      -9.056
     -12.360
     -13.771
     -14.373
     -15.485
     -17.585
     -20.135
     -22.292
     -23.749
     -24.888
     -26.149
     -27.447
     -28.216
     -27.929
     -26.519
     -24.368
     -21.969
     -19.598
     -17.195
     -14.495
     -11.260
      -7.403
      -3.005
       1.746
       6.635
      11.421
      15.750
      19.125
      21.031
      21.164
      19.597
      16.793
      13.462
      10.272
       7.568
       5.297
       3.208
       1.175
      -0.619
      -1.854
      -2.391
      -2.406
      -2.211
      -1.957
      -1.511
      -0.591
       0.965
       3.023
       5.243
       7.330
       9.142
      10.578
      11.455
      11.647
      11.248
      10.464
       9.533
       8.849
       8.826
       9.512
      10.457
      11.182
      11.743
      12.651
      14.328
      16.715
      19.358
      21.904
      24.357
      26.738
      28.736
      29.869
      29.908
      28.962
      27.147
      24.396
      20.649
      16.022
      10.722
       4.969
      -0.860
      -6.136
     -10.199
     -12.745
     -14.014
     -14.598
     -14.927
     -14.848
     -13.739
     -11.166
      -7.450
      -3.539
      -0.339
       1.798
       3.052
       3.712
       3.854
       3.475
       2.859
       2.609
       3.201
       4.513
       5.790
       6.093
       4.929
       2.650
       0.354
      -0.674
       0.357
       3.326
       7.257
      10.785
      12.843
      13.161
      12.261
      10.979
       9.896
       9.095
       8.323
       7.277
       5.751
       3.631
       0.886
      -2.394
      -5.926
      -9.215
     -11.763
     -13.453
     -14.756
     -16.498
     -19.292
     -23.075
     -27.110
     -30.442
     -32.458
     -33.128
     -32.822
     -31.938
     -30.654
     -28.905
     -26.518
     -23.369
     -19.499
     -15.161
     -10.801
      -6.930
      -3.942
      -1.955
      -0.787
      -0.066
       0.582
       1.364
       2.254
       3.066
       3.600
       3.752
       3.552
       3.142
       2.731
       2.560
       2.856
       3.750
       5.175
       6.861
       8.457
       9.715
      10.563
      11.051
      11.238
      11.179
      10.974
      10.721
      10.356
       9.576
       8.073
       5.870
       3.297
       0.643
      -2.026
      -4.690
      -7.064
      -8.626
      -8.995
      -8.282
      -7.042
      -5.756
      -4.410
      -2.734
      -0.734
       1.218
       2.814
       4.174
       5.647
       7.367
       9.130
      10.657
      11.903
      13.033
      14.128
      15.094
      15.842
      16.411
      16.832
      17.027
      16.909
      16.430
      15.529
      14.191
      12.628
      11.263
      10.397
       9.881
       9.236
       8.147
       6.812
       5.821
       5.651
       6.246
       7.063
       7.486
       7.248
       6.505
       5.479
       4.084
       1.957
      -1.152
      -5.042
      -9.146
     -12.931
     -16.249
     -19.305
     -22.286
     -25.065
     -27.274
     -28.642
     -29.234
     -29.388
     -29.389
     -29.197
     -28.440
     -26.690
     -23.780
     -19.926
     -15.605
     -11.328
      -7.444
      -4.078
      -1.182
       1.395
       3.846
       6.322
       8.872
      11.449
      13.942
      16.175
      17.908
      18.920
      19.166
      18.865
      18.446
      18.343
      18.783
      19.704
      20.833
      21.851
      22.498
      22.606
      22.092
      20.964
      19.304
      17.198
      14.633
      11.529
       7.911
       4.094
       0.603
      -2.194
      -4.412
      -6.552
      -9.008
     -11.786
     -14.712
     -17.706
     -20.707
     -23.395
     -25.249
     -26.018
     -26.021
     -25.846
     -25.723
     -25.257
     -23.887
     -21.520
     -18.632
     -15.821
     -13.413
     -11.464
     -10.000
      -9.143
      -8.951
      -9.172
      -9.302
      -8.974
      -8.233
      -7.427
      -6.920
      -6.931
      -7.465
      -8.239
      -8.764
      -8.618
      -7.654
      -6.064
      -4.316
      -2.984
      -2.451
      -2.605
      -2.865
      -2.579
      -1.463
       0.263
       2.124
       3.808
       5.347
       6.931
       8.557
       9.898
      10.568
      10.473
       9.910
       9.316
       8.871
       8.326
       7.229
       5.331
       2.817
       0.189
      -2.066
      -3.748
      -4.958
      -5.890
      -6.594
      -6.942
      -6.787
      -6.150
      -5.251
      -4.346
      -3.527
      -2.695
      -1.708
      -0.577
       0.502
       1.305
       1.780
       2.121
       2.650
       3.624
       5.114
       7.016
       9.124
      11.195
      12.999
      14.387
      15.351
      16.002
      16.425
      16.564
      16.283
      15.544
      14.518
      13.489
      12.641
      11.951
      11.244
      10.373
       9.333
       8.262
       7.347
       6.719
       6.395
       6.282
       6.243
       6.193
       6.163
       6.275
       6.624
       7.153
       7.630
       7.745
       7.280
       6.256
       4.977
       3.928
       3.543
       3.973
       5.005
       6.216
       7.237
       7.930
       8.363
       8.661
       8.876
