Origin Time       15/07/2013 17:49:11 UTC
Lat.              32.6 N 
Long.             76.7 E 
Depth (Km)         30.0
Magnitude         4.4
 Region           Lahul-Spiti-DISTT.-HIMACHAL-PRADESH                              
 Above details taken from IMD 
    
Station Code      CHM
Station Lat.       32.555  N
Station Long.      76.126  E
Station Height(m)  952.0
Site Class        A   Vs30 between 700 m/sec to 1400 m/sec * 
Record Time       15.07.2013 17:49:00.929 UTC
Sampling Rate     200. Hz
 Record Duration   65.670 Sec.
 Direction         N-S (N positive)
Max. Acceleration      1.481 cm/sec**2
     
  * For reference see Site Classification link of website 
     
 Base Line Corrected and Low Pass Filtered (Cut Off at 35 Hz) Time History
 Acceleration data in cm/sec**2
    
[...]
      -0.116
      -0.113
      -0.086
      -0.038
       0.007
       0.030
       0.027
       0.016
       0.021
       0.057
       0.114
       0.161
       0.169
       0.126
       0.053
      -0.019
      -0.066
      -0.079
      -0.056
      -0.002
       0.073
       0.147
       0.187
       0.174
       0.111
       0.026
      -0.049
      -0.100
      -0.127
      -0.139
      -0.128
      -0.080
       0.004
       0.090
       0.126
       0.084
      -0.014
      -0.106
      -0.138
      -0.097
      -0.023
       0.034
       0.047
       0.030
       0.014
       0.019
       0.038
       0.046
       0.023
      -0.035
      -0.112
      -0.175
      -0.191
      -0.142
      -0.043
       0.065
       0.134
       0.138
       0.088
       0.018
      -0.036
      -0.057
      -0.056
      -0.053
      -0.060
      -0.073
      -0.082
      -0.080
      -0.071
      -0.054
      -0.025
       0.024
       0.090
       0.152
       0.177
       0.147
       0.074
      -0.005
      -0.061
      -0.084
      -0.085
      -0.075
      -0.052
      -0.010
       0.047
       0.096
       0.112
       0.089
       0.045
       0.016
       0.026
       0.065
       0.097
       0.082
       0.006
      -0.109
      -0.210
      -0.244
      -0.194
      -0.081
       0.049
       0.152
       0.207
       0.217
       0.193
       0.144
       0.066
      -0.038
      -0.150
      -0.233
      -0.254
      -0.204
      -0.115
      -0.035
      -0.002
      -0.020
      -0.058
      -0.073
      -0.039
       0.031
       0.101
       0.138
       0.128
       0.086
       0.034
      -0.001
      -0.010
       0.000
       0.006
      -0.013
      -0.055
      -0.093
      -0.087
      -0.020
       0.084
       0.168
       0.181
       0.111
      -0.007
      -0.110
      -0.150
      -0.117
      -0.041
       0.031
       0.063
       0.051
       0.017
      -0.008
      -0.008
       0.012
       0.027
       0.018
      -0.013
      -0.046
      -0.061
      -0.057
      -0.055
      -0.074
      -0.114
      -0.145
      -0.139
      -0.084
       0.000
       0.072
       0.099
       0.071
       0.008
      -0.060
      -0.103
      -0.108
      -0.079
      -0.035
      -0.003
      -0.001
      -0.026
      -0.058
      -0.073
      -0.057
      -0.014
       0.041
       0.088
       0.113
       0.113
       0.096
       0.077
       0.070
       0.080
       0.097
       0.108
       0.102
       0.073
       0.026
      -0.032
      -0.084
      -0.114
      -0.112
      -0.087
      -0.063
      -0.062
      -0.084
      -0.109
      -0.107
      -0.066
       0.002
       0.070
       0.111
       0.119
       0.104
       0.081
       0.060
       0.043
       0.032
       0.030
       0.042
       0.066
       0.088
       0.085
       0.038
      -0.043
      -0.121
      -0.157
      -0.134
      -0.070
      -0.006
       0.025
       0.013
      -0.028
      -0.074
      -0.102
      -0.098
      -0.062
      -0.010
       0.031
       0.044
       0.029
       0.008
      -0.002
       0.002
       0.012
       0.020
       0.028
       0.044
       0.065
       0.078
       0.073
       0.049
       0.022
       0.012
       0.029
       0.069
       0.112
       0.131
       0.102
       0.020
      -0.092
      -0.193
      -0.245
      -0.235
      -0.181
      -0.121
      -0.084
      -0.078
      -0.085
      -0.078
      -0.038
       0.037
       0.122
       0.184
       0.195
       0.149
       0.067
      -0.016
      -0.068
      -0.078
      -0.060
      -0.035
      -0.016
      -0.001
       0.015
       0.028
       0.026
       0.004
      -0.031
      -0.060
      -0.057
      -0.008
       0.073
       0.146
       0.163
       0.101
      -0.021
      -0.146
      -0.211
      -0.181
      -0.071
       0.059
       0.153
       0.184
       0.166
       0.131
       0.098
       0.066
       0.023
      -0.035
      -0.091
      -0.127
      -0.142
      -0.152
      -0.171
      -0.197
      -0.214
      -0.213
      -0.194
      -0.159
      -0.107
      -0.028
       0.084
       0.211
       0.313
       0.343
       0.282
       0.155
       0.019
      -0.070
      -0.094
      -0.072
      -0.042
      -0.022
      -0.009
       0.004
       0.015
       0.018
       0.015
       0.026
       0.067
       0.127
       0.168
       0.149
       0.051
      -0.106
      -0.271
      -0.386
      -0.407
      -0.327
      -0.174
      -0.002
       0.144
       0.239
       0.278
       0.271
       0.227
       0.163
       0.101
       0.065
       0.066
       0.090
       0.105
       0.089
       0.044
      -0.010
      -0.060
      -0.108
      -0.160
      -0.216
      -0.266
      -0.289
      -0.270
      -0.204
      -0.100
       0.012
       0.098
       0.129
       0.103
       0.038
      -0.028
      -0.060
      -0.040
       0.016
       0.076
       0.118
       0.148
       0.192
       0.257
       0.321
       0.339
       0.277
       0.137
      -0.033
      -0.167
      -0.226
      -0.210
      -0.155
      -0.099
      -0.064
      -0.052
      -0.063
      -0.103
      -0.177
      -0.277
      -0.376
      -0.434
      -0.419
      -0.313
      -0.132
       0.084
       0.271
       0.374
       0.374
       0.302
       0.218
       0.168
       0.155
       0.147
       0.114
       0.057
       0.003
      -0.023
      -0.021
      -0.017
      -0.040
      -0.104
      -0.196
      -0.276
      -0.290
      -0.206
      -0.044
       0.118
       0.184
       0.113
      -0.050
      -0.203
      -0.259
      -0.201
      -0.082
       0.026
       0.090
       0.123
       0.147
       0.168
       0.167
       0.137
       0.093
       0.065
       0.071
       0.110
       0.163
       0.208
       0.230
       0.226
       0.201
       0.156
       0.085
      -0.012
      -0.118
      -0.205
      -0.248
      -0.249
      -0.232
      -0.220
      -0.211
      -0.180
      -0.101
       0.019
       0.145
       0.236
       0.279
       0.292
       0.304
       0.331
       0.355
       0.340
       0.256
       0.106
      -0.075
      -0.243
      -0.368
      -0.440
      -0.458
      -0.419
      -0.326
      -0.199
      -0.074
       0.017
       0.051
       0.033
      -0.012
      -0.050
      -0.055
      -0.025
       0.024
       0.068
       0.081
       0.047
      -0.026
      -0.103
      -0.136
      -0.100
      -0.014
       0.069
       0.102
       0.070
      -0.004
      -0.081
      -0.131
      -0.152
      -0.156
      -0.147
      -0.118
      -0.053
       0.043
       0.134
       0.172
       0.131
       0.039
      -0.036
      -0.036
       0.037
       0.118
       0.132
       0.059
      -0.053
      -0.132
      -0.136
      -0.079
      -0.011
       0.026
       0.021
      -0.014
      -0.060
      -0.097
      -0.101
      -0.061
       0.012
       0.084
       0.118
       0.101
       0.048
      -0.010
      -0.049
      -0.074
      -0.104
      -0.148
      -0.181
      -0.159
      -0.053
       0.114
       0.271
       0.348
       0.324
       0.238
       0.166
       0.160
       0.218
       0.277
       0.268
       0.161
      -0.002
      -0.145
      -0.211
      -0.212
      -0.213
      -0.278
      -0.401
      -0.500
      -0.473
      -0.281
       0.011
       0.270
       0.382
       0.328
       0.184
       0.056
      -0.008
      -0.032
      -0.067
      -0.122
      -0.147
      -0.088
       0.060
       0.232
       0.340
       0.343
       0.273
       0.207
       0.196
       0.224
       0.224
       0.132
      -0.067
      -0.328
      -0.576
      -0.749
      -0.822
      -0.806
      -0.718
      -0.564
      -0.353
      -0.105
       0.139
       0.331
       0.434
       0.435
       0.356
       0.257
       0.205
       0.231
       0.305
       0.359
       0.342
       0.254
       0.131
       0.010
      -0.097
      -0.184
      -0.228
      -0.205
      -0.115
      -0.005
       0.066
       0.069
       0.028
      -0.020
      -0.056
      -0.096
      -0.146
      -0.184
      -0.164
      -0.065
       0.079
       0.196
       0.222
       0.148
       0.016
      -0.118
      -0.219
      -0.273
      -0.271
      -0.196
      -0.044
       0.146
       0.305
       0.375
       0.355
       0.303
       0.276
       0.277
       0.252
       0.150
      -0.022
      -0.196
      -0.303
      -0.327
      -0.306
      -0.288
      -0.287
      -0.269
      -0.193
      -0.060
       0.068
       0.107
       0.025
      -0.122
      -0.227
      -0.212
      -0.082
       0.087
       0.213
       0.266
       0.268
       0.255
       0.233
       0.187
       0.111
       0.041
       0.034
       0.111
       0.229
       0.300
       0.263
       0.127
      -0.032
      -0.133
      -0.162
      -0.174
      -0.238
      -0.360
      -0.465
      -0.459
      -0.321
      -0.136
      -0.032
      -0.078
      -0.222
      -0.333
      -0.308
      -0.147
       0.048
       0.158
       0.131
       0.014
      -0.100
      -0.150
      -0.140
      -0.118
      -0.113
      -0.101
      -0.024
       0.164
       0.454
       0.774
       1.025
       1.126
       1.046
       0.815
       0.492
       0.145
      -0.177
      -0.439
      -0.620
      -0.709
      -0.707
      -0.625
      -0.482
      -0.317
      -0.179
      -0.111
      -0.119
      -0.164
      -0.176
      -0.105
       0.046
       0.221
       0.347
       0.381
       0.343
       0.295
       0.289
       0.319
       0.332
       0.280
       0.154
      -0.006
      -0.151
      -0.249
      -0.287
      -0.264
      -0.199
      -0.138
      -0.138
      -0.228
      -0.377
      -0.514
      -0.580
      -0.559
      -0.479
      -0.366
      -0.232
      -0.082
       0.062
       0.169
       0.221
       0.235
       0.255
       0.303
       0.364
       0.402
       0.405
       0.394
       0.389
       0.367
       0.279
       0.107
      -0.092
      -0.216
      -0.196
      -0.037
       0.186
       0.387
       0.499
       0.478
       0.306
      -0.001
      -0.378
      -0.723
      -0.939
      -0.977
      -0.849
      -0.608
      -0.309
       0.001
       0.287
       0.500
       0.574
       0.464
       0.187
      -0.156
      -0.435
      -0.559
      -0.518
      -0.361
      -0.144
       0.108
       0.380
       0.635
       0.806
       0.829
       0.695
       0.462
       0.229
       0.077
       0.038
       0.079
       0.128
       0.115
       0.008
      -0.160
      -0.310
      -0.359
      -0.264
      -0.061
       0.159
       0.304
       0.343
       0.325
       0.325
       0.365
       0.383
       0.283
       0.034
      -0.278
      -0.495
      -0.500
      -0.317
      -0.095
       0.002
      -0.084
      -0.262
      -0.375
      -0.329
      -0.161
       0.000
       0.043
      -0.033
      -0.122
      -0.108
       0.049
       0.293
       0.525
       0.673
       0.714
       0.654
       0.493
       0.212
      -0.189
      -0.661
      -1.094
      -1.367
      -1.407
      -1.231
      -0.929
      -0.609
      -0.337
      -0.116
       0.102
       0.356
       0.640
       0.902
       1.074
       1.114
       1.022
       0.823
       0.564
       0.295
       0.063
      -0.111
      -0.239
      -0.351
      -0.462
      -0.540
      -0.521
      -0.350
      -0.026
       0.370
       0.697
       0.821
       0.694
       0.376
      -0.013
      -0.370
      -0.647
      -0.831
      -0.922
      -0.920
      -0.842
      -0.719
      -0.574
      -0.406
      -0.194
       0.071
       0.355
       0.595
       0.730
       0.740
       0.639
       0.457
       0.212
      -0.071
      -0.344
      -0.527
      -0.550
      -0.405
      -0.161
       0.058
       0.152
       0.096
      -0.044
      -0.152
      -0.127
       0.063
       0.374
       0.724
       1.040
       1.277
       1.393
       1.336
       1.059
       0.571
      -0.029
      -0.578
      -0.931
      -1.026
      -0.901
      -0.657
      -0.397
      -0.188
      -0.055
       0.003
      -0.002
      -0.047
      -0.105
      -0.153
      -0.183
      -0.215
      -0.270
      -0.352
      -0.438
      -0.492
      -0.493
      -0.438
      -0.329
      -0.175
       0.003
       0.169
       0.293
       0.372
       0.432
       0.494
       0.551
       0.573
       0.545
       0.497
       0.478
       0.499
       0.515
       0.465
       0.331
       0.156
       0.003
      -0.108
      -0.214
      -0.367
      -0.570
      -0.763
      -0.866
      -0.849
      -0.743
      -0.610
      -0.481
      -0.335
      -0.132
       0.127
       0.377
       0.525
       0.510
       0.359
       0.173
       0.064
       0.083
       0.196
       0.313
       0.348
       0.262
       0.074
      -0.167
      -0.396
      -0.544
      -0.549
      -0.385
      -0.085
       0.253
       0.501
       0.556
       0.390
       0.058
      -0.331
      -0.662
      -0.857
      -0.879
      -0.729
      -0.440
      -0.076
       0.263
       0.479
       0.519
       0.404
       0.215
       0.051
      -0.029
      -0.022
       0.030
       0.075
       0.082
       0.031
      -0.089
      -0.275
      -0.494
      -0.670
      -0.708
      -0.533
      -0.134
       0.413
       0.969
       1.367
       1.481
       1.281
       0.850
       0.342
      -0.088
      -0.348
      -0.437
      -0.418
      -0.369
      -0.341
      -0.338
      -0.336
      -0.309
      -0.248
      -0.155
      -0.030
       0.145
       0.375
       0.622
       0.803
       0.833
       0.688
       0.425
       0.138
      -0.114
      -0.336
      -0.568
      -0.825
      -1.060
      -1.185
      -1.129
      -0.886
      -0.518
      -0.108
       0.276
       0.601
       0.845
       0.979
       0.961
       0.773
       0.450
       0.080
      -0.230
      -0.414
      -0.466
      -0.420
      -0.317
      -0.171
       0.013
       0.217
       0.396
       0.490
       0.467
       0.348
       0.203
       0.117
       0.130
       0.209
       0.258
       0.186
      -0.028
      -0.314
      -0.562
      -0.693
      -0.704
      -0.652
      -0.594
      -0.545
      -0.471
      -0.329
      -0.128
       0.069
       0.182
       0.181
       0.104
       0.021
      -0.019
      -0.011
       0.027
       0.075
       0.134
       0.212
       0.319
       0.458
       0.621
       0.779
       0.884
       0.880
       0.743
       0.509
       0.256
       0.061
      -0.052
      -0.119
      -0.200
      -0.331
      -0.501
      -0.669
      -0.803
      -0.895
      -0.945
      -0.940
      -0.848
      -0.645
      -0.354
      -0.039
       0.219
       0.370
       0.405
       0.344
       0.214
       0.050
      -0.095
      -0.159
      -0.098
       0.073
       0.279
       0.423
       0.442
       0.346
       0.201
       0.085
       0.037
       0.052
       0.092
       0.128
       0.145
       0.144
       0.117
       0.052
      -0.054
      -0.189
      -0.323
      -0.427
      -0.483
      -0.485
      -0.433
      -0.337
      -0.225
      -0.133
      -0.086
      -0.082
      -0.086
      -0.053
       0.039
       0.177
       0.322
       0.440
       0.526
       0.593
       0.649
       0.676
       0.631
       0.482
       0.230
      -0.072
      -0.344
      -0.518
      -0.577
      -0.558
      -0.525
      -0.523
      -0.551
      -0.570
      -0.538
      -0.439
      -0.283
      -0.095
       0.107
       0.315
       0.517
       0.692
       0.806
       0.832
       0.759
       0.602
       0.403
       0.218
       0.098
       0.070
       0.130
       0.242
       0.357
       0.419
       0.387
       0.246
       0.015
      -0.254
      -0.501
      -0.676
      -0.758
      -0.758
      -0.704
      -0.627
      -0.541
      -0.448
      -0.346
      -0.238
      -0.131
      -0.043
       0.008
       0.010
      -0.028
      -0.073
      -0.086
      -0.038
       0.071
       0.223
       0.394
       0.565
       0.719
       0.835
       0.891
       0.881
       0.813
       0.707
       0.576
       0.418
       0.220
      -0.032
      -0.336
      -0.674
      -1.003
      -1.265
      -1.401
      -1.374
      -1.181
      -0.854
      -0.455
      -0.054
       0.276
       0.476
       0.525
       0.446
       0.299
       0.147
       0.036
      -0.019
      -0.012
       0.060
       0.195
       0.371
       0.541
       0.654
       0.680
       0.624
       0.512
       0.377
       0.244
       0.131
       0.055
       0.020
       0.021
       0.035
       0.039
       0.021
      -0.017
      -0.066
      -0.124
      -0.195
      -0.273
      -0.342
      -0.383
      -0.394
      -0.396
      -0.406
      -0.419
      -0.404
      -0.323
      -0.166
       0.040
       0.250
       0.426
       0.556
       0.646
       0.702
       0.709
       0.637
       0.461
       0.185
      -0.144
      -0.458
      -0.693
      -0.819
      -0.845
      -0.803
      -0.720
      -0.612
      -0.481
      -0.335
      -0.195
      -0.090
      -0.039
      -0.044
      -0.084
      -0.128
      -0.143
      -0.108
      -0.019
       0.106
       0.240
       0.355
       0.436
       0.477
       0.475
       0.423
       0.326
       0.201
       0.084
       0.015
       0.013
       0.069
       0.149
       0.215
       0.249
       0.255
       0.254
       0.259
       0.261
       0.238
       0.177
       0.093
       0.023
      -0.009
       0.002
       0.034
       0.062
       0.070
       0.054
       0.021
      -0.016
      -0.044
      -0.055
      -0.051
      -0.047
      -0.063
      -0.108
      -0.177
      -0.256
      -0.332
      -0.395
      -0.446
      -0.482
      -0.497
      -0.478
      -0.419
      -0.329
      -0.232
      -0.150
      -0.097
      -0.064
      -0.036
       0.002
       0.058
       0.131
       0.220
       0.318
       0.415
       0.496
       0.547
       0.564
       0.548
       0.502
       0.433
       0.351
       0.279
       0.237
       0.236
       0.261
       0.278
       0.261
       0.198
       0.102
      -0.014
      -0.144
      -0.283
      -0.423
      -0.544
      -0.623
      -0.648
      -0.622
      -0.560
      -0.480
      -0.399
      -0.326
      -0.264
      -0.210
      -0.160
      -0.111
      -0.068
      -0.038
      -0.023
      -0.024
      -0.033
      -0.042
      -0.041
      -0.030
      -0.015
      -0.009
      -0.015
      -0.023
      -0.007
       0.046
       0.129
       0.208
       0.250
       0.243
       0.202
       0.161
       0.143
       0.154
       0.180
       0.206
       0.224
       0.236
       0.238
       0.222
       0.178
       0.107
       0.026
      -0.034
      -0.054
      -0.032
       0.012
       0.054
       0.080
       0.091
       0.097
       0.106
       0.111
       0.097
       0.047
      -0.039
      -0.143
      -0.238
      -0.305
      -0.340
      -0.356
      -0.365
      -0.372
      -0.363
      -0.319
      -0.233
      -0.114
