Origin Time       14/12/2005 07:09:48
Lat.              30.9 N 
Long.             79.3 E 
Depth (Km)         25.7
Magnitude         5.2
 Region           Chamoli-Uttarakhand                                              
 Above details taken from IMD 
     
Station Code      CHM
Station Lat.       30.412  N
Station Long.      79.320  E
Station Height(m) 1578.0
Site Class        A   Vs30 between 700 m/sec to 1400 m/sec * 
Record Time       14.12.2005 07:09:26.424
Sampling Rate     200. Hz
 Record Duration   44.610 Sec.
 Direction         E-W (E positive)
Max. Acceleration    -63.480 cm/sec**2
     
  * For reference see Site Classification link of website 
     
 Base Line Corrected and Low Pass Filtered (Cut Off at 35 Hz) Time History
 Acceleration data in cm/sec**2
    
[...]
       0.004
       0.000
      -0.007
      -0.014
      -0.016
      -0.013
      -0.005
       0.005
       0.012
       0.018
       0.023
       0.028
       0.030
       0.023
       0.009
      -0.004
      -0.009
      -0.004
       0.005
       0.013
       0.015
       0.011
       0.007
       0.005
       0.003
      -0.001
      -0.005
      -0.008
      -0.007
      -0.007
      -0.008
      -0.009
      -0.010
      -0.009
      -0.007
      -0.005
      -0.003
      -0.001
       0.001
       0.001
       0.001
      -0.003
      -0.010
      -0.015
      -0.016
      -0.012
      -0.009
      -0.007
      -0.005
      -0.003
      -0.002
      -0.004
      -0.010
      -0.017
      -0.020
      -0.015
      -0.005
       0.004
       0.003
      -0.003
      -0.009
      -0.009
      -0.008
      -0.009
      -0.011
      -0.013
      -0.014
      -0.013
      -0.011
      -0.007
      -0.004
      -0.004
      -0.004
      -0.005
      -0.006
      -0.008
      -0.007
      -0.002
       0.002
       0.001
      -0.005
      -0.010
      -0.012
      -0.009
      -0.003
       0.002
       0.003
      -0.004
      -0.014
      -0.019
      -0.014
      -0.004
       0.007
       0.012
       0.010
       0.002
      -0.007
      -0.011
      -0.010
      -0.007
      -0.004
      -0.005
      -0.007
      -0.011
      -0.012
      -0.007
       0.002
       0.010
       0.014
       0.013
       0.007
      -0.001
      -0.010
      -0.015
      -0.013
      -0.005
       0.003
       0.009
       0.012
       0.013
       0.010
       0.007
       0.006
       0.004
       0.000
      -0.006
      -0.010
      -0.011
      -0.010
      -0.009
      -0.007
      -0.002
       0.004
       0.012
       0.018
       0.018
       0.009
      -0.004
      -0.011
      -0.007
       0.004
       0.014
       0.016
       0.012
       0.006
       0.002
       0.001
       0.002
      -0.001
      -0.008
      -0.015
      -0.015
      -0.010
      -0.002
       0.006
       0.011
       0.013
       0.010
       0.002
      -0.004
      -0.006
      -0.004
       0.001
       0.005
       0.008
       0.009
       0.010
       0.011
       0.010
       0.005
       0.000
      -0.001
       0.000
      -0.001
      -0.005
      -0.006
      -0.001
       0.008
       0.012
       0.009
       0.002
      -0.005
      -0.006
      -0.003
       0.002
       0.003
       0.001
       0.000
       0.004
       0.009
       0.012
       0.011
       0.009
       0.007
       0.004
      -0.002
      -0.011
      -0.026
      -0.052
      -0.090
      -0.138
      -0.198
      -0.268
      -0.349
      -0.434
      -0.518
      -0.591
      -0.639
      -0.640
      -0.571
      -0.421
      -0.201
       0.062
       0.344
       0.630
       0.910
       1.164
       1.347
       1.404
       1.303
       1.058
       0.718
       0.343
      -0.022
      -0.360
      -0.683
      -1.009
      -1.327
      -1.591
      -1.775
      -1.929
      -2.154
      -2.488
      -2.834
      -3.019
      -2.939
      -2.621
      -2.160
      -1.583
      -0.810
       0.244
       1.529
       2.823
       3.844
       4.413
       4.533
       4.360
       4.073
       3.747
       3.301
       2.566
       1.447
       0.045
      -1.374
      -2.545
      -3.351
      -3.821
      -4.008
      -3.886
      -3.363
      -2.424
      -1.223
      -0.022
       0.949
       1.591
       1.934
       2.040
       1.927
       1.579
       1.022
       0.381
      -0.141
      -0.350
      -0.152
       0.402
       1.164
       1.987
       2.803
       3.614
       4.408
       5.065
       5.362
       5.074
       4.125
       2.635
       0.844
      -1.052
      -2.990
      -4.990
      -6.996
      -8.780
     -10.011
     -10.422
      -9.928
      -8.606
      -6.599
      -4.074
      -1.268
       1.478
       3.817
       5.556
       6.736
       7.537
       8.088
       8.330
       8.031
       6.949
       5.053
       2.681
       0.444
      -1.106
      -1.802
      -1.875
      -1.631
      -1.129
      -0.216
       1.124
       2.526
       3.407
       3.388
       2.551
       1.329
       0.165
      -0.747
      -1.466
      -2.132
      -2.777
      -3.267
      -3.376
      -2.942
      -1.991
      -0.745
       0.483
       1.432
       1.983
       2.162
       2.050
       1.704
       1.152
       0.448
      -0.310
      -1.034
      -1.703
      -2.359
      -3.022
      -3.611
      -3.949
      -3.890
      -3.454
      -2.852
      -2.356
      -2.122
      -2.103
      -2.140
      -2.120
      -2.064
      -2.062
      -2.166
      -2.334
      -2.481
      -2.569
      -2.642
      -2.770
      -2.980
      -3.223
      -3.403
      -3.432
      -3.284
      -3.012
      -2.723
      -2.497
      -2.326
      -2.094
      -1.626
      -0.791
       0.422
       1.876
       3.329
       4.528
       5.306
       5.616
       5.499
       5.009
       4.179
       3.055
       1.776
       0.590
      -0.243
      -0.601
      -0.570
      -0.355
      -0.119
       0.096
       0.271
       0.272
      -0.134
      -1.073
      -2.378
      -3.617
      -4.311
      -4.163
      -3.165
      -1.565
       0.225
       1.771
       2.755
       3.098
       2.982
       2.726
       2.617
       2.798
       3.276
       3.988
       4.851
       5.753
       6.523
       6.949
       6.869
       6.269
       5.265
       3.975
       2.415
       0.529
      -1.683
      -4.010
      -6.009
      -7.161
      -7.113
      -5.827
      -3.564
      -0.772
       2.050
       4.476
       6.271
       7.449
       8.230
       8.895
       9.618
      10.371
      10.913
      10.871
       9.893
       7.861
       4.999
       1.797
      -1.219
      -3.719
      -5.641
      -7.065
      -7.994
      -8.259
      -7.640
      -6.117
      -4.020
      -1.940
      -0.469
       0.032
      -0.488
      -1.834
      -3.624
      -5.370
      -6.611
      -7.066
      -6.682
      -5.566
      -3.913
      -1.951
       0.098
       2.030
       3.623
       4.638
       4.874
       4.275
       2.976
       1.241
      -0.707
      -2.814
      -5.136
      -7.621
      -9.931
     -11.516
     -11.949
     -11.290
     -10.098
      -9.024
      -8.342
      -7.798
      -6.854
      -5.076
      -2.367
       1.056
       4.847
       8.651
      12.115
      14.857
      16.495
      16.738
      15.525
      13.134
      10.136
       7.174
       4.712
       2.902
       1.606
       0.511
      -0.741
      -2.415
      -4.528
      -6.730
      -8.351
      -8.660
      -7.199
      -4.070
      -0.008
       3.821
       6.270
       6.685
       5.171
       2.442
      -0.648
      -3.566
      -6.203
      -8.574
     -10.428
     -11.148
     -10.057
      -6.873
      -1.984
       3.623
       8.701
      12.182
      13.500
      12.678
      10.193
       6.680
       2.630
      -1.727
      -6.296
     -10.889
     -15.131
     -18.587
     -21.008
     -22.424
     -22.985
     -22.680
     -21.238
     -18.311
     -13.810
      -8.114
      -2.004
       3.648
       8.234
      11.621
      14.051
      15.791
      16.780
      16.618
      14.942
      11.876
       8.166
       4.888
       2.923
       2.503
       3.169
       4.186
       5.127
       6.138
       7.594
       9.463
      11.033
      11.356
      10.042
       7.615
       5.105
       3.232
       1.924
       0.568
      -1.293
      -3.472
      -5.195
      -5.545
      -3.950
      -0.469
       4.205
       8.997
      12.840
      15.033
      15.421
      14.322
      12.250
       9.614
       6.560
       3.033
      -1.018
      -5.431
      -9.777
     -13.497
     -16.102
     -17.298
     -17.014
     -15.390
     -12.725
      -9.370
      -5.629
      -1.794
       1.737
       4.430
       5.825
       5.795
       4.635
       2.880
       1.053
      -0.511
      -1.652
      -2.275
      -2.270
      -1.524
      -0.038
       1.967
       4.041
       5.646
       6.352
       5.955
       4.476
       2.103
      -0.872
      -4.074
      -7.057
      -9.377
     -10.744
     -11.195
     -11.084
     -10.886
     -10.887
     -11.010
     -10.881
     -10.090
      -8.424
      -5.945
      -2.957
       0.055
       2.527
       3.990
       4.260
       3.518
       2.194
       0.723
      -0.654
      -1.906
      -3.076
      -4.134
      -4.925
      -5.228
      -4.914
      -4.117
      -3.237
      -2.687
      -2.549
      -2.458
      -1.871
      -0.539
       1.214
       2.691
       3.325
       3.028
       2.141
       1.136
       0.393
       0.158
       0.590
       1.742
       3.496
       5.599
       7.827
      10.099
      12.361
      14.369
      15.665
      15.811
      14.692
      12.579
       9.939
       7.144
       4.327
       1.440
      -1.588
      -4.754
      -7.985
     -11.152
     -14.003
     -16.061
     -16.615
     -14.955
     -10.828
      -4.780
       1.957
       8.053
      12.722
      15.955
      18.228
      19.991
      21.409
      22.481
      23.242
      23.739
      23.849
      23.245
      21.636
      19.079
      15.947
      12.497
       8.487
       3.395
      -2.844
      -9.390
     -15.010
     -19.171
     -22.574
     -26.415
     -31.090
     -35.630
     -38.434
     -38.623
     -36.751
     -34.190
     -31.786
     -29.160
     -25.331
     -19.912
     -13.657
      -7.881
      -3.360
       0.211
       3.720
       7.637
      11.586
      14.883
      17.314
      19.129
      20.184
      19.539
      16.421
      11.379
       5.921
       1.041
      -3.457
      -8.107
     -12.671
     -16.159
     -17.731
     -17.202
     -14.711
     -10.399
      -4.689
       1.277
       5.914
       8.249
       8.740
       8.847
       9.584
      10.602
      10.899
      10.220
       9.387
       9.371
      10.483
      12.490
      15.031
      17.602
      19.414
      19.707
      18.274
      15.512
      12.049
       8.505
       5.444
       3.127
       1.151
      -1.373
      -5.040
      -9.637
     -14.372
     -18.416
     -21.186
     -22.377
     -22.005
     -20.482
     -18.541
     -16.814
     -15.328
     -13.485
     -10.692
      -7.036
      -3.334
      -0.555
       0.895
       1.451
       1.967
       2.972
       4.413
       6.027
       7.678
       9.322
      10.969
      12.753
      14.761
      16.664
      17.679
      17.033
      14.513
      10.645
       6.354
       2.378
      -1.033
      -3.885
      -5.982
      -6.750
      -5.540
      -2.198
       2.554
       7.355
      11.022
      13.244
      14.463
      15.076
      14.824
      13.016
       9.376
       4.610
       0.083
      -3.156
      -5.113
      -6.689
      -8.829
     -11.746
     -14.739
     -16.632
     -16.436
     -13.846
      -9.404
      -4.304
       0.208
       3.586
       6.270
       9.124
      12.516
      15.984
      18.783
      20.658
      22.030
      23.357
      24.371
      24.122
      21.877
      17.931
      13.473
       9.585
       6.342
       2.836
      -1.901
      -7.886
     -13.962
     -18.565
     -20.838
     -21.100
     -20.248
     -18.771
     -16.450
     -13.073
      -9.219
      -6.013
      -3.940
      -2.167
       0.650
       4.914
       9.652
      13.573
      16.464
      19.381
      23.276
      27.523
      30.181
      29.849
      26.970
      23.218
      19.823
      16.617
      12.544
       6.877
      -0.092
      -7.381
     -14.197
     -20.488
     -26.756
     -33.441
     -40.460
     -47.246
     -53.169
     -57.832
     -61.001
     -62.396
     -61.695
     -58.754
     -53.767
     -47.265
     -40.123
     -33.611
     -28.944
     -26.378
     -24.952
     -23.345
     -20.773
     -17.230
     -13.216
      -9.111
      -4.595
       1.051
       7.909
      15.042
      21.330
      26.381
      30.337
      32.939
      33.229
      30.390
      24.875
      18.621
      13.933
      11.910
      11.835
      12.058
      11.393
       9.836
       8.339
       7.976
       9.084
      11.065
      13.080
      14.954
      17.354
      21.011
      25.744
      30.336
      33.551
      35.358
      36.998
      39.542
      42.332
      43.077
      39.609
      31.551
      20.414
       8.376
      -2.957
     -12.924
     -21.448
     -28.559
     -34.182
     -38.192
     -40.555
     -41.381
     -40.852
     -39.195
     -36.796
     -34.271
     -32.236
     -30.872
     -29.860
     -28.751
     -27.213
     -25.088
     -22.530
     -19.828
     -16.787
     -12.617
      -6.658
       1.044
       9.911
      19.111
      27.557
      34.149
      38.497
      41.423
      44.379
      47.898
      50.751
      51.114
      48.639
      44.990
      42.173
      40.525
      38.551
      34.650
      28.841
      22.756
      18.000
      14.690
      11.691
       8.067
       4.088
       0.904
      -0.605
      -0.703
      -0.622
      -1.555
      -3.824
      -6.882
      -9.853
     -12.053
     -13.209
     -13.372
     -12.681
     -11.265
      -9.333
      -7.229
      -5.367
      -4.158
      -3.943
      -4.838
      -6.610
      -8.799
     -11.072
     -13.523
     -16.600
     -20.647
     -25.563
     -30.981
     -36.656
     -42.544
     -48.552
     -54.310
     -59.178
     -62.422
     -63.480
     -62.139
     -58.485
     -52.733
     -45.231
     -36.730
     -28.348
     -20.894
     -14.483
      -9.103
      -4.944
      -1.841
       1.024
       4.401
       8.197
      11.780
      14.902
      18.056
      21.872
      26.196
      29.989
      32.402
      33.756
      35.114
      36.986
      38.878
      39.978
      39.770
      38.150
      35.556
      33.124
      32.155
      32.974
      34.493
      35.166
      34.316
      32.607
      31.384
      31.397
      31.893
      31.117
      27.908
      22.735
      17.153
      12.378
       8.399
       4.277
      -0.811
      -6.797
     -12.811
     -17.862
     -21.414
     -23.513
     -24.606
     -25.225
     -25.620
     -25.648
     -25.023
     -23.631
     -21.583
     -19.090
     -16.353
     -13.523
     -10.750
      -8.243
      -6.182
      -4.542
      -3.038
      -1.306
       0.794
       2.995
       4.759
       5.714
       6.008
       6.325
       7.509
       9.957
      13.215
      16.259
      18.312
      19.373
      19.956
      20.402
      20.529
      19.933
      18.529
      16.684
      14.785
      12.772
      10.249
       7.023
       3.454
       0.206
      -2.311
      -4.255
      -6.145
      -8.394
     -11.038
     -13.851
     -16.603
     -19.221
     -21.760
     -24.305
     -26.918
     -29.628
     -32.410
     -35.100
     -37.350
     -38.717
     -38.869
     -37.762
     -35.664
     -33.000
     -30.116
     -27.173
     -24.249
     -21.470
     -18.985
     -16.805
     -14.711
     -12.419
      -9.909
      -7.612
      -6.099
      -5.406
      -4.741
      -3.209
      -0.855
       1.401
       2.935
       4.149
       5.891
       8.349
      10.685
      11.812
      11.531
      10.769
      10.495
      10.579
      10.175
       9.036
       7.909
       7.638
       8.314
       9.433
      10.647
      12.158
      14.302
      16.871
      19.093
      20.276
      20.187
      18.899
      16.700
      14.279
      12.510
      11.745
      11.617
      11.694
      11.976
      12.634
      13.621
      14.803
      16.307
      18.467
      21.268
      24.022
      25.805
      26.297
      26.141
      26.468
      27.908
      29.917
      31.121
      30.498
      28.297
      25.744
      23.836
      22.414
      20.425
      17.053
      12.595
       8.231
       4.929
       2.612
       0.414
      -2.354
      -5.571
      -8.559
     -10.858
     -12.700
     -14.677
     -17.009
     -19.202
     -20.432
     -20.166
     -18.505
     -16.083
     -13.686
     -11.873
     -10.844
     -10.548
     -10.823
     -11.498
     -12.498
     -13.897
     -15.812
     -18.253
     -21.054
     -23.910
     -26.447
     -28.300
     -29.199
     -29.036
     -27.924
     -26.185
     -24.225
     -22.353
     -20.691
     -19.217
     -17.876
     -16.658
     -15.563
     -14.489
     -13.206
     -11.544
      -9.645
      -7.926
      -6.588
      -5.189
      -3.001
      -0.027
       2.666
       3.959
       3.742
       2.703
       1.329
      -0.491
      -2.850
      -5.152
      -6.421
      -6.379
      -5.887
      -6.036
      -7.034
      -8.225
      -9.003
      -9.402
      -9.791
     -10.184
      -9.974
      -8.415
      -5.428
      -1.739
       1.752
       4.471
       6.098
       6.538
       6.215
       6.057
       6.807
       8.449
      10.363
      11.866
      12.634
      12.915
      13.404
      14.656
      16.485
      18.072
      18.716
      18.438
      17.932
      17.983
      18.780
      19.726
      19.984
      19.270
      18.088
      17.198
      16.865
      16.597
      15.593
      13.499
      10.796
       8.432
       7.052
       6.548
       6.290
       5.730
       4.846
       4.065
       3.775
       3.897
       3.928
       3.401
       2.305
       1.079
       0.223
      -0.121
      -0.253
      -0.605
      -1.342
      -2.240
      -2.890
      -3.051
      -2.837
      -2.598
      -2.635
      -2.992
      -3.455
      -3.736
      -3.677
      -3.324
      -2.824
      -2.265
      -1.586
      -0.639
       0.649
       2.149
       3.557
       4.601
       5.232
       5.619
       5.966
       6.301
       6.443
       6.201
       5.608
       4.961
       4.583
       4.556
       4.636
       4.431
       3.648
       2.231
       0.321
      -1.867
      -4.154
      -6.421
      -8.583
     -10.557
     -12.261
     -13.624
     -14.595
     -15.147
     -15.284
     -15.030
     -14.426
     -13.529
     -12.430
     -11.274
     -10.239
      -9.490
      -9.119
      -9.132
      -9.473
     -10.043
     -10.705
     -11.282
     -11.580
     -11.447
     -10.854
      -9.896
      -8.725
      -7.457
      -6.139
      -4.790
      -3.444
      -2.165
      -1.019
      -0.054
       0.719
       1.328
       1.844
       2.363
       2.971
       3.731
       4.674
       5.792
       7.034
       8.307
       9.486
      10.433
      11.021
      11.151
      10.765
       9.854
       8.472
       6.754
       4.916
       3.230
       1.966
       1.318
       1.370
       2.064
       3.183
       4.376
       5.254
       5.516
       5.032
       3.832
       2.049
      -0.130
      -2.470
      -4.695
      -6.547
      -7.880
      -8.708
      -9.158
      -9.391
      -9.520
      -9.595
      -9.615
      -9.539
      -9.306
      -8.861
      -8.188
      -7.319
      -6.307
      -5.177
      -3.925
      -2.550
      -1.103
       0.332
       1.694
       2.992
       4.271
       5.543
       6.746
       7.780
       8.582
       9.167
       9.607
       9.982
      10.342
      10.710
      11.087
      11.432
      11.643
      11.581
      11.136
      10.303
       9.190
