Origin Time       17/6/2014 17:31:08 
Lat.              32.2 N 
Long.             76.1 E 
Depth (Km)         10.0
Magnitude         4.1
 Region           Kangra-(H.P.)                                                    
 Above details taken from IMD 
   
Station Code      CHM
Station Lat.       32.555
Station Long.      76.126
Station Height(m)  952.0
Site Class        A   Vs30 between 700 m/sec to 1400 m/sec * 
Record Time       17.06.2014 17:27:23.104
Sampling Rate     200. Hz
 Record Duration   70.040 Sec.
 Direction         Vert. (Up positive)
Max. Acceleration      5.218 cm/sec**2
     
  * For reference see Site Classification link of website 
     
 Base Line Corrected and Low Pass Filtered (Cut Off at 35 Hz) Time History
 Acceleration data in cm/sec**2
    
[...]
      -0.009
      -0.010
      -0.009
      -0.004
       0.004
       0.012
       0.014
       0.009
      -0.001
      -0.009
      -0.011
      -0.005
       0.003
       0.008
       0.009
       0.007
       0.004
       0.000
      -0.004
      -0.006
      -0.004
      -0.001
       0.001
       0.003
       0.008
       0.012
       0.010
       0.002
      -0.008
      -0.010
      -0.004
       0.005
       0.012
       0.016
       0.017
       0.013
      -0.001
      -0.017
      -0.024
      -0.018
      -0.008
      -0.008
      -0.013
      -0.011
       0.004
       0.017
       0.008
      -0.020
      -0.047
      -0.052
      -0.035
      -0.015
      -0.012
      -0.027
      -0.044
      -0.048
      -0.035
      -0.012
       0.009
       0.021
       0.026
       0.035
       0.056
       0.083
       0.100
       0.097
       0.077
       0.044
      -0.006
      -0.073
      -0.141
      -0.181
      -0.175
      -0.135
      -0.082
      -0.028
       0.032
       0.098
       0.152
       0.163
       0.123
       0.059
       0.012
       0.011
       0.054
       0.111
       0.141
       0.118
       0.047
      -0.041
      -0.116
      -0.171
      -0.216
      -0.252
      -0.254
      -0.197
      -0.085
       0.051
       0.185
       0.307
       0.395
       0.398
       0.285
       0.105
      -0.040
      -0.100
      -0.131
      -0.218
      -0.353
      -0.429
      -0.350
      -0.131
       0.108
       0.251
       0.260
       0.174
       0.058
      -0.043
      -0.103
      -0.114
      -0.080
      -0.016
       0.047
       0.074
       0.039
      -0.050
      -0.147
      -0.205
      -0.214
      -0.193
      -0.137
      -0.006
       0.229
       0.513
       0.702
       0.649
       0.336
      -0.077
      -0.347
      -0.349
      -0.190
      -0.088
      -0.135
      -0.213
      -0.147
       0.088
       0.352
       0.476
       0.376
       0.065
      -0.356
      -0.693
      -0.741
      -0.468
      -0.099
       0.081
       0.015
      -0.075
       0.045
       0.349
       0.585
       0.565
       0.352
       0.152
       0.064
      -0.003
      -0.169
      -0.392
      -0.488
      -0.358
      -0.114
       0.052
       0.091
       0.106
       0.167
       0.203
       0.117
      -0.072
      -0.240
      -0.283
      -0.180
       0.019
       0.222
       0.330
       0.301
       0.203
       0.137
       0.093
      -0.040
      -0.288
      -0.474
      -0.385
      -0.054
       0.215
       0.169
      -0.097
      -0.235
      -0.039
       0.317
       0.468
       0.232
      -0.211
      -0.489
      -0.377
       0.034
       0.438
       0.577
       0.413
       0.109
      -0.123
      -0.182
      -0.151
      -0.214
      -0.465
      -0.773
      -0.853
      -0.506
       0.167
       0.815
       1.115
       1.003
       0.671
       0.371
       0.224
       0.189
       0.136
      -0.043
      -0.343
      -0.631
      -0.722
      -0.527
      -0.149
       0.166
       0.211
      -0.020
      -0.335
      -0.522
      -0.530
      -0.450
      -0.348
      -0.199
       0.017
       0.216
       0.296
       0.254
       0.144
      -0.030
      -0.287
      -0.550
      -0.653
      -0.511
      -0.219
       0.049
       0.224
       0.390
       0.650
       0.976
       1.200
       1.167
       0.912
       0.648
       0.575
       0.676
       0.725
       0.489
      -0.073
      -0.793
      -1.418
      -1.742
      -1.696
      -1.385
      -1.029
      -0.792
      -0.625
      -0.312
       0.264
       0.929
       1.326
       1.225
       0.745
       0.253
       0.070
       0.220
       0.438
       0.408
       0.046
      -0.422
      -0.646
      -0.442
       0.069
       0.558
       0.710
       0.425
      -0.131
      -0.646
      -0.877
      -0.799
      -0.553
      -0.263
       0.058
       0.433
       0.774
       0.880
       0.589
      -0.057
      -0.788
      -1.247
      -1.172
      -0.519
       0.508
       1.512
       2.073
       1.956
       1.240
       0.235
      -0.708
      -1.353
      -1.624
      -1.575
      -1.307
      -0.879
      -0.307
       0.330
       0.800
       0.850
       0.460
      -0.079
      -0.396
      -0.342
      -0.041
       0.294
       0.538
       0.674
       0.714
       0.622
       0.344
      -0.095
      -0.504
      -0.625
      -0.352
       0.166
       0.650
       0.876
       0.743
       0.290
      -0.263
      -0.599
      -0.578
      -0.408
      -0.427
      -0.710
      -0.988
      -0.987
      -0.751
      -0.529
      -0.423
      -0.252
       0.207
       0.918
       1.567
       1.809
       1.531
       0.879
       0.109
      -0.563
      -0.967
      -0.972
      -0.561
       0.075
       0.611
       0.813
       0.653
       0.216
      -0.434
      -1.175
      -1.689
      -1.561
      -0.637
       0.743
       1.943
       2.451
       2.126
       1.139
      -0.169
      -1.375
      -2.086
      -2.121
      -1.590
      -0.761
       0.148
       1.004
       1.611
       1.673
       1.008
      -0.183
      -1.346
      -1.926
      -1.714
      -0.902
       0.131
       1.039
       1.598
       1.697
       1.328
       0.602
      -0.264
      -1.022
      -1.488
      -1.570
      -1.243
      -0.521
       0.490
       1.542
       2.280
       2.387
       1.752
       0.560
      -0.754
      -1.685
      -1.904
      -1.422
      -0.558
       0.282
       0.833
       1.012
       0.845
       0.387
      -0.256
      -0.895
      -1.286
      -1.243
      -0.756
      -0.033
       0.601
       0.882
       0.746
       0.329
      -0.135
      -0.443
      -0.488
      -0.266
       0.137
       0.582
       0.912
       1.010
       0.834
       0.405
      -0.205
      -0.845
      -1.288
      -1.328
      -0.902
      -0.140
       0.696
       1.292
       1.384
       0.878
      -0.076
      -1.136
      -1.899
      -2.049
      -1.473
      -0.367
       0.807
       1.561
       1.706
       1.414
       0.969
       0.480
      -0.081
      -0.648
      -0.986
      -0.916
      -0.530
      -0.141
      -0.012
      -0.153
      -0.332
      -0.268
       0.135
       0.689
       1.041
       0.962
       0.557
       0.142
      -0.109
      -0.321
      -0.668
      -1.024
      -1.010
      -0.402
       0.571
       1.387
       1.628
       1.235
       0.456
      -0.370
      -0.976
      -1.222
      -1.063
      -0.546
       0.135
       0.667
       0.790
       0.499
       0.048
      -0.266
      -0.342
      -0.320
      -0.402
      -0.630
      -0.830
      -0.758
      -0.318
       0.344
       0.928
       1.172
       1.025
       0.671
       0.366
       0.195
       0.031
      -0.256
      -0.576
      -0.698
      -0.522
      -0.217
      -0.052
      -0.146
      -0.391
      -0.590
      -0.598
      -0.395
      -0.052
       0.329
       0.687
       1.002
       1.202
       1.119
       0.601
      -0.271
      -1.149
      -1.668
      -1.714
      -1.415
      -0.915
      -0.252
       0.524
       1.242
       1.683
       1.741
       1.441
       0.842
       0.009
      -0.873
      -1.465
      -1.444
      -0.771
       0.223
       1.018
       1.248
       0.930
       0.403
       0.001
      -0.227
      -0.461
      -0.770
      -0.935
      -0.657
       0.069
       0.863
       1.239
       0.963
       0.185
      -0.682
      -1.229
      -1.300
      -1.081
      -0.904
      -0.894
      -0.799
      -0.247
       0.800
       1.879
       2.368
       1.996
       1.037
       0.019
      -0.693
      -1.052
      -1.166
      -1.081
      -0.777
      -0.307
       0.144
       0.380
       0.353
       0.189
       0.048
      -0.025
      -0.115
      -0.271
      -0.369
      -0.196
       0.288
       0.817
       1.036
       0.837
       0.426
       0.054
      -0.251
      -0.596
      -0.958
      -1.105
      -0.844
      -0.265
       0.310
       0.612
       0.619
       0.484
       0.336
       0.177
      -0.044
      -0.319
      -0.555
      -0.636
      -0.504
      -0.185
       0.204
       0.481
       0.478
       0.193
      -0.158
      -0.284
      -0.071
       0.312
       0.562
       0.488
       0.134
      -0.291
      -0.567
      -0.571
      -0.299
       0.148
       0.594
       0.842
       0.772
       0.441
       0.041
      -0.252
      -0.405
      -0.507
      -0.641
      -0.782
      -0.792
      -0.529
       0.005
       0.599
       0.943
       0.854
       0.412
      -0.110
      -0.434
      -0.414
      -0.071
       0.402
       0.707
       0.610
       0.146
      -0.379
      -0.613
      -0.442
      -0.038
       0.319
       0.467
       0.411
       0.238
       0.013
      -0.258
      -0.583
      -0.939
      -1.247
      -1.382
      -1.211
      -0.663
       0.201
       1.155
       1.865
       2.033
       1.569
       0.684
      -0.193
      -0.646
      -0.524
      -0.033
       0.429
       0.562
       0.350
      -0.008
      -0.319
      -0.519
      -0.633
      -0.709
      -0.788
      -0.874
      -0.871
      -0.610
      -0.024
       0.709
       1.254
       1.384
       1.130
       0.690
       0.268
      -0.007
      -0.103
      -0.097
      -0.137
      -0.313
      -0.578
      -0.799
      -0.887
      -0.854
      -0.771
      -0.671
      -0.512
      -0.205
       0.286
       0.875
       1.378
       1.580
       1.336
       0.666
      -0.188
      -0.868
      -1.146
      -1.063
      -0.814
      -0.511
      -0.124
       0.361
       0.809
       1.005
       0.823
       0.304
      -0.366
      -0.926
      -1.123
      -0.846
      -0.228
       0.420
       0.816
       0.898
       0.804
       0.665
       0.437
      -0.017
      -0.670
      -1.202
      -1.211
      -0.593
       0.320
       0.992
       1.075
       0.603
      -0.098
      -0.651
      -0.813
      -0.564
      -0.085
       0.355
       0.576
       0.580
       0.491
       0.390
       0.240
      -0.042
      -0.441
      -0.809
      -0.955
      -0.787
      -0.361
       0.168
       0.642
       0.942
       0.993
       0.790
       0.413
      -0.010
      -0.365
      -0.575
      -0.564
      -0.256
       0.327
       0.955
       1.233
       0.875
      -0.007
      -0.888
      -1.202
      -0.805
      -0.100
       0.314
       0.154
      -0.323
      -0.595
      -0.357
       0.206
       0.576
       0.335
      -0.482
      -1.377
      -1.730
      -1.227
      -0.079
       1.107
       1.725
       1.551
       0.858
       0.154
      -0.241
      -0.397
      -0.597
      -0.978
      -1.364
      -1.421
      -0.958
      -0.088
       0.848
       1.504
       1.712
       1.509
       1.049
       0.489
      -0.042
      -0.432
      -0.601
      -0.534
      -0.308
      -0.061
       0.074
       0.052
      -0.061
      -0.133
      -0.054
       0.180
       0.447
       0.573
       0.449
       0.136
      -0.154
      -0.217
      -0.052
       0.110
       0.017
      -0.326
      -0.623
      -0.561
      -0.140
       0.300
       0.373
      -0.023
      -0.626
      -1.025
      -0.953
      -0.429
       0.304
       0.955
       1.315
       1.293
       0.922
       0.364
      -0.130
      -0.357
      -0.297
      -0.100
       0.063
       0.120
       0.090
      -0.001
      -0.149
      -0.361
      -0.613
      -0.816
      -0.833
      -0.553
      -0.021
       0.542
       0.855
       0.773
       0.361
      -0.180
      -0.655
      -0.932
      -0.927
      -0.596
       0.018
       0.741
       1.306
       1.491
       1.249
       0.708
       0.057
      -0.567
      -1.106
      -1.506
      -1.656
      -1.427
      -0.801
       0.026
       0.699
       0.894
       0.529
      -0.151
      -0.705
      -0.780
      -0.364
       0.229
       0.660
       0.856
       1.008
       1.278
       1.545
       1.471
       0.809
      -0.317
      -1.422
      -1.972
      -1.747
      -0.943
       0.023
       0.831
       1.387
       1.720
       1.797
       1.489
       0.709
      -0.429
      -1.583
      -2.353
      -2.499
      -2.069
      -1.319
      -0.536
       0.088
       0.463
       0.566
       0.439
       0.199
       0.020
       0.069
       0.413
       0.932
       1.368
       1.500
       1.318
       0.988
       0.669
       0.357
      -0.062
      -0.621
      -1.166
      -1.456
      -1.372
      -1.015
      -0.573
      -0.144
       0.292
       0.729
       1.044
       1.092
       0.873
       0.551
       0.297
       0.122
      -0.101
      -0.463
      -0.886
      -1.168
      -1.148
      -0.817
      -0.293
       0.250
       0.642
       0.778
       0.680
       0.508
       0.438
       0.495
       0.505
       0.238
      -0.366
      -1.125
      -1.733
      -1.958
      -1.737
      -1.153
      -0.375
       0.384
       0.966
       1.374
       1.745
       2.151
       2.430
       2.257
       1.444
       0.163
      -1.132
      -2.025
      -2.396
      -2.412
      -2.289
      -2.062
      -1.564
      -0.624
       0.699
       2.071
       3.070
       3.451
       3.253
       2.693
       1.945
       1.020
      -0.180
      -1.666
      -3.227
      -4.481
      -5.052
      -4.720
      -3.463
      -1.456
       0.926
       3.149
       4.685
       5.218
       4.748
       3.523
       1.889
       0.150
      -1.468
      -2.759
      -3.488
      -3.450
      -2.628
      -1.283
       0.125
       1.152
       1.569
       1.443
       1.043
       0.643
       0.389
       0.289
       0.294
       0.353
       0.393
       0.286
      -0.101
      -0.780
      -1.539
      -1.987
      -1.763
      -0.798
       0.562
       1.699
       2.058
       1.457
       0.196
      -1.115
      -1.910
      -1.961
      -1.409
      -0.549
       0.412
       1.400
       2.331
       2.984
       3.060
       2.393
       1.085
      -0.519
      -2.003
      -3.010
      -3.324
      -2.919
      -1.998
      -0.932
      -0.097
       0.319
       0.396
       0.424
       0.735
       1.458
       2.345
       2.842
       2.453
       1.129
      -0.634
      -2.073
      -2.581
      -2.015
      -0.728
       0.635
       1.494
       1.623
       1.183
       0.513
      -0.122
      -0.625
      -0.991
      -1.216
      -1.263
      -1.093
      -0.707
      -0.180
       0.311
       0.533
       0.309
      -0.346
      -1.142
      -1.599
      -1.302
      -0.196
       1.311
       2.547
       2.982
       2.501
       1.377
       0.008
      -1.289
      -2.265
      -2.642
      -2.168
      -0.842
       0.945
       2.559
       3.457
       3.429
       2.583
       1.182
      -0.477
      -2.059
      -3.181
      -3.506
      -2.914
      -1.618
      -0.107
       1.067
       1.516
       1.159
       0.237
      -0.792
      -1.443
      -1.419
      -0.739
       0.309
       1.339
       2.024
       2.152
       1.640
       0.566
      -0.816
      -2.114
      -2.905
      -2.857
      -1.862
      -0.145
       1.749
       3.152
       3.576
       2.933
       1.498
      -0.281
      -1.935
      -3.022
      -3.194
      -2.346
      -0.769
       0.897
       1.970
       2.117
       1.526
       0.708
       0.103
      -0.179
      -0.278
      -0.311
      -0.242
       0.003
       0.344
       0.545
       0.431
       0.058
      -0.344
      -0.567
      -0.560
      -0.400
      -0.208
      -0.099
      -0.137
      -0.303
      -0.477
      -0.495
      -0.237
       0.322
       1.117
       1.991
       2.675
       2.809
       2.071
       0.405
      -1.816
      -3.852
      -4.907
      -4.540
      -2.928
      -0.801
       0.957
       1.816
       1.844
       1.524
       1.296
       1.238
       1.131
       0.803
       0.387
       0.249
       0.634
       1.378
       1.956
       1.842
       0.904
      -0.482
      -1.710
      -2.358
      -2.390
      -2.036
      -1.528
      -0.984
      -0.459
      -0.017
       0.285
       0.441
       0.482
       0.442
       0.342
       0.218
       0.118
       0.090
       0.154
       0.291
       0.443
       0.552
       0.602
       0.622
       0.636
       0.611
       0.474
       0.160
      -0.317
      -0.842
      -1.237
      -1.355
      -1.179
      -0.841
      -0.519
      -0.310
      -0.169
       0.038
       0.433
       1.026
       1.654
       2.004
       1.792
       0.978
      -0.154
      -1.147
      -1.644
      -1.582
      -1.191
      -0.806
      -0.621
      -0.552
      -0.325
       0.292
       1.273
       2.283
       2.847
       2.620
       1.604
       0.159
      -1.190
      -2.019
      -2.177
      -1.800
      -1.184
      -0.599
      -0.139
       0.265
       0.694
       1.079
       1.204
       0.887
       0.182
      -0.594
      -1.072
      -1.104
      -0.869
      -0.702
      -0.808
      -1.119
      -1.401
      -1.453
      -1.209
      -0.692
       0.043
       0.916
       1.796
       2.525
       2.979
       3.093
       2.833
       2.156
       1.057
      -0.333
      -1.716
      -2.736
      -3.146
      -2.905
      -2.154
      -1.124
      -0.049
       0.885
       1.561
       1.927
       1.976
       1.731
       1.240
       0.553
      -0.292
      -1.233
      -2.113
      -2.666
      -2.640
      -1.987
      -0.951
       0.057
       0.716
       0.937
       0.821
       0.513
       0.139
      -0.155
      -0.192
       0.121
       0.685
       1.242
       1.554
       1.552
       1.331
       1.029
       0.725
       0.406
       0.001
      -0.509
      -0.983
      -1.161
      -0.859
      -0.187
       0.466
       0.721
       0.522
       0.192
       0.118
       0.371
       0.603
       0.354
      -0.499
      -1.576
      -2.248
      -2.092
      -1.148
       0.156
       1.298
       1.907
       1.852
       1.219
       0.266
      -0.635
      -1.120
      -0.989
      -0.287
       0.753
       1.820
       2.607
       2.860
       2.435
       1.360
      -0.164
      -1.819
      -3.232
      -4.036
      -3.966
      -2.989
      -1.397
       0.256
       1.383
       1.640
       1.077
       0.090
      -0.798
      -1.171
      -0.892
      -0.113
       0.806
       1.459
       1.550
       1.010
       0.008
      -1.139
      -2.102
      -2.610
      -2.457
      -1.544
       0.006
       1.765
       3.127
       3.598
       3.072
       1.866
       0.520
      -0.511
      -1.043
      -1.144
      -0.972
      -0.638
      -0.209
       0.197
       0.390
       0.235
      -0.206
      -0.666
      -0.836
      -0.553
       0.124
       0.963
       1.668
       1.971
       1.721
       0.964
      -0.033
      -0.889
      -1.322
      -1.313
      -1.078
      -0.877
      -0.824
      -0.853
      -0.810
      -0.588
      -0.177
       0.353
       0.916
       1.439
       1.823
       1.926
       1.623
       0.935
       0.074
      -0.675
      -1.163
      -1.475
      -1.801
      -2.210
      -2.530
      -2.477
      -1.923
      -1.032
