Origin Time       03/10/2012 17:48:28 UTC
Lat.              32.4 N 
Long.             76.3 E 
Depth (Km)         10.0
Magnitude         3.4
 Region           Chamba-DISTT.-HIMACHAL-PRADESH                                   
 Above details taken from IMD 
    
Station Code      CHM
Station Lat.       32.555  N
Station Long.      76.126  E
Station Height(m)  952.0
Site Class        A   Vs30 between 700 m/sec to 1400 m/sec * 
Record Time       03.10.2012 17:47:40.519 UTC
Sampling Rate     200. Hz
 Record Duration   65.050 Sec.
 Direction         N-S (N positive)
Max. Acceleration     -2.429 cm/sec**2
     
  * For reference see Site Classification link of website 
     
 Base Line Corrected and Low Pass Filtered (Cut Off at 35 Hz) Time History
 Acceleration data in cm/sec**2
    
[...]
      -0.015
      -0.016
      -0.012
      -0.006
      -0.002
      -0.002
      -0.008
      -0.014
      -0.017
      -0.014
      -0.007
      -0.001
       0.001
       0.000
      -0.003
      -0.006
      -0.007
      -0.007
      -0.006
      -0.006
      -0.005
      -0.003
      -0.003
      -0.006
      -0.013
      -0.023
      -0.027
      -0.024
      -0.017
      -0.012
      -0.013
      -0.018
      -0.020
      -0.017
      -0.012
      -0.011
      -0.015
      -0.020
      -0.023
      -0.021
      -0.016
      -0.010
      -0.007
      -0.007
      -0.009
      -0.010
      -0.011
      -0.011
      -0.011
      -0.012
      -0.013
      -0.012
      -0.010
      -0.008
      -0.006
      -0.004
      -0.003
      -0.004
      -0.006
      -0.007
      -0.008
      -0.007
      -0.005
      -0.004
      -0.005
      -0.006
      -0.006
      -0.004
      -0.002
       0.001
       0.002
       0.001
      -0.002
      -0.004
      -0.005
      -0.005
      -0.005
      -0.004
      -0.002
       0.000
       0.001
      -0.003
      -0.012
      -0.021
      -0.026
      -0.025
      -0.019
      -0.013
      -0.008
      -0.009
      -0.011
      -0.013
      -0.011
      -0.007
      -0.004
      -0.003
      -0.005
      -0.009
      -0.012
      -0.015
      -0.016
      -0.016
      -0.014
      -0.012
      -0.009
      -0.009
      -0.009
      -0.009
      -0.009
      -0.011
      -0.011
      -0.010
      -0.008
      -0.006
      -0.004
      -0.001
       0.002
       0.004
       0.003
      -0.003
      -0.011
      -0.017
      -0.017
      -0.013
      -0.008
      -0.004
      -0.004
      -0.006
      -0.010
      -0.011
      -0.011
      -0.009
      -0.008
      -0.007
      -0.005
      -0.001
       0.003
       0.002
      -0.004
      -0.012
      -0.018
      -0.022
      -0.023
      -0.023
      -0.023
      -0.025
      -0.027
      -0.027
      -0.026
      -0.025
      -0.024
      -0.026
      -0.027
      -0.026
      -0.024
      -0.020
      -0.015
      -0.012
      -0.009
      -0.007
      -0.004
      -0.002
      -0.002
      -0.003
      -0.006
      -0.009
      -0.011
      -0.011
      -0.009
      -0.007
      -0.005
      -0.005
      -0.011
      -0.019
      -0.025
      -0.024
      -0.016
      -0.006
      -0.003
      -0.006
      -0.011
      -0.013
      -0.009
      -0.005
      -0.004
      -0.009
      -0.016
      -0.019
      -0.019
      -0.017
      -0.017
      -0.018
      -0.019
      -0.019
      -0.015
      -0.009
      -0.003
      -0.001
      -0.003
      -0.008
      -0.012
      -0.014
      -0.017
      -0.022
      -0.023
      -0.016
      -0.002
       0.011
       0.014
       0.007
      -0.003
      -0.010
      -0.014
      -0.018
      -0.020
      -0.016
      -0.013
      -0.021
      -0.042
      -0.060
      -0.054
      -0.016
       0.035
       0.068
       0.060
       0.022
      -0.018
      -0.036
      -0.035
      -0.033
      -0.043
      -0.059
      -0.060
      -0.032
       0.015
       0.054
       0.059
       0.028
      -0.012
      -0.032
      -0.021
       0.009
       0.027
       0.016
      -0.020
      -0.058
      -0.078
      -0.081
      -0.075
      -0.065
      -0.045
      -0.010
       0.037
       0.083
       0.110
       0.103
       0.063
       0.008
      -0.038
      -0.061
      -0.060
      -0.053
      -0.060
      -0.086
      -0.113
      -0.116
      -0.082
      -0.024
       0.036
       0.082
       0.113
       0.135
       0.135
       0.099
       0.028
      -0.047
      -0.091
      -0.094
      -0.079
      -0.076
      -0.090
      -0.099
      -0.080
      -0.040
      -0.008
      -0.001
      -0.009
      -0.006
       0.025
       0.079
       0.126
       0.137
       0.095
       0.017
      -0.058
      -0.094
      -0.085
      -0.058
      -0.046
      -0.054
      -0.062
      -0.050
      -0.024
      -0.005
      -0.008
      -0.021
      -0.016
       0.022
       0.077
       0.108
       0.086
       0.017
      -0.057
      -0.093
      -0.084
      -0.058
      -0.042
      -0.033
      -0.013
       0.018
       0.032
       0.012
      -0.021
      -0.028
       0.004
       0.040
       0.041
       0.002
      -0.035
      -0.032
       0.005
       0.032
       0.017
      -0.032
      -0.074
      -0.078
      -0.045
      -0.005
       0.018
       0.022
       0.011
      -0.007
      -0.022
      -0.020
       0.010
       0.054
       0.080
       0.059
      -0.011
      -0.106
      -0.182
      -0.206
      -0.167
      -0.084
       0.013
       0.104
       0.186
       0.255
       0.287
       0.245
       0.119
      -0.041
      -0.143
      -0.124
      -0.011
       0.093
       0.094
      -0.025
      -0.188
      -0.295
      -0.299
      -0.226
      -0.130
      -0.051
       0.005
       0.049
       0.090
       0.122
       0.131
       0.105
       0.059
       0.026
       0.036
       0.082
       0.115
       0.087
      -0.012
      -0.131
      -0.195
      -0.156
      -0.036
       0.089
       0.141
       0.096
      -0.013
      -0.127
      -0.206
      -0.233
      -0.204
      -0.110
       0.033
       0.172
       0.239
       0.198
       0.076
      -0.065
      -0.174
      -0.227
      -0.215
      -0.133
       0.007
       0.159
       0.251
       0.230
       0.103
      -0.061
      -0.166
      -0.151
      -0.029
       0.123
       0.205
       0.157
      -0.001
      -0.168
      -0.232
      -0.154
      -0.002
       0.118
       0.146
       0.105
       0.052
       0.016
      -0.017
      -0.069
      -0.127
      -0.148
      -0.095
       0.024
       0.146
       0.193
       0.127
      -0.019
      -0.163
      -0.221
      -0.164
      -0.023
       0.128
       0.218
       0.205
       0.096
      -0.058
      -0.190
      -0.242
      -0.194
      -0.069
       0.083
       0.206
       0.257
       0.217
       0.098
      -0.058
      -0.197
      -0.282
      -0.298
      -0.238
      -0.104
       0.069
       0.202
       0.214
       0.093
      -0.082
      -0.191
      -0.172
      -0.072
       0.007
       0.007
      -0.034
      -0.033
       0.041
       0.130
       0.138
       0.027
      -0.143
      -0.254
      -0.221
      -0.066
       0.105
       0.193
       0.170
       0.090
       0.025
       0.020
       0.076
       0.154
       0.188
       0.126
      -0.024
      -0.180
      -0.249
      -0.205
      -0.111
      -0.045
      -0.031
      -0.025
       0.018
       0.083
       0.109
       0.055
      -0.045
      -0.112
      -0.085
       0.025
       0.150
       0.219
       0.208
       0.142
       0.068
       0.004
      -0.073
      -0.189
      -0.328
      -0.422
      -0.401
      -0.251
      -0.033
       0.160
       0.254
       0.238
       0.161
       0.085
       0.041
       0.023
       0.015
       0.023
       0.064
       0.137
       0.202
       0.204
       0.125
      -0.005
      -0.122
      -0.176
      -0.159
      -0.100
      -0.042
      -0.014
      -0.010
       0.000
       0.036
       0.081
       0.096
       0.052
      -0.036
      -0.115
      -0.133
      -0.086
      -0.024
      -0.016
      -0.088
      -0.192
      -0.236
      -0.161
       0.010
       0.186
       0.278
       0.255
       0.149
       0.028
      -0.045
      -0.039
       0.031
       0.112
       0.148
       0.116
       0.030
      -0.076
      -0.166
      -0.213
      -0.192
      -0.100
       0.033
       0.152
       0.203
       0.169
       0.071
      -0.052
      -0.165
      -0.248
      -0.285
      -0.264
      -0.184
      -0.065
       0.060
       0.162
       0.233
       0.273
       0.277
       0.237
       0.152
       0.041
      -0.060
      -0.115
      -0.112
      -0.071
      -0.029
      -0.010
      -0.025
      -0.073
      -0.148
      -0.228
      -0.273
      -0.242
      -0.122
       0.042
       0.173
       0.210
       0.153
       0.056
      -0.016
      -0.028
       0.014
       0.085
       0.161
       0.220
       0.243
       0.225
       0.179
       0.125
       0.078
       0.044
       0.022
       0.003
      -0.025
      -0.074
      -0.135
      -0.190
      -0.228
      -0.260
      -0.293
      -0.315
      -0.288
      -0.189
      -0.040
       0.093
       0.152
       0.127
       0.054
      -0.020
      -0.065
      -0.074
      -0.053
      -0.010
       0.037
       0.071
       0.075
       0.046
       0.008
      -0.001
       0.046
       0.141
       0.238
       0.280
       0.235
       0.117
      -0.023
      -0.128
      -0.167
      -0.146
      -0.096
      -0.048
      -0.019
      -0.009
      -0.022
      -0.060
      -0.112
      -0.154
      -0.154
      -0.100
      -0.013
       0.070
       0.116
       0.110
       0.055
      -0.026
      -0.092
      -0.097
      -0.031
       0.071
       0.150
       0.167
       0.122
       0.042
      -0.046
      -0.120
      -0.164
      -0.159
      -0.097
       0.004
       0.092
       0.113
       0.052
      -0.055
      -0.144
      -0.170
      -0.135
      -0.067
       0.007
       0.071
       0.119
       0.137
       0.112
       0.041
      -0.048
      -0.104
      -0.080
       0.021
       0.146
       0.214
       0.177
       0.049
      -0.098
      -0.190
      -0.197
      -0.143
      -0.075
      -0.038
      -0.049
      -0.089
      -0.115
      -0.081
       0.019
       0.142
       0.215
       0.193
       0.088
      -0.040
      -0.132
      -0.165
      -0.155
      -0.127
      -0.097
      -0.065
      -0.027
       0.012
       0.038
       0.038
       0.022
       0.016
       0.038
       0.080
       0.112
       0.113
       0.093
       0.080
       0.088
       0.099
       0.083
       0.028
      -0.053
      -0.132
      -0.187
      -0.203
      -0.174
      -0.106
      -0.022
       0.050
       0.086
       0.079
       0.033
      -0.035
      -0.101
      -0.141
      -0.138
      -0.089
       0.003
       0.127
       0.252
       0.329
       0.315
       0.207
       0.045
      -0.115
      -0.237
      -0.311
      -0.338
      -0.319
      -0.256
      -0.159
      -0.050
       0.043
       0.089
       0.067
      -0.011
      -0.094
      -0.111
      -0.028
       0.126
       0.274
       0.344
       0.313
       0.216
       0.108
       0.032
      -0.001
      -0.012
      -0.032
      -0.077
      -0.130
      -0.151
      -0.118
      -0.054
      -0.013
      -0.024
      -0.057
      -0.056
       0.008
       0.101
       0.153
       0.124
       0.034
      -0.059
      -0.110
      -0.115
      -0.093
      -0.064
      -0.036
      -0.020
      -0.031
      -0.074
      -0.124
      -0.131
      -0.053
       0.097
       0.251
       0.326
       0.293
       0.189
       0.080
       0.007
      -0.034
      -0.064
      -0.097
      -0.129
      -0.149
      -0.152
      -0.136
      -0.100
      -0.046
       0.017
       0.069
       0.080
       0.037
      -0.042
      -0.110
      -0.126
      -0.083
      -0.014
       0.039
       0.059
       0.064
       0.079
       0.111
       0.145
       0.164
       0.162
       0.148
       0.134
       0.124
       0.114
       0.090
       0.037
      -0.048
      -0.147
      -0.224
      -0.244
      -0.197
      -0.103
      -0.004
       0.057
       0.057
       0.001
      -0.078
      -0.140
      -0.159
      -0.142
      -0.119
      -0.115
      -0.128
      -0.128
      -0.087
      -0.004
       0.098
       0.186
       0.247
       0.291
       0.325
       0.333
       0.286
       0.178
       0.040
      -0.076
      -0.142
      -0.162
      -0.161
      -0.161
      -0.171
      -0.191
      -0.212
      -0.219
      -0.203
      -0.159
      -0.093
      -0.022
       0.038
       0.073
       0.076
       0.047
      -0.010
      -0.080
      -0.140
      -0.162
      -0.134
      -0.067
       0.003
       0.044
       0.043
       0.020
       0.011
       0.041
       0.110
       0.200
       0.296
       0.390
       0.478
       0.546
       0.573
       0.549
       0.470
       0.337
       0.145
      -0.109
      -0.395
      -0.642
      -0.757
      -0.687
      -0.469
      -0.230
      -0.118
      -0.206
      -0.445
      -0.695
      -0.802
      -0.679
      -0.346
       0.089
       0.496
       0.789
       0.956
       1.024
       0.997
       0.845
       0.549
       0.176
      -0.122
      -0.197
      -0.035
       0.199
       0.263
       0.022
      -0.439
      -0.872
      -1.045
      -0.894
      -0.541
      -0.173
       0.089
       0.231
       0.280
       0.228
       0.031
      -0.299
      -0.630
      -0.747
      -0.510
       0.023
       0.607
       0.965
       0.961
       0.661
       0.267
      -0.025
      -0.125
      -0.060
       0.090
       0.254
       0.383
       0.424
       0.320
       0.039
      -0.376
      -0.792
      -1.039
      -0.995
      -0.660
      -0.161
       0.315
       0.612
       0.660
       0.472
       0.125
      -0.280
      -0.638
      -0.863
      -0.909
      -0.785
      -0.546
      -0.267
      -0.009
       0.209
       0.412
       0.646
       0.940
       1.275
       1.576
       1.753
       1.746
       1.544
       1.152
       0.569
      -0.194
      -1.050
      -1.827
      -2.326
      -2.429
      -2.150
      -1.602
      -0.935
      -0.293
       0.208
       0.495
       0.566
       0.500
       0.423
       0.444
       0.590
       0.790
       0.918
       0.869
       0.610
       0.206
      -0.215
      -0.510
      -0.581
      -0.410
      -0.070
       0.313
       0.601
       0.695
       0.562
       0.241
      -0.178
      -0.592
      -0.915
      -1.089
      -1.092
      -0.930
      -0.645
      -0.312
      -0.024
       0.137
       0.145
       0.056
      -0.010
       0.058
       0.296
       0.637
       0.931
       1.030
       0.865
       0.492
       0.057
      -0.274
      -0.391
      -0.271
       0.030
       0.372
       0.580
       0.523
       0.219
      -0.164
      -0.417
      -0.453
      -0.349
      -0.256
      -0.256
      -0.311
      -0.344
      -0.339
      -0.348
      -0.409
      -0.481
      -0.463
      -0.287
       0.027
       0.402
       0.754
       1.021
       1.154
       1.108
       0.873
       0.502
       0.101
      -0.228
      -0.449
      -0.580
      -0.648
      -0.638
      -0.515
      -0.289
      -0.041
       0.126
       0.168
       0.131
       0.090
       0.084
       0.075
      -0.012
      -0.223
      -0.533
      -0.846
      -1.052
      -1.080
      -0.918
      -0.604
      -0.191
       0.253
       0.654
       0.944
       1.090
       1.111
       1.058
       0.971
       0.868
       0.747
       0.613
       0.488
       0.382
       0.265
       0.078
      -0.213
      -0.552
      -0.799
      -0.833
      -0.652
      -0.395
      -0.243
      -0.282
      -0.450
      -0.601
      -0.631
      -0.536
      -0.385
      -0.236
      -0.091
       0.080
       0.285
       0.486
       0.612
       0.610
       0.476
       0.256
       0.025
      -0.146
      -0.214
      -0.183
      -0.109
      -0.075
      -0.141
      -0.290
      -0.430
      -0.446
      -0.287
       0.003
       0.312
       0.527
       0.596
       0.531
       0.388
       0.222
       0.069
      -0.064
      -0.182
      -0.286
      -0.359
      -0.371
      -0.304
      -0.176
      -0.036
       0.066
       0.118
       0.148
       0.200
       0.296
       0.419
       0.518
       0.533
       0.425
       0.201
      -0.069
      -0.291
      -0.398
      -0.396
      -0.341
      -0.292
      -0.278
      -0.311
      -0.394
      -0.503
      -0.571
      -0.511
      -0.285
       0.058
       0.400
       0.626
       0.683
       0.589
       0.406
       0.217
       0.093
       0.075
       0.164
       0.325
       0.507
       0.650
       0.701
       0.616
       0.385
       0.049
      -0.307
      -0.582
      -0.700
      -0.639
      -0.448
      -0.228
      -0.094
      -0.111
      -0.262
      -0.444
      -0.531
      -0.445
      -0.207
       0.082
       0.307
       0.411
       0.408
       0.346
       0.252
       0.123
      -0.042
      -0.200
      -0.275
      -0.213
      -0.037
       0.158
       0.272
       0.272
       0.199
       0.119
       0.067
       0.047
       0.049
       0.067
       0.083
       0.071
       0.017
      -0.066
      -0.156
      -0.248
      -0.358
      -0.484
      -0.589
      -0.609
      -0.509
      -0.310
      -0.076
       0.133
       0.297
       0.414
       0.483
       0.490
       0.428
       0.310
       0.165
       0.017
      -0.121
      -0.244
      -0.347
      -0.429
      -0.496
      -0.542
      -0.532
      -0.415
      -0.174
       0.136
       0.407
       0.552
       0.571
       0.541
       0.550
       0.620
       0.706
       0.745
       0.711
       0.620
       0.492
       0.324
       0.093
      -0.205
      -0.520
      -0.755
      -0.826
      -0.720
      -0.512
      -0.316
      -0.216
      -0.218
      -0.272
      -0.327
      -0.369
      -0.409
      -0.445
      -0.444
      -0.358
      -0.175
       0.054
       0.245
       0.327
       0.293
       0.196
       0.107
       0.082
       0.141
       0.271
       0.440
       0.608
       0.733
       0.772
       0.691
       0.476
       0.161
      -0.168
      -0.402
      -0.473
      -0.393
      -0.249
      -0.136
      -0.097
      -0.105
      -0.116
      -0.121
      -0.159
      -0.263
      -0.410
      -0.520
      -0.517
      -0.378
      -0.140
       0.134
       0.398
       0.624
       0.784
       0.848
       0.795
       0.644
       0.447
       0.261
       0.110
      -0.025
      -0.172
      -0.333
      -0.466
      -0.526
      -0.505
      -0.456
      -0.450
      -0.522
      -0.631
      -0.690
      -0.636
      -0.471
      -0.256
      -0.046
       0.152
       0.363
       0.593
       0.805
       0.936
       0.949
       0.857
       0.715
       0.575
       0.464
       0.365
       0.238
       0.049
      -0.201
      -0.467
      -0.679
      -0.782
      -0.771
      -0.687
      -0.579
      -0.472
      -0.366
      -0.254
      -0.145
      -0.058
      -0.011
      -0.020
      -0.082
      -0.172
      -0.242
      -0.246
      -0.168
      -0.033
       0.116
       0.251
       0.376
       0.506
       0.640
       0.742
       0.761
       0.663
       0.467
       0.233
       0.024
      -0.129
      -0.224
      -0.278
      -0.304
      -0.311
      -0.306
      -0.290
      -0.254
      -0.193
      -0.122
      -0.071
      -0.068
      -0.102
      -0.127
      -0.106
      -0.049
      -0.002
       0.008
       0.011
       0.065
       0.192
       0.342
       0.436
       0.443
       0.404
       0.387
       0.416
       0.454
       0.438
       0.343
       0.195
       0.043
      -0.084
      -0.184
      -0.271
      -0.348
      -0.408
      -0.438
      -0.438
      -0.410
      -0.358
