Origin Time       06/11/2012 12:21:12 UTC
Lat.              32.3 N 
Long.             76.2 E 
Depth (Km)          5.0
Magnitude         4.1
 Region           Chamba-KANGRA-DISTT.-BORDER                                      
 Above details taken from IMD 
    
Station Code      CHM
Station Lat.       32.555  N
Station Long.      76.126  E
Station Height(m)  952.0
Site Class        A   Vs30 between 700 m/sec to 1400 m/sec * 
Record Time       06.11.2012 12:20:06.859 UTC
Sampling Rate     200. Hz
 Record Duration   68.615 Sec.
 Direction         N-S (N positive)
Max. Acceleration     -3.490 cm/sec**2
     
  * For reference see Site Classification link of website 
     
 Base Line Corrected and Low Pass Filtered (Cut Off at 35 Hz) Time History
 Acceleration data in cm/sec**2
    
[...]
      -0.007
      -0.011
      -0.009
       0.001
       0.011
       0.010
      -0.001
      -0.011
      -0.012
      -0.003
       0.006
       0.008
       0.003
      -0.003
      -0.006
      -0.005
      -0.004
      -0.006
      -0.013
      -0.020
      -0.023
      -0.018
      -0.009
       0.001
       0.007
       0.008
       0.004
      -0.003
      -0.010
      -0.017
      -0.021
      -0.019
      -0.012
      -0.004
       0.001
       0.002
       0.002
       0.000
      -0.003
      -0.006
      -0.007
      -0.006
      -0.005
      -0.004
      -0.002
       0.003
       0.006
       0.006
       0.001
      -0.007
      -0.015
      -0.020
      -0.020
      -0.018
      -0.015
      -0.011
      -0.005
       0.000
       0.000
      -0.008
      -0.018
      -0.028
      -0.034
      -0.032
      -0.023
      -0.010
      -0.001
       0.000
      -0.005
      -0.008
      -0.006
       0.001
       0.009
       0.014
       0.015
       0.011
       0.005
      -0.002
      -0.008
      -0.013
      -0.015
      -0.012
      -0.004
       0.002
       0.002
      -0.003
      -0.010
      -0.012
      -0.008
      -0.002
       0.000
      -0.005
      -0.014
      -0.021
      -0.024
      -0.022
      -0.018
      -0.013
      -0.007
       0.000
       0.004
       0.002
      -0.006
      -0.015
      -0.018
      -0.013
      -0.007
      -0.005
      -0.009
      -0.013
      -0.009
       0.005
       0.022
       0.029
       0.012
      -0.028
      -0.070
      -0.083
      -0.052
       0.010
       0.062
       0.063
       0.009
      -0.067
      -0.111
      -0.085
       0.000
       0.093
       0.130
       0.084
      -0.006
      -0.075
      -0.077
      -0.029
       0.013
       0.008
      -0.034
      -0.062
      -0.032
       0.052
       0.128
       0.123
       0.014
      -0.139
      -0.222
      -0.163
       0.000
       0.139
       0.152
       0.047
      -0.075
      -0.120
      -0.075
       0.008
       0.065
       0.065
       0.027
      -0.005
       0.004
       0.040
       0.055
       0.019
      -0.036
      -0.050
      -0.010
       0.034
       0.027
      -0.028
      -0.081
      -0.089
      -0.053
       0.002
       0.052
       0.086
       0.097
       0.073
       0.017
      -0.041
      -0.068
      -0.052
      -0.008
       0.038
       0.067
       0.070
       0.039
      -0.021
      -0.096
      -0.155
      -0.163
      -0.101
       0.014
       0.128
       0.184
       0.165
       0.094
       0.008
      -0.061
      -0.092
      -0.083
      -0.056
      -0.045
      -0.058
      -0.062
      -0.011
       0.088
       0.150
       0.090
      -0.076
      -0.223
      -0.224
      -0.069
       0.131
       0.244
       0.223
       0.108
      -0.021
      -0.102
      -0.115
      -0.079
      -0.032
      -0.002
       0.010
       0.019
       0.032
       0.032
       0.003
      -0.052
      -0.104
      -0.109
      -0.046
       0.076
       0.202
       0.256
       0.182
      -0.008
      -0.209
      -0.279
      -0.158
       0.074
       0.252
       0.266
       0.140
      -0.011
      -0.098
      -0.130
      -0.171
      -0.237
      -0.246
      -0.084
       0.250
       0.567
       0.615
       0.298
      -0.209
      -0.572
      -0.564
      -0.230
       0.161
       0.353
       0.288
       0.104
      -0.038
      -0.086
      -0.097
      -0.125
      -0.156
      -0.139
      -0.065
       0.017
       0.066
       0.086
       0.103
       0.117
       0.103
       0.056
       0.012
       0.008
       0.038
       0.051
      -0.005
      -0.119
      -0.211
      -0.195
      -0.055
       0.136
       0.249
       0.186
      -0.039
      -0.290
      -0.389
      -0.256
       0.021
       0.254
       0.311
       0.213
       0.090
       0.041
       0.046
       0.012
      -0.090
      -0.170
      -0.126
       0.023
       0.135
       0.090
      -0.083
      -0.236
      -0.235
      -0.072
       0.146
       0.289
       0.284
       0.134
      -0.096
      -0.296
      -0.358
      -0.245
      -0.020
       0.196
       0.308
       0.277
       0.111
      -0.124
      -0.314
      -0.348
      -0.211
       0.005
       0.186
       0.289
       0.325
       0.277
       0.105
      -0.159
      -0.352
      -0.304
      -0.025
       0.271
       0.352
       0.187
      -0.045
      -0.148
      -0.093
      -0.005
       0.010
      -0.023
       0.007
       0.141
       0.270
       0.216
      -0.087
      -0.485
      -0.687
      -0.506
      -0.042
       0.385
       0.499
       0.292
       0.000
      -0.130
      -0.036
       0.153
       0.266
       0.238
       0.128
       0.023
      -0.055
      -0.154
      -0.303
      -0.445
      -0.459
      -0.275
       0.059
       0.392
       0.558
       0.471
       0.164
      -0.212
      -0.442
      -0.366
       0.008
       0.474
       0.738
       0.601
       0.090
      -0.540
      -0.947
      -0.913
      -0.483
       0.086
       0.510
       0.651
       0.548
       0.313
       0.038
      -0.224
      -0.417
      -0.452
      -0.268
       0.085
       0.444
       0.626
       0.529
       0.173
      -0.312
      -0.720
      -0.829
      -0.532
       0.052
       0.588
       0.733
       0.390
      -0.201
      -0.636
      -0.644
      -0.266
       0.215
       0.510
       0.517
       0.337
       0.140
       0.011
      -0.073
      -0.139
      -0.143
      -0.023
       0.190
       0.356
       0.327
       0.084
      -0.245
      -0.489
      -0.564
      -0.492
      -0.332
      -0.110
       0.152
       0.381
       0.450
       0.292
       0.005
      -0.179
      -0.098
       0.179
       0.392
       0.328
       0.003
      -0.349
      -0.492
      -0.382
      -0.172
      -0.037
      -0.008
       0.024
       0.163
       0.367
       0.483
       0.411
       0.212
       0.058
       0.054
       0.135
       0.142
      -0.019
      -0.277
      -0.452
      -0.416
      -0.206
       0.005
       0.051
      -0.091
      -0.276
      -0.315
      -0.141
       0.119
       0.260
       0.175
      -0.057
      -0.260
      -0.312
      -0.232
      -0.129
      -0.094
      -0.120
      -0.113
       0.044
       0.382
       0.785
       1.025
       0.906
       0.425
      -0.196
      -0.644
      -0.731
      -0.512
      -0.222
      -0.073
      -0.106
      -0.194
      -0.188
      -0.054
       0.109
       0.172
       0.109
       0.011
      -0.003
       0.097
       0.228
       0.268
       0.157
      -0.064
      -0.288
      -0.401
      -0.334
      -0.089
       0.236
       0.484
       0.517
       0.327
       0.050
      -0.108
      -0.030
       0.226
       0.451
       0.438
       0.150
      -0.252
      -0.535
      -0.579
      -0.457
      -0.342
      -0.345
      -0.423
      -0.429
      -0.255
       0.061
       0.348
       0.430
       0.257
      -0.042
      -0.234
      -0.129
       0.272
       0.761
       1.048
       0.954
       0.512
      -0.064
      -0.512
      -0.658
      -0.492
      -0.167
       0.107
       0.196
       0.130
       0.037
       0.000
      -0.023
      -0.115
      -0.262
      -0.334
      -0.225
       0.012
       0.197
       0.182
      -0.011
      -0.235
      -0.363
      -0.381
      -0.358
      -0.347
      -0.332
      -0.267
      -0.128
       0.059
       0.241
       0.371
       0.437
       0.475
       0.535
       0.630
       0.691
       0.603
       0.311
      -0.088
      -0.402
      -0.505
      -0.445
      -0.378
      -0.405
      -0.477
      -0.473
      -0.345
      -0.161
      -0.021
       0.064
       0.164
       0.320
       0.475
       0.526
       0.430
       0.231
      -0.001
      -0.224
      -0.396
      -0.435
      -0.243
       0.184
       0.670
       0.921
       0.722
       0.128
      -0.546
      -0.947
      -0.930
      -0.631
      -0.312
      -0.129
      -0.053
       0.022
       0.119
       0.161
       0.089
      -0.039
      -0.080
       0.057
       0.322
       0.552
       0.608
       0.487
       0.304
       0.174
       0.119
       0.072
      -0.041
      -0.220
      -0.384
      -0.424
      -0.283
      -0.009
       0.261
       0.381
       0.285
       0.036
      -0.223
      -0.357
      -0.316
      -0.165
      -0.045
      -0.063
      -0.210
      -0.373
      -0.444
      -0.414
      -0.349
      -0.288
      -0.192
      -0.008
       0.240
       0.451
       0.545
       0.540
       0.521
       0.528
       0.510
       0.391
       0.178
      -0.030
      -0.115
      -0.038
       0.131
       0.255
       0.212
      -0.014
      -0.297
      -0.452
      -0.386
      -0.174
       0.005
       0.028
      -0.089
      -0.231
      -0.310
      -0.318
      -0.292
      -0.241
      -0.132
       0.059
       0.280
       0.414
       0.361
       0.118
      -0.205
      -0.465
      -0.558
      -0.457
      -0.194
       0.156
       0.497
       0.725
       0.773
       0.636
       0.379
       0.094
      -0.142
      -0.281
      -0.290
      -0.160
       0.062
       0.266
       0.322
       0.169
      -0.148
      -0.505
      -0.762
      -0.825
      -0.673
      -0.368
      -0.028
       0.229
       0.340
       0.332
       0.293
       0.299
       0.348
       0.365
       0.294
       0.169
       0.071
       0.030
      -0.016
      -0.133
      -0.285
      -0.354
      -0.258
      -0.049
       0.131
       0.177
       0.083
      -0.098
      -0.312
      -0.500
      -0.568
      -0.426
      -0.066
       0.390
       0.741
       0.826
       0.625
       0.271
      -0.054
      -0.249
      -0.349
      -0.446
      -0.562
      -0.604
      -0.453
      -0.110
       0.264
       0.452
       0.360
       0.090
      -0.139
      -0.165
       0.014
       0.280
       0.489
       0.560
       0.480
       0.276
      -0.003
      -0.298
      -0.546
      -0.694
      -0.712
      -0.588
      -0.328
       0.023
       0.358
       0.545
       0.524
       0.369
       0.240
       0.251
       0.362
       0.415
       0.287
       0.002
      -0.287
      -0.431
      -0.398
      -0.274
      -0.170
      -0.112
      -0.032
       0.133
       0.327
       0.389
       0.204
      -0.167
      -0.515
      -0.658
      -0.573
      -0.375
      -0.196
      -0.072
       0.037
       0.151
       0.212
       0.145
      -0.025
      -0.174
      -0.188
      -0.075
       0.055
       0.112
       0.117
       0.171
       0.331
       0.520
       0.568
       0.376
       0.032
      -0.253
      -0.316
      -0.164
       0.063
       0.229
       0.292
       0.301
       0.314
       0.325
       0.263
       0.035
      -0.383
      -0.893
      -1.304
      -1.422
      -1.146
      -0.515
       0.308
       1.084
       1.579
       1.638
       1.236
       0.491
      -0.363
      -1.044
      -1.313
      -1.055
      -0.322
       0.666
       1.564
       2.021
       1.830
       1.029
      -0.105
      -1.192
      -1.912
      -2.127
      -1.887
      -1.351
      -0.700
      -0.087
       0.351
       0.504
       0.329
      -0.078
      -0.474
      -0.586
      -0.293
       0.283
       0.873
       1.270
       1.467
       1.576
       1.632
       1.486
       0.939
       0.008
      -0.978
      -1.581
      -1.564
      -1.032
      -0.296
       0.370
       0.844
       1.095
       1.071
       0.671
      -0.136
      -1.156
      -1.947
      -2.050
      -1.349
      -0.241
       0.599
       0.712
       0.165
      -0.590
      -1.117
      -1.276
      -1.168
      -0.892
      -0.411
       0.340
       1.248
       1.966
       2.129
       1.660
       0.880
       0.296
       0.240
       0.638
       1.086
       1.152
       0.677
      -0.141
      -0.925
      -1.403
      -1.562
      -1.564
      -1.538
      -1.453
      -1.195
      -0.746
      -0.257
       0.035
      -0.006
      -0.292
      -0.538
      -0.423
       0.221
       1.287
       2.412
       3.151
       3.202
       2.565
       1.513
       0.425
      -0.407
      -0.883
      -1.090
      -1.195
      -1.308
      -1.399
      -1.369
      -1.190
      -0.980
      -0.912
      -1.014
      -1.095
      -0.893
      -0.328
       0.375
       0.818
       0.727
       0.186
      -0.384
      -0.517
      -0.067
       0.672
       1.196
       1.182
       0.680
      -0.008
      -0.582
      -0.871
      -0.796
      -0.312
       0.530
       1.500
       2.226
       2.397
       1.946
       1.043
      -0.059
      -1.113
      -1.867
      -2.066
      -1.594
      -0.645
       0.303
       0.767
       0.580
      -0.021
      -0.621
      -0.944
      -0.999
      -0.955
      -0.899
      -0.741
      -0.317
       0.390
       1.142
       1.562
       1.414
       0.806
       0.146
      -0.163
      -0.034
       0.274
       0.413
       0.272
       0.048
       0.017
       0.233
       0.450
       0.342
      -0.211
      -1.013
      -1.713
      -2.047
      -1.980
      -1.637
      -1.137
      -0.493
       0.331
       1.260
       2.011
       2.217
       1.703
       0.695
      -0.256
      -0.613
      -0.182
       0.788
       1.798
       2.374
       2.255
       1.440
       0.128
      -1.371
      -2.697
      -3.490
      -3.466
      -2.565
      -1.074
       0.439
       1.418
       1.643
       1.310
       0.799
       0.369
       0.060
      -0.145
      -0.174
       0.067
       0.503
       0.850
       0.845
       0.494
       0.067
      -0.154
      -0.109
       0.038
       0.090
      -0.003
      -0.147
      -0.228
      -0.218
      -0.161
      -0.096
      -0.038
      -0.036
      -0.202
      -0.624
      -1.244
      -1.835
      -2.116
      -1.923
      -1.278
      -0.332
       0.732
       1.715
       2.381
       2.495
       1.989
       1.073
       0.142
      -0.495
      -0.816
      -1.012
      -1.216
      -1.329
      -1.119
      -0.511
       0.256
       0.765
       0.758
       0.355
      -0.030
      -0.001
       0.550
       1.383
       2.062
       2.193
       1.632
       0.560
      -0.609
      -1.445
      -1.740
      -1.598
      -1.336
      -1.223
      -1.254
      -1.140
      -0.582
       0.406
       1.414
       1.926
       1.745
       1.151
       0.648
       0.523
       0.644
       0.655
       0.335
      -0.232
      -0.796
      -1.181
      -1.372
      -1.421
      -1.341
      -1.120
      -0.792
      -0.452
      -0.190
      -0.025
       0.096
       0.240
       0.428
       0.594
       0.626
       0.466
       0.213
       0.100
       0.314
       0.808
       1.296
       1.469
       1.252
       0.836
       0.471
       0.227
      -0.016
      -0.364
      -0.731
      -0.893
      -0.726
      -0.374
      -0.165
      -0.329
      -0.790
      -1.215
      -1.274
      -0.899
      -0.313
       0.148
       0.267
       0.055
      -0.309
      -0.617
      -0.742
      -0.646
      -0.349
       0.077
       0.495
       0.734
       0.681
       0.375
       0.001
      -0.214
      -0.136
       0.202
       0.651
       1.061
       1.345
       1.461
       1.363
       1.016
       0.470
      -0.112
      -0.536
      -0.699
      -0.649
      -0.526
      -0.453
      -0.477
      -0.592
      -0.764
      -0.941
      -1.031
      -0.937
      -0.635
      -0.228
       0.097
       0.238
       0.288
       0.471
       0.905
       1.427
       1.670
       1.363
       0.571
      -0.321
      -0.894
      -0.994
      -0.817
      -0.702
      -0.830
      -1.085
      -1.181
      -0.910
      -0.301
       0.426
       1.022
       1.329
       1.314
       1.062
       0.746
       0.536
       0.469
       0.412
       0.193
      -0.205
      -0.580
      -0.688
      -0.473
      -0.125
       0.098
       0.102
       0.012
       0.020
       0.187
       0.399
       0.485
       0.369
       0.113
      -0.168
      -0.414
      -0.647
      -0.900
      -1.118
      -1.144
      -0.826
      -0.167
       0.614
       1.191
       1.319
       0.970
       0.309
      -0.423
      -1.000
      -1.245
      -1.049
      -0.433
       0.404
       1.148
       1.552
       1.577
       1.385
       1.159
       0.925
       0.547
      -0.081
      -0.851
      -1.442
      -1.547
      -1.127
      -0.454
       0.084
       0.254
       0.096
      -0.178
      -0.378
      -0.447
      -0.427
      -0.364
      -0.269
      -0.158
      -0.080
      -0.090
      -0.187
      -0.295
      -0.312
      -0.187
       0.030
       0.223
       0.304
       0.294
       0.305
       0.430
       0.640
       0.794
       0.766
       0.570
       0.356
       0.258
       0.222
       0.027
      -0.512
      -1.302
      -1.967
      -2.105
      -1.614
      -0.756
       0.073
       0.666
       1.099
       1.525
       1.914
       2.012
       1.567
       0.610
      -0.498
      -1.282
      -1.481
      -1.205
      -0.803
      -0.557
      -0.480
      -0.390
      -0.173
       0.068
       0.130
      -0.047
      -0.277
      -0.287
       0.035
       0.542
       0.948
       1.033
       0.755
       0.233
      -0.339
      -0.764
      -0.900
      -0.719
      -0.338
       0.051
       0.319
       0.484
       0.646
       0.858
       1.059
       1.143
       1.058
       0.823
       0.475
       0.039
      -0.433
      -0.832
      -1.020
      -0.938
      -0.671
      -0.409
      -0.306
      -0.365
      -0.444
      -0.371
      -0.085
       0.331
       0.713
       0.913
       0.853
       0.537
       0.040
      -0.497
      -0.906
      -1.063
      -0.950
      -0.654
      -0.317
      -0.058
       0.071
       0.094
       0.078
       0.092
       0.173
       0.320
       0.504
       0.668
       0.735
       0.650
       0.423
       0.151
      -0.031
      -0.044
       0.082
       0.249
       0.362
       0.374
       0.277
       0.088
      -0.154
      -0.390
      -0.571
      -0.672
      -0.690
      -0.619
      -0.459
      -0.250
      -0.078
      -0.040
      -0.165
      -0.382
      -0.545
      -0.527
      -0.306
       0.030
       0.348
       0.555
       0.634
       0.617
       0.548
       0.450
       0.316
       0.140
      -0.038
      -0.102
       0.058
       0.417
       0.764
       0.820
       0.462
      -0.162
      -0.738
      -1.013
      -0.953
      -0.723
      -0.537
      -0.522
      -0.671
      -0.888
      -1.064
      -1.124
      -1.033
      -0.785
      -0.395
       0.085
       0.561
       0.913
       1.060
       1.014
       0.871
       0.745
       0.702
       0.754
       0.891
       1.094
       1.314
       1.463
       1.443
       1.208
       0.806
       0.352
      -0.039
      -0.306
      -0.458
      -0.540
      -0.604
      -0.686
      -0.807
      -0.978
      -1.179
      -1.339
      -1.337
      -1.079
      -0.578
       0.016
       0.487
       0.675
       0.539
       0.143
      -0.401
      -0.961
      -1.375
