Origin Time       09/07/2013 13:49:13 UTC
Lat.              32.9 N 
Long.             78.4 E 
Depth (Km)         10.0
Magnitude         5.1
 Region           J&K-HIMACHAL-Border                                              
 Above details taken from IMD 
    
Station Code      CHM
Station Lat.       32.555  N
Station Long.      76.126  E
Station Height(m)  952.0
Site Class        A   Vs30 between 700 m/sec to 1400 m/sec * 
Record Time       09.07.2013 21:59:43.264 UTC
Sampling Rate     200. Hz
 Record Duration   65.035 Sec.
 Direction         N-S (N positive)
Max. Acceleration     -1.268 cm/sec**2
     
  * For reference see Site Classification link of website 
     
 Base Line Corrected and Low Pass Filtered (Cut Off at 35 Hz) Time History
 Acceleration data in cm/sec**2
    
[...]
      -0.073
      -0.127
      -0.121
      -0.064
       0.016
       0.080
       0.097
       0.055
      -0.021
      -0.083
      -0.083
      -0.011
       0.094
       0.177
       0.201
       0.171
       0.113
       0.046
      -0.026
      -0.099
      -0.157
      -0.167
      -0.112
      -0.014
       0.067
       0.076
       0.011
      -0.076
      -0.110
      -0.053
       0.065
       0.176
       0.216
       0.177
       0.095
       0.019
      -0.010
       0.028
       0.135
       0.274
       0.364
       0.307
       0.061
      -0.318
      -0.687
      -0.889
      -0.836
      -0.540
      -0.098
       0.361
       0.715
       0.875
       0.797
       0.496
       0.054
      -0.385
      -0.656
      -0.638
      -0.326
       0.146
       0.562
       0.745
       0.647
       0.359
       0.035
      -0.198
      -0.290
      -0.256
      -0.150
      -0.040
       0.011
      -0.027
      -0.149
      -0.323
      -0.506
      -0.648
      -0.680
      -0.522
      -0.150
       0.345
       0.762
       0.906
       0.723
       0.350
       0.028
      -0.061
       0.083
       0.294
       0.371
       0.220
      -0.085
      -0.372
      -0.501
      -0.453
      -0.308
      -0.152
      -0.018
       0.101
       0.195
       0.221
       0.149
       0.015
      -0.094
      -0.097
       0.017
       0.196
       0.358
       0.431
       0.370
       0.163
      -0.150
      -0.482
      -0.725
      -0.788
      -0.626
      -0.261
       0.226
       0.692
       0.976
       0.960
       0.637
       0.132
      -0.343
      -0.595
      -0.550
      -0.291
      -0.001
       0.152
       0.110
      -0.050
      -0.195
      -0.234
      -0.179
      -0.105
      -0.073
      -0.067
      -0.025
       0.103
       0.290
       0.453
       0.507
       0.438
       0.301
       0.169
       0.067
      -0.036
      -0.181
      -0.359
      -0.502
      -0.531
      -0.418
      -0.204
       0.028
       0.204
       0.284
       0.267
       0.183
       0.079
      -0.002
      -0.038
      -0.029
       0.008
       0.043
       0.044
      -0.008
      -0.101
      -0.199
      -0.249
      -0.215
      -0.089
       0.106
       0.331
       0.531
       0.640
       0.603
       0.405
       0.093
      -0.235
      -0.477
      -0.568
      -0.506
      -0.344
      -0.152
       0.018
       0.134
       0.178
       0.148
       0.068
      -0.008
      -0.022
       0.039
       0.124
       0.148
       0.059
      -0.118
      -0.291
      -0.356
      -0.258
      -0.027
       0.237
       0.424
       0.473
       0.400
       0.272
       0.160
       0.096
       0.074
       0.067
       0.046
       0.001
      -0.061
      -0.116
      -0.143
      -0.142
      -0.136
      -0.148
      -0.170
      -0.168
      -0.118
      -0.046
      -0.008
      -0.047
      -0.150
      -0.255
      -0.299
      -0.262
      -0.178
      -0.098
      -0.046
      -0.001
       0.078
       0.217
       0.393
       0.549
       0.621
       0.579
       0.439
       0.248
       0.064
      -0.067
      -0.119
      -0.102
      -0.062
      -0.071
      -0.176
      -0.358
      -0.538
      -0.622
      -0.561
      -0.383
      -0.165
       0.011
       0.103
       0.122
       0.110
       0.111
       0.148
       0.211
       0.264
       0.270
       0.215
       0.114
       0.011
      -0.054
      -0.061
      -0.026
       0.025
       0.073
       0.114
       0.139
       0.130
       0.075
      -0.006
      -0.059
      -0.033
       0.083
       0.238
       0.340
       0.317
       0.156
      -0.087
      -0.318
      -0.456
      -0.463
      -0.364
      -0.221
      -0.088
       0.020
       0.126
       0.245
       0.352
       0.389
       0.318
       0.172
       0.038
      -0.009
       0.022
       0.047
      -0.016
      -0.168
      -0.315
      -0.351
      -0.249
      -0.087
       0.021
       0.015
      -0.070
      -0.147
      -0.149
      -0.083
      -0.004
       0.033
       0.029
       0.030
       0.084
       0.194
       0.312
       0.373
       0.336
       0.209
       0.041
      -0.100
      -0.156
      -0.103
       0.029
       0.165
       0.216
       0.137
      -0.036
      -0.214
      -0.308
      -0.294
      -0.212
      -0.123
      -0.059
      -0.016
       0.024
       0.059
       0.067
       0.031
      -0.035
      -0.094
      -0.113
      -0.085
      -0.030
       0.020
       0.049
       0.061
       0.078
       0.113
       0.160
       0.196
       0.202
       0.181
       0.162
       0.174
       0.224
       0.284
       0.312
       0.274
       0.164
      -0.004
      -0.193
      -0.353
      -0.444
      -0.442
      -0.363
      -0.252
      -0.161
      -0.122
      -0.128
      -0.145
      -0.139
      -0.099
      -0.036
       0.026
       0.072
       0.102
       0.124
       0.146
       0.171
       0.194
       0.214
       0.230
       0.243
       0.246
       0.222
       0.151
       0.027
      -0.128
      -0.258
      -0.302
      -0.235
      -0.100
       0.019
       0.057
       0.020
      -0.029
      -0.034
       0.005
       0.035
       0.008
      -0.066
      -0.124
      -0.104
      -0.005
       0.109
       0.148
       0.068
      -0.090
      -0.228
      -0.253
      -0.150
       0.013
       0.138
       0.170
       0.127
       0.066
       0.033
       0.034
       0.045
       0.047
       0.041
       0.036
       0.036
       0.023
      -0.019
      -0.087
      -0.156
      -0.193
      -0.177
      -0.108
       0.002
       0.127
       0.236
       0.294
       0.274
       0.183
       0.070
       0.005
       0.024
       0.099
       0.158
       0.142
       0.045
      -0.084
      -0.185
      -0.223
      -0.194
      -0.123
      -0.044
       0.009
       0.021
      -0.005
      -0.048
      -0.081
      -0.095
      -0.095
      -0.091
      -0.076
      -0.034
       0.036
       0.107
       0.146
       0.139
       0.103
       0.069
       0.060
       0.067
       0.060
       0.025
      -0.023
      -0.045
      -0.018
       0.040
       0.090
       0.105
       0.092
       0.073
       0.054
       0.008
      -0.088
      -0.220
      -0.325
      -0.335
      -0.236
      -0.081
       0.042
       0.076
       0.027
      -0.048
      -0.090
      -0.081
      -0.042
       0.001
       0.042
       0.103
       0.191
       0.282
       0.324
       0.278
       0.154
       0.011
      -0.085
      -0.096
      -0.030
       0.074
       0.172
       0.227
       0.215
       0.131
       0.004
      -0.119
      -0.189
      -0.190
      -0.145
      -0.096
      -0.067
      -0.058
      -0.052
      -0.042
      -0.038
      -0.055
      -0.089
      -0.118
      -0.116
      -0.070
       0.006
       0.088
       0.152
       0.184
       0.183
       0.155
       0.116
       0.078
       0.044
       0.010
      -0.027
      -0.061
      -0.073
      -0.048
       0.014
       0.087
       0.130
       0.116
       0.047
      -0.047
      -0.129
      -0.171
      -0.170
      -0.136
      -0.081
      -0.018
       0.043
       0.087
       0.107
       0.107
       0.101
       0.101
       0.108
       0.110
       0.092
       0.048
      -0.011
      -0.065
      -0.096
      -0.103
      -0.093
      -0.075
      -0.058
      -0.043
      -0.031
      -0.012
       0.028
       0.087
       0.139
       0.147
       0.100
       0.025
      -0.032
      -0.050
      -0.046
      -0.053
      -0.082
      -0.104
      -0.077
       0.014
       0.130
       0.209
       0.206
       0.131
       0.038
      -0.013
       0.004
       0.065
       0.115
       0.101
       0.011
      -0.117
      -0.218
      -0.241
      -0.181
      -0.085
      -0.011
       0.007
      -0.015
      -0.036
      -0.026
       0.010
       0.050
       0.074
       0.088
       0.110
       0.151
       0.196
       0.209
       0.161
       0.055
      -0.074
      -0.180
      -0.222
      -0.192
      -0.115
      -0.032
       0.017
       0.023
       0.006
       0.001
       0.033
       0.100
       0.168
       0.198
       0.174
       0.113
       0.049
       0.001
      -0.045
      -0.116
      -0.226
      -0.349
      -0.431
      -0.417
      -0.290
      -0.086
       0.124
       0.276
       0.350
       0.362
       0.344
       0.311
       0.265
       0.209
       0.159
       0.129
       0.113
       0.080
       0.006
      -0.104
      -0.221
      -0.319
      -0.394
      -0.459
      -0.508
      -0.506
      -0.410
      -0.206
       0.069
       0.343
       0.541
       0.617
       0.560
       0.395
       0.163
      -0.080
      -0.283
      -0.401
      -0.408
      -0.304
      -0.124
       0.071
       0.222
       0.296
       0.295
       0.235
       0.141
       0.036
      -0.051
      -0.090
      -0.061
       0.030
       0.151
       0.254
       0.290
       0.233
       0.088
      -0.111
      -0.309
      -0.455
      -0.518
      -0.479
      -0.332
      -0.090
       0.197
       0.439
       0.547
       0.487
       0.305
       0.102
      -0.039
      -0.099
      -0.108
      -0.098
      -0.060
       0.022
       0.127
       0.183
       0.124
      -0.052
      -0.262
      -0.401
      -0.408
      -0.293
      -0.111
       0.081
       0.241
       0.340
       0.359
       0.283
       0.115
      -0.116
      -0.347
      -0.490
      -0.464
      -0.250
       0.076
       0.370
       0.488
       0.371
       0.083
      -0.228
      -0.416
      -0.408
      -0.236
       0.007
       0.226
       0.367
       0.422
       0.404
       0.326
       0.205
       0.071
      -0.038
      -0.083
      -0.056
       0.014
       0.067
       0.041
      -0.091
      -0.304
      -0.511
      -0.610
      -0.535
      -0.304
      -0.005
       0.256
       0.420
       0.493
       0.519
       0.518
       0.470
       0.341
       0.133
      -0.095
      -0.263
      -0.322
      -0.291
      -0.227
      -0.177
      -0.149
      -0.123
      -0.093
      -0.078
      -0.094
      -0.120
      -0.095
       0.023
       0.218
       0.412
       0.513
       0.476
       0.321
       0.122
      -0.045
      -0.148
      -0.205
      -0.263
      -0.350
      -0.449
      -0.503
      -0.456
      -0.296
      -0.068
       0.154
       0.309
       0.378
       0.384
       0.366
       0.352
       0.341
       0.318
       0.257
       0.150
       0.013
      -0.118
      -0.197
      -0.200
      -0.141
      -0.066
      -0.023
      -0.029
      -0.057
      -0.066
      -0.039
       0.004
       0.029
       0.017
      -0.021
      -0.059
      -0.077
      -0.071
      -0.053
      -0.043
      -0.061
      -0.110
      -0.164
      -0.170
      -0.088
       0.067
       0.213
       0.250
       0.137
      -0.065
      -0.224
      -0.233
      -0.085
       0.122
       0.261
       0.266
       0.174
       0.072
       0.028
       0.041
       0.063
       0.046
      -0.022
      -0.112
      -0.181
      -0.190
      -0.125
      -0.003
       0.133
       0.236
       0.283
       0.279
       0.253
       0.222
       0.184
       0.118
       0.008
      -0.135
      -0.270
      -0.342
      -0.317
      -0.200
      -0.041
       0.095
       0.168
       0.175
       0.140
       0.093
       0.054
       0.030
       0.024
       0.034
       0.048
       0.043
      -0.006
      -0.111
      -0.257
      -0.404
      -0.497
      -0.485
      -0.348
      -0.117
       0.134
       0.322
       0.400
       0.373
       0.289
       0.199
       0.131
       0.085
       0.052
       0.025
      -0.004
      -0.045
      -0.107
      -0.186
      -0.254
      -0.276
      -0.229
      -0.125
      -0.001
       0.095
       0.135
       0.117
       0.068
       0.027
       0.025
       0.069
       0.141
       0.213
       0.266
       0.293
       0.281
       0.210
       0.071
      -0.106
      -0.248
      -0.281
      -0.182
      -0.005
       0.161
       0.242
       0.219
       0.124
       0.003
      -0.102
      -0.162
      -0.157
      -0.083
       0.031
       0.133
       0.173
       0.132
       0.027
      -0.102
      -0.214
      -0.276
      -0.267
      -0.194
      -0.092
      -0.017
      -0.003
      -0.034
      -0.054
      -0.012
       0.087
       0.187
       0.233
       0.225
       0.212
       0.245
       0.327
       0.405
       0.409
       0.308
       0.122
      -0.100
      -0.319
      -0.513
      -0.665
      -0.756
      -0.762
      -0.669
      -0.494
      -0.273
      -0.052
       0.137
       0.278
       0.374
       0.434
       0.471
       0.500
       0.529
       0.552
       0.545
       0.480
       0.339
       0.134
      -0.096
      -0.306
      -0.468
      -0.581
      -0.653
      -0.692
      -0.691
      -0.636
      -0.516
      -0.331
      -0.104
       0.124
       0.308
       0.419
       0.466
       0.494
       0.547
       0.630
       0.697
       0.674
       0.515
       0.241
      -0.058
      -0.285
      -0.382
      -0.365
      -0.295
      -0.231
      -0.190
      -0.144
      -0.051
       0.109
       0.314
       0.516
       0.659
       0.697
       0.607
       0.390
       0.074
      -0.293
      -0.655
      -0.960
      -1.172
      -1.268
      -1.230
      -1.041
      -0.699
      -0.235
       0.275
       0.725
       1.017
       1.108
       1.025
       0.845
       0.641
       0.452
       0.274
       0.086
      -0.125
      -0.351
      -0.558
      -0.704
      -0.760
      -0.721
      -0.612
      -0.462
      -0.289
      -0.097
       0.117
       0.334
       0.519
       0.627
       0.633
       0.547
       0.409
       0.263
       0.139
       0.050
       0.000
      -0.008
       0.029
       0.102
       0.190
       0.267
       0.317
       0.336
       0.324
       0.273
       0.175
       0.039
      -0.108
      -0.236
      -0.335
      -0.421
      -0.518
      -0.626
      -0.713
      -0.736
      -0.678
      -0.561
      -0.436
      -0.344
      -0.296
      -0.267
      -0.214
      -0.106
       0.056
       0.241
       0.405
       0.517
       0.564
       0.555
       0.514
       0.474
       0.466
       0.506
       0.585
       0.659
       0.671
       0.579
       0.387
       0.137
      -0.107
      -0.304
      -0.446
      -0.552
      -0.634
      -0.685
      -0.679
      -0.598
      -0.454
      -0.292
      -0.161
      -0.087
      -0.055
      -0.022
       0.052
       0.176
       0.316
       0.421
       0.453
       0.417
       0.350
       0.285
       0.226
       0.151
       0.046
      -0.063
      -0.134
      -0.143
      -0.109
      -0.076
      -0.083
      -0.143
      -0.243
      -0.363
      -0.470
      -0.537
      -0.543
      -0.483
      -0.375
      -0.251
      -0.138
      -0.048
       0.030
       0.110
       0.203
       0.301
       0.391
       0.463
       0.517
       0.559
       0.588
       0.589
       0.545
       0.451
       0.332
       0.225
       0.158
       0.125
       0.094
       0.030
      -0.077
      -0.209
      -0.339
      -0.444
      -0.512
      -0.543
      -0.541
      -0.507
      -0.433
      -0.303
      -0.105
       0.141
       0.386
       0.568
       0.654
       0.648
       0.575
       0.458
       0.310
       0.145
      -0.010
      -0.119
      -0.161
      -0.147
      -0.112
      -0.090
      -0.099
      -0.139
      -0.211
      -0.312
      -0.435
      -0.558
      -0.657
      -0.719
      -0.758
      -0.791
      -0.820
      -0.815
      -0.743
      -0.591
      -0.374
      -0.115
       0.172
       0.479
       0.781
       1.030
       1.174
       1.196
       1.122
       1.000
       0.866
       0.726
       0.567
       0.384
       0.188
       0.004
      -0.146
      -0.244
      -0.279
      -0.250
      -0.174
      -0.088
      -0.031
      -0.029
      -0.080
      -0.163
      -0.253
      -0.331
      -0.387
      -0.418
      -0.420
      -0.395
      -0.340
      -0.251
      -0.127
       0.024
       0.173
       0.283
       0.326
       0.296
       0.216
       0.121
       0.044
      -0.002
      -0.017
      -0.011
       0.007
       0.024
       0.023
      -0.013
      -0.089
      -0.185
      -0.267
      -0.309
      -0.310
      -0.291
      -0.268
      -0.242
      -0.196
      -0.121
      -0.020
       0.089
       0.191
       0.284
       0.379
       0.486
       0.600
       0.699
       0.756
       0.752
       0.678
       0.536
       0.334
       0.094
      -0.142
      -0.327
      -0.424
      -0.432
      -0.380
      -0.312
      -0.265
      -0.257
      -0.281
      -0.315
      -0.331
      -0.314
      -0.266
      -0.208
      -0.154
      -0.101
      -0.030
       0.067
       0.173
       0.248
       0.262
       0.220
       0.161
       0.130
       0.142
       0.175
       0.189
       0.160
       0.092
       0.008
      -0.063
      -0.104
      -0.115
      -0.113
      -0.125
      -0.166
      -0.225
      -0.273
      -0.279
      -0.240
      -0.178
      -0.118
      -0.070
      -0.024
       0.031
       0.088
       0.127
       0.132
       0.113
       0.098
       0.119
       0.190
       0.292
       0.391
       0.446
       0.437
       0.366
       0.250
       0.113
      -0.024
      -0.138
      -0.212
      -0.242
      -0.242
      -0.238
      -0.248
      -0.268
      -0.279
      -0.261
      -0.211
      -0.140
      -0.068
      -0.012
       0.022
       0.042
       0.060
       0.085
       0.122
       0.165
       0.205
       0.226
       0.221
       0.188
       0.139
       0.089
       0.052
       0.032
       0.029
       0.029
       0.019
      -0.012
      -0.065
      -0.130
      -0.191
      -0.235
      -0.257
      -0.259
      -0.243
      -0.202
      -0.128
      -0.021
       0.100
       0.202
       0.256
       0.256
       0.227
       0.208
       0.223
       0.261
       0.295
       0.303
       0.283
       0.247
       0.203
       0.145
       0.067
      -0.029
      -0.127
      -0.208
      -0.260
      -0.281
      -0.278
      -0.260
      -0.239
      -0.224
      -0.214
      -0.204
      -0.188
      -0.170
      -0.161
      -0.164
      -0.168
      -0.147
      -0.081
       0.025
       0.145
       0.240
       0.286
       0.285
       0.262
       0.249
       0.264
       0.300
       0.331
       0.330
       0.286
       0.208
       0.115
       0.014
      -0.093
      -0.201
      -0.294
      -0.346
      -0.345
      -0.299
      -0.243
      -0.207
      -0.197
      -0.187
      -0.146
      -0.064
       0.035
       0.109
       0.137
       0.131
       0.125
       0.144
       0.182
       0.208
       0.201
       0.161
       0.112
       0.085
       0.091
       0.117
       0.133
       0.109
       0.041
      -0.046
      -0.118
      -0.147
      -0.133
      -0.096
      -0.058
      -0.033
      -0.019
      -0.010
      -0.004
      -0.002
       0.003
       0.024
