Origin Time       1/5/2013 06:57:12	 
Lat.              33.1 N	
Long.             75.8 E	
Depth (Km)         15.0
Magnitude         5.8
 Region           JK-HP-Border                                                     
 Above details taken from IMD 
     
Station Code      CHM
Station Lat.       32.555  N
Station Long.      76.126  E
Station Height(m)  952.0
Site Class        A   Vs30 between 700 m/sec to 1400 m/sec * 
Record Time       01.05.2013 06:54:48.064
Sampling Rate     200. Hz
 Record Duration  119.220 Sec.
 Direction         E-W (E positive)
Max. Acceleration    -14.459 cm/sec**2
     
  * For reference see Site Classification link of website 
     
 Base Line Corrected and Low Pass Filtered (Cut Off at 35 Hz) Time History
 Acceleration data in cm/sec**2
    
[...]
      -2.132
      -0.257
       1.601
       3.241
       4.539
       5.412
       5.851
       5.929
       5.745
       5.330
       4.628
       3.581
       2.230
       0.712
      -0.809
      -2.210
      -3.393
      -4.270
      -4.756
      -4.790
      -4.342
      -3.438
      -2.211
      -0.924
       0.102
       0.666
       0.823
       0.835
       0.984
       1.396
       2.013
       2.676
       3.231
       3.572
       3.646
       3.464
       3.111
       2.735
       2.483
       2.424
       2.483
       2.437
       2.019
       1.070
      -0.353
      -2.004
      -3.585
      -4.886
      -5.833
      -6.444
      -6.768
      -6.860
      -6.743
      -6.383
      -5.669
      -4.476
      -2.760
      -0.633
       1.655
       3.820
       5.630
       6.942
       7.693
       7.904
       7.697
       7.281
       6.878
       6.634
       6.558
       6.541
       6.426
       6.077
       5.413
       4.387
       2.962
       1.113
      -1.103
      -3.474
      -5.649
      -7.269
      -8.126
      -8.227
      -7.740
      -6.869
      -5.780
      -4.589
      -3.402
      -2.335
      -1.482
      -0.862
      -0.417
      -0.073
       0.180
       0.289
       0.235
       0.141
       0.269
       0.856
       1.919
       3.199
       4.286
       4.846
       4.743
       4.032
       2.851
       1.345
      -0.346
      -2.050
      -3.557
      -4.669
      -5.268
      -5.342
      -4.952
      -4.201
      -3.243
      -2.291
      -1.564
      -1.173
      -1.031
      -0.903
      -0.578
      -0.021
       0.666
       1.435
       2.416
       3.777
       5.450
       7.005
       7.857
       7.617
       6.289
       4.192
       1.733
      -0.725
      -2.881
      -4.485
      -5.381
      -5.577
      -5.246
      -4.646
      -4.023
      -3.550
      -3.301
      -3.250
      -3.296
      -3.313
      -3.231
      -3.056
      -2.837
      -2.600
      -2.326
      -1.973
      -1.509
      -0.906
      -0.129
       0.838
       1.953
       3.092
       4.116
       4.936
       5.516
       5.786
       5.613
       4.887
       3.671
       2.238
       0.906
      -0.187
      -1.135
      -2.091
      -3.039
      -3.746
      -3.969
      -3.693
      -3.177
      -2.757
      -2.591
      -2.568
      -2.419
      -1.930
      -1.053
       0.127
       1.507
       3.038
       4.680
       6.298
       7.629
       8.385
       8.405
       7.697
       6.346
       4.417
       1.988
      -0.718
      -3.274
      -5.172
      -6.030
      -5.746
      -4.520
      -2.790
      -1.127
      -0.083
      -0.012
      -0.913
      -2.436
      -4.070
      -5.393
      -6.216
      -6.512
      -6.276
      -5.440
      -3.948
      -1.865
       0.586
       3.096
       5.367
       7.166
       8.361
       8.916
       8.878
       8.332
       7.380
       6.161
       4.852
       3.605
       2.456
       1.310
       0.067
      -1.240
      -2.441
      -3.373
      -4.014
      -4.463
      -4.786
      -4.929
      -4.778
      -4.302
      -3.606
      -2.855
      -2.140
      -1.421
      -0.584
       0.439
       1.567
       2.570
       3.192
       3.322
       3.095
       2.786
       2.593
       2.507
       2.387
       2.158
       1.881
       1.664
       1.517
       1.333
       0.972
       0.332
      -0.666
      -2.082
      -3.913
      -6.008
      -8.086
      -9.836
     -11.016
     -11.468
     -11.096
      -9.873
      -7.889
      -5.354
      -2.501
       0.512
       3.579
       6.499
       8.914
      10.442
      10.945
      10.656
      10.005
       9.319
       8.649
       7.852
       6.783
       5.415
       3.833
       2.180
       0.610
      -0.756
      -1.888
      -2.850
      -3.736
      -4.569
      -5.261
      -5.662
      -5.672
      -5.321
      -4.777
      -4.262
      -3.927
      -3.779
      -3.733
      -3.730
      -3.813
      -4.077
      -4.540
      -5.043
      -5.256
      -4.804
      -3.433
      -1.175
       1.598
       4.280
       6.276
       7.255
       7.244
       6.516
       5.379
       4.027
       2.564
       1.102
      -0.189
      -1.149
      -1.717
      -1.951
      -1.965
      -1.859
      -1.680
      -1.433
      -1.080
      -0.586
       0.010
       0.550
       0.855
       0.906
       0.938
       1.296
       2.127
       3.175
       3.895
       3.814
       2.859
       1.380
      -0.116
      -1.263
      -1.960
      -2.265
      -2.239
      -1.887
      -1.205
      -0.253
       0.822
       1.807
       2.449
       2.493
       1.758
       0.255
      -1.737
      -3.753
      -5.331
      -6.190
      -6.287
      -5.739
      -4.731
      -3.454
      -2.070
      -0.689
       0.636
       1.875
       2.982
       3.911
       4.646
       5.183
       5.453
       5.274
       4.437
       2.898
       0.903
      -1.108
      -2.731
      -3.754
      -4.115
      -3.778
      -2.728
      -1.110
       0.689
       2.157
       2.954
       3.132
       3.067
       3.161
       3.556
       4.088
       4.477
       4.534
       4.220
       3.547
       2.501
       1.087
      -0.567
      -2.179
      -3.439
      -4.168
      -4.373
      -4.156
      -3.589
      -2.686
      -1.477
      -0.093
       1.238
       2.255
       2.736
       2.553
       1.718
       0.430
      -0.951
      -2.039
      -2.607
      -2.681
      -2.487
      -2.266
      -2.087
      -1.802
      -1.169
      -0.059
       1.382
       2.745
       3.528
       3.406
       2.431
       1.026
      -0.265
      -1.085
      -1.424
      -1.505
      -1.556
      -1.671
      -1.832
      -1.982
      -2.033
      -1.839
      -1.265
      -0.330
       0.726
       1.570
       2.010
       2.118
       2.132
       2.245
       2.468
       2.647
       2.592
       2.169
       1.329
       0.121
      -1.294
      -2.632
      -3.540
      -3.744
      -3.212
      -2.211
      -1.195
      -0.575
      -0.523
      -0.943
      -1.604
      -2.328
      -3.080
      -3.890
      -4.703
      -5.283
      -5.267
      -4.349
      -2.454
       0.183
       3.082
       5.675
       7.499
       8.348
       8.329
       7.767
       6.999
       6.163
       5.182
       3.949
       2.549
       1.272
       0.383
      -0.142
      -0.631
      -1.448
      -2.674
      -4.001
      -4.934
      -5.122
      -4.573
      -3.603
      -2.585
      -1.716
      -0.960
      -0.191
       0.615
       1.293
       1.579
       1.296
       0.488
      -0.589
      -1.631
      -2.441
      -2.974
      -3.253
      -3.262
      -2.926
      -2.178
      -1.049
       0.281
       1.496
       2.223
       2.173
       1.283
      -0.214
      -1.855
      -3.138
      -3.726
      -3.575
      -2.869
      -1.849
      -0.662
       0.625
       1.884
       2.835
       3.178
       2.874
       2.275
       1.933
       2.186
       2.914
       3.659
       3.996
       3.807
       3.275
       2.673
       2.165
       1.765
       1.410
       1.024
       0.538
      -0.100
      -0.895
      -1.767
      -2.567
      -3.133
      -3.308
      -2.945
      -1.970
      -0.507
       1.065
       2.253
       2.721
       2.479
       1.817
       1.045
       0.311
      -0.401
      -1.124
      -1.800
      -2.280
      -2.399
      -2.048
      -1.232
      -0.093
       1.128
       2.192
       2.953
       3.345
       3.301
       2.739
       1.672
       0.330
      -0.898
      -1.690
      -1.995
      -2.011
      -1.969
      -1.932
      -1.780
      -1.353
      -0.589
       0.424
       1.476
       2.282
       2.588
       2.306
       1.592
       0.758
       0.070
      -0.390
      -0.671
      -0.828
      -0.874
      -0.849
      -0.872
      -1.066
      -1.412
      -1.692
      -1.614
      -1.042
      -0.121
       0.802
       1.405
       1.559
       1.328
       0.850
       0.241
      -0.390
      -0.926
      -1.290
      -1.553
      -1.939
      -2.640
      -3.582
      -4.378
      -4.568
      -3.949
      -2.695
      -1.188
       0.267
       1.576
       2.757
       3.765
       4.443
       4.635
       4.311
       3.577
       2.583
       1.461
       0.339
      -0.632
      -1.307
      -1.622
      -1.629
      -1.439
      -1.135
      -0.757
      -0.367
      -0.121
      -0.224
      -0.792
      -1.725
      -2.727
      -3.469
      -3.760
      -3.587
      -3.012
      -2.088
      -0.877
       0.433
       1.505
       2.003
       1.830
       1.229
       0.630
       0.342
       0.348
       0.386
       0.252
       0.035
       0.055
       0.533
       1.301
       1.839
       1.653
       0.676
      -0.670
      -1.777
      -2.266
      -2.144
      -1.673
      -1.101
      -0.534
       0.041
       0.651
       1.282
       1.873
       2.318
       2.485
       2.265
       1.663
       0.851
       0.125
      -0.251
      -0.180
       0.212
       0.650
       0.850
       0.664
       0.144
      -0.520
      -1.135
      -1.606
      -1.936
      -2.167
      -2.342
      -2.544
      -2.923
      -3.644
      -4.756
      -6.086
      -7.280
      -7.983
      -8.020
      -7.421
      -6.286
      -4.651
      -2.521
      -0.036
       2.435
       4.441
       5.731
       6.433
       6.936
       7.569
       8.378
       9.169
       9.746
      10.056
      10.158
      10.081
       9.765
       9.122
       8.137
       6.911
       5.618
       4.408
       3.318
       2.253
       1.073
      -0.275
      -1.686
      -2.932
      -3.811
      -4.267
      -4.409
      -4.422
      -4.438
      -4.500
      -4.609
      -4.785
      -5.066
      -5.444
      -5.809
      -5.962
      -5.715
      -5.012
      -3.971
      -2.804
      -1.663
      -0.565
       0.553
       1.699
       2.766
       3.581
       4.003
       3.978
       3.520
       2.664
       1.460
       0.023
      -1.434
      -2.625
      -3.278
      -3.239
      -2.530
      -1.347
       0.023
       1.323
       2.427
       3.326
       4.025
       4.466
       4.556
       4.276
       3.743
       3.145
       2.644
       2.309
       2.156
       2.210
       2.523
       3.117
       3.895
       4.602
       4.914
       4.621
       3.775
       2.663
       1.569
       0.529
      -0.698
      -2.385
      -4.528
      -6.772
      -8.639
      -9.853
     -10.453
     -10.650
     -10.581
     -10.214
      -9.433
      -8.175
      -6.499
      -4.560
      -2.555
      -0.673
       0.949
       2.268
       3.343
       4.281
       5.117
       5.721
       5.810
       5.119
       3.641
       1.770
       0.173
      -0.581
      -0.392
       0.328
       0.994
       1.300
       1.381
       1.585
       2.099
       2.795
       3.403
       3.776
       3.987
       4.159
       4.227
       3.881
       2.766
       0.809
      -1.614
      -3.823
      -5.198
      -5.511
      -4.991
      -4.114
      -3.299
      -2.721
      -2.332
      -2.003
      -1.671
      -1.379
      -1.215
      -1.209
      -1.284
      -1.317
      -1.252
      -1.180
      -1.285
      -1.681
      -2.290
      -2.860
      -3.135
      -3.022
      -2.605
      -2.007
      -1.272
      -0.390
       0.575
       1.444
       2.023
       2.255
       2.219
       1.990
       1.522
       0.709
      -0.422
      -1.615
      -2.489
      -2.765
      -2.428
      -1.703
      -0.896
      -0.240
       0.182
       0.431
       0.643
       0.928
       1.264
       1.492
       1.448
       1.121
       0.701
       0.458
       0.571
       1.072
       1.882
       2.858
       3.788
       4.413
       4.529
       4.110
       3.328
       2.456
       1.725
       1.261
       1.074
       1.080
       1.121
       1.033
       0.732
       0.273
      -0.211
      -0.624
      -0.981
      -1.363
      -1.818
      -2.308
      -2.741
      -3.017
      -3.042
      -2.723
      -1.975
      -0.753
       0.880
       2.667
       4.159
       4.866
       4.513
       3.201
       1.330
      -0.683
      -2.639
      -4.546
      -6.380
      -7.895
      -8.689
      -8.466
      -7.256
      -5.399
      -3.339
      -1.412
       0.234
       1.595
       2.709
       3.601
       4.274
       4.739
       5.046
       5.283
       5.552
       5.926
       6.404
       6.896
       7.252
       7.346
       7.120
       6.561
       5.648
       4.335
       2.618
       0.614
      -1.438
      -3.254
      -4.619
      -5.457
      -5.832
      -5.895
      -5.807
      -5.656
      -5.431
      -5.070
      -4.544
      -3.914
      -3.279
      -2.681
      -2.061
      -1.337
      -0.515
       0.288
       0.949
       1.443
       1.823
       2.111
       2.227
       2.082
       1.687
       1.179
       0.706
       0.324
       0.012
      -0.259
      -0.497
      -0.746
      -1.121
      -1.745
      -2.625
      -3.558
      -4.175
      -4.124
      -3.272
      -1.811
      -0.185
       1.140
       1.890
       2.063
       1.846
       1.471
       1.115
       0.865
       0.753
       0.813
       1.136
       1.876
       3.163
       4.944
       6.898
       8.527
       9.388
       9.289
       8.298
       6.636
       4.556
       2.282
      -0.044
      -2.404
      -4.864
      -7.440
      -9.982
     -12.192
     -13.756
     -14.459
     -14.201
     -12.980
     -10.892
      -8.146
      -5.037
      -1.852
       1.185
       3.879
       6.021
       7.411
       7.967
       7.775
       7.010
       5.794
       4.167
       2.222
       0.267
      -1.206
      -1.752
      -1.249
       0.035
       1.603
       2.982
       3.890
       4.250
       4.070
       3.330
       1.956
      -0.083
      -2.617
      -5.202
      -7.255
      -8.348
      -8.442
      -7.854
      -6.970
      -5.941
      -4.611
      -2.713
      -0.146
       2.862
       5.802
       8.106
       9.419
       9.754
       9.398
       8.651
       7.600
       6.158
       4.293
       2.205
       0.257
      -1.243
      -2.188
      -2.646
      -2.732
      -2.548
      -2.192
      -1.790
      -1.444
      -1.171
      -0.909
      -0.616
      -0.353
      -0.270
      -0.478
      -0.933
      -1.438
      -1.766
      -1.780
      -1.458
      -0.833
       0.062
       1.221
       2.652
       4.325
       6.095
       7.633
       8.469
       8.203
       6.779
       4.582
       2.258
       0.336
      -1.044
      -2.098
      -3.128
      -4.257
      -5.369
      -6.223
      -6.620
      -6.502
      -5.958
      -5.152
      -4.238
      -3.289
      -2.295
      -1.186
       0.131
       1.739
       3.634
       5.643
       7.433
       8.650
       9.098
       8.798
       7.886
       6.482
       4.665
       2.561
       0.423
      -1.429
      -2.730
      -3.380
      -3.445
      -3.095
      -2.521
      -1.915
      -1.484
      -1.453
      -1.973
      -3.000
      -4.237
      -5.260
      -5.752
      -5.675
      -5.219
      -4.604
      -3.920
      -3.166
      -2.393
      -1.780
      -1.536
      -1.737
      -2.251
      -2.837
      -3.309
      -3.662
      -4.019
      -4.453
      -4.825
      -4.845
      -4.313
      -3.354
      -2.350
      -1.614
      -1.107
      -0.512
       0.377
       1.370
       2.026
       2.114
       1.913
       2.029
       2.907
       4.486
       6.287
       7.773
       8.643
       8.873
       8.589
       7.924
       6.967
       5.769
       4.399
       2.984
       1.715
       0.767
       0.200
      -0.097
      -0.353
      -0.795
      -1.545
      -2.595
      -3.876
      -5.320
      -6.855
      -8.319
      -9.427
      -9.847
      -9.381
      -8.061
      -6.116
      -3.856
      -1.597
       0.354
       1.735
       2.423
       2.503
       2.210
       1.768
       1.283
       0.791
       0.401
       0.322
       0.727
       1.569
       2.585
       3.483
       4.124
       4.504
       4.599
       4.319
       3.634
       2.737
       2.000
       1.753
       2.032
       2.534
       2.800
       2.490
       1.556
       0.199
      -1.313
      -2.806
      -4.193
      -5.347
      -6.014
      -5.888
      -4.800
      -2.883
      -0.549
       1.699
       3.493
       4.703
       5.368
       5.530
       5.136
       4.087
       2.383
       0.242
      -1.919
      -3.612
      -4.463
      -4.342
      -3.410
      -2.049
      -0.721
       0.199
       0.526
       0.301
      -0.263
      -0.876
      -1.297
      -1.409
      -1.216
      -0.769
      -0.123
       0.651
       1.418
       1.984
       2.189
       2.002
       1.558
       1.091
       0.819
       0.859
       1.202
       1.729
       2.252
       2.562
       2.512
       2.079
       1.358
       0.478
      -0.485
      -1.528
      -2.650
      -3.757
      -4.649
      -5.130
      -5.155
      -4.866
      -4.451
      -3.936
      -3.148
      -1.904
      -0.276
       1.333
       2.421
       2.733
       2.427
       1.917
       1.527
       1.265
       0.900
       0.269
      -0.488
      -0.992
      -0.947
      -0.381
       0.409
       1.137
       1.728
       2.267
       2.815
       3.286
       3.491
       3.260
       2.526
       1.373
       0.044
      -1.100
      -1.732
      -1.744
      -1.327
      -0.836
      -0.547
      -0.510
      -0.593
      -0.639
      -0.590
      -0.510
      -0.520
      -0.721
      -1.131
      -1.686
      -2.279
      -2.814
      -3.212
      -3.360
      -3.083
      -2.220
      -0.767
       1.041
       2.809
       4.199
       5.110
       5.666
       6.034
       6.227
       6.087
       5.458
       4.376
       3.073
       1.787
       0.598
      -0.527
      -1.563
      -2.348
      -2.716
      -2.684
      -2.483
      -2.367
      -2.390
      -2.364
      -2.031
      -1.289
      -0.300
       0.617
       1.202
       1.418
       1.406
       1.289
       1.006
       0.382
      -0.618
      -1.689
      -2.280
      -1.952
      -0.715
       0.945
       2.375
       3.135
       3.165
       2.697
       2.050
       1.487
       1.130
       0.920
       0.629
       0.007
      -1.020
      -2.239
      -3.258
      -3.746
      -3.604
      -2.972
      -2.095
      -1.191
      -0.375
       0.360
       1.092
       1.894
       2.725
       3.425
       3.802
       3.769
       3.394
       2.831
       2.191
       1.463
       0.542
      -0.650
      -2.046
      -3.398
      -4.361
      -4.631
      -4.083
      -2.829
      -1.190
       0.414
       1.598
       2.125
       1.981
       1.370
       0.581
      -0.202
      -0.995
      -1.907
      -2.897
      -3.680
      -3.877
      -3.299
      -2.079
      -0.559
       0.902
       2.010
       2.541
       2.371
       1.549
       0.291
      -1.147
      -2.592
      -3.925
      -4.970
      -5.479
      -5.310
      -4.601
      -3.713
      -2.959
      -2.403
      -1.936
      -1.515
      -1.251
      -1.238
      -1.353
      -1.273
      -0.707
       0.414
       1.953
       3.707
       5.477
