Origin Time       2/8/2013 21:37:40	 
Lat.              33.4 N	
Long.             75.9 E	
Depth (Km)         20.0
Magnitude         5.2
 Region           KISHTWAR-JK                                                      
 Above details taken from IMD 
   
Station Code      CHM
Station Lat.       32.555
Station Long.      76.126
Station Height(m)  952.0
Site Class        A   Vs30 between 700 m/sec to 1400 m/sec * 
Record Time       02.08.2013 21:37:23.729
Sampling Rate     200. Hz
 Record Duration   72.720 Sec.
 Direction         Vert. (Up positive)
Max. Acceleration     -1.624 cm/sec**2
     
  * For reference see Site Classification link of website 
     
 Base Line Corrected and Low Pass Filtered (Cut Off at 35 Hz) Time History
 Acceleration data in cm/sec**2
    
[...]
      -0.027
       0.048
       0.161
       0.276
       0.345
       0.331
       0.226
       0.056
      -0.128
      -0.275
      -0.348
      -0.338
      -0.261
      -0.156
      -0.065
      -0.012
       0.008
       0.019
       0.040
       0.070
       0.100
       0.132
       0.184
       0.260
       0.324
       0.313
       0.185
      -0.038
      -0.280
      -0.463
      -0.544
      -0.518
      -0.397
      -0.209
      -0.001
       0.163
       0.236
       0.220
       0.156
       0.090
       0.038
      -0.013
      -0.082
      -0.157
      -0.199
      -0.158
      -0.021
       0.159
       0.280
       0.263
       0.115
      -0.072
      -0.191
      -0.199
      -0.132
      -0.055
      -0.018
      -0.030
      -0.079
      -0.141
      -0.194
      -0.230
      -0.259
      -0.294
      -0.330
      -0.331
      -0.259
      -0.111
       0.068
       0.214
       0.287
       0.293
       0.272
       0.267
       0.280
       0.277
       0.210
       0.069
      -0.102
      -0.208
      -0.171
       0.012
       0.251
       0.417
       0.423
       0.271
       0.036
      -0.185
      -0.317
      -0.327
      -0.224
      -0.048
       0.148
       0.313
       0.413
       0.428
       0.355
       0.219
       0.078
       0.002
       0.023
       0.116
       0.212
       0.250
       0.224
       0.176
       0.146
       0.134
       0.103
       0.022
      -0.093
      -0.192
      -0.235
      -0.227
      -0.208
      -0.205
      -0.205
      -0.172
      -0.091
       0.003
       0.052
       0.015
      -0.106
      -0.273
      -0.430
      -0.520
      -0.501
      -0.364
      -0.134
       0.142
       0.416
       0.640
       0.768
       0.748
       0.551
       0.204
      -0.198
      -0.523
      -0.660
      -0.579
      -0.345
      -0.081
       0.102
       0.159
       0.123
       0.062
       0.024
       0.012
       0.007
       0.004
       0.022
       0.078
       0.160
       0.237
       0.282
       0.293
       0.289
       0.282
       0.272
       0.247
       0.190
       0.090
      -0.050
      -0.204
      -0.332
      -0.393
      -0.372
      -0.292
      -0.197
      -0.130
      -0.106
      -0.112
      -0.120
      -0.114
      -0.098
      -0.097
      -0.131
      -0.197
      -0.268
      -0.313
      -0.314
      -0.265
      -0.169
      -0.028
       0.145
       0.326
       0.487
       0.607
       0.667
       0.645
       0.517
       0.286
       0.000
      -0.261
      -0.421
      -0.456
      -0.403
      -0.324
      -0.261
      -0.215
      -0.165
      -0.087
       0.026
       0.162
       0.294
       0.382
       0.387
       0.283
       0.082
      -0.167
      -0.390
      -0.527
      -0.552
      -0.481
      -0.350
      -0.196
      -0.042
       0.091
       0.178
       0.188
       0.106
      -0.048
      -0.217
      -0.328
      -0.332
      -0.223
      -0.039
       0.171
       0.368
       0.527
       0.620
       0.609
       0.464
       0.198
      -0.132
      -0.443
      -0.665
      -0.764
      -0.744
      -0.627
      -0.435
      -0.180
       0.122
       0.429
       0.669
       0.762
       0.667
       0.420
       0.115
      -0.148
      -0.314
      -0.396
      -0.441
      -0.482
      -0.511
      -0.482
      -0.349
      -0.110
       0.173
       0.402
       0.495
       0.434
       0.270
       0.079
      -0.078
      -0.183
      -0.244
      -0.272
      -0.267
      -0.221
      -0.125
       0.022
       0.200
       0.364
       0.458
       0.451
       0.356
       0.220
       0.079
      -0.053
      -0.175
      -0.280
      -0.343
      -0.343
      -0.280
      -0.181
      -0.092
      -0.050
      -0.070
      -0.133
      -0.191
      -0.206
      -0.168
      -0.100
      -0.028
       0.049
       0.161
       0.322
       0.507
       0.660
       0.732
       0.707
       0.600
       0.436
       0.242
       0.048
      -0.105
      -0.181
      -0.174
      -0.115
      -0.057
      -0.055
      -0.134
      -0.274
      -0.415
      -0.485
      -0.434
      -0.265
      -0.032
       0.188
       0.334
       0.385
       0.350
       0.253
       0.121
      -0.013
      -0.110
      -0.146
      -0.117
      -0.050
       0.016
       0.055
       0.050
       0.001
      -0.084
      -0.185
      -0.267
      -0.293
      -0.247
      -0.135
       0.020
       0.190
       0.347
       0.468
       0.537
       0.559
       0.548
       0.501
       0.393
       0.188
      -0.104
      -0.413
      -0.640
      -0.721
      -0.664
      -0.530
      -0.387
      -0.269
      -0.165
      -0.046
       0.112
       0.305
       0.491
       0.606
       0.597
       0.447
       0.183
      -0.145
      -0.477
      -0.755
      -0.928
      -0.948
      -0.792
      -0.478
      -0.072
       0.330
       0.635
       0.787
       0.779
       0.650
       0.462
       0.265
       0.082
      -0.084
      -0.222
      -0.299
      -0.277
      -0.151
       0.036
       0.215
       0.329
       0.365
       0.345
       0.292
       0.215
       0.118
       0.024
      -0.026
      -0.008
       0.058
       0.114
       0.103
       0.013
      -0.119
      -0.243
      -0.323
      -0.345
      -0.310
      -0.227
      -0.124
      -0.034
       0.019
       0.035
       0.031
       0.018
       0.003
       0.000
       0.034
       0.122
       0.259
       0.398
       0.474
       0.433
       0.274
       0.061
      -0.115
      -0.188
      -0.155
      -0.069
       0.006
       0.032
       0.007
      -0.046
      -0.102
      -0.143
      -0.157
      -0.138
      -0.091
      -0.042
      -0.024
      -0.066
      -0.176
      -0.338
      -0.513
      -0.640
      -0.658
      -0.536
      -0.292
       0.010
       0.288
       0.469
       0.507
       0.394
       0.165
      -0.108
      -0.339
      -0.454
      -0.418
      -0.242
       0.019
       0.275
       0.439
       0.455
       0.334
       0.146
      -0.017
      -0.097
      -0.087
      -0.021
       0.063
       0.138
       0.190
       0.210
       0.194
       0.141
       0.062
      -0.025
      -0.096
      -0.135
      -0.142
      -0.132
      -0.116
      -0.097
      -0.071
      -0.046
      -0.047
      -0.103
      -0.212
      -0.332
      -0.403
      -0.387
      -0.285
      -0.133
       0.021
       0.130
       0.165
       0.125
       0.055
       0.017
       0.065
       0.202
       0.379
       0.516
       0.547
       0.451
       0.265
       0.058
      -0.108
      -0.198
      -0.204
      -0.125
       0.029
       0.232
       0.431
       0.555
       0.547
       0.397
       0.149
      -0.119
      -0.329
      -0.433
      -0.426
      -0.344
      -0.242
      -0.161
      -0.125
      -0.136
      -0.177
      -0.219
      -0.227
      -0.188
      -0.117
      -0.056
      -0.034
      -0.049
      -0.072
      -0.083
      -0.084
      -0.093
      -0.109
      -0.102
      -0.038
       0.089
       0.240
       0.350
       0.365
       0.277
       0.121
      -0.046
      -0.179
      -0.266
      -0.322
      -0.359
      -0.362
      -0.296
      -0.137
       0.099
       0.360
       0.584
       0.718
       0.732
       0.623
       0.417
       0.159
      -0.109
      -0.362
      -0.582
      -0.738
      -0.795
      -0.733
      -0.568
      -0.339
      -0.081
       0.185
       0.435
       0.614
       0.649
       0.486
       0.139
      -0.308
      -0.735
      -1.036
      -1.164
      -1.125
      -0.949
      -0.674
      -0.331
       0.038
       0.377
       0.629
       0.768
       0.814
       0.813
       0.798
       0.750
       0.617
       0.373
       0.054
      -0.251
      -0.460
      -0.548
      -0.549
      -0.507
      -0.429
      -0.284
      -0.053
       0.226
       0.464
       0.585
       0.580
       0.506
       0.432
       0.391
       0.371
       0.336
       0.257
       0.125
      -0.041
      -0.200
      -0.299
      -0.291
      -0.161
       0.068
       0.330
       0.533
       0.592
       0.475
       0.232
      -0.032
      -0.220
      -0.287
      -0.246
      -0.132
       0.012
       0.139
       0.189
       0.114
      -0.083
      -0.334
      -0.536
      -0.603
      -0.508
      -0.282
       0.010
       0.290
       0.494
       0.584
       0.553
       0.431
       0.261
       0.093
      -0.033
      -0.094
      -0.091
      -0.049
      -0.002
       0.023
       0.017
      -0.018
      -0.073
      -0.132
      -0.175
      -0.188
      -0.163
      -0.108
      -0.042
       0.008
       0.014
      -0.033
      -0.110
      -0.158
      -0.110
       0.061
       0.318
       0.567
       0.715
       0.719
       0.601
       0.423
       0.242
       0.083
      -0.058
      -0.181
      -0.272
      -0.303
      -0.262
      -0.170
      -0.079
      -0.032
      -0.030
      -0.033
      -0.004
       0.054
       0.093
       0.070
      -0.024
      -0.157
      -0.288
      -0.385
      -0.440
      -0.459
      -0.451
      -0.421
      -0.372
      -0.306
      -0.227
      -0.145
      -0.073
      -0.018
       0.021
       0.049
       0.078
       0.114
       0.154
       0.194
       0.228
       0.263
       0.309
       0.368
       0.419
       0.432
       0.390
       0.305
       0.216
       0.161
       0.153
       0.185
       0.233
       0.273
       0.277
       0.221
       0.096
      -0.085
      -0.295
      -0.507
      -0.699
      -0.846
      -0.917
      -0.891
      -0.765
      -0.560
      -0.308
      -0.048
       0.174
       0.313
       0.349
       0.308
       0.251
       0.231
       0.262
       0.320
       0.360
       0.341
       0.237
       0.040
      -0.224
      -0.501
      -0.720
      -0.828
      -0.804
      -0.655
      -0.412
      -0.126
       0.138
       0.311
       0.352
       0.263
       0.091
      -0.088
      -0.209
      -0.235
      -0.171
      -0.053
       0.070
       0.162
       0.212
       0.237
       0.270
       0.338
       0.443
       0.556
       0.632
       0.634
       0.549
       0.386
       0.163
      -0.093
      -0.337
      -0.506
      -0.542
      -0.428
      -0.201
       0.068
       0.310
       0.480
       0.558
       0.544
       0.446
       0.283
       0.084
      -0.116
      -0.287
      -0.417
      -0.510
      -0.575
      -0.611
      -0.605
      -0.540
      -0.409
      -0.227
      -0.024
       0.157
       0.273
       0.293
       0.213
       0.077
      -0.038
      -0.059
       0.035
       0.197
       0.353
       0.453
       0.500
       0.521
       0.529
       0.509
       0.426
       0.265
       0.042
      -0.204
      -0.432
      -0.613
      -0.730
      -0.774
      -0.745
      -0.652
      -0.516
      -0.363
      -0.208
      -0.050
       0.107
       0.240
       0.298
       0.242
       0.081
      -0.127
      -0.313
      -0.449
      -0.539
      -0.589
      -0.577
      -0.471
      -0.274
      -0.043
       0.130
       0.176
       0.093
      -0.054
      -0.175
      -0.214
      -0.168
      -0.076
       0.028
       0.140
       0.272
       0.422
       0.553
       0.614
       0.581
       0.481
       0.367
       0.275
       0.204
       0.129
       0.040
      -0.042
      -0.074
      -0.029
       0.083
       0.206
       0.271
       0.231
       0.089
      -0.118
      -0.353
      -0.585
      -0.785
      -0.910
      -0.919
      -0.799
      -0.578
      -0.312
      -0.053
       0.161
       0.315
       0.398
       0.408
       0.344
       0.211
       0.027
      -0.169
      -0.328
      -0.407
      -0.395
      -0.308
      -0.172
      -0.005
       0.178
       0.350
       0.472
       0.518
       0.488
       0.416
       0.346
       0.310
       0.319
       0.358
       0.389
       0.371
       0.287
       0.152
       0.015
      -0.072
      -0.073
       0.008
       0.137
       0.261
       0.331
       0.320
       0.227
       0.072
      -0.113
      -0.295
      -0.430
      -0.477
      -0.411
      -0.251
      -0.055
       0.107
       0.187
       0.165
       0.038
      -0.184
      -0.461
      -0.706
      -0.818
      -0.739
      -0.491
      -0.168
       0.122
       0.321
       0.426
       0.467
       0.467
       0.433
       0.371
       0.297
       0.230
       0.166
       0.070
      -0.094
      -0.315
      -0.520
      -0.608
      -0.525
      -0.299
      -0.018
       0.225
       0.376
       0.422
       0.381
       0.287
       0.185
       0.127
       0.155
       0.281
       0.484
       0.703
       0.855
       0.863
       0.692
       0.363
      -0.045
      -0.428
      -0.695
      -0.797
      -0.742
      -0.576
      -0.357
      -0.129
       0.079
       0.253
       0.376
       0.440
       0.451
       0.424
       0.370
       0.292
       0.185
       0.053
      -0.087
      -0.211
      -0.295
      -0.318
      -0.270
      -0.164
      -0.028
       0.104
       0.223
       0.336
       0.452
       0.555
       0.622
       0.642
       0.634
       0.628
       0.635
       0.637
       0.605
       0.522
       0.406
       0.290
       0.210
       0.184
       0.201
       0.228
       0.219
       0.141
      -0.018
      -0.256
      -0.560
      -0.908
      -1.251
      -1.514
      -1.624
      -1.552
      -1.329
      -1.029
      -0.736
      -0.509
      -0.364
      -0.284
      -0.237
      -0.189
      -0.121
      -0.025
       0.093
       0.230
       0.378
       0.530
       0.671
       0.780
       0.847
       0.884
       0.920
       0.979
       1.062
       1.134
       1.141
       1.038
       0.820
       0.525
       0.205
      -0.103
      -0.389
      -0.647
      -0.865
      -1.024
      -1.105
      -1.091
      -0.974
      -0.761
      -0.481
      -0.191
       0.040
       0.156
       0.138
       0.019
      -0.135
      -0.247
      -0.264
      -0.175
      -0.012
       0.158
       0.262
       0.256
       0.140
      -0.038
      -0.219
      -0.360
      -0.446
      -0.484
      -0.485
      -0.449
      -0.374
      -0.276
      -0.191
      -0.154
      -0.174
      -0.228
      -0.286
      -0.334
      -0.378
      -0.413
      -0.404
      -0.309
      -0.119
       0.125
       0.363
       0.556
       0.709
       0.843
       0.957
       1.017
       0.987
       0.865
       0.683
       0.489
       0.312
       0.161
       0.029
      -0.084
      -0.171
      -0.218
      -0.225
      -0.202
      -0.160
      -0.096
       0.010
       0.170
       0.371
       0.570
       0.717
       0.769
       0.705
       0.521
       0.242
      -0.077
      -0.362
      -0.550
      -0.613
      -0.564
      -0.451
      -0.337
      -0.282
      -0.321
      -0.442
      -0.590
      -0.695
      -0.710
      -0.632
      -0.497
      -0.354
      -0.248
      -0.209
      -0.249
      -0.352
      -0.464
      -0.505
      -0.400
      -0.128
       0.249
       0.604
       0.807
       0.798
       0.606
       0.332
       0.096
      -0.011
       0.047
       0.240
       0.484
       0.676
       0.740
       0.650
       0.426
       0.107
      -0.268
      -0.646
      -0.954
      -1.113
      -1.083
      -0.889
      -0.619
      -0.373
      -0.221
      -0.172
      -0.171
      -0.133
       0.011
       0.264
       0.563
       0.817
       0.959
       0.976
       0.881
       0.690
       0.416
       0.090
      -0.215
      -0.400
      -0.382
      -0.148
       0.229
       0.620
       0.901
       0.999
       0.906
       0.658
       0.305
      -0.097
      -0.481
      -0.772
      -0.909
      -0.879
      -0.719
      -0.488
      -0.233
       0.026
       0.273
       0.471
       0.550
       0.452
       0.183
      -0.168
      -0.478
      -0.667
      -0.737
      -0.748
      -0.746
      -0.719
      -0.620
      -0.418
      -0.138
       0.152
       0.374
       0.483
       0.466
       0.335
       0.114
      -0.160
      -0.439
      -0.664
      -0.779
      -0.756
      -0.600
      -0.351
      -0.072
       0.179
       0.363
       0.476
       0.545
       0.613
       0.715
       0.859
       1.009
       1.104
       1.087
       0.923
       0.608
       0.171
      -0.325
      -0.777
      -1.068
      -1.114
      -0.913
      -0.546
      -0.135
       0.215
       0.441
       0.511
       0.415
       0.173
      -0.144
      -0.420
      -0.545
      -0.465
      -0.212
       0.116
       0.409
       0.590
       0.643
       0.600
       0.515
       0.437
       0.388
       0.358
       0.303
       0.174
      -0.050
      -0.337
      -0.615
      -0.812
      -0.890
      -0.856
      -0.740
      -0.566
      -0.350
      -0.102
       0.146
       0.335
       0.407
       0.347
       0.202
       0.067
       0.025
       0.107
       0.273
       0.447
       0.546
       0.513
       0.338
       0.058
      -0.251
      -0.498
      -0.615
      -0.577
      -0.414
      -0.190
       0.019
       0.143
       0.137
      -0.001
      -0.223
      -0.443
      -0.576
      -0.578
      -0.459
      -0.273
      -0.085
       0.056
       0.139
       0.178
       0.199
       0.222
       0.255
       0.293
       0.329
       0.361
       0.394
       0.432
       0.474
       0.506
       0.514
       0.490
       0.445
       0.407
       0.401
       0.426
       0.450
       0.438
       0.379
       0.304
       0.248
       0.213
       0.163
       0.056
      -0.118
      -0.332
      -0.542
      -0.704
      -0.783
      -0.755
      -0.623
      -0.417
      -0.190
       0.010
       0.152
       0.219
       0.209
       0.125
      -0.017
      -0.176
      -0.297
      -0.334
      -0.279
      -0.182
      -0.129
      -0.187
      -0.347
      -0.524
      -0.608
      -0.541
      -0.348
      -0.112
       0.078
       0.170
       0.163
       0.090
      -0.002
      -0.076
      -0.116
      -0.122
      -0.096
      -0.030
       0.081
       0.233
       0.409
       0.583
       0.730
       0.834
       0.884
       0.878
       0.818
       0.709
       0.556
       0.366
       0.154
      -0.049
      -0.216
      -0.337
      -0.428
      -0.504
      -0.559
      -0.557
      -0.469
      -0.305
      -0.118
       0.026
       0.090
       0.073
      -0.004
      -0.125
      -0.271
      -0.408
      -0.491
      -0.490
      -0.411
      -0.288
      -0.158
      -0.035
       0.083
       0.197
       0.280
       0.289
       0.190
      -0.010
      -0.252
      -0.456
      -0.555
      -0.532
      -0.408
      -0.227
      -0.027
       0.156
       0.297
       0.384
       0.414
       0.390
       0.315
       0.209
       0.116
       0.088
       0.148
       0.267
       0.379
       0.421
       0.372
       0.260
       0.129
       0.011
      -0.083
      -0.154
      -0.195
      -0.200
      -0.170
      -0.126
      -0.095
      -0.093
      -0.113
      -0.129
      -0.120
      -0.086
      -0.053
      -0.054
      -0.103
      -0.182
      -0.255
