Origin Time       02/10/2012 08:34:52 UTC
Lat.              32.3 N 
Long.             76.3 E 
Depth (Km)         10.0
Magnitude         4.9
 Region           Chamba-DISTT.-HIMACHAL                                           
 Above details taken from IMD 
    
Station Code      CHM
Station Lat.       32.555  N
Station Long.      76.126  E
Station Height(m)  952.0
Site Class        A   Vs30 between 700 m/sec to 1400 m/sec * 
Record Time       02.10.2012 08:34:09.139 UTC
Sampling Rate     200. Hz
 Record Duration   76.160 Sec.
 Direction         N-S (N positive)
Max. Acceleration    -14.148 cm/sec**2
     
  * For reference see Site Classification link of website 
     
 Base Line Corrected and Low Pass Filtered (Cut Off at 35 Hz) Time History
 Acceleration data in cm/sec**2
    
[...]
      -0.596
      -0.612
      -0.452
      -0.196
       0.020
       0.129
       0.174
       0.220
       0.283
       0.358
       0.465
       0.605
       0.712
       0.708
       0.587
       0.389
       0.103
      -0.326
      -0.850
      -1.233
      -1.201
      -0.677
       0.123
       0.832
       1.146
       0.957
       0.350
      -0.473
      -1.286
      -1.894
      -2.168
      -2.050
      -1.554
      -0.762
       0.181
       1.099
       1.825
       2.263
       2.403
       2.284
       1.968
       1.544
       1.094
       0.633
       0.091
      -0.586
      -1.355
      -2.081
      -2.615
      -2.836
      -2.663
      -2.075
      -1.159
      -0.132
       0.735
       1.252
       1.391
       1.279
       1.106
       1.032
       1.093
       1.174
       1.102
       0.813
       0.407
       0.018
      -0.334
      -0.717
      -1.097
      -1.282
      -1.101
      -0.607
      -0.025
       0.472
       0.888
       1.293
       1.662
       1.830
       1.607
       0.933
      -0.026
      -0.898
      -1.320
      -1.244
      -1.059
      -1.284
      -2.057
      -2.913
      -3.132
      -2.319
      -0.717
       0.996
       2.174
       2.544
       2.241
       1.654
       1.194
       1.067
       1.137
       1.049
       0.583
      -0.088
      -0.547
      -0.555
      -0.294
      -0.185
      -0.500
      -1.151
      -1.774
      -1.968
      -1.556
      -0.741
      -0.026
       0.160
      -0.160
      -0.490
      -0.296
       0.508
       1.488
       2.077
       2.019
       1.457
       0.676
      -0.169
      -1.043
      -1.857
      -2.376
      -2.326
      -1.579
      -0.268
       1.242
       2.491
       3.133
       3.086
       2.539
       1.783
       1.010
       0.214
      -0.706
      -1.761
      -2.767
      -3.417
      -3.494
      -3.048
      -2.349
      -1.641
      -0.908
       0.077
       1.427
       2.859
       3.782
       3.742
       2.833
       1.660
       0.868
       0.644
       0.652
       0.420
      -0.175
      -0.798
      -0.994
      -0.654
      -0.198
      -0.253
      -1.081
      -2.240
      -2.869
      -2.425
      -1.188
      -0.005
       0.502
       0.453
       0.457
       0.933
       1.727
       2.303
       2.196
       1.310
      -0.057
      -1.373
      -2.118
      -2.059
      -1.355
      -0.395
       0.490
       1.198
       1.780
       2.248
       2.435
       2.039
       0.872
      -0.864
      -2.563
      -3.577
      -3.659
      -3.073
      -2.257
      -1.421
      -0.494
       0.608
       1.733
       2.542
       2.779
       2.490
       1.942
       1.331
       0.601
      -0.392
      -1.526
      -2.327
      -2.325
      -1.521
      -0.483
       0.090
      -0.013
      -0.304
      -0.061
       0.936
       2.134
       2.705
       2.275
       1.138
      -0.106
      -0.980
      -1.261
      -0.937
      -0.231
       0.426
       0.623
       0.259
      -0.379
      -0.878
      -1.043
      -1.047
      -1.212
      -1.622
      -1.918
      -1.544
      -0.253
       1.573
       3.105
       3.611
       2.968
       1.722
       0.667
       0.238
       0.216
      -0.006
      -0.827
      -2.070
      -3.142
      -3.508
      -3.005
      -1.777
      -0.073
       1.813
       3.472
       4.394
       4.211
       2.986
       1.235
      -0.414
      -1.603
      -2.294
      -2.499
      -2.111
      -1.105
       0.137
       0.896
       0.657
      -0.379
      -1.391
      -1.612
      -0.948
       0.023
       0.611
       0.567
       0.168
      -0.140
      -0.166
      -0.063
      -0.027
       0.020
       0.369
       1.126
       1.907
       2.016
       0.999
      -0.880
      -2.722
      -3.588
      -3.106
      -1.575
       0.394
       2.247
       3.545
       3.899
       3.112
       1.448
      -0.373
      -1.627
      -2.078
      -1.992
      -1.711
      -1.301
      -0.635
       0.217
       0.842
       0.791
       0.081
      -0.689
      -0.800
      -0.057
       0.997
       1.536
       1.170
       0.241
      -0.523
      -0.618
      -0.064
       0.755
       1.418
       1.655
       1.344
       0.485
      -0.752
      -1.985
      -2.718
      -2.620
      -1.776
      -0.666
       0.128
       0.288
      -0.079
      -0.556
      -0.729
      -0.453
       0.129
       0.778
       1.356
       1.830
       2.169
       2.271
       1.993
       1.246
       0.089
      -1.206
      -2.185
      -2.381
      -1.598
      -0.143
       1.224
       1.721
       1.096
      -0.155
      -1.116
      -1.112
      -0.185
       0.955
       1.466
       0.969
      -0.217
      -1.355
      -1.798
      -1.368
      -0.391
       0.564
       1.003
       0.725
      -0.136
      -1.221
      -2.091
      -2.370
      -1.879
      -0.721
       0.732
       1.978
       2.608
       2.482
       1.772
       0.847
       0.054
      -0.473
      -0.808
      -1.008
      -0.929
      -0.371
       0.560
       1.300
       1.184
       0.084
      -1.294
      -1.868
      -1.083
       0.569
       1.939
       2.173
       1.299
      -0.001
      -1.049
      -1.563
      -1.586
      -1.235
      -0.553
       0.445
       1.590
       2.435
       2.417
       1.306
      -0.458
      -1.957
      -2.427
      -1.812
      -0.738
       0.064
       0.323
       0.274
       0.241
       0.252
       0.050
      -0.572
      -1.475
      -2.188
      -2.241
      -1.545
      -0.475
       0.413
       0.799
       0.750
       0.530
       0.315
       0.137
       0.062
       0.282
       0.924
       1.773
       2.298
       2.070
       1.176
       0.208
      -0.243
      -0.107
       0.133
      -0.028
      -0.589
      -1.082
      -1.137
      -0.904
      -0.855
      -1.198
      -1.578
      -1.406
      -0.477
       0.784
       1.675
       1.801
       1.323
       0.713
       0.353
       0.327
       0.502
       0.717
       0.880
       0.941
       0.816
       0.401
      -0.332
      -1.219
      -1.934
      -2.159
      -1.765
      -0.885
       0.150
       0.969
       1.332
       1.248
       0.931
       0.639
       0.483
       0.359
       0.084
      -0.381
      -0.833
      -1.001
      -0.827
      -0.559
      -0.532
      -0.842
      -1.234
      -1.298
      -0.802
       0.101
       0.971
       1.423
       1.426
       1.264
       1.189
       1.168
       0.965
       0.414
      -0.397
      -1.196
      -1.708
      -1.794
      -1.486
      -0.952
      -0.392
       0.074
       0.443
       0.755
       1.013
       1.212
       1.382
       1.559
       1.663
       1.449
       0.656
      -0.706
      -2.212
      -3.202
      -3.205
      -2.248
      -0.787
       0.632
       1.625
       2.013
       1.775
       1.050
       0.137
      -0.633
      -1.074
      -1.204
      -1.134
      -0.916
      -0.518
       0.054
       0.669
       1.113
       1.246
       1.093
       0.771
       0.346
      -0.199
      -0.848
      -1.443
      -1.734
      -1.560
      -0.951
      -0.096
       0.748
       1.329
       1.463
       1.123
       0.474
      -0.218
      -0.775
      -1.231
      -1.738
      -2.328
      -2.758
      -2.628
      -1.706
      -0.186
       1.386
       2.489
       3.014
       3.300
       3.773
       4.508
       5.119
       5.067
       4.112
       2.494
       0.743
      -0.672
      -1.525
      -1.816
      -1.671
      -1.311
      -1.040
      -1.202
      -2.070
      -3.644
      -5.505
      -6.925
      -7.283
      -6.433
      -4.691
      -2.502
      -0.188
       1.991
       3.705
       4.632
       4.705
       4.232
       3.739
       3.662
       4.107
       4.797
       5.213
       4.857
       3.542
       1.497
      -0.783
      -2.833
      -4.389
      -5.344
      -5.611
      -5.120
      -3.956
      -2.433
      -0.961
       0.181
       0.921
       1.265
       1.179
       0.674
      -0.054
      -0.675
      -0.961
      -0.944
      -0.793
      -0.567
      -0.147
       0.585
       1.542
       2.481
       3.207
       3.687
       3.942
       3.877
       3.274
       1.974
       0.046
      -2.245
      -4.614
      -6.884
      -8.923
     -10.505
     -11.225
     -10.600
      -8.325
      -4.534
       0.131
       4.766
       8.616
      11.323
      12.842
      13.166
      12.159
       9.683
       5.896
       1.444
      -2.661
      -5.500
      -6.727
      -6.700
      -6.124
      -5.446
      -4.533
      -2.907
      -0.326
       2.813
       5.628
       7.266
       7.355
       6.059
       3.858
       1.302
      -1.146
      -3.210
      -4.856
      -6.180
      -7.159
      -7.486
      -6.735
      -4.758
      -1.936
       1.011
       3.500
       5.358
       6.619
       7.116
       6.383
       4.048
       0.376
      -3.575
      -6.430
      -7.270
      -6.137
      -3.868
      -1.449
       0.566
       2.112
       3.253
       3.868
       3.721
       2.792
       1.432
       0.161
      -0.721
      -1.296
      -1.857
      -2.605
      -3.459
      -4.054
      -3.872
      -2.502
       0.065
       3.271
       6.184
       7.975
       8.374
       7.725
       6.593
       5.239
       3.444
       0.796
      -2.806
      -6.868
     -10.427
     -12.478
     -12.404
     -10.209
      -6.503
      -2.261
       1.528
       4.211
       5.615
       5.910
       5.335
       4.039
       2.176
       0.114
      -1.551
      -2.270
      -1.864
      -0.603
       0.961
       2.212
       2.688
       2.384
       1.965
       2.508
       4.623
       7.594
       9.435
       8.180
       3.495
      -2.784
      -7.799
      -9.677
      -8.757
      -7.030
      -6.314
      -6.762
      -6.939
      -5.267
      -1.485
       3.094
       6.589
       7.864
       7.102
       5.344
       3.537
       1.956
       0.387
      -1.295
      -2.819
      -3.743
      -3.858
      -3.295
      -2.346
      -1.280
      -0.364
       0.107
      -0.028
      -0.502
      -0.558
       0.618
       3.164
       6.103
       7.734
       6.728
       3.164
      -1.355
      -4.695
      -5.568
      -4.230
      -1.997
      -0.100
       1.092
       1.897
       2.574
       2.903
       2.471
       1.212
      -0.450
      -1.959
      -2.966
      -3.323
      -2.913
      -1.730
      -0.142
       1.125
       1.474
       0.942
       0.099
      -0.588
      -1.262
      -2.458
      -4.396
      -6.556
      -7.993
      -8.091
      -6.971
      -5.202
      -3.163
      -0.786
       2.053
       4.976
       7.090
       7.704
       7.084
       6.391
       6.670
       7.787
       8.427
       7.249
       4.181
       0.639
      -1.563
      -1.609
      -0.192
       1.189
       1.436
       0.541
      -0.670
      -1.398
      -1.546
      -1.721
      -2.585
      -4.183
      -5.827
      -6.666
      -6.394
      -5.465
      -4.641
      -4.362
      -4.494
      -4.574
      -4.164
      -2.990
      -0.939
       1.878
       4.999
       7.643
       9.062
       8.969
       7.721
       6.117
       4.954
       4.604
       4.848
       5.079
       4.751
       3.737
       2.326
       0.876
      -0.565
      -2.282
      -4.494
      -6.888
      -8.606
      -8.818
      -7.447
      -5.346
      -3.699
      -3.104
      -3.152
      -2.859
      -1.557
       0.560
       2.651
       3.931
       4.196
       3.743
       2.927
       1.898
       0.805
       0.124
       0.543
       2.325
       4.803
       6.645
       6.804
       5.290
       3.028
       0.972
      -0.631
      -2.132
      -3.773
      -5.238
      -5.938
      -5.687
      -5.016
      -4.775
      -5.418
      -6.623
      -7.552
      -7.422
      -5.939
      -3.402
      -0.553
       1.747
       2.907
       2.911
       2.310
       1.861
       2.076
       3.034
       4.542
       6.349
       8.115
       9.272
       9.158
       7.481
       4.672
       1.681
      -0.646
      -2.014
      -2.603
      -2.719
      -2.626
      -2.600
      -2.936
      -3.763
      -4.897
      -5.957
      -6.639
      -6.841
      -6.560
      -5.767
      -4.449
      -2.740
      -0.935
       0.688
       2.065
       3.343
       4.653
       5.886
       6.732
       6.955
       6.647
       6.145
       5.690
       5.158
       4.184
       2.558
       0.495
      -1.469
      -2.795
      -3.179
      -2.608
      -1.332
       0.219
       1.569
       2.344
       2.305
       1.312
      -0.644
      -3.283
      -5.924
      -7.668
      -7.868
      -6.553
      -4.427
      -2.381
      -0.865
       0.317
       1.597
       2.982
       3.878
       3.663
       2.506
       1.505
       1.879
       3.946
       6.853
       9.227
      10.016
       8.849
       5.913
       1.779
      -2.650
      -6.275
      -8.202
      -8.212
      -6.892
      -5.276
      -4.248
      -4.094
      -4.472
      -4.755
      -4.503
      -3.708
      -2.686
      -1.743
      -0.983
      -0.391
      -0.018
      -0.003
      -0.366
      -0.825
      -0.888
      -0.201
       1.155
       2.739
       4.116
       5.140
       5.929
       6.649
       7.365
       8.014
       8.394
       8.149
       6.869
       4.318
       0.635
      -3.690
      -8.003
     -11.627
     -13.876
     -14.148
     -12.227
      -8.597
      -4.373
      -0.794
       1.375
       2.070
       1.712
       0.862
       0.039
      -0.258
       0.405
       2.151
       4.516
       6.514
       7.164
       6.139
       4.009
       1.893
       0.793
       1.090
       2.415
       3.903
       4.659
       4.225
       2.753
       0.753
      -1.316
      -3.206
      -4.726
      -5.601
      -5.657
      -5.103
      -4.488
      -4.261
      -4.383
      -4.406
      -3.930
      -2.950
      -1.762
      -0.624
       0.454
       1.595
       2.813
       3.916
       4.621
       4.747
       4.352
       3.755
       3.401
       3.602
       4.281
       4.967
       5.132
       4.614
       3.702
       2.749
       1.691
       0.023
      -2.663
      -6.086
      -9.194
     -10.718
      -9.972
      -7.309
      -3.929
      -1.167
       0.270
       0.568
       0.426
       0.404
       0.606
       0.868
       1.130
       1.521
       2.094
       2.598
       2.623
       2.016
       1.107
       0.469
       0.436
       0.834
       1.178
       1.135
       0.785
       0.473
       0.414
       0.469
       0.267
      -0.460
      -1.637
      -2.864
      -3.690
      -3.903
      -3.637
      -3.202
      -2.786
      -2.294
      -1.426
       0.063
       2.160
       4.563
       6.804
       8.395
       8.929
       8.163
       6.133
       3.253
       0.251
      -2.131
      -3.510
      -4.049
      -4.252
      -4.540
      -4.969
      -5.333
      -5.472
      -5.432
      -5.296
      -4.906
      -3.841
      -1.766
       1.143
       4.108
       6.115
       6.487
       5.235
       2.988
       0.571
      -1.417
      -2.779
      -3.554
      -3.742
      -3.188
      -1.762
       0.354
       2.546
       3.961
       3.926
       2.368
      -0.048
      -2.196
      -3.070
      -2.310
      -0.330
       1.999
       3.840
       4.725
       4.593
       3.661
       2.269
       0.765
      -0.567
      -1.532
      -2.009
      -1.944
      -1.424
      -0.719
      -0.204
      -0.127
      -0.419
      -0.720
      -0.640
      -0.050
       0.833
       1.610
       1.958
       1.795
       1.281
       0.680
       0.182
      -0.197
      -0.567
      -1.006
      -1.451
      -1.726
      -1.689
      -1.343
      -0.825
      -0.267
       0.339
       1.112
       2.091
       3.046
       3.521
       3.127
       1.878
       0.250
      -1.130
      -1.938
      -2.328
      -2.707
      -3.323
      -4.065
      -4.603
      -4.680
      -4.282
      -3.593
      -2.846
      -2.214
      -1.778
      -1.519
      -1.329
      -1.076
      -0.725
      -0.397
      -0.288
      -0.479
      -0.796
      -0.851
      -0.282
       1.004
       2.753
       4.497
       5.815
       6.533
       6.766
       6.774
       6.748
       6.669
       6.351
       5.627
       4.500
       3.126
       1.645
       0.059
      -1.715
      -3.656
      -5.521
      -6.915
      -7.517
      -7.276
      -6.436
      -5.375
      -4.397
      -3.635
      -3.105
      -2.786
      -2.619
      -2.447
      -2.020
      -1.139
       0.179
       1.669
       2.960
       3.774
       4.037
       3.861
       3.406
       2.786
       2.107
       1.587
       1.549
       2.179
       3.251
       4.150
       4.262
       3.393
       1.843
       0.124
      -1.387
      -2.541
      -3.286
      -3.542
      -3.221
      -2.323
      -0.994
       0.492
       1.785
       2.565
       2.697
       2.323
       1.807
       1.499
       1.502
       1.618
       1.519
       1.030
       0.297
      -0.305
      -0.492
      -0.346
      -0.282
      -0.691
      -1.591
      -2.597
      -3.246
      -3.363
      -3.152
      -2.981
      -3.090
      -3.471
      -3.951
      -4.333
      -4.506
      -4.473
      -4.297
      -4.007
      -3.501
      -2.599
      -1.216
       0.487
       2.147
       3.415
       4.149
       4.425
       4.395
       4.163
       3.777
       3.299
       2.848
       2.558
       2.479
       2.496
       2.352
       1.806
       0.800
      -0.463
      -1.633
      -2.412
      -2.703
      -2.614
      -2.320
      -1.915
      -1.371
      -0.684
      -0.030
       0.258
      -0.041
      -0.772
      -1.399
      -1.345
      -0.394
       1.164
       2.764
       3.950
       4.583
       4.739
       4.504
       3.893
       2.945
       1.817
       0.754
      -0.047
      -0.555
      -0.910
      -1.321
      -1.903
      -2.551
      -2.960
      -2.812
      -2.007
      -0.787
       0.394
       1.137
       1.290
       0.913
       0.115
      -1.023
      -2.349
      -3.557
      -4.264
      -4.223
      -3.462
      -2.210
      -0.716
       0.854
       2.367
       3.635
       4.441
       4.699
       4.542
       4.224
       3.899
       3.491
       2.801
       1.755
       0.543
      -0.479
      -1.060
      -1.236
      -1.246
      -1.281
      -1.300
      -1.100
      -0.558
       0.198
       0.832
       1.007
       0.569
      -0.401
      -1.651
      -2.862
      -3.714
      -3.973
      -3.605
      -2.851
      -2.139
      -1.832
      -1.993
      -2.365
      -2.600
      -2.536
      -2.292
      -2.127
      -2.191
      -2.391
      -2.463
      -2.187
      -1.569
      -0.846
      -0.330
      -0.183
      -0.323
      -0.484
      -0.400
       0.057
       0.849
       1.863
       2.980
       4.087
       5.037
       5.668
       5.872
       5.649
       5.088
       4.293
       3.342
       2.319
       1.366
       0.674
       0.387
       0.492
       0.799
       1.036
       1.009
       0.714
       0.315
       0.005
      -0.158
      -0.277
      -0.508
      -0.908
