Origin Time       03/10/2012 17:48:28
Lat.              32.4 N 
Long.             76.3 E 
Depth (Km)         10.0
Magnitude         3.4
 Region           Chamba-DISTT.-HIMACHAL-PRADESH                                   
 Above details taken from IMD 
     
Station Code      CHM
Station Lat.       32.555  N
Station Long.      76.126  E
Station Height(m)  952.0
Site Class        A   Vs30 between 700 m/sec to 1400 m/sec * 
Record Time       03.10.2012 17:47:40.519
Sampling Rate     200. Hz
 Record Duration   65.050 Sec.
 Direction         E-W (E positive)
Max. Acceleration     -1.304 cm/sec**2
     
  * For reference see Site Classification link of website 
     
 Base Line Corrected and Low Pass Filtered (Cut Off at 35 Hz) Time History
 Acceleration data in cm/sec**2
    
[...]
       0.004
       0.004
       0.007
       0.010
       0.012
       0.010
       0.008
       0.008
       0.011
       0.014
       0.017
       0.018
       0.018
       0.015
       0.011
       0.007
       0.006
       0.009
       0.011
       0.010
       0.005
       0.001
       0.003
       0.010
       0.016
       0.016
       0.010
       0.003
      -0.001
       0.001
       0.007
       0.011
       0.011
       0.008
       0.006
       0.008
       0.011
       0.011
       0.008
       0.004
       0.002
       0.003
       0.006
       0.009
       0.011
       0.009
       0.006
       0.002
      -0.001
       0.000
       0.004
       0.008
       0.010
       0.011
       0.009
       0.006
       0.001
      -0.004
      -0.006
      -0.007
      -0.009
      -0.012
      -0.014
      -0.013
      -0.008
      -0.001
       0.004
       0.005
       0.003
      -0.002
      -0.007
      -0.009
      -0.009
      -0.007
      -0.005
      -0.005
      -0.005
      -0.006
      -0.005
      -0.005
      -0.004
      -0.002
       0.002
       0.006
       0.008
       0.007
       0.002
      -0.006
      -0.014
      -0.018
      -0.015
      -0.008
      -0.002
       0.001
      -0.001
      -0.003
      -0.005
      -0.005
      -0.003
       0.001
       0.004
       0.006
       0.006
       0.004
       0.002
      -0.002
      -0.008
      -0.010
      -0.007
       0.002
       0.012
       0.014
       0.007
      -0.004
      -0.011
      -0.011
      -0.005
       0.002
       0.006
       0.006
       0.004
       0.001
      -0.002
      -0.004
      -0.005
      -0.002
       0.004
       0.011
       0.016
       0.017
       0.012
       0.006
       0.001
      -0.002
      -0.003
      -0.005
      -0.005
      -0.004
      -0.002
       0.000
       0.002
       0.003
       0.002
       0.000
      -0.002
      -0.002
       0.001
       0.005
       0.007
       0.005
      -0.001
      -0.008
      -0.013
      -0.016
      -0.016
      -0.013
      -0.010
      -0.009
      -0.011
      -0.014
      -0.015
      -0.012
      -0.007
      -0.002
       0.002
       0.004
       0.004
       0.001
      -0.003
      -0.003
       0.002
       0.007
       0.012
       0.012
       0.009
       0.005
       0.001
      -0.001
       0.000
       0.003
       0.006
       0.008
       0.009
       0.006
       0.000
      -0.008
      -0.014
      -0.017
      -0.014
      -0.009
      -0.009
      -0.013
      -0.017
      -0.017
      -0.015
      -0.013
      -0.010
      -0.002
       0.013
       0.029
       0.040
       0.039
       0.024
      -0.001
      -0.025
      -0.034
      -0.023
       0.001
       0.015
       0.009
      -0.012
      -0.028
      -0.025
      -0.007
       0.012
       0.026
       0.038
       0.051
       0.058
       0.053
       0.035
       0.007
      -0.028
      -0.066
      -0.097
      -0.110
      -0.097
      -0.062
      -0.017
       0.027
       0.065
       0.096
       0.108
       0.090
       0.039
      -0.020
      -0.058
      -0.061
      -0.046
      -0.037
      -0.041
      -0.044
      -0.032
      -0.006
       0.016
       0.016
      -0.005
      -0.029
      -0.031
      -0.005
       0.031
       0.046
       0.021
      -0.020
      -0.026
       0.031
       0.113
       0.133
       0.044
      -0.107
      -0.206
      -0.171
      -0.029
       0.105
       0.131
       0.050
      -0.047
      -0.071
      -0.016
       0.049
       0.059
       0.017
      -0.026
      -0.029
       0.003
       0.040
       0.056
       0.045
       0.010
      -0.037
      -0.071
      -0.071
      -0.041
      -0.016
      -0.023
      -0.043
      -0.026
       0.056
       0.165
       0.227
       0.190
       0.070
      -0.063
      -0.141
      -0.143
      -0.101
      -0.070
      -0.082
      -0.119
      -0.125
      -0.060
       0.061
       0.181
       0.251
       0.256
       0.211
       0.131
       0.020
      -0.101
      -0.195
      -0.235
      -0.226
      -0.201
      -0.181
      -0.150
      -0.084
       0.019
       0.130
       0.213
       0.255
       0.268
       0.261
       0.229
       0.151
       0.020
      -0.133
      -0.246
      -0.261
      -0.179
      -0.071
      -0.024
      -0.063
      -0.125
      -0.118
      -0.006
       0.151
       0.254
       0.244
       0.151
       0.062
       0.041
       0.072
       0.069
      -0.044
      -0.252
      -0.447
      -0.516
      -0.410
      -0.174
       0.100
       0.320
       0.427
       0.415
       0.325
       0.214
       0.116
       0.022
      -0.085
      -0.193
      -0.258
      -0.236
      -0.129
       0.016
       0.134
       0.186
       0.182
       0.161
       0.147
       0.121
       0.033
      -0.138
      -0.334
      -0.437
      -0.357
      -0.109
       0.179
       0.360
       0.366
       0.236
       0.054
      -0.113
      -0.223
      -0.241
      -0.151
       0.018
       0.183
       0.261
       0.233
       0.147
       0.069
       0.023
      -0.011
      -0.059
      -0.115
      -0.147
      -0.134
      -0.091
      -0.054
      -0.054
      -0.088
      -0.125
      -0.127
      -0.067
       0.042
       0.145
       0.175
       0.109
       0.003
      -0.048
       0.013
       0.156
       0.283
       0.309
       0.212
       0.045
      -0.117
      -0.222
      -0.251
      -0.208
      -0.104
       0.030
       0.151
       0.220
       0.233
       0.209
       0.159
       0.073
      -0.058
      -0.197
      -0.269
      -0.222
      -0.086
       0.039
       0.061
      -0.028
      -0.148
      -0.195
      -0.115
       0.058
       0.234
       0.318
       0.277
       0.156
       0.034
      -0.045
      -0.084
      -0.098
      -0.075
       0.000
       0.103
       0.176
       0.179
       0.131
       0.077
       0.044
       0.017
      -0.032
      -0.115
      -0.216
      -0.289
      -0.281
      -0.163
       0.033
       0.209
       0.265
       0.172
      -0.001
      -0.136
      -0.165
      -0.104
      -0.024
       0.017
       0.010
      -0.005
       0.028
       0.130
       0.259
       0.322
       0.250
       0.061
      -0.146
      -0.277
      -0.308
      -0.285
      -0.264
      -0.251
      -0.203
      -0.077
       0.127
       0.337
       0.439
       0.349
       0.102
      -0.144
      -0.223
      -0.097
       0.108
       0.220
       0.182
       0.082
       0.037
       0.078
       0.132
       0.107
      -0.014
      -0.164
      -0.248
      -0.212
      -0.082
       0.072
       0.189
       0.247
       0.257
       0.231
       0.152
      -0.004
      -0.228
      -0.444
      -0.534
      -0.427
      -0.162
       0.120
       0.283
       0.292
       0.218
       0.157
       0.135
       0.106
       0.014
      -0.143
      -0.304
      -0.388
      -0.340
      -0.157
       0.102
       0.336
       0.452
       0.409
       0.241
       0.026
      -0.158
      -0.256
      -0.249
      -0.140
       0.039
       0.233
       0.367
       0.369
       0.213
      -0.059
      -0.342
      -0.517
      -0.518
      -0.368
      -0.148
       0.057
       0.196
       0.261
       0.274
       0.265
       0.260
       0.262
       0.242
       0.168
       0.039
      -0.106
      -0.209
      -0.238
      -0.195
      -0.117
      -0.047
      -0.019
      -0.033
      -0.062
      -0.069
      -0.029
       0.058
       0.164
       0.229
       0.201
       0.073
      -0.092
      -0.200
      -0.196
      -0.119
      -0.064
      -0.092
      -0.162
      -0.168
      -0.030
       0.213
       0.427
       0.469
       0.297
       0.001
      -0.253
      -0.333
      -0.219
      -0.006
       0.172
       0.242
       0.227
       0.196
       0.186
       0.161
       0.062
      -0.122
      -0.318
      -0.431
      -0.424
      -0.340
      -0.256
      -0.207
      -0.170
      -0.092
       0.054
       0.237
       0.381
       0.410
       0.307
       0.129
      -0.029
      -0.108
      -0.113
      -0.088
      -0.062
      -0.028
       0.032
       0.116
       0.192
       0.232
       0.224
       0.177
       0.119
       0.075
       0.057
       0.041
      -0.015
      -0.122
      -0.240
      -0.296
      -0.256
      -0.152
      -0.047
       0.023
       0.070
       0.113
       0.152
       0.164
       0.144
       0.118
       0.110
       0.109
       0.067
      -0.042
      -0.186
      -0.281
      -0.269
      -0.165
      -0.046
       0.030
       0.061
       0.089
       0.137
       0.180
       0.167
       0.066
      -0.105
      -0.285
      -0.405
      -0.415
      -0.312
      -0.131
       0.062
       0.205
       0.264
       0.247
       0.202
       0.179
       0.201
       0.237
       0.231
       0.142
      -0.011
      -0.158
      -0.224
      -0.183
      -0.073
       0.043
       0.117
       0.145
       0.146
       0.134
       0.115
       0.084
       0.038
      -0.022
      -0.084
      -0.133
      -0.166
      -0.195
      -0.234
      -0.276
      -0.286
      -0.224
      -0.082
       0.095
       0.228
       0.249
       0.154
       0.012
      -0.081
      -0.071
       0.024
       0.145
       0.238
       0.278
       0.258
       0.178
       0.057
      -0.072
      -0.168
      -0.215
      -0.219
      -0.194
      -0.141
      -0.061
       0.025
       0.086
       0.104
       0.097
       0.090
       0.085
       0.060
       0.001
      -0.072
      -0.113
      -0.088
       0.005
       0.133
       0.243
       0.279
       0.221
       0.096
      -0.033
      -0.113
      -0.132
      -0.113
      -0.083
      -0.058
      -0.044
      -0.036
      -0.023
       0.002
       0.020
      -0.003
      -0.071
      -0.136
      -0.136
      -0.048
       0.087
       0.197
       0.228
       0.173
       0.061
      -0.063
      -0.163
      -0.226
      -0.264
      -0.298
      -0.325
      -0.310
      -0.207
       0.000
       0.257
       0.464
       0.541
       0.473
       0.320
       0.159
       0.045
      -0.016
      -0.049
      -0.092
      -0.165
      -0.256
      -0.318
      -0.300
      -0.183
      -0.002
       0.175
       0.283
       0.294
       0.228
       0.143
       0.092
       0.082
       0.075
       0.025
      -0.076
      -0.190
      -0.264
      -0.265
      -0.197
      -0.092
       0.002
       0.044
       0.036
       0.020
       0.047
       0.120
       0.179
       0.159
       0.059
      -0.050
      -0.099
      -0.075
      -0.025
       0.002
      -0.006
      -0.033
      -0.058
      -0.067
      -0.053
      -0.012
       0.045
       0.091
       0.097
       0.051
      -0.021
      -0.065
      -0.035
       0.058
       0.150
       0.165
       0.083
      -0.040
      -0.123
      -0.121
      -0.055
       0.023
       0.078
       0.109
       0.123
       0.122
       0.107
       0.086
       0.067
       0.041
      -0.008
      -0.084
      -0.166
      -0.216
      -0.217
      -0.188
      -0.165
      -0.162
      -0.159
      -0.115
      -0.010
       0.125
       0.230
       0.258
       0.214
       0.141
       0.077
       0.028
      -0.016
      -0.048
      -0.045
      -0.006
       0.042
       0.067
       0.070
       0.078
       0.108
       0.140
       0.133
       0.066
      -0.034
      -0.111
      -0.117
      -0.056
       0.022
       0.052
      -0.001
      -0.120
      -0.245
      -0.308
      -0.270
      -0.152
      -0.014
       0.082
       0.119
       0.129
       0.149
       0.192
       0.234
       0.237
       0.178
       0.061
      -0.088
      -0.227
      -0.314
      -0.322
      -0.248
      -0.120
       0.018
       0.122
       0.174
       0.181
       0.169
       0.155
       0.132
       0.085
       0.007
      -0.082
      -0.143
      -0.147
      -0.101
      -0.044
      -0.013
      -0.017
      -0.038
      -0.057
      -0.071
      -0.082
      -0.089
      -0.080
      -0.045
       0.018
       0.107
       0.219
       0.335
       0.427
       0.465
       0.440
       0.358
       0.231
       0.071
      -0.103
      -0.266
      -0.383
      -0.425
      -0.379
      -0.256
      -0.104
       0.005
       0.016
      -0.069
      -0.184
      -0.247
      -0.222
      -0.145
      -0.080
      -0.052
      -0.013
       0.109
       0.331
       0.575
       0.703
       0.622
       0.358
       0.046
      -0.163
      -0.205
      -0.132
      -0.055
      -0.053
      -0.125
      -0.216
      -0.278
      -0.306
      -0.331
      -0.364
      -0.369
      -0.299
      -0.148
       0.021
       0.120
       0.102
       0.000
      -0.104
      -0.135
      -0.067
       0.066
       0.211
       0.319
       0.357
       0.310
       0.182
       0.012
      -0.119
      -0.133
      -0.005
       0.205
       0.390
       0.462
       0.391
       0.201
      -0.048
      -0.280
      -0.415
      -0.404
      -0.262
      -0.071
       0.065
       0.081
      -0.013
      -0.161
      -0.307
      -0.406
      -0.421
      -0.318
      -0.093
       0.195
       0.442
       0.546
       0.474
       0.277
       0.066
      -0.043
       0.017
       0.237
       0.525
       0.756
       0.828
       0.696
       0.380
      -0.065
      -0.556
      -0.989
      -1.261
      -1.304
      -1.111
      -0.735
      -0.263
       0.195
       0.527
       0.648
       0.557
       0.350
       0.172
       0.119
       0.174
       0.243
       0.251
       0.203
       0.170
       0.212
       0.317
       0.401
       0.365
       0.166
      -0.145
      -0.442
      -0.594
      -0.545
      -0.354
      -0.154
      -0.063
      -0.106
      -0.215
      -0.287
      -0.274
      -0.206
      -0.159
      -0.188
      -0.284
      -0.376
      -0.378
      -0.235
       0.038
       0.378
       0.710
       0.982
       1.155
       1.178
       0.994
       0.589
       0.042
      -0.500
      -0.899
      -1.093
      -1.095
      -0.950
      -0.714
      -0.454
      -0.230
      -0.058
       0.101
       0.289
       0.490
       0.622
       0.600
       0.423
       0.185
       0.009
      -0.034
       0.039
       0.150
       0.225
       0.245
       0.245
       0.273
       0.343
       0.429
       0.475
       0.427
       0.256
      -0.021
      -0.331
      -0.584
      -0.733
      -0.798
      -0.832
      -0.851
      -0.805
      -0.635
      -0.348
      -0.035
       0.197
       0.317
       0.385
       0.480
       0.611
       0.705
       0.681
       0.529
       0.316
       0.124
      -0.012
      -0.107
      -0.188
      -0.264
      -0.316
      -0.317
      -0.248
      -0.113
       0.053
       0.190
       0.235
       0.153
      -0.040
      -0.280
      -0.475
      -0.553
      -0.483
      -0.289
      -0.029
       0.229
       0.430
       0.546
       0.566
       0.501
       0.377
       0.226
       0.073
      -0.076
      -0.216
      -0.314
      -0.316
      -0.181
       0.062
       0.325
       0.504
       0.540
       0.436
       0.231
      -0.036
      -0.346
      -0.679
      -0.988
      -1.197
      -1.235
      -1.081
      -0.769
      -0.361
       0.093
       0.550
       0.947
       1.197
       1.240
       1.080
       0.794
       0.485
       0.228
       0.048
      -0.061
      -0.116
      -0.130
      -0.122
      -0.117
      -0.134
      -0.175
      -0.235
      -0.320
      -0.447
      -0.605
      -0.732
      -0.732
      -0.539
      -0.159
       0.320
       0.755
       1.008
       1.004
       0.761
       0.381
      -0.007
      -0.302
      -0.461
      -0.485
      -0.393
      -0.211
       0.024
       0.255
       0.420
       0.471
       0.399
       0.241
       0.060
      -0.084
      -0.156
      -0.160
      -0.117
      -0.053
      -0.004
      -0.008
      -0.095
      -0.250
      -0.412
      -0.500
      -0.467
      -0.326
      -0.123
       0.094
       0.288
       0.424
       0.461
       0.381
       0.214
       0.045
      -0.047
      -0.036
       0.028
       0.079
       0.084
       0.055
       0.000
      -0.105
      -0.292
      -0.546
      -0.777
      -0.864
      -0.731
      -0.403
       0.006
       0.364
       0.581
       0.639
       0.566
       0.407
       0.205
      -0.001
      -0.164
      -0.243
      -0.211
      -0.081
       0.105
       0.292
       0.433
       0.490
       0.446
       0.302
       0.082
      -0.172
      -0.410
      -0.590
      -0.685
      -0.680
      -0.575
      -0.382
      -0.132
       0.130
       0.367
       0.552
       0.672
       0.711
       0.655
       0.507
       0.296
       0.063
      -0.164
      -0.374
      -0.552
      -0.674
      -0.719
      -0.684
      -0.581
      -0.419
      -0.199
       0.069
       0.348
       0.590
       0.756
       0.836
       0.834
       0.754
       0.598
       0.382
       0.141
      -0.087
      -0.285
      -0.460
      -0.623
      -0.762
      -0.836
      -0.800
      -0.632
      -0.351
      -0.019
       0.295
       0.541
       0.703
       0.770
       0.720
       0.524
       0.193
      -0.193
      -0.514
      -0.676
      -0.660
      -0.523
      -0.346
      -0.190
      -0.076
      -0.006
       0.027
       0.026
      -0.008
      -0.068
      -0.133
      -0.170
      -0.143
      -0.040
       0.116
       0.279
       0.404
       0.463
       0.456
       0.392
       0.286
       0.158
       0.036
      -0.035
      -0.012
       0.111
       0.282
       0.402
       0.375
       0.166
      -0.171
      -0.522
      -0.764
      -0.828
      -0.722
      -0.513
      -0.274
      -0.047
       0.170
       0.394
       0.625
       0.832
       0.960
       0.957
       0.788
       0.463
       0.041
      -0.388
      -0.739
      -0.961
      -1.036
      -0.955
      -0.716
      -0.345
       0.073
       0.415
       0.573
       0.521
       0.333
       0.130
      -0.007
      -0.083
      -0.163
      -0.292
      -0.447
      -0.548
      -0.522
      -0.364
      -0.138
       0.071
       0.217
       0.312
       0.390
       0.471
       0.538
       0.561
       0.524
       0.427
       0.278
       0.077
      -0.165
      -0.415
      -0.618
      -0.717
      -0.691
      -0.569
      -0.409
      -0.257
      -0.134
      -0.038
       0.031
       0.069
       0.082
       0.099
       0.146
       0.222
       0.295
       0.328
       0.309
       0.259
       0.205
       0.144
       0.055
      -0.071
      -0.201
      -0.271
      -0.233
      -0.094
       0.089
       0.248
       0.349
       0.394
       0.396
       0.354
       0.267
       0.159
       0.079
       0.066
       0.115
       0.184
       0.233
       0.257
       0.287
       0.348
       0.422
       0.453
       0.397
       0.261
       0.098
      -0.033
      -0.100
      -0.112
      -0.105
      -0.119
      -0.181
      -0.293
      -0.441
      -0.595
      -0.725
      -0.798
      -0.785
      -0.680
      -0.504
      -0.309
      -0.151
