Origin Time       06/11/2012 12:21:12
Lat.              32.3 N 
Long.             76.2 E 
Depth (Km)          5.0
Magnitude         4.1
 Region           Chamba-KANGRA-DISTT.-BORDER                                      
 Above details taken from IMD 
     
Station Code      CHM
Station Lat.       32.555  N
Station Long.      76.126  E
Station Height(m)  952.0
Site Class        A   Vs30 between 700 m/sec to 1400 m/sec * 
Record Time       06.11.2012 12:20:06.859
Sampling Rate     200. Hz
 Record Duration   68.615 Sec.
 Direction         E-W (E positive)
Max. Acceleration     -2.005 cm/sec**2
     
  * For reference see Site Classification link of website 
     
 Base Line Corrected and Low Pass Filtered (Cut Off at 35 Hz) Time History
 Acceleration data in cm/sec**2
    
[...]
       0.015
       0.026
       0.019
       0.001
      -0.016
      -0.020
      -0.011
       0.000
      -0.001
      -0.018
      -0.031
      -0.019
       0.018
       0.051
       0.045
      -0.007
      -0.078
      -0.121
      -0.103
      -0.025
       0.066
       0.107
       0.063
      -0.039
      -0.125
      -0.133
      -0.064
       0.027
       0.074
       0.054
      -0.009
      -0.064
      -0.072
      -0.023
       0.053
       0.100
       0.075
      -0.010
      -0.085
      -0.081
      -0.002
       0.073
       0.068
      -0.017
      -0.110
      -0.132
      -0.063
       0.045
       0.106
       0.073
      -0.018
      -0.077
      -0.052
       0.015
       0.035
      -0.014
      -0.063
      -0.041
       0.025
       0.049
      -0.007
      -0.077
      -0.078
      -0.006
       0.069
       0.085
       0.036
      -0.058
      -0.160
      -0.213
      -0.154
       0.017
       0.197
       0.252
       0.136
      -0.050
      -0.151
      -0.096
       0.041
       0.116
       0.041
      -0.133
      -0.254
      -0.198
       0.018
       0.233
       0.280
       0.132
      -0.085
      -0.215
      -0.198
      -0.082
       0.047
       0.124
       0.122
       0.059
      -0.012
      -0.041
      -0.029
      -0.029
      -0.081
      -0.148
      -0.139
      -0.027
       0.105
       0.142
       0.063
      -0.032
      -0.046
       0.005
       0.023
      -0.047
      -0.144
      -0.150
      -0.024
       0.143
       0.209
       0.119
      -0.036
      -0.109
      -0.060
       0.009
      -0.024
      -0.144
      -0.198
      -0.074
       0.151
       0.271
       0.174
      -0.028
      -0.111
      -0.005
       0.118
       0.047
      -0.216
      -0.425
      -0.345
       0.007
       0.380
       0.521
       0.373
       0.078
      -0.183
      -0.322
      -0.358
      -0.337
      -0.255
      -0.088
       0.137
       0.313
       0.333
       0.185
      -0.027
      -0.176
      -0.200
      -0.131
      -0.038
       0.029
       0.060
       0.059
       0.037
       0.013
       0.024
       0.089
       0.167
       0.164
       0.008
      -0.253
      -0.448
      -0.411
      -0.136
       0.195
       0.363
       0.308
       0.177
       0.147
       0.226
       0.234
       0.008
      -0.387
      -0.673
      -0.608
      -0.213
       0.243
       0.479
       0.418
       0.215
       0.076
       0.060
       0.048
      -0.097
      -0.344
      -0.498
      -0.388
      -0.057
       0.265
       0.372
       0.261
       0.106
       0.056
       0.086
       0.041
      -0.161
      -0.406
      -0.488
      -0.309
       0.026
       0.311
       0.399
       0.305
       0.157
       0.074
       0.056
      -0.007
      -0.198
      -0.436
      -0.493
      -0.209
       0.296
       0.653
       0.575
       0.150
      -0.238
      -0.302
      -0.129
      -0.024
      -0.136
      -0.309
      -0.301
      -0.075
       0.177
       0.262
       0.173
       0.059
       0.049
       0.132
       0.188
       0.105
      -0.105
      -0.306
      -0.341
      -0.177
       0.052
       0.166
       0.113
       0.014
       0.009
       0.093
       0.124
      -0.006
      -0.219
      -0.301
      -0.120
       0.238
       0.529
       0.550
       0.281
      -0.120
      -0.438
      -0.527
      -0.386
      -0.153
       0.000
       0.013
      -0.022
       0.023
       0.151
       0.221
       0.102
      -0.152
      -0.322
      -0.213
       0.142
       0.473
       0.484
       0.105
      -0.425
      -0.720
      -0.526
       0.074
       0.714
       0.999
       0.776
       0.220
      -0.329
      -0.613
      -0.602
      -0.436
      -0.261
      -0.118
       0.030
       0.203
       0.356
       0.415
       0.348
       0.183
      -0.031
      -0.239
      -0.374
      -0.369
      -0.219
      -0.019
       0.100
       0.073
      -0.047
      -0.141
      -0.112
       0.065
       0.307
       0.443
       0.322
      -0.042
      -0.430
      -0.571
      -0.359
       0.048
       0.351
       0.337
       0.015
      -0.400
      -0.637
      -0.542
      -0.167
       0.270
       0.550
       0.594
       0.485
       0.346
       0.215
       0.039
      -0.219
      -0.493
      -0.633
      -0.525
      -0.193
       0.201
       0.471
       0.543
       0.487
       0.429
       0.409
       0.347
       0.150
      -0.147
      -0.384
      -0.417
      -0.277
      -0.164
      -0.267
      -0.564
      -0.808
      -0.742
      -0.334
       0.185
       0.523
       0.571
       0.449
       0.339
       0.292
       0.210
      -0.006
      -0.325
      -0.582
      -0.608
      -0.361
       0.028
       0.358
       0.507
       0.490
       0.386
       0.254
       0.117
       0.015
       0.007
       0.103
       0.202
       0.156
      -0.067
      -0.310
      -0.356
      -0.164
       0.049
       0.017
      -0.284
      -0.576
      -0.521
      -0.030
       0.633
       1.038
       0.894
       0.261
      -0.485
      -0.927
      -0.916
      -0.659
      -0.475
      -0.470
      -0.435
      -0.096
       0.554
       1.189
       1.404
       1.059
       0.368
      -0.287
      -0.638
      -0.662
      -0.522
      -0.418
      -0.449
      -0.555
      -0.578
      -0.402
      -0.077
       0.217
       0.338
       0.303
       0.245
       0.274
       0.401
       0.554
       0.647
       0.627
       0.485
       0.233
      -0.125
      -0.578
      -1.036
      -1.288
      -1.101
      -0.428
       0.449
       1.068
       1.144
       0.807
       0.467
       0.414
       0.552
       0.523
       0.080
      -0.648
      -1.239
      -1.316
      -0.868
      -0.267
       0.038
      -0.108
      -0.443
      -0.544
      -0.206
       0.403
       0.921
       1.088
       0.881
       0.439
      -0.065
      -0.469
      -0.632
      -0.490
      -0.117
       0.281
       0.487
       0.413
       0.154
      -0.082
      -0.132
      -0.003
       0.133
       0.093
      -0.134
      -0.348
      -0.317
      -0.019
       0.301
       0.346
       0.047
      -0.369
      -0.583
      -0.456
      -0.115
       0.182
       0.255
       0.108
      -0.104
      -0.186
      -0.042
       0.262
       0.524
       0.541
       0.278
      -0.092
      -0.313
      -0.260
      -0.047
       0.074
      -0.036
      -0.262
      -0.333
      -0.104
       0.280
       0.495
       0.330
      -0.115
      -0.495
      -0.502
      -0.116
       0.364
       0.557
       0.294
      -0.243
      -0.676
      -0.738
      -0.474
      -0.153
      -0.002
      -0.001
       0.042
       0.247
       0.521
       0.660
       0.570
       0.356
       0.199
       0.181
       0.224
       0.181
      -0.038
      -0.395
      -0.748
      -0.913
      -0.769
      -0.345
       0.150
       0.438
       0.359
      -0.008
      -0.400
      -0.568
      -0.449
      -0.160
       0.134
       0.347
       0.488
       0.592
       0.635
       0.540
       0.248
      -0.174
      -0.528
      -0.611
      -0.387
      -0.038
       0.187
       0.182
       0.056
       0.010
       0.137
       0.334
       0.404
       0.244
      -0.058
      -0.291
      -0.295
      -0.093
       0.114
       0.102
      -0.196
      -0.627
      -0.938
      -0.956
      -0.677
      -0.238
       0.172
       0.411
       0.459
       0.446
       0.552
       0.821
       1.068
       1.016
       0.557
      -0.111
      -0.624
      -0.739
      -0.515
      -0.225
      -0.106
      -0.169
      -0.235
      -0.136
       0.111
       0.306
       0.249
      -0.061
      -0.418
      -0.592
      -0.525
      -0.345
      -0.194
      -0.077
       0.106
       0.392
       0.645
       0.655
       0.349
      -0.095
      -0.357
      -0.246
       0.123
       0.405
       0.335
      -0.023
      -0.335
      -0.326
      -0.041
       0.225
       0.213
      -0.077
      -0.414
      -0.539
      -0.341
       0.079
       0.493
       0.704
       0.656
       0.432
       0.146
      -0.147
      -0.441
      -0.704
      -0.835
      -0.716
      -0.325
       0.202
       0.616
       0.714
       0.499
       0.182
       0.009
       0.049
       0.151
       0.126
      -0.025
      -0.100
       0.056
       0.327
       0.398
       0.084
      -0.455
      -0.863
      -0.929
      -0.748
      -0.547
      -0.408
      -0.213
       0.149
       0.586
       0.849
       0.770
       0.431
       0.092
      -0.038
       0.036
       0.130
       0.065
      -0.171
      -0.425
      -0.524
      -0.422
      -0.203
       0.025
       0.210
       0.345
       0.407
       0.352
       0.173
      -0.059
      -0.233
      -0.270
      -0.162
       0.050
       0.302
       0.506
       0.546
       0.332
      -0.123
      -0.668
      -1.094
      -1.240
      -1.066
      -0.645
      -0.095
       0.463
       0.914
       1.148
       1.115
       0.857
       0.477
       0.049
      -0.410
      -0.862
      -1.183
      -1.206
      -0.856
      -0.252
       0.357
       0.748
       0.851
       0.741
       0.526
       0.273
       0.031
      -0.136
      -0.161
      -0.058
       0.070
       0.109
       0.039
      -0.043
      -0.028
       0.068
       0.077
      -0.158
      -0.575
      -0.859
      -0.681
      -0.012
       0.790
       1.223
       1.026
       0.376
      -0.275
      -0.574
      -0.530
      -0.433
      -0.514
      -0.696
      -0.680
      -0.273
       0.371
       0.853
       0.862
       0.440
      -0.076
      -0.361
      -0.345
      -0.200
      -0.102
      -0.053
       0.066
       0.293
       0.480
       0.416
       0.046
      -0.426
      -0.681
      -0.546
      -0.139
       0.243
       0.376
       0.273
       0.123
       0.087
       0.150
       0.166
       0.024
      -0.220
      -0.378
      -0.306
      -0.032
       0.271
       0.435
       0.419
       0.297
       0.153
       0.020
      -0.115
      -0.260
      -0.385
      -0.432
      -0.355
      -0.182
      -0.033
      -0.040
      -0.223
      -0.455
      -0.579
      -0.555
      -0.463
      -0.367
      -0.219
       0.053
       0.404
       0.680
       0.762
       0.663
       0.466
       0.228
      -0.025
      -0.232
      -0.299
      -0.186
       0.040
       0.269
       0.442
       0.564
       0.624
       0.544
       0.256
      -0.189
      -0.612
      -0.847
      -0.880
      -0.847
      -0.870
      -0.921
      -0.849
      -0.547
      -0.085
       0.342
       0.579
       0.630
       0.637
       0.731
       0.892
       0.958
       0.776
       0.378
      -0.017
      -0.184
      -0.082
       0.141
       0.321
       0.428
       0.514
       0.550
       0.375
      -0.145
      -0.918
      -1.605
      -1.854
      -1.560
      -0.941
      -0.341
       0.033
       0.211
       0.345
       0.544
       0.789
       0.975
       1.006
       0.858
       0.578
       0.240
      -0.083
      -0.307
      -0.329
      -0.099
       0.302
       0.681
       0.861
       0.769
       0.427
      -0.096
      -0.690
      -1.173
      -1.339
      -1.099
      -0.587
      -0.098
       0.127
       0.078
      -0.067
      -0.148
      -0.169
      -0.226
      -0.322
      -0.326
      -0.104
       0.319
       0.768
       1.036
       1.007
       0.702
       0.256
      -0.158
      -0.410
      -0.457
      -0.324
      -0.072
       0.197
       0.358
       0.320
       0.085
      -0.266
      -0.645
      -0.989
      -1.228
      -1.257
      -0.970
      -0.368
       0.359
       0.873
       0.881
       0.371
      -0.312
      -0.681
      -0.466
       0.183
       0.849
       1.205
       1.241
       1.172
       1.156
       1.116
       0.834
       0.199
      -0.642
      -1.353
      -1.634
      -1.421
      -0.915
      -0.446
      -0.256
      -0.352
      -0.537
      -0.580
      -0.390
      -0.062
       0.220
       0.327
       0.260
       0.144
       0.131
       0.294
       0.581
       0.863
       1.026
       1.021
       0.859
       0.584
       0.254
      -0.085
      -0.431
      -0.810
      -1.201
      -1.476
      -1.447
      -1.022
      -0.342
       0.261
       0.491
       0.313
      -0.034
      -0.252
      -0.220
      -0.032
       0.164
       0.332
       0.541
       0.823
       1.067
       1.081
       0.779
       0.318
       0.012
       0.066
       0.380
       0.624
       0.537
       0.165
      -0.202
      -0.338
      -0.313
      -0.415
      -0.841
      -1.469
      -1.941
      -1.955
      -1.482
      -0.740
       0.000
       0.576
       0.939
       1.074
       0.970
       0.656
       0.229
      -0.167
      -0.422
      -0.489
      -0.357
      -0.002
       0.581
       1.260
       1.718
       1.592
       0.778
      -0.393
      -1.319
      -1.575
      -1.225
      -0.720
      -0.460
      -0.465
      -0.447
      -0.170
       0.299
       0.666
       0.703
       0.423
       0.011
      -0.359
      -0.602
      -0.667
      -0.485
      -0.031
       0.586
       1.133
       1.397
       1.333
       1.076
       0.810
       0.623
       0.475
       0.290
       0.081
      -0.052
      -0.052
      -0.033
      -0.238
      -0.802
      -1.539
      -2.005
      -1.853
      -1.154
      -0.371
       0.025
      -0.075
      -0.359
      -0.413
      -0.088
       0.405
       0.728
       0.732
       0.557
       0.448
       0.498
       0.586
       0.550
       0.387
       0.261
       0.323
       0.536
       0.691
       0.591
       0.215
      -0.283
      -0.712
      -0.964
      -1.032
      -0.965
      -0.837
      -0.733
      -0.712
      -0.749
      -0.724
      -0.501
      -0.057
       0.473
       0.879
       1.038
       1.002
       0.932
       0.931
       0.941
       0.817
       0.494
       0.065
      -0.308
      -0.552
      -0.733
      -0.955
      -1.208
      -1.325
      -1.096
      -0.453
       0.416
       1.134
       1.353
       0.984
       0.281
      -0.323
      -0.519
      -0.335
      -0.085
      -0.086
      -0.387
      -0.730
      -0.763
      -0.326
       0.426
       1.144
       1.539
       1.545
       1.292
       0.953
       0.618
       0.279
      -0.112
      -0.571
      -1.048
      -1.421
      -1.544
      -1.339
      -0.848
      -0.224
       0.351
       0.745
       0.886
       0.750
       0.358
      -0.189
      -0.713
      -1.045
      -1.112
      -0.962
      -0.666
      -0.224
       0.384
       1.058
       1.527
       1.511
       0.976
       0.211
      -0.370
      -0.528
      -0.356
      -0.162
      -0.205
      -0.495
      -0.827
      -0.967
      -0.832
      -0.512
      -0.169
       0.081
       0.199
       0.212
       0.202
       0.285
       0.540
       0.921
       1.240
       1.290
       0.999
       0.501
       0.053
      -0.153
      -0.114
      -0.008
      -0.046
      -0.306
      -0.672
      -0.918
      -0.858
      -0.467
       0.116
       0.658
       0.934
       0.802
       0.266
      -0.508
      -1.243
      -1.655
      -1.580
      -1.053
      -0.293
       0.408
       0.837
       0.945
       0.828
       0.618
       0.399
       0.203
       0.046
      -0.053
      -0.111
      -0.185
      -0.316
      -0.449
      -0.431
      -0.137
       0.381
       0.873
       1.034
       0.721
       0.052
      -0.678
      -1.176
      -1.287
      -1.004
      -0.427
       0.279
       0.893
       1.184
       1.010
       0.444
      -0.227
      -0.650
      -0.640
      -0.310
       0.036
       0.153
       0.048
      -0.049
       0.098
       0.516
       0.985
       1.183
       0.904
       0.207
      -0.611
      -1.213
      -1.428
      -1.319
      -1.072
      -0.819
      -0.577
      -0.331
      -0.122
      -0.036
      -0.084
      -0.136
      -0.010
       0.364
       0.858
       1.232
       1.315
       1.119
       0.791
       0.471
       0.220
       0.032
      -0.094
      -0.147
      -0.152
      -0.198
      -0.391
      -0.732
      -1.047
      -1.072
      -0.649
       0.097
       0.804
       1.112
       0.922
       0.459
       0.066
      -0.059
       0.029
       0.135
       0.124
       0.027
      -0.026
       0.044
       0.198
       0.320
       0.338
       0.268
       0.172
       0.081
      -0.018
      -0.131
      -0.219
      -0.221
      -0.107
       0.086
       0.271
       0.347
       0.245
      -0.043
      -0.447
      -0.823
      -1.007
      -0.903
      -0.567
      -0.182
       0.048
       0.025
      -0.201
      -0.480
      -0.661
      -0.667
      -0.507
      -0.236
       0.084
       0.410
       0.688
       0.837
       0.772
       0.478
       0.052
      -0.344
      -0.588
      -0.664
      -0.634
      -0.566
      -0.495
      -0.432
      -0.371
      -0.283
      -0.117
       0.154
       0.499
       0.826
       1.047
       1.124
       1.073
       0.921
       0.677
       0.344
      -0.033
      -0.356
      -0.518
      -0.471
      -0.271
      -0.046
       0.081
       0.067
      -0.039
      -0.164
      -0.265
      -0.343
      -0.394
      -0.371
      -0.212
       0.095
       0.458
       0.713
       0.726
       0.490
       0.117
      -0.248
      -0.505
      -0.624
      -0.624
      -0.554
      -0.483
      -0.475
      -0.545
      -0.629
      -0.598
      -0.341
       0.141
       0.698
       1.101
       1.180
       0.923
       0.478
       0.076
      -0.093
       0.039
       0.401
       0.829
       1.138
       1.197
       0.975
       0.555
       0.102
      -0.221
      -0.339
      -0.300
      -0.209
      -0.144
      -0.110
      -0.070
      -0.014
       0.011
      -0.065
      -0.255
      -0.484
      -0.627
      -0.617
      -0.502
      -0.411
      -0.444
      -0.588
      -0.733
      -0.751
      -0.589
      -0.301
       0.003
       0.226
       0.328
       0.320
       0.243
       0.142
       0.034
      -0.111
      -0.327
      -0.577
      -0.737
      -0.691
      -0.441
      -0.132
       0.044
      -0.014
      -0.248
      -0.488
      -0.565
      -0.409
      -0.070
       0.323
       0.627
       0.737
       0.623
       0.362
       0.109
       0.027
       0.190
       0.520
       0.837
       0.986
       0.933
       0.764
       0.575
       0.383
       0.148
      -0.144
      -0.427
      -0.595
      -0.593
      -0.450
      -0.248
      -0.056
       0.108
       0.263
       0.425
       0.570
       0.652
       0.641
       0.542
       0.371
       0.146
      -0.098
      -0.287
      -0.344
      -0.246
      -0.061
       0.100
       0.169
       0.152
       0.094
       0.013
      -0.116
      -0.314
      -0.551
      -0.750
      -0.847
      -0.847
      -0.812
      -0.793
      -0.788
      -0.744
      -0.627
      -0.457
      -0.285
      -0.127
       0.057
       0.317
       0.628
       0.882
       0.967
       0.869
       0.683
       0.521
