Origin Time       21/8/2014 08:11:17 
Lat.              32.3 N 
Long.             76.5 E 
Depth (Km)         10.0
Magnitude         5.0
 Region           CHAMBA-Kangra-Border-(H.P.)                                      
 Above details taken from IMD 
   
Station Code      CHM
Station Lat.       32.555
Station Long.      76.126
Station Height(m)  952.0
Site Class        A   Vs30 between 700 m/sec to 1400 m/sec * 
Record Time       21.08.2014 08:08:27.364
Sampling Rate     200. Hz
 Record Duration  101.345 Sec.
 Direction         Vert. (Up positive)
Max. Acceleration     13.967 cm/sec**2
     
  * For reference see Site Classification link of website 
     
 Base Line Corrected and Low Pass Filtered (Cut Off at 35 Hz) Time History
 Acceleration data in cm/sec**2
    
[...]
       0.291
      -0.462
      -1.147
      -1.647
      -1.839
      -1.649
      -1.108
      -0.375
       0.316
       0.757
       0.851
       0.633
       0.225
      -0.230
      -0.604
      -0.816
      -0.852
      -0.787
      -0.760
      -0.904
      -1.265
      -1.785
      -2.353
      -2.877
      -3.283
      -3.485
      -3.389
      -2.957
      -2.247
      -1.377
      -0.446
       0.480
       1.322
       1.979
       2.386
       2.563
       2.589
       2.519
       2.341
       2.008
       1.513
       0.925
       0.359
      -0.103
      -0.443
      -0.671
      -0.772
      -0.703
      -0.458
      -0.102
       0.270
       0.602
       0.879
       1.078
       1.146
       1.029
       0.718
       0.268
      -0.216
      -0.593
      -0.728
      -0.555
      -0.108
       0.497
       1.118
       1.642
       2.000
       2.168
       2.135
       1.896
       1.445
       0.812
       0.095
      -0.552
      -0.994
      -1.189
      -1.190
      -1.084
      -0.931
      -0.757
      -0.588
      -0.475
      -0.471
      -0.590
      -0.805
      -1.087
      -1.423
      -1.778
      -2.038
      -2.058
      -1.771
      -1.253
      -0.664
      -0.140
       0.255
       0.491
       0.553
       0.460
       0.288
       0.132
       0.061
       0.103
       0.254
       0.485
       0.730
       0.886
       0.842
       0.542
       0.040
      -0.502
      -0.885
      -0.965
      -0.697
      -0.118
       0.692
       1.602
       2.425
       2.950
       3.024
       2.622
       1.846
       0.893
       0.009
      -0.592
      -0.806
      -0.682
      -0.363
      -0.004
       0.289
       0.451
       0.423
       0.155
      -0.358
      -1.021
      -1.646
      -2.044
      -2.141
      -1.995
      -1.714
      -1.367
      -1.000
      -0.703
      -0.603
      -0.754
      -1.063
      -1.342
      -1.430
      -1.274
      -0.915
      -0.431
       0.092
       0.564
       0.894
       1.023
       0.956
       0.771
       0.588
       0.510
       0.573
       0.728
       0.864
       0.852
       0.613
       0.177
      -0.316
      -0.690
      -0.839
      -0.764
      -0.522
      -0.155
       0.328
       0.893
       1.445
       1.833
       1.910
       1.611
       1.007
       0.300
      -0.265
      -0.535
      -0.517
      -0.343
      -0.160
      -0.045
       0.022
       0.097
       0.195
       0.269
       0.272
       0.230
       0.234
       0.341
       0.512
       0.643
       0.646
       0.488
       0.179
      -0.252
      -0.760
      -1.266
      -1.652
      -1.791
      -1.609
      -1.143
      -0.538
       0.022
       0.405
       0.562
       0.500
       0.262
      -0.066
      -0.372
      -0.572
      -0.649
      -0.642
      -0.594
      -0.537
      -0.491
      -0.474
      -0.487
      -0.514
      -0.530
      -0.511
      -0.425
      -0.249
       0.021
       0.353
       0.698
       1.004
       1.238
       1.398
       1.491
       1.496
       1.340
       0.965
       0.422
      -0.114
      -0.447
      -0.490
      -0.301
      -0.023
       0.221
       0.367
       0.397
       0.303
       0.076
      -0.276
      -0.683
      -1.020
      -1.178
      -1.141
      -0.996
      -0.853
      -0.766
      -0.730
      -0.722
      -0.734
      -0.758
      -0.777
      -0.767
      -0.719
      -0.642
      -0.553
      -0.451
      -0.324
      -0.159
       0.039
       0.253
       0.477
       0.715
       0.971
       1.220
       1.413
       1.497
       1.451
       1.276
       0.992
       0.635
       0.261
      -0.071
      -0.326
      -0.497
      -0.588
      -0.595
      -0.509
      -0.330
      -0.088
       0.161
       0.356
       0.457
       0.459
       0.371
       0.205
      -0.025
      -0.273
      -0.478
      -0.603
      -0.646
      -0.611
      -0.481
      -0.246
       0.049
       0.320
       0.487
       0.519
       0.413
       0.170
      -0.192
      -0.601
      -0.928
      -1.033
      -0.838
      -0.372
       0.253
       0.897
       1.432
       1.761
       1.826
       1.628
       1.233
       0.734
       0.194
      -0.372
      -0.944
      -1.456
      -1.820
      -1.987
      -1.964
      -1.777
      -1.431
      -0.941
      -0.372
       0.151
       0.503
       0.625
       0.552
       0.379
       0.195
       0.040
      -0.079
      -0.146
      -0.127
      -0.014
       0.148
       0.291
       0.384
       0.446
       0.513
       0.591
       0.648
       0.636
       0.523
       0.327
       0.127
       0.021
       0.057
       0.193
       0.336
       0.410
       0.392
       0.293
       0.113
      -0.158
      -0.518
      -0.931
      -1.324
      -1.617
      -1.746
      -1.677
      -1.412
      -0.995
      -0.514
      -0.069
       0.278
       0.528
       0.705
       0.796
       0.760
       0.587
       0.339
       0.119
       0.007
       0.015
       0.103
       0.207
       0.264
       0.240
       0.149
       0.057
       0.054
       0.206
       0.496
       0.817
       1.020
       1.006
       0.777
       0.415
       0.017
      -0.340
      -0.592
      -0.691
      -0.631
      -0.457
      -0.234
      -0.012
       0.182
       0.330
       0.423
       0.476
       0.518
       0.577
       0.665
       0.776
       0.882
       0.938
       0.899
       0.756
       0.537
       0.289
       0.062
      -0.108
      -0.198
      -0.204
      -0.124
       0.044
       0.278
       0.495
       0.574
       0.439
       0.120
      -0.275
      -0.630
      -0.871
      -0.971
      -0.929
      -0.774
      -0.572
      -0.398
      -0.298
      -0.278
      -0.314
      -0.373
      -0.419
      -0.423
      -0.367
      -0.251
      -0.105
       0.012
       0.042
      -0.030
      -0.185
      -0.405
      -0.689
      -1.008
      -1.268
      -1.357
      -1.228
      -0.938
      -0.596
      -0.294
      -0.078
       0.051
       0.125
       0.192
       0.291
       0.426
       0.571
       0.689
       0.740
       0.691
       0.533
       0.299
       0.062
      -0.090
      -0.089
       0.085
       0.383
       0.708
       0.962
       1.078
       1.039
       0.849
       0.530
       0.135
      -0.259
      -0.578
      -0.783
      -0.867
      -0.834
      -0.699
      -0.502
      -0.292
      -0.096
       0.090
       0.285
       0.496
       0.702
       0.853
       0.897
       0.813
       0.636
       0.418
       0.187
      -0.066
      -0.346
      -0.632
      -0.881
      -1.055
      -1.129
      -1.088
      -0.931
      -0.684
      -0.392
      -0.111
       0.107
       0.218
       0.206
       0.097
      -0.052
      -0.183
      -0.275
      -0.333
      -0.376
      -0.406
      -0.404
      -0.332
      -0.168
       0.069
       0.328
       0.556
       0.720
       0.805
       0.809
       0.744
       0.633
       0.497
       0.360
       0.259
       0.253
       0.381
       0.618
       0.859
       0.973
       0.880
       0.619
       0.327
       0.143
       0.110
       0.160
       0.194
       0.181
       0.166
       0.193
       0.245
       0.255
       0.170
      -0.007
      -0.216
      -0.380
      -0.448
      -0.417
      -0.329
      -0.241
      -0.187
      -0.176
      -0.210
      -0.294
      -0.417
      -0.538
      -0.603
      -0.576
      -0.467
      -0.326
      -0.232
      -0.239
      -0.341
      -0.491
      -0.648
      -0.803
      -0.938
      -1.001
      -0.930
      -0.714
      -0.402
      -0.070
       0.220
       0.432
       0.559
       0.611
       0.598
       0.519
       0.376
       0.200
       0.041
      -0.068
      -0.133
      -0.165
      -0.151
      -0.068
       0.074
       0.213
       0.269
       0.205
       0.055
      -0.090
      -0.136
      -0.045
       0.140
       0.332
       0.468
       0.531
       0.512
       0.395
       0.185
      -0.048
      -0.201
      -0.210
      -0.103
       0.023
       0.077
       0.019
      -0.126
      -0.300
      -0.445
      -0.517
      -0.489
      -0.343
      -0.094
       0.191
       0.405
       0.452
       0.302
      -0.004
      -0.371
      -0.677
      -0.807
      -0.691
      -0.337
       0.160
       0.653
       1.000
       1.117
       0.996
       0.692
       0.291
      -0.109
      -0.406
      -0.515
      -0.401
      -0.103
       0.271
       0.599
       0.782
       0.771
       0.572
       0.244
      -0.108
      -0.373
      -0.475
      -0.408
      -0.243
      -0.083
      -0.006
      -0.013
      -0.052
      -0.062
      -0.018
       0.066
       0.150
       0.195
       0.184
       0.139
       0.113
       0.137
       0.185
       0.197
       0.150
       0.083
       0.066
       0.136
       0.265
       0.380
       0.403
       0.294
       0.063
      -0.238
      -0.548
      -0.802
      -0.949
      -0.966
      -0.876
      -0.729
      -0.550
      -0.325
      -0.048
       0.234
       0.442
       0.533
       0.538
       0.516
       0.508
       0.517
       0.523
       0.498
       0.413
       0.249
       0.015
      -0.245
      -0.469
      -0.590
      -0.567
      -0.406
      -0.166
       0.079
       0.290
       0.462
       0.595
       0.667
       0.662
       0.573
       0.402
       0.159
      -0.121
      -0.387
      -0.600
      -0.742
      -0.787
      -0.680
      -0.378
       0.084
       0.566
       0.890
       0.936
       0.688
       0.233
      -0.294
      -0.760
      -1.067
      -1.164
      -1.051
      -0.779
      -0.448
      -0.178
      -0.054
      -0.086
      -0.217
      -0.364
      -0.450
      -0.424
      -0.275
      -0.041
       0.193
       0.321
       0.264
       0.021
      -0.318
      -0.594
      -0.664
      -0.468
      -0.054
       0.463
       0.946
       1.267
       1.324
       1.062
       0.495
      -0.269
      -1.027
      -1.534
      -1.610
      -1.236
      -0.569
       0.147
       0.704
       1.007
       1.075
       0.988
       0.828
       0.648
       0.473
       0.324
       0.224
       0.178
       0.153
       0.098
      -0.011
      -0.147
      -0.250
      -0.273
      -0.211
      -0.095
       0.035
       0.153
       0.255
       0.342
       0.402
       0.402
       0.318
       0.158
      -0.057
      -0.319
      -0.625
      -0.934
      -1.154
      -1.190
      -1.007
      -0.662
      -0.272
       0.053
       0.270
       0.409
       0.516
       0.594
       0.604
       0.523
       0.396
       0.317
       0.362
       0.536
       0.781
       1.014
       1.162
       1.187
       1.102
       0.959
       0.819
       0.715
       0.619
       0.453
       0.134
      -0.340
      -0.856
      -1.238
      -1.368
      -1.258
      -1.001
      -0.680
      -0.337
      -0.018
       0.199
       0.268
       0.223
       0.129
       0.001
      -0.196
      -0.443
      -0.613
      -0.575
      -0.368
      -0.208
      -0.280
      -0.530
      -0.713
      -0.650
      -0.408
      -0.196
      -0.113
      -0.083
      -0.006
       0.104
       0.173
       0.195
       0.231
       0.277
       0.229
       0.016
      -0.260
      -0.362
      -0.114
       0.435
       1.036
       1.410
       1.433
       1.187
       0.874
       0.660
       0.576
       0.525
       0.379
       0.083
      -0.300
      -0.645
      -0.869
      -1.009
      -1.195
      -1.513
      -1.880
      -2.067
      -1.860
      -1.255
      -0.483
       0.152
       0.491
       0.584
       0.583
       0.583
       0.584
       0.561
       0.527
       0.515
       0.517
       0.493
       0.428
       0.367
       0.371
       0.445
       0.519
       0.499
       0.339
       0.092
      -0.124
      -0.242
      -0.338
      -0.537
      -0.800
      -0.836
      -0.375
       0.465
       1.155
       1.216
       0.685
       0.074
      -0.115
       0.192
       0.662
       0.919
       0.846
       0.589
       0.350
       0.182
      -0.020
      -0.391
      -0.955
      -1.609
      -2.186
      -2.501
      -2.354
      -1.600
      -0.316
       1.105
       2.088
       2.200
       1.445
       0.256
      -0.777
      -1.250
      -1.102
      -0.536
       0.158
       0.741
       1.064
       1.043
       0.639
      -0.111
      -1.031
      -1.796
      -2.058
      -1.640
      -0.656
       0.568
       1.654
       2.298
       2.308
       1.645
       0.487
      -0.751
      -1.563
      -1.624
      -0.993
      -0.077
       0.642
       0.892
       0.711
       0.307
      -0.159
      -0.646
      -1.142
      -1.526
      -1.572
      -1.133
      -0.318
       0.535
       1.082
       1.195
       0.974
       0.590
       0.163
      -0.228
      -0.480
      -0.483
      -0.222
       0.159
       0.439
       0.509
       0.477
       0.538
       0.742
       0.920
       0.874
       0.588
       0.234
      -0.009
      -0.086
      -0.038
       0.097
       0.287
       0.439
       0.388
       0.007
      -0.651
      -1.325
      -1.712
      -1.654
      -1.199
      -0.499
       0.309
       1.107
       1.722
       1.906
       1.439
       0.241
      -1.582
      -3.780
      -5.980
      -7.704
      -8.438
      -7.790
      -5.661
      -2.311
       1.738
       5.878
       9.554
      12.336
      13.900
      13.967
      12.292
       8.792
       3.764
      -2.017
      -7.475
     -11.562
     -13.545
     -13.142
     -10.590
      -6.642
      -2.404
       1.060
       3.152
       3.933
       3.941
       3.788
       3.819
       4.024
       4.177
       4.028
       3.410
       2.255
       0.590
      -1.482
      -3.799
      -6.079
      -7.802
      -8.186
      -6.514
      -2.707
       2.297
       6.819
       9.279
       9.019
       6.511
       2.905
      -0.630
      -3.267
      -4.530
      -4.211
      -2.439
       0.196
       2.711
       4.098
       3.789
       1.897
      -0.891
      -3.637
      -5.459
      -5.740
      -4.296
      -1.524
       1.642
       4.086
       5.060
       4.536
       3.095
       1.469
       0.138
      -0.732
      -1.099
      -0.925
      -0.257
       0.616
       1.174
       0.894
      -0.447
      -2.581
      -4.780
      -6.136
      -5.987
      -4.277
      -1.613
       1.080
       3.083
       4.193
       4.595
       4.492
       3.912
       2.837
       1.425
       0.007
      -1.107
      -1.806
      -2.161
      -2.299
      -2.299
      -2.163
      -1.827
      -1.207
      -0.289
       0.766
       1.605
       1.823
       1.214
      -0.050
      -1.465
      -2.466
      -2.713
      -2.174
      -1.010
       0.533
       2.110
       3.264
       3.583
       2.942
       1.594
       0.008
      -1.381
      -2.283
      -2.518
      -2.019
      -0.930
       0.368
       1.401
       1.863
       1.751
       1.300
       0.822
       0.559
       0.625
       1.001
       1.571
       2.167
       2.594
       2.631
       2.068
       0.811
      -1.007
      -3.018
      -4.708
      -5.580
      -5.348
      -4.090
      -2.223
      -0.295
       1.275
       2.300
       2.754
       2.662
       2.116
       1.339
       0.671
       0.385
       0.509
       0.799
       0.923
       0.675
       0.088
      -0.630
      -1.249
      -1.634
      -1.763
      -1.665
      -1.383
      -0.961
      -0.442
       0.129
       0.685
       1.106
       1.256
       1.076
       0.644
       0.090
      -0.514
      -1.141
      -1.647
      -1.732
      -1.168
      -0.111
       0.916
       1.416
       1.305
       0.875
       0.412
      -0.061
      -0.658
      -1.301
      -1.640
      -1.347
      -0.438
       0.729
       1.758
       2.470
       2.842
       2.801
       2.197
       1.004
      -0.476
      -1.700
      -2.221
      -1.990
      -1.357
      -0.775
      -0.480
      -0.426
      -0.490
      -0.653
      -0.956
      -1.297
      -1.373
      -0.894
       0.145
       1.428
       2.529
       3.138
       3.118
       2.472
       1.331
      -0.043
      -1.308
      -2.170
      -2.474
      -2.235
      -1.613
      -0.856
      -0.205
       0.211
       0.402
       0.448
       0.416
       0.334
       0.228
       0.147
       0.124
       0.148
       0.190
       0.264
       0.423
       0.689
       0.985
       1.154
       1.072
       0.736
       0.257
      -0.241
      -0.687
      -1.030
      -1.178
      -1.036
      -0.636
      -0.183
       0.050
      -0.092
      -0.545
      -1.089
      -1.473
      -1.499
      -1.064
      -0.213
       0.804
       1.593
       1.829
       1.465
       0.728
      -0.094
      -0.822
      -1.337
      -1.449
      -0.958
       0.118
       1.423
       2.448
       2.861
       2.643
       1.948
       0.924
      -0.301
      -1.511
      -2.379
      -2.626
      -2.217
      -1.411
      -0.613
      -0.151
      -0.145
      -0.492
      -0.926
      -1.109
      -0.771
       0.124
       1.302
       2.300
       2.751
       2.568
       1.905
       0.948
      -0.178
      -1.324
      -2.199
      -2.445
      -1.881
      -0.689
       0.642
       1.580
       1.832
       1.449
       0.737
       0.060
      -0.331
      -0.369
      -0.122
       0.290
       0.730
       1.019
       0.926
       0.271
      -0.920
      -2.336
      -3.457
      -3.791
      -3.107
      -1.557
       0.398
       2.192
       3.369
       3.720
       3.300
       2.365
       1.246
       0.221
      -0.565
      -1.095
      -1.414
      -1.544
      -1.484
      -1.266
      -0.993
      -0.784
      -0.670
      -0.575
      -0.403
      -0.144
       0.137
       0.376
       0.544
       0.609
       0.534
       0.329
       0.095
      -0.048
      -0.075
      -0.084
      -0.208
      -0.490
      -0.845
      -1.095
      -1.078
      -0.753
      -0.248
       0.222
       0.501
       0.578
       0.537
       0.444
       0.301
       0.094
      -0.149
      -0.338
      -0.366
      -0.178
       0.169
       0.519
       0.673
       0.494
      -0.002
      -0.606
      -0.999
      -0.931
      -0.383
       0.412
       1.111
       1.438
       1.293
       0.760
       0.067
      -0.506
      -0.725
      -0.494
       0.110
       0.871
       1.517
       1.823
       1.699
       1.199
       0.475
      -0.315
      -1.051
      -1.639
      -1.982
      -1.986
      -1.631
      -1.029
      -0.411
      -0.015
       0.049
      -0.137
      -0.369
      -0.469
      -0.371
      -0.103
       0.262
       0.620
       0.835
       0.803
       0.560
       0.292
       0.196
       0.301
       0.454
       0.469
       0.294
       0.027
      -0.203
      -0.349
      -0.434
      -0.462
      -0.370
      -0.085
       0.379
       0.897
       1.296
       1.432
       1.226
       0.693
      -0.023
      -0.675
      -1.043
      -1.096
      -1.026
      -1.068
      -1.274
      -1.464
      -1.403
      -1.013
      -0.402
       0.269
       0.923
       1.545
       2.073
       2.337
       2.125
       1.323
