Origin Time       03/10/2012 10:49:28
Lat.              32.4 N 
Long.             76.3 E 
Depth (Km)         10.0
Magnitude         3.6
 Region           Chamba-DISTT.-HIMACHAL-PRADESH                                   
 Above details taken from IMD 
   
Station Code      CHM
Station Lat.       32.555
Station Long.      76.126
Station Height(m)  952.0
Site Class        A   Vs30 between 700 m/sec to 1400 m/sec * 
Record Time       03.10.2012 10:48:45.129
Sampling Rate     200. Hz
 Record Duration   68.010 Sec.
 Direction         Vert. (Up positive)
Max. Acceleration      3.602 cm/sec**2
     
  * For reference see Site Classification link of website 
     
 Base Line Corrected and Low Pass Filtered (Cut Off at 35 Hz) Time History
 Acceleration data in cm/sec**2
    
[...]
       0.008
      -0.005
      -0.025
      -0.040
      -0.045
      -0.043
      -0.041
      -0.043
      -0.041
      -0.014
       0.046
       0.112
       0.141
       0.104
       0.027
      -0.038
      -0.065
      -0.072
      -0.085
      -0.096
      -0.068
       0.011
       0.106
       0.163
       0.154
       0.098
       0.031
      -0.019
      -0.046
      -0.048
      -0.018
       0.053
       0.138
       0.179
       0.119
      -0.022
      -0.141
      -0.135
      -0.019
       0.070
       0.003
      -0.197
      -0.357
      -0.315
      -0.071
       0.210
       0.335
       0.251
       0.066
      -0.058
      -0.057
       0.013
       0.066
       0.070
       0.050
       0.053
       0.128
       0.292
       0.458
       0.432
       0.074
      -0.497
      -0.932
      -0.930
      -0.508
       0.019
       0.313
       0.275
       0.083
       0.016
       0.215
       0.557
       0.757
       0.613
       0.188
      -0.240
      -0.424
      -0.343
      -0.185
      -0.171
      -0.349
      -0.553
      -0.533
      -0.190
       0.308
       0.644
       0.627
       0.353
       0.102
       0.065
       0.202
       0.312
       0.225
      -0.081
      -0.462
      -0.702
      -0.663
      -0.402
      -0.120
       0.042
       0.123
       0.234
       0.360
       0.387
       0.296
       0.224
       0.257
       0.272
       0.094
      -0.227
      -0.416
      -0.285
       0.032
       0.206
       0.067
      -0.226
      -0.353
      -0.162
       0.173
       0.325
       0.149
      -0.185
      -0.387
      -0.337
      -0.141
       0.044
       0.168
       0.255
       0.311
       0.301
       0.195
      -0.017
      -0.305
      -0.542
      -0.522
      -0.159
       0.368
       0.741
       0.820
       0.728
       0.620
       0.450
       0.055
      -0.577
      -1.191
      -1.420
      -1.053
      -0.220
       0.643
       1.065
       0.868
       0.287
      -0.257
      -0.505
      -0.520
      -0.510
      -0.554
      -0.519
      -0.233
       0.288
       0.796
       0.984
       0.717
       0.140
      -0.413
      -0.623
      -0.377
       0.171
       0.702
       0.940
       0.795
       0.385
      -0.064
      -0.371
      -0.508
      -0.588
      -0.731
      -0.897
      -0.884
      -0.544
       0.009
       0.472
       0.637
       0.566
       0.469
       0.473
       0.542
       0.564
       0.439
       0.135
      -0.245
      -0.468
      -0.359
      -0.031
       0.174
       0.048
      -0.266
      -0.463
      -0.432
      -0.309
      -0.245
      -0.260
      -0.301
      -0.311
      -0.197
       0.137
       0.615
       0.924
       0.731
       0.043
      -0.710
      -0.987
      -0.568
       0.265
       0.966
       1.142
       0.821
       0.338
      -0.007
      -0.205
      -0.482
      -1.017
      -1.677
      -2.015
      -1.586
      -0.361
       1.142
       2.195
       2.397
       1.893
       1.127
       0.422
      -0.172
      -0.704
      -1.116
      -1.256
      -1.050
      -0.608
      -0.154
       0.128
       0.161
      -0.037
      -0.358
      -0.588
      -0.465
       0.134
       1.025
       1.779
       2.008
       1.617
       0.811
      -0.073
      -0.763
      -1.151
      -1.299
      -1.319
      -1.211
      -0.845
      -0.182
       0.529
       0.886
       0.713
       0.224
      -0.232
      -0.495
      -0.601
      -0.561
      -0.305
       0.151
       0.633
       0.952
       1.031
       0.845
       0.382
      -0.234
      -0.658
      -0.583
      -0.102
       0.314
       0.282
      -0.118
      -0.470
      -0.463
      -0.175
       0.036
      -0.131
      -0.610
      -0.947
      -0.656
       0.287
       1.310
       1.714
       1.291
       0.470
      -0.158
      -0.383
      -0.461
      -0.709
      -1.101
      -1.269
      -0.905
      -0.137
       0.555
       0.796
       0.651
       0.464
       0.441
       0.494
       0.450
       0.280
       0.065
      -0.147
      -0.344
      -0.483
      -0.532
      -0.552
      -0.633
      -0.718
      -0.588
      -0.102
       0.580
       1.096
       1.206
       0.958
       0.526
       0.003
      -0.564
      -0.969
      -0.874
      -0.168
       0.751
       1.199
       0.818
      -0.073
      -0.770
      -0.832
      -0.404
       0.046
       0.227
       0.211
       0.191
       0.202
       0.117
      -0.133
      -0.458
      -0.729
      -0.895
      -0.908
      -0.615
       0.100
       1.024
       1.587
       1.318
       0.354
      -0.595
      -0.853
      -0.345
       0.410
       0.789
       0.545
      -0.072
      -0.578
      -0.660
      -0.414
      -0.231
      -0.404
      -0.831
      -1.054
      -0.641
       0.413
       1.585
       2.146
       1.698
       0.502
      -0.707
      -1.264
      -1.012
      -0.312
       0.312
       0.529
       0.362
       0.070
      -0.098
      -0.112
      -0.146
      -0.352
      -0.633
      -0.695
      -0.369
       0.155
       0.499
       0.513
       0.388
       0.314
       0.170
      -0.266
      -0.835
      -0.978
      -0.336
       0.740
       1.467
       1.389
       0.723
      -0.039
      -0.653
      -1.130
      -1.387
      -1.177
      -0.430
       0.499
       1.070
       1.010
       0.463
      -0.228
      -0.782
      -1.032
      -0.904
      -0.448
       0.165
       0.761
       1.268
       1.621
       1.608
       0.957
      -0.291
      -1.549
      -2.011
      -1.364
      -0.161
       0.650
       0.617
       0.161
       0.018
       0.408
       0.827
       0.653
      -0.163
      -1.028
      -1.260
      -0.666
       0.334
       1.062
       1.051
       0.339
      -0.577
      -1.075
      -0.838
      -0.087
       0.563
       0.590
      -0.007
      -0.698
      -0.885
      -0.400
       0.418
       1.039
       1.122
       0.667
      -0.044
      -0.584
      -0.607
      -0.096
       0.556
       0.785
       0.320
      -0.540
      -1.113
      -0.893
      -0.021
       0.775
       0.808
       0.072
      -0.739
      -0.898
      -0.294
       0.565
       1.102
       1.116
       0.760
       0.283
      -0.121
      -0.337
      -0.372
      -0.375
      -0.494
      -0.657
      -0.594
      -0.186
       0.282
       0.345
      -0.129
      -0.739
      -0.931
      -0.541
       0.081
       0.457
       0.447
       0.325
       0.436
       0.798
       1.067
       0.900
       0.313
      -0.329
      -0.665
      -0.628
      -0.410
      -0.230
      -0.188
      -0.255
      -0.323
      -0.256
       0.027
       0.463
       0.811
       0.771
       0.236
      -0.537
      -1.062
      -1.018
      -0.545
      -0.092
       0.037
      -0.038
       0.041
       0.450
       0.990
       1.258
       0.986
       0.236
      -0.633
      -1.181
      -1.131
      -0.537
       0.223
       0.673
       0.570
       0.086
      -0.353
      -0.459
      -0.328
      -0.261
      -0.375
      -0.448
      -0.196
       0.366
       0.884
       0.984
       0.609
       0.035
      -0.382
      -0.466
      -0.270
       0.061
       0.396
       0.610
       0.560
       0.196
      -0.289
      -0.559
      -0.458
      -0.193
      -0.115
      -0.316
      -0.533
      -0.441
      -0.010
       0.449
       0.552
       0.149
      -0.541
      -1.042
      -0.926
      -0.136
       0.922
       1.622
       1.572
       0.895
       0.088
      -0.408
      -0.535
      -0.536
      -0.620
      -0.726
      -0.620
      -0.192
       0.381
       0.763
       0.745
       0.394
      -0.025
      -0.267
      -0.263
      -0.096
       0.116
       0.308
       0.420
       0.324
      -0.104
      -0.782
      -1.336
      -1.358
      -0.800
      -0.043
       0.471
       0.628
       0.631
       0.669
       0.689
       0.491
      -0.001
      -0.580
      -0.852
      -0.526
       0.292
       1.098
       1.331
       0.815
      -0.091
      -0.806
      -0.992
      -0.766
      -0.502
      -0.427
      -0.410
      -0.131
       0.518
       1.216
       1.432
       0.907
      -0.092
      -0.968
      -1.248
      -0.889
      -0.215
       0.362
       0.589
       0.463
       0.165
      -0.077
      -0.146
      -0.100
      -0.078
      -0.132
      -0.165
      -0.055
       0.183
       0.393
       0.433
       0.297
       0.075
      -0.167
      -0.414
      -0.621
      -0.699
      -0.614
      -0.452
      -0.314
      -0.175
       0.061
       0.359
       0.516
       0.386
       0.093
      -0.050
       0.149
       0.571
       0.895
       0.872
       0.504
       0.029
      -0.251
      -0.186
       0.113
       0.339
       0.225
      -0.211
      -0.660
      -0.804
      -0.623
      -0.387
      -0.345
      -0.482
      -0.596
      -0.547
      -0.347
      -0.059
       0.284
       0.652
       0.969
       1.129
       1.057
       0.750
       0.292
      -0.166
      -0.478
      -0.585
      -0.555
      -0.533
      -0.599
      -0.661
      -0.503
      -0.010
       0.632
       1.012
       0.843
       0.249
      -0.304
      -0.408
      -0.052
       0.392
       0.505
       0.178
      -0.345
      -0.706
      -0.740
      -0.552
      -0.365
      -0.297
      -0.280
      -0.149
       0.188
       0.656
       1.039
       1.110
       0.783
       0.178
      -0.438
      -0.795
      -0.755
      -0.378
       0.105
       0.422
       0.434
       0.232
       0.035
      -0.024
      -0.017
      -0.124
      -0.407
      -0.710
      -0.759
      -0.407
       0.202
       0.692
       0.736
       0.332
      -0.200
      -0.498
      -0.435
      -0.138
       0.190
       0.436
       0.593
       0.695
       0.740
       0.656
       0.344
      -0.202
      -0.792
      -1.130
      -1.040
      -0.607
      -0.082
       0.319
       0.505
       0.462
       0.208
      -0.160
      -0.449
      -0.493
      -0.301
      -0.036
       0.180
       0.395
       0.698
       0.976
       0.899
       0.236
      -0.802
      -1.605
      -1.631
      -0.861
       0.206
       1.006
       1.325
       1.288
       1.023
       0.466
      -0.458
      -1.531
      -2.262
      -2.233
      -1.430
      -0.222
       0.909
       1.599
       1.686
       1.223
       0.472
      -0.208
      -0.580
      -0.656
      -0.588
      -0.446
      -0.150
       0.369
       0.982
       1.386
       1.302
       0.679
      -0.238
      -1.046
      -1.423
      -1.324
      -0.960
      -0.569
      -0.210
       0.204
       0.712
       1.207
       1.512
       1.491
       1.087
       0.336
      -0.551
      -1.217
      -1.381
      -1.101
      -0.719
      -0.513
      -0.426
      -0.207
       0.231
       0.665
       0.789
       0.556
       0.245
       0.201
       0.501
       0.907
       1.131
       1.120
       1.018
       0.897
       0.624
       0.053
      -0.739
      -1.495
      -2.020
      -2.277
      -2.252
      -1.834
      -0.923
       0.375
       1.692
       2.554
       2.621
       1.886
       0.697
      -0.446
      -1.205
      -1.563
      -1.673
      -1.589
      -1.211
      -0.508
       0.295
       0.831
       0.907
       0.666
       0.433
       0.419
       0.587
       0.761
       0.826
       0.783
       0.651
       0.378
      -0.095
      -0.685
      -1.158
      -1.292
      -1.071
      -0.668
      -0.286
      -0.008
       0.207
       0.431
       0.683
       0.908
       1.046
       1.111
       1.158
       1.145
       0.869
       0.135
      -0.996
      -2.161
      -2.926
      -3.042
      -2.487
      -1.383
       0.033
       1.380
       2.227
       2.335
       1.828
       1.089
       0.451
      -0.024
      -0.463
      -0.898
      -1.101
      -0.769
       0.110
       1.092
       1.552
       1.160
       0.137
      -0.932
      -1.489
      -1.288
      -0.461
       0.575
       1.301
       1.379
       0.860
       0.154
      -0.284
      -0.289
      -0.052
       0.127
       0.114
      -0.015
      -0.153
      -0.302
      -0.527
      -0.834
      -1.154
      -1.419
      -1.595
      -1.614
      -1.353
      -0.736
       0.153
       1.068
       1.730
       1.945
       1.681
       1.067
       0.332
      -0.299
      -0.688
      -0.784
      -0.556
       0.023
       0.903
       1.874
       2.577
       2.669
       2.019
       0.794
      -0.619
      -1.809
      -2.503
      -2.627
      -2.283
      -1.668
      -0.986
      -0.359
       0.181
       0.599
       0.771
       0.541
      -0.077
      -0.763
      -1.031
      -0.592
       0.374
       1.326
       1.754
       1.516
       0.846
       0.098
      -0.505
      -0.936
      -1.265
      -1.493
      -1.474
      -1.006
      -0.053
       1.115
       2.006
       2.184
       1.533
       0.353
      -0.762
      -1.233
      -0.848
       0.055
       0.792
       0.850
       0.295
      -0.322
      -0.499
      -0.234
       0.048
      -0.018
      -0.351
      -0.532
      -0.247
       0.360
       0.774
       0.529
      -0.380
      -1.436
      -1.935
      -1.477
      -0.241
       1.129
       1.958
       1.943
       1.242
       0.250
      -0.722
      -1.563
      -2.237
      -2.585
      -2.315
      -1.244
       0.440
       2.177
       3.344
       3.602
       2.990
       1.776
       0.303
      -1.040
      -1.839
      -1.802
      -0.976
       0.204
       1.147
       1.452
       1.097
       0.356
      -0.456
      -1.185
      -1.834
      -2.369
      -2.551
      -2.035
      -0.718
       0.969
       2.203
       2.319
       1.323
      -0.088
      -1.049
      -1.147
      -0.600
       0.079
       0.588
       1.011
       1.540
       2.090
       2.256
       1.655
       0.315
      -1.281
      -2.508
      -2.961
      -2.607
      -1.719
      -0.687
       0.165
       0.698
       0.957
       1.079
       1.174
       1.253
       1.242
       1.059
       0.695
       0.226
      -0.224
      -0.532
      -0.626
      -0.547
      -0.476
      -0.617
      -0.973
      -1.263
      -1.150
      -0.591
       0.085
       0.466
       0.412
       0.121
      -0.113
      -0.167
      -0.149
      -0.254
      -0.544
      -0.827
      -0.764
      -0.159
       0.808
       1.671
       2.029
       1.825
       1.297
       0.726
       0.250
      -0.112
      -0.339
      -0.367
      -0.175
       0.112
       0.259
       0.090
      -0.363
      -0.867
      -1.156
      -1.110
      -0.821
      -0.499
      -0.296
      -0.192
      -0.044
       0.212
       0.449
       0.442
       0.112
      -0.361
      -0.666
      -0.615
      -0.286
       0.054
       0.171
       0.045
      -0.123
      -0.098
       0.167
       0.483
       0.599
       0.426
       0.119
      -0.052
       0.082
       0.443
       0.761
       0.799
       0.551
       0.225
       0.027
      -0.031
      -0.103
      -0.313
      -0.609
      -0.796
      -0.714
      -0.395
      -0.053
       0.094
       0.009
      -0.148
      -0.173
       0.004
       0.300
       0.572
       0.733
       0.772
       0.715
       0.587
       0.380
       0.049
      -0.448
      -1.064
      -1.621
      -1.881
      -1.689
      -1.048
      -0.114
       0.848
       1.524
       1.667
       1.231
       0.409
      -0.488
      -1.202
      -1.608
      -1.693
      -1.492
      -1.039
      -0.365
       0.460
       1.253
       1.730
       1.664
       1.099
       0.399
       0.020
       0.165
       0.614
       0.914
       0.747
       0.143
      -0.618
      -1.253
      -1.603
      -1.608
      -1.259
      -0.627
       0.127
       0.823
       1.365
       1.762
       2.048
       2.187
       2.064
       1.574
       0.742
      -0.220
      -0.990
      -1.312
      -1.146
      -0.657
      -0.073
       0.425
       0.719
       0.720
       0.397
      -0.167
      -0.770
      -1.191
      -1.315
      -1.198
      -1.004
      -0.855
      -0.733
      -0.538
      -0.256
      -0.035
      -0.052
      -0.312
      -0.623
      -0.766
      -0.668
      -0.413
      -0.124
       0.123
       0.311
       0.425
       0.429
       0.285
      -0.002
      -0.366
      -0.707
      -0.927
      -0.940
      -0.690
      -0.195
       0.413
       0.943
       1.271
       1.421
       1.504
       1.573
       1.567
       1.403
       1.091
       0.728
       0.398
       0.108
      -0.171
      -0.435
      -0.625
      -0.661
      -0.493
      -0.138
       0.296
       0.647
       0.786
       0.688
       0.409
       0.018
      -0.449
      -0.940
      -1.332
      -1.464
      -1.278
      -0.925
      -0.706
      -0.852
      -1.297
      -1.673
      -1.572
      -0.889
       0.063
       0.800
       1.057
       0.933
       0.667
       0.334
      -0.179
      -0.894
      -1.550
      -1.746
      -1.280
      -0.328
       0.715
       1.517
       1.963
       2.107
       2.055
       1.913
       1.761
       1.635
       1.500
       1.289
       1.001
       0.727
       0.574
       0.546
       0.508
       0.293
      -0.153
      -0.703
      -1.126
      -1.242
      -1.035
      -0.655
      -0.320
      -0.209
      -0.401
      -0.851
      -1.409
      -1.876
      -2.105
      -2.073
      -1.867
      -1.581
      -1.234
      -0.778
      -0.204
       0.357
       0.674
       0.582
       0.154
      -0.302
      -0.437
      -0.108
       0.549
       1.241
       1.708
       1.854
       1.732
       1.462
       1.152
       0.872
       0.669
       0.561
       0.531
       0.514
       0.444
       0.298
       0.112
      -0.052
      -0.154
      -0.182
      -0.148
      -0.084
      -0.036
      -0.053
      -0.162
      -0.350
      -0.568
      -0.756
      -0.877
      -0.924
      -0.888
      -0.734
      -0.440
      -0.055
       0.284
       0.427
       0.315
       0.042
      -0.201
      -0.245
      -0.062
       0.235
       0.486
       0.604
       0.602
       0.536
       0.433
       0.285
       0.076
      -0.190
      -0.483
      -0.761
      -0.971
      -1.077
      -1.074
      -0.989
      -0.852
      -0.669
      -0.423
      -0.120
       0.177
       0.358
       0.333
       0.095
      -0.259
      -0.572
      -0.714
      -0.666
      -0.518
      -0.381
      -0.280
      -0.151
       0.083
       0.408
       0.719
       0.908
       0.955
       0.934
       0.945
       1.018
       1.088
       1.056
       0.886
       0.625
       0.353
       0.120
      -0.055
      -0.146
      -0.120
       0.019
       0.195
       0.296
       0.255
       0.087
      -0.133
      -0.328
      -0.448
      -0.481
      -0.457
      -0.433
      -0.459
      -0.535
      -0.600
      -0.577
      -0.444
      -0.251
      -0.068
       0.090
       0.280
       0.552
       0.853
       1.016
       0.873
       0.408
      -0.183
      -0.597
      -0.625
      -0.292
       0.166
       0.477
       0.513
       0.341
       0.121
      -0.034
      -0.120
      -0.195
