Origin Time       21/8/2014 08:11:17 
Lat.              32.3 N 
Long.             76.5 E 
Depth (Km)         10.0
Magnitude         5.0
 Region           CHAMBA-Kangra-Border-(H.P.)                                      
 Above details taken from IMD 
     
Station Code      CHM
Station Lat.       32.555  N
Station Long.      76.126  E
Station Height(m)  952.0
Site Class        A   Vs30 between 700 m/sec to 1400 m/sec * 
Record Time       21.08.2014 08:08:27.364
Sampling Rate     200. Hz
 Record Duration  101.345 Sec.
 Direction         E-W (E positive)
Max. Acceleration     -8.062 cm/sec**2
     
  * For reference see Site Classification link of website 
     
 Base Line Corrected and Low Pass Filtered (Cut Off at 35 Hz) Time History
 Acceleration data in cm/sec**2
    
[...]
      -0.188
      -0.118
      -0.059
      -0.008
       0.064
       0.199
       0.412
       0.683
       0.956
       1.166
       1.245
       1.146
       0.859
       0.418
      -0.121
      -0.693
      -1.229
      -1.653
      -1.886
      -1.878
      -1.629
      -1.197
      -0.676
      -0.175
       0.204
       0.389
       0.361
       0.175
      -0.064
      -0.252
      -0.349
      -0.381
      -0.404
      -0.450
      -0.501
      -0.499
      -0.384
      -0.138
       0.176
       0.437
       0.537
       0.453
       0.251
       0.031
      -0.142
      -0.257
      -0.327
      -0.355
      -0.333
      -0.266
      -0.194
      -0.172
      -0.244
      -0.410
      -0.618
      -0.781
      -0.810
      -0.653
      -0.319
       0.120
       0.567
       0.946
       1.229
       1.418
       1.500
       1.438
       1.196
       0.792
       0.309
      -0.138
      -0.459
      -0.621
      -0.639
      -0.556
      -0.438
      -0.374
      -0.441
      -0.655
      -0.949
      -1.203
      -1.322
      -1.282
      -1.120
      -0.880
      -0.591
      -0.266
       0.075
       0.405
       0.694
       0.916
       1.056
       1.105
       1.061
       0.934
       0.766
       0.634
       0.623
       0.780
       1.066
       1.375
       1.586
       1.613
       1.419
       1.019
       0.467
      -0.144
      -0.705
      -1.113
      -1.313
      -1.312
      -1.172
      -0.973
      -0.776
      -0.606
      -0.456
      -0.302
      -0.111
       0.146
       0.462
       0.780
       1.009
       1.076
       0.965
       0.714
       0.390
       0.067
      -0.193
      -0.358
      -0.442
      -0.507
      -0.620
      -0.788
      -0.942
      -0.983
      -0.878
      -0.709
      -0.617
      -0.692
      -0.911
      -1.163
      -1.340
      -1.391
      -1.303
      -1.065
      -0.646
      -0.037
       0.701
       1.433
       1.998
       2.275
       2.234
       1.931
       1.482
       1.013
       0.626
       0.362
       0.201
       0.090
      -0.012
      -0.105
      -0.152
      -0.112
       0.045
       0.316
       0.648
       0.945
       1.091
       1.010
       0.706
       0.265
      -0.189
      -0.551
      -0.774
      -0.871
      -0.894
      -0.889
      -0.882
      -0.874
      -0.845
      -0.773
      -0.640
      -0.462
      -0.283
      -0.159
      -0.134
      -0.222
      -0.419
      -0.707
      -1.058
      -1.425
      -1.735
      -1.908
      -1.888
      -1.676
      -1.343
      -0.991
      -0.689
      -0.429
      -0.151
       0.192
       0.581
       0.935
       1.154
       1.192
       1.080
       0.901
       0.733
       0.596
       0.459
       0.294
       0.112
      -0.026
      -0.061
       0.018
       0.154
       0.265
       0.306
       0.309
       0.349
       0.465
       0.616
       0.704
       0.655
       0.466
       0.197
      -0.080
      -0.328
      -0.539
      -0.686
      -0.700
      -0.497
      -0.069
       0.474
       0.952
       1.229
       1.285
       1.183
       0.997
       0.759
       0.477
       0.175
      -0.081
      -0.215
      -0.178
       0.012
       0.282
       0.544
       0.732
       0.809
       0.755
       0.573
       0.306
       0.038
      -0.134
      -0.159
      -0.053
       0.115
       0.286
       0.439
       0.585
       0.719
       0.799
       0.779
       0.658
       0.500
       0.386
       0.348
       0.347
       0.301
       0.159
      -0.070
      -0.330
      -0.571
      -0.779
      -0.965
      -1.119
      -1.199
      -1.161
      -0.990
      -0.710
      -0.352
       0.042
       0.398
       0.608
       0.579
       0.310
      -0.084
      -0.447
      -0.667
      -0.739
      -0.731
      -0.710
      -0.684
      -0.630
      -0.549
      -0.504
      -0.558
      -0.693
      -0.806
      -0.795
      -0.654
      -0.470
      -0.338
      -0.279
      -0.247
      -0.198
      -0.138
      -0.111
      -0.155
      -0.271
      -0.433
      -0.605
      -0.759
      -0.869
      -0.907
      -0.855
      -0.701
      -0.459
      -0.164
       0.125
       0.348
       0.476
       0.539
       0.602
       0.718
       0.882
       1.028
       1.077
       0.981
       0.748
       0.430
       0.086
      -0.236
      -0.493
      -0.650
      -0.685
      -0.615
      -0.484
      -0.332
      -0.161
       0.047
       0.293
       0.545
       0.750
       0.870
       0.904
       0.881
       0.831
       0.761
       0.658
       0.518
       0.374
       0.277
       0.259
       0.304
       0.366
       0.404
       0.401
       0.368
       0.325
       0.285
       0.251
       0.222
       0.214
       0.259
       0.375
       0.539
       0.690
       0.771
       0.758
       0.654
       0.478
       0.257
       0.040
      -0.120
      -0.181
      -0.126
       0.044
       0.315
       0.650
       0.992
       1.268
       1.421
       1.418
       1.253
       0.941
       0.505
      -0.023
      -0.599
      -1.160
      -1.636
      -1.957
      -2.077
      -1.985
      -1.719
      -1.366
      -1.038
      -0.819
      -0.721
      -0.693
      -0.665
      -0.595
      -0.490
      -0.377
      -0.278
      -0.189
      -0.094
       0.016
       0.131
       0.230
       0.301
       0.346
       0.372
       0.375
       0.341
       0.250
       0.095
      -0.116
      -0.355
      -0.593
      -0.822
      -1.053
      -1.292
      -1.497
      -1.592
      -1.520
      -1.294
      -0.994
      -0.721
      -0.536
      -0.437
      -0.372
      -0.276
      -0.110
       0.122
       0.395
       0.671
       0.907
       1.051
       1.062
       0.930
       0.691
       0.407
       0.143
      -0.059
      -0.194
      -0.277
      -0.332
      -0.376
      -0.413
      -0.437
      -0.444
      -0.432
      -0.397
      -0.329
      -0.223
      -0.083
       0.067
       0.199
       0.295
       0.365
       0.445
       0.571
       0.753
       0.962
       1.143
       1.237
       1.215
       1.090
       0.916
       0.756
       0.661
       0.647
       0.686
       0.716
       0.666
       0.508
       0.275
       0.039
      -0.151
      -0.302
      -0.451
      -0.608
      -0.739
      -0.781
      -0.688
      -0.464
      -0.161
       0.145
       0.384
       0.524
       0.578
       0.584
       0.583
       0.604
       0.644
       0.675
       0.662
       0.596
       0.502
       0.416
       0.346
       0.267
       0.147
      -0.029
      -0.250
      -0.487
      -0.703
      -0.869
      -0.979
      -1.055
      -1.130
      -1.227
      -1.326
      -1.369
      -1.293
      -1.086
      -0.807
      -0.548
      -0.366
      -0.239
      -0.090
       0.151
       0.477
       0.805
       1.029
       1.097
       1.032
       0.893
       0.714
       0.508
       0.296
       0.137
       0.088
       0.151
       0.264
       0.339
       0.320
       0.201
       0.024
      -0.150
      -0.262
      -0.279
      -0.198
      -0.045
       0.135
       0.296
       0.412
       0.492
       0.569
       0.658
       0.722
       0.690
       0.530
       0.286
       0.060
      -0.065
      -0.075
      -0.020
       0.029
       0.027
      -0.025
      -0.095
      -0.157
      -0.217
      -0.302
      -0.427
      -0.574
      -0.705
      -0.795
      -0.850
      -0.893
      -0.947
      -1.007
      -1.035
      -0.983
      -0.818
      -0.549
      -0.221
       0.108
       0.399
       0.643
       0.850
       1.027
       1.157
       1.206
       1.146
       0.971
       0.717
       0.439
       0.192
       0.009
      -0.112
      -0.191
      -0.251
      -0.298
      -0.326
      -0.330
      -0.317
      -0.308
      -0.325
      -0.376
      -0.450
      -0.526
      -0.581
      -0.604
      -0.577
      -0.471
      -0.269
       0.008
       0.296
       0.523
       0.643
       0.651
       0.567
       0.426
       0.259
       0.091
      -0.070
      -0.216
      -0.336
      -0.414
      -0.455
      -0.477
      -0.496
      -0.506
      -0.488
      -0.441
      -0.387
      -0.368
      -0.409
      -0.498
      -0.595
      -0.652
      -0.638
      -0.558
      -0.447
      -0.346
      -0.282
      -0.259
      -0.255
      -0.238
      -0.176
      -0.046
       0.159
       0.423
       0.707
       0.953
       1.105
       1.136
       1.057
       0.911
       0.755
       0.639
       0.588
       0.588
       0.595
       0.563
       0.479
       0.367
       0.279
       0.268
       0.359
       0.525
       0.692
       0.776
       0.733
       0.573
       0.342
       0.096
      -0.124
      -0.295
      -0.407
      -0.469
      -0.494
      -0.500
      -0.495
      -0.477
      -0.430
      -0.317
      -0.116
       0.152
       0.415
       0.580
       0.588
       0.441
       0.200
      -0.051
      -0.244
      -0.352
      -0.386
      -0.372
      -0.329
      -0.261
      -0.161
      -0.021
       0.156
       0.342
       0.485
       0.536
       0.484
       0.373
       0.273
       0.236
       0.261
       0.301
       0.294
       0.204
       0.038
      -0.174
      -0.400
      -0.618
      -0.801
      -0.911
      -0.905
      -0.760
      -0.499
      -0.180
       0.131
       0.396
       0.609
       0.771
       0.858
       0.830
       0.667
       0.405
       0.130
      -0.068
      -0.144
      -0.121
      -0.069
      -0.062
      -0.132
      -0.263
      -0.414
      -0.558
      -0.690
      -0.793
      -0.833
      -0.777
      -0.627
      -0.423
      -0.218
      -0.055
       0.034
       0.026
      -0.084
      -0.276
      -0.498
      -0.693
      -0.813
      -0.833
      -0.758
      -0.613
      -0.421
      -0.203
       0.020
       0.208
       0.322
       0.339
       0.276
       0.174
       0.076
       0.013
      -0.006
       0.006
       0.019
       0.015
       0.002
       0.005
       0.041
       0.088
       0.107
       0.080
       0.040
       0.058
       0.188
       0.429
       0.720
       0.986
       1.172
       1.240
       1.157
       0.905
       0.519
       0.091
      -0.275
      -0.522
      -0.646
      -0.664
      -0.583
      -0.419
      -0.224
      -0.081
      -0.043
      -0.089
      -0.141
      -0.145
      -0.104
      -0.047
       0.017
       0.095
       0.183
       0.254
       0.286
       0.279
       0.237
       0.165
       0.080
       0.024
       0.033
       0.109
       0.217
       0.321
       0.408
       0.467
       0.472
       0.383
       0.201
      -0.014
      -0.180
      -0.264
      -0.307
      -0.377
      -0.494
      -0.598
      -0.592
      -0.435
      -0.192
       0.007
       0.087
       0.094
       0.139
       0.260
       0.366
       0.320
       0.075
      -0.268
      -0.549
      -0.683
      -0.699
      -0.690
      -0.711
      -0.739
      -0.728
      -0.674
      -0.648
      -0.725
      -0.888
      -1.001
      -0.914
      -0.615
      -0.256
      -0.023
       0.037
       0.042
       0.130
       0.311
       0.478
       0.549
       0.564
       0.630
       0.782
       0.922
       0.898
       0.656
       0.311
       0.064
       0.023
       0.120
       0.189
       0.143
       0.049
       0.033
       0.137
       0.273
       0.328
       0.261
       0.098
      -0.143
      -0.456
      -0.789
      -1.008
      -0.999
      -0.790
      -0.562
      -0.503
      -0.629
      -0.765
      -0.692
      -0.347
       0.134
       0.552
       0.825
       1.034
       1.290
       1.575
       1.725
       1.568
       1.099
       0.505
       0.040
      -0.157
      -0.136
      -0.051
      -0.019
      -0.032
       0.005
       0.165
       0.426
       0.680
       0.821
       0.811
       0.681
       0.480
       0.232
      -0.051
      -0.325
      -0.510
      -0.553
      -0.501
      -0.468
      -0.525
      -0.604
      -0.547
      -0.249
       0.232
       0.708
       1.006
       1.089
       1.043
       0.955
       0.813
       0.534
       0.085
      -0.436
      -0.844
      -1.008
      -0.934
      -0.732
      -0.519
      -0.380
      -0.378
      -0.568
      -0.944
      -1.392
      -1.720
      -1.765
      -1.504
      -1.046
      -0.543
      -0.093
       0.274
       0.538
       0.638
       0.501
       0.134
      -0.311
      -0.605
      -0.578
      -0.224
       0.320
       0.868
       1.286
       1.531
       1.624
       1.599
       1.470
       1.231
       0.873
       0.409
      -0.122
      -0.652
      -1.101
      -1.419
      -1.595
      -1.659
      -1.654
      -1.622
      -1.593
      -1.550
      -1.417
      -1.104
      -0.569
       0.156
       1.005
       1.927
       2.874
       3.729
       4.256
       4.141
       3.152
       1.336
      -0.897
      -2.901
      -4.083
      -4.188
      -3.368
      -2.015
      -0.487
       1.037
       2.474
       3.653
       4.253
       3.970
       2.797
       1.149
      -0.323
      -1.115
      -1.187
      -0.934
      -0.873
      -1.273
      -2.008
      -2.727
      -3.135
      -3.171
      -2.945
      -2.529
      -1.815
      -0.584
       1.266
       3.524
       5.680
       7.148
       7.511
       6.649
       4.706
       2.003
      -1.026
      -3.902
      -6.198
      -7.627
      -8.062
      -7.500
      -6.017
      -3.775
      -1.062
       1.682
       3.939
       5.265
       5.481
       4.743
       3.429
       1.915
       0.400
      -1.073
      -2.456
      -3.576
      -4.181
      -4.110
      -3.414
      -2.292
      -0.936
       0.568
       2.191
       3.827
       5.228
       6.059
       6.057
       5.164
       3.539
       1.462
      -0.782
      -2.924
      -4.663
      -5.647
      -5.594
      -4.483
      -2.628
      -0.557
       1.246
       2.518
       3.213
       3.356
       2.921
       1.844
       0.192
      -1.712
      -3.355
      -4.281
      -4.303
      -3.519
      -2.160
      -0.446
       1.421
       3.183
       4.530
       5.202
       5.129
       4.448
       3.395
       2.150
       0.770
      -0.737
      -2.263
      -3.528
      -4.191
      -4.078
      -3.315
      -2.260
      -1.267
      -0.486
       0.148
       0.758
       1.356
       1.781
       1.823
       1.396
       0.640
      -0.157
      -0.738
      -1.001
      -0.972
      -0.706
      -0.226
       0.430
       1.137
       1.698
       1.923
       1.720
       1.104
       0.168
      -0.935
      -2.003
      -2.818
      -3.224
      -3.182
      -2.767
      -2.115
      -1.372
      -0.663
      -0.072
       0.357
       0.613
       0.698
       0.644
       0.521
       0.414
       0.372
       0.382
       0.396
       0.384
       0.363
       0.394
       0.566
       0.964
       1.597
       2.331
       2.914
       3.113
       2.855
       2.253
       1.470
       0.571
      -0.485
      -1.695
      -2.876
      -3.707
      -3.933
      -3.553
      -2.802
      -1.974
      -1.248
      -0.643
      -0.115
       0.341
       0.679
       0.880
       1.009
       1.182
       1.451
       1.751
       1.950
       1.966
       1.816
       1.562
       1.236
       0.818
       0.299
      -0.255
      -0.707
      -0.928
      -0.899
      -0.734
      -0.578
      -0.489
      -0.419
      -0.340
      -0.366
      -0.701
      -1.435
      -2.395
      -3.209
      -3.542
      -3.267
      -2.468
      -1.326
      -0.046
       1.156
       2.043
       2.421
       2.231
       1.610
       0.844
       0.243
       0.002
       0.137
       0.510
       0.928
       1.249
       1.437
       1.534
       1.565
       1.452
       1.032
       0.185
      -1.002
      -2.209
      -3.022
      -3.182
      -2.746
      -2.038
      -1.419
      -1.069
      -0.934
      -0.854
      -0.722
      -0.540
      -0.344
      -0.118
       0.203
       0.656
       1.190
       1.694
       2.062
       2.239
       2.204
       1.953
       1.502
       0.926
       0.359
      -0.049
      -0.202
      -0.116
       0.095
       0.288
       0.374
       0.358
       0.318
       0.321
       0.347
       0.289
       0.044
      -0.375
      -0.792
      -0.963
      -0.728
      -0.131
       0.599
       1.182
       1.449
       1.407
       1.181
       0.892
       0.589
       0.269
      -0.065
      -0.377
      -0.614
      -0.715
      -0.624
      -0.330
       0.077
       0.403
       0.448
       0.145
      -0.389
      -0.925
      -1.276
      -1.378
      -1.282
      -1.073
      -0.804
      -0.482
      -0.105
       0.301
       0.658
       0.861
       0.844
       0.637
       0.369
       0.179
       0.112
       0.084
      -0.038
      -0.308
      -0.644
      -0.890
      -0.924
      -0.733
      -0.407
      -0.074
       0.173
       0.302
       0.323
       0.260
       0.135
      -0.028
      -0.224
      -0.483
      -0.831
      -1.221
      -1.511
      -1.551
      -1.299
      -0.853
      -0.342
       0.192
       0.798
       1.506
       2.215
       2.706
       2.777
       2.395
       1.723
       1.005
       0.402
      -0.069
      -0.467
      -0.825
      -1.112
      -1.284
      -1.329
      -1.272
      -1.133
      -0.904
      -0.573
      -0.166
       0.246
       0.568
       0.728
       0.702
       0.515
       0.229
      -0.072
      -0.296
      -0.360
      -0.231
       0.041
       0.333
       0.493
       0.426
       0.155
      -0.184
      -0.412
      -0.411
      -0.195
       0.102
       0.313
       0.333
       0.157
      -0.148
      -0.483
      -0.762
      -0.939
      -1.032
      -1.095
      -1.166
      -1.204
      -1.094
      -0.723
      -0.092
       0.638
       1.221
       1.469
       1.353
       0.997
       0.583
       0.249
       0.051
      -0.015
       0.031
       0.182
       0.433
       0.740
       1.009
       1.116
       0.978
       0.601
       0.084
      -0.417
      -0.753
      -0.827
      -0.626
      -0.227
       0.232
       0.609
       0.808
       0.804
       0.621
       0.304
      -0.086
      -0.478
      -0.787
      -0.940
      -0.892
      -0.658
      -0.316
       0.014
       0.218
       0.244
       0.112
      -0.108
      -0.338
      -0.525
      -0.647
      -0.699
      -0.683
      -0.611
      -0.513
      -0.427
      -0.374
      -0.334
      -0.263
      -0.141
      -0.007
       0.073
       0.073
       0.040
       0.049
       0.135
       0.252
       0.324
       0.310
       0.235
       0.157
       0.110
       0.074
      -0.010
      -0.183
      -0.436
      -0.705
      -0.905
      -0.970
      -0.879
      -0.652
      -0.358
      -0.097
       0.048
       0.068
       0.032
       0.017
       0.029
      -0.011
      -0.182
      -0.475
      -0.770
      -0.930
      -0.898
      -0.729
      -0.517
      -0.298
      -0.034
       0.321
       0.739
       1.114
       1.327
       1.324
       1.115
       0.741
       0.251
      -0.266
      -0.670
      -0.813
      -0.613
      -0.101
