Origin Time       12/7/2009 14:00:32  UTC
Lat.              36.5 N 
Long.             70.9 E 
Depth (Km)        170.0
Magnitude         6.3
 Region           Hindukush-Region-Afganistan                                      
 Above details taken from IMD 
    
Station Code      CHM
Station Lat.       32.555  N
Station Long.      76.126  E
Station Height(m)  952.0
Site Class        A   Vs30 between 700 m/sec to 1400 m/sec * 
Record Time       12.07.2012 19:29:30.149 UTC
Sampling Rate     200. Hz
 Record Duration   65.030 Sec.
 Direction         N-S (N positive)
Max. Acceleration      1.466 cm/sec**2
     
  * For reference see Site Classification link of website 
     
 Base Line Corrected and Low Pass Filtered (Cut Off at 35 Hz) Time History
 Acceleration data in cm/sec**2
    
[...]
      -0.113
      -0.109
      -0.094
      -0.074
      -0.054
      -0.032
      -0.003
       0.037
       0.085
       0.134
       0.176
       0.204
       0.215
       0.210
       0.193
       0.165
       0.126
       0.076
       0.030
       0.002
       0.001
       0.021
       0.048
       0.069
       0.080
       0.083
       0.088
       0.096
       0.104
       0.102
       0.090
       0.068
       0.043
       0.021
       0.004
      -0.011
      -0.027
      -0.045
      -0.058
      -0.060
      -0.048
      -0.023
       0.012
       0.051
       0.088
       0.115
       0.129
       0.126
       0.105
       0.066
       0.017
      -0.032
      -0.067
      -0.079
      -0.065
      -0.035
      -0.001
       0.025
       0.045
       0.066
       0.096
       0.140
       0.195
       0.256
       0.315
       0.365
       0.400
       0.418
       0.419
       0.411
       0.401
       0.396
       0.398
       0.407
       0.417
       0.423
       0.415
       0.389
       0.342
       0.279
       0.209
       0.141
       0.080
       0.026
      -0.023
      -0.066
      -0.099
      -0.119
      -0.129
      -0.135
      -0.142
      -0.155
      -0.178
      -0.209
      -0.242
      -0.264
      -0.263
      -0.234
      -0.179
      -0.112
      -0.048
       0.000
       0.031
       0.045
       0.047
       0.036
       0.013
      -0.025
      -0.074
      -0.126
      -0.171
      -0.199
      -0.206
      -0.190
      -0.152
      -0.096
      -0.032
       0.022
       0.055
       0.065
       0.058
       0.041
       0.021
       0.003
      -0.007
      -0.007
       0.005
       0.023
       0.041
       0.053
       0.058
       0.054
       0.035
      -0.007
      -0.073
      -0.156
      -0.248
      -0.342
      -0.441
      -0.541
      -0.637
      -0.721
      -0.790
      -0.847
      -0.900
      -0.949
      -0.988
      -1.011
      -1.016
      -1.009
      -0.994
      -0.967
      -0.924
      -0.859
      -0.772
      -0.665
      -0.544
      -0.406
      -0.247
      -0.074
       0.093
       0.234
       0.338
       0.416
       0.485
       0.556
       0.626
       0.685
       0.724
       0.741
       0.740
       0.726
       0.702
       0.675
       0.650
       0.628
       0.601
       0.557
       0.490
       0.404
       0.312
       0.227
       0.154
       0.093
       0.043
       0.005
      -0.019
      -0.032
      -0.035
      -0.026
       0.002
       0.053
       0.120
       0.183
       0.219
       0.211
       0.158
       0.078
       0.000
      -0.057
      -0.087
      -0.099
      -0.101
      -0.099
      -0.091
      -0.075
      -0.053
      -0.029
      -0.007
       0.011
       0.022
       0.029
       0.032
       0.033
       0.037
       0.051
       0.081
       0.133
       0.207
       0.297
       0.387
       0.460
       0.507
       0.528
       0.530
       0.521
       0.501
       0.467
       0.416
       0.348
       0.270
       0.190
       0.111
       0.033
      -0.046
      -0.121
      -0.187
      -0.237
      -0.269
      -0.279
      -0.268
      -0.240
      -0.197
      -0.140
      -0.065
       0.029
       0.140
       0.258
       0.373
       0.472
       0.553
       0.616
       0.662
       0.688
       0.691
       0.670
       0.626
       0.565
       0.490
       0.405
       0.308
       0.202
       0.093
      -0.009
      -0.097
      -0.174
      -0.249
      -0.331
      -0.424
      -0.525
      -0.629
      -0.727
      -0.810
      -0.867
      -0.890
      -0.870
      -0.807
      -0.705
      -0.572
      -0.416
      -0.251
      -0.094
       0.042
       0.149
       0.223
       0.265
       0.277
       0.263
       0.231
       0.190
       0.149
       0.115
       0.092
       0.084
       0.092
       0.113
       0.143
       0.171
       0.184
       0.175
       0.146
       0.106
       0.061
       0.013
      -0.041
      -0.100
      -0.152
      -0.183
      -0.184
      -0.159
      -0.124
      -0.096
      -0.082
      -0.078
      -0.077
      -0.077
      -0.079
      -0.090
      -0.111
      -0.144
      -0.188
      -0.240
      -0.291
      -0.333
      -0.359
      -0.367
      -0.355
      -0.322
      -0.268
      -0.194
      -0.106
      -0.012
       0.081
       0.170
       0.251
       0.326
       0.392
       0.448
       0.492
       0.524
       0.549
       0.572
       0.591
       0.601
       0.587
       0.541
       0.459
       0.347
       0.216
       0.071
      -0.083
      -0.238
      -0.386
      -0.515
      -0.616
      -0.681
      -0.709
      -0.705
      -0.677
      -0.632
      -0.577
      -0.521
      -0.474
      -0.446
      -0.442
      -0.461
      -0.495
      -0.533
      -0.564
      -0.579
      -0.571
      -0.536
      -0.479
      -0.411
      -0.346
      -0.300
      -0.283
      -0.302
      -0.361
      -0.451
      -0.555
      -0.656
      -0.743
      -0.812
      -0.865
      -0.900
      -0.912
      -0.892
      -0.838
      -0.757
      -0.653
      -0.524
      -0.363
      -0.173
       0.024
       0.203
       0.343
       0.443
       0.514
       0.567
       0.604
       0.622
       0.625
       0.628
       0.652
       0.704
       0.775
       0.845
       0.899
       0.931
       0.945
       0.950
       0.953
       0.960
       0.971
       0.986
       0.995
       0.984
       0.948
       0.893
       0.825
       0.742
       0.633
       0.490
       0.325
       0.162
       0.024
      -0.083
      -0.164
      -0.228
      -0.272
      -0.288
      -0.270
      -0.225
      -0.164
      -0.097
      -0.026
       0.051
       0.129
       0.194
       0.229
       0.228
       0.201
       0.162
       0.124
       0.089
       0.061
       0.048
       0.060
       0.101
       0.162
       0.226
       0.275
       0.299
       0.301
       0.289
       0.268
       0.235
       0.188
       0.130
       0.071
       0.026
      -0.003
      -0.022
      -0.044
      -0.075
      -0.110
      -0.137
      -0.141
      -0.114
      -0.052
       0.040
       0.150
       0.260
       0.352
       0.410
       0.432
       0.422
       0.389
       0.340
       0.283
       0.219
       0.145
       0.059
      -0.038
      -0.144
      -0.254
      -0.359
      -0.451
      -0.528
      -0.591
      -0.644
      -0.691
      -0.736
      -0.781
      -0.823
      -0.856
      -0.873
      -0.873
      -0.855
      -0.821
      -0.768
      -0.692
      -0.582
      -0.430
      -0.242
      -0.038
       0.154
       0.316
       0.439
       0.526
       0.585
       0.621
       0.635
       0.625
       0.588
       0.525
       0.445
       0.361
       0.288
       0.235
       0.198
       0.167
       0.124
       0.062
      -0.023
      -0.128
      -0.246
      -0.368
      -0.482
      -0.575
      -0.641
      -0.678
      -0.690
      -0.682
      -0.659
      -0.627
      -0.591
      -0.555
      -0.522
      -0.488
      -0.453
      -0.424
      -0.409
      -0.418
      -0.450
      -0.496
      -0.544
      -0.580
      -0.590
      -0.562
      -0.496
      -0.394
      -0.270
      -0.140
      -0.022
       0.072
       0.136
       0.170
       0.175
       0.156
       0.124
       0.091
       0.072
       0.074
       0.097
       0.136
       0.185
       0.243
       0.308
       0.368
       0.408
       0.419
       0.402
       0.365
       0.315
       0.258
       0.194
       0.124
       0.051
      -0.022
      -0.091
      -0.151
      -0.193
      -0.210
      -0.201
      -0.175
      -0.145
      -0.118
      -0.092
      -0.059
      -0.019
       0.021
       0.050
       0.065
       0.077
       0.106
       0.162
       0.240
       0.327
       0.414
       0.499
       0.578
       0.647
       0.694
       0.710
       0.690
       0.636
       0.558
       0.466
       0.370
       0.278
       0.199
       0.140
       0.106
       0.103
       0.130
       0.186
       0.264
       0.351
       0.435
       0.508
       0.563
       0.600
       0.620
       0.625
       0.615
       0.592
       0.561
       0.526
       0.492
       0.459
       0.425
       0.384
       0.333
       0.271
       0.209
       0.157
       0.125
       0.114
       0.124
       0.148
       0.180
       0.209
       0.227
       0.227
       0.200
       0.142
       0.053
      -0.052
      -0.146
      -0.211
      -0.241
      -0.254
      -0.270
      -0.300
      -0.333
      -0.348
      -0.339
      -0.320
      -0.317
      -0.348
      -0.414
      -0.496
      -0.569
      -0.618
      -0.648
      -0.675
      -0.708
      -0.740
      -0.750
      -0.724
      -0.667
      -0.594
      -0.518
      -0.435
      -0.335
      -0.214
      -0.084
       0.036
       0.132
       0.208
       0.278
       0.351
       0.426
       0.492
       0.540
       0.564
       0.569
       0.559
       0.536
       0.495
       0.427
       0.322
       0.170
      -0.029
      -0.268
      -0.523
      -0.768
      -0.983
      -1.157
      -1.290
      -1.381
      -1.432
      -1.441
      -1.407
      -1.333
      -1.223
      -1.084
      -0.927
      -0.767
      -0.625
      -0.520
      -0.456
      -0.422
      -0.398
      -0.363
      -0.314
      -0.256
      -0.195
      -0.130
      -0.055
       0.023
       0.087
       0.124
       0.136
       0.139
       0.144
       0.152
       0.157
       0.161
       0.170
       0.194
       0.232
       0.274
       0.312
       0.352
       0.405
       0.476
       0.550
       0.605
       0.626
       0.621
       0.609
       0.602
       0.598
       0.582
       0.545
       0.491
       0.436
       0.384
       0.324
       0.240
       0.129
       0.002
      -0.121
      -0.229
      -0.320
      -0.399
      -0.467
      -0.513
      -0.520
      -0.481
      -0.408
      -0.321
      -0.239
      -0.170
      -0.114
      -0.067
      -0.027
       0.006
       0.034
       0.055
       0.062
       0.047
      -0.001
      -0.080
      -0.178
      -0.272
      -0.343
      -0.380
      -0.379
      -0.343
      -0.278
      -0.192
      -0.092
       0.018
       0.139
       0.271
       0.409
       0.544
       0.666
       0.767
       0.848
       0.916
       0.978
       1.044
       1.116
       1.190
       1.258
       1.309
       1.342
       1.362
       1.370
       1.361
       1.326
       1.257
       1.154
       1.022
       0.864
       0.682
       0.478
       0.261
       0.050
      -0.132
      -0.269
      -0.356
      -0.399
      -0.406
      -0.390
      -0.365
      -0.347
      -0.346
      -0.367
      -0.406
      -0.454
      -0.497
      -0.526
      -0.538
      -0.534
      -0.521
      -0.508
      -0.501
      -0.503
      -0.502
      -0.484
      -0.440
      -0.371
      -0.287
      -0.200
      -0.114
      -0.034
       0.037
       0.092
       0.132
       0.160
       0.187
       0.212
       0.226
       0.214
       0.164
       0.076
      -0.031
      -0.130
      -0.202
      -0.243
      -0.258
      -0.256
      -0.239
      -0.211
      -0.183
      -0.170
      -0.185
      -0.227
      -0.283
      -0.340
      -0.387
      -0.420
      -0.437
      -0.431
      -0.401
      -0.352
      -0.294
      -0.232
      -0.169
      -0.105
      -0.044
       0.009
       0.052
       0.083
       0.106
       0.117
       0.110
       0.076
       0.020
      -0.047
      -0.107
      -0.151
      -0.181
      -0.199
      -0.205
      -0.193
      -0.158
      -0.102
      -0.034
       0.034
       0.094
       0.146
       0.193
       0.240
       0.282
       0.311
       0.322
       0.312
       0.285
       0.246
       0.199
       0.148
       0.099
       0.063
       0.048
       0.058
       0.082
       0.105
       0.111
       0.096
       0.065
       0.028
      -0.006
      -0.035
      -0.059
      -0.075
      -0.073
      -0.047
       0.003
       0.074
       0.160
       0.250
       0.336
       0.406
       0.448
       0.452
       0.411
       0.323
       0.197
       0.044
      -0.119
      -0.272
      -0.397
      -0.482
      -0.527
      -0.538
      -0.526
      -0.502
      -0.476
      -0.453
      -0.439
      -0.439
      -0.456
      -0.491
      -0.543
      -0.607
      -0.677
      -0.746
      -0.808
      -0.858
      -0.893
      -0.907
      -0.896
      -0.853
      -0.779
      -0.683
      -0.577
      -0.478
      -0.398
      -0.337
      -0.288
      -0.244
      -0.197
      -0.143
      -0.083
      -0.019
       0.043
       0.096
       0.136
       0.164
       0.183
       0.198
       0.211
       0.222
       0.231
       0.240
       0.252
       0.262
       0.262
       0.245
       0.208
       0.156
       0.097
       0.044
      -0.001
      -0.040
      -0.087
      -0.144
      -0.206
      -0.258
      -0.290
      -0.299
      -0.294
      -0.280
      -0.261
      -0.233
      -0.193
      -0.140
      -0.076
      -0.005
       0.073
       0.154
       0.240
       0.330
       0.421
       0.499
       0.548
       0.559
       0.537
       0.500
       0.465
       0.443
       0.435
       0.445
       0.476
       0.533
       0.618
       0.723
       0.833
       0.940
       1.046
       1.152
       1.254
       1.342
       1.406
       1.445
       1.464
       1.466
       1.452
       1.412
       1.333
       1.209
       1.047
       0.865
       0.683
       0.512
       0.359
       0.222
       0.101
      -0.005
      -0.096
      -0.174
      -0.244
      -0.317
      -0.401
      -0.499
      -0.613
      -0.742
      -0.885
      -1.033
      -1.170
      -1.272
      -1.316
      -1.288
      -1.189
      -1.030
      -0.825
      -0.588
      -0.336
      -0.096
       0.106
       0.255
       0.353
       0.415
       0.456
       0.479
       0.480
       0.457
       0.415
       0.361
       0.299
       0.226
       0.147
       0.069
       0.002
      -0.051
      -0.092
      -0.125
      -0.151
      -0.162
      -0.152
      -0.127
      -0.101
      -0.093
      -0.114
      -0.164
      -0.232
      -0.304
      -0.366
      -0.406
      -0.420
      -0.410
      -0.387
      -0.361
      -0.336
      -0.305
      -0.259
      -0.195
      -0.123
      -0.057
      -0.007
       0.028
       0.054
       0.071
       0.068
       0.032
      -0.046
      -0.161
      -0.288
      -0.398
      -0.475
      -0.515
      -0.526
      -0.516
      -0.486
      -0.428
      -0.339
      -0.220
      -0.083
       0.060
       0.196
       0.318
       0.418
       0.490
       0.531
       0.538
       0.513
       0.456
       0.371
       0.263
       0.136
       0.001
      -0.132
      -0.251
      -0.347
      -0.412
      -0.441
      -0.429
      -0.385
      -0.323
      -0.264
      -0.221
      -0.200
      -0.199
      -0.212
      -0.231
      -0.252
      -0.278
      -0.306
      -0.334
      -0.353
      -0.355
      -0.331
      -0.274
      -0.183
      -0.069
       0.047
       0.149
       0.228
       0.288
       0.337
       0.376
       0.403
       0.413
       0.401
       0.365
       0.303
       0.211
       0.095
      -0.025
      -0.125
      -0.182
      -0.190
      -0.157
      -0.100
      -0.033
       0.042
       0.127
       0.221
       0.312
       0.380
       0.409
       0.393
       0.336
       0.258
       0.181
       0.120
       0.083
       0.069
       0.073
       0.092
       0.123
       0.163
       0.211
       0.268
       0.337
       0.415
       0.492
       0.548
       0.563
       0.530
       0.455
       0.354
       0.242
       0.130
       0.023
      -0.077
      -0.168
      -0.243
      -0.294
      -0.319
      -0.328
      -0.329
      -0.330
      -0.331
      -0.336
      -0.348
      -0.376
      -0.422
      -0.478
      -0.536
      -0.586
      -0.624
      -0.647
      -0.652
      -0.638
      -0.611
      -0.585
      -0.565
      -0.547
      -0.519
      -0.476
      -0.413
      -0.330
      -0.226
      -0.104
       0.025
       0.148
       0.251
       0.326
       0.372
       0.395
       0.398
       0.386
       0.362
       0.336
       0.316
       0.302
       0.290
       0.278
       0.268
       0.263
       0.271
       0.288
       0.306
       0.311
       0.300
       0.278
       0.249
       0.212
       0.158
       0.083
      -0.006
      -0.094
      -0.160
      -0.192
      -0.188
      -0.160
      -0.124
      -0.090
      -0.062
      -0.047
      -0.047
      -0.060
      -0.077
      -0.082
      -0.064
      -0.020
       0.042
       0.112
       0.178
       0.233
       0.273
       0.296
       0.302
       0.289
       0.258
       0.211
       0.157
       0.108
       0.070
       0.041
       0.013
      -0.016
      -0.040
      -0.055
      -0.062
      -0.064
      -0.060
      -0.048
      -0.032
      -0.025
      -0.045
      -0.104
      -0.193
      -0.291
      -0.369
      -0.411
      -0.416
      -0.394
      -0.352
      -0.300
      -0.242
      -0.187
      -0.141
      -0.106
      -0.081
      -0.059
      -0.038
      -0.021
      -0.016
      -0.027
      -0.050
      -0.077
      -0.096
      -0.100
      -0.083
      -0.043
       0.020
       0.103
       0.188
       0.259
       0.302
       0.316
       0.309
       0.286
       0.250
       0.205
       0.160
       0.123
       0.096
       0.081
       0.077
       0.084
       0.101
       0.127
       0.159
       0.192
       0.220
       0.240
       0.250
       0.245
       0.226
       0.201
       0.175
       0.149
       0.119
       0.079
       0.029
      -0.026
      -0.086
      -0.150
      -0.217
      -0.280
      -0.325
      -0.340
      -0.325
      -0.295
      -0.267
      -0.253
      -0.248
      -0.239
      -0.214
      -0.167
      -0.106
      -0.038
       0.026
       0.083
       0.133
       0.172
       0.197
       0.203
       0.194
       0.177
       0.157
       0.136
       0.104
       0.052
      -0.027
      -0.125
      -0.231
      -0.334
      -0.430
      -0.516
      -0.588
      -0.643
      -0.677
      -0.688
      -0.678
      -0.651
      -0.614
      -0.566
      -0.503
      -0.416
      -0.299
      -0.154
       0.006
       0.160
       0.286
       0.373
       0.420
       0.437
       0.439
       0.439
       0.438
       0.429
       0.400
       0.343
       0.264
       0.178
       0.099
       0.038
      -0.003
      -0.027
      -0.036
      -0.034
      -0.024
      -0.013
      -0.002
       0.014
       0.041
       0.077
       0.113
       0.139
       0.145
       0.134
       0.109
       0.081
       0.060
       0.052
       0.059
       0.078
       0.100
       0.114
       0.111
       0.092
       0.062
       0.032
       0.006
      -0.017
      -0.043
      -0.077
      -0.122
      -0.171
      -0.212
      -0.232
      -0.223
      -0.185
      -0.126
      -0.063
      -0.012
       0.021
       0.035
       0.037
       0.037
       0.044
       0.072
       0.130
       0.216
       0.318
       0.422
