Origin Time       11/11/2012 18:39:19
Lat.              29.2 N	
Long.             81.5 E	
Depth (Km)         10.0
Magnitude         5.0
 Region           Western-NEPAL                                                    
 Above details taken from IMD 
     
Station Code      CHP
Station Lat.       29.334  N
Station Long.      80.095  E
Station Height(m) 1635.0
Site Class        A   Vs30 between 700 m/sec to 1400 m/sec * 
Record Time       11.11.2012 18:39:47.324
Sampling Rate     200. Hz
 Record Duration   66.485 Sec.
 Direction         E-W (E positive)
Max. Acceleration     -3.735 cm/sec**2
     
  * For reference see Site Classification link of website 
     
 Base Line Corrected and Low Pass Filtered (Cut Off at 35 Hz) Time History
 Acceleration data in cm/sec**2
    
[...]
       0.080
       0.116
       0.157
       0.198
       0.235
       0.255
       0.251
       0.228
       0.192
       0.141
       0.074
       0.001
      -0.065
      -0.121
      -0.164
      -0.187
      -0.191
      -0.187
      -0.185
      -0.186
      -0.182
      -0.164
      -0.125
      -0.061
       0.014
       0.071
       0.091
       0.081
       0.062
       0.050
       0.057
       0.088
       0.138
       0.186
       0.216
       0.219
       0.190
       0.122
       0.020
      -0.096
      -0.203
      -0.289
      -0.350
      -0.381
      -0.379
      -0.350
      -0.299
      -0.230
      -0.150
      -0.075
      -0.014
       0.037
       0.085
       0.130
       0.171
       0.212
       0.256
       0.294
       0.322
       0.340
       0.343
       0.317
       0.256
       0.172
       0.084
       0.004
      -0.053
      -0.080
      -0.082
      -0.081
      -0.095
      -0.128
      -0.168
      -0.200
      -0.205
      -0.170
      -0.103
      -0.032
       0.020
       0.049
       0.060
       0.054
       0.033
       0.006
      -0.011
      -0.010
       0.012
       0.051
       0.087
       0.096
       0.070
       0.027
      -0.006
      -0.017
      -0.002
       0.034
       0.077
       0.102
       0.092
       0.054
       0.000
      -0.052
      -0.080
      -0.066
      -0.014
       0.050
       0.100
       0.118
       0.099
       0.044
      -0.029
      -0.091
      -0.124
      -0.126
      -0.104
      -0.058
       0.005
       0.074
       0.138
       0.194
       0.233
       0.247
       0.232
       0.197
       0.148
       0.087
       0.021
      -0.037
      -0.081
      -0.116
      -0.145
      -0.166
      -0.178
      -0.185
      -0.184
      -0.167
      -0.135
      -0.099
      -0.070
      -0.050
      -0.043
      -0.048
      -0.058
      -0.059
      -0.042
      -0.010
       0.033
       0.086
       0.137
       0.167
       0.166
       0.146
       0.122
       0.097
       0.070
       0.038
      -0.008
      -0.068
      -0.130
      -0.172
      -0.187
      -0.181
      -0.158
      -0.121
      -0.073
      -0.029
       0.002
       0.018
       0.017
       0.006
      -0.004
       0.006
       0.034
       0.063
       0.080
       0.081
       0.062
       0.022
      -0.031
      -0.073
      -0.091
      -0.083
      -0.058
      -0.030
      -0.022
      -0.049
      -0.100
      -0.147
      -0.163
      -0.146
      -0.104
      -0.051
      -0.005
       0.022
       0.031
       0.033
       0.030
       0.020
       0.006
      -0.002
       0.001
       0.011
       0.027
       0.052
       0.083
       0.111
       0.133
       0.153
       0.172
       0.189
       0.206
       0.227
       0.251
       0.266
       0.271
       0.263
       0.230
       0.161
       0.066
      -0.027
      -0.096
      -0.135
      -0.149
      -0.149
      -0.148
      -0.158
      -0.172
      -0.180
      -0.177
      -0.167
      -0.152
      -0.126
      -0.090
      -0.047
       0.001
       0.050
       0.086
       0.094
       0.072
       0.036
      -0.002
      -0.035
      -0.061
      -0.075
      -0.083
      -0.088
      -0.085
      -0.067
      -0.041
      -0.027
      -0.034
      -0.065
      -0.119
      -0.191
      -0.265
      -0.319
      -0.336
      -0.313
      -0.244
      -0.137
      -0.015
       0.091
       0.167
       0.219
       0.253
       0.272
       0.280
       0.282
       0.277
       0.260
       0.231
       0.189
       0.128
       0.049
      -0.032
      -0.093
      -0.126
      -0.137
      -0.132
      -0.111
      -0.078
      -0.031
       0.033
       0.116
       0.205
       0.284
       0.350
       0.405
       0.442
       0.451
       0.434
       0.406
       0.380
       0.362
       0.355
       0.356
       0.354
       0.340
       0.315
       0.286
       0.252
       0.214
       0.184
       0.174
       0.183
       0.197
       0.204
       0.196
       0.168
       0.122
       0.070
       0.018
      -0.040
      -0.110
      -0.184
      -0.245
      -0.283
      -0.302
      -0.306
      -0.300
      -0.295
      -0.295
      -0.294
      -0.293
      -0.297
      -0.315
      -0.340
      -0.358
      -0.364
      -0.362
      -0.350
      -0.326
      -0.298
      -0.269
      -0.236
      -0.197
      -0.165
      -0.154
      -0.169
      -0.200
      -0.239
      -0.281
      -0.316
      -0.342
      -0.362
      -0.383
      -0.399
      -0.408
      -0.422
      -0.453
      -0.498
      -0.540
      -0.563
      -0.553
      -0.500
      -0.405
      -0.285
      -0.162
      -0.047
       0.056
       0.143
       0.210
       0.261
       0.294
       0.301
       0.280
       0.243
       0.210
       0.191
       0.193
       0.220
       0.271
       0.328
       0.372
       0.395
       0.401
       0.394
       0.379
       0.362
       0.344
       0.319
       0.288
       0.270
       0.280
       0.314
       0.355
       0.393
       0.429
       0.462
       0.492
       0.513
       0.511
       0.471
       0.395
       0.306
       0.225
       0.153
       0.084
       0.021
      -0.032
      -0.079
      -0.120
      -0.147
      -0.150
      -0.130
      -0.100
      -0.069
      -0.044
      -0.030
      -0.025
      -0.018
      -0.002
       0.020
       0.045
       0.081
       0.130
       0.185
       0.236
       0.281
       0.315
       0.321
       0.287
       0.219
       0.137
       0.059
      -0.007
      -0.062
      -0.121
      -0.203
      -0.312
      -0.425
      -0.520
      -0.590
      -0.637
      -0.665
      -0.677
      -0.679
      -0.673
      -0.653
      -0.619
      -0.579
      -0.538
      -0.484
      -0.400
      -0.280
      -0.129
       0.045
       0.218
       0.357
       0.442
       0.478
       0.482
       0.468
       0.444
       0.416
       0.380
       0.323
       0.243
       0.153
       0.069
      -0.003
      -0.059
      -0.100
      -0.137
      -0.183
      -0.243
      -0.306
      -0.353
      -0.374
      -0.359
      -0.301
      -0.201
      -0.075
       0.062
       0.202
       0.338
       0.453
       0.535
       0.581
       0.591
       0.564
       0.509
       0.444
       0.383
       0.328
       0.275
       0.217
       0.140
       0.032
      -0.102
      -0.232
      -0.335
      -0.405
      -0.450
      -0.475
      -0.477
      -0.457
      -0.412
      -0.342
      -0.257
      -0.174
      -0.094
      -0.005
       0.100
       0.211
       0.316
       0.400
       0.454
       0.466
       0.436
       0.377
       0.292
       0.178
       0.037
      -0.116
      -0.267
      -0.402
      -0.503
      -0.556
      -0.565
      -0.556
      -0.552
      -0.559
      -0.573
      -0.579
      -0.556
      -0.489
      -0.378
      -0.242
      -0.097
       0.051
       0.191
       0.308
       0.394
       0.455
       0.501
       0.532
       0.549
       0.548
       0.526
       0.484
       0.435
       0.398
       0.381
       0.371
       0.360
       0.345
       0.327
       0.302
       0.273
       0.248
       0.228
       0.210
       0.195
       0.190
       0.195
       0.203
       0.207
       0.203
       0.184
       0.135
       0.053
      -0.053
      -0.171
      -0.290
      -0.395
      -0.469
      -0.509
      -0.524
      -0.519
      -0.486
      -0.423
      -0.332
      -0.216
      -0.078
       0.070
       0.213
       0.345
       0.473
       0.598
       0.716
       0.821
       0.903
       0.945
       0.927
       0.845
       0.708
       0.526
       0.308
       0.070
      -0.159
      -0.356
      -0.509
      -0.612
      -0.674
      -0.713
      -0.753
      -0.798
      -0.835
      -0.853
      -0.849
      -0.820
      -0.764
      -0.686
      -0.594
      -0.489
      -0.364
      -0.226
      -0.095
       0.011
       0.082
       0.117
       0.126
       0.131
       0.157
       0.210
       0.277
       0.345
       0.399
       0.422
       0.394
       0.320
       0.221
       0.122
       0.048
       0.021
       0.052
       0.121
       0.190
       0.230
       0.227
       0.178
       0.085
      -0.036
      -0.166
      -0.289
      -0.398
      -0.483
      -0.544
      -0.595
      -0.660
      -0.748
      -0.845
      -0.924
      -0.948
      -0.887
      -0.732
      -0.506
      -0.247
       0.017
       0.276
       0.520
       0.733
       0.904
       1.025
       1.094
       1.117
       1.112
       1.097
       1.070
       1.022
       0.951
       0.863
       0.756
       0.614
       0.426
       0.196
      -0.066
      -0.340
      -0.597
      -0.818
      -1.003
      -1.155
      -1.267
      -1.315
      -1.283
      -1.173
      -1.000
      -0.793
      -0.588
      -0.407
      -0.242
      -0.073
       0.108
       0.292
       0.464
       0.615
       0.736
       0.822
       0.879
       0.910
       0.909
       0.870
       0.797
       0.705
       0.603
       0.496
       0.394
       0.303
       0.212
       0.106
      -0.019
      -0.154
      -0.287
      -0.399
      -0.471
      -0.490
      -0.461
      -0.401
      -0.322
      -0.235
      -0.149
      -0.065
       0.026
       0.130
       0.232
       0.309
       0.351
       0.366
       0.367
       0.363
       0.358
       0.339
       0.279
       0.159
      -0.008
      -0.190
      -0.357
      -0.494
      -0.594
      -0.659
      -0.703
      -0.740
      -0.771
      -0.797
      -0.823
      -0.855
      -0.882
      -0.883
      -0.846
      -0.763
      -0.636
      -0.482
      -0.337
      -0.235
      -0.190
      -0.191
      -0.217
      -0.236
      -0.216
      -0.137
      -0.014
       0.128
       0.271
       0.409
       0.539
       0.663
       0.787
       0.908
       1.010
       1.075
       1.096
       1.079
       1.030
       0.962
       0.898
       0.853
       0.827
       0.817
       0.826
       0.853
       0.888
       0.910
       0.901
       0.843
       0.721
       0.536
       0.308
       0.063
      -0.190
      -0.443
      -0.681
      -0.884
      -1.036
      -1.133
      -1.176
      -1.178
      -1.162
      -1.131
      -1.072
      -0.965
      -0.815
      -0.644
      -0.472
      -0.318
      -0.192
      -0.093
      -0.012
       0.062
       0.125
       0.173
       0.205
       0.215
       0.190
       0.130
       0.057
      -0.001
      -0.026
      -0.020
       0.003
       0.019
       0.005
      -0.046
      -0.120
      -0.205
      -0.302
      -0.413
      -0.525
      -0.621
      -0.692
      -0.738
      -0.761
      -0.768
      -0.767
      -0.760
      -0.726
      -0.644
      -0.499
      -0.288
      -0.014
       0.308
       0.651
       0.993
       1.317
       1.602
       1.814
       1.932
       1.968
       1.946
       1.883
       1.789
       1.673
       1.535
       1.364
       1.146
       0.874
       0.546
       0.167
      -0.238
      -0.630
      -0.980
      -1.274
      -1.507
      -1.678
      -1.789
      -1.852
      -1.872
      -1.839
      -1.744
      -1.592
      -1.392
      -1.154
      -0.892
      -0.629
      -0.376
      -0.136
       0.094
       0.309
       0.506
       0.685
       0.840
       0.959
       1.038
       1.088
       1.118
       1.122
       1.087
       0.997
       0.839
       0.607
       0.320
       0.019
      -0.260
      -0.494
      -0.670
      -0.774
      -0.804
      -0.767
      -0.669
      -0.516
      -0.321
      -0.112
       0.086
       0.262
       0.405
       0.508
       0.569
       0.599
       0.604
       0.590
       0.572
       0.574
       0.612
       0.674
       0.733
       0.762
       0.737
       0.648
       0.512
       0.365
       0.240
       0.154
       0.107
       0.082
       0.046
      -0.037
      -0.177
      -0.348
      -0.513
      -0.641
      -0.713
      -0.717
      -0.655
      -0.546
      -0.419
      -0.310
      -0.257
      -0.282
      -0.374
      -0.486
      -0.578
      -0.632
      -0.642
      -0.601
      -0.509
      -0.369
      -0.195
      -0.005
       0.174
       0.321
       0.439
       0.544
       0.649
       0.745
       0.824
       0.884
       0.926
       0.946
       0.947
       0.927
       0.868
       0.741
       0.527
       0.230
      -0.127
      -0.501
      -0.844
      -1.112
      -1.298
      -1.421
      -1.507
      -1.573
      -1.637
      -1.703
      -1.755
      -1.755
      -1.673
      -1.497
      -1.233
      -0.896
      -0.523
      -0.151
       0.194
       0.501
       0.769
       1.001
       1.216
       1.431
       1.646
       1.840
       1.992
       2.092
       2.136
       2.122
       2.057
       1.945
       1.780
       1.547
       1.233
       0.837
       0.360
      -0.180
      -0.744
      -1.276
      -1.728
      -2.076
      -2.314
      -2.452
      -2.513
      -2.520
      -2.472
      -2.354
      -2.159
      -1.883
      -1.525
      -1.080
      -0.566
      -0.014
       0.542
       1.076
       1.564
       1.983
       2.321
       2.578
       2.756
       2.860
       2.897
       2.871
       2.775
       2.597
       2.337
       2.000
       1.577
       1.052
       0.426
      -0.273
      -1.001
      -1.710
      -2.347
      -2.875
      -3.277
      -3.554
      -3.707
      -3.735
      -3.647
      -3.453
      -3.148
      -2.720
      -2.172
      -1.534
      -0.850
      -0.170
       0.464
       1.031
       1.530
       1.965
       2.320
       2.569
       2.701
       2.717
       2.625
       2.433
       2.162
       1.836
       1.474
       1.093
       0.713
       0.358
       0.043
      -0.217
      -0.408
      -0.524
      -0.580
      -0.610
      -0.641
      -0.688
      -0.757
      -0.846
      -0.937
      -1.005
      -1.032
      -1.007
      -0.923
      -0.782
      -0.602
      -0.412
      -0.241
      -0.108
      -0.024
       0.019
       0.059
       0.135
       0.259
       0.412
       0.554
       0.652
       0.683
       0.654
       0.595
       0.535
       0.486
       0.442
       0.403
       0.372
       0.350
       0.339
       0.340
       0.349
       0.348
       0.309
       0.223
       0.092
      -0.075
      -0.274
      -0.498
      -0.745
      -1.007
      -1.258
      -1.450
      -1.539
      -1.513
      -1.388
      -1.186
      -0.925
      -0.620
      -0.285
       0.074
       0.451
       0.824
       1.167
       1.454
       1.666
       1.783
       1.804
       1.744
       1.623
       1.445
       1.213
       0.942
       0.656
       0.374
       0.105
      -0.147
      -0.387
      -0.626
      -0.869
      -1.098
      -1.286
      -1.410
      -1.466
      -1.458
      -1.405
      -1.324
      -1.217
      -1.061
      -0.832
      -0.536
      -0.202
       0.140
       0.470
       0.772
       1.048
       1.303
       1.529
       1.695
       1.761
       1.706
       1.533
       1.262
       0.924
       0.552
       0.175
      -0.191
      -0.533
      -0.830
      -1.065
      -1.235
      -1.344
      -1.392
      -1.382
      -1.324
      -1.221
      -1.071
      -0.873
      -0.640
      -0.391
      -0.135
       0.119
       0.356
       0.565
       0.745
       0.897
       1.015
       1.089
       1.116
       1.091
       1.012
       0.883
       0.720
       0.532
       0.317
       0.081
      -0.152
      -0.349
      -0.489
      -0.562
      -0.559
      -0.486
      -0.363
      -0.214
      -0.060
       0.076
       0.170
       0.207
       0.191
       0.131
       0.033
      -0.099
      -0.256
      -0.429
      -0.613
      -0.801
      -0.974
      -1.115
      -1.218
      -1.284
      -1.317
      -1.318
      -1.290
      -1.213
      -1.057
      -0.807
      -0.479
      -0.106
       0.282
       0.666
       1.030
       1.361
       1.644
       1.854
       1.963
       1.963
       1.868
       1.711
       1.517
       1.314
       1.117
       0.918
       0.685
       0.399
       0.069
      -0.275
      -0.600
      -0.880
      -1.095
      -1.233
      -1.300
      -1.306
      -1.265
      -1.196
      -1.114
      -1.018
      -0.886
      -0.703
      -0.483
      -0.254
      -0.041
       0.142
       0.295
       0.428
       0.550
       0.655
       0.712
       0.700
       0.618
       0.490
       0.348
       0.221
       0.126
       0.052
      -0.025
      -0.111
      -0.188
      -0.234
      -0.250
      -0.263
      -0.302
      -0.385
      -0.497
      -0.590
      -0.601
      -0.504
      -0.324
      -0.107
       0.103
       0.282
       0.416
       0.506
       0.558
       0.570
       0.542
       0.485
       0.429
       0.399
       0.397
       0.411
       0.419
       0.396
       0.327
       0.224
       0.123
       0.048
      -0.010
      -0.085
      -0.213
      -0.411
      -0.666
      -0.933
      -1.158
      -1.305
      -1.370
      -1.358
      -1.273
      -1.123
      -0.921
      -0.672
      -0.376
      -0.037
       0.325
       0.694
       1.050
       1.369
       1.616
       1.764
       1.804
       1.732
       1.560
       1.316
       1.048
       0.791
       0.563
       0.362
       0.178
      -0.004
      -0.190
      -0.364
      -0.491
      -0.549
      -0.551
      -0.533
      -0.535
      -0.598
      -0.737
      -0.922
      -1.095
      -1.202
      -1.221
      -1.156
      -1.024
      -0.841
      -0.622
      -0.368
      -0.089
       0.187
       0.416
       0.569
       0.642
       0.647
       0.604
       0.538
       0.471
       0.406
       0.335
       0.252
       0.166
       0.090
       0.031
       0.003
       0.019
       0.080
       0.175
       0.288
       0.402
       0.487
       0.513
       0.462
       0.345
       0.183
       0.006
      -0.155
      -0.277
      -0.364
      -0.433
      -0.488
      -0.517
      -0.510
      -0.470
      -0.408
      -0.340
      -0.287
      -0.265
      -0.271
      -0.284
      -0.290
      -0.282
      -0.252
      -0.202
      -0.142
      -0.087
      -0.040
      -0.005
       0.002
      -0.048
      -0.166
      -0.333
      -0.514
      -0.665
      -0.746
      -0.737
      -0.645
      -0.490
      -0.288
      -0.055
       0.178
       0.369
       0.491
       0.543
       0.541
       0.506
       0.462
       0.426
       0.398
       0.377
       0.376
       0.414
       0.495
       0.599
       0.698
       0.768
       0.790
       0.760
       0.690
       0.602
       0.508
       0.411
       0.322
       0.250
       0.187
       0.115
       0.016
      -0.117
      -0.285
      -0.477
      -0.668
      -0.826
      -0.934
      -0.988
      -0.984
      -0.923
      -0.821
      -0.696
      -0.551
      -0.382
      -0.191
       0.002
       0.173
       0.297
       0.359
       0.368
       0.361
       0.382
       0.442
       0.518
       0.578
       0.597
       0.566
       0.488
       0.375
       0.238
       0.079
      -0.091
      -0.241
      -0.339
      -0.379
      -0.380
      -0.372
      -0.383
