Origin Time       18/9/2011 12:40:47	 UTC
Lat.              27.6 N	
Long.             88.2 E	
Depth (Km)         10.0
Magnitude         6.8
 Region           India(Sikkim)-Nepar-Border                                       
 Above details taken from IMD 
    
Station Code      CHP
Station Lat.       29.334  N
Station Long.      80.095  E
Station Height(m) 1635.0
Site Class        A   Vs30 between 700 m/sec to 1400 m/sec * 
Record Time       18.09.2011 12:43:44.639 UTC
Sampling Rate     200. Hz
 Record Duration   67.160 Sec.
 Direction         N-S (N positive)
Max. Acceleration      2.034 cm/sec**2
     
  * For reference see Site Classification link of website 
     
 Base Line Corrected and Low Pass Filtered (Cut Off at 35 Hz) Time History
 Acceleration data in cm/sec**2
    
[...]
      -0.043
      -0.066
      -0.095
      -0.125
      -0.149
      -0.164
      -0.170
      -0.170
      -0.172
      -0.173
      -0.162
      -0.132
      -0.090
      -0.052
      -0.026
      -0.018
      -0.035
      -0.088
      -0.180
      -0.311
      -0.472
      -0.641
      -0.786
      -0.880
      -0.922
      -0.920
      -0.881
      -0.807
      -0.707
      -0.585
      -0.436
      -0.257
      -0.048
       0.183
       0.426
       0.667
       0.890
       1.081
       1.241
       1.371
       1.460
       1.498
       1.490
       1.443
       1.357
       1.225
       1.051
       0.855
       0.659
       0.475
       0.303
       0.129
      -0.065
      -0.281
      -0.500
      -0.698
      -0.862
      -0.992
      -1.083
      -1.125
      -1.114
      -1.060
      -0.979
      -0.889
      -0.805
      -0.730
      -0.655
      -0.567
      -0.470
      -0.375
      -0.283
      -0.189
      -0.092
      -0.001
       0.072
       0.122
       0.148
       0.159
       0.170
       0.195
       0.234
       0.275
       0.312
       0.349
       0.385
       0.411
       0.415
       0.387
       0.320
       0.214
       0.087
      -0.040
      -0.164
      -0.291
      -0.424
      -0.557
      -0.689
      -0.822
      -0.955
      -1.073
      -1.165
      -1.218
      -1.219
      -1.157
      -1.036
      -0.867
      -0.662
      -0.428
      -0.176
       0.079
       0.325
       0.559
       0.774
       0.958
       1.099
       1.194
       1.241
       1.238
       1.195
       1.130
       1.049
       0.943
       0.804
       0.640
       0.462
       0.273
       0.075
      -0.124
      -0.320
      -0.509
      -0.684
      -0.838
      -0.969
      -1.081
      -1.162
      -1.185
      -1.133
      -1.011
      -0.840
      -0.638
      -0.421
      -0.200
       0.024
       0.249
       0.465
       0.656
       0.808
       0.915
       0.969
       0.963
       0.897
       0.792
       0.667
       0.535
       0.402
       0.275
       0.153
       0.034
      -0.080
      -0.181
      -0.265
      -0.335
      -0.386
      -0.407
      -0.387
      -0.332
      -0.254
      -0.161
      -0.063
       0.028
       0.104
       0.164
       0.204
       0.213
       0.185
       0.125
       0.045
      -0.043
      -0.121
      -0.164
      -0.157
      -0.106
      -0.029
       0.063
       0.170
       0.293
       0.431
       0.575
       0.705
       0.794
       0.828
       0.811
       0.751
       0.648
       0.501
       0.318
       0.115
      -0.097
      -0.313
      -0.518
      -0.698
      -0.838
      -0.931
      -0.972
      -0.968
      -0.939
      -0.899
      -0.844
      -0.756
      -0.623
      -0.448
      -0.240
      -0.013
       0.214
       0.426
       0.619
       0.792
       0.933
       1.029
       1.083
       1.105
       1.102
       1.070
       1.000
       0.883
       0.713
       0.494
       0.244
      -0.016
      -0.275
      -0.525
      -0.748
      -0.919
      -1.028
      -1.079
      -1.080
      -1.042
      -0.974
      -0.882
      -0.759
      -0.605
      -0.428
      -0.250
      -0.076
       0.095
       0.263
       0.419
       0.549
       0.642
       0.683
       0.663
       0.586
       0.475
       0.349
       0.225
       0.116
       0.028
      -0.045
      -0.115
      -0.178
      -0.221
      -0.240
      -0.247
      -0.252
      -0.261
      -0.270
      -0.274
      -0.265
      -0.243
      -0.220
      -0.212
      -0.214
      -0.214
      -0.207
      -0.207
      -0.224
      -0.255
      -0.284
      -0.296
      -0.282
      -0.249
      -0.215
      -0.194
      -0.179
      -0.153
      -0.109
      -0.057
       0.001
       0.071
       0.161
       0.261
       0.355
       0.430
       0.479
       0.497
       0.489
       0.456
       0.392
       0.289
       0.153
       0.005
      -0.135
      -0.263
      -0.383
      -0.490
      -0.578
      -0.642
      -0.678
      -0.682
      -0.659
      -0.611
      -0.537
      -0.436
      -0.316
      -0.196
      -0.077
       0.054
       0.208
       0.378
       0.543
       0.688
       0.808
       0.904
       0.976
       1.023
       1.029
       0.977
       0.864
       0.710
       0.539
       0.367
       0.200
       0.047
      -0.085
      -0.193
      -0.272
      -0.318
      -0.337
      -0.346
      -0.360
      -0.380
      -0.396
      -0.401
      -0.391
      -0.367
      -0.339
      -0.318
      -0.302
      -0.283
      -0.253
      -0.219
      -0.186
      -0.149
      -0.105
      -0.058
      -0.013
       0.032
       0.082
       0.133
       0.173
       0.192
       0.177
       0.119
       0.025
      -0.085
      -0.185
      -0.263
      -0.314
      -0.329
      -0.303
      -0.238
      -0.142
      -0.020
       0.124
       0.288
       0.466
       0.651
       0.825
       0.970
       1.076
       1.149
       1.191
       1.192
       1.134
       1.016
       0.845
       0.634
       0.393
       0.136
      -0.126
      -0.380
      -0.611
      -0.800
      -0.930
      -0.999
      -1.013
      -0.975
      -0.884
      -0.748
      -0.578
      -0.390
      -0.198
      -0.015
       0.154
       0.314
       0.466
       0.599
       0.700
       0.766
       0.801
       0.802
       0.756
       0.648
       0.477
       0.257
       0.014
      -0.226
      -0.445
      -0.635
      -0.790
      -0.896
      -0.938
      -0.914
      -0.840
      -0.735
      -0.610
      -0.476
      -0.340
      -0.207
      -0.075
       0.048
       0.155
       0.242
       0.310
       0.350
       0.353
       0.323
       0.273
       0.216
       0.162
       0.119
       0.088
       0.062
       0.030
      -0.012
      -0.057
      -0.101
      -0.139
      -0.164
      -0.160
      -0.121
      -0.050
       0.045
       0.151
       0.250
       0.324
       0.368
       0.388
       0.384
       0.351
       0.278
       0.168
       0.029
      -0.123
      -0.265
      -0.383
      -0.482
      -0.580
      -0.684
      -0.783
      -0.858
      -0.901
      -0.908
      -0.874
      -0.798
      -0.677
      -0.510
      -0.307
      -0.088
       0.117
       0.293
       0.441
       0.572
       0.685
       0.775
       0.829
       0.834
       0.782
       0.674
       0.527
       0.354
       0.167
      -0.020
      -0.188
      -0.326
      -0.434
      -0.518
      -0.579
      -0.614
      -0.622
      -0.605
      -0.570
      -0.524
      -0.474
      -0.415
      -0.333
      -0.222
      -0.094
       0.032
       0.143
       0.230
       0.291
       0.326
       0.339
       0.335
       0.316
       0.292
       0.277
       0.277
       0.280
       0.276
       0.262
       0.247
       0.234
       0.219
       0.196
       0.161
       0.115
       0.065
       0.020
      -0.017
      -0.056
      -0.099
      -0.131
      -0.138
      -0.114
      -0.066
       0.001
       0.081
       0.165
       0.240
       0.298
       0.335
       0.345
       0.329
       0.295
       0.250
       0.190
       0.107
       0.002
      -0.118
      -0.244
      -0.367
      -0.477
      -0.572
      -0.656
      -0.734
      -0.799
      -0.842
      -0.861
      -0.856
      -0.823
      -0.755
      -0.651
      -0.511
      -0.337
      -0.135
       0.083
       0.306
       0.533
       0.768
       1.003
       1.213
       1.372
       1.457
       1.460
       1.389
       1.264
       1.110
       0.934
       0.743
       0.549
       0.365
       0.202
       0.065
      -0.038
      -0.099
      -0.127
      -0.141
      -0.157
      -0.178
      -0.200
      -0.222
      -0.240
      -0.259
      -0.286
      -0.326
      -0.369
      -0.400
      -0.420
      -0.440
      -0.468
      -0.501
      -0.539
      -0.583
      -0.634
      -0.689
      -0.743
      -0.787
      -0.802
      -0.772
      -0.689
      -0.559
      -0.393
      -0.202
       0.002
       0.206
       0.406
       0.599
       0.776
       0.922
       1.029
       1.100
       1.141
       1.158
       1.157
       1.137
       1.096
       1.029
       0.941
       0.840
       0.727
       0.590
       0.424
       0.235
       0.027
      -0.193
      -0.412
      -0.610
      -0.773
      -0.899
      -0.998
      -1.072
      -1.125
      -1.150
      -1.140
      -1.090
      -1.007
      -0.908
      -0.807
      -0.708
      -0.618
      -0.541
      -0.479
      -0.421
      -0.354
      -0.268
      -0.162
      -0.037
       0.097
       0.224
       0.337
       0.435
       0.517
       0.578
       0.620
       0.653
       0.687
       0.722
       0.756
       0.784
       0.796
       0.784
       0.745
       0.695
       0.645
       0.598
       0.547
       0.484
       0.397
       0.275
       0.119
      -0.050
      -0.209
      -0.343
      -0.447
      -0.522
      -0.578
      -0.633
      -0.692
      -0.744
      -0.771
      -0.763
      -0.721
      -0.651
      -0.561
      -0.453
      -0.324
      -0.165
       0.017
       0.195
       0.343
       0.456
       0.545
       0.618
       0.676
       0.718
       0.739
       0.730
       0.684
       0.605
       0.496
       0.361
       0.210
       0.056
      -0.094
      -0.245
      -0.400
      -0.550
      -0.678
      -0.780
      -0.860
      -0.923
      -0.968
      -0.989
      -0.973
      -0.903
      -0.771
      -0.589
      -0.378
      -0.152
       0.069
       0.260
       0.401
       0.485
       0.521
       0.519
       0.483
       0.424
       0.349
       0.264
       0.186
       0.138
       0.128
       0.137
       0.126
       0.072
      -0.024
      -0.150
      -0.293
      -0.441
      -0.583
      -0.708
      -0.802
      -0.847
      -0.838
      -0.790
      -0.730
      -0.675
      -0.631
      -0.595
      -0.560
      -0.506
      -0.411
      -0.265
      -0.074
       0.153
       0.400
       0.644
       0.861
       1.033
       1.146
       1.185
       1.144
       1.038
       0.894
       0.734
       0.563
       0.380
       0.184
      -0.022
      -0.231
      -0.428
      -0.599
      -0.738
      -0.840
      -0.887
      -0.861
      -0.764
      -0.626
      -0.476
      -0.327
      -0.173
      -0.003
       0.190
       0.402
       0.618
       0.824
       1.019
       1.206
       1.371
       1.491
       1.550
       1.550
       1.501
       1.406
       1.268
       1.095
       0.896
       0.682
       0.472
       0.282
       0.110
      -0.052
      -0.200
      -0.311
      -0.372
      -0.382
      -0.353
      -0.301
      -0.238
      -0.175
      -0.117
      -0.060
      -0.011
       0.015
       0.016
       0.004
      -0.005
      -0.006
       0.001
       0.011
       0.016
       0.007
      -0.019
      -0.056
      -0.109
      -0.193
      -0.319
      -0.482
      -0.664
      -0.842
      -0.993
      -1.092
      -1.129
      -1.106
      -1.028
      -0.893
      -0.709
      -0.498
      -0.282
      -0.074
       0.118
       0.290
       0.441
       0.572
       0.681
       0.757
       0.798
       0.805
       0.775
       0.699
       0.570
       0.397
       0.196
      -0.014
      -0.215
      -0.389
      -0.521
      -0.609
      -0.655
      -0.662
      -0.641
      -0.608
      -0.567
      -0.505
      -0.405
      -0.266
      -0.098
       0.080
       0.242
       0.363
       0.431
       0.454
       0.450
       0.434
       0.410
       0.378
       0.330
       0.255
       0.154
       0.043
      -0.057
      -0.141
      -0.207
      -0.249
      -0.262
      -0.250
      -0.229
      -0.207
      -0.186
      -0.167
      -0.149
      -0.129
      -0.108
      -0.101
      -0.121
      -0.178
      -0.275
      -0.415
      -0.594
      -0.784
      -0.952
      -1.064
      -1.102
      -1.054
      -0.923
      -0.727
      -0.484
      -0.205
       0.098
       0.401
       0.676
       0.906
       1.088
       1.224
       1.311
       1.349
       1.339
       1.281
       1.179
       1.046
       0.896
       0.725
       0.525
       0.299
       0.056
      -0.195
      -0.450
      -0.699
      -0.923
      -1.103
      -1.223
      -1.274
      -1.260
      -1.197
      -1.102
      -0.981
      -0.836
      -0.674
      -0.502
      -0.318
      -0.119
       0.087
       0.283
       0.459
       0.614
       0.752
       0.870
       0.965
       1.029
       1.047
       1.008
       0.914
       0.781
       0.619
       0.432
       0.233
       0.039
      -0.140
      -0.303
      -0.451
      -0.587
      -0.713
      -0.833
      -0.934
      -1.000
      -1.024
      -1.014
      -0.978
      -0.917
      -0.831
      -0.725
      -0.605
      -0.480
      -0.359
      -0.248
      -0.143
      -0.031
       0.091
       0.216
       0.336
       0.452
       0.562
       0.655
       0.720
       0.749
       0.742
       0.703
       0.644
       0.582
       0.523
       0.463
       0.395
       0.313
       0.208
       0.069
      -0.095
      -0.263
      -0.413
      -0.540
      -0.648
      -0.743
      -0.822
      -0.877
      -0.897
      -0.879
      -0.836
      -0.783
      -0.717
      -0.620
      -0.475
      -0.279
      -0.034
       0.258
       0.586
       0.926
       1.245
       1.514
       1.719
       1.858
       1.947
       2.005
       2.034
       2.018
       1.948
       1.827
       1.661
       1.447
       1.178
       0.859
       0.505
       0.137
      -0.224
      -0.557
      -0.848
      -1.093
      -1.284
      -1.410
      -1.473
      -1.485
      -1.464
      -1.419
      -1.349
      -1.253
      -1.127
      -0.962
      -0.759
      -0.528
      -0.284
      -0.039
       0.195
       0.404
       0.573
       0.700
       0.781
       0.814
       0.797
       0.742
       0.662
       0.567
       0.465
       0.362
       0.253
       0.120
      -0.043
      -0.220
      -0.377
      -0.483
      -0.525
      -0.506
      -0.438
      -0.339
      -0.220
      -0.082
       0.073
       0.240
       0.413
       0.597
       0.796
       1.000
       1.188
       1.336
       1.424
       1.436
       1.363
       1.205
       0.970
       0.662
       0.291
      -0.114
      -0.518
      -0.889
      -1.198
      -1.425
      -1.562
      -1.616
      -1.602
      -1.523
      -1.370
      -1.141
      -0.850
      -0.520
      -0.183
       0.134
       0.416
       0.657
       0.854
       1.000
       1.087
       1.119
       1.106
       1.049
       0.946
       0.801
       0.623
       0.426
       0.217
       0.000
      -0.222
      -0.445
      -0.664
      -0.862
      -1.027
      -1.158
      -1.258
      -1.320
      -1.329
      -1.273
      -1.154
      -0.985
      -0.792
      -0.606
      -0.452
      -0.331
      -0.228
      -0.133
      -0.043
       0.038
       0.103
       0.150
       0.179
       0.200
       0.226
       0.261
       0.300
       0.340
       0.373
       0.383
       0.353
       0.282
       0.192
       0.111
       0.060
       0.049
       0.065
       0.085
       0.086
       0.065
       0.036
       0.019
       0.019
       0.031
       0.048
       0.060
       0.055
       0.030
      -0.015
      -0.080
      -0.163
      -0.249
      -0.315
      -0.345
      -0.338
      -0.302
      -0.245
      -0.172
      -0.094
      -0.023
       0.030
       0.060
       0.070
       0.075
       0.092
       0.127
       0.173
       0.223
       0.275
       0.338
       0.415
       0.506
       0.608
       0.704
       0.777
       0.809
       0.791
       0.721
       0.600
       0.446
       0.285
       0.133
      -0.005
      -0.134
      -0.257
      -0.379
      -0.509
      -0.650
      -0.795
      -0.925
      -1.027
      -1.090
      -1.110
      -1.098
      -1.070
      -1.041
      -1.015
      -0.990
      -0.961
      -0.918
      -0.840
      -0.718
      -0.558
      -0.379
      -0.204
      -0.052
       0.072
       0.173
       0.268
       0.365
       0.458
       0.537
       0.599
       0.647
       0.683
       0.705
       0.711
       0.692
       0.643
       0.571
       0.492
       0.423
       0.366
       0.320
       0.295
       0.301
       0.342
       0.413
       0.503
       0.602
       0.704
       0.807
       0.911
       1.007
       1.067
       1.065
       0.996
       0.871
       0.709
       0.522
       0.318
       0.102
      -0.124
      -0.349
      -0.560
      -0.743
      -0.897
      -1.021
      -1.112
      -1.164
      -1.177
      -1.151
      -1.083
      -0.971
      -0.822
      -0.649
      -0.462
      -0.264
      -0.058
       0.149
       0.341
       0.495
       0.580
       0.586
       0.524
       0.420
       0.288
       0.134
      -0.033
      -0.191
      -0.317
      -0.397
      -0.424
      -0.408
      -0.364
      -0.306
      -0.240
      -0.169
      -0.104
      -0.052
      -0.005
       0.057
       0.148
       0.266
       0.400
       0.532
       0.642
       0.711
       0.735
       0.714
       0.653
       0.556
       0.440
       0.327
       0.233
       0.167
       0.131
       0.125
       0.132
       0.131
       0.108
       0.059
      -0.014
      -0.105
      -0.195
      -0.260
      -0.282
      -0.257
      -0.188
      -0.088
       0.017
       0.096
       0.123
       0.093
       0.012
      -0.095
      -0.195
      -0.265
      -0.307
      -0.338
      -0.370
      -0.402
      -0.429
      -0.452
      -0.475
      -0.492
      -0.494
      -0.469
      -0.411
      -0.326
      -0.231
      -0.142
      -0.061
       0.020
       0.107
       0.193
       0.275
       0.354
       0.431
       0.494
       0.533
       0.541
       0.514
       0.451
       0.354
       0.228
       0.071
      -0.118
      -0.330
      -0.544
      -0.741
      -0.904
      -1.020
      -1.080
      -1.087
      -1.061
      -1.016
      -0.952
      -0.866
      -0.762
      -0.646
      -0.525
      -0.404
      -0.291
      -0.195
      -0.123
      -0.086
      -0.088
      -0.112
      -0.121
      -0.093
      -0.030
       0.049
       0.131
       0.218
       0.319
       0.445
       0.599
       0.771
       0.937
       1.078
       1.183
       1.244
       1.253
       1.213
       1.145
       1.071
       0.998
       0.921
       0.828
       0.715
       0.581
       0.434
       0.284
       0.131
      -0.035
      -0.220
      -0.409
      -0.582
      -0.727
      -0.837
      -0.903
      -0.920
      -0.890
      -0.821
      -0.722
      -0.603
      -0.478
      -0.350
      -0.218
      -0.091
       0.004
       0.034
      -0.006
      -0.097
      -0.209
      -0.313
      -0.388
      -0.435
      -0.460
      -0.463
      -0.435
      -0.370
      -0.282
      -0.190
      -0.102
      -0.012
       0.085
       0.184
       0.280
       0.364
       0.433
       0.493
       0.555
       0.623
       0.685
       0.722
       0.731
       0.715
       0.672
       0.592
       0.474
       0.329
       0.176
       0.035
      -0.081
      -0.171
      -0.240
