Origin Time       14/12/2005 07:09:48 UTC
Lat.              30.9 N 
Long.             79.3 E 
Depth (Km)         25.7
Magnitude         5.2
 Region           Chamoli-Uttarakhand                                              
 Above details taken from IMD 
    
Station Code      CHP
Station Lat.       29.334  N
Station Long.      80.095  E
Station Height(m) 1621.0
Site Class        A   Vs30 between 700 m/sec to 1400 m/sec * 
Record Time       14.12.2005 07:10:39.234 UTC
Sampling Rate     200. Hz
 Record Duration   36.930 Sec.
 Direction         N-S (N positive)
Max. Acceleration     -7.483 cm/sec**2
     
  * For reference see Site Classification link of website 
     
 Base Line Corrected and Low Pass Filtered (Cut Off at 35 Hz) Time History
 Acceleration data in cm/sec**2
    
[...]
       0.009
       0.217
       0.374
       0.479
       0.566
       0.671
       0.790
       0.870
       0.847
       0.697
       0.462
       0.225
       0.068
       0.034
       0.113
       0.246
       0.354
       0.368
       0.275
       0.116
      -0.035
      -0.128
      -0.168
      -0.206
      -0.292
      -0.431
      -0.577
      -0.669
      -0.663
      -0.565
      -0.419
      -0.280
      -0.187
      -0.141
      -0.108
      -0.054
       0.030
       0.115
       0.155
       0.126
       0.059
       0.020
       0.078
       0.261
       0.528
       0.788
       0.937
       0.917
       0.745
       0.504
       0.297
       0.181
       0.140
       0.097
      -0.029
      -0.267
      -0.573
      -0.858
      -1.029
      -1.038
      -0.900
      -0.680
      -0.458
      -0.291
      -0.192
      -0.137
      -0.095
      -0.045
       0.010
       0.063
       0.121
       0.207
       0.347
       0.536
       0.729
       0.853
       0.834
       0.644
       0.319
      -0.051
      -0.358
      -0.533
      -0.573
      -0.536
      -0.495
      -0.497
      -0.536
      -0.561
      -0.514
      -0.357
      -0.100
       0.196
       0.450
       0.603
       0.642
       0.601
       0.524
       0.437
       0.332
       0.191
       0.007
      -0.191
      -0.352
      -0.424
      -0.382
      -0.249
      -0.087
       0.026
       0.039
      -0.039
      -0.140
      -0.187
      -0.145
      -0.052
       0.019
       0.019
      -0.036
      -0.077
      -0.033
       0.118
       0.343
       0.572
       0.728
       0.763
       0.671
       0.487
       0.266
       0.053
      -0.134
      -0.304
      -0.471
      -0.630
      -0.757
      -0.818
      -0.788
      -0.667
      -0.494
      -0.331
      -0.234
      -0.212
      -0.221
      -0.190
      -0.068
       0.128
       0.326
       0.447
       0.463
       0.415
       0.382
       0.424
       0.534
       0.647
       0.682
       0.591
       0.388
       0.128
      -0.130
      -0.348
      -0.520
      -0.659
      -0.777
      -0.878
      -0.950
      -0.971
      -0.917
      -0.772
      -0.538
      -0.253
       0.028
       0.250
       0.389
       0.455
       0.475
       0.462
       0.410
       0.305
       0.160
       0.025
      -0.037
       0.016
       0.175
       0.378
       0.537
       0.581
       0.499
       0.343
       0.200
       0.139
       0.167
       0.225
       0.230
       0.126
      -0.086
      -0.354
      -0.611
      -0.800
      -0.896
      -0.900
      -0.830
      -0.704
      -0.538
      -0.345
      -0.135
       0.084
       0.295
       0.471
       0.581
       0.611
       0.580
       0.535
       0.533
       0.598
       0.702
       0.786
       0.797
       0.728
       0.615
       0.505
       0.427
       0.379
       0.329
       0.242
       0.098
      -0.099
      -0.313
      -0.491
      -0.582
      -0.571
      -0.479
      -0.345
      -0.193
      -0.017
       0.194
       0.425
       0.616
       0.685
       0.587
       0.344
       0.036
      -0.241
      -0.431
      -0.529
      -0.570
      -0.599
      -0.643
      -0.701
      -0.743
      -0.726
      -0.614
      -0.411
      -0.164
       0.059
       0.209
       0.273
       0.278
       0.271
       0.291
       0.341
       0.395
       0.416
       0.393
       0.349
       0.320
       0.327
       0.348
       0.328
       0.214
      -0.013
      -0.321
      -0.641
      -0.892
      -1.017
      -1.015
      -0.931
      -0.826
      -0.730
      -0.624
      -0.453
      -0.173
       0.214
       0.645
       1.037
       1.319
       1.465
       1.489
       1.427
       1.314
       1.167
       0.981
       0.750
       0.479
       0.195
      -0.061
      -0.255
      -0.369
      -0.409
      -0.392
      -0.343
      -0.287
      -0.249
      -0.240
      -0.261
      -0.307
      -0.382
      -0.497
      -0.647
      -0.802
      -0.909
      -0.922
      -0.832
      -0.673
      -0.496
      -0.335
      -0.194
      -0.054
       0.112
       0.318
       0.552
       0.780
       0.948
       1.012
       0.959
       0.817
       0.642
       0.481
       0.351
       0.228
       0.075
      -0.123
      -0.337
      -0.515
      -0.617
      -0.641
      -0.632
      -0.636
      -0.671
      -0.710
      -0.699
      -0.604
      -0.426
      -0.213
      -0.029
       0.084
       0.128
       0.155
       0.237
       0.426
       0.724
       1.069
       1.359
       1.496
       1.432
       1.189
       0.838
       0.462
       0.113
      -0.206
      -0.514
      -0.826
      -1.127
      -1.383
      -1.554
      -1.616
      -1.569
      -1.429
      -1.218
      -0.952
      -0.639
      -0.293
       0.050
       0.327
       0.470
       0.445
       0.282
       0.072
      -0.073
      -0.073
       0.088
       0.352
       0.613
       0.761
       0.736
       0.543
       0.252
      -0.040
      -0.248
      -0.322
      -0.262
      -0.106
       0.085
       0.247
       0.334
       0.334
       0.258
       0.127
      -0.027
      -0.156
      -0.202
      -0.126
       0.054
       0.257
       0.385
       0.386
       0.296
       0.215
       0.237
       0.394
       0.639
       0.873
       0.996
       0.939
       0.688
       0.293
      -0.149
      -0.528
      -0.764
      -0.836
      -0.780
      -0.656
      -0.522
      -0.414
      -0.348
      -0.325
      -0.336
      -0.368
      -0.402
      -0.403
      -0.336
      -0.179
       0.044
       0.265
       0.398
       0.397
       0.289
       0.162
       0.117
       0.215
       0.449
       0.741
       0.970
       1.016
       0.816
       0.401
      -0.121
      -0.614
      -0.979
      -1.185
      -1.260
      -1.243
      -1.165
      -1.035
      -0.856
      -0.645
      -0.428
      -0.236
      -0.087
       0.023
       0.123
       0.240
       0.383
       0.527
       0.626
       0.632
       0.521
       0.316
       0.088
      -0.069
      -0.074
       0.101
       0.408
       0.744
       0.997
       1.102
       1.062
       0.925
       0.740
       0.522
       0.257
      -0.057
      -0.379
      -0.628
      -0.725
      -0.634
      -0.382
      -0.042
       0.296
       0.561
       0.718
       0.769
       0.739
       0.653
       0.523
       0.354
       0.160
      -0.028
      -0.168
      -0.227
      -0.200
      -0.117
      -0.042
      -0.047
      -0.182
      -0.444
      -0.772
      -1.077
      -1.286
      -1.389
      -1.431
      -1.471
      -1.524
      -1.551
      -1.479
      -1.249
      -0.849
      -0.324
       0.241
       0.763
       1.190
       1.513
       1.748
       1.907
       1.986
       1.964
       1.831
       1.599
       1.310
       1.016
       0.758
       0.553
       0.387
       0.224
       0.030
      -0.209
      -0.486
      -0.778
      -1.066
      -1.334
      -1.562
      -1.725
      -1.793
      -1.746
      -1.591
      -1.357
      -1.077
      -0.772
      -0.453
      -0.123
       0.205
       0.512
       0.774
       0.969
       1.082
       1.095
       0.995
       0.783
       0.488
       0.164
      -0.131
      -0.372
      -0.576
      -0.793
      -1.079
      -1.454
      -1.891
      -2.315
      -2.637
      -2.792
      -2.766
      -2.599
      -2.352
      -2.071
      -1.768
      -1.425
      -1.016
      -0.535
      -0.007
       0.517
       0.984
       1.363
       1.655
       1.869
       2.005
       2.040
       1.948
       1.718
       1.376
       0.972
       0.567
       0.207
      -0.087
      -0.327
      -0.545
      -0.763
      -0.983
      -1.171
      -1.274
      -1.243
      -1.058
      -0.742
      -0.354
       0.033
       0.366
       0.632
       0.857
       1.084
       1.340
       1.618
       1.892
       2.139
       2.341
       2.470
       2.475
       2.291
       1.881
       1.268
       0.554
      -0.125
      -0.649
      -0.965
      -1.094
      -1.112
      -1.112
      -1.168
      -1.303
      -1.478
      -1.604
      -1.584
      -1.360
      -0.950
      -0.439
       0.070
       0.501
       0.828
       1.061
       1.217
       1.305
       1.328
       1.309
       1.293
       1.327
       1.416
       1.501
       1.477
       1.249
       0.787
       0.151
      -0.546
      -1.189
      -1.700
      -2.046
      -2.233
      -2.298
      -2.297
      -2.286
      -2.293
      -2.293
      -2.225
      -2.024
      -1.663
      -1.163
      -0.577
       0.036
       0.627
       1.155
       1.590
       1.915
       2.128
       2.242
       2.278
       2.263
       2.215
       2.138
       2.010
       1.786
       1.422
       0.897
       0.237
      -0.499
      -1.233
      -1.892
      -2.425
      -2.815
      -3.069
      -3.202
      -3.213
      -3.071
      -2.732
      -2.169
      -1.398
      -0.478
       0.503
       1.465
       2.352
       3.135
       3.800
       4.337
       4.731
       4.960
       5.005
       4.863
       4.547
       4.075
       3.448
       2.643
       1.629
       0.408
      -0.958
      -2.342
      -3.588
      -4.558
      -5.177
      -5.457
      -5.481
      -5.360
      -5.174
      -4.934
      -4.598
      -4.108
      -3.439
      -2.611
      -1.674
      -0.671
       0.382
       1.482
       2.611
       3.696
       4.618
       5.248
       5.512
       5.425
       5.082
       4.604
       4.080
       3.533
       2.929
       2.224
       1.402
       0.501
      -0.400
      -1.202
      -1.822
      -2.220
      -2.410
      -2.442
      -2.362
      -2.193
      -1.927
      -1.554
      -1.087
      -0.566
      -0.044
       0.429
       0.827
       1.144
       1.378
       1.521
       1.554
       1.458
       1.229
       0.893
       0.501
       0.110
      -0.252
      -0.607
      -1.017
      -1.539
      -2.167
      -2.827
      -3.395
      -3.763
      -3.874
      -3.733
      -3.384
      -2.881
      -2.267
      -1.567
      -0.791
       0.052
       0.949
       1.863
       2.739
       3.513
       4.129
       4.552
       4.757
       4.726
       4.438
       3.871
       3.023
       1.942
       0.738
      -0.427
      -1.400
      -2.095
      -2.531
      -2.807
      -3.027
      -3.242
      -3.426
      -3.514
      -3.441
      -3.175
      -2.718
      -2.095
      -1.346
      -0.527
       0.296
       1.052
       1.678
       2.133
       2.403
       2.513
       2.510
       2.434
       2.292
       2.049
       1.638
       0.983
       0.044
      -1.157
      -2.503
      -3.803
      -4.829
      -5.395
      -5.418
      -4.945
      -4.119
      -3.107
      -2.040
      -0.987
       0.029
       0.999
       1.907
       2.728
       3.431
       3.998
       4.426
       4.714
       4.850
       4.806
       4.558
       4.104
       3.473
       2.724
       1.916
       1.093
       0.262
      -0.606
      -1.551
      -2.582
      -3.643
      -4.611
      -5.342
      -5.724
      -5.715
      -5.340
      -4.670
      -3.787
      -2.771
      -1.688
      -0.585
       0.498
       1.508
       2.377
       3.030
       3.425
       3.566
       3.494
       3.262
       2.907
       2.453
       1.925
       1.364
       0.820
       0.330
      -0.085
      -0.421
      -0.684
      -0.885
      -1.038
      -1.150
      -1.208
      -1.187
      -1.066
      -0.853
      -0.587
      -0.315
      -0.066
       0.169
       0.430
       0.763
       1.190
       1.696
       2.226
       2.704
       3.061
       3.248
       3.241
       3.024
       2.582
       1.906
       1.022
       0.007
      -1.023
      -1.946
      -2.675
      -3.171
      -3.442
      -3.521
      -3.447
      -3.249
      -2.932
      -2.486
      -1.903
      -1.206
      -0.464
       0.224
       0.772
       1.140
       1.336
       1.383
       1.284
       1.028
       0.613
       0.096
      -0.396
      -0.704
      -0.708
      -0.399
       0.109
       0.633
       1.014
       1.180
       1.163
       1.061
       0.985
       1.028
       1.241
       1.620
       2.095
       2.559
       2.913
       3.104
       3.130
       3.008
       2.751
       2.356
       1.837
       1.234
       0.609
       0.020
      -0.513
      -1.012
      -1.524
      -2.079
      -2.652
      -3.155
      -3.469
      -3.512
      -3.279
      -2.856
      -2.390
      -2.019
      -1.818
      -1.763
      -1.741
      -1.612
      -1.281
      -0.749
      -0.111
       0.496
       0.959
       1.222
       1.284
       1.171
       0.914
       0.544
       0.103
      -0.351
      -0.754
      -1.050
      -1.214
      -1.264
      -1.250
      -1.232
      -1.247
      -1.286
      -1.300
      -1.226
      -1.026
      -0.722
      -0.390
      -0.129
      -0.012
      -0.045
      -0.175
      -0.308
      -0.360
      -0.292
      -0.114
       0.132
       0.406
       0.697
       1.007
       1.334
       1.657
       1.940
       2.160
       2.318
       2.435
       2.537
       2.640
       2.749
       2.858
       2.955
       3.019
       3.034
       2.983
       2.858
       2.642
       2.308
       1.816
       1.139
       0.278
      -0.730
      -1.822
      -2.927
      -3.985
      -4.954
      -5.815
      -6.551
      -7.123
      -7.462
      -7.483
      -7.133
      -6.416
      -5.407
      -4.209
      -2.913
      -1.566
      -0.189
       1.197
       2.548
       3.795
       4.864
       5.705
       6.314
       6.737
       7.030
       7.213
       7.237
       6.998
       6.392
       5.384
       4.045
       2.531
       1.029
      -0.309
      -1.411
      -2.285
      -2.991
      -3.591
      -4.116
      -4.550
      -4.848
      -4.970
      -4.899
      -4.642
      -4.220
      -3.646
      -2.933
      -2.105
      -1.208
      -0.302
       0.562
       1.357
       2.090
       2.782
       3.441
       4.033
       4.474
       4.650
       4.465
       3.876
       2.918
       1.696
       0.357
      -0.957
      -2.143
      -3.152
      -3.977
      -4.605
      -4.999
      -5.100
      -4.865
      -4.303
      -3.489
      -2.532
      -1.530
      -0.542
       0.405
       1.282
       2.037
       2.600
       2.917
       2.978
       2.819
       2.500
       2.079
       1.603
       1.109
       0.623
       0.155
      -0.291
      -0.692
      -0.995
      -1.136
      -1.072
      -0.827
      -0.503
      -0.234
      -0.119
      -0.158
      -0.259
      -0.291
      -0.173
       0.084
       0.389
       0.637
       0.765
       0.782
       0.736
       0.675
       0.609
       0.515
       0.346
       0.065
      -0.326
      -0.771
      -1.174
      -1.445
      -1.548
      -1.520
      -1.431
      -1.323
      -1.173
      -0.912
      -0.483
       0.111
       0.778
       1.360
       1.702
       1.717
       1.435
       0.985
       0.525
       0.170
      -0.054
      -0.206
      -0.372
      -0.602
      -0.885
      -1.168
      -1.393
      -1.529
      -1.562
      -1.469
      -1.201
      -0.691
       0.118
       1.224
       2.540
       3.898
       5.083
       5.903
       6.229
       6.028
       5.353
       4.326
       3.097
       1.800
       0.523
      -0.693
      -1.833
      -2.873
      -3.759
      -4.423
      -4.820
      -4.957
      -4.888
      -4.673
      -4.339
      -3.886
      -3.312
      -2.661
      -2.015
      -1.452
      -0.976
      -0.497
       0.121
       0.960
       1.981
       3.049
       4.015
       4.777
       5.285
       5.517
       5.448
       5.058
       4.345
       3.354
       2.182
       0.944
      -0.273
      -1.417
      -2.455
      -3.347
      -4.040
      -4.473
      -4.594
      -4.372
      -3.825
      -3.027
      -2.079
      -1.085
      -0.129
       0.732
       1.477
       2.108
       2.640
       3.072
       3.387
       3.546
       3.503
       3.221
       2.698
       1.982
       1.149
       0.271
      -0.613
      -1.484
      -2.337
      -3.168
      -3.959
      -4.681
      -5.291
      -5.736
      -5.944
      -5.834
      -5.337
      -4.425
      -3.131
      -1.530
       0.277
       2.165
       3.972
       5.513
       6.619
       7.188
       7.223
       6.814
       6.094
       5.179
       4.128
       2.946
       1.623
       0.182
      -1.301
      -2.701
      -3.876
      -4.704
      -5.116
      -5.107
      -4.725
      -4.049
      -3.169
      -2.165
      -1.111
      -0.072
       0.887
       1.720
       2.421
       3.027
       3.587
       4.105
       4.506
       4.654
       4.412
       3.723
       2.647
       1.348
       0.029
      -1.147
      -2.106
      -2.867
      -3.493
      -4.036
      -4.504
      -4.863
      -5.070
      -5.114
      -5.020
      -4.806
      -4.437
      -3.833
      -2.925
      -1.722
      -0.335
       1.053
       2.253
       3.140
       3.674
       3.905
       3.932
       3.868
       3.793
       3.721
       3.598
       3.340
       2.888
       2.243
       1.454
       0.597
      -0.258
      -1.046
      -1.710
      -2.201
      -2.499
      -2.607
      -2.541
      -2.326
      -1.993
      -1.584
      -1.151
      -0.726
      -0.303
       0.162
       0.709
       1.327
       1.938
       2.436
       2.751
       2.885
       2.891
       2.832
       2.733
       2.578
       2.333
       1.972
       1.490
       0.899
       0.217
      -0.545
      -1.377
      -2.247
      -3.087
      -3.800
      -4.283
      -4.453
      -4.277
      -3.788
      -3.082
      -2.297
      -1.557
      -0.921
      -0.376
       0.133
       0.642
       1.126
       1.518
       1.759
       1.839
       1.800
       1.692
       1.544
       1.354
       1.116
       0.834
       0.535
       0.265
       0.078
       0.019
       0.085
       0.202
       0.245
       0.089
      -0.311
      -0.890
      -1.494
      -1.958
      -2.181
      -2.159
      -1.955
      -1.647
      -1.284
      -0.867
      -0.365
       0.247
       0.949
       1.673
       2.336
       2.878
       3.279
       3.534
       3.636
       3.564
       3.293
       2.808
       2.127
       1.298
       0.386
      -0.550
      -1.466
      -2.325
      -3.086
      -3.697
      -4.093
      -4.205
      -3.984
      -3.432
      -2.618
      -1.674
      -0.765
      -0.046
       0.391
       0.535
       0.449
       0.236
      -0.011
      -0.220
      -0.344
      -0.349
      -0.210
       0.081
       0.501
       0.998
       1.494
       1.916
       2.212
       2.372
       2.420
       2.391
       2.301
       2.141
       1.884
       1.513
       1.050
       0.552
       0.092
      -0.272
      -0.518
      -0.681
      -0.837
      -1.068
      -1.410
      -1.826
      -2.234
      -2.554
      -2.753
      -2.831
      -2.787
      -2.590
      -2.191
      -1.571
      -0.774
       0.105
       0.958
       1.708
       2.321
       2.793
       3.131
       3.344
       3.437
       3.419
       3.285
       3.015
       2.574
