Origin Time       22/02/2010 17:23:43
Lat.              30.0 N	
Long.             80.1 E	
Depth (Km)          2.0
Magnitude         4.7
 Region           BAGESHWER-UTTARAKHAND                                            
 Above details taken from IMD 
   
Station Code      CHP
Station Lat.       29.334
Station Long.      80.095
Station Height(m) 1635.0
Site Class        A   Vs30 between 700 m/sec to 1400 m/sec * 
Record Time       22.02.2010 17:23:53.004
Sampling Rate     200. Hz
 Record Duration   70.500 Sec.
 Direction         Vert. (Up positive)
Max. Acceleration      1.349 cm/sec**2
     
  * For reference see Site Classification link of website 
     
 Base Line Corrected and Low Pass Filtered (Cut Off at 35 Hz) Time History
 Acceleration data in cm/sec**2
    
[...]
       0.012
       0.250
       0.423
       0.462
       0.356
       0.151
      -0.088
      -0.307
      -0.478
      -0.591
      -0.631
      -0.573
      -0.404
      -0.151
       0.116
       0.328
       0.454
       0.502
       0.492
       0.440
       0.355
       0.247
       0.125
      -0.005
      -0.141
      -0.267
      -0.342
      -0.302
      -0.119
       0.147
       0.359
       0.397
       0.239
      -0.029
      -0.281
      -0.432
      -0.465
      -0.405
      -0.267
      -0.064
       0.174
       0.373
       0.448
       0.360
       0.150
      -0.084
      -0.248
      -0.311
      -0.298
      -0.248
      -0.173
      -0.067
       0.070
       0.222
       0.353
       0.416
       0.382
       0.264
       0.107
      -0.043
      -0.165
      -0.247
      -0.274
      -0.231
      -0.118
       0.040
       0.195
       0.295
       0.316
       0.277
       0.206
       0.108
      -0.029
      -0.197
      -0.342
      -0.388
      -0.286
      -0.053
       0.234
       0.469
       0.576
       0.535
       0.379
       0.170
      -0.042
      -0.231
      -0.374
      -0.440
      -0.410
      -0.316
      -0.222
      -0.172
      -0.144
      -0.070
       0.094
       0.319
       0.509
       0.558
       0.431
       0.186
      -0.076
      -0.273
      -0.378
      -0.397
      -0.335
      -0.195
      -0.002
       0.175
       0.257
       0.210
       0.071
      -0.087
      -0.205
      -0.270
      -0.286
      -0.244
      -0.123
       0.077
       0.300
       0.460
       0.492
       0.385
       0.176
      -0.072
      -0.300
      -0.464
      -0.539
      -0.518
      -0.415
      -0.260
      -0.100
       0.029
       0.116
       0.176
       0.231
       0.279
       0.282
       0.211
       0.090
      -0.014
      -0.049
      -0.023
       0.021
       0.052
       0.076
       0.114
       0.163
       0.182
       0.118
      -0.050
      -0.264
      -0.413
      -0.397
      -0.202
       0.086
       0.340
       0.473
       0.478
       0.391
       0.244
       0.055
      -0.139
      -0.269
      -0.267
      -0.125
       0.081
       0.233
       0.262
       0.194
       0.109
       0.073
       0.090
       0.126
       0.142
       0.119
       0.064
       0.001
      -0.062
      -0.145
      -0.273
      -0.438
      -0.580
      -0.611
      -0.477
      -0.214
       0.076
       0.281
       0.346
       0.275
       0.116
      -0.069
      -0.212
      -0.259
      -0.186
      -0.014
       0.197
       0.383
       0.494
       0.501
       0.392
       0.193
      -0.031
      -0.209
      -0.310
      -0.348
      -0.343
      -0.294
      -0.193
      -0.053
       0.081
       0.149
       0.113
      -0.006
      -0.136
      -0.195
      -0.139
       0.011
       0.191
       0.339
       0.430
       0.468
       0.447
       0.351
       0.180
      -0.031
      -0.230
      -0.386
      -0.499
      -0.580
      -0.610
      -0.547
      -0.368
      -0.106
       0.151
       0.329
       0.405
       0.398
       0.322
       0.180
      -0.012
      -0.195
      -0.294
      -0.265
      -0.135
       0.020
       0.129
       0.168
       0.157
       0.126
       0.091
       0.050
      -0.002
      -0.070
      -0.157
      -0.264
      -0.363
      -0.402
      -0.339
      -0.182
       0.011
       0.173
       0.264
       0.288
       0.271
       0.237
       0.186
       0.105
      -0.004
      -0.112
      -0.167
      -0.140
      -0.052
       0.033
       0.065
       0.044
       0.007
      -0.030
      -0.085
      -0.161
      -0.215
      -0.180
      -0.034
       0.165
       0.321
       0.373
       0.328
       0.232
       0.114
      -0.018
      -0.146
      -0.224
      -0.224
      -0.162
      -0.094
      -0.073
      -0.106
      -0.148
      -0.138
      -0.048
       0.098
       0.247
       0.352
       0.395
       0.392
       0.370
       0.348
       0.324
       0.285
       0.216
       0.111
      -0.017
      -0.125
      -0.162
      -0.117
      -0.027
       0.046
       0.056
       0.002
      -0.081
      -0.164
      -0.257
      -0.386
      -0.537
      -0.636
      -0.601
      -0.413
      -0.142
       0.110
       0.271
       0.331
       0.313
       0.227
       0.056
      -0.193
      -0.444
      -0.581
      -0.523
      -0.292
      -0.005
       0.219
       0.337
       0.387
       0.430
       0.478
       0.493
       0.435
       0.292
       0.094
      -0.107
      -0.257
      -0.332
      -0.345
      -0.322
      -0.261
      -0.129
       0.091
       0.339
       0.493
       0.460
       0.258
       0.012
      -0.146
      -0.164
      -0.088
      -0.001
       0.034
       0.004
      -0.054
      -0.097
      -0.108
      -0.103
      -0.107
      -0.112
      -0.084
       0.000
       0.106
       0.163
       0.121
       0.001
      -0.124
      -0.191
      -0.190
      -0.152
      -0.105
      -0.048
       0.039
       0.145
       0.223
       0.213
       0.098
      -0.074
      -0.220
      -0.270
      -0.213
      -0.086
       0.058
       0.175
       0.241
       0.251
       0.215
       0.149
       0.067
      -0.018
      -0.093
      -0.144
      -0.161
      -0.146
      -0.115
      -0.084
      -0.048
       0.013
       0.104
       0.194
       0.228
       0.176
       0.050
      -0.104
      -0.243
      -0.334
      -0.366
      -0.339
      -0.263
      -0.159
      -0.061
      -0.005
      -0.005
      -0.046
      -0.093
      -0.113
      -0.097
      -0.051
       0.011
       0.074
       0.123
       0.158
       0.196
       0.259
       0.339
       0.388
       0.351
       0.209
      -0.001
      -0.201
      -0.326
      -0.349
      -0.284
      -0.159
      -0.004
       0.139
       0.223
       0.221
       0.155
       0.070
      -0.002
      -0.061
      -0.122
      -0.175
      -0.174
      -0.067
       0.141
       0.363
       0.482
       0.425
       0.205
      -0.098
      -0.384
      -0.574
      -0.627
      -0.535
      -0.321
      -0.041
       0.235
       0.444
       0.555
       0.564
       0.487
       0.346
       0.169
      -0.021
      -0.199
      -0.335
      -0.399
      -0.370
      -0.245
      -0.051
       0.161
       0.326
       0.397
       0.359
       0.235
       0.064
      -0.109
      -0.254
      -0.352
      -0.388
      -0.341
      -0.206
      -0.012
       0.179
       0.293
       0.280
       0.141
      -0.080
      -0.317
      -0.510
      -0.617
      -0.619
      -0.521
      -0.344
      -0.116
       0.128
       0.337
       0.451
       0.441
       0.332
       0.183
       0.051
      -0.046
      -0.110
      -0.135
      -0.097
       0.015
       0.173
       0.325
       0.433
       0.489
       0.493
       0.445
       0.352
       0.224
       0.071
      -0.087
      -0.209
      -0.251
      -0.195
      -0.064
       0.091
       0.221
       0.288
       0.274
       0.174
       0.005
      -0.190
      -0.355
      -0.447
      -0.455
      -0.384
      -0.252
      -0.094
       0.049
       0.146
       0.187
       0.176
       0.127
       0.064
       0.019
       0.010
       0.025
       0.026
      -0.011
      -0.076
      -0.134
      -0.174
      -0.220
      -0.302
      -0.404
      -0.477
      -0.474
      -0.379
      -0.210
      -0.003
       0.207
       0.387
       0.507
       0.534
       0.450
       0.277
       0.083
      -0.054
      -0.089
      -0.030
       0.070
       0.143
       0.146
       0.078
      -0.028
      -0.119
      -0.160
      -0.152
      -0.125
      -0.101
      -0.075
      -0.022
       0.070
       0.175
       0.241
       0.235
       0.165
       0.078
       0.023
       0.023
       0.068
       0.128
       0.173
       0.183
       0.154
       0.101
       0.048
       0.016
       0.001
      -0.022
      -0.075
      -0.161
      -0.265
      -0.366
      -0.441
      -0.469
      -0.434
      -0.328
      -0.163
       0.030
       0.206
       0.313
       0.315
       0.208
       0.030
      -0.151
      -0.281
      -0.345
      -0.369
      -0.374
      -0.353
      -0.287
      -0.179
      -0.042
       0.121
       0.322
       0.550
       0.750
       0.851
       0.815
       0.663
       0.462
       0.286
       0.194
       0.201
       0.284
       0.393
       0.483
       0.517
       0.470
       0.340
       0.155
      -0.030
      -0.163
      -0.227
      -0.241
      -0.248
      -0.276
      -0.322
      -0.362
      -0.381
      -0.384
      -0.383
      -0.383
      -0.384
      -0.368
      -0.306
      -0.178
       0.000
       0.181
       0.316
       0.371
       0.331
       0.215
       0.082
      -0.004
      -0.024
      -0.004
       0.026
       0.066
       0.125
       0.193
       0.225
       0.186
       0.088
      -0.004
      -0.026
       0.034
       0.145
       0.250
       0.297
       0.248
       0.103
      -0.101
      -0.309
      -0.471
      -0.551
      -0.530
      -0.413
      -0.239
      -0.067
       0.049
       0.086
       0.048
      -0.048
      -0.195
      -0.384
      -0.581
      -0.719
      -0.722
      -0.543
      -0.200
       0.209
       0.535
       0.647
       0.521
       0.253
      -0.002
      -0.139
      -0.161
      -0.150
      -0.181
      -0.263
      -0.348
      -0.386
      -0.375
      -0.349
      -0.338
      -0.330
      -0.292
      -0.212
      -0.118
      -0.055
      -0.036
      -0.033
      -0.012
       0.016
       0.005
      -0.066
      -0.157
      -0.189
      -0.114
       0.047
       0.231
       0.369
       0.428
       0.411
       0.345
       0.248
       0.124
      -0.016
      -0.136
      -0.190
      -0.160
      -0.068
       0.053
       0.172
       0.276
       0.360
       0.428
       0.482
       0.510
       0.491
       0.419
       0.307
       0.179
       0.057
      -0.047
      -0.142
      -0.254
      -0.404
      -0.575
      -0.712
      -0.755
      -0.686
      -0.541
      -0.401
      -0.335
      -0.355
      -0.409
      -0.426
      -0.373
      -0.272
      -0.176
      -0.117
      -0.084
      -0.031
       0.058
       0.145
       0.176
       0.143
       0.094
       0.081
       0.120
       0.191
       0.268
       0.328
       0.359
       0.365
       0.369
       0.386
       0.408
       0.410
       0.378
       0.320
       0.264
       0.230
       0.220
       0.224
       0.232
       0.242
       0.259
       0.284
       0.315
       0.332
       0.308
       0.221
       0.070
      -0.120
      -0.316
      -0.486
      -0.605
      -0.666
      -0.668
      -0.613
      -0.490
      -0.290
      -0.025
       0.256
       0.476
       0.566
       0.497
       0.294
       0.023
      -0.235
      -0.416
      -0.491
      -0.478
      -0.417
      -0.332
      -0.215
      -0.059
       0.109
       0.230
       0.258
       0.190
       0.076
      -0.014
      -0.030
       0.039
       0.175
       0.346
       0.496
       0.548
       0.445
       0.192
      -0.132
      -0.428
      -0.629
      -0.719
      -0.714
      -0.640
      -0.508
      -0.322
      -0.093
       0.138
       0.319
       0.399
       0.363
       0.249
       0.136
       0.102
       0.171
       0.312
       0.475
       0.631
       0.768
       0.870
       0.899
       0.820
       0.626
       0.361
       0.101
      -0.086
      -0.179
      -0.209
      -0.220
      -0.235
      -0.238
      -0.211
      -0.159
      -0.118
      -0.126
      -0.191
      -0.282
      -0.349
      -0.358
      -0.314
      -0.251
      -0.203
      -0.179
      -0.148
      -0.075
       0.042
       0.152
       0.178
       0.089
      -0.069
      -0.213
      -0.290
      -0.302
      -0.277
      -0.232
      -0.162
      -0.064
       0.048
       0.143
       0.194
       0.185
       0.116
       0.008
      -0.106
      -0.194
      -0.240
      -0.236
      -0.165
      -0.013
       0.213
       0.465
       0.673
       0.783
       0.789
       0.724
       0.630
       0.536
       0.453
       0.371
       0.256
       0.067
      -0.203
      -0.500
      -0.741
      -0.858
      -0.825
      -0.660
      -0.409
      -0.126
       0.136
       0.340
       0.479
       0.581
       0.686
       0.803
       0.892
       0.891
       0.766
       0.526
       0.223
      -0.076
      -0.319
      -0.478
      -0.541
      -0.502
      -0.356
      -0.112
       0.188
       0.456
       0.590
       0.537
       0.318
       0.015
      -0.277
      -0.478
      -0.554
      -0.517
      -0.412
      -0.293
      -0.213
      -0.212
      -0.287
      -0.379
      -0.408
      -0.330
      -0.175
      -0.032
       0.005
      -0.095
      -0.269
      -0.419
      -0.493
      -0.519
      -0.563
      -0.659
      -0.782
      -0.881
      -0.928
      -0.939
      -0.939
      -0.920
      -0.835
      -0.643
      -0.357
      -0.047
       0.202
       0.341
       0.377
       0.343
       0.269
       0.162
       0.032
      -0.092
      -0.166
      -0.152
      -0.047
       0.110
       0.263
       0.376
       0.449
       0.497
       0.519
       0.498
       0.426
       0.309
       0.168
       0.025
      -0.092
      -0.142
      -0.076
       0.131
       0.452
       0.808
       1.115
       1.313
       1.349
       1.184
       0.820
       0.342
      -0.106
      -0.380
      -0.406
      -0.214
       0.081
       0.338
       0.464
       0.441
       0.304
       0.100
      -0.135
      -0.379
      -0.611
      -0.794
      -0.870
      -0.801
      -0.608
      -0.378
      -0.210
      -0.142
      -0.138
      -0.137
      -0.130
      -0.161
      -0.253
      -0.358
      -0.388
      -0.306
      -0.160
      -0.014
       0.127
       0.311
       0.566
       0.837
       1.006
       0.986
       0.791
       0.530
       0.334
       0.274
       0.329
       0.424
       0.494
       0.518
       0.508
       0.459
       0.338
       0.126
      -0.146
      -0.399
      -0.562
      -0.616
      -0.589
      -0.522
      -0.441
      -0.354
      -0.261
      -0.158
      -0.046
       0.052
       0.101
       0.068
      -0.036
      -0.160
      -0.242
      -0.254
      -0.214
      -0.167
      -0.146
      -0.148
      -0.159
      -0.187
      -0.270
      -0.433
      -0.654
      -0.862
      -0.983
      -0.995
      -0.930
      -0.827
      -0.683
      -0.464
      -0.160
       0.175
       0.450
       0.607
       0.659
       0.689
       0.782
       0.949
       1.092
       1.076
       0.835
       0.435
       0.046
      -0.170
      -0.164
      -0.021
       0.108
       0.131
       0.070
       0.006
      -0.013
      -0.004
      -0.021
      -0.088
      -0.174
      -0.207
      -0.123
       0.086
       0.361
       0.604
       0.722
       0.682
       0.526
       0.344
       0.205
       0.112
       0.021
      -0.093
      -0.200
      -0.247
      -0.211
      -0.115
       0.017
       0.188
       0.415
       0.678
       0.893
       0.943
       0.750
       0.346
      -0.123
      -0.480
      -0.630
      -0.606
      -0.519
      -0.458
      -0.433
      -0.403
      -0.346
      -0.300
      -0.312
      -0.366
      -0.363
      -0.195
       0.152
       0.562
       0.859
       0.925
       0.770
       0.498
       0.206
      -0.090
      -0.429
      -0.798
      -1.088
      -1.172
      -1.027
      -0.767
      -0.537
      -0.395
      -0.288
      -0.121
       0.146
       0.460
       0.709
       0.805
       0.745
       0.612
       0.494
       0.422
       0.353
       0.224
       0.021
      -0.208
      -0.396
      -0.510
      -0.566
      -0.597
      -0.611
      -0.588
      -0.494
      -0.314
      -0.077
       0.143
       0.273
       0.292
       0.227
       0.126
       0.028
      -0.049
      -0.108
      -0.173
      -0.270
      -0.403
      -0.556
      -0.705
      -0.824
      -0.897
      -0.918
      -0.882
      -0.778
      -0.601
      -0.365
      -0.098
       0.167
       0.396
       0.566
       0.670
       0.726
       0.751
       0.752
       0.717
       0.631
       0.488
       0.301
       0.112
      -0.030
      -0.081
      -0.018
       0.151
       0.376
       0.572
       0.666
       0.624
       0.455
       0.192
      -0.105
      -0.350
      -0.451
      -0.358
      -0.101
       0.218
       0.487
       0.647
       0.713
       0.731
       0.728
       0.697
       0.605
       0.439
       0.225
       0.021
      -0.124
      -0.204
      -0.239
      -0.241
      -0.204
      -0.131
      -0.054
      -0.028
      -0.090
      -0.235
      -0.419
      -0.597
      -0.734
      -0.805
      -0.785
      -0.646
      -0.380
      -0.017
       0.364
       0.651
       0.767
       0.707
       0.537
       0.342
       0.193
       0.117
       0.100
       0.105
       0.096
       0.058
      -0.010
      -0.096
      -0.184
      -0.258
      -0.310
      -0.347
      -0.395
      -0.485
      -0.622
      -0.745
      -0.763
      -0.633
      -0.399
      -0.159
       0.012
       0.090
       0.082
      -0.008
      -0.171
      -0.377
      -0.557
      -0.642
      -0.595
      -0.428
      -0.190
       0.061
       0.269
       0.398
       0.437
       0.404
       0.326
       0.221
       0.090
      -0.068
      -0.224
      -0.315
      -0.287
      -0.141
       0.051
       0.199
       0.249
       0.207
       0.124
       0.062
       0.048
       0.065
       0.072
       0.043
      -0.020
      -0.104
      -0.193
      -0.256
      -0.237
      -0.097
       0.146
       0.406
       0.594
       0.675
       0.659
       0.553
       0.356
       0.091
      -0.175
      -0.360
      -0.414
      -0.321
      -0.098
       0.195
       0.459
       0.589
       0.543
       0.367
       0.168
       0.031
      -0.033
      -0.051
      -0.035
       0.036
       0.176
       0.343
       0.461
       0.464
       0.354
       0.192
       0.048
      -0.043
      -0.080
      -0.061
       0.013
       0.123
       0.225
       0.278
       0.272
       0.221
       0.132
      -0.014
      -0.225
      -0.454
      -0.601
      -0.581
      -0.396
      -0.145
       0.046
       0.095
      -0.004
      -0.186
      -0.364
      -0.462
      -0.438
      -0.294
      -0.075
       0.134
       0.233
       0.169
      -0.017
      -0.228
      -0.389
      -0.497
      -0.576
      -0.610
      -0.547
      -0.352
      -0.061
       0.243
       0.474
       0.584
       0.558
       0.398
       0.129
      -0.181
      -0.423
      -0.508
      -0.422
      -0.236
      -0.054
       0.068
       0.152
       0.276
       0.490
       0.747
       0.924
       0.925
       0.760
       0.530
       0.327
       0.169
       0.006
      -0.204
      -0.438
      -0.616
      -0.672
      -0.612
      -0.495
      -0.365
      -0.201
       0.048
       0.371
       0.649
       0.716
       0.503
       0.110
      -0.279
      -0.540
      -0.674
      -0.722
      -0.680
