Origin Time       19/08/2008 10:54:26
Lat.              30.1°N 
Long.             80.1°E 
Depth (Km)         15.0
Magnitude         4.3
 Region           PITHORAGARH                                                      
 Above details taken from IMD 
   
Station Code      CHP
Station Lat.       29.334
Station Long.      80.095
Station Height(m) 1635.0
Site Class        A   Vs30 between 700 m/sec to 1400 m/sec * 
Record Time       19.08.2008 10:54:36.594
Sampling Rate     200. Hz
 Record Duration   65.905 Sec.
 Direction         Vert. (Up positive)
Max. Acceleration      0.979 cm/sec**2
     
  * For reference see Site Classification link of website 
     
 Base Line Corrected and Low Pass Filtered (Cut Off at 35 Hz) Time History
 Acceleration data in cm/sec**2
    
[...]
       0.110
       0.105
       0.099
       0.114
       0.138
       0.129
       0.054
      -0.071
      -0.186
      -0.230
      -0.194
      -0.124
      -0.073
      -0.062
      -0.073
      -0.076
      -0.063
      -0.043
      -0.033
      -0.032
      -0.019
       0.027
       0.112
       0.218
       0.306
       0.334
       0.283
       0.172
       0.055
      -0.019
      -0.045
      -0.059
      -0.099
      -0.160
      -0.200
      -0.183
      -0.113
      -0.026
       0.048
       0.097
       0.126
       0.134
       0.114
       0.066
       0.009
      -0.033
      -0.049
      -0.051
      -0.051
      -0.050
      -0.041
      -0.023
      -0.004
       0.009
       0.014
       0.013
       0.010
       0.008
       0.010
       0.007
      -0.009
      -0.040
      -0.074
      -0.095
      -0.083
      -0.031
       0.050
       0.124
       0.157
       0.145
       0.111
       0.084
       0.071
       0.063
       0.051
       0.038
       0.038
       0.055
       0.078
       0.083
       0.049
      -0.029
      -0.133
      -0.223
      -0.260
      -0.224
      -0.137
      -0.043
       0.016
       0.035
       0.037
       0.041
       0.039
       0.009
      -0.041
      -0.071
      -0.037
       0.065
       0.188
       0.274
       0.279
       0.208
       0.103
       0.017
      -0.025
      -0.041
      -0.065
      -0.110
      -0.154
      -0.166
      -0.143
      -0.114
      -0.122
      -0.176
      -0.241
      -0.263
      -0.209
      -0.096
       0.028
       0.124
       0.177
       0.188
       0.158
       0.089
      -0.004
      -0.092
      -0.143
      -0.144
      -0.107
      -0.058
      -0.018
       0.003
       0.005
       0.001
       0.002
       0.016
       0.048
       0.099
       0.165
       0.235
       0.296
       0.334
       0.341
       0.311
       0.240
       0.129
      -0.006
      -0.139
      -0.243
      -0.300
      -0.299
      -0.243
      -0.157
      -0.073
      -0.017
       0.002
      -0.006
      -0.025
      -0.042
      -0.052
      -0.057
      -0.066
      -0.083
      -0.100
      -0.105
      -0.089
      -0.061
      -0.039
      -0.035
      -0.038
      -0.027
       0.006
       0.050
       0.091
       0.123
       0.147
       0.158
       0.146
       0.110
       0.061
       0.018
      -0.010
      -0.026
      -0.038
      -0.046
      -0.041
      -0.018
       0.019
       0.052
       0.061
       0.042
       0.011
      -0.003
       0.011
       0.040
       0.054
       0.030
      -0.023
      -0.074
      -0.100
      -0.113
      -0.139
      -0.185
      -0.217
      -0.191
      -0.100
       0.004
       0.057
       0.035
      -0.030
      -0.076
      -0.062
       0.010
       0.106
       0.188
       0.233
       0.240
       0.224
       0.198
       0.163
       0.108
       0.027
      -0.068
      -0.149
      -0.185
      -0.160
      -0.085
       0.000
       0.056
       0.064
       0.031
      -0.021
      -0.078
      -0.138
      -0.199
      -0.244
      -0.240
      -0.171
      -0.052
       0.079
       0.191
       0.272
       0.333
       0.377
       0.390
       0.348
       0.238
       0.080
      -0.072
      -0.157
      -0.153
      -0.095
      -0.041
      -0.026
      -0.047
      -0.080
      -0.103
      -0.110
      -0.110
      -0.118
      -0.141
      -0.170
      -0.195
      -0.209
      -0.216
      -0.219
      -0.209
      -0.167
      -0.077
       0.048
       0.160
       0.215
       0.206
       0.174
       0.162
       0.183
       0.210
       0.212
       0.182
       0.139
       0.112
       0.118
       0.147
       0.169
       0.151
       0.076
      -0.046
      -0.189
      -0.313
      -0.386
      -0.390
      -0.332
      -0.227
      -0.100
       0.022
       0.111
       0.149
       0.137
       0.095
       0.046
       0.004
      -0.035
      -0.082
      -0.136
      -0.181
      -0.191
      -0.147
      -0.053
       0.067
       0.180
       0.253
       0.271
       0.239
       0.182
       0.121
       0.064
       0.006
      -0.056
      -0.113
      -0.152
      -0.164
      -0.152
      -0.124
      -0.090
      -0.053
      -0.015
       0.021
       0.048
       0.064
       0.067
       0.058
       0.049
       0.048
       0.066
       0.098
       0.132
       0.157
       0.169
       0.178
       0.192
       0.204
       0.190
       0.131
       0.026
      -0.104
      -0.228
      -0.321
      -0.376
      -0.392
      -0.365
      -0.284
      -0.153
      -0.004
       0.117
       0.175
       0.170
       0.134
       0.105
       0.101
       0.115
       0.127
       0.122
       0.103
       0.080
       0.054
       0.019
      -0.033
      -0.093
      -0.140
      -0.155
      -0.139
      -0.111
      -0.094
      -0.084
      -0.058
      -0.003
       0.064
       0.110
       0.116
       0.094
       0.068
       0.050
       0.034
       0.009
      -0.021
      -0.044
      -0.048
      -0.034
      -0.013
       0.004
       0.008
      -0.002
      -0.029
      -0.063
      -0.090
      -0.102
      -0.096
      -0.076
      -0.041
       0.010
       0.076
       0.142
       0.196
       0.229
       0.246
       0.245
       0.223
       0.169
       0.081
      -0.027
      -0.123
      -0.177
      -0.179
      -0.153
      -0.127
      -0.110
      -0.090
      -0.055
      -0.011
       0.020
       0.027
       0.018
       0.015
       0.032
       0.063
       0.088
       0.089
       0.064
       0.029
       0.004
      -0.003
      -0.003
      -0.011
      -0.026
      -0.036
      -0.033
      -0.026
      -0.037
      -0.068
      -0.096
      -0.086
      -0.032
       0.028
       0.037
      -0.028
      -0.128
      -0.184
      -0.140
      -0.019
       0.105
       0.169
       0.176
       0.170
       0.171
       0.153
       0.074
      -0.066
      -0.219
      -0.320
      -0.334
      -0.268
      -0.155
      -0.032
       0.075
       0.145
       0.169
       0.148
       0.096
       0.031
      -0.033
      -0.080
      -0.078
      -0.006
       0.122
       0.248
       0.305
       0.269
       0.177
       0.085
       0.023
      -0.028
      -0.088
      -0.153
      -0.189
      -0.171
      -0.106
      -0.026
       0.038
       0.067
       0.058
       0.020
      -0.026
      -0.051
      -0.040
       0.007
       0.070
       0.126
       0.154
       0.148
       0.111
       0.048
      -0.030
      -0.103
      -0.158
      -0.187
      -0.194
      -0.186
      -0.162
      -0.122
      -0.066
      -0.010
       0.031
       0.056
       0.085
       0.138
       0.216
       0.291
       0.332
       0.325
       0.274
       0.185
       0.066
      -0.063
      -0.169
      -0.222
      -0.218
      -0.179
      -0.132
      -0.090
      -0.051
      -0.012
       0.017
       0.021
       0.004
       0.000
       0.039
       0.120
       0.201
       0.233
       0.201
       0.131
       0.058
      -0.002
      -0.059
      -0.126
      -0.192
      -0.231
      -0.217
      -0.159
      -0.095
      -0.063
      -0.074
      -0.107
      -0.127
      -0.116
      -0.077
      -0.030
       0.011
       0.043
       0.072
       0.106
       0.149
       0.200
       0.247
       0.274
       0.270
       0.235
       0.175
       0.080
      -0.062
      -0.238
      -0.398
      -0.475
      -0.431
      -0.281
      -0.087
       0.083
       0.197
       0.254
       0.264
       0.235
       0.175
       0.101
       0.029
      -0.033
      -0.091
      -0.152
      -0.203
      -0.226
      -0.204
      -0.147
      -0.080
      -0.027
      -0.001
       0.007
       0.009
       0.013
       0.018
       0.020
       0.022
       0.028
       0.039
       0.051
       0.062
       0.063
       0.043
      -0.003
      -0.060
      -0.098
      -0.094
      -0.046
       0.026
       0.096
       0.152
       0.187
       0.193
       0.161
       0.094
       0.010
      -0.069
      -0.125
      -0.146
      -0.132
      -0.092
      -0.039
       0.015
       0.062
       0.099
       0.125
       0.146
       0.170
       0.190
       0.188
       0.131
       0.003
      -0.179
      -0.357
      -0.454
      -0.421
      -0.279
      -0.095
       0.062
       0.167
       0.236
       0.272
       0.250
       0.137
      -0.054
      -0.251
      -0.363
      -0.340
      -0.205
      -0.015
       0.177
       0.341
       0.462
       0.523
       0.501
       0.390
       0.219
       0.040
      -0.099
      -0.179
      -0.203
      -0.184
      -0.142
      -0.105
      -0.092
      -0.099
      -0.099
      -0.074
      -0.034
      -0.014
      -0.037
      -0.093
      -0.142
      -0.156
      -0.137
      -0.112
      -0.097
      -0.086
      -0.065
      -0.030
       0.009
       0.034
       0.037
       0.018
      -0.007
      -0.019
      -0.006
       0.040
       0.118
       0.225
       0.345
       0.445
       0.487
       0.442
       0.309
       0.113
      -0.107
      -0.304
      -0.434
      -0.471
      -0.413
      -0.291
      -0.155
      -0.050
       0.004
       0.017
       0.024
       0.059
       0.133
       0.225
       0.299
       0.333
       0.334
       0.335
       0.353
       0.363
       0.317
       0.185
      -0.008
      -0.196
      -0.316
      -0.352
      -0.330
      -0.283
      -0.224
      -0.153
      -0.074
      -0.006
       0.031
       0.033
       0.015
      -0.002
      -0.006
       0.002
       0.007
      -0.005
      -0.038
      -0.077
      -0.100
      -0.094
      -0.067
      -0.046
      -0.051
      -0.067
      -0.063
      -0.020
       0.038
       0.065
       0.038
      -0.023
      -0.067
      -0.050
       0.032
       0.142
       0.226
       0.253
       0.224
       0.161
       0.084
      -0.002
      -0.094
      -0.178
      -0.225
      -0.206
      -0.112
       0.021
       0.131
       0.160
       0.099
      -0.016
      -0.133
      -0.226
      -0.293
      -0.332
      -0.324
      -0.250
      -0.123
       0.003
       0.068
       0.039
      -0.066
      -0.202
      -0.333
      -0.444
      -0.529
      -0.571
      -0.550
      -0.461
      -0.326
      -0.183
      -0.057
       0.058
       0.179
       0.308
       0.418
       0.473
       0.451
       0.363
       0.239
       0.114
       0.013
      -0.049
      -0.058
      -0.004
       0.105
       0.239
       0.357
       0.435
       0.472
       0.480
       0.466
       0.422
       0.342
       0.234
       0.121
       0.033
      -0.013
      -0.018
      -0.002
       0.018
       0.021
      -0.006
      -0.068
      -0.153
      -0.231
      -0.261
      -0.225
      -0.134
      -0.021
       0.078
       0.151
       0.204
       0.252
       0.298
       0.329
       0.324
       0.275
       0.193
       0.091
      -0.024
      -0.150
      -0.264
      -0.331
      -0.332
      -0.287
      -0.246
      -0.246
      -0.273
      -0.282
      -0.242
      -0.166
      -0.099
      -0.062
      -0.034
       0.027
       0.135
       0.254
       0.328
       0.322
       0.247
       0.139
       0.029
      -0.081
      -0.202
      -0.337
      -0.460
      -0.522
      -0.490
      -0.372
      -0.215
      -0.078
       0.006
       0.044
       0.057
       0.052
       0.020
      -0.041
      -0.103
      -0.120
      -0.063
       0.053
       0.179
       0.260
       0.271
       0.232
       0.176
       0.122
       0.063
      -0.016
      -0.112
      -0.198
      -0.240
      -0.220
      -0.156
      -0.094
      -0.070
      -0.086
      -0.098
      -0.056
       0.055
       0.201
       0.326
       0.389
       0.392
       0.351
       0.284
       0.197
       0.098
       0.008
      -0.052
      -0.076
      -0.076
      -0.073
      -0.068
      -0.045
       0.007
       0.080
       0.149
       0.194
       0.219
       0.243
       0.280
       0.321
       0.343
       0.313
       0.217
       0.069
      -0.091
      -0.213
      -0.270
      -0.267
      -0.227
      -0.170
      -0.104
      -0.039
       0.013
       0.051
       0.095
       0.172
       0.277
       0.367
       0.395
       0.343
       0.233
       0.101
      -0.028
      -0.141
      -0.225
      -0.262
      -0.247
      -0.195
      -0.146
      -0.142
      -0.204
      -0.320
      -0.456
      -0.572
      -0.631
      -0.616
      -0.529
      -0.384
      -0.200
       0.003
       0.197
       0.347
       0.432
       0.446
       0.402
       0.321
       0.221
       0.114
      -0.002
      -0.124
      -0.244
      -0.353
      -0.450
      -0.541
      -0.620
      -0.659
      -0.626
      -0.503
      -0.312
      -0.092
       0.125
       0.323
       0.500
       0.644
       0.736
       0.753
       0.690
       0.561
       0.393
       0.210
       0.044
      -0.072
      -0.120
      -0.096
      -0.013
       0.107
       0.240
       0.352
       0.408
       0.384
       0.290
       0.166
       0.068
       0.025
       0.027
       0.028
      -0.017
      -0.111
      -0.216
      -0.285
      -0.311
      -0.323
      -0.361
      -0.436
      -0.513
      -0.545
      -0.514
      -0.442
      -0.371
      -0.311
      -0.232
      -0.089
       0.129
       0.386
       0.624
       0.803
       0.914
       0.970
       0.979
       0.933
       0.816
       0.631
       0.404
       0.171
      -0.036
      -0.197
      -0.307
      -0.375
      -0.422
      -0.462
      -0.486
      -0.463
      -0.364
      -0.203
      -0.040
       0.051
       0.035
      -0.061
      -0.178
      -0.275
      -0.347
      -0.401
      -0.424
      -0.386
      -0.273
      -0.119
       0.010
       0.057
       0.019
      -0.061
      -0.135
      -0.192
      -0.243
      -0.299
      -0.344
      -0.354
      -0.321
      -0.267
      -0.231
      -0.231
      -0.252
      -0.250
      -0.199
      -0.108
      -0.019
       0.033
       0.047
       0.054
       0.085
       0.139
       0.192
       0.218
       0.221
       0.228
       0.261
       0.318
       0.373
       0.405
       0.421
       0.441
       0.481
       0.525
       0.548
       0.530
       0.476
       0.401
       0.322
       0.244
       0.166
       0.081
      -0.005
      -0.080
      -0.127
      -0.144
      -0.142
      -0.137
      -0.140
      -0.153
      -0.174
      -0.200
      -0.230
      -0.264
      -0.291
      -0.293
      -0.251
      -0.166
      -0.061
       0.030
       0.088
       0.109
       0.099
       0.056
      -0.024
      -0.137
      -0.257
      -0.341
      -0.356
      -0.304
      -0.225
      -0.171
      -0.160
      -0.159
      -0.109
       0.014
       0.179
       0.331
       0.440
       0.514
       0.565
       0.575
       0.501
       0.316
       0.058
      -0.185
      -0.326
      -0.334
      -0.251
      -0.151
      -0.085
      -0.051
      -0.021
       0.021
       0.056
       0.056
       0.013
      -0.046
      -0.089
      -0.109
      -0.128
      -0.172
      -0.238
      -0.291
      -0.283
      -0.190
      -0.034
       0.133
       0.246
       0.274
       0.228
       0.148
       0.063
      -0.022
      -0.127
      -0.256
      -0.386
      -0.472
      -0.477
      -0.408
      -0.312
      -0.237
      -0.199
      -0.171
      -0.115
      -0.022
       0.088
       0.190
       0.275
       0.350
       0.412
       0.429
       0.368
       0.242
       0.110
       0.052
       0.101
       0.234
       0.392
       0.527
       0.617
       0.655
       0.632
       0.550
       0.432
       0.317
       0.234
       0.182
       0.142
       0.102
       0.069
       0.044
       0.003
      -0.084
      -0.220
      -0.364
      -0.466
      -0.498
      -0.467
      -0.398
      -0.308
      -0.207
      -0.099
       0.003
       0.080
       0.112
       0.090
       0.024
      -0.062
      -0.134
      -0.168
      -0.162
      -0.139
      -0.135
      -0.168
      -0.213
      -0.216
      -0.138
       0.011
       0.185
       0.333
       0.428
       0.455
       0.407
       0.293
       0.141
      -0.008
      -0.135
      -0.238
      -0.320
      -0.370
      -0.376
      -0.346
      -0.307
      -0.286
      -0.302
      -0.350
      -0.408
      -0.442
      -0.422
      -0.328
      -0.157
       0.070
       0.307
       0.495
       0.577
       0.528
       0.359
       0.118
      -0.129
      -0.320
      -0.417
      -0.423
      -0.378
      -0.329
      -0.299
      -0.278
      -0.243
      -0.183
      -0.095
       0.029
       0.198
       0.410
       0.635
       0.817
       0.896
       0.840
       0.659
       0.410
       0.161
      -0.034
      -0.157
      -0.215
      -0.227
      -0.213
      -0.185
      -0.149
      -0.102
      -0.040
       0.032
       0.098
       0.143
       0.157
       0.146
       0.122
       0.092
       0.048
      -0.022
      -0.114
      -0.201
      -0.246
      -0.228
      -0.151
      -0.044
       0.064
       0.153
       0.223
       0.271
       0.288
       0.272
       0.237
       0.209
       0.200
       0.202
       0.195
       0.165
       0.111
       0.042
      -0.027
      -0.082
      -0.120
      -0.149
      -0.182
      -0.230
      -0.288
      -0.331
      -0.330
      -0.265
      -0.143
       0.009
       0.161
       0.290
       0.372
       0.381
       0.302
       0.152
      -0.025
      -0.175
      -0.265
      -0.286
      -0.259
      -0.220
      -0.198
      -0.199
      -0.204
      -0.187
      -0.141
      -0.092
      -0.084
      -0.135
      -0.211
      -0.246
      -0.200
      -0.089
       0.034
       0.133
       0.209
       0.277
       0.330
       0.340
       0.286
       0.180
       0.074
       0.018
       0.023
       0.061
       0.082
       0.057
      -0.011
      -0.086
      -0.135
      -0.145
      -0.136
      -0.129
      -0.126
      -0.112
      -0.080
      -0.043
      -0.022
      -0.028
      -0.053
      -0.085
      -0.118
      -0.146
      -0.153
      -0.119
      -0.037
       0.070
       0.158
       0.188
       0.158
       0.102
       0.062
       0.057
       0.077
       0.091
       0.077
       0.033
      -0.026
      -0.077
      -0.102
      -0.093
      -0.059
      -0.014
       0.033
       0.077
       0.109
       0.112
       0.078
       0.023
      -0.024
      -0.052
      -0.073
      -0.105
      -0.139
      -0.146
      -0.105
      -0.034
       0.022
       0.029
      -0.005
      -0.036
      -0.021
       0.048
       0.136
       0.196
       0.205
       0.180
       0.152
       0.146
       0.165
       0.191
       0.198
       0.170
       0.114
       0.061
       0.038
       0.037
       0.023
      -0.034
      -0.119
      -0.179
      -0.175
      -0.116
      -0.053
      -0.028
      -0.039
      -0.049
      -0.025
       0.031
       0.088
       0.119
       0.126
       0.129
       0.136
       0.121
       0.052
      -0.068
      -0.181
      -0.213
      -0.139
      -0.004
       0.106
       0.134
