Origin Time       06/07/2010 19:08:20
Lat.              29.8 N	
Long.             80.4 E	
Depth (Km)         10.0
Magnitude         5.1
 Region           INDIA-NEPAL                                                      
 Above details taken from IMD 
     
Station Code      CHP
Station Lat.       29.334  N
Station Long.      80.095  E
Station Height(m) 1635.0
Site Class        A   Vs30 between 700 m/sec to 1400 m/sec * 
Record Time       06.07.2010 19:08:29.599
Sampling Rate     200. Hz
 Record Duration   66.660 Sec.
 Direction         E-W (E positive)
Max. Acceleration     -2.353 cm/sec**2
     
  * For reference see Site Classification link of website 
     
 Base Line Corrected and Low Pass Filtered (Cut Off at 35 Hz) Time History
 Acceleration data in cm/sec**2
    
[...]
      -0.026
       0.066
       0.161
       0.251
       0.318
       0.349
       0.342
       0.303
       0.245
       0.184
       0.131
       0.096
       0.079
       0.071
       0.060
       0.036
      -0.007
      -0.065
      -0.129
      -0.185
      -0.223
      -0.233
      -0.209
      -0.148
      -0.053
       0.066
       0.186
       0.285
       0.341
       0.350
       0.320
       0.266
       0.204
       0.143
       0.086
       0.032
      -0.020
      -0.069
      -0.113
      -0.153
      -0.189
      -0.221
      -0.246
      -0.259
      -0.258
      -0.246
      -0.227
      -0.209
      -0.195
      -0.182
      -0.166
      -0.141
      -0.108
      -0.067
      -0.023
       0.021
       0.061
       0.096
       0.124
       0.146
       0.167
       0.186
       0.192
       0.173
       0.117
       0.028
      -0.076
      -0.172
      -0.239
      -0.270
      -0.268
      -0.240
      -0.196
      -0.146
      -0.100
      -0.070
      -0.063
      -0.078
      -0.102
      -0.118
      -0.109
      -0.068
      -0.005
       0.061
       0.112
       0.136
       0.135
       0.122
       0.113
       0.120
       0.141
       0.170
       0.196
       0.212
       0.216
       0.212
       0.205
       0.199
       0.197
       0.195
       0.190
       0.177
       0.159
       0.141
       0.129
       0.126
       0.130
       0.141
       0.160
       0.185
       0.214
       0.236
       0.241
       0.221
       0.179
       0.124
       0.066
       0.013
      -0.029
      -0.061
      -0.086
      -0.110
      -0.130
      -0.143
      -0.145
      -0.136
      -0.121
      -0.106
      -0.095
      -0.091
      -0.092
      -0.091
      -0.077
      -0.042
       0.016
       0.089
       0.161
       0.211
       0.228
       0.211
       0.171
       0.118
       0.062
       0.010
      -0.033
      -0.062
      -0.078
      -0.096
      -0.131
      -0.195
      -0.281
      -0.372
      -0.443
      -0.479
      -0.472
      -0.429
      -0.362
      -0.285
      -0.211
      -0.142
      -0.078
      -0.015
       0.054
       0.129
       0.207
       0.284
       0.348
       0.391
       0.403
       0.383
       0.340
       0.287
       0.236
       0.189
       0.140
       0.079
       0.000
      -0.088
      -0.167
      -0.222
      -0.240
      -0.224
      -0.190
      -0.158
      -0.145
      -0.156
      -0.180
      -0.196
      -0.185
      -0.139
      -0.066
       0.018
       0.098
       0.168
       0.228
       0.279
       0.322
       0.358
       0.389
       0.415
       0.431
       0.425
       0.390
       0.330
       0.254
       0.171
       0.085
      -0.001
      -0.084
      -0.157
      -0.217
      -0.264
      -0.301
      -0.326
      -0.334
      -0.321
      -0.289
      -0.245
      -0.201
      -0.165
      -0.140
      -0.127
      -0.120
      -0.114
      -0.100
      -0.074
      -0.032
       0.024
       0.084
       0.136
       0.165
       0.160
       0.119
       0.052
      -0.019
      -0.071
      -0.090
      -0.076
      -0.041
       0.001
       0.034
       0.050
       0.041
       0.004
      -0.055
      -0.125
      -0.185
      -0.217
      -0.208
      -0.161
      -0.091
      -0.022
       0.029
       0.053
       0.053
       0.044
       0.039
       0.052
       0.078
       0.105
       0.117
       0.110
       0.084
       0.051
       0.021
       0.004
       0.002
       0.013
       0.031
       0.048
       0.059
       0.062
       0.058
       0.051
       0.048
       0.055
       0.075
       0.104
       0.133
       0.148
       0.139
       0.104
       0.055
       0.008
      -0.022
      -0.027
      -0.011
       0.020
       0.058
       0.097
       0.133
       0.164
       0.192
       0.216
       0.231
       0.228
       0.200
       0.150
       0.089
       0.026
      -0.037
      -0.099
      -0.156
      -0.200
      -0.223
      -0.226
      -0.220
      -0.217
      -0.222
      -0.235
      -0.249
      -0.262
      -0.276
      -0.295
      -0.323
      -0.360
      -0.400
      -0.433
      -0.449
      -0.442
      -0.410
      -0.353
      -0.273
      -0.180
      -0.084
       0.006
       0.088
       0.165
       0.239
       0.305
       0.353
       0.372
       0.360
       0.323
       0.277
       0.234
       0.204
       0.189
       0.178
       0.156
       0.113
       0.049
      -0.018
      -0.070
      -0.097
      -0.104
      -0.100
      -0.096
      -0.097
      -0.108
      -0.130
      -0.165
      -0.209
      -0.254
      -0.286
      -0.294
      -0.270
      -0.216
      -0.140
      -0.057
       0.018
       0.078
       0.122
       0.161
       0.202
       0.245
       0.283
       0.307
       0.312
       0.300
       0.272
       0.233
       0.189
       0.147
       0.113
       0.089
       0.077
       0.072
       0.073
       0.075
       0.074
       0.065
       0.038
      -0.009
      -0.074
      -0.145
      -0.200
      -0.223
      -0.209
      -0.164
      -0.100
      -0.033
       0.027
       0.076
       0.114
       0.144
       0.169
       0.192
       0.211
       0.218
       0.208
       0.174
       0.120
       0.055
      -0.009
      -0.062
      -0.099
      -0.126
      -0.153
      -0.189
      -0.234
      -0.281
      -0.326
      -0.369
      -0.414
      -0.455
      -0.481
      -0.474
      -0.431
      -0.362
      -0.285
      -0.210
      -0.137
      -0.062
       0.020
       0.107
       0.196
       0.286
       0.373
       0.450
       0.510
       0.545
       0.553
       0.538
       0.506
       0.459
       0.397
       0.324
       0.243
       0.158
       0.069
      -0.026
      -0.124
      -0.217
      -0.295
      -0.351
      -0.385
      -0.399
      -0.396
      -0.374
      -0.337
      -0.290
      -0.240
      -0.189
      -0.133
      -0.071
      -0.005
       0.060
       0.114
       0.156
       0.185
       0.208
       0.221
       0.220
       0.196
       0.150
       0.092
       0.035
      -0.013
      -0.053
      -0.093
      -0.135
      -0.175
      -0.203
      -0.210
      -0.191
      -0.151
      -0.105
      -0.066
      -0.045
      -0.043
      -0.053
      -0.064
      -0.066
      -0.053
      -0.025
       0.012
       0.047
       0.070
       0.075
       0.065
       0.046
       0.026
       0.015
       0.015
       0.026
       0.039
       0.049
       0.056
       0.068
       0.091
       0.127
       0.168
       0.204
       0.227
       0.233
       0.218
       0.186
       0.139
       0.086
       0.031
      -0.022
      -0.071
      -0.117
      -0.161
      -0.204
      -0.247
      -0.289
      -0.323
      -0.344
      -0.344
      -0.315
      -0.254
      -0.161
      -0.045
       0.078
       0.192
       0.291
       0.371
       0.430
       0.459
       0.448
       0.401
       0.328
       0.246
       0.165
       0.088
       0.013
      -0.062
      -0.133
      -0.195
      -0.241
      -0.271
      -0.288
      -0.297
      -0.302
      -0.302
      -0.294
      -0.275
      -0.244
      -0.202
      -0.150
      -0.086
      -0.011
       0.066
       0.135
       0.185
       0.219
       0.250
       0.290
       0.340
       0.389
       0.422
       0.425
       0.396
       0.340
       0.267
       0.184
       0.093
      -0.007
      -0.111
      -0.209
      -0.288
      -0.339
      -0.363
      -0.367
      -0.362
      -0.356
      -0.350
      -0.342
      -0.333
      -0.323
      -0.309
      -0.281
      -0.228
      -0.149
      -0.055
       0.038
       0.118
       0.183
       0.238
       0.283
       0.315
       0.334
       0.340
       0.335
       0.324
       0.302
       0.264
       0.205
       0.133
       0.060
       0.002
      -0.032
      -0.046
      -0.050
      -0.048
      -0.041
      -0.027
      -0.003
       0.025
       0.046
       0.050
       0.032
      -0.006
      -0.056
      -0.110
      -0.160
      -0.196
      -0.208
      -0.193
      -0.153
      -0.100
      -0.048
      -0.004
       0.030
       0.056
       0.080
       0.109
       0.145
       0.192
       0.244
       0.293
       0.329
       0.347
       0.352
       0.354
       0.358
       0.364
       0.365
       0.350
       0.310
       0.239
       0.136
       0.001
      -0.161
      -0.337
      -0.511
      -0.661
      -0.771
      -0.834
      -0.859
      -0.860
      -0.849
      -0.824
      -0.780
      -0.712
      -0.621
      -0.514
      -0.397
      -0.278
      -0.161
      -0.051
       0.051
       0.146
       0.234
       0.318
       0.401
       0.485
       0.565
       0.634
       0.689
       0.733
       0.770
       0.806
       0.842
       0.872
       0.888
       0.884
       0.859
       0.815
       0.751
       0.663
       0.544
       0.395
       0.223
       0.040
      -0.144
      -0.329
      -0.514
      -0.694
      -0.859
      -0.991
      -1.074
      -1.099
      -1.059
      -0.960
      -0.810
      -0.625
      -0.420
      -0.209
      -0.004
       0.183
       0.347
       0.487
       0.602
       0.694
       0.767
       0.819
       0.845
       0.834
       0.770
       0.645
       0.462
       0.237
      -0.008
      -0.247
      -0.457
      -0.622
      -0.737
      -0.811
      -0.857
      -0.887
      -0.904
      -0.903
      -0.869
      -0.795
      -0.685
      -0.553
      -0.423
      -0.305
      -0.203
      -0.110
      -0.024
       0.057
       0.133
       0.201
       0.256
       0.293
       0.307
       0.296
       0.260
       0.203
       0.127
       0.034
      -0.074
      -0.188
      -0.294
      -0.381
      -0.445
      -0.490
      -0.521
      -0.536
      -0.528
      -0.496
      -0.444
      -0.379
      -0.303
      -0.209
      -0.087
       0.069
       0.253
       0.453
       0.653
       0.836
       0.992
       1.117
       1.214
       1.288
       1.342
       1.374
       1.382
       1.364
       1.319
       1.251
       1.163
       1.054
       0.921
       0.758
       0.569
       0.365
       0.164
      -0.021
      -0.185
      -0.335
      -0.480
      -0.625
      -0.763
      -0.876
      -0.950
      -0.973
      -0.944
      -0.864
      -0.736
      -0.572
      -0.391
      -0.217
      -0.072
       0.032
       0.092
       0.112
       0.099
       0.059
       0.002
      -0.062
      -0.121
      -0.164
      -0.188
      -0.197
      -0.204
      -0.223
      -0.268
      -0.338
      -0.420
      -0.490
      -0.525
      -0.518
      -0.474
      -0.413
      -0.356
      -0.317
      -0.301
      -0.295
      -0.281
      -0.242
      -0.174
      -0.091
      -0.016
       0.036
       0.063
       0.072
       0.074
       0.077
       0.081
       0.085
       0.085
       0.078
       0.062
       0.035
      -0.006
      -0.060
      -0.119
      -0.169
      -0.192
      -0.173
      -0.108
      -0.005
       0.122
       0.255
       0.378
       0.485
       0.577
       0.656
       0.719
       0.761
       0.776
       0.769
       0.743
       0.704
       0.651
       0.582
       0.493
       0.383
       0.251
       0.102
      -0.055
      -0.208
      -0.348
      -0.472
      -0.575
      -0.653
      -0.693
      -0.679
      -0.608
      -0.491
      -0.350
      -0.207
      -0.070
       0.057
       0.173
       0.274
       0.355
       0.414
       0.456
       0.486
       0.502
       0.497
       0.461
       0.392
       0.289
       0.160
       0.011
      -0.151
      -0.316
      -0.467
      -0.589
      -0.669
      -0.705
      -0.705
      -0.679
      -0.630
      -0.557
      -0.458
      -0.337
      -0.209
      -0.087
       0.019
       0.108
       0.182
       0.240
       0.280
       0.304
       0.314
       0.309
       0.289
       0.258
       0.227
       0.214
       0.229
       0.275
       0.344
       0.418
       0.482
       0.522
       0.526
       0.484
       0.392
       0.263
       0.117
      -0.018
      -0.125
      -0.201
      -0.258
      -0.313
      -0.372
      -0.429
      -0.472
      -0.487
      -0.475
      -0.442
      -0.401
      -0.361
      -0.324
      -0.289
      -0.252
      -0.207
      -0.149
      -0.080
      -0.004
       0.068
       0.128
       0.167
       0.181
       0.166
       0.120
       0.046
      -0.051
      -0.167
      -0.303
      -0.459
      -0.630
      -0.802
      -0.950
      -1.052
      -1.098
      -1.094
      -1.056
      -0.996
      -0.921
      -0.825
      -0.696
      -0.520
      -0.284
       0.015
       0.367
       0.745
       1.118
       1.452
       1.722
       1.914
       2.023
       2.053
       2.013
       1.918
       1.780
       1.603
       1.382
       1.111
       0.790
       0.432
       0.062
      -0.298
      -0.633
      -0.935
      -1.203
      -1.433
      -1.620
      -1.754
      -1.824
      -1.820
      -1.740
      -1.591
      -1.383
      -1.127
      -0.829
      -0.494
      -0.130
       0.248
       0.620
       0.966
       1.274
       1.540
       1.770
       1.968
       2.133
       2.257
       2.325
       2.321
       2.234
       2.054
       1.782
       1.424
       0.996
       0.518
       0.018
      -0.473
      -0.928
      -1.324
      -1.651
      -1.913
      -2.117
      -2.265
      -2.348
      -2.353
      -2.273
      -2.109
      -1.878
      -1.600
      -1.293
      -0.976
      -0.662
      -0.365
      -0.094
       0.147
       0.361
       0.543
       0.682
       0.764
       0.784
       0.761
       0.724
       0.697
       0.694
       0.712
       0.743
       0.778
       0.817
       0.858
       0.899
       0.935
       0.951
       0.938
       0.897
       0.840
       0.787
       0.749
       0.722
       0.691
       0.637
       0.548
       0.417
       0.245
       0.037
      -0.203
      -0.457
      -0.701
      -0.904
      -1.036
      -1.081
      -1.047
      -0.965
      -0.875
      -0.815
      -0.804
      -0.844
      -0.920
      -1.005
      -1.070
      -1.088
      -1.046
      -0.943
      -0.792
      -0.610
      -0.412
      -0.210
      -0.013
       0.172
       0.336
       0.471
       0.573
       0.646
       0.699
       0.742
       0.786
       0.836
       0.892
       0.949
       1.001
       1.039
       1.057
       1.055
       1.029
       0.974
       0.879
       0.738
       0.556
       0.342
       0.110
      -0.133
      -0.384
      -0.639
      -0.890
      -1.115
      -1.293
      -1.402
      -1.435
      -1.397
      -1.295
      -1.136
      -0.921
      -0.662
      -0.375
      -0.089
       0.169
       0.378
       0.528
       0.620
       0.666
       0.677
       0.660
       0.613
       0.535
       0.426
       0.289
       0.131
      -0.043
      -0.223
      -0.391
      -0.521
      -0.598
      -0.617
      -0.592
      -0.540
      -0.473
      -0.400
      -0.327
      -0.263
      -0.213
      -0.174
      -0.130
      -0.060
       0.046
       0.186
       0.341
       0.484
       0.589
       0.638
       0.625
       0.563
       0.469
       0.362
       0.256
       0.151
       0.037
      -0.093
      -0.243
      -0.407
      -0.573
      -0.725
      -0.850
      -0.930
      -0.957
      -0.927
      -0.846
      -0.730
      -0.595
      -0.455
      -0.318
      -0.182
      -0.041
       0.108
       0.264
       0.420
       0.565
       0.688
       0.782
       0.848
       0.894
       0.933
       0.973
       1.009
       1.032
       1.024
       0.972
       0.872
       0.730
       0.563
       0.394
       0.241
       0.111
       0.004
      -0.090
      -0.177
      -0.263
      -0.347
      -0.424
      -0.482
      -0.509
      -0.497
      -0.452
      -0.390
      -0.336
      -0.307
      -0.312
      -0.355
      -0.431
      -0.535
      -0.650
      -0.756
      -0.831
      -0.860
      -0.837
      -0.764
      -0.641
      -0.469
      -0.252
      -0.002
       0.255
       0.494
       0.695
       0.857
       0.993
       1.114
       1.218
       1.283
       1.280
       1.192
       1.026
       0.806
       0.565
       0.322
       0.087
      -0.144
      -0.376
      -0.609
      -0.840
      -1.057
      -1.248
      -1.395
      -1.481
      -1.494
      -1.427
      -1.283
      -1.071
      -0.809
      -0.517
      -0.216
       0.081
       0.362
       0.620
       0.846
       1.032
       1.162
       1.225
       1.216
       1.143
       1.026
       0.884
       0.733
       0.583
       0.438
       0.311
       0.216
       0.171
       0.185
       0.245
       0.321
       0.380
       0.400
       0.373
       0.304
       0.204
       0.081
      -0.050
      -0.174
      -0.274
      -0.339
      -0.367
      -0.370
      -0.367
      -0.377
      -0.411
      -0.468
      -0.537
      -0.604
      -0.651
      -0.667
      -0.646
      -0.591
      -0.511
      -0.414
      -0.308
      -0.197
      -0.084
       0.020
       0.103
       0.159
       0.188
       0.197
       0.189
       0.169
       0.138
       0.099
       0.051
      -0.009
      -0.083
      -0.169
      -0.254
      -0.324
      -0.363
      -0.364
      -0.323
      -0.236
      -0.101
       0.075
       0.273
       0.463
       0.614
       0.705
       0.739
       0.728
       0.688
       0.630
       0.555
       0.462
       0.352
       0.230
       0.104
      -0.022
      -0.138
      -0.237
      -0.317
      -0.383
      -0.452
      -0.540
      -0.658
      -0.800
      -0.949
      -1.082
      -1.171
      -1.196
      -1.147
      -1.028
      -0.854
      -0.648
      -0.428
      -0.204
       0.018
       0.239
       0.454
       0.657
       0.837
       0.989
       1.110
       1.203
       1.266
       1.292
       1.270
       1.193
       1.066
       0.907
       0.738
       0.577
       0.430
       0.292
       0.153
       0.009
      -0.139
      -0.284
      -0.420
      -0.542
      -0.646
      -0.731
      -0.795
      -0.842
      -0.877
      -0.900
      -0.901
      -0.860
      -0.764
      -0.614
      -0.428
      -0.236
      -0.065
       0.069
       0.161
       0.219
       0.259
       0.297
       0.343
       0.400
       0.471
       0.557
       0.659
       0.772
       0.885
       0.983
       1.048
       1.064
       1.020
       0.917
       0.766
       0.585
       0.392
       0.204
       0.027
      -0.134
      -0.287
      -0.448
      -0.628
      -0.831
      -1.035
      -1.203
      -1.298
      -1.299
      -1.212
      -1.065
      -0.889
      -0.698
      -0.493
      -0.269
      -0.031
       0.205
       0.418
       0.591
       0.715
       0.787
       0.806
       0.771
       0.685
       0.557
       0.403
       0.235
       0.062
      -0.113
      -0.281
      -0.434
      -0.563
      -0.668
      -0.754
      -0.827
      -0.888
      -0.927
      -0.933
      -0.897
      -0.809
      -0.666
      -0.467
      -0.222
       0.053
       0.334
       0.598
       0.826
       1.008
       1.137
       1.209
       1.220
