Origin Time       3/10/2009 5:20:54	 
Lat.              30.0°N	
Long.             79.9°E	
Depth (Km)         15.0
Magnitude         4.3
 Region           BAGESHWAR-UTTRAKHAND                                             
 Above details taken from IMD 
   
Station Code      CHP
Station Lat.       29.334
Station Long.      80.095
Station Height(m) 1635.0
Site Class        A   Vs30 between 700 m/sec to 1400 m/sec * 
Record Time       03.10.2009 05:21:13.069
Sampling Rate     200. Hz
 Record Duration   65.005 Sec.
 Direction         Vert. (Up positive)
Max. Acceleration      1.426 cm/sec**2
     
  * For reference see Site Classification link of website 
     
 Base Line Corrected and Low Pass Filtered (Cut Off at 35 Hz) Time History
 Acceleration data in cm/sec**2
    
[...]
      -0.023
      -0.215
      -0.377
      -0.479
      -0.496
      -0.383
      -0.119
       0.239
       0.561
       0.721
       0.678
       0.483
       0.228
       0.000
      -0.154
      -0.224
      -0.227
      -0.182
      -0.096
       0.020
       0.134
       0.194
       0.162
       0.041
      -0.118
      -0.255
      -0.341
      -0.378
      -0.381
      -0.362
      -0.318
      -0.225
      -0.056
       0.178
       0.411
       0.552
       0.552
       0.438
       0.285
       0.152
       0.040
      -0.080
      -0.207
      -0.285
      -0.255
      -0.116
       0.067
       0.205
       0.239
       0.172
       0.066
      -0.014
      -0.052
      -0.088
      -0.163
      -0.267
      -0.340
      -0.331
      -0.236
      -0.098
       0.035
       0.135
       0.190
       0.199
       0.176
       0.144
       0.121
       0.105
       0.085
       0.037
      -0.050
      -0.163
      -0.256
      -0.283
      -0.236
      -0.146
      -0.049
       0.028
       0.063
       0.029
      -0.084
      -0.261
      -0.444
      -0.553
      -0.522
      -0.339
      -0.063
       0.211
       0.396
       0.456
       0.423
       0.369
       0.349
       0.356
       0.339
       0.264
       0.152
       0.062
       0.037
       0.057
       0.056
      -0.018
      -0.151
      -0.280
      -0.348
      -0.330
      -0.225
      -0.042
       0.179
       0.361
       0.419
       0.303
       0.037
      -0.288
      -0.565
      -0.725
      -0.755
      -0.677
      -0.523
      -0.321
      -0.107
       0.084
       0.237
       0.360
       0.465
       0.537
       0.543
       0.471
       0.350
       0.230
       0.139
       0.071
       0.012
      -0.041
      -0.071
      -0.076
      -0.065
      -0.040
       0.023
       0.145
       0.288
       0.368
       0.322
       0.173
      -0.003
      -0.146
      -0.243
      -0.303
      -0.318
      -0.270
      -0.173
      -0.083
      -0.056
      -0.094
      -0.132
      -0.103
       0.000
       0.121
       0.195
       0.194
       0.124
       0.006
      -0.119
      -0.189
      -0.143
       0.032
       0.275
       0.474
       0.532
       0.419
       0.180
      -0.102
      -0.341
      -0.469
      -0.455
      -0.310
      -0.091
       0.122
       0.254
       0.269
       0.170
      -0.003
      -0.191
      -0.335
      -0.388
      -0.335
      -0.200
      -0.042
       0.072
       0.108
       0.078
       0.004
      -0.103
      -0.233
      -0.355
      -0.423
      -0.407
      -0.301
      -0.131
       0.044
       0.144
       0.118
      -0.012
      -0.160
      -0.232
      -0.183
      -0.039
       0.134
       0.281
       0.385
       0.462
       0.534
       0.612
       0.686
       0.719
       0.651
       0.439
       0.111
      -0.220
      -0.420
      -0.439
      -0.345
      -0.247
      -0.183
      -0.103
       0.045
       0.223
       0.318
       0.248
       0.042
      -0.184
      -0.314
      -0.306
      -0.195
      -0.047
       0.078
       0.138
       0.113
       0.010
      -0.118
      -0.206
      -0.224
      -0.199
      -0.170
      -0.141
      -0.076
       0.039
       0.168
       0.246
       0.233
       0.135
      -0.002
      -0.132
      -0.221
      -0.249
      -0.209
      -0.116
      -0.025
       0.002
      -0.061
      -0.164
      -0.210
      -0.132
       0.049
       0.238
       0.335
       0.288
       0.109
      -0.141
      -0.368
      -0.477
      -0.417
      -0.220
       0.018
       0.213
       0.344
       0.446
       0.540
       0.582
       0.496
       0.244
      -0.107
      -0.414
      -0.540
      -0.451
      -0.224
       0.009
       0.157
       0.194
       0.151
       0.082
       0.041
       0.067
       0.148
       0.233
       0.271
       0.248
       0.185
       0.096
      -0.021
      -0.169
      -0.324
      -0.434
      -0.448
      -0.353
      -0.193
      -0.040
       0.056
       0.086
       0.068
       0.018
      -0.047
      -0.102
      -0.125
      -0.110
      -0.064
       0.001
       0.056
       0.063
       0.000
      -0.107
      -0.196
      -0.229
      -0.213
      -0.167
      -0.086
       0.037
       0.181
       0.300
       0.359
       0.348
       0.264
       0.106
      -0.099
      -0.291
      -0.393
      -0.351
      -0.172
       0.071
       0.275
       0.376
       0.376
       0.319
       0.234
       0.121
      -0.015
      -0.142
      -0.217
      -0.222
      -0.181
      -0.121
      -0.049
       0.039
       0.111
       0.111
       0.012
      -0.137
      -0.221
      -0.150
       0.051
       0.242
       0.271
       0.113
      -0.106
      -0.216
      -0.137
       0.076
       0.288
       0.386
       0.352
       0.258
       0.191
       0.163
       0.099
      -0.079
      -0.348
      -0.575
      -0.625
      -0.474
      -0.219
       0.016
       0.173
       0.266
       0.317
       0.298
       0.169
      -0.054
      -0.270
      -0.363
      -0.298
      -0.157
      -0.058
      -0.052
      -0.078
      -0.035
       0.105
       0.257
       0.306
       0.213
       0.030
      -0.154
      -0.286
      -0.352
      -0.358
      -0.323
      -0.278
      -0.257
      -0.272
      -0.299
      -0.288
      -0.192
      -0.017
       0.175
       0.309
       0.356
       0.343
       0.325
       0.341
       0.394
       0.452
       0.469
       0.400
       0.222
      -0.048
      -0.328
      -0.497
      -0.478
      -0.315
      -0.147
      -0.098
      -0.171
      -0.254
      -0.222
      -0.042
       0.194
       0.348
       0.344
       0.227
       0.111
       0.079
       0.116
       0.138
       0.070
      -0.081
      -0.229
      -0.277
      -0.191
      -0.026
       0.113
       0.148
       0.088
       0.002
      -0.049
      -0.057
      -0.053
      -0.062
      -0.089
      -0.127
      -0.168
      -0.200
      -0.199
      -0.140
      -0.017
       0.142
       0.297
       0.408
       0.447
       0.396
       0.273
       0.123
      -0.010
      -0.108
      -0.188
      -0.275
      -0.370
      -0.436
      -0.420
      -0.300
      -0.118
       0.043
       0.134
       0.178
       0.238
       0.338
       0.436
       0.449
       0.318
       0.056
      -0.254
      -0.501
      -0.606
      -0.546
      -0.356
      -0.106
       0.121
       0.267
       0.314
       0.268
       0.133
      -0.085
      -0.348
      -0.578
      -0.690
      -0.640
      -0.436
      -0.130
       0.204
       0.480
       0.628
       0.623
       0.500
       0.337
       0.205
       0.129
       0.083
       0.025
      -0.070
      -0.202
      -0.347
      -0.474
      -0.542
      -0.508
      -0.343
      -0.053
       0.294
       0.580
       0.694
       0.599
       0.364
       0.116
      -0.035
      -0.048
       0.053
       0.213
       0.380
       0.515
       0.578
       0.521
       0.319
       0.007
      -0.327
      -0.585
      -0.705
      -0.682
      -0.559
      -0.386
      -0.188
       0.023
       0.216
       0.344
       0.382
       0.345
       0.259
       0.143
       0.021
      -0.067
      -0.096
      -0.071
      -0.031
      -0.022
      -0.082
      -0.222
      -0.422
      -0.633
      -0.790
      -0.837
      -0.751
      -0.547
      -0.271
       0.019
       0.270
       0.448
       0.538
       0.531
       0.414
       0.210
       0.004
      -0.101
      -0.061
       0.067
       0.173
       0.190
       0.130
       0.049
      -0.031
      -0.132
      -0.262
      -0.361
      -0.329
      -0.128
       0.164
       0.407
       0.509
       0.482
       0.399
       0.317
       0.241
       0.153
       0.054
      -0.027
      -0.076
      -0.106
      -0.140
      -0.162
      -0.127
       0.002
       0.189
       0.330
       0.328
       0.174
      -0.048
      -0.243
      -0.363
      -0.407
      -0.383
      -0.295
      -0.158
      -0.006
       0.127
       0.222
       0.282
       0.327
       0.359
       0.346
       0.237
       0.010
      -0.294
      -0.579
      -0.752
      -0.765
      -0.627
      -0.382
      -0.097
       0.154
       0.317
       0.395
       0.437
       0.466
       0.439
       0.280
      -0.032
      -0.414
      -0.717
      -0.817
      -0.686
      -0.386
      -0.012
       0.343
       0.595
       0.676
       0.573
       0.342
       0.078
      -0.143
      -0.283
      -0.350
      -0.369
      -0.348
      -0.252
      -0.040
       0.265
       0.556
       0.720
       0.725
       0.623
       0.475
       0.302
       0.118
      -0.043
      -0.148
      -0.209
      -0.266
      -0.327
      -0.367
      -0.364
      -0.329
      -0.287
      -0.246
      -0.188
      -0.092
       0.040
       0.170
       0.239
       0.207
       0.088
      -0.067
      -0.199
      -0.270
      -0.268
      -0.200
      -0.087
       0.037
       0.127
       0.133
       0.023
      -0.186
      -0.419
      -0.583
      -0.611
      -0.488
      -0.241
       0.061
       0.326
       0.474
       0.484
       0.400
       0.287
       0.191
       0.137
       0.139
       0.185
       0.218
       0.166
       0.001
      -0.225
      -0.410
      -0.462
      -0.349
      -0.112
       0.149
       0.320
       0.350
       0.281
       0.211
       0.204
       0.254
       0.309
       0.332
       0.327
       0.313
       0.285
       0.196
       0.000
      -0.280
      -0.541
      -0.668
      -0.648
      -0.579
      -0.567
      -0.602
      -0.565
      -0.350
       0.010
       0.366
       0.579
       0.619
       0.555
       0.459
       0.350
       0.228
       0.110
       0.023
      -0.037
      -0.101
      -0.178
      -0.218
      -0.162
      -0.010
       0.167
       0.291
       0.322
       0.263
       0.136
      -0.036
      -0.235
      -0.442
      -0.621
      -0.704
      -0.620
      -0.348
       0.060
       0.504
       0.880
       1.106
       1.121
       0.900
       0.476
      -0.064
      -0.608
      -1.053
      -1.319
      -1.356
      -1.165
      -0.807
      -0.390
      -0.032
       0.195
       0.294
       0.327
       0.359
       0.414
       0.466
       0.481
       0.446
       0.380
       0.312
       0.258
       0.210
       0.141
       0.029
      -0.121
      -0.270
      -0.376
      -0.420
      -0.413
      -0.380
      -0.340
      -0.299
      -0.243
      -0.150
      -0.019
       0.111
       0.188
       0.201
       0.203
       0.264
       0.409
       0.598
       0.740
       0.725
       0.473
       0.016
      -0.475
      -0.781
      -0.780
      -0.518
      -0.157
       0.142
       0.295
       0.311
       0.258
       0.208
       0.175
       0.118
       0.006
      -0.115
      -0.153
      -0.064
       0.100
       0.247
       0.336
       0.389
       0.431
       0.447
       0.392
       0.246
       0.039
      -0.173
      -0.354
      -0.509
      -0.662
      -0.809
      -0.905
      -0.897
      -0.754
      -0.479
      -0.103
       0.311
       0.670
       0.885
       0.911
       0.752
       0.446
       0.065
      -0.286
      -0.497
      -0.510
      -0.359
      -0.149
       0.000
       0.021
      -0.081
      -0.238
      -0.372
      -0.448
      -0.477
      -0.462
      -0.359
      -0.119
       0.237
       0.608
       0.883
       1.009
       0.984
       0.819
       0.541
       0.217
      -0.060
      -0.227
      -0.302
      -0.353
      -0.434
      -0.526
      -0.572
      -0.544
      -0.473
      -0.398
      -0.309
      -0.151
       0.090
       0.329
       0.437
       0.370
       0.214
       0.110
       0.116
       0.176
       0.207
       0.194
       0.187
       0.235
       0.323
       0.391
       0.375
       0.252
       0.033
      -0.255
      -0.577
      -0.884
      -1.100
      -1.140
      -0.958
      -0.583
      -0.116
       0.306
       0.568
       0.625
       0.524
       0.377
       0.280
       0.259
       0.275
       0.295
       0.331
       0.399
       0.464
       0.444
       0.287
       0.032
      -0.219
      -0.396
      -0.508
      -0.604
      -0.700
      -0.754
      -0.723
      -0.622
      -0.500
      -0.371
      -0.186
       0.106
       0.485
       0.854
       1.116
       1.227
       1.196
       1.038
       0.766
       0.403
       0.005
      -0.365
      -0.664
      -0.883
      -1.014
      -1.038
      -0.941
      -0.738
      -0.478
      -0.222
      -0.002
       0.180
       0.324
       0.416
       0.438
       0.397
       0.315
       0.203
       0.084
       0.004
       0.004
       0.064
       0.099
       0.034
      -0.117
      -0.263
      -0.308
      -0.237
      -0.116
      -0.032
      -0.002
       0.033
       0.137
       0.300
       0.444
       0.490
       0.419
       0.264
       0.068
      -0.135
      -0.311
      -0.420
      -0.434
      -0.354
      -0.215
      -0.072
       0.025
       0.051
       0.025
       0.001
       0.038
       0.151
       0.299
       0.400
       0.385
       0.253
       0.077
      -0.055
      -0.105
      -0.101
      -0.091
      -0.100
      -0.136
      -0.217
      -0.365
      -0.570
      -0.778
      -0.915
      -0.914
      -0.729
      -0.348
       0.177
       0.729
       1.166
       1.397
       1.426
       1.324
       1.153
       0.906
       0.542
       0.060
      -0.457
      -0.888
      -1.159
      -1.280
      -1.294
      -1.212
      -0.993
      -0.600
      -0.066
       0.491
       0.924
       1.140
       1.127
       0.935
       0.639
       0.310
       0.014
      -0.196
      -0.284
      -0.248
      -0.124
       0.020
       0.118
       0.131
       0.070
      -0.029
      -0.134
      -0.232
      -0.317
      -0.377
      -0.390
      -0.344
      -0.271
      -0.235
      -0.280
      -0.374
      -0.410
      -0.286
       0.007
       0.369
       0.660
       0.790
       0.760
       0.625
       0.438
       0.220
      -0.017
      -0.242
      -0.409
      -0.488
      -0.483
      -0.417
      -0.320
      -0.217
      -0.124
      -0.042
       0.030
       0.079
       0.095
       0.097
       0.116
       0.167
       0.230
       0.271
       0.263
       0.195
       0.079
      -0.055
      -0.169
      -0.221
      -0.184
      -0.065
       0.090
       0.217
       0.275
       0.242
       0.109
      -0.104
      -0.322
      -0.443
      -0.422
      -0.312
      -0.210
      -0.170
      -0.166
      -0.127
       0.006
       0.229
       0.471
       0.619
       0.596
       0.407
       0.132
      -0.142
      -0.361
      -0.509
      -0.574
      -0.548
      -0.436
      -0.261
      -0.059
       0.142
       0.322
       0.455
       0.502
       0.426
       0.233
      -0.007
      -0.188
      -0.242
      -0.176
      -0.068
       0.010
       0.037
       0.045
       0.064
       0.082
       0.066
       0.008
      -0.054
      -0.073
      -0.027
       0.068
       0.172
       0.239
       0.238
       0.156
      -0.004
      -0.214
      -0.412
      -0.513
      -0.462
      -0.290
      -0.076
       0.126
       0.315
       0.490
       0.600
       0.580
       0.430
       0.214
       0.006
      -0.158
      -0.273
      -0.343
      -0.363
      -0.323
      -0.220
      -0.062
       0.111
       0.236
       0.262
       0.182
       0.037
      -0.107
      -0.187
      -0.168
      -0.060
       0.080
       0.184
       0.222
       0.212
       0.179
       0.113
      -0.005
      -0.161
      -0.297
      -0.361
      -0.358
      -0.325
      -0.282
      -0.206
      -0.068
       0.117
       0.283
       0.355
       0.318
       0.213
       0.087
      -0.053
      -0.223
      -0.425
      -0.606
      -0.673
      -0.552
      -0.245
       0.144
       0.466
       0.619
       0.595
       0.470
       0.340
       0.246
       0.162
       0.037
      -0.141
      -0.326
      -0.456
      -0.507
      -0.496
      -0.449
      -0.369
      -0.242
      -0.084
       0.040
       0.050
      -0.074
      -0.255
      -0.369
      -0.343
      -0.202
      -0.018
       0.161
       0.337
       0.518
       0.667
       0.720
       0.637
       0.448
       0.235
       0.084
       0.035
       0.055
       0.059
      -0.015
      -0.150
      -0.260
      -0.288
      -0.252
      -0.214
      -0.196
      -0.161
      -0.066
       0.066
       0.155
       0.132
      -0.001
      -0.174
      -0.302
      -0.337
      -0.288
      -0.194
      -0.091
       0.019
       0.148
       0.301
       0.453
       0.558
       0.564
       0.444
       0.229
       0.007
      -0.129
      -0.140
      -0.069
       0.008
       0.040
       0.032
       0.022
       0.035
       0.070
       0.124
       0.184
       0.209
       0.123
      -0.118
      -0.472
      -0.820
      -1.040
      -1.074
      -0.932
      -0.672
      -0.359
      -0.036
       0.276
       0.564
       0.808
       1.002
       1.141
       1.195
       1.104
       0.832
       0.417
      -0.044
      -0.460
      -0.785
      -1.009
      -1.129
      -1.135
      -1.021
      -0.808
      -0.537
      -0.249
       0.042
       0.319
       0.551
       0.703
       0.769
       0.775
       0.743
       0.673
       0.553
       0.388
       0.204
       0.038
      -0.098
      -0.221
      -0.362
      -0.520
      -0.655
      -0.712
      -0.662
      -0.518
      -0.319
      -0.089
       0.169
       0.447
       0.707
       0.897
       0.985
       0.955
       0.795
       0.494
       0.062
      -0.441
      -0.897
      -1.172
      -1.193
      -1.006
      -0.736
      -0.499
      -0.336
      -0.199
      -0.005
       0.292
       0.644
       0.942
       1.116
       1.176
       1.164
       1.087
       0.919
       0.640
       0.266
      -0.148
      -0.528
      -0.816
      -1.003
      -1.114
      -1.163
      -1.130
      -0.978
      -0.697
      -0.345
      -0.025
       0.190
       0.319
       0.455
       0.661
       0.901
       1.057
       1.019
       0.768
       0.392
       0.030
      -0.220
      -0.352
      -0.420
      -0.469
      -0.503
      -0.511
      -0.497
      -0.483
      -0.483
      -0.491
      -0.485
      -0.438
      -0.330
      -0.155
       0.065
       0.278
       0.429
       0.500
       0.523
       0.543
       0.552
       0.495
       0.346
       0.159
       0.026
      -0.016
      -0.003
       0.014
       0.030
       0.069
       0.140
       0.209
       0.226
       0.163
       0.034
      -0.118
      -0.250
      -0.332
      -0.368
      -0.384
      -0.408
      -0.439
      -0.448
      -0.407
      -0.302
      -0.142
       0.050
       0.235
       0.365
       0.415
       0.394
       0.324
       0.217
       0.084
      -0.046
      -0.129
      -0.130
      -0.042
       0.103
       0.236
       0.278
       0.172
      -0.066
      -0.340
      -0.517
      -0.519
      -0.358
      -0.110
       0.143
       0.339
       0.446
       0.468
       0.447
