Origin Time       19/08/2008 10:54:26 UTC
Lat.              30.1°N 
Long.             80.1°E 
Depth (Km)         15.0
Magnitude         4.3
 Region           PITHORAGARH                                                      
 Above details taken from IMD 
    
Station Code      CHP
Station Lat.       29.334  N
Station Long.      80.095  E
Station Height(m) 1635.0
Site Class        A   Vs30 between 700 m/sec to 1400 m/sec * 
Record Time       19.08.2008 10:54:36.594 UTC
Sampling Rate     200. Hz
 Record Duration   65.905 Sec.
 Direction         N-S (N positive)
Max. Acceleration     -3.166 cm/sec**2
     
  * For reference see Site Classification link of website 
     
 Base Line Corrected and Low Pass Filtered (Cut Off at 35 Hz) Time History
 Acceleration data in cm/sec**2
    
[...]
      -0.092
      -0.042
       0.024
       0.098
       0.167
       0.221
       0.256
       0.270
       0.262
       0.231
       0.181
       0.123
       0.070
       0.030
       0.003
      -0.020
      -0.049
      -0.088
      -0.140
      -0.198
      -0.254
      -0.293
      -0.304
      -0.280
      -0.228
      -0.169
      -0.126
      -0.110
      -0.114
      -0.117
      -0.098
      -0.049
       0.025
       0.109
       0.186
       0.244
       0.276
       0.284
       0.274
       0.255
       0.236
       0.224
       0.222
       0.226
       0.229
       0.216
       0.176
       0.104
       0.006
      -0.100
      -0.193
      -0.257
      -0.288
      -0.292
      -0.280
      -0.259
      -0.239
      -0.221
      -0.206
      -0.189
      -0.169
      -0.143
      -0.110
      -0.068
      -0.019
       0.034
       0.078
       0.100
       0.097
       0.075
       0.046
       0.023
       0.009
       0.006
       0.016
       0.042
       0.078
       0.113
       0.129
       0.117
       0.080
       0.037
       0.009
       0.006
       0.022
       0.039
       0.044
       0.032
       0.014
       0.000
      -0.007
      -0.010
      -0.014
      -0.018
      -0.015
       0.002
       0.034
       0.071
       0.095
       0.091
       0.057
       0.007
      -0.036
      -0.058
      -0.053
      -0.034
      -0.017
      -0.015
      -0.031
      -0.058
      -0.087
      -0.105
      -0.110
      -0.103
      -0.092
      -0.083
      -0.077
      -0.068
      -0.045
      -0.004
       0.051
       0.106
       0.152
       0.188
       0.218
       0.241
       0.251
       0.239
       0.209
       0.170
       0.133
       0.101
       0.073
       0.046
       0.022
       0.004
      -0.008
      -0.018
      -0.029
      -0.041
      -0.050
      -0.050
      -0.039
      -0.018
       0.003
       0.012
       0.001
      -0.029
      -0.070
      -0.116
      -0.164
      -0.212
      -0.258
      -0.295
      -0.317
      -0.320
      -0.304
      -0.268
      -0.211
      -0.134
      -0.047
       0.032
       0.088
       0.115
       0.123
       0.128
       0.141
       0.163
       0.190
       0.216
       0.236
       0.245
       0.243
       0.230
       0.210
       0.190
       0.166
       0.129
       0.068
      -0.015
      -0.102
      -0.171
      -0.204
      -0.204
      -0.189
      -0.174
      -0.167
      -0.163
      -0.155
      -0.138
      -0.115
      -0.087
      -0.056
      -0.017
       0.035
       0.104
       0.189
       0.279
       0.361
       0.420
       0.442
       0.421
       0.356
       0.258
       0.143
       0.026
      -0.080
      -0.169
      -0.240
      -0.291
      -0.321
      -0.327
      -0.311
      -0.276
      -0.232
      -0.191
      -0.161
      -0.142
      -0.135
      -0.133
      -0.132
      -0.129
      -0.118
      -0.092
      -0.047
       0.019
       0.099
       0.183
       0.256
       0.307
       0.331
       0.327
       0.300
       0.256
       0.197
       0.126
       0.051
      -0.010
      -0.042
      -0.037
       0.000
       0.047
       0.083
       0.100
       0.101
       0.094
       0.082
       0.062
       0.029
      -0.014
      -0.061
      -0.101
      -0.131
      -0.149
      -0.153
      -0.142
      -0.114
      -0.079
      -0.050
      -0.037
      -0.039
      -0.045
      -0.043
      -0.033
      -0.028
      -0.039
      -0.072
      -0.116
      -0.153
      -0.170
      -0.159
      -0.125
      -0.077
      -0.021
       0.041
       0.109
       0.184
       0.259
       0.324
       0.366
       0.378
       0.353
       0.291
       0.198
       0.088
      -0.021
      -0.115
      -0.185
      -0.231
      -0.254
      -0.257
      -0.243
      -0.217
      -0.182
      -0.140
      -0.092
      -0.038
       0.018
       0.072
       0.118
       0.151
       0.170
       0.174
       0.164
       0.143
       0.116
       0.087
       0.062
       0.042
       0.021
      -0.011
      -0.063
      -0.137
      -0.219
      -0.287
      -0.323
      -0.320
      -0.282
      -0.221
      -0.143
      -0.053
       0.045
       0.142
       0.224
       0.278
       0.296
       0.278
       0.234
       0.177
       0.120
       0.072
       0.040
       0.021
       0.009
      -0.002
      -0.018
      -0.036
      -0.054
      -0.066
      -0.068
      -0.057
      -0.035
      -0.005
       0.029
       0.060
       0.085
       0.107
       0.129
       0.155
       0.184
       0.209
       0.224
       0.220
       0.197
       0.158
       0.111
       0.062
       0.014
      -0.038
      -0.097
      -0.165
      -0.237
      -0.304
      -0.361
      -0.403
      -0.429
      -0.437
      -0.428
      -0.403
      -0.361
      -0.299
      -0.219
      -0.125
      -0.021
       0.085
       0.186
       0.280
       0.361
       0.424
       0.466
       0.483
       0.471
       0.426
       0.350
       0.255
       0.156
       0.071
       0.006
      -0.039
      -0.075
      -0.111
      -0.149
      -0.184
      -0.210
      -0.223
      -0.223
      -0.211
      -0.187
      -0.156
      -0.127
      -0.103
      -0.081
      -0.049
      -0.001
       0.063
       0.133
       0.201
       0.263
       0.318
       0.358
       0.367
       0.331
       0.249
       0.134
       0.011
      -0.092
      -0.153
      -0.164
      -0.140
      -0.110
      -0.102
      -0.129
      -0.181
      -0.234
      -0.268
      -0.274
      -0.256
      -0.216
      -0.153
      -0.064
       0.044
       0.156
       0.250
       0.312
       0.337
       0.331
       0.312
       0.292
       0.280
       0.272
       0.256
       0.219
       0.152
       0.056
      -0.056
      -0.170
      -0.275
      -0.366
      -0.439
      -0.488
      -0.504
      -0.482
      -0.424
      -0.337
      -0.232
      -0.122
      -0.020
       0.066
       0.135
       0.189
       0.232
       0.266
       0.290
       0.306
       0.315
       0.314
       0.295
       0.249
       0.174
       0.082
      -0.012
      -0.093
      -0.156
      -0.201
      -0.232
      -0.248
      -0.250
      -0.237
      -0.209
      -0.165
      -0.108
      -0.045
       0.020
       0.080
       0.137
       0.190
       0.236
       0.266
       0.273
       0.254
       0.211
       0.149
       0.074
      -0.006
      -0.079
      -0.134
      -0.165
      -0.176
      -0.177
      -0.176
      -0.179
      -0.187
      -0.203
      -0.228
      -0.255
      -0.266
      -0.240
      -0.170
      -0.061
       0.067
       0.196
       0.312
       0.407
       0.472
       0.500
       0.488
       0.441
       0.370
       0.288
       0.203
       0.121
       0.046
      -0.021
      -0.079
      -0.129
      -0.174
      -0.215
      -0.251
      -0.282
      -0.300
      -0.296
      -0.264
      -0.204
      -0.130
      -0.055
       0.006
       0.044
       0.051
       0.027
      -0.018
      -0.064
      -0.090
      -0.086
      -0.054
      -0.008
       0.034
       0.059
       0.061
       0.047
       0.025
       0.001
      -0.021
      -0.040
      -0.053
      -0.061
      -0.065
      -0.066
      -0.060
      -0.043
      -0.014
       0.023
       0.062
       0.096
       0.118
       0.123
       0.109
       0.078
       0.037
      -0.005
      -0.045
      -0.077
      -0.095
      -0.091
      -0.060
      -0.008
       0.052
       0.103
       0.138
       0.162
       0.183
       0.204
       0.221
       0.227
       0.223
       0.212
       0.197
       0.174
       0.140
       0.094
       0.037
      -0.031
      -0.111
      -0.203
      -0.297
      -0.377
      -0.425
      -0.424
      -0.368
      -0.268
      -0.149
      -0.045
       0.012
       0.008
      -0.048
      -0.131
      -0.211
      -0.265
      -0.281
      -0.256
      -0.189
      -0.087
       0.038
       0.169
       0.290
       0.389
       0.456
       0.491
       0.500
       0.501
       0.506
       0.511
       0.499
       0.445
       0.343
       0.206
       0.063
      -0.062
      -0.159
      -0.229
      -0.279
      -0.317
      -0.345
      -0.367
      -0.382
      -0.387
      -0.378
      -0.349
      -0.297
      -0.228
      -0.154
      -0.089
      -0.045
      -0.025
      -0.029
      -0.048
      -0.069
      -0.076
      -0.057
      -0.013
       0.044
       0.092
       0.112
       0.099
       0.064
       0.022
      -0.010
      -0.027
      -0.022
       0.008
       0.060
       0.129
       0.200
       0.261
       0.306
       0.330
       0.332
       0.313
       0.273
       0.219
       0.155
       0.082
       0.000
      -0.087
      -0.168
      -0.234
      -0.279
      -0.303
      -0.307
      -0.292
      -0.255
      -0.198
      -0.128
      -0.055
       0.011
       0.063
       0.106
       0.147
       0.194
       0.256
       0.330
       0.410
       0.482
       0.530
       0.546
       0.527
       0.474
       0.396
       0.299
       0.188
       0.067
      -0.059
      -0.182
      -0.288
      -0.373
      -0.441
      -0.505
      -0.579
      -0.661
      -0.739
      -0.789
      -0.798
      -0.757
      -0.673
      -0.556
      -0.426
      -0.300
      -0.187
      -0.091
      -0.010
       0.060
       0.126
       0.195
       0.273
       0.358
       0.435
       0.491
       0.518
       0.520
       0.510
       0.492
       0.460
       0.406
       0.329
       0.244
       0.170
       0.122
       0.104
       0.108
       0.122
       0.137
       0.146
       0.141
       0.108
       0.036
      -0.081
      -0.233
      -0.396
      -0.543
      -0.655
      -0.724
      -0.751
      -0.740
      -0.696
      -0.619
      -0.514
      -0.387
      -0.246
      -0.101
       0.043
       0.184
       0.324
       0.459
       0.583
       0.681
       0.740
       0.754
       0.727
       0.669
       0.587
       0.481
       0.346
       0.183
       0.002
      -0.171
      -0.311
      -0.401
      -0.437
      -0.423
      -0.372
      -0.297
      -0.208
      -0.112
      -0.013
       0.082
       0.163
       0.218
       0.242
       0.235
       0.204
       0.160
       0.118
       0.091
       0.079
       0.072
       0.043
      -0.027
      -0.146
      -0.302
      -0.475
      -0.647
      -0.805
      -0.936
      -1.026
      -1.056
      -1.010
      -0.883
      -0.683
      -0.436
      -0.169
       0.094
       0.344
       0.578
       0.795
       0.989
       1.147
       1.250
       1.286
       1.247
       1.136
       0.964
       0.752
       0.527
       0.310
       0.113
      -0.063
      -0.215
      -0.334
      -0.405
      -0.417
      -0.371
      -0.281
      -0.171
      -0.066
       0.019
       0.085
       0.138
       0.184
       0.227
       0.268
       0.303
       0.328
       0.330
       0.301
       0.235
       0.136
       0.016
      -0.107
      -0.218
      -0.307
      -0.367
      -0.391
      -0.377
      -0.326
      -0.244
      -0.142
      -0.029
       0.092
       0.222
       0.360
       0.500
       0.627
       0.730
       0.799
       0.826
       0.798
       0.699
       0.526
       0.295
       0.037
      -0.213
      -0.437
      -0.631
      -0.807
      -0.975
      -1.140
      -1.299
      -1.440
      -1.547
      -1.599
      -1.588
      -1.515
      -1.395
      -1.249
      -1.095
      -0.943
      -0.793
      -0.632
      -0.451
      -0.247
      -0.026
       0.196
       0.401
       0.576
       0.710
       0.803
       0.863
       0.900
       0.923
       0.937
       0.945
       0.951
       0.960
       0.971
       0.979
       0.975
       0.959
       0.950
       0.967
       1.020
       1.089
       1.138
       1.129
       1.041
       0.875
       0.641
       0.359
       0.052
      -0.254
      -0.535
      -0.778
      -0.976
      -1.131
      -1.243
      -1.311
      -1.333
      -1.305
      -1.228
      -1.101
      -0.927
      -0.705
      -0.443
      -0.155
       0.135
       0.396
       0.608
       0.758
       0.838
       0.847
       0.787
       0.668
       0.509
       0.334
       0.160
      -0.002
      -0.145
      -0.258
      -0.335
      -0.369
      -0.364
      -0.330
      -0.282
      -0.235
      -0.200
      -0.175
      -0.148
      -0.099
      -0.018
       0.092
       0.222
       0.362
       0.501
       0.620
       0.699
       0.719
       0.675
       0.576
       0.439
       0.282
       0.115
      -0.054
      -0.222
      -0.387
      -0.547
      -0.702
      -0.847
      -0.969
      -1.048
      -1.066
      -1.014
      -0.893
      -0.716
      -0.505
      -0.282
      -0.071
       0.109
       0.248
       0.343
       0.401
       0.424
       0.411
       0.353
       0.241
       0.083
      -0.096
      -0.262
      -0.391
      -0.475
      -0.523
      -0.546
      -0.548
      -0.525
      -0.462
      -0.346
      -0.170
       0.062
       0.336
       0.628
       0.913
       1.170
       1.384
       1.553
       1.682
       1.781
       1.858
       1.914
       1.942
       1.929
       1.863
       1.736
       1.548
       1.298
       0.991
       0.633
       0.233
      -0.200
      -0.651
      -1.106
      -1.553
      -1.979
      -2.373
      -2.714
      -2.977
      -3.134
      -3.166
      -3.071
      -2.859
      -2.545
      -2.143
      -1.665
      -1.128
      -0.562
      -0.012
       0.479
       0.880
       1.182
       1.394
       1.520
       1.561
       1.512
       1.378
       1.179
       0.947
       0.717
       0.512
       0.341
       0.202
       0.087
      -0.003
      -0.060
      -0.072
      -0.032
       0.058
       0.187
       0.340
       0.500
       0.649
       0.768
       0.839
       0.851
       0.802
       0.706
       0.584
       0.455
       0.332
       0.217
       0.112
       0.015
      -0.074
      -0.156
      -0.238
      -0.328
      -0.427
      -0.520
      -0.585
      -0.605
      -0.577
      -0.517
      -0.441
      -0.357
      -0.270
      -0.187
      -0.118
      -0.072
      -0.050
      -0.042
      -0.032
      -0.009
       0.032
       0.084
       0.129
       0.145
       0.114
       0.037
      -0.068
      -0.167
      -0.233
      -0.251
      -0.222
      -0.157
      -0.072
       0.020
       0.112
       0.201
       0.290
       0.390
       0.508
       0.639
       0.764
       0.852
       0.880
       0.836
       0.722
       0.549
       0.335
       0.091
      -0.172
      -0.446
      -0.723
      -0.986
      -1.212
      -1.378
      -1.471
      -1.485
      -1.426
      -1.307
      -1.151
      -0.980
      -0.814
      -0.662
      -0.522
      -0.386
      -0.239
      -0.069
       0.129
       0.350
       0.580
       0.805
       1.016
       1.208
       1.376
       1.504
       1.572
       1.568
       1.491
       1.360
       1.200
       1.031
       0.861
       0.687
       0.506
       0.308
       0.087
      -0.159
      -0.416
      -0.655
      -0.837
      -0.928
      -0.917
      -0.814
      -0.645
      -0.447
      -0.256
      -0.099
       0.010
       0.071
       0.090
       0.076
       0.034
      -0.027
      -0.103
      -0.190
      -0.291
      -0.413
      -0.553
      -0.694
      -0.804
      -0.857
      -0.841
      -0.765
      -0.645
      -0.499
      -0.341
      -0.184
      -0.039
       0.090
       0.207
       0.315
       0.412
       0.489
       0.535
       0.541
       0.504
       0.426
       0.317
       0.190
       0.061
      -0.055
      -0.144
      -0.188
      -0.177
      -0.106
       0.017
       0.173
       0.333
       0.463
       0.536
       0.541
       0.486
       0.397
       0.308
       0.241
       0.206
       0.200
       0.215
       0.238
       0.256
       0.255
       0.226
       0.168
       0.099
       0.037
      -0.001
      -0.016
      -0.018
      -0.023
      -0.038
      -0.069
      -0.117
      -0.183
      -0.266
      -0.360
      -0.448
      -0.513
      -0.542
      -0.537
      -0.509
      -0.472
      -0.432
      -0.387
      -0.330
      -0.258
      -0.180
      -0.108
      -0.053
      -0.020
      -0.001
       0.013
       0.032
       0.053
       0.065
       0.056
       0.017
      -0.048
      -0.127
      -0.204
      -0.269
      -0.313
      -0.327
      -0.299
      -0.215
      -0.072
       0.117
       0.325
       0.521
       0.676
       0.770
       0.794
       0.750
       0.654
       0.528
       0.389
       0.247
       0.107
      -0.032
      -0.171
      -0.305
      -0.423
      -0.507
      -0.537
      -0.504
      -0.414
      -0.288
      -0.152
      -0.025
       0.085
       0.180
       0.269
       0.360
       0.458
       0.565
       0.668
       0.748
       0.784
       0.765
       0.687
       0.558
       0.386
       0.180
      -0.047
      -0.273
      -0.476
      -0.634
      -0.740
      -0.796
      -0.808
      -0.782
      -0.726
      -0.652
      -0.577
      -0.510
      -0.450
      -0.387
      -0.310
      -0.215
      -0.110
      -0.006
       0.089
       0.170
       0.237
       0.290
       0.328
       0.351
       0.362
       0.363
       0.356
       0.338
       0.305
       0.251
       0.176
       0.083
      -0.014
      -0.100
      -0.156
      -0.172
      -0.151
      -0.103
      -0.041
       0.021
       0.071
       0.099
       0.103
       0.087
       0.064
       0.046
       0.046
       0.072
       0.119
       0.175
       0.222
       0.250
       0.264
       0.275
       0.292
       0.316
       0.341
       0.352
       0.330
       0.266
       0.166
       0.053
      -0.046
      -0.119
      -0.167
      -0.202
      -0.234
      -0.267
      -0.304
      -0.346
      -0.396
      -0.449
      -0.499
      -0.535
      -0.544
      -0.517
      -0.454
      -0.367
      -0.278
      -0.208
      -0.159
      -0.118
      -0.070
      -0.006
       0.069
       0.146
       0.216
       0.276
       0.321
       0.340
       0.321
       0.261
       0.174
       0.088
       0.023
      -0.015
      -0.029
      -0.016
       0.025
       0.091
       0.161
       0.206
       0.211
       0.181
       0.141
       0.117
       0.113
       0.118
       0.117
       0.107
       0.101
       0.114
       0.147
       0.183
       0.203
       0.196
       0.159
       0.100
       0.022
      -0.069
      -0.162
      -0.244
      -0.303
      -0.336
      -0.351
      -0.356
      -0.359
      -0.361
      -0.365
      -0.373
      -0.382
      -0.385
      -0.370
      -0.326
      -0.249
      -0.147
      -0.040
       0.052
       0.112
       0.141
       0.151
       0.163
       0.196
       0.254
       0.330
       0.406
       0.462
       0.488
       0.482
       0.444
       0.378
       0.293
       0.207
       0.142
       0.110
       0.109
       0.125
       0.144
       0.160
       0.177
       0.194
       0.202
       0.188
       0.148
       0.088
       0.024
      -0.033
      -0.078
      -0.110
