Origin Time       04/04/2011 11:31:40 UTC
Lat.              29.6 N	
Long.             80.8 E	
Depth (Km)         10.0
Magnitude         5.7
 Region           NEPAL-INDIA-BORDER-REGION                                        
 Above details taken from IMD 
    
Station Code      CHP
Station Lat.       29.334  N
Station Long.      80.095  E
Station Height(m) 1635.0
Site Class        A   Vs30 between 700 m/sec to 1400 m/sec * 
Record Time       04.04.2011 11:31:41.004 UTC
Sampling Rate     200. Hz
 Record Duration  104.665 Sec.
 Direction         N-S (N positive)
Max. Acceleration    -17.078 cm/sec**2
     
  * For reference see Site Classification link of website 
     
 Base Line Corrected and Low Pass Filtered (Cut Off at 35 Hz) Time History
 Acceleration data in cm/sec**2
    
[...]
      -0.539
      -0.144
       0.297
       0.778
       1.275
       1.749
       2.152
       2.423
       2.494
       2.314
       1.894
       1.317
       0.713
       0.184
      -0.233
      -0.575
      -0.895
      -1.218
      -1.510
      -1.718
      -1.827
      -1.870
      -1.888
      -1.871
      -1.753
      -1.481
      -1.088
      -0.693
      -0.428
      -0.350
      -0.417
      -0.509
      -0.491
      -0.264
       0.192
       0.797
       1.394
       1.809
       1.931
       1.753
       1.379
       0.959
       0.616
       0.387
       0.215
       0.019
      -0.212
      -0.381
      -0.335
       0.017
       0.622
       1.287
       1.783
       1.962
       1.811
       1.430
       0.961
       0.533
       0.244
       0.155
       0.262
       0.471
       0.622
       0.571
       0.284
      -0.155
      -0.615
      -1.003
      -1.280
      -1.424
      -1.409
      -1.237
      -0.981
      -0.779
      -0.741
      -0.864
      -1.025
      -1.075
      -0.955
      -0.728
      -0.512
      -0.380
      -0.315
      -0.248
      -0.131
       0.025
       0.172
       0.272
       0.325
       0.353
       0.386
       0.449
       0.571
       0.775
       1.045
       1.306
       1.454
       1.419
       1.215
       0.933
       0.678
       0.502
       0.376
       0.218
      -0.037
      -0.391
      -0.786
      -1.128
      -1.346
      -1.418
      -1.377
      -1.298
      -1.254
      -1.270
      -1.292
      -1.211
      -0.941
      -0.482
       0.064
       0.558
       0.904
       1.090
       1.160
       1.162
       1.128
       1.089
       1.080
       1.121
       1.184
       1.187
       1.048
       0.739
       0.295
      -0.216
      -0.734
      -1.218
      -1.641
      -1.988
      -2.260
      -2.451
      -2.522
      -2.396
      -2.015
      -1.406
      -0.676
       0.049
       0.698
       1.256
       1.713
       2.028
       2.155
       2.098
       1.915
       1.664
       1.354
       0.955
       0.464
      -0.048
      -0.454
      -0.646
      -0.589
      -0.339
       0.000
       0.317
       0.524
       0.568
       0.440
       0.176
      -0.133
      -0.367
      -0.439
      -0.335
      -0.126
       0.084
       0.209
       0.212
       0.100
      -0.085
      -0.279
      -0.429
      -0.528
      -0.620
      -0.760
      -0.941
      -1.080
      -1.059
      -0.812
      -0.369
       0.165
       0.677
       1.099
       1.404
       1.580
       1.599
       1.416
       1.017
       0.459
      -0.116
      -0.543
      -0.720
      -0.670
      -0.525
      -0.444
      -0.529
      -0.773
      -1.067
      -1.246
      -1.176
      -0.819
      -0.276
       0.249
       0.548
       0.515
       0.199
      -0.246
      -0.660
      -0.952
      -1.110
      -1.156
      -1.105
      -0.958
      -0.724
      -0.427
      -0.096
       0.262
       0.658
       1.099
       1.549
       1.925
       2.128
       2.099
       1.844
       1.439
       0.999
       0.635
       0.414
       0.333
       0.315
       0.255
       0.078
      -0.213
      -0.548
      -0.838
      -1.026
      -1.112
      -1.126
      -1.113
      -1.107
      -1.125
      -1.160
      -1.181
      -1.152
      -1.071
      -0.989
      -0.983
      -1.091
      -1.278
      -1.454
      -1.539
      -1.496
      -1.320
      -1.011
      -0.568
      -0.013
       0.608
       1.239
       1.835
       2.372
       2.824
       3.152
       3.321
       3.308
       3.109
       2.728
       2.172
       1.468
       0.696
      -0.020
      -0.561
      -0.872
      -0.995
      -1.022
      -1.036
      -1.056
      -1.056
      -1.007
      -0.911
      -0.790
      -0.662
      -0.533
      -0.411
      -0.314
      -0.257
      -0.241
      -0.237
      -0.196
      -0.073
       0.142
       0.402
       0.626
       0.755
       0.793
       0.807
       0.865
       0.973
       1.060
       1.024
       0.793
       0.360
      -0.210
      -0.812
      -1.334
      -1.699
      -1.897
      -1.978
      -2.025
      -2.093
      -2.180
      -2.227
      -2.150
      -1.892
      -1.450
      -0.882
      -0.286
       0.237
       0.617
       0.825
       0.871
       0.800
       0.671
       0.550
       0.474
       0.429
       0.365
       0.229
       0.024
      -0.184
      -0.294
      -0.232
       0.001
       0.337
       0.679
       0.958
       1.158
       1.300
       1.422
       1.555
       1.699
       1.808
       1.798
       1.591
       1.183
       0.662
       0.155
      -0.250
      -0.549
      -0.780
      -0.957
      -1.041
      -0.975
      -0.755
      -0.462
      -0.220
      -0.121
      -0.168
      -0.290
      -0.413
      -0.496
      -0.525
      -0.486
      -0.362
      -0.162
       0.054
       0.207
       0.255
       0.219
       0.157
       0.124
       0.151
       0.257
       0.455
       0.718
       0.959
       1.059
       0.956
       0.698
       0.401
       0.158
      -0.019
      -0.165
      -0.297
      -0.398
      -0.464
      -0.535
      -0.666
      -0.865
      -1.057
      -1.134
      -1.022
      -0.720
      -0.299
       0.131
       0.455
       0.576
       0.437
       0.045
      -0.527
      -1.154
      -1.685
      -1.983
      -1.951
      -1.567
      -0.900
      -0.100
       0.641
       1.155
       1.337
       1.173
       0.734
       0.150
      -0.428
      -0.879
      -1.142
      -1.207
      -1.094
      -0.840
      -0.503
      -0.165
       0.086
       0.202
       0.190
       0.096
      -0.045
      -0.230
      -0.463
      -0.723
      -0.954
      -1.100
      -1.124
      -1.007
      -0.752
      -0.391
       0.007
       0.360
       0.619
       0.795
       0.934
       1.068
       1.170
       1.167
       0.999
       0.674
       0.273
      -0.094
      -0.351
      -0.481
      -0.512
      -0.479
      -0.416
      -0.370
      -0.399
      -0.558
      -0.850
      -1.201
      -1.474
      -1.525
      -1.277
      -0.756
      -0.080
       0.590
       1.103
       1.355
       1.312
       1.018
       0.577
       0.120
      -0.252
      -0.496
      -0.615
      -0.621
      -0.513
      -0.289
       0.020
       0.331
       0.539
       0.551
       0.330
      -0.091
      -0.596
      -1.021
      -1.213
      -1.098
      -0.725
      -0.238
       0.198
       0.477
       0.583
       0.570
       0.502
       0.412
       0.299
       0.164
       0.035
      -0.045
      -0.060
      -0.041
      -0.049
      -0.115
      -0.213
      -0.272
      -0.224
      -0.036
       0.286
       0.711
       1.180
       1.607
       1.882
       1.904
       1.638
       1.145
       0.572
       0.081
      -0.224
      -0.329
      -0.275
      -0.112
       0.127
       0.421
       0.723
       0.946
       0.989
       0.780
       0.324
      -0.284
      -0.867
      -1.224
      -1.196
      -0.731
       0.078
       1.022
       1.861
       2.433
       2.721
       2.833
       2.903
       2.999
       3.105
       3.167
       3.164
       3.125
       3.097
       3.089
       3.046
       2.867
       2.447
       1.737
       0.796
      -0.202
      -1.036
      -1.530
      -1.637
      -1.443
      -1.095
      -0.714
      -0.358
      -0.035
       0.261
       0.527
       0.752
       0.932
       1.063
       1.136
       1.136
       1.053
       0.875
       0.587
       0.161
      -0.422
      -1.136
      -1.907
      -2.636
      -3.232
      -3.621
      -3.732
      -3.514
      -2.991
      -2.293
      -1.618
      -1.130
      -0.875
      -0.778
      -0.718
      -0.603
      -0.408
      -0.152
       0.151
       0.505
       0.909
       1.335
       1.719
       1.993
       2.120
       2.113
       2.019
       1.891
       1.767
       1.664
       1.589
       1.554
       1.576
       1.675
       1.856
       2.087
       2.299
       2.412
       2.399
       2.316
       2.268
       2.320
       2.435
       2.483
       2.334
       1.949
       1.410
       0.861
       0.422
       0.131
      -0.058
      -0.238
      -0.508
      -0.948
      -1.596
      -2.423
      -3.336
      -4.219
      -5.007
      -5.711
      -6.395
      -7.096
      -7.775
      -8.326
      -8.637
      -8.653
      -8.390
      -7.912
      -7.281
      -6.534
      -5.699
      -4.819
      -3.970
      -3.243
      -2.715
      -2.406
      -2.266
      -2.188
      -2.048
      -1.755
      -1.289
      -0.718
      -0.156
       0.295
       0.605
       0.834
       1.090
       1.460
       1.951
       2.482
       2.930
       3.194
       3.243
       3.130
       2.949
       2.785
       2.660
       2.547
       2.418
       2.286
       2.186
       2.133
       2.098
       2.046
       1.976
       1.925
       1.929
       1.973
       1.986
       1.872
       1.554
       1.025
       0.363
      -0.295
      -0.829
      -1.192
      -1.435
      -1.652
      -1.906
      -2.195
      -2.471
      -2.683
      -2.798
      -2.811
      -2.734
      -2.595
      -2.424
      -2.242
      -2.042
      -1.787
      -1.438
      -0.985
      -0.464
       0.053
       0.495
       0.830
       1.074
       1.293
       1.568
       1.972
       2.546
       3.284
       4.122
       4.957
       5.685
       6.240
       6.612
       6.817
       6.859
       6.723
       6.413
       5.976
       5.484
       4.990
       4.506
       4.031
       3.597
       3.265
       3.063
       2.934
       2.741
       2.343
       1.679
       0.786
      -0.246
      -1.351
      -2.525
      -3.799
      -5.175
      -6.581
      -7.878
      -8.910
      -9.549
      -9.702
      -9.319
      -8.407
      -7.057
      -5.434
      -3.717
      -2.051
      -0.515
       0.867
       2.096
       3.187
       4.145
       4.958
       5.599
       6.041
       6.274
       6.304
       6.128
       5.730
       5.113
       4.326
       3.462
       2.613
       1.820
       1.056
       0.257
      -0.627
      -1.581
      -2.530
      -3.365
      -3.996
      -4.383
      -4.529
      -4.471
      -4.258
      -3.955
      -3.642
      -3.413
      -3.338
      -3.433
      -3.630
      -3.773
      -3.659
      -3.113
      -2.067
      -0.602
       1.081
       2.741
       4.182
       5.297
       6.063
       6.504
       6.669
       6.603
       6.334
       5.869
       5.214
       4.407
       3.542
       2.747
       2.136
       1.748
       1.555
       1.493
       1.501
       1.528
       1.512
       1.386
       1.098
       0.651
       0.112
      -0.434
      -0.955
      -1.513
      -2.210
      -3.091
      -4.068
      -4.953
      -5.550
      -5.736
      -5.477
      -4.817
      -3.854
      -2.729
      -1.608
      -0.662
      -0.047
       0.131
      -0.169
      -0.905
      -1.945
      -3.106
      -4.213
      -5.145
      -5.834
      -6.251
      -6.371
      -6.156
      -5.552
      -4.519
      -3.055
      -1.220
       0.852
       2.973
       4.958
       6.702
       8.214
       9.559
      10.740
      11.623
      11.960
      11.517
      10.212
       8.163
       5.643
       2.971
       0.413
      -1.861
      -3.783
      -5.352
      -6.600
      -7.534
      -8.120
      -8.309
      -8.086
      -7.488
      -6.595
      -5.493
      -4.261
      -2.974
      -1.696
      -0.480
       0.631
       1.587
       2.332
       2.826
       3.077
       3.134
       3.060
       2.888
       2.603
       2.165
       1.553
       0.819
       0.097
      -0.438
      -0.647
      -0.497
      -0.076
       0.456
       0.942
       1.288
       1.472
       1.501
       1.366
       1.029
       0.473
      -0.246
      -0.979
      -1.530
      -1.751
      -1.614
      -1.221
      -0.756
      -0.407
      -0.306
      -0.499
      -0.952
      -1.573
      -2.250
      -2.875
      -3.374
      -3.712
      -3.900
      -3.961
      -3.884
      -3.603
      -3.043
      -2.180
      -1.064
       0.216
       1.583
       2.985
       4.381
       5.728
       6.982
       8.098
       9.009
       9.599
       9.714
       9.214
       8.049
       6.299
       4.142
       1.788
      -0.580
      -2.815
      -4.801
      -6.426
      -7.587
      -8.193
      -8.177
      -7.518
      -6.251
      -4.472
      -2.324
       0.038
       2.469
       4.831
       6.950
       8.587
       9.479
       9.447
       8.504
       6.852
       4.763
       2.453
       0.053
      -2.347
      -4.652
      -6.759
      -8.588
     -10.071
     -11.131
     -11.688
     -11.693
     -11.157
     -10.139
      -8.727
      -7.042
      -5.254
      -3.558
      -2.108
      -0.961
      -0.082
       0.606
       1.162
       1.609
       1.956
       2.220
       2.441
       2.669
       2.960
       3.359
       3.895
       4.551
       5.246
       5.846
       6.215
       6.259
       5.939
       5.259
       4.278
       3.135
       2.032
       1.157
       0.608
       0.357
       0.300
       0.333
       0.425
       0.612
       0.943
       1.408
       1.921
       2.375
       2.716
       2.959
       3.120
       3.135
       2.848
       2.087
       0.774
      -1.027
      -3.149
      -5.403
      -7.639
      -9.751
     -11.660
     -13.316
     -14.705
     -15.832
     -16.665
     -17.078
     -16.868
     -15.841
     -13.918
     -11.187
      -7.873
      -4.275
      -0.666
       2.768
       5.931
       8.773
      11.231
      13.224
      14.690
      15.628
      16.102
      16.200
      16.008
      15.590
      14.964
      14.106
      12.954
      11.446
       9.559
       7.340
       4.901
       2.389
      -0.046
      -2.290
      -4.289
      -6.049
      -7.612
      -9.008
     -10.204
     -11.076
     -11.445
     -11.152
     -10.147
      -8.560
      -6.686
      -4.900
      -3.505
      -2.620
      -2.161
      -1.931
      -1.734
      -1.451
      -1.055
      -0.564
      -0.001
       0.632
       1.338
       2.096
       2.846
       3.501
       4.018
       4.449
       4.918
       5.520
       6.223
       6.875
       7.293
       7.355
       7.018
       6.275
       5.133
       3.634
       1.888
       0.057
      -1.702
      -3.297
      -4.719
      -6.009
      -7.191
      -8.220
      -9.010
      -9.490
      -9.651
      -9.516
      -9.094
      -8.367
      -7.318
      -5.970
      -4.397
      -2.694
      -0.946
       0.794
       2.496
       4.147
       5.720
       7.166
       8.434
       9.505
      10.416
      11.211
      11.867
      12.238
      12.111
      11.337
       9.914
       7.991
       5.780
       3.465
       1.169
      -1.035
      -3.096
      -4.973
      -6.622
      -7.991
      -9.022
      -9.667
      -9.891
      -9.677
      -9.029
      -7.978
      -6.583
      -4.918
      -3.046
      -1.023
       1.055
       3.036
       4.725
       5.950
       6.604
       6.661
       6.166
       5.211
       3.927
       2.482
       1.042
      -0.276
      -1.435
      -2.470
      -3.427
      -4.316
      -5.086
      -5.654
      -5.942
      -5.893
      -5.455
      -4.568
      -3.174
      -1.270
       1.028
       3.461
       5.694
       7.431
       8.500
       8.873
       8.640
       7.968
       7.051
       6.035
       4.944
       3.673
       2.071
       0.068
      -2.260
      -4.714
      -7.063
      -9.131
     -10.801
     -11.988
     -12.600
     -12.539
     -11.742
     -10.233
      -8.147
      -5.725
      -3.264
      -1.034
       0.822
       2.332
       3.650
       4.923
       6.175
       7.296
       8.133
       8.623
       8.825
       8.829
       8.638
       8.156
       7.294
       6.081
       4.664
       3.222
       1.869
       0.657
      -0.367
      -1.116
      -1.494
      -1.450
      -1.008
      -0.269
       0.624
       1.493
       2.148
       2.422
       2.228
       1.602
       0.686
      -0.338
      -1.325
      -2.196
      -2.931
      -3.539
      -4.030
      -4.393
      -4.590
      -4.557
      -4.235
      -3.613
      -2.753
      -1.763
      -0.735
       0.299
       1.362
       2.480
       3.630
       4.731
       5.688
       6.429
       6.908
       7.083
       6.931
       6.493
       5.879
       5.208
       4.506
       3.681
       2.607
       1.247
      -0.309
      -1.901
      -3.405
      -4.769
      -5.985
      -7.020
      -7.810
      -8.299
      -8.476
      -8.382
      -8.067
      -7.561
      -6.868
      -5.997
      -4.981
      -3.869
      -2.704
      -1.516
      -0.334
       0.799
       1.845
       2.818
       3.796
       4.854
       5.962
       6.961
       7.642
       7.884
       7.724
       7.311
       6.806
       6.327
       5.935
       5.642
       5.386
       5.020
       4.365
       3.320
       1.920
       0.314
      -1.331
      -2.913
      -4.410
      -5.838
      -7.209
      -8.511
      -9.709
     -10.740
     -11.524
     -11.974
     -12.028
     -11.652
     -10.833
      -9.559
      -7.842
      -5.764
      -3.494
      -1.239
       0.832
       2.632
       4.129
       5.288
       6.061
       6.437
       6.486
       6.345
       6.151
       5.967
       5.764
       5.455
       4.952
       4.213
       3.260
       2.173
       1.048
      -0.030
      -1.020
      -1.918
      -2.718
      -3.376
      -3.806
      -3.921
      -3.690
      -3.147
      -2.369
      -1.441
      -0.460
       0.462
       1.217
       1.738
       2.017
       2.071
       1.888
       1.409
       0.589
      -0.527
      -1.787
      -3.012
      -4.098
      -5.046
      -5.905
      -6.679
      -7.294
      -7.625
      -7.552
      -7.010
      -6.030
      -4.738
      -3.286
      -1.756
      -0.119
       1.719
       3.790
       5.987
       8.082
       9.821
      11.021
      11.603
      11.569
      10.967
       9.876
       8.399
       6.663
       4.806
       2.951
       1.191
      -0.431
      -1.919
      -3.304
      -4.608
      -5.803
      -6.798
      -7.467
      -7.697
      -7.429
      -6.665
      -5.453
      -3.876
      -2.055
      -0.134
       1.739
       3.430
       4.822
       5.819
       6.366
       6.475
       6.232
       5.769
       5.182
       4.477
       3.569
       2.349
       0.780
      -1.054
      -2.974
      -4.773
      -6.277
      -7.385
      -8.094
      -8.480
      -8.643
      -8.632
      -8.393
      -7.799
      -6.741
      -5.217
      -3.350
      -1.325
       0.683
       2.560
       4.242
       5.702
       6.934
       7.953
       8.763
       9.315
       9.475
       9.077
       8.023
       6.370
       4.326
       2.159
       0.108
      -1.664
      -3.059
      -4.033
      -4.595
      -4.805
      -4.757
      -4.560
      -4.314
      -4.100
      -3.949
      -3.805
      -3.531
      -2.969
      -2.055
      -0.877
       0.340
       1.333
       1.913
       2.034
       1.772
       1.256
       0.595
      -0.146
      -0.936
      -1.741
      -2.524
      -3.243
      -3.857
