Origin Time       04/04/2011 11:31:40
Lat.              29.6 N	
Long.             80.8 E	
Depth (Km)         10.0
Magnitude         5.7
 Region           NEPAL-INDIA-BORDER-REGION                                        
 Above details taken from IMD 
     
Station Code      CHP
Station Lat.       29.334  N
Station Long.      80.095  E
Station Height(m) 1635.0
Site Class        A   Vs30 between 700 m/sec to 1400 m/sec * 
Record Time       04.04.2011 11:31:41.004
Sampling Rate     200. Hz
 Record Duration  104.665 Sec.
 Direction         E-W (E positive)
Max. Acceleration    -31.551 cm/sec**2
     
  * For reference see Site Classification link of website 
     
 Base Line Corrected and Low Pass Filtered (Cut Off at 35 Hz) Time History
 Acceleration data in cm/sec**2
    
[...]
      -1.417
      -1.324
      -1.059
      -0.659
      -0.183
       0.289
       0.674
       0.924
       1.049
       1.095
       1.096
       1.034
       0.863
       0.569
       0.221
      -0.054
      -0.157
      -0.093
       0.021
       0.027
      -0.187
      -0.639
      -1.259
      -1.927
      -2.504
      -2.861
      -2.903
      -2.617
      -2.083
      -1.425
      -0.738
      -0.055
       0.600
       1.159
       1.527
       1.669
       1.667
       1.659
       1.727
       1.839
       1.916
       1.942
       1.996
       2.152
       2.372
       2.485
       2.317
       1.831
       1.180
       0.604
       0.269
       0.176
       0.187
       0.140
      -0.066
      -0.459
      -1.031
      -1.763
      -2.602
      -3.417
      -4.010
      -4.203
      -3.947
      -3.362
      -2.663
      -2.041
      -1.578
      -1.244
      -0.954
      -0.620
      -0.173
       0.414
       1.102
       1.766
       2.249
       2.453
       2.402
       2.223
       2.043
       1.893
       1.706
       1.402
       0.983
       0.541
       0.177
      -0.076
      -0.271
      -0.487
      -0.761
      -1.057
      -1.291
      -1.403
      -1.408
      -1.385
      -1.403
      -1.459
      -1.478
      -1.375
      -1.125
      -0.789
      -0.474
      -0.259
      -0.127
       0.030
       0.337
       0.829
       1.398
       1.849
       2.013
       1.841
       1.420
       0.920
       0.516
       0.325
       0.363
       0.551
       0.754
       0.862
       0.843
       0.730
       0.578
       0.427
       0.298
       0.209
       0.168
       0.177
       0.222
       0.277
       0.295
       0.209
      -0.036
      -0.435
      -0.891
      -1.259
      -1.432
      -1.407
      -1.280
      -1.182
      -1.201
      -1.332
      -1.483
      -1.534
      -1.407
      -1.103
      -0.684
      -0.226
       0.215
       0.607
       0.925
       1.153
       1.292
       1.382
       1.481
       1.621
       1.763
       1.804
       1.635
       1.217
       0.606
      -0.071
      -0.671
      -1.067
      -1.175
      -0.994
      -0.641
      -0.328
      -0.252
      -0.475
      -0.887
      -1.290
      -1.526
      -1.549
      -1.392
      -1.109
      -0.740
      -0.321
       0.084
       0.393
       0.536
       0.486
       0.276
       0.014
      -0.141
      -0.055
       0.287
       0.766
       1.215
       1.525
       1.682
       1.711
       1.599
       1.279
       0.694
      -0.129
      -1.043
      -1.831
      -2.298
      -2.355
      -2.049
      -1.531
      -0.998
      -0.617
      -0.454
      -0.455
      -0.502
      -0.528
      -0.575
      -0.754
      -1.108
      -1.516
      -1.739
      -1.588
      -1.059
      -0.330
       0.372
       0.903
       1.243
       1.449
       1.611
       1.816
       2.133
       2.568
       3.038
       3.405
       3.558
       3.463
       3.142
       2.613
       1.856
       0.870
      -0.237
      -1.243
      -1.914
      -2.150
      -2.044
      -1.790
      -1.534
      -1.302
      -1.067
      -0.852
      -0.751
      -0.846
      -1.121
      -1.452
      -1.693
      -1.763
      -1.671
      -1.481
      -1.244
      -0.963
      -0.591
      -0.083
       0.564
       1.283
       1.948
       2.417
       2.595
       2.475
       2.131
       1.692
       1.280
       0.980
       0.816
       0.753
       0.719
       0.627
       0.419
       0.087
      -0.314
      -0.693
      -0.961
      -1.081
      -1.088
      -1.058
      -1.066
      -1.132
      -1.203
      -1.184
      -1.004
      -0.676
      -0.320
      -0.091
      -0.083
      -0.259
      -0.470
      -0.544
      -0.389
      -0.039
       0.369
       0.669
       0.752
       0.607
       0.321
       0.024
      -0.165
      -0.181
      -0.034
       0.196
       0.384
       0.415
       0.252
      -0.047
      -0.363
      -0.591
      -0.694
      -0.698
      -0.655
      -0.617
      -0.630
      -0.723
      -0.889
      -1.064
      -1.141
      -1.002
      -0.564
       0.164
       1.038
       1.802
       2.196
       2.091
       1.572
       0.887
       0.299
      -0.057
      -0.215
      -0.299
      -0.412
      -0.563
      -0.681
      -0.681
      -0.532
      -0.273
       0.014
       0.258
       0.435
       0.561
       0.670
       0.781
       0.902
       1.029
       1.150
       1.239
       1.254
       1.146
       0.882
       0.475
       0.007
      -0.390
      -0.580
      -0.501
      -0.214
       0.109
       0.277
       0.187
      -0.107
      -0.437
      -0.636
      -0.656
      -0.591
      -0.593
      -0.747
      -1.007
      -1.233
      -1.286
      -1.102
      -0.724
      -0.287
       0.047
       0.174
       0.124
       0.050
       0.109
       0.338
       0.630
       0.841
       0.922
       0.946
       1.006
       1.099
       1.111
       0.932
       0.581
       0.230
       0.093
       0.275
       0.696
       1.146
       1.401
       1.345
       1.022
       0.586
       0.199
      -0.064
      -0.232
      -0.376
      -0.540
      -0.729
      -0.952
      -1.260
      -1.710
      -2.287
      -2.855
      -3.208
      -3.200
      -2.852
      -2.337
      -1.867
      -1.554
      -1.362
      -1.154
      -0.797
      -0.237
       0.492
       1.296
       2.071
       2.730
       3.216
       3.499
       3.555
       3.353
       2.878
       2.166
       1.340
       0.594
       0.103
      -0.055
       0.060
       0.311
       0.558
       0.712
       0.705
       0.445
      -0.186
      -1.247
      -2.622
      -3.981
      -4.879
      -4.961
      -4.155
      -2.716
      -1.101
       0.251
       1.085
       1.374
       1.273
       1.030
       0.887
       0.990
       1.340
       1.818
       2.272
       2.617
       2.856
       3.033
       3.161
       3.211
       3.161
       3.037
       2.877
       2.677
       2.381
       1.940
       1.360
       0.691
      -0.009
      -0.703
      -1.376
      -2.007
      -2.566
      -3.016
      -3.332
      -3.508
      -3.556
      -3.503
      -3.394
      -3.266
      -3.115
      -2.878
      -2.473
      -1.879
      -1.174
      -0.490
       0.090
       0.585
       1.070
       1.561
       1.973
       2.167
       2.068
       1.728
       1.301
       0.961
       0.828
       0.942
       1.270
       1.718
       2.140
       2.345
       2.153
       1.483
       0.437
      -0.704
      -1.586
      -1.961
      -1.803
      -1.296
      -0.715
      -0.268
      -0.019
       0.091
       0.156
       0.226
       0.297
       0.352
       0.407
       0.500
       0.654
       0.849
       1.029
       1.138
       1.155
       1.103
       1.032
       0.973
       0.902
       0.776
       0.586
       0.385
       0.248
       0.203
       0.189
       0.095
      -0.168
      -0.589
      -1.062
      -1.447
      -1.659
      -1.684
      -1.537
      -1.214
      -0.686
       0.032
       0.825
       1.502
       1.869
       1.820
       1.363
       0.626
      -0.143
      -0.614
      -0.503
       0.256
       1.429
       2.583
       3.319
       3.476
       3.162
       2.613
       2.018
       1.447
       0.881
       0.277
      -0.392
      -1.120
      -1.864
      -2.558
      -3.136
      -3.553
      -3.794
      -3.881
      -3.881
      -3.898
      -4.000
      -4.141
      -4.156
      -3.840
      -3.094
      -1.998
      -0.762
       0.394
       1.340
       2.043
       2.503
       2.701
       2.618
       2.309
       1.946
       1.761
       1.912
       2.372
       2.906
       3.194
       3.011
       2.359
       1.466
       0.634
       0.066
      -0.231
      -0.407
      -0.624
      -0.941
      -1.283
      -1.530
      -1.624
      -1.627
      -1.675
      -1.870
      -2.191
      -2.498
      -2.613
      -2.440
      -2.028
      -1.538
      -1.126
      -0.848
      -0.641
      -0.415
      -0.148
       0.089
       0.206
       0.186
       0.120
       0.143
       0.356
       0.768
       1.302
       1.815
       2.147
       2.182
       1.893
       1.363
       0.733
       0.130
      -0.390
      -0.828
      -1.177
      -1.392
      -1.420
      -1.290
      -1.141
      -1.154
      -1.439
      -1.975
      -2.649
      -3.323
      -3.875
      -4.202
      -4.234
      -3.957
      -3.438
      -2.798
      -2.132
      -1.451
      -0.673
       0.304
       1.512
       2.864
       4.210
       5.435
       6.521
       7.493
       8.322
       8.875
       8.985
       8.561
       7.666
       6.482
       5.219
       4.027
       2.958
       1.997
       1.108
       0.280
      -0.466
      -1.100
      -1.615
      -2.035
      -2.413
      -2.815
      -3.309
      -3.930
      -4.654
      -5.383
      -5.975
      -6.295
      -6.273
      -5.930
      -5.376
      -4.770
      -4.260
      -3.933
      -3.785
      -3.738
      -3.662
      -3.427
      -2.958
      -2.287
      -1.550
      -0.935
      -0.583
      -0.492
      -0.503
      -0.382
       0.035
       0.739
       1.553
       2.239
       2.634
       2.722
       2.612
       2.455
       2.342
       2.254
       2.097
       1.790
       1.328
       0.792
       0.304
      -0.011
      -0.033
       0.327
       1.071
       2.048
       2.994
       3.657
       3.925
       3.829
       3.454
       2.832
       1.948
       0.812
      -0.471
      -1.717
      -2.738
      -3.400
      -3.634
      -3.428
      -2.844
      -2.029
      -1.181
      -0.474
       0.012
       0.302
       0.464
       0.550
       0.564
       0.491
       0.357
       0.252
       0.290
       0.551
       1.052
       1.755
       2.598
       3.496
       4.328
       4.952
       5.255
       5.215
       4.884
       4.341
       3.637
       2.820
       1.959
       1.137
       0.390
      -0.328
      -1.099
      -1.956
      -2.847
      -3.693
      -4.473
      -5.249
      -6.077
      -6.885
      -7.451
      -7.518
      -6.962
      -5.880
      -4.520
      -3.138
      -1.869
      -0.689
       0.535
       1.945
       3.605
       5.435
       7.213
       8.652
       9.524
       9.757
       9.448
       8.791
       7.983
       7.166
       6.416
       5.744
       5.098
       4.390
       3.526
       2.441
       1.131
      -0.333
      -1.808
      -3.114
      -4.106
      -4.745
      -5.140
      -5.522
      -6.136
      -7.103
      -8.333
      -9.550
     -10.424
     -10.732
     -10.452
      -9.736
      -8.800
      -7.797
      -6.741
      -5.518
      -3.963
      -1.973
       0.414
       3.009
       5.536
       7.726
       9.373
      10.370
      10.714
      10.519
       9.965
       9.202
       8.252
       7.021
       5.412
       3.445
       1.267
      -0.934
      -3.023
      -4.947
      -6.699
      -8.287
      -9.719
     -10.988
     -12.062
     -12.886
     -13.411
     -13.641
     -13.622
     -13.379
     -12.850
     -11.900
     -10.405
      -8.348
      -5.845
      -3.080
      -0.206
       2.712
       5.697
       8.788
      11.970
      15.108
      17.936
      20.122
      21.415
      21.770
      21.388
      20.605
      19.719
      18.858
      17.944
      16.768
      15.120
      12.887
      10.093
       6.858
       3.326
      -0.358
      -4.025
      -7.458
     -10.432
     -12.782
     -14.444
     -15.421
     -15.731
     -15.414
     -14.575
     -13.396
     -12.061
     -10.661
      -9.183
      -7.605
      -5.992
      -4.502
      -3.281
      -2.378
      -1.744
      -1.320
      -1.117
      -1.212
      -1.680
      -2.508
      -3.564
      -4.647
      -5.559
      -6.162
      -6.357
      -6.052
      -5.160
      -3.682
      -1.804
       0.120
       1.723
       2.798
       3.367
       3.595
       3.647
       3.608
       3.503
       3.380
       3.344
       3.550
       4.142
       5.172
       6.555
       8.068
       9.421
      10.369
      10.787
      10.682
      10.132
       9.212
       7.965
       6.413
       4.595
       2.581
       0.472
      -1.611
      -3.530
      -5.128
      -6.253
      -6.794
      -6.718
      -6.079
      -4.984
      -3.542
      -1.826
       0.112
       2.195
       4.266
       6.075
       7.317
       7.718
       7.135
       5.608
       3.347
       0.662
      -2.125
      -4.751
      -7.044
      -8.918
     -10.330
     -11.229
     -11.551
     -11.253
     -10.371
      -9.017
      -7.321
      -5.354
      -3.141
      -0.748
       1.653
       3.819
       5.574
       6.911
       7.963
       8.866
       9.657
      10.285
      10.691
      10.852
      10.761
      10.389
       9.681
       8.573
       7.019
       5.002
       2.563
      -0.196
      -3.145
      -6.187
      -9.290
     -12.427
     -15.486
     -18.228
     -20.362
     -21.662
     -22.047
     -21.570
     -20.330
     -18.397
     -15.804
     -12.586
      -8.846
      -4.743
      -0.417
       4.081
       8.776
      13.638
      18.445
      22.778
      26.169
      28.332
      29.277
      29.211
      28.322
      26.646
      24.128
      20.777
      16.736
      12.214
       7.387
       2.367
      -2.755
      -7.870
     -12.847
     -17.540
     -21.784
     -25.388
     -28.185
     -30.106
     -31.199
     -31.551
     -31.144
     -29.809
     -27.333
     -23.627
     -18.811
     -13.178
      -7.105
      -0.984
       4.836
      10.099
      14.672
      18.507
      21.597
      23.932
      25.505
      26.319
      26.385
      25.705
      24.265
      22.074
      19.198
      15.765
      11.920
       7.781
       3.448
      -0.936
      -5.155
      -8.972
     -12.220
     -14.851
     -16.895
     -18.357
     -19.171
     -19.254
     -18.613
     -17.376
     -15.722
     -13.794
     -11.677
      -9.439
      -7.164
      -4.902
      -2.618
      -0.182
       2.547
       5.599
       8.805
      11.816
      14.221
      15.701
      16.140
      15.654
      14.518
      13.051
      11.493
       9.925
       8.278
       6.435
       4.358
       2.162
       0.056
      -1.774
      -3.258
      -4.449
      -5.456
      -6.391
      -7.330
      -8.288
      -9.193
      -9.911
     -10.330
     -10.436
     -10.302
      -9.977
      -9.391
      -8.396
      -6.909
      -5.026
      -2.973
      -0.939
       1.044
       3.097
       5.363
       7.877
      10.513
      13.042
      15.234
      16.953
      18.142
      18.754
      18.700
      17.866
      16.199
      13.768
      10.784
       7.543
       4.320
       1.241
      -1.764
      -4.858
      -8.107
     -11.357
     -14.293
     -16.624
     -18.233
     -19.172
     -19.558
     -19.477
     -18.965
     -18.038
     -16.710
     -14.998
     -12.920
     -10.524
      -7.934
      -5.348
      -2.979
      -0.957
       0.727
       2.227
       3.770
       5.564
       7.700
      10.104
      12.537
      14.671
      16.214
      17.035
      17.207
      16.939
      16.436
      15.796
      14.972
      13.817
      12.171
       9.938
       7.140
       3.911
       0.451
      -3.018
      -6.277
      -9.111
     -11.350
     -12.914
     -13.830
     -14.183
     -14.062
     -13.550
     -12.757
     -11.810
     -10.792
      -9.680
      -8.385
      -6.850
      -5.113
      -3.287
      -1.492
       0.217
       1.863
       3.514
       5.210
       6.918
       8.536
       9.938
      11.016
      11.702
      11.974
      11.843
      11.299
      10.262
       8.623
       6.354
       3.602
       0.642
      -2.271
      -5.017
      -7.573
      -9.889
     -11.823
     -13.219
     -14.043
     -14.403
     -14.429
     -14.125
     -13.360
     -11.999
     -10.064
      -7.764
      -5.397
      -3.212
      -1.342
       0.198
       1.471
       2.611
       3.785
       5.129
       6.648
       8.187
       9.494
      10.345
      10.659
      10.518
      10.083
       9.491
       8.803
       8.036
       7.222
       6.415
       5.655
       4.923
       4.141
       3.223
       2.121
       0.867
      -0.405
      -1.489
      -2.181
      -2.393
      -2.216
      -1.876
      -1.611
      -1.571
      -1.807
      -2.307
      -3.035
      -3.911
      -4.784
      -5.452
      -5.733
      -5.539
      -4.919
      -4.035
      -3.092
      -2.266
      -1.646
      -1.220
      -0.892
      -0.527
      -0.016
       0.661
       1.411
       2.062
       2.461
       2.569
       2.495
       2.451
       2.636
       3.123
       3.812
       4.475
       4.875
       4.862
       4.428
       3.685
       2.817
       2.011
       1.395
       1.005
       0.798
       0.688
       0.567
       0.328
      -0.131
      -0.871
      -1.886
      -3.063
      -4.177
      -4.951
      -5.188
      -4.890
      -4.264
      -3.596
      -3.098
      -2.812
      -2.612
      -2.286
      -1.650
      -0.650
       0.595
       1.827
       2.753
       3.181
       3.099
       2.673
       2.147
       1.700
       1.374
       1.088
       0.719
       0.183
      -0.532
      -1.376
      -2.259
      -3.089
      -3.799
      -4.360
      -4.769
      -5.029
      -5.137
      -5.082
      -4.867
      -4.516
      -4.067
      -3.555
      -2.995
      -2.373
      -1.652
      -0.786
       0.256
       1.459
       2.754
       4.040
       5.205
       6.136
       6.734
       6.939
       6.778
       6.367
       5.850
       5.320
       4.790
       4.237
       3.648
       3.025
       2.370
       1.693
       1.053
       0.552
       0.281
       0.256
       0.400
       0.605
       0.800
       0.965
       1.080
       1.049
       0.691
      -0.159
      -1.514
      -3.145
      -4.642
      -5.583
      -5.714
      -5.042
      -3.816
      -2.436
      -1.309
      -0.722
      -0.753
      -1.255
      -1.943
      -2.534
      -2.863
      -2.919
      -2.775
      -2.496
      -2.094
      -1.551
      -0.881
      -0.155
       0.536
       1.124
       1.589
       1.944
       2.208
       2.380
       2.428
       2.306
       1.982
       1.458
       0.784
       0.049
      -0.642
      -1.215
      -1.667
      -2.067
      -2.519
      -3.099
      -3.806
      -4.526
      -5.056
      -5.178
      -4.787
      -3.971
      -2.984
      -2.110
      -1.528
      -1.253
      -1.176
      -1.146
      -1.052
      -0.854
      -0.562
      -0.168
       0.373
       1.105
       1.992
       2.906
       3.687
       4.226
       4.486
       4.477
       4.213
       3.713
       3.004
       2.120
       1.107
       0.061
      -0.831
      -1.311
      -1.192
      -0.526
       0.356
       0.985
       1.020
       0.438
      -0.474
      -1.309
      -1.771
      -1.786
      -1.458
      -0.950
      -0.390
       0.146
       0.602
       0.911
       1.002
       0.846
       0.511
       0.149
      -0.080
      -0.105
       0.030
       0.220
       0.377
       0.466
       0.500
       0.534
       0.659
       0.976
       1.534
       2.277
       3.050
