Origin Time       04/09/2008 12:53:21
Lat.              30.1°N 
Long.             80.4°E 
Depth (Km)         10.0
Magnitude         5.1
 Region           INDIA(UTTARAKHAND)-TIBET-BORDER-REGION                           
 Above details taken from IMD 
     
Station Code      CHP
Station Lat.       29.334  N
Station Long.      80.095  E
Station Height(m) 1635.0
Site Class        A   Vs30 between 700 m/sec to 1400 m/sec * 
Record Time       04.09.2008 12:53:33.864
Sampling Rate     200. Hz
 Record Duration   70.100 Sec.
 Direction         E-W (E positive)
Max. Acceleration     -3.699 cm/sec**2
     
  * For reference see Site Classification link of website 
     
 Base Line Corrected and Low Pass Filtered (Cut Off at 35 Hz) Time History
 Acceleration data in cm/sec**2
    
[...]
      -0.214
      -0.158
      -0.094
      -0.017
       0.075
       0.179
       0.285
       0.382
       0.460
       0.512
       0.534
       0.528
       0.497
       0.448
       0.387
       0.320
       0.251
       0.192
       0.147
       0.115
       0.087
       0.054
       0.015
      -0.020
      -0.040
      -0.041
      -0.032
      -0.030
      -0.051
      -0.100
      -0.170
      -0.245
      -0.306
      -0.338
      -0.339
      -0.318
      -0.284
      -0.243
      -0.195
      -0.136
      -0.065
       0.019
       0.115
       0.221
       0.329
       0.429
       0.511
       0.568
       0.602
       0.620
       0.627
       0.627
       0.624
       0.620
       0.616
       0.610
       0.597
       0.568
       0.515
       0.429
       0.309
       0.157
      -0.019
      -0.210
      -0.401
      -0.576
      -0.722
      -0.834
      -0.914
      -0.966
      -0.990
      -0.982
      -0.935
      -0.846
      -0.719
      -0.569
      -0.418
      -0.280
      -0.164
      -0.072
      -0.001
       0.050
       0.084
       0.104
       0.118
       0.129
       0.134
       0.128
       0.106
       0.070
       0.027
      -0.017
      -0.058
      -0.098
      -0.138
      -0.175
      -0.200
      -0.202
      -0.174
      -0.118
      -0.046
       0.029
       0.100
       0.167
       0.241
       0.331
       0.439
       0.557
       0.664
       0.740
       0.774
       0.765
       0.721
       0.654
       0.570
       0.477
       0.386
       0.307
       0.250
       0.218
       0.204
       0.199
       0.195
       0.187
       0.176
       0.162
       0.145
       0.125
       0.099
       0.064
       0.017
      -0.039
      -0.101
      -0.166
      -0.232
      -0.303
      -0.377
      -0.449
      -0.510
      -0.554
      -0.582
      -0.606
      -0.635
      -0.672
      -0.709
      -0.730
      -0.722
      -0.677
      -0.603
      -0.515
      -0.431
      -0.356
      -0.285
      -0.201
      -0.093
       0.046
       0.206
       0.376
       0.540
       0.685
       0.800
       0.879
       0.922
       0.930
       0.904
       0.844
       0.747
       0.611
       0.444
       0.254
       0.052
      -0.151
      -0.345
      -0.518
      -0.660
      -0.760
      -0.815
      -0.830
      -0.814
      -0.783
      -0.748
      -0.711
      -0.665
      -0.601
      -0.514
      -0.404
      -0.276
      -0.133
       0.023
       0.187
       0.356
       0.525
       0.687
       0.830
       0.943
       1.016
       1.048
       1.041
       1.000
       0.929
       0.832
       0.717
       0.596
       0.479
       0.370
       0.265
       0.156
       0.038
      -0.088
      -0.210
      -0.311
      -0.380
      -0.419
      -0.444
      -0.475
      -0.523
      -0.586
      -0.654
      -0.711
      -0.744
      -0.741
      -0.697
      -0.620
      -0.525
      -0.429
      -0.346
      -0.279
      -0.225
      -0.176
      -0.120
      -0.053
       0.023
       0.102
       0.176
       0.241
       0.297
       0.338
       0.359
       0.356
       0.336
       0.313
       0.298
       0.291
       0.282
       0.260
       0.222
       0.174
       0.122
       0.070
       0.020
      -0.031
      -0.079
      -0.118
      -0.141
      -0.146
      -0.138
      -0.124
      -0.116
      -0.122
      -0.144
      -0.180
      -0.219
      -0.244
      -0.238
      -0.197
      -0.126
      -0.040
       0.045
       0.114
       0.155
       0.163
       0.144
       0.110
       0.081
       0.069
       0.075
       0.092
       0.110
       0.125
       0.136
       0.147
       0.161
       0.176
       0.191
       0.201
       0.206
       0.208
       0.209
       0.211
       0.212
       0.212
       0.209
       0.202
       0.190
       0.168
       0.131
       0.080
       0.025
      -0.022
      -0.052
      -0.067
      -0.075
      -0.087
      -0.109
      -0.141
      -0.181
      -0.222
      -0.256
      -0.277
      -0.280
      -0.269
      -0.253
      -0.238
      -0.228
      -0.227
      -0.238
      -0.269
      -0.324
      -0.401
      -0.486
      -0.558
      -0.593
      -0.573
      -0.492
      -0.362
      -0.205
      -0.042
       0.110
       0.248
       0.372
       0.486
       0.593
       0.694
       0.789
       0.874
       0.942
       0.986
       0.996
       0.962
       0.886
       0.780
       0.664
       0.552
       0.441
       0.318
       0.173
       0.004
      -0.175
      -0.352
      -0.519
      -0.671
      -0.800
      -0.897
      -0.955
      -0.981
      -0.990
      -0.991
      -0.983
      -0.953
      -0.884
      -0.771
      -0.620
      -0.444
      -0.260
      -0.080
       0.085
       0.230
       0.352
       0.456
       0.549
       0.634
       0.706
       0.755
       0.771
       0.755
       0.716
       0.671
       0.635
       0.618
       0.615
       0.610
       0.585
       0.525
       0.424
       0.290
       0.139
      -0.012
      -0.155
      -0.286
      -0.404
      -0.510
      -0.597
      -0.658
      -0.690
      -0.690
      -0.658
      -0.591
      -0.494
      -0.377
      -0.256
      -0.146
      -0.051
       0.034
       0.118
       0.211
       0.316
       0.430
       0.549
       0.666
       0.771
       0.853
       0.898
       0.894
       0.840
       0.742
       0.608
       0.451
       0.278
       0.101
      -0.070
      -0.221
      -0.337
      -0.413
      -0.451
      -0.465
      -0.471
      -0.483
      -0.501
      -0.521
      -0.538
      -0.551
      -0.564
      -0.585
      -0.613
      -0.642
      -0.661
      -0.663
      -0.645
      -0.608
      -0.553
      -0.479
      -0.387
      -0.282
      -0.175
      -0.070
       0.036
       0.153
       0.289
       0.445
       0.614
       0.782
       0.935
       1.055
       1.125
       1.136
       1.085
       0.979
       0.829
       0.646
       0.435
       0.199
      -0.061
      -0.336
      -0.611
      -0.867
      -1.088
      -1.260
      -1.371
      -1.416
      -1.393
      -1.312
      -1.185
      -1.021
      -0.822
      -0.587
      -0.316
      -0.018
       0.291
       0.591
       0.858
       1.068
       1.203
       1.259
       1.251
       1.209
       1.161
       1.130
       1.118
       1.114
       1.094
       1.031
       0.912
       0.737
       0.518
       0.276
       0.027
      -0.221
      -0.460
      -0.683
      -0.879
      -1.039
      -1.157
      -1.235
      -1.277
      -1.286
      -1.265
      -1.216
      -1.140
      -1.041
      -0.930
      -0.815
      -0.699
      -0.578
      -0.443
      -0.287
      -0.111
       0.070
       0.237
       0.372
       0.470
       0.537
       0.592
       0.653
       0.729
       0.817
       0.903
       0.966
       0.996
       0.989
       0.952
       0.889
       0.804
       0.697
       0.576
       0.448
       0.320
       0.197
       0.078
      -0.035
      -0.137
      -0.224
      -0.292
      -0.342
      -0.379
      -0.409
      -0.437
      -0.465
      -0.491
      -0.513
      -0.526
      -0.526
      -0.509
      -0.470
      -0.410
      -0.334
      -0.255
      -0.186
      -0.134
      -0.098
      -0.066
      -0.029
       0.016
       0.060
       0.090
       0.103
       0.111
       0.127
       0.164
       0.218
       0.276
       0.328
       0.371
       0.408
       0.444
       0.469
       0.470
       0.433
       0.356
       0.246
       0.117
      -0.022
      -0.161
      -0.292
      -0.405
      -0.486
      -0.523
      -0.513
      -0.468
      -0.411
      -0.362
      -0.334
      -0.328
      -0.336
      -0.348
      -0.351
      -0.327
      -0.257
      -0.131
       0.047
       0.253
       0.454
       0.627
       0.771
       0.904
       1.046
       1.203
       1.365
       1.504
       1.592
       1.613
       1.559
       1.434
       1.246
       1.007
       0.729
       0.426
       0.111
      -0.204
      -0.511
      -0.810
      -1.104
      -1.397
      -1.683
      -1.949
      -2.175
      -2.340
      -2.426
      -2.422
      -2.325
      -2.140
      -1.883
      -1.571
      -1.219
      -0.838
      -0.437
      -0.023
       0.389
       0.782
       1.141
       1.453
       1.700
       1.867
       1.937
       1.914
       1.818
       1.683
       1.537
       1.393
       1.248
       1.093
       0.924
       0.739
       0.536
       0.319
       0.097
      -0.114
      -0.297
      -0.441
      -0.546
      -0.626
      -0.702
      -0.793
      -0.905
      -1.026
      -1.134
      -1.208
      -1.234
      -1.211
      -1.146
      -1.051
      -0.939
      -0.821
      -0.705
      -0.588
      -0.463
      -0.319
      -0.151
       0.039
       0.243
       0.453
       0.659
       0.849
       1.010
       1.131
       1.203
       1.223
       1.188
       1.099
       0.961
       0.784
       0.583
       0.374
       0.172
      -0.011
      -0.168
      -0.298
      -0.402
      -0.482
      -0.536
      -0.560
      -0.553
      -0.519
      -0.470
      -0.420
      -0.382
      -0.364
      -0.368
      -0.392
      -0.426
      -0.457
      -0.471
      -0.462
      -0.430
      -0.379
      -0.308
      -0.219
      -0.110
       0.007
       0.118
       0.205
       0.260
       0.287
       0.296
       0.301
       0.307
       0.319
       0.345
       0.395
       0.475
       0.580
       0.696
       0.805
       0.890
       0.939
       0.944
       0.899
       0.802
       0.656
       0.463
       0.228
      -0.049
      -0.361
      -0.690
      -0.999
      -1.243
      -1.384
      -1.406
      -1.326
      -1.178
      -0.996
      -0.792
      -0.565
      -0.304
      -0.007
       0.309
       0.614
       0.870
       1.044
       1.113
       1.066
       0.914
       0.679
       0.394
       0.093
      -0.193
      -0.435
      -0.613
      -0.718
      -0.757
      -0.744
      -0.698
      -0.629
      -0.540
      -0.430
      -0.291
      -0.123
       0.071
       0.282
       0.492
       0.686
       0.851
       0.979
       1.063
       1.099
       1.081
       1.011
       0.896
       0.751
       0.595
       0.437
       0.275
       0.097
      -0.106
      -0.331
      -0.560
      -0.764
      -0.918
      -1.008
      -1.037
      -1.017
      -0.967
      -0.899
      -0.814
      -0.710
      -0.586
      -0.446
      -0.297
      -0.149
      -0.003
       0.140
       0.283
       0.422
       0.550
       0.658
       0.745
       0.817
       0.880
       0.939
       0.987
       1.010
       0.992
       0.922
       0.799
       0.636
       0.450
       0.262
       0.085
      -0.078
      -0.229
      -0.377
      -0.528
      -0.684
      -0.841
      -0.990
      -1.121
      -1.228
      -1.312
      -1.376
      -1.419
      -1.437
      -1.420
      -1.356
      -1.233
      -1.050
      -0.813
      -0.533
      -0.222
       0.117
       0.480
       0.858
       1.231
       1.568
       1.839
       2.021
       2.105
       2.094
       2.004
       1.856
       1.672
       1.461
       1.223
       0.949
       0.628
       0.262
      -0.141
      -0.556
      -0.951
      -1.287
      -1.531
      -1.670
      -1.714
      -1.685
      -1.608
      -1.502
      -1.375
      -1.231
      -1.073
      -0.905
      -0.730
      -0.541
      -0.331
      -0.089
       0.189
       0.498
       0.822
       1.135
       1.403
       1.598
       1.704
       1.723
       1.674
       1.583
       1.468
       1.333
       1.171
       0.974
       0.739
       0.473
       0.195
      -0.071
      -0.307
      -0.503
      -0.663
      -0.793
      -0.897
      -0.970
      -1.009
      -1.018
      -1.012
      -1.007
      -1.011
      -1.019
      -1.014
      -0.977
      -0.893
      -0.760
      -0.586
      -0.385
      -0.177
       0.023
       0.204
       0.366
       0.511
       0.648
       0.782
       0.920
       1.063
       1.208
       1.343
       1.447
       1.502
       1.490
       1.403
       1.241
       1.018
       0.752
       0.463
       0.166
      -0.129
      -0.422
      -0.711
      -0.999
      -1.283
      -1.561
      -1.833
      -2.095
      -2.340
      -2.552
      -2.716
      -2.821
      -2.859
      -2.821
      -2.694
      -2.463
      -2.122
      -1.684
      -1.173
      -0.627
      -0.085
       0.422
       0.872
       1.259
       1.589
       1.877
       2.143
       2.397
       2.629
       2.807
       2.891
       2.863
       2.741
       2.571
       2.392
       2.217
       2.030
       1.810
       1.553
       1.268
       0.964
       0.645
       0.311
      -0.029
      -0.365
      -0.693
      -1.012
      -1.330
      -1.655
      -1.987
      -2.311
      -2.603
      -2.835
      -2.978
      -3.010
      -2.920
      -2.711
      -2.404
      -2.033
      -1.637
      -1.245
      -0.867
      -0.496
      -0.116
       0.280
       0.689
       1.093
       1.469
       1.789
       2.035
       2.207
       2.328
       2.425
       2.512
       2.581
       2.615
       2.605
       2.550
       2.449
       2.293
       2.075
       1.804
       1.504
       1.196
       0.890
       0.575
       0.227
      -0.179
      -0.657
      -1.200
      -1.782
      -2.362
      -2.889
      -3.312
      -3.591
      -3.699
      -3.628
      -3.383
      -2.981
      -2.454
      -1.845
      -1.206
      -0.587
      -0.025
       0.466
       0.887
       1.246
       1.545
       1.779
       1.943
       2.035
       2.060
       2.033
       1.971
       1.882
       1.764
       1.606
       1.399
       1.133
       0.811
       0.448
       0.073
      -0.278
      -0.576
      -0.812
      -0.990
      -1.120
      -1.205
      -1.244
      -1.229
      -1.165
      -1.068
      -0.956
      -0.842
      -0.718
      -0.569
      -0.378
      -0.145
       0.113
       0.376
       0.631
       0.875
       1.109
       1.324
       1.503
       1.620
       1.651
       1.581
       1.408
       1.138
       0.780
       0.354
      -0.112
      -0.583
      -1.024
      -1.408
      -1.720
      -1.950
      -2.095
      -2.163
      -2.174
      -2.148
      -2.093
      -2.003
      -1.864
      -1.673
      -1.439
      -1.184
      -0.929
      -0.679
      -0.431
      -0.174
       0.102
       0.404
       0.734
       1.091
       1.466
       1.846
       2.209
       2.519
       2.739
       2.837
       2.802
       2.645
       2.390
       2.069
       1.710
       1.334
       0.950
       0.562
       0.175
      -0.196
      -0.536
      -0.832
      -1.081
      -1.283
      -1.438
      -1.542
      -1.587
      -1.571
      -1.501
      -1.397
      -1.285
      -1.186
      -1.117
      -1.083
      -1.084
      -1.112
      -1.157
      -1.207
      -1.252
      -1.283
      -1.295
      -1.283
      -1.235
      -1.131
      -0.945
      -0.660
      -0.282
       0.159
       0.617
       1.049
       1.428
       1.745
       2.000
       2.198
       2.339
       2.426
       2.464
       2.459
       2.415
       2.327
       2.183
       1.965
       1.658
       1.268
       0.816
       0.335
      -0.142
      -0.588
      -0.983
      -1.309
      -1.548
      -1.689
      -1.726
      -1.669
      -1.535
      -1.343
      -1.114
      -0.864
      -0.610
      -0.367
      -0.147
       0.045
       0.210
       0.347
       0.450
       0.512
       0.523
       0.481
       0.389
       0.256
       0.096
      -0.071
      -0.224
      -0.339
      -0.402
      -0.410
      -0.375
      -0.310
      -0.228
      -0.132
      -0.024
       0.094
       0.219
       0.351
       0.486
       0.622
       0.757
       0.889
       1.013
       1.117
       1.175
       1.153
       1.026
       0.785
       0.443
       0.033
      -0.411
      -0.863
      -1.308
      -1.738
      -2.139
      -2.489
      -2.756
      -2.900
      -2.879
      -2.668
      -2.268
      -1.714
      -1.065
      -0.391
       0.251
       0.823
       1.307
       1.684
       1.940
       2.061
       2.046
       1.908
       1.666
       1.343
       0.961
       0.550
       0.150
      -0.197
      -0.459
      -0.619
      -0.681
      -0.666
      -0.599
      -0.499
      -0.372
      -0.215
      -0.025
       0.196
       0.430
       0.651
       0.830
       0.951
       1.013
       1.031
       1.025
       1.007
       0.971
       0.900
       0.782
       0.620
       0.433
       0.241
       0.058
      -0.114
      -0.277
      -0.432
      -0.573
      -0.689
      -0.770
      -0.807
      -0.795
      -0.736
      -0.641
      -0.524
      -0.401
      -0.283
      -0.174
      -0.074
       0.017
       0.100
       0.180
       0.258
       0.329
       0.375
       0.368
       0.288
       0.136
      -0.060
      -0.261
      -0.434
      -0.564
      -0.661
      -0.733
      -0.777
      -0.776
      -0.708
      -0.560
      -0.335
      -0.056
       0.245
       0.528
       0.759
       0.914
       0.984
       0.981
       0.928
       0.848
       0.751
       0.636
       0.498
       0.332
       0.148
      -0.039
      -0.221
      -0.402
      -0.599
      -0.829
      -1.093
      -1.362
      -1.586
      -1.715
      -1.715
      -1.587
      -1.361
      -1.075
      -0.765
      -0.447
      -0.126
       0.201
       0.532
       0.856
       1.152
       1.395
       1.567
       1.662
       1.682
       1.633
       1.520
       1.346
       1.124
       0.872
       0.614
       0.373
       0.157
      -0.031
      -0.199
      -0.364
      -0.544
      -0.757
      -1.008
      -1.280
      -1.531
      -1.711
      -1.774
      -1.697
      -1.485
      -1.176
      -0.819
      -0.464
      -0.143
       0.128
       0.349
       0.521
       0.644
       0.712
       0.718
       0.661
       0.549
       0.403
       0.248
       0.111
       0.012
      -0.038
      -0.044
      -0.018
       0.018
       0.053
       0.085
       0.128
       0.196
       0.296
       0.421
       0.554
       0.675
       0.765
       0.810
       0.799
       0.731
       0.611
       0.455
       0.282
       0.106
      -0.059
      -0.198
      -0.297
      -0.344
      -0.342
      -0.301
      -0.233
      -0.142
      -0.025
       0.122
       0.301
       0.505
       0.711
       0.889
       1.005
       1.036
       0.968
       0.807
       0.569
       0.273
      -0.055
      -0.394
      -0.719
      -1.012
      -1.258
      -1.446
      -1.571
      -1.637
      -1.657
      -1.649
      -1.625
      -1.581
      -1.501
      -1.365
      -1.168
      -0.921
      -0.644
      -0.356
      -0.060
       0.247
       0.571
       0.910
       1.250
       1.569
       1.833
       2.007
       2.056
       1.958
       1.712
       1.339
       0.882
       0.392
      -0.089
      -0.533
      -0.925
      -1.251
      -1.496
      -1.646
      -1.696
      -1.651
      -1.524
      -1.329
      -1.081
      -0.786
      -0.445
      -0.059
       0.358
       0.775
       1.151
