Origin Time       11/1/2010 5:15:18	  UTC
Lat.              29.7 N	
Long.             80.0 E	
Depth (Km)         15.0
Magnitude         3.9
 Region           PITHORAGARH-UTTRAKHAND                                           
 Above details taken from IMD 
    
Station Code      CHP
Station Lat.       29.334  N
Station Long.      80.095  E
Station Height(m) 1635.0
Site Class        A   Vs30 between 700 m/sec to 1400 m/sec * 
Record Time       11.01.2010 05:15:21.519 UTC
Sampling Rate     200. Hz
 Record Duration   65.025 Sec.
 Direction         N-S (N positive)
Max. Acceleration      1.560 cm/sec**2
     
  * For reference see Site Classification link of website 
     
 Base Line Corrected and Low Pass Filtered (Cut Off at 35 Hz) Time History
 Acceleration data in cm/sec**2
    
[...]
      -0.089
      -0.113
      -0.109
      -0.082
      -0.048
      -0.020
      -0.005
       0.000
       0.002
       0.009
       0.026
       0.048
       0.074
       0.100
       0.129
       0.161
       0.195
       0.224
       0.239
       0.234
       0.204
       0.151
       0.082
       0.009
      -0.057
      -0.107
      -0.137
      -0.151
      -0.158
      -0.169
      -0.188
      -0.214
      -0.243
      -0.267
      -0.281
      -0.282
      -0.267
      -0.236
      -0.188
      -0.125
      -0.050
       0.028
       0.097
       0.145
       0.168
       0.171
       0.165
       0.161
       0.164
       0.169
       0.168
       0.156
       0.129
       0.092
       0.050
       0.006
      -0.032
      -0.063
      -0.083
      -0.093
      -0.091
      -0.078
      -0.057
      -0.030
      -0.001
       0.026
       0.047
       0.059
       0.062
       0.057
       0.049
       0.044
       0.045
       0.053
       0.060
       0.056
       0.033
      -0.008
      -0.059
      -0.105
      -0.137
      -0.146
      -0.132
      -0.098
      -0.054
      -0.008
       0.033
       0.064
       0.082
       0.082
       0.063
       0.025
      -0.027
      -0.085
      -0.136
      -0.168
      -0.174
      -0.155
      -0.115
      -0.063
      -0.011
       0.029
       0.045
       0.035
       0.003
      -0.035
      -0.060
      -0.057
      -0.023
       0.031
       0.088
       0.131
       0.153
       0.150
       0.128
       0.091
       0.047
       0.007
      -0.022
      -0.037
      -0.043
      -0.042
      -0.041
      -0.039
      -0.037
      -0.033
      -0.026
      -0.014
       0.006
       0.031
       0.059
       0.085
       0.106
       0.121
       0.129
       0.125
       0.104
       0.057
      -0.017
      -0.109
      -0.198
      -0.264
      -0.291
      -0.280
      -0.235
      -0.169
      -0.089
      -0.008
       0.061
       0.104
       0.117
       0.107
       0.084
       0.059
       0.037
       0.017
      -0.003
      -0.021
      -0.034
      -0.039
      -0.035
      -0.023
      -0.002
       0.028
       0.069
       0.116
       0.160
       0.185
       0.180
       0.138
       0.068
      -0.013
      -0.083
      -0.126
      -0.141
      -0.135
      -0.117
      -0.092
      -0.061
      -0.022
       0.020
       0.057
       0.077
       0.073
       0.045
      -0.004
      -0.063
      -0.122
      -0.166
      -0.183
      -0.166
      -0.121
      -0.060
       0.000
       0.047
       0.073
       0.076
       0.062
       0.041
       0.028
       0.034
       0.063
       0.102
       0.137
       0.153
       0.149
       0.131
       0.107
       0.082
       0.057
       0.031
       0.005
      -0.019
      -0.042
      -0.066
      -0.089
      -0.106
      -0.115
      -0.119
      -0.122
      -0.125
      -0.120
      -0.093
      -0.039
       0.035
       0.109
       0.164
       0.189
       0.181
       0.147
       0.101
       0.060
       0.032
       0.019
       0.015
       0.012
       0.004
      -0.008
      -0.020
      -0.033
      -0.048
      -0.063
      -0.076
      -0.081
      -0.078
      -0.071
      -0.065
      -0.058
      -0.048
      -0.032
      -0.009
       0.013
       0.028
       0.035
       0.032
       0.023
       0.013
       0.004
       0.000
       0.003
       0.011
       0.013
      -0.001
      -0.030
      -0.065
      -0.086
      -0.084
      -0.058
      -0.020
       0.016
       0.041
       0.049
       0.041
       0.020
      -0.004
      -0.020
      -0.018
       0.005
       0.044
       0.089
       0.126
       0.146
       0.147
       0.137
       0.122
       0.104
       0.078
       0.040
      -0.010
      -0.065
      -0.111
      -0.138
      -0.140
      -0.120
      -0.087
      -0.055
      -0.030
      -0.015
      -0.011
      -0.013
      -0.019
      -0.026
      -0.025
      -0.010
       0.027
       0.082
       0.139
       0.179
       0.185
       0.155
       0.099
       0.032
      -0.031
      -0.077
      -0.097
      -0.087
      -0.055
      -0.012
       0.025
       0.042
       0.032
       0.000
      -0.042
      -0.072
      -0.075
      -0.044
       0.010
       0.068
       0.113
       0.139
       0.152
       0.154
       0.140
       0.095
       0.017
      -0.083
      -0.180
      -0.247
      -0.270
      -0.251
      -0.198
      -0.125
      -0.043
       0.034
       0.095
       0.134
       0.152
       0.153
       0.142
       0.123
       0.099
       0.073
       0.047
       0.025
       0.009
       0.001
      -0.003
      -0.010
      -0.025
      -0.048
      -0.075
      -0.097
      -0.107
      -0.105
      -0.094
      -0.079
      -0.060
      -0.038
      -0.016
       0.002
       0.009
       0.005
      -0.005
      -0.015
      -0.021
      -0.028
      -0.040
      -0.056
      -0.068
      -0.067
      -0.048
      -0.014
       0.026
       0.065
       0.095
       0.113
       0.124
       0.132
       0.141
       0.150
       0.150
       0.135
       0.104
       0.065
       0.028
       0.007
       0.005
       0.017
       0.035
       0.049
       0.059
       0.063
       0.059
       0.045
       0.016
      -0.024
      -0.070
      -0.115
      -0.149
      -0.169
      -0.176
      -0.177
      -0.174
      -0.170
      -0.166
      -0.163
      -0.162
      -0.163
      -0.163
      -0.159
      -0.142
      -0.104
      -0.038
       0.050
       0.147
       0.234
       0.291
       0.313
       0.300
       0.263
       0.214
       0.162
       0.118
       0.085
       0.066
       0.057
       0.050
       0.036
       0.009
      -0.033
      -0.088
      -0.148
      -0.205
      -0.247
      -0.260
      -0.238
      -0.183
      -0.110
      -0.035
       0.025
       0.066
       0.088
       0.097
       0.097
       0.092
       0.083
       0.076
       0.077
       0.088
       0.106
       0.125
       0.135
       0.130
       0.107
       0.066
       0.014
      -0.040
      -0.083
      -0.108
      -0.114
      -0.107
      -0.095
      -0.079
      -0.061
      -0.042
      -0.028
      -0.021
      -0.015
       0.002
       0.036
       0.082
       0.127
       0.153
       0.151
       0.122
       0.075
       0.026
      -0.010
      -0.030
      -0.041
      -0.052
      -0.066
      -0.081
      -0.089
      -0.090
      -0.089
      -0.090
      -0.094
      -0.096
      -0.093
      -0.084
      -0.069
      -0.044
      -0.011
       0.029
       0.071
       0.111
       0.143
       0.161
       0.158
       0.133
       0.091
       0.048
       0.022
       0.021
       0.042
       0.070
       0.091
       0.092
       0.068
       0.022
      -0.041
      -0.108
      -0.169
      -0.214
      -0.239
      -0.245
      -0.233
      -0.205
      -0.164
      -0.113
      -0.060
      -0.010
       0.032
       0.067
       0.096
       0.119
       0.135
       0.141
       0.138
       0.128
       0.121
       0.124
       0.139
       0.158
       0.165
       0.147
       0.101
       0.039
      -0.023
      -0.067
      -0.089
      -0.091
      -0.081
      -0.067
      -0.057
      -0.053
      -0.058
      -0.068
      -0.075
      -0.074
      -0.062
      -0.047
      -0.035
      -0.035
      -0.047
      -0.064
      -0.079
      -0.081
      -0.064
      -0.031
       0.008
       0.043
       0.067
       0.084
       0.101
       0.128
       0.164
       0.204
       0.240
       0.260
       0.259
       0.233
       0.183
       0.117
       0.045
      -0.023
      -0.081
      -0.129
      -0.169
      -0.203
      -0.232
      -0.253
      -0.263
      -0.258
      -0.232
      -0.187
      -0.129
      -0.069
      -0.018
       0.016
       0.038
       0.053
       0.067
       0.078
       0.082
       0.075
       0.057
       0.035
       0.017
       0.010
       0.016
       0.031
       0.050
       0.068
       0.081
       0.087
       0.085
       0.081
       0.079
       0.078
       0.077
       0.069
       0.054
       0.030
      -0.001
      -0.035
      -0.070
      -0.101
      -0.128
      -0.153
      -0.177
      -0.197
      -0.207
      -0.197
      -0.161
      -0.099
      -0.022
       0.059
       0.130
       0.176
       0.188
       0.168
       0.129
       0.091
       0.072
       0.079
       0.106
       0.133
       0.146
       0.137
       0.110
       0.071
       0.031
      -0.003
      -0.027
      -0.042
      -0.052
      -0.061
      -0.075
      -0.093
      -0.109
      -0.116
      -0.110
      -0.090
      -0.060
      -0.029
      -0.006
       0.010
       0.020
       0.031
       0.046
       0.063
       0.080
       0.091
       0.095
       0.095
       0.096
       0.101
       0.106
       0.107
       0.101
       0.088
       0.073
       0.057
       0.041
       0.024
       0.005
      -0.017
      -0.040
      -0.060
      -0.074
      -0.082
      -0.089
      -0.102
      -0.122
      -0.145
      -0.164
      -0.176
      -0.182
      -0.184
      -0.178
      -0.158
      -0.121
      -0.071
      -0.016
       0.034
       0.073
       0.100
       0.114
       0.121
       0.123
       0.126
       0.130
       0.133
       0.122
       0.090
       0.033
      -0.040
      -0.115
      -0.176
      -0.214
      -0.224
      -0.207
      -0.168
      -0.112
      -0.050
       0.006
       0.048
       0.070
       0.075
       0.070
       0.061
       0.050
       0.038
       0.023
      -0.001
      -0.038
      -0.091
      -0.155
      -0.220
      -0.278
      -0.319
      -0.335
      -0.316
      -0.253
      -0.140
       0.014
       0.195
       0.382
       0.556
       0.701
       0.807
       0.873
       0.896
       0.879
       0.828
       0.748
       0.649
       0.540
       0.425
       0.306
       0.186
       0.067
      -0.050
      -0.168
      -0.288
      -0.407
      -0.514
      -0.598
      -0.652
      -0.681
      -0.697
      -0.712
      -0.733
      -0.756
      -0.773
      -0.779
      -0.773
      -0.761
      -0.744
      -0.719
      -0.674
      -0.599
      -0.486
      -0.340
      -0.171
       0.000
       0.159
       0.296
       0.413
       0.516
       0.615
       0.710
       0.797
       0.870
       0.928
       0.973
       1.007
       1.031
       1.037
       1.022
       0.981
       0.915
       0.829
       0.722
       0.593
       0.441
       0.267
       0.074
      -0.137
      -0.364
      -0.600
      -0.832
      -1.039
      -1.201
      -1.299
      -1.325
      -1.285
      -1.198
      -1.083
      -0.957
      -0.826
      -0.694
      -0.566
      -0.447
      -0.340
      -0.243
      -0.150
      -0.063
       0.012
       0.066
       0.089
       0.085
       0.063
       0.039
       0.032
       0.058
       0.126
       0.238
       0.383
       0.544
       0.701
       0.829
       0.913
       0.942
       0.916
       0.844
       0.744
       0.638
       0.548
       0.487
       0.458
       0.454
       0.459
       0.461
       0.449
       0.422
       0.384
       0.346
       0.310
       0.270
       0.214
       0.132
       0.029
      -0.084
      -0.193
      -0.290
      -0.379
      -0.468
      -0.559
      -0.650
      -0.727
      -0.781
      -0.808
      -0.813
      -0.798
      -0.765
      -0.712
      -0.639
      -0.551
      -0.448
      -0.330
      -0.196
      -0.055
       0.074
       0.167
       0.213
       0.217
       0.194
       0.156
       0.110
       0.058
       0.007
      -0.037
      -0.064
      -0.067
      -0.046
      -0.006
       0.043
       0.091
       0.129
       0.155
       0.172
       0.180
       0.174
       0.144
       0.084
      -0.001
      -0.095
      -0.177
      -0.233
      -0.254
      -0.244
      -0.212
      -0.169
      -0.119
      -0.061
       0.006
       0.077
       0.143
       0.198
       0.238
       0.263
       0.272
       0.259
       0.227
       0.188
       0.165
       0.179
       0.238
       0.335
       0.454
       0.573
       0.676
       0.748
       0.783
       0.780
       0.746
       0.687
       0.604
       0.496
       0.358
       0.190
      -0.008
      -0.227
      -0.458
      -0.686
      -0.896
      -1.074
      -1.210
      -1.294
      -1.316
      -1.270
      -1.156
      -0.980
      -0.750
      -0.477
      -0.179
       0.121
       0.398
       0.632
       0.811
       0.933
       1.001
       1.018
       0.991
       0.926
       0.826
       0.695
       0.539
       0.370
       0.198
       0.035
      -0.114
      -0.249
      -0.373
      -0.494
      -0.617
      -0.742
      -0.858
      -0.948
      -0.999
      -0.998
      -0.940
      -0.826
      -0.661
      -0.456
      -0.225
       0.019
       0.263
       0.493
       0.697
       0.858
       0.963
       1.008
       0.991
       0.918
       0.797
       0.638
       0.458
       0.280
       0.121
      -0.008
      -0.109
      -0.195
      -0.284
      -0.392
      -0.524
      -0.673
      -0.827
      -0.969
      -1.083
      -1.148
      -1.145
      -1.063
      -0.901
      -0.676
      -0.421
      -0.173
       0.035
       0.186
       0.279
       0.331
       0.368
       0.416
       0.501
       0.634
       0.816
       1.029
       1.240
       1.415
       1.526
       1.560
       1.515
       1.393
       1.198
       0.931
       0.602
       0.230
      -0.153
      -0.511
      -0.816
      -1.053
      -1.222
      -1.330
      -1.388
      -1.401
      -1.369
      -1.285
      -1.147
      -0.965
      -0.761
      -0.563
      -0.390
      -0.253
      -0.148
      -0.070
      -0.012
       0.034
       0.074
       0.117
       0.170
       0.237
       0.314
       0.390
       0.454
       0.500
       0.525
       0.530
       0.523
       0.513
       0.511
       0.528
       0.564
       0.608
       0.646
       0.666
       0.661
       0.623
       0.547
       0.431
       0.280
       0.116
      -0.038
      -0.160
      -0.239
      -0.279
      -0.289
      -0.284
      -0.271
      -0.256
      -0.241
      -0.230
      -0.228
      -0.244
      -0.285
      -0.357
      -0.460
      -0.588
      -0.726
      -0.851
      -0.937
      -0.963
      -0.918
      -0.812
      -0.672
      -0.532
      -0.421
      -0.355
      -0.327
      -0.320
      -0.313
      -0.285
      -0.223
      -0.119
       0.027
       0.211
       0.421
       0.638
       0.843
       1.022
       1.171
       1.288
       1.374
       1.428
       1.447
       1.426
       1.360
       1.246
       1.085
       0.876
       0.624
       0.339
       0.039
      -0.261
      -0.541
      -0.787
      -0.986
      -1.126
      -1.201
      -1.212
      -1.170
      -1.097
      -1.020
      -0.962
      -0.935
      -0.932
      -0.930
      -0.904
      -0.839
      -0.731
      -0.587
      -0.412
      -0.207
       0.021
       0.262
       0.502
       0.727
       0.933
       1.116
       1.273
       1.396
       1.474
       1.493
       1.443
       1.322
       1.136
       0.901
       0.644
       0.388
       0.147
      -0.076
      -0.286
      -0.483
      -0.667
      -0.833
      -0.973
      -1.080
      -1.147
      -1.171
      -1.154
      -1.109
      -1.048
      -0.977
      -0.897
      -0.804
      -0.697
      -0.582
      -0.468
      -0.360
      -0.253
      -0.136
       0.000
       0.154
       0.322
       0.500
       0.685
       0.875
       1.058
       1.212
       1.309
       1.329
       1.270
       1.147
       0.985
       0.807
       0.629
       0.459
       0.296
       0.134
      -0.034
      -0.215
      -0.402
      -0.584
      -0.748
      -0.885
      -0.990
      -1.057
      -1.077
      -1.037
      -0.931
      -0.764
      -0.555
      -0.332
      -0.123
       0.054
       0.187
       0.277
       0.331
       0.366
       0.397
       0.434
       0.472
       0.501
       0.502
       0.466
       0.392
       0.289
       0.175
       0.063
      -0.033
      -0.105
      -0.148
      -0.165
      -0.164
      -0.152
      -0.136
      -0.112
      -0.078
      -0.030
       0.029
       0.088
       0.135
       0.163
       0.175
       0.180
       0.182
       0.185
       0.187
       0.184
       0.173
       0.148
       0.107
       0.046
      -0.033
      -0.127
      -0.229
      -0.339
      -0.454
      -0.573
      -0.686
      -0.782
      -0.841
      -0.847
      -0.788
      -0.660
      -0.470
      -0.228
       0.051
       0.342
       0.617
       0.845
       0.999
       1.065
       1.047
       0.962
       0.834
       0.695
       0.568
       0.467
       0.390
       0.320
       0.237
       0.126
      -0.018
      -0.194
      -0.392
      -0.603
      -0.813
      -1.006
      -1.166
      -1.273
      -1.314
      -1.282
      -1.176
      -1.002
      -0.768
      -0.485
      -0.168
       0.161
       0.483
       0.778
       1.033
       1.234
       1.366
       1.423
       1.406
       1.320
       1.179
       0.997
       0.787
       0.558
       0.313
       0.051
      -0.228
      -0.518
      -0.801
      -1.049
      -1.237
      -1.343
      -1.357
      -1.274
      -1.098
      -0.844
      -0.538
      -0.213
       0.092
       0.346
       0.534
       0.653
       0.712
       0.718
       0.671
       0.570
       0.417
       0.226
       0.025
      -0.155
      -0.291
      -0.374
      -0.406
      -0.395
      -0.348
      -0.272
      -0.172
      -0.051
       0.091
       0.250
       0.418
       0.578
       0.709
       0.790
       0.807
       0.751
       0.625
       0.445
       0.230
       0.004
      -0.216
      -0.419
      -0.596
      -0.742
      -0.856
      -0.937
      -0.986
      -1.002
      -0.975
      -0.894
      -0.746
      -0.533
      -0.268
       0.022
       0.307
       0.561
       0.763
       0.901
       0.971
       0.977
       0.931
       0.848
       0.741
       0.622
       0.497
       0.372
       0.253
       0.143
       0.045
      -0.043
      -0.124
      -0.201
      -0.278
      -0.351
      -0.416
      -0.465
      -0.496
      -0.508
      -0.501
      -0.480
      -0.453
      -0.432
      -0.429
      -0.449
      -0.490
      -0.541
      -0.586
      -0.600
      -0.566
      -0.476
      -0.339
      -0.173
       0.004
       0.182
       0.358
       0.532
       0.701
       0.849
       0.957
       1.011
       1.004
       0.940
       0.823
       0.657
       0.448
       0.219
       0.000
      -0.175
      -0.288
      -0.338
      -0.343
      -0.322
      -0.292
      -0.260
      -0.226
      -0.187
      -0.139
      -0.078
      -0.004
       0.080
       0.164
       0.237
       0.290
       0.322
       0.340
       0.345
       0.334
       0.299
       0.235
       0.141
       0.016
      -0.138
      -0.317
      -0.502
      -0.665
      -0.781
      -0.833
      -0.822
      -0.759
      -0.659
      -0.540
      -0.415
      -0.292
      -0.181
      -0.079
       0.015
       0.108
       0.201
