Origin Time       06/07/2010 19:08:20
Lat.              29.8 N	
Long.             80.4 E	
Depth (Km)         10.0
Magnitude         5.1
 Region           INDIA-NEPAL                                                      
 Above details taken from IMD 
   
Station Code      CHP
Station Lat.       29.334
Station Long.      80.095
Station Height(m) 1635.0
Site Class        A   Vs30 between 700 m/sec to 1400 m/sec * 
Record Time       06.07.2010 19:08:29.599
Sampling Rate     200. Hz
 Record Duration   66.660 Sec.
 Direction         Vert. (Up positive)
Max. Acceleration      1.356 cm/sec**2
     
  * For reference see Site Classification link of website 
     
 Base Line Corrected and Low Pass Filtered (Cut Off at 35 Hz) Time History
 Acceleration data in cm/sec**2
    
[...]
      -0.019
      -0.019
      -0.016
      -0.012
      -0.010
      -0.009
      -0.008
      -0.007
      -0.008
      -0.012
      -0.019
      -0.024
      -0.024
      -0.016
      -0.006
       0.002
       0.002
      -0.002
      -0.006
      -0.007
      -0.005
      -0.001
       0.002
       0.005
       0.007
       0.007
       0.007
       0.005
       0.005
       0.007
       0.008
       0.006
       0.001
      -0.004
      -0.007
      -0.007
      -0.007
      -0.006
      -0.004
      -0.001
       0.002
       0.005
       0.006
       0.004
      -0.002
      -0.009
      -0.013
      -0.013
      -0.008
      -0.001
       0.005
       0.006
       0.002
      -0.005
      -0.011
      -0.013
      -0.012
      -0.010
      -0.008
      -0.009
      -0.009
      -0.007
      -0.003
       0.002
       0.005
       0.006
       0.005
       0.005
       0.005
       0.006
       0.006
       0.005
       0.001
      -0.003
      -0.005
      -0.003
       0.001
       0.005
       0.005
       0.001
      -0.003
      -0.005
      -0.004
      -0.002
      -0.001
       0.000
       0.001
       0.003
       0.005
       0.003
      -0.001
      -0.005
      -0.003
       0.002
       0.007
       0.008
       0.005
       0.002
       0.000
       0.001
       0.004
       0.007
       0.009
       0.010
       0.008
       0.005
       0.001
      -0.002
      -0.005
      -0.006
      -0.005
      -0.004
      -0.002
       0.000
       0.002
       0.002
       0.001
      -0.001
      -0.002
      -0.002
       0.000
       0.002
       0.003
       0.000
      -0.006
      -0.012
      -0.013
      -0.010
      -0.005
      -0.003
      -0.004
      -0.007
      -0.008
      -0.004
      -0.001
      -0.001
      -0.002
      -0.004
      -0.005
      -0.006
      -0.006
      -0.006
      -0.007
      -0.008
      -0.008
      -0.007
      -0.008
      -0.010
      -0.013
      -0.013
      -0.009
      -0.005
      -0.003
      -0.004
      -0.008
      -0.011
      -0.012
      -0.010
      -0.005
       0.000
       0.002
      -0.001
      -0.008
      -0.014
      -0.014
      -0.008
      -0.002
       0.000
      -0.004
      -0.010
      -0.013
      -0.011
      -0.007
      -0.005
      -0.004
      -0.005
      -0.003
       0.000
       0.000
      -0.002
      -0.007
      -0.009
      -0.007
      -0.004
      -0.002
      -0.002
      -0.002
      -0.003
      -0.003
      -0.004
      -0.003
      -0.002
       0.001
       0.003
       0.001
      -0.005
      -0.014
      -0.021
      -0.021
      -0.014
      -0.006
      -0.001
      -0.001
      -0.004
      -0.006
      -0.006
      -0.005
      -0.006
      -0.005
      -0.003
       0.001
       0.004
       0.005
       0.002
      -0.001
      -0.002
      -0.001
       0.002
       0.004
       0.003
       0.000
      -0.005
      -0.009
      -0.011
      -0.012
      -0.009
      -0.006
      -0.002
       0.001
       0.003
       0.003
       0.000
      -0.003
      -0.007
      -0.007
      -0.003
       0.001
       0.002
      -0.002
      -0.010
      -0.015
      -0.017
      -0.014
      -0.009
      -0.003
       0.002
       0.004
       0.001
      -0.002
      -0.004
      -0.005
      -0.004
      -0.005
      -0.005
      -0.004
      -0.001
       0.001
       0.001
      -0.002
      -0.006
      -0.008
      -0.006
      -0.001
       0.004
       0.007
       0.007
       0.005
      -0.001
      -0.007
      -0.011
      -0.012
      -0.011
      -0.010
      -0.011
      -0.014
      -0.017
      -0.017
      -0.013
      -0.007
      -0.005
      -0.008
      -0.014
      -0.018
      -0.016
      -0.009
      -0.002
       0.002
       0.000
      -0.001
      -0.001
       0.002
       0.005
       0.006
       0.004
       0.001
      -0.001
      -0.002
      -0.003
      -0.004
      -0.007
      -0.010
      -0.014
      -0.016
      -0.014
      -0.008
      -0.001
       0.003
       0.003
      -0.002
      -0.006
      -0.007
      -0.004
       0.001
       0.005
       0.004
      -0.001
      -0.005
      -0.005
      -0.003
      -0.001
       0.000
       0.000
       0.001
       0.003
       0.004
       0.002
      -0.001
      -0.002
      -0.001
       0.002
       0.003
      -0.001
      -0.006
      -0.010
      -0.009
      -0.005
      -0.004
      -0.007
      -0.011
      -0.013
      -0.013
      -0.012
      -0.012
      -0.010
      -0.006
      -0.002
       0.000
      -0.001
      -0.001
       0.003
       0.012
       0.019
       0.019
       0.010
      -0.004
      -0.013
      -0.015
      -0.013
      -0.010
      -0.008
      -0.005
       0.000
       0.006
       0.008
       0.004
      -0.003
      -0.009
      -0.009
      -0.002
       0.006
       0.011
       0.009
       0.003
      -0.002
      -0.003
      -0.003
      -0.005
      -0.009
      -0.012
      -0.013
      -0.009
      -0.003
       0.002
       0.004
       0.005
       0.005
       0.005
       0.005
       0.004
       0.003
       0.001
      -0.001
      -0.004
      -0.008
      -0.011
      -0.012
      -0.010
      -0.005
       0.000
       0.003
       0.002
      -0.001
      -0.005
      -0.008
      -0.010
      -0.010
      -0.007
      -0.003
       0.000
       0.000
      -0.003
      -0.006
      -0.007
      -0.006
      -0.004
      -0.004
      -0.006
      -0.007
      -0.006
      -0.001
       0.003
       0.003
       0.000
      -0.004
      -0.006
      -0.005
      -0.004
      -0.004
      -0.005
      -0.004
       0.000
       0.005
       0.005
       0.001
      -0.006
      -0.011
      -0.013
      -0.011
      -0.009
      -0.007
      -0.003
       0.002
       0.003
       0.000
      -0.006
      -0.009
      -0.008
      -0.004
       0.000
       0.001
       0.001
       0.003
       0.006
       0.006
       0.002
      -0.004
      -0.006
      -0.003
       0.005
       0.009
       0.008
       0.000
      -0.009
      -0.012
      -0.007
       0.000
       0.004
       0.003
      -0.002
      -0.008
      -0.012
      -0.012
      -0.011
      -0.010
      -0.009
      -0.008
      -0.005
      -0.003
      -0.002
      -0.002
      -0.004
      -0.008
      -0.012
      -0.014
      -0.012
      -0.009
      -0.005
      -0.002
      -0.001
      -0.002
      -0.005
      -0.007
      -0.006
      -0.003
      -0.002
      -0.007
      -0.015
      -0.022
      -0.022
      -0.015
      -0.006
       0.000
       0.001
       0.000
       0.001
       0.005
       0.008
       0.007
       0.001
      -0.007
      -0.012
      -0.013
      -0.010
      -0.004
       0.001
       0.002
       0.000
      -0.004
      -0.009
      -0.009
      -0.004
       0.002
       0.005
       0.003
      -0.002
      -0.008
      -0.012
      -0.012
      -0.011
      -0.008
      -0.007
      -0.009
      -0.012
      -0.015
      -0.014
      -0.009
      -0.004
      -0.002
      -0.005
      -0.010
      -0.014
      -0.015
      -0.012
      -0.007
      -0.002
       0.000
      -0.002
      -0.007
      -0.008
      -0.005
       0.001
       0.003
       0.000
      -0.007
      -0.013
      -0.013
      -0.008
      -0.002
       0.002
       0.001
      -0.003
      -0.007
      -0.010
      -0.012
      -0.013
      -0.011
      -0.009
      -0.008
      -0.007
      -0.009
      -0.013
      -0.018
      -0.022
      -0.022
      -0.019
      -0.013
      -0.008
      -0.008
      -0.011
      -0.013
      -0.012
      -0.008
      -0.005
      -0.005
      -0.007
      -0.009
      -0.012
      -0.013
      -0.012
      -0.010
      -0.007
      -0.003
       0.001
       0.004
       0.003
      -0.002
      -0.007
      -0.009
      -0.006
      -0.004
      -0.004
      -0.007
      -0.011
      -0.010
      -0.007
      -0.002
       0.001
       0.001
      -0.001
      -0.004
      -0.005
      -0.006
      -0.006
      -0.006
      -0.005
      -0.005
      -0.007
      -0.013
      -0.020
      -0.023
      -0.019
      -0.012
      -0.009
      -0.009
      -0.011
      -0.011
      -0.009
      -0.007
      -0.007
      -0.009
      -0.010
      -0.009
      -0.008
      -0.008
      -0.009
      -0.009
      -0.007
      -0.002
       0.002
       0.004
       0.002
      -0.002
      -0.005
      -0.007
      -0.009
      -0.012
      -0.015
      -0.017
      -0.018
      -0.016
      -0.015
      -0.014
      -0.014
      -0.016
      -0.018
      -0.020
      -0.020
      -0.018
      -0.015
      -0.013
      -0.012
      -0.013
      -0.015
      -0.019
      -0.022
      -0.025
      -0.023
      -0.018
      -0.011
      -0.004
      -0.002
      -0.004
      -0.007
      -0.009
      -0.009
      -0.009
      -0.011
      -0.014
      -0.017
      -0.017
      -0.014
      -0.011
      -0.011
      -0.012
      -0.013
      -0.012
      -0.010
      -0.007
      -0.006
      -0.007
      -0.008
      -0.010
      -0.011
      -0.013
      -0.015
      -0.014
      -0.012
      -0.010
      -0.009
      -0.010
      -0.012
      -0.013
      -0.012
      -0.010
      -0.007
      -0.004
      -0.004
      -0.004
      -0.004
      -0.002
       0.001
       0.001
      -0.003
      -0.007
      -0.009
      -0.008
      -0.007
      -0.009
      -0.014
      -0.016
      -0.013
      -0.008
      -0.005
      -0.007
      -0.010
      -0.012
      -0.010
      -0.007
      -0.006
      -0.007
      -0.007
      -0.005
      -0.003
      -0.003
      -0.008
      -0.016
      -0.020
      -0.018
      -0.013
      -0.010
      -0.011
      -0.015
      -0.015
      -0.010
      -0.005
      -0.005
      -0.013
      -0.025
      -0.034
      -0.036
      -0.031
      -0.025
      -0.022
      -0.024
      -0.029
      -0.033
      -0.036
      -0.037
      -0.037
      -0.035
      -0.034
      -0.034
      -0.036
      -0.040
      -0.045
      -0.046
      -0.044
      -0.039
      -0.034
      -0.030
      -0.033
      -0.039
      -0.047
      -0.056
      -0.065
      -0.072
      -0.076
      -0.074
      -0.066
      -0.058
      -0.054
      -0.058
      -0.070
      -0.085
      -0.097
      -0.102
      -0.101
      -0.096
      -0.092
      -0.092
      -0.095
      -0.098
      -0.100
      -0.102
      -0.105
      -0.107
      -0.108
      -0.107
      -0.102
      -0.090
      -0.071
      -0.046
      -0.020
       0.006
       0.030
       0.050
       0.064
       0.069
       0.064
       0.055
       0.048
       0.045
       0.046
       0.053
       0.070
       0.100
       0.141
       0.183
       0.219
       0.246
       0.267
       0.288
       0.311
       0.335
       0.356
       0.371
       0.379
       0.378
       0.364
       0.329
       0.268
       0.175
       0.053
      -0.087
      -0.230
      -0.356
      -0.452
      -0.511
      -0.530
      -0.509
      -0.452
      -0.367
      -0.267
      -0.160
      -0.048
       0.071
       0.201
       0.341
       0.481
       0.605
       0.697
       0.745
       0.737
       0.669
       0.546
       0.378
       0.180
      -0.029
      -0.235
      -0.423
      -0.575
      -0.680
      -0.734
      -0.744
      -0.722
      -0.676
      -0.606
      -0.510
      -0.390
      -0.253
      -0.111
       0.032
       0.170
       0.298
       0.404
       0.465
       0.461
       0.386
       0.256
       0.100
      -0.056
      -0.196
      -0.318
      -0.416
      -0.482
      -0.502
      -0.467
      -0.380
      -0.254
      -0.115
       0.015
       0.120
       0.195
       0.240
       0.257
       0.248
       0.214
       0.164
       0.106
       0.051
       0.001
      -0.045
      -0.088
      -0.127
      -0.161
      -0.183
      -0.186
      -0.154
      -0.069
       0.081
       0.293
       0.541
       0.779
       0.959
       1.041
       1.006
       0.857
       0.612
       0.306
      -0.025
      -0.337
      -0.592
      -0.758
      -0.816
      -0.767
      -0.635
      -0.458
      -0.271
      -0.093
       0.076
       0.242
       0.402
       0.543
       0.647
       0.701
       0.696
       0.624
       0.480
       0.269
       0.012
      -0.264
      -0.533
      -0.773
      -0.974
      -1.125
      -1.221
      -1.255
      -1.215
      -1.091
      -0.877
      -0.572
      -0.196
       0.211
       0.581
       0.843
       0.949
       0.898
       0.731
       0.511
       0.296
       0.123
       0.007
      -0.061
      -0.111
      -0.185
      -0.315
      -0.493
      -0.672
      -0.791
      -0.810
      -0.721
      -0.545
      -0.301
      -0.001
       0.340
       0.686
       0.970
       1.126
       1.117
       0.966
       0.742
       0.523
       0.348
       0.199
       0.024
      -0.212
      -0.486
      -0.724
      -0.835
      -0.763
      -0.519
      -0.179
       0.157
       0.408
       0.532
       0.526
       0.405
       0.200
      -0.047
      -0.285
      -0.468
      -0.575
      -0.611
      -0.594
      -0.537
      -0.445
      -0.321
      -0.172
      -0.001
       0.187
       0.388
       0.584
       0.745
       0.842
       0.854
       0.779
       0.626
       0.419
       0.194
      -0.005
      -0.149
      -0.236
      -0.300
      -0.390
      -0.529
      -0.690
      -0.811
      -0.831
      -0.715
      -0.451
      -0.050
       0.436
       0.903
       1.233
       1.356
       1.268
       1.010
       0.643
       0.243
      -0.126
      -0.429
      -0.660
      -0.812
      -0.864
      -0.798
      -0.622
      -0.380
      -0.135
       0.058
       0.164
       0.177
       0.120
       0.041
      -0.017
      -0.031
      -0.006
       0.051
       0.137
       0.244
       0.350
       0.421
       0.422
       0.327
       0.128
      -0.155
      -0.469
      -0.740
      -0.896
      -0.893
      -0.724
      -0.424
      -0.059
       0.293
       0.563
       0.716
       0.754
       0.699
       0.572
       0.382
       0.134
      -0.159
      -0.460
      -0.718
      -0.885
      -0.931
      -0.859
      -0.697
      -0.488
      -0.276
      -0.091
       0.050
       0.142
       0.184
       0.178
       0.133
       0.075
       0.043
       0.071
       0.171
       0.318
       0.470
       0.578
       0.607
       0.542
       0.395
       0.209
       0.051
      -0.011
       0.062
       0.257
       0.514
       0.744
       0.865
       0.829
       0.642
       0.352
       0.035
      -0.241
      -0.427
      -0.504
      -0.474
      -0.359
      -0.192
      -0.018
       0.121
       0.193
       0.187
       0.113
       0.000
      -0.118
      -0.207
      -0.239
      -0.198
      -0.092
       0.044
       0.162
       0.228
       0.246
       0.247
       0.263
       0.293
       0.293
       0.209
       0.013
      -0.275
      -0.592
      -0.858
      -1.013
      -1.032
      -0.925
      -0.722
      -0.458
      -0.177
       0.071
       0.241
       0.314
       0.302
       0.238
       0.148
       0.041
      -0.080
      -0.199
      -0.281
      -0.286
      -0.194
      -0.031
       0.135
       0.224
       0.191
       0.053
      -0.121
      -0.258
      -0.315
      -0.292
      -0.208
      -0.087
       0.046
       0.163
       0.231
       0.231
       0.167
       0.071
      -0.016
      -0.058
      -0.041
       0.025
       0.115
       0.209
       0.296
       0.367
       0.401
       0.373
       0.268
       0.101
      -0.083
      -0.235
      -0.325
      -0.356
      -0.348
      -0.315
      -0.251
      -0.145
       0.002
       0.167
       0.311
       0.410
       0.463
       0.483
       0.479
       0.440
       0.354
       0.235
       0.124
       0.062
       0.062
       0.100
       0.137
       0.146
       0.133
       0.116
       0.103
       0.083
       0.031
      -0.073
      -0.226
      -0.396
      -0.540
      -0.619
      -0.612
      -0.522
      -0.364
      -0.167
       0.033
       0.196
       0.296
       0.328
       0.317
       0.293
       0.270
       0.244
       0.208
       0.165
       0.136
       0.135
       0.154
       0.162
       0.127
       0.036
      -0.107
      -0.281
      -0.455
      -0.594
      -0.663
      -0.643
      -0.533
      -0.359
      -0.163
       0.011
       0.132
       0.187
       0.182
       0.135
       0.061
      -0.022
      -0.100
      -0.151
      -0.158
      -0.116
      -0.045
       0.023
       0.059
       0.052
       0.007
      -0.061
      -0.135
      -0.198
      -0.232
      -0.216
      -0.134
       0.010
       0.188
       0.350
       0.442
       0.429
       0.310
       0.118
      -0.087
      -0.246
      -0.322
      -0.308
      -0.221
      -0.084
       0.082
       0.260
       0.427
       0.556
       0.631
       0.654
       0.638
       0.588
       0.505
       0.394
       0.279
       0.182
       0.106
       0.032
      -0.064
      -0.182
      -0.303
      -0.396
      -0.443
      -0.442
      -0.399
      -0.318
      -0.194
      -0.020
       0.198
       0.438
       0.651
       0.783
       0.789
       0.657
       0.424
       0.154
      -0.089
      -0.267
      -0.376
      -0.431
      -0.446
      -0.425
      -0.368
      -0.289
      -0.217
      -0.185
      -0.208
      -0.274
      -0.352
      -0.408
      -0.418
      -0.378
      -0.297
      -0.187
      -0.062
       0.060
       0.159
       0.215
       0.219
       0.174
       0.089
      -0.023
      -0.145
      -0.252
      -0.312
      -0.298
      -0.208
      -0.068
       0.078
       0.189
       0.246
       0.246
       0.196
       0.106
      -0.007
      -0.116
      -0.188
      -0.207
      -0.185
      -0.151
      -0.129
      -0.119
      -0.107
      -0.076
      -0.030
       0.020
       0.071
       0.126
       0.190
       0.257
       0.316
       0.353
       0.367
       0.358
       0.330
       0.284
       0.220
       0.141
       0.054
      -0.028
      -0.097
      -0.140
      -0.144
      -0.105
      -0.033
       0.056
       0.144
       0.221
       0.292
       0.368
       0.448
       0.514
       0.534
       0.482
       0.355
       0.171
      -0.034
      -0.231
      -0.395
      -0.511
      -0.565
      -0.549
      -0.471
      -0.354
      -0.229
      -0.124
      -0.056
      -0.030
      -0.042
      -0.076
      -0.119
      -0.155
      -0.182
      -0.200
      -0.213
      -0.227
      -0.249
      -0.289
      -0.345
      -0.399
      -0.426
      -0.405
      -0.338
      -0.249
      -0.162
      -0.087
      -0.017
       0.060
       0.153
       0.256
       0.352
       0.417
       0.440
       0.421
       0.372
       0.301
       0.216
       0.127
       0.051
       0.009
       0.013
       0.055
       0.109
       0.139
       0.122
       0.052
      -0.053
      -0.165
      -0.256
      -0.315
      -0.343
      -0.345
      -0.327
      -0.288
      -0.236
      -0.186
      -0.156
      -0.153
      -0.165
      -0.170
      -0.147
      -0.089
      -0.004
       0.093
       0.187
       0.271
       0.341
       0.396
       0.437
       0.464
