Origin Time       23/08/2012 16:30:19
Lat.              28.4 N	
Long.             82.7 E	
Depth (Km)         10.0
Magnitude         5.0
 Region           NEPAL                                                            
 Above details taken from IMD 
     
Station Code      CHP
Station Lat.       29.334  N
Station Long.      80.095  E
Station Height(m) 1635.0
Site Class        A   Vs30 between 700 m/sec to 1400 m/sec * 
Record Time       23.08.2012 16:31:23.774
Sampling Rate     200. Hz
 Record Duration   65.000 Sec.
 Direction         E-W (E positive)
Max. Acceleration      1.960 cm/sec**2
     
  * For reference see Site Classification link of website 
     
 Base Line Corrected and Low Pass Filtered (Cut Off at 35 Hz) Time History
 Acceleration data in cm/sec**2
    
[...]
      -0.151
      -0.143
      -0.137
      -0.129
      -0.115
      -0.093
      -0.059
      -0.017
       0.030
       0.079
       0.130
       0.186
       0.242
       0.295
       0.336
       0.364
       0.378
       0.379
       0.367
       0.342
       0.303
       0.252
       0.195
       0.138
       0.084
       0.033
      -0.013
      -0.055
      -0.092
      -0.129
      -0.165
      -0.197
      -0.223
      -0.245
      -0.267
      -0.295
      -0.329
      -0.366
      -0.395
      -0.409
      -0.403
      -0.380
      -0.341
      -0.291
      -0.239
      -0.188
      -0.137
      -0.085
      -0.035
       0.009
       0.041
       0.065
       0.083
       0.099
       0.115
       0.132
       0.148
       0.167
       0.192
       0.228
       0.272
       0.320
       0.368
       0.415
       0.454
       0.476
       0.475
       0.447
       0.393
       0.319
       0.237
       0.156
       0.079
       0.004
      -0.071
      -0.148
      -0.223
      -0.295
      -0.359
      -0.413
      -0.455
      -0.486
      -0.506
      -0.514
      -0.510
      -0.494
      -0.462
      -0.406
      -0.323
      -0.218
      -0.100
       0.015
       0.117
       0.197
       0.257
       0.304
       0.343
       0.375
       0.401
       0.419
       0.431
       0.435
       0.430
       0.413
       0.382
       0.336
       0.277
       0.210
       0.136
       0.060
      -0.017
      -0.094
      -0.169
      -0.237
      -0.288
      -0.313
      -0.312
      -0.287
      -0.247
      -0.199
      -0.148
      -0.099
      -0.054
      -0.011
       0.026
       0.055
       0.071
       0.072
       0.063
       0.050
       0.045
       0.050
       0.061
       0.068
       0.066
       0.057
       0.047
       0.038
       0.031
       0.027
       0.024
       0.021
       0.016
       0.011
       0.003
      -0.008
      -0.019
      -0.030
      -0.043
      -0.059
      -0.080
      -0.105
      -0.136
      -0.175
      -0.219
      -0.258
      -0.283
      -0.288
      -0.274
      -0.250
      -0.220
      -0.188
      -0.150
      -0.101
      -0.041
       0.023
       0.084
       0.139
       0.189
       0.235
       0.278
       0.315
       0.342
       0.356
       0.352
       0.329
       0.288
       0.230
       0.161
       0.092
       0.034
      -0.012
      -0.045
      -0.070
      -0.089
      -0.101
      -0.103
      -0.092
      -0.071
      -0.051
      -0.040
      -0.035
      -0.029
      -0.014
       0.013
       0.048
       0.081
       0.103
       0.110
       0.104
       0.095
       0.086
       0.081
       0.073
       0.054
       0.019
      -0.029
      -0.077
      -0.117
      -0.149
      -0.175
      -0.195
      -0.205
      -0.204
      -0.188
      -0.162
      -0.133
      -0.104
      -0.075
      -0.044
      -0.013
       0.013
       0.032
       0.044
       0.049
       0.046
       0.038
       0.027
       0.018
       0.013
       0.012
       0.012
       0.015
       0.023
       0.042
       0.072
       0.110
       0.147
       0.179
       0.207
       0.230
       0.246
       0.255
       0.261
       0.266
       0.268
       0.263
       0.247
       0.219
       0.177
       0.124
       0.059
      -0.016
      -0.102
      -0.193
      -0.277
      -0.346
      -0.396
      -0.428
      -0.441
      -0.436
      -0.415
      -0.382
      -0.343
      -0.300
      -0.258
      -0.218
      -0.178
      -0.140
      -0.106
      -0.076
      -0.044
      -0.005
       0.042
       0.095
       0.151
       0.203
       0.244
       0.271
       0.285
       0.288
       0.285
       0.277
       0.268
       0.257
       0.244
       0.232
       0.222
       0.213
       0.202
       0.186
       0.159
       0.120
       0.068
       0.009
      -0.049
      -0.101
      -0.143
      -0.174
      -0.194
      -0.210
      -0.229
      -0.255
      -0.282
      -0.302
      -0.306
      -0.291
      -0.255
      -0.204
      -0.145
      -0.087
      -0.035
       0.006
       0.037
       0.062
       0.085
       0.110
       0.134
       0.158
       0.179
       0.195
       0.202
       0.193
       0.170
       0.134
       0.094
       0.053
       0.016
      -0.019
      -0.055
      -0.088
      -0.116
      -0.138
      -0.154
      -0.163
      -0.164
      -0.158
      -0.150
      -0.143
      -0.137
      -0.132
      -0.126
      -0.117
      -0.102
      -0.083
      -0.059
      -0.031
       0.001
       0.034
       0.066
       0.093
       0.115
       0.135
       0.152
       0.170
       0.188
       0.203
       0.212
       0.216
       0.218
       0.222
       0.227
       0.231
       0.229
       0.214
       0.185
       0.144
       0.097
       0.046
      -0.010
      -0.071
      -0.132
      -0.188
      -0.233
      -0.265
      -0.282
      -0.284
      -0.275
      -0.255
      -0.223
      -0.181
      -0.135
      -0.091
      -0.053
      -0.025
      -0.006
       0.009
       0.029
       0.059
       0.100
       0.145
       0.188
       0.216
       0.226
       0.221
       0.207
       0.189
       0.164
       0.130
       0.087
       0.040
      -0.007
      -0.047
      -0.074
      -0.089
      -0.094
      -0.095
      -0.094
      -0.089
      -0.081
      -0.070
      -0.058
      -0.045
      -0.034
      -0.024
      -0.016
      -0.008
       0.001
       0.007
       0.010
       0.006
      -0.005
      -0.021
      -0.039
      -0.060
      -0.085
      -0.113
      -0.141
      -0.168
      -0.193
      -0.214
      -0.228
      -0.233
      -0.229
      -0.221
      -0.208
      -0.186
      -0.152
      -0.107
      -0.056
      -0.005
       0.039
       0.075
       0.105
       0.135
       0.164
       0.193
       0.224
       0.254
       0.274
       0.281
       0.274
       0.258
       0.240
       0.225
       0.210
       0.187
       0.149
       0.097
       0.038
      -0.020
      -0.083
      -0.152
      -0.225
      -0.293
      -0.345
      -0.375
      -0.383
      -0.373
      -0.349
      -0.314
      -0.269
      -0.216
      -0.159
      -0.104
      -0.053
      -0.007
       0.035
       0.078
       0.121
       0.164
       0.198
       0.218
       0.224
       0.220
       0.209
       0.192
       0.171
       0.143
       0.107
       0.064
       0.021
      -0.022
      -0.066
      -0.114
      -0.166
      -0.213
      -0.250
      -0.270
      -0.268
      -0.244
      -0.201
      -0.142
      -0.070
       0.005
       0.072
       0.122
       0.159
       0.188
       0.212
       0.227
       0.233
       0.236
       0.244
       0.265
       0.297
       0.327
       0.344
       0.343
       0.329
       0.311
       0.292
       0.271
       0.246
       0.214
       0.175
       0.129
       0.081
       0.034
      -0.009
      -0.050
      -0.087
      -0.122
      -0.155
      -0.185
      -0.208
      -0.223
      -0.235
      -0.247
      -0.256
      -0.255
      -0.236
      -0.192
      -0.122
      -0.031
       0.069
       0.167
       0.254
       0.325
       0.377
       0.415
       0.442
       0.463
       0.474
       0.478
       0.479
       0.478
       0.470
       0.442
       0.386
       0.301
       0.195
       0.082
      -0.027
      -0.128
      -0.223
      -0.312
      -0.393
      -0.463
      -0.524
      -0.577
      -0.617
      -0.638
      -0.636
      -0.613
      -0.574
      -0.525
      -0.471
      -0.407
      -0.329
      -0.238
      -0.144
      -0.057
       0.018
       0.082
       0.137
       0.186
       0.231
       0.274
       0.316
       0.354
       0.386
       0.408
       0.418
       0.415
       0.399
       0.371
       0.331
       0.280
       0.223
       0.160
       0.088
       0.006
      -0.086
      -0.182
      -0.279
      -0.372
      -0.455
      -0.525
      -0.582
      -0.624
      -0.652
      -0.661
      -0.654
      -0.633
      -0.601
      -0.560
      -0.509
      -0.447
      -0.372
      -0.286
      -0.196
      -0.105
      -0.016
       0.072
       0.157
       0.238
       0.315
       0.383
       0.436
       0.463
       0.460
       0.426
       0.363
       0.280
       0.184
       0.083
      -0.018
      -0.115
      -0.203
      -0.279
      -0.344
      -0.399
      -0.445
      -0.479
      -0.497
      -0.496
      -0.475
      -0.435
      -0.379
      -0.306
      -0.216
      -0.109
       0.006
       0.122
       0.237
       0.355
       0.475
       0.592
       0.700
       0.790
       0.859
       0.909
       0.941
       0.953
       0.941
       0.902
       0.837
       0.754
       0.657
       0.548
       0.429
       0.299
       0.154
      -0.008
      -0.183
      -0.361
      -0.526
      -0.661
      -0.757
      -0.819
      -0.859
      -0.890
      -0.914
      -0.928
      -0.929
      -0.916
      -0.883
      -0.825
      -0.736
      -0.612
      -0.456
      -0.276
      -0.084
       0.109
       0.298
       0.482
       0.660
       0.831
       0.991
       1.127
       1.224
       1.272
       1.273
       1.235
       1.164
       1.063
       0.938
       0.793
       0.637
       0.475
       0.308
       0.135
      -0.044
      -0.226
      -0.403
      -0.565
      -0.704
      -0.815
      -0.893
      -0.938
      -0.953
      -0.942
      -0.907
      -0.849
      -0.773
      -0.681
      -0.574
      -0.452
      -0.317
      -0.180
      -0.051
       0.058
       0.144
       0.210
       0.268
       0.328
       0.388
       0.439
       0.471
       0.475
       0.450
       0.401
       0.333
       0.250
       0.153
       0.043
      -0.071
      -0.185
      -0.293
      -0.389
      -0.466
      -0.514
      -0.532
      -0.527
      -0.512
      -0.500
      -0.495
      -0.493
      -0.490
      -0.481
      -0.465
      -0.441
      -0.406
      -0.357
      -0.297
      -0.236
      -0.178
      -0.123
      -0.068
      -0.009
       0.053
       0.114
       0.167
       0.212
       0.254
       0.299
       0.349
       0.403
       0.464
       0.533
       0.609
       0.687
       0.761
       0.827
       0.881
       0.918
       0.933
       0.920
       0.877
       0.803
       0.704
       0.583
       0.446
       0.297
       0.147
       0.005
      -0.125
      -0.249
      -0.369
      -0.486
      -0.594
      -0.687
      -0.759
      -0.811
      -0.845
      -0.864
      -0.866
      -0.846
      -0.799
      -0.722
      -0.616
      -0.484
      -0.336
      -0.187
      -0.046
       0.079
       0.184
       0.270
       0.337
       0.388
       0.422
       0.444
       0.455
       0.458
       0.450
       0.430
       0.399
       0.358
       0.303
       0.230
       0.139
       0.035
      -0.076
      -0.185
      -0.285
      -0.368
      -0.430
      -0.471
      -0.489
      -0.487
      -0.469
      -0.443
      -0.415
      -0.389
      -0.368
      -0.347
      -0.320
      -0.279
      -0.219
      -0.144
      -0.054
       0.047
       0.158
       0.275
       0.397
       0.524
       0.652
       0.772
       0.876
       0.957
       1.012
       1.039
       1.038
       1.010
       0.950
       0.860
       0.749
       0.627
       0.498
       0.360
       0.208
       0.044
      -0.130
      -0.306
      -0.477
      -0.636
      -0.776
      -0.889
      -0.968
      -1.009
      -1.012
      -0.980
      -0.917
      -0.827
      -0.719
      -0.604
      -0.489
      -0.377
      -0.271
      -0.174
      -0.092
      -0.027
       0.021
       0.058
       0.097
       0.145
       0.204
       0.268
       0.331
       0.393
       0.456
       0.519
       0.577
       0.621
       0.646
       0.651
       0.647
       0.639
       0.622
       0.586
       0.518
       0.422
       0.307
       0.187
       0.070
      -0.044
      -0.157
      -0.272
      -0.382
      -0.476
      -0.543
      -0.579
      -0.585
      -0.565
      -0.525
      -0.471
      -0.406
      -0.337
      -0.271
      -0.216
      -0.172
      -0.137
      -0.106
      -0.077
      -0.048
      -0.023
      -0.006
      -0.002
      -0.018
      -0.051
      -0.099
      -0.155
      -0.210
      -0.262
      -0.312
      -0.364
      -0.413
      -0.448
      -0.457
      -0.430
      -0.367
      -0.272
      -0.154
      -0.020
       0.125
       0.280
       0.437
       0.586
       0.720
       0.830
       0.911
       0.957
       0.962
       0.924
       0.842
       0.719
       0.561
       0.378
       0.175
      -0.037
      -0.246
      -0.438
      -0.604
      -0.745
      -0.863
      -0.964
      -1.046
      -1.105
      -1.135
      -1.130
      -1.090
      -1.019
      -0.916
      -0.779
      -0.616
      -0.437
      -0.251
      -0.062
       0.129
       0.324
       0.523
       0.720
       0.907
       1.072
       1.208
       1.313
       1.387
       1.433
       1.451
       1.439
       1.389
       1.290
       1.133
       0.916
       0.645
       0.327
      -0.020
      -0.375
      -0.717
      -1.029
      -1.301
      -1.526
      -1.704
      -1.835
      -1.913
      -1.932
      -1.889
      -1.786
      -1.630
      -1.425
      -1.176
      -0.888
      -0.567
      -0.226
       0.118
       0.452
       0.769
       1.067
       1.341
       1.581
       1.772
       1.902
       1.960
       1.940
       1.844
       1.683
       1.472
       1.227
       0.967
       0.707
       0.453
       0.209
      -0.023
      -0.235
      -0.422
      -0.578
      -0.701
      -0.791
      -0.850
      -0.883
      -0.891
      -0.874
      -0.832
      -0.765
      -0.675
      -0.566
      -0.443
      -0.312
      -0.179
      -0.049
       0.070
       0.167
       0.237
       0.276
       0.288
       0.280
       0.260
       0.236
       0.216
       0.205
       0.212
       0.243
       0.298
       0.370
       0.447
       0.524
       0.590
       0.635
       0.652
       0.633
       0.573
       0.468
       0.321
       0.138
      -0.073
      -0.306
      -0.548
      -0.785
      -1.006
      -1.200
      -1.358
      -1.478
      -1.559
      -1.606
      -1.621
      -1.604
      -1.554
      -1.472
      -1.356
      -1.204
      -1.021
      -0.817
      -0.603
      -0.383
      -0.157
       0.079
       0.327
       0.583
       0.833
       1.061
       1.253
       1.407
       1.521
       1.597
       1.634
       1.633
       1.596
       1.525
       1.425
       1.295
       1.135
       0.941
       0.716
       0.469
       0.209
      -0.056
      -0.317
      -0.571
      -0.814
      -1.037
      -1.229
      -1.373
      -1.458
      -1.481
      -1.440
      -1.338
      -1.175
      -0.960
      -0.701
      -0.413
      -0.107
       0.201
       0.496
       0.765
       1.001
       1.204
       1.379
       1.528
       1.644
       1.716
       1.735
       1.700
       1.614
       1.477
       1.286
       1.040
       0.744
       0.409
       0.056
      -0.296
      -0.628
      -0.925
      -1.175
      -1.373
      -1.517
      -1.607
      -1.643
      -1.624
      -1.556
      -1.454
      -1.329
      -1.190
      -1.036
      -0.870
      -0.696
      -0.522
      -0.359
      -0.213
      -0.083
       0.036
       0.149
       0.257
       0.360
       0.455
       0.539
       0.606
       0.654
       0.686
       0.706
       0.719
       0.731
       0.743
       0.757
       0.766
       0.760
       0.726
       0.649
       0.521
       0.345
       0.137
      -0.079
      -0.286
      -0.472
      -0.628
      -0.746
      -0.822
      -0.853
      -0.841
      -0.793
      -0.722
      -0.639
      -0.549
      -0.454
      -0.355
      -0.252
      -0.143
      -0.030
       0.091
       0.221
       0.359
       0.499
       0.632
       0.749
       0.846
       0.921
       0.969
       0.989
       0.981
       0.951
       0.904
       0.843
       0.768
       0.679
       0.568
       0.436
       0.289
       0.136
      -0.018
      -0.172
      -0.331
      -0.496
      -0.663
      -0.821
      -0.953
      -1.050
      -1.112
      -1.148
      -1.164
      -1.166
      -1.156
      -1.131
      -1.087
      -1.019
      -0.927
      -0.812
      -0.677
      -0.527
      -0.364
      -0.188
       0.004
       0.209
       0.417
       0.614
       0.788
       0.932
       1.043
       1.114
       1.140
       1.111
       1.025
       0.881
       0.690
       0.465
       0.220
      -0.034
      -0.280
      -0.503
      -0.690
      -0.826
      -0.903
      -0.920
      -0.879
      -0.785
      -0.643
      -0.463
      -0.260
      -0.047
       0.170
       0.388
       0.598
       0.786
       0.944
       1.065
       1.146
       1.184
       1.176
       1.121
       1.021
       0.884
       0.722
       0.541
       0.352
       0.164
      -0.011
      -0.164
      -0.292
      -0.397
      -0.479
      -0.533
      -0.554
      -0.540
      -0.497
      -0.434
      -0.362
      -0.286
      -0.211
      -0.140
      -0.077
      -0.025
       0.021
       0.061
       0.094
       0.111
       0.107
       0.075
       0.012
      -0.087
      -0.220
      -0.380
      -0.551
      -0.714
      -0.847
      -0.933
      -0.965
      -0.945
      -0.879
      -0.778
      -0.657
      -0.521
      -0.376
      -0.221
      -0.062
       0.096
       0.247
       0.385
       0.500
       0.589
       0.653
       0.696
       0.720
       0.725
       0.712
       0.687
       0.648
       0.593
       0.520
       0.433
       0.340
       0.251
       0.170
       0.095
       0.020
      -0.062
      -0.149
      -0.231
      -0.303
      -0.363
      -0.414
      -0.461
      -0.506
      -0.545
      -0.568
      -0.566
      -0.538
      -0.486
      -0.417
      -0.336
      -0.249
      -0.158
      -0.066
       0.020
       0.092
       0.143
       0.178
       0.209
       0.244
       0.285
       0.329
       0.365
       0.383
       0.376
       0.346
       0.301
       0.246
       0.189
       0.133
       0.084
       0.047
       0.022
       0.010
       0.008
       0.009
       0.009
       0.011
       0.019
       0.033
       0.050
       0.064
       0.071
       0.070
       0.063
       0.052
       0.035
       0.011
      -0.021
      -0.058
      -0.096
      -0.134
      -0.178
      -0.229
      -0.287
      -0.350
      -0.410
      -0.462
      -0.501
      -0.529
      -0.544
      -0.538
      -0.497
      -0.411
      -0.275
      -0.094
       0.118
       0.344
       0.564
       0.762
       0.931
       1.068
       1.172
       1.244
       1.280
       1.271
       1.213
       1.110
       0.971
       0.806
       0.621
       0.418
       0.203
      -0.022
      -0.249
      -0.469
      -0.668
      -0.836
      -0.967
      -1.058
      -1.111
      -1.132
      -1.123
      -1.084
      -1.016
      -0.924
      -0.813
      -0.682
      -0.533
      -0.367
      -0.192
      -0.012
       0.169
       0.349
       0.526
       0.696
       0.850
       0.978
       1.071
       1.125
