Origin Time       04/09/2008 12:53:21 UTC
Lat.              30.1°N 
Long.             80.4°E 
Depth (Km)         10.0
Magnitude         5.1
 Region           INDIA(UTTARAKHAND)-TIBET-BORDER-REGION                           
 Above details taken from IMD 
    
Station Code      CHP
Station Lat.       29.334  N
Station Long.      80.095  E
Station Height(m) 1635.0
Site Class        A   Vs30 between 700 m/sec to 1400 m/sec * 
Record Time       04.09.2008 12:53:33.864 UTC
Sampling Rate     200. Hz
 Record Duration   70.100 Sec.
 Direction         N-S (N positive)
Max. Acceleration      5.691 cm/sec**2
     
  * For reference see Site Classification link of website 
     
 Base Line Corrected and Low Pass Filtered (Cut Off at 35 Hz) Time History
 Acceleration data in cm/sec**2
    
[...]
      -0.824
      -0.864
      -0.878
      -0.870
      -0.844
      -0.804
      -0.748
      -0.672
      -0.573
      -0.453
      -0.314
      -0.162
      -0.003
       0.154
       0.301
       0.429
       0.538
       0.626
       0.695
       0.746
       0.779
       0.798
       0.802
       0.789
       0.759
       0.711
       0.651
       0.578
       0.489
       0.379
       0.251
       0.111
      -0.029
      -0.161
      -0.278
      -0.377
      -0.453
      -0.504
      -0.526
      -0.523
      -0.501
      -0.467
      -0.424
      -0.370
      -0.304
      -0.229
      -0.159
      -0.108
      -0.081
      -0.075
      -0.079
      -0.080
      -0.070
      -0.044
      -0.003
       0.046
       0.098
       0.145
       0.185
       0.217
       0.241
       0.260
       0.272
       0.277
       0.274
       0.263
       0.244
       0.220
       0.194
       0.168
       0.140
       0.106
       0.058
      -0.007
      -0.089
      -0.179
      -0.270
      -0.355
      -0.426
      -0.476
      -0.492
      -0.465
      -0.396
      -0.297
      -0.190
      -0.096
      -0.031
       0.007
       0.024
       0.028
       0.022
       0.005
      -0.023
      -0.057
      -0.087
      -0.106
      -0.111
      -0.104
      -0.085
      -0.053
      -0.005
       0.058
       0.128
       0.188
       0.226
       0.233
       0.215
       0.186
       0.157
       0.135
       0.119
       0.112
       0.123
       0.160
       0.223
       0.304
       0.387
       0.459
       0.508
       0.529
       0.518
       0.473
       0.400
       0.308
       0.207
       0.109
       0.020
      -0.053
      -0.107
      -0.144
      -0.172
      -0.203
      -0.251
      -0.325
      -0.421
      -0.527
      -0.627
      -0.705
      -0.752
      -0.762
      -0.734
      -0.665
      -0.555
      -0.412
      -0.250
      -0.081
       0.089
       0.267
       0.456
       0.648
       0.823
       0.961
       1.050
       1.087
       1.075
       1.015
       0.910
       0.766
       0.595
       0.408
       0.213
       0.014
      -0.181
      -0.366
      -0.531
      -0.670
      -0.774
      -0.841
      -0.870
      -0.863
      -0.820
      -0.743
      -0.634
      -0.504
      -0.366
      -0.234
      -0.118
      -0.022
       0.057
       0.119
       0.165
       0.187
       0.183
       0.156
       0.114
       0.070
       0.033
       0.007
      -0.010
      -0.021
      -0.029
      -0.037
      -0.047
      -0.058
      -0.067
      -0.068
      -0.054
      -0.023
       0.026
       0.089
       0.162
       0.238
       0.309
       0.368
       0.403
       0.408
       0.377
       0.309
       0.208
       0.084
      -0.054
      -0.194
      -0.325
      -0.434
      -0.512
      -0.556
      -0.564
      -0.540
      -0.488
      -0.407
      -0.298
      -0.164
      -0.013
       0.136
       0.267
       0.360
       0.406
       0.400
       0.348
       0.261
       0.154
       0.046
      -0.053
      -0.132
      -0.190
      -0.228
      -0.250
      -0.262
      -0.270
      -0.277
      -0.282
      -0.281
      -0.269
      -0.242
      -0.198
      -0.134
      -0.054
       0.033
       0.118
       0.193
       0.256
       0.307
       0.345
       0.366
       0.364
       0.338
       0.289
       0.223
       0.149
       0.076
       0.011
      -0.035
      -0.057
      -0.052
      -0.023
       0.023
       0.075
       0.125
       0.169
       0.212
       0.253
       0.289
       0.316
       0.334
       0.347
       0.356
       0.361
       0.354
       0.331
       0.291
       0.239
       0.181
       0.123
       0.065
       0.007
      -0.056
      -0.126
      -0.204
      -0.289
      -0.373
      -0.444
      -0.485
      -0.487
      -0.447
      -0.376
      -0.287
      -0.196
      -0.106
      -0.022
       0.057
       0.126
       0.182
       0.224
       0.258
       0.290
       0.325
       0.364
       0.401
       0.432
       0.457
       0.475
       0.487
       0.490
       0.477
       0.442
       0.380
       0.291
       0.178
       0.045
      -0.103
      -0.260
      -0.416
      -0.556
      -0.668
      -0.739
      -0.765
      -0.747
      -0.694
      -0.624
      -0.553
      -0.499
      -0.472
      -0.473
      -0.493
      -0.519
      -0.532
      -0.518
      -0.468
      -0.384
      -0.272
      -0.140
       0.002
       0.147
       0.284
       0.400
       0.482
       0.524
       0.529
       0.509
       0.477
       0.441
       0.404
       0.366
       0.328
       0.295
       0.271
       0.259
       0.254
       0.248
       0.233
       0.196
       0.135
       0.054
      -0.035
      -0.121
      -0.192
      -0.243
      -0.269
      -0.266
      -0.231
      -0.168
      -0.080
       0.025
       0.138
       0.247
       0.338
       0.399
       0.424
       0.413
       0.372
       0.308
       0.232
       0.156
       0.092
       0.049
       0.022
       0.005
      -0.013
      -0.039
      -0.079
      -0.138
      -0.217
      -0.317
      -0.433
      -0.553
      -0.662
      -0.743
      -0.787
      -0.791
      -0.759
      -0.695
      -0.608
      -0.503
      -0.391
      -0.279
      -0.173
      -0.076
       0.011
       0.086
       0.141
       0.167
       0.159
       0.123
       0.074
       0.034
       0.018
       0.039
       0.103
       0.213
       0.356
       0.511
       0.649
       0.744
       0.783
       0.768
       0.713
       0.637
       0.559
       0.497
       0.460
       0.447
       0.449
       0.453
       0.446
       0.423
       0.383
       0.331
       0.265
       0.181
       0.072
      -0.059
      -0.203
      -0.346
      -0.478
      -0.591
      -0.685
      -0.757
      -0.804
      -0.825
      -0.823
      -0.809
      -0.791
      -0.774
      -0.764
      -0.764
      -0.773
      -0.782
      -0.776
      -0.735
      -0.642
      -0.493
      -0.297
      -0.069
       0.169
       0.396
       0.596
       0.755
       0.866
       0.925
       0.936
       0.904
       0.840
       0.755
       0.659
       0.565
       0.480
       0.405
       0.336
       0.267
       0.190
       0.101
      -0.002
      -0.117
      -0.236
      -0.349
      -0.444
      -0.514
      -0.555
      -0.564
      -0.545
      -0.503
      -0.442
      -0.371
      -0.292
      -0.207
      -0.116
      -0.021
       0.073
       0.160
       0.234
       0.292
       0.327
       0.328
       0.290
       0.213
       0.108
      -0.013
      -0.139
      -0.259
      -0.362
      -0.432
      -0.455
      -0.426
      -0.352
      -0.250
      -0.137
      -0.025
       0.085
       0.196
       0.311
       0.434
       0.565
       0.699
       0.825
       0.927
       0.987
       0.998
       0.958
       0.875
       0.755
       0.608
       0.439
       0.258
       0.076
      -0.094
      -0.244
      -0.369
      -0.467
      -0.534
      -0.566
      -0.566
      -0.540
      -0.501
      -0.458
      -0.420
      -0.392
      -0.374
      -0.360
      -0.343
      -0.319
      -0.290
      -0.263
      -0.248
      -0.247
      -0.258
      -0.273
      -0.287
      -0.302
      -0.320
      -0.340
      -0.354
      -0.350
      -0.319
      -0.262
      -0.185
      -0.092
       0.017
       0.142
       0.281
       0.426
       0.567
       0.690
       0.778
       0.816
       0.792
       0.709
       0.577
       0.416
       0.236
       0.047
      -0.147
      -0.340
      -0.514
      -0.649
      -0.734
      -0.767
      -0.758
      -0.716
      -0.647
      -0.551
      -0.427
      -0.284
      -0.132
       0.016
       0.153
       0.272
       0.371
       0.446
       0.497
       0.524
       0.526
       0.506
       0.459
       0.382
       0.269
       0.125
      -0.038
      -0.199
      -0.336
      -0.429
      -0.467
      -0.444
      -0.364
      -0.238
      -0.085
       0.073
       0.218
       0.334
       0.415
       0.460
       0.470
       0.448
       0.394
       0.304
       0.172
      -0.003
      -0.212
      -0.441
      -0.671
      -0.881
      -1.049
      -1.152
      -1.174
      -1.106
      -0.957
      -0.744
      -0.490
      -0.219
       0.046
       0.293
       0.517
       0.721
       0.907
       1.076
       1.224
       1.340
       1.410
       1.416
       1.348
       1.201
       0.987
       0.731
       0.467
       0.227
       0.035
      -0.098
      -0.170
      -0.189
      -0.165
      -0.111
      -0.046
       0.014
       0.052
       0.059
       0.033
      -0.023
      -0.106
      -0.211
      -0.335
      -0.469
      -0.602
      -0.726
      -0.835
      -0.924
      -0.987
      -1.012
      -0.993
      -0.928
      -0.826
      -0.697
      -0.546
      -0.373
      -0.181
       0.018
       0.211
       0.383
       0.524
       0.626
       0.683
       0.694
       0.664
       0.608
       0.537
       0.463
       0.387
       0.309
       0.229
       0.148
       0.067
      -0.015
      -0.098
      -0.185
      -0.274
      -0.363
      -0.452
      -0.537
      -0.614
      -0.679
      -0.723
      -0.737
      -0.718
      -0.669
      -0.597
      -0.505
      -0.391
      -0.251
      -0.086
       0.093
       0.271
       0.430
       0.556
       0.642
       0.682
       0.679
       0.647
       0.607
       0.581
       0.579
       0.598
       0.625
       0.639
       0.629
       0.590
       0.527
       0.455
       0.384
       0.319
       0.260
       0.204
       0.148
       0.090
       0.031
      -0.029
      -0.092
      -0.162
      -0.244
      -0.342
      -0.456
      -0.581
      -0.709
      -0.831
      -0.941
      -1.037
      -1.113
      -1.163
      -1.174
      -1.138
      -1.045
      -0.892
      -0.675
      -0.399
      -0.075
       0.277
       0.636
       0.982
       1.291
       1.547
       1.734
       1.844
       1.873
       1.820
       1.687
       1.483
       1.225
       0.934
       0.627
       0.312
      -0.004
      -0.316
      -0.617
      -0.900
      -1.161
      -1.388
      -1.563
      -1.671
      -1.707
      -1.678
      -1.592
      -1.459
      -1.289
      -1.094
      -0.881
      -0.656
      -0.419
      -0.168
       0.089
       0.337
       0.552
       0.708
       0.789
       0.791
       0.729
       0.629
       0.524
       0.435
       0.373
       0.338
       0.327
       0.334
       0.352
       0.375
       0.401
       0.430
       0.469
       0.524
       0.601
       0.696
       0.796
       0.878
       0.911
       0.865
       0.725
       0.492
       0.183
      -0.177
      -0.558
      -0.928
      -1.258
      -1.527
      -1.724
      -1.849
      -1.908
      -1.904
      -1.838
      -1.712
      -1.527
      -1.288
      -0.998
      -0.667
      -0.309
       0.056
       0.404
       0.719
       0.995
       1.232
       1.426
       1.570
       1.652
       1.666
       1.612
       1.499
       1.336
       1.133
       0.898
       0.643
       0.387
       0.156
      -0.027
      -0.154
      -0.231
      -0.274
      -0.297
      -0.307
      -0.312
      -0.314
      -0.314
      -0.310
      -0.300
      -0.288
      -0.278
      -0.275
      -0.275
      -0.272
      -0.258
      -0.230
      -0.194
      -0.155
      -0.121
      -0.101
      -0.106
      -0.143
      -0.211
      -0.299
      -0.392
      -0.478
      -0.552
      -0.608
      -0.637
      -0.619
      -0.543
      -0.410
      -0.241
      -0.061
       0.104
       0.236
       0.324
       0.365
       0.368
       0.352
       0.336
       0.330
       0.340
       0.363
       0.396
       0.429
       0.454
       0.464
       0.455
       0.431
       0.394
       0.345
       0.285
       0.214
       0.134
       0.048
      -0.035
      -0.101
      -0.144
      -0.160
      -0.160
      -0.160
      -0.178
      -0.228
      -0.314
      -0.434
      -0.581
      -0.744
      -0.909
      -1.057
      -1.169
      -1.230
      -1.234
      -1.183
      -1.087
      -0.956
      -0.802
      -0.638
      -0.472
      -0.310
      -0.149
       0.018
       0.194
       0.381
       0.574
       0.769
       0.964
       1.163
       1.363
       1.556
       1.721
       1.842
       1.912
       1.937
       1.929
       1.891
       1.813
       1.680
       1.481
       1.214
       0.890
       0.523
       0.133
      -0.259
      -0.629
      -0.957
      -1.228
      -1.435
      -1.586
      -1.694
      -1.778
      -1.851
      -1.918
      -1.973
      -2.003
      -1.994
      -1.929
      -1.793
      -1.575
      -1.273
      -0.896
      -0.456
       0.030
       0.545
       1.072
       1.591
       2.082
       2.520
       2.886
       3.165
       3.348
       3.431
       3.410
       3.284
       3.059
       2.744
       2.357
       1.917
       1.440
       0.937
       0.413
      -0.123
      -0.659
      -1.182
      -1.679
      -2.149
      -2.593
      -3.016
      -3.420
      -3.799
      -4.142
      -4.423
      -4.612
      -4.680
      -4.607
      -4.393
      -4.060
      -3.638
      -3.159
      -2.644
      -2.106
      -1.538
      -0.931
      -0.279
       0.416
       1.139
       1.873
       2.606
       3.321
       3.996
       4.599
       5.095
       5.454
       5.656
       5.691
       5.558
       5.261
       4.809
       4.216
       3.501
       2.681
       1.778
       0.813
      -0.187
      -1.191
      -2.160
      -3.057
      -3.845
      -4.495
      -4.982
      -5.296
      -5.441
      -5.431
      -5.282
      -5.005
      -4.608
      -4.093
      -3.466
      -2.738
      -1.927
      -1.055
      -0.150
       0.756
       1.626
       2.420
       3.108
       3.671
       4.101
       4.400
       4.572
       4.623
       4.559
       4.388
       4.124
       3.785
       3.389
       2.943
       2.455
       1.932
       1.384
       0.823
       0.253
      -0.322
      -0.893
      -1.443
      -1.945
      -2.379
      -2.738
      -3.032
      -3.278
      -3.487
      -3.658
      -3.773
      -3.805
      -3.732
      -3.541
      -3.233
      -2.816
      -2.310
      -1.734
      -1.105
      -0.438
       0.250
       0.944
       1.620
       2.257
       2.831
       3.321
       3.709
       3.972
       4.089
       4.047
       3.842
       3.482
       2.986
       2.384
       1.712
       1.012
       0.318
      -0.346
      -0.958
      -1.495
      -1.933
      -2.249
      -2.434
      -2.491
      -2.429
      -2.262
      -1.996
      -1.639
      -1.203
      -0.714
      -0.211
       0.259
       0.657
       0.958
       1.157
       1.257
       1.265
       1.193
       1.053
       0.860
       0.628
       0.369
       0.092
      -0.197
      -0.490
      -0.779
      -1.058
      -1.319
      -1.550
      -1.732
      -1.846
      -1.880
      -1.828
      -1.693
      -1.492
      -1.246
      -0.974
      -0.692
      -0.409
      -0.132
       0.127
       0.358
       0.554
       0.710
       0.823
       0.890
       0.911
       0.890
       0.836
       0.764
       0.694
       0.647
       0.643
       0.690
       0.782
       0.898
       1.002
       1.061
       1.045
       0.940
       0.746
       0.474
       0.144
      -0.219
      -0.588
      -0.935
      -1.229
      -1.441
      -1.553
      -1.558
      -1.462
      -1.277
      -1.021
      -0.714
      -0.377
      -0.028
       0.316
       0.639
       0.937
       1.209
       1.460
       1.690
       1.890
       2.037
       2.102
       2.059
       1.895
       1.618
       1.252
       0.833
       0.402
      -0.005
      -0.356
      -0.630
      -0.820
      -0.933
      -0.986
      -1.002
      -1.005
      -1.012
      -1.035
      -1.075
      -1.120
      -1.150
      -1.151
      -1.115
      -1.048
      -0.964
      -0.874
      -0.788
      -0.709
      -0.640
      -0.582
      -0.527
      -0.467
      -0.392
      -0.295
      -0.176
      -0.038
       0.108
       0.255
       0.396
       0.531
       0.663
       0.794
       0.933
       1.088
       1.263
       1.453
       1.637
       1.785
       1.865
       1.849
       1.726
       1.496
       1.172
       0.778
       0.339
      -0.124
      -0.597
      -1.069
      -1.532
      -1.975
      -2.389
      -2.755
      -3.052
      -3.257
      -3.355
      -3.340
      -3.213
      -2.976
      -2.623
      -2.145
      -1.542
      -0.826
      -0.020
       0.839
       1.710
       2.551
       3.319
       3.975
       4.481
       4.813
       4.956
       4.905
       4.657
       4.212
       3.584
       2.807
       1.934
       1.023
       0.129
      -0.707
      -1.451
      -2.082
      -2.586
      -2.961
      -3.213
      -3.351
      -3.386
      -3.329
      -3.188
      -2.972
      -2.692
      -2.358
      -1.984
      -1.581
      -1.167
      -0.771
      -0.424
      -0.148
       0.050
       0.184
       0.282
       0.373
       0.477
       0.599
       0.733
       0.862
       0.968
       1.044
       1.096
       1.143
       1.202
       1.280
       1.375
       1.483
       1.596
       1.707
       1.800
       1.854
       1.846
       1.763
       1.600
       1.364
       1.063
       0.704
       0.296
      -0.149
      -0.611
      -1.067
      -1.492
      -1.867
      -2.177
      -2.406
      -2.542
      -2.576
      -2.503
      -2.329
      -2.068
      -1.742
      -1.375
      -0.986
      -0.586
      -0.183
       0.215
       0.592
       0.926
       1.202
       1.415
       1.566
       1.658
       1.687
       1.645
       1.528
       1.342
       1.111
       0.866
       0.636
       0.441
       0.292
       0.184
       0.107
       0.046
      -0.014
      -0.082
      -0.156
      -0.229
      -0.294
      -0.341
      -0.359
      -0.333
      -0.252
      -0.111
       0.081
       0.301
       0.519
       0.698
       0.807
       0.817
       0.719
       0.515
       0.225
      -0.128
      -0.518
      -0.921
      -1.311
      -1.664
      -1.955
      -2.160
      -2.258
      -2.233
      -2.077
      -1.795
      -1.408
      -0.942
      -0.429
       0.108
       0.647
       1.161
       1.622
       1.999
       2.264
       2.398
       2.398
       2.274
       2.049
       1.744
       1.375
       0.949
       0.471
      -0.052
      -0.603
      -1.157
      -1.682
      -2.148
      -2.522
      -2.770
      -2.865
      -2.793
      -2.559
      -2.186
      -1.713
      -1.181
      -0.636
      -0.120
       0.335
       0.706
       0.979
       1.152
       1.227
       1.208
       1.107
       0.941
       0.737
       0.528
       0.340
       0.193
       0.094
       0.047
       0.050
       0.099
       0.189
       0.312
       0.467
       0.649
       0.851
       1.060
       1.257
       1.425
       1.548
       1.615
       1.612
       1.530
       1.365
       1.112
       0.772
       0.348
      -0.149
      -0.701
      -1.280
      -1.845
      -2.348
      -2.736
      -2.967
      -3.015
