Origin Time       22/02/2010 17:23:43 UTC
Lat.              30.0 N	
Long.             80.1 E	
Depth (Km)          2.0
Magnitude         4.7
 Region           BAGESHWER-UTTARAKHAND                                            
 Above details taken from IMD 
    
Station Code      CHP
Station Lat.       29.334  N
Station Long.      80.095  E
Station Height(m) 1635.0
Site Class        A   Vs30 between 700 m/sec to 1400 m/sec * 
Record Time       22.02.2010 17:23:53.004 UTC
Sampling Rate     200. Hz
 Record Duration   70.500 Sec.
 Direction         N-S (N positive)
Max. Acceleration      2.985 cm/sec**2
     
  * For reference see Site Classification link of website 
     
 Base Line Corrected and Low Pass Filtered (Cut Off at 35 Hz) Time History
 Acceleration data in cm/sec**2
    
[...]
       0.110
       0.045
      -0.028
      -0.098
      -0.155
      -0.191
      -0.198
      -0.171
      -0.108
      -0.017
       0.083
       0.172
       0.228
       0.244
       0.228
       0.202
       0.191
       0.215
       0.270
       0.334
       0.373
       0.363
       0.297
       0.186
       0.046
      -0.102
      -0.245
      -0.363
      -0.431
      -0.422
      -0.326
      -0.167
       0.003
       0.122
       0.151
       0.090
      -0.025
      -0.141
      -0.215
      -0.236
      -0.221
      -0.195
      -0.167
      -0.132
      -0.087
      -0.039
      -0.006
      -0.002
      -0.027
      -0.067
      -0.101
      -0.111
      -0.093
      -0.058
      -0.031
      -0.032
      -0.064
      -0.106
      -0.120
      -0.084
      -0.002
       0.093
       0.168
       0.205
       0.205
       0.183
       0.153
       0.128
       0.116
       0.119
       0.134
       0.152
       0.166
       0.174
       0.178
       0.182
       0.181
       0.164
       0.122
       0.051
      -0.038
      -0.130
      -0.210
      -0.269
      -0.300
      -0.293
      -0.241
      -0.146
      -0.026
       0.085
       0.154
       0.158
       0.097
      -0.008
      -0.124
      -0.215
      -0.252
      -0.222
      -0.133
      -0.017
       0.086
       0.145
       0.149
       0.108
       0.044
      -0.027
      -0.096
      -0.151
      -0.173
      -0.148
      -0.080
       0.005
       0.071
       0.094
       0.068
       0.010
      -0.060
      -0.125
      -0.171
      -0.190
      -0.180
      -0.140
      -0.074
       0.016
       0.118
       0.217
       0.294
       0.336
       0.342
       0.317
       0.270
       0.215
       0.169
       0.143
       0.134
       0.123
       0.088
       0.021
      -0.065
      -0.139
      -0.172
      -0.163
      -0.139
      -0.134
      -0.164
      -0.213
      -0.244
      -0.228
      -0.160
      -0.063
       0.033
       0.105
       0.147
       0.161
       0.156
       0.140
       0.115
       0.080
       0.037
      -0.010
      -0.044
      -0.048
      -0.005
       0.077
       0.171
       0.240
       0.262
       0.236
       0.174
       0.088
      -0.018
      -0.135
      -0.250
      -0.345
      -0.403
      -0.418
      -0.394
      -0.343
      -0.281
      -0.227
      -0.193
      -0.189
      -0.213
      -0.253
      -0.287
      -0.288
      -0.237
      -0.127
       0.027
       0.189
       0.316
       0.372
       0.346
       0.257
       0.146
       0.056
       0.018
       0.041
       0.114
       0.213
       0.308
       0.370
       0.381
       0.341
       0.268
       0.189
       0.130
       0.100
       0.094
       0.098
       0.098
       0.085
       0.053
       0.000
      -0.067
      -0.135
      -0.194
      -0.235
      -0.264
      -0.291
      -0.323
      -0.353
      -0.364
      -0.337
      -0.267
      -0.158
      -0.027
       0.103
       0.205
       0.256
       0.246
       0.186
       0.103
       0.028
      -0.020
      -0.032
      -0.013
       0.029
       0.085
       0.150
       0.217
       0.283
       0.335
       0.361
       0.348
       0.292
       0.204
       0.102
       0.008
      -0.066
      -0.120
      -0.155
      -0.173
      -0.174
      -0.163
      -0.151
      -0.150
      -0.170
      -0.212
      -0.268
      -0.318
      -0.340
      -0.318
      -0.253
      -0.168
      -0.089
      -0.036
      -0.005
       0.016
       0.035
       0.052
       0.060
       0.056
       0.048
       0.054
       0.085
       0.141
       0.202
       0.247
       0.260
       0.236
       0.185
       0.128
       0.086
       0.075
       0.100
       0.144
       0.178
       0.177
       0.136
       0.072
       0.006
      -0.051
      -0.095
      -0.128
      -0.141
      -0.127
      -0.096
      -0.068
      -0.065
      -0.093
      -0.137
      -0.166
      -0.154
      -0.094
      -0.009
       0.061
       0.083
       0.043
      -0.051
      -0.177
      -0.307
      -0.415
      -0.472
      -0.456
      -0.356
      -0.186
       0.014
       0.194
       0.309
       0.341
       0.305
       0.230
       0.148
       0.081
       0.039
       0.022
       0.022
       0.029
       0.042
       0.067
       0.112
       0.180
       0.266
       0.356
       0.425
       0.445
       0.399
       0.294
       0.165
       0.057
       0.000
      -0.005
       0.019
       0.043
       0.041
      -0.001
      -0.084
      -0.195
      -0.301
      -0.366
      -0.366
      -0.310
      -0.229
      -0.167
      -0.151
      -0.183
      -0.237
      -0.273
      -0.253
      -0.159
      -0.002
       0.183
       0.352
       0.464
       0.502
       0.466
       0.372
       0.239
       0.088
      -0.055
      -0.164
      -0.218
      -0.215
      -0.177
      -0.135
      -0.122
      -0.155
      -0.225
      -0.298
      -0.322
      -0.258
      -0.099
       0.114
       0.314
       0.436
       0.450
       0.367
       0.232
       0.093
      -0.010
      -0.056
      -0.044
       0.009
       0.077
       0.132
       0.153
       0.127
       0.053
      -0.053
      -0.156
      -0.212
      -0.190
      -0.091
       0.044
       0.160
       0.212
       0.189
       0.107
       0.000
      -0.104
      -0.189
      -0.253
      -0.298
      -0.327
      -0.341
      -0.336
      -0.305
      -0.242
      -0.150
      -0.037
       0.084
       0.194
       0.277
       0.325
       0.345
       0.352
       0.359
       0.368
       0.370
       0.354
       0.314
       0.253
       0.171
       0.069
      -0.050
      -0.173
      -0.283
      -0.361
      -0.398
      -0.395
      -0.367
      -0.329
      -0.291
      -0.259
      -0.233
      -0.206
      -0.163
      -0.092
       0.007
       0.118
       0.215
       0.277
       0.298
       0.289
       0.269
       0.254
       0.250
       0.252
       0.247
       0.229
       0.195
       0.147
       0.083
      -0.003
      -0.110
      -0.224
      -0.322
      -0.384
      -0.404
      -0.387
      -0.350
      -0.307
      -0.275
      -0.265
      -0.278
      -0.303
      -0.328
      -0.348
      -0.363
      -0.366
      -0.346
      -0.289
      -0.194
      -0.074
       0.049
       0.159
       0.254
       0.334
       0.400
       0.441
       0.446
       0.413
       0.355
       0.292
       0.245
       0.221
       0.221
       0.241
       0.273
       0.305
       0.324
       0.325
       0.313
       0.298
       0.291
       0.284
       0.264
       0.219
       0.149
       0.070
      -0.001
      -0.052
      -0.080
      -0.090
      -0.088
      -0.079
      -0.074
      -0.085
      -0.126
      -0.195
      -0.275
      -0.336
      -0.356
      -0.332
      -0.273
      -0.196
      -0.112
      -0.033
       0.024
       0.042
       0.017
      -0.036
      -0.086
      -0.106
      -0.086
      -0.032
       0.044
       0.132
       0.220
       0.291
       0.327
       0.322
       0.276
       0.196
       0.095
      -0.012
      -0.103
      -0.166
      -0.194
      -0.194
      -0.175
      -0.151
      -0.128
      -0.117
      -0.123
      -0.151
      -0.196
      -0.245
      -0.278
      -0.273
      -0.218
      -0.120
       0.000
       0.114
       0.200
       0.242
       0.237
       0.203
       0.168
       0.164
       0.204
       0.270
       0.327
       0.335
       0.273
       0.147
      -0.016
      -0.179
      -0.305
      -0.367
      -0.347
      -0.247
      -0.094
       0.061
       0.166
       0.194
       0.151
       0.071
      -0.007
      -0.060
      -0.087
      -0.093
      -0.089
      -0.078
      -0.056
      -0.018
       0.043
       0.120
       0.199
       0.262
       0.299
       0.302
       0.269
       0.204
       0.114
       0.018
      -0.060
      -0.105
      -0.111
      -0.094
      -0.076
      -0.078
      -0.106
      -0.145
      -0.172
      -0.170
      -0.138
      -0.089
      -0.046
      -0.026
      -0.028
      -0.037
      -0.035
      -0.012
       0.024
       0.053
       0.059
       0.038
       0.004
      -0.025
      -0.038
      -0.033
      -0.016
       0.004
       0.014
       0.003
      -0.037
      -0.104
      -0.178
      -0.235
      -0.254
      -0.232
      -0.175
      -0.091
       0.011
       0.121
       0.222
       0.298
       0.340
       0.349
       0.336
       0.309
       0.268
       0.213
       0.150
       0.093
       0.060
       0.058
       0.082
       0.115
       0.131
       0.112
       0.049
      -0.048
      -0.159
      -0.252
      -0.307
      -0.312
      -0.271
      -0.201
      -0.121
      -0.048
       0.006
       0.039
       0.051
       0.043
       0.017
      -0.018
      -0.053
      -0.075
      -0.074
      -0.050
      -0.016
       0.019
       0.048
       0.072
       0.089
       0.087
       0.056
      -0.007
      -0.093
      -0.176
      -0.238
      -0.266
      -0.258
      -0.216
      -0.146
      -0.056
       0.036
       0.110
       0.153
       0.161
       0.141
       0.103
       0.062
       0.031
       0.025
       0.044
       0.078
       0.111
       0.130
       0.129
       0.106
       0.061
       0.004
      -0.051
      -0.085
      -0.087
      -0.065
      -0.040
      -0.034
      -0.056
      -0.103
      -0.159
      -0.210
      -0.244
      -0.256
      -0.243
      -0.197
      -0.119
      -0.012
       0.114
       0.257
       0.412
       0.570
       0.712
       0.808
       0.837
       0.788
       0.674
       0.518
       0.347
       0.180
       0.024
      -0.122
      -0.260
      -0.393
      -0.522
      -0.642
      -0.747
      -0.823
      -0.851
      -0.823
      -0.735
      -0.599
      -0.430
      -0.247
      -0.068
       0.085
       0.196
       0.257
       0.278
       0.276
       0.270
       0.266
       0.263
       0.261
       0.263
       0.267
       0.261
       0.222
       0.127
      -0.023
      -0.195
      -0.336
      -0.407
      -0.397
      -0.333
      -0.254
      -0.197
      -0.182
      -0.209
      -0.267
      -0.332
      -0.374
      -0.373
      -0.321
      -0.222
      -0.089
       0.063
       0.216
       0.351
       0.452
       0.511
       0.533
       0.527
       0.506
       0.478
       0.448
       0.417
       0.384
       0.339
       0.276
       0.193
       0.100
       0.020
      -0.031
      -0.048
      -0.041
      -0.032
      -0.032
      -0.035
      -0.019
       0.041
       0.155
       0.305
       0.453
       0.561
       0.605
       0.586
       0.520
       0.425
       0.312
       0.185
       0.044
      -0.108
      -0.274
      -0.457
      -0.665
      -0.890
      -1.108
      -1.273
      -1.346
      -1.311
      -1.183
      -1.002
      -0.807
      -0.623
      -0.454
      -0.290
      -0.115
       0.080
       0.298
       0.531
       0.764
       0.976
       1.143
       1.250
       1.288
       1.263
       1.182
       1.054
       0.887
       0.688
       0.465
       0.227
      -0.009
      -0.222
      -0.396
      -0.523
      -0.602
      -0.639
      -0.638
      -0.604
      -0.537
      -0.429
      -0.273
      -0.076
       0.132
       0.305
       0.392
       0.368
       0.238
       0.040
      -0.171
      -0.343
      -0.444
      -0.478
      -0.475
      -0.482
      -0.536
      -0.648
      -0.797
      -0.935
      -1.007
      -0.980
      -0.852
      -0.651
      -0.414
      -0.165
       0.090
       0.357
       0.633
       0.908
       1.164
       1.378
       1.525
       1.589
       1.564
       1.457
       1.277
       1.031
       0.719
       0.343
      -0.083
      -0.529
      -0.953
      -1.311
      -1.563
      -1.689
      -1.696
      -1.618
      -1.498
      -1.376
      -1.271
      -1.169
      -1.041
      -0.851
      -0.578
      -0.224
       0.188
       0.622
       1.041
       1.414
       1.721
       1.951
       2.098
       2.156
       2.117
       1.982
       1.752
       1.431
       1.022
       0.536
      -0.007
      -0.568
      -1.096
      -1.540
      -1.866
      -2.072
      -2.183
      -2.230
      -2.230
      -2.182
      -2.072
      -1.890
      -1.638
      -1.334
      -1.003
      -0.663
      -0.319
       0.041
       0.433
       0.866
       1.320
       1.751
       2.107
       2.347
       2.456
       2.443
       2.325
       2.120
       1.839
       1.495
       1.110
       0.712
       0.333
       0.006
      -0.234
      -0.357
      -0.358
      -0.261
      -0.120
       0.007
       0.077
       0.069
      -0.012
      -0.152
      -0.334
      -0.545
      -0.772
      -0.996
      -1.201
      -1.369
      -1.489
      -1.549
      -1.540
      -1.458
      -1.310
      -1.114
      -0.896
      -0.678
      -0.466
      -0.254
      -0.035
       0.189
       0.409
       0.607
       0.769
       0.890
       0.973
       1.022
       1.035
       1.007
       0.932
       0.815
       0.669
       0.516
       0.370
       0.231
       0.082
      -0.098
      -0.317
      -0.564
      -0.815
      -1.045
      -1.228
      -1.348
      -1.388
      -1.337
      -1.181
      -0.917
      -0.555
      -0.125
       0.333
       0.783
       1.209
       1.611
       1.995
       2.355
       2.666
       2.889
       2.985
       2.926
       2.701
       2.325
       1.837
       1.296
       0.755
       0.243
      -0.242
      -0.720
      -1.202
      -1.670
      -2.080
      -2.380
      -2.524
      -2.501
      -2.324
      -2.029
      -1.657
      -1.245
      -0.819
      -0.408
      -0.041
       0.257
       0.481
       0.651
       0.799
       0.947
       1.096
       1.231
       1.334
       1.393
       1.403
       1.359
       1.257
       1.101
       0.902
       0.683
       0.464
       0.264
       0.092
      -0.056
      -0.191
      -0.326
      -0.465
      -0.608
      -0.747
      -0.879
      -1.003
      -1.121
      -1.223
      -1.291
      -1.307
      -1.268
      -1.194
      -1.113
      -1.038
      -0.962
      -0.869
      -0.754
      -0.631
      -0.531
      -0.482
      -0.494
      -0.554
      -0.636
      -0.715
      -0.776
      -0.819
      -0.856
      -0.892
      -0.918
      -0.914
      -0.861
      -0.750
      -0.583
      -0.370
      -0.121
       0.146
       0.403
       0.618
       0.773
       0.869
       0.921
       0.945
       0.946
       0.929
       0.903
       0.886
       0.887
       0.895
       0.875
       0.787
       0.618
       0.387
       0.143
      -0.071
      -0.228
      -0.328
      -0.379
      -0.389
      -0.372
      -0.355
      -0.376
      -0.461
      -0.607
      -0.784
      -0.946
      -1.060
      -1.101
      -1.056
      -0.916
      -0.685
      -0.386
      -0.064
       0.237
       0.497
       0.720
       0.931
       1.148
       1.367
       1.559
       1.690
       1.745
       1.730
       1.672
       1.604
       1.559
       1.554
       1.596
       1.682
       1.796
       1.914
       2.004
       2.037
       1.996
       1.882
       1.720
       1.537
       1.353
       1.167
       0.958
       0.696
       0.360
      -0.047
      -0.501
      -0.965
      -1.412
      -1.819
      -2.171
      -2.452
      -2.651
      -2.757
      -2.760
      -2.652
      -2.440
      -2.148
      -1.822
      -1.516
      -1.272
      -1.107
      -1.023
      -1.012
      -1.062
      -1.155
      -1.267
      -1.369
      -1.433
      -1.439
      -1.382
      -1.276
      -1.143
      -1.008
      -0.882
      -0.766
      -0.659
      -0.556
      -0.446
      -0.311
      -0.124
       0.127
       0.431
       0.754
       1.057
       1.316
       1.529
       1.706
       1.853
       1.953
       1.983
       1.926
       1.785
       1.584
       1.356
       1.139
       0.965
       0.853
       0.807
       0.814
       0.843
       0.856
       0.820
       0.713
       0.533
       0.295
       0.041
      -0.172
      -0.290
      -0.286
      -0.173
       0.006
       0.202
       0.386
       0.547
       0.677
       0.757
       0.769
       0.701
       0.553
       0.333
       0.052
      -0.268
      -0.594
      -0.892
      -1.137
      -1.331
      -1.491
      -1.627
      -1.727
      -1.758
      -1.683
      -1.486
      -1.176
      -0.780
      -0.332
       0.137
       0.599
       1.017
       1.356
       1.589
       1.712
       1.733
       1.671
       1.536
       1.341
       1.104
       0.860
       0.640
       0.457
       0.301
       0.151
      -0.014
      -0.200
      -0.397
      -0.582
      -0.726
      -0.811
      -0.830
      -0.790
      -0.701
      -0.569
      -0.401
      -0.212
      -0.033
       0.096
       0.146
       0.101
      -0.028
      -0.221
      -0.447
      -0.679
      -0.884
      -1.037
      -1.127
      -1.164
      -1.169
      -1.156
      -1.122
      -1.046
      -0.913
      -0.726
      -0.516
      -0.327
      -0.193
      -0.125
      -0.108
      -0.114
      -0.106
      -0.050
       0.072
       0.264
       0.508
       0.769
       1.000
       1.165
       1.239
       1.219
       1.112
       0.935
       0.712
       0.472
       0.238
       0.026
      -0.163
      -0.338
      -0.500
      -0.640
      -0.735
      -0.762
      -0.709
      -0.571
      -0.349
      -0.056
       0.272
       0.575
       0.786
       0.864
       0.815
       0.696
       0.582
       0.529
       0.558
       0.649
       0.770
       0.888
       0.979
       1.022
       1.000
       0.902
       0.726
       0.475
       0.159
      -0.208
      -0.602
      -0.992
      -1.334
      -1.589
      -1.725
      -1.729
      -1.604
      -1.375
      -1.080
      -0.761
      -0.464
      -0.226
      -0.072
       0.000
       0.026
       0.067
       0.172
       0.354
       0.583
       0.809
       0.984
       1.080
       1.090
       1.022
       0.892
       0.708
       0.473
       0.181
      -0.170
      -0.566
      -0.977
      -1.359
      -1.660
      -1.835
      -1.852
      -1.700
      -1.394
      -0.975
      -0.498
      -0.016
       0.439
       0.851
       1.210
       1.495
       1.679
       1.742
       1.690
       1.547
       1.345
       1.109
       0.865
       0.641
       0.457
       0.317
       0.195
       0.044
      -0.178
      -0.475
      -0.810
      -1.124
      -1.359
      -1.474
      -1.454
      -1.311
      -1.079
      -0.801
      -0.513
      -0.232
       0.040
       0.305
       0.555
       0.766
       0.909
       0.962
       0.919
       0.799
       0.638
       0.471
       0.326
       0.217
       0.148
       0.110
       0.087
       0.054
      -0.009
      -0.119
      -0.279
      -0.472
      -0.665
      -0.823
      -0.921
      -0.956
      -0.944
      -0.905
      -0.853
      -0.793
      -0.722
      -0.637
      -0.533
      -0.407
      -0.251
      -0.055
       0.181
       0.438
       0.683
       0.880
       1.013
       1.090
       1.143
       1.210
       1.312
