Origin Time       31/5/2010 11:37:04	
Lat.              30.0 N	
Long.             79.8 E	
Depth (Km)         10.0
Magnitude         3.6
 Region           Almora-UTTRAKHAND                                                
 Above details taken from IMD 
     
Station Code      CHP
Station Lat.       29.334  N
Station Long.      80.095  E
Station Height(m) 1635.0
Site Class        A   Vs30 between 700 m/sec to 1400 m/sec * 
Record Time       31.05.2010 11:36:45.984
Sampling Rate     200. Hz
 Record Duration   69.965 Sec.
 Direction         E-W (E positive)
Max. Acceleration      9.838 cm/sec**2
     
  * For reference see Site Classification link of website 
     
 Base Line Corrected and Low Pass Filtered (Cut Off at 35 Hz) Time History
 Acceleration data in cm/sec**2
    
[...]
       0.002
       0.000
      -0.003
      -0.006
      -0.008
      -0.012
      -0.016
      -0.018
      -0.016
      -0.010
      -0.003
       0.000
      -0.004
      -0.012
      -0.019
      -0.019
      -0.011
       0.001
       0.010
       0.013
       0.009
       0.002
      -0.003
      -0.006
      -0.007
      -0.009
      -0.010
      -0.011
      -0.012
      -0.013
      -0.016
      -0.020
      -0.022
      -0.020
      -0.015
      -0.009
      -0.009
      -0.013
      -0.018
      -0.017
      -0.009
       0.002
       0.009
       0.008
      -0.001
      -0.011
      -0.017
      -0.018
      -0.012
      -0.005
       0.000
       0.000
      -0.003
      -0.005
      -0.005
      -0.002
       0.001
       0.004
       0.006
       0.006
       0.005
       0.002
      -0.001
      -0.005
      -0.008
      -0.011
      -0.014
      -0.016
      -0.017
      -0.016
      -0.014
      -0.010
      -0.006
      -0.002
       0.000
       0.000
      -0.002
      -0.006
      -0.010
      -0.013
      -0.014
      -0.011
      -0.004
       0.003
       0.007
       0.007
       0.002
      -0.006
      -0.014
      -0.021
      -0.023
      -0.020
      -0.013
      -0.006
       0.000
       0.005
       0.008
       0.009
       0.007
       0.002
      -0.005
      -0.009
      -0.008
      -0.004
      -0.001
      -0.002
      -0.005
      -0.007
      -0.008
      -0.009
      -0.011
      -0.015
      -0.016
      -0.013
      -0.006
       0.002
       0.008
       0.008
       0.003
      -0.003
      -0.007
      -0.008
      -0.011
      -0.016
      -0.020
      -0.020
      -0.015
      -0.008
      -0.002
      -0.002
      -0.006
      -0.011
      -0.013
      -0.013
      -0.010
      -0.008
      -0.009
      -0.013
      -0.019
      -0.023
      -0.022
      -0.017
      -0.011
      -0.008
      -0.007
      -0.006
      -0.004
      -0.002
      -0.001
      -0.004
      -0.008
      -0.010
      -0.010
      -0.008
      -0.007
      -0.006
      -0.008
      -0.010
      -0.012
      -0.011
      -0.007
      -0.001
       0.003
       0.002
      -0.002
      -0.005
      -0.005
      -0.002
       0.001
       0.003
       0.003
       0.002
      -0.001
      -0.005
      -0.008
      -0.008
      -0.005
      -0.002
      -0.001
      -0.004
      -0.007
      -0.008
      -0.006
      -0.002
       0.001
       0.001
      -0.001
      -0.004
      -0.006
      -0.006
      -0.006
      -0.005
      -0.004
      -0.001
       0.004
       0.007
       0.007
       0.000
      -0.009
      -0.016
      -0.015
      -0.009
      -0.002
       0.001
       0.001
       0.000
      -0.001
      -0.001
       0.001
       0.002
       0.002
       0.000
      -0.002
      -0.004
      -0.004
      -0.005
      -0.008
      -0.013
      -0.016
      -0.014
      -0.007
       0.001
       0.005
       0.004
       0.001
      -0.002
      -0.003
      -0.002
      -0.001
       0.000
       0.002
       0.005
       0.008
       0.010
       0.007
       0.002
      -0.003
      -0.003
       0.002
       0.008
       0.009
       0.005
      -0.001
      -0.004
      -0.003
       0.001
       0.003
       0.002
      -0.002
      -0.005
      -0.007
      -0.008
      -0.008
      -0.004
       0.002
       0.007
       0.005
      -0.001
      -0.007
      -0.007
      -0.002
       0.004
       0.006
       0.005
       0.005
       0.009
       0.016
       0.018
       0.011
      -0.001
      -0.010
      -0.010
      -0.003
       0.002
      -0.001
      -0.009
      -0.013
      -0.010
      -0.003
       0.001
       0.002
       0.002
       0.004
       0.007
       0.005
      -0.002
      -0.009
      -0.010
      -0.002
       0.008
       0.015
       0.013
       0.007
       0.000
      -0.002
      -0.001
       0.001
       0.003
       0.004
       0.006
       0.008
       0.011
       0.012
       0.008
       0.002
      -0.004
      -0.003
       0.003
       0.010
       0.013
       0.009
       0.002
      -0.003
      -0.003
       0.001
       0.005
       0.006
       0.004
       0.000
      -0.002
      -0.002
      -0.002
      -0.003
      -0.008
      -0.013
      -0.014
      -0.009
      -0.001
       0.005
       0.004
       0.001
      -0.001
      -0.001
       0.001
       0.004
       0.007
       0.009
       0.011
       0.011
       0.009
       0.007
       0.003
       0.001
       0.001
       0.004
       0.008
       0.010
       0.010
       0.009
       0.011
       0.014
       0.016
       0.012
       0.004
      -0.002
      -0.002
       0.001
       0.004
       0.004
       0.004
       0.005
       0.007
       0.009
       0.011
       0.010
       0.006
       0.001
      -0.003
      -0.003
      -0.001
       0.002
       0.003
       0.003
       0.001
      -0.002
      -0.004
      -0.004
       0.001
       0.007
       0.012
       0.011
       0.006
       0.001
       0.000
       0.001
       0.001
      -0.002
      -0.005
      -0.005
       0.000
       0.006
       0.010
       0.009
       0.004
       0.000
      -0.001
       0.000
      -0.001
      -0.005
      -0.008
      -0.008
      -0.005
      -0.002
      -0.001
      -0.002
      -0.001
       0.001
       0.004
       0.006
       0.007
       0.006
       0.005
       0.006
       0.008
       0.009
       0.008
       0.006
       0.003
       0.001
       0.000
      -0.002
      -0.005
      -0.011
      -0.017
      -0.021
      -0.026
      -0.033
      -0.043
      -0.053
      -0.063
      -0.076
      -0.096
      -0.128
      -0.174
      -0.229
      -0.277
      -0.299
      -0.289
      -0.272
      -0.298
      -0.411
      -0.607
      -0.823
      -0.949
      -0.868
      -0.509
       0.110
       0.857
       1.505
       1.837
       1.759
       1.358
       0.835
       0.375
       0.062
      -0.090
      -0.095
       0.015
       0.161
       0.253
       0.265
       0.301
       0.515
       0.962
       1.489
       1.762
       1.426
       0.311
      -1.412
      -3.214
      -4.389
      -4.354
      -2.902
      -0.314
       2.662
       4.973
       5.607
       4.062
       0.691
      -3.365
      -6.636
      -7.920
      -6.722
      -3.394
       1.013
       5.105
       7.632
       7.952
       6.246
       3.355
       0.330
      -2.016
      -3.314
      -3.573
      -3.026
      -2.019
      -0.918
       0.010
       0.675
       1.106
       1.311
       1.213
       0.725
      -0.081
      -0.916
      -1.440
      -1.565
      -1.567
      -1.853
      -2.519
      -3.152
      -3.070
      -1.870
       0.165
       2.149
       3.163
       2.908
       1.930
       1.217
       1.468
       2.608
       3.877
       4.377
       3.609
       1.685
      -0.798
      -3.042
      -4.333
      -4.296
      -3.057
      -1.212
       0.430
       1.211
       0.914
      -0.204
      -1.611
      -2.762
      -3.283
      -3.012
      -1.989
      -0.440
       1.244
       2.561
       3.062
       2.544
       1.200
      -0.414
      -1.587
      -1.764
      -0.789
       0.998
       2.897
       4.161
       4.333
       3.438
       1.933
       0.465
      -0.462
      -0.725
      -0.592
      -0.507
      -0.771
      -1.325
      -1.799
      -1.789
      -1.173
      -0.208
       0.642
       0.985
       0.683
      -0.140
      -1.195
      -2.154
      -2.765
      -2.935
      -2.734
      -2.310
      -1.784
      -1.192
      -0.522
       0.209
       0.913
       1.463
       1.766
       1.798
       1.613
       1.322
       1.075
       1.003
       1.145
       1.411
       1.614
       1.588
       1.297
       0.867
       0.507
       0.376
       0.484
       0.700
       0.836
       0.746
       0.385
      -0.168
      -0.758
      -1.244
      -1.574
      -1.791
      -1.942
      -2.008
      -1.903
      -1.572
      -1.062
      -0.514
      -0.071
       0.207
       0.345
       0.408
       0.443
       0.463
       0.464
       0.429
       0.341
       0.193
       0.012
      -0.133
      -0.174
      -0.101
       0.025
       0.123
       0.149
       0.114
       0.039
      -0.093
      -0.333
      -0.702
      -1.133
      -1.484
      -1.601
      -1.377
      -0.785
       0.101
       1.113
       2.048
       2.755
       3.193
       3.392
       3.360
       3.042
       2.383
       1.428
       0.348
      -0.653
      -1.467
      -2.100
      -2.592
      -2.908
      -2.942
      -2.622
      -2.013
      -1.319
      -0.783
      -0.565
      -0.666
      -0.934
      -1.134
      -1.054
      -0.607
       0.118
       0.882
       1.404
       1.498
       1.157
       0.561
       0.020
      -0.137
       0.299
       1.272
       2.442
       3.321
       3.542
       3.040
       2.048
       0.909
      -0.109
      -0.882
      -1.381
      -1.620
      -1.635
      -1.514
      -1.380
      -1.344
      -1.453
      -1.669
      -1.903
      -2.051
      -2.022
      -1.749
      -1.221
      -0.525
       0.174
       0.729
       1.117
       1.460
       1.896
       2.426
       2.877
       3.026
       2.773
       2.198
       1.473
       0.744
       0.092
      -0.434
      -0.797
      -1.001
      -1.106
      -1.196
      -1.302
      -1.370
      -1.322
      -1.150
      -0.958
      -0.901
      -1.054
      -1.352
      -1.627
      -1.721
      -1.571
      -1.227
      -0.807
      -0.430
      -0.137
       0.134
       0.500
       1.012
       1.572
       1.973
       2.048
       1.801
       1.416
       1.118
       1.025
       1.087
       1.159
       1.121
       0.942
       0.680
       0.430
       0.282
       0.284
       0.403
       0.514
       0.455
       0.126
      -0.446
      -1.134
      -1.801
      -2.351
      -2.703
      -2.753
      -2.414
      -1.721
      -0.881
      -0.198
       0.102
       0.006
      -0.288
      -0.511
      -0.484
      -0.194
       0.240
       0.664
       0.961
       1.090
       1.109
       1.150
       1.351
       1.751
       2.238
       2.595
       2.620
       2.248
       1.576
       0.782
       0.026
      -0.585
      -0.980
      -1.115
      -1.005
      -0.765
      -0.591
      -0.672
      -1.081
      -1.732
      -2.424
      -2.927
      -3.066
      -2.765
      -2.059
      -1.084
      -0.042
       0.863
       1.490
       1.783
       1.766
       1.517
       1.165
       0.870
       0.758
       0.831
       0.949
       0.932
       0.709
       0.377
       0.103
      -0.022
      -0.029
       0.010
       0.063
       0.126
       0.162
       0.084
      -0.168
      -0.537
      -0.844
      -0.899
      -0.628
      -0.126
       0.396
       0.725
       0.744
       0.466
       0.002
      -0.482
      -0.831
      -0.952
      -0.863
      -0.692
      -0.595
      -0.643
      -0.781
      -0.882
      -0.861
      -0.725
      -0.551
      -0.412
      -0.343
      -0.334
      -0.324
      -0.215
       0.103
       0.679
       1.461
       2.303
       3.012
       3.407
       3.359
       2.843
       1.968
       0.950
       0.043
      -0.581
      -0.889
      -0.976
      -0.977
      -0.988
      -1.028
      -1.070
      -1.112
      -1.205
      -1.414
      -1.738
      -2.055
      -2.171
      -1.940
      -1.364
      -0.608
       0.102
       0.600
       0.831
       0.831
       0.669
       0.428
       0.212
       0.142
       0.313
       0.743
       1.339
       1.918
       2.279
       2.268
       1.832
       1.043
       0.087
      -0.786
      -1.352
      -1.500
      -1.276
      -0.866
      -0.499
      -0.345
      -0.443
      -0.697
      -0.938
      -1.012
      -0.854
      -0.517
      -0.143
       0.108
       0.131
      -0.068
      -0.375
      -0.631
      -0.707
      -0.555
      -0.219
       0.199
       0.592
       0.889
       1.079
       1.199
       1.297
       1.390
       1.441
       1.390
       1.206
       0.929
       0.634
       0.378
       0.161
      -0.057
      -0.309
      -0.586
      -0.847
      -1.032
      -1.075
      -0.926
      -0.581
      -0.100
       0.394
       0.770
       0.932
       0.845
       0.513
      -0.037
      -0.768
      -1.609
      -2.434
      -3.073
      -3.367
      -3.237
      -2.717
      -1.917
      -0.934
       0.196
       1.457
       2.759
       3.874
       4.497
       4.391
       3.521
       2.075
       0.380
      -1.226
      -2.481
      -3.222
      -3.386
      -3.011
      -2.248
      -1.338
      -0.531
       0.025
       0.352
       0.614
       0.994
       1.571
       2.257
       2.850
       3.143
       3.023
       2.524
       1.779
       0.945
       0.140
      -0.568
      -1.123
      -1.471
      -1.561
      -1.376
      -0.934
      -0.282
       0.524
       1.424
       2.330
       3.099
       3.526
       3.402
       2.607
       1.206
      -0.544
      -2.257
      -3.526
      -4.057
      -3.763
      -2.800
      -1.514
      -0.298
       0.542
       0.868
       0.706
       0.201
      -0.435
      -0.972
      -1.237
      -1.196
      -0.978
      -0.799
      -0.834
      -1.139
      -1.669
      -2.363
      -3.196
      -4.166
      -5.205
      -6.108
      -6.540
      -6.129
      -4.629
      -2.072
       1.178
       4.514
       7.298
       9.103
       9.838
       9.687
       8.900
       7.602
       5.779
       3.451
       0.870
      -1.453
      -2.941
      -3.234
      -2.352
      -0.671
       1.234
       2.767
       3.466
       3.103
       1.749
      -0.264
      -2.455
      -4.373
      -5.746
      -6.541
      -6.896
      -6.983
      -6.859
      -6.416
      -5.469
      -3.925
      -1.909
       0.254
       2.180
       3.600
       4.451
       4.863
       5.050
       5.168
       5.239
       5.174
       4.883
       4.378
       3.783
       3.242
       2.810
       2.410
       1.895
       1.152
       0.176
      -0.932
      -2.018
      -2.956
      -3.695
      -4.259
      -4.693
      -4.983
      -5.009
      -4.600
      -3.663
      -2.334
      -0.975
      -0.010
       0.319
       0.084
      -0.395
      -0.739
      -0.678
      -0.126
       0.838
       2.022
       3.187
       4.111
       4.654
       4.796
       4.615
       4.209
       3.622
       2.832
       1.804
       0.551
      -0.840
      -2.220
      -3.409
      -4.226
      -4.523
      -4.243
      -3.470
      -2.437
      -1.458
      -0.821
      -0.685
      -1.031
      -1.686
      -2.376
      -2.818
      -2.794
      -2.215
      -1.167
       0.098
       1.246
       2.010
       2.326
       2.351
       2.342
       2.478
       2.759
       3.027
       3.088
       2.842
       2.335
       1.724
       1.175
       0.775
       0.495
       0.229
      -0.136
      -0.675
      -1.407
      -2.282
      -3.172
      -3.873
      -4.165
      -3.905
      -3.108
      -1.943
      -0.663
       0.513
       1.454
       2.111
       2.475
       2.543
       2.340
       1.934
       1.444
       0.998
       0.699
       0.590
       0.648
       0.786
       0.868
       0.762
       0.408
      -0.144
      -0.763
      -1.313
      -1.713
      -1.935
      -1.955
      -1.727
      -1.206
      -0.420
       0.486
       1.271
       1.698
       1.657
       1.213
       0.565
      -0.057
      -0.499
      -0.711
      -0.713
      -0.543
      -0.243
       0.119
       0.436
       0.591
       0.518
       0.249
      -0.101
      -0.410
      -0.605
      -0.680
      -0.657
      -0.555
      -0.384
      -0.176
       0.021
       0.178
       0.322
       0.518
       0.801
       1.119
       1.353
       1.403
       1.242
       0.920
       0.521
       0.130
      -0.160
      -0.259
      -0.137
       0.136
       0.397
       0.487
       0.335
      -0.021
      -0.495
      -1.011
      -1.511
      -1.938
      -2.223
      -2.303
      -2.153
      -1.804
      -1.328
      -0.818
      -0.354
       0.023
       0.331
       0.613
       0.891
       1.136
       1.279
       1.286
       1.208
       1.172
       1.290
       1.557
       1.834
       1.927
       1.708
       1.172
       0.401
      -0.495
      -1.416
      -2.263
      -2.920
      -3.291
      -3.355
      -3.193
      -2.930
      -2.646
      -2.316
      -1.847
      -1.164
      -0.283
       0.696
       1.641
       2.462
       3.130
       3.667
       4.100
       4.440
       4.660
       4.700
       4.506
       4.059
       3.403
       2.623
       1.805
       0.997
       0.195
      -0.641
      -1.556
      -2.569
      -3.635
      -4.639
      -5.416
      -5.815
      -5.761
      -5.299
      -4.570
      -3.747
      -2.942
      -2.176
      -1.404
      -0.593
       0.235
       1.011
       1.672
       2.194
       2.596
       2.910
       3.162
       3.379
       3.589
       3.801
       3.977
       4.021
       3.823
       3.323
       2.550
       1.612
       0.629
      -0.314
      -1.183
      -1.963
      -2.638
      -3.192
      -3.604
      -3.841
      -3.846
      -3.565
      -3.003
      -2.263
      -1.519
      -0.926
      -0.538
      -0.293
      -0.070
       0.231
       0.643
       1.122
       1.573
       1.896
       2.015
       1.918
       1.663
       1.360
       1.114
       0.959
       0.834
       0.632
       0.272
      -0.234
      -0.783
      -1.226
      -1.430
      -1.319
      -0.901
      -0.262
       0.448
       1.057
       1.422
       1.481
       1.281
       0.965
       0.698
       0.569
       0.532
       0.450
       0.200
      -0.229
      -0.719
      -1.103
      -1.270
      -1.211
      -0.998
      -0.712
      -0.400
      -0.088
       0.184
       0.337
       0.274
      -0.051
      -0.583
      -1.161
      -1.587
      -1.714
      -1.506
      -1.039
      -0.456
       0.088
       0.498
       0.760
       0.931
       1.076
       1.206
       1.259
       1.161
       0.894
       0.530
       0.186
      -0.047
      -0.162
      -0.221
      -0.310
      -0.478
      -0.707
      -0.923
      -1.039
      -0.998
      -0.793
      -0.450
      -0.014
       0.476
       0.972
       1.408
       1.706
       1.796
       1.648
       1.283
       0.765
       0.195
      -0.313
      -0.675
      -0.859
      -0.896
      -0.855
      -0.799
      -0.748
      -0.686
      -0.594
      -0.483
      -0.398
      -0.371
      -0.392
      -0.395
      -0.307
      -0.097
       0.194
       0.491
       0.732
       0.915
       1.081
       1.263
       1.442
       1.552
       1.525
       1.345
       1.052
       0.708
       0.348
      -0.024
      -0.415
      -0.806
      -1.148
      -1.389
      -1.518
      -1.567
      -1.571
      -1.517
      -1.337
      -0.968
      -0.427
       0.151
       0.578
       0.717
       0.560
       0.227
      -0.102
      -0.275
      -0.214
       0.057
       0.442
       0.805
       1.023
       1.027
       0.824
       0.489
       0.123
      -0.189
      -0.412
      -0.549
      -0.609
      -0.582
