Origin Time       23/08/2012 16:30:19
Lat.              28.4 N	
Long.             82.7 E	
Depth (Km)         10.0
Magnitude         5.0
 Region           NEPAL                                                            
 Above details taken from IMD 
   
Station Code      CHP
Station Lat.       29.334
Station Long.      80.095
Station Height(m) 1635.0
Site Class        A   Vs30 between 700 m/sec to 1400 m/sec * 
Record Time       23.08.2012 16:31:23.774
Sampling Rate     200. Hz
 Record Duration   65.000 Sec.
 Direction         Vert. (Up positive)
Max. Acceleration      0.744 cm/sec**2
     
  * For reference see Site Classification link of website 
     
 Base Line Corrected and Low Pass Filtered (Cut Off at 35 Hz) Time History
 Acceleration data in cm/sec**2
    
[...]
      -0.085
      -0.070
      -0.061
      -0.059
      -0.060
      -0.059
      -0.052
      -0.041
      -0.031
      -0.023
      -0.011
       0.014
       0.052
       0.088
       0.108
       0.105
       0.083
       0.051
       0.019
      -0.007
      -0.027
      -0.041
      -0.045
      -0.035
      -0.015
       0.005
       0.014
       0.010
      -0.003
      -0.020
      -0.038
      -0.054
      -0.070
      -0.087
      -0.096
      -0.086
      -0.057
      -0.022
       0.007
       0.025
       0.037
       0.047
       0.057
       0.069
       0.078
       0.081
       0.082
       0.082
       0.079
       0.067
       0.042
       0.013
      -0.011
      -0.024
      -0.024
      -0.018
      -0.012
      -0.010
      -0.014
      -0.023
      -0.039
      -0.065
      -0.095
      -0.114
      -0.107
      -0.073
      -0.019
       0.036
       0.074
       0.082
       0.060
       0.017
      -0.037
      -0.091
      -0.132
      -0.149
      -0.140
      -0.116
      -0.086
      -0.055
      -0.025
       0.000
       0.019
       0.030
       0.034
       0.034
       0.036
       0.049
       0.072
       0.101
       0.127
       0.149
       0.160
       0.154
       0.134
       0.110
       0.089
       0.074
       0.064
       0.052
       0.032
       0.001
      -0.034
      -0.060
      -0.073
      -0.078
      -0.081
      -0.078
      -0.067
      -0.044
      -0.013
       0.020
       0.047
       0.064
       0.070
       0.066
       0.052
       0.025
      -0.011
      -0.046
      -0.073
      -0.092
      -0.100
      -0.090
      -0.063
      -0.024
       0.011
       0.032
       0.033
       0.018
      -0.003
      -0.016
      -0.018
      -0.014
      -0.009
       0.000
       0.014
       0.028
       0.039
       0.046
       0.053
       0.061
       0.070
       0.081
       0.089
       0.084
       0.066
       0.043
       0.026
       0.019
       0.021
       0.029
       0.039
       0.049
       0.058
       0.065
       0.068
       0.064
       0.056
       0.051
       0.053
       0.050
       0.029
      -0.013
      -0.070
      -0.129
      -0.175
      -0.198
      -0.200
      -0.191
      -0.174
      -0.145
      -0.103
      -0.055
      -0.013
       0.017
       0.037
       0.051
       0.067
       0.089
       0.113
       0.135
       0.148
       0.154
       0.154
       0.143
       0.120
       0.089
       0.058
       0.031
       0.014
       0.009
       0.013
       0.018
       0.018
       0.012
      -0.002
      -0.027
      -0.062
      -0.103
      -0.146
      -0.188
      -0.228
      -0.259
      -0.277
      -0.275
      -0.253
      -0.210
      -0.154
      -0.102
      -0.063
      -0.040
      -0.027
      -0.021
      -0.027
      -0.047
      -0.087
      -0.141
      -0.198
      -0.242
      -0.268
      -0.281
      -0.288
      -0.282
      -0.255
      -0.204
      -0.137
      -0.072
      -0.023
       0.005
       0.018
       0.030
       0.043
       0.051
       0.052
       0.053
       0.064
       0.086
       0.112
       0.130
       0.132
       0.116
       0.085
       0.050
       0.018
      -0.009
      -0.027
      -0.029
      -0.013
       0.010
       0.031
       0.044
       0.050
       0.054
       0.059
       0.070
       0.087
       0.106
       0.120
       0.124
       0.111
       0.083
       0.048
       0.022
       0.017
       0.029
       0.046
       0.057
       0.054
       0.038
       0.014
      -0.012
      -0.040
      -0.076
      -0.116
      -0.150
      -0.164
      -0.151
      -0.116
      -0.068
      -0.013
       0.040
       0.089
       0.134
       0.174
       0.206
       0.232
       0.259
       0.289
       0.315
       0.324
       0.311
       0.282
       0.246
       0.214
       0.193
       0.178
       0.164
       0.147
       0.136
       0.139
       0.156
       0.181
       0.208
       0.229
       0.237
       0.226
       0.193
       0.138
       0.065
      -0.017
      -0.087
      -0.135
      -0.160
      -0.171
      -0.171
      -0.164
      -0.149
      -0.130
      -0.104
      -0.075
      -0.051
      -0.037
      -0.032
      -0.030
      -0.029
      -0.026
      -0.022
      -0.020
      -0.026
      -0.043
      -0.065
      -0.082
      -0.089
      -0.080
      -0.058
      -0.026
       0.009
       0.042
       0.072
       0.093
       0.102
       0.097
       0.086
       0.077
       0.072
       0.069
       0.063
       0.056
       0.049
       0.045
       0.043
       0.034
       0.003
      -0.056
      -0.130
      -0.203
      -0.262
      -0.306
      -0.337
      -0.356
      -0.360
      -0.347
      -0.314
      -0.266
      -0.209
      -0.146
      -0.077
      -0.005
       0.053
       0.082
       0.076
       0.047
       0.009
      -0.024
      -0.049
      -0.069
      -0.094
      -0.124
      -0.145
      -0.150
      -0.140
      -0.131
      -0.136
      -0.156
      -0.182
      -0.204
      -0.216
      -0.221
      -0.223
      -0.216
      -0.185
      -0.123
      -0.039
       0.046
       0.121
       0.185
       0.244
       0.300
       0.352
       0.391
       0.407
       0.398
       0.369
       0.326
       0.273
       0.212
       0.154
       0.110
       0.088
       0.088
       0.102
       0.118
       0.120
       0.103
       0.073
       0.038
       0.001
      -0.037
      -0.073
      -0.100
      -0.113
      -0.114
      -0.106
      -0.101
      -0.111
      -0.142
      -0.188
      -0.238
      -0.283
      -0.314
      -0.326
      -0.312
      -0.278
      -0.232
      -0.184
      -0.136
      -0.089
      -0.042
       0.006
       0.049
       0.081
       0.101
       0.116
       0.137
       0.158
       0.172
       0.177
       0.178
       0.181
       0.189
       0.203
       0.220
       0.232
       0.234
       0.223
       0.202
       0.170
       0.129
       0.084
       0.044
       0.012
      -0.008
      -0.015
      -0.011
      -0.003
       0.003
       0.007
       0.008
      -0.001
      -0.025
      -0.069
      -0.128
      -0.190
      -0.242
      -0.268
      -0.262
      -0.233
      -0.195
      -0.158
      -0.119
      -0.076
      -0.025
       0.034
       0.091
       0.137
       0.161
       0.165
       0.151
       0.124
       0.089
       0.057
       0.036
       0.022
       0.007
      -0.018
      -0.049
      -0.081
      -0.104
      -0.118
      -0.129
      -0.149
      -0.182
      -0.225
      -0.266
      -0.294
      -0.304
      -0.291
      -0.258
      -0.210
      -0.157
      -0.103
      -0.053
      -0.012
       0.018
       0.039
       0.056
       0.067
       0.065
       0.050
       0.026
       0.000
      -0.022
      -0.036
      -0.041
      -0.043
      -0.049
      -0.061
      -0.078
      -0.096
      -0.104
      -0.094
      -0.066
      -0.029
       0.006
       0.035
       0.068
       0.106
       0.148
       0.188
       0.220
       0.239
       0.242
       0.230
       0.207
       0.171
       0.122
       0.063
       0.003
      -0.050
      -0.095
      -0.131
      -0.154
      -0.164
      -0.159
      -0.136
      -0.095
      -0.045
       0.007
       0.060
       0.114
       0.168
       0.214
       0.242
       0.245
       0.219
       0.166
       0.097
       0.026
      -0.042
      -0.102
      -0.150
      -0.185
      -0.208
      -0.227
      -0.245
      -0.266
      -0.293
      -0.323
      -0.347
      -0.351
      -0.324
      -0.269
      -0.193
      -0.110
      -0.033
       0.032
       0.089
       0.144
       0.196
       0.241
       0.274
       0.298
       0.318
       0.340
       0.373
       0.420
       0.474
       0.520
       0.543
       0.534
       0.491
       0.426
       0.357
       0.301
       0.257
       0.213
       0.162
       0.103
       0.044
      -0.009
      -0.049
      -0.074
      -0.092
      -0.111
      -0.136
      -0.161
      -0.179
      -0.177
      -0.153
      -0.113
      -0.076
      -0.061
      -0.072
      -0.102
      -0.144
      -0.195
      -0.255
      -0.320
      -0.384
      -0.440
      -0.479
      -0.496
      -0.491
      -0.467
      -0.421
      -0.350
      -0.254
      -0.143
      -0.023
       0.095
       0.201
       0.288
       0.351
       0.391
       0.407
       0.395
       0.356
       0.300
       0.235
       0.167
       0.107
       0.066
       0.052
       0.070
       0.121
       0.203
       0.300
       0.386
       0.438
       0.445
       0.404
       0.324
       0.221
       0.109
      -0.001
      -0.101
      -0.181
      -0.235
      -0.266
      -0.286
      -0.308
      -0.336
      -0.367
      -0.390
      -0.393
      -0.368
      -0.322
      -0.267
      -0.210
      -0.152
      -0.094
      -0.039
       0.007
       0.041
       0.062
       0.066
       0.055
       0.026
      -0.023
      -0.092
      -0.175
      -0.258
      -0.335
      -0.400
      -0.448
      -0.464
      -0.435
      -0.356
      -0.232
      -0.084
       0.060
       0.172
       0.243
       0.276
       0.282
       0.269
       0.242
       0.208
       0.172
       0.137
       0.110
       0.098
       0.102
       0.117
       0.136
       0.152
       0.156
       0.135
       0.085
       0.011
      -0.078
      -0.175
      -0.264
      -0.334
      -0.375
      -0.383
      -0.357
      -0.298
      -0.212
      -0.109
       0.003
       0.116
       0.222
       0.309
       0.374
       0.417
       0.440
       0.437
       0.405
       0.347
       0.272
       0.193
       0.121
       0.063
       0.012
      -0.039
      -0.093
      -0.142
      -0.179
      -0.202
      -0.210
      -0.201
      -0.179
      -0.147
      -0.112
      -0.082
      -0.066
      -0.066
      -0.075
      -0.081
      -0.074
      -0.053
      -0.017
       0.030
       0.081
       0.123
       0.153
       0.169
       0.174
       0.170
       0.162
       0.157
       0.161
       0.172
       0.190
       0.210
       0.230
       0.244
       0.249
       0.244
       0.221
       0.172
       0.097
       0.007
      -0.084
      -0.166
      -0.234
      -0.282
      -0.303
      -0.294
      -0.259
      -0.206
      -0.153
      -0.121
      -0.121
      -0.153
      -0.204
      -0.261
      -0.305
      -0.323
      -0.309
      -0.267
      -0.201
      -0.123
      -0.048
       0.004
       0.025
       0.018
      -0.008
      -0.043
      -0.079
      -0.106
      -0.118
      -0.115
      -0.097
      -0.060
      -0.009
       0.050
       0.105
       0.144
       0.155
       0.131
       0.084
       0.035
      -0.001
      -0.018
      -0.015
       0.010
       0.064
       0.147
       0.251
       0.357
       0.440
       0.474
       0.448
       0.371
       0.259
       0.131
       0.004
      -0.106
      -0.193
      -0.254
      -0.287
      -0.289
      -0.262
      -0.216
      -0.159
      -0.098
      -0.040
       0.007
       0.042
       0.068
       0.092
       0.117
       0.145
       0.172
       0.188
       0.180
       0.143
       0.084
       0.018
      -0.043
      -0.092
      -0.127
      -0.151
      -0.168
      -0.183
      -0.194
      -0.203
      -0.213
      -0.219
      -0.216
      -0.204
      -0.186
      -0.162
      -0.132
      -0.095
      -0.054
      -0.014
       0.028
       0.068
       0.105
       0.134
       0.157
       0.175
       0.190
       0.200
       0.202
       0.190
       0.163
       0.125
       0.087
       0.055
       0.028
      -0.002
      -0.036
      -0.072
      -0.107
      -0.135
      -0.149
      -0.145
      -0.129
      -0.103
      -0.068
      -0.026
       0.025
       0.085
       0.154
       0.223
       0.273
       0.294
       0.286
       0.258
       0.222
       0.187
       0.160
       0.143
       0.132
       0.118
       0.095
       0.057
       0.001
      -0.063
      -0.120
      -0.159
      -0.183
      -0.199
      -0.208
      -0.209
      -0.199
      -0.174
      -0.134
      -0.084
      -0.035
       0.011
       0.059
       0.113
       0.172
       0.229
       0.283
       0.329
       0.365
       0.390
       0.405
       0.406
       0.393
       0.367
       0.333
       0.290
       0.225
       0.128
       0.000
      -0.152
      -0.309
      -0.453
      -0.565
      -0.635
      -0.663
      -0.649
      -0.595
      -0.514
      -0.426
      -0.346
      -0.273
      -0.198
      -0.111
      -0.014
       0.083
       0.170
       0.241
       0.301
       0.354
       0.397
       0.410
       0.380
       0.308
       0.213
       0.111
       0.014
      -0.073
      -0.150
      -0.213
      -0.258
      -0.282
      -0.294
      -0.304
      -0.312
      -0.307
      -0.272
      -0.208
      -0.126
      -0.043
       0.028
       0.081
       0.120
       0.147
       0.159
       0.145
       0.105
       0.053
       0.009
      -0.019
      -0.033
      -0.044
      -0.063
      -0.095
      -0.136
      -0.177
      -0.210
      -0.234
      -0.241
      -0.225
      -0.184
      -0.136
      -0.104
      -0.103
      -0.134
      -0.188
      -0.250
      -0.302
      -0.335
      -0.345
      -0.326
      -0.266
      -0.160
      -0.019
       0.136
       0.280
       0.403
       0.502
       0.585
       0.656
       0.713
       0.744
       0.741
       0.703
       0.634
       0.539
       0.427
       0.309
       0.195
       0.085
      -0.026
      -0.137
      -0.243
      -0.327
      -0.375
      -0.375
      -0.338
      -0.288
      -0.244
      -0.213
      -0.190
      -0.170
      -0.150
      -0.130
      -0.112
      -0.103
      -0.104
      -0.111
      -0.120
      -0.125
      -0.125
      -0.113
      -0.090
      -0.064
      -0.043
      -0.029
      -0.015
       0.008
       0.046
       0.099
       0.156
       0.197
       0.208
       0.190
       0.150
       0.099
       0.045
      -0.003
      -0.038
      -0.057
      -0.062
      -0.050
      -0.021
       0.020
       0.066
       0.109
       0.141
       0.153
       0.145
       0.125
       0.102
       0.086
       0.077
       0.077
       0.083
       0.091
       0.095
       0.093
       0.087
       0.077
       0.063
       0.049
       0.038
       0.032
       0.033
       0.042
       0.055
       0.060
       0.049
       0.022
      -0.012
      -0.048
      -0.080
      -0.108
      -0.132
      -0.154
      -0.173
      -0.183
      -0.183
      -0.179
      -0.181
      -0.187
      -0.188
      -0.177
      -0.155
      -0.127
      -0.101
      -0.083
      -0.070
      -0.057
      -0.039
      -0.021
      -0.009
      -0.002
       0.009
       0.026
       0.045
       0.057
       0.053
       0.033
       0.006
      -0.010
      -0.004
       0.018
       0.040
       0.054
       0.060
       0.064
       0.071
       0.088
       0.114
       0.142
       0.163
       0.167
       0.156
       0.133
       0.108
       0.095
       0.092
       0.086
       0.056
      -0.006
      -0.092
      -0.182
      -0.254
      -0.292
      -0.294
      -0.274
      -0.244
      -0.207
      -0.157
      -0.096
      -0.031
       0.024
       0.060
       0.072
       0.066
       0.052
       0.039
       0.029
       0.022
       0.020
       0.020
       0.014
      -0.008
      -0.046
      -0.086
      -0.116
      -0.127
      -0.119
      -0.098
      -0.075
      -0.053
      -0.025
       0.016
       0.067
       0.118
       0.162
       0.195
       0.213
       0.217
       0.207
       0.189
       0.169
       0.151
       0.142
       0.136
       0.120
       0.080
       0.018
      -0.051
      -0.108
      -0.144
      -0.161
      -0.166
      -0.163
      -0.146
      -0.106
      -0.048
       0.005
       0.028
       0.016
      -0.016
      -0.044
      -0.053
      -0.041
      -0.012
       0.027
       0.070
       0.115
       0.151
       0.162
       0.135
       0.074
      -0.005
      -0.086
      -0.156
      -0.205
      -0.225
      -0.215
      -0.179
      -0.129
      -0.078
      -0.034
       0.004
       0.044
       0.093
       0.143
       0.182
       0.207
       0.229
       0.252
       0.277
       0.293
       0.288
       0.252
       0.187
       0.108
       0.037
      -0.011
      -0.036
      -0.039
      -0.028
      -0.016
      -0.014
      -0.026
      -0.047
      -0.067
      -0.069
      -0.043
       0.010
       0.070
       0.110
       0.120
       0.102
       0.065
       0.015
      -0.049
      -0.126
      -0.216
      -0.307
      -0.379
      -0.412
      -0.399
      -0.347
      -0.268
      -0.175
      -0.086
      -0.013
       0.041
       0.081
       0.114
       0.142
       0.165
       0.179
       0.173
       0.146
       0.105
       0.065
       0.031
      -0.002
      -0.037
      -0.072
      -0.094
      -0.092
      -0.062
      -0.005
       0.065
       0.136
       0.203
       0.260
       0.298
       0.312
       0.305
       0.283
       0.251
       0.207
       0.146
       0.070
      -0.010
      -0.080
      -0.124
      -0.140
      -0.141
      -0.145
      -0.156
      -0.172
      -0.187
      -0.202
      -0.222
      -0.245
      -0.267
      -0.279
      -0.270
      -0.232
      -0.168
      -0.081
       0.027
       0.155
       0.288
       0.401
       0.469
       0.476
       0.418
       0.309
       0.172
       0.031
      -0.096
      -0.197
      -0.266
      -0.303
      -0.319
      -0.330
      -0.342
      -0.348
      -0.333
      -0.287
      -0.207
      -0.101
       0.008
       0.098
       0.159
       0.193
       0.208
       0.207
       0.196
       0.176
       0.150
       0.120
       0.093
       0.073
       0.060
       0.048
       0.039
       0.032
       0.022
      -0.001
      -0.043
      -0.098
      -0.156
      -0.204
      -0.231
      -0.235
      -0.227
      -0.218
      -0.211
      -0.196
      -0.166
      -0.118
      -0.053
       0.028
       0.119
       0.208
       0.283
       0.331
       0.341
       0.311
       0.249
       0.172
       0.093
       0.018
      -0.047
      -0.094
      -0.117
      -0.117
      -0.100
      -0.077
      -0.062
      -0.066
      -0.084
      -0.106
      -0.128
      -0.154
      -0.182
      -0.204
      -0.204
      -0.171
      -0.103
      -0.008
       0.100
       0.206
       0.301
       0.379
       0.432
       0.447
       0.417
       0.350
       0.261
       0.171
       0.098
       0.054
       0.034
       0.024
       0.011
      -0.010
      -0.046
      -0.102
      -0.175
      -0.258
      -0.341
      -0.414
      -0.469
      -0.499
      -0.507
      -0.497
      -0.469
      -0.420
      -0.355
      -0.284
      -0.220
      -0.169
      -0.128
      -0.095
      -0.060
      -0.019
       0.024
       0.056
       0.066
       0.052
       0.027
       0.004
      -0.007
      -0.004
       0.005
       0.008
       0.004
      -0.001
      -0.001
       0.004
       0.015
       0.035
       0.071
       0.124
       0.193
       0.272
