Origin Time       09/01/2013 07:44:20
Lat.              29.75 N
Long.             81.74 E
Depth (Km)         34.0
Magnitude         5.0
 Region           NEPAL                                                            
 Above details taken from IIT 
     
Station Code      CHP
Station Lat.       29.334  N
Station Long.      80.095  E
Station Height(m) 1635.0
Site Class        A   Vs30 between 700 m/sec to 1400 m/sec * 
Record Time       09.01.2013 07:44:51.789
Sampling Rate     200. Hz
 Record Duration   67.965 Sec.
 Direction         E-W (E positive)
Max. Acceleration      3.090 cm/sec**2
     
  * For reference see Site Classification link of website 
     
 Base Line Corrected and Low Pass Filtered (Cut Off at 35 Hz) Time History
 Acceleration data in cm/sec**2
    
[...]
      -0.016
      -0.051
      -0.061
      -0.050
      -0.020
       0.022
       0.064
       0.090
       0.086
       0.048
      -0.013
      -0.073
      -0.108
      -0.101
      -0.060
      -0.002
       0.052
       0.087
       0.100
       0.095
       0.082
       0.067
       0.051
       0.039
       0.036
       0.044
       0.061
       0.085
       0.113
       0.143
       0.166
       0.174
       0.161
       0.128
       0.079
       0.023
      -0.031
      -0.073
      -0.103
      -0.118
      -0.115
      -0.091
      -0.051
      -0.002
       0.044
       0.079
       0.101
       0.117
       0.133
       0.146
       0.144
       0.119
       0.074
       0.020
      -0.032
      -0.075
      -0.107
      -0.128
      -0.147
      -0.166
      -0.187
      -0.210
      -0.236
      -0.265
      -0.294
      -0.315
      -0.321
      -0.307
      -0.271
      -0.218
      -0.158
      -0.098
      -0.040
       0.015
       0.064
       0.107
       0.143
       0.170
       0.182
       0.174
       0.150
       0.122
       0.100
       0.095
       0.112
       0.146
       0.187
       0.228
       0.260
       0.273
       0.260
       0.221
       0.167
       0.113
       0.068
       0.038
       0.020
       0.012
       0.008
       0.009
       0.013
       0.012
      -0.005
      -0.047
      -0.107
      -0.171
      -0.224
      -0.255
      -0.261
      -0.246
      -0.219
      -0.184
      -0.142
      -0.096
      -0.055
      -0.030
      -0.023
      -0.030
      -0.044
      -0.050
      -0.032
       0.019
       0.098
       0.190
       0.272
       0.326
       0.343
       0.327
       0.292
       0.248
       0.201
       0.154
       0.110
       0.066
       0.019
      -0.040
      -0.110
      -0.189
      -0.268
      -0.337
      -0.387
      -0.415
      -0.424
      -0.417
      -0.402
      -0.380
      -0.351
      -0.311
      -0.257
      -0.188
      -0.111
      -0.032
       0.044
       0.113
       0.171
       0.213
       0.236
       0.241
       0.232
       0.223
       0.231
       0.263
       0.313
       0.364
       0.398
       0.400
       0.364
       0.297
       0.212
       0.123
       0.039
      -0.034
      -0.094
      -0.141
      -0.173
      -0.186
      -0.182
      -0.171
      -0.167
      -0.175
      -0.185
      -0.185
      -0.167
      -0.132
      -0.086
      -0.031
       0.032
       0.097
       0.156
       0.187
       0.177
       0.128
       0.060
       0.001
      -0.030
      -0.032
      -0.013
       0.010
       0.024
       0.019
      -0.011
      -0.063
      -0.127
      -0.184
      -0.214
      -0.210
      -0.176
      -0.123
      -0.068
      -0.024
       0.000
       0.006
       0.005
       0.011
       0.031
       0.064
       0.097
       0.117
       0.115
       0.096
       0.073
       0.056
       0.051
       0.055
       0.065
       0.079
       0.091
       0.102
       0.110
       0.116
       0.118
       0.119
       0.123
       0.130
       0.139
       0.146
       0.148
       0.138
       0.113
       0.079
       0.045
       0.018
      -0.006
      -0.032
      -0.068
      -0.118
      -0.176
      -0.228
      -0.259
      -0.264
      -0.248
      -0.219
      -0.185
      -0.151
      -0.116
      -0.077
      -0.035
      -0.001
       0.017
       0.018
       0.010
       0.008
       0.022
       0.053
       0.089
       0.112
       0.106
       0.073
       0.025
      -0.023
      -0.063
      -0.094
      -0.121
      -0.154
      -0.191
      -0.224
      -0.236
      -0.221
      -0.179
      -0.117
      -0.044
       0.033
       0.103
       0.156
       0.178
       0.162
       0.114
       0.053
       0.002
      -0.025
      -0.024
      -0.002
       0.029
       0.054
       0.064
       0.061
       0.057
       0.058
       0.063
       0.068
       0.068
       0.062
       0.055
       0.051
       0.050
       0.047
       0.041
       0.032
       0.022
       0.009
      -0.012
      -0.041
      -0.074
      -0.104
      -0.121
      -0.117
      -0.095
      -0.068
      -0.055
      -0.061
      -0.075
      -0.078
      -0.054
       0.002
       0.075
       0.141
       0.179
       0.185
       0.167
       0.143
       0.128
       0.130
       0.147
       0.167
       0.181
       0.185
       0.174
       0.141
       0.081
      -0.001
      -0.091
      -0.169
      -0.217
      -0.223
      -0.183
      -0.108
      -0.020
       0.054
       0.091
       0.085
       0.052
       0.022
       0.020
       0.050
       0.097
       0.146
       0.186
       0.214
       0.229
       0.232
       0.218
       0.182
       0.125
       0.059
      -0.007
      -0.069
      -0.131
      -0.194
      -0.257
      -0.312
      -0.350
      -0.361
      -0.344
      -0.306
      -0.258
      -0.209
      -0.170
      -0.145
      -0.132
      -0.117
      -0.089
      -0.047
       0.006
       0.064
       0.126
       0.189
       0.247
       0.291
       0.304
       0.275
       0.206
       0.107
      -0.006
      -0.121
      -0.221
      -0.291
      -0.322
      -0.315
      -0.286
      -0.251
      -0.228
      -0.222
      -0.224
      -0.220
      -0.200
      -0.163
      -0.115
      -0.059
       0.005
       0.073
       0.140
       0.202
       0.254
       0.293
       0.317
       0.324
       0.315
       0.287
       0.237
       0.168
       0.082
      -0.017
      -0.121
      -0.216
      -0.288
      -0.333
      -0.353
      -0.349
      -0.319
      -0.260
      -0.174
      -0.070
       0.029
       0.100
       0.132
       0.127
       0.093
       0.043
      -0.012
      -0.056
      -0.079
      -0.077
      -0.054
      -0.018
       0.017
       0.037
       0.037
       0.018
      -0.008
      -0.030
      -0.028
       0.010
       0.088
       0.197
       0.316
       0.424
       0.501
       0.537
       0.532
       0.493
       0.428
       0.342
       0.238
       0.122
       0.006
      -0.096
      -0.169
      -0.208
      -0.223
      -0.236
      -0.266
      -0.322
      -0.400
      -0.485
      -0.553
      -0.583
      -0.563
      -0.491
      -0.373
      -0.220
      -0.055
       0.098
       0.222
       0.314
       0.374
       0.403
       0.406
       0.392
       0.370
       0.350
       0.337
       0.329
       0.323
       0.308
       0.276
       0.221
       0.139
       0.030
      -0.101
      -0.241
      -0.378
      -0.497
      -0.583
      -0.620
      -0.605
      -0.546
      -0.463
      -0.378
      -0.309
      -0.266
      -0.246
      -0.241
      -0.237
      -0.220
      -0.176
      -0.102
      -0.011
       0.076
       0.144
       0.192
       0.229
       0.263
       0.299
       0.339
       0.376
       0.405
       0.421
       0.419
       0.396
       0.354
       0.305
       0.263
       0.238
       0.231
       0.239
       0.257
       0.278
       0.291
       0.283
       0.244
       0.168
       0.061
      -0.060
      -0.177
      -0.274
      -0.341
      -0.374
      -0.372
      -0.347
      -0.316
      -0.293
      -0.294
      -0.327
      -0.398
      -0.496
      -0.603
      -0.691
      -0.738
      -0.724
      -0.645
      -0.507
      -0.332
      -0.146
       0.026
       0.160
       0.245
       0.288
       0.311
       0.340
       0.390
       0.467
       0.566
       0.675
       0.774
       0.841
       0.858
       0.813
       0.710
       0.567
       0.407
       0.250
       0.110
      -0.011
      -0.113
      -0.202
      -0.285
      -0.362
      -0.433
      -0.497
      -0.560
      -0.621
      -0.679
      -0.731
      -0.771
      -0.789
      -0.773
      -0.714
      -0.610
      -0.467
      -0.292
      -0.100
       0.093
       0.273
       0.437
       0.581
       0.709
       0.817
       0.895
       0.931
       0.918
       0.861
       0.776
       0.679
       0.574
       0.458
       0.325
       0.169
      -0.006
      -0.183
      -0.343
      -0.467
      -0.541
      -0.543
      -0.461
      -0.299
      -0.087
       0.129
       0.306
       0.419
       0.465
       0.466
       0.448
       0.433
       0.435
       0.463
       0.514
       0.574
       0.622
       0.634
       0.596
       0.500
       0.354
       0.176
      -0.005
      -0.160
      -0.269
      -0.325
      -0.337
      -0.329
      -0.333
      -0.372
      -0.453
      -0.563
      -0.675
      -0.756
      -0.785
      -0.760
      -0.693
      -0.598
      -0.497
      -0.415
      -0.365
      -0.342
      -0.327
      -0.300
      -0.250
      -0.179
      -0.098
      -0.022
       0.039
       0.085
       0.121
       0.147
       0.158
       0.149
       0.114
       0.050
      -0.043
      -0.157
      -0.277
      -0.382
      -0.451
      -0.464
      -0.413
      -0.304
      -0.151
       0.025
       0.200
       0.348
       0.452
       0.506
       0.519
       0.504
       0.473
       0.431
       0.379
       0.309
       0.221
       0.117
       0.009
      -0.093
      -0.177
      -0.235
      -0.270
      -0.290
      -0.307
      -0.322
      -0.324
      -0.301
      -0.246
      -0.160
      -0.053
       0.056
       0.153
       0.229
       0.277
       0.291
       0.278
       0.262
       0.269
       0.315
       0.398
       0.496
       0.581
       0.626
       0.615
       0.550
       0.442
       0.310
       0.184
       0.094
       0.061
       0.084
       0.142
       0.209
       0.264
       0.301
       0.328
       0.361
       0.418
       0.509
       0.638
       0.792
       0.944
       1.056
       1.096
       1.052
       0.924
       0.723
       0.462
       0.155
      -0.187
      -0.550
      -0.912
      -1.246
      -1.519
      -1.711
      -1.810
      -1.822
      -1.764
      -1.664
      -1.544
      -1.417
      -1.287
      -1.155
      -1.023
      -0.885
      -0.733
      -0.555
      -0.350
      -0.124
       0.105
       0.321
       0.517
       0.696
       0.854
       0.977
       1.047
       1.059
       1.024
       0.961
       0.881
       0.778
       0.632
       0.434
       0.195
      -0.071
      -0.357
      -0.667
      -0.989
      -1.297
      -1.556
      -1.742
      -1.851
      -1.895
      -1.885
      -1.833
      -1.742
      -1.619
      -1.474
      -1.322
      -1.167
      -0.994
      -0.783
      -0.514
      -0.184
       0.193
       0.585
       0.955
       1.270
       1.516
       1.695
       1.825
       1.929
       2.023
       2.106
       2.162
       2.168
       2.106
       1.960
       1.720
       1.391
       0.993
       0.560
       0.137
      -0.237
      -0.532
      -0.731
      -0.829
      -0.821
      -0.710
      -0.512
      -0.252
       0.039
       0.335
       0.612
       0.846
       1.018
       1.116
       1.133
       1.070
       0.934
       0.747
       0.535
       0.323
       0.127
      -0.051
      -0.213
      -0.364
      -0.494
      -0.592
      -0.651
      -0.676
      -0.678
      -0.672
      -0.671
      -0.693
      -0.752
      -0.851
      -0.981
      -1.118
      -1.239
      -1.324
      -1.365
      -1.358
      -1.304
      -1.201
      -1.053
      -0.869
      -0.661
      -0.439
      -0.223
      -0.035
       0.098
       0.157
       0.141
       0.069
      -0.027
      -0.108
      -0.154
      -0.161
      -0.139
      -0.100
      -0.047
       0.025
       0.129
       0.278
       0.473
       0.706
       0.956
       1.199
       1.404
       1.541
       1.588
       1.534
       1.381
       1.150
       0.876
       0.599
       0.355
       0.159
       0.015
      -0.088
      -0.169
      -0.244
      -0.317
      -0.373
      -0.386
      -0.340
      -0.231
      -0.075
       0.104
       0.285
       0.462
       0.628
       0.773
       0.874
       0.903
       0.843
       0.696
       0.490
       0.272
       0.084
      -0.052
      -0.135
      -0.179
      -0.200
      -0.220
      -0.263
      -0.356
      -0.512
      -0.726
      -0.968
      -1.189
      -1.348
      -1.432
      -1.457
      -1.445
      -1.412
      -1.354
      -1.255
      -1.100
      -0.883
      -0.618
      -0.330
      -0.046
       0.213
       0.432
       0.600
       0.719
       0.798
       0.847
       0.878
       0.898
       0.911
       0.916
       0.908
       0.879
       0.820
       0.722
       0.583
       0.414
       0.234
       0.053
      -0.123
      -0.293
      -0.449
      -0.571
      -0.634
      -0.614
      -0.500
      -0.306
      -0.069
       0.166
       0.361
       0.486
       0.529
       0.487
       0.365
       0.175
      -0.063
      -0.321
      -0.567
      -0.773
      -0.923
      -1.008
      -1.021
      -0.967
      -0.852
      -0.688
      -0.485
      -0.253
      -0.001
       0.257
       0.499
       0.701
       0.846
       0.942
       1.013
       1.083
       1.166
       1.257
       1.328
       1.343
       1.270
       1.096
       0.825
       0.478
       0.083
      -0.328
      -0.727
      -1.096
      -1.428
      -1.724
      -1.990
      -2.232
      -2.446
      -2.612
      -2.697
      -2.673
      -2.521
      -2.236
      -1.820
      -1.290
      -0.671
      -0.002
       0.677
       1.319
       1.886
       2.353
       2.707
       2.946
       3.072
       3.090
       3.008
       2.839
       2.596
       2.296
       1.948
       1.566
       1.170
       0.787
       0.438
       0.121
      -0.179
      -0.476
      -0.774
      -1.066
      -1.336
      -1.564
      -1.733
      -1.827
      -1.833
      -1.737
      -1.534
      -1.228
      -0.837
      -0.393
       0.060
       0.473
       0.803
       1.031
       1.162
       1.220
       1.234
       1.227
       1.212
       1.189
       1.147
       1.074
       0.961
       0.810
       0.634
       0.445
       0.246
       0.027
      -0.225
      -0.506
      -0.794
      -1.057
      -1.264
      -1.392
      -1.442
      -1.437
      -1.403
      -1.358
      -1.303
      -1.226
      -1.115
      -0.964
      -0.785
      -0.595
      -0.404
      -0.206
       0.004
       0.222
       0.430
       0.602
       0.713
       0.754
       0.724
       0.636
       0.505
       0.346
       0.177
       0.017
      -0.119
      -0.225
      -0.296
      -0.331
      -0.332
      -0.310
      -0.283
      -0.265
      -0.265
      -0.280
      -0.297
      -0.297
      -0.265
      -0.196
      -0.092
       0.042
       0.198
       0.360
       0.507
       0.620
       0.683
       0.693
       0.665
       0.617
       0.566
       0.518
       0.472
       0.421
       0.349
       0.239
       0.075
      -0.137
      -0.385
      -0.649
      -0.907
      -1.140
      -1.334
      -1.477
      -1.559
      -1.574
      -1.525
      -1.420
      -1.266
      -1.060
      -0.799
      -0.486
      -0.128
       0.259
       0.651
       1.012
       1.307
       1.507
       1.601
       1.598
       1.517
       1.384
       1.223
       1.049
       0.875
       0.707
       0.546
       0.385
       0.224
       0.070
      -0.069
      -0.184
      -0.266
      -0.308
      -0.311
      -0.282
      -0.227
      -0.148
      -0.051
       0.051
       0.145
       0.222
       0.275
       0.309
       0.345
       0.405
       0.502
       0.626
       0.745
       0.816
       0.802
       0.689
       0.492
       0.246
      -0.010
      -0.242
      -0.432
      -0.568
      -0.655
      -0.705
      -0.734
      -0.755
      -0.782
      -0.819
      -0.862
      -0.893
      -0.893
      -0.857
      -0.792
      -0.719
      -0.661
      -0.632
      -0.632
      -0.653
      -0.690
      -0.733
      -0.763
      -0.752
      -0.681
      -0.546
      -0.363
      -0.158
       0.051
       0.257
       0.461
       0.660
       0.841
       0.976
       1.039
       1.018
       0.918
       0.765
       0.593
       0.426
       0.265
       0.102
      -0.066
      -0.222
      -0.336
      -0.382
      -0.352
      -0.264
      -0.151
      -0.041
       0.058
       0.161
       0.291
       0.466
       0.683
       0.913
       1.108
       1.220
       1.228
       1.147
       1.014
       0.868
       0.733
       0.614
       0.509
       0.410
       0.311
       0.198
       0.049
      -0.162
      -0.440
      -0.760
      -1.077
      -1.341
      -1.513
      -1.576
      -1.540
      -1.430
      -1.273
      -1.089
      -0.891
      -0.688
      -0.486
      -0.287
      -0.089
       0.116
       0.337
       0.571
       0.798
       0.991
       1.131
       1.210
       1.229
       1.188
       1.091
       0.943
       0.753
       0.536
       0.314
       0.110
      -0.054
      -0.157
      -0.185
      -0.133
      -0.018
       0.121
       0.239
       0.302
       0.297
       0.243
       0.180
       0.146
       0.156
       0.198
       0.238
       0.238
       0.170
       0.027
      -0.176
      -0.416
      -0.668
      -0.917
      -1.147
      -1.344
      -1.494
      -1.590
      -1.624
      -1.596
      -1.508
      -1.368
      -1.180
      -0.956
      -0.713
      -0.469
      -0.232
      -0.001
       0.234
       0.479
       0.735
       0.995
       1.247
       1.479
       1.686
       1.867
       2.016
       2.121
       2.157
       2.106
       1.963
       1.748
       1.495
       1.227
       0.942
       0.616
       0.226
      -0.227
      -0.715
      -1.186
      -1.582
      -1.852
      -1.973
      -1.952
      -1.827
      -1.650
      -1.474
      -1.328
      -1.215
      -1.115
      -1.002
      -0.860
      -0.683
      -0.476
      -0.259
      -0.056
       0.115
       0.248
       0.347
       0.430
       0.518
       0.620
       0.734
       0.851
       0.965
       1.075
       1.179
       1.265
       1.322
       1.342
       1.323
       1.276
       1.215
       1.145
       1.057
       0.935
       0.770
       0.566
       0.339
       0.104
      -0.129
      -0.366
      -0.616
      -0.876
      -1.123
      -1.322
      -1.436
      -1.449
      -1.367
      -1.223
      -1.072
      -0.954
      -0.878
      -0.818
      -0.735
      -0.597
      -0.404
      -0.181
       0.033
       0.205
       0.318
       0.369
       0.364
       0.317
       0.255
       0.205
       0.181
       0.188
       0.218
       0.259
       0.300
       0.331
       0.348
       0.348
       0.330
       0.287
       0.214
       0.108
      -0.031
      -0.190
      -0.344
      -0.466
      -0.531
      -0.527
      -0.462
      -0.363
      -0.271
      -0.217
      -0.203
      -0.205
      -0.191
      -0.139
      -0.053
       0.042
       0.111
       0.134
       0.107
       0.051
      -0.011
      -0.060
      -0.087
      -0.100
      -0.109
      -0.123
      -0.141
      -0.161
      -0.179
      -0.191
      -0.183
      -0.149
      -0.083
       0.010
       0.119
       0.228
       0.316
       0.376
       0.417
       0.459
       0.514
       0.576
       0.625
       0.630
       0.572
       0.453
       0.293
