Origin Time       18/9/2011 12:40:47	
Lat.              27.6 N	
Long.             88.2 E	
Depth (Km)         10.0
Magnitude         6.8
 Region           India(Sikkim)-Nepar-Border                                       
 Above details taken from IMD 
   
Station Code      CHP
Station Lat.       29.334
Station Long.      80.095
Station Height(m) 1635.0
Site Class        A   Vs30 between 700 m/sec to 1400 m/sec * 
Record Time       18.09.2011 12:43:44.639
Sampling Rate     200. Hz
 Record Duration   67.160 Sec.
 Direction         Vert. (Up positive)
Max. Acceleration     -1.144 cm/sec**2
     
  * For reference see Site Classification link of website 
     
 Base Line Corrected and Low Pass Filtered (Cut Off at 35 Hz) Time History
 Acceleration data in cm/sec**2
    
[...]
       0.043
      -0.049
      -0.159
      -0.242
      -0.272
      -0.247
      -0.188
      -0.131
      -0.093
      -0.062
      -0.023
       0.006
      -0.007
      -0.070
      -0.156
      -0.229
      -0.262
      -0.243
      -0.181
      -0.104
      -0.033
       0.036
       0.109
       0.160
       0.150
       0.086
       0.015
      -0.012
       0.020
       0.091
       0.164
       0.202
       0.197
       0.183
       0.199
       0.244
       0.276
       0.267
       0.215
       0.131
       0.033
      -0.050
      -0.085
      -0.070
      -0.032
       0.002
       0.026
       0.048
       0.075
       0.109
       0.138
       0.130
       0.060
      -0.051
      -0.148
      -0.199
      -0.209
      -0.201
      -0.181
      -0.153
      -0.121
      -0.089
      -0.060
      -0.046
      -0.052
      -0.054
      -0.025
       0.024
       0.050
       0.031
      -0.008
      -0.017
       0.036
       0.145
       0.272
       0.353
       0.339
       0.229
       0.066
      -0.110
      -0.277
      -0.412
      -0.477
      -0.451
      -0.354
      -0.228
      -0.105
      -0.005
       0.063
       0.111
       0.150
       0.167
       0.140
       0.084
       0.049
       0.072
       0.142
       0.214
       0.253
       0.238
       0.157
       0.023
      -0.132
      -0.278
      -0.390
      -0.441
      -0.402
      -0.290
      -0.159
      -0.059
       0.011
       0.072
       0.132
       0.182
       0.208
       0.195
       0.140
       0.063
       0.002
      -0.027
      -0.048
      -0.081
      -0.115
      -0.121
      -0.097
      -0.065
      -0.048
      -0.061
      -0.104
      -0.147
      -0.152
      -0.110
      -0.062
      -0.049
      -0.071
      -0.098
      -0.109
      -0.102
      -0.082
      -0.062
      -0.060
      -0.072
      -0.072
      -0.046
      -0.013
       0.005
       0.014
       0.031
       0.055
       0.066
       0.059
       0.034
      -0.007
      -0.047
      -0.052
       0.006
       0.114
       0.238
       0.347
       0.409
       0.387
       0.270
       0.096
      -0.076
      -0.210
      -0.300
      -0.339
      -0.319
      -0.253
      -0.166
      -0.082
      -0.020
       0.000
      -0.019
      -0.043
      -0.041
      -0.022
      -0.018
      -0.035
      -0.049
      -0.036
       0.009
       0.075
       0.143
       0.185
       0.194
       0.194
       0.206
       0.216
       0.199
       0.160
       0.134
       0.136
       0.146
       0.133
       0.078
      -0.020
      -0.133
      -0.212
      -0.221
      -0.177
      -0.127
      -0.097
      -0.084
      -0.088
      -0.117
      -0.165
      -0.211
      -0.232
      -0.214
      -0.141
      -0.017
       0.111
       0.185
       0.183
       0.125
       0.035
      -0.073
      -0.172
      -0.217
      -0.183
      -0.075
       0.079
       0.235
       0.334
       0.333
       0.238
       0.098
      -0.041
      -0.156
      -0.222
      -0.206
      -0.106
       0.048
       0.212
       0.350
       0.438
       0.469
       0.462
       0.444
       0.414
       0.351
       0.260
       0.173
       0.100
       0.015
      -0.108
      -0.257
      -0.390
      -0.463
      -0.442
      -0.320
      -0.137
       0.044
       0.179
       0.259
       0.275
       0.210
       0.071
      -0.090
      -0.208
      -0.245
      -0.194
      -0.082
       0.042
       0.132
       0.182
       0.225
       0.274
       0.305
       0.286
       0.221
       0.136
       0.063
       0.027
       0.045
       0.103
       0.156
       0.168
       0.140
       0.081
       0.000
      -0.084
      -0.139
      -0.147
      -0.119
      -0.077
      -0.028
       0.015
       0.027
      -0.006
      -0.064
      -0.114
      -0.139
      -0.133
      -0.096
      -0.040
       0.008
       0.045
       0.093
       0.155
       0.198
       0.182
       0.110
       0.023
      -0.033
      -0.026
       0.053
       0.176
       0.278
       0.309
       0.264
       0.161
       0.012
      -0.170
      -0.346
      -0.464
      -0.495
      -0.441
      -0.324
      -0.190
      -0.098
      -0.082
      -0.135
      -0.230
      -0.347
      -0.459
      -0.519
      -0.484
      -0.357
      -0.183
      -0.008
       0.133
       0.221
       0.260
       0.272
       0.266
       0.221
       0.120
      -0.009
      -0.117
      -0.173
      -0.177
      -0.140
      -0.084
      -0.044
      -0.045
      -0.076
      -0.104
      -0.109
      -0.075
       0.012
       0.149
       0.295
       0.389
       0.407
       0.359
       0.271
       0.177
       0.115
       0.112
       0.153
       0.204
       0.254
       0.304
       0.346
       0.360
       0.342
       0.295
       0.209
       0.073
      -0.094
      -0.245
      -0.342
      -0.372
      -0.343
      -0.291
      -0.268
      -0.311
      -0.396
      -0.456
      -0.446
      -0.367
      -0.237
      -0.076
       0.096
       0.253
       0.374
       0.443
       0.439
       0.356
       0.231
       0.114
       0.019
      -0.075
      -0.179
      -0.268
      -0.312
      -0.301
      -0.244
      -0.162
      -0.079
      -0.009
       0.058
       0.134
       0.192
       0.182
       0.083
      -0.069
      -0.230
      -0.373
      -0.491
      -0.576
      -0.621
      -0.617
      -0.549
      -0.415
      -0.253
      -0.122
      -0.050
      -0.022
      -0.015
      -0.025
      -0.046
      -0.057
      -0.043
      -0.003
       0.053
       0.116
       0.164
       0.171
       0.132
       0.063
      -0.027
      -0.146
      -0.277
      -0.373
      -0.391
      -0.323
      -0.188
      -0.012
       0.175
       0.338
       0.448
       0.482
       0.417
       0.243
       0.004
      -0.205
      -0.305
      -0.287
      -0.196
      -0.085
       0.017
       0.105
       0.193
       0.287
       0.358
       0.361
       0.285
       0.186
       0.131
       0.147
       0.212
       0.292
       0.354
       0.379
       0.370
       0.345
       0.310
       0.256
       0.184
       0.117
       0.070
       0.020
      -0.057
      -0.156
      -0.247
      -0.308
      -0.333
      -0.326
      -0.310
      -0.311
      -0.333
      -0.352
      -0.346
      -0.323
      -0.298
      -0.272
      -0.238
      -0.205
      -0.181
      -0.153
      -0.092
       0.014
       0.152
       0.287
       0.377
       0.388
       0.330
       0.259
       0.229
       0.245
       0.278
       0.308
       0.336
       0.359
       0.357
       0.305
       0.181
      -0.012
      -0.225
      -0.383
      -0.433
      -0.392
      -0.307
      -0.200
      -0.060
       0.117
       0.295
       0.418
       0.432
       0.317
       0.115
      -0.093
      -0.235
      -0.303
      -0.326
      -0.317
      -0.269
      -0.187
      -0.100
      -0.050
      -0.056
      -0.107
      -0.159
      -0.154
      -0.068
       0.057
       0.157
       0.198
       0.192
       0.165
       0.128
       0.084
       0.036
      -0.017
      -0.067
      -0.096
      -0.092
      -0.073
      -0.070
      -0.093
      -0.127
      -0.163
      -0.196
      -0.219
      -0.214
      -0.171
      -0.095
       0.009
       0.121
       0.207
       0.236
       0.221
       0.202
       0.206
       0.234
       0.276
       0.321
       0.355
       0.364
       0.345
       0.302
       0.230
       0.118
      -0.019
      -0.145
      -0.234
      -0.289
      -0.313
      -0.294
      -0.218
      -0.080
       0.107
       0.307
       0.458
       0.508
       0.454
       0.340
       0.211
       0.078
      -0.068
      -0.229
      -0.399
      -0.560
      -0.674
      -0.704
      -0.647
      -0.525
      -0.362
      -0.163
       0.052
       0.242
       0.362
       0.399
       0.364
       0.289
       0.219
       0.193
       0.217
       0.270
       0.336
       0.413
       0.483
       0.502
       0.431
       0.276
       0.082
      -0.094
      -0.210
      -0.252
      -0.240
      -0.206
      -0.159
      -0.078
       0.038
       0.156
       0.238
       0.280
       0.309
       0.342
       0.377
       0.387
       0.337
       0.210
       0.035
      -0.126
      -0.240
      -0.318
      -0.388
      -0.451
      -0.485
      -0.479
      -0.441
      -0.384
      -0.326
      -0.280
      -0.242
      -0.198
      -0.148
      -0.113
      -0.104
      -0.103
      -0.088
      -0.060
      -0.030
       0.006
       0.057
       0.115
       0.160
       0.172
       0.143
       0.084
       0.036
       0.054
       0.161
       0.316
       0.452
       0.529
       0.545
       0.512
       0.449
       0.374
       0.300
       0.222
       0.146
       0.089
       0.064
       0.051
       0.025
      -0.021
      -0.074
      -0.124
      -0.167
      -0.197
      -0.219
      -0.246
      -0.284
      -0.309
      -0.292
      -0.236
      -0.167
      -0.106
      -0.061
      -0.035
      -0.023
      -0.011
       0.007
       0.017
       0.009
      -0.001
       0.009
       0.035
       0.055
       0.060
       0.064
       0.075
       0.091
       0.106
       0.114
       0.095
       0.046
      -0.014
      -0.059
      -0.091
      -0.130
      -0.183
      -0.233
      -0.263
      -0.262
      -0.225
      -0.157
      -0.084
      -0.038
      -0.021
      -0.012
       0.004
       0.034
       0.091
       0.186
       0.309
       0.423
       0.493
       0.499
       0.423
       0.261
       0.041
      -0.192
      -0.407
      -0.587
      -0.712
      -0.764
      -0.748
      -0.692
      -0.618
      -0.531
      -0.433
      -0.325
      -0.201
      -0.054
       0.101
       0.224
       0.285
       0.271
       0.186
       0.052
      -0.078
      -0.146
      -0.133
      -0.069
       0.012
       0.101
       0.205
       0.327
       0.460
       0.575
       0.621
       0.561
       0.409
       0.223
       0.053
      -0.092
      -0.214
      -0.306
      -0.355
      -0.359
      -0.317
      -0.236
      -0.139
      -0.060
      -0.018
      -0.014
      -0.055
      -0.151
      -0.287
      -0.406
      -0.452
      -0.399
      -0.262
      -0.086
       0.065
       0.139
       0.140
       0.114
       0.096
       0.074
       0.021
      -0.073
      -0.196
      -0.321
      -0.411
      -0.417
      -0.319
      -0.136
       0.095
       0.338
       0.552
       0.695
       0.754
       0.751
       0.704
       0.602
       0.427
       0.194
      -0.050
      -0.246
      -0.341
      -0.312
      -0.196
      -0.074
      -0.015
      -0.030
      -0.091
      -0.169
      -0.241
      -0.285
      -0.298
      -0.302
      -0.324
      -0.364
      -0.404
      -0.418
      -0.377
      -0.260
      -0.095
       0.048
       0.104
       0.069
      -0.022
      -0.130
      -0.230
      -0.300
      -0.323
      -0.292
      -0.198
      -0.036
       0.174
       0.384
       0.549
       0.655
       0.700
       0.668
       0.543
       0.351
       0.150
      -0.007
      -0.085
      -0.076
       0.001
       0.103
       0.200
       0.286
       0.356
       0.382
       0.337
       0.233
       0.107
      -0.017
      -0.138
      -0.246
      -0.321
      -0.346
      -0.307
      -0.198
      -0.043
       0.107
       0.207
       0.262
       0.299
       0.321
       0.303
       0.231
       0.119
      -0.008
      -0.125
      -0.207
      -0.244
      -0.252
      -0.252
      -0.242
      -0.214
      -0.182
      -0.170
      -0.173
      -0.158
      -0.103
      -0.009
       0.112
       0.248
       0.378
       0.481
       0.550
       0.578
       0.544
       0.429
       0.255
       0.067
      -0.107
      -0.254
      -0.353
      -0.368
      -0.291
      -0.157
      -0.015
       0.090
       0.133
       0.118
       0.087
       0.081
       0.099
       0.105
       0.088
       0.072
       0.076
       0.089
       0.076
       0.007
      -0.126
      -0.303
      -0.471
      -0.580
      -0.623
      -0.622
      -0.574
      -0.455
      -0.256
      -0.013
       0.221
       0.400
       0.498
       0.513
       0.476
       0.422
       0.357
       0.260
       0.130
      -0.002
      -0.100
      -0.150
      -0.153
      -0.123
      -0.093
      -0.108
      -0.179
      -0.280
      -0.377
      -0.453
      -0.488
      -0.461
      -0.371
      -0.248
      -0.120
       0.001
       0.111
       0.197
       0.257
       0.297
       0.310
       0.276
       0.194
       0.098
       0.029
       0.002
       0.011
       0.038
       0.055
       0.031
      -0.029
      -0.088
      -0.118
      -0.127
      -0.134
      -0.141
      -0.143
      -0.146
      -0.158
      -0.177
      -0.203
      -0.236
      -0.256
      -0.225
      -0.128
       0.007
       0.136
       0.227
       0.267
       0.258
       0.222
       0.196
       0.195
       0.204
       0.206
       0.202
       0.195
       0.165
       0.094
      -0.010
      -0.123
      -0.223
      -0.292
      -0.308
      -0.265
      -0.178
      -0.058
       0.104
       0.299
       0.479
       0.584
       0.587
       0.507
       0.379
       0.248
       0.149
       0.084
       0.025
      -0.052
      -0.138
      -0.223
      -0.331
      -0.494
      -0.706
      -0.920
      -1.081
      -1.144
      -1.084
      -0.905
      -0.646
      -0.347
      -0.028
       0.289
       0.557
       0.722
       0.767
       0.712
       0.587
       0.435
       0.308
       0.250
       0.264
       0.316
       0.365
       0.374
       0.311
       0.172
      -0.006
      -0.173
      -0.304
      -0.396
      -0.440
      -0.419
      -0.342
      -0.233
      -0.118
      -0.017
       0.051
       0.082
       0.091
       0.100
       0.109
       0.108
       0.104
       0.111
       0.118
       0.097
       0.034
      -0.055
      -0.148
      -0.223
      -0.257
      -0.247
      -0.218
      -0.196
      -0.177
      -0.136
      -0.066
       0.023
       0.136
       0.292
       0.490
       0.692
       0.846
       0.910
       0.866
       0.733
       0.568
       0.423
       0.288
       0.117
      -0.106
      -0.335
      -0.502
      -0.568
      -0.539
      -0.453
      -0.364
      -0.304
      -0.253
      -0.171
      -0.052
       0.067
       0.156
       0.215
       0.256
       0.279
       0.281
       0.262
       0.219
       0.152
       0.086
       0.050
       0.046
       0.046
       0.023
      -0.022
      -0.073
      -0.117
      -0.139
      -0.134
      -0.127
      -0.161
      -0.248
      -0.344
      -0.385
      -0.335
      -0.198
      -0.017
       0.145
       0.245
       0.293
       0.335
       0.393
       0.438
       0.438
       0.396
       0.335
       0.268
       0.185
       0.073
      -0.072
      -0.234
      -0.361
      -0.408
      -0.377
      -0.323
      -0.298
      -0.303
      -0.309
      -0.301
      -0.276
      -0.238
      -0.184
      -0.110
       0.001
       0.167
       0.373
       0.571
       0.714
       0.787
       0.786
       0.701
       0.530
       0.303
       0.063
      -0.157
      -0.331
      -0.440
      -0.476
      -0.458
      -0.404
      -0.326
      -0.245
      -0.197
      -0.200
      -0.227
      -0.230
      -0.184
      -0.097
       0.003
       0.082
       0.120
       0.124
       0.121
       0.117
       0.082
      -0.004
      -0.114
      -0.187
      -0.183
      -0.117
      -0.041
      -0.013
      -0.059
      -0.153
      -0.231
      -0.246
      -0.213
      -0.174
      -0.154
      -0.146
      -0.142
      -0.141
      -0.150
      -0.176
      -0.224
      -0.272
      -0.268
      -0.173
      -0.004
       0.179
       0.324
       0.407
       0.431
       0.412
       0.367
       0.301
       0.203
       0.084
      -0.011
      -0.038
      -0.005
       0.042
       0.054
       0.022
      -0.040
      -0.102
      -0.139
      -0.147
      -0.149
      -0.164
      -0.190
      -0.212
      -0.227
      -0.239
      -0.239
      -0.212
      -0.168
      -0.136
      -0.133
      -0.148
      -0.153
      -0.115
      -0.014
       0.136
       0.273
       0.335
       0.306
       0.221
       0.127
       0.054
       0.012
      -0.010
      -0.040
      -0.103
      -0.197
      -0.298
      -0.383
      -0.432
      -0.417
      -0.314
      -0.138
       0.063
       0.241
       0.372
       0.451
       0.488
       0.502
       0.503
       0.478
       0.414
       0.327
       0.263
       0.251
       0.279
       0.306
       0.293
       0.214
       0.072
      -0.090
      -0.217
      -0.281
      -0.295
      -0.273
      -0.215
      -0.121
      -0.003
       0.113
       0.189
       0.184
       0.079
      -0.090
      -0.251
      -0.345
      -0.362
      -0.323
      -0.252
      -0.170
      -0.087
      -0.002
       0.086
       0.161
       0.200
       0.203
       0.192
       0.176
       0.145
       0.091
       0.030
      -0.025
      -0.071
      -0.109
      -0.136
      -0.152
      -0.170
      -0.189
      -0.188
      -0.146
      -0.055
       0.078
       0.233
       0.378
       0.478
       0.524
       0.543
       0.553
       0.549
       0.510
       0.430
       0.319
       0.195
       0.079
      -0.017
      -0.101
      -0.199
      -0.316
      -0.426
      -0.495
      -0.509
      -0.472
      -0.391
      -0.286
      -0.186
      -0.119
      -0.094
      -0.114
      -0.170
      -0.228
      -0.235
      -0.163
      -0.038
       0.081
       0.145
       0.135
       0.060
      -0.045
      -0.142
      -0.215
      -0.276
      -0.329
      -0.356
      -0.333
      -0.265
      -0.182
      -0.113
      -0.081
      -0.098
      -0.145
      -0.176
      -0.150
      -0.059
       0.076
       0.225
       0.354
       0.426
       0.435
       0.415
       0.404
       0.406
       0.397
       0.354
       0.275
       0.174
       0.088
       0.057
       0.088
       0.145
       0.172
       0.146
       0.079
      -0.002
      -0.071
      -0.099
      -0.082
      -0.048
      -0.036
      -0.058
      -0.094
      -0.122
      -0.134
      -0.134
      -0.138
      -0.158
      -0.190
      -0.204
      -0.181
      -0.137
      -0.103
      -0.089
      -0.080
      -0.066
      -0.046
      -0.022
       0.009
       0.049
       0.099
       0.160
       0.209
       0.195
       0.086
      -0.084
      -0.230
      -0.273
      -0.185
       0.005
       0.227
       0.397
       0.460
       0.431
       0.363
       0.297
       0.245
       0.204
       0.175
       0.148
       0.121
       0.106
       0.124
       0.168
       0.210
       0.225
       0.205
       0.144
       0.049
      -0.055
      -0.136
      -0.188
      -0.227
      -0.261
      -0.285
      -0.303
      -0.331
      -0.374
      -0.412
      -0.415
      -0.357
      -0.234
      -0.075
       0.063
       0.132
       0.133
       0.099
       0.050
      -0.024
      -0.135
      -0.260
      -0.354
      -0.383
      -0.337
