Origin Time       04/09/2008 12:53:21
Lat.              30.1°N 
Long.             80.4°E 
Depth (Km)         10.0
Magnitude         5.1
 Region           INDIA(UTTARAKHAND)-TIBET-BORDER-REGION                           
 Above details taken from IMD 
   
Station Code      CHP
Station Lat.       29.334
Station Long.      80.095
Station Height(m) 1635.0
Site Class        A   Vs30 between 700 m/sec to 1400 m/sec * 
Record Time       04.09.2008 12:53:33.864
Sampling Rate     200. Hz
 Record Duration   70.100 Sec.
 Direction         Vert. (Up positive)
Max. Acceleration      1.678 cm/sec**2
     
  * For reference see Site Classification link of website 
     
 Base Line Corrected and Low Pass Filtered (Cut Off at 35 Hz) Time History
 Acceleration data in cm/sec**2
    
[...]
      -0.154
      -0.226
      -0.288
      -0.326
      -0.336
      -0.321
      -0.281
      -0.213
      -0.122
      -0.028
       0.046
       0.084
       0.087
       0.075
       0.070
       0.083
       0.109
       0.131
       0.134
       0.113
       0.073
       0.021
      -0.044
      -0.123
      -0.216
      -0.312
      -0.392
      -0.436
      -0.435
      -0.392
      -0.327
      -0.259
      -0.206
      -0.174
      -0.158
      -0.147
      -0.129
      -0.094
      -0.035
       0.050
       0.160
       0.284
       0.401
       0.486
       0.515
       0.483
       0.405
       0.308
       0.219
       0.156
       0.121
       0.111
       0.120
       0.141
       0.171
       0.201
       0.227
       0.244
       0.242
       0.217
       0.170
       0.114
       0.068
       0.043
       0.037
       0.037
       0.028
       0.001
      -0.043
      -0.099
      -0.153
      -0.192
      -0.206
      -0.191
      -0.152
      -0.099
      -0.041
       0.018
       0.080
       0.139
       0.182
       0.196
       0.176
       0.128
       0.061
      -0.016
      -0.100
      -0.186
      -0.268
      -0.336
      -0.381
      -0.398
      -0.390
      -0.363
      -0.326
      -0.285
      -0.240
      -0.191
      -0.134
      -0.072
      -0.008
       0.050
       0.097
       0.133
       0.161
       0.181
       0.190
       0.179
       0.137
       0.058
      -0.050
      -0.167
      -0.264
      -0.319
      -0.323
      -0.280
      -0.205
      -0.116
      -0.023
       0.071
       0.167
       0.270
       0.373
       0.461
       0.510
       0.508
       0.463
       0.389
       0.300
       0.201
       0.101
       0.015
      -0.042
      -0.056
      -0.029
       0.018
       0.054
       0.054
       0.005
      -0.083
      -0.186
      -0.276
      -0.336
      -0.354
      -0.326
      -0.251
      -0.140
      -0.005
       0.129
       0.235
       0.287
       0.283
       0.240
       0.182
       0.126
       0.081
       0.052
       0.040
       0.042
       0.054
       0.067
       0.074
       0.066
       0.043
       0.010
      -0.026
      -0.054
      -0.066
      -0.063
      -0.052
      -0.044
      -0.038
      -0.027
      -0.004
       0.024
       0.036
       0.020
      -0.019
      -0.059
      -0.076
      -0.070
      -0.058
      -0.064
      -0.099
      -0.158
      -0.230
      -0.300
      -0.355
      -0.376
      -0.347
      -0.262
      -0.135
       0.005
       0.125
       0.209
       0.257
       0.278
       0.283
       0.278
       0.267
       0.256
       0.252
       0.257
       0.259
       0.242
       0.191
       0.103
      -0.013
      -0.138
      -0.251
      -0.334
      -0.375
      -0.376
      -0.347
      -0.302
      -0.247
      -0.185
      -0.112
      -0.034
       0.039
       0.090
       0.109
       0.096
       0.061
       0.021
      -0.009
      -0.015
       0.005
       0.047
       0.097
       0.135
       0.146
       0.121
       0.071
       0.015
      -0.023
      -0.036
      -0.032
      -0.021
      -0.007
       0.012
       0.037
       0.065
       0.093
       0.115
       0.123
       0.114
       0.090
       0.062
       0.039
       0.025
       0.008
      -0.023
      -0.071
      -0.122
      -0.155
      -0.158
      -0.134
      -0.093
      -0.046
       0.002
       0.043
       0.065
       0.057
       0.018
      -0.041
      -0.096
      -0.128
      -0.132
      -0.118
      -0.099
      -0.082
      -0.068
      -0.057
      -0.053
      -0.059
      -0.072
      -0.075
      -0.053
       0.001
       0.083
       0.178
       0.271
       0.352
       0.407
       0.426
       0.396
       0.313
       0.184
       0.020
      -0.158
      -0.321
      -0.438
      -0.487
      -0.459
      -0.369
      -0.242
      -0.112
       0.000
       0.085
       0.144
       0.178
       0.183
       0.153
       0.095
       0.024
      -0.034
      -0.060
      -0.050
      -0.013
       0.035
       0.082
       0.121
       0.156
       0.194
       0.238
       0.282
       0.315
       0.331
       0.329
       0.314
       0.288
       0.254
       0.214
       0.174
       0.141
       0.122
       0.115
       0.112
       0.102
       0.072
       0.013
      -0.072
      -0.171
      -0.267
      -0.346
      -0.396
      -0.410
      -0.387
      -0.334
      -0.263
      -0.194
      -0.138
      -0.102
      -0.079
      -0.055
      -0.012
       0.060
       0.149
       0.231
       0.276
       0.267
       0.207
       0.113
       0.009
      -0.082
      -0.145
      -0.174
      -0.165
      -0.122
      -0.057
       0.008
       0.048
       0.049
       0.014
      -0.036
      -0.069
      -0.066
      -0.027
       0.027
       0.068
       0.072
       0.033
      -0.044
      -0.147
      -0.265
      -0.383
      -0.482
      -0.546
      -0.557
      -0.508
      -0.396
      -0.229
      -0.023
       0.193
       0.381
       0.511
       0.572
       0.573
       0.530
       0.453
       0.347
       0.216
       0.074
      -0.065
      -0.188
      -0.290
      -0.368
      -0.418
      -0.431
      -0.401
      -0.328
      -0.231
      -0.143
      -0.094
      -0.091
      -0.115
      -0.141
      -0.151
      -0.141
      -0.116
      -0.079
      -0.030
       0.029
       0.088
       0.132
       0.142
       0.114
       0.057
      -0.011
      -0.069
      -0.107
      -0.124
      -0.130
      -0.135
      -0.141
      -0.143
      -0.134
      -0.103
      -0.046
       0.039
       0.145
       0.261
       0.366
       0.437
       0.461
       0.434
       0.369
       0.284
       0.199
       0.129
       0.083
       0.065
       0.065
       0.063
       0.042
      -0.002
      -0.063
      -0.128
      -0.189
      -0.245
      -0.298
      -0.351
      -0.398
      -0.437
      -0.464
      -0.472
      -0.461
      -0.429
      -0.384
      -0.332
      -0.272
      -0.200
      -0.109
       0.003
       0.133
       0.269
       0.395
       0.496
       0.555
       0.566
       0.534
       0.475
       0.405
       0.337
       0.279
       0.233
       0.197
       0.164
       0.124
       0.071
       0.012
      -0.042
      -0.074
      -0.078
      -0.057
      -0.022
       0.013
       0.043
       0.063
       0.069
       0.054
       0.011
      -0.060
      -0.147
      -0.226
      -0.273
      -0.268
      -0.216
      -0.136
      -0.057
      -0.001
       0.025
       0.022
      -0.005
      -0.048
      -0.095
      -0.130
      -0.142
      -0.127
      -0.089
      -0.038
       0.010
       0.036
       0.020
      -0.048
      -0.161
      -0.300
      -0.433
      -0.526
      -0.549
      -0.486
      -0.338
      -0.136
       0.075
       0.248
       0.355
       0.395
       0.389
       0.362
       0.329
       0.301
       0.287
       0.291
       0.297
       0.279
       0.215
       0.105
      -0.026
      -0.148
      -0.236
      -0.280
      -0.283
      -0.249
      -0.193
      -0.131
      -0.081
      -0.047
      -0.017
       0.029
       0.102
       0.194
       0.281
       0.343
       0.369
       0.354
       0.299
       0.213
       0.115
       0.029
      -0.028
      -0.051
      -0.044
      -0.016
       0.019
       0.049
       0.061
       0.044
      -0.004
      -0.076
      -0.154
      -0.220
      -0.257
      -0.259
      -0.235
      -0.202
      -0.177
      -0.170
      -0.184
      -0.216
      -0.257
      -0.292
      -0.300
      -0.274
      -0.223
      -0.169
      -0.133
      -0.115
      -0.092
      -0.043
       0.039
       0.136
       0.227
       0.298
       0.341
       0.351
       0.320
       0.248
       0.149
       0.051
      -0.019
      -0.044
      -0.028
       0.016
       0.067
       0.109
       0.136
       0.150
       0.155
       0.151
       0.124
       0.061
      -0.035
      -0.144
      -0.234
      -0.286
      -0.303
      -0.305
      -0.315
      -0.340
      -0.366
      -0.375
      -0.354
      -0.304
      -0.232
      -0.149
      -0.066
       0.008
       0.063
       0.098
       0.114
       0.114
       0.100
       0.073
       0.042
       0.020
       0.018
       0.038
       0.073
       0.109
       0.135
       0.148
       0.152
       0.157
       0.172
       0.200
       0.236
       0.263
       0.260
       0.213
       0.128
       0.029
      -0.050
      -0.084
      -0.065
      -0.002
       0.085
       0.171
       0.235
       0.261
       0.236
       0.163
       0.056
      -0.055
      -0.139
      -0.179
      -0.183
      -0.172
      -0.169
      -0.177
      -0.183
      -0.177
      -0.161
      -0.152
      -0.163
      -0.188
      -0.199
      -0.163
      -0.069
       0.067
       0.214
       0.344
       0.448
       0.525
       0.568
       0.553
       0.460
       0.293
       0.086
      -0.109
      -0.255
      -0.342
      -0.383
      -0.395
      -0.386
      -0.357
      -0.306
      -0.237
      -0.155
      -0.063
       0.034
       0.126
       0.198
       0.228
       0.202
       0.114
      -0.023
      -0.180
      -0.329
      -0.448
      -0.529
      -0.568
      -0.566
      -0.518
      -0.433
      -0.325
      -0.217
      -0.126
      -0.054
       0.004
       0.048
       0.066
       0.047
      -0.005
      -0.070
      -0.117
      -0.126
      -0.091
      -0.017
       0.088
       0.214
       0.343
       0.448
       0.507
       0.514
       0.475
       0.402
       0.304
       0.194
       0.099
       0.057
       0.088
       0.173
       0.266
       0.328
       0.348
       0.338
       0.305
       0.247
       0.158
       0.044
      -0.072
      -0.166
      -0.229
      -0.273
      -0.311
      -0.350
      -0.386
      -0.416
      -0.447
      -0.481
      -0.510
      -0.518
      -0.483
      -0.391
      -0.243
      -0.069
       0.089
       0.191
       0.217
       0.169
       0.064
      -0.069
      -0.204
      -0.318
      -0.387
      -0.386
      -0.299
      -0.136
       0.057
       0.208
       0.263
       0.227
       0.164
       0.149
       0.207
       0.304
       0.391
       0.444
       0.474
       0.496
       0.511
       0.507
       0.480
       0.446
       0.420
       0.401
       0.358
       0.250
       0.067
      -0.164
      -0.395
      -0.576
      -0.679
      -0.705
      -0.688
      -0.666
      -0.649
      -0.619
      -0.554
      -0.452
      -0.333
      -0.227
      -0.155
      -0.115
      -0.084
      -0.053
      -0.027
      -0.015
      -0.009
       0.009
       0.057
       0.137
       0.230
       0.314
       0.374
       0.415
       0.436
       0.436
       0.416
       0.383
       0.345
       0.303
       0.263
       0.242
       0.261
       0.332
       0.446
       0.570
       0.657
       0.664
       0.573
       0.400
       0.186
      -0.034
      -0.250
      -0.467
      -0.671
      -0.824
      -0.892
      -0.862
      -0.748
      -0.586
      -0.412
      -0.250
      -0.114
      -0.005
       0.079
       0.134
       0.159
       0.159
       0.155
       0.165
       0.192
       0.225
       0.251
       0.268
       0.289
       0.325
       0.375
       0.418
       0.429
       0.394
       0.316
       0.208
       0.083
      -0.041
      -0.148
      -0.226
      -0.277
      -0.311
      -0.341
      -0.373
      -0.402
      -0.419
      -0.408
      -0.354
      -0.250
      -0.109
       0.037
       0.148
       0.205
       0.213
       0.200
       0.190
       0.190
       0.199
       0.220
       0.265
       0.346
       0.452
       0.550
       0.602
       0.587
       0.500
       0.345
       0.132
      -0.114
      -0.354
      -0.547
      -0.659
      -0.676
      -0.604
      -0.464
      -0.281
      -0.085
       0.097
       0.233
       0.297
       0.270
       0.154
      -0.028
      -0.234
      -0.418
      -0.543
      -0.599
      -0.595
      -0.551
      -0.483
      -0.404
      -0.326
      -0.269
      -0.256
      -0.299
      -0.390
      -0.497
      -0.584
      -0.625
      -0.613
      -0.549
      -0.433
      -0.268
      -0.057
       0.191
       0.454
       0.707
       0.922
       1.078
       1.165
       1.185
       1.152
       1.083
       0.991
       0.887
       0.779
       0.671
       0.567
       0.473
       0.381
       0.275
       0.134
      -0.052
      -0.271
      -0.489
      -0.666
      -0.773
      -0.811
      -0.804
      -0.781
      -0.751
      -0.710
      -0.643
      -0.543
      -0.413
      -0.266
      -0.116
       0.022
       0.136
       0.213
       0.239
       0.206
       0.118
      -0.006
      -0.137
      -0.248
      -0.320
      -0.340
      -0.305
      -0.211
      -0.068
       0.106
       0.283
       0.435
       0.546
       0.617
       0.659
       0.687
       0.709
       0.725
       0.736
       0.740
       0.730
       0.701
       0.651
       0.581
       0.491
       0.387
       0.280
       0.178
       0.074
      -0.043
      -0.177
      -0.318
      -0.455
      -0.579
      -0.691
      -0.797
      -0.900
      -0.994
      -1.071
      -1.121
      -1.131
      -1.093
      -1.005
      -0.875
      -0.714
      -0.530
      -0.322
      -0.076
       0.225
       0.581
       0.960
       1.307
       1.562
       1.678
       1.636
       1.444
       1.143
       0.793
       0.456
       0.173
      -0.049
      -0.228
      -0.385
      -0.516
      -0.599
      -0.611
      -0.548
      -0.425
      -0.276
      -0.128
       0.004
       0.114
       0.203
       0.267
       0.300
       0.299
       0.265
       0.205
       0.121
       0.011
      -0.128
      -0.282
      -0.424
      -0.525
      -0.569
      -0.554
      -0.487
      -0.385
      -0.263
      -0.130
       0.010
       0.156
       0.298
       0.414
       0.486
       0.502
       0.469
       0.399
       0.302
       0.186
       0.060
      -0.064
      -0.177
      -0.277
      -0.370
      -0.454
      -0.522
      -0.557
      -0.549
      -0.506
      -0.445
      -0.386
      -0.333
      -0.273
      -0.191
      -0.078
       0.059
       0.202
       0.332
       0.428
       0.472
       0.447
       0.346
       0.184
      -0.002
      -0.166
      -0.272
      -0.308
      -0.283
      -0.214
      -0.114
       0.012
       0.164
       0.329
       0.489
       0.621
       0.707
       0.742
       0.725
       0.665
       0.572
       0.467
       0.374
       0.312
       0.294
       0.315
       0.359
       0.402
       0.416
       0.384
       0.297
       0.159
      -0.019
      -0.220
      -0.424
      -0.611
      -0.763
      -0.867
      -0.914
      -0.905
      -0.854
      -0.782
      -0.711
      -0.643
      -0.570
      -0.484
      -0.387
      -0.292
      -0.209
      -0.140
      -0.076
      -0.014
       0.037
       0.063
       0.061
       0.040
       0.026
       0.041
       0.089
       0.160
       0.236
       0.301
       0.343
       0.348
       0.310
       0.231
       0.128
       0.032
      -0.027
      -0.032
       0.019
       0.116
       0.242
       0.375
       0.485
       0.541
       0.519
       0.411
       0.229
       0.002
      -0.232
      -0.434
      -0.574
      -0.638
      -0.625
      -0.546
      -0.413
      -0.244
      -0.063
       0.111
       0.261
       0.377
       0.451
       0.476
       0.447
       0.357
       0.203
      -0.002
      -0.225
      -0.422
      -0.546
      -0.572
      -0.492
      -0.324
      -0.095
       0.156
       0.388
       0.568
       0.669
       0.679
       0.591
       0.413
       0.173
      -0.078
      -0.287
      -0.422
      -0.483
      -0.492
      -0.473
      -0.443
      -0.408
      -0.365
      -0.315
      -0.262
      -0.209
      -0.152
      -0.084
      -0.001
       0.094
       0.189
       0.270
       0.329
       0.369
       0.399
       0.419
       0.418
       0.381
       0.304
       0.199
       0.093
       0.008
      -0.048
      -0.080
      -0.101
      -0.126
      -0.162
      -0.208
      -0.263
      -0.328
      -0.401
      -0.475
      -0.534
      -0.559
      -0.536
      -0.465
      -0.366
      -0.266
      -0.183
      -0.130
      -0.107
      -0.107
      -0.115
      -0.116
      -0.095
      -0.042
       0.042
       0.147
       0.261
       0.376
       0.485
       0.578
       0.646
       0.683
       0.694
       0.686
       0.665
       0.627
       0.558
       0.446
       0.291
       0.110
      -0.071
      -0.228
      -0.354
      -0.450
      -0.516
      -0.542
      -0.515
      -0.432
      -0.308
      -0.168
      -0.038
       0.066
       0.130
       0.144
       0.105
       0.020
      -0.089
      -0.200
      -0.291
      -0.353
      -0.384
      -0.389
      -0.373
      -0.340
      -0.293
      -0.235
      -0.166
      -0.085
       0.007
       0.099
       0.177
       0.226
       0.242
       0.230
       0.199
       0.156
       0.106
       0.056
       0.024
       0.028
       0.079
       0.174
       0.291
       0.401
       0.477
       0.502
       0.465
       0.365
       0.211
       0.016
      -0.192
      -0.382
      -0.524
      -0.596
      -0.597
      -0.540
      -0.452
      -0.359
      -0.277
      -0.207
      -0.143
      -0.077
      -0.008
       0.061
       0.121
       0.160
       0.165
       0.129
       0.056
      -0.035
      -0.125
      -0.199
      -0.256
      -0.295
      -0.314
      -0.308
      -0.268
      -0.193
      -0.092
       0.013
       0.100
       0.154
       0.184
       0.209
       0.248
       0.303
       0.359
       0.395
       0.396
       0.365
       0.314
       0.259
       0.213
       0.182
       0.165
       0.156
       0.145
       0.130
       0.113
       0.100
       0.095
       0.096
       0.103
       0.115
       0.136
       0.161
       0.170
       0.141
       0.059
      -0.063
      -0.196
      -0.303
      -0.357
      -0.354
      -0.302
      -0.220
      -0.125
      -0.033
       0.037
       0.070
       0.053
      -0.015
      -0.121
      -0.239
      -0.342
      -0.406
      -0.426
      -0.411
      -0.371
      -0.319
      -0.260
      -0.204
      -0.165
      -0.151
      -0.164
      -0.191
      -0.214
      -0.221
      -0.211
      -0.186
      -0.146
      -0.079
       0.027
       0.172
       0.343
       0.516
       0.667
       0.781
       0.849
       0.862
       0.813
       0.701
       0.532
       0.329
       0.129
      -0.034
      -0.140
      -0.186
      -0.185
      -0.155
      -0.113
      -0.070
      -0.036
      -0.016
      -0.011
      -0.021
      -0.051
      -0.103
      -0.173
      -0.251
      -0.319
      -0.365
      -0.381
      -0.364
      -0.315
      -0.238
      -0.146
      -0.052
       0.026
       0.078
       0.099
       0.092
       0.070
       0.051
       0.045
       0.051
       0.061
       0.068
       0.077
       0.100
       0.141
       0.196
       0.253
       0.295
       0.314
       0.307
