Origin Time       11/11/2012 18:39:19 UTC
Lat.              29.2 N	
Long.             81.5 E	
Depth (Km)         10.0
Magnitude         5.0
 Region           Western-NEPAL                                                    
 Above details taken from IMD 
    
Station Code      CHP
Station Lat.       29.334  N
Station Long.      80.095  E
Station Height(m) 1635.0
Site Class        A   Vs30 between 700 m/sec to 1400 m/sec * 
Record Time       11.11.2012 18:39:47.324 UTC
Sampling Rate     200. Hz
 Record Duration   66.485 Sec.
 Direction         N-S (N positive)
Max. Acceleration     -3.171 cm/sec**2
     
  * For reference see Site Classification link of website 
     
 Base Line Corrected and Low Pass Filtered (Cut Off at 35 Hz) Time History
 Acceleration data in cm/sec**2
    
[...]
       0.065
       0.105
       0.133
       0.147
       0.140
       0.117
       0.101
       0.097
       0.086
       0.055
       0.017
      -0.004
      -0.003
       0.017
       0.050
       0.085
       0.103
       0.102
       0.099
       0.104
       0.111
       0.114
       0.124
       0.141
       0.147
       0.124
       0.076
       0.009
      -0.077
      -0.169
      -0.243
      -0.282
      -0.291
      -0.279
      -0.244
      -0.197
      -0.158
      -0.137
      -0.120
      -0.096
      -0.070
      -0.041
       0.003
       0.066
       0.132
       0.189
       0.236
       0.272
       0.283
       0.270
       0.248
       0.226
       0.196
       0.158
       0.126
       0.103
       0.080
       0.048
       0.012
      -0.026
      -0.075
      -0.133
      -0.182
      -0.222
      -0.263
      -0.303
      -0.321
      -0.302
      -0.256
      -0.198
      -0.133
      -0.072
      -0.032
      -0.010
       0.013
       0.048
       0.086
       0.123
       0.160
       0.191
       0.201
       0.187
       0.163
       0.137
       0.102
       0.061
       0.029
       0.008
      -0.011
      -0.033
      -0.050
      -0.062
      -0.082
      -0.110
      -0.130
      -0.136
      -0.144
      -0.156
      -0.157
      -0.139
      -0.107
      -0.062
      -0.001
       0.067
       0.122
       0.160
       0.190
       0.211
       0.208
       0.180
       0.147
       0.126
       0.116
       0.115
       0.125
       0.134
       0.127
       0.105
       0.081
       0.055
       0.016
      -0.032
      -0.069
      -0.085
      -0.088
      -0.081
      -0.062
      -0.040
      -0.029
      -0.029
      -0.028
      -0.024
      -0.025
      -0.030
      -0.025
      -0.008
       0.011
       0.027
       0.045
       0.057
       0.048
       0.020
      -0.011
      -0.035
      -0.056
      -0.070
      -0.066
      -0.048
      -0.031
      -0.018
       0.004
       0.029
       0.039
       0.029
       0.009
      -0.012
      -0.038
      -0.061
      -0.072
      -0.076
      -0.086
      -0.102
      -0.110
      -0.110
      -0.117
      -0.131
      -0.139
      -0.139
      -0.140
      -0.141
      -0.136
      -0.132
      -0.140
      -0.158
      -0.173
      -0.180
      -0.181
      -0.161
      -0.106
      -0.020
       0.069
       0.149
       0.217
       0.264
       0.278
       0.263
       0.236
       0.203
       0.162
       0.122
       0.097
       0.083
       0.067
       0.049
       0.034
       0.015
      -0.020
      -0.065
      -0.103
      -0.129
      -0.149
      -0.161
      -0.157
      -0.141
      -0.122
      -0.098
      -0.061
      -0.019
       0.008
       0.020
       0.031
       0.046
       0.065
       0.093
       0.130
       0.158
       0.152
       0.107
       0.040
      -0.041
      -0.129
      -0.205
      -0.244
      -0.244
      -0.212
      -0.154
      -0.075
       0.005
       0.065
       0.108
       0.149
       0.189
       0.216
       0.231
       0.242
       0.248
       0.240
       0.226
       0.210
       0.186
       0.144
       0.094
       0.057
       0.030
       0.002
      -0.028
      -0.049
      -0.057
      -0.055
      -0.042
      -0.021
      -0.012
      -0.031
      -0.067
      -0.099
      -0.123
      -0.143
      -0.148
      -0.123
      -0.073
      -0.016
       0.034
       0.070
       0.081
       0.067
       0.050
       0.048
       0.060
       0.070
       0.075
       0.081
       0.078
       0.059
       0.033
       0.013
      -0.005
      -0.035
      -0.075
      -0.117
      -0.161
      -0.206
      -0.234
      -0.228
      -0.192
      -0.141
      -0.082
      -0.014
       0.049
       0.094
       0.121
       0.134
       0.126
       0.095
       0.058
       0.030
       0.008
      -0.020
      -0.042
      -0.047
      -0.038
      -0.025
      -0.011
       0.008
       0.021
       0.019
       0.010
       0.003
      -0.005
      -0.012
       0.000
       0.044
       0.108
       0.169
       0.220
       0.260
       0.281
       0.276
       0.257
       0.236
       0.207
       0.164
       0.114
       0.069
       0.022
      -0.035
      -0.098
      -0.164
      -0.240
      -0.329
      -0.413
      -0.473
      -0.511
      -0.528
      -0.511
      -0.448
      -0.353
      -0.248
      -0.146
      -0.057
       0.004
       0.027
       0.022
       0.001
      -0.036
      -0.085
      -0.129
      -0.158
      -0.181
      -0.206
      -0.221
      -0.213
      -0.189
      -0.161
      -0.124
      -0.074
      -0.018
       0.034
       0.086
       0.139
       0.181
       0.208
       0.234
       0.264
       0.285
       0.283
       0.270
       0.258
       0.249
       0.237
       0.226
       0.215
       0.189
       0.141
       0.081
       0.023
      -0.033
      -0.091
      -0.139
      -0.176
      -0.211
      -0.249
      -0.271
      -0.267
      -0.242
      -0.210
      -0.168
      -0.114
      -0.058
      -0.005
       0.051
       0.114
       0.176
       0.235
       0.304
       0.385
       0.460
       0.511
       0.537
       0.539
       0.505
       0.433
       0.339
       0.242
       0.144
       0.049
      -0.033
      -0.103
      -0.171
      -0.234
      -0.274
      -0.284
      -0.279
      -0.273
      -0.257
      -0.223
      -0.184
      -0.150
      -0.124
      -0.106
      -0.100
      -0.104
      -0.101
      -0.084
      -0.063
      -0.045
      -0.022
      -0.001
       0.000
      -0.031
      -0.080
      -0.132
      -0.183
      -0.226
      -0.249
      -0.249
      -0.234
      -0.209
      -0.165
      -0.101
      -0.031
       0.045
       0.141
       0.260
       0.379
       0.481
       0.566
       0.630
       0.664
       0.659
       0.621
       0.552
       0.445
       0.301
       0.140
      -0.028
      -0.204
      -0.378
      -0.524
      -0.631
      -0.709
      -0.763
      -0.780
      -0.754
      -0.696
      -0.615
      -0.512
      -0.397
      -0.285
      -0.176
      -0.054
       0.078
       0.199
       0.293
       0.363
       0.412
       0.431
       0.421
       0.390
       0.342
       0.273
       0.193
       0.125
       0.079
       0.042
       0.006
      -0.020
      -0.034
      -0.043
      -0.048
      -0.043
      -0.027
      -0.012
       0.004
       0.035
       0.083
       0.134
       0.181
       0.226
       0.261
       0.271
       0.257
       0.235
       0.214
       0.189
       0.163
       0.143
       0.124
       0.086
       0.026
      -0.043
      -0.106
      -0.162
      -0.204
      -0.222
      -0.224
      -0.230
      -0.243
      -0.250
      -0.241
      -0.222
      -0.193
      -0.153
      -0.109
      -0.073
      -0.045
      -0.014
       0.013
       0.014
      -0.012
      -0.044
      -0.068
      -0.085
      -0.097
      -0.102
      -0.111
      -0.136
      -0.173
      -0.202
      -0.216
      -0.226
      -0.230
      -0.216
      -0.178
      -0.119
      -0.032
       0.089
       0.228
       0.355
       0.452
       0.515
       0.544
       0.542
       0.528
       0.527
       0.543
       0.563
       0.586
       0.617
       0.648
       0.654
       0.622
       0.556
       0.455
       0.314
       0.146
      -0.031
      -0.206
      -0.378
      -0.534
      -0.658
      -0.751
      -0.832
      -0.901
      -0.946
      -0.962
      -0.954
      -0.920
      -0.850
      -0.745
      -0.616
      -0.471
      -0.314
      -0.163
      -0.043
       0.043
       0.102
       0.134
       0.139
       0.135
       0.151
       0.196
       0.258
       0.328
       0.401
       0.461
       0.493
       0.501
       0.499
       0.486
       0.457
       0.421
       0.401
       0.396
       0.396
       0.391
       0.379
       0.344
       0.269
       0.159
       0.032
      -0.101
      -0.234
      -0.351
      -0.433
      -0.484
      -0.520
      -0.544
      -0.552
      -0.553
      -0.558
      -0.557
      -0.525
      -0.454
      -0.350
      -0.218
      -0.066
       0.082
       0.196
       0.270
       0.314
       0.328
       0.311
       0.268
       0.209
       0.130
       0.032
      -0.069
      -0.157
      -0.237
      -0.321
      -0.396
      -0.442
      -0.459
      -0.471
      -0.489
      -0.509
      -0.527
      -0.531
      -0.504
      -0.436
      -0.348
      -0.261
      -0.175
      -0.073
       0.044
       0.169
       0.295
       0.421
       0.539
       0.642
       0.733
       0.814
       0.861
       0.855
       0.805
       0.733
       0.654
       0.574
       0.508
       0.467
       0.441
       0.411
       0.367
       0.306
       0.213
       0.090
      -0.038
      -0.143
      -0.224
      -0.297
      -0.371
      -0.446
      -0.532
      -0.633
      -0.736
      -0.820
      -0.875
      -0.895
      -0.866
      -0.786
      -0.679
      -0.569
      -0.463
      -0.357
      -0.254
      -0.156
      -0.044
       0.096
       0.249
       0.387
       0.492
       0.561
       0.588
       0.581
       0.564
       0.556
       0.554
       0.551
       0.552
       0.556
       0.543
       0.495
       0.418
       0.328
       0.223
       0.097
      -0.036
      -0.157
      -0.252
      -0.316
      -0.337
      -0.319
      -0.290
      -0.272
      -0.265
      -0.261
      -0.267
      -0.288
      -0.315
      -0.331
      -0.333
      -0.320
      -0.279
      -0.209
      -0.127
      -0.044
       0.047
       0.156
       0.270
       0.368
       0.434
       0.454
       0.405
       0.281
       0.105
      -0.094
      -0.303
      -0.516
      -0.716
      -0.886
      -1.016
      -1.092
      -1.086
      -0.992
      -0.833
      -0.639
      -0.420
      -0.183
       0.058
       0.289
       0.510
       0.716
       0.885
       1.002
       1.069
       1.093
       1.074
       1.017
       0.947
       0.880
       0.810
       0.724
       0.620
       0.493
       0.335
       0.155
      -0.016
      -0.153
      -0.252
      -0.313
      -0.324
      -0.280
      -0.198
      -0.098
       0.008
       0.107
       0.183
       0.234
       0.272
       0.300
       0.300
       0.263
       0.208
       0.153
       0.096
       0.031
      -0.038
      -0.105
      -0.177
      -0.253
      -0.320
      -0.376
      -0.429
      -0.473
      -0.486
      -0.449
      -0.366
      -0.238
      -0.060
       0.163
       0.398
       0.609
       0.769
       0.860
       0.867
       0.793
       0.661
       0.484
       0.261
       0.000
      -0.269
      -0.516
      -0.731
      -0.908
      -1.040
      -1.124
      -1.170
      -1.173
      -1.119
      -1.012
      -0.881
      -0.748
      -0.608
      -0.455
      -0.296
      -0.142
       0.006
       0.150
       0.287
       0.430
       0.599
       0.797
       1.001
       1.192
       1.367
       1.516
       1.612
       1.640
       1.607
       1.528
       1.413
       1.278
       1.142
       1.006
       0.852
       0.669
       0.460
       0.219
      -0.069
      -0.401
      -0.750
      -1.091
      -1.420
      -1.731
      -2.002
      -2.209
      -2.338
      -2.374
      -2.306
      -2.136
      -1.884
      -1.562
      -1.179
      -0.762
      -0.360
      -0.001
       0.310
       0.572
       0.778
       0.926
       1.026
       1.078
       1.075
       1.025
       0.949
       0.852
       0.727
       0.568
       0.387
       0.190
      -0.024
      -0.244
      -0.450
      -0.638
      -0.817
      -0.979
      -1.096
      -1.144
      -1.120
      -1.027
      -0.870
      -0.676
      -0.478
      -0.297
      -0.131
       0.014
       0.128
       0.217
       0.303
       0.393
       0.483
       0.571
       0.661
       0.748
       0.819
       0.867
       0.894
       0.888
       0.840
       0.761
       0.686
       0.634
       0.600
       0.574
       0.550
       0.518
       0.464
       0.392
       0.319
       0.248
       0.174
       0.106
       0.061
       0.033
      -0.006
      -0.077
      -0.189
      -0.344
      -0.540
      -0.752
      -0.946
      -1.098
      -1.195
      -1.213
      -1.127
      -0.946
      -0.703
      -0.433
      -0.158
       0.099
       0.319
       0.506
       0.672
       0.817
       0.930
       1.016
       1.096
       1.174
       1.238
       1.275
       1.277
       1.231
       1.121
       0.950
       0.729
       0.458
       0.133
      -0.228
      -0.595
      -0.948
      -1.282
      -1.571
      -1.777
      -1.875
      -1.864
      -1.747
      -1.532
      -1.245
      -0.916
      -0.561
      -0.191
       0.172
       0.502
       0.794
       1.050
       1.259
       1.399
       1.463
       1.454
       1.371
       1.208
       0.981
       0.714
       0.413
       0.073
      -0.303
      -0.691
      -1.064
      -1.394
      -1.649
      -1.808
      -1.881
      -1.883
      -1.814
      -1.661
      -1.429
      -1.133
      -0.775
      -0.351
       0.115
       0.580
       1.004
       1.357
       1.613
       1.765
       1.838
       1.872
       1.885
       1.874
       1.841
       1.783
       1.677
       1.493
       1.221
       0.860
       0.410
      -0.117
      -0.684
      -1.251
      -1.796
      -2.305
      -2.738
      -3.040
      -3.171
      -3.112
      -2.861
      -2.438
      -1.898
      -1.301
      -0.691
      -0.091
       0.468
       0.960
       1.379
       1.720
       1.974
       2.133
       2.218
       2.250
       2.228
       2.133
       1.958
       1.707
       1.391
       1.030
       0.667
       0.335
       0.041
      -0.224
      -0.452
      -0.630
      -0.753
      -0.821
      -0.821
      -0.745
      -0.609
      -0.443
      -0.271
      -0.118
      -0.026
      -0.022
      -0.101
      -0.235
      -0.404
      -0.590
      -0.765
      -0.894
      -0.963
      -0.974
      -0.925
      -0.830
      -0.713
      -0.590
      -0.450
      -0.278
      -0.080
       0.124
       0.320
       0.498
       0.644
       0.760
       0.868
       0.986
       1.104
       1.197
       1.257
       1.279
       1.246
       1.140
       0.959
       0.707
       0.384
       0.000
      -0.408
      -0.805
      -1.178
      -1.519
      -1.805
      -2.011
      -2.125
      -2.130
      -2.005
      -1.743
      -1.373
      -0.939
      -0.471
       0.007
       0.467
       0.890
       1.271
       1.606
       1.877
       2.067
       2.176
       2.203
       2.133
       1.960
       1.703
       1.387
       1.017
       0.603
       0.172
      -0.239
      -0.600
      -0.893
      -1.100
      -1.224
      -1.294
      -1.330
      -1.333
      -1.297
      -1.231
      -1.139
      -1.012
      -0.841
      -0.634
      -0.404
      -0.162
       0.072
       0.259
       0.365
       0.391
       0.353
       0.270
       0.171
       0.093
       0.056
       0.046
       0.050
       0.068
       0.105
       0.147
       0.186
       0.228
       0.279
       0.340
       0.417
       0.526
       0.672
       0.828
       0.953
       1.021
       1.004
       0.881
       0.659
       0.377
       0.080
      -0.207
      -0.466
      -0.677
      -0.836
      -0.957
      -1.048
      -1.099
      -1.101
      -1.065
      -1.002
      -0.909
      -0.786
      -0.646
      -0.497
      -0.339
      -0.173
      -0.017
       0.121
       0.246
       0.359
       0.450
       0.518
       0.574
       0.624
       0.652
       0.650
       0.626
       0.585
       0.523
       0.441
       0.349
       0.253
       0.144
       0.030
      -0.062
      -0.112
      -0.127
      -0.118
      -0.086
      -0.037
       0.015
       0.066
       0.125
       0.193
       0.253
       0.288
       0.297
       0.277
       0.214
       0.103
      -0.048
      -0.233
      -0.452
      -0.680
      -0.869
      -0.984
      -1.018
      -0.978
      -0.868
      -0.700
      -0.492
      -0.256
      -0.005
       0.235
       0.427
       0.568
       0.682
       0.785
       0.863
       0.899
       0.887
       0.826
       0.713
       0.558
       0.385
       0.208
       0.030
      -0.139
      -0.276
      -0.368
      -0.414
      -0.414
      -0.366
      -0.293
      -0.233
      -0.207
      -0.205
      -0.215
      -0.233
      -0.252
      -0.255
      -0.238
      -0.214
      -0.186
      -0.146
      -0.096
      -0.048
       0.003
       0.081
       0.199
       0.347
       0.510
       0.674
       0.818
       0.915
       0.957
       0.949
       0.886
       0.753
       0.553
       0.317
       0.070
      -0.178
      -0.419
      -0.646
      -0.855
      -1.046
      -1.208
      -1.318
      -1.370
      -1.365
      -1.291
      -1.133
      -0.912
      -0.680
      -0.486
      -0.348
      -0.267
      -0.231
      -0.209
      -0.162
      -0.073
       0.045
       0.181
       0.322
       0.444
       0.521
       0.551
       0.559
       0.567
       0.583
       0.614
       0.664
       0.719
       0.749
       0.742
       0.701
       0.629
       0.525
       0.401
       0.273
       0.139
      -0.010
      -0.157
      -0.263
      -0.300
      -0.273
      -0.195
      -0.092
       0.004
       0.059
       0.068
       0.042
      -0.020
      -0.125
      -0.261
      -0.395
      -0.487
      -0.506
      -0.421
      -0.220
       0.061
       0.366
       0.651
       0.902
       1.105
       1.245
       1.322
       1.345
       1.315
       1.224
       1.078
       0.885
       0.640
       0.334
      -0.020
      -0.391
      -0.759
      -1.116
      -1.448
      -1.735
      -1.972
      -2.149
      -2.240
      -2.208
      -2.042
      -1.756
      -1.378
      -0.939
      -0.487
      -0.058
       0.337
       0.702
       1.019
       1.259
       1.411
       1.483
       1.481
       1.408
       1.281
       1.119
       0.928
       0.708
       0.467
       0.218
      -0.041
      -0.307
      -0.557
      -0.753
      -0.877
      -0.928
      -0.900
      -0.789
      -0.608
      -0.387
      -0.152
       0.070
       0.245
       0.347
       0.383
       0.380
       0.355
       0.318
       0.290
       0.288
       0.307
       0.323
       0.325
       0.308
       0.261
       0.175
       0.065
      -0.043
      -0.134
      -0.202
      -0.236
      -0.231
      -0.206
      -0.187
      -0.178
      -0.171
      -0.167
      -0.167
      -0.165
      -0.150
      -0.130
      -0.119
      -0.118
      -0.122
      -0.141
      -0.177
      -0.206
      -0.203
      -0.166
      -0.111
      -0.043
       0.041
       0.135
       0.234
       0.344
       0.467
       0.589
       0.686
       0.751
       0.785
       0.784
       0.747
       0.693
       0.641
       0.589
       0.520
       0.431
       0.323
       0.191
       0.036
      -0.130
      -0.291
      -0.447
      -0.601
      -0.737
      -0.838
      -0.903
      -0.931
      -0.910
      -0.839
      -0.739
      -0.639
      -0.548
      -0.457
      -0.363
