Origin Time       20/06/2011 06:27:18
Lat.              30.5 N	
Long.             79.4 E	
Depth (Km)         12.0
Magnitude         4.6
 Region           Chamoli-Uttarakhand                                              
 Above details taken from IMD 
   
Station Code      CHP
Station Lat.       29.334
Station Long.      80.095
Station Height(m) 1635.0
Site Class        A   Vs30 between 700 m/sec to 1400 m/sec * 
Record Time       20.06.2011 06:27:50.614
Sampling Rate     200. Hz
 Record Duration   65.000 Sec.
 Direction         Vert. (Up positive)
Max. Acceleration     -0.566 cm/sec**2
     
  * For reference see Site Classification link of website 
     
 Base Line Corrected and Low Pass Filtered (Cut Off at 35 Hz) Time History
 Acceleration data in cm/sec**2
    
[...]
      -0.099
      -0.058
      -0.016
       0.011
       0.018
       0.012
      -0.001
      -0.015
      -0.032
      -0.046
      -0.048
      -0.035
      -0.019
      -0.015
      -0.034
      -0.072
      -0.106
      -0.110
      -0.072
      -0.009
       0.048
       0.080
       0.092
       0.106
       0.132
       0.165
       0.185
       0.179
       0.146
       0.098
       0.053
       0.014
      -0.025
      -0.064
      -0.098
      -0.119
      -0.128
      -0.128
      -0.119
      -0.099
      -0.070
      -0.034
       0.000
       0.023
       0.030
       0.029
       0.033
       0.043
       0.046
       0.029
      -0.007
      -0.047
      -0.073
      -0.078
      -0.066
      -0.048
      -0.031
      -0.011
       0.016
       0.042
       0.050
       0.036
       0.011
      -0.004
       0.000
       0.015
       0.023
       0.013
      -0.010
      -0.025
      -0.017
       0.014
       0.048
       0.068
       0.072
       0.068
       0.061
       0.053
       0.041
       0.025
       0.007
      -0.007
      -0.017
      -0.029
      -0.048
      -0.066
      -0.064
      -0.036
       0.004
       0.031
       0.036
       0.035
       0.056
       0.112
       0.185
       0.228
       0.207
       0.126
       0.021
      -0.070
      -0.132
      -0.170
      -0.184
      -0.161
      -0.093
       0.007
       0.097
       0.132
       0.098
       0.029
      -0.023
      -0.034
      -0.021
      -0.019
      -0.036
      -0.050
      -0.032
       0.021
       0.073
       0.080
       0.032
      -0.036
      -0.076
      -0.066
      -0.033
      -0.012
      -0.017
      -0.030
      -0.026
       0.004
       0.044
       0.067
       0.062
       0.042
       0.027
       0.024
       0.020
       0.006
      -0.012
      -0.023
      -0.022
      -0.020
      -0.032
      -0.065
      -0.110
      -0.138
      -0.131
      -0.099
      -0.068
      -0.047
      -0.027
       0.007
       0.053
       0.091
       0.101
       0.077
       0.029
      -0.024
      -0.070
      -0.108
      -0.137
      -0.144
      -0.115
      -0.057
       0.005
       0.047
       0.065
       0.073
       0.084
       0.096
       0.092
       0.055
      -0.008
      -0.067
      -0.087
      -0.061
      -0.015
       0.021
       0.033
       0.029
       0.015
      -0.003
      -0.028
      -0.057
      -0.072
      -0.045
       0.035
       0.141
       0.225
       0.252
       0.227
       0.168
       0.086
      -0.019
      -0.139
      -0.255
      -0.325
      -0.310
      -0.197
      -0.023
       0.148
       0.262
       0.302
       0.276
       0.203
       0.107
       0.012
      -0.059
      -0.094
      -0.086
      -0.046
       0.003
       0.040
       0.061
       0.077
       0.088
       0.077
       0.029
      -0.050
      -0.136
      -0.195
      -0.201
      -0.155
      -0.084
      -0.028
      -0.003
      -0.003
      -0.007
       0.001
       0.030
       0.077
       0.123
       0.147
       0.138
       0.100
       0.040
      -0.034
      -0.103
      -0.148
      -0.167
      -0.168
      -0.157
      -0.132
      -0.091
      -0.039
       0.017
       0.064
       0.084
       0.064
       0.009
      -0.056
      -0.105
      -0.127
      -0.129
      -0.127
      -0.142
      -0.181
      -0.224
      -0.242
      -0.216
      -0.155
      -0.078
      -0.004
       0.053
       0.085
       0.093
       0.082
       0.053
       0.012
      -0.027
      -0.047
      -0.041
      -0.014
       0.029
       0.088
       0.148
       0.185
       0.180
       0.137
       0.067
      -0.003
      -0.047
      -0.045
      -0.003
       0.052
       0.097
       0.121
       0.122
       0.100
       0.063
       0.023
      -0.013
      -0.040
      -0.045
      -0.017
       0.042
       0.114
       0.177
       0.215
       0.222
       0.200
       0.164
       0.128
       0.089
       0.035
      -0.035
      -0.108
      -0.167
      -0.207
      -0.227
      -0.235
      -0.242
      -0.255
      -0.260
      -0.241
      -0.197
      -0.147
      -0.104
      -0.067
      -0.029
       0.020
       0.086
       0.163
       0.228
       0.255
       0.239
       0.194
       0.135
       0.065
      -0.016
      -0.098
      -0.163
      -0.191
      -0.170
      -0.104
      -0.027
       0.028
       0.052
       0.066
       0.095
       0.145
       0.210
       0.277
       0.330
       0.365
       0.384
       0.390
       0.366
       0.295
       0.184
       0.075
       0.011
       0.009
       0.060
       0.133
       0.189
       0.204
       0.186
       0.156
       0.124
       0.087
       0.044
       0.006
      -0.021
      -0.037
      -0.047
      -0.060
      -0.091
      -0.145
      -0.211
      -0.264
      -0.290
      -0.287
      -0.260
      -0.212
      -0.161
      -0.136
      -0.152
      -0.213
      -0.306
      -0.410
      -0.488
      -0.506
      -0.462
      -0.380
      -0.289
      -0.210
      -0.156
      -0.131
      -0.125
      -0.124
      -0.125
      -0.132
      -0.133
      -0.114
      -0.068
      -0.008
       0.051
       0.098
       0.121
       0.118
       0.098
       0.072
       0.045
       0.014
      -0.010
      -0.006
       0.030
       0.085
       0.144
       0.199
       0.250
       0.296
       0.346
       0.401
       0.450
       0.474
       0.470
       0.449
       0.411
       0.350
       0.270
       0.183
       0.105
       0.042
      -0.003
      -0.027
      -0.034
      -0.030
      -0.018
      -0.002
       0.001
      -0.026
      -0.078
      -0.126
      -0.144
      -0.122
      -0.069
      -0.006
       0.038
       0.045
       0.017
      -0.036
      -0.111
      -0.201
      -0.281
      -0.322
      -0.317
      -0.289
      -0.267
      -0.258
      -0.254
      -0.237
      -0.192
      -0.130
      -0.079
      -0.059
      -0.050
      -0.015
       0.056
       0.131
       0.177
       0.182
       0.160
       0.135
       0.124
       0.128
       0.126
       0.103
       0.069
       0.047
       0.040
       0.031
       0.007
      -0.020
      -0.030
      -0.009
       0.045
       0.119
       0.190
       0.240
       0.266
       0.270
       0.244
       0.178
       0.087
       0.006
      -0.046
      -0.069
      -0.074
      -0.070
      -0.065
      -0.064
      -0.068
      -0.079
      -0.101
      -0.126
      -0.133
      -0.107
      -0.066
      -0.046
      -0.064
      -0.103
      -0.128
      -0.119
      -0.071
      -0.007
       0.039
       0.045
       0.020
      -0.009
      -0.040
      -0.091
      -0.171
      -0.257
      -0.316
      -0.323
      -0.274
      -0.190
      -0.098
      -0.009
       0.089
       0.205
       0.310
       0.357
       0.328
       0.249
       0.168
       0.114
       0.092
       0.089
       0.093
       0.111
       0.164
       0.251
       0.337
       0.373
       0.342
       0.262
       0.159
       0.054
      -0.039
      -0.107
      -0.142
      -0.145
      -0.116
      -0.068
      -0.027
      -0.016
      -0.030
      -0.045
      -0.050
      -0.054
      -0.065
      -0.074
      -0.070
      -0.048
      -0.013
       0.017
       0.018
      -0.019
      -0.074
      -0.117
      -0.138
      -0.146
      -0.152
      -0.158
      -0.166
      -0.182
      -0.203
      -0.222
      -0.236
      -0.235
      -0.205
      -0.138
      -0.048
       0.044
       0.128
       0.207
       0.276
       0.314
       0.302
       0.236
       0.129
       0.014
      -0.071
      -0.104
      -0.096
      -0.071
      -0.038
       0.007
       0.059
       0.103
       0.128
       0.135
       0.130
       0.115
       0.099
       0.084
       0.067
       0.048
       0.035
       0.037
       0.046
       0.050
       0.049
       0.054
       0.069
       0.081
       0.075
       0.046
       0.004
      -0.030
      -0.029
       0.014
       0.078
       0.131
       0.158
       0.160
       0.142
       0.104
       0.054
       0.012
      -0.007
       0.004
       0.042
       0.094
       0.134
       0.137
       0.103
       0.045
      -0.025
      -0.106
      -0.192
      -0.274
      -0.341
      -0.382
      -0.381
      -0.335
      -0.263
      -0.193
      -0.134
      -0.077
      -0.015
       0.047
       0.095
       0.109
       0.074
      -0.005
      -0.097
      -0.166
      -0.194
      -0.189
      -0.154
      -0.090
      -0.003
       0.091
       0.170
       0.213
       0.209
       0.173
       0.150
       0.179
       0.258
       0.347
       0.403
       0.413
       0.386
       0.341
       0.287
       0.218
       0.124
       0.017
      -0.061
      -0.073
      -0.028
       0.021
       0.029
      -0.013
      -0.078
      -0.128
      -0.134
      -0.097
      -0.038
       0.022
       0.089
       0.169
       0.244
       0.273
       0.231
       0.131
       0.013
      -0.080
      -0.128
      -0.146
      -0.168
      -0.210
      -0.257
      -0.275
      -0.255
      -0.212
      -0.167
      -0.135
      -0.128
      -0.148
      -0.181
      -0.205
      -0.202
      -0.169
      -0.107
      -0.033
       0.029
       0.059
       0.060
       0.050
       0.035
       0.011
      -0.024
      -0.064
      -0.106
      -0.146
      -0.171
      -0.167
      -0.134
      -0.083
      -0.033
      -0.001
      -0.004
      -0.039
      -0.073
      -0.064
      -0.001
       0.090
       0.165
       0.187
       0.146
       0.060
      -0.022
      -0.061
      -0.053
      -0.020
       0.015
       0.040
       0.045
       0.032
       0.019
       0.019
       0.024
       0.013
      -0.026
      -0.079
      -0.127
      -0.153
      -0.153
      -0.136
      -0.125
      -0.130
      -0.133
      -0.111
      -0.062
      -0.008
       0.034
       0.064
       0.091
       0.120
       0.149
       0.158
       0.123
       0.040
      -0.054
      -0.109
      -0.108
      -0.065
      -0.002
       0.071
       0.147
       0.225
       0.294
       0.333
       0.312
       0.222
       0.096
      -0.013
      -0.068
      -0.065
      -0.016
       0.065
       0.160
       0.255
       0.339
       0.398
       0.408
       0.356
       0.256
       0.148
       0.058
      -0.004
      -0.038
      -0.056
      -0.074
      -0.109
      -0.163
      -0.226
      -0.285
      -0.325
      -0.321
      -0.259
      -0.151
      -0.036
       0.052
       0.085
       0.049
      -0.048
      -0.168
      -0.262
      -0.299
      -0.269
      -0.174
      -0.035
       0.106
       0.202
       0.223
       0.168
       0.055
      -0.080
      -0.191
      -0.242
      -0.227
      -0.160
      -0.052
       0.085
       0.227
       0.338
       0.387
       0.360
       0.267
       0.142
       0.037
      -0.011
      -0.006
       0.021
       0.040
       0.033
      -0.012
      -0.100
      -0.217
      -0.333
      -0.416
      -0.443
      -0.402
      -0.304
      -0.185
      -0.085
      -0.013
       0.046
       0.107
       0.171
       0.232
       0.279
       0.296
       0.275
       0.231
       0.183
       0.140
       0.097
       0.051
       0.001
      -0.050
      -0.094
      -0.113
      -0.103
      -0.086
      -0.090
      -0.119
      -0.154
      -0.171
      -0.153
      -0.100
      -0.030
       0.024
       0.039
       0.018
      -0.023
      -0.073
      -0.127
      -0.169
      -0.182
      -0.162
      -0.113
      -0.039
       0.057
       0.165
       0.271
       0.362
       0.420
       0.423
       0.360
       0.250
       0.127
       0.011
      -0.090
      -0.175
      -0.240
      -0.285
      -0.307
      -0.291
      -0.232
      -0.143
      -0.050
       0.029
       0.095
       0.152
       0.214
       0.294
       0.390
       0.470
       0.498
       0.462
       0.381
       0.287
       0.210
       0.165
       0.145
       0.118
       0.050
      -0.060
      -0.183
      -0.288
      -0.350
      -0.356
      -0.305
      -0.211
      -0.087
       0.055
       0.197
       0.301
       0.331
       0.284
       0.184
       0.056
      -0.082
      -0.217
      -0.333
      -0.410
      -0.429
      -0.379
      -0.287
      -0.218
      -0.227
      -0.312
      -0.411
      -0.451
      -0.399
      -0.271
      -0.115
       0.019
       0.118
       0.200
       0.278
       0.334
       0.337
       0.286
       0.204
       0.123
       0.064
       0.040
       0.054
       0.095
       0.149
       0.202
       0.231
       0.209
       0.129
       0.024
      -0.058
      -0.088
      -0.071
      -0.034
      -0.006
      -0.002
      -0.014
      -0.013
       0.023
       0.084
       0.141
       0.174
       0.180
       0.162
       0.133
       0.109
       0.096
       0.078
       0.035
      -0.037
      -0.125
      -0.213
      -0.284
      -0.325
      -0.331
      -0.315
      -0.291
      -0.258
      -0.209
      -0.148
      -0.081
      -0.009
       0.074
       0.161
       0.241
       0.305
       0.351
       0.372
       0.374
       0.373
       0.374
       0.358
       0.295
       0.182
       0.044
      -0.079
      -0.159
      -0.184
      -0.169
      -0.143
      -0.123
      -0.100
      -0.056
       0.002
       0.043
       0.029
      -0.059
      -0.210
      -0.383
      -0.516
      -0.566
      -0.531
      -0.437
      -0.311
      -0.172
      -0.044
       0.051
       0.105
       0.118
       0.104
       0.090
       0.108
       0.173
       0.262
       0.341
       0.392
       0.415
       0.410
       0.365
       0.270
       0.128
      -0.041
      -0.193
      -0.274
      -0.256
      -0.158
      -0.033
       0.075
       0.147
       0.185
       0.201
       0.205
       0.193
       0.142
       0.044
      -0.072
      -0.156
      -0.180
      -0.152
      -0.096
      -0.042
      -0.005
       0.017
       0.041
       0.074
       0.104
       0.113
       0.100
       0.080
       0.070
       0.079
       0.107
       0.141
       0.161
       0.155
       0.128
       0.087
       0.018
      -0.090
      -0.221
      -0.330
      -0.369
      -0.308
      -0.150
       0.066
       0.272
       0.415
       0.480
       0.480
       0.429
       0.335
       0.216
       0.094
      -0.016
      -0.105
      -0.171
      -0.217
      -0.256
      -0.297
      -0.336
      -0.371
      -0.405
      -0.437
      -0.445
      -0.403
      -0.305
      -0.170
      -0.028
       0.094
       0.175
       0.212
       0.217
       0.200
       0.158
       0.083
      -0.015
      -0.119
      -0.219
      -0.312
      -0.387
      -0.434
      -0.446
      -0.420
      -0.355
      -0.256
      -0.141
      -0.027
       0.082
       0.185
       0.269
       0.319
       0.328
       0.303
       0.249
       0.185
       0.135
       0.118
       0.130
       0.154
       0.176
       0.179
       0.147
       0.073
      -0.023
      -0.114
      -0.173
      -0.187
      -0.143
      -0.043
       0.093
       0.235
       0.356
       0.432
       0.444
       0.392
       0.305
       0.218
       0.144
       0.075
      -0.002
      -0.098
      -0.216
      -0.342
      -0.451
      -0.522
      -0.548
      -0.527
      -0.449
      -0.311
      -0.143
       0.009
       0.110
       0.156
       0.165
       0.168
       0.188
       0.217
       0.226
       0.203
       0.173
       0.175
       0.215
       0.260
       0.270
       0.225
       0.139
       0.050
       0.001
      -0.002
       0.013
       0.010
      -0.015
      -0.041
      -0.056
      -0.064
      -0.076
      -0.093
      -0.105
      -0.095
      -0.053
       0.013
       0.072
       0.104
       0.113
       0.111
       0.090
       0.027
      -0.076
      -0.195
      -0.293
      -0.342
      -0.344
      -0.329
      -0.335
      -0.371
      -0.405
      -0.400
      -0.354
      -0.298
      -0.255
      -0.229
      -0.203
      -0.160
      -0.089
       0.000
       0.087
       0.167
       0.251
       0.334
       0.380
       0.355
       0.263
       0.153
       0.080
       0.077
       0.134
       0.209
       0.248
       0.228
       0.163
       0.087
       0.025
      -0.008
      -0.005
       0.025
       0.057
       0.071
       0.073
       0.075
       0.080
       0.078
       0.062
       0.028
      -0.026
      -0.091
      -0.144
      -0.164
      -0.151
      -0.114
      -0.056
       0.015
       0.082
       0.121
       0.118
       0.071
      -0.013
      -0.112
      -0.195
      -0.241
      -0.249
      -0.224
      -0.167
      -0.080
       0.026
       0.132
       0.226
       0.294
       0.316
       0.281
       0.200
       0.096
      -0.011
      -0.106
      -0.173
      -0.203
      -0.202
      -0.181
      -0.141
      -0.086
      -0.030
       0.014
       0.047
       0.078
       0.110
       0.138
       0.159
       0.161
       0.121
       0.031
      -0.089
      -0.202
      -0.287
      -0.341
      -0.368
      -0.377
      -0.367
      -0.323
      -0.226
      -0.083
       0.065
       0.181
       0.260
       0.320
       0.369
       0.401
       0.404
       0.371
       0.303
       0.218
       0.143
       0.090
       0.051
       0.021
       0.014
       0.043
       0.099
       0.154
       0.189
       0.197
       0.179
       0.146
       0.116
       0.089
       0.053
      -0.006
      -0.078
      -0.144
      -0.195
      -0.230
      -0.250
      -0.258
      -0.260
      -0.256
      -0.232
      -0.179
      -0.111
      -0.047
       0.003
       0.040
       0.059
       0.059
       0.045
       0.020
      -0.014
      -0.046
      -0.050
      -0.013
       0.044
       0.085
       0.091
       0.069
       0.036
       0.012
       0.008
       0.018
       0.022
       0.008
      -0.013
      -0.030
      -0.051
      -0.092
      -0.158
      -0.238
      -0.311
      -0.346
      -0.315
      -0.219
      -0.090
       0.035
       0.143
       0.239
       0.317
       0.361
       0.356
       0.297
       0.192
       0.065
      -0.056
      -0.155
      -0.230
      -0.272
      -0.254
      -0.165
      -0.038
       0.068
       0.110
       0.085
       0.027
      -0.017
      -0.017
       0.018
       0.047
       0.040
       0.008
      -0.027
      -0.059
      -0.102
      -0.166
      -0.236
      -0.274
      -0.238
      -0.111
       0.077
       0.254
       0.364
       0.395
       0.361
       0.279
       0.159
       0.024
      -0.101
      -0.197
      -0.261
      -0.298
      -0.325
      -0.356
      -0.380
      -0.361
      -0.270
      -0.119
       0.043
       0.174
       0.246
       0.257
       0.221
       0.166
       0.113
       0.066
       0.031
       0.019
       0.032
       0.061
       0.094
       0.129
       0.160
       0.169
       0.134
       0.058
      -0.029
      -0.092
      -0.103
      -0.056
       0.024
       0.090
       0.118
       0.122
       0.128
       0.150
       0.184
       0.224
       0.259
       0.273
       0.254
       0.194
