Origin Time       19/08/2008 10:54:26
Lat.              30.1°N 
Long.             80.1°E 
Depth (Km)         15.0
Magnitude         4.3
 Region           PITHORAGARH                                                      
 Above details taken from IMD 
     
Station Code      CHP
Station Lat.       29.334  N
Station Long.      80.095  E
Station Height(m) 1635.0
Site Class        A   Vs30 between 700 m/sec to 1400 m/sec * 
Record Time       19.08.2008 10:54:36.594
Sampling Rate     200. Hz
 Record Duration   65.905 Sec.
 Direction         E-W (E positive)
Max. Acceleration     -2.097 cm/sec**2
     
  * For reference see Site Classification link of website 
     
 Base Line Corrected and Low Pass Filtered (Cut Off at 35 Hz) Time History
 Acceleration data in cm/sec**2
    
[...]
      -0.150
      -0.178
      -0.204
      -0.233
      -0.259
      -0.266
      -0.249
      -0.217
      -0.190
      -0.179
      -0.173
      -0.154
      -0.108
      -0.035
       0.054
       0.143
       0.216
       0.260
       0.272
       0.263
       0.249
       0.235
       0.219
       0.195
       0.164
       0.130
       0.097
       0.061
       0.018
      -0.029
      -0.072
      -0.108
      -0.139
      -0.168
      -0.189
      -0.191
      -0.174
      -0.157
      -0.161
      -0.188
      -0.216
      -0.216
      -0.177
      -0.107
      -0.030
       0.039
       0.091
       0.126
       0.147
       0.154
       0.148
       0.132
       0.112
       0.100
       0.103
       0.122
       0.146
       0.161
       0.156
       0.132
       0.092
       0.043
      -0.012
      -0.067
      -0.116
      -0.150
      -0.163
      -0.157
      -0.137
      -0.119
      -0.116
      -0.126
      -0.130
      -0.106
      -0.041
       0.050
       0.140
       0.203
       0.226
       0.214
       0.179
       0.138
       0.100
       0.070
       0.046
       0.023
      -0.007
      -0.048
      -0.098
      -0.153
      -0.208
      -0.259
      -0.301
      -0.324
      -0.320
      -0.283
      -0.219
      -0.145
      -0.079
      -0.032
      -0.005
       0.008
       0.021
       0.049
       0.100
       0.170
       0.244
       0.301
       0.327
       0.321
       0.289
       0.241
       0.190
       0.148
       0.127
       0.133
       0.161
       0.194
       0.210
       0.198
       0.163
       0.115
       0.062
       0.001
      -0.072
      -0.154
      -0.231
      -0.282
      -0.297
      -0.278
      -0.241
      -0.206
      -0.186
      -0.179
      -0.176
      -0.174
      -0.173
      -0.175
      -0.178
      -0.170
      -0.141
      -0.086
      -0.009
       0.079
       0.166
       0.243
       0.298
       0.323
       0.313
       0.275
       0.218
       0.157
       0.102
       0.053
       0.007
      -0.039
      -0.083
      -0.117
      -0.133
      -0.128
      -0.103
      -0.070
      -0.041
      -0.026
      -0.024
      -0.024
      -0.014
       0.014
       0.057
       0.098
       0.120
       0.116
       0.096
       0.084
       0.094
       0.121
       0.139
       0.125
       0.080
       0.021
      -0.029
      -0.060
      -0.082
      -0.113
      -0.164
      -0.230
      -0.290
      -0.318
      -0.301
      -0.243
      -0.164
      -0.081
      -0.003
       0.071
       0.138
       0.190
       0.214
       0.201
       0.154
       0.094
       0.048
       0.036
       0.057
       0.093
       0.118
       0.117
       0.090
       0.047
       0.000
      -0.042
      -0.074
      -0.094
      -0.101
      -0.095
      -0.078
      -0.052
      -0.024
       0.005
       0.034
       0.064
       0.084
       0.085
       0.059
       0.010
      -0.050
      -0.105
      -0.139
      -0.144
      -0.118
      -0.065
       0.005
       0.076
       0.137
       0.176
       0.187
       0.167
       0.117
       0.045
      -0.032
      -0.095
      -0.133
      -0.148
      -0.146
      -0.132
      -0.107
      -0.069
      -0.024
       0.021
       0.056
       0.076
       0.079
       0.063
       0.026
      -0.027
      -0.081
      -0.114
      -0.110
      -0.070
      -0.007
       0.059
       0.114
       0.151
       0.169
       0.172
       0.165
       0.146
       0.112
       0.061
       0.000
      -0.052
      -0.076
      -0.063
      -0.022
       0.024
       0.053
       0.052
       0.021
      -0.026
      -0.074
      -0.110
      -0.128
      -0.130
      -0.123
      -0.118
      -0.125
      -0.147
      -0.172
      -0.182
      -0.157
      -0.093
       0.000
       0.097
       0.173
       0.210
       0.209
       0.187
       0.164
       0.152
       0.151
       0.146
       0.125
       0.085
       0.037
       0.002
      -0.008
       0.006
       0.031
       0.048
       0.048
       0.025
      -0.016
      -0.068
      -0.116
      -0.145
      -0.147
      -0.130
      -0.106
      -0.089
      -0.078
      -0.067
      -0.047
      -0.023
      -0.007
      -0.005
      -0.014
      -0.020
      -0.012
       0.014
       0.049
       0.083
       0.104
       0.102
       0.078
       0.043
       0.008
      -0.020
      -0.042
      -0.060
      -0.071
      -0.065
      -0.037
      -0.003
       0.016
       0.006
      -0.028
      -0.064
      -0.081
      -0.073
      -0.044
      -0.003
       0.042
       0.088
       0.134
       0.178
       0.213
       0.233
       0.230
       0.201
       0.150
       0.083
       0.005
      -0.073
      -0.136
      -0.170
      -0.166
      -0.139
      -0.114
      -0.109
      -0.122
      -0.133
      -0.124
      -0.093
      -0.053
      -0.021
      -0.001
       0.009
       0.012
       0.005
      -0.012
      -0.031
      -0.037
      -0.020
       0.014
       0.052
       0.088
       0.126
       0.173
       0.226
       0.265
       0.274
       0.250
       0.208
       0.166
       0.131
       0.102
       0.066
       0.012
      -0.067
      -0.168
      -0.278
      -0.381
      -0.459
      -0.498
      -0.492
      -0.442
      -0.355
      -0.244
      -0.131
      -0.033
       0.040
       0.097
       0.149
       0.200
       0.245
       0.274
       0.286
       0.290
       0.298
       0.312
       0.325
       0.329
       0.322
       0.299
       0.255
       0.184
       0.096
       0.012
      -0.052
      -0.090
      -0.117
      -0.148
      -0.195
      -0.254
      -0.314
      -0.363
      -0.393
      -0.394
      -0.355
      -0.273
      -0.162
      -0.050
       0.037
       0.091
       0.118
       0.127
       0.119
       0.094
       0.057
       0.031
       0.038
       0.087
       0.163
       0.238
       0.285
       0.292
       0.265
       0.220
       0.172
       0.130
       0.095
       0.063
       0.027
      -0.023
      -0.088
      -0.159
      -0.220
      -0.252
      -0.250
      -0.224
      -0.189
      -0.157
      -0.130
      -0.110
      -0.090
      -0.063
      -0.021
       0.039
       0.107
       0.165
       0.195
       0.192
       0.166
       0.138
       0.126
       0.128
       0.126
       0.103
       0.053
      -0.010
      -0.071
      -0.119
      -0.148
      -0.155
      -0.132
      -0.084
      -0.021
       0.036
       0.074
       0.090
       0.087
       0.074
       0.053
       0.030
       0.005
      -0.019
      -0.046
      -0.080
      -0.121
      -0.164
      -0.197
      -0.208
      -0.198
      -0.176
      -0.159
      -0.156
      -0.171
      -0.195
      -0.219
      -0.231
      -0.219
      -0.175
      -0.092
       0.018
       0.135
       0.232
       0.293
       0.320
       0.323
       0.307
       0.273
       0.220
       0.151
       0.077
      -0.001
      -0.087
      -0.186
      -0.286
      -0.370
      -0.424
      -0.449
      -0.457
      -0.455
      -0.441
      -0.410
      -0.359
      -0.296
      -0.234
      -0.179
      -0.128
      -0.068
       0.017
       0.131
       0.268
       0.411
       0.542
       0.648
       0.713
       0.728
       0.687
       0.602
       0.499
       0.413
       0.362
       0.342
       0.327
       0.295
       0.239
       0.177
       0.133
       0.120
       0.131
       0.139
       0.122
       0.070
      -0.013
      -0.118
      -0.234
      -0.350
      -0.447
      -0.510
      -0.529
      -0.515
      -0.497
      -0.503
      -0.544
      -0.606
      -0.657
      -0.668
      -0.624
      -0.533
      -0.407
      -0.259
      -0.098
       0.064
       0.218
       0.357
       0.484
       0.595
       0.682
       0.730
       0.730
       0.689
       0.629
       0.571
       0.519
       0.468
       0.415
       0.363
       0.317
       0.276
       0.227
       0.161
       0.076
      -0.018
      -0.115
      -0.208
      -0.296
      -0.376
      -0.447
      -0.509
      -0.569
      -0.634
      -0.709
      -0.792
      -0.875
      -0.936
      -0.953
      -0.906
      -0.791
      -0.620
      -0.415
      -0.201
       0.000
       0.170
       0.298
       0.379
       0.428
       0.472
       0.542
       0.648
       0.775
       0.888
       0.956
       0.973
       0.951
       0.905
       0.836
       0.738
       0.607
       0.452
       0.277
       0.080
      -0.155
      -0.433
      -0.731
      -1.009
      -1.223
      -1.350
      -1.393
      -1.366
      -1.288
      -1.172
      -1.032
      -0.876
      -0.705
      -0.512
      -0.283
      -0.014
       0.282
       0.581
       0.857
       1.099
       1.301
       1.456
       1.548
       1.564
       1.507
       1.392
       1.244
       1.076
       0.892
       0.686
       0.448
       0.177
      -0.122
      -0.432
      -0.730
      -0.996
      -1.219
      -1.391
      -1.513
      -1.588
      -1.619
      -1.606
      -1.543
      -1.422
      -1.238
      -0.999
      -0.722
      -0.430
      -0.145
       0.121
       0.360
       0.571
       0.754
       0.915
       1.061
       1.196
       1.314
       1.402
       1.440
       1.416
       1.325
       1.175
       0.978
       0.752
       0.515
       0.285
       0.074
      -0.116
      -0.285
      -0.425
      -0.525
      -0.571
      -0.568
      -0.533
      -0.496
      -0.477
      -0.478
      -0.489
      -0.499
      -0.504
      -0.505
      -0.496
      -0.465
      -0.406
      -0.322
      -0.233
      -0.157
      -0.103
      -0.065
      -0.028
       0.024
       0.098
       0.191
       0.301
       0.426
       0.562
       0.687
       0.775
       0.801
       0.765
       0.691
       0.604
       0.512
       0.404
       0.264
       0.092
      -0.095
      -0.273
      -0.423
      -0.540
      -0.628
      -0.692
      -0.736
      -0.757
      -0.748
      -0.703
      -0.623
      -0.519
      -0.409
      -0.307
      -0.212
      -0.113
      -0.011
       0.073
       0.110
       0.089
       0.025
      -0.045
      -0.089
      -0.104
      -0.102
      -0.099
      -0.099
      -0.098
      -0.092
      -0.083
      -0.072
      -0.052
      -0.009
       0.066
       0.175
       0.308
       0.446
       0.564
       0.640
       0.662
       0.636
       0.579
       0.506
       0.428
       0.341
       0.244
       0.135
       0.023
      -0.082
      -0.167
      -0.220
      -0.233
      -0.204
      -0.141
      -0.067
      -0.011
       0.004
      -0.024
      -0.072
      -0.113
      -0.125
      -0.111
      -0.094
      -0.096
      -0.125
      -0.167
      -0.193
      -0.183
      -0.132
      -0.058
       0.018
       0.079
       0.123
       0.152
       0.172
       0.186
       0.201
       0.225
       0.255
       0.276
       0.277
       0.258
       0.237
       0.233
       0.247
       0.253
       0.220
       0.126
      -0.024
      -0.201
      -0.369
      -0.499
      -0.577
      -0.607
      -0.606
      -0.599
      -0.604
      -0.622
      -0.638
      -0.626
      -0.563
      -0.448
      -0.294
      -0.118
       0.068
       0.260
       0.446
       0.607
       0.714
       0.750
       0.714
       0.630
       0.534
       0.457
       0.416
       0.400
       0.383
       0.345
       0.288
       0.233
       0.206
       0.213
       0.246
       0.285
       0.316
       0.327
       0.304
       0.230
       0.102
      -0.066
      -0.243
      -0.397
      -0.515
      -0.611
      -0.713
      -0.847
      -1.015
      -1.184
      -1.301
      -1.317
      -1.212
      -0.999
      -0.710
      -0.378
      -0.023
       0.340
       0.698
       1.034
       1.329
       1.562
       1.714
       1.775
       1.742
       1.616
       1.400
       1.104
       0.742
       0.339
      -0.083
      -0.503
      -0.903
      -1.263
      -1.564
      -1.793
      -1.949
      -2.035
      -2.057
      -2.015
      -1.899
      -1.697
      -1.404
      -1.029
      -0.592
      -0.125
       0.334
       0.746
       1.084
       1.338
       1.514
       1.624
       1.682
       1.696
       1.672
       1.616
       1.531
       1.415
       1.261
       1.062
       0.821
       0.556
       0.294
       0.057
      -0.149
      -0.331
      -0.500
      -0.663
      -0.813
      -0.934
      -1.008
      -1.017
      -0.954
      -0.825
      -0.650
      -0.464
      -0.305
      -0.199
      -0.153
      -0.151
      -0.162
      -0.167
      -0.164
      -0.165
      -0.175
      -0.182
      -0.169
      -0.120
      -0.034
       0.084
       0.227
       0.391
       0.569
       0.751
       0.921
       1.058
       1.146
       1.175
       1.140
       1.036
       0.867
       0.644
       0.395
       0.146
      -0.087
      -0.303
      -0.513
      -0.726
      -0.946
      -1.164
      -1.368
      -1.538
      -1.655
      -1.706
      -1.691
      -1.620
      -1.507
      -1.354
      -1.156
      -0.899
      -0.581
      -0.211
       0.191
       0.600
       0.993
       1.353
       1.662
       1.899
       2.043
       2.087
       2.048
       1.958
       1.842
       1.699
       1.505
       1.241
       0.912
       0.550
       0.185
      -0.170
      -0.520
      -0.873
      -1.222
      -1.544
      -1.809
      -1.995
      -2.091
      -2.097
      -2.017
      -1.852
      -1.601
      -1.265
      -0.866
      -0.446
      -0.056
       0.270
       0.526
       0.730
       0.907
       1.069
       1.210
       1.319
       1.390
       1.424
       1.424
       1.388
       1.310
       1.191
       1.038
       0.866
       0.682
       0.488
       0.282
       0.061
      -0.172
      -0.412
      -0.650
      -0.874
      -1.072
      -1.234
      -1.358
      -1.455
      -1.535
      -1.595
      -1.608
      -1.541
      -1.374
      -1.118
      -0.814
      -0.504
      -0.210
       0.066
       0.340
       0.620
       0.903
       1.174
       1.410
       1.600
       1.736
       1.817
       1.844
       1.817
       1.737
       1.614
       1.451
       1.246
       0.993
       0.685
       0.332
      -0.044
      -0.415
      -0.757
      -1.061
      -1.325
      -1.548
      -1.727
      -1.856
      -1.929
      -1.944
      -1.901
      -1.795
      -1.613
      -1.350
      -1.018
      -0.655
      -0.309
      -0.009
       0.237
       0.440
       0.606
       0.731
       0.809
       0.839
       0.830
       0.790
       0.726
       0.647
       0.572
       0.525
       0.518
       0.542
       0.578
       0.613
       0.661
       0.745
       0.875
       1.024
       1.142
       1.179
       1.110
       0.942
       0.708
       0.451
       0.212
       0.010
      -0.160
      -0.323
      -0.500
      -0.697
      -0.891
      -1.043
      -1.121
      -1.121
      -1.072
      -1.014
      -0.980
      -0.973
      -0.981
      -0.993
      -1.008
      -1.026
      -1.037
      -1.019
      -0.952
      -0.837
      -0.690
      -0.534
      -0.378
      -0.215
      -0.035
       0.172
       0.401
       0.644
       0.888
       1.121
       1.321
       1.463
       1.526
       1.508
       1.430
       1.329
       1.234
       1.158
       1.088
       1.002
       0.882
       0.721
       0.521
       0.296
       0.065
      -0.143
      -0.305
      -0.418
      -0.499
      -0.587
      -0.712
      -0.878
      -1.060
      -1.216
      -1.316
      -1.344
      -1.301
      -1.192
      -1.028
      -0.827
      -0.613
      -0.407
      -0.213
      -0.025
       0.168
       0.368
       0.560
       0.720
       0.823
       0.848
       0.789
       0.658
       0.490
       0.333
       0.214
       0.131
       0.055
      -0.037
      -0.141
      -0.226
      -0.263
      -0.240
      -0.172
      -0.091
      -0.024
       0.012
       0.008
      -0.035
      -0.107
      -0.185
      -0.239
      -0.244
      -0.198
      -0.128
      -0.071
      -0.049
      -0.057
      -0.072
      -0.072
      -0.044
       0.011
       0.087
       0.176
       0.271
       0.370
       0.471
       0.568
       0.645
       0.679
       0.653
       0.558
       0.409
       0.241
       0.096
       0.004
      -0.041
      -0.073
      -0.137
      -0.248
      -0.384
      -0.497
      -0.546
      -0.525
      -0.459
      -0.385
      -0.331
      -0.302
      -0.292
      -0.289
      -0.279
      -0.244
      -0.170
      -0.058
       0.081
       0.222
       0.345
       0.439
       0.507
       0.559
       0.603
       0.633
       0.634
       0.583
       0.470
       0.301
       0.099
      -0.107
      -0.295
      -0.452
      -0.573
      -0.657
      -0.700
      -0.705
      -0.680
      -0.647
      -0.623
      -0.605
      -0.570
      -0.485
      -0.332
      -0.118
       0.120
       0.329
       0.466
       0.517
       0.503
       0.467
       0.451
       0.472
       0.512
       0.538
       0.520
       0.452
       0.352
       0.250
       0.169
       0.113
       0.076
       0.050
       0.037
       0.037
       0.050
       0.067
       0.076
       0.062
       0.015
      -0.064
      -0.163
      -0.255
      -0.311
      -0.312
      -0.255
      -0.163
      -0.070
      -0.010
      -0.006
      -0.059
      -0.148
      -0.247
      -0.332
      -0.397
      -0.447
      -0.490
      -0.527
      -0.555
      -0.568
      -0.559
      -0.518
      -0.439
      -0.328
      -0.202
      -0.084
       0.016
       0.110
       0.217
       0.350
       0.503
       0.654
       0.783
       0.873
       0.917
       0.917
       0.879
       0.817
       0.745
       0.673
       0.598
       0.507
       0.388
       0.236
       0.052
      -0.149
      -0.340
      -0.488
      -0.571
      -0.594
      -0.585
      -0.581
      -0.604
      -0.651
      -0.700
      -0.724
      -0.701
      -0.621
      -0.494
      -0.345
      -0.206
      -0.097
      -0.011
       0.071
       0.165
       0.268
       0.365
       0.437
       0.476
       0.486
       0.468
       0.419
       0.335
       0.222
       0.104
       0.007
      -0.049
      -0.073
      -0.088
      -0.122
      -0.183
      -0.265
      -0.349
      -0.420
      -0.468
      -0.482
      -0.451
      -0.371
      -0.255
      -0.129
      -0.024
       0.051
       0.111
       0.184
       0.290
       0.419
       0.547
       0.648
       0.712
       0.740
       0.737
       0.699
       0.621
       0.501
       0.356
       0.208
       0.080
      -0.025
      -0.117
      -0.210
      -0.312
      -0.418
      -0.523
      -0.617
      -0.694
      -0.753
      -0.795
      -0.816
      -0.806
      -0.747
      -0.628
      -0.456
      -0.258
      -0.068
       0.085
       0.194
       0.265
       0.319
       0.382
       0.462
       0.548
       0.604
       0.594
       0.513
       0.399
       0.309
       0.278
       0.294
       0.306
       0.270
       0.179
       0.062
      -0.042
      -0.114
      -0.154
      -0.173
      -0.176
      -0.159
      -0.122
      -0.076
