Origin Time       11/1/2010 5:15:18	 
Lat.              29.7 N	
Long.             80.0 E	
Depth (Km)         15.0
Magnitude         3.9
 Region           PITHORAGARH-UTTRAKHAND                                           
 Above details taken from IMD 
     
Station Code      CHP
Station Lat.       29.334  N
Station Long.      80.095  E
Station Height(m) 1635.0
Site Class        A   Vs30 between 700 m/sec to 1400 m/sec * 
Record Time       11.01.2010 05:15:21.519
Sampling Rate     200. Hz
 Record Duration   65.025 Sec.
 Direction         E-W (E positive)
Max. Acceleration     -2.159 cm/sec**2
     
  * For reference see Site Classification link of website 
     
 Base Line Corrected and Low Pass Filtered (Cut Off at 35 Hz) Time History
 Acceleration data in cm/sec**2
    
[...]
       0.144
       0.096
       0.050
      -0.005
      -0.073
      -0.153
      -0.234
      -0.302
      -0.344
      -0.360
      -0.356
      -0.342
      -0.324
      -0.301
      -0.268
      -0.216
      -0.143
      -0.055
       0.030
       0.092
       0.119
       0.112
       0.083
       0.049
       0.027
       0.028
       0.052
       0.092
       0.136
       0.178
       0.212
       0.229
       0.224
       0.191
       0.134
       0.064
      -0.005
      -0.057
      -0.085
      -0.089
      -0.075
      -0.057
      -0.048
      -0.054
      -0.075
      -0.099
      -0.113
      -0.111
      -0.094
      -0.069
      -0.043
      -0.017
       0.012
       0.044
       0.081
       0.121
       0.159
       0.189
       0.197
       0.178
       0.136
       0.086
       0.049
       0.035
       0.044
       0.062
       0.075
       0.073
       0.051
       0.006
      -0.064
      -0.149
      -0.233
      -0.296
      -0.326
      -0.320
      -0.285
      -0.225
      -0.147
      -0.057
       0.030
       0.099
       0.144
       0.168
       0.186
       0.208
       0.231
       0.243
       0.232
       0.196
       0.143
       0.086
       0.035
      -0.005
      -0.036
      -0.059
      -0.078
      -0.101
      -0.130
      -0.164
      -0.189
      -0.195
      -0.174
      -0.132
      -0.083
      -0.043
      -0.019
      -0.009
      -0.003
       0.007
       0.023
       0.044
       0.066
       0.086
       0.103
       0.112
       0.113
       0.108
       0.104
       0.105
       0.113
       0.121
       0.126
       0.127
       0.124
       0.117
       0.100
       0.064
       0.005
      -0.068
      -0.135
      -0.176
      -0.181
      -0.159
      -0.123
      -0.087
      -0.060
      -0.044
      -0.039
      -0.047
      -0.069
      -0.099
      -0.127
      -0.139
      -0.128
      -0.093
      -0.035
       0.037
       0.110
       0.170
       0.206
       0.219
       0.218
       0.208
       0.192
       0.168
       0.133
       0.089
       0.037
      -0.020
      -0.081
      -0.141
      -0.190
      -0.218
      -0.224
      -0.215
      -0.205
      -0.201
      -0.198
      -0.186
      -0.153
      -0.100
      -0.038
       0.023
       0.073
       0.110
       0.129
       0.132
       0.126
       0.119
       0.116
       0.118
       0.123
       0.130
       0.137
       0.139
       0.127
       0.095
       0.048
       0.001
      -0.034
      -0.054
      -0.069
      -0.088
      -0.112
      -0.133
      -0.146
      -0.147
      -0.134
      -0.110
      -0.074
      -0.026
       0.033
       0.096
       0.150
       0.183
       0.185
       0.157
       0.109
       0.056
       0.010
      -0.027
      -0.058
      -0.088
      -0.113
      -0.127
      -0.117
      -0.081
      -0.029
       0.022
       0.054
       0.059
       0.042
       0.016
      -0.010
      -0.028
      -0.036
      -0.033
      -0.019
       0.002
       0.022
       0.032
       0.027
       0.009
      -0.011
      -0.020
      -0.009
       0.022
       0.064
       0.101
       0.120
       0.113
       0.082
       0.040
      -0.001
      -0.028
      -0.035
      -0.023
       0.000
       0.024
       0.040
       0.043
       0.034
       0.019
       0.001
      -0.018
      -0.039
      -0.065
      -0.093
      -0.117
      -0.129
      -0.128
      -0.116
      -0.101
      -0.087
      -0.074
      -0.057
      -0.030
       0.003
       0.039
       0.072
       0.103
       0.133
       0.162
       0.186
       0.200
       0.198
       0.178
       0.143
       0.096
       0.047
       0.001
      -0.037
      -0.064
      -0.080
      -0.090
      -0.102
      -0.128
      -0.174
      -0.237
      -0.299
      -0.340
      -0.342
      -0.300
      -0.221
      -0.120
      -0.017
       0.069
       0.128
       0.163
       0.184
       0.203
       0.219
       0.226
       0.218
       0.198
       0.173
       0.149
       0.122
       0.083
       0.036
      -0.002
      -0.010
       0.015
       0.052
       0.073
       0.062
       0.027
      -0.013
      -0.048
      -0.076
      -0.105
      -0.138
      -0.176
      -0.219
      -0.266
      -0.307
      -0.327
      -0.314
      -0.262
      -0.178
      -0.069
       0.048
       0.155
       0.230
       0.258
       0.240
       0.192
       0.135
       0.089
       0.067
       0.075
       0.110
       0.157
       0.189
       0.183
       0.133
       0.055
      -0.026
      -0.089
      -0.126
      -0.139
      -0.129
      -0.098
      -0.051
      -0.005
       0.020
       0.011
      -0.028
      -0.080
      -0.123
      -0.142
      -0.129
      -0.088
      -0.029
       0.029
       0.065
       0.073
       0.059
       0.035
       0.010
      -0.021
      -0.063
      -0.112
      -0.155
      -0.178
      -0.168
      -0.122
      -0.040
       0.070
       0.195
       0.310
       0.384
       0.399
       0.354
       0.270
       0.177
       0.097
       0.033
      -0.021
      -0.072
      -0.114
      -0.138
      -0.143
      -0.142
      -0.153
      -0.183
      -0.229
      -0.277
      -0.316
      -0.337
      -0.331
      -0.289
      -0.203
      -0.084
       0.042
       0.149
       0.221
       0.262
       0.287
       0.308
       0.324
       0.328
       0.308
       0.266
       0.213
       0.165
       0.130
       0.107
       0.091
       0.074
       0.049
       0.013
      -0.033
      -0.087
      -0.146
      -0.210
      -0.279
      -0.342
      -0.382
      -0.384
      -0.343
      -0.268
      -0.179
      -0.093
      -0.024
       0.023
       0.049
       0.056
       0.051
       0.043
       0.043
       0.053
       0.069
       0.082
       0.092
       0.102
       0.118
       0.138
       0.153
       0.154
       0.136
       0.103
       0.063
       0.022
      -0.014
      -0.045
      -0.071
      -0.089
      -0.094
      -0.081
      -0.048
      -0.005
       0.032
       0.049
       0.038
       0.007
      -0.032
      -0.062
      -0.074
      -0.065
      -0.042
      -0.016
       0.005
       0.016
       0.014
      -0.002
      -0.034
      -0.079
      -0.122
      -0.145
      -0.131
      -0.078
       0.002
       0.082
       0.141
       0.167
       0.162
       0.133
       0.090
       0.042
       0.003
      -0.014
      -0.003
       0.029
       0.067
       0.093
       0.098
       0.080
       0.046
       0.003
      -0.042
      -0.079
      -0.100
      -0.103
      -0.091
      -0.071
      -0.052
      -0.041
      -0.040
      -0.047
      -0.059
      -0.068
      -0.070
      -0.059
      -0.030
       0.016
       0.062
       0.086
       0.076
       0.040
       0.005
      -0.007
       0.011
       0.044
       0.071
       0.071
       0.044
       0.008
      -0.010
       0.006
       0.057
       0.124
       0.185
       0.224
       0.232
       0.213
       0.173
       0.124
       0.074
       0.029
      -0.015
      -0.059
      -0.101
      -0.137
      -0.170
      -0.205
      -0.246
      -0.287
      -0.316
      -0.319
      -0.296
      -0.251
      -0.193
      -0.131
      -0.074
      -0.027
       0.011
       0.050
       0.097
       0.159
       0.229
       0.299
       0.357
       0.394
       0.405
       0.390
       0.352
       0.298
       0.239
       0.178
       0.118
       0.053
      -0.019
      -0.096
      -0.173
      -0.244
      -0.300
      -0.334
      -0.341
      -0.324
      -0.293
      -0.261
      -0.235
      -0.219
      -0.210
      -0.204
      -0.191
      -0.158
      -0.089
       0.011
       0.122
       0.214
       0.262
       0.264
       0.238
       0.209
       0.190
       0.178
       0.158
       0.119
       0.067
       0.018
      -0.013
      -0.026
      -0.030
      -0.039
      -0.056
      -0.075
      -0.085
      -0.084
      -0.078
      -0.076
      -0.084
      -0.101
      -0.115
      -0.106
      -0.063
       0.009
       0.084
       0.135
       0.146
       0.124
       0.094
       0.076
       0.076
       0.085
       0.092
       0.090
       0.081
       0.068
       0.054
       0.038
       0.018
      -0.005
      -0.030
      -0.056
      -0.081
      -0.098
      -0.098
      -0.076
      -0.038
       0.000
       0.022
       0.016
      -0.016
      -0.065
      -0.119
      -0.160
      -0.173
      -0.151
      -0.098
      -0.032
       0.026
       0.064
       0.076
       0.073
       0.065
       0.065
       0.078
       0.100
       0.122
       0.129
       0.103
       0.038
      -0.054
      -0.144
      -0.198
      -0.195
      -0.144
      -0.073
      -0.013
       0.013
       0.003
      -0.026
      -0.053
      -0.059
      -0.042
      -0.010
       0.023
       0.048
       0.062
       0.073
       0.085
       0.099
       0.111
       0.111
       0.093
       0.058
       0.016
      -0.018
      -0.032
      -0.030
      -0.027
      -0.036
      -0.065
      -0.110
      -0.155
      -0.184
      -0.181
      -0.143
      -0.088
      -0.042
      -0.025
      -0.036
      -0.058
      -0.070
      -0.062
      -0.038
      -0.008
       0.017
       0.036
       0.052
       0.074
       0.108
       0.152
       0.196
       0.224
       0.225
       0.192
       0.132
       0.058
      -0.014
      -0.077
      -0.124
      -0.150
      -0.146
      -0.111
      -0.054
       0.004
       0.043
       0.056
       0.052
       0.041
       0.030
       0.023
       0.020
       0.030
       0.055
       0.090
       0.121
       0.131
       0.113
       0.074
       0.025
      -0.022
      -0.057
      -0.072
      -0.059
      -0.018
       0.039
       0.095
       0.140
       0.166
       0.172
       0.157
       0.123
       0.079
       0.038
       0.005
      -0.021
      -0.044
      -0.067
      -0.086
      -0.101
      -0.115
      -0.137
      -0.172
      -0.216
      -0.261
      -0.298
      -0.322
      -0.333
      -0.335
      -0.328
      -0.316
      -0.304
      -0.303
      -0.315
      -0.334
      -0.340
      -0.315
      -0.252
      -0.156
      -0.033
       0.113
       0.274
       0.440
       0.588
       0.698
       0.756
       0.760
       0.714
       0.631
       0.525
       0.419
       0.328
       0.253
       0.180
       0.098
       0.007
      -0.081
      -0.153
      -0.210
      -0.260
      -0.311
      -0.359
      -0.389
      -0.386
      -0.340
      -0.255
      -0.151
      -0.053
       0.014
       0.034
       0.010
      -0.044
      -0.105
      -0.152
      -0.174
      -0.166
      -0.131
      -0.079
      -0.026
       0.008
       0.012
      -0.011
      -0.051
      -0.092
      -0.124
      -0.143
      -0.147
      -0.140
      -0.128
      -0.119
      -0.114
      -0.106
      -0.086
      -0.045
       0.016
       0.087
       0.159
       0.231
       0.309
       0.402
       0.506
       0.599
       0.657
       0.666
       0.627
       0.562
       0.498
       0.459
       0.450
       0.461
       0.469
       0.456
       0.408
       0.315
       0.175
      -0.005
      -0.204
      -0.397
      -0.568
      -0.714
      -0.841
      -0.950
      -1.032
      -1.072
      -1.058
      -0.994
      -0.888
      -0.751
      -0.586
      -0.392
      -0.168
       0.080
       0.333
       0.572
       0.772
       0.907
       0.960
       0.930
       0.835
       0.701
       0.552
       0.396
       0.233
       0.056
      -0.129
      -0.315
      -0.493
      -0.663
      -0.829
      -0.986
      -1.119
      -1.204
      -1.223
      -1.172
      -1.062
      -0.905
      -0.705
      -0.462
      -0.178
       0.132
       0.443
       0.729
       0.973
       1.166
       1.300
       1.368
       1.372
       1.323
       1.235
       1.117
       0.973
       0.811
       0.646
       0.495
       0.368
       0.257
       0.151
       0.040
      -0.079
      -0.202
      -0.329
      -0.459
      -0.589
      -0.704
      -0.790
      -0.846
      -0.885
      -0.927
      -0.972
      -1.007
      -1.014
      -0.989
      -0.936
      -0.859
      -0.753
      -0.610
      -0.437
      -0.249
      -0.062
       0.120
       0.300
       0.478
       0.647
       0.790
       0.895
       0.959
       0.991
       1.005
       1.016
       1.022
       1.010
       0.961
       0.867
       0.740
       0.602
       0.464
       0.325
       0.177
       0.016
      -0.152
      -0.316
      -0.469
      -0.607
      -0.725
      -0.814
      -0.866
      -0.878
      -0.865
      -0.856
      -0.876
      -0.919
      -0.951
      -0.920
      -0.797
      -0.586
      -0.316
      -0.026
       0.257
       0.512
       0.719
       0.866
       0.950
       0.985
       0.994
       0.997
       0.995
       0.973
       0.907
       0.783
       0.611
       0.408
       0.194
      -0.025
      -0.249
      -0.477
      -0.703
      -0.913
      -1.085
      -1.194
      -1.219
      -1.157
      -1.024
      -0.844
      -0.641
      -0.425
      -0.195
       0.054
       0.323
       0.594
       0.845
       1.054
       1.216
       1.341
       1.443
       1.527
       1.576
       1.563
       1.457
       1.241
       0.920
       0.517
       0.060
      -0.422
      -0.899
      -1.337
      -1.700
      -1.960
      -2.110
      -2.159
      -2.131
      -2.045
      -1.913
      -1.741
      -1.534
      -1.301
      -1.051
      -0.796
      -0.537
      -0.273
      -0.002
       0.274
       0.547
       0.806
       1.047
       1.265
       1.459
       1.622
       1.746
       1.818
       1.831
       1.781
       1.679
       1.537
       1.368
       1.175
       0.951
       0.685
       0.383
       0.066
      -0.231
      -0.476
      -0.653
      -0.769
      -0.839
      -0.879
      -0.904
      -0.925
      -0.955
      -0.996
      -1.041
      -1.077
      -1.085
      -1.047
      -0.950
      -0.787
      -0.572
      -0.333
      -0.107
       0.085
       0.242
       0.374
       0.491
       0.592
       0.667
       0.709
       0.711
       0.672
       0.594
       0.478
       0.327
       0.148
      -0.045
      -0.236
      -0.407
      -0.541
      -0.623
      -0.644
      -0.607
      -0.527
      -0.415
      -0.274
      -0.101
       0.097
       0.300
       0.475
       0.605
       0.692
       0.755
       0.814
       0.876
       0.936
       0.984
       1.008
       0.993
       0.921
       0.781
       0.577
       0.330
       0.072
      -0.174
      -0.401
      -0.610
      -0.802
      -0.966
      -1.081
      -1.122
      -1.080
      -0.961
      -0.796
      -0.622
      -0.473
      -0.368
      -0.304
      -0.267
      -0.243
      -0.222
      -0.199
      -0.165
      -0.110
      -0.035
       0.047
       0.115
       0.152
       0.157
       0.139
       0.112
       0.089
       0.080
       0.085
       0.096
       0.104
       0.105
       0.110
       0.139
       0.214
       0.343
       0.517
       0.708
       0.882
       1.010
       1.074
       1.061
       0.969
       0.801
       0.572
       0.297
      -0.007
      -0.322
      -0.621
      -0.881
      -1.084
      -1.231
      -1.333
      -1.396
      -1.417
      -1.386
      -1.301
      -1.175
      -1.029
      -0.874
      -0.706
      -0.505
      -0.256
       0.035
       0.347
       0.648
       0.916
       1.141
       1.320
       1.452
       1.539
       1.585
       1.598
       1.584
       1.549
       1.494
       1.421
       1.325
       1.194
       1.005
       0.740
       0.400
       0.010
      -0.393
      -0.767
      -1.079
      -1.311
      -1.462
      -1.547
      -1.587
      -1.595
      -1.571
      -1.520
      -1.452
      -1.388
      -1.347
      -1.331
      -1.328
      -1.315
      -1.268
      -1.163
      -0.975
      -0.686
      -0.300
       0.152
       0.615
       1.033
       1.364
       1.596
       1.734
       1.795
       1.800
       1.768
       1.712
       1.633
       1.520
       1.366
       1.178
       0.977
       0.788
       0.619
       0.456
       0.276
       0.062
      -0.185
      -0.451
      -0.714
      -0.956
      -1.156
      -1.299
      -1.382
      -1.417
      -1.424
      -1.414
      -1.377
      -1.292
      -1.138
      -0.919
      -0.658
      -0.391
      -0.145
       0.062
       0.228
       0.359
       0.468
       0.570
       0.678
       0.797
       0.927
       1.057
       1.170
       1.245
       1.269
       1.240
       1.160
       1.036
       0.868
       0.658
       0.413
       0.146
      -0.123
      -0.374
      -0.592
      -0.773
      -0.917
      -1.021
      -1.087
      -1.120
      -1.128
      -1.120
      -1.096
      -1.040
      -0.936
      -0.776
      -0.568
      -0.331
      -0.084
       0.158
       0.388
       0.595
       0.764
       0.880
       0.936
       0.937
       0.900
       0.846
       0.791
       0.746
       0.712
       0.681
       0.631
       0.534
       0.371
       0.149
      -0.101
      -0.340
      -0.539
      -0.692
      -0.804
      -0.881
      -0.920
      -0.913
      -0.853
      -0.742
      -0.597
      -0.434
      -0.267
      -0.100
       0.064
       0.214
       0.333
       0.413
       0.459
       0.488
       0.512
       0.528
       0.524
       0.495
       0.449
       0.401
       0.354
       0.293
       0.199
       0.065
      -0.095
      -0.257
      -0.399
      -0.513
      -0.597
      -0.653
      -0.685
      -0.689
      -0.663
      -0.604
      -0.519
      -0.428
      -0.349
      -0.290
      -0.235
      -0.159
      -0.048
       0.095
       0.250
       0.400
       0.541
       0.671
       0.779
       0.846
       0.853
       0.797
       0.692
       0.558
       0.417
       0.281
       0.158
       0.052
      -0.033
      -0.098
      -0.146
      -0.180
      -0.205
      -0.225
      -0.248
      -0.287
      -0.347
      -0.422
      -0.490
      -0.527
      -0.520
      -0.471
      -0.398
      -0.317
      -0.237
      -0.162
      -0.092
      -0.028
       0.033
       0.100
       0.187
       0.298
       0.428
       0.561
       0.682
       0.775
       0.824
       0.808
       0.712
       0.539
       0.317
       0.088
      -0.112
      -0.264
      -0.369
      -0.441
      -0.496
      -0.542
      -0.578
      -0.596
      -0.589
      -0.549
      -0.478
      -0.381
      -0.266
      -0.137
       0.000
       0.143
       0.283
       0.408
       0.508
       0.572
       0.598
       0.592
       0.563
       0.521
       0.467
       0.394
       0.299
       0.187
       0.066
      -0.058
      -0.190
      -0.338
      -0.496
      -0.644
      -0.753
      -0.797
      -0.765
      -0.665
      -0.510
      -0.320
      -0.112
       0.090
       0.266
       0.399
       0.479
       0.506
       0.485
       0.419
       0.315
       0.184
       0.041
      -0.100
      -0.228
      -0.334
      -0.410
      -0.446
      -0.431
      -0.365
      -0.259
      -0.130
       0.007
       0.141
