Origin Time       14/12/2005 07:09:48
Lat.              30.9 N 
Long.             79.3 E 
Depth (Km)         25.7
Magnitude         5.2
 Region           Chamoli-Uttarakhand                                              
 Above details taken from IMD 
   
Station Code      CHP
Station Lat.       29.334
Station Long.      80.095
Station Height(m) 1621.0
Site Class        A   Vs30 between 700 m/sec to 1400 m/sec * 
Record Time       14.12.2005 07:10:39.234
Sampling Rate     200. Hz
 Record Duration   36.930 Sec.
 Direction         Vert. (Up positive)
Max. Acceleration      3.108 cm/sec**2
     
  * For reference see Site Classification link of website 
     
 Base Line Corrected and Low Pass Filtered (Cut Off at 35 Hz) Time History
 Acceleration data in cm/sec**2
    
[...]
      -0.153
      -0.215
      -0.127
       0.054
       0.210
       0.237
       0.113
      -0.090
      -0.267
      -0.347
      -0.325
      -0.248
      -0.167
      -0.103
      -0.042
       0.047
       0.188
       0.381
       0.592
       0.765
       0.843
       0.783
       0.579
       0.273
      -0.055
      -0.318
      -0.466
      -0.496
      -0.437
      -0.320
      -0.168
      -0.004
       0.138
       0.213
       0.194
       0.087
      -0.062
      -0.186
      -0.231
      -0.195
      -0.126
      -0.090
      -0.122
      -0.208
      -0.295
      -0.312
      -0.200
       0.062
       0.436
       0.813
       1.051
       1.047
       0.801
       0.414
       0.021
      -0.287
      -0.492
      -0.615
      -0.668
      -0.652
      -0.578
      -0.484
      -0.403
      -0.337
      -0.260
      -0.142
       0.018
       0.191
       0.340
       0.441
       0.495
       0.521
       0.534
       0.534
       0.502
       0.420
       0.287
       0.127
      -0.032
      -0.168
      -0.279
      -0.377
      -0.467
      -0.537
      -0.557
      -0.510
      -0.408
      -0.291
      -0.196
      -0.122
      -0.026
       0.148
       0.421
       0.744
       1.011
       1.105
       0.959
       0.592
       0.098
      -0.393
      -0.772
      -0.990
      -1.057
      -1.025
      -0.954
      -0.885
      -0.822
      -0.719
      -0.516
      -0.174
       0.279
       0.751
       1.134
       1.357
       1.412
       1.337
       1.186
       0.997
       0.787
       0.556
       0.303
       0.022
      -0.273
      -0.549
      -0.757
      -0.865
      -0.872
      -0.802
      -0.671
      -0.480
      -0.237
       0.032
       0.279
       0.455
       0.521
       0.467
       0.322
       0.142
      -0.014
      -0.119
      -0.195
      -0.287
      -0.422
      -0.586
      -0.728
      -0.801
      -0.785
      -0.683
      -0.503
      -0.255
       0.037
       0.323
       0.549
       0.681
       0.718
       0.685
       0.610
       0.519
       0.425
       0.330
       0.220
       0.070
      -0.137
      -0.380
      -0.608
      -0.758
      -0.791
      -0.704
      -0.526
      -0.308
      -0.101
       0.064
       0.178
       0.265
       0.361
       0.499
       0.681
       0.881
       1.038
       1.078
       0.932
       0.588
       0.119
      -0.339
      -0.666
      -0.815
      -0.822
      -0.749
      -0.628
      -0.455
      -0.223
       0.036
       0.263
       0.404
       0.442
       0.401
       0.327
       0.264
       0.236
       0.228
       0.197
       0.100
      -0.079
      -0.306
      -0.523
      -0.671
      -0.720
      -0.673
      -0.560
      -0.418
      -0.278
      -0.161
      -0.071
       0.012
       0.120
       0.283
       0.497
       0.717
       0.885
       0.956
       0.911
       0.748
       0.472
       0.120
      -0.240
      -0.515
      -0.629
      -0.553
      -0.328
      -0.049
       0.170
       0.243
       0.151
      -0.044
      -0.225
      -0.286
      -0.196
      -0.010
       0.165
       0.236
       0.154
      -0.082
      -0.420
      -0.752
      -0.936
      -0.862
      -0.522
      -0.021
       0.487
       0.873
       1.074
       1.073
       0.872
       0.493
      -0.007
      -0.530
      -0.966
      -1.238
      -1.327
      -1.280
      -1.186
      -1.130
      -1.150
      -1.200
      -1.171
      -0.949
      -0.485
       0.166
       0.860
       1.430
       1.750
       1.777
       1.558
       1.197
       0.807
       0.461
       0.190
      -0.010
      -0.151
      -0.244
      -0.306
      -0.360
      -0.433
      -0.530
      -0.626
      -0.668
      -0.609
      -0.441
      -0.189
       0.108
       0.417
       0.696
       0.882
       0.919
       0.807
       0.619
       0.456
       0.381
       0.376
       0.362
       0.247
      -0.015
      -0.378
      -0.710
      -0.862
      -0.757
      -0.435
      -0.017
       0.380
       0.696
       0.920
       1.047
       1.060
       0.944
       0.721
       0.447
       0.174
      -0.077
      -0.313
      -0.523
      -0.670
      -0.708
      -0.625
      -0.455
      -0.252
      -0.057
       0.120
       0.283
       0.423
       0.509
       0.495
       0.357
       0.124
      -0.120
      -0.279
      -0.302
      -0.206
      -0.064
       0.053
       0.115
       0.141
       0.170
       0.226
       0.304
       0.388
       0.475
       0.570
       0.664
       0.724
       0.711
       0.620
       0.491
       0.372
       0.285
       0.210
       0.119
       0.003
      -0.130
      -0.283
      -0.477
      -0.731
      -1.029
      -1.311
      -1.489
      -1.491
      -1.295
      -0.942
      -0.514
      -0.092
       0.268
       0.534
       0.687
       0.707
       0.578
       0.312
      -0.045
      -0.418
      -0.744
      -0.994
      -1.168
      -1.260
      -1.243
      -1.097
      -0.853
      -0.596
      -0.414
      -0.355
      -0.408
      -0.529
      -0.668
      -0.780
      -0.825
      -0.779
      -0.642
      -0.445
      -0.237
      -0.056
       0.088
       0.210
       0.327
       0.443
       0.547
       0.624
       0.667
       0.689
       0.712
       0.758
       0.823
       0.884
       0.911
       0.893
       0.835
       0.744
       0.618
       0.454
       0.262
       0.074
      -0.066
      -0.117
      -0.071
       0.043
       0.181
       0.311
       0.429
       0.537
       0.623
       0.644
       0.555
       0.333
      -0.003
      -0.398
      -0.771
      -1.034
      -1.119
      -0.998
      -0.685
      -0.227
       0.299
       0.799
       1.173
       1.333
       1.236
       0.906
       0.439
      -0.021
      -0.334
      -0.418
      -0.278
       0.010
       0.336
       0.604
       0.753
       0.755
       0.607
       0.345
       0.047
      -0.185
      -0.273
      -0.204
      -0.030
       0.166
       0.315
       0.376
       0.326
       0.151
      -0.138
      -0.476
      -0.748
      -0.817
      -0.593
      -0.097
       0.517
       1.021
       1.223
       1.075
       0.692
       0.281
       0.026
       0.010
       0.208
       0.521
       0.821
       0.975
       0.895
       0.569
       0.081
      -0.428
      -0.832
      -1.071
      -1.152
      -1.109
      -0.971
      -0.763
      -0.529
      -0.336
      -0.242
      -0.258
      -0.337
      -0.417
      -0.459
      -0.475
      -0.506
      -0.585
      -0.714
      -0.856
      -0.953
      -0.952
      -0.813
      -0.525
      -0.112
       0.368
       0.821
       1.147
       1.260
       1.134
       0.814
       0.406
       0.026
      -0.258
      -0.444
      -0.575
      -0.702
      -0.860
      -1.078
      -1.368
      -1.700
      -1.979
      -2.079
      -1.911
      -1.465
      -0.814
      -0.079
       0.605
       1.123
       1.410
       1.470
       1.371
       1.206
       1.044
       0.898
       0.732
       0.499
       0.176
      -0.221
      -0.630
      -0.958
      -1.106
      -1.001
      -0.644
      -0.105
       0.499
       1.060
       1.493
       1.746
       1.786
       1.609
       1.251
       0.785
       0.300
      -0.128
      -0.453
      -0.654
      -0.736
      -0.729
      -0.690
      -0.687
      -0.764
      -0.904
      -1.030
      -1.051
      -0.905
      -0.596
      -0.180
       0.242
       0.565
       0.711
       0.666
       0.487
       0.265
       0.086
      -0.008
      -0.013
       0.059
       0.196
       0.389
       0.612
       0.825
       0.989
       1.092
       1.155
       1.208
       1.257
       1.264
       1.156
       0.866
       0.378
      -0.243
      -0.878
      -1.408
      -1.747
      -1.856
      -1.723
      -1.367
      -0.843
      -0.237
       0.358
       0.865
       1.243
       1.480
       1.584
       1.568
       1.433
       1.186
       0.846
       0.449
       0.031
      -0.387
      -0.783
      -1.116
      -1.327
      -1.372
      -1.257
      -1.033
      -0.771
      -0.529
      -0.332
      -0.179
      -0.070
      -0.034
      -0.113
      -0.330
      -0.654
      -0.996
      -1.257
      -1.376
      -1.363
      -1.280
      -1.197
      -1.145
      -1.117
      -1.080
      -0.995
      -0.825
      -0.540
      -0.136
       0.352
       0.850
       1.260
       1.505
       1.568
       1.516
       1.459
       1.475
       1.550
       1.597
       1.526
       1.296
       0.931
       0.500
       0.090
      -0.214
      -0.347
      -0.271
       0.002
       0.409
       0.843
       1.180
       1.329
       1.252
       0.973
       0.577
       0.198
      -0.031
      -0.047
       0.094
       0.246
       0.248
      -0.003
      -0.516
      -1.216
      -1.963
      -2.591
      -2.945
      -2.932
      -2.550
      -1.883
      -1.070
      -0.256
       0.443
       0.946
       1.198
       1.185
       0.960
       0.643
       0.352
       0.144
      -0.005
      -0.142
      -0.286
      -0.408
      -0.461
      -0.411
      -0.240
       0.062
       0.494
       1.014
       1.522
       1.881
       1.981
       1.795
       1.389
       0.884
       0.409
       0.045
      -0.191
      -0.339
      -0.449
      -0.539
      -0.600
      -0.625
      -0.619
      -0.589
      -0.516
      -0.363
      -0.100
       0.251
       0.625
       0.934
       1.112
       1.134
       1.004
       0.727
       0.311
      -0.214
      -0.780
      -1.296
      -1.683
      -1.901
      -1.930
      -1.760
      -1.390
      -0.849
      -0.210
       0.416
       0.915
       1.210
       1.285
       1.178
       0.943
       0.622
       0.239
      -0.192
      -0.648
      -1.076
      -1.407
      -1.568
      -1.513
      -1.228
      -0.738
      -0.115
       0.519
       1.019
       1.275
       1.253
       1.007
       0.632
       0.208
      -0.219
      -0.629
      -0.998
      -1.299
      -1.513
      -1.641
      -1.681
      -1.609
      -1.386
      -0.996
      -0.478
       0.092
       0.631
       1.076
       1.369
       1.469
       1.381
       1.188
       1.036
       1.070
       1.355
       1.827
       2.304
       2.572
       2.486
       2.034
       1.330
       0.549
      -0.143
      -0.635
      -0.872
      -0.858
      -0.653
      -0.377
      -0.177
      -0.160
      -0.318
      -0.522
      -0.611
      -0.506
      -0.251
       0.050
       0.317
       0.529
       0.680
       0.737
       0.647
       0.395
       0.038
      -0.311
      -0.540
      -0.597
      -0.504
      -0.351
      -0.253
      -0.304
      -0.530
      -0.870
      -1.211
      -1.442
      -1.504
      -1.402
      -1.193
      -0.949
      -0.725
      -0.546
      -0.414
      -0.320
      -0.262
      -0.244
      -0.269
      -0.338
      -0.439
      -0.551
      -0.645
      -0.695
      -0.682
      -0.596
      -0.444
      -0.257
      -0.079
       0.060
       0.158
       0.239
       0.335
       0.482
       0.713
       1.030
       1.383
       1.682
       1.846
       1.847
       1.710
       1.480
       1.184
       0.814
       0.356
      -0.174
      -0.702
      -1.106
      -1.263
      -1.114
      -0.697
      -0.144
       0.373
       0.721
       0.873
       0.903
       0.929
       1.040
       1.257
       1.522
       1.708
       1.660
       1.262
       0.516
      -0.443
      -1.404
      -2.163
      -2.601
      -2.699
      -2.512
      -2.128
      -1.625
      -1.068
      -0.502
       0.037
       0.526
       0.932
       1.202
       1.286
       1.178
       0.951
       0.722
       0.576
       0.507
       0.435
       0.273
       0.002
      -0.312
      -0.557
      -0.637
      -0.530
      -0.297
      -0.035
       0.180
       0.341
       0.505
       0.735
       1.046
       1.386
       1.675
       1.845
       1.854
       1.667
       1.266
       0.684
       0.013
      -0.621
      -1.120
      -1.441
      -1.588
      -1.590
      -1.483
      -1.302
      -1.076
      -0.816
      -0.516
      -0.166
       0.219
       0.596
       0.916
       1.145
       1.259
       1.217
       0.965
       0.481
      -0.166
      -0.818
      -1.314
      -1.580
      -1.660
      -1.655
      -1.643
      -1.629
      -1.562
      -1.393
      -1.109
      -0.748
      -0.371
      -0.028
       0.250
       0.454
       0.583
       0.643
       0.630
       0.529
       0.329
       0.038
      -0.308
      -0.662
      -0.972
      -1.190
      -1.276
      -1.210
      -0.999
      -0.675
      -0.274
       0.175
       0.652
       1.123
       1.505
       1.674
       1.521
       1.041
       0.367
      -0.281
      -0.706
      -0.819
      -0.641
      -0.250
       0.265
       0.813
       1.289
       1.587
       1.623
       1.383
       0.935
       0.411
      -0.040
      -0.314
      -0.383
      -0.281
      -0.063
       0.215
       0.494
       0.699
       0.767
       0.679
       0.477
       0.240
       0.035
      -0.112
      -0.216
      -0.315
      -0.449
      -0.647
      -0.909
      -1.207
      -1.487
      -1.689
      -1.765
      -1.700
      -1.527
      -1.309
      -1.122
      -1.008
      -0.959
      -0.923
      -0.831
      -0.620
      -0.244
       0.313
       1.014
       1.766
       2.437
       2.908
       3.108
       3.018
       2.657
       2.067
       1.326
       0.547
      -0.132
      -0.586
      -0.755
      -0.672
      -0.450
      -0.209
      -0.018
       0.115
       0.204
       0.252
       0.250
       0.185
       0.044
      -0.191
      -0.522
      -0.905
      -1.246
      -1.420
      -1.326
      -0.934
      -0.318
       0.359
       0.902
       1.164
       1.104
       0.787
       0.332
      -0.164
      -0.661
      -1.147
      -1.534
      -1.620
      -1.228
      -0.427
       0.410
       0.838
       0.681
       0.111
      -0.553
      -1.065
      -1.302
      -1.217
      -0.846
      -0.281
       0.372
       1.001
       1.480
       1.724
       1.751
       1.653
       1.500
       1.286
       0.983
       0.588
       0.123
      -0.373
      -0.827
      -1.148
      -1.293
      -1.295
      -1.210
      -1.055
      -0.815
      -0.477
      -0.038
       0.495
       1.061
       1.517
       1.711
       1.592
       1.241
       0.791
       0.355
       0.005
      -0.235
      -0.388
      -0.516
      -0.668
      -0.854
      -1.047
      -1.197
      -1.239
      -1.123
      -0.857
      -0.516
      -0.177
       0.127
       0.399
       0.623
       0.760
       0.794
       0.758
       0.706
       0.669
       0.641
       0.606
       0.568
       0.560
       0.611
       0.701
       0.746
       0.656
       0.417
       0.098
      -0.222
      -0.520
      -0.820
      -1.142
      -1.468
      -1.754
      -1.944
      -1.988
      -1.869
      -1.617
      -1.288
      -0.923
      -0.528
      -0.103
       0.325
       0.689
       0.907
       0.936
       0.797
       0.570
       0.339
       0.148
       0.004
      -0.073
      -0.040
       0.134
       0.410
       0.686
       0.844
       0.806
       0.566
       0.188
      -0.219
      -0.543
      -0.713
      -0.711
      -0.568
      -0.353
      -0.149
      -0.008
       0.077
       0.173
       0.346
       0.605
       0.886
       1.098
       1.174
       1.099
       0.902
       0.642
       0.383
       0.193
       0.117
       0.140
       0.171
       0.092
      -0.154
      -0.505
      -0.806
      -0.912
      -0.784
      -0.515
      -0.262
      -0.137
      -0.143
      -0.190
      -0.179
      -0.080
       0.047
       0.105
       0.017
      -0.211
      -0.494
      -0.712
      -0.783
      -0.697
      -0.529
      -0.395
      -0.369
      -0.440
      -0.538
      -0.590
      -0.560
      -0.448
      -0.286
      -0.112
       0.056
       0.236
       0.440
       0.644
       0.790
       0.840
       0.804
       0.719
       0.611
       0.499
       0.398
       0.312
       0.223
       0.114
      -0.007
      -0.105
      -0.151
      -0.146
      -0.105
      -0.017
       0.139
       0.352
       0.556
       0.674
       0.642
       0.434
       0.085
      -0.308
      -0.645
      -0.879
      -1.004
      -0.997
      -0.830
      -0.521
      -0.156
       0.162
       0.376
       0.496
       0.568
       0.639
       0.725
       0.799
       0.813
       0.729
       0.536
       0.231
      -0.169
      -0.608
      -0.978
      -1.181
      -1.191
      -1.055
      -0.838
      -0.582
      -0.296
       0.011
       0.311
       0.566
       0.732
       0.789
       0.738
       0.590
       0.352
       0.049
      -0.258
      -0.482
      -0.558
      -0.481
      -0.305
      -0.111
       0.037
       0.126
       0.206
       0.337
       0.527
       0.708
       0.796
       0.769
       0.684
       0.615
       0.579
       0.513
       0.322
      -0.040
      -0.520
      -0.973
      -1.241
      -1.238
      -0.982
      -0.569
      -0.111
       0.311
       0.650
       0.881
       0.987
       0.962
       0.829
       0.643
       0.462
       0.300
       0.122
      -0.095
      -0.313
      -0.440
      -0.405
      -0.226
      -0.007
       0.109
       0.017
      -0.292
      -0.718
      -1.104
      -1.303
      -1.248
      -0.962
      -0.539
      -0.079
       0.353
       0.733
       1.049
       1.269
       1.349
       1.269
       1.054
       0.742
       0.353
      -0.110
      -0.619
      -1.090
      -1.412
      -1.508
      -1.369
      -1.034
      -0.549
       0.043
       0.677
       1.246
       1.620
       1.706
       1.498
       1.085
       0.615
       0.219
      -0.040
      -0.191
      -0.326
      -0.526
      -0.801
      -1.081
      -1.270
      -1.304
      -1.172
      -0.900
      -0.529
      -0.136
       0.163
       0.248
       0.080
      -0.252
      -0.581
      -0.766
      -0.768
      -0.644
      -0.480
      -0.334
      -0.221
      -0.137
      -0.078
      -0.039
       0.010
       0.117
       0.321
       0.597
       0.859
       1.002
       0.972
       0.789
       0.516
       0.206
      -0.111
      -0.418
      -0.676
      -0.814
      -0.754
      -0.466
       0.000
       0.524
       0.968
       1.228
       1.263
       1.099
       0.821
       0.541
       0.347
       0.256
       0.198
       0.067
      -0.211
      -0.632
      -1.114
      -1.534
      -1.771
      -1.743
      -1.435
      -0.911
      -0.286
       0.315
       0.807
       1.153
       1.347
       1.389
       1.285
       1.046
       0.705
       0.310
      -0.089
      -0.455
      -0.773
      -1.039
      -1.237
      -1.326
      -1.244
      -0.948
      -0.448
       0.178
       0.788
       1.222
       1.359
       1.169
       0.738
       0.214
      -0.262
      -0.617
      -0.841
      -0.949
      -0.958
      -0.884
      -0.760
      -0.619
      -0.464
      -0.248
       0.082
       0.539
       1.052
       1.507
       1.793
       1.849
       1.663
