Origin Time       31/5/2010 11:37:04	
Lat.              30.0 N	
Long.             79.8 E	
Depth (Km)         10.0
Magnitude         3.6
 Region           Almora-UTTRAKHAND                                                
 Above details taken from IMD 
   
Station Code      CHP
Station Lat.       29.334
Station Long.      80.095
Station Height(m) 1635.0
Site Class        A   Vs30 between 700 m/sec to 1400 m/sec * 
Record Time       31.05.2010 11:36:45.984
Sampling Rate     200. Hz
 Record Duration   69.965 Sec.
 Direction         Vert. (Up positive)
Max. Acceleration    -16.214 cm/sec**2
     
  * For reference see Site Classification link of website 
     
 Base Line Corrected and Low Pass Filtered (Cut Off at 35 Hz) Time History
 Acceleration data in cm/sec**2
    
[...]
      -0.004
      -0.011
      -0.014
      -0.011
      -0.005
      -0.002
      -0.003
      -0.006
      -0.007
      -0.004
       0.001
       0.002
       0.000
      -0.003
      -0.004
      -0.002
       0.003
       0.009
       0.011
       0.007
       0.000
      -0.007
      -0.011
      -0.012
      -0.012
      -0.010
      -0.007
      -0.002
       0.000
       0.000
      -0.002
      -0.003
      -0.003
      -0.002
      -0.004
      -0.008
      -0.011
      -0.008
      -0.001
       0.006
       0.010
       0.011
       0.009
       0.007
       0.004
       0.001
       0.001
       0.002
       0.001
      -0.003
      -0.009
      -0.010
      -0.005
       0.003
       0.009
       0.010
       0.007
       0.003
      -0.002
      -0.007
      -0.011
      -0.012
      -0.007
       0.001
       0.006
       0.007
       0.002
      -0.003
      -0.003
       0.000
       0.005
       0.006
       0.002
      -0.006
      -0.013
      -0.015
      -0.012
      -0.005
       0.004
       0.010
       0.013
       0.011
       0.005
       0.001
       0.000
       0.003
       0.005
       0.004
       0.000
      -0.004
      -0.005
      -0.003
       0.000
       0.000
      -0.003
      -0.006
      -0.007
      -0.005
      -0.001
       0.002
       0.005
       0.007
       0.006
       0.001
      -0.003
      -0.003
       0.002
       0.009
       0.013
       0.012
       0.005
      -0.003
      -0.009
      -0.012
      -0.012
      -0.010
      -0.007
      -0.004
      -0.001
       0.003
       0.005
       0.004
       0.001
      -0.001
       0.000
       0.000
      -0.002
      -0.003
      -0.002
       0.000
       0.000
      -0.004
      -0.011
      -0.015
      -0.013
      -0.007
      -0.001
       0.002
       0.002
       0.001
      -0.001
      -0.002
       0.001
       0.007
       0.012
       0.014
       0.011
       0.006
       0.003
       0.004
       0.008
       0.012
       0.014
       0.013
       0.010
       0.004
      -0.001
      -0.001
       0.003
       0.006
       0.007
       0.004
       0.002
       0.003
       0.008
       0.013
       0.016
       0.013
       0.004
      -0.005
      -0.008
      -0.004
       0.004
       0.007
       0.001
      -0.008
      -0.012
      -0.009
      -0.001
       0.004
       0.002
      -0.002
      -0.005
      -0.003
       0.002
       0.007
       0.007
       0.004
      -0.001
      -0.005
      -0.008
      -0.008
      -0.002
       0.008
       0.015
       0.015
       0.008
       0.000
      -0.005
      -0.006
      -0.005
      -0.003
      -0.004
      -0.006
      -0.008
      -0.008
      -0.008
      -0.009
      -0.011
      -0.011
      -0.007
      -0.001
       0.006
       0.010
       0.013
       0.012
       0.009
       0.005
       0.004
       0.004
       0.001
      -0.006
      -0.015
      -0.021
      -0.019
      -0.008
       0.008
       0.019
       0.020
       0.013
       0.006
       0.004
       0.002
      -0.002
      -0.008
      -0.012
      -0.009
      -0.001
       0.007
       0.010
       0.011
       0.009
       0.007
       0.002
      -0.004
      -0.010
      -0.014
      -0.010
       0.000
       0.010
       0.012
       0.006
      -0.001
      -0.007
      -0.010
      -0.010
      -0.008
      -0.003
       0.001
       0.003
       0.003
       0.003
       0.004
       0.004
       0.002
       0.001
       0.001
       0.000
      -0.001
      -0.003
      -0.005
      -0.007
      -0.010
      -0.010
      -0.003
       0.009
       0.018
       0.015
       0.004
      -0.004
      -0.003
       0.006
       0.011
       0.007
      -0.006
      -0.020
      -0.022
      -0.011
       0.005
       0.014
       0.010
       0.000
      -0.006
      -0.003
       0.006
       0.011
       0.007
      -0.002
      -0.007
      -0.003
       0.009
       0.018
       0.014
       0.000
      -0.012
      -0.012
      -0.001
       0.012
       0.020
       0.021
       0.020
       0.018
       0.017
       0.015
       0.012
       0.007
       0.002
      -0.002
      -0.004
      -0.001
       0.005
       0.009
       0.007
      -0.002
      -0.013
      -0.017
      -0.010
       0.006
       0.023
       0.032
       0.026
       0.011
      -0.004
      -0.011
      -0.006
       0.004
       0.014
       0.017
       0.016
       0.014
       0.012
       0.009
       0.004
       0.001
       0.002
       0.007
       0.012
       0.012
       0.006
      -0.003
      -0.008
      -0.005
       0.005
       0.015
       0.018
       0.014
       0.010
       0.011
       0.019
       0.027
       0.026
       0.014
      -0.001
      -0.009
      -0.008
      -0.003
       0.002
       0.005
       0.005
       0.006
       0.008
       0.008
       0.004
       0.000
      -0.002
       0.001
       0.008
       0.015
       0.016
       0.011
       0.002
      -0.005
      -0.007
      -0.005
       0.000
       0.004
       0.006
       0.004
       0.002
       0.003
       0.010
       0.022
       0.032
       0.032
       0.021
       0.006
      -0.005
      -0.007
      -0.006
      -0.003
       0.001
       0.008
       0.015
       0.018
       0.014
       0.006
       0.000
       0.001
       0.005
       0.004
      -0.002
      -0.011
      -0.015
      -0.010
       0.001
       0.009
       0.008
       0.000
      -0.006
      -0.003
       0.006
       0.012
       0.012
       0.005
      -0.002
      -0.004
       0.000
       0.007
       0.011
       0.007
      -0.003
      -0.013
      -0.014
      -0.007
       0.003
       0.007
       0.004
      -0.001
      -0.005
      -0.007
      -0.007
      -0.004
      -0.001
       0.003
       0.005
       0.005
       0.002
      -0.004
      -0.006
      -0.003
       0.002
       0.003
      -0.002
      -0.010
      -0.011
      -0.006
       0.000
       0.002
      -0.003
      -0.011
      -0.016
      -0.014
      -0.004
       0.007
       0.010
       0.004
      -0.007
      -0.015
      -0.015
      -0.008
       0.000
       0.005
       0.006
       0.004
       0.004
       0.004
       0.003
      -0.003
      -0.010
      -0.013
      -0.009
       0.002
       0.014
       0.019
       0.014
       0.000
      -0.013
      -0.016
      -0.010
      -0.003
      -0.003
      -0.008
      -0.010
      -0.004
       0.007
       0.014
       0.011
       0.002
      -0.005
      -0.004
       0.004
       0.012
       0.014
       0.007
      -0.003
      -0.007
      -0.001
       0.009
       0.016
       0.012
       0.002
      -0.004
       0.000
       0.009
       0.016
       0.016
       0.009
       0.004
       0.004
       0.009
       0.012
       0.009
       0.003
       0.001
       0.006
       0.013
       0.013
       0.004
      -0.007
      -0.010
      -0.002
       0.010
       0.016
       0.011
       0.001
      -0.008
      -0.009
      -0.001
       0.007
       0.008
       0.003
      -0.001
       0.002
       0.007
       0.007
      -0.001
      -0.008
      -0.010
      -0.007
      -0.006
      -0.009
      -0.011
      -0.006
       0.004
       0.015
       0.020
       0.017
       0.009
       0.000
      -0.004
      -0.003
      -0.001
       0.000
       0.000
       0.003
       0.009
       0.016
       0.016
       0.008
      -0.002
      -0.008
      -0.006
       0.003
       0.011
       0.014
       0.010
       0.003
       0.000
       0.003
       0.006
       0.003
      -0.005
      -0.015
      -0.018
      -0.015
      -0.006
       0.001
       0.005
       0.003
      -0.002
      -0.004
       0.000
       0.007
       0.011
       0.010
       0.005
       0.001
       0.001
       0.002
       0.002
       0.002
       0.003
       0.006
       0.010
       0.013
       0.011
       0.004
      -0.004
      -0.008
      -0.005
       0.003
       0.008
       0.007
      -0.001
      -0.008
      -0.010
      -0.007
      -0.003
      -0.001
      -0.004
      -0.007
      -0.008
      -0.003
       0.003
       0.004
      -0.002
      -0.009
      -0.009
      -0.002
       0.008
       0.013
       0.009
      -0.001
      -0.011
      -0.012
      -0.006
       0.004
       0.007
       0.002
      -0.011
      -0.021
      -0.024
      -0.019
      -0.008
       0.004
       0.012
       0.015
       0.011
       0.004
       0.000
       0.003
       0.014
       0.025
       0.027
       0.018
       0.006
      -0.002
      -0.002
       0.004
       0.010
       0.012
       0.009
       0.003
      -0.005
      -0.012
      -0.013
      -0.008
       0.002
       0.009
       0.008
       0.003
       0.000
       0.003
       0.008
       0.011
       0.008
       0.000
      -0.006
      -0.007
      -0.004
       0.002
       0.004
       0.002
      -0.003
      -0.007
      -0.007
      -0.005
      -0.005
      -0.007
      -0.009
      -0.006
       0.002
       0.010
       0.013
       0.007
      -0.002
      -0.006
      -0.003
       0.002
       0.006
       0.002
      -0.007
      -0.014
      -0.014
      -0.006
       0.005
       0.011
       0.009
       0.000
      -0.007
      -0.008
      -0.004
       0.001
       0.003
       0.003
       0.001
      -0.001
      -0.004
      -0.005
      -0.006
      -0.007
      -0.008
      -0.009
      -0.007
      -0.003
       0.004
       0.011
       0.019
       0.022
       0.018
       0.006
      -0.006
      -0.009
      -0.002
       0.009
       0.015
       0.012
       0.004
       0.000
       0.006
       0.015
       0.018
       0.013
       0.006
       0.007
       0.016
       0.025
       0.027
       0.019
       0.007
      -0.002
      -0.006
      -0.003
       0.002
       0.007
       0.010
       0.011
       0.012
       0.015
       0.021
       0.025
       0.023
       0.012
      -0.002
      -0.009
      -0.005
       0.004
       0.006
      -0.002
      -0.013
      -0.017
      -0.011
      -0.001
       0.003
       0.002
       0.001
       0.005
       0.010
       0.011
       0.004
      -0.003
      -0.003
       0.007
       0.021
       0.028
       0.022
       0.008
      -0.003
      -0.005
       0.002
       0.011
       0.016
       0.013
       0.006
       0.001
       0.001
       0.003
       0.000
      -0.006
      -0.007
       0.002
       0.021
       0.036
       0.032
       0.009
      -0.016
      -0.025
      -0.018
      -0.005
       0.001
       0.001
       0.000
       0.003
       0.008
       0.010
       0.007
       0.002
      -0.002
      -0.002
       0.003
       0.009
       0.013
       0.011
       0.004
       0.000
       0.006
       0.016
       0.019
       0.010
      -0.005
      -0.014
      -0.011
       0.000
       0.010
       0.012
       0.006
      -0.003
      -0.007
      -0.004
       0.006
       0.015
       0.016
       0.007
       0.000
       0.000
       0.006
       0.010
       0.008
       0.000
      -0.006
      -0.005
       0.001
       0.004
       0.000
      -0.008
      -0.011
      -0.004
       0.008
       0.019
       0.017
       0.001
      -0.017
      -0.023
      -0.010
       0.011
       0.024
       0.022
       0.007
      -0.011
      -0.023
      -0.025
      -0.017
      -0.006
      -0.001
      -0.005
      -0.014
      -0.017
      -0.010
       0.000
       0.006
       0.005
       0.002
       0.000
       0.002
       0.005
       0.006
       0.004
      -0.001
      -0.005
      -0.011
      -0.015
      -0.013
      -0.003
       0.010
       0.015
       0.013
       0.007
       0.006
       0.009
       0.010
       0.003
      -0.010
      -0.017
      -0.010
       0.007
       0.020
       0.021
       0.012
       0.007
       0.011
       0.018
       0.018
       0.007
      -0.009
      -0.019
      -0.020
      -0.013
      -0.003
       0.006
       0.010
       0.010
       0.006
       0.004
       0.005
       0.006
       0.004
       0.000
      -0.001
       0.002
       0.008
       0.014
       0.015
       0.009
       0.001
      -0.003
       0.000
       0.007
       0.012
       0.009
       0.001
      -0.007
      -0.008
      -0.004
       0.002
       0.004
       0.000
      -0.008
      -0.013
      -0.014
      -0.009
      -0.002
       0.003
       0.006
       0.005
       0.002
      -0.001
      -0.002
      -0.001
       0.001
       0.004
       0.007
       0.006
       0.001
      -0.007
      -0.012
      -0.013
      -0.011
      -0.008
      -0.006
      -0.005
      -0.002
       0.000
       0.001
      -0.002
      -0.008
      -0.013
      -0.011
      -0.003
       0.006
       0.010
       0.006
      -0.002
      -0.008
      -0.007
       0.001
       0.008
       0.007
      -0.002
      -0.011
      -0.011
      -0.002
       0.007
       0.006
      -0.004
      -0.019
      -0.034
      -0.046
      -0.056
      -0.069
      -0.089
      -0.120
      -0.157
      -0.187
      -0.202
      -0.217
      -0.277
      -0.419
      -0.630
      -0.826
      -0.895
      -0.782
      -0.561
      -0.429
      -0.604
      -1.166
      -1.978
      -2.714
      -2.979
      -2.443
      -0.982
       1.194
       3.568
       5.605
       7.137
       8.390
       9.506
      10.059
       9.221
       6.543
       2.478
      -2.020
      -6.358
     -10.482
     -14.127
     -16.214
     -15.373
     -11.088
      -4.238
       3.362
       9.717
      13.176
      12.864
       9.103
       3.389
      -2.300
      -6.377
      -8.090
      -7.475
      -5.054
      -1.533
       2.305
       5.488
       6.895
       5.823
       2.728
      -0.767
      -2.916
      -3.038
      -1.740
      -0.179
       0.780
       0.896
       0.390
      -0.399
      -1.211
      -1.811
      -1.880
      -1.173
       0.145
       1.423
       1.924
       1.398
       0.291
      -0.587
      -0.694
      -0.147
       0.476
       0.687
       0.409
      -0.157
      -0.780
      -1.242
      -1.310
      -0.854
      -0.015
       0.823
       1.315
       1.392
       1.217
       0.895
       0.330
      -0.528
      -1.374
      -1.669
      -1.120
       0.011
       1.088
       1.485
       0.868
      -0.662
      -2.530
      -3.849
      -3.836
      -2.249
       0.434
       3.218
       5.056
       5.323
       4.072
       1.950
      -0.168
      -1.634
      -2.298
      -2.418
      -2.315
      -2.118
      -1.777
      -1.225
      -0.491
       0.313
       1.069
       1.723
       2.288
       2.724
       2.792
       2.088
       0.360
      -2.109
      -4.443
      -5.593
      -4.945
      -2.661
       0.461
       3.425
       5.447
       6.141
       5.481
       3.668
       1.067
      -1.775
      -4.146
      -5.368
      -5.126
      -3.708
      -1.910
      -0.600
      -0.167
      -0.276
      -0.169
       0.688
       2.181
       3.700
       4.609
       4.542
       3.418
       1.419
      -1.002
      -3.194
      -4.544
      -4.728
      -3.815
      -2.208
      -0.450
       1.003
       1.913
       2.249
       2.135
       1.810
       1.525
       1.388
       1.295
       1.056
       0.606
       0.050
      -0.462
      -0.859
      -1.133
      -1.280
      -1.318
      -1.320
      -1.349
      -1.354
      -1.184
      -0.744
      -0.139
       0.376
       0.603
       0.554
       0.434
       0.463
       0.696
       0.995
       1.167
       1.109
       0.829
       0.403
      -0.067
      -0.482
      -0.756
      -0.833
      -0.707
      -0.477
      -0.321
      -0.337
      -0.422
      -0.375
      -0.112
       0.292
       0.734
       1.169
       1.507
       1.518
       0.939
      -0.271
      -1.772
      -2.960
      -3.308
      -2.677
      -1.378
       0.069
       1.268
       2.117
       2.676
       2.917
       2.670
       1.845
       0.652
      -0.449
      -1.064
      -1.105
      -0.780
      -0.379
      -0.085
       0.055
       0.053
      -0.089
      -0.386
      -0.821
      -1.318
      -1.717
      -1.799
      -1.375
      -0.436
       0.773
       1.839
       2.389
       2.246
       1.475
       0.342
      -0.824
      -1.772
      -2.382
      -2.588
      -2.317
      -1.559
      -0.471
       0.663
       1.587
       2.175
       2.419
       2.361
       2.033
       1.443
       0.617
      -0.331
      -1.188
      -1.729
      -1.828
      -1.485
      -0.803
       0.011
       0.661
       0.895
       0.681
       0.238
      -0.144
      -0.325
      -0.353
      -0.307
      -0.131
       0.332
       1.106
       1.887
       2.186
       1.721
       0.688
      -0.389
      -1.060
      -1.233
      -1.133
      -1.066
      -1.216
      -1.561
      -1.890
      -1.929
      -1.529
      -0.793
      -0.002
       0.576
       0.866
       0.989
       1.134
       1.400
       1.712
       1.885
       1.796
       1.484
       1.059
       0.519
      -0.260
      -1.301
      -2.331
      -2.877
      -2.607
      -1.564
      -0.113
       1.295
       2.293
       2.633
       2.196
       1.034
      -0.570
      -2.154
      -3.266
      -3.643
      -3.252
      -2.193
      -0.644
       1.086
       2.530
       3.232
       3.057
       2.307
       1.496
       0.977
       0.776
       0.694
       0.525
       0.222
      -0.091
      -0.245
      -0.195
      -0.050
       0.026
      -0.115
      -0.591
      -1.436
      -2.467
      -3.260
      -3.361
      -2.606
      -1.259
       0.172
       1.290
       1.998
       2.365
       2.392
       2.003
       1.218
       0.245
      -0.630
      -1.176
      -1.247
      -0.772
       0.166
       1.241
       1.941
       1.845
       0.917
      -0.426
      -1.588
      -2.164
      -2.112
      -1.643
      -1.006
      -0.376
       0.144
       0.496
       0.675
       0.754
       0.853
       1.025
       1.141
       0.944
       0.286
      -0.658
      -1.467
      -1.787
      -1.553
      -0.899
       0.027
       1.091
       2.039
       2.484
       2.135
       1.075
      -0.213
      -1.145
      -1.403
      -1.097
      -0.605
      -0.262
      -0.161
      -0.191
      -0.219
      -0.184
      -0.082
       0.066
       0.212
       0.311
       0.361
       0.416
       0.545
       0.773
       1.030
       1.149
       0.949
       0.396
      -0.328
      -0.947
      -1.293
      -1.376
      -1.291
      -1.125
      -0.941
      -0.766
      -0.554
      -0.188
       0.388
       1.035
       1.456
       1.422
       0.950
       0.281
      -0.310
      -0.661
      -0.737
      -0.544
      -0.047
       0.769
       1.732
       2.420
       2.386
       1.507
       0.107
      -1.285
      -2.266
      -2.716
      -2.705
      -2.328
      -1.618
      -0.622
       0.457
       1.264
       1.512
       1.217
       0.671
       0.187
      -0.113
      -0.270
      -0.340
      -0.301
      -0.102
       0.253
       0.660
       0.958
       1.009
       0.761
       0.255
      -0.389
      -0.992
      -1.345
      -1.312
      -0.935
      -0.445
      -0.102
      -0.004
      -0.033
