Origin Time       11/11/2012 18:39:19
Lat.              29.2 N	
Long.             81.5 E	
Depth (Km)         10.0
Magnitude         5.0
 Region           Western-NEPAL                                                    
 Above details taken from IMD 
   
Station Code      CHP
Station Lat.       29.334
Station Long.      80.095
Station Height(m) 1635.0
Site Class        A   Vs30 between 700 m/sec to 1400 m/sec * 
Record Time       11.11.2012 18:39:47.324
Sampling Rate     200. Hz
 Record Duration   66.485 Sec.
 Direction         Vert. (Up positive)
Max. Acceleration     -1.530 cm/sec**2
     
  * For reference see Site Classification link of website 
     
 Base Line Corrected and Low Pass Filtered (Cut Off at 35 Hz) Time History
 Acceleration data in cm/sec**2
    
[...]
       0.062
       0.038
       0.027
       0.002
      -0.037
      -0.048
      -0.012
       0.031
       0.052
       0.066
       0.079
       0.061
       0.007
      -0.037
      -0.058
      -0.093
      -0.157
      -0.203
      -0.198
      -0.164
      -0.118
      -0.044
       0.052
       0.126
       0.168
       0.211
       0.260
       0.275
       0.249
       0.231
       0.239
       0.229
       0.166
       0.074
      -0.022
      -0.121
      -0.203
      -0.232
      -0.222
      -0.233
      -0.279
      -0.303
      -0.265
      -0.188
      -0.096
       0.009
       0.103
       0.134
       0.098
       0.052
       0.030
       0.017
       0.012
       0.039
       0.086
       0.098
       0.061
       0.015
      -0.017
      -0.050
      -0.080
      -0.067
      -0.014
       0.023
       0.013
      -0.014
      -0.039
      -0.067
      -0.079
      -0.043
       0.019
       0.039
       0.000
      -0.042
      -0.045
      -0.021
       0.016
       0.069
       0.106
       0.080
       0.007
      -0.047
      -0.061
      -0.071
      -0.084
      -0.067
      -0.014
       0.032
       0.052
       0.068
       0.083
       0.079
       0.071
       0.097
       0.142
       0.145
       0.093
       0.034
      -0.009
      -0.051
      -0.085
      -0.078
      -0.040
      -0.024
      -0.043
      -0.068
      -0.091
      -0.126
      -0.143
      -0.097
      -0.007
       0.048
       0.034
      -0.013
      -0.064
      -0.115
      -0.146
      -0.126
      -0.076
      -0.048
      -0.044
      -0.022
       0.015
       0.029
       0.021
       0.028
       0.046
       0.035
      -0.005
      -0.028
      -0.017
       0.008
       0.044
       0.102
       0.143
       0.118
       0.042
      -0.025
      -0.063
      -0.093
      -0.103
      -0.057
       0.027
       0.085
       0.092
       0.065
       0.008
      -0.081
      -0.156
      -0.158
      -0.101
      -0.049
      -0.023
      -0.003
       0.007
      -0.016
      -0.050
      -0.051
      -0.027
      -0.020
      -0.029
      -0.015
       0.018
       0.038
       0.044
       0.057
       0.063
       0.030
      -0.022
      -0.044
      -0.035
      -0.021
       0.011
       0.088
       0.178
       0.211
       0.167
       0.076
      -0.048
      -0.190
      -0.293
      -0.301
      -0.237
      -0.170
      -0.113
      -0.032
       0.072
       0.163
       0.232
       0.274
       0.254
       0.144
      -0.004
      -0.105
      -0.134
      -0.120
      -0.073
       0.006
       0.075
       0.078
       0.028
      -0.028
      -0.071
      -0.099
      -0.081
       0.007
       0.114
       0.173
       0.190
       0.211
       0.239
       0.241
       0.207
       0.148
       0.059
      -0.052
      -0.115
      -0.071
       0.037
       0.120
       0.149
       0.150
       0.139
       0.114
       0.093
       0.085
       0.057
      -0.020
      -0.104
      -0.143
      -0.157
      -0.196
      -0.251
      -0.281
      -0.279
      -0.262
      -0.218
      -0.135
      -0.050
       0.000
       0.030
       0.069
       0.090
       0.062
       0.012
      -0.014
      -0.023
      -0.049
      -0.082
      -0.104
      -0.137
      -0.205
      -0.279
      -0.320
      -0.340
      -0.363
      -0.364
      -0.312
      -0.235
      -0.169
      -0.095
       0.013
       0.121
       0.175
       0.173
       0.137
       0.064
      -0.037
      -0.109
      -0.113
      -0.080
      -0.062
      -0.050
      -0.023
      -0.007
      -0.042
      -0.113
      -0.191
      -0.279
      -0.375
      -0.424
      -0.379
      -0.259
      -0.103
       0.083
       0.288
       0.448
       0.515
       0.510
       0.478
       0.412
       0.298
       0.172
       0.083
       0.029
       0.005
       0.037
       0.131
       0.236
       0.299
       0.332
       0.356
       0.339
       0.254
       0.133
       0.027
      -0.049
      -0.090
      -0.064
       0.030
       0.129
       0.189
       0.239
       0.313
       0.384
       0.413
       0.408
       0.389
       0.338
       0.245
       0.145
       0.064
      -0.021
      -0.115
      -0.170
      -0.152
      -0.106
      -0.086
      -0.090
      -0.088
      -0.079
      -0.064
      -0.019
       0.047
       0.076
       0.043
      -0.005
      -0.022
      -0.033
      -0.075
      -0.132
      -0.179
      -0.225
      -0.266
      -0.263
      -0.200
      -0.117
      -0.046
       0.031
       0.111
       0.139
       0.079
      -0.031
      -0.143
      -0.248
      -0.340
      -0.383
      -0.367
      -0.337
      -0.320
      -0.285
      -0.215
      -0.149
      -0.115
      -0.095
      -0.075
      -0.089
      -0.155
      -0.238
      -0.304
      -0.355
      -0.374
      -0.307
      -0.148
       0.022
       0.130
       0.178
       0.196
       0.193
       0.183
       0.199
       0.234
       0.231
       0.171
       0.105
       0.069
       0.044
       0.010
      -0.009
      -0.002
      -0.001
      -0.019
      -0.021
       0.009
       0.039
       0.053
       0.086
       0.146
       0.193
       0.206
       0.215
       0.236
       0.239
       0.217
       0.207
       0.221
       0.216
       0.171
       0.123
       0.108
       0.114
       0.137
       0.193
       0.262
       0.285
       0.243
       0.179
       0.116
       0.028
      -0.087
      -0.178
      -0.215
      -0.222
      -0.215
      -0.178
      -0.126
      -0.106
      -0.127
      -0.144
      -0.133
      -0.120
      -0.114
      -0.087
      -0.043
      -0.034
      -0.073
      -0.109
      -0.106
      -0.082
      -0.053
      -0.015
       0.017
       0.007
      -0.027
      -0.026
       0.025
       0.073
       0.084
       0.073
       0.051
      -0.002
      -0.070
      -0.105
      -0.092
      -0.069
      -0.053
      -0.029
      -0.011
      -0.042
      -0.114
      -0.160
      -0.148
      -0.107
      -0.061
      -0.004
       0.051
       0.068
       0.054
       0.057
       0.081
       0.075
       0.027
      -0.027
      -0.067
      -0.105
      -0.132
      -0.113
      -0.067
      -0.052
      -0.081
      -0.103
      -0.091
      -0.070
      -0.055
      -0.034
      -0.023
      -0.048
      -0.084
      -0.076
      -0.026
       0.012
       0.031
       0.075
       0.161
       0.240
       0.281
       0.281
       0.232
       0.123
      -0.008
      -0.100
      -0.160
      -0.240
      -0.337
      -0.377
      -0.315
      -0.172
       0.013
       0.199
       0.316
       0.306
       0.199
       0.082
      -0.013
      -0.111
      -0.210
      -0.268
      -0.271
      -0.243
      -0.191
      -0.108
      -0.038
      -0.049
      -0.144
      -0.263
      -0.368
      -0.454
      -0.489
      -0.434
      -0.306
      -0.161
      -0.013
       0.153
       0.307
       0.390
       0.398
       0.375
       0.336
       0.262
       0.170
       0.102
       0.061
       0.018
      -0.019
      -0.020
      -0.004
      -0.017
      -0.057
      -0.088
      -0.115
      -0.169
      -0.225
      -0.212
      -0.106
       0.057
       0.241
       0.413
       0.515
       0.507
       0.425
       0.334
       0.235
       0.095
      -0.065
      -0.178
      -0.228
      -0.252
      -0.275
      -0.297
      -0.329
      -0.371
      -0.368
      -0.268
      -0.105
       0.047
       0.168
       0.293
       0.415
       0.493
       0.507
       0.468
       0.367
       0.210
       0.066
       0.012
       0.040
       0.089
       0.129
       0.163
       0.174
       0.146
       0.112
       0.119
       0.147
       0.150
       0.130
       0.122
       0.124
       0.114
       0.105
       0.118
       0.123
       0.080
       0.011
      -0.035
      -0.062
      -0.106
      -0.161
      -0.189
      -0.188
      -0.180
      -0.164
      -0.150
      -0.184
      -0.286
      -0.378
      -0.364
      -0.241
      -0.091
       0.021
       0.075
       0.062
       0.006
      -0.031
      -0.008
       0.030
       0.034
       0.027
       0.058
       0.109
       0.120
       0.076
       0.005
      -0.080
      -0.168
      -0.223
      -0.225
      -0.219
      -0.237
      -0.242
      -0.184
      -0.092
      -0.028
      -0.007
      -0.011
      -0.044
      -0.108
      -0.160
      -0.153
      -0.097
      -0.019
       0.088
       0.222
       0.325
       0.353
       0.335
       0.328
       0.329
       0.309
       0.277
       0.247
       0.195
       0.100
      -0.007
      -0.087
      -0.151
      -0.211
      -0.229
      -0.168
      -0.058
       0.051
       0.148
       0.222
       0.225
       0.126
      -0.025
      -0.156
      -0.250
      -0.315
      -0.330
      -0.283
      -0.207
      -0.130
      -0.040
       0.058
       0.093
       0.010
      -0.145
      -0.280
      -0.341
      -0.303
      -0.148
       0.104
       0.365
       0.562
       0.692
       0.773
       0.778
       0.692
       0.564
       0.447
       0.338
       0.213
       0.092
      -0.001
      -0.077
      -0.135
      -0.134
      -0.058
       0.043
       0.129
       0.221
       0.342
       0.454
       0.509
       0.505
       0.450
       0.325
       0.138
      -0.050
      -0.192
      -0.314
      -0.445
      -0.565
      -0.649
      -0.718
      -0.786
      -0.819
      -0.789
      -0.716
      -0.619
      -0.478
      -0.297
      -0.133
      -0.028
       0.038
       0.084
       0.084
       0.019
      -0.068
      -0.138
      -0.200
      -0.256
      -0.272
      -0.235
      -0.193
      -0.182
      -0.183
      -0.184
      -0.215
      -0.287
      -0.352
      -0.366
      -0.329
      -0.230
      -0.027
       0.278
       0.596
       0.836
       0.970
       0.997
       0.906
       0.720
       0.508
       0.315
       0.128
      -0.047
      -0.159
      -0.180
      -0.147
      -0.089
       0.006
       0.128
       0.210
       0.202
       0.123
       0.004
      -0.152
      -0.325
      -0.469
      -0.571
      -0.671
      -0.770
      -0.802
      -0.723
      -0.560
      -0.364
      -0.148
       0.071
       0.261
       0.419
       0.566
       0.677
       0.684
       0.579
       0.449
       0.368
       0.318
       0.248
       0.142
       0.002
      -0.165
      -0.308
      -0.364
      -0.342
      -0.317
      -0.323
      -0.312
      -0.255
      -0.196
      -0.183
      -0.203
      -0.224
      -0.221
      -0.164
      -0.034
       0.122
       0.215
       0.226
       0.224
       0.262
       0.319
       0.367
       0.409
       0.429
       0.380
       0.261
       0.124
       0.014
      -0.065
      -0.093
      -0.043
       0.058
       0.136
       0.171
       0.213
       0.294
       0.380
       0.436
       0.460
       0.439
       0.342
       0.188
       0.040
      -0.077
      -0.185
      -0.276
      -0.305
      -0.270
      -0.216
      -0.170
      -0.110
      -0.044
      -0.019
      -0.054
      -0.123
      -0.225
      -0.378
      -0.551
      -0.666
      -0.683
      -0.627
      -0.518
      -0.355
      -0.175
      -0.040
       0.034
       0.086
       0.127
       0.133
       0.117
       0.130
       0.183
       0.229
       0.242
       0.235
       0.210
       0.155
       0.102
       0.115
       0.196
       0.287
       0.359
       0.419
       0.450
       0.408
       0.295
       0.155
       0.004
      -0.187
      -0.408
      -0.612
      -0.767
      -0.866
      -0.865
      -0.716
      -0.454
      -0.183
       0.029
       0.186
       0.301
       0.381
       0.464
       0.589
       0.725
       0.796
       0.784
       0.733
       0.668
       0.582
       0.495
       0.441
       0.403
       0.327
       0.207
       0.080
      -0.042
      -0.167
      -0.259
      -0.268
      -0.210
      -0.159
      -0.149
      -0.161
      -0.185
      -0.228
      -0.274
      -0.296
      -0.315
      -0.366
      -0.415
      -0.403
      -0.336
      -0.277
      -0.244
      -0.201
      -0.129
      -0.048
       0.025
       0.071
       0.046
      -0.073
      -0.211
      -0.261
      -0.202
      -0.086
       0.056
       0.229
       0.403
       0.517
       0.536
       0.460
       0.280
       0.008
      -0.274
      -0.473
      -0.576
      -0.617
      -0.596
      -0.483
      -0.302
      -0.123
       0.011
       0.086
       0.079
      -0.016
      -0.132
      -0.193
      -0.200
      -0.207
      -0.222
      -0.205
      -0.156
      -0.112
      -0.088
      -0.080
      -0.102
      -0.165
      -0.219
      -0.203
      -0.122
      -0.020
       0.098
       0.246
       0.383
       0.441
       0.407
       0.312
       0.168
      -0.013
      -0.182
      -0.289
      -0.349
      -0.391
      -0.386
      -0.290
      -0.122
       0.057
       0.227
       0.394
       0.534
       0.611
       0.638
       0.636
       0.581
       0.446
       0.275
       0.138
       0.050
      -0.016
      -0.067
      -0.113
      -0.193
      -0.314
      -0.400
      -0.362
      -0.207
      -0.016
       0.150
       0.272
       0.337
       0.367
       0.429
       0.551
       0.654
       0.627
       0.436
       0.127
      -0.243
      -0.618
      -0.925
      -1.132
      -1.286
      -1.432
      -1.530
      -1.509
      -1.359
      -1.117
      -0.801
      -0.425
      -0.039
       0.303
       0.596
       0.837
       0.982
       1.008
       0.959
       0.885
       0.770
       0.583
       0.358
       0.165
       0.028
      -0.062
      -0.109
      -0.137
      -0.199
      -0.309
      -0.390
      -0.360
      -0.226
      -0.045
       0.154
       0.361
       0.534
       0.644
       0.711
       0.748
       0.712
       0.571
       0.373
       0.193
       0.056
      -0.038
      -0.074
      -0.060
      -0.049
      -0.074
      -0.088
      -0.040
       0.051
       0.133
       0.189
       0.214
       0.183
       0.098
       0.025
       0.018
       0.060
       0.115
       0.190
       0.287
       0.361
       0.376
       0.360
       0.343
       0.307
       0.220
       0.092
      -0.072
      -0.295
      -0.562
      -0.788
      -0.900
      -0.912
      -0.864
      -0.759
      -0.596
      -0.416
      -0.254
      -0.104
       0.032
       0.116
       0.135
       0.140
       0.172
       0.206
       0.214
       0.216
       0.235
       0.251
       0.242
       0.227
       0.201
       0.118
      -0.039
      -0.201
      -0.296
      -0.312
      -0.267
      -0.164
      -0.038
       0.045
       0.056
       0.046
       0.063
       0.090
       0.103
       0.110
       0.106
       0.055
      -0.045
      -0.131
      -0.153
      -0.131
      -0.100
      -0.064
      -0.032
      -0.041
      -0.095
      -0.138
      -0.135
      -0.113
      -0.097
      -0.059
       0.016
       0.096
       0.151
       0.191
       0.208
       0.164
       0.056
      -0.060
      -0.147
      -0.230
      -0.318
      -0.371
      -0.357
      -0.306
      -0.244
      -0.163
      -0.074
      -0.020
      -0.011
      -0.007
       0.002
      -0.024
      -0.095
      -0.147
      -0.129
      -0.063
       0.005
       0.060
       0.088
       0.076
       0.058
       0.103
       0.211
       0.299
       0.307
       0.260
       0.210
       0.178
       0.188
       0.266
       0.382
       0.450
       0.424
       0.332
       0.216
       0.087
      -0.031
      -0.099
      -0.130
      -0.188
      -0.293
      -0.384
      -0.414
      -0.398
      -0.355
      -0.282
      -0.194
      -0.130
      -0.094
      -0.048
       0.013
       0.049
       0.057
       0.084
       0.147
       0.200
       0.214
       0.203
       0.164
       0.064
      -0.090
      -0.236
      -0.329
      -0.363
      -0.316
      -0.156
       0.082
       0.286
       0.385
       0.389
       0.334
       0.239
       0.141
       0.083
       0.051
      -0.013
      -0.124
      -0.238
      -0.334
      -0.433
      -0.521
      -0.545
      -0.489
      -0.390
      -0.264
      -0.101
       0.073
       0.187
       0.217
       0.201
       0.176
       0.158
       0.182
       0.282
       0.420
       0.508
       0.515
       0.484
       0.437
       0.353
       0.225
       0.088
      -0.040
      -0.168
      -0.281
      -0.343
      -0.368
      -0.394
      -0.406
      -0.345
      -0.205
      -0.046
       0.100
       0.251
       0.406
       0.527
       0.590
       0.592
       0.511
       0.326
       0.089
      -0.113
      -0.262
      -0.410
      -0.568
      -0.689
      -0.731
      -0.690
      -0.554
      -0.323
      -0.058
       0.156
       0.299
       0.411
       0.496
       0.516
       0.460
       0.354
       0.198
      -0.013
      -0.234
      -0.385
      -0.441
      -0.430
      -0.358
      -0.223
      -0.077
       0.003
       0.005
      -0.015
      -0.025
      -0.032
      -0.033
      -0.013
       0.008
       0.002
       0.002
       0.063
       0.168
       0.243
       0.253
       0.222
       0.164
       0.079
       0.000
      -0.037
      -0.052
      -0.090
      -0.144
      -0.164
      -0.141
      -0.100
      -0.032
       0.085
       0.215
       0.290
       0.287
       0.216
       0.067
      -0.167
      -0.419
      -0.596
      -0.669
      -0.671
      -0.615
      -0.485
      -0.298
      -0.082
       0.164
       0.433
       0.650
       0.736
       0.698
       0.612
       0.508
       0.372
       0.212
       0.061
      -0.078
      -0.216
      -0.330
      -0.398
      -0.456
      -0.545
      -0.633
      -0.656
      -0.604
      -0.502
      -0.339
      -0.086
       0.221
       0.502
       0.707
       0.814
       0.793
       0.640
       0.418
       0.202
      -0.002
      -0.207
      -0.362
      -0.395
      -0.305
      -0.150
       0.030
       0.215
       0.358
       0.419
       0.413
       0.372
       0.287
       0.148
       0.006
      -0.081
      -0.124
      -0.163
      -0.195
      -0.192
      -0.171
      -0.169
      -0.181
      -0.187
      -0.198
      -0.229
      -0.245
      -0.207
      -0.137
      -0.069
       0.018
       0.160
       0.333
       0.481
       0.588
       0.654
       0.647
       0.543
       0.375
       0.188
      -0.020
      -0.256
      -0.470
      -0.601
      -0.653
      -0.652
      -0.591
      -0.461
      -0.304
      -0.174
      -0.072
       0.006
       0.019
      -0.072
      -0.224
      -0.357
      -0.431
      -0.436
      -0.352
      -0.188
      -0.020
       0.084
       0.128
       0.136
       0.092
      -0.017
      -0.134
      -0.184
      -0.149
      -0.049
       0.107
       0.296
       0.454
       0.542
       0.591
       0.629
       0.620
       0.525
       0.372
       0.218
       0.072
      -0.075
      -0.203
      -0.293
      -0.364
      -0.421
      -0.417
      -0.325
      -0.194
      -0.082
       0.013
       0.109
       0.186
       0.221
       0.239
