Origin Time       14/12/2005 07:09:48
Lat.              30.9 N 
Long.             79.3 E 
Depth (Km)         25.7
Magnitude         5.2
 Region           Chamoli-Uttarakhand                                              
 Above details taken from IMD 
     
Station Code      CHP
Station Lat.       29.334  N
Station Long.      80.095  E
Station Height(m) 1621.0
Site Class        A   Vs30 between 700 m/sec to 1400 m/sec * 
Record Time       14.12.2005 07:10:39.234
Sampling Rate     200. Hz
 Record Duration   36.930 Sec.
 Direction         E-W (E positive)
Max. Acceleration      8.390 cm/sec**2
     
  * For reference see Site Classification link of website 
     
 Base Line Corrected and Low Pass Filtered (Cut Off at 35 Hz) Time History
 Acceleration data in cm/sec**2
    
[...]
      -0.792
      -0.502
      -0.182
       0.122
       0.381
       0.591
       0.756
       0.878
       0.951
       0.970
       0.938
       0.866
       0.768
       0.654
       0.536
       0.427
       0.338
       0.270
       0.215
       0.159
       0.095
       0.030
      -0.034
      -0.102
      -0.189
      -0.303
      -0.437
      -0.563
      -0.652
      -0.683
      -0.648
      -0.555
      -0.424
      -0.283
      -0.162
      -0.083
      -0.044
      -0.028
      -0.005
       0.041
       0.110
       0.176
       0.208
       0.189
       0.134
       0.084
       0.090
       0.175
       0.320
       0.476
       0.587
       0.622
       0.585
       0.506
       0.412
       0.316
       0.210
       0.079
      -0.078
      -0.246
      -0.394
      -0.499
      -0.556
      -0.582
      -0.593
      -0.593
      -0.565
      -0.487
      -0.341
      -0.119
       0.167
       0.494
       0.819
       1.095
       1.285
       1.381
       1.392
       1.323
       1.156
       0.854
       0.399
      -0.186
      -0.826
      -1.427
      -1.905
      -2.214
      -2.346
      -2.323
      -2.179
      -1.942
      -1.635
      -1.277
      -0.892
      -0.506
      -0.139
       0.203
       0.528
       0.847
       1.170
       1.499
       1.829
       2.145
       2.411
       2.585
       2.630
       2.535
       2.312
       1.991
       1.600
       1.161
       0.689
       0.205
      -0.264
      -0.678
      -1.002
      -1.213
      -1.314
      -1.329
      -1.290
      -1.226
      -1.142
      -1.031
      -0.878
      -0.682
      -0.456
      -0.230
      -0.034
       0.110
       0.192
       0.206
       0.150
       0.026
      -0.153
      -0.360
      -0.562
      -0.721
      -0.810
      -0.817
      -0.755
      -0.653
      -0.538
      -0.419
      -0.278
      -0.093
       0.146
       0.424
       0.709
       0.966
       1.160
       1.263
       1.260
       1.161
       1.008
       0.851
       0.722
       0.616
       0.498
       0.330
       0.095
      -0.193
      -0.498
      -0.778
      -1.001
      -1.153
      -1.221
      -1.189
      -1.035
      -0.752
      -0.369
       0.050
       0.433
       0.732
       0.927
       1.020
       1.014
       0.912
       0.720
       0.454
       0.129
      -0.241
      -0.644
      -1.055
      -1.430
      -1.715
      -1.870
      -1.890
      -1.792
      -1.602
      -1.333
      -0.993
      -0.599
      -0.178
       0.235
       0.608
       0.916
       1.149
       1.308
       1.397
       1.414
       1.353
       1.217
       1.029
       0.834
       0.674
       0.573
       0.535
       0.550
       0.592
       0.624
       0.597
       0.475
       0.252
      -0.048
      -0.392
      -0.754
      -1.123
      -1.487
      -1.815
      -2.063
      -2.190
      -2.173
      -2.012
      -1.722
      -1.326
      -0.851
      -0.319
       0.249
       0.826
       1.380
       1.874
       2.274
       2.561
       2.726
       2.766
       2.683
       2.492
       2.216
       1.871
       1.455
       0.956
       0.372
      -0.266
      -0.892
      -1.433
      -1.838
      -2.092
      -2.208
      -2.202
      -2.083
      -1.848
      -1.504
      -1.082
      -0.632
      -0.212
       0.133
       0.374
       0.496
       0.496
       0.379
       0.163
      -0.124
      -0.447
      -0.773
      -1.072
      -1.324
      -1.510
      -1.617
      -1.631
      -1.546
      -1.356
      -1.056
      -0.648
      -0.147
       0.411
       0.979
       1.508
       1.952
       2.278
       2.470
       2.535
       2.498
       2.387
       2.224
       2.015
       1.762
       1.469
       1.155
       0.845
       0.552
       0.271
      -0.027
      -0.368
      -0.757
      -1.167
      -1.544
      -1.828
      -1.975
      -1.971
      -1.832
      -1.586
      -1.261
      -0.871
      -0.424
       0.060
       0.539
       0.958
       1.275
       1.484
       1.599
       1.636
       1.591
       1.448
       1.198
       0.853
       0.439
      -0.007
      -0.442
      -0.821
      -1.103
      -1.260
      -1.281
      -1.175
      -0.964
      -0.683
      -0.372
      -0.066
       0.208
       0.437
       0.625
       0.774
       0.886
       0.960
       0.991
       0.978
       0.914
       0.797
       0.620
       0.386
       0.101
      -0.225
      -0.572
      -0.912
      -1.211
      -1.431
      -1.543
      -1.534
      -1.404
      -1.163
      -0.830
      -0.444
      -0.062
       0.254
       0.464
       0.578
       0.651
       0.749
       0.916
       1.145
       1.386
       1.574
       1.653
       1.601
       1.438
       1.210
       0.976
       0.778
       0.634
       0.535
       0.446
       0.321
       0.116
      -0.190
      -0.590
      -1.059
      -1.574
      -2.119
      -2.670
      -3.174
      -3.550
      -3.730
      -3.700
      -3.509
      -3.237
      -2.947
      -2.661
      -2.360
      -2.010
      -1.578
      -1.047
      -0.421
       0.268
       0.966
       1.627
       2.234
       2.805
       3.373
       3.939
       4.452
       4.820
       4.948
       4.787
       4.354
       3.715
       2.954
       2.145
       1.340
       0.580
      -0.093
      -0.635
      -1.017
      -1.237
      -1.321
      -1.306
      -1.213
      -1.040
      -0.771
      -0.396
       0.071
       0.602
       1.149
       1.657
       2.065
       2.316
       2.369
       2.202
       1.809
       1.199
       0.396
      -0.551
      -1.576
      -2.603
      -3.565
      -4.407
      -5.092
      -5.593
      -5.891
      -5.969
      -5.820
      -5.442
      -4.848
      -4.076
      -3.187
      -2.248
      -1.312
      -0.401
       0.492
       1.373
       2.221
       2.988
       3.618
       4.070
       4.330
       4.406
       4.320
       4.103
       3.791
       3.416
       2.995
       2.535
       2.040
       1.525
       1.022
       0.564
       0.172
      -0.154
      -0.423
      -0.639
      -0.787
      -0.843
      -0.794
      -0.658
      -0.485
      -0.333
      -0.242
      -0.225
      -0.271
      -0.368
      -0.504
      -0.663
      -0.830
      -1.003
      -1.189
      -1.407
      -1.665
      -1.941
      -2.187
      -2.349
      -2.391
      -2.307
      -2.116
      -1.846
      -1.513
      -1.128
      -0.699
      -0.242
       0.209
       0.618
       0.964
       1.254
       1.516
       1.773
       2.025
       2.250
       2.422
       2.526
       2.564
       2.540
       2.460
       2.318
       2.104
       1.805
       1.417
       0.956
       0.453
      -0.053
      -0.527
      -0.948
      -1.304
      -1.590
      -1.802
      -1.948
      -2.044
      -2.112
      -2.157
      -2.164
      -2.109
      -1.982
      -1.794
      -1.568
      -1.317
      -1.036
      -0.716
      -0.369
      -0.032
       0.251
       0.462
       0.613
       0.733
       0.840
       0.925
       0.962
       0.927
       0.823
       0.681
       0.548
       0.456
       0.410
       0.401
       0.423
       0.479
       0.572
       0.693
       0.819
       0.923
       0.985
       0.992
       0.927
       0.775
       0.530
       0.213
      -0.136
      -0.472
      -0.775
      -1.050
      -1.298
      -1.512
      -1.673
      -1.780
      -1.844
      -1.876
      -1.875
      -1.833
      -1.746
      -1.624
      -1.476
      -1.302
      -1.082
      -0.798
      -0.438
      -0.016
       0.438
       0.893
       1.320
       1.698
       2.006
       2.234
       2.383
       2.466
       2.498
       2.499
       2.490
       2.492
       2.508
       2.518
       2.482
       2.361
       2.144
       1.847
       1.492
       1.086
       0.625
       0.115
      -0.408
      -0.899
      -1.336
      -1.736
      -2.135
      -2.552
      -2.964
      -3.314
      -3.529
      -3.561
      -3.397
      -3.058
      -2.580
      -2.005
      -1.377
      -0.738
      -0.123
       0.448
       0.957
       1.382
       1.687
       1.843
       1.848
       1.729
       1.532
       1.293
       1.031
       0.749
       0.463
       0.208
       0.030
      -0.036
       0.022
       0.186
       0.409
       0.623
       0.756
       0.753
       0.605
       0.353
       0.070
      -0.173
      -0.333
      -0.406
      -0.419
      -0.401
      -0.372
      -0.332
      -0.269
      -0.180
      -0.084
      -0.024
      -0.043
      -0.155
      -0.327
      -0.494
      -0.591
      -0.573
      -0.420
      -0.129
       0.292
       0.820
       1.410
       1.992
       2.485
       2.818
       2.948
       2.860
       2.564
       2.080
       1.444
       0.690
      -0.145
      -1.029
      -1.925
      -2.780
      -3.529
      -4.104
      -4.450
      -4.550
      -4.421
      -4.105
      -3.638
      -3.044
      -2.336
      -1.536
      -0.687
       0.144
       0.886
       1.476
       1.879
       2.089
       2.114
       1.966
       1.653
       1.178
       0.548
      -0.223
      -1.089
      -1.964
      -2.725
      -3.251
      -3.464
      -3.343
      -2.916
      -2.234
      -1.358
      -0.355
       0.705
       1.754
       2.745
       3.644
       4.428
       5.068
       5.531
       5.790
       5.837
       5.679
       5.338
       4.845
       4.228
       3.512
       2.718
       1.871
       1.002
       0.151
      -0.646
      -1.364
      -1.991
      -2.528
      -2.977
      -3.333
      -3.582
      -3.705
      -3.687
      -3.524
      -3.237
      -2.870
      -2.474
      -2.097
      -1.774
      -1.533
      -1.397
      -1.375
      -1.455
      -1.615
      -1.835
      -2.102
      -2.402
      -2.707
      -2.972
      -3.140
      -3.149
      -2.940
      -2.463
      -1.696
      -0.659
       0.575
       1.893
       3.167
       4.292
       5.201
       5.866
       6.274
       6.425
       6.320
       5.971
       5.414
       4.711
       3.934
       3.125
       2.285
       1.395
       0.453
      -0.494
      -1.366
      -2.088
      -2.616
      -2.950
      -3.128
      -3.206
      -3.237
      -3.257
      -3.273
      -3.265
      -3.201
      -3.046
      -2.782
      -2.413
      -1.966
      -1.483
      -1.018
      -0.619
      -0.313
      -0.101
       0.045
       0.160
       0.266
       0.359
       0.426
       0.456
       0.458
       0.449
       0.446
       0.459
       0.486
       0.517
       0.528
       0.492
       0.399
       0.266
       0.136
       0.059
       0.075
       0.208
       0.466
       0.828
       1.249
       1.679
       2.095
       2.508
       2.947
       3.416
       3.877
       4.251
       4.451
       4.412
       4.101
       3.515
       2.679
       1.638
       0.461
      -0.771
      -1.979
      -3.092
      -4.047
      -4.796
      -5.314
      -5.599
      -5.663
      -5.518
      -5.164
      -4.600
      -3.830
      -2.881
      -1.801
      -0.650
       0.513
       1.629
       2.637
       3.469
       4.070
       4.410
       4.489
       4.330
       3.955
       3.384
       2.635
       1.734
       0.726
      -0.328
      -1.359
      -2.296
      -3.081
      -3.671
      -4.046
      -4.207
      -4.179
      -4.001
      -3.712
      -3.340
      -2.890
      -2.351
      -1.702
      -0.942
      -0.106
       0.729
       1.460
       1.993
       2.272
       2.292
       2.102
       1.791
       1.460
       1.190
       1.025
       0.968
       1.004
       1.114
       1.288
       1.512
       1.759
       1.990
       2.169
       2.278
       2.330
       2.347
       2.340
       2.284
       2.124
       1.801
       1.282
       0.566
      -0.317
      -1.326
      -2.405
      -3.490
      -4.506
      -5.377
      -6.025
      -6.375
      -6.359
      -5.935
      -5.100
      -3.905
      -2.449
      -0.867
       0.696
       2.124
       3.364
       4.423
       5.332
       6.103
       6.705
       7.079
       7.168
       6.944
       6.405
       5.556
       4.406
       2.977
       1.322
      -0.461
      -2.234
      -3.850
      -5.184
      -6.161
      -6.763
      -7.012
      -6.955
      -6.629
      -6.057
      -5.245
      -4.215
      -3.018
      -1.734
      -0.452
       0.741
       1.773
       2.586
       3.140
       3.419
       3.428
       3.193
       2.754
       2.160
       1.480
       0.809
       0.262
      -0.078
      -0.200
      -0.171
      -0.079
       0.028
       0.150
       0.294
       0.457
       0.635
       0.833
       1.056
       1.299
       1.562
       1.837
       2.099
       2.310
       2.429
       2.413
       2.211
       1.789
       1.154
       0.364
      -0.508
      -1.389
      -2.204
      -2.877
      -3.348
      -3.588
      -3.604
      -3.413
      -3.040
      -2.510
      -1.845
      -1.074
      -0.242
       0.585
       1.352
       2.029
       2.605
       3.059
       3.361
       3.491
       3.447
       3.232
       2.854
       2.331
       1.699
       1.002
       0.272
      -0.483
      -1.274
      -2.118
      -3.023
      -3.960
      -4.861
      -5.633
      -6.191
      -6.472
      -6.445
      -6.111
      -5.494
      -4.632
      -3.555
      -2.279
      -0.820
       0.791
       2.482
       4.145
       5.652
       6.884
       7.764
       8.263
       8.390
       8.185
       7.699
       6.973
       6.018
       4.814
       3.351
       1.663
      -0.161
      -1.993
      -3.699
      -5.160
      -6.281
      -7.004
      -7.310
      -7.209
      -6.729
      -5.910
      -4.806
      -3.482
      -2.017
      -0.502
       0.961
       2.273
       3.347
       4.114
       4.544
       4.650
       4.486
       4.118
       3.594
       2.940
       2.166
       1.290
       0.347
      -0.614
      -1.535
      -2.358
      -3.021
      -3.468
      -3.652
      -3.559
      -3.228
      -2.742
      -2.202
      -1.692
      -1.260
      -0.916
      -0.643
      -0.405
      -0.164
       0.111
       0.434
       0.802
       1.202
       1.617
       2.020
       2.362
       2.577
       2.609
       2.446
       2.137
       1.767
       1.415
       1.123
       0.902
       0.752
       0.674
       0.666
       0.697
       0.713
       0.652
       0.477
       0.182
      -0.214
      -0.686
      -1.200
      -1.718
      -2.194
      -2.582
      -2.854
      -3.000
      -3.019
      -2.906
      -2.660
      -2.299
      -1.863
      -1.398
      -0.949
      -0.537
      -0.159
       0.219
       0.632
       1.091
       1.568
       2.012
       2.369
       2.586
       2.627
       2.474
       2.140
       1.660
       1.075
       0.424
      -0.248
      -0.877
      -1.396
      -1.748
      -1.919
      -1.926
      -1.815
      -1.639
      -1.446
      -1.257
      -1.070
      -0.863
      -0.588
      -0.191
       0.363
       1.062
       1.849
       2.652
       3.401
       4.033
       4.483
       4.696
       4.629
       4.251
       3.548
       2.543
       1.309
      -0.046
      -1.398
      -2.648
      -3.730
      -4.610
      -5.268
      -5.673
      -5.790
      -5.597
      -5.115
      -4.405
      -3.541
      -2.589
      -1.607
      -0.652
       0.213
       0.932
       1.473
       1.842
       2.078
       2.229
       2.327
       2.385
       2.395
       2.350
       2.240
       2.060
       1.810
       1.501
       1.152
       0.791
       0.447
       0.149
      -0.078
      -0.211
      -0.227
      -0.118
       0.095
       0.350
       0.565
       0.668
       0.623
       0.433
       0.130
      -0.243
      -0.641
      -1.036
      -1.417
      -1.782
      -2.125
      -2.414
      -2.595
      -2.599
      -2.369
      -1.885
      -1.182
      -0.343
       0.524
       1.321
       1.993
       2.537
       2.980
       3.332
       3.564
       3.636
       3.539
       3.312
       3.011
       2.664
       2.252
       1.734
       1.094
       0.362
      -0.396
      -1.115
      -1.760
      -2.332
      -2.845
      -3.304
      -3.700
      -4.008
      -4.198
      -4.245
      -4.137
      -3.881
      -3.495
      -2.996
      -2.391
      -1.675
      -0.846
       0.074
       1.034
       1.956
       2.757
       3.361
       3.725
       3.848
       3.768
       3.539
       3.200
       2.756
       2.184
       1.469
       0.630
      -0.267
      -1.130
      -1.861
      -2.383
      -2.659
      -2.685
      -2.488
      -2.110
      -1.606
      -1.036
      -0.462
       0.072
       0.549
       0.974
       1.351
       1.665
       1.882
       1.979
       1.952
       1.824
       1.629
       1.405
       1.187
       1.006
       0.875
       0.773
       0.643
       0.414
       0.040
      -0.461
      -1.004
      -1.475
      -1.782
      -1.896
      -1.836
      -1.644
      -1.351
      -0.985
      -0.575
      -0.163
       0.211
       0.525
       0.777
       0.970
       1.095
       1.132
       1.068
       0.902
       0.637
       0.277
      -0.166
      -0.660
      -1.149
      -1.582
      -1.931
      -2.199
      -2.390
      -2.489
      -2.455
      -2.252
      -1.871
      -1.330
      -0.668
       0.077
       0.858
       1.623
       2.313
       2.873
       3.259
       3.441
       3.406
       3.160
       2.733
       2.169
       1.522
       0.839
       0.158
      -0.486
      -1.062
      -1.531
      -1.863
      -2.041
      -2.071
      -1.966
      -1.741
      -1.398
      -0.939
      -0.381
       0.229
       0.825
       1.333
       1.694
       1.867
       1.829
       1.579
       1.140
       0.559
      -0.104
      -0.785
      -1.427
      -1.980
      -2.404
      -2.680
      -2.806
      -2.797
      -2.662
      -2.406
      -2.028
      -1.539
      -0.965
      -0.348
       0.263
       0.827
       1.320
       1.740
       2.089
       2.365
       2.549
       2.611
       2.518
       2.250
       1.813
       1.255
       0.645
       0.049
      -0.498
      -0.989
      -1.413
      -1.741
      -1.927
      -1.940
      -1.772
      -1.450
      -1.019
      -0.531
      -0.035
       0.433
       0.860
       1.250
       1.619
       1.973
       2.293
       2.535
       2.640
       2.564
       2.301
       1.896
       1.426
       0.968
       0.556
       0.171
      -0.248
      -0.751
      -1.348
      -1.998
      -2.627
      -3.160
      -3.539
      -3.725
      -3.690
      -3.423
      -2.940
      -2.296
      -1.572
      -0.855
      -0.210
       0.337
       0.803
       1.222
       1.616
       1.985
       2.301
       2.520
       2.591
       2.464
       2.108
       1.542
       0.842
       0.121
      -0.525
      -1.051
      -1.458
      -1.754
      -1.923
      -1.921
      -1.703
      -1.268
      -0.670
       0.000
       0.641
       1.182
       1.594
       1.882
       2.069
       2.182
       2.233
       2.214
       2.097
       1.846
       1.448
       0.923
       0.315
      -0.332
      -0.992
      -1.654
      -2.294
      -2.860
      -3.288
      -3.523
