Origin Time       20/06/2011 06:27:18
Lat.              30.5 N	
Long.             79.4 E	
Depth (Km)         12.0
Magnitude         4.6
 Region           Chamoli-Uttarakhand                                              
 Above details taken from IMD 
     
Station Code      CHP
Station Lat.       29.334  N
Station Long.      80.095  E
Station Height(m) 1635.0
Site Class        A   Vs30 between 700 m/sec to 1400 m/sec * 
Record Time       20.06.2011 06:27:50.614
Sampling Rate     200. Hz
 Record Duration   65.000 Sec.
 Direction         E-W (E positive)
Max. Acceleration     -1.964 cm/sec**2
     
  * For reference see Site Classification link of website 
     
 Base Line Corrected and Low Pass Filtered (Cut Off at 35 Hz) Time History
 Acceleration data in cm/sec**2
    
[...]
       0.004
      -0.031
      -0.074
      -0.127
      -0.181
      -0.229
      -0.262
      -0.272
      -0.258
      -0.225
      -0.180
      -0.131
      -0.087
      -0.054
      -0.032
      -0.016
       0.002
       0.027
       0.057
       0.093
       0.129
       0.161
       0.179
       0.179
       0.161
       0.134
       0.110
       0.102
       0.112
       0.130
       0.139
       0.126
       0.091
       0.039
      -0.013
      -0.055
      -0.084
      -0.107
      -0.128
      -0.143
      -0.147
      -0.139
      -0.126
      -0.115
      -0.111
      -0.110
      -0.105
      -0.087
      -0.054
      -0.015
       0.024
       0.057
       0.081
       0.094
       0.096
       0.090
       0.079
       0.066
       0.058
       0.061
       0.081
       0.114
       0.148
       0.174
       0.185
       0.176
       0.151
       0.116
       0.081
       0.051
       0.029
       0.009
      -0.019
      -0.061
      -0.113
      -0.158
      -0.186
      -0.192
      -0.180
      -0.158
      -0.136
      -0.123
      -0.122
      -0.125
      -0.124
      -0.109
      -0.080
      -0.037
       0.011
       0.056
       0.090
       0.111
       0.115
       0.102
       0.075
       0.041
       0.007
      -0.018
      -0.029
      -0.019
       0.008
       0.040
       0.063
       0.066
       0.050
       0.023
      -0.002
      -0.017
      -0.021
      -0.017
      -0.012
      -0.010
      -0.012
      -0.016
      -0.013
       0.001
       0.023
       0.046
       0.062
       0.071
       0.075
       0.073
       0.063
       0.043
       0.013
      -0.026
      -0.070
      -0.112
      -0.139
      -0.144
      -0.127
      -0.096
      -0.064
      -0.043
      -0.037
      -0.042
      -0.052
      -0.064
      -0.083
      -0.113
      -0.152
      -0.193
      -0.220
      -0.224
      -0.210
      -0.194
      -0.189
      -0.191
      -0.191
      -0.174
      -0.140
      -0.093
      -0.043
       0.006
       0.052
       0.096
       0.130
       0.145
       0.134
       0.105
       0.079
       0.077
       0.115
       0.189
       0.275
       0.346
       0.383
       0.382
       0.356
       0.320
       0.286
       0.260
       0.240
       0.222
       0.202
       0.178
       0.150
       0.117
       0.077
       0.031
      -0.019
      -0.069
      -0.107
      -0.122
      -0.110
      -0.080
      -0.043
      -0.013
       0.003
       0.001
      -0.017
      -0.049
      -0.088
      -0.130
      -0.166
      -0.188
      -0.190
      -0.180
      -0.165
      -0.153
      -0.148
      -0.147
      -0.150
      -0.158
      -0.178
      -0.210
      -0.243
      -0.264
      -0.265
      -0.256
      -0.247
      -0.244
      -0.241
      -0.233
      -0.213
      -0.181
      -0.144
      -0.112
      -0.088
      -0.070
      -0.052
      -0.027
       0.008
       0.055
       0.106
       0.146
       0.166
       0.167
       0.161
       0.162
       0.180
       0.213
       0.249
       0.276
       0.294
       0.316
       0.349
       0.384
       0.400
       0.378
       0.319
       0.239
       0.166
       0.117
       0.089
       0.069
       0.053
       0.046
       0.055
       0.071
       0.078
       0.063
       0.027
      -0.020
      -0.062
      -0.091
      -0.104
      -0.106
      -0.097
      -0.078
      -0.049
      -0.018
       0.006
       0.020
       0.020
       0.003
      -0.024
      -0.054
      -0.078
      -0.095
      -0.107
      -0.120
      -0.141
      -0.171
      -0.202
      -0.222
      -0.224
      -0.212
      -0.195
      -0.177
      -0.161
      -0.144
      -0.120
      -0.087
      -0.051
      -0.021
      -0.006
      -0.004
      -0.007
      -0.004
       0.014
       0.051
       0.100
       0.154
       0.207
       0.262
       0.313
       0.352
       0.374
       0.384
       0.385
       0.373
       0.344
       0.295
       0.227
       0.149
       0.075
       0.013
      -0.034
      -0.075
      -0.117
      -0.159
      -0.198
      -0.224
      -0.230
      -0.215
      -0.193
      -0.184
      -0.197
      -0.230
      -0.272
      -0.314
      -0.342
      -0.345
      -0.322
      -0.279
      -0.226
      -0.176
      -0.138
      -0.119
      -0.115
      -0.112
      -0.098
      -0.068
      -0.029
       0.008
       0.032
       0.039
       0.038
       0.042
       0.059
       0.085
       0.108
       0.119
       0.110
       0.081
       0.041
       0.005
      -0.018
      -0.021
      -0.003
       0.037
       0.090
       0.141
       0.179
       0.202
       0.215
       0.221
       0.222
       0.219
       0.211
       0.198
       0.181
       0.156
       0.113
       0.046
      -0.034
      -0.107
      -0.158
      -0.185
      -0.197
      -0.204
      -0.213
      -0.226
      -0.244
      -0.260
      -0.268
      -0.266
      -0.252
      -0.232
      -0.213
      -0.202
      -0.199
      -0.194
      -0.180
      -0.159
      -0.132
      -0.103
      -0.076
      -0.050
      -0.016
       0.042
       0.126
       0.215
       0.283
       0.313
       0.298
       0.248
       0.173
       0.088
       0.003
      -0.070
      -0.118
      -0.132
      -0.116
      -0.085
      -0.049
      -0.011
       0.029
       0.072
       0.121
       0.186
       0.264
       0.343
       0.399
       0.415
       0.383
       0.306
       0.205
       0.104
       0.023
      -0.029
      -0.053
      -0.058
      -0.062
      -0.076
      -0.103
      -0.133
      -0.164
      -0.196
      -0.232
      -0.264
      -0.283
      -0.286
      -0.272
      -0.243
      -0.206
      -0.173
      -0.149
      -0.135
      -0.127
      -0.112
      -0.077
      -0.013
       0.076
       0.169
       0.250
       0.307
       0.334
       0.334
       0.314
       0.286
       0.257
       0.229
       0.199
       0.163
       0.116
       0.057
      -0.010
      -0.077
      -0.141
      -0.204
      -0.264
      -0.312
      -0.343
      -0.357
      -0.356
      -0.341
      -0.309
      -0.261
      -0.200
      -0.133
      -0.074
      -0.039
      -0.028
      -0.027
      -0.022
      -0.006
       0.023
       0.062
       0.104
       0.140
       0.168
       0.195
       0.226
       0.262
       0.297
       0.324
       0.336
       0.326
       0.294
       0.245
       0.183
       0.112
       0.038
      -0.033
      -0.101
      -0.168
      -0.234
      -0.295
      -0.348
      -0.394
      -0.424
      -0.423
      -0.383
      -0.309
      -0.214
      -0.108
      -0.003
       0.097
       0.194
       0.288
       0.378
       0.452
       0.503
       0.524
       0.515
       0.483
       0.442
       0.405
       0.373
       0.342
       0.308
       0.276
       0.242
       0.200
       0.147
       0.089
       0.035
      -0.013
      -0.056
      -0.098
      -0.141
      -0.190
      -0.239
      -0.284
      -0.324
      -0.365
      -0.410
      -0.454
      -0.497
      -0.540
      -0.582
      -0.619
      -0.648
      -0.674
      -0.694
      -0.696
      -0.671
      -0.622
      -0.554
      -0.479
      -0.403
      -0.332
      -0.266
      -0.201
      -0.135
      -0.059
       0.036
       0.155
       0.282
       0.395
       0.480
       0.534
       0.565
       0.575
       0.570
       0.549
       0.509
       0.437
       0.327
       0.186
       0.024
      -0.141
      -0.288
      -0.399
      -0.467
      -0.495
      -0.493
      -0.477
      -0.463
      -0.459
      -0.452
      -0.420
      -0.350
      -0.244
      -0.117
       0.018
       0.149
       0.270
       0.387
       0.513
       0.654
       0.803
       0.941
       1.050
       1.113
       1.123
       1.087
       1.013
       0.909
       0.775
       0.618
       0.448
       0.278
       0.112
      -0.048
      -0.200
      -0.346
      -0.483
      -0.602
      -0.694
      -0.760
      -0.803
      -0.825
      -0.819
      -0.780
      -0.706
      -0.599
      -0.463
      -0.308
      -0.151
       0.001
       0.143
       0.272
       0.387
       0.492
       0.595
       0.695
       0.783
       0.843
       0.862
       0.829
       0.742
       0.608
       0.444
       0.263
       0.076
      -0.107
      -0.275
      -0.433
      -0.586
      -0.736
      -0.875
      -0.990
      -1.072
      -1.112
      -1.107
      -1.066
      -1.003
      -0.928
      -0.843
      -0.749
      -0.647
      -0.538
      -0.416
      -0.270
      -0.094
       0.109
       0.330
       0.550
       0.751
       0.924
       1.071
       1.192
       1.282
       1.333
       1.341
       1.299
       1.208
       1.074
       0.907
       0.719
       0.519
       0.316
       0.123
      -0.054
      -0.217
      -0.367
      -0.502
      -0.620
      -0.721
      -0.799
      -0.848
      -0.867
      -0.854
      -0.805
      -0.715
      -0.584
      -0.419
      -0.231
      -0.032
       0.164
       0.349
       0.519
       0.674
       0.805
       0.899
       0.952
       0.964
       0.934
       0.855
       0.730
       0.572
       0.398
       0.222
       0.056
      -0.094
      -0.224
      -0.330
      -0.406
      -0.447
      -0.461
      -0.460
      -0.453
      -0.438
      -0.410
      -0.370
      -0.314
      -0.242
      -0.157
      -0.067
       0.027
       0.124
       0.225
       0.319
       0.396
       0.444
       0.451
       0.414
       0.340
       0.243
       0.138
       0.039
      -0.043
      -0.104
      -0.156
      -0.217
      -0.294
      -0.385
      -0.482
      -0.574
      -0.654
      -0.710
      -0.743
      -0.767
      -0.798
      -0.845
      -0.902
      -0.953
      -0.973
      -0.943
      -0.858
      -0.723
      -0.545
      -0.327
      -0.081
       0.174
       0.415
       0.627
       0.799
       0.927
       1.017
       1.073
       1.095
       1.078
       1.019
       0.922
       0.788
       0.619
       0.420
       0.199
      -0.037
      -0.279
      -0.517
      -0.736
      -0.926
      -1.089
      -1.226
      -1.336
      -1.414
      -1.450
      -1.433
      -1.362
      -1.246
      -1.107
      -0.954
      -0.791
      -0.615
      -0.424
      -0.218
      -0.002
       0.205
       0.386
       0.532
       0.654
       0.768
       0.879
       0.984
       1.063
       1.093
       1.059
       0.967
       0.843
       0.719
       0.616
       0.541
       0.491
       0.455
       0.426
       0.405
       0.394
       0.391
       0.385
       0.375
       0.363
       0.344
       0.311
       0.261
       0.204
       0.156
       0.131
       0.136
       0.166
       0.205
       0.235
       0.245
       0.239
       0.218
       0.187
       0.152
       0.119
       0.088
       0.055
       0.014
      -0.037
      -0.099
      -0.163
      -0.218
      -0.251
      -0.264
      -0.271
      -0.285
      -0.313
      -0.351
      -0.391
      -0.428
      -0.463
      -0.506
      -0.564
      -0.630
      -0.688
      -0.718
      -0.711
      -0.660
      -0.569
      -0.452
      -0.329
      -0.214
      -0.108
      -0.013
       0.067
       0.125
       0.159
       0.168
       0.158
       0.141
       0.128
       0.123
       0.124
       0.128
       0.128
       0.110
       0.058
      -0.024
      -0.117
      -0.198
      -0.254
      -0.282
      -0.289
      -0.281
      -0.263
      -0.226
      -0.160
      -0.062
       0.061
       0.202
       0.349
       0.494
       0.632
       0.760
       0.875
       0.965
       1.014
       1.014
       0.966
       0.877
       0.758
       0.629
       0.512
       0.416
       0.335
       0.252
       0.151
       0.019
      -0.142
      -0.312
      -0.463
      -0.578
      -0.657
      -0.717
      -0.778
      -0.853
      -0.940
      -1.020
      -1.074
      -1.100
      -1.108
      -1.100
      -1.071
      -1.010
      -0.912
      -0.786
      -0.649
      -0.520
      -0.406
      -0.294
      -0.162
       0.002
       0.187
       0.372
       0.543
       0.691
       0.820
       0.941
       1.069
       1.211
       1.361
       1.509
       1.636
       1.718
       1.740
       1.699
       1.607
       1.468
       1.281
       1.046
       0.770
       0.464
       0.142
      -0.182
      -0.495
      -0.788
      -1.060
      -1.308
      -1.523
      -1.698
      -1.824
      -1.886
      -1.869
      -1.768
      -1.592
      -1.357
      -1.086
      -0.806
      -0.533
      -0.277
      -0.041
       0.167
       0.333
       0.457
       0.545
       0.608
       0.656
       0.693
       0.720
       0.732
       0.729
       0.721
       0.718
       0.725
       0.734
       0.736
       0.720
       0.678
       0.607
       0.512
       0.403
       0.283
       0.146
      -0.008
      -0.178
      -0.355
      -0.528
      -0.686
      -0.819
      -0.929
      -1.025
      -1.111
      -1.183
      -1.236
      -1.258
      -1.233
      -1.147
      -0.997
      -0.796
      -0.560
      -0.307
      -0.054
       0.187
       0.413
       0.626
       0.827
       1.015
       1.188
       1.338
       1.451
       1.514
       1.520
       1.468
       1.353
       1.173
       0.932
       0.641
       0.310
      -0.049
      -0.420
      -0.781
      -1.115
      -1.406
      -1.644
      -1.821
      -1.930
      -1.964
      -1.913
      -1.777
      -1.564
      -1.287
      -0.951
      -0.558
      -0.127
       0.304
       0.686
       0.970
       1.126
       1.153
       1.084
       0.967
       0.838
       0.718
       0.617
       0.543
       0.499
       0.478
       0.468
       0.451
       0.417
       0.366
       0.314
       0.275
       0.252
       0.241
       0.237
       0.243
       0.252
       0.248
       0.217
       0.146
       0.035
      -0.108
      -0.255
      -0.377
      -0.451
      -0.470
      -0.439
      -0.376
      -0.304
      -0.244
      -0.203
      -0.178
      -0.164
      -0.157
      -0.147
      -0.125
      -0.090
      -0.048
      -0.012
       0.001
      -0.025
      -0.090
      -0.174
      -0.247
      -0.286
      -0.279
      -0.219
      -0.100
       0.070
       0.267
       0.456
       0.604
       0.689
       0.710
       0.687
       0.638
       0.575
       0.495
       0.404
       0.312
       0.232
       0.173
       0.143
       0.140
       0.152
       0.160
       0.149
       0.116
       0.069
       0.017
      -0.029
      -0.070
      -0.117
      -0.187
      -0.287
      -0.416
      -0.571
      -0.739
      -0.897
      -1.010
      -1.049
      -0.996
      -0.857
      -0.662
      -0.457
      -0.275
      -0.119
       0.030
       0.184
       0.340
       0.482
       0.590
       0.649
       0.653
       0.608
       0.530
       0.430
       0.328
       0.251
       0.223
       0.246
       0.290
       0.321
       0.311
       0.253
       0.158
       0.053
      -0.035
      -0.096
      -0.131
      -0.150
      -0.167
      -0.198
      -0.255
      -0.335
      -0.428
      -0.522
      -0.609
      -0.673
      -0.697
      -0.671
      -0.592
      -0.462
      -0.289
      -0.091
       0.109
       0.287
       0.428
       0.519
       0.561
       0.566
       0.553
       0.531
       0.500
       0.456
       0.393
       0.308
       0.202
       0.085
      -0.025
      -0.112
      -0.168
      -0.195
      -0.202
      -0.205
      -0.210
      -0.203
      -0.169
      -0.105
      -0.031
       0.028
       0.058
       0.059
       0.040
       0.013
      -0.024
      -0.079
      -0.162
      -0.264
      -0.363
      -0.438
      -0.472
      -0.454
      -0.378
      -0.249
      -0.084
       0.097
       0.274
       0.430
       0.565
       0.690
       0.816
       0.935
       1.028
       1.076
       1.068
       1.002
       0.885
       0.734
       0.564
       0.377
       0.165
      -0.076
      -0.342
      -0.622
      -0.895
      -1.134
      -1.326
      -1.469
      -1.571
      -1.628
      -1.628
      -1.554
      -1.401
      -1.170
      -0.876
      -0.548
      -0.217
       0.094
       0.376
       0.630
       0.866
       1.091
       1.301
       1.472
       1.575
       1.595
       1.533
       1.402
       1.214
       0.987
       0.733
       0.461
       0.186
      -0.076
      -0.309
      -0.508
      -0.676
      -0.814
      -0.917
      -0.983
      -1.005
      -0.973
      -0.884
      -0.744
      -0.569
      -0.382
      -0.202
      -0.043
       0.088
       0.194
       0.277
       0.329
       0.340
       0.314
       0.269
       0.222
       0.179
       0.133
       0.067
      -0.035
      -0.173
      -0.332
      -0.487
      -0.619
      -0.715
      -0.762
      -0.751
      -0.688
      -0.587
      -0.465
      -0.333
      -0.203
      -0.081
       0.028
       0.116
       0.173
       0.191
       0.179
       0.158
       0.146
       0.154
       0.185
       0.230
       0.275
       0.308
       0.324
       0.327
       0.312
       0.274
       0.216
       0.152
       0.094
       0.055
       0.043
       0.060
       0.097
       0.138
       0.167
       0.169
       0.132
       0.060
      -0.025
      -0.095
      -0.136
      -0.147
      -0.136
      -0.114
      -0.089
      -0.063
      -0.029
       0.020
       0.082
       0.152
       0.233
       0.325
       0.425
       0.518
       0.587
       0.611
       0.576
       0.480
       0.337
       0.172
       0.008
      -0.132
      -0.226
      -0.255
      -0.210
      -0.103
       0.040
       0.179
       0.275
       0.307
       0.276
       0.196
       0.075
      -0.077
      -0.249
      -0.419
      -0.569
      -0.680
      -0.733
      -0.717
      -0.634
      -0.503
      -0.348
      -0.194
      -0.059
       0.050
       0.139
       0.211
       0.268
       0.307
       0.336
       0.362
       0.384
       0.397
       0.393
       0.374
       0.343
       0.306
       0.274
       0.256
       0.247
       0.236
       0.211
       0.162
       0.080
      -0.036
      -0.176
      -0.319
      -0.441
      -0.518
      -0.534
      -0.489
      -0.400
      -0.297
      -0.200
      -0.116
      -0.041
       0.038
       0.127
       0.220
       0.291
       0.312
       0.281
       0.215
       0.138
       0.070
       0.023
      -0.003
      -0.015
      -0.023
      -0.032
      -0.040
      -0.047
      -0.047
      -0.035
      -0.014
       0.008
       0.021
       0.028
       0.033
       0.034
       0.027
       0.014
       0.003
       0.000
       0.005
       0.015
       0.023
       0.017
      -0.008
      -0.049
      -0.099
      -0.150
      -0.196
      -0.224
      -0.227
      -0.211
      -0.189
      -0.171
      -0.158
      -0.148
      -0.137
      -0.127
      -0.115
      -0.104
      -0.087
      -0.052
       0.004
       0.068
       0.117
       0.135
       0.123
       0.093
       0.059
       0.029
      -0.001
      -0.041
      -0.097
      -0.159
      -0.210
      -0.231
      -0.209
      -0.135
      -0.014
       0.130
