Origin Time       20/06/2011 06:27:18 UTC
Lat.              30.5 N	
Long.             79.4 E	
Depth (Km)         12.0
Magnitude         4.6
 Region           Chamoli-Uttarakhand                                              
 Above details taken from IMD 
    
Station Code      CHP
Station Lat.       29.334  N
Station Long.      80.095  E
Station Height(m) 1635.0
Site Class        A   Vs30 between 700 m/sec to 1400 m/sec * 
Record Time       20.06.2011 06:27:50.614 UTC
Sampling Rate     200. Hz
 Record Duration   65.000 Sec.
 Direction         N-S (N positive)
Max. Acceleration      1.247 cm/sec**2
     
  * For reference see Site Classification link of website 
     
 Base Line Corrected and Low Pass Filtered (Cut Off at 35 Hz) Time History
 Acceleration data in cm/sec**2
    
[...]
      -0.107
      -0.149
      -0.164
      -0.156
      -0.138
      -0.114
      -0.081
      -0.036
       0.011
       0.046
       0.061
       0.064
       0.073
       0.103
       0.152
       0.202
       0.232
       0.234
       0.215
       0.190
       0.166
       0.142
       0.117
       0.089
       0.061
       0.035
       0.008
      -0.027
      -0.073
      -0.124
      -0.173
      -0.215
      -0.245
      -0.257
      -0.241
      -0.196
      -0.133
      -0.069
      -0.022
       0.000
       0.001
      -0.002
       0.002
       0.015
       0.024
       0.021
       0.005
      -0.018
      -0.039
      -0.058
      -0.079
      -0.108
      -0.140
      -0.166
      -0.174
      -0.168
      -0.157
      -0.152
      -0.150
      -0.145
      -0.131
      -0.105
      -0.072
      -0.038
      -0.007
       0.024
       0.059
       0.096
       0.130
       0.156
       0.174
       0.185
       0.192
       0.193
       0.187
       0.171
       0.142
       0.105
       0.069
       0.043
       0.030
       0.028
       0.031
       0.031
       0.022
       0.011
       0.009
       0.019
       0.034
       0.039
       0.028
       0.005
      -0.015
      -0.012
       0.022
       0.076
       0.127
       0.156
       0.160
       0.144
       0.115
       0.074
       0.018
      -0.051
      -0.120
      -0.168
      -0.177
      -0.146
      -0.086
      -0.015
       0.051
       0.099
       0.117
       0.107
       0.080
       0.054
       0.042
       0.050
       0.075
       0.103
       0.120
       0.120
       0.109
       0.092
       0.068
       0.034
      -0.011
      -0.059
      -0.098
      -0.116
      -0.106
      -0.073
      -0.027
       0.016
       0.050
       0.067
       0.068
       0.058
       0.050
       0.055
       0.070
       0.087
       0.097
       0.094
       0.076
       0.047
       0.010
      -0.035
      -0.083
      -0.127
      -0.151
      -0.149
      -0.123
      -0.086
      -0.052
      -0.035
      -0.043
      -0.073
      -0.109
      -0.140
      -0.155
      -0.151
      -0.132
      -0.107
      -0.086
      -0.070
      -0.053
      -0.035
      -0.022
      -0.022
      -0.040
      -0.073
      -0.114
      -0.146
      -0.157
      -0.143
      -0.113
      -0.075
      -0.035
       0.000
       0.028
       0.051
       0.074
       0.098
       0.120
       0.135
       0.139
       0.131
       0.117
       0.108
       0.110
       0.124
       0.144
       0.164
       0.181
       0.192
       0.194
       0.189
       0.178
       0.157
       0.122
       0.075
       0.032
       0.008
       0.008
       0.029
       0.058
       0.080
       0.092
       0.099
       0.109
       0.119
       0.119
       0.101
       0.068
       0.023
      -0.027
      -0.079
      -0.127
      -0.172
      -0.213
      -0.247
      -0.266
      -0.267
      -0.254
      -0.232
      -0.204
      -0.173
      -0.146
      -0.127
      -0.118
      -0.117
      -0.123
      -0.127
      -0.126
      -0.123
      -0.128
      -0.143
      -0.160
      -0.169
      -0.159
      -0.130
      -0.085
      -0.034
       0.012
       0.047
       0.066
       0.061
       0.030
      -0.017
      -0.063
      -0.094
      -0.105
      -0.095
      -0.068
      -0.033
      -0.003
       0.015
       0.018
       0.012
       0.009
       0.027
       0.083
       0.174
       0.275
       0.362
       0.415
       0.432
       0.416
       0.380
       0.339
       0.305
       0.281
       0.269
       0.264
       0.261
       0.252
       0.236
       0.214
       0.189
       0.163
       0.147
       0.156
       0.191
       0.243
       0.294
       0.329
       0.330
       0.294
       0.228
       0.152
       0.076
       0.006
      -0.058
      -0.113
      -0.158
      -0.197
      -0.235
      -0.275
      -0.318
      -0.361
      -0.394
      -0.406
      -0.393
      -0.363
      -0.324
      -0.286
      -0.258
      -0.249
      -0.256
      -0.270
      -0.282
      -0.293
      -0.304
      -0.316
      -0.333
      -0.357
      -0.387
      -0.416
      -0.435
      -0.434
      -0.408
      -0.353
      -0.279
      -0.195
      -0.109
      -0.024
       0.058
       0.133
       0.205
       0.275
       0.344
       0.406
       0.461
       0.514
       0.568
       0.616
       0.650
       0.664
       0.651
       0.616
       0.569
       0.526
       0.491
       0.460
       0.425
       0.379
       0.321
       0.254
       0.186
       0.119
       0.047
      -0.033
      -0.108
      -0.158
      -0.174
      -0.169
      -0.161
      -0.162
      -0.170
      -0.175
      -0.161
      -0.128
      -0.091
      -0.073
      -0.082
      -0.111
      -0.147
      -0.183
      -0.220
      -0.259
      -0.299
      -0.338
      -0.370
      -0.391
      -0.407
      -0.423
      -0.438
      -0.449
      -0.453
      -0.451
      -0.444
      -0.428
      -0.400
      -0.361
      -0.311
      -0.250
      -0.183
      -0.117
      -0.058
      -0.006
       0.037
       0.071
       0.103
       0.143
       0.193
       0.248
       0.300
       0.347
       0.394
       0.442
       0.490
       0.529
       0.546
       0.529
       0.482
       0.415
       0.339
       0.263
       0.193
       0.135
       0.086
       0.043
       0.009
      -0.005
       0.001
       0.024
       0.053
       0.080
       0.091
       0.079
       0.041
      -0.015
      -0.079
      -0.143
      -0.201
      -0.251
      -0.296
      -0.336
      -0.366
      -0.381
      -0.384
      -0.383
      -0.382
      -0.374
      -0.355
      -0.323
      -0.282
      -0.238
      -0.196
      -0.151
      -0.089
       0.000
       0.108
       0.207
       0.274
       0.297
       0.279
       0.229
       0.160
       0.086
       0.015
      -0.042
      -0.081
      -0.101
      -0.109
      -0.117
      -0.129
      -0.139
      -0.147
      -0.151
      -0.147
      -0.125
      -0.081
      -0.013
       0.077
       0.181
       0.287
       0.382
       0.460
       0.528
       0.585
       0.628
       0.652
       0.654
       0.635
       0.592
       0.534
       0.469
       0.405
       0.346
       0.295
       0.251
       0.209
       0.162
       0.112
       0.064
       0.017
      -0.033
      -0.096
      -0.180
      -0.289
      -0.417
      -0.548
      -0.661
      -0.739
      -0.777
      -0.778
      -0.751
      -0.709
      -0.665
      -0.623
      -0.581
      -0.535
      -0.484
      -0.425
      -0.357
      -0.279
      -0.189
      -0.087
       0.022
       0.125
       0.207
       0.264
       0.303
       0.329
       0.341
       0.332
       0.300
       0.244
       0.172
       0.096
       0.032
      -0.015
      -0.045
      -0.059
      -0.060
      -0.056
      -0.057
      -0.065
      -0.071
      -0.065
      -0.046
      -0.011
       0.036
       0.092
       0.155
       0.223
       0.296
       0.371
       0.437
       0.493
       0.540
       0.582
       0.619
       0.653
       0.679
       0.685
       0.657
       0.595
       0.513
       0.422
       0.327
       0.226
       0.115
      -0.005
      -0.134
      -0.262
      -0.382
      -0.496
      -0.604
      -0.699
      -0.769
      -0.807
      -0.815
      -0.797
      -0.763
      -0.723
      -0.687
      -0.656
      -0.624
      -0.588
      -0.545
      -0.495
      -0.435
      -0.365
      -0.295
      -0.231
      -0.183
      -0.155
      -0.139
      -0.118
      -0.073
       0.002
       0.094
       0.182
       0.251
       0.290
       0.301
       0.292
       0.275
       0.262
       0.263
       0.291
       0.342
       0.398
       0.431
       0.418
       0.358
       0.259
       0.143
       0.037
      -0.039
      -0.082
      -0.101
      -0.104
      -0.099
      -0.097
      -0.105
      -0.124
      -0.139
      -0.137
      -0.109
      -0.060
       0.001
       0.060
       0.116
       0.172
       0.229
       0.280
       0.317
       0.344
       0.370
       0.400
       0.431
       0.457
       0.477
       0.492
       0.502
       0.507
       0.506
       0.488
       0.444
       0.371
       0.267
       0.128
      -0.040
      -0.215
      -0.368
      -0.479
      -0.548
      -0.586
      -0.602
      -0.606
      -0.603
      -0.584
      -0.537
      -0.454
      -0.338
      -0.195
      -0.041
       0.111
       0.249
       0.373
       0.485
       0.582
       0.654
       0.693
       0.692
       0.648
       0.569
       0.472
       0.373
       0.276
       0.178
       0.076
      -0.024
      -0.117
      -0.193
      -0.242
      -0.260
      -0.257
      -0.248
      -0.241
      -0.237
      -0.229
      -0.214
      -0.185
      -0.146
      -0.104
      -0.076
      -0.066
      -0.074
      -0.092
      -0.113
      -0.131
      -0.144
      -0.162
      -0.194
      -0.236
      -0.275
      -0.304
      -0.323
      -0.337
      -0.346
      -0.349
      -0.340
      -0.314
      -0.275
      -0.242
      -0.232
      -0.251
      -0.291
      -0.337
      -0.378
      -0.404
      -0.411
      -0.401
      -0.373
      -0.322
      -0.243
      -0.143
      -0.031
       0.085
       0.199
       0.301
       0.381
       0.437
       0.475
       0.500
       0.510
       0.505
       0.488
       0.464
       0.443
       0.435
       0.449
       0.480
       0.514
       0.535
       0.526
       0.474
       0.376
       0.251
       0.128
       0.032
      -0.022
      -0.035
      -0.014
       0.026
       0.071
       0.114
       0.146
       0.160
       0.150
       0.127
       0.104
       0.093
       0.097
       0.117
       0.142
       0.153
       0.126
       0.054
      -0.055
      -0.186
      -0.315
      -0.419
      -0.485
      -0.517
      -0.531
      -0.538
      -0.535
      -0.514
      -0.465
      -0.382
      -0.266
      -0.128
       0.021
       0.171
       0.308
       0.421
       0.499
       0.542
       0.551
       0.524
       0.460
       0.371
       0.275
       0.181
       0.090
      -0.005
      -0.108
      -0.218
      -0.327
      -0.421
      -0.490
      -0.531
      -0.555
      -0.567
      -0.574
      -0.579
      -0.577
      -0.560
      -0.518
      -0.457
      -0.389
      -0.327
      -0.275
      -0.237
      -0.214
      -0.200
      -0.192
      -0.192
      -0.204
      -0.228
      -0.256
      -0.280
      -0.294
      -0.290
      -0.265
      -0.226
      -0.179
      -0.126
      -0.059
       0.027
       0.134
       0.254
       0.372
       0.476
       0.564
       0.649
       0.739
       0.830
       0.907
       0.957
       0.969
       0.939
       0.870
       0.782
       0.696
       0.629
       0.577
       0.527
       0.464
       0.374
       0.255
       0.118
      -0.019
      -0.138
      -0.226
      -0.271
      -0.272
      -0.234
      -0.167
      -0.074
       0.040
       0.162
       0.267
       0.334
       0.356
       0.336
       0.292
       0.245
       0.203
       0.157
       0.088
      -0.011
      -0.135
      -0.277
      -0.427
      -0.574
      -0.708
      -0.825
      -0.918
      -0.980
      -1.004
      -0.992
      -0.950
      -0.882
      -0.789
      -0.673
      -0.543
      -0.400
      -0.242
      -0.068
       0.115
       0.294
       0.450
       0.561
       0.619
       0.633
       0.616
       0.577
       0.522
       0.457
       0.385
       0.309
       0.228
       0.151
       0.089
       0.046
       0.017
      -0.001
      -0.011
      -0.008
       0.014
       0.064
       0.148
       0.254
       0.360
       0.448
       0.505
       0.527
       0.518
       0.488
       0.451
       0.412
       0.369
       0.319
       0.260
       0.188
       0.107
       0.022
      -0.059
      -0.139
      -0.225
      -0.317
      -0.412
      -0.506
      -0.595
      -0.665
      -0.704
      -0.710
      -0.694
      -0.667
      -0.634
      -0.597
      -0.555
      -0.511
      -0.467
      -0.426
      -0.386
      -0.341
      -0.290
      -0.241
      -0.204
      -0.181
      -0.167
      -0.156
      -0.137
      -0.097
      -0.026
       0.076
       0.201
       0.343
       0.498
       0.655
       0.796
       0.906
       0.972
       0.988
       0.960
       0.906
       0.837
       0.755
       0.648
       0.510
       0.342
       0.151
      -0.052
      -0.253
      -0.442
      -0.615
      -0.762
      -0.864
      -0.903
      -0.878
      -0.805
      -0.706
      -0.602
      -0.509
      -0.432
      -0.367
      -0.309
      -0.261
      -0.224
      -0.189
      -0.136
      -0.053
       0.063
       0.204
       0.356
       0.502
       0.627
       0.719
       0.769
       0.770
       0.721
       0.630
       0.509
       0.365
       0.203
       0.031
      -0.138
      -0.292
      -0.418
      -0.504
      -0.548
      -0.559
      -0.547
      -0.514
      -0.453
      -0.361
      -0.237
      -0.087
       0.076
       0.233
       0.362
       0.450
       0.491
       0.479
       0.411
       0.297
       0.157
       0.010
      -0.125
      -0.238
      -0.326
      -0.394
      -0.445
      -0.470
      -0.457
      -0.401
      -0.303
      -0.165
       0.013
       0.223
       0.450
       0.681
       0.894
       1.070
       1.190
       1.247
       1.233
       1.140
       0.968
       0.724
       0.433
       0.120
      -0.189
      -0.470
      -0.706
      -0.886
      -1.002
      -1.045
      -1.018
      -0.935
      -0.811
      -0.657
      -0.482
      -0.303
      -0.141
      -0.015
       0.065
       0.095
       0.075
       0.021
      -0.046
      -0.106
      -0.146
      -0.170
      -0.190
      -0.223
      -0.273
      -0.330
      -0.379
      -0.415
      -0.438
      -0.451
      -0.451
      -0.436
      -0.401
      -0.336
      -0.240
      -0.122
       0.002
       0.122
       0.232
       0.328
       0.411
       0.484
       0.550
       0.611
       0.667
       0.712
       0.743
       0.752
       0.734
       0.696
       0.639
       0.558
       0.447
       0.307
       0.147
      -0.022
      -0.192
      -0.353
      -0.498
      -0.617
      -0.701
      -0.739
      -0.724
      -0.662
      -0.567
      -0.455
      -0.337
      -0.221
      -0.109
      -0.002
       0.103
       0.200
       0.285
       0.355
       0.403
       0.416
       0.380
       0.293
       0.169
       0.030
      -0.099
      -0.199
      -0.261
      -0.289
      -0.285
      -0.248
      -0.174
      -0.073
       0.037
       0.141
       0.236
       0.326
       0.419
       0.519
       0.616
       0.687
       0.714
       0.692
       0.626
       0.522
       0.385
       0.231
       0.077
      -0.062
      -0.181
      -0.279
      -0.361
      -0.431
      -0.489
      -0.527
      -0.535
      -0.513
      -0.467
      -0.404
      -0.331
      -0.253
      -0.174
      -0.095
      -0.015
       0.060
       0.125
       0.178
       0.217
       0.233
       0.224
       0.197
       0.162
       0.128
       0.097
       0.074
       0.058
       0.040
       0.010
      -0.035
      -0.092
      -0.151
      -0.195
      -0.205
      -0.170
      -0.089
       0.024
       0.153
       0.274
       0.368
       0.424
       0.448
       0.451
       0.434
       0.394
       0.328
       0.244
       0.152
       0.063
      -0.013
      -0.074
      -0.129
      -0.192
      -0.271
      -0.366
      -0.473
      -0.582
      -0.676
      -0.744
      -0.775
      -0.767
      -0.715
      -0.622
      -0.499
      -0.360
      -0.213
      -0.065
       0.073
       0.193
       0.290
       0.364
       0.420
       0.461
       0.491
       0.504
       0.485
       0.429
       0.344
       0.249
       0.162
       0.095
       0.055
       0.048
       0.069
       0.109
       0.155
       0.187
       0.185
       0.142
       0.069
      -0.014
      -0.094
      -0.163
      -0.213
      -0.236
      -0.224
      -0.176
      -0.091
       0.015
       0.121
       0.205
       0.261
       0.292
       0.297
       0.275
       0.233
       0.181
       0.135
       0.105
       0.100
       0.113
       0.125
       0.116
       0.078
       0.016
      -0.063
      -0.143
      -0.204
      -0.230
      -0.224
      -0.202
      -0.179
      -0.162
      -0.152
      -0.141
      -0.123
      -0.100
      -0.079
      -0.067
      -0.060
      -0.055
      -0.052
      -0.051
      -0.047
      -0.037
      -0.024
      -0.018
      -0.020
      -0.030
      -0.044
      -0.056
      -0.061
      -0.058
      -0.057
      -0.065
      -0.082
      -0.101
      -0.119
      -0.133
      -0.140
      -0.142
      -0.141
      -0.139
      -0.130
      -0.110
      -0.082
      -0.050
      -0.014
       0.028
       0.075
       0.122
       0.162
       0.191
       0.199
       0.186
       0.155
       0.114
       0.066
       0.014
      -0.034
      -0.068
      -0.084
      -0.081
      -0.063
      -0.041
      -0.025
      -0.017
      -0.013
      -0.009
      -0.005
       0.000
       0.013
       0.038
       0.068
       0.093
       0.105
       0.105
       0.102
       0.109
       0.141
       0.204
       0.288
       0.375
       0.446
       0.482
       0.468
       0.396
       0.277
       0.128
      -0.031
      -0.184
      -0.322
      -0.447
      -0.568
      -0.691
      -0.809
      -0.903
      -0.956
      -0.959
      -0.905
      -0.796
      -0.646
      -0.468
      -0.276
      -0.083
       0.102
       0.275
       0.444
       0.613
       0.777
       0.923
       1.038
       1.110
       1.126
       1.082
       0.979
       0.828
       0.643
       0.450
       0.275
       0.135
       0.026
      -0.061
      -0.133
      -0.188
      -0.223
      -0.237
      -0.225
      -0.190
      -0.137
      -0.080
      -0.029
       0.004
       0.010
      -0.009
      -0.042
      -0.079
      -0.116
      -0.153
      -0.184
      -0.207
      -0.223
      -0.240
      -0.262
      -0.295
      -0.336
      -0.375
      -0.393
      -0.376
      -0.328
      -0.264
      -0.197
      -0.130
      -0.064
       0.004
       0.075
       0.145
       0.203
       0.243
       0.268
       0.280
       0.271
       0.234
       0.168
       0.084
      -0.002
      -0.078
      -0.140
      -0.196
      -0.260
      -0.329
      -0.384
      -0.406
      -0.390
      -0.340
      -0.265
      -0.172
      -0.070
       0.030
       0.125
       0.209
       0.281
       0.345
       0.409
       0.477
       0.536
       0.566
       0.547
       0.475
       0.358
       0.210
       0.049
      -0.110
      -0.257
      -0.379
      -0.458
      -0.488
      -0.476
      -0.435
      -0.373
      -0.287
      -0.179
      -0.049
       0.094
       0.237
       0.359
       0.439
       0.469
       0.449
       0.389
       0.310
       0.233
       0.172
       0.126
       0.088
       0.054
       0.019
      -0.020
      -0.065
      -0.109
      -0.141
      -0.150
      -0.132
