Origin Time       18/9/2011 12:40:47	
Lat.              27.6 N	
Long.             88.2 E	
Depth (Km)         10.0
Magnitude         6.8
 Region           India(Sikkim)-Nepar-Border                                       
 Above details taken from IMD 
     
Station Code      CHP
Station Lat.       29.334  N
Station Long.      80.095  E
Station Height(m) 1635.0
Site Class        A   Vs30 between 700 m/sec to 1400 m/sec * 
Record Time       18.09.2011 12:43:44.639
Sampling Rate     200. Hz
 Record Duration   67.160 Sec.
 Direction         E-W (E positive)
Max. Acceleration      2.376 cm/sec**2
     
  * For reference see Site Classification link of website 
     
 Base Line Corrected and Low Pass Filtered (Cut Off at 35 Hz) Time History
 Acceleration data in cm/sec**2
    
[...]
      -0.040
      -0.058
      -0.088
      -0.131
      -0.189
      -0.251
      -0.297
      -0.312
      -0.301
      -0.277
      -0.250
      -0.231
      -0.227
      -0.236
      -0.245
      -0.251
      -0.251
      -0.241
      -0.207
      -0.147
      -0.076
      -0.012
       0.036
       0.067
       0.089
       0.126
       0.201
       0.318
       0.462
       0.605
       0.727
       0.807
       0.831
       0.804
       0.748
       0.681
       0.605
       0.508
       0.382
       0.223
       0.040
      -0.149
      -0.315
      -0.442
      -0.535
      -0.612
      -0.687
      -0.768
      -0.857
      -0.940
      -0.994
      -1.005
      -0.975
      -0.910
      -0.808
      -0.672
      -0.517
      -0.362
      -0.222
      -0.108
      -0.020
       0.055
       0.142
       0.258
       0.394
       0.531
       0.653
       0.752
       0.820
       0.849
       0.841
       0.803
       0.745
       0.681
       0.624
       0.578
       0.535
       0.487
       0.431
       0.371
       0.305
       0.237
       0.175
       0.129
       0.095
       0.062
       0.027
      -0.010
      -0.050
      -0.091
      -0.125
      -0.149
      -0.168
      -0.195
      -0.232
      -0.277
      -0.326
      -0.376
      -0.422
      -0.460
      -0.498
      -0.539
      -0.575
      -0.590
      -0.579
      -0.543
      -0.489
      -0.423
      -0.353
      -0.284
      -0.216
      -0.148
      -0.088
      -0.040
       0.008
       0.074
       0.159
       0.251
       0.331
       0.388
       0.418
       0.422
       0.409
       0.389
       0.360
       0.320
       0.269
       0.204
       0.115
      -0.004
      -0.146
      -0.290
      -0.415
      -0.511
      -0.571
      -0.598
      -0.603
      -0.604
      -0.606
      -0.603
      -0.583
      -0.533
      -0.440
      -0.298
      -0.122
       0.060
       0.230
       0.385
       0.531
       0.669
       0.798
       0.908
       0.980
       0.998
       0.965
       0.899
       0.811
       0.707
       0.593
       0.474
       0.352
       0.221
       0.077
      -0.074
      -0.225
      -0.364
      -0.476
      -0.550
      -0.596
      -0.635
      -0.681
      -0.733
      -0.784
      -0.825
      -0.849
      -0.844
      -0.808
      -0.744
      -0.656
      -0.553
      -0.447
      -0.360
      -0.300
      -0.264
      -0.238
      -0.209
      -0.166
      -0.109
      -0.056
      -0.034
      -0.057
      -0.114
      -0.177
      -0.220
      -0.222
      -0.178
      -0.102
      -0.023
       0.044
       0.099
       0.152
       0.206
       0.263
       0.328
       0.402
       0.483
       0.567
       0.648
       0.712
       0.747
       0.756
       0.752
       0.747
       0.737
       0.707
       0.653
       0.576
       0.483
       0.382
       0.282
       0.184
       0.083
      -0.024
      -0.130
      -0.227
      -0.308
      -0.368
      -0.398
      -0.396
      -0.369
      -0.324
      -0.262
      -0.180
      -0.085
       0.012
       0.101
       0.170
       0.213
       0.234
       0.246
       0.258
       0.267
       0.272
       0.277
       0.287
       0.291
       0.280
       0.247
       0.198
       0.140
       0.078
       0.015
      -0.052
      -0.121
      -0.185
      -0.224
      -0.226
      -0.196
      -0.143
      -0.076
       0.001
       0.076
       0.137
       0.181
       0.218
       0.251
       0.280
       0.301
       0.311
       0.306
       0.289
       0.267
       0.247
       0.227
       0.202
       0.169
       0.125
       0.061
      -0.023
      -0.115
      -0.196
      -0.254
      -0.283
      -0.281
      -0.251
      -0.207
      -0.173
      -0.162
      -0.182
      -0.229
      -0.285
      -0.321
      -0.316
      -0.274
      -0.217
      -0.165
      -0.123
      -0.090
      -0.064
      -0.042
      -0.024
      -0.016
      -0.028
      -0.061
      -0.109
      -0.168
      -0.231
      -0.288
      -0.330
      -0.362
      -0.397
      -0.437
      -0.473
      -0.490
      -0.476
      -0.424
      -0.333
      -0.222
      -0.110
      -0.009
       0.083
       0.170
       0.254
       0.339
       0.429
       0.517
       0.592
       0.650
       0.690
       0.711
       0.707
       0.676
       0.619
       0.535
       0.424
       0.292
       0.158
       0.033
      -0.079
      -0.177
      -0.266
      -0.353
      -0.449
      -0.547
      -0.629
      -0.676
      -0.680
      -0.642
      -0.566
      -0.465
      -0.352
      -0.226
      -0.082
       0.081
       0.249
       0.402
       0.524
       0.602
       0.628
       0.607
       0.559
       0.505
       0.453
       0.407
       0.365
       0.325
       0.282
       0.239
       0.205
       0.184
       0.168
       0.142
       0.097
       0.024
      -0.077
      -0.197
      -0.312
      -0.408
      -0.480
      -0.531
      -0.562
      -0.579
      -0.590
      -0.599
      -0.598
      -0.583
      -0.557
      -0.514
      -0.442
      -0.330
      -0.183
      -0.010
       0.173
       0.353
       0.519
       0.668
       0.808
       0.942
       1.057
       1.142
       1.194
       1.217
       1.209
       1.177
       1.131
       1.077
       1.011
       0.920
       0.796
       0.632
       0.425
       0.187
      -0.059
      -0.302
      -0.547
      -0.799
      -1.042
      -1.248
      -1.392
      -1.467
      -1.477
      -1.435
      -1.359
      -1.258
      -1.135
      -0.996
      -0.853
      -0.717
      -0.588
      -0.456
      -0.321
      -0.188
      -0.067
       0.031
       0.097
       0.130
       0.151
       0.177
       0.210
       0.243
       0.275
       0.311
       0.350
       0.386
       0.422
       0.462
       0.502
       0.543
       0.586
       0.633
       0.672
       0.689
       0.684
       0.662
       0.627
       0.575
       0.504
       0.407
       0.271
       0.089
      -0.126
      -0.352
      -0.564
      -0.744
      -0.874
      -0.940
      -0.947
      -0.907
      -0.830
      -0.725
      -0.613
      -0.512
      -0.430
      -0.361
      -0.299
      -0.242
      -0.185
      -0.120
      -0.049
       0.028
       0.110
       0.198
       0.286
       0.362
       0.426
       0.488
       0.549
       0.609
       0.670
       0.738
       0.808
       0.870
       0.911
       0.919
       0.878
       0.774
       0.614
       0.418
       0.201
      -0.028
      -0.264
      -0.494
      -0.707
      -0.888
      -1.022
      -1.098
      -1.127
      -1.134
      -1.139
      -1.146
      -1.154
      -1.156
      -1.140
      -1.089
      -0.996
      -0.868
      -0.718
      -0.558
      -0.401
      -0.259
      -0.123
       0.027
       0.204
       0.397
       0.585
       0.746
       0.857
       0.907
       0.905
       0.873
       0.832
       0.786
       0.733
       0.664
       0.562
       0.409
       0.203
      -0.030
      -0.257
      -0.452
      -0.598
      -0.687
      -0.728
      -0.740
      -0.733
      -0.706
      -0.657
      -0.592
      -0.510
      -0.408
      -0.287
      -0.157
      -0.028
       0.100
       0.229
       0.353
       0.465
       0.561
       0.632
       0.664
       0.656
       0.622
       0.584
       0.555
       0.539
       0.533
       0.523
       0.495
       0.454
       0.417
       0.396
       0.380
       0.347
       0.283
       0.181
       0.035
      -0.150
      -0.352
      -0.545
      -0.717
      -0.856
      -0.951
      -0.997
      -0.996
      -0.957
      -0.884
      -0.784
      -0.670
      -0.549
      -0.418
      -0.269
      -0.106
       0.062
       0.230
       0.393
       0.547
       0.694
       0.845
       1.007
       1.170
       1.310
       1.406
       1.446
       1.418
       1.325
       1.187
       1.022
       0.839
       0.638
       0.420
       0.189
      -0.051
      -0.293
      -0.526
      -0.746
      -0.958
      -1.164
      -1.351
      -1.504
      -1.613
      -1.679
      -1.695
      -1.655
      -1.555
      -1.394
      -1.172
      -0.897
      -0.585
      -0.259
       0.070
       0.384
       0.659
       0.872
       1.014
       1.088
       1.100
       1.052
       0.963
       0.858
       0.761
       0.688
       0.642
       0.614
       0.581
       0.516
       0.407
       0.253
       0.060
      -0.155
      -0.360
      -0.522
      -0.623
      -0.661
      -0.635
      -0.552
      -0.434
      -0.315
      -0.220
      -0.155
      -0.112
      -0.069
       0.007
       0.137
       0.317
       0.519
       0.721
       0.914
       1.093
       1.246
       1.361
       1.422
       1.418
       1.351
       1.244
       1.124
       1.001
       0.872
       0.737
       0.603
       0.473
       0.343
       0.214
       0.093
      -0.010
      -0.083
      -0.117
      -0.114
      -0.100
      -0.116
      -0.189
      -0.319
      -0.485
      -0.653
      -0.790
      -0.874
      -0.905
      -0.903
      -0.880
      -0.832
      -0.760
      -0.672
      -0.580
      -0.492
      -0.408
      -0.324
      -0.235
      -0.139
      -0.049
       0.012
       0.031
       0.014
      -0.024
      -0.063
      -0.077
      -0.046
       0.025
       0.107
       0.173
       0.213
       0.234
       0.246
       0.259
       0.273
       0.270
       0.228
       0.138
       0.015
      -0.123
      -0.269
      -0.424
      -0.585
      -0.745
      -0.896
      -1.030
      -1.142
      -1.237
      -1.328
      -1.415
      -1.485
      -1.521
      -1.514
      -1.464
      -1.369
      -1.236
      -1.081
      -0.913
      -0.730
      -0.526
      -0.302
      -0.063
       0.180
       0.414
       0.620
       0.792
       0.934
       1.051
       1.138
       1.192
       1.214
       1.213
       1.187
       1.137
       1.065
       0.962
       0.814
       0.608
       0.357
       0.091
      -0.156
      -0.355
      -0.491
      -0.564
      -0.586
      -0.557
      -0.466
      -0.307
      -0.097
       0.129
       0.341
       0.515
       0.639
       0.712
       0.749
       0.776
       0.805
       0.842
       0.877
       0.898
       0.889
       0.852
       0.801
       0.750
       0.695
       0.618
       0.510
       0.373
       0.218
       0.063
      -0.076
      -0.196
      -0.308
      -0.420
      -0.527
      -0.616
      -0.684
      -0.742
      -0.800
      -0.857
      -0.909
      -0.947
      -0.962
      -0.950
      -0.914
      -0.857
      -0.770
      -0.647
      -0.496
      -0.339
      -0.199
      -0.095
      -0.039
      -0.023
      -0.016
       0.026
       0.130
       0.294
       0.495
       0.697
       0.865
       0.977
       1.031
       1.030
       0.974
       0.868
       0.732
       0.597
       0.478
       0.376
       0.280
       0.180
       0.070
      -0.053
      -0.184
      -0.316
      -0.452
      -0.597
      -0.737
      -0.850
      -0.913
      -0.924
      -0.890
      -0.831
      -0.766
      -0.712
      -0.667
      -0.618
      -0.555
      -0.474
      -0.371
      -0.243
      -0.096
       0.053
       0.190
       0.310
       0.408
       0.483
       0.545
       0.609
       0.682
       0.757
       0.818
       0.843
       0.810
       0.708
       0.547
       0.350
       0.139
      -0.073
      -0.269
      -0.430
      -0.541
      -0.603
      -0.625
      -0.614
      -0.571
      -0.498
      -0.397
      -0.274
      -0.143
      -0.019
       0.100
       0.230
       0.373
       0.508
       0.600
       0.629
       0.591
       0.496
       0.361
       0.205
       0.047
      -0.099
      -0.218
      -0.295
      -0.325
      -0.316
      -0.278
      -0.211
      -0.121
      -0.024
       0.061
       0.123
       0.163
       0.187
       0.207
       0.237
       0.281
       0.326
       0.357
       0.361
       0.335
       0.278
       0.202
       0.131
       0.084
       0.063
       0.058
       0.053
       0.034
      -0.007
      -0.064
      -0.118
      -0.154
      -0.172
      -0.181
      -0.181
      -0.168
      -0.145
      -0.116
      -0.090
      -0.070
      -0.056
      -0.036
       0.002
       0.054
       0.093
       0.095
       0.056
      -0.007
      -0.074
      -0.129
      -0.166
      -0.194
      -0.229
      -0.285
      -0.363
      -0.455
      -0.548
      -0.625
      -0.663
      -0.647
      -0.581
      -0.484
      -0.372
      -0.259
      -0.164
      -0.105
      -0.090
      -0.114
      -0.161
      -0.208
      -0.228
      -0.205
      -0.142
      -0.057
       0.040
       0.140
       0.235
       0.315
       0.379
       0.433
       0.477
       0.508
       0.527
       0.539
       0.549
       0.561
       0.584
       0.620
       0.659
       0.681
       0.673
       0.630
       0.546
       0.417
       0.254
       0.073
      -0.102
      -0.253
      -0.368
      -0.448
      -0.513
      -0.584
      -0.669
      -0.762
      -0.857
      -0.952
      -1.037
      -1.098
      -1.124
      -1.114
      -1.069
      -0.995
      -0.903
      -0.807
      -0.713
      -0.621
      -0.538
      -0.470
      -0.411
      -0.346
      -0.255
      -0.125
       0.057
       0.288
       0.552
       0.826
       1.100
       1.374
       1.645
       1.899
       2.118
       2.284
       2.376
       2.370
       2.255
       2.037
       1.736
       1.382
       1.009
       0.645
       0.300
      -0.028
      -0.336
      -0.614
      -0.854
      -1.053
      -1.212
      -1.325
      -1.385
      -1.384
      -1.310
      -1.157
      -0.944
      -0.704
      -0.468
      -0.253
      -0.068
       0.086
       0.217
       0.343
       0.481
       0.638
       0.809
       0.970
       1.081
       1.100
       1.011
       0.836
       0.618
       0.395
       0.189
       0.006
      -0.166
      -0.341
      -0.522
      -0.696
      -0.850
      -0.981
      -1.085
      -1.158
      -1.192
      -1.181
      -1.115
      -0.992
      -0.829
      -0.662
      -0.522
      -0.421
      -0.356
      -0.316
      -0.291
      -0.272
      -0.261
      -0.267
      -0.290
      -0.320
      -0.346
      -0.369
      -0.393
      -0.415
      -0.432
      -0.443
      -0.445
      -0.425
      -0.366
      -0.254
      -0.082
       0.144
       0.398
       0.649
       0.875
       1.074
       1.243
       1.372
       1.444
       1.453
       1.400
       1.292
       1.145
       0.981
       0.821
       0.673
       0.539
       0.423
       0.320
       0.216
       0.096
      -0.042
      -0.189
      -0.337
      -0.471
      -0.575
      -0.634
      -0.648
      -0.622
      -0.561
      -0.471
      -0.365
      -0.251
      -0.127
       0.011
       0.148
       0.264
       0.338
       0.358
       0.324
       0.245
       0.146
       0.052
      -0.026
      -0.086
      -0.135
      -0.190
      -0.273
      -0.391
      -0.528
      -0.652
      -0.746
      -0.807
      -0.835
      -0.836
      -0.825
      -0.811
      -0.791
      -0.752
      -0.682
      -0.568
      -0.400
      -0.180
       0.060
       0.267
       0.401
       0.447
       0.419
       0.353
       0.294
       0.275
       0.301
       0.347
       0.386
       0.399
       0.374
       0.304
       0.196
       0.057
      -0.106
      -0.287
      -0.470
      -0.633
      -0.761
      -0.843
      -0.868
      -0.833
      -0.749
      -0.636
      -0.509
      -0.379
      -0.259
      -0.161
      -0.082
      -0.008
       0.069
       0.146
       0.217
       0.279
       0.330
       0.373
       0.412
       0.452
       0.486
       0.503
       0.504
       0.504
       0.510
       0.519
       0.521
       0.512
       0.491
       0.461
       0.434
       0.427
       0.448
       0.496
       0.567
       0.655
       0.741
       0.804
       0.831
       0.819
       0.766
       0.669
       0.535
       0.384
       0.239
       0.114
       0.018
      -0.051
      -0.107
      -0.174
      -0.261
      -0.357
      -0.450
      -0.537
      -0.623
      -0.707
      -0.789
      -0.861
      -0.903
      -0.885
      -0.794
      -0.637
      -0.437
      -0.214
       0.010
       0.211
       0.368
       0.471
       0.525
       0.543
       0.550
       0.564
       0.587
       0.596
       0.566
       0.491
       0.381
       0.256
       0.147
       0.076
       0.044
       0.027
       0.003
      -0.036
      -0.081
      -0.128
      -0.177
      -0.226
      -0.281
      -0.349
      -0.426
      -0.502
      -0.569
      -0.634
      -0.701
      -0.770
      -0.835
      -0.891
      -0.927
      -0.924
      -0.866
      -0.746
      -0.566
      -0.333
      -0.069
       0.196
       0.430
       0.624
       0.778
       0.896
       0.980
       1.040
       1.087
       1.124
       1.153
       1.181
       1.211
       1.231
       1.226
       1.188
       1.115
       1.010
       0.879
       0.739
       0.604
       0.470
       0.329
       0.170
      -0.014
      -0.221
      -0.435
      -0.618
      -0.743
      -0.818
      -0.878
      -0.956
      -1.064
      -1.195
      -1.334
      -1.459
      -1.556
      -1.611
      -1.609
      -1.528
      -1.363
      -1.137
      -0.885
      -0.625
      -0.359
      -0.083
       0.194
       0.462
       0.713
       0.937
       1.125
       1.281
       1.407
       1.498
       1.543
       1.539
       1.487
       1.387
       1.243
       1.073
       0.889
       0.690
       0.462
       0.197
      -0.102
      -0.430
      -0.777
      -1.130
      -1.468
      -1.773
      -2.025
      -2.200
      -2.278
      -2.255
      -2.138
      -1.936
      -1.658
      -1.321
      -0.944
      -0.546
      -0.144
       0.238
       0.572
       0.841
       1.046
       1.190
       1.284
       1.342
       1.375
       1.375
       1.326
       1.218
       1.058
       0.865
       0.662
       0.477
       0.330
       0.221
       0.138
       0.064
      -0.011
      -0.095
      -0.194
      -0.301
      -0.403
      -0.496
      -0.579
      -0.648
      -0.690
      -0.693
      -0.656
      -0.578
      -0.454
      -0.284
      -0.075
       0.156
       0.383
       0.567
       0.670
       0.682
       0.630
       0.552
       0.477
       0.409
       0.337
       0.240
       0.103
      -0.065
      -0.240
      -0.403
      -0.547
      -0.667
      -0.754
      -0.801
      -0.805
      -0.770
      -0.706
      -0.640
      -0.594
      -0.570
      -0.542
      -0.483
      -0.389
      -0.273
      -0.147
      -0.015
       0.127
       0.284
       0.460
       0.645
       0.813
       0.936
       0.998
       0.984
       0.888
       0.721
       0.514
       0.294
       0.076
      -0.130
      -0.308
      -0.447
      -0.549
      -0.630
      -0.706
      -0.785
      -0.865
      -0.922
      -0.924
      -0.846
      -0.692
      -0.484
      -0.241
       0.016
       0.262
       0.471
       0.619
       0.690
       0.685
       0.623
       0.543
       0.473
       0.415
