Origin Time       3/10/2009 5:20:54	  UTC
Lat.              30.0°N	
Long.             79.9°E	
Depth (Km)         15.0
Magnitude         4.3
 Region           BAGESHWAR-UTTRAKHAND                                             
 Above details taken from IMD 
    
Station Code      CHP
Station Lat.       29.334  N
Station Long.      80.095  E
Station Height(m) 1635.0
Site Class        A   Vs30 between 700 m/sec to 1400 m/sec * 
Record Time       03.10.2009 05:21:13.069 UTC
Sampling Rate     200. Hz
 Record Duration   65.005 Sec.
 Direction         N-S (N positive)
Max. Acceleration     -1.565 cm/sec**2
     
  * For reference see Site Classification link of website 
     
 Base Line Corrected and Low Pass Filtered (Cut Off at 35 Hz) Time History
 Acceleration data in cm/sec**2
    
[...]
       0.413
       0.478
       0.487
       0.449
       0.381
       0.303
       0.219
       0.128
       0.028
      -0.074
      -0.169
      -0.244
      -0.291
      -0.311
      -0.305
      -0.274
      -0.218
      -0.145
      -0.073
      -0.022
      -0.006
      -0.024
      -0.060
      -0.093
      -0.106
      -0.086
      -0.035
       0.034
       0.098
       0.141
       0.165
       0.186
       0.226
       0.293
       0.372
       0.430
       0.433
       0.364
       0.233
       0.071
      -0.086
      -0.216
      -0.307
      -0.354
      -0.352
      -0.303
      -0.224
      -0.145
      -0.096
      -0.098
      -0.141
      -0.200
      -0.246
      -0.257
      -0.226
      -0.159
      -0.073
       0.008
       0.061
       0.068
       0.031
      -0.029
      -0.081
      -0.099
      -0.077
      -0.019
       0.062
       0.156
       0.246
       0.312
       0.338
       0.315
       0.257
       0.195
       0.157
       0.161
       0.199
       0.245
       0.269
       0.245
       0.160
       0.014
      -0.171
      -0.363
      -0.518
      -0.598
      -0.586
      -0.489
      -0.331
      -0.143
       0.041
       0.193
       0.296
       0.346
       0.348
       0.316
       0.269
       0.228
       0.204
       0.192
       0.171
       0.121
       0.030
      -0.089
      -0.205
      -0.280
      -0.293
      -0.243
      -0.155
      -0.061
       0.014
       0.063
       0.092
       0.107
       0.111
       0.110
       0.109
       0.117
       0.132
       0.143
       0.130
       0.086
       0.022
      -0.027
      -0.032
       0.014
       0.085
       0.145
       0.166
       0.139
       0.071
      -0.026
      -0.129
      -0.210
      -0.240
      -0.206
      -0.127
      -0.044
       0.004
      -0.008
      -0.077
      -0.182
      -0.292
      -0.376
      -0.408
      -0.376
      -0.280
      -0.138
       0.021
       0.166
       0.270
       0.320
       0.315
       0.264
       0.185
       0.098
       0.023
      -0.025
      -0.040
      -0.022
       0.024
       0.090
       0.158
       0.203
       0.208
       0.170
       0.106
       0.040
      -0.010
      -0.041
      -0.060
      -0.081
      -0.117
      -0.171
      -0.236
      -0.298
      -0.341
      -0.357
      -0.344
      -0.304
      -0.234
      -0.135
      -0.011
       0.115
       0.215
       0.262
       0.253
       0.203
       0.134
       0.068
       0.016
      -0.012
      -0.013
       0.015
       0.065
       0.131
       0.205
       0.274
       0.318
       0.318
       0.265
       0.175
       0.076
      -0.005
      -0.056
      -0.076
      -0.070
      -0.044
      -0.010
       0.015
       0.018
      -0.003
      -0.030
      -0.048
      -0.061
      -0.086
      -0.136
      -0.202
      -0.253
      -0.266
      -0.245
      -0.218
      -0.213
      -0.238
      -0.273
      -0.286
      -0.248
      -0.155
      -0.019
       0.132
       0.267
       0.358
       0.388
       0.357
       0.284
       0.199
       0.123
       0.065
       0.020
      -0.019
      -0.056
      -0.094
      -0.135
      -0.190
      -0.260
      -0.331
      -0.375
      -0.364
      -0.285
      -0.151
       0.008
       0.157
       0.278
       0.364
       0.410
       0.415
       0.380
       0.318
       0.253
       0.202
       0.170
       0.151
       0.131
       0.101
       0.053
      -0.019
      -0.115
      -0.222
      -0.317
      -0.372
      -0.370
      -0.311
      -0.212
      -0.101
       0.000
       0.078
       0.131
       0.151
       0.125
       0.041
      -0.095
      -0.258
      -0.407
      -0.509
      -0.548
      -0.524
      -0.452
      -0.355
      -0.256
      -0.174
      -0.116
      -0.074
      -0.026
       0.054
       0.186
       0.375
       0.601
       0.824
       0.991
       1.058
       1.011
       0.865
       0.660
       0.437
       0.226
       0.046
      -0.091
      -0.182
      -0.236
      -0.265
      -0.278
      -0.272
      -0.242
      -0.203
      -0.181
      -0.208
      -0.301
      -0.450
      -0.616
      -0.742
      -0.781
      -0.707
      -0.536
      -0.310
      -0.083
       0.105
       0.236
       0.309
       0.330
       0.314
       0.281
       0.251
       0.232
       0.223
       0.217
       0.208
       0.198
       0.191
       0.191
       0.206
       0.237
       0.281
       0.326
       0.359
       0.368
       0.342
       0.270
       0.158
       0.027
      -0.094
      -0.186
      -0.245
      -0.277
      -0.294
      -0.306
      -0.329
      -0.375
      -0.449
      -0.536
      -0.605
      -0.625
      -0.578
      -0.467
      -0.314
      -0.148
       0.012
       0.157
       0.289
       0.405
       0.494
       0.539
       0.534
       0.482
       0.402
       0.318
       0.249
       0.198
       0.154
       0.094
      -0.009
      -0.166
      -0.362
      -0.554
      -0.697
      -0.761
      -0.749
      -0.685
      -0.591
      -0.477
      -0.333
      -0.157
       0.032
       0.202
       0.318
       0.368
       0.359
       0.316
       0.272
       0.254
       0.270
       0.308
       0.348
       0.372
       0.381
       0.388
       0.409
       0.443
       0.476
       0.487
       0.461
       0.400
       0.323
       0.253
       0.204
       0.174
       0.149
       0.118
       0.068
      -0.007
      -0.107
      -0.225
      -0.349
      -0.466
      -0.564
      -0.638
      -0.683
      -0.697
      -0.680
      -0.632
      -0.561
      -0.479
      -0.393
      -0.303
      -0.201
      -0.088
       0.021
       0.099
       0.126
       0.101
       0.041
      -0.035
      -0.113
      -0.186
      -0.238
      -0.245
      -0.187
      -0.060
       0.114
       0.306
       0.491
       0.652
       0.774
       0.843
       0.852
       0.806
       0.718
       0.600
       0.449
       0.252
       0.007
      -0.269
      -0.536
      -0.744
      -0.848
      -0.831
      -0.709
      -0.521
      -0.311
      -0.113
       0.060
       0.209
       0.341
       0.456
       0.545
       0.591
       0.576
       0.494
       0.356
       0.190
       0.030
      -0.094
      -0.169
      -0.202
      -0.209
      -0.209
      -0.218
      -0.254
      -0.323
      -0.422
      -0.526
      -0.598
      -0.598
      -0.502
      -0.317
      -0.089
       0.124
       0.267
       0.315
       0.275
       0.185
       0.095
       0.046
       0.059
       0.137
       0.270
       0.431
       0.579
       0.669
       0.665
       0.555
       0.361
       0.118
      -0.136
      -0.375
      -0.572
      -0.702
      -0.749
      -0.720
      -0.644
      -0.557
      -0.481
      -0.420
      -0.369
      -0.321
      -0.273
      -0.218
      -0.144
      -0.046
       0.072
       0.187
       0.271
       0.303
       0.282
       0.228
       0.170
       0.135
       0.136
       0.176
       0.250
       0.356
       0.493
       0.647
       0.783
       0.854
       0.819
       0.673
       0.449
       0.196
      -0.035
      -0.208
      -0.305
      -0.326
      -0.291
      -0.234
      -0.187
      -0.167
      -0.171
      -0.183
      -0.186
      -0.171
      -0.134
      -0.068
       0.019
       0.109
       0.171
       0.181
       0.133
       0.039
      -0.079
      -0.201
      -0.309
      -0.382
      -0.403
      -0.364
      -0.281
      -0.184
      -0.104
      -0.056
      -0.035
      -0.024
      -0.010
       0.012
       0.038
       0.050
       0.035
      -0.012
      -0.080
      -0.153
      -0.217
      -0.262
      -0.281
      -0.266
      -0.217
      -0.140
      -0.047
       0.050
       0.146
       0.240
       0.329
       0.405
       0.452
       0.460
       0.433
       0.383
       0.318
       0.235
       0.132
       0.017
      -0.087
      -0.158
      -0.191
      -0.196
      -0.192
      -0.194
      -0.213
      -0.251
      -0.299
      -0.334
      -0.329
      -0.261
      -0.131
       0.037
       0.200
       0.317
       0.360
       0.331
       0.253
       0.159
       0.073
       0.006
      -0.033
      -0.032
       0.021
       0.120
       0.237
       0.334
       0.378
       0.356
       0.274
       0.151
       0.016
      -0.096
      -0.153
      -0.145
      -0.091
      -0.041
      -0.043
      -0.126
      -0.277
      -0.455
      -0.606
      -0.687
      -0.676
      -0.575
      -0.403
      -0.195
       0.007
       0.167
       0.259
       0.270
       0.207
       0.095
      -0.022
      -0.101
      -0.114
      -0.065
       0.018
       0.102
       0.170
       0.220
       0.255
       0.278
       0.289
       0.292
       0.302
       0.334
       0.396
       0.468
       0.511
       0.486
       0.389
       0.254
       0.142
       0.097
       0.120
       0.177
       0.219
       0.213
       0.151
       0.044
      -0.095
      -0.255
      -0.427
      -0.589
      -0.712
      -0.766
      -0.736
      -0.638
      -0.506
      -0.369
      -0.236
      -0.104
       0.031
       0.153
       0.240
       0.273
       0.257
       0.220
       0.202
       0.229
       0.292
       0.356
       0.390
       0.384
       0.354
       0.317
       0.271
       0.199
       0.084
      -0.070
      -0.237
      -0.384
      -0.474
      -0.482
      -0.403
      -0.260
      -0.096
       0.032
       0.078
       0.024
      -0.102
      -0.237
      -0.314
      -0.301
      -0.216
      -0.108
      -0.026
       0.008
       0.000
      -0.033
      -0.069
      -0.088
      -0.076
      -0.023
       0.063
       0.161
       0.248
       0.301
       0.315
       0.298
       0.267
       0.231
       0.192
       0.149
       0.106
       0.070
       0.047
       0.032
       0.014
      -0.023
      -0.083
      -0.155
      -0.219
      -0.252
      -0.248
      -0.219
      -0.184
      -0.159
      -0.147
      -0.140
      -0.128
      -0.112
      -0.105
      -0.122
      -0.156
      -0.182
      -0.167
      -0.095
       0.024
       0.169
       0.320
       0.474
       0.630
       0.772
       0.869
       0.889
       0.821
       0.690
       0.538
       0.404
       0.300
       0.208
       0.103
      -0.035
      -0.200
      -0.367
      -0.503
      -0.580
      -0.597
      -0.579
      -0.566
      -0.582
      -0.625
      -0.674
      -0.707
      -0.713
      -0.692
      -0.643
      -0.562
      -0.448
      -0.313
      -0.175
      -0.052
       0.051
       0.137
       0.216
       0.296
       0.385
       0.482
       0.583
       0.677
       0.756
       0.811
       0.829
       0.787
       0.653
       0.412
       0.085
      -0.263
      -0.554
      -0.734
      -0.798
      -0.783
      -0.731
      -0.658
      -0.554
      -0.400
      -0.190
       0.065
       0.348
       0.641
       0.922
       1.156
       1.294
       1.298
       1.160
       0.910
       0.601
       0.290
       0.019
      -0.190
      -0.331
      -0.404
      -0.419
      -0.395
      -0.360
      -0.339
      -0.343
      -0.364
      -0.384
      -0.384
      -0.359
      -0.313
      -0.252
      -0.180
      -0.101
      -0.031
       0.006
      -0.008
      -0.076
      -0.176
      -0.269
      -0.327
      -0.333
      -0.285
      -0.186
      -0.043
       0.130
       0.303
       0.430
       0.470
       0.404
       0.249
       0.045
      -0.167
      -0.364
      -0.537
      -0.685
      -0.801
      -0.867
      -0.866
      -0.790
      -0.641
      -0.434
      -0.189
       0.065
       0.299
       0.490
       0.626
       0.717
       0.777
       0.809
       0.804
       0.751
       0.654
       0.531
       0.407
       0.299
       0.217
       0.162
       0.133
       0.119
       0.101
       0.063
       0.004
      -0.051
      -0.070
      -0.035
       0.057
       0.190
       0.343
       0.492
       0.614
       0.679
       0.654
       0.512
       0.249
      -0.106
      -0.494
      -0.847
      -1.111
      -1.258
      -1.289
      -1.217
      -1.059
      -0.827
      -0.540
      -0.223
       0.089
       0.355
       0.544
       0.653
       0.700
       0.716
       0.726
       0.734
       0.726
       0.681
       0.590
       0.458
       0.299
       0.132
      -0.023
      -0.156
      -0.273
      -0.394
      -0.544
      -0.733
      -0.941
      -1.116
      -1.198
      -1.159
      -1.010
      -0.796
      -0.551
      -0.285
       0.002
       0.292
       0.537
       0.684
       0.698
       0.580
       0.364
       0.106
      -0.125
      -0.264
      -0.270
      -0.140
       0.095
       0.379
       0.651
       0.856
       0.964
       0.969
       0.885
       0.733
       0.531
       0.296
       0.051
      -0.172
      -0.342
      -0.443
      -0.467
      -0.419
      -0.308
      -0.153
       0.016
       0.165
       0.264
       0.287
       0.221
       0.073
      -0.131
      -0.344
      -0.518
      -0.622
      -0.649
      -0.616
      -0.551
      -0.467
      -0.357
      -0.207
      -0.015
       0.189
       0.364
       0.479
       0.532
       0.546
       0.551
       0.562
       0.574
       0.569
       0.532
       0.468
       0.396
       0.331
       0.261
       0.146
      -0.057
      -0.364
      -0.749
      -1.141
      -1.443
      -1.565
      -1.463
      -1.168
      -0.774
      -0.397
      -0.123
       0.024
       0.078
       0.101
       0.144
       0.220
       0.303
       0.356
       0.360
       0.331
       0.302
       0.304
       0.345
       0.413
       0.474
       0.493
       0.453
       0.373
       0.304
       0.303
       0.386
       0.521
       0.639
       0.676
       0.607
       0.447
       0.242
       0.038
      -0.136
      -0.272
      -0.374
      -0.449
      -0.501
      -0.533
      -0.540
      -0.517
      -0.455
      -0.350
      -0.208
      -0.042
       0.125
       0.258
       0.314
       0.253
       0.064
      -0.222
      -0.541
      -0.812
      -0.971
      -0.987
      -0.864
      -0.642
      -0.381
      -0.138
       0.061
       0.224
       0.377
       0.537
       0.697
       0.826
       0.888
       0.868
       0.782
       0.669
       0.566
       0.487
       0.412
       0.312
       0.174
       0.010
      -0.148
      -0.278
      -0.369
      -0.431
      -0.476
      -0.509
      -0.522
      -0.501
      -0.439
      -0.349
      -0.257
      -0.181
      -0.115
      -0.035
       0.081
       0.237
       0.402
       0.519
       0.531
       0.412
       0.178
      -0.119
      -0.405
      -0.614
      -0.695
      -0.631
      -0.447
      -0.211
      -0.010
       0.085
       0.059
      -0.045
      -0.146
      -0.176
      -0.110
       0.027
       0.179
       0.298
       0.369
       0.409
       0.448
       0.498
       0.547
       0.566
       0.537
       0.459
       0.341
       0.190
       0.008
      -0.203
      -0.436
      -0.669
      -0.861
      -0.967
      -0.953
      -0.819
      -0.599
      -0.338
      -0.081
       0.146
       0.330
       0.468
       0.563
       0.621
       0.651
       0.660
       0.654
       0.638
       0.608
       0.556
       0.470
       0.338
       0.148
      -0.096
      -0.366
      -0.608
      -0.767
      -0.810
      -0.748
      -0.629
      -0.512
      -0.441
      -0.420
      -0.414
      -0.369
      -0.241
      -0.031
       0.215
       0.430
       0.566
       0.608
       0.573
       0.485
       0.363
       0.226
       0.091
      -0.036
      -0.168
      -0.326
      -0.522
      -0.735
      -0.914
      -1.001
      -0.957
      -0.781
      -0.502
      -0.160
       0.202
       0.542
       0.811
       0.969
       1.000
       0.920
       0.770
       0.592
       0.414
       0.251
       0.120
       0.038
       0.022
       0.066
       0.141
       0.204
       0.217
       0.171
       0.086
      -0.003
      -0.073
      -0.123
      -0.172
      -0.239
      -0.318
      -0.381
      -0.394
      -0.343
      -0.245
      -0.145
      -0.081
      -0.068
      -0.082
      -0.091
      -0.068
      -0.012
       0.066
       0.150
       0.228
       0.290
       0.326
       0.323
       0.275
       0.187
       0.067
      -0.075
      -0.231
      -0.394
      -0.544
      -0.656
      -0.704
      -0.680
      -0.600
      -0.491
      -0.375
      -0.258
      -0.134
      -0.006
       0.110
       0.192
       0.236
       0.260
       0.291
       0.347
       0.432
       0.527
       0.600
       0.614
       0.549
       0.419
       0.255
       0.092
      -0.046
      -0.142
      -0.187
      -0.178
      -0.127
      -0.061
      -0.006
       0.021
       0.024
       0.016
       0.011
       0.018
       0.030
       0.030
      -0.007
      -0.100
      -0.244
      -0.407
      -0.536
      -0.589
      -0.551
      -0.438
      -0.274
      -0.073
       0.154
       0.393
       0.612
       0.767
       0.827
       0.789
       0.679
       0.535
       0.390
       0.258
       0.143
       0.040
      -0.057
      -0.156
      -0.267
      -0.398
      -0.547
      -0.690
      -0.798
      -0.844
      -0.824
      -0.749
      -0.634
      -0.480
      -0.285
      -0.054
       0.192
       0.417
       0.578
       0.647
       0.622
       0.527
       0.400
       0.272
       0.158
       0.055
      -0.048
      -0.155
      -0.262
      -0.355
      -0.417
      -0.431
      -0.390
      -0.297
      -0.169
      -0.027
       0.101
       0.187
       0.213
       0.183
       0.124
       0.080
       0.090
       0.172
       0.317
       0.495
       0.672
       0.818
       0.909
       0.917
       0.825
       0.631
       0.365
       0.075
      -0.197
      -0.429
      -0.634
      -0.829
      -1.023
      -1.193
      -1.304
      -1.326
      -1.248
      -1.078
      -0.832
      -0.526
      -0.180
       0.179
       0.513
       0.774
       0.923
       0.946
       0.869
       0.752
       0.650
       0.588
       0.545
       0.475
       0.333
       0.108
      -0.174
      -0.463
      -0.710
      -0.880
      -0.963
      -0.961
      -0.878
      -0.714
      -0.482
      -0.214
       0.039
       0.232
       0.348
       0.401
       0.421
       0.439
       0.472
       0.519
       0.563
       0.582
       0.547
       0.439
       0.262
       0.054
      -0.122
      -0.212
      -0.198
      -0.110
      -0.005
       0.068
       0.090
       0.077
       0.059
       0.053
       0.052
       0.030
      -0.031
      -0.124
      -0.223
      -0.289
      -0.294
      -0.224
      -0.087
       0.085
       0.244
       0.346
       0.382
       0.379
       0.379
       0.399
       0.419
       0.395
       0.294
       0.124
      -0.075
      -0.252
      -0.372
      -0.429
      -0.445
      -0.459
      -0.511
      -0.626
      -0.793
      -0.963
      -1.064
      -1.037
      -0.865
      -0.582
      -0.257
       0.039
       0.261
       0.401
       0.485
       0.550
       0.628
       0.728
