Origin Time       11/1/2010 5:15:18	 
Lat.              29.7 N	
Long.             80.0 E	
Depth (Km)         15.0
Magnitude         3.9
 Region           PITHORAGARH-UTTRAKHAND                                           
 Above details taken from IMD 
   
Station Code      CHP
Station Lat.       29.334
Station Long.      80.095
Station Height(m) 1635.0
Site Class        A   Vs30 between 700 m/sec to 1400 m/sec * 
Record Time       11.01.2010 05:15:21.519
Sampling Rate     200. Hz
 Record Duration   65.025 Sec.
 Direction         Vert. (Up positive)
Max. Acceleration      0.732 cm/sec**2
     
  * For reference see Site Classification link of website 
     
 Base Line Corrected and Low Pass Filtered (Cut Off at 35 Hz) Time History
 Acceleration data in cm/sec**2
    
[...]
       0.120
       0.177
       0.201
       0.195
       0.172
       0.142
       0.110
       0.076
       0.039
      -0.005
      -0.052
      -0.092
      -0.113
      -0.110
      -0.095
      -0.088
      -0.098
      -0.113
      -0.113
      -0.087
      -0.046
      -0.009
       0.014
       0.025
       0.035
       0.052
       0.078
       0.108
       0.130
       0.129
       0.101
       0.062
       0.041
       0.056
       0.093
       0.122
       0.116
       0.075
       0.019
      -0.026
      -0.045
      -0.036
      -0.001
       0.048
       0.094
       0.112
       0.090
       0.036
      -0.026
      -0.082
      -0.134
      -0.189
      -0.240
      -0.262
      -0.236
      -0.165
      -0.071
       0.020
       0.096
       0.152
       0.184
       0.188
       0.173
       0.160
       0.160
       0.163
       0.149
       0.102
       0.028
      -0.052
      -0.120
      -0.165
      -0.190
      -0.198
      -0.196
      -0.189
      -0.176
      -0.153
      -0.113
      -0.055
       0.015
       0.085
       0.147
       0.196
       0.224
       0.221
       0.183
       0.118
       0.050
       0.000
      -0.024
      -0.031
      -0.029
      -0.013
       0.017
       0.049
       0.057
       0.033
      -0.007
      -0.032
      -0.027
      -0.004
       0.022
       0.042
       0.059
       0.071
       0.065
       0.025
      -0.050
      -0.139
      -0.214
      -0.254
      -0.262
      -0.248
      -0.221
      -0.174
      -0.102
      -0.011
       0.085
       0.181
       0.275
       0.362
       0.416
       0.410
       0.338
       0.220
       0.093
      -0.008
      -0.069
      -0.097
      -0.107
      -0.116
      -0.133
      -0.165
      -0.214
      -0.263
      -0.286
      -0.264
      -0.201
      -0.115
      -0.024
       0.061
       0.131
       0.177
       0.192
       0.176
       0.132
       0.073
       0.011
      -0.039
      -0.070
      -0.075
      -0.050
       0.001
       0.060
       0.104
       0.119
       0.103
       0.075
       0.059
       0.065
       0.079
       0.077
       0.040
      -0.033
      -0.116
      -0.172
      -0.172
      -0.114
      -0.025
       0.055
       0.094
       0.077
       0.011
      -0.083
      -0.172
      -0.224
      -0.221
      -0.171
      -0.091
       0.000
       0.090
       0.171
       0.232
       0.262
       0.258
       0.218
       0.142
       0.034
      -0.086
      -0.179
      -0.204
      -0.142
      -0.020
       0.109
       0.193
       0.207
       0.156
       0.064
      -0.047
      -0.159
      -0.253
      -0.305
      -0.298
      -0.237
      -0.144
      -0.041
       0.063
       0.165
       0.247
       0.287
       0.264
       0.187
       0.093
       0.026
       0.014
       0.047
       0.092
       0.116
       0.107
       0.070
       0.021
      -0.034
      -0.091
      -0.149
      -0.203
      -0.240
      -0.246
      -0.217
      -0.156
      -0.076
       0.014
       0.108
       0.197
       0.256
       0.260
       0.202
       0.104
       0.005
      -0.067
      -0.108
      -0.122
      -0.118
      -0.098
      -0.068
      -0.033
       0.001
       0.034
       0.068
       0.102
       0.128
       0.135
       0.121
       0.087
       0.044
       0.000
      -0.038
      -0.075
      -0.117
      -0.158
      -0.187
      -0.190
      -0.167
      -0.127
      -0.076
      -0.017
       0.051
       0.118
       0.163
       0.167
       0.138
       0.104
       0.089
       0.093
       0.092
       0.073
       0.040
       0.016
       0.014
       0.022
       0.010
      -0.046
      -0.136
      -0.226
      -0.278
      -0.273
      -0.215
      -0.126
      -0.029
       0.063
       0.140
       0.193
       0.212
       0.189
       0.128
       0.047
      -0.026
      -0.073
      -0.089
      -0.082
      -0.068
      -0.050
      -0.022
       0.023
       0.077
       0.124
       0.151
       0.160
       0.160
       0.164
       0.174
       0.182
       0.173
       0.131
       0.056
      -0.036
      -0.122
      -0.183
      -0.212
      -0.216
      -0.208
      -0.198
      -0.187
      -0.160
      -0.104
      -0.018
       0.076
       0.144
       0.158
       0.119
       0.053
      -0.012
      -0.066
      -0.109
      -0.129
      -0.110
      -0.046
       0.044
       0.129
       0.184
       0.207
       0.210
       0.201
       0.169
       0.105
       0.016
      -0.075
      -0.142
      -0.176
      -0.178
      -0.154
      -0.115
      -0.072
      -0.036
      -0.009
       0.017
       0.053
       0.098
       0.130
       0.119
       0.060
      -0.025
      -0.096
      -0.128
      -0.120
      -0.084
      -0.033
       0.027
       0.087
       0.138
       0.166
       0.163
       0.130
       0.078
       0.019
      -0.035
      -0.083
      -0.127
      -0.162
      -0.177
      -0.162
      -0.118
      -0.060
      -0.002
       0.051
       0.096
       0.126
       0.133
       0.117
       0.094
       0.084
       0.088
       0.087
       0.060
       0.004
      -0.070
      -0.144
      -0.205
      -0.241
      -0.243
      -0.205
      -0.138
      -0.057
       0.023
       0.094
       0.149
       0.177
       0.171
       0.131
       0.065
      -0.013
      -0.088
      -0.135
      -0.137
      -0.093
      -0.027
       0.027
       0.051
       0.054
       0.056
       0.071
       0.101
       0.139
       0.176
       0.201
       0.204
       0.178
       0.130
       0.080
       0.043
       0.022
       0.006
      -0.017
      -0.049
      -0.084
      -0.117
      -0.144
      -0.156
      -0.142
      -0.102
      -0.053
      -0.013
       0.008
       0.017
       0.027
       0.042
       0.059
       0.077
       0.100
       0.129
       0.152
       0.147
       0.108
       0.046
      -0.022
      -0.086
      -0.145
      -0.195
      -0.223
      -0.215
      -0.179
      -0.140
      -0.120
      -0.117
      -0.107
      -0.066
       0.001
       0.071
       0.123
       0.156
       0.178
       0.185
       0.171
       0.134
       0.079
       0.014
      -0.058
      -0.124
      -0.167
      -0.177
      -0.158
      -0.128
      -0.102
      -0.077
      -0.045
      -0.004
       0.031
       0.046
       0.043
       0.036
       0.038
       0.051
       0.063
       0.071
       0.079
       0.097
       0.121
       0.139
       0.137
       0.109
       0.062
       0.005
      -0.047
      -0.084
      -0.093
      -0.067
      -0.006
       0.075
       0.150
       0.187
       0.170
       0.100
      -0.003
      -0.110
      -0.187
      -0.209
      -0.171
      -0.089
       0.005
       0.080
       0.124
       0.135
       0.119
       0.080
       0.018
      -0.064
      -0.153
      -0.224
      -0.250
      -0.213
      -0.117
       0.006
       0.115
       0.179
       0.193
       0.172
       0.138
       0.092
       0.027
      -0.058
      -0.142
      -0.188
      -0.169
      -0.087
       0.027
       0.133
       0.206
       0.242
       0.240
       0.196
       0.102
      -0.034
      -0.173
      -0.269
      -0.288
      -0.230
      -0.125
      -0.009
       0.088
       0.143
       0.149
       0.108
       0.034
      -0.051
      -0.126
      -0.179
      -0.208
      -0.212
      -0.182
      -0.116
      -0.018
       0.097
       0.205
       0.284
       0.313
       0.288
       0.213
       0.106
      -0.012
      -0.113
      -0.178
      -0.199
      -0.186
      -0.153
      -0.114
      -0.076
      -0.041
      -0.010
       0.014
       0.034
       0.052
       0.072
       0.097
       0.127
       0.159
       0.184
       0.192
       0.174
       0.128
       0.062
      -0.009
      -0.069
      -0.106
      -0.122
      -0.130
      -0.144
      -0.161
      -0.174
      -0.178
      -0.181
      -0.183
      -0.171
      -0.127
      -0.054
       0.026
       0.080
       0.092
       0.064
       0.016
      -0.029
      -0.050
      -0.033
       0.022
       0.105
       0.199
       0.284
       0.339
       0.348
       0.306
       0.223
       0.116
      -0.002
      -0.127
      -0.256
      -0.361
      -0.404
      -0.359
      -0.242
      -0.108
      -0.013
       0.022
       0.018
       0.015
       0.029
       0.044
       0.039
       0.015
       0.002
       0.025
       0.078
       0.132
       0.159
       0.156
       0.131
       0.093
       0.048
       0.006
      -0.016
      -0.011
       0.014
       0.044
       0.068
       0.082
       0.077
       0.035
      -0.049
      -0.159
      -0.250
      -0.284
      -0.254
      -0.184
      -0.115
      -0.068
      -0.046
      -0.041
      -0.034
      -0.011
       0.031
       0.071
       0.088
       0.082
       0.072
       0.073
       0.082
       0.082
       0.066
       0.043
       0.028
       0.027
       0.033
       0.033
       0.019
      -0.005
      -0.030
      -0.046
      -0.050
      -0.044
      -0.033
      -0.024
      -0.015
      -0.002
       0.020
       0.043
       0.057
       0.059
       0.060
       0.074
       0.102
       0.126
       0.125
       0.092
       0.035
      -0.030
      -0.096
      -0.160
      -0.216
      -0.245
      -0.229
      -0.162
      -0.061
       0.045
       0.135
       0.198
       0.227
       0.216
       0.168
       0.093
       0.011
      -0.062
      -0.113
      -0.138
      -0.145
      -0.141
      -0.127
      -0.093
      -0.032
       0.048
       0.115
       0.133
       0.094
       0.021
      -0.043
      -0.074
      -0.073
      -0.054
      -0.025
       0.012
       0.056
       0.096
       0.111
       0.092
       0.045
      -0.010
      -0.056
      -0.088
      -0.104
      -0.103
      -0.087
      -0.066
      -0.058
      -0.066
      -0.077
      -0.068
      -0.027
       0.031
       0.070
       0.064
       0.019
      -0.032
      -0.056
      -0.042
      -0.004
       0.035
       0.058
       0.065
       0.070
       0.086
       0.115
       0.143
       0.157
       0.150
       0.128
       0.100
       0.072
       0.043
       0.002
      -0.054
      -0.117
      -0.172
      -0.206
      -0.214
      -0.194
      -0.148
      -0.076
       0.007
       0.082
       0.132
       0.149
       0.139
       0.116
       0.092
       0.075
       0.065
       0.058
       0.044
       0.018
      -0.018
      -0.054
      -0.079
      -0.092
      -0.099
      -0.103
      -0.102
      -0.086
      -0.055
      -0.015
       0.026
       0.059
       0.080
       0.088
       0.088
       0.084
       0.078
       0.074
       0.070
       0.064
       0.055
       0.045
       0.032
       0.005
      -0.041
      -0.100
      -0.146
      -0.152
      -0.109
      -0.028
       0.062
       0.131
       0.157
       0.136
       0.079
       0.003
      -0.066
      -0.108
      -0.121
      -0.110
      -0.091
      -0.076
      -0.076
      -0.092
      -0.112
      -0.124
      -0.118
      -0.096
      -0.059
      -0.004
       0.068
       0.148
       0.217
       0.250
       0.233
       0.167
       0.069
      -0.038
      -0.130
      -0.192
      -0.215
      -0.198
      -0.152
      -0.094
      -0.043
      -0.002
       0.033
       0.069
       0.105
       0.134
       0.149
       0.147
       0.129
       0.101
       0.068
       0.030
      -0.012
      -0.055
      -0.091
      -0.115
      -0.123
      -0.118
      -0.098
      -0.065
      -0.026
       0.004
       0.019
       0.021
       0.018
       0.018
       0.022
       0.021
       0.002
      -0.040
      -0.087
      -0.111
      -0.092
      -0.033
       0.045
       0.119
       0.169
       0.181
       0.150
       0.088
       0.016
      -0.045
      -0.081
      -0.092
      -0.084
      -0.059
      -0.018
       0.032
       0.075
       0.099
       0.108
       0.119
       0.139
       0.155
       0.152
       0.132
       0.120
       0.131
       0.154
       0.156
       0.112
       0.021
      -0.092
      -0.199
      -0.279
      -0.317
      -0.309
      -0.258
      -0.179
      -0.091
      -0.008
       0.068
       0.124
       0.137
       0.085
      -0.022
      -0.138
      -0.209
      -0.202
      -0.124
      -0.010
       0.103
       0.184
       0.218
       0.198
       0.131
       0.032
      -0.078
      -0.178
      -0.248
      -0.278
      -0.273
      -0.242
      -0.199
      -0.153
      -0.109
      -0.069
      -0.029
       0.013
       0.060
       0.112
       0.165
       0.214
       0.246
       0.249
       0.224
       0.187
       0.157
       0.138
       0.112
       0.059
      -0.018
      -0.090
      -0.121
      -0.098
      -0.034
       0.045
       0.126
       0.206
       0.285
       0.354
       0.401
       0.412
       0.376
       0.291
       0.168
       0.044
      -0.047
      -0.096
      -0.122
      -0.156
      -0.212
      -0.281
      -0.343
      -0.383
      -0.403
      -0.412
      -0.412
      -0.387
      -0.322
      -0.223
      -0.116
      -0.029
       0.023
       0.048
       0.063
       0.073
       0.074
       0.053
       0.010
      -0.045
      -0.096
      -0.132
      -0.149
      -0.148
      -0.133
      -0.110
      -0.075
      -0.016
       0.089
       0.242
       0.420
       0.581
       0.689
       0.732
       0.715
       0.644
       0.531
       0.394
       0.260
       0.152
       0.078
       0.032
      -0.005
      -0.050
      -0.115
      -0.200
      -0.293
      -0.376
      -0.443
      -0.496
      -0.546
      -0.594
      -0.628
      -0.627
      -0.580
      -0.492
      -0.385
      -0.279
      -0.181
      -0.085
       0.011
       0.097
       0.157
       0.176
       0.152
       0.094
       0.017
      -0.067
      -0.144
      -0.199
      -0.217
      -0.188
      -0.113
      -0.014
       0.083
       0.154
       0.190
       0.196
       0.192
       0.191
       0.195
       0.198
       0.204
       0.212
       0.218
       0.213
       0.189
       0.141
       0.065
      -0.033
      -0.131
      -0.199
      -0.213
      -0.169
      -0.082
       0.017
       0.102
       0.162
       0.196
       0.210
       0.213
       0.220
       0.238
       0.266
       0.294
       0.312
       0.310
       0.285
       0.236
       0.162
       0.065
      -0.045
      -0.154
      -0.250
      -0.335
      -0.414
      -0.483
      -0.527
      -0.529
      -0.483
      -0.395
      -0.275
      -0.124
       0.053
       0.233
       0.385
       0.488
       0.536
       0.535
       0.493
       0.415
       0.310
       0.194
       0.084
      -0.012
      -0.089
      -0.145
      -0.181
      -0.203
      -0.215
      -0.214
      -0.191
      -0.140
      -0.066
       0.016
       0.084
       0.113
       0.095
       0.041
      -0.028
      -0.096
      -0.161
      -0.225
      -0.274
      -0.292
      -0.269
      -0.217
      -0.156
      -0.099
      -0.047
       0.002
       0.047
       0.078
       0.086
       0.071
       0.038
      -0.003
      -0.038
      -0.060
      -0.059
      -0.026
       0.040
       0.121
       0.190
       0.217
       0.192
       0.121
       0.019
      -0.100
      -0.230
      -0.368
      -0.500
      -0.601
      -0.647
      -0.625
      -0.537
      -0.393
      -0.221
      -0.053
       0.085
       0.186
       0.256
       0.308
       0.351
       0.396
       0.445
       0.490
       0.510
       0.484
       0.398
       0.261
       0.101
      -0.042
      -0.136
      -0.172
      -0.160
      -0.123
      -0.078
      -0.034
       0.009
       0.050
       0.085
       0.108
       0.115
       0.114
       0.119
       0.138
       0.158
       0.158
       0.131
       0.087
       0.043
       0.002
      -0.049
      -0.119
      -0.198
      -0.259
      -0.283
      -0.269
      -0.227
      -0.169
      -0.102
      -0.028
       0.050
       0.126
       0.188
       0.223
       0.219
       0.181
       0.122
       0.062
       0.014
      -0.017
      -0.033
      -0.040
      -0.043
      -0.043
      -0.046
      -0.068
      -0.124
      -0.206
      -0.288
      -0.332
      -0.320
      -0.254
      -0.150
      -0.021
       0.125
       0.280
       0.433
       0.565
       0.653
       0.675
       0.619
       0.501
       0.356
       0.225
       0.128
       0.062
       0.009
      -0.042
      -0.091
      -0.139
      -0.191
      -0.247
      -0.301
      -0.340
      -0.353
      -0.344
      -0.323
      -0.290
      -0.228
      -0.114
       0.046
       0.203
       0.296
       0.287
       0.190
       0.046
      -0.111
      -0.267
      -0.417
      -0.546
      -0.625
      -0.628
      -0.554
      -0.427
      -0.277
      -0.125
       0.022
       0.156
       0.261
       0.318
       0.328
       0.306
       0.276
       0.248
       0.218
       0.173
       0.108
       0.026
      -0.064
      -0.154
      -0.233
      -0.283
      -0.291
      -0.251
      -0.171
      -0.056
       0.093
       0.262
       0.415
       0.503
       0.496
       0.404
       0.262
       0.109
      -0.029
      -0.141
      -0.222
      -0.260
      -0.251
      -0.207
      -0.159
      -0.135
      -0.144
      -0.179
      -0.224
      -0.261
      -0.269
      -0.230
      -0.139
      -0.009
       0.140
       0.292
       0.440
       0.577
       0.681
       0.718
       0.651
       0.473
       0.218
      -0.036
      -0.209
      -0.259
      -0.200
      -0.091
       0.002
       0.037
       0.012
      -0.047
      -0.101
      -0.124
      -0.110
      -0.077
      -0.050
      -0.042
      -0.045
      -0.044
      -0.034
      -0.030
      -0.052
      -0.111
      -0.190
      -0.262
      -0.308
      -0.330
      -0.343
      -0.356
      -0.355
      -0.313
      -0.206
      -0.035
       0.168
       0.353
       0.466
       0.485
       0.425
       0.324
       0.218
       0.124
       0.047
      -0.007
      -0.028
      -0.010
       0.033
       0.076
       0.102
       0.107
       0.103
       0.101
       0.100
       0.086
       0.049
      -0.002
      -0.052
      -0.092
      -0.132
      -0.181
      -0.238
      -0.286
      -0.307
      -0.287
      -0.230
      -0.153
      -0.079
      -0.025
      -0.001
      -0.003
      -0.018
      -0.035
      -0.053
      -0.080
      -0.118
      -0.154
      -0.155
      -0.091
       0.043
       0.213
       0.362
       0.451
       0.479
       0.473
       0.454
       0.415
       0.337
       0.216
       0.076
      -0.050
      -0.148
      -0.226
      -0.294
      -0.353
      -0.387
      -0.382
      -0.342
      -0.288
      -0.240
      -0.204
      -0.175
      -0.148
      -0.122
      -0.098
      -0.079
      -0.064
      -0.046
      -0.010
       0.048
       0.118
       0.178
       0.208
       0.199
       0.159
       0.101
       0.045
       0.009
       0.001
       0.020
       0.058
       0.106
       0.157
       0.198
       0.216
       0.196
       0.140
       0.062
      -0.010
