Origin Time       22/02/2010 17:23:43
Lat.              30.0 N	
Long.             80.1 E	
Depth (Km)          2.0
Magnitude         4.7
 Region           BAGESHWER-UTTARAKHAND                                            
 Above details taken from IMD 
     
Station Code      CHP
Station Lat.       29.334  N
Station Long.      80.095  E
Station Height(m) 1635.0
Site Class        A   Vs30 between 700 m/sec to 1400 m/sec * 
Record Time       22.02.2010 17:23:53.004
Sampling Rate     200. Hz
 Record Duration   70.500 Sec.
 Direction         E-W (E positive)
Max. Acceleration     -2.735 cm/sec**2
     
  * For reference see Site Classification link of website 
     
 Base Line Corrected and Low Pass Filtered (Cut Off at 35 Hz) Time History
 Acceleration data in cm/sec**2
    
[...]
      -1.281
      -1.213
      -1.152
      -1.110
      -1.085
      -1.055
      -0.996
      -0.884
      -0.702
      -0.447
      -0.139
       0.181
       0.468
       0.698
       0.884
       1.061
       1.256
       1.454
       1.615
       1.703
       1.718
       1.682
       1.609
       1.486
       1.287
       1.003
       0.662
       0.320
       0.033
      -0.171
      -0.302
      -0.397
      -0.497
      -0.620
      -0.745
      -0.827
      -0.815
      -0.692
      -0.488
      -0.266
      -0.087
       0.030
       0.117
       0.224
       0.370
       0.528
       0.645
       0.688
       0.671
       0.636
       0.620
       0.624
       0.621
       0.578
       0.473
       0.316
       0.140
      -0.026
      -0.175
      -0.332
      -0.522
      -0.748
      -0.972
      -1.146
      -1.240
      -1.251
      -1.195
      -1.088
      -0.944
      -0.773
      -0.596
      -0.429
      -0.290
      -0.190
      -0.131
      -0.105
      -0.091
      -0.063
      -0.008
       0.052
       0.077
       0.033
      -0.077
      -0.204
      -0.273
      -0.221
      -0.031
       0.260
       0.569
       0.811
       0.946
       0.992
       0.997
       0.991
       0.964
       0.884
       0.733
       0.530
       0.322
       0.156
       0.056
       0.010
      -0.015
      -0.048
      -0.100
      -0.166
      -0.233
      -0.285
      -0.305
      -0.276
      -0.193
      -0.073
       0.037
       0.075
      -0.004
      -0.194
      -0.433
      -0.633
      -0.733
      -0.730
      -0.668
      -0.601
      -0.564
      -0.554
      -0.539
      -0.471
      -0.319
      -0.088
       0.169
       0.379
       0.484
       0.470
       0.374
       0.248
       0.134
       0.050
      -0.002
      -0.013
       0.027
       0.112
       0.205
       0.248
       0.200
       0.063
      -0.112
      -0.259
      -0.331
      -0.324
      -0.257
      -0.152
      -0.012
       0.170
       0.389
       0.622
       0.831
       0.985
       1.074
       1.105
       1.088
       1.038
       0.969
       0.895
       0.814
       0.705
       0.524
       0.235
      -0.164
      -0.626
      -1.070
      -1.418
      -1.629
      -1.706
      -1.687
      -1.614
      -1.508
      -1.374
      -1.215
      -1.055
      -0.927
      -0.848
      -0.802
      -0.754
      -0.663
      -0.507
      -0.274
       0.023
       0.351
       0.664
       0.924
       1.120
       1.260
       1.352
       1.386
       1.350
       1.251
       1.113
       0.968
       0.834
       0.715
       0.608
       0.515
       0.434
       0.366
       0.319
       0.303
       0.318
       0.343
       0.343
       0.294
       0.197
       0.080
      -0.035
      -0.150
      -0.288
      -0.470
      -0.699
      -0.962
      -1.235
      -1.496
      -1.712
      -1.838
      -1.822
      -1.639
      -1.309
      -0.892
      -0.449
      -0.012
       0.420
       0.846
       1.240
       1.553
       1.743
       1.802
       1.756
       1.649
       1.519
       1.384
       1.248
       1.104
       0.946
       0.781
       0.632
       0.536
       0.519
       0.564
       0.609
       0.574
       0.406
       0.114
      -0.247
      -0.605
      -0.915
      -1.168
      -1.388
      -1.597
      -1.794
      -1.953
      -2.038
      -2.034
      -1.945
      -1.784
      -1.556
      -1.267
      -0.935
      -0.590
      -0.269
       0.013
       0.258
       0.481
       0.685
       0.858
       0.984
       1.054
       1.079
       1.085
       1.099
       1.140
       1.202
       1.250
       1.241
       1.147
       0.981
       0.798
       0.652
       0.560
       0.483
       0.358
       0.140
      -0.167
      -0.511
      -0.818
      -1.032
      -1.131
      -1.133
      -1.083
      -1.038
      -1.048
      -1.123
      -1.222
      -1.268
      -1.188
      -0.966
      -0.647
      -0.317
      -0.046
       0.134
       0.236
       0.286
       0.307
       0.318
       0.332
       0.357
       0.385
       0.391
       0.350
       0.250
       0.104
      -0.056
      -0.179
      -0.217
      -0.148
       0.005
       0.179
       0.300
       0.334
       0.313
       0.309
       0.396
       0.587
       0.825
       1.007
       1.047
       0.920
       0.671
       0.383
       0.143
       0.005
      -0.020
       0.039
       0.137
       0.228
       0.279
       0.275
       0.221
       0.137
       0.049
      -0.037
      -0.128
      -0.236
      -0.360
      -0.486
      -0.593
      -0.663
      -0.691
      -0.690
      -0.683
      -0.686
      -0.694
      -0.680
      -0.617
      -0.490
      -0.306
      -0.098
       0.087
       0.196
       0.196
       0.095
      -0.055
      -0.191
      -0.262
      -0.250
      -0.151
       0.033
       0.293
       0.607
       0.935
       1.227
       1.448
       1.588
       1.655
       1.669
       1.633
       1.531
       1.336
       1.031
       0.633
       0.183
      -0.262
      -0.656
      -0.970
      -1.204
      -1.372
      -1.493
      -1.573
      -1.603
      -1.574
      -1.491
      -1.375
      -1.243
      -1.091
      -0.894
      -0.632
      -0.307
       0.048
       0.384
       0.654
       0.825
       0.890
       0.858
       0.749
       0.594
       0.428
       0.285
       0.186
       0.117
       0.038
      -0.099
      -0.303
      -0.531
      -0.702
      -0.744
      -0.635
      -0.411
      -0.141
       0.097
       0.237
       0.234
       0.079
      -0.192
      -0.494
      -0.725
      -0.812
      -0.735
      -0.528
      -0.246
       0.061
       0.351
       0.580
       0.701
       0.672
       0.481
       0.170
      -0.178
      -0.469
      -0.644
      -0.704
      -0.694
      -0.659
      -0.608
      -0.509
      -0.329
      -0.077
       0.186
       0.383
       0.473
       0.476
       0.448
       0.437
       0.465
       0.524
       0.608
       0.727
       0.897
       1.116
       1.341
       1.494
       1.489
       1.282
       0.897
       0.429
       0.013
      -0.234
      -0.267
      -0.133
       0.062
       0.206
       0.230
       0.128
      -0.054
      -0.237
      -0.337
      -0.297
      -0.117
       0.144
       0.397
       0.578
       0.679
       0.744
       0.811
       0.874
       0.877
       0.766
       0.534
       0.234
      -0.056
      -0.284
      -0.431
      -0.503
      -0.513
      -0.492
      -0.500
      -0.609
      -0.847
      -1.164
      -1.456
      -1.627
      -1.643
      -1.529
      -1.333
      -1.092
      -0.832
      -0.586
      -0.398
      -0.299
      -0.278
      -0.282
      -0.253
      -0.169
      -0.059
       0.024
       0.040
      -0.016
      -0.122
      -0.236
      -0.320
      -0.358
      -0.356
      -0.339
      -0.321
      -0.292
      -0.217
      -0.059
       0.197
       0.532
       0.897
       1.231
       1.490
       1.660
       1.753
       1.786
       1.761
       1.659
       1.462
       1.180
       0.855
       0.534
       0.238
      -0.049
      -0.360
      -0.713
      -1.106
      -1.519
      -1.911
      -2.226
      -2.411
      -2.442
      -2.329
      -2.098
      -1.763
      -1.323
      -0.795
      -0.241
       0.248
       0.603
       0.817
       0.944
       1.050
       1.168
       1.281
       1.357
       1.378
       1.361
       1.340
       1.328
       1.309
       1.242
       1.091
       0.854
       0.571
       0.305
       0.111
       0.013
      -0.006
       0.019
       0.060
       0.107
       0.164
       0.230
       0.295
       0.338
       0.344
       0.306
       0.236
       0.163
       0.124
       0.138
       0.188
       0.223
       0.186
       0.050
      -0.169
      -0.429
      -0.685
      -0.901
      -1.055
      -1.135
      -1.130
      -1.035
      -0.857
      -0.626
      -0.382
      -0.158
       0.034
       0.191
       0.305
       0.359
       0.345
       0.279
       0.197
       0.138
       0.118
       0.130
       0.155
       0.176
       0.186
       0.174
       0.124
       0.017
      -0.161
      -0.407
      -0.701
      -1.001
      -1.256
      -1.419
      -1.458
      -1.372
      -1.191
      -0.961
      -0.730
      -0.529
      -0.371
      -0.240
      -0.106
       0.068
       0.294
       0.550
       0.776
       0.915
       0.936
       0.861
       0.747
       0.660
       0.633
       0.648
       0.652
       0.586
       0.426
       0.196
      -0.039
      -0.202
      -0.255
      -0.208
      -0.112
      -0.014
       0.062
       0.113
       0.135
       0.117
       0.054
      -0.038
      -0.122
      -0.163
      -0.142
      -0.058
       0.078
       0.249
       0.434
       0.614
       0.775
       0.904
       0.978
       0.957
       0.798
       0.487
       0.068
      -0.358
      -0.681
      -0.842
      -0.860
      -0.811
      -0.779
      -0.805
      -0.881
      -0.960
      -0.988
      -0.937
      -0.815
      -0.659
      -0.509
      -0.383
      -0.273
      -0.163
      -0.046
       0.069
       0.173
       0.266
       0.365
       0.496
       0.678
       0.911
       1.178
       1.446
       1.677
       1.840
       1.905
       1.841
       1.624
       1.261
       0.803
       0.333
      -0.068
      -0.353
      -0.537
      -0.682
      -0.869
      -1.141
      -1.473
      -1.788
      -1.999
      -2.054
      -1.957
      -1.752
      -1.510
      -1.297
      -1.153
      -1.076
      -1.020
      -0.924
      -0.743
      -0.473
      -0.154
       0.165
       0.450
       0.703
       0.954
       1.233
       1.540
       1.830
       2.029
       2.071
       1.940
       1.684
       1.394
       1.154
       0.987
       0.859
       0.704
       0.486
       0.220
      -0.041
      -0.247
      -0.383
      -0.473
      -0.558
      -0.663
      -0.778
      -0.871
      -0.912
      -0.906
      -0.891
      -0.911
      -0.967
      -1.016
      -1.002
      -0.894
      -0.703
      -0.458
      -0.189
       0.072
       0.293
       0.437
       0.493
       0.491
       0.496
       0.565
       0.707
       0.881
       1.035
       1.144
       1.214
       1.251
       1.229
       1.102
       0.850
       0.514
       0.185
      -0.056
      -0.194
      -0.284
      -0.395
      -0.546
      -0.689
      -0.753
      -0.715
      -0.622
      -0.559
      -0.584
      -0.687
      -0.810
      -0.879
      -0.849
      -0.714
      -0.512
      -0.308
      -0.170
      -0.128
      -0.160
      -0.203
      -0.194
      -0.110
       0.026
       0.176
       0.309
       0.420
       0.504
       0.546
       0.521
       0.416
       0.254
       0.084
      -0.044
      -0.100
      -0.088
      -0.040
       0.004
       0.015
      -0.013
      -0.058
      -0.085
      -0.062
       0.017
       0.129
       0.232
       0.287
       0.278
       0.207
       0.090
      -0.048
      -0.183
      -0.292
      -0.360
      -0.385
      -0.380
      -0.357
      -0.321
      -0.261
      -0.169
      -0.052
       0.070
       0.179
       0.274
       0.369
       0.469
       0.564
       0.632
       0.665
       0.673
       0.673
       0.669
       0.646
       0.594
       0.517
       0.445
       0.401
       0.385
       0.361
       0.277
       0.092
      -0.197
      -0.553
      -0.906
      -1.184
      -1.346
      -1.391
      -1.349
      -1.253
      -1.115
      -0.929
      -0.683
      -0.384
      -0.054
       0.277
       0.573
       0.805
       0.952
       1.016
       1.030
       1.042
       1.087
       1.162
       1.232
       1.244
       1.153
       0.940
       0.622
       0.248
      -0.117
      -0.409
      -0.587
      -0.648
      -0.629
      -0.599
      -0.626
      -0.744
      -0.924
      -1.095
      -1.178
      -1.129
      -0.958
      -0.727
      -0.523
      -0.422
      -0.451
      -0.570
      -0.686
      -0.693
      -0.524
      -0.181
       0.255
       0.651
       0.873
       0.845
       0.591
       0.231
      -0.082
      -0.242
      -0.229
      -0.098
       0.074
       0.224
       0.325
       0.373
       0.377
       0.348
       0.310
       0.298
       0.344
       0.448
       0.565
       0.623
       0.571
       0.415
       0.209
       0.016
      -0.137
      -0.262
      -0.370
      -0.439
      -0.421
      -0.296
      -0.112
       0.039
       0.083
       0.022
      -0.080
      -0.151
      -0.158
      -0.112
      -0.045
       0.017
       0.058
       0.064
       0.035
      -0.001
       0.016
       0.144
       0.394
       0.706
       0.968
       1.082
       1.016
       0.820
       0.582
       0.366
       0.187
       0.032
      -0.106
      -0.209
      -0.259
      -0.264
      -0.270
      -0.331
      -0.471
      -0.670
      -0.874
      -1.026
      -1.098
      -1.093
      -1.042
      -0.979
      -0.931
      -0.906
      -0.892
      -0.858
      -0.762
      -0.566
      -0.265
       0.106
       0.481
       0.795
       1.006
       1.111
       1.137
       1.116
       1.067
       0.996
       0.904
       0.806
       0.722
       0.667
       0.647
       0.650
       0.654
       0.633
       0.562
       0.425
       0.211
      -0.099
      -0.528
      -1.076
      -1.689
      -2.256
      -2.639
      -2.735
      -2.526
      -2.094
      -1.576
      -1.091
      -0.683
      -0.338
      -0.037
       0.199
       0.326
       0.330
       0.264
       0.224
       0.292
       0.484
       0.758
       1.052
       1.317
       1.526
       1.662
       1.706
       1.639
       1.461
       1.199
       0.902
       0.625
       0.398
       0.213
       0.035
      -0.171
      -0.408
      -0.639
      -0.802
      -0.848
      -0.767
      -0.596
      -0.397
      -0.227
      -0.112
      -0.055
      -0.046
      -0.064
      -0.071
      -0.017
       0.135
       0.366
       0.604
       0.756
       0.771
       0.661
       0.482
       0.291
       0.119
      -0.025
      -0.155
      -0.295
      -0.462
      -0.652
      -0.827
      -0.944
      -0.977
      -0.932
      -0.830
      -0.678
      -0.464
      -0.172
       0.184
       0.557
       0.882
       1.096
       1.170
       1.119
       0.996
       0.857
       0.736
       0.630
       0.516
       0.378
       0.224
       0.073
      -0.064
      -0.192
      -0.322
      -0.450
      -0.546
      -0.567
      -0.491
      -0.336
      -0.161
      -0.034
      -0.004
      -0.071
      -0.200
      -0.335
      -0.435
      -0.486
      -0.500
      -0.497
      -0.495
      -0.505
      -0.529
      -0.555
      -0.557
      -0.520
      -0.452
      -0.382
      -0.332
      -0.304
      -0.289
      -0.280
      -0.272
      -0.251
      -0.188
      -0.066
       0.103
       0.280
       0.434
       0.553
       0.642
       0.706
       0.759
       0.828
       0.942
       1.097
       1.231
       1.251
       1.101
       0.794
       0.398
      -0.014
      -0.394
      -0.705
      -0.901
      -0.937
      -0.808
      -0.560
      -0.274
      -0.023
       0.156
       0.255
       0.280
       0.242
       0.158
       0.062
      -0.015
      -0.056
      -0.076
      -0.099
      -0.142
      -0.193
      -0.225
      -0.217
      -0.180
      -0.154
      -0.172
      -0.236
      -0.312
      -0.367
      -0.403
      -0.457
      -0.568
      -0.739
      -0.923
      -1.053
      -1.077
      -0.988
      -0.821
      -0.628
      -0.434
      -0.235
      -0.003
       0.269
       0.557
       0.812
       0.991
       1.074
       1.061
       0.961
       0.786
       0.566
       0.346
       0.173
       0.080
       0.079
       0.162
       0.306
       0.464
       0.570
       0.565
       0.431
       0.207
      -0.034
      -0.225
      -0.343
      -0.409
      -0.465
      -0.533
      -0.601
      -0.639
      -0.621
      -0.553
      -0.453
      -0.334
      -0.178
       0.043
       0.334
       0.655
       0.925
       1.058
       1.004
       0.779
       0.453
       0.132
      -0.099
      -0.204
      -0.216
      -0.199
      -0.204
      -0.236
      -0.252
      -0.202
      -0.063
       0.143
       0.381
       0.626
       0.870
       1.104
       1.284
       1.344
       1.228
       0.934
       0.526
       0.096
      -0.291
      -0.609
      -0.853
      -1.006
      -1.040
      -0.949
      -0.767
      -0.559
      -0.386
      -0.279
      -0.234
      -0.221
      -0.211
      -0.197
      -0.198
      -0.244
      -0.341
      -0.461
      -0.549
      -0.552
      -0.458
      -0.297
      -0.126
       0.008
       0.095
       0.151
       0.195
       0.228
       0.228
       0.164
       0.023
      -0.181
      -0.414
      -0.642
      -0.844
      -1.003
      -1.100
      -1.119
      -1.050
      -0.899
      -0.679
      -0.394
      -0.043
       0.356
       0.755
       1.080
       1.276
       1.333
       1.292
       1.208
       1.123
       1.044
       0.952
       0.814
       0.596
       0.287
      -0.082
      -0.446
      -0.726
      -0.872
      -0.875
      -0.769
      -0.608
      -0.455
      -0.360
      -0.358
      -0.450
      -0.614
      -0.801
      -0.944
      -0.975
      -0.848
      -0.581
      -0.253
       0.021
       0.158
       0.150
       0.056
      -0.032
      -0.040
       0.060
       0.249
       0.475
       0.678
       0.801
       0.818
       0.745
       0.638
       0.562
       0.550
       0.594
       0.658
       0.708
       0.724
       0.701
       0.643
       0.561
       0.462
       0.347
       0.205
       0.020
      -0.220
      -0.504
      -0.804
      -1.071
      -1.257
      -1.329
      -1.280
      -1.135
      -0.930
      -0.688
      -0.413
      -0.108
       0.205
       0.487
       0.697
       0.811
       0.826
       0.752
       0.621
       0.481
       0.384
       0.355
       0.377
       0.410
       0.426
       0.427
       0.438
       0.474
       0.527
       0.567
       0.564
       0.506
       0.392
       0.216
      -0.033
      -0.360
      -0.741
      -1.107
      -1.369
      -1.446
      -1.313
      -1.016
      -0.652
      -0.317
      -0.055
       0.143
       0.310
       0.455
       0.550
       0.563
       0.490
       0.369
       0.255
       0.184
       0.158
       0.165
       0.188
       0.219
       0.247
       0.257
       0.239
       0.194
       0.136
       0.089
       0.075
       0.108
       0.181
       0.265
       0.317
       0.302
       0.203
       0.026
      -0.203
      -0.443
      -0.641
      -0.742
      -0.711
      -0.548
      -0.292
      -0.005
       0.257
       0.464
       0.615
       0.719
       0.774
       0.760
       0.657
       0.473
       0.264
       0.104
       0.030
       0.009
      -0.041
      -0.193
      -0.449
      -0.738
      -0.971
      -1.101
      -1.137
      -1.116
      -1.057
      -0.955
      -0.810
      -0.644
      -0.490
      -0.364
      -0.252
      -0.129
       0.016
       0.172
