Origin Time       09/01/2013 07:44:20
Lat.              29.75 N
Long.             81.74 E
Depth (Km)         34.0
Magnitude         5.0
 Region           NEPAL                                                            
 Above details taken from IIT 
   
Station Code      CHP
Station Lat.       29.334
Station Long.      80.095
Station Height(m) 1635.0
Site Class        A   Vs30 between 700 m/sec to 1400 m/sec * 
Record Time       09.01.2013 07:44:51.789
Sampling Rate     200. Hz
 Record Duration   67.965 Sec.
 Direction         Vert. (Up positive)
Max. Acceleration      1.365 cm/sec**2
     
  * For reference see Site Classification link of website 
     
 Base Line Corrected and Low Pass Filtered (Cut Off at 35 Hz) Time History
 Acceleration data in cm/sec**2
    
[...]
       0.207
       0.211
       0.189
       0.146
       0.099
       0.065
       0.057
       0.072
       0.082
       0.056
      -0.006
      -0.081
      -0.153
      -0.218
      -0.265
      -0.270
      -0.221
      -0.135
      -0.034
       0.059
       0.120
       0.130
       0.096
       0.041
      -0.026
      -0.101
      -0.165
      -0.183
      -0.140
      -0.053
       0.052
       0.150
       0.215
       0.232
       0.212
       0.179
       0.143
       0.097
       0.048
       0.013
       0.001
       0.004
       0.013
       0.024
       0.029
       0.014
      -0.019
      -0.056
      -0.094
      -0.138
      -0.174
      -0.181
      -0.153
      -0.103
      -0.048
       0.004
       0.034
       0.027
      -0.010
      -0.046
      -0.062
      -0.057
      -0.037
      -0.010
       0.008
       0.009
       0.009
       0.031
       0.064
       0.080
       0.061
       0.020
      -0.029
      -0.076
      -0.111
      -0.118
      -0.098
      -0.057
      -0.001
       0.057
       0.085
       0.062
       0.009
      -0.032
      -0.043
      -0.038
      -0.032
      -0.024
      -0.005
       0.030
       0.083
       0.142
       0.181
       0.184
       0.166
       0.144
       0.111
       0.050
      -0.024
      -0.073
      -0.074
      -0.035
       0.016
       0.051
       0.055
       0.044
       0.054
       0.092
       0.116
       0.081
      -0.008
      -0.106
      -0.174
      -0.192
      -0.155
      -0.072
       0.023
       0.100
       0.148
       0.165
       0.135
       0.055
      -0.040
      -0.100
      -0.111
      -0.090
      -0.058
      -0.028
      -0.012
      -0.004
       0.023
       0.084
       0.157
       0.196
       0.180
       0.117
       0.023
      -0.079
      -0.157
      -0.191
      -0.193
      -0.183
      -0.166
      -0.132
      -0.080
      -0.017
       0.056
       0.128
       0.173
       0.170
       0.128
       0.074
       0.021
      -0.028
      -0.059
      -0.057
      -0.022
       0.033
       0.097
       0.151
       0.169
       0.134
       0.063
      -0.017
      -0.099
      -0.188
      -0.271
      -0.328
      -0.342
      -0.305
      -0.208
      -0.060
       0.106
       0.251
       0.355
       0.399
       0.363
       0.241
       0.074
      -0.081
      -0.184
      -0.221
      -0.192
      -0.115
      -0.021
       0.060
       0.119
       0.152
       0.147
       0.098
       0.028
      -0.038
      -0.094
      -0.140
      -0.163
      -0.151
      -0.111
      -0.057
      -0.001
       0.046
       0.068
       0.061
       0.044
       0.034
       0.022
      -0.004
      -0.039
      -0.066
      -0.082
      -0.088
      -0.078
      -0.052
      -0.019
       0.015
       0.054
       0.096
       0.116
       0.094
       0.043
      -0.015
      -0.070
      -0.118
      -0.143
      -0.134
      -0.090
      -0.017
       0.082
       0.187
       0.266
       0.297
       0.290
       0.256
       0.189
       0.082
      -0.042
      -0.144
      -0.199
      -0.193
      -0.133
      -0.047
       0.015
       0.025
      -0.006
      -0.055
      -0.113
      -0.171
      -0.207
      -0.199
      -0.148
      -0.062
       0.047
       0.157
       0.238
       0.274
       0.274
       0.246
       0.184
       0.089
      -0.013
      -0.094
      -0.148
      -0.175
      -0.175
      -0.150
      -0.106
      -0.043
       0.047
       0.152
       0.232
       0.254
       0.215
       0.136
       0.039
      -0.049
      -0.107
      -0.130
      -0.136
      -0.132
      -0.111
      -0.070
      -0.031
      -0.014
      -0.026
      -0.068
      -0.133
      -0.197
      -0.224
      -0.201
      -0.146
      -0.080
      -0.008
       0.068
       0.137
       0.188
       0.217
       0.216
       0.171
       0.089
      -0.004
      -0.087
      -0.154
      -0.192
      -0.176
      -0.102
       0.000
       0.095
       0.164
       0.200
       0.197
       0.162
       0.116
       0.066
       0.005
      -0.065
      -0.121
      -0.150
      -0.152
      -0.125
      -0.063
       0.019
       0.086
       0.115
       0.113
       0.093
       0.062
       0.029
       0.002
      -0.024
      -0.060
      -0.090
      -0.082
      -0.024
       0.062
       0.143
       0.203
       0.231
       0.219
       0.176
       0.118
       0.048
      -0.040
      -0.130
      -0.182
      -0.170
      -0.106
      -0.020
       0.061
       0.112
       0.119
       0.093
       0.063
       0.040
       0.014
      -0.021
      -0.052
      -0.064
      -0.052
      -0.011
       0.056
       0.128
       0.168
       0.155
       0.099
       0.011
      -0.098
      -0.204
      -0.275
      -0.292
      -0.259
      -0.185
      -0.076
       0.043
       0.141
       0.197
       0.214
       0.198
       0.147
       0.064
      -0.041
      -0.165
      -0.293
      -0.388
      -0.402
      -0.331
      -0.215
      -0.101
      -0.010
       0.056
       0.097
       0.120
       0.129
       0.111
       0.058
      -0.007
      -0.041
      -0.028
       0.015
       0.063
       0.106
       0.136
       0.142
       0.123
       0.082
       0.016
      -0.071
      -0.146
      -0.170
      -0.133
      -0.058
       0.024
       0.092
       0.128
       0.121
       0.085
       0.047
       0.018
      -0.005
      -0.018
      -0.008
       0.030
       0.088
       0.156
       0.221
       0.255
       0.234
       0.161
       0.063
      -0.046
      -0.162
      -0.267
      -0.327
      -0.316
      -0.239
      -0.123
      -0.008
       0.063
       0.070
       0.038
       0.009
       0.003
       0.010
       0.023
       0.043
       0.069
       0.093
       0.113
       0.127
       0.130
       0.118
       0.103
       0.098
       0.089
       0.058
       0.005
      -0.046
      -0.071
      -0.065
      -0.025
       0.045
       0.127
       0.196
       0.242
       0.266
       0.258
       0.206
       0.124
       0.038
      -0.036
      -0.093
      -0.128
      -0.131
      -0.111
      -0.089
      -0.077
      -0.079
      -0.101
      -0.144
      -0.188
      -0.208
      -0.203
      -0.187
      -0.167
      -0.134
      -0.090
      -0.041
       0.014
       0.074
       0.122
       0.146
       0.153
       0.153
       0.140
       0.103
       0.047
      -0.011
      -0.067
      -0.121
      -0.158
      -0.161
      -0.133
      -0.090
      -0.043
      -0.001
       0.022
       0.022
       0.022
       0.042
       0.077
       0.097
       0.086
       0.050
       0.004
      -0.027
      -0.011
       0.054
       0.129
       0.163
       0.142
       0.083
       0.009
      -0.060
      -0.110
      -0.138
      -0.155
      -0.162
      -0.143
      -0.087
      -0.014
       0.046
       0.084
       0.102
       0.097
       0.067
       0.023
      -0.021
      -0.054
      -0.067
      -0.041
       0.024
       0.102
       0.159
       0.187
       0.190
       0.169
       0.124
       0.067
       0.017
      -0.020
      -0.041
      -0.042
      -0.029
      -0.027
      -0.049
      -0.075
      -0.075
      -0.050
      -0.019
       0.004
       0.010
      -0.004
      -0.037
      -0.076
      -0.108
      -0.132
      -0.142
      -0.114
      -0.043
       0.041
       0.101
       0.127
       0.130
       0.122
       0.104
       0.070
       0.008
      -0.090
      -0.198
      -0.258
      -0.234
      -0.136
      -0.006
       0.118
       0.206
       0.232
       0.189
       0.094
      -0.020
      -0.122
      -0.174
      -0.144
      -0.040
       0.088
       0.188
       0.246
       0.278
       0.294
       0.294
       0.273
       0.216
       0.113
      -0.018
      -0.131
      -0.189
      -0.194
      -0.166
      -0.125
      -0.085
      -0.063
      -0.061
      -0.059
      -0.039
      -0.004
       0.031
       0.058
       0.061
       0.018
      -0.068
      -0.158
      -0.210
      -0.212
      -0.175
      -0.120
      -0.074
      -0.068
      -0.106
      -0.162
      -0.204
      -0.222
      -0.216
      -0.189
      -0.151
      -0.120
      -0.091
      -0.041
       0.042
       0.138
       0.218
       0.270
       0.294
       0.289
       0.264
       0.230
       0.188
       0.130
       0.061
       0.009
      -0.014
      -0.030
      -0.064
      -0.120
      -0.187
      -0.245
      -0.272
      -0.248
      -0.181
      -0.101
      -0.028
       0.035
       0.087
       0.118
       0.124
       0.118
       0.113
       0.110
       0.107
       0.111
       0.114
       0.100
       0.065
       0.017
      -0.042
      -0.116
      -0.194
      -0.244
      -0.244
      -0.195
      -0.106
       0.012
       0.136
       0.225
       0.250
       0.208
       0.114
      -0.008
      -0.111
      -0.145
      -0.095
       0.005
       0.112
       0.196
       0.239
       0.233
       0.188
       0.126
       0.055
      -0.029
      -0.119
      -0.187
      -0.215
      -0.206
      -0.162
      -0.077
       0.041
       0.163
       0.260
       0.312
       0.303
       0.230
       0.118
       0.013
      -0.058
      -0.091
      -0.087
      -0.042
       0.033
       0.111
       0.172
       0.204
       0.197
       0.137
       0.035
      -0.072
      -0.153
      -0.194
      -0.186
      -0.123
      -0.021
       0.088
       0.176
       0.224
       0.210
       0.121
      -0.025
      -0.178
      -0.304
      -0.394
      -0.450
      -0.464
      -0.429
      -0.340
      -0.192
      -0.001
       0.187
       0.317
       0.366
       0.350
       0.288
       0.193
       0.087
       0.005
      -0.038
      -0.050
      -0.050
      -0.052
      -0.068
      -0.094
      -0.102
      -0.069
      -0.005
       0.053
       0.083
       0.085
       0.062
       0.012
      -0.050
      -0.103
      -0.133
      -0.137
      -0.102
      -0.021
       0.088
       0.189
       0.257
       0.285
       0.264
       0.189
       0.078
      -0.033
      -0.127
      -0.199
      -0.236
      -0.223
      -0.162
      -0.086
      -0.031
      -0.024
      -0.074
      -0.164
      -0.251
      -0.301
      -0.317
      -0.319
      -0.300
      -0.226
      -0.080
       0.109
       0.290
       0.414
       0.455
       0.420
       0.348
       0.268
       0.174
       0.052
      -0.078
      -0.162
      -0.169
      -0.119
      -0.055
      -0.020
      -0.039
      -0.108
      -0.194
      -0.269
      -0.333
      -0.390
      -0.415
      -0.368
      -0.242
      -0.065
       0.120
       0.283
       0.403
       0.478
       0.526
       0.560
       0.568
       0.527
       0.442
       0.338
       0.236
       0.146
       0.081
       0.046
       0.022
      -0.021
      -0.091
      -0.181
      -0.276
      -0.358
      -0.410
      -0.427
      -0.428
      -0.429
      -0.409
      -0.334
      -0.199
      -0.033
       0.121
       0.231
       0.271
       0.245
       0.178
       0.101
       0.025
      -0.036
      -0.048
       0.015
       0.134
       0.260
       0.353
       0.396
       0.393
       0.353
       0.290
       0.209
       0.113
       0.020
      -0.024
       0.004
       0.075
       0.131
       0.135
       0.086
      -0.004
      -0.111
      -0.207
      -0.262
      -0.264
      -0.207
      -0.084
       0.087
       0.254
       0.358
       0.371
       0.291
       0.124
      -0.099
      -0.323
      -0.487
      -0.566
      -0.568
      -0.513
      -0.429
      -0.345
      -0.277
      -0.209
      -0.124
      -0.029
       0.050
       0.099
       0.112
       0.085
       0.030
      -0.016
      -0.015
       0.036
       0.114
       0.194
       0.253
       0.276
       0.267
       0.252
       0.246
       0.233
       0.187
       0.110
       0.020
      -0.069
      -0.141
      -0.177
      -0.164
      -0.110
      -0.034
       0.040
       0.082
       0.060
      -0.030
      -0.142
      -0.225
      -0.255
      -0.244
      -0.212
      -0.186
      -0.189
      -0.220
      -0.248
      -0.246
      -0.224
      -0.204
      -0.196
      -0.200
      -0.206
      -0.191
      -0.115
       0.033
       0.220
       0.380
       0.457
       0.422
       0.271
       0.045
      -0.183
      -0.346
      -0.411
      -0.376
      -0.260
      -0.110
       0.006
       0.050
       0.035
       0.007
      -0.007
       0.004
       0.047
       0.123
       0.226
       0.351
       0.490
       0.607
       0.645
       0.566
       0.388
       0.160
      -0.065
      -0.244
      -0.345
      -0.364
      -0.328
      -0.262
      -0.177
      -0.089
      -0.031
      -0.027
      -0.075
      -0.154
      -0.242
      -0.315
      -0.354
      -0.359
      -0.350
      -0.340
      -0.320
      -0.283
      -0.241
      -0.206
      -0.179
      -0.167
      -0.187
      -0.244
      -0.316
      -0.375
      -0.408
      -0.417
      -0.398
      -0.358
      -0.311
      -0.267
      -0.229
      -0.202
      -0.194
      -0.180
      -0.113
       0.026
       0.204
       0.364
       0.472
       0.526
       0.556
       0.600
       0.674
       0.747
       0.759
       0.678
       0.522
       0.333
       0.155
       0.039
       0.035
       0.169
       0.420
       0.732
       1.037
       1.264
       1.365
       1.345
       1.245
       1.095
       0.903
       0.669
       0.403
       0.115
      -0.181
      -0.449
      -0.642
      -0.749
      -0.810
      -0.878
      -0.970
      -1.063
      -1.108
      -1.051
      -0.875
      -0.620
      -0.356
      -0.128
       0.062
       0.218
       0.331
       0.391
       0.409
       0.400
       0.375
       0.342
       0.306
       0.263
       0.209
       0.162
       0.144
       0.145
       0.127
       0.063
      -0.039
      -0.154
      -0.268
      -0.370
      -0.449
      -0.506
      -0.543
      -0.554
      -0.528
      -0.473
      -0.412
      -0.345
      -0.248
      -0.107
       0.066
       0.247
       0.413
       0.534
       0.579
       0.535
       0.412
       0.223
      -0.016
      -0.277
      -0.533
      -0.773
      -0.999
      -1.186
      -1.285
      -1.256
      -1.093
      -0.814
      -0.454
      -0.068
       0.283
       0.552
       0.714
       0.762
       0.709
       0.599
       0.488
       0.396
       0.306
       0.201
       0.085
      -0.030
      -0.129
      -0.196
      -0.220
      -0.213
      -0.193
      -0.161
      -0.099
       0.002
       0.140
       0.312
       0.513
       0.717
       0.890
       1.007
       1.066
       1.068
       1.020
       0.935
       0.821
       0.661
       0.439
       0.170
      -0.099
      -0.328
      -0.494
      -0.574
      -0.559
      -0.466
      -0.329
      -0.176
      -0.018
       0.131
       0.256
       0.351
       0.407
       0.396
       0.294
       0.109
      -0.126
      -0.390
      -0.670
      -0.938
      -1.147
      -1.264
      -1.279
      -1.202
      -1.054
      -0.871
      -0.672
      -0.441
      -0.158
       0.157
       0.449
       0.670
       0.797
       0.814
       0.722
       0.544
       0.330
       0.130
      -0.019
      -0.095
      -0.102
      -0.074
      -0.037
       0.013
       0.091
       0.176
       0.222
       0.197
       0.110
      -0.005
      -0.106
      -0.156
      -0.140
      -0.072
       0.036
       0.189
       0.386
       0.592
       0.753
       0.838
       0.841
       0.758
       0.580
       0.312
      -0.023
      -0.389
      -0.732
      -0.982
      -1.098
      -1.090
      -1.007
      -0.885
      -0.741
      -0.586
      -0.433
      -0.286
      -0.158
      -0.071
      -0.027
       0.009
       0.087
       0.231
       0.433
       0.662
       0.875
       1.015
       1.040
       0.948
       0.753
       0.466
       0.107
      -0.271
      -0.594
      -0.808
      -0.891
      -0.845
      -0.697
      -0.491
      -0.264
      -0.029
       0.198
       0.377
       0.475
       0.499
       0.493
       0.492
       0.509
       0.535
       0.547
       0.521
       0.459
       0.396
       0.353
       0.310
       0.228
       0.100
      -0.050
      -0.199
      -0.331
      -0.440
      -0.524
      -0.573
      -0.560
      -0.444
      -0.223
       0.043
       0.268
       0.403
       0.441
       0.393
       0.264
       0.065
      -0.181
      -0.435
      -0.641
      -0.742
      -0.725
      -0.624
      -0.479
      -0.296
      -0.074
       0.150
       0.318
       0.392
       0.374
       0.295
       0.201
       0.128
       0.081
       0.035
      -0.027
      -0.102
      -0.186
      -0.297
      -0.433
      -0.552
      -0.599
      -0.545
      -0.405
      -0.206
       0.022
       0.249
       0.458
       0.632
       0.743
       0.760
       0.684
       0.554
       0.407
       0.244
       0.046
      -0.178
      -0.388
      -0.548
      -0.638
      -0.662
      -0.645
      -0.618
      -0.587
      -0.543
      -0.489
      -0.453
      -0.450
      -0.456
      -0.436
      -0.377
      -0.285
      -0.175
      -0.062
       0.042
       0.134
       0.213
       0.255
       0.225
       0.124
       0.005
      -0.069
      -0.069
      -0.006
       0.090
       0.171
       0.189
       0.123
       0.001
      -0.128
      -0.222
      -0.251
      -0.198
      -0.078
       0.071
       0.221
       0.370
       0.519
       0.653
       0.760
       0.844
       0.905
       0.922
       0.875
       0.767
       0.623
       0.476
       0.363
       0.302
       0.265
       0.194
       0.062
      -0.091
      -0.202
      -0.239
      -0.207
      -0.131
      -0.039
       0.050
       0.134
       0.217
       0.283
       0.300
       0.255
       0.158
       0.019
      -0.169
      -0.390
      -0.593
      -0.721
      -0.749
      -0.689
      -0.581
      -0.475
      -0.405
      -0.363
      -0.320
      -0.266
      -0.217
      -0.186
      -0.174
      -0.181
      -0.216
      -0.272
      -0.318
      -0.325
      -0.285
      -0.209
      -0.112
      -0.019
       0.047
       0.085
       0.107
       0.122
       0.135
       0.170
       0.263
       0.415
       0.589
       0.742
       0.856
       0.922
       0.928
       0.858
       0.703
       0.463
       0.158
      -0.163
      -0.447
      -0.678
      -0.867
      -1.003
      -1.050
      -0.991
      -0.846
      -0.660
      -0.474
      -0.325
      -0.231
      -0.189
      -0.177
      -0.181
      -0.192
      -0.190
      -0.158
      -0.111
      -0.095
      -0.136
      -0.229
      -0.353
      -0.493
      -0.617
      -0.683
      -0.662
      -0.553
      -0.374
      -0.152
       0.073
       0.272
       0.442
       0.599
       0.732
       0.812
       0.826
       0.797
       0.757
       0.716
       0.668
       0.594
       0.473
       0.301
       0.114
      -0.040
      -0.132
      -0.160
      -0.124
      -0.020
       0.127
       0.281
       0.418
       0.548
       0.686
       0.833
