Origin Time       23/08/2012 16:30:19 UTC
Lat.              28.4 N	
Long.             82.7 E	
Depth (Km)         10.0
Magnitude         5.0
 Region           NEPAL                                                            
 Above details taken from IMD 
    
Station Code      CHP
Station Lat.       29.334  N
Station Long.      80.095  E
Station Height(m) 1635.0
Site Class        A   Vs30 between 700 m/sec to 1400 m/sec * 
Record Time       23.08.2012 16:31:23.774 UTC
Sampling Rate     200. Hz
 Record Duration   65.000 Sec.
 Direction         N-S (N positive)
Max. Acceleration      1.583 cm/sec**2
     
  * For reference see Site Classification link of website 
     
 Base Line Corrected and Low Pass Filtered (Cut Off at 35 Hz) Time History
 Acceleration data in cm/sec**2
    
[...]
       0.001
      -0.020
      -0.044
      -0.066
      -0.087
      -0.108
      -0.132
      -0.157
      -0.178
      -0.194
      -0.201
      -0.201
      -0.187
      -0.158
      -0.116
      -0.070
      -0.029
       0.007
       0.043
       0.083
       0.128
       0.172
       0.207
       0.227
       0.231
       0.219
       0.192
       0.147
       0.085
       0.010
      -0.070
      -0.148
      -0.219
      -0.278
      -0.321
      -0.347
      -0.351
      -0.331
      -0.288
      -0.229
      -0.160
      -0.087
      -0.013
       0.062
       0.141
       0.225
       0.309
       0.387
       0.454
       0.504
       0.533
       0.537
       0.513
       0.465
       0.398
       0.320
       0.237
       0.158
       0.085
       0.017
      -0.050
      -0.116
      -0.181
      -0.242
      -0.295
      -0.338
      -0.369
      -0.389
      -0.398
      -0.398
      -0.391
      -0.377
      -0.351
      -0.314
      -0.270
      -0.227
      -0.191
      -0.162
      -0.133
      -0.102
      -0.072
      -0.046
      -0.029
      -0.017
      -0.004
       0.012
       0.031
       0.049
       0.067
       0.088
       0.115
       0.145
       0.173
       0.197
       0.215
       0.231
       0.245
       0.257
       0.259
       0.248
       0.223
       0.192
       0.162
       0.139
       0.125
       0.115
       0.102
       0.080
       0.050
       0.015
      -0.024
      -0.064
      -0.104
      -0.141
      -0.171
      -0.193
      -0.207
      -0.212
      -0.205
      -0.184
      -0.148
      -0.099
      -0.040
       0.018
       0.068
       0.107
       0.130
       0.139
       0.136
       0.125
       0.110
       0.095
       0.081
       0.067
       0.050
       0.027
      -0.005
      -0.042
      -0.082
      -0.123
      -0.158
      -0.181
      -0.189
      -0.183
      -0.166
      -0.142
      -0.115
      -0.090
      -0.064
      -0.037
      -0.009
       0.020
       0.048
       0.071
       0.085
       0.088
       0.077
       0.053
       0.020
      -0.018
      -0.055
      -0.084
      -0.104
      -0.115
      -0.120
      -0.116
      -0.099
      -0.063
      -0.005
       0.072
       0.156
       0.235
       0.299
       0.343
       0.362
       0.359
       0.340
       0.312
       0.276
       0.229
       0.169
       0.096
       0.018
      -0.062
      -0.141
      -0.216
      -0.285
      -0.346
      -0.390
      -0.414
      -0.416
      -0.396
      -0.357
      -0.303
      -0.241
      -0.177
      -0.114
      -0.050
       0.011
       0.062
       0.096
       0.110
       0.106
       0.092
       0.076
       0.061
       0.050
       0.043
       0.046
       0.060
       0.082
       0.103
       0.116
       0.122
       0.126
       0.135
       0.150
       0.169
       0.190
       0.208
       0.220
       0.223
       0.214
       0.194
       0.165
       0.133
       0.097
       0.054
       0.001
      -0.062
      -0.129
      -0.195
      -0.253
      -0.300
      -0.335
      -0.359
      -0.367
      -0.357
      -0.328
      -0.283
      -0.227
      -0.167
      -0.108
      -0.056
      -0.010
       0.032
       0.077
       0.124
       0.175
       0.224
       0.266
       0.297
       0.318
       0.329
       0.329
       0.316
       0.287
       0.243
       0.188
       0.127
       0.069
       0.019
      -0.020
      -0.054
      -0.090
      -0.128
      -0.167
      -0.203
      -0.231
      -0.246
      -0.247
      -0.236
      -0.217
      -0.194
      -0.170
      -0.146
      -0.121
      -0.092
      -0.061
      -0.029
       0.000
       0.023
       0.041
       0.056
       0.070
       0.085
       0.101
       0.117
       0.136
       0.157
       0.182
       0.207
       0.230
       0.245
       0.244
       0.227
       0.196
       0.160
       0.125
       0.089
       0.049
       0.004
      -0.044
      -0.087
      -0.121
      -0.144
      -0.158
      -0.164
      -0.159
      -0.136
      -0.100
      -0.058
      -0.021
       0.004
       0.019
       0.027
       0.032
       0.033
       0.030
       0.023
       0.017
       0.014
       0.015
       0.014
       0.003
      -0.020
      -0.051
      -0.082
      -0.103
      -0.113
      -0.113
      -0.109
      -0.101
      -0.087
      -0.066
      -0.040
      -0.016
       0.002
       0.015
       0.027
       0.043
       0.066
       0.095
       0.121
       0.141
       0.153
       0.155
       0.149
       0.136
       0.116
       0.094
       0.071
       0.046
       0.016
      -0.018
      -0.054
      -0.086
      -0.110
      -0.127
      -0.140
      -0.147
      -0.148
      -0.143
      -0.136
      -0.132
      -0.131
      -0.128
      -0.115
      -0.091
      -0.058
      -0.020
       0.020
       0.063
       0.109
       0.155
       0.194
       0.221
       0.235
       0.236
       0.224
       0.202
       0.168
       0.122
       0.064
       0.000
      -0.059
      -0.101
      -0.124
      -0.128
      -0.120
      -0.106
      -0.096
      -0.092
      -0.095
      -0.099
      -0.098
      -0.087
      -0.065
      -0.035
      -0.002
       0.029
       0.053
       0.070
       0.078
       0.080
       0.076
       0.067
       0.051
       0.029
       0.008
      -0.005
      -0.006
       0.007
       0.027
       0.045
       0.052
       0.048
       0.037
       0.027
       0.021
       0.023
       0.032
       0.043
       0.051
       0.056
       0.056
       0.054
       0.049
       0.042
       0.035
       0.033
       0.037
       0.042
       0.044
       0.040
       0.026
       0.004
      -0.023
      -0.053
      -0.084
      -0.111
      -0.126
      -0.129
      -0.125
      -0.121
      -0.115
      -0.107
      -0.092
      -0.074
      -0.054
      -0.035
      -0.013
       0.015
       0.049
       0.085
       0.114
       0.134
       0.144
       0.148
       0.146
       0.134
       0.110
       0.074
       0.028
      -0.022
      -0.071
      -0.112
      -0.142
      -0.160
      -0.165
      -0.160
      -0.148
      -0.134
      -0.122
      -0.113
      -0.101
      -0.083
      -0.055
      -0.017
       0.025
       0.069
       0.116
       0.163
       0.208
       0.242
       0.260
       0.262
       0.248
       0.226
       0.201
       0.175
       0.143
       0.102
       0.054
       0.001
      -0.050
      -0.097
      -0.138
      -0.168
      -0.186
      -0.190
      -0.180
      -0.161
      -0.138
      -0.114
      -0.094
      -0.076
      -0.058
      -0.035
      -0.002
       0.036
       0.072
       0.103
       0.130
       0.158
       0.189
       0.217
       0.233
       0.230
       0.205
       0.162
       0.107
       0.046
      -0.018
      -0.082
      -0.137
      -0.178
      -0.203
      -0.214
      -0.211
      -0.195
      -0.165
      -0.123
      -0.071
      -0.017
       0.036
       0.084
       0.127
       0.166
       0.195
       0.213
       0.216
       0.206
       0.186
       0.158
       0.124
       0.086
       0.045
       0.000
      -0.045
      -0.088
      -0.126
      -0.158
      -0.185
      -0.209
      -0.227
      -0.236
      -0.234
      -0.222
      -0.202
      -0.174
      -0.136
      -0.091
      -0.047
      -0.012
       0.012
       0.029
       0.042
       0.053
       0.061
       0.064
       0.062
       0.059
       0.058
       0.063
       0.071
       0.079
       0.082
       0.076
       0.063
       0.044
       0.026
       0.008
      -0.015
      -0.046
      -0.081
      -0.110
      -0.128
      -0.135
      -0.133
      -0.126
      -0.114
      -0.096
      -0.071
      -0.043
      -0.013
       0.015
       0.043
       0.070
       0.092
       0.105
       0.109
       0.104
       0.091
       0.073
       0.056
       0.040
       0.024
       0.010
      -0.003
      -0.010
      -0.013
      -0.015
      -0.018
      -0.023
      -0.031
      -0.042
      -0.056
      -0.075
      -0.099
      -0.122
      -0.140
      -0.150
      -0.153
      -0.152
      -0.148
      -0.138
      -0.119
      -0.089
      -0.049
      -0.004
       0.041
       0.082
       0.120
       0.156
       0.189
       0.218
       0.245
       0.273
       0.306
       0.339
       0.372
       0.401
       0.424
       0.439
       0.445
       0.440
       0.422
       0.393
       0.358
       0.319
       0.272
       0.212
       0.136
       0.047
      -0.047
      -0.139
      -0.226
      -0.310
      -0.391
      -0.467
      -0.531
      -0.578
      -0.608
      -0.623
      -0.624
      -0.610
      -0.581
      -0.539
      -0.484
      -0.419
      -0.343
      -0.257
      -0.164
      -0.068
       0.026
       0.111
       0.185
       0.245
       0.291
       0.324
       0.346
       0.358
       0.359
       0.347
       0.329
       0.310
       0.289
       0.264
       0.234
       0.195
       0.150
       0.102
       0.058
       0.022
      -0.005
      -0.021
      -0.024
      -0.016
      -0.005
       0.003
       0.004
       0.003
       0.008
       0.022
       0.050
       0.089
       0.137
       0.186
       0.225
       0.245
       0.243
       0.224
       0.197
       0.166
       0.126
       0.070
      -0.004
      -0.096
      -0.199
      -0.308
      -0.417
      -0.524
      -0.625
      -0.713
      -0.777
      -0.815
      -0.831
      -0.830
      -0.813
      -0.777
      -0.722
      -0.648
      -0.559
      -0.457
      -0.343
      -0.218
      -0.085
       0.046
       0.168
       0.276
       0.376
       0.475
       0.569
       0.651
       0.710
       0.741
       0.746
       0.729
       0.696
       0.648
       0.590
       0.528
       0.468
       0.413
       0.360
       0.305
       0.248
       0.193
       0.144
       0.103
       0.069
       0.040
       0.016
      -0.005
      -0.025
      -0.046
      -0.072
      -0.105
      -0.145
      -0.189
      -0.236
      -0.281
      -0.323
      -0.360
      -0.391
      -0.417
      -0.436
      -0.448
      -0.449
      -0.435
      -0.397
      -0.331
      -0.238
      -0.125
      -0.003
       0.121
       0.240
       0.348
       0.438
       0.504
       0.541
       0.547
       0.528
       0.490
       0.436
       0.365
       0.277
       0.174
       0.065
      -0.046
      -0.152
      -0.253
      -0.346
      -0.424
      -0.479
      -0.504
      -0.500
      -0.473
      -0.430
      -0.376
      -0.315
      -0.255
      -0.199
      -0.146
      -0.096
      -0.047
       0.004
       0.058
       0.115
       0.177
       0.244
       0.310
       0.370
       0.418
       0.454
       0.479
       0.489
       0.484
       0.464
       0.432
       0.394
       0.352
       0.308
       0.263
       0.220
       0.179
       0.144
       0.113
       0.088
       0.067
       0.050
       0.035
       0.014
      -0.015
      -0.053
      -0.091
      -0.126
      -0.158
      -0.189
      -0.218
      -0.241
      -0.253
      -0.246
      -0.222
      -0.183
      -0.136
      -0.088
      -0.045
      -0.012
       0.008
       0.020
       0.025
       0.028
       0.025
       0.015
      -0.003
      -0.029
      -0.061
      -0.093
      -0.121
      -0.143
      -0.164
      -0.187
      -0.211
      -0.234
      -0.250
      -0.258
      -0.257
      -0.253
      -0.252
      -0.253
      -0.252
      -0.245
      -0.230
      -0.206
      -0.177
      -0.150
      -0.132
      -0.131
      -0.147
      -0.174
      -0.207
      -0.237
      -0.256
      -0.263
      -0.257
      -0.237
      -0.201
      -0.148
      -0.082
      -0.004
       0.084
       0.180
       0.278
       0.372
       0.459
       0.534
       0.599
       0.656
       0.706
       0.750
       0.783
       0.804
       0.811
       0.802
       0.773
       0.724
       0.653
       0.559
       0.440
       0.300
       0.143
      -0.029
      -0.212
      -0.404
      -0.600
      -0.789
      -0.960
      -1.102
      -1.208
      -1.276
      -1.310
      -1.312
      -1.281
      -1.216
      -1.118
      -0.989
      -0.835
      -0.664
      -0.478
      -0.276
      -0.058
       0.170
       0.399
       0.617
       0.813
       0.978
       1.104
       1.190
       1.239
       1.253
       1.232
       1.179
       1.101
       1.007
       0.904
       0.796
       0.682
       0.559
       0.425
       0.283
       0.135
      -0.020
      -0.184
      -0.357
      -0.532
      -0.697
      -0.846
      -0.976
      -1.085
      -1.170
      -1.222
      -1.229
      -1.184
      -1.093
      -0.965
      -0.811
      -0.638
      -0.450
      -0.257
      -0.069
       0.103
       0.248
       0.363
       0.448
       0.508
       0.545
       0.558
       0.548
       0.521
       0.488
       0.454
       0.423
       0.395
       0.368
       0.345
       0.329
       0.322
       0.322
       0.325
       0.328
       0.328
       0.326
       0.319
       0.304
       0.273
       0.219
       0.134
       0.020
      -0.115
      -0.266
      -0.426
      -0.590
      -0.748
      -0.890
      -1.003
      -1.076
      -1.101
      -1.074
      -0.995
      -0.863
      -0.680
      -0.454
      -0.194
       0.084
       0.367
       0.641
       0.895
       1.121
       1.313
       1.460
       1.552
       1.583
       1.555
       1.474
       1.347
       1.186
       0.997
       0.788
       0.567
       0.342
       0.123
      -0.080
      -0.264
      -0.425
      -0.561
      -0.669
      -0.743
      -0.786
      -0.805
      -0.813
      -0.816
      -0.814
      -0.807
      -0.794
      -0.780
      -0.767
      -0.749
      -0.718
      -0.671
      -0.605
      -0.522
      -0.421
      -0.300
      -0.160
      -0.009
       0.141
       0.280
       0.407
       0.527
       0.643
       0.751
       0.840
       0.898
       0.921
       0.911
       0.870
       0.800
       0.694
       0.549
       0.367
       0.160
      -0.064
      -0.297
      -0.531
      -0.755
      -0.952
      -1.110
      -1.225
      -1.295
      -1.324
      -1.308
      -1.244
      -1.133
      -0.984
      -0.810
      -0.621
      -0.418
      -0.201
       0.026
       0.252
       0.466
       0.661
       0.833
       0.984
       1.110
       1.204
       1.260
       1.274
       1.249
       1.188
       1.098
       0.984
       0.855
       0.720
       0.584
       0.452
       0.323
       0.194
       0.062
      -0.076
      -0.222
      -0.368
      -0.509
      -0.640
      -0.761
      -0.873
      -0.974
      -1.059
      -1.119
      -1.152
      -1.159
      -1.141
      -1.094
      -1.015
      -0.902
      -0.754
      -0.578
      -0.377
      -0.157
       0.078
       0.318
       0.548
       0.753
       0.922
       1.055
       1.153
       1.217
       1.246
       1.240
       1.201
       1.131
       1.033
       0.905
       0.742
       0.541
       0.306
       0.046
      -0.226
      -0.499
      -0.760
      -0.997
      -1.195
      -1.343
      -1.433
      -1.461
      -1.427
      -1.339
      -1.203
      -1.030
      -0.831
      -0.617
      -0.395
      -0.171
       0.053
       0.270
       0.472
       0.652
       0.803
       0.922
       1.003
       1.047
       1.054
       1.026
       0.967
       0.889
       0.801
       0.714
       0.634
       0.566
       0.508
       0.458
       0.412
       0.370
       0.330
       0.289
       0.242
       0.181
       0.105
       0.014
      -0.083
      -0.180
      -0.269
      -0.345
      -0.404
      -0.441
      -0.456
      -0.454
      -0.440
      -0.416
      -0.381
      -0.335
      -0.274
      -0.197
      -0.107
      -0.018
       0.060
       0.116
       0.148
       0.156
       0.145
       0.118
       0.078
       0.027
      -0.035
      -0.105
      -0.180
      -0.258
      -0.338
      -0.419
      -0.498
      -0.569
      -0.624
      -0.657
      -0.664
      -0.644
      -0.596
      -0.515
      -0.403
      -0.270
      -0.129
       0.007
       0.128
       0.226
       0.298
       0.343
       0.360
       0.345
       0.298
       0.223
       0.128
       0.021
      -0.089
      -0.197
      -0.292
      -0.365
      -0.405
      -0.409
      -0.378
      -0.319
      -0.238
      -0.136
      -0.015
       0.118
       0.249
       0.366
       0.455
       0.511
       0.531
       0.515
       0.467
       0.393
       0.299
       0.194
       0.082
      -0.034
      -0.145
      -0.241
      -0.309
      -0.341
      -0.334
      -0.287
      -0.203
      -0.089
       0.045
       0.184
       0.314
       0.427
       0.520
       0.603
       0.680
       0.752
       0.817
       0.872
       0.918
       0.952
       0.967
       0.958
       0.920
       0.854
       0.765
       0.661
       0.546
       0.418
       0.274
       0.111
      -0.066
      -0.252
      -0.435
      -0.605
      -0.759
      -0.893
      -1.006
      -1.091
      -1.143
      -1.163
      -1.158
      -1.134
      -1.099
      -1.054
      -1.000
      -0.935
      -0.862
      -0.785
      -0.707
      -0.626
      -0.534
      -0.427
      -0.307
      -0.180
      -0.053
       0.073
       0.206
       0.351
       0.501
       0.643
       0.761
       0.850
       0.911
       0.951
       0.971
       0.972
       0.956
       0.923
       0.872
       0.804
       0.717
       0.605
       0.465
       0.300
       0.119
      -0.065
      -0.241
      -0.399
      -0.532
      -0.639
      -0.719
      -0.773
      -0.807
      -0.827
      -0.839
      -0.844
      -0.842
      -0.830
      -0.804
      -0.753
      -0.670
      -0.555
      -0.413
      -0.248
      -0.064
       0.133
       0.336
       0.539
       0.732
       0.908
       1.054
       1.165
       1.236
       1.268
       1.259
       1.209
       1.110
       0.959
       0.761
       0.533
       0.299
       0.083
      -0.104
      -0.258
      -0.383
      -0.479
      -0.546
      -0.581
      -0.590
      -0.581
      -0.558
      -0.523
      -0.475
      -0.415
      -0.348
      -0.277
      -0.200
      -0.121
      -0.042
       0.028
       0.083
       0.120
       0.144
       0.159
       0.166
       0.165
       0.155
       0.140
       0.120
       0.097
       0.072
       0.049
       0.030
       0.013
      -0.002
      -0.017
      -0.030
      -0.041
      -0.051
      -0.057
      -0.063
      -0.075
      -0.102
      -0.145
      -0.201
      -0.260
      -0.311
      -0.347
      -0.364
      -0.364
      -0.351
      -0.327
      -0.291
      -0.249
      -0.204
      -0.159
      -0.109
      -0.048
       0.028
       0.118
       0.219
       0.329
       0.445
       0.563
       0.674
       0.764
       0.826
       0.856
       0.852
       0.816
       0.746
       0.646
       0.519
       0.369
       0.198
       0.010
      -0.184
      -0.373
      -0.540
      -0.671
      -0.756
      -0.794
      -0.788
      -0.742
      -0.665
      -0.571
      -0.467
      -0.360
      -0.249
      -0.139
