Origin Time       06/07/2010 19:08:20 UTC
Lat.              29.8 N	
Long.             80.4 E	
Depth (Km)         10.0
Magnitude         5.1
 Region           INDIA-NEPAL                                                      
 Above details taken from IMD 
    
Station Code      CHP
Station Lat.       29.334  N
Station Long.      80.095  E
Station Height(m) 1635.0
Site Class        A   Vs30 between 700 m/sec to 1400 m/sec * 
Record Time       06.07.2010 19:08:29.599 UTC
Sampling Rate     200. Hz
 Record Duration   66.660 Sec.
 Direction         N-S (N positive)
Max. Acceleration     -2.716 cm/sec**2
     
  * For reference see Site Classification link of website 
     
 Base Line Corrected and Low Pass Filtered (Cut Off at 35 Hz) Time History
 Acceleration data in cm/sec**2
    
[...]
      -0.091
      -0.118
      -0.142
      -0.166
      -0.194
      -0.226
      -0.259
      -0.286
      -0.297
      -0.286
      -0.247
      -0.183
      -0.099
      -0.009
       0.078
       0.154
       0.217
       0.265
       0.292
       0.297
       0.278
       0.241
       0.191
       0.135
       0.079
       0.028
      -0.016
      -0.052
      -0.081
      -0.107
      -0.130
      -0.150
      -0.162
      -0.166
      -0.157
      -0.137
      -0.106
      -0.069
      -0.034
      -0.014
      -0.019
      -0.050
      -0.095
      -0.135
      -0.154
      -0.143
      -0.108
      -0.063
      -0.020
       0.010
       0.023
       0.020
       0.010
       0.000
      -0.003
       0.004
       0.018
       0.038
       0.058
       0.070
       0.070
       0.061
       0.053
       0.059
       0.087
       0.135
       0.190
       0.235
       0.264
       0.282
       0.296
       0.313
       0.332
       0.344
       0.337
       0.298
       0.227
       0.133
       0.032
      -0.055
      -0.115
      -0.140
      -0.135
      -0.112
      -0.083
      -0.057
      -0.035
      -0.015
       0.005
       0.028
       0.052
       0.080
       0.113
       0.150
       0.186
       0.210
       0.215
       0.196
       0.162
       0.125
       0.092
       0.064
       0.030
      -0.021
      -0.096
      -0.193
      -0.297
      -0.391
      -0.457
      -0.482
      -0.462
      -0.407
      -0.336
      -0.267
      -0.210
      -0.161
      -0.113
      -0.055
       0.018
       0.108
       0.209
       0.311
       0.398
       0.455
       0.474
       0.449
       0.385
       0.291
       0.181
       0.068
      -0.042
      -0.146
      -0.242
      -0.331
      -0.411
      -0.476
      -0.519
      -0.531
      -0.504
      -0.440
      -0.348
      -0.241
      -0.136
      -0.044
       0.031
       0.093
       0.148
       0.199
       0.246
       0.288
       0.320
       0.337
       0.335
       0.314
       0.280
       0.240
       0.204
       0.171
       0.135
       0.091
       0.033
      -0.035
      -0.102
      -0.154
      -0.175
      -0.155
      -0.091
       0.005
       0.111
       0.200
       0.253
       0.261
       0.228
       0.169
       0.100
       0.036
      -0.016
      -0.053
      -0.079
      -0.096
      -0.109
      -0.125
      -0.146
      -0.174
      -0.207
      -0.235
      -0.248
      -0.235
      -0.194
      -0.132
      -0.063
      -0.001
       0.047
       0.084
       0.112
       0.136
       0.157
       0.177
       0.200
       0.230
       0.270
       0.312
       0.345
       0.353
       0.331
       0.279
       0.206
       0.118
       0.017
      -0.094
      -0.211
      -0.327
      -0.431
      -0.515
      -0.568
      -0.588
      -0.576
      -0.539
      -0.484
      -0.420
      -0.350
      -0.274
      -0.189
      -0.090
       0.026
       0.150
       0.271
       0.376
       0.457
       0.509
       0.533
       0.534
       0.514
       0.475
       0.424
       0.365
       0.303
       0.239
       0.170
       0.094
       0.013
      -0.069
      -0.145
      -0.206
      -0.243
      -0.248
      -0.225
      -0.184
      -0.143
      -0.113
      -0.097
      -0.087
      -0.075
      -0.053
      -0.025
       0.004
       0.024
       0.033
       0.033
       0.030
       0.029
       0.031
       0.035
       0.042
       0.049
       0.056
       0.063
       0.068
       0.070
       0.068
       0.064
       0.057
       0.045
       0.023
      -0.011
      -0.050
      -0.082
      -0.098
      -0.094
      -0.075
      -0.047
      -0.015
       0.016
       0.044
       0.068
       0.087
       0.096
       0.089
       0.063
       0.022
      -0.023
      -0.059
      -0.080
      -0.086
      -0.085
      -0.081
      -0.079
      -0.081
      -0.087
      -0.095
      -0.098
      -0.090
      -0.064
      -0.022
       0.026
       0.064
       0.081
       0.072
       0.047
       0.020
       0.008
       0.020
       0.054
       0.098
       0.131
       0.140
       0.124
       0.095
       0.067
       0.052
       0.050
       0.063
       0.086
       0.115
       0.145
       0.166
       0.171
       0.159
       0.134
       0.106
       0.085
       0.074
       0.068
       0.058
       0.038
       0.014
      -0.009
      -0.024
      -0.032
      -0.039
      -0.053
      -0.085
      -0.141
      -0.217
      -0.301
      -0.378
      -0.438
      -0.475
      -0.492
      -0.491
      -0.473
      -0.438
      -0.381
      -0.298
      -0.192
      -0.073
       0.044
       0.149
       0.236
       0.305
       0.359
       0.401
       0.432
       0.450
       0.458
       0.458
       0.447
       0.424
       0.384
       0.327
       0.254
       0.164
       0.060
      -0.055
      -0.171
      -0.275
      -0.359
      -0.419
      -0.458
      -0.483
      -0.497
      -0.499
      -0.487
      -0.461
      -0.420
      -0.367
      -0.304
      -0.235
      -0.163
      -0.086
       0.000
       0.096
       0.200
       0.304
       0.397
       0.472
       0.524
       0.552
       0.557
       0.537
       0.492
       0.424
       0.334
       0.230
       0.123
       0.025
      -0.062
      -0.136
      -0.198
      -0.248
      -0.281
      -0.295
      -0.293
      -0.277
      -0.252
      -0.221
      -0.184
      -0.144
      -0.101
      -0.056
      -0.010
       0.033
       0.070
       0.100
       0.126
       0.150
       0.170
       0.186
       0.194
       0.193
       0.178
       0.146
       0.095
       0.029
      -0.045
      -0.119
      -0.183
      -0.226
      -0.242
      -0.233
      -0.205
      -0.168
      -0.127
      -0.083
      -0.034
       0.018
       0.065
       0.100
       0.118
       0.126
       0.130
       0.137
       0.148
       0.158
       0.166
       0.172
       0.181
       0.198
       0.222
       0.251
       0.276
       0.288
       0.279
       0.247
       0.193
       0.126
       0.052
      -0.022
      -0.088
      -0.144
      -0.189
      -0.230
      -0.274
      -0.321
      -0.368
      -0.406
      -0.430
      -0.437
      -0.428
      -0.405
      -0.367
      -0.315
      -0.250
      -0.180
      -0.110
      -0.044
       0.017
       0.071
       0.117
       0.151
       0.167
       0.163
       0.139
       0.099
       0.049
      -0.005
      -0.060
      -0.115
      -0.169
      -0.219
      -0.258
      -0.280
      -0.283
      -0.270
      -0.249
      -0.219
      -0.176
      -0.117
      -0.040
       0.047
       0.132
       0.206
       0.268
       0.321
       0.367
       0.405
       0.432
       0.447
       0.453
       0.447
       0.429
       0.398
       0.359
       0.315
       0.267
       0.211
       0.138
       0.051
      -0.041
      -0.125
      -0.193
      -0.247
      -0.291
      -0.329
      -0.364
      -0.400
      -0.440
      -0.484
      -0.526
      -0.555
      -0.560
      -0.538
      -0.487
      -0.415
      -0.331
      -0.246
      -0.165
      -0.093
      -0.026
       0.044
       0.120
       0.199
       0.272
       0.325
       0.348
       0.344
       0.321
       0.293
       0.270
       0.256
       0.255
       0.264
       0.275
       0.279
       0.267
       0.239
       0.203
       0.169
       0.146
       0.134
       0.129
       0.125
       0.117
       0.103
       0.083
       0.056
       0.020
      -0.030
      -0.096
      -0.175
      -0.257
      -0.332
      -0.395
      -0.444
      -0.481
      -0.502
      -0.506
      -0.493
      -0.468
      -0.438
      -0.407
      -0.376
      -0.343
      -0.301
      -0.247
      -0.177
      -0.091
       0.004
       0.101
       0.191
       0.266
       0.320
       0.351
       0.361
       0.348
       0.315
       0.270
       0.227
       0.197
       0.182
       0.173
       0.162
       0.147
       0.133
       0.130
       0.142
       0.169
       0.206
       0.244
       0.272
       0.278
       0.250
       0.188
       0.099
       0.002
      -0.085
      -0.151
      -0.192
      -0.214
      -0.225
      -0.239
      -0.261
      -0.293
      -0.330
      -0.364
      -0.388
      -0.397
      -0.385
      -0.353
      -0.302
      -0.238
      -0.166
      -0.089
      -0.011
       0.066
       0.137
       0.195
       0.238
       0.269
       0.293
       0.316
       0.338
       0.360
       0.381
       0.403
       0.426
       0.449
       0.469
       0.479
       0.476
       0.457
       0.425
       0.384
       0.339
       0.293
       0.246
       0.197
       0.145
       0.089
       0.022
      -0.060
      -0.158
      -0.273
      -0.395
      -0.517
      -0.629
      -0.723
      -0.798
      -0.858
      -0.910
      -0.954
      -0.985
      -0.988
      -0.950
      -0.866
      -0.738
      -0.577
      -0.396
      -0.207
      -0.022
       0.152
       0.308
       0.451
       0.583
       0.705
       0.809
       0.885
       0.924
       0.925
       0.887
       0.815
       0.714
       0.594
       0.464
       0.342
       0.241
       0.170
       0.127
       0.103
       0.089
       0.078
       0.072
       0.074
       0.086
       0.107
       0.135
       0.165
       0.195
       0.222
       0.243
       0.255
       0.259
       0.258
       0.259
       0.264
       0.271
       0.271
       0.260
       0.239
       0.211
       0.183
       0.159
       0.136
       0.112
       0.082
       0.043
      -0.005
      -0.064
      -0.134
      -0.216
      -0.304
      -0.395
      -0.482
      -0.566
      -0.648
      -0.724
      -0.794
      -0.854
      -0.900
      -0.925
      -0.918
      -0.872
      -0.790
      -0.685
      -0.573
      -0.467
      -0.376
      -0.299
      -0.228
      -0.152
      -0.069
       0.020
       0.104
       0.175
       0.231
       0.273
       0.305
       0.328
       0.343
       0.348
       0.345
       0.334
       0.313
       0.278
       0.226
       0.154
       0.064
      -0.034
      -0.126
      -0.194
      -0.224
      -0.214
      -0.170
      -0.103
      -0.026
       0.051
       0.121
       0.177
       0.218
       0.250
       0.277
       0.304
       0.326
       0.340
       0.341
       0.332
       0.318
       0.310
       0.313
       0.331
       0.365
       0.418
       0.490
       0.577
       0.666
       0.741
       0.784
       0.786
       0.747
       0.666
       0.546
       0.394
       0.224
       0.052
      -0.110
      -0.251
      -0.360
      -0.428
      -0.445
      -0.410
      -0.328
      -0.211
      -0.077
       0.051
       0.151
       0.206
       0.211
       0.167
       0.083
      -0.027
      -0.148
      -0.265
      -0.368
      -0.449
      -0.508
      -0.550
      -0.585
      -0.625
      -0.681
      -0.755
      -0.841
      -0.926
      -0.997
      -1.045
      -1.061
      -1.037
      -0.971
      -0.867
      -0.737
      -0.598
      -0.463
      -0.341
      -0.235
      -0.139
      -0.046
       0.055
       0.168
       0.294
       0.425
       0.552
       0.671
       0.780
       0.876
       0.950
       0.988
       0.975
       0.905
       0.783
       0.620
       0.430
       0.231
       0.036
      -0.143
      -0.296
      -0.421
      -0.521
      -0.602
      -0.672
      -0.731
      -0.766
      -0.765
      -0.720
      -0.633
      -0.515
      -0.379
      -0.233
      -0.085
       0.058
       0.186
       0.292
       0.370
       0.419
       0.439
       0.434
       0.405
       0.357
       0.295
       0.225
       0.154
       0.081
       0.006
      -0.076
      -0.163
      -0.252
      -0.338
      -0.416
      -0.480
      -0.520
      -0.528
      -0.505
      -0.457
      -0.392
      -0.319
      -0.238
      -0.156
      -0.075
      -0.001
       0.067
       0.133
       0.202
       0.274
       0.341
       0.391
       0.420
       0.432
       0.434
       0.434
       0.433
       0.430
       0.418
       0.392
       0.350
       0.298
       0.247
       0.206
       0.181
       0.168
       0.163
       0.163
       0.166
       0.168
       0.159
       0.136
       0.099
       0.057
       0.019
      -0.011
      -0.031
      -0.046
      -0.059
      -0.075
      -0.101
      -0.140
      -0.195
      -0.260
      -0.328
      -0.395
      -0.457
      -0.515
      -0.568
      -0.614
      -0.649
      -0.669
      -0.673
      -0.661
      -0.635
      -0.595
      -0.544
      -0.486
      -0.429
      -0.379
      -0.337
      -0.298
      -0.253
      -0.191
      -0.098
       0.038
       0.217
       0.427
       0.646
       0.847
       1.012
       1.129
       1.199
       1.221
       1.198
       1.131
       1.031
       0.912
       0.790
       0.679
       0.584
       0.505
       0.436
       0.368
       0.288
       0.186
       0.060
      -0.090
      -0.254
      -0.422
      -0.575
      -0.694
      -0.762
      -0.765
      -0.699
      -0.566
      -0.374
      -0.131
       0.151
       0.459
       0.777
       1.084
       1.356
       1.571
       1.715
       1.781
       1.768
       1.682
       1.524
       1.299
       1.010
       0.665
       0.273
      -0.156
      -0.606
      -1.055
      -1.480
      -1.860
      -2.181
      -2.432
      -2.607
      -2.702
      -2.716
      -2.652
      -2.514
      -2.310
      -2.047
      -1.728
      -1.347
      -0.898
      -0.385
       0.171
       0.735
       1.270
       1.744
       2.138
       2.437
       2.630
       2.708
       2.669
       2.518
       2.273
       1.953
       1.574
       1.155
       0.708
       0.248
      -0.217
      -0.680
      -1.133
      -1.562
      -1.943
      -2.248
      -2.451
      -2.533
      -2.484
      -2.302
      -1.997
      -1.587
      -1.101
      -0.581
      -0.068
       0.404
       0.813
       1.155
       1.433
       1.653
       1.818
       1.923
       1.962
       1.933
       1.834
       1.672
       1.455
       1.196
       0.912
       0.619
       0.331
       0.049
      -0.227
      -0.499
      -0.767
      -1.028
      -1.275
      -1.496
      -1.678
      -1.806
      -1.872
      -1.873
      -1.815
      -1.713
      -1.588
      -1.463
      -1.357
      -1.278
      -1.219
      -1.161
      -1.083
      -0.969
      -0.816
      -0.630
      -0.421
      -0.197
       0.030
       0.247
       0.440
       0.596
       0.713
       0.795
       0.854
       0.903
       0.952
       1.003
       1.057
       1.106
       1.143
       1.158
       1.134
       1.059
       0.928
       0.746
       0.532
       0.309
       0.099
      -0.085
      -0.235
      -0.346
      -0.412
      -0.429
      -0.397
      -0.324
      -0.222
      -0.105
       0.012
       0.114
       0.192
       0.239
       0.257
       0.250
       0.217
       0.154
       0.052
      -0.089
      -0.264
      -0.460
      -0.655
      -0.828
      -0.957
      -1.028
      -1.034
      -0.977
      -0.863
      -0.699
      -0.494
      -0.259
      -0.004
       0.255
       0.507
       0.744
       0.955
       1.130
       1.259
       1.338
       1.367
       1.349
       1.284
       1.172
       1.012
       0.807
       0.565
       0.301
       0.031
      -0.230
      -0.468
      -0.676
      -0.854
      -1.002
      -1.121
      -1.205
      -1.246
      -1.236
      -1.179
      -1.082
      -0.949
      -0.780
      -0.574
      -0.338
      -0.086
       0.168
       0.413
       0.643
       0.852
       1.034
       1.184
       1.302
       1.389
       1.442
       1.452
       1.410
       1.312
       1.161
       0.964
       0.725
       0.448
       0.141
      -0.185
      -0.513
      -0.821
      -1.087
      -1.291
      -1.421
      -1.472
      -1.447
      -1.356
      -1.203
      -0.993
      -0.728
      -0.415
      -0.075
       0.263
       0.570
       0.821
       1.000
       1.099
       1.124
       1.086
       1.006
       0.902
       0.787
       0.676
       0.579
       0.504
       0.449
       0.396
       0.324
       0.215
       0.067
      -0.101
      -0.269
      -0.419
      -0.545
      -0.646
      -0.722
      -0.773
      -0.795
      -0.786
      -0.750
      -0.688
      -0.606
      -0.509
      -0.399
      -0.275
      -0.142
      -0.008
       0.114
       0.212
       0.287
       0.345
       0.399
       0.460
       0.529
       0.607
       0.688
       0.763
       0.818
       0.841
       0.819
       0.753
       0.650
       0.521
       0.377
       0.221
       0.056
      -0.114
      -0.282
      -0.436
      -0.564
      -0.666
      -0.747
      -0.819
      -0.886
      -0.940
      -0.967
      -0.947
      -0.870
      -0.731
      -0.538
      -0.300
      -0.030
       0.256
       0.537
       0.786
       0.977
       1.092
       1.120
       1.061
       0.924
       0.723
       0.470
       0.175
      -0.152
      -0.502
      -0.856
      -1.190
      -1.478
      -1.702
      -1.848
      -1.910
      -1.887
      -1.788
      -1.625
      -1.416
      -1.175
      -0.910
      -0.618
      -0.294
       0.067
       0.455
       0.851
       1.224
       1.540
       1.774
       1.908
       1.935
       1.855
       1.678
       1.421
       1.107
       0.763
       0.416
       0.088
      -0.207
      -0.459
      -0.667
      -0.831
      -0.952
      -1.033
      -1.080
      -1.099
      -1.091
      -1.050
      -0.969
      -0.837
      -0.653
      -0.424
      -0.163
       0.113
       0.386
       0.640
       0.862
       1.041
       1.172
       1.254
       1.290
       1.284
       1.233
       1.135
       0.984
       0.785
       0.551
       0.311
       0.093
      -0.076
      -0.187
      -0.243
      -0.254
      -0.233
      -0.192
      -0.144
      -0.098
      -0.063
      -0.044
      -0.045
      -0.075
      -0.138
      -0.231
      -0.346
      -0.474
      -0.609
      -0.740
      -0.854
      -0.933
      -0.964
      -0.942
      -0.869
      -0.748
      -0.588
      -0.400
      -0.199
       0.001
       0.196
       0.381
       0.551
       0.692
       0.789
       0.830
       0.818
       0.764
       0.684
       0.592
       0.490
       0.378
       0.256
       0.129
       0.003
      -0.114
      -0.219
      -0.308
      -0.380
      -0.432
      -0.460
      -0.462
      -0.436
      -0.383
      -0.308
      -0.223
      -0.141
      -0.071
      -0.021
       0.010
       0.028
       0.035
       0.032
       0.013
      -0.025
      -0.081
      -0.152
      -0.228
      -0.300
      -0.354
      -0.379
      -0.367
      -0.320
      -0.247
      -0.153
      -0.044
       0.075
       0.201
       0.329
       0.448
       0.550
       0.627
       0.673
       0.688
       0.677
       0.648
       0.612
       0.573
       0.531
       0.478
       0.409
       0.327
       0.238
       0.155
       0.086
       0.035
      -0.002
      -0.029
      -0.055
      -0.086
      -0.123
      -0.170
      -0.225
      -0.286
      -0.348
      -0.405
