Origin Time       09/01/2013 07:44:20 UTC
Lat.              29.75 N
Long.             81.74 E
Depth (Km)         34.0
Magnitude         5.0
 Region           NEPAL                                                            
 Above details taken from IIT 
    
Station Code      CHP
Station Lat.       29.334  N
Station Long.      80.095  E
Station Height(m) 1635.0
Site Class        A   Vs30 between 700 m/sec to 1400 m/sec * 
Record Time       09.01.2013 07:44:51.789 UTC
Sampling Rate     200. Hz
 Record Duration   67.965 Sec.
 Direction         N-S (N positive)
Max. Acceleration      2.987 cm/sec**2
     
  * For reference see Site Classification link of website 
     
 Base Line Corrected and Low Pass Filtered (Cut Off at 35 Hz) Time History
 Acceleration data in cm/sec**2
    
[...]
       0.363
       0.313
       0.240
       0.147
       0.043
      -0.057
      -0.145
      -0.216
      -0.267
      -0.301
      -0.328
      -0.348
      -0.356
      -0.341
      -0.306
      -0.257
      -0.197
      -0.131
      -0.064
       0.000
       0.055
       0.099
       0.125
       0.131
       0.126
       0.118
       0.112
       0.108
       0.106
       0.105
       0.095
       0.065
       0.015
      -0.048
      -0.113
      -0.171
      -0.212
      -0.232
      -0.229
      -0.199
      -0.135
      -0.036
       0.083
       0.207
       0.320
       0.409
       0.461
       0.473
       0.453
       0.413
       0.360
       0.294
       0.221
       0.148
       0.077
       0.008
      -0.058
      -0.123
      -0.189
      -0.254
      -0.310
      -0.348
      -0.368
      -0.373
      -0.363
      -0.337
      -0.300
      -0.256
      -0.205
      -0.154
      -0.113
      -0.088
      -0.082
      -0.092
      -0.117
      -0.154
      -0.194
      -0.235
      -0.276
      -0.312
      -0.330
      -0.318
      -0.275
      -0.211
      -0.136
      -0.062
       0.004
       0.062
       0.110
       0.141
       0.143
       0.117
       0.080
       0.057
       0.061
       0.092
       0.145
       0.203
       0.248
       0.266
       0.256
       0.221
       0.164
       0.093
       0.022
      -0.042
      -0.099
      -0.148
      -0.185
      -0.208
      -0.215
      -0.206
      -0.180
      -0.143
      -0.103
      -0.065
      -0.032
      -0.005
       0.010
       0.015
       0.021
       0.037
       0.065
       0.107
       0.162
       0.225
       0.283
       0.320
       0.328
       0.300
       0.237
       0.153
       0.069
      -0.001
      -0.049
      -0.076
      -0.080
      -0.066
      -0.047
      -0.032
      -0.024
      -0.024
      -0.032
      -0.048
      -0.063
      -0.067
      -0.056
      -0.026
       0.019
       0.066
       0.099
       0.112
       0.107
       0.087
       0.055
       0.016
      -0.022
      -0.057
      -0.093
      -0.128
      -0.149
      -0.144
      -0.109
      -0.051
       0.017
       0.077
       0.113
       0.124
       0.122
       0.118
       0.119
       0.128
       0.145
       0.166
       0.182
       0.190
       0.190
       0.179
       0.147
       0.094
       0.033
      -0.025
      -0.078
      -0.126
      -0.168
      -0.203
      -0.224
      -0.227
      -0.206
      -0.167
      -0.124
      -0.081
      -0.041
      -0.005
       0.021
       0.035
       0.041
       0.043
       0.042
       0.042
       0.045
       0.052
       0.059
       0.062
       0.058
       0.042
       0.012
      -0.018
      -0.032
      -0.022
       0.010
       0.054
       0.104
       0.157
       0.208
       0.256
       0.303
       0.348
       0.391
       0.427
       0.445
       0.427
       0.358
       0.239
       0.088
      -0.075
      -0.236
      -0.383
      -0.504
      -0.589
      -0.631
      -0.630
      -0.599
      -0.557
      -0.520
      -0.483
      -0.431
      -0.355
      -0.262
      -0.157
      -0.038
       0.099
       0.257
       0.429
       0.599
       0.748
       0.853
       0.906
       0.904
       0.842
       0.721
       0.551
       0.352
       0.145
      -0.058
      -0.249
      -0.424
      -0.587
      -0.745
      -0.896
      -1.035
      -1.158
      -1.258
      -1.321
      -1.329
      -1.273
      -1.155
      -0.988
      -0.791
      -0.586
      -0.394
      -0.226
      -0.087
       0.020
       0.094
       0.144
       0.186
       0.231
       0.279
       0.331
       0.380
       0.418
       0.437
       0.437
       0.421
       0.393
       0.358
       0.330
       0.324
       0.340
       0.370
       0.409
       0.454
       0.501
       0.549
       0.591
       0.621
       0.623
       0.589
       0.521
       0.425
       0.303
       0.162
       0.018
      -0.109
      -0.205
      -0.271
      -0.306
      -0.309
      -0.277
      -0.209
      -0.108
       0.016
       0.151
       0.288
       0.429
       0.574
       0.713
       0.829
       0.914
       0.967
       0.989
       0.983
       0.949
       0.883
       0.780
       0.644
       0.483
       0.307
       0.120
      -0.074
      -0.264
      -0.434
      -0.575
      -0.681
      -0.744
      -0.749
      -0.686
      -0.550
      -0.345
      -0.091
       0.179
       0.428
       0.636
       0.792
       0.899
       0.966
       1.008
       1.033
       1.032
       0.995
       0.917
       0.801
       0.650
       0.470
       0.266
       0.046
      -0.186
      -0.423
      -0.655
      -0.876
      -1.091
      -1.303
      -1.504
      -1.678
      -1.811
      -1.893
      -1.921
      -1.893
      -1.817
      -1.699
      -1.543
      -1.361
      -1.171
      -0.996
      -0.852
      -0.749
      -0.698
      -0.694
      -0.714
      -0.724
      -0.704
      -0.648
      -0.564
      -0.461
      -0.353
      -0.247
      -0.149
      -0.064
       0.003
       0.056
       0.110
       0.181
       0.268
       0.364
       0.459
       0.548
       0.625
       0.690
       0.748
       0.797
       0.831
       0.849
       0.862
       0.883
       0.911
       0.933
       0.932
       0.896
       0.817
       0.697
       0.547
       0.380
       0.215
       0.074
      -0.015
      -0.042
      -0.020
       0.024
       0.070
       0.109
       0.137
       0.156
       0.170
       0.180
       0.179
       0.164
       0.136
       0.098
       0.041
      -0.041
      -0.151
      -0.287
      -0.450
      -0.634
      -0.817
      -0.973
      -1.079
      -1.117
      -1.084
      -0.992
      -0.866
      -0.731
      -0.602
      -0.487
      -0.390
      -0.311
      -0.239
      -0.157
      -0.050
       0.093
       0.276
       0.491
       0.722
       0.962
       1.205
       1.439
       1.636
       1.771
       1.831
       1.816
       1.726
       1.565
       1.331
       1.025
       0.646
       0.209
      -0.264
      -0.747
      -1.214
      -1.637
      -1.984
      -2.235
      -2.383
      -2.424
      -2.353
      -2.171
      -1.889
      -1.522
      -1.091
      -0.621
      -0.148
       0.292
       0.667
       0.950
       1.129
       1.212
       1.225
       1.195
       1.136
       1.055
       0.959
       0.856
       0.751
       0.648
       0.550
       0.456
       0.365
       0.289
       0.248
       0.257
       0.316
       0.419
       0.555
       0.707
       0.853
       0.970
       1.046
       1.073
       1.046
       0.965
       0.829
       0.636
       0.387
       0.089
      -0.239
      -0.580
      -0.923
      -1.250
      -1.535
      -1.758
      -1.907
      -1.980
      -1.977
      -1.902
      -1.758
      -1.542
      -1.246
      -0.875
      -0.450
       0.006
       0.465
       0.903
       1.293
       1.617
       1.863
       2.014
       2.053
       1.969
       1.761
       1.436
       1.011
       0.514
      -0.017
      -0.541
      -1.020
      -1.416
      -1.698
      -1.850
      -1.872
      -1.770
      -1.555
      -1.249
      -0.883
      -0.483
      -0.074
       0.318
       0.663
       0.940
       1.135
       1.246
       1.271
       1.220
       1.104
       0.936
       0.732
       0.506
       0.274
       0.045
      -0.176
      -0.379
      -0.554
      -0.701
      -0.815
      -0.882
      -0.883
      -0.817
      -0.703
      -0.572
      -0.447
      -0.339
      -0.249
      -0.173
      -0.109
      -0.065
      -0.055
      -0.084
      -0.150
      -0.250
      -0.381
      -0.529
      -0.677
      -0.815
      -0.938
      -1.035
      -1.092
      -1.097
      -1.053
      -0.966
      -0.845
      -0.699
      -0.532
      -0.338
      -0.106
       0.161
       0.446
       0.722
       0.965
       1.153
       1.277
       1.341
       1.358
       1.332
       1.258
       1.137
       0.970
       0.766
       0.534
       0.294
       0.070
      -0.123
      -0.276
      -0.388
      -0.456
      -0.481
      -0.458
      -0.383
      -0.254
      -0.084
       0.111
       0.318
       0.527
       0.720
       0.874
       0.978
       1.037
       1.064
       1.075
       1.079
       1.078
       1.056
       0.996
       0.889
       0.734
       0.530
       0.286
       0.022
      -0.236
      -0.472
      -0.680
      -0.866
      -1.034
      -1.190
      -1.326
      -1.429
      -1.482
      -1.474
      -1.397
      -1.236
      -0.982
      -0.651
      -0.284
       0.071
       0.376
       0.604
       0.751
       0.830
       0.862
       0.859
       0.832
       0.792
       0.748
       0.693
       0.612
       0.489
       0.314
       0.077
      -0.221
      -0.573
      -0.954
      -1.333
      -1.670
      -1.922
      -2.057
      -2.072
      -1.977
      -1.780
      -1.485
      -1.099
      -0.645
      -0.159
       0.319
       0.754
       1.125
       1.431
       1.669
       1.837
       1.933
       1.963
       1.936
       1.855
       1.716
       1.523
       1.288
       1.028
       0.761
       0.505
       0.274
       0.077
      -0.078
      -0.185
      -0.249
      -0.294
      -0.348
      -0.420
      -0.504
      -0.589
      -0.665
      -0.729
      -0.777
      -0.806
      -0.804
      -0.767
      -0.706
      -0.649
      -0.620
      -0.619
      -0.630
      -0.640
      -0.637
      -0.610
      -0.548
      -0.449
      -0.326
      -0.200
      -0.099
      -0.038
      -0.010
       0.010
       0.043
       0.092
       0.149
       0.221
       0.318
       0.447
       0.605
       0.781
       0.953
       1.098
       1.193
       1.223
       1.178
       1.053
       0.853
       0.603
       0.330
       0.052
      -0.224
      -0.498
      -0.772
      -1.045
      -1.303
      -1.519
      -1.667
      -1.732
      -1.703
      -1.580
      -1.376
      -1.118
      -0.832
      -0.537
      -0.242
       0.043
       0.308
       0.553
       0.777
       0.978
       1.148
       1.276
       1.339
       1.311
       1.174
       0.935
       0.613
       0.241
      -0.143
      -0.495
      -0.781
      -0.983
      -1.087
      -1.081
      -0.954
      -0.711
      -0.365
       0.052
       0.496
       0.911
       1.247
       1.471
       1.570
       1.541
       1.397
       1.163
       0.867
       0.532
       0.178
      -0.174
      -0.510
      -0.814
      -1.065
      -1.233
      -1.298
      -1.257
      -1.113
      -0.879
      -0.578
      -0.249
       0.062
       0.321
       0.509
       0.627
       0.692
       0.718
       0.705
       0.637
       0.501
       0.298
       0.040
      -0.259
      -0.576
      -0.876
      -1.129
      -1.315
      -1.420
      -1.439
      -1.378
      -1.249
      -1.062
      -0.826
      -0.557
      -0.282
      -0.025
       0.199
       0.385
       0.528
       0.630
       0.700
       0.746
       0.774
       0.789
       0.801
       0.811
       0.815
       0.804
       0.765
       0.679
       0.528
       0.313
       0.057
      -0.210
      -0.465
      -0.690
      -0.872
      -1.005
      -1.089
      -1.123
      -1.109
      -1.051
      -0.950
      -0.796
      -0.575
      -0.285
       0.059
       0.433
       0.811
       1.167
       1.473
       1.710
       1.864
       1.926
       1.892
       1.764
       1.550
       1.258
       0.900
       0.498
       0.086
      -0.304
      -0.647
      -0.920
      -1.108
      -1.212
      -1.250
      -1.240
      -1.189
      -1.093
      -0.948
      -0.755
      -0.521
      -0.270
      -0.034
       0.160
       0.296
       0.367
       0.383
       0.366
       0.348
       0.345
       0.347
       0.333
       0.287
       0.196
       0.067
      -0.082
      -0.222
      -0.333
      -0.397
      -0.398
      -0.321
      -0.166
       0.045
       0.284
       0.524
       0.743
       0.923
       1.053
       1.124
       1.124
       1.044
       0.890
       0.673
       0.399
       0.072
      -0.293
      -0.673
      -1.035
      -1.355
      -1.605
      -1.770
      -1.842
      -1.830
      -1.747
      -1.608
      -1.429
      -1.225
      -0.997
      -0.743
      -0.462
      -0.162
       0.153
       0.480
       0.811
       1.125
       1.400
       1.611
       1.736
       1.760
       1.686
       1.520
       1.266
       0.932
       0.546
       0.161
      -0.172
      -0.415
      -0.559
      -0.623
      -0.640
      -0.648
      -0.663
      -0.684
      -0.695
      -0.673
      -0.589
      -0.418
      -0.159
       0.166
       0.526
       0.885
       1.194
       1.402
       1.473
       1.390
       1.164
       0.823
       0.408
      -0.043
      -0.506
      -0.959
      -1.376
      -1.725
      -1.980
      -2.121
      -2.134
      -2.010
      -1.752
      -1.373
      -0.893
      -0.344
       0.229
       0.772
       1.243
       1.615
       1.869
       1.991
       1.973
       1.819
       1.545
       1.177
       0.754
       0.307
      -0.144
      -0.588
      -1.009
      -1.397
      -1.751
      -2.066
      -2.326
      -2.497
      -2.540
      -2.425
      -2.140
      -1.693
      -1.122
      -0.478
       0.188
       0.831
       1.413
       1.912
       2.322
       2.643
       2.865
       2.980
       2.987
       2.895
       2.711
       2.438
       2.088
       1.673
       1.206
       0.702
       0.182
      -0.332
      -0.818
      -1.257
      -1.630
      -1.925
      -2.150
      -2.314
      -2.414
      -2.436
      -2.359
      -2.172
      -1.864
      -1.441
      -0.925
      -0.352
       0.231
       0.769
       1.204
       1.497
       1.633
       1.627
       1.500
       1.283
       1.008
       0.706
       0.399
       0.106
      -0.155
      -0.369
      -0.535
      -0.658
      -0.740
      -0.780
      -0.780
      -0.744
      -0.673
      -0.570
      -0.439
      -0.280
      -0.093
       0.109
       0.298
       0.449
       0.552
       0.609
       0.629
       0.616
       0.581
       0.531
       0.471
       0.405
       0.337
       0.271
       0.205
       0.141
       0.086
       0.034
      -0.028
      -0.109
      -0.199
      -0.274
      -0.310
      -0.298
      -0.243
      -0.157
      -0.054
       0.060
       0.189
       0.332
       0.474
       0.597
       0.693
       0.751
       0.756
       0.689
       0.539
       0.306
       0.003
      -0.342
      -0.693
      -1.011
      -1.263
      -1.424
      -1.483
      -1.453
      -1.365
      -1.246
      -1.104
      -0.930
      -0.722
      -0.483
      -0.226
       0.033
       0.276
       0.490
       0.673
       0.823
       0.935
       1.004
       1.026
       0.984
       0.857
       0.636
       0.341
       0.017
      -0.285
      -0.521
      -0.664
      -0.710
      -0.672
      -0.566
      -0.411
      -0.232
      -0.059
       0.086
       0.202
       0.301
       0.395
       0.491
       0.587
       0.675
       0.736
       0.756
       0.726
       0.641
       0.501
       0.310
       0.082
      -0.175
      -0.455
      -0.741
      -1.002
      -1.201
      -1.311
      -1.313
      -1.204
      -0.993
      -0.703
      -0.357
       0.022
       0.405
       0.754
       1.040
       1.241
       1.348
       1.354
       1.267
       1.111
       0.909
       0.680
       0.437
       0.194
      -0.032
      -0.224
      -0.367
      -0.453
      -0.486
      -0.476
      -0.425
      -0.328
      -0.184
      -0.008
       0.174
       0.344
       0.488
       0.596
       0.663
       0.682
       0.650
       0.561
       0.422
       0.243
       0.036
      -0.193
      -0.427
      -0.639
      -0.796
      -0.882
      -0.894
      -0.848
      -0.777
      -0.712
      -0.671
      -0.655
      -0.658
      -0.674
      -0.686
      -0.673
      -0.622
      -0.534
      -0.414
      -0.269
      -0.104
       0.076
       0.262
       0.444
       0.612
       0.758
       0.882
       0.984
       1.052
       1.070
       1.030
       0.937
       0.799
       0.620
       0.408
       0.175
      -0.063
      -0.291
      -0.493
      -0.653
      -0.766
      -0.823
      -0.817
      -0.739
      -0.595
      -0.408
      -0.202
       0.002
       0.190
       0.347
       0.466
       0.551
       0.603
       0.625
       0.609
       0.544
       0.417
       0.233
       0.013
      -0.208
      -0.415
      -0.609
      -0.793
      -0.957
      -1.081
      -1.135
      -1.096
      -0.957
      -0.736
      -0.468
      -0.183
       0.098
       0.360
       0.592
       0.792
       0.958
       1.087
       1.175
       1.221
       1.228
       1.193
       1.107
       0.958
       0.745
       0.478
       0.178
      -0.125
      -0.406
      -0.654
      -0.863
      -1.027
      -1.134
      -1.184
      -1.190
      -1.169
      -1.132
      -1.081
      -1.013
      -0.920
      -0.795
      -0.639
      -0.458
      -0.255
      -0.039
       0.171
       0.352
       0.492
       0.594
       0.659
       0.685
       0.671
       0.616
       0.524
       0.403
       0.271
       0.146
       0.038
      -0.047
      -0.105
      -0.137
      -0.154
      -0.173
      -0.197
      -0.216
      -0.217
      -0.193
      -0.141
      -0.064
       0.029
       0.131
       0.236
       0.336
       0.415
       0.459
       0.475
       0.476
       0.471
       0.456
       0.419
       0.349
       0.240
       0.099
      -0.059
      -0.217
      -0.367
      -0.509
      -0.637
      -0.747
      -0.837
      -0.901
      -0.926
      -0.893
      -0.795
      -0.636
      -0.426
      -0.178
       0.085
       0.339
       0.566
       0.754
       0.898
       0.999
       1.064
       1.097
       1.090
       1.034
       0.924
       0.766
       0.566
       0.338
       0.104
      -0.114
      -0.307
      -0.472
      -0.606
      -0.706
      -0.771
      -0.798
      -0.776
      -0.700
      -0.573
      -0.405
      -0.205
       0.016
       0.242
       0.451
       0.631
       0.769
       0.860
       0.903
       0.905
       0.872
       0.799
       0.679
       0.511
       0.302
       0.063
      -0.187
      -0.420
      -0.610
      -0.746
      -0.826
      -0.859
      -0.857
      -0.835
      -0.798
      -0.740
      -0.655
      -0.555
      -0.458
      -0.372
      -0.292
      -0.208
      -0.114
      -0.011
       0.100
       0.217
       0.348
       0.493
       0.639
       0.750
       0.798
       0.779
       0.708
       0.599
       0.463
       0.307
       0.140
      -0.029
      -0.187
      -0.319
      -0.416
      -0.480
      -0.514
      -0.518
      -0.496
      -0.463
      -0.439
      -0.433
      -0.447
      -0.475
      -0.506
      -0.523
      -0.515
      -0.477
      -0.407
      -0.304
      -0.173
      -0.026
       0.125
       0.270
       0.399
       0.493
       0.533
       0.509
       0.422
       0.283
       0.124
      -0.014
      -0.096
      -0.104
      -0.041
       0.078
