Origin Time       31/5/2010 11:37:04	 UTC
Lat.              30.0 N	
Long.             79.8 E	
Depth (Km)         10.0
Magnitude         3.6
 Region           Almora-UTTRAKHAND                                                
 Above details taken from IMD 
    
Station Code      CHP
Station Lat.       29.334  N
Station Long.      80.095  E
Station Height(m) 1635.0
Site Class        A   Vs30 between 700 m/sec to 1400 m/sec * 
Record Time       31.05.2010 11:36:45.984 UTC
Sampling Rate     200. Hz
 Record Duration   69.965 Sec.
 Direction         N-S (N positive)
Max. Acceleration      9.734 cm/sec**2
     
  * For reference see Site Classification link of website 
     
 Base Line Corrected and Low Pass Filtered (Cut Off at 35 Hz) Time History
 Acceleration data in cm/sec**2
    
[...]
      -0.015
      -0.018
      -0.015
      -0.012
      -0.011
      -0.014
      -0.016
      -0.015
      -0.011
      -0.005
       0.001
       0.003
       0.004
       0.002
      -0.002
      -0.007
      -0.010
      -0.011
      -0.009
      -0.005
      -0.003
      -0.005
      -0.010
      -0.015
      -0.017
      -0.015
      -0.012
      -0.011
      -0.013
      -0.013
      -0.008
      -0.002
       0.002
      -0.002
      -0.007
      -0.010
      -0.008
      -0.005
      -0.004
      -0.005
      -0.006
      -0.005
      -0.003
      -0.001
       0.000
      -0.001
      -0.003
      -0.004
      -0.005
      -0.004
      -0.004
      -0.004
      -0.005
      -0.004
      -0.002
       0.002
       0.007
       0.010
       0.011
       0.007
      -0.001
      -0.009
      -0.012
      -0.009
      -0.003
       0.002
       0.002
      -0.002
      -0.008
      -0.014
      -0.017
      -0.017
      -0.013
      -0.008
      -0.005
      -0.005
      -0.006
      -0.008
      -0.008
      -0.009
      -0.012
      -0.016
      -0.017
      -0.015
      -0.011
      -0.009
      -0.009
      -0.009
      -0.008
      -0.006
      -0.004
      -0.004
      -0.006
      -0.008
      -0.007
      -0.005
      -0.002
       0.000
      -0.002
      -0.005
      -0.008
      -0.009
      -0.008
      -0.006
      -0.004
       0.001
       0.007
       0.013
       0.014
       0.009
       0.001
      -0.009
      -0.015
      -0.018
      -0.016
      -0.009
       0.000
       0.007
       0.009
       0.006
       0.003
       0.002
       0.001
      -0.001
      -0.006
      -0.009
      -0.010
      -0.012
      -0.015
      -0.019
      -0.019
      -0.014
      -0.007
       0.000
       0.004
       0.006
       0.005
       0.003
       0.000
      -0.002
      -0.002
      -0.001
       0.000
      -0.002
      -0.002
       0.001
       0.008
       0.013
       0.011
       0.003
      -0.004
      -0.009
      -0.009
      -0.009
      -0.008
      -0.006
      -0.004
      -0.002
      -0.002
      -0.004
      -0.008
      -0.012
      -0.013
      -0.012
      -0.008
      -0.003
       0.001
       0.005
       0.008
       0.011
       0.013
       0.013
       0.011
       0.009
       0.007
       0.006
       0.004
       0.000
      -0.002
      -0.002
       0.000
       0.002
       0.001
      -0.002
      -0.005
      -0.005
      -0.003
      -0.001
      -0.001
      -0.001
       0.000
       0.005
       0.009
       0.011
       0.009
       0.005
       0.004
       0.005
       0.006
       0.006
       0.003
      -0.001
      -0.002
       0.001
       0.006
       0.011
       0.012
       0.009
       0.007
       0.007
       0.008
       0.007
       0.003
      -0.001
      -0.003
      -0.004
      -0.002
       0.000
       0.005
       0.010
       0.011
       0.009
       0.003
      -0.003
      -0.006
      -0.006
      -0.004
       0.000
       0.006
       0.009
       0.006
       0.000
      -0.007
      -0.009
      -0.005
       0.001
       0.002
      -0.003
      -0.009
      -0.011
      -0.009
      -0.004
       0.001
       0.006
       0.009
       0.009
       0.006
       0.005
       0.006
       0.010
       0.012
       0.011
       0.007
       0.001
      -0.004
      -0.009
      -0.010
      -0.009
      -0.006
      -0.002
      -0.001
       0.000
       0.001
       0.003
       0.005
       0.005
       0.003
       0.002
       0.002
       0.003
       0.004
       0.004
       0.001
      -0.004
      -0.010
      -0.015
      -0.017
      -0.014
      -0.005
       0.007
       0.016
       0.018
       0.013
       0.004
      -0.005
      -0.011
      -0.012
      -0.008
      -0.001
       0.006
       0.010
       0.011
       0.010
       0.008
       0.005
       0.002
      -0.001
      -0.003
      -0.005
      -0.007
      -0.009
      -0.008
      -0.005
       0.001
       0.004
       0.004
      -0.002
      -0.011
      -0.017
      -0.017
      -0.009
       0.001
       0.008
       0.010
       0.006
       0.001
      -0.001
       0.003
       0.007
       0.009
       0.005
      -0.002
      -0.008
      -0.008
      -0.005
      -0.001
       0.002
       0.004
       0.006
       0.008
       0.008
       0.006
       0.003
       0.002
       0.004
       0.005
       0.003
       0.000
      -0.004
      -0.006
      -0.005
      -0.003
       0.001
       0.004
       0.008
       0.008
       0.004
      -0.004
      -0.011
      -0.015
      -0.013
      -0.009
      -0.005
      -0.005
      -0.008
      -0.010
      -0.008
      -0.003
       0.001
       0.003
       0.005
       0.007
       0.008
       0.007
       0.003
      -0.003
      -0.010
      -0.012
      -0.009
      -0.003
       0.003
       0.006
       0.007
       0.008
       0.010
       0.012
       0.013
       0.010
       0.006
       0.003
       0.001
      -0.001
      -0.004
      -0.004
      -0.002
       0.003
       0.008
       0.013
       0.016
       0.016
       0.013
       0.009
       0.004
       0.002
       0.002
       0.004
       0.005
       0.003
      -0.001
      -0.005
      -0.006
      -0.004
       0.000
       0.004
       0.006
       0.005
       0.002
      -0.003
      -0.005
      -0.003
       0.001
       0.004
       0.004
       0.000
      -0.005
      -0.009
      -0.009
      -0.008
      -0.008
      -0.011
      -0.017
      -0.021
      -0.024
      -0.026
      -0.037
      -0.063
      -0.106
      -0.152
      -0.179
      -0.173
      -0.140
      -0.111
      -0.133
      -0.235
      -0.412
      -0.614
      -0.746
      -0.710
      -0.461
      -0.049
       0.398
       0.762
       1.017
       1.226
       1.458
       1.703
       1.866
       1.835
       1.541
       0.961
       0.135
      -0.789
      -1.548
      -1.855
      -1.550
      -0.694
       0.427
       1.386
       1.761
       1.307
       0.065
      -1.642
      -3.315
      -4.434
      -4.628
      -3.807
      -2.191
      -0.202
       1.700
       3.150
       3.932
       3.959
       3.240
       1.886
       0.151
      -1.568
      -2.825
      -3.284
      -2.825
      -1.562
       0.194
       1.966
       3.213
       3.527
       2.813
       1.318
      -0.493
      -2.124
      -3.205
      -3.548
      -3.126
      -2.049
      -0.584
       0.879
       1.989
       2.611
       2.865
       2.990
       3.170
       3.461
       3.804
       4.063
       4.027
       3.414
       1.967
      -0.339
      -3.159
      -5.848
      -7.734
      -8.410
      -7.880
      -6.507
      -4.775
      -3.035
      -1.411
       0.098
       1.467
       2.583
       3.320
       3.626
       3.565
       3.284
       2.942
       2.641
       2.399
       2.156
       1.815
       1.312
       0.687
       0.060
      -0.452
      -0.823
      -1.115
      -1.400
      -1.667
      -1.787
      -1.577
      -0.942
       0.008
       0.939
       1.436
       1.228
       0.357
      -0.830
      -1.860
      -2.351
      -2.160
      -1.400
      -0.353
       0.673
       1.463
       1.935
       2.109
       2.029
       1.714
       1.151
       0.352
      -0.597
      -1.512
      -2.163
      -2.378
      -2.126
      -1.533
      -0.804
      -0.125
       0.397
       0.736
       0.939
       1.095
       1.281
       1.486
       1.578
       1.385
       0.836
       0.040
      -0.761
      -1.315
      -1.471
      -1.222
      -0.662
       0.068
       0.813
       1.408
       1.701
       1.605
       1.149
       0.476
      -0.210
      -0.725
      -0.970
      -0.965
      -0.828
      -0.708
      -0.719
      -0.886
      -1.143
      -1.373
      -1.447
      -1.274
      -0.825
      -0.141
       0.687
       1.527
       2.218
       2.593
       2.529
       2.010
       1.151
       0.160
      -0.739
      -1.386
      -1.719
      -1.761
      -1.574
      -1.227
      -0.792
      -0.367
      -0.069
      -0.014
      -0.262
      -0.753
      -1.274
      -1.535
      -1.311
      -0.580
       0.475
       1.571
       2.463
       3.021
       3.208
       3.013
       2.428
       1.481
       0.287
      -0.955
      -2.010
      -2.688
      -2.898
      -2.652
      -2.046
      -1.236
      -0.415
       0.231
       0.600
       0.718
       0.723
       0.776
       0.975
       1.304
       1.653
       1.875
       1.836
       1.467
       0.796
      -0.044
      -0.848
      -1.412
      -1.614
      -1.453
      -1.040
      -0.542
      -0.102
       0.196
       0.321
       0.260
       0.017
      -0.370
      -0.821
      -1.229
      -1.492
      -1.531
      -1.306
      -0.836
      -0.207
       0.429
       0.908
       1.109
       1.009
       0.680
       0.252
      -0.135
      -0.369
      -0.393
      -0.217
       0.092
       0.447
       0.776
       1.018
       1.123
       1.045
       0.775
       0.363
      -0.079
      -0.415
      -0.545
      -0.461
      -0.242
      -0.011
       0.141
       0.189
       0.172
       0.153
       0.174
       0.228
       0.265
       0.240
       0.157
       0.056
      -0.022
      -0.090
      -0.210
      -0.436
      -0.747
      -1.042
      -1.186
      -1.086
      -0.757
      -0.324
       0.049
       0.249
       0.272
       0.200
       0.135
       0.138
       0.216
       0.330
       0.418
       0.429
       0.341
       0.182
       0.012
      -0.095
      -0.085
       0.067
       0.334
       0.636
       0.855
       0.883
       0.677
       0.289
      -0.151
      -0.497
      -0.661
      -0.634
      -0.471
      -0.246
      -0.023
       0.144
       0.218
       0.186
       0.082
      -0.020
      -0.040
       0.050
       0.191
       0.258
       0.144
      -0.172
      -0.604
      -1.010
      -1.253
      -1.267
      -1.093
      -0.848
      -0.665
      -0.620
      -0.697
      -0.805
      -0.823
      -0.661
      -0.294
       0.243
       0.863
       1.434
       1.818
       1.934
       1.799
       1.513
       1.207
       0.981
       0.868
       0.844
       0.862
       0.892
       0.924
       0.944
       0.912
       0.754
       0.394
      -0.193
      -0.940
      -1.695
      -2.276
      -2.547
      -2.483
      -2.179
      -1.797
      -1.483
      -1.290
      -1.181
      -1.072
      -0.891
      -0.596
      -0.176
       0.329
       0.829
       1.214
       1.427
       1.514
       1.590
       1.737
       1.925
       2.017
       1.875
       1.448
       0.806
       0.090
      -0.547
      -0.977
      -1.136
      -1.046
      -0.838
      -0.693
      -0.731
      -0.914
      -1.065
      -0.978
      -0.559
       0.110
       0.815
       1.335
       1.552
       1.497
       1.300
       1.108
       0.991
       0.914
       0.760
       0.422
      -0.111
      -0.746
      -1.335
      -1.753
      -1.942
      -1.909
      -1.706
      -1.419
      -1.157
      -1.011
      -1.004
      -1.064
      -1.070
      -0.927
      -0.625
      -0.230
       0.180
       0.573
       0.966
       1.375
       1.770
       2.084
       2.240
       2.184
       1.895
       1.397
       0.773
       0.151
      -0.332
      -0.578
      -0.575
      -0.416
      -0.250
      -0.212
      -0.352
      -0.621
      -0.892
      -1.027
      -0.942
      -0.658
      -0.285
       0.037
       0.217
       0.252
       0.220
       0.218
       0.293
       0.404
       0.449
       0.347
       0.103
      -0.182
      -0.384
      -0.440
      -0.380
      -0.293
      -0.251
      -0.262
      -0.278
      -0.256
      -0.190
      -0.110
      -0.044
       0.001
       0.031
       0.053
       0.061
       0.054
       0.043
       0.059
       0.140
       0.297
       0.497
       0.667
       0.729
       0.643
       0.426
       0.140
      -0.141
      -0.357
      -0.475
      -0.504
      -0.482
      -0.460
      -0.466
      -0.489
      -0.495
      -0.459
      -0.392
      -0.348
      -0.390
      -0.535
      -0.719
      -0.811
      -0.687
      -0.300
       0.290
       0.949
       1.535
       1.949
       2.155
       2.166
       2.018
       1.739
       1.336
       0.809
       0.195
      -0.419
      -0.923
      -1.232
      -1.337
      -1.274
      -1.075
      -0.727
      -0.196
       0.508
       1.294
       1.992
       2.420
       2.462
       2.116
       1.490
       0.744
       0.022
      -0.602
      -1.139
      -1.644
      -2.156
      -2.632
      -2.944
      -2.948
      -2.581
      -1.922
      -1.165
      -0.537
      -0.203
      -0.206
      -0.457
      -0.771
      -0.951
      -0.867
      -0.509
       0.019
       0.560
       0.973
       1.171
       1.125
       0.844
       0.385
      -0.129
      -0.511
      -0.567
      -0.192
       0.532
       1.347
       1.927
       2.052
       1.702
       1.058
       0.396
      -0.032
      -0.074
       0.310
       1.085
       2.153
       3.339
       4.382
       4.987
       4.927
       4.138
       2.737
       0.956
      -0.956
      -2.789
      -4.375
      -5.582
      -6.317
      -6.552
      -6.343
      -5.833
      -5.226
      -4.724
      -4.459
      -4.435
      -4.514
      -4.443
      -3.944
      -2.822
      -1.047
       1.225
       3.708
       6.069
       8.002
       9.271
       9.734
       9.359
       8.230
       6.520
       4.441
       2.203
       0.007
      -1.928
      -3.361
      -4.071
      -3.945
      -3.044
      -1.610
      -0.004
       1.401
       2.308
       2.547
       2.081
       0.986
      -0.578
      -2.371
      -4.076
      -5.323
      -5.759
      -5.172
      -3.608
      -1.411
       0.872
       2.676
       3.605
       3.539
       2.630
       1.210
      -0.357
      -1.791
      -2.951
      -3.799
      -4.334
      -4.537
      -4.357
      -3.745
      -2.690
      -1.246
       0.467
       2.277
       3.963
       5.283
       6.020
       6.050
       5.401
       4.300
       3.124
       2.261
       1.930
       2.082
       2.431
       2.603
       2.317
       1.507
       0.314
      -1.016
      -2.238
      -3.175
      -3.747
      -3.973
      -3.943
      -3.771
      -3.561
      -3.380
      -3.233
      -3.071
      -2.817
      -2.391
      -1.734
      -0.839
       0.235
       1.361
       2.369
       3.089
       3.393
       3.229
       2.641
       1.753
       0.739
      -0.215
      -0.949
      -1.353
      -1.374
      -1.010
      -0.308
       0.635
       1.656
       2.543
       3.080
       3.136
       2.719
       1.967
       1.087
       0.275
      -0.339
      -0.701
      -0.826
      -0.793
      -0.731
      -0.798
      -1.112
      -1.696
      -2.441
      -3.145
      -3.573
      -3.556
      -3.055
      -2.163
      -1.054
       0.079
       1.067
       1.783
       2.158
       2.187
       1.935
       1.539
       1.180
       1.016
       1.109
       1.389
       1.702
       1.893
       1.883
       1.678
       1.327
       0.864
       0.289
      -0.405
      -1.205
      -2.081
      -2.991
      -3.870
      -4.621
      -5.127
      -5.281
      -5.012
      -4.302
      -3.182
      -1.724
      -0.037
       1.732
       3.425
       4.907
       6.083
       6.888
       7.265
       7.162
       6.553
       5.465
       4.002
       2.319
       0.570
      -1.120
      -2.668
      -4.017
      -5.122
      -5.935
      -6.404
      -6.483
      -6.148
      -5.421
      -4.387
      -3.188
      -1.993
      -0.937
      -0.078
       0.604
       1.189
       1.758
       2.351
       2.959
       3.553
       4.109
       4.606
       5.005
       5.238
       5.208
       4.828
       4.068
       2.978
       1.670
       0.287
      -1.032
      -2.173
      -3.067
      -3.688
      -4.046
      -4.179
      -4.139
      -3.972
      -3.709
      -3.352
      -2.884
      -2.277
      -1.513
      -0.603
       0.412
       1.444
       2.370
       3.043
       3.336
       3.202
       2.703
       1.987
       1.227
       0.560
       0.055
      -0.286
      -0.495
      -0.611
      -0.664
      -0.674
      -0.657
      -0.629
      -0.599
      -0.566
      -0.526
      -0.478
      -0.432
      -0.400
      -0.378
      -0.338
      -0.233
      -0.022
       0.302
       0.683
       1.017
       1.208
       1.225
       1.114
       0.961
       0.832
       0.730
       0.618
       0.462
       0.264
       0.051
      -0.167
      -0.417
      -0.736
      -1.130
      -1.539
      -1.851
      -1.964
      -1.830
      -1.481
      -1.007
      -0.500
      -0.024
       0.403
       0.784
       1.122
       1.404
       1.611
       1.723
       1.733
       1.645
       1.474
       1.236
       0.950
       0.623
       0.247
      -0.197
      -0.728
      -1.333
      -1.965
      -2.541
      -2.961
      -3.127
      -2.974
      -2.481
      -1.689
      -0.712
       0.286
       1.137
       1.737
       2.078
       2.215
       2.214
       2.106
       1.879
       1.512
       1.021
       0.467
      -0.061
      -0.479
      -0.738
      -0.830
      -0.779
      -0.618
      -0.380
      -0.112
       0.127
       0.269
       0.264
       0.091
      -0.220
      -0.593
      -0.920
      -1.099
      -1.069
      -0.829
      -0.436
       0.022
       0.456
       0.798
       1.005
       1.054
       0.953
       0.746
       0.497
       0.279
       0.144
       0.121
       0.200
       0.341
       0.486
       0.575
       0.558
       0.406
       0.118
      -0.283
      -0.749
      -1.224
      -1.648
      -1.968
      -2.133
      -2.085
      -1.774
      -1.183
      -0.357
       0.602
       1.554
       2.349
       2.864
       3.032
       2.847
       2.362
       1.671
       0.885
       0.104
      -0.608
      -1.224
      -1.738
      -2.151
      -2.451
      -2.605
      -2.562
      -2.270
      -1.698
      -0.866
       0.124
       1.095
       1.849
       2.243
       2.247
       1.940
       1.477
       1.017
       0.659
       0.415
       0.229
       0.034
      -0.202
      -0.454
      -0.662
      -0.775
      -0.784
      -0.725
      -0.658
      -0.643
      -0.724
      -0.898
      -1.109
      -1.265
      -1.284
      -1.135
      -0.857
      -0.538
      -0.256
      -0.031
       0.181
       0.443
       0.795
       1.229
       1.697
       2.134
       2.473
       2.651
       2.608
       2.308
       1.759
       1.028
       0.225
      -0.534
      -1.154
      -1.583
      -1.812
      -1.873
      -1.820
      -1.722
      -1.638
      -1.595
      -1.584
      -1.558
      -1.454
      -1.222
      -0.852
      -0.390
       0.083
       0.486
       0.782
       0.986
       1.157
       1.356
       1.608
       1.873
       2.057
       2.049
       1.775
       1.247
       0.571
      -0.097
      -0.611
      -0.886
      -0.917
      -0.768
      -0.529
      -0.283
      -0.077
       0.074
       0.180
       0.246
       0.269
       0.232
       0.124
      -0.049
      -0.260
      -0.478
