Origin Time       04/04/2011 11:31:40
Lat.              29.6 N	
Long.             80.8 E	
Depth (Km)         10.0
Magnitude         5.7
 Region           NEPAL-INDIA-BORDER-REGION                                        
 Above details taken from IMD 
   
Station Code      CHP
Station Lat.       29.334
Station Long.      80.095
Station Height(m) 1635.0
Site Class        A   Vs30 between 700 m/sec to 1400 m/sec * 
Record Time       04.04.2011 11:31:41.004
Sampling Rate     200. Hz
 Record Duration  104.665 Sec.
 Direction         Vert. (Up positive)
Max. Acceleration     10.636 cm/sec**2
     
  * For reference see Site Classification link of website 
     
 Base Line Corrected and Low Pass Filtered (Cut Off at 35 Hz) Time History
 Acceleration data in cm/sec**2
    
[...]
      -0.373
       0.210
       0.954
       1.527
       1.638
       1.150
       0.144
      -1.108
      -2.227
      -2.858
      -2.786
      -2.014
      -0.798
       0.420
       1.210
       1.382
       1.054
       0.524
       0.044
      -0.325
      -0.650
      -0.987
      -1.288
      -1.424
      -1.261
      -0.743
       0.056
       0.934
       1.624
       1.914
       1.758
       1.276
       0.647
       0.007
      -0.581
      -1.092
      -1.485
      -1.664
      -1.525
      -1.048
      -0.354
       0.338
       0.834
       1.051
       1.019
       0.797
       0.439
       0.048
      -0.212
      -0.201
       0.061
       0.383
       0.555
       0.508
       0.347
       0.216
       0.147
       0.061
      -0.114
      -0.326
      -0.424
      -0.308
      -0.062
       0.102
       0.031
      -0.244
      -0.551
      -0.753
      -0.851
      -0.927
      -0.979
      -0.895
      -0.578
      -0.096
       0.321
       0.443
       0.199
      -0.292
      -0.830
      -1.248
      -1.479
      -1.547
      -1.512
      -1.391
      -1.112
      -0.566
       0.259
       1.173
       1.848
       2.012
       1.638
       0.955
       0.295
      -0.116
      -0.244
      -0.167
       0.016
       0.220
       0.347
       0.286
      -0.019
      -0.482
      -0.875
      -0.962
      -0.678
      -0.200
       0.197
       0.367
       0.385
       0.415
       0.520
       0.647
       0.754
       0.883
       1.067
       1.228
       1.218
       0.983
       0.640
       0.369
       0.244
       0.192
       0.118
       0.017
      -0.053
      -0.096
      -0.223
      -0.547
      -1.040
      -1.513
      -1.770
      -1.770
      -1.645
      -1.554
      -1.480
      -1.177
      -0.337
       1.093
       2.754
       4.047
       4.492
       3.997
       2.866
       1.564
       0.458
      -0.309
      -0.761
      -0.991
      -1.093
      -1.151
      -1.218
      -1.302
      -1.351
      -1.303
      -1.149
      -0.918
      -0.623
      -0.270
       0.080
       0.283
       0.219
      -0.056
      -0.271
      -0.139
       0.385
       1.035
       1.447
       1.441
       1.132
       0.783
       0.536
       0.294
      -0.133
      -0.769
      -1.403
      -1.777
      -1.821
      -1.658
      -1.401
      -1.018
      -0.416
       0.351
       1.047
       1.423
       1.401
       1.102
       0.699
       0.293
      -0.105
      -0.492
      -0.826
      -1.048
      -1.117
      -0.989
      -0.605
       0.042
       0.801
       1.365
       1.449
       1.022
       0.326
      -0.355
      -0.944
      -1.552
      -2.212
      -2.690
      -2.631
      -1.916
      -0.870
      -0.072
       0.098
      -0.207
      -0.451
      -0.213
       0.429
       1.005
       1.100
       0.705
       0.175
      -0.098
       0.031
       0.418
       0.768
       0.830
       0.534
       0.016
      -0.489
      -0.786
      -0.804
      -0.567
      -0.111
       0.562
       1.425
       2.348
       3.100
       3.451
       3.301
       2.714
       1.840
       0.817
      -0.239
      -1.163
      -1.743
      -1.826
      -1.422
      -0.703
       0.100
       0.811
       1.324
       1.542
       1.356
       0.716
      -0.273
      -1.322
      -2.055
      -2.204
      -1.758
      -0.937
      -0.031
       0.782
       1.480
       2.076
       2.493
       2.564
       2.168
       1.348
       0.326
      -0.614
      -1.292
      -1.706
      -1.955
      -2.095
      -2.071
      -1.793
      -1.259
      -0.590
       0.053
       0.542
       0.815
       0.865
       0.740
       0.524
       0.300
       0.099
      -0.118
      -0.389
      -0.653
      -0.742
      -0.512
       0.004
       0.579
       0.950
       1.012
       0.872
       0.714
       0.642
       0.630
       0.598
       0.508
       0.380
       0.217
      -0.062
      -0.577
      -1.321
      -2.076
      -2.519
      -2.431
      -1.834
      -0.941
      -0.031
       0.673
       1.055
       1.108
       0.910
       0.586
       0.265
       0.033
      -0.099
      -0.181
      -0.273
      -0.400
      -0.565
      -0.779
      -1.043
      -1.291
      -1.379
      -1.179
      -0.700
      -0.131
       0.274
       0.379
       0.260
       0.100
       0.006
      -0.064
      -0.191
      -0.348
      -0.375
      -0.094
       0.529
       1.315
       1.944
       2.115
       1.727
       0.955
       0.142
      -0.419
      -0.645
      -0.635
      -0.510
      -0.289
       0.055
       0.455
       0.713
       0.639
       0.240
      -0.240
      -0.491
      -0.379
      -0.042
       0.228
       0.190
      -0.212
      -0.821
      -1.361
      -1.582
      -1.399
      -0.942
      -0.500
      -0.332
      -0.471
      -0.686
      -0.658
      -0.215
       0.549
       1.349
       1.903
       2.083
       1.926
       1.534
       1.004
       0.435
      -0.037
      -0.265
      -0.201
       0.026
       0.162
       0.002
      -0.438
      -0.914
      -1.125
      -0.944
      -0.509
      -0.108
       0.045
      -0.064
      -0.296
      -0.502
      -0.597
      -0.566
      -0.428
      -0.238
      -0.074
      -0.007
      -0.043
      -0.090
       0.020
       0.419
       1.070
       1.749
       2.182
       2.232
       1.950
       1.448
       0.764
      -0.084
      -0.934
      -1.470
      -1.472
      -1.069
      -0.673
      -0.625
      -0.887
      -1.082
      -0.876
      -0.311
       0.240
       0.425
       0.196
      -0.225
      -0.598
      -0.848
      -0.985
      -0.923
      -0.471
       0.452
       1.624
       2.597
       2.984
       2.669
       1.802
       0.614
      -0.713
      -2.036
      -3.149
      -3.775
      -3.696
      -2.902
      -1.618
      -0.168
       1.169
       2.203
       2.769
       2.719
       2.026
       0.919
      -0.167
      -0.826
      -0.911
      -0.576
      -0.100
       0.316
       0.620
       0.806
       0.811
       0.531
      -0.041
      -0.743
      -1.308
      -1.540
      -1.404
      -0.970
      -0.299
       0.555
       1.422
       1.990
       1.950
       1.264
       0.269
      -0.535
      -0.870
      -0.860
      -0.819
      -0.878
      -0.862
      -0.547
       0.031
       0.559
       0.783
       0.787
       0.916
       1.365
       1.895
       1.977
       1.268
      -0.084
      -1.553
      -2.633
      -3.102
      -2.996
      -2.432
      -1.531
      -0.467
       0.485
       1.052
       1.136
       0.882
       0.553
       0.331
       0.202
       0.022
      -0.306
      -0.715
      -1.007
      -0.986
      -0.570
       0.176
       1.066
       1.835
       2.190
       1.948
       1.169
       0.137
      -0.850
      -1.691
      -2.465
      -3.209
      -3.740
      -3.743
      -3.062
      -1.884
      -0.633
       0.328
       0.924
       1.317
       1.658
       1.924
       1.990
       1.817
       1.545
       1.353
       1.243
       1.011
       0.468
      -0.307
      -0.976
      -1.204
      -0.946
      -0.466
      -0.083
       0.105
       0.249
       0.519
       0.879
       1.081
       0.915
       0.431
      -0.089
      -0.370
      -0.337
      -0.081
       0.285
       0.735
       1.261
       1.731
       1.862
       1.419
       0.441
      -0.728
      -1.674
      -2.177
      -2.270
      -2.049
      -1.507
      -0.604
       0.520
       1.467
       1.780
       1.279
       0.235
      -0.779
      -1.244
      -0.976
      -0.158
       0.832
       1.643
       2.073
       2.073
       1.720
       1.188
       0.663
       0.224
      -0.209
      -0.751
      -1.341
      -1.693
      -1.486
      -0.663
       0.481
       1.494
       2.065
       2.170
       1.998
       1.732
       1.424
       1.013
       0.443
      -0.256
      -0.944
      -1.409
      -1.423
      -0.843
       0.255
       1.518
       2.442
       2.646
       2.107
       1.160
       0.278
      -0.205
      -0.239
       0.012
       0.316
       0.466
       0.327
      -0.134
      -0.831
      -1.593
      -2.257
      -2.748
      -3.062
      -3.193
      -3.112
      -2.810
      -2.330
      -1.753
      -1.145
      -0.539
       0.027
       0.466
       0.663
       0.568
       0.287
       0.050
       0.054
       0.321
       0.702
       1.015
       1.182
       1.226
       1.152
       0.862
       0.248
      -0.618
      -1.434
      -1.868
      -1.825
      -1.532
      -1.333
      -1.398
      -1.610
      -1.717
      -1.544
      -1.108
      -0.552
      -0.024
       0.430
       0.877
       1.425
       2.124
       2.915
       3.640
       4.099
       4.101
       3.520
       2.378
       0.908
      -0.503
      -1.499
      -1.952
      -1.975
      -1.747
      -1.352
      -0.775
      -0.034
       0.721
       1.245
       1.363
       1.080
       0.564
       0.023
      -0.415
      -0.712
      -0.853
      -0.771
      -0.376
       0.336
       1.206
       1.944
       2.246
       1.936
       1.069
      -0.082
      -1.174
      -1.964
      -2.396
      -2.548
      -2.511
      -2.330
      -2.030
      -1.687
      -1.436
      -1.390
      -1.530
      -1.652
      -1.482
      -0.894
      -0.026
       0.848
       1.559
       2.143
       2.696
       3.188
       3.434
       3.269
       2.693
       1.902
       1.198
       0.846
       0.954
       1.432
       2.085
       2.736
       3.260
       3.513
       3.290
       2.423
       0.982
      -0.674
      -2.097
      -2.996
      -3.309
      -3.079
      -2.353
      -1.175
       0.319
       1.850
       3.064
       3.676
       3.572
       2.801
       1.524
       0.013
      -1.365
      -2.232
      -2.378
      -1.876
      -1.014
      -0.111
       0.629
       1.121
       1.320
       1.202
       0.804
       0.262
      -0.230
      -0.536
      -0.692
      -0.883
      -1.266
      -1.791
      -2.202
      -2.259
      -1.962
      -1.573
      -1.387
      -1.493
      -1.746
      -1.933
      -1.925
      -1.707
      -1.341
      -0.928
      -0.580
      -0.365
      -0.252
      -0.124
       0.144
       0.607
       1.203
       1.758
       2.042
       1.896
       1.357
       0.655
       0.045
      -0.387
      -0.773
      -1.339
      -2.207
      -3.295
      -4.368
      -5.191
      -5.636
      -5.663
      -5.228
      -4.261
      -2.729
      -0.755
       1.346
       3.162
       4.366
       4.843
       4.680
       4.056
       3.127
       1.987
       0.723
      -0.517
      -1.523
      -2.118
      -2.266
      -2.109
      -1.882
      -1.765
      -1.775
      -1.774
      -1.579
      -1.103
      -0.426
       0.236
       0.621
       0.542
      -0.014
      -0.832
      -1.524
      -1.708
      -1.201
      -0.114
       1.240
       2.530
       3.541
       4.180
       4.400
       4.165
       3.494
       2.510
       1.430
       0.472
      -0.268
      -0.837
      -1.325
      -1.734
      -1.953
      -1.856
      -1.438
      -0.848
      -0.295
       0.084
       0.257
       0.206
      -0.141
      -0.866
      -1.925
      -3.074
      -3.965
      -4.350
      -4.191
      -3.604
      -2.742
      -1.721
      -0.613
       0.532
       1.678
       2.774
       3.710
       4.286
       4.279
       3.649
       2.687
       1.883
       1.575
       1.717
       1.959
       1.932
       1.495
       0.781
       0.026
      -0.611
      -1.102
      -1.481
      -1.758
      -1.871
      -1.726
      -1.302
      -0.713
      -0.170
       0.117
       0.035
      -0.394
      -1.057
      -1.828
      -2.596
      -3.233
      -3.601
      -3.625
      -3.341
      -2.868
      -2.322
      -1.763
      -1.210
      -0.686
      -0.216
       0.221
       0.666
       1.118
       1.529
       1.880
       2.248
       2.781
       3.561
       4.482
       5.246
       5.518
       5.098
       3.991
       2.380
       0.529
      -1.321
      -2.991
      -4.308
      -5.042
      -4.940
      -3.900
      -2.129
      -0.118
       1.611
       2.779
       3.406
       3.632
       3.503
       2.920
       1.764
       0.082
      -1.814
      -3.439
      -4.384
      -4.555
      -4.200
      -3.697
      -3.264
      -2.821
      -2.113
      -0.982
       0.465
       1.949
       3.237
       4.246
       4.953
       5.265
       5.034
       4.228
       3.047
       1.816
       0.780
      -0.037
      -0.787
      -1.627
      -2.527
      -3.223
      -3.393
      -2.911
      -1.963
      -0.914
      -0.062
       0.462
       0.629
       0.446
      -0.010
      -0.584
      -1.118
      -1.536
      -1.808
      -1.853
      -1.529
      -0.796
       0.155
       0.975
       1.411
       1.510
       1.583
       1.967
       2.749
       3.667
       4.260
       4.148
       3.268
       1.845
       0.179
      -1.505
      -3.023
      -4.142
      -4.630
      -4.395
      -3.543
      -2.292
      -0.836
       0.653
       1.949
       2.750
       2.812
       2.144
       1.081
       0.092
      -0.532
      -0.829
      -1.012
      -1.205
      -1.307
      -1.110
      -0.502
       0.416
       1.416
       2.310
       3.044
       3.671
       4.249
       4.802
       5.369
       6.059
       7.011
       8.249
       9.560
      10.511
      10.636
       9.675
       7.714
       5.134
       2.397
      -0.172
      -2.465
      -4.487
      -6.175
      -7.303
      -7.606
      -7.005
      -5.721
      -4.140
      -2.619
      -1.386
      -0.568
      -0.205
      -0.227
      -0.462
      -0.711
      -0.855
      -0.889
      -0.874
      -0.845
      -0.759
      -0.505
       0.017
       0.777
       1.558
       2.023
       1.906
       1.178
       0.099
      -0.877
      -1.308
      -0.982
      -0.013
       1.250
       2.445
       3.333
       3.800
       3.778
       3.193
       1.984
       0.203
      -1.888
      -3.854
      -5.281
      -5.971
      -5.988
      -5.545
      -4.835
      -4.014
      -3.248
      -2.681
      -2.327
      -2.059
      -1.737
      -1.381
      -1.179
      -1.271
      -1.509
      -1.507
      -0.954
       0.133
       1.399
       2.389
       2.881
       3.025
       3.169
       3.502
       3.865
       3.894
       3.391
       2.514
       1.602
       0.858
       0.293
      -0.081
      -0.118
       0.332
       1.162
       1.934
       2.141
       1.566
       0.420
      -0.876
      -2.038
      -3.082
      -4.168
      -5.305
      -6.211
      -6.485
      -5.959
      -4.900
      -3.849
      -3.230
      -3.071
      -3.092
      -3.032
      -2.891
      -2.843
      -2.904
      -2.727
      -1.807
       0.060
       2.512
       4.804
       6.245
       6.551
       5.867
       4.565
       3.010
       1.455
       0.083
      -0.924
      -1.426
      -1.430
      -1.136
      -0.797
      -0.562
      -0.450
      -0.444
      -0.554
      -0.782
      -1.078
      -1.383
      -1.670
      -1.870
      -1.814
      -1.322
      -0.401
       0.709
       1.678
       2.306
       2.616
       2.736
       2.710
       2.429
       1.772
       0.779
      -0.320
      -1.266
      -1.921
      -2.258
      -2.277
      -1.987
      -1.417
      -0.627
       0.300
       1.254
       2.113
       2.765
       3.137
       3.243
       3.145
       2.840
       2.190
       1.026
      -0.660
      -2.587
      -4.244
      -5.192
      -5.345
      -4.997
      -4.576
      -4.342
      -4.253
      -4.068
      -3.575
      -2.738
      -1.664
      -0.501
       0.659
       1.807
       2.983
       4.177
       5.254
       5.978
       6.146
       5.697
       4.727
       3.452
       2.141
       1.030
       0.250
      -0.199
      -0.416
      -0.554
      -0.778
      -1.200
      -1.788
      -2.313
      -2.455
      -2.018
      -1.073
       0.105
       1.247
       2.263
       3.207
       4.083
       4.732
       4.951
       4.697
       4.145
       3.517
       2.875
       2.106
       1.125
       0.070
      -0.746
      -1.087
      -0.958
      -0.514
       0.133
       0.951
       1.827
       2.468
       2.556
       1.999
       0.986
      -0.204
      -1.382
      -2.445
      -3.250
      -3.583
      -3.322
      -2.646
      -1.973
      -1.602
      -1.469
      -1.303
      -1.015
      -0.861
      -1.198
      -2.055
      -2.994
      -3.417
      -3.019
      -1.992
      -0.847
      -0.051
       0.229
       0.094
      -0.285
      -0.806
      -1.420
      -2.025
      -2.437
      -2.466
      -2.012
      -1.096
       0.145
       1.461
       2.539
       3.149
       3.266
       3.054
       2.697
       2.249
       1.661
       0.961
       0.395
       0.297
       0.777
       1.526
       1.985
       1.789
       1.075
       0.338
      -0.036
      -0.076
      -0.101
      -0.358
      -0.780
      -1.067
      -0.948
      -0.365
       0.524
       1.418
       1.970
       1.923
       1.249
       0.159
      -1.011
      -1.988
      -2.659
      -3.024
      -3.088
      -2.815
      -2.180
      -1.261
      -0.298
       0.373
       0.529
       0.253
      -0.107
      -0.195
       0.091
       0.553
       0.872
       0.833
       0.403
      -0.341
      -1.308
      -2.410
      -3.503
      -4.348
      -4.647
      -4.178
      -2.935
      -1.209
       0.503
       1.722
       2.242
       2.226
       2.063
       2.054
       2.182
       2.188
       1.874
       1.345
       0.943
       0.944
       1.277
       1.529
       1.266
       0.383
      -0.809
      -1.798
      -2.186
      -1.878
      -1.064
      -0.064
       0.839
       1.505
       1.964
       2.340
       2.691
       2.904
       2.760
       2.143
       1.196
       0.228
      -0.527
      -1.047
      -1.434
      -1.732
      -1.847
      -1.650
      -1.139
      -0.479
       0.125
       0.573
       0.891
       1.135
       1.274
       1.207
       0.897
       0.472
       0.192
       0.280
       0.767
       1.472
       2.126
       2.524
       2.589
       2.353
       1.887
       1.278
       0.618
       0.010
      -0.436
      -0.625
      -0.521
      -0.192
       0.193
       0.446
       0.474
       0.325
       0.101
      -0.166
      -0.533
      -1.051
      -1.679
      -2.300
      -2.804
      -3.134
      -3.248
      -3.089
      -2.612
      -1.851
      -0.947
      -0.104
       0.483
       0.710
       0.584
       0.162
      -0.492
      -1.309
      -2.160
      -2.848
      -3.152
      -2.932
      -2.240
      -1.339
      -0.591
      -0.296
      -0.561
      -1.266
      -2.148
      -2.930
      -3.399
      -3.415
      -2.906
      -1.911
      -0.625
       0.660
       1.696
       2.386
       2.749
       2.811
       2.564
       2.012
       1.233
       0.401
      -0.283
      -0.702
      -0.914
      -1.084
      -1.339
      -1.659
      -1.928
      -2.070
      -2.146
      -2.284
      -2.525
      -2.751
      -2.751
      -2.359
      -1.520
      -0.292
       1.170
