Origin Time       3/10/2009 5:20:54	 
Lat.              30.0°N	
Long.             79.9°E	
Depth (Km)         15.0
Magnitude         4.3
 Region           BAGESHWAR-UTTRAKHAND                                             
 Above details taken from IMD 
     
Station Code      CHP
Station Lat.       29.334  N
Station Long.      80.095  E
Station Height(m) 1635.0
Site Class        A   Vs30 between 700 m/sec to 1400 m/sec * 
Record Time       03.10.2009 05:21:13.069
Sampling Rate     200. Hz
 Record Duration   65.005 Sec.
 Direction         E-W (E positive)
Max. Acceleration     -2.454 cm/sec**2
     
  * For reference see Site Classification link of website 
     
 Base Line Corrected and Low Pass Filtered (Cut Off at 35 Hz) Time History
 Acceleration data in cm/sec**2
    
[...]
       1.127
       0.962
       0.724
       0.485
       0.305
       0.194
       0.111
       0.001
      -0.165
      -0.366
      -0.551
      -0.671
      -0.706
      -0.671
      -0.609
      -0.561
      -0.549
      -0.563
      -0.571
      -0.546
      -0.486
      -0.407
      -0.326
      -0.232
      -0.099
       0.093
       0.326
       0.555
       0.731
       0.829
       0.855
       0.836
       0.791
       0.728
       0.651
       0.576
       0.515
       0.460
       0.390
       0.286
       0.155
       0.013
      -0.120
      -0.232
      -0.304
      -0.327
      -0.303
      -0.250
      -0.180
      -0.105
      -0.046
      -0.042
      -0.120
      -0.265
      -0.415
      -0.506
      -0.508
      -0.450
      -0.391
      -0.375
      -0.410
      -0.466
      -0.502
      -0.489
      -0.425
      -0.327
      -0.217
      -0.105
       0.016
       0.154
       0.300
       0.431
       0.522
       0.578
       0.623
       0.679
       0.755
       0.844
       0.932
       0.993
       0.990
       0.882
       0.659
       0.365
       0.084
      -0.105
      -0.183
      -0.207
      -0.275
      -0.452
      -0.715
      -0.977
      -1.151
      -1.208
      -1.183
      -1.136
      -1.100
      -1.063
      -0.989
      -0.852
      -0.663
      -0.452
      -0.236
      -0.005
       0.263
       0.555
       0.807
       0.939
       0.920
       0.797
       0.662
       0.587
       0.581
       0.602
       0.604
       0.570
       0.523
       0.501
       0.523
       0.569
       0.591
       0.547
       0.426
       0.258
       0.090
      -0.053
      -0.170
      -0.279
      -0.385
      -0.480
      -0.555
      -0.627
      -0.732
      -0.895
      -1.083
      -1.210
      -1.183
      -0.966
      -0.607
      -0.214
       0.099
       0.266
       0.291
       0.242
       0.213
       0.277
       0.443
       0.659
       0.855
       0.983
       1.033
       1.020
       0.962
       0.863
       0.713
       0.491
       0.195
      -0.141
      -0.442
      -0.628
      -0.662
      -0.586
      -0.495
      -0.477
      -0.554
      -0.675
      -0.768
      -0.791
      -0.755
      -0.696
      -0.635
      -0.559
      -0.443
      -0.276
      -0.080
       0.101
       0.229
       0.310
       0.386
       0.504
       0.673
       0.847
       0.956
       0.954
       0.853
       0.703
       0.553
       0.421
       0.297
       0.165
       0.021
      -0.123
      -0.253
      -0.358
      -0.437
      -0.490
      -0.521
      -0.527
      -0.502
      -0.446
      -0.366
      -0.277
      -0.191
      -0.106
      -0.010
       0.106
       0.229
       0.318
       0.327
       0.237
       0.074
      -0.099
      -0.221
      -0.264
      -0.244
      -0.188
      -0.115
      -0.021
       0.093
       0.203
       0.264
       0.235
       0.119
      -0.031
      -0.135
      -0.132
      -0.016
       0.158
       0.309
       0.371
       0.327
       0.210
       0.073
      -0.036
      -0.096
      -0.111
      -0.092
      -0.051
       0.002
       0.050
       0.079
       0.082
       0.069
       0.065
       0.096
       0.174
       0.278
       0.357
       0.353
       0.239
       0.041
      -0.176
      -0.355
      -0.471
      -0.537
      -0.584
      -0.627
      -0.659
      -0.657
      -0.595
      -0.466
      -0.289
      -0.103
       0.058
       0.178
       0.259
       0.295
       0.272
       0.189
       0.083
       0.011
       0.005
       0.047
       0.087
       0.095
       0.090
       0.120
       0.220
       0.392
       0.603
       0.805
       0.950
       0.991
       0.892
       0.646
       0.293
      -0.091
      -0.429
      -0.678
      -0.841
      -0.943
      -0.994
      -0.983
      -0.897
      -0.752
      -0.586
      -0.443
      -0.338
      -0.259
      -0.176
      -0.073
       0.043
       0.146
       0.210
       0.231
       0.235
       0.256
       0.312
       0.379
       0.415
       0.380
       0.268
       0.108
      -0.040
      -0.100
      -0.017
       0.211
       0.509
       0.758
       0.853
       0.768
       0.560
       0.321
       0.117
      -0.046
      -0.207
      -0.398
      -0.609
      -0.791
      -0.893
      -0.897
      -0.818
      -0.687
      -0.529
      -0.369
      -0.229
      -0.134
      -0.089
      -0.074
      -0.045
       0.029
       0.148
       0.277
       0.367
       0.394
       0.371
       0.326
       0.279
       0.235
       0.208
       0.234
       0.344
       0.517
       0.681
       0.754
       0.712
       0.600
       0.483
       0.383
       0.262
       0.070
      -0.200
      -0.493
      -0.728
      -0.854
      -0.868
      -0.807
      -0.708
      -0.591
      -0.460
      -0.320
      -0.188
      -0.085
      -0.032
      -0.037
      -0.087
      -0.154
      -0.191
      -0.159
      -0.051
       0.104
       0.258
       0.375
       0.442
       0.463
       0.456
       0.445
       0.443
       0.437
       0.383
       0.242
       0.028
      -0.189
      -0.330
      -0.363
      -0.319
      -0.268
      -0.265
      -0.319
      -0.385
      -0.398
      -0.315
      -0.159
      -0.008
       0.058
       0.021
      -0.058
      -0.087
      -0.011
       0.144
       0.300
       0.383
       0.363
       0.268
       0.149
       0.050
      -0.021
      -0.082
      -0.156
      -0.236
      -0.288
      -0.281
      -0.216
      -0.133
      -0.078
      -0.062
      -0.059
      -0.023
       0.063
       0.178
       0.284
       0.359
       0.410
       0.454
       0.488
       0.486
       0.418
       0.283
       0.108
      -0.068
      -0.220
      -0.339
      -0.428
      -0.475
      -0.455
      -0.348
      -0.172
       0.003
       0.096
       0.063
      -0.070
      -0.229
      -0.332
      -0.335
      -0.227
      -0.023
       0.244
       0.534
       0.794
       0.976
       1.034
       0.943
       0.712
       0.400
       0.088
      -0.155
      -0.318
      -0.436
      -0.557
      -0.708
      -0.891
      -1.088
      -1.248
      -1.289
      -1.132
      -0.759
      -0.244
       0.286
       0.715
       0.989
       1.118
       1.140
       1.090
       0.974
       0.772
       0.469
       0.090
      -0.290
      -0.577
      -0.704
      -0.665
      -0.504
      -0.287
      -0.075
       0.087
       0.173
       0.175
       0.107
       0.002
      -0.098
      -0.158
      -0.164
      -0.132
      -0.100
      -0.095
      -0.114
      -0.122
      -0.079
       0.030
       0.182
       0.319
       0.373
       0.286
       0.050
      -0.276
      -0.575
      -0.737
      -0.711
      -0.523
      -0.250
       0.032
       0.269
       0.435
       0.523
       0.534
       0.475
       0.349
       0.170
      -0.040
      -0.240
      -0.391
      -0.460
      -0.435
      -0.324
      -0.152
       0.048
       0.244
       0.417
       0.555
       0.635
       0.620
       0.490
       0.260
      -0.013
      -0.242
      -0.359
      -0.344
      -0.246
      -0.146
      -0.104
      -0.126
      -0.179
      -0.227
      -0.254
      -0.263
      -0.257
      -0.241
      -0.219
      -0.181
      -0.110
       0.007
       0.148
       0.259
       0.285
       0.217
       0.096
      -0.022
      -0.105
      -0.160
      -0.204
      -0.245
      -0.281
      -0.303
      -0.309
      -0.294
      -0.255
      -0.192
      -0.116
      -0.034
       0.052
       0.156
       0.291
       0.461
       0.648
       0.805
       0.880
       0.847
       0.723
       0.563
       0.412
       0.274
       0.110
      -0.111
      -0.381
      -0.642
      -0.823
      -0.877
      -0.803
      -0.643
      -0.459
      -0.301
      -0.179
      -0.075
       0.027
       0.121
       0.181
       0.191
       0.159
       0.102
       0.031
      -0.046
      -0.102
      -0.088
       0.041
       0.279
       0.551
       0.759
       0.836
       0.782
       0.642
       0.467
       0.278
       0.070
      -0.179
      -0.478
      -0.803
      -1.099
      -1.308
      -1.401
      -1.379
      -1.259
      -1.041
      -0.720
      -0.309
       0.146
       0.577
       0.930
       1.175
       1.299
       1.285
       1.122
       0.825
       0.459
       0.123
      -0.097
      -0.176
      -0.155
      -0.110
      -0.098
      -0.137
      -0.207
      -0.272
      -0.301
      -0.273
      -0.188
      -0.064
       0.060
       0.142
       0.155
       0.112
       0.054
       0.031
       0.066
       0.141
       0.205
       0.202
       0.095
      -0.119
      -0.404
      -0.693
      -0.911
      -1.008
      -0.968
      -0.812
      -0.580
      -0.311
      -0.026
       0.274
       0.588
       0.895
       1.142
       1.269
       1.242
       1.079
       0.840
       0.584
       0.346
       0.128
      -0.082
      -0.295
      -0.513
      -0.718
      -0.877
      -0.952
      -0.928
      -0.823
      -0.675
      -0.511
      -0.330
      -0.128
       0.084
       0.265
       0.367
       0.359
       0.248
       0.081
      -0.074
      -0.158
      -0.150
      -0.078
       0.013
       0.094
       0.186
       0.327
       0.524
       0.725
       0.847
       0.834
       0.687
       0.445
       0.145
      -0.192
      -0.556
      -0.916
      -1.225
      -1.431
      -1.497
      -1.418
      -1.215
      -0.926
      -0.584
      -0.210
       0.183
       0.590
       1.004
       1.411
       1.774
       2.036
       2.128
       2.008
       1.689
       1.241
       0.762
       0.320
      -0.071
      -0.445
      -0.818
      -1.149
      -1.350
      -1.351
      -1.153
      -0.834
      -0.499
      -0.225
      -0.036
       0.089
       0.176
       0.230
       0.224
       0.126
      -0.064
      -0.290
      -0.467
      -0.537
      -0.513
      -0.463
      -0.450
      -0.466
      -0.441
      -0.304
      -0.044
       0.273
       0.552
       0.726
       0.769
       0.688
       0.501
       0.243
      -0.028
      -0.239
      -0.339
      -0.325
      -0.241
      -0.140
      -0.043
       0.062
       0.191
       0.329
       0.420
       0.412
       0.309
       0.178
       0.096
       0.092
       0.129
       0.133
       0.050
      -0.127
      -0.363
      -0.605
      -0.801
      -0.903
      -0.876
      -0.714
      -0.451
      -0.170
       0.034
       0.097
       0.034
      -0.064
      -0.082
       0.047
       0.307
       0.612
       0.855
       0.953
       0.876
       0.644
       0.322
      -0.012
      -0.287
      -0.470
      -0.565
      -0.606
      -0.633
      -0.671
      -0.720
      -0.760
      -0.765
      -0.710
      -0.579
      -0.376
      -0.125
       0.137
       0.372
       0.561
       0.721
       0.889
       1.085
       1.285
       1.430
       1.480
       1.437
       1.337
       1.204
       1.030
       0.794
       0.485
       0.110
      -0.313
      -0.759
      -1.188
      -1.541
      -1.758
      -1.808
      -1.705
      -1.505
      -1.277
      -1.066
      -0.870
      -0.647
      -0.359
      -0.008
       0.350
       0.645
       0.836
       0.930
       0.955
       0.922
       0.823
       0.665
       0.487
       0.347
       0.281
       0.283
       0.323
       0.380
       0.447
       0.509
       0.528
       0.459
       0.294
       0.086
      -0.081
      -0.150
      -0.133
      -0.101
      -0.135
      -0.272
      -0.484
      -0.699
      -0.851
      -0.910
      -0.879
      -0.786
      -0.664
      -0.541
      -0.421
      -0.292
      -0.145
       0.005
       0.118
       0.153
       0.096
      -0.032
      -0.185
      -0.308
      -0.351
      -0.293
      -0.148
       0.037
       0.213
       0.360
       0.489
       0.624
       0.779
       0.943
       1.091
       1.195
       1.238
       1.208
       1.102
       0.914
       0.646
       0.313
      -0.049
      -0.390
      -0.668
      -0.871
      -1.015
      -1.119
      -1.184
      -1.190
      -1.118
      -0.984
      -0.844
      -0.756
      -0.740
      -0.759
      -0.746
      -0.659
      -0.502
      -0.306
      -0.096
       0.121
       0.338
       0.531
       0.669
       0.738
       0.764
       0.799
       0.881
       1.003
       1.119
       1.180
       1.174
       1.126
       1.059
       0.960
       0.772
       0.449
       0.002
      -0.478
      -0.866
      -1.063
      -1.049
      -0.879
      -0.653
      -0.467
      -0.380
      -0.393
      -0.461
      -0.527
      -0.548
      -0.498
      -0.370
      -0.175
       0.043
       0.218
       0.297
       0.287
       0.243
       0.227
       0.253
       0.293
       0.315
       0.314
       0.307
       0.308
       0.310
       0.285
       0.206
       0.066
      -0.116
      -0.298
      -0.444
      -0.536
      -0.585
      -0.612
      -0.632
      -0.646
      -0.643
      -0.608
      -0.527
      -0.399
      -0.237
      -0.058
       0.125
       0.306
       0.479
       0.616
       0.674
       0.608
       0.404
       0.102
      -0.206
      -0.399
      -0.373
      -0.096
       0.372
       0.901
       1.356
       1.657
       1.788
       1.762
       1.588
       1.262
       0.789
       0.196
      -0.469
      -1.144
      -1.754
      -2.215
      -2.454
      -2.446
      -2.224
      -1.866
      -1.449
      -1.020
      -0.597
      -0.176
       0.250
       0.683
       1.108
       1.482
       1.747
       1.859
       1.805
       1.609
       1.315
       0.970
       0.619
       0.291
      -0.010
      -0.302
      -0.592
      -0.851
      -1.010
      -1.019
      -0.888
      -0.696
      -0.541
      -0.490
      -0.550
      -0.693
      -0.878
      -1.071
      -1.229
      -1.302
      -1.231
      -0.990
      -0.605
      -0.161
       0.247
       0.561
       0.790
       0.989
       1.215
       1.482
       1.758
       1.982
       2.101
       2.084
       1.927
       1.636
       1.218
       0.693
       0.108
      -0.463
      -0.942
      -1.281
      -1.475
      -1.546
      -1.525
      -1.439
      -1.313
      -1.169
      -1.010
      -0.822
      -0.591
      -0.320
      -0.043
       0.193
       0.350
       0.417
       0.407
       0.348
       0.275
       0.215
       0.193
       0.213
       0.266
       0.337
       0.424
       0.543
       0.699
       0.861
       0.961
       0.939
       0.786
       0.550
       0.294
       0.053
      -0.178
      -0.418
      -0.675
      -0.938
      -1.189
      -1.408
      -1.564
      -1.604
      -1.471
      -1.140
      -0.659
      -0.136
       0.314
       0.632
       0.834
       0.971
       1.075
       1.122
       1.061
       0.862
       0.548
       0.174
      -0.191
      -0.483
      -0.642
      -0.629
      -0.458
      -0.198
       0.059
       0.258
       0.394
       0.494
       0.573
       0.618
       0.597
       0.490
       0.310
       0.100
      -0.077
      -0.177
      -0.199
      -0.192
      -0.227
      -0.347
      -0.537
      -0.733
      -0.868
      -0.908
      -0.861
      -0.755
      -0.605
      -0.406
      -0.148
       0.162
       0.490
       0.782
       0.978
       1.032
       0.937
       0.727
       0.452
       0.156
      -0.130
      -0.379
      -0.564
      -0.664
      -0.674
      -0.600
      -0.445
      -0.216
       0.061
       0.330
       0.522
       0.594
       0.547
       0.426
       0.279
       0.122
      -0.063
      -0.299
      -0.568
      -0.807
      -0.943
      -0.946
      -0.842
      -0.679
      -0.481
      -0.235
       0.079
       0.445
       0.798
       1.052
       1.157
       1.122
       1.001
       0.851
       0.698
       0.529
       0.314
       0.038
      -0.272
      -0.548
      -0.708
      -0.695
      -0.512
      -0.220
       0.096
       0.355
       0.516
       0.571
       0.543
       0.461
       0.348
       0.216
       0.070
      -0.097
      -0.301
      -0.561
      -0.891
      -1.268
      -1.612
      -1.807
      -1.758
      -1.448
      -0.958
      -0.422
       0.043
       0.398
       0.669
       0.904
       1.110
       1.255
       1.295
       1.217
       1.037
       0.787
       0.496
       0.198
      -0.059
      -0.220
      -0.257
      -0.188
      -0.072
       0.032
       0.099
       0.145
       0.197
       0.266
       0.336
       0.372
       0.337
       0.209
      -0.010
      -0.282
      -0.550
      -0.766
      -0.909
      -0.973
      -0.949
      -0.818
      -0.578
      -0.260
       0.066
       0.325
       0.468
       0.494
       0.444
       0.371
       0.307
       0.253
       0.194
       0.119
       0.033
      -0.048
      -0.108
      -0.138
      -0.146
      -0.153
      -0.173
      -0.189
      -0.159
      -0.055
       0.096
       0.213
       0.222
       0.117
      -0.027
      -0.110
      -0.078
       0.043
       0.166
       0.209
       0.144
       0.004
      -0.147
      -0.247
      -0.264
      -0.199
      -0.078
       0.052
       0.136
       0.137
       0.052
      -0.083
      -0.209
      -0.273
      -0.238
      -0.099
       0.106
       0.303
       0.418
       0.425
       0.359
       0.286
       0.249
       0.240
       0.227
       0.187
       0.131
       0.077
       0.026
      -0.047
      -0.174
      -0.354
      -0.547
      -0.686
      -0.723
      -0.645
      -0.472
      -0.239
       0.024
       0.285
       0.510
       0.657
       0.694
       0.622
       0.474
       0.305
       0.159
       0.048
      -0.039
      -0.127
      -0.236
      -0.371
      -0.518
      -0.640
      -0.688
      -0.627
      -0.463
      -0.248
      -0.045
       0.105
       0.204
       0.272
       0.324
       0.358
       0.360
       0.320
       0.234
       0.111
      -0.029
      -0.160
      -0.255
      -0.297
      -0.289
      -0.247
      -0.186
      -0.117
      -0.040
       0.047
       0.144
       0.251
       0.365
       0.478
       0.568
       0.602
       0.541
       0.362
       0.080
      -0.248
      -0.533
      -0.701
      -0.726
      -0.637
      -0.487
      -0.316
      -0.132
       0.080
       0.326
       0.584
       0.802
       0.919
       0.888
       0.695
       0.370
      -0.020
      -0.389
      -0.659
      -0.791
      -0.792
      -0.703
      -0.564
      -0.402
      -0.227
      -0.048
       0.125
       0.284
       0.418
       0.503
       0.512
       0.435
       0.304
       0.177
       0.099
       0.068
       0.047
      -0.002
      -0.090
      -0.196
      -0.288
      -0.340
      -0.340
      -0.297
      -0.246
      -0.227
      -0.266
      -0.355
      -0.455
      -0.509
      -0.473
      -0.331
      -0.111
       0.134
       0.339
       0.455
       0.465
       0.387
       0.263
       0.145
       0.071
       0.060
       0.101
       0.166
       0.211
       0.203
       0.152
       0.108
       0.127
       0.222
       0.351
       0.451
       0.478
       0.424
       0.300
