Origin Time       11/2/2013 10:48:55	
Lat.              31.0 N	
Long.             78.4 E	
Depth (Km)          5.0
Magnitude         4.3
 Region           UTTARKASHI-UTTARAKHAND                                           
 Above details taken from IMD 
   
Station Code      CKR
Station Lat.       30.694
Station Long.      77.901
Station Height(m) 2118.0
Site Class        B   Vs30 between 375 m/sec to 700 m/sec *  
Record Time       11.02.2013 10:48:39.304
Sampling Rate     200. Hz
 Record Duration   80.255 Sec.
 Direction         Vert. (Up positive)
Max. Acceleration     -2.176 cm/sec**2
     
  * For reference see Site Classification link of website 
     
 Base Line Corrected and Low Pass Filtered (Cut Off at 35 Hz) Time History
 Acceleration data in cm/sec**2
    
[...]
      -0.015
      -0.009
      -0.004
      -0.004
      -0.005
      -0.006
      -0.005
      -0.003
       0.001
       0.002
      -0.001
      -0.005
      -0.006
      -0.003
      -0.004
      -0.012
      -0.018
      -0.011
       0.010
       0.031
       0.035
       0.017
      -0.011
      -0.031
      -0.032
      -0.015
       0.009
       0.021
       0.012
      -0.011
      -0.027
      -0.025
      -0.007
       0.010
       0.013
       0.003
      -0.010
      -0.010
       0.004
       0.020
       0.029
       0.026
       0.015
       0.006
       0.006
       0.013
       0.019
       0.015
       0.001
      -0.014
      -0.022
      -0.020
      -0.007
       0.011
       0.024
       0.025
       0.012
      -0.005
      -0.015
      -0.013
      -0.002
       0.010
       0.018
       0.019
       0.015
       0.007
      -0.004
      -0.015
      -0.021
      -0.019
      -0.014
      -0.009
      -0.004
       0.005
       0.013
       0.013
       0.004
      -0.007
      -0.007
       0.006
       0.019
       0.018
       0.001
      -0.019
      -0.026
      -0.015
       0.002
       0.015
       0.019
       0.018
       0.014
       0.008
       0.002
       0.001
       0.003
       0.004
      -0.002
      -0.011
      -0.015
      -0.008
       0.004
       0.012
       0.005
      -0.007
      -0.012
      -0.004
       0.009
       0.013
       0.006
      -0.005
      -0.011
      -0.008
      -0.002
       0.002
       0.001
      -0.004
      -0.010
      -0.015
      -0.018
      -0.018
      -0.013
      -0.005
       0.000
      -0.002
      -0.005
      -0.002
       0.003
       0.006
       0.004
      -0.001
      -0.005
      -0.004
      -0.002
      -0.001
      -0.003
      -0.005
      -0.006
      -0.003
       0.001
       0.003
       0.005
       0.008
       0.009
       0.005
       0.000
      -0.004
      -0.005
      -0.004
      -0.003
      -0.004
      -0.008
      -0.013
      -0.013
      -0.006
       0.003
       0.009
       0.009
       0.005
       0.002
       0.003
       0.006
       0.009
       0.007
       0.003
       0.000
       0.001
       0.002
      -0.003
      -0.011
      -0.016
      -0.014
      -0.004
       0.009
       0.019
       0.023
       0.020
       0.011
      -0.001
      -0.009
      -0.010
      -0.002
       0.007
       0.008
       0.001
      -0.005
      -0.003
       0.003
       0.008
       0.009
       0.009
       0.010
       0.014
       0.017
       0.017
       0.011
       0.003
      -0.003
      -0.005
      -0.006
      -0.006
      -0.002
       0.004
       0.008
       0.007
       0.003
       0.002
       0.006
       0.009
       0.008
       0.006
       0.005
       0.004
       0.002
      -0.001
      -0.002
       0.000
       0.002
      -0.001
      -0.007
      -0.009
      -0.003
       0.007
       0.012
       0.008
       0.002
       0.002
       0.004
       0.003
      -0.003
      -0.009
      -0.009
      -0.003
       0.002
       0.003
       0.002
       0.003
       0.008
       0.014
       0.014
       0.008
       0.002
       0.001
       0.005
       0.010
       0.011
       0.009
       0.004
       0.000
      -0.002
      -0.002
      -0.004
      -0.006
      -0.005
       0.000
       0.004
       0.002
      -0.005
      -0.009
      -0.004
       0.007
       0.016
       0.017
       0.007
      -0.006
      -0.012
      -0.008
      -0.001
       0.003
       0.003
       0.001
       0.001
       0.003
       0.005
       0.003
      -0.001
      -0.003
      -0.002
      -0.001
      -0.002
      -0.005
      -0.005
      -0.005
      -0.010
      -0.016
      -0.018
      -0.013
      -0.005
       0.000
       0.003
       0.006
       0.011
       0.014
       0.011
       0.002
      -0.008
      -0.011
      -0.007
      -0.001
       0.002
       0.002
       0.001
      -0.001
      -0.004
      -0.009
      -0.008
      -0.002
       0.007
       0.012
       0.011
       0.005
       0.001
       0.001
       0.001
      -0.002
      -0.008
      -0.015
      -0.017
      -0.015
      -0.010
      -0.001
       0.012
       0.024
       0.026
       0.016
       0.003
      -0.003
       0.000
       0.005
       0.005
      -0.002
      -0.010
      -0.010
      -0.003
       0.004
       0.005
       0.002
       0.002
       0.007
       0.012
       0.011
       0.008
       0.005
       0.005
       0.003
      -0.002
      -0.010
      -0.016
      -0.016
      -0.010
      -0.003
       0.002
       0.003
       0.000
      -0.004
      -0.007
      -0.006
       0.002
       0.013
       0.018
       0.015
       0.008
       0.002
       0.000
       0.001
       0.004
       0.004
       0.001
      -0.004
      -0.009
      -0.011
      -0.006
       0.005
       0.015
       0.016
       0.007
      -0.001
      -0.002
       0.000
      -0.003
      -0.011
      -0.019
      -0.021
      -0.017
      -0.009
       0.003
       0.013
       0.015
       0.008
      -0.002
      -0.005
      -0.001
       0.007
       0.011
       0.008
       0.000
      -0.009
      -0.015
      -0.017
      -0.013
      -0.007
      -0.002
      -0.003
      -0.007
      -0.007
       0.001
       0.010
       0.013
       0.007
      -0.001
      -0.004
      -0.002
       0.000
       0.000
      -0.002
      -0.006
      -0.008
      -0.009
      -0.010
      -0.011
      -0.007
       0.004
       0.016
       0.023
       0.021
       0.014
       0.008
       0.007
       0.009
       0.007
      -0.001
      -0.011
      -0.014
      -0.009
      -0.001
       0.002
       0.003
       0.005
       0.009
       0.013
       0.015
       0.018
       0.021
       0.018
       0.009
      -0.003
      -0.007
      -0.001
       0.008
       0.009
      -0.001
      -0.012
      -0.014
      -0.006
       0.004
       0.005
       0.001
      -0.002
      -0.001
       0.002
       0.004
       0.005
       0.004
       0.000
      -0.006
      -0.013
      -0.015
      -0.008
       0.006
       0.021
       0.026
       0.019
       0.009
       0.005
       0.008
       0.013
       0.014
       0.010
       0.003
      -0.004
      -0.007
      -0.003
       0.003
       0.005
      -0.002
      -0.013
      -0.018
      -0.012
       0.003
       0.015
       0.015
       0.004
      -0.005
      -0.006
      -0.002
       0.000
      -0.003
      -0.007
      -0.010
      -0.012
      -0.013
      -0.012
      -0.007
      -0.002
       0.002
       0.004
       0.003
       0.003
       0.005
       0.007
       0.008
       0.006
       0.003
       0.001
      -0.005
      -0.013
      -0.018
      -0.016
      -0.010
      -0.008
      -0.008
      -0.007
      -0.001
       0.009
       0.015
       0.014
       0.008
       0.003
       0.001
       0.001
      -0.003
      -0.007
      -0.008
      -0.006
      -0.004
      -0.005
      -0.004
      -0.002
       0.002
       0.005
       0.009
       0.016
       0.023
       0.025
       0.019
       0.007
      -0.003
      -0.005
       0.002
       0.011
       0.013
       0.006
      -0.005
      -0.011
      -0.008
      -0.002
       0.000
      -0.006
      -0.017
      -0.030
      -0.038
      -0.037
      -0.031
      -0.026
      -0.032
      -0.049
      -0.072
      -0.091
      -0.095
      -0.090
      -0.087
      -0.094
      -0.104
      -0.107
      -0.102
      -0.093
      -0.086
      -0.081
      -0.076
      -0.071
      -0.066
      -0.062
      -0.059
      -0.053
      -0.041
      -0.020
       0.010
       0.051
       0.098
       0.142
       0.174
       0.193
       0.204
       0.214
       0.220
       0.220
       0.212
       0.196
       0.171
       0.139
       0.106
       0.075
       0.051
       0.035
       0.034
       0.046
       0.062
       0.068
       0.060
       0.041
       0.023
       0.016
       0.020
       0.028
       0.027
       0.006
      -0.035
      -0.094
      -0.161
      -0.224
      -0.264
      -0.268
      -0.230
      -0.162
      -0.088
      -0.039
      -0.031
      -0.059
      -0.104
      -0.146
      -0.170
      -0.169
      -0.142
      -0.101
      -0.065
      -0.050
      -0.056
      -0.069
      -0.072
      -0.061
      -0.037
      -0.006
       0.028
       0.058
       0.081
       0.095
       0.108
       0.132
       0.169
       0.201
       0.203
       0.164
       0.097
       0.029
      -0.008
       0.004
       0.069
       0.167
       0.262
       0.320
       0.329
       0.296
       0.243
       0.194
       0.161
       0.145
       0.132
       0.117
       0.106
       0.112
       0.145
       0.203
       0.273
       0.332
       0.351
       0.310
       0.203
       0.053
      -0.098
      -0.214
      -0.293
      -0.355
      -0.412
      -0.451
      -0.447
      -0.393
      -0.313
      -0.237
      -0.185
      -0.159
      -0.154
      -0.164
      -0.181
      -0.200
      -0.219
      -0.238
      -0.261
      -0.286
      -0.308
      -0.321
      -0.321
      -0.310
      -0.294
      -0.272
      -0.235
      -0.165
      -0.048
       0.119
       0.314
       0.492
       0.594
       0.581
       0.449
       0.237
       0.004
      -0.184
      -0.281
      -0.276
      -0.194
      -0.085
       0.009
       0.073
       0.128
       0.208
       0.331
       0.483
       0.628
       0.719
       0.718
       0.609
       0.410
       0.159
      -0.105
      -0.352
      -0.554
      -0.681
      -0.710
      -0.641
      -0.505
      -0.339
      -0.165
       0.012
       0.189
       0.354
       0.493
       0.589
       0.621
       0.578
       0.455
       0.262
       0.018
      -0.240
      -0.468
      -0.621
      -0.672
      -0.622
      -0.499
      -0.342
      -0.178
      -0.025
       0.098
       0.178
       0.220
       0.251
       0.300
       0.361
       0.399
       0.368
       0.242
       0.025
      -0.244
      -0.486
      -0.609
      -0.550
      -0.321
      -0.003
       0.294
       0.494
       0.582
       0.594
       0.571
       0.532
       0.466
       0.349
       0.164
      -0.077
      -0.333
      -0.548
      -0.671
      -0.688
      -0.618
      -0.499
      -0.366
      -0.239
      -0.123
      -0.023
       0.052
       0.080
       0.050
      -0.024
      -0.106
      -0.164
      -0.189
      -0.192
      -0.188
      -0.185
      -0.188
      -0.185
      -0.152
      -0.058
       0.102
       0.286
       0.423
       0.461
       0.416
       0.353
       0.319
       0.306
       0.270
       0.181
       0.058
      -0.048
      -0.096
      -0.082
      -0.030
       0.029
       0.079
       0.107
       0.099
       0.042
      -0.045
      -0.118
      -0.135
      -0.096
      -0.036
       0.011
       0.045
       0.076
       0.102
       0.096
       0.031
      -0.084
      -0.204
      -0.275
      -0.268
      -0.191
      -0.073
       0.061
       0.188
       0.280
       0.320
       0.311
       0.280
       0.246
       0.196
       0.101
      -0.045
      -0.205
      -0.327
      -0.390
      -0.418
      -0.448
      -0.490
      -0.513
      -0.483
      -0.393
      -0.260
      -0.098
       0.077
       0.238
       0.340
       0.348
       0.266
       0.150
       0.073
       0.081
       0.159
       0.242
       0.270
       0.228
       0.145
       0.061
      -0.011
      -0.078
      -0.138
      -0.169
      -0.143
      -0.057
       0.061
       0.168
       0.243
       0.308
       0.416
       0.610
       0.878
       1.125
       1.199
       0.976
       0.447
      -0.258
      -0.939
      -1.432
      -1.664
      -1.647
      -1.435
      -1.089
      -0.661
      -0.203
       0.226
       0.555
       0.724
       0.715
       0.574
       0.378
       0.183
      -0.008
      -0.226
      -0.476
      -0.712
      -0.857
      -0.860
      -0.737
      -0.548
      -0.345
      -0.121
       0.167
       0.547
       0.966
       1.294
       1.399
       1.236
       0.882
       0.486
       0.179
       0.006
      -0.069
      -0.116
      -0.187
      -0.277
      -0.342
      -0.324
      -0.184
       0.087
       0.452
       0.822
       1.059
       1.045
       0.751
       0.283
      -0.176
      -0.472
      -0.561
      -0.516
      -0.462
      -0.491
      -0.621
      -0.801
      -0.955
      -1.018
      -0.951
      -0.739
      -0.387
       0.067
       0.530
       0.874
       0.990
       0.851
       0.532
       0.178
      -0.072
      -0.148
      -0.079
       0.022
       0.026
      -0.127
      -0.381
      -0.606
      -0.682
      -0.581
      -0.374
      -0.167
      -0.038
      -0.010
      -0.064
      -0.155
      -0.219
      -0.180
       0.021
       0.386
       0.834
       1.230
       1.438
       1.388
       1.108
       0.711
       0.329
       0.044
      -0.141
      -0.272
      -0.410
      -0.598
      -0.848
      -1.110
      -1.278
      -1.238
      -0.949
      -0.488
      -0.014
       0.320
       0.450
       0.413
       0.302
       0.196
       0.122
       0.058
      -0.030
      -0.152
      -0.273
      -0.327
      -0.251
      -0.019
       0.335
       0.725
       1.045
       1.223
       1.256
       1.207
       1.143
       1.064
       0.888
       0.523
      -0.055
      -0.759
      -1.438
      -1.942
      -2.176
      -2.113
      -1.781
      -1.261
      -0.670
      -0.145
       0.220
       0.427
       0.574
       0.775
       1.060
       1.335
       1.440
       1.258
       0.790
       0.155
      -0.469
      -0.914
      -1.079
      -0.965
      -0.684
      -0.418
      -0.312
      -0.373
      -0.450
      -0.344
       0.053
       0.679
       1.340
       1.813
       1.947
       1.704
       1.168
       0.505
      -0.095
      -0.501
      -0.696
      -0.771
      -0.843
      -0.966
      -1.116
      -1.225
      -1.229
      -1.083
      -0.765
      -0.292
       0.265
       0.787
       1.145
       1.247
       1.072
       0.678
       0.189
      -0.254
      -0.551
      -0.685
      -0.717
      -0.728
      -0.759
      -0.784
      -0.736
      -0.554
      -0.236
       0.150
       0.492
       0.691
       0.722
       0.638
       0.529
       0.456
       0.417
       0.374
       0.285
       0.139
      -0.037
      -0.188
      -0.266
      -0.263
      -0.212
      -0.149
      -0.083
       0.002
       0.122
       0.266
       0.402
       0.486
       0.487
       0.403
       0.264
       0.116
      -0.007
      -0.097
      -0.162
      -0.206
      -0.226
      -0.218
      -0.198
      -0.205
      -0.271
      -0.399
      -0.556
      -0.695
      -0.763
      -0.712
      -0.515
      -0.196
       0.168
       0.484
       0.691
       0.775
       0.763
       0.694
       0.593
       0.466
       0.306
       0.116
      -0.083
      -0.267
      -0.423
      -0.548
      -0.631
      -0.653
      -0.606
      -0.506
      -0.380
      -0.231
      -0.040
       0.200
       0.449
       0.642
       0.735
       0.740
       0.700
       0.639
       0.550
       0.404
       0.182
      -0.106
      -0.400
      -0.611
      -0.671
      -0.574
      -0.375
      -0.142
       0.085
       0.292
       0.460
       0.550
       0.529
       0.395
       0.191
      -0.013
      -0.168
      -0.276
      -0.376
      -0.508
      -0.669
      -0.798
      -0.808
      -0.642
      -0.307
       0.111
       0.490
       0.725
       0.768
       0.644
       0.435
       0.237
       0.113
       0.063
       0.035
      -0.038
      -0.183
      -0.368
      -0.526
      -0.596
      -0.562
      -0.451
      -0.304
      -0.144
       0.023
       0.193
       0.357
       0.497
       0.588
       0.598
       0.499
       0.292
       0.013
      -0.286
      -0.560
      -0.769
      -0.862
      -0.781
      -0.509
      -0.102
       0.306
       0.581
       0.659
       0.578
       0.439
       0.339
       0.323
       0.379
       0.454
       0.480
       0.411
       0.247
       0.032
      -0.172
      -0.324
      -0.416
      -0.462
      -0.473
      -0.440
      -0.338
      -0.157
       0.079
       0.316
       0.483
       0.506
       0.338
      -0.007
      -0.421
      -0.743
      -0.853
      -0.754
      -0.569
      -0.442
      -0.428
      -0.468
      -0.446
      -0.278
       0.029
       0.394
       0.723
       0.953
       1.071
       1.096
       1.057
       0.979
       0.886
       0.792
       0.695
       0.567
       0.368
       0.068
      -0.316
      -0.718
      -1.042
      -1.202
      -1.156
      -0.921
      -0.568
      -0.190
       0.126
       0.313
       0.338
       0.214
       0.002
      -0.202
      -0.305
      -0.273
      -0.151
      -0.041
      -0.033
      -0.144
      -0.304
      -0.415
      -0.410
      -0.283
      -0.071
       0.170
       0.385
       0.536
       0.609
       0.614
       0.568
       0.486
       0.384
       0.274
       0.167
       0.061
      -0.052
      -0.174
      -0.295
      -0.385
      -0.414
      -0.358
      -0.216
      -0.014
       0.191
       0.323
       0.325
       0.199
       0.016
      -0.125
      -0.162
      -0.098
       0.010
       0.096
       0.128
       0.110
       0.066
       0.006
      -0.079
      -0.197
      -0.337
      -0.469
      -0.560
      -0.579
      -0.490
      -0.282
      -0.002
       0.246
       0.350
       0.268
       0.060
      -0.139
      -0.206
      -0.097
       0.144
       0.413
       0.601
       0.637
       0.506
       0.260
      -0.008
      -0.200
      -0.263
      -0.212
      -0.117
      -0.059
      -0.080
      -0.159
      -0.239
      -0.270
      -0.238
      -0.153
      -0.024
       0.153
       0.365
       0.567
       0.682
       0.639
       0.425
       0.103
      -0.216
      -0.433
      -0.505
      -0.457
      -0.349
      -0.243
      -0.175
      -0.147
      -0.139
      -0.130
      -0.102
      -0.035
       0.094
       0.287
       0.492
       0.609
       0.548
       0.302
      -0.034
      -0.315
      -0.431
      -0.383
      -0.261
      -0.157
      -0.091
      -0.008
       0.143
       0.345
       0.513
       0.562
       0.477
       0.309
       0.132
      -0.017
      -0.134
      -0.214
      -0.227
      -0.149
       0.002
       0.156
       0.233
       0.194
       0.060
      -0.098
      -0.205
      -0.224
      -0.172
      -0.101
      -0.053
      -0.031
      -0.015
       0.002
      -0.008
      -0.092
      -0.261
      -0.462
      -0.598
      -0.605
      -0.499
      -0.357
      -0.245
      -0.158
      -0.036
       0.161
       0.394
       0.562
       0.580
       0.446
       0.243
       0.074
       0.003
       0.040
       0.154
       0.294
       0.402
       0.420
       0.321
       0.118
      -0.125
      -0.326
      -0.436
      -0.465
      -0.475
      -0.517
      -0.577
      -0.584
      -0.469
      -0.225
       0.075
       0.329
       0.459
       0.443
       0.307
       0.102
      -0.099
      -0.222
      -0.211
