Origin Time       16/4/2013 10:44:11	
Lat.              28.0 N	
Long.             62.1 E	
Depth (Km)         46.0
Magnitude         7.8
 Region           Iran-Pakistan-Border-Region                                      
 Above details taken from IMD 
     
Station Code      CKR
Station Lat.       30.694  N
Station Long.      77.901  E
Station Height(m) 2118.0
Site Class        B   Vs30 between 375 m/sec to 700 m/sec *  
Record Time       16.04.2013 10:49:39.989
Sampling Rate     200. Hz
 Record Duration   80.010 Sec.
 Direction         E-W (E positive)
Max. Acceleration     -1.776 cm/sec**2
     
  * For reference see Site Classification link of website 
     
 Base Line Corrected and Low Pass Filtered (Cut Off at 35 Hz) Time History
 Acceleration data in cm/sec**2
    
[...]
      -0.309
      -0.314
      -0.322
      -0.329
      -0.329
      -0.324
      -0.327
      -0.340
      -0.353
      -0.348
      -0.327
      -0.306
      -0.299
      -0.295
      -0.277
      -0.237
      -0.188
      -0.141
      -0.099
      -0.058
      -0.018
       0.019
       0.056
       0.099
       0.151
       0.201
       0.238
       0.260
       0.280
       0.312
       0.352
       0.388
       0.413
       0.432
       0.452
       0.472
       0.492
       0.515
       0.549
       0.589
       0.621
       0.634
       0.635
       0.637
       0.647
       0.663
       0.676
       0.687
       0.698
       0.707
       0.708
       0.699
       0.690
       0.689
       0.696
       0.699
       0.691
       0.679
       0.671
       0.663
       0.642
       0.607
       0.564
       0.522
       0.480
       0.431
       0.374
       0.316
       0.260
       0.200
       0.132
       0.064
       0.012
      -0.016
      -0.031
      -0.045
      -0.060
      -0.063
      -0.050
      -0.036
      -0.034
      -0.042
      -0.046
      -0.042
      -0.039
      -0.050
      -0.072
      -0.094
      -0.109
      -0.127
      -0.160
      -0.207
      -0.253
      -0.281
      -0.295
      -0.306
      -0.319
      -0.328
      -0.328
      -0.320
      -0.303
      -0.277
      -0.243
      -0.207
      -0.173
      -0.135
      -0.089
      -0.036
       0.014
       0.061
       0.112
       0.176
       0.250
       0.318
       0.372
       0.418
       0.472
       0.539
       0.605
       0.650
       0.673
       0.681
       0.681
       0.673
       0.650
       0.613
       0.564
       0.499
       0.412
       0.307
       0.191
       0.073
      -0.048
      -0.175
      -0.306
      -0.432
      -0.548
      -0.658
      -0.774
      -0.898
      -1.015
      -1.112
      -1.190
      -1.260
      -1.330
      -1.391
      -1.438
      -1.472
      -1.499
      -1.515
      -1.512
      -1.487
      -1.448
      -1.400
      -1.339
      -1.256
      -1.151
      -1.036
      -0.923
      -0.808
      -0.679
      -0.531
      -0.373
      -0.219
      -0.069
       0.084
       0.240
       0.388
       0.518
       0.637
       0.754
       0.869
       0.972
       1.055
       1.121
       1.176
       1.217
       1.236
       1.229
       1.204
       1.173
       1.136
       1.083
       1.008
       0.917
       0.817
       0.705
       0.574
       0.425
       0.268
       0.114
      -0.037
      -0.183
      -0.320
      -0.445
      -0.565
      -0.690
      -0.818
      -0.936
      -1.031
      -1.103
      -1.166
      -1.223
      -1.263
      -1.275
      -1.264
      -1.246
      -1.230
      -1.203
      -1.150
      -1.068
      -0.976
      -0.884
      -0.791
      -0.691
      -0.587
      -0.484
      -0.387
      -0.289
      -0.186
      -0.085
       0.008
       0.090
       0.167
       0.244
       0.314
       0.365
       0.398
       0.427
       0.465
       0.510
       0.551
       0.583
       0.608
       0.630
       0.646
       0.656
       0.667
       0.681
       0.695
       0.701
       0.701
       0.701
       0.707
       0.714
       0.709
       0.689
       0.667
       0.657
       0.659
       0.656
       0.637
       0.604
       0.571
       0.537
       0.497
       0.447
       0.394
       0.346
       0.304
       0.261
       0.215
       0.173
       0.139
       0.110
       0.082
       0.059
       0.051
       0.064
       0.088
       0.113
       0.137
       0.171
       0.215
       0.260
       0.291
       0.309
       0.323
       0.334
       0.334
       0.316
       0.289
       0.265
       0.244
       0.214
       0.170
       0.120
       0.074
       0.034
      -0.008
      -0.056
      -0.101
      -0.133
      -0.156
      -0.186
      -0.227
      -0.266
      -0.290
      -0.296
      -0.295
      -0.292
      -0.282
      -0.260
      -0.232
      -0.206
      -0.181
      -0.147
      -0.104
      -0.058
      -0.019
       0.015
       0.055
       0.104
       0.149
       0.178
       0.194
       0.213
       0.243
       0.276
       0.296
       0.301
       0.297
       0.283
       0.257
       0.219
       0.181
       0.155
       0.139
       0.122
       0.098
       0.070
       0.047
       0.030
       0.014
      -0.004
      -0.019
      -0.024
      -0.022
      -0.020
      -0.020
      -0.017
      -0.009
      -0.007
      -0.020
      -0.041
      -0.055
      -0.057
      -0.058
      -0.072
      -0.100
      -0.133
      -0.162
      -0.192
      -0.231
      -0.279
      -0.327
      -0.370
      -0.412
      -0.457
      -0.502
      -0.537
      -0.563
      -0.590
      -0.624
      -0.655
      -0.673
      -0.678
      -0.681
      -0.688
      -0.690
      -0.681
      -0.663
      -0.648
      -0.637
      -0.621
      -0.589
      -0.541
      -0.487
      -0.436
      -0.381
      -0.317
      -0.245
      -0.174
      -0.106
      -0.032
       0.055
       0.147
       0.233
       0.309
       0.378
       0.441
       0.495
       0.533
       0.558
       0.573
       0.580
       0.575
       0.556
       0.525
       0.491
       0.455
       0.406
       0.342
       0.272
       0.211
       0.159
       0.105
       0.041
      -0.022
      -0.075
      -0.116
      -0.158
      -0.201
      -0.239
      -0.260
      -0.266
      -0.267
      -0.268
      -0.266
      -0.253
      -0.235
      -0.217
      -0.203
      -0.183
      -0.156
      -0.128
      -0.109
      -0.093
      -0.065
      -0.019
       0.031
       0.070
       0.094
       0.115
       0.140
       0.165
       0.179
       0.180
       0.171
       0.152
       0.121
       0.079
       0.034
      -0.002
      -0.029
      -0.055
      -0.084
      -0.108
      -0.117
      -0.116
      -0.118
      -0.125
      -0.128
      -0.111
      -0.076
      -0.035
       0.002
       0.034
       0.061
       0.076
       0.075
       0.062
       0.047
       0.038
       0.030
       0.012
      -0.015
      -0.042
      -0.060
      -0.074
      -0.087
      -0.096
      -0.091
      -0.070
      -0.041
      -0.008
       0.035
       0.092
       0.156
       0.211
       0.250
       0.282
       0.322
       0.372
       0.419
       0.454
       0.476
       0.493
       0.506
       0.510
       0.506
       0.501
       0.501
       0.498
       0.483
       0.452
       0.416
       0.382
       0.344
       0.294
       0.231
       0.165
       0.102
       0.040
      -0.026
      -0.098
      -0.169
      -0.236
      -0.301
      -0.364
      -0.421
      -0.464
      -0.491
      -0.510
      -0.525
      -0.529
      -0.516
      -0.491
      -0.467
      -0.449
      -0.430
      -0.399
      -0.359
      -0.321
      -0.286
      -0.247
      -0.197
      -0.142
      -0.092
      -0.046
       0.006
       0.075
       0.159
       0.246
       0.328
       0.407
       0.480
       0.539
       0.579
       0.608
       0.644
       0.689
       0.731
       0.753
       0.755
       0.751
       0.751
       0.752
       0.744
       0.726
       0.706
       0.687
       0.663
       0.629
       0.592
       0.561
       0.537
       0.503
       0.451
       0.388
       0.331
       0.285
       0.237
       0.177
       0.103
       0.024
      -0.056
      -0.139
      -0.227
      -0.311
      -0.388
      -0.457
      -0.527
      -0.596
      -0.658
      -0.706
      -0.744
      -0.780
      -0.812
      -0.831
      -0.828
      -0.808
      -0.780
      -0.747
      -0.701
      -0.642
      -0.578
      -0.513
      -0.441
      -0.350
      -0.240
      -0.119
       0.002
       0.126
       0.257
       0.392
       0.517
       0.624
       0.716
       0.806
       0.896
       0.973
       1.030
       1.066
       1.088
       1.093
       1.070
       1.020
       0.953
       0.878
       0.795
       0.700
       0.593
       0.480
       0.365
       0.241
       0.104
      -0.040
      -0.176
      -0.297
      -0.413
      -0.536
      -0.665
      -0.784
      -0.886
      -0.978
      -1.071
      -1.162
      -1.239
      -1.293
      -1.329
      -1.355
      -1.368
      -1.364
      -1.340
      -1.298
      -1.243
      -1.170
      -1.076
      -0.965
      -0.848
      -0.731
      -0.607
      -0.470
      -0.326
      -0.190
      -0.063
       0.067
       0.206
       0.344
       0.467
       0.574
       0.683
       0.806
       0.932
       1.042
       1.123
       1.186
       1.245
       1.307
       1.366
       1.414
       1.447
       1.461
       1.450
       1.410
       1.350
       1.283
       1.211
       1.123
       1.011
       0.885
       0.763
       0.650
       0.540
       0.423
       0.298
       0.176
       0.064
      -0.038
      -0.133
      -0.219
      -0.297
      -0.374
      -0.459
      -0.554
      -0.642
      -0.710
      -0.760
      -0.805
      -0.851
      -0.890
      -0.913
      -0.924
      -0.929
      -0.933
      -0.929
      -0.912
      -0.886
      -0.854
      -0.818
      -0.772
      -0.719
      -0.666
      -0.615
      -0.561
      -0.494
      -0.411
      -0.324
      -0.238
      -0.150
      -0.054
       0.045
       0.132
       0.202
       0.260
       0.320
       0.382
       0.436
       0.478
       0.513
       0.544
       0.568
       0.574
       0.561
       0.539
       0.521
       0.510
       0.498
       0.484
       0.473
       0.467
       0.459
       0.443
       0.426
       0.423
       0.439
       0.464
       0.483
       0.495
       0.506
       0.519
       0.526
       0.520
       0.503
       0.482
       0.457
       0.420
       0.365
       0.297
       0.223
       0.144
       0.050
      -0.063
      -0.186
      -0.306
      -0.418
      -0.530
      -0.639
      -0.735
      -0.812
      -0.878
      -0.950
      -1.027
      -1.093
      -1.131
      -1.141
      -1.137
      -1.131
      -1.121
      -1.101
      -1.069
      -1.025
      -0.965
      -0.879
      -0.766
      -0.641
      -0.518
      -0.396
      -0.265
      -0.123
       0.014
       0.133
       0.232
       0.324
       0.412
       0.489
       0.549
       0.590
       0.615
       0.621
       0.600
       0.551
       0.486
       0.420
       0.353
       0.275
       0.180
       0.081
      -0.007
      -0.082
      -0.154
      -0.229
      -0.300
      -0.359
      -0.407
      -0.450
      -0.486
      -0.505
      -0.501
      -0.480
      -0.452
      -0.422
      -0.381
      -0.324
      -0.253
      -0.180
      -0.107
      -0.031
       0.049
       0.123
       0.180
       0.224
       0.266
       0.310
       0.349
       0.374
       0.386
       0.390
       0.388
       0.376
       0.358
       0.340
       0.326
       0.313
       0.291
       0.265
       0.242
       0.228
       0.214
       0.183
       0.134
       0.081
       0.035
      -0.005
      -0.052
      -0.109
      -0.170
      -0.226
      -0.282
      -0.341
      -0.397
      -0.438
      -0.458
      -0.464
      -0.469
      -0.472
      -0.465
      -0.446
      -0.425
      -0.408
      -0.391
      -0.361
      -0.313
      -0.259
      -0.211
      -0.164
      -0.109
      -0.045
       0.016
       0.065
       0.111
       0.165
       0.228
       0.289
       0.335
       0.369
       0.401
       0.437
       0.471
       0.497
       0.512
       0.520
       0.523
       0.522
       0.524
       0.535
       0.548
       0.544
       0.513
       0.467
       0.427
       0.402
       0.381
       0.347
       0.298
       0.245
       0.195
       0.147
       0.099
       0.051
       0.011
      -0.022
      -0.055
      -0.092
      -0.126
      -0.144
      -0.146
      -0.145
      -0.146
      -0.142
      -0.121
      -0.087
      -0.053
      -0.031
      -0.019
      -0.014
      -0.020
      -0.045
      -0.085
      -0.128
      -0.164
      -0.197
      -0.236
      -0.285
      -0.334
      -0.373
      -0.403
      -0.431
      -0.451
      -0.453
      -0.430
      -0.389
      -0.345
      -0.296
      -0.238
      -0.168
      -0.094
      -0.024
       0.045
       0.122
       0.211
       0.303
       0.388
       0.463
       0.534
       0.599
       0.652
       0.685
       0.702
       0.707
       0.697
       0.663
       0.603
       0.527
       0.447
       0.362
       0.266
       0.159
       0.047
      -0.061
      -0.167
      -0.273
      -0.374
      -0.461
      -0.529
      -0.587
      -0.644
      -0.697
      -0.734
      -0.743
      -0.729
      -0.705
      -0.674
      -0.633
      -0.578
      -0.518
      -0.458
      -0.391
      -0.311
      -0.216
      -0.113
      -0.006
       0.109
       0.231
       0.348
       0.445
       0.523
       0.601
       0.696
       0.803
       0.899
       0.966
       1.008
       1.046
       1.090
       1.133
       1.165
       1.182
       1.188
       1.187
       1.182
       1.176
       1.169
       1.150
       1.111
       1.048
       0.972
       0.895
       0.819
       0.731
       0.620
       0.492
       0.361
       0.236
       0.108
      -0.030
      -0.177
      -0.325
      -0.473
      -0.624
      -0.778
      -0.924
      -1.049
      -1.157
      -1.264
      -1.381
      -1.498
      -1.596
      -1.665
      -1.711
      -1.744
      -1.767
      -1.776
      -1.773
      -1.765
      -1.749
      -1.716
      -1.658
      -1.581
      -1.498
      -1.410
      -1.311
      -1.194
      -1.066
      -0.937
      -0.806
      -0.667
      -0.517
      -0.364
      -0.217
      -0.076
       0.066
       0.215
       0.360
       0.487
       0.594
       0.689
       0.774
       0.841
       0.885
       0.908
       0.919
       0.916
       0.890
       0.839
       0.777
       0.718
       0.663
       0.602
       0.533
       0.461
       0.395
       0.335
       0.272
       0.203
       0.134
       0.075
       0.021
      -0.037
      -0.100
      -0.161
      -0.216
      -0.271
      -0.331
      -0.386
      -0.425
      -0.447
      -0.465
      -0.490
      -0.511
      -0.516
      -0.504
      -0.486
      -0.474
      -0.463
      -0.444
      -0.410
      -0.367
      -0.320
      -0.270
      -0.218
      -0.168
      -0.127
      -0.090
      -0.044
       0.020
       0.098
       0.178
       0.255
       0.333
       0.414
       0.491
       0.561
       0.626
       0.692
       0.755
       0.806
       0.843
       0.874
       0.906
       0.937
       0.952
       0.943
       0.918
       0.887
       0.855
       0.813
       0.757
       0.691
       0.620
       0.542
       0.453
       0.358
       0.267
       0.184
       0.102
       0.020
      -0.056
      -0.118
      -0.167
      -0.214
      -0.268
      -0.318
      -0.349
      -0.356
      -0.352
      -0.349
      -0.344
      -0.327
      -0.295
      -0.258
      -0.224
      -0.187
      -0.137
      -0.071
       0.000
       0.069
       0.136
       0.201
       0.256
       0.288
       0.294
       0.282
       0.262
       0.235
       0.194
       0.137
       0.072
       0.003
      -0.076
      -0.171
      -0.276
      -0.375
      -0.457
      -0.528
      -0.593
      -0.646
      -0.679
      -0.692
      -0.692
      -0.687
      -0.672
      -0.641
      -0.596
      -0.548
      -0.501
      -0.451
      -0.391
      -0.326
      -0.269
      -0.228
      -0.192
      -0.147
      -0.090
      -0.032
       0.019
       0.067
       0.118
       0.168
       0.203
       0.223
       0.235
       0.247
       0.261
       0.269
       0.272
       0.275
       0.280
       0.278
       0.264
       0.247
       0.247
       0.274
       0.316
       0.354
       0.381
       0.407
       0.440
       0.480
       0.525
       0.573
       0.624
       0.671
       0.708
       0.734
       0.757
       0.780
       0.796
       0.794
       0.776
       0.752
       0.734
       0.719
       0.693
       0.655
       0.614
       0.580
       0.548
       0.505
       0.448
       0.388
       0.331
       0.275
       0.213
       0.146
       0.082
       0.027
      -0.024
      -0.079
      -0.134
      -0.181
      -0.214
      -0.240
      -0.267
      -0.298
      -0.324
      -0.344
      -0.365
      -0.393
      -0.421
      -0.438
      -0.442
      -0.440
      -0.436
      -0.426
      -0.403
      -0.374
      -0.347
      -0.322
      -0.288
      -0.239
      -0.188
      -0.151
      -0.135
      -0.128
      -0.121
      -0.116
      -0.124
      -0.146
      -0.168
      -0.178
      -0.181
      -0.193
      -0.217
      -0.244
      -0.268
      -0.293
      -0.328
      -0.369
      -0.407
      -0.436
      -0.462
      -0.490
      -0.523
      -0.557
      -0.591
      -0.630
      -0.677
      -0.727
      -0.768
      -0.797
      -0.817
      -0.831
      -0.838
      -0.835
      -0.826
      -0.813
      -0.794
      -0.754
      -0.691
      -0.612
      -0.529
      -0.446
      -0.359
      -0.266
      -0.177
      -0.100
      -0.033
       0.035
       0.113
       0.195
       0.271
       0.336
       0.397
       0.456
       0.509
       0.551
       0.588
       0.625
       0.657
       0.673
       0.673
       0.670
       0.678
       0.696
       0.711
       0.713
       0.710
       0.716
       0.735
       0.757
       0.773
       0.782
       0.792
       0.804
       0.813
       0.816
       0.816
       0.813
       0.800
       0.766
       0.717
       0.666
       0.619
       0.565
       0.495
       0.412
       0.326
       0.247
       0.168
       0.083
      -0.004
      -0.085
      -0.157
      -0.226
      -0.299
      -0.370
      -0.428
      -0.472
      -0.510
      -0.548
      -0.583
      -0.608
      -0.623
      -0.639
      -0.657
      -0.666
      -0.654
      -0.622
      -0.585
      -0.555
      -0.531
      -0.505
      -0.471
      -0.431
      -0.388
      -0.339
      -0.284
      -0.226
      -0.172
      -0.117
      -0.055
       0.016
       0.086
       0.147
       0.202
       0.264
       0.336
       0.408
       0.471
       0.525
       0.572
       0.613
       0.644
       0.662
       0.671
       0.678
       0.685
       0.687
       0.681
       0.674
       0.675
       0.680
       0.682
       0.676
       0.674
       0.681
       0.692
       0.695
       0.689
       0.681
       0.676
       0.667
       0.645
       0.610
       0.569
       0.526
       0.475
       0.409
       0.329
       0.242
       0.149
       0.040
      -0.089
      -0.227
      -0.357
      -0.472
      -0.578
      -0.686
      -0.791
      -0.882
      -0.956
      -1.016
      -1.064
      -1.096
      -1.105
      -1.096
      -1.075
      -1.042
      -0.986
      -0.904
      -0.809
      -0.721
      -0.648
      -0.574
      -0.483
      -0.376
      -0.271
      -0.181
      -0.106
      -0.038
       0.026
       0.080
       0.123
       0.155
       0.178
       0.190
       0.195
       0.197
       0.205
       0.213
       0.209
       0.186
       0.152
       0.122
       0.105
