Origin Time       09/2/2011 19:17:29	 UTC
Lat.              30.9 N	
Long.             78.2 E	
Depth (Km)         10.0
Magnitude         5.0
 Region           UTTARKASHI-UTTARAKHAND                                           
 Above details taken from IMD 
    
Station Code      CKR
Station Lat.       30.694  N
Station Long.      77.901  E
Station Height(m) 2118.0
Site Class        B   Vs30 between 375 m/sec to 700 m/sec *  
Record Time       09.02.2012 19:17:12.269 UTC
Sampling Rate     200. Hz
 Record Duration  101.110 Sec.
 Direction         N-S (N positive)
Max. Acceleration     -3.565 cm/sec**2
     
  * For reference see Site Classification link of website 
     
 Base Line Corrected and Low Pass Filtered (Cut Off at 35 Hz) Time History
 Acceleration data in cm/sec**2
    
[...]
       0.340
       0.093
      -0.085
      -0.111
       0.014
       0.193
       0.282
       0.172
      -0.153
      -0.612
      -1.070
      -1.401
      -1.536
      -1.468
      -1.238
      -0.909
      -0.553
      -0.235
       0.006
       0.178
       0.320
       0.478
       0.665
       0.846
       0.946
       0.897
       0.694
       0.407
       0.139
      -0.048
      -0.165
      -0.279
      -0.449
      -0.672
      -0.876
      -0.964
      -0.868
      -0.586
      -0.177
       0.266
       0.636
       0.838
       0.825
       0.619
       0.300
      -0.032
      -0.308
      -0.496
      -0.596
      -0.604
      -0.514
      -0.332
      -0.097
       0.121
       0.259
       0.300
       0.285
       0.285
       0.354
       0.495
       0.655
       0.760
       0.760
       0.647
       0.448
       0.193
      -0.085
      -0.337
      -0.500
      -0.532
      -0.446
      -0.317
      -0.232
      -0.234
      -0.294
      -0.340
      -0.317
      -0.222
      -0.092
       0.040
       0.163
       0.269
       0.322
       0.271
       0.091
      -0.175
      -0.422
      -0.536
      -0.473
      -0.276
      -0.054
       0.088
       0.092
      -0.032
      -0.221
      -0.401
      -0.506
      -0.506
      -0.395
      -0.193
       0.054
       0.283
       0.429
       0.466
       0.424
       0.377
       0.399
       0.515
       0.684
       0.816
       0.829
       0.693
       0.447
       0.168
      -0.065
      -0.197
      -0.202
      -0.089
       0.109
       0.330
       0.498
       0.545
       0.450
       0.246
       0.008
      -0.201
      -0.362
      -0.489
      -0.605
      -0.719
      -0.825
      -0.926
      -1.029
      -1.127
      -1.179
      -1.123
      -0.917
      -0.586
      -0.212
       0.115
       0.352
       0.509
       0.623
       0.712
       0.771
       0.793
       0.788
       0.781
       0.786
       0.781
       0.735
       0.632
       0.497
       0.368
       0.268
       0.193
       0.130
       0.074
       0.044
       0.065
       0.135
       0.205
       0.193
       0.033
      -0.278
      -0.671
      -1.037
      -1.279
      -1.352
      -1.263
      -1.056
      -0.784
      -0.503
      -0.259
      -0.082
       0.028
       0.089
       0.125
       0.147
       0.160
       0.169
       0.187
       0.233
       0.324
       0.463
       0.637
       0.812
       0.941
       0.979
       0.909
       0.754
       0.568
       0.399
       0.266
       0.173
       0.125
       0.130
       0.174
       0.210
       0.174
       0.028
      -0.216
      -0.505
      -0.780
      -1.009
      -1.182
      -1.301
      -1.359
      -1.344
      -1.254
      -1.102
      -0.917
      -0.738
      -0.601
      -0.511
      -0.432
      -0.303
      -0.078
       0.228
       0.553
       0.823
       0.998
       1.102
       1.189
       1.308
       1.460
       1.595
       1.647
       1.569
       1.364
       1.083
       0.792
       0.535
       0.299
       0.038
      -0.281
      -0.645
      -0.994
      -1.255
      -1.374
      -1.341
      -1.188
      -0.986
      -0.804
      -0.683
      -0.608
      -0.525
      -0.388
      -0.202
      -0.031
       0.045
       0.000
      -0.121
      -0.233
      -0.273
      -0.235
      -0.163
      -0.116
      -0.138
      -0.234
      -0.365
      -0.470
      -0.496
      -0.438
      -0.338
      -0.261
      -0.244
      -0.269
      -0.286
      -0.252
      -0.155
      -0.021
       0.116
       0.229
       0.310
       0.374
       0.449
       0.559
       0.713
       0.894
       1.068
       1.190
       1.223
       1.153
       0.994
       0.782
       0.561
       0.357
       0.175
       0.016
      -0.112
      -0.181
      -0.169
      -0.090
      -0.003
       0.018
      -0.061
      -0.201
      -0.320
      -0.351
      -0.293
      -0.201
      -0.143
      -0.141
      -0.163
      -0.152
      -0.074
       0.066
       0.221
       0.329
       0.338
       0.234
       0.055
      -0.134
      -0.268
      -0.329
      -0.355
      -0.411
      -0.547
      -0.756
      -0.979
      -1.140
      -1.188
      -1.119
      -0.967
      -0.788
      -0.633
      -0.533
      -0.493
      -0.488
      -0.459
      -0.333
      -0.063
       0.327
       0.731
       1.013
       1.099
       1.031
       0.944
       0.985
       1.215
       1.575
       1.917
       2.089
       2.005
       1.658
       1.110
       0.457
      -0.186
      -0.703
      -1.015
      -1.108
      -1.044
      -0.924
      -0.832
      -0.793
      -0.777
      -0.742
      -0.666
      -0.556
      -0.426
      -0.285
      -0.138
       0.003
       0.109
       0.148
       0.097
      -0.031
      -0.186
      -0.318
      -0.395
      -0.424
      -0.426
      -0.415
      -0.392
      -0.357
      -0.323
      -0.323
      -0.381
      -0.484
      -0.582
      -0.614
      -0.538
      -0.354
      -0.093
       0.189
       0.426
       0.567
       0.595
       0.553
       0.527
       0.601
       0.797
       1.052
       1.249
       1.288
       1.142
       0.857
       0.517
       0.196
      -0.059
      -0.227
      -0.316
      -0.347
      -0.347
      -0.341
      -0.340
      -0.357
      -0.404
      -0.498
      -0.645
      -0.818
      -0.969
      -1.047
      -1.037
      -0.951
      -0.811
      -0.630
      -0.406
      -0.133
       0.201
       0.609
       1.097
       1.639
       2.172
       2.598
       2.821
       2.796
       2.549
       2.170
       1.762
       1.389
       1.050
       0.696
       0.278
      -0.204
      -0.696
      -1.122
      -1.435
      -1.636
      -1.752
      -1.801
      -1.772
      -1.635
      -1.375
      -1.027
      -0.666
      -0.363
      -0.131
       0.072
       0.308
       0.598
       0.899
       1.118
       1.179
       1.077
       0.900
       0.779
       0.804
       0.970
       1.174
       1.284
       1.212
       0.966
       0.641
       0.367
       0.231
       0.237
       0.304
       0.312
       0.161
      -0.174
      -0.629
      -1.094
      -1.475
      -1.745
      -1.942
      -2.121
      -2.304
      -2.459
      -2.529
      -2.479
      -2.324
      -2.108
      -1.866
      -1.591
      -1.245
      -0.792
      -0.236
       0.377
       0.969
       1.466
       1.814
       1.988
       1.988
       1.839
       1.598
       1.343
       1.142
       1.030
       0.998
       1.009
       1.021
       0.997
       0.912
       0.752
       0.519
       0.244
      -0.024
      -0.234
      -0.368
      -0.449
      -0.523
      -0.635
      -0.805
      -1.020
      -1.226
      -1.343
      -1.300
      -1.057
      -0.621
      -0.040
       0.609
       1.234
       1.738
       2.045
       2.112
       1.951
       1.623
       1.211
       0.789
       0.404
       0.078
      -0.177
      -0.354
      -0.441
      -0.431
      -0.321
      -0.128
       0.115
       0.364
       0.574
       0.702
       0.716
       0.607
       0.392
       0.107
      -0.211
      -0.547
      -0.917
      -1.354
      -1.874
      -2.440
      -2.959
      -3.318
      -3.435
      -3.289
      -2.920
      -2.400
      -1.802
      -1.182
      -0.578
      -0.034
       0.396
       0.662
       0.756
       0.743
       0.751
       0.903
       1.229
       1.631
       1.935
       2.000
       1.810
       1.471
       1.127
       0.866
       0.689
       0.539
       0.370
       0.174
      -0.031
      -0.230
      -0.425
      -0.618
      -0.793
      -0.922
      -0.970
      -0.904
      -0.718
      -0.440
      -0.139
       0.098
       0.206
       0.171
       0.034
      -0.120
      -0.212
      -0.200
      -0.097
       0.032
       0.113
       0.087
      -0.060
      -0.296
      -0.557
      -0.765
      -0.855
      -0.794
      -0.587
      -0.277
       0.078
       0.414
       0.669
       0.788
       0.741
       0.550
       0.295
       0.083
      -0.007
       0.031
       0.138
       0.222
       0.218
       0.115
      -0.044
      -0.196
      -0.284
      -0.275
      -0.175
      -0.020
       0.133
       0.232
       0.246
       0.176
       0.030
      -0.174
      -0.412
      -0.643
      -0.817
      -0.896
      -0.879
      -0.801
      -0.704
      -0.602
      -0.474
      -0.292
      -0.044
       0.251
       0.557
       0.839
       1.071
       1.239
       1.325
       1.317
       1.206
       1.008
       0.759
       0.507
       0.288
       0.107
      -0.059
      -0.262
      -0.547
      -0.928
      -1.378
      -1.846
      -2.287
      -2.658
      -2.904
      -2.956
      -2.757
      -2.310
      -1.699
      -1.054
      -0.485
      -0.018
       0.386
       0.781
       1.174
       1.532
       1.825
       2.067
       2.302
       2.555
       2.795
       2.947
       2.954
       2.820
       2.603
       2.353
       2.070
       1.722
       1.294
       0.824
       0.382
       0.015
      -0.280
      -0.542
      -0.793
      -1.006
      -1.133
      -1.160
      -1.129
      -1.102
      -1.093
      -1.041
      -0.854
      -0.485
       0.025
       0.561
       1.008
       1.310
       1.486
       1.591
       1.667
       1.714
       1.701
       1.592
       1.374
       1.058
       0.673
       0.251
      -0.174
      -0.563
      -0.879
      -1.103
      -1.241
      -1.311
      -1.326
      -1.291
      -1.225
      -1.175
      -1.202
      -1.336
      -1.540
      -1.707
      -1.715
      -1.505
      -1.113
      -0.634
      -0.152
       0.304
       0.743
       1.165
       1.535
       1.789
       1.882
       1.816
       1.645
       1.432
       1.206
       0.954
       0.643
       0.252
      -0.203
      -0.671
      -1.090
      -1.409
      -1.601
      -1.653
      -1.555
      -1.313
      -0.974
      -0.632
      -0.393
      -0.310
      -0.341
      -0.381
      -0.334
      -0.192
      -0.036
       0.033
      -0.029
      -0.179
      -0.329
      -0.399
      -0.364
      -0.238
      -0.050
       0.174
       0.407
       0.604
       0.707
       0.679
       0.535
       0.345
       0.181
       0.072
      -0.007
      -0.102
      -0.233
      -0.378
      -0.498
      -0.575
      -0.628
      -0.686
      -0.756
      -0.808
      -0.800
      -0.703
      -0.517
      -0.270
      -0.012
       0.200
       0.320
       0.337
       0.289
       0.244
       0.263
       0.354
       0.475
       0.564
       0.600
       0.610
       0.651
       0.764
       0.943
       1.141
       1.293
       1.360
       1.348
       1.294
       1.229
       1.141
       0.981
       0.689
       0.244
      -0.302
      -0.837
      -1.220
      -1.344
      -1.175
      -0.774
      -0.282
       0.124
       0.303
       0.213
      -0.077
      -0.422
      -0.678
      -0.767
      -0.700
      -0.567
      -0.481
      -0.513
      -0.663
      -0.858
      -0.996
      -1.000
      -0.861
      -0.634
      -0.394
      -0.192
      -0.031
       0.110
       0.233
       0.314
       0.314
       0.205
      -0.004
      -0.262
      -0.498
      -0.649
      -0.692
      -0.643
      -0.542
      -0.423
      -0.301
      -0.167
      -0.002
       0.209
       0.468
       0.760
       1.041
       1.247
       1.318
       1.227
       0.990
       0.656
       0.283
      -0.067
      -0.331
      -0.447
      -0.384
      -0.179
       0.061
       0.219
       0.246
       0.199
       0.196
       0.323
       0.570
       0.844
       1.053
       1.164
       1.211
       1.239
       1.246
       1.171
       0.944
       0.549
       0.062
      -0.384
      -0.655
      -0.687
      -0.501
      -0.190
       0.139
       0.415
       0.619
       0.770
       0.881
       0.942
       0.921
       0.802
       0.611
       0.417
       0.297
       0.282
       0.329
       0.351
       0.273
       0.091
      -0.134
      -0.314
      -0.393
      -0.374
      -0.295
      -0.192
      -0.073
       0.061
       0.190
       0.269
       0.265
       0.191
       0.109
       0.084
       0.141
       0.248
       0.342
       0.373
       0.320
       0.183
      -0.021
      -0.267
      -0.506
      -0.666
      -0.684
      -0.546
      -0.308
      -0.075
       0.049
       0.002
      -0.221
      -0.588
      -1.047
      -1.530
      -1.948
      -2.206
      -2.255
      -2.121
      -1.907
      -1.728
      -1.627
      -1.542
      -1.344
      -0.939
      -0.331
       0.376
       1.040
       1.549
       1.843
       1.909
       1.763
       1.449
       1.040
       0.639
       0.335
       0.170
       0.116
       0.099
       0.037
      -0.122
      -0.386
      -0.702
      -0.975
      -1.108
      -1.055
      -0.855
      -0.617
      -0.468
      -0.476
      -0.606
      -0.742
      -0.762
      -0.630
      -0.429
      -0.305
      -0.363
      -0.591
      -0.861
      -1.017
      -0.979
      -0.786
      -0.560
      -0.414
      -0.392
      -0.450
      -0.504
      -0.484
      -0.370
      -0.198
      -0.015
       0.170
       0.397
       0.724
       1.169
       1.676
       2.139
       2.463
       2.615
       2.614
       2.483
       2.203
       1.722
       1.017
       0.140
      -0.796
      -1.668
      -2.399
      -2.967
      -3.365
      -3.565
      -3.521
      -3.199
      -2.624
      -1.879
      -1.073
      -0.286
       0.454
       1.143
       1.759
       2.222
       2.440
       2.371
       2.070
       1.660
       1.262
       0.946
       0.720
       0.566
       0.454
       0.354
       0.232
       0.053
      -0.197
      -0.502
      -0.815
      -1.076
      -1.225
      -1.203
      -0.973
      -0.555
      -0.055
       0.351
       0.501
       0.333
      -0.067
      -0.503
      -0.773
      -0.785
      -0.605
      -0.408
      -0.353
      -0.489
      -0.731
      -0.933
      -0.992
      -0.904
      -0.741
      -0.570
      -0.399
      -0.185
       0.114
       0.494
       0.911
       1.302
       1.621
       1.849
       2.002
       2.113
       2.216
       2.321
       2.396
       2.371
       2.170
       1.758
       1.174
       0.528
      -0.047
      -0.447
      -0.637
      -0.659
      -0.593
      -0.501
      -0.396
      -0.265
      -0.117
      -0.021
      -0.071
      -0.318
      -0.711
      -1.112
      -1.373
      -1.420
      -1.277
      -1.028
      -0.743
      -0.451
      -0.155
       0.135
       0.399
       0.632
       0.856
       1.114
       1.420
       1.736
       1.974
       2.055
       1.968
       1.766
       1.515
       1.239
       0.908
       0.497
       0.046
      -0.329
      -0.497
      -0.410
      -0.140
       0.148
       0.305
       0.280
       0.132
      -0.011
      -0.029
       0.134
       0.445
       0.794
       1.039
       1.074
       0.884
       0.555
       0.227
       0.005
      -0.104
      -0.186
      -0.340
      -0.602
      -0.921
      -1.197
      -1.342
      -1.330
      -1.184
      -0.947
      -0.651
      -0.316
       0.031
       0.339
       0.557
       0.662
       0.688
       0.701
       0.749
       0.815
       0.811
       0.633
       0.234
      -0.336
      -0.956
      -1.492
      -1.843
      -1.971
      -1.894
      -1.678
      -1.409
      -1.167
      -0.996
      -0.903
      -0.873
      -0.902
      -1.007
      -1.202
      -1.453
      -1.684
      -1.814
      -1.813
      -1.711
      -1.567
      -1.411
      -1.236
      -1.019
      -0.763
      -0.512
      -0.324
      -0.224
      -0.186
      -0.142
      -0.037
       0.136
       0.338
       0.506
       0.609
       0.662
       0.727
       0.872
       1.131
       1.484
       1.862
       2.167
       2.317
       2.279
       2.089
       1.826
       1.559
       1.300
       0.997
       0.579
       0.011
      -0.662
      -1.344
      -1.935
      -2.388
      -2.712
      -2.932
      -3.053
      -3.042
      -2.857
      -2.484
      -1.959
      -1.361
      -0.790
      -0.329
      -0.022
       0.143
       0.234
       0.346
       0.548
       0.849
       1.203
       1.543
       1.823
       2.019
       2.120
       2.108
       1.978
       1.762
       1.546
       1.431
       1.458
       1.569
       1.635
       1.525
       1.182
       0.639
      -0.005
      -0.639
      -1.172
      -1.554
      -1.770
      -1.833
      -1.789
      -1.696
      -1.596
      -1.496
      -1.362
      -1.149
      -0.840
      -0.465
      -0.093
       0.211
       0.428
       0.594
       0.760
       0.940
       1.085
       1.116
       0.973
       0.664
       0.268
      -0.092
      -0.303
      -0.304
      -0.105
       0.218
       0.557
       0.815
       0.942
       0.964
       0.956
       0.992
       1.087
       1.178
       1.150
       0.911
       0.459
      -0.105
      -0.636
      -1.024
      -1.246
      -1.348
      -1.386
      -1.374
      -1.287
      -1.093
      -0.805
      -0.486
      -0.219
      -0.053
       0.018
       0.039
       0.058
       0.103
       0.178
       0.270
       0.355
       0.401
       0.367
       0.235
       0.030
      -0.178
      -0.315
      -0.348
      -0.299
      -0.213
      -0.124
      -0.044
       0.026
       0.079
       0.105
       0.115
       0.142
       0.222
       0.366
       0.546
       0.721
       0.872
       0.996
       1.091
       1.128
       1.070
       0.891
       0.610
       0.284
      -0.017
      -0.262
      -0.474
      -0.717
      -1.039
      -1.433
      -1.823
      -2.102
      -2.173
      -1.988
      -1.552
      -0.910
      -0.132
       0.684
       1.432
       2.016
       2.380
       2.513
       2.442
       2.214
       1.892
       1.547
       1.239
       0.989
       0.761
       0.488
       0.127
      -0.290
      -0.663
      -0.878
      -0.884
      -0.721
      -0.490
      -0.294
      -0.192
      -0.186
      -0.239
      -0.302
      -0.326
      -0.282
      -0.164
      -0.006
       0.131
       0.185
       0.145
       0.061
       0.016
       0.074
       0.235
       0.442
       0.625
       0.754
       0.841
       0.910
       0.958
       0.948
       0.846
       0.645
       0.370
       0.048
      -0.305
      -0.674
      -1.024
      -1.293
      -1.416
      -1.359
      -1.145
      -0.836
      -0.504
      -0.214
      -0.003
       0.121
       0.182
       0.223
       0.287
       0.392
       0.526
       0.646
       0.701
       0.661
       0.527
       0.336
       0.139
      -0.010
      -0.077
      -0.056
       0.023
       0.117
       0.184
       0.199
       0.152
       0.046
      -0.100
      -0.252
      -0.376
      -0.457
      -0.513
      -0.589
      -0.736
      -0.963
      -1.222
      -1.423
      -1.487
      -1.392
      -1.183
      -0.941
      -0.741
      -0.621
      -0.579
      -0.588
      -0.629
      -0.693
      -0.773
      -0.842
      -0.861
      -0.798
      -0.651
      -0.456
      -0.275
      -0.157
      -0.106
      -0.078
