Origin Time       27/11/2012 12:15:15
Lat.              30.9 N	
Long.             78.4 E	
Depth (Km)         12.0
Magnitude         4.8
 Region           Uttarkashi-Uttarakhand                                           
 Above details taken from IMD 
     
Station Code      CKR
Station Lat.       30.694  N
Station Long.      77.901  E
Station Height(m) 2118.0
Site Class        B   Vs30 between 375 m/sec to 700 m/sec *  
Record Time       27.11.2012 12:15:04.739
Sampling Rate     200. Hz
 Record Duration   82.890 Sec.
 Direction         E-W (E positive)
Max. Acceleration     -3.662 cm/sec**2
     
  * For reference see Site Classification link of website 
     
 Base Line Corrected and Low Pass Filtered (Cut Off at 35 Hz) Time History
 Acceleration data in cm/sec**2
    
[...]
      -0.632
      -0.706
      -0.814
      -0.939
      -1.036
      -1.064
      -1.018
      -0.929
      -0.833
      -0.746
      -0.651
      -0.520
      -0.334
      -0.098
       0.161
       0.416
       0.641
       0.825
       0.968
       1.069
       1.128
       1.137
       1.093
       1.006
       0.906
       0.825
       0.779
       0.758
       0.728
       0.658
       0.537
       0.383
       0.228
       0.100
       0.008
      -0.064
      -0.139
      -0.232
      -0.337
      -0.436
      -0.507
      -0.545
      -0.564
      -0.588
      -0.634
      -0.701
      -0.769
      -0.819
      -0.836
      -0.815
      -0.758
      -0.670
      -0.562
      -0.447
      -0.343
      -0.261
      -0.194
      -0.126
      -0.044
       0.052
       0.147
       0.219
       0.263
       0.288
       0.311
       0.343
       0.382
       0.415
       0.423
       0.398
       0.339
       0.251
       0.148
       0.044
      -0.046
      -0.105
      -0.127
      -0.115
      -0.085
      -0.062
      -0.066
      -0.097
      -0.136
      -0.153
      -0.128
      -0.058
       0.041
       0.136
       0.192
       0.194
       0.145
       0.070
      -0.002
      -0.051
      -0.069
      -0.062
      -0.043
      -0.020
       0.002
       0.023
       0.044
       0.077
       0.130
       0.207
       0.295
       0.369
       0.413
       0.429
       0.437
       0.464
       0.516
       0.579
       0.623
       0.625
       0.585
       0.515
       0.424
       0.307
       0.154
      -0.027
      -0.212
      -0.367
      -0.474
      -0.540
      -0.581
      -0.609
      -0.622
      -0.618
      -0.604
      -0.599
      -0.613
      -0.642
      -0.671
      -0.680
      -0.658
      -0.601
      -0.518
      -0.416
      -0.299
      -0.170
      -0.031
       0.108
       0.236
       0.338
       0.404
       0.437
       0.448
       0.455
       0.471
       0.502
       0.548
       0.601
       0.652
       0.691
       0.710
       0.699
       0.654
       0.575
       0.474
       0.372
       0.280
       0.197
       0.105
      -0.016
      -0.171
      -0.346
      -0.512
      -0.647
      -0.748
      -0.826
      -0.889
      -0.938
      -0.964
      -0.953
      -0.900
      -0.809
      -0.691
      -0.563
      -0.439
      -0.330
      -0.240
      -0.163
      -0.084
       0.013
       0.134
       0.272
       0.403
       0.502
       0.553
       0.555
       0.518
       0.452
       0.368
       0.275
       0.187
       0.120
       0.082
       0.070
       0.074
       0.085
       0.095
       0.103
       0.112
       0.125
       0.146
       0.175
       0.209
       0.239
       0.255
       0.255
       0.243
       0.228
       0.211
       0.190
       0.161
       0.131
       0.104
       0.083
       0.065
       0.044
       0.020
      -0.001
      -0.003
       0.028
       0.100
       0.202
       0.314
       0.409
       0.466
       0.472
       0.430
       0.347
       0.231
       0.082
      -0.097
      -0.294
      -0.487
      -0.649
      -0.760
      -0.814
      -0.820
      -0.788
      -0.719
      -0.609
      -0.462
      -0.299
      -0.147
      -0.027
       0.058
       0.121
       0.180
       0.244
       0.308
       0.361
       0.395
       0.415
       0.433
       0.456
       0.479
       0.482
       0.449
       0.373
       0.268
       0.154
       0.048
      -0.040
      -0.115
      -0.185
      -0.259
      -0.341
      -0.426
      -0.504
      -0.564
      -0.599
      -0.609
      -0.603
      -0.586
      -0.564
      -0.534
      -0.498
      -0.459
      -0.419
      -0.370
      -0.292
      -0.174
      -0.019
       0.156
       0.331
       0.497
       0.649
       0.782
       0.880
       0.926
       0.912
       0.849
       0.757
       0.657
       0.559
       0.466
       0.385
       0.322
       0.275
       0.231
       0.164
       0.049
      -0.119
      -0.321
      -0.525
      -0.696
      -0.806
      -0.844
      -0.817
      -0.749
      -0.665
      -0.584
      -0.506
      -0.426
      -0.343
      -0.259
      -0.173
      -0.085
       0.012
       0.121
       0.237
       0.349
       0.451
       0.546
       0.643
       0.748
       0.854
       0.943
       0.998
       1.005
       0.957
       0.856
       0.710
       0.536
       0.359
       0.208
       0.100
       0.035
      -0.011
      -0.070
      -0.166
      -0.307
      -0.477
      -0.647
      -0.785
      -0.870
      -0.900
      -0.891
      -0.863
      -0.828
      -0.782
      -0.709
      -0.597
      -0.453
      -0.302
      -0.173
      -0.088
      -0.047
      -0.038
      -0.042
      -0.042
      -0.032
      -0.016
      -0.008
      -0.015
      -0.042
      -0.088
      -0.154
      -0.238
      -0.335
      -0.438
      -0.539
      -0.635
      -0.724
      -0.802
      -0.853
      -0.847
      -0.763
      -0.606
      -0.411
      -0.217
      -0.038
       0.136
       0.318
       0.508
       0.688
       0.842
       0.970
       1.084
       1.195
       1.299
       1.383
       1.439
       1.471
       1.484
       1.474
       1.420
       1.295
       1.085
       0.806
       0.502
       0.223
       0.002
      -0.157
      -0.269
      -0.355
      -0.439
      -0.536
      -0.656
      -0.800
      -0.963
      -1.138
      -1.305
      -1.444
      -1.541
      -1.586
      -1.573
      -1.491
      -1.330
      -1.092
      -0.806
      -0.515
      -0.263
      -0.070
       0.064
       0.151
       0.208
       0.250
       0.302
       0.393
       0.539
       0.726
       0.915
       1.067
       1.174
       1.260
       1.357
       1.469
       1.568
       1.616
       1.593
       1.505
       1.364
       1.173
       0.936
       0.670
       0.407
       0.174
      -0.028
      -0.222
      -0.432
      -0.659
      -0.874
      -1.044
      -1.157
      -1.225
      -1.277
      -1.329
      -1.381
      -1.414
      -1.406
      -1.343
      -1.223
      -1.053
      -0.851
      -0.636
      -0.426
      -0.230
      -0.048
       0.124
       0.282
       0.418
       0.522
       0.591
       0.628
       0.637
       0.621
       0.580
       0.507
       0.395
       0.251
       0.099
      -0.034
      -0.128
      -0.181
      -0.201
      -0.204
      -0.200
      -0.196
      -0.193
      -0.196
      -0.217
      -0.260
      -0.316
      -0.362
      -0.371
      -0.329
      -0.240
      -0.120
       0.016
       0.166
       0.335
       0.529
       0.738
       0.948
       1.144
       1.317
       1.466
       1.584
       1.663
       1.690
       1.659
       1.583
       1.483
       1.372
       1.241
       1.068
       0.840
       0.568
       0.277
      -0.017
      -0.320
      -0.644
      -0.996
      -1.352
      -1.674
      -1.921
      -2.073
      -2.135
      -2.126
      -2.070
      -1.983
      -1.869
      -1.730
      -1.568
      -1.398
      -1.239
      -1.104
      -0.987
      -0.872
      -0.736
      -0.561
      -0.340
      -0.078
       0.213
       0.511
       0.784
       1.002
       1.149
       1.236
       1.287
       1.323
       1.340
       1.320
       1.244
       1.114
       0.943
       0.744
       0.520
       0.273
       0.026
      -0.179
      -0.312
      -0.379
      -0.422
      -0.486
      -0.587
      -0.704
      -0.793
      -0.813
      -0.746
      -0.604
      -0.418
      -0.222
      -0.042
       0.111
       0.239
       0.363
       0.512
       0.701
       0.915
       1.107
       1.228
       1.259
       1.223
       1.157
       1.085
       0.999
       0.882
       0.727
       0.550
       0.367
       0.188
       0.008
      -0.172
      -0.338
      -0.466
      -0.544
      -0.592
      -0.652
      -0.756
      -0.901
      -1.053
      -1.171
      -1.234
      -1.243
      -1.203
      -1.118
      -0.996
      -0.854
      -0.719
      -0.617
      -0.548
      -0.499
      -0.461
      -0.438
      -0.435
      -0.442
      -0.430
      -0.368
      -0.252
      -0.108
       0.032
       0.148
       0.238
       0.310
       0.363
       0.391
       0.391
       0.377
       0.369
       0.377
       0.387
       0.379
       0.339
       0.275
       0.217
       0.195
       0.222
       0.293
       0.394
       0.514
       0.654
       0.806
       0.953
       1.072
       1.148
       1.186
       1.198
       1.196
       1.176
       1.122
       1.021
       0.877
       0.708
       0.527
       0.329
       0.098
      -0.169
      -0.454
      -0.731
      -0.983
      -1.215
      -1.442
      -1.661
      -1.834
      -1.898
      -1.806
      -1.561
      -1.215
      -0.838
      -0.483
      -0.169
       0.110
       0.359
       0.577
       0.763
       0.926
       1.070
       1.185
       1.244
       1.218
       1.104
       0.927
       0.731
       0.549
       0.391
       0.245
       0.093
      -0.070
      -0.238
      -0.398
      -0.539
      -0.645
      -0.706
      -0.714
      -0.680
      -0.631
      -0.600
      -0.615
      -0.679
      -0.776
      -0.874
      -0.940
      -0.953
      -0.910
      -0.817
      -0.688
      -0.540
      -0.383
      -0.230
      -0.090
       0.027
       0.121
       0.194
       0.255
       0.316
       0.384
       0.460
       0.533
       0.577
       0.568
       0.501
       0.405
       0.321
       0.289
       0.315
       0.371
       0.412
       0.405
       0.348
       0.275
       0.234
       0.259
       0.348
       0.469
       0.574
       0.632
       0.634
       0.588
       0.511
       0.427
       0.360
       0.331
       0.333
       0.331
       0.278
       0.147
      -0.039
      -0.230
      -0.376
      -0.463
      -0.512
      -0.545
      -0.564
      -0.543
      -0.460
      -0.312
      -0.119
       0.086
       0.283
       0.464
       0.633
       0.784
       0.897
       0.941
       0.887
       0.726
       0.473
       0.166
      -0.141
      -0.404
      -0.606
      -0.761
      -0.895
      -1.030
      -1.162
      -1.266
      -1.316
      -1.295
      -1.212
      -1.097
      -0.989
      -0.910
      -0.862
      -0.821
      -0.754
      -0.637
      -0.467
      -0.258
      -0.035
       0.167
       0.320
       0.411
       0.450
       0.455
       0.441
       0.421
       0.410
       0.427
       0.486
       0.587
       0.723
       0.885
       1.059
       1.217
       1.323
       1.356
       1.319
       1.238
       1.140
       1.039
       0.930
       0.803
       0.657
       0.503
       0.358
       0.223
       0.093
      -0.044
      -0.195
      -0.355
      -0.515
      -0.669
      -0.825
      -0.996
      -1.194
      -1.404
      -1.584
      -1.680
      -1.661
      -1.529
      -1.309
      -1.024
      -0.680
      -0.274
       0.177
       0.626
       1.006
       1.266
       1.388
       1.393
       1.318
       1.190
       1.018
       0.804
       0.559
       0.307
       0.073
      -0.126
      -0.283
      -0.391
      -0.433
      -0.390
      -0.265
      -0.086
       0.098
       0.248
       0.344
       0.383
       0.368
       0.293
       0.150
      -0.066
      -0.343
      -0.651
      -0.946
      -1.184
      -1.338
      -1.401
      -1.384
      -1.310
      -1.212
      -1.126
      -1.076
      -1.060
      -1.045
      -0.987
      -0.852
      -0.635
      -0.363
      -0.079
       0.178
       0.387
       0.555
       0.700
       0.839
       0.983
       1.138
       1.305
       1.483
       1.659
       1.813
       1.924
       1.982
       1.987
       1.941
       1.844
       1.688
       1.465
       1.164
       0.785
       0.341
      -0.145
      -0.641
      -1.118
      -1.547
      -1.902
      -2.164
      -2.337
      -2.436
      -2.476
      -2.454
      -2.347
      -2.131
      -1.802
      -1.374
      -0.875
      -0.340
       0.196
       0.698
       1.132
       1.479
       1.743
       1.950
       2.135
       2.309
       2.458
       2.549
       2.558
       2.490
       2.373
       2.239
       2.104
       1.959
       1.781
       1.556
       1.286
       0.995
       0.709
       0.437
       0.164
      -0.128
      -0.443
      -0.767
      -1.071
      -1.335
      -1.553
      -1.737
      -1.907
      -2.085
      -2.284
      -2.497
      -2.709
      -2.894
      -3.025
      -3.085
      -3.072
      -3.001
      -2.900
      -2.792
      -2.680
      -2.542
      -2.341
      -2.038
      -1.614
      -1.080
      -0.474
       0.142
       0.710
       1.191
       1.581
       1.896
       2.165
       2.404
       2.611
       2.769
       2.859
       2.867
       2.794
       2.652
       2.450
       2.191
       1.876
       1.509
       1.099
       0.653
       0.173
      -0.342
      -0.880
      -1.407
      -1.865
      -2.194
      -2.361
      -2.373
      -2.262
      -2.060
      -1.786
      -1.448
      -1.058
      -0.634
      -0.183
       0.303
       0.839
       1.411
       1.970
       2.450
       2.803
       3.025
       3.151
       3.221
       3.254
       3.238
       3.139
       2.929
       2.599
       2.165
       1.650
       1.083
       0.499
      -0.063
      -0.572
      -1.021
      -1.428
      -1.824
      -2.229
      -2.637
      -3.022
      -3.343
      -3.563
      -3.662
      -3.634
      -3.485
      -3.229
      -2.896
      -2.521
      -2.128
      -1.708
      -1.236
      -0.695
      -0.106
       0.479
       1.006
       1.444
       1.787
       2.039
       2.204
       2.283
       2.289
       2.241
       2.145
       1.987
       1.740
       1.386
       0.948
       0.485
       0.056
      -0.308
      -0.620
      -0.904
      -1.169
      -1.392
      -1.545
      -1.613
      -1.603
      -1.539
      -1.444
      -1.335
      -1.220
      -1.104
      -0.994
      -0.890
      -0.780
      -0.636
      -0.436
      -0.181
       0.105
       0.384
       0.631
       0.844
       1.045
       1.257
       1.499
       1.768
       2.047
       2.300
       2.490
       2.587
       2.578
       2.467
       2.266
       1.986
       1.637
       1.233
       0.797
       0.364
      -0.037
      -0.392
      -0.703
      -0.980
      -1.230
      -1.452
      -1.638
      -1.779
      -1.866
      -1.887
      -1.832
      -1.699
      -1.494
      -1.240
      -0.957
      -0.656
      -0.330
       0.022
       0.385
       0.722
       0.999
       1.200
       1.327
       1.391
       1.391
       1.321
       1.172
       0.950
       0.675
       0.379
       0.092
      -0.166
      -0.384
      -0.561
      -0.703
      -0.823
      -0.936
      -1.049
      -1.150
      -1.208
      -1.190
      -1.082
      -0.908
      -0.715
      -0.546
      -0.414
      -0.303
      -0.183
      -0.030
       0.164
       0.389
       0.620
       0.822
       0.966
       1.041
       1.056
       1.031
       0.981
       0.896
       0.755
       0.539
       0.253
      -0.077
      -0.417
      -0.732
      -0.993
      -1.174
      -1.266
      -1.275
      -1.228
      -1.162
      -1.101
      -1.048
      -0.985
      -0.886
      -0.738
      -0.543
      -0.315
      -0.070
       0.180
       0.421
       0.641
       0.826
       0.964
       1.051
       1.089
       1.083
       1.039
       0.962
       0.859
       0.736
       0.597
       0.444
       0.278
       0.102
      -0.075
      -0.233
      -0.356
      -0.433
      -0.469
      -0.474
      -0.460
      -0.440
      -0.419
      -0.394
      -0.354
      -0.296
      -0.228
      -0.166
      -0.112
      -0.056
       0.013
       0.095
       0.174
       0.239
       0.301
       0.393
       0.550
       0.778
       1.045
       1.290
       1.455
       1.503
       1.432
       1.262
       1.030
       0.770
       0.507
       0.236
      -0.068
      -0.430
      -0.843
      -1.249
      -1.565
      -1.736
      -1.760
      -1.683
      -1.554
      -1.394
      -1.191
      -0.930
      -0.619
      -0.291
       0.018
       0.297
       0.560
       0.817
       1.045
       1.197
       1.239
       1.179
       1.069
       0.968
       0.908
       0.889
       0.898
       0.925
       0.966
       1.005
       1.010
       0.947
       0.806
       0.604
       0.372
       0.133
      -0.112
      -0.378
      -0.669
      -0.967
      -1.231
      -1.428
      -1.551
      -1.618
      -1.653
      -1.672
      -1.678
      -1.670
      -1.644
      -1.588
      -1.478
      -1.291
      -1.023
      -0.702
      -0.377
      -0.092
       0.136
       0.312
       0.450
       0.561
       0.643
       0.692
       0.696
       0.648
       0.550
       0.416
       0.271
       0.144
       0.063
       0.041
       0.072
       0.130
       0.184
       0.210
       0.206
       0.190
       0.192
       0.238
       0.333
       0.461
       0.589
       0.685
       0.726
       0.706
       0.634
       0.534
       0.445
       0.412
       0.469
       0.612
       0.795
       0.951
       1.029
       1.016
       0.941
       0.847
       0.764
       0.695
       0.619
       0.510
       0.353
       0.146
      -0.108
      -0.396
      -0.697
      -0.977
      -1.200
      -1.347
      -1.422
      -1.445
      -1.437
      -1.409
      -1.357
      -1.274
      -1.156
      -1.014
      -0.865
      -0.726
      -0.604
      -0.497
      -0.399
      -0.301
      -0.201
      -0.098
       0.005
       0.106
       0.206
       0.302
       0.389
       0.459
       0.503
       0.517
       0.508
       0.491
       0.483
       0.489
       0.503
       0.510
       0.496
       0.448
       0.364
       0.243
       0.094
      -0.071
      -0.239
      -0.392
      -0.521
      -0.624
      -0.702
      -0.757
      -0.784
      -0.770
      -0.696
      -0.547
      -0.329
      -0.074
       0.172
       0.372
       0.514
       0.607
       0.670
       0.715
       0.737
       0.720
       0.658
       0.569
       0.494
       0.473
       0.521
       0.618
       0.722
       0.792
       0.799
       0.736
       0.608
       0.437
       0.250
       0.071
      -0.085
      -0.210
      -0.308
      -0.398
      -0.507
      -0.656
      -0.842
      -1.034
      -1.185
      -1.255
      -1.226
      -1.104
      -0.912
      -0.674
      -0.411
      -0.143
       0.112
       0.339
       0.534
       0.702
       0.846
       0.956
       1.015
       1.009
       0.943
       0.841
       0.742
       0.672
       0.635
       0.612
       0.584
       0.541
       0.481
       0.406
       0.317
       0.216
       0.113
       0.015
      -0.081
      -0.183
      -0.302
      -0.435
      -0.577
      -0.720
      -0.860
      -0.991
      -1.106
      -1.187
      -1.215
      -1.174
      -1.060
      -0.885
      -0.668
      -0.434
      -0.203
       0.006
       0.171
       0.280
       0.335
       0.356
       0.369
       0.386
       0.404
       0.408
       0.391
       0.355
       0.308
       0.259
       0.205
       0.146
       0.094
