Origin Time       27/11/2012 12:15:15 UTC
Lat.              30.9 N	
Long.             78.4 E	
Depth (Km)         12.0
Magnitude         4.8
 Region           Uttarkashi-Uttarakhand                                           
 Above details taken from IMD 
    
Station Code      CKR
Station Lat.       30.694  N
Station Long.      77.901  E
Station Height(m) 2118.0
Site Class        B   Vs30 between 375 m/sec to 700 m/sec *  
Record Time       27.11.2012 12:15:04.739 UTC
Sampling Rate     200. Hz
 Record Duration   82.890 Sec.
 Direction         N-S (N positive)
Max. Acceleration      3.852 cm/sec**2
     
  * For reference see Site Classification link of website 
     
 Base Line Corrected and Low Pass Filtered (Cut Off at 35 Hz) Time History
 Acceleration data in cm/sec**2
    
[...]
       0.196
       0.351
       0.458
       0.540
       0.630
       0.738
       0.834
       0.866
       0.798
       0.636
       0.425
       0.219
       0.046
      -0.089
      -0.193
      -0.261
      -0.279
      -0.238
      -0.147
      -0.038
       0.052
       0.103
       0.118
       0.109
       0.086
       0.041
      -0.037
      -0.160
      -0.327
      -0.519
      -0.703
      -0.839
      -0.899
      -0.877
      -0.795
      -0.691
      -0.597
      -0.517
      -0.427
      -0.295
      -0.109
       0.112
       0.329
       0.501
       0.600
       0.624
       0.597
       0.555
       0.527
       0.516
       0.505
       0.466
       0.385
       0.273
       0.160
       0.081
       0.054
       0.086
       0.172
       0.294
       0.416
       0.505
       0.537
       0.509
       0.429
       0.306
       0.150
      -0.032
      -0.229
      -0.426
      -0.603
      -0.748
      -0.856
      -0.925
      -0.954
      -0.936
      -0.871
      -0.760
      -0.613
      -0.444
      -0.276
      -0.131
      -0.024
       0.044
       0.077
       0.086
       0.083
       0.079
       0.075
       0.075
       0.085
       0.121
       0.196
       0.310
       0.446
       0.580
       0.694
       0.776
       0.821
       0.817
       0.746
       0.597
       0.385
       0.144
      -0.087
      -0.283
      -0.440
      -0.565
      -0.665
      -0.739
      -0.776
      -0.768
      -0.708
      -0.593
      -0.420
      -0.200
       0.036
       0.243
       0.382
       0.440
       0.436
       0.398
       0.347
       0.291
       0.224
       0.149
       0.082
       0.042
       0.034
       0.043
       0.043
       0.013
      -0.054
      -0.150
      -0.256
      -0.357
      -0.448
      -0.531
      -0.604
      -0.652
      -0.661
      -0.620
      -0.536
      -0.416
      -0.268
      -0.087
       0.135
       0.391
       0.650
       0.861
       0.975
       0.973
       0.867
       0.695
       0.499
       0.312
       0.148
       0.004
      -0.125
      -0.241
      -0.341
      -0.412
      -0.437
      -0.398
      -0.295
      -0.151
      -0.005
       0.109
       0.180
       0.216
       0.228
       0.219
       0.170
       0.067
      -0.082
      -0.238
      -0.348
      -0.367
      -0.282
      -0.110
       0.102
       0.298
       0.431
       0.476
       0.438
       0.344
       0.229
       0.126
       0.049
      -0.008
      -0.060
      -0.123
      -0.200
      -0.283
      -0.357
      -0.416
      -0.461
      -0.491
      -0.494
      -0.448
      -0.340
      -0.187
      -0.025
       0.109
       0.191
       0.218
       0.204
       0.168
       0.130
       0.096
       0.067
       0.044
       0.030
       0.029
       0.047
       0.078
       0.108
       0.122
       0.112
       0.083
       0.043
      -0.006
      -0.068
      -0.148
      -0.230
      -0.288
      -0.292
      -0.229
      -0.113
       0.026
       0.170
       0.309
       0.444
       0.562
       0.647
       0.680
       0.657
       0.583
       0.474
       0.350
       0.224
       0.104
      -0.008
      -0.107
      -0.196
      -0.288
      -0.393
      -0.511
      -0.616
      -0.670
      -0.641
      -0.519
      -0.322
      -0.092
       0.131
       0.324
       0.478
       0.591
       0.655
       0.662
       0.615
       0.532
       0.446
       0.380
       0.334
       0.284
       0.200
       0.071
      -0.083
      -0.233
      -0.355
      -0.445
      -0.516
      -0.578
      -0.634
      -0.672
      -0.682
      -0.666
      -0.639
      -0.616
      -0.606
      -0.607
      -0.606
      -0.592
      -0.559
      -0.512
      -0.461
      -0.412
      -0.358
      -0.286
      -0.185
      -0.047
       0.125
       0.319
       0.510
       0.670
       0.772
       0.797
       0.752
       0.669
       0.587
       0.530
       0.496
       0.471
       0.449
       0.438
       0.449
       0.490
       0.555
       0.625
       0.678
       0.695
       0.659
       0.565
       0.423
       0.253
       0.082
      -0.075
      -0.217
      -0.350
      -0.480
      -0.608
      -0.735
      -0.851
      -0.941
      -0.994
      -1.009
      -0.991
      -0.944
      -0.876
      -0.797
      -0.727
      -0.681
      -0.669
      -0.686
      -0.709
      -0.711
      -0.673
      -0.597
      -0.491
      -0.359
      -0.201
      -0.021
       0.170
       0.355
       0.523
       0.673
       0.811
       0.932
       1.018
       1.035
       0.954
       0.780
       0.551
       0.328
       0.170
       0.107
       0.124
       0.175
       0.216
       0.232
       0.241
       0.278
       0.363
       0.493
       0.638
       0.758
       0.821
       0.819
       0.760
       0.654
       0.513
       0.357
       0.210
       0.093
       0.013
      -0.043
      -0.095
      -0.159
      -0.240
      -0.333
      -0.433
      -0.536
      -0.642
      -0.750
      -0.856
      -0.953
      -1.027
      -1.062
      -1.052
      -1.009
      -0.958
      -0.925
      -0.915
      -0.903
      -0.842
      -0.693
      -0.459
      -0.178
       0.098
       0.342
       0.559
       0.768
       0.980
       1.182
       1.347
       1.449
       1.482
       1.469
       1.435
       1.396
       1.351
       1.292
       1.214
       1.111
       0.974
       0.786
       0.537
       0.232
      -0.106
      -0.445
      -0.762
      -1.054
      -1.321
      -1.553
      -1.734
      -1.852
      -1.911
      -1.922
      -1.889
      -1.803
      -1.646
      -1.413
      -1.127
      -0.825
      -0.544
      -0.298
      -0.084
       0.100
       0.246
       0.343
       0.390
       0.405
       0.422
       0.477
       0.586
       0.740
       0.913
       1.084
       1.249
       1.408
       1.557
       1.682
       1.771
       1.814
       1.805
       1.734
       1.584
       1.340
       1.006
       0.615
       0.213
      -0.162
      -0.495
      -0.784
      -1.027
      -1.216
      -1.339
      -1.392
      -1.387
      -1.351
      -1.308
      -1.265
      -1.211
      -1.134
      -1.031
      -0.903
      -0.755
      -0.601
      -0.456
      -0.328
      -0.207
      -0.066
       0.118
       0.350
       0.604
       0.828
       0.972
       1.032
       1.045
       1.067
       1.133
       1.237
       1.341
       1.399
       1.380
       1.279
       1.102
       0.855
       0.533
       0.145
      -0.279
      -0.685
      -1.027
      -1.288
      -1.495
      -1.690
      -1.891
      -2.069
      -2.163
      -2.130
      -1.971
      -1.725
      -1.429
      -1.096
      -0.720
      -0.300
       0.140
       0.554
       0.896
       1.146
       1.317
       1.425
       1.475
       1.453
       1.352
       1.184
       0.977
       0.758
       0.530
       0.276
      -0.022
      -0.347
      -0.652
      -0.883
      -1.022
      -1.091
      -1.131
      -1.171
      -1.202
      -1.193
      -1.124
      -1.008
      -0.883
      -0.782
      -0.705
      -0.631
      -0.537
      -0.416
      -0.267
      -0.095
       0.098
       0.309
       0.528
       0.741
       0.936
       1.119
       1.310
       1.533
       1.788
       2.053
       2.287
       2.447
       2.500
       2.424
       2.208
       1.852
       1.375
       0.826
       0.274
      -0.218
      -0.620
      -0.933
      -1.172
      -1.344
      -1.447
      -1.476
      -1.425
      -1.298
      -1.104
      -0.858
      -0.584
      -0.315
      -0.090
       0.051
       0.091
       0.037
      -0.078
      -0.216
      -0.348
      -0.448
      -0.483
      -0.412
      -0.214
       0.079
       0.383
       0.610
       0.722
       0.734
       0.683
       0.588
       0.444
       0.244
      -0.010
      -0.295
      -0.585
      -0.856
      -1.092
      -1.269
      -1.358
      -1.342
      -1.224
      -1.035
      -0.808
      -0.553
      -0.263
       0.066
       0.413
       0.730
       0.966
       1.103
       1.151
       1.135
       1.065
       0.946
       0.786
       0.607
       0.427
       0.256
       0.092
      -0.063
      -0.195
      -0.283
      -0.316
      -0.302
      -0.264
      -0.211
      -0.129
      -0.001
       0.167
       0.331
       0.427
       0.408
       0.267
       0.042
      -0.212
      -0.449
      -0.655
      -0.836
      -0.980
      -1.058
      -1.037
      -0.919
      -0.749
      -0.592
      -0.495
      -0.460
      -0.442
      -0.388
      -0.266
      -0.080
       0.146
       0.384
       0.604
       0.778
       0.881
       0.902
       0.858
       0.792
       0.752
       0.757
       0.786
       0.801
       0.769
       0.684
       0.552
       0.378
       0.165
      -0.073
      -0.297
      -0.458
      -0.516
      -0.473
      -0.369
      -0.248
      -0.130
      -0.008
       0.116
       0.215
       0.253
       0.217
       0.134
       0.039
      -0.047
      -0.134
      -0.242
      -0.369
      -0.484
      -0.539
      -0.511
      -0.412
      -0.280
      -0.157
      -0.070
      -0.029
      -0.027
      -0.052
      -0.083
      -0.099
      -0.088
      -0.062
      -0.067
      -0.154
      -0.339
      -0.585
      -0.819
      -0.976
      -1.025
      -0.963
      -0.799
      -0.542
      -0.201
       0.203
       0.634
       1.049
       1.416
       1.717
       1.942
       2.077
       2.105
       2.014
       1.809
       1.506
       1.129
       0.700
       0.235
      -0.247
      -0.719
      -1.144
      -1.480
      -1.695
      -1.775
      -1.722
      -1.562
      -1.338
      -1.106
      -0.909
      -0.773
      -0.695
      -0.649
      -0.603
      -0.536
      -0.447
      -0.346
      -0.243
      -0.136
      -0.013
       0.137
       0.314
       0.498
       0.654
       0.757
       0.803
       0.805
       0.779
       0.740
       0.700
       0.667
       0.639
       0.600
       0.534
       0.433
       0.314
       0.217
       0.185
       0.236
       0.348
       0.472
       0.566
       0.613
       0.626
       0.628
       0.634
       0.632
       0.595
       0.507
       0.374
       0.229
       0.108
       0.027
      -0.025
      -0.073
      -0.147
      -0.271
      -0.454
      -0.688
      -0.946
      -1.188
      -1.361
      -1.428
      -1.384
      -1.257
      -1.096
      -0.940
      -0.806
      -0.682
      -0.541
      -0.369
      -0.186
      -0.044
       0.012
      -0.022
      -0.104
      -0.186
      -0.234
      -0.245
      -0.222
      -0.153
      -0.014
       0.208
       0.492
       0.787
       1.041
       1.230
       1.359
       1.434
       1.446
       1.366
       1.179
       0.907
       0.616
       0.378
       0.232
       0.171
       0.166
       0.193
       0.246
       0.322
       0.394
       0.410
       0.318
       0.113
      -0.154
      -0.407
      -0.599
      -0.745
      -0.898
      -1.105
      -1.369
      -1.648
      -1.873
      -1.993
      -1.984
      -1.854
      -1.629
      -1.346
      -1.056
      -0.814
      -0.650
      -0.551
      -0.472
      -0.354
      -0.156
       0.131
       0.484
       0.871
       1.262
       1.642
       1.998
       2.318
       2.581
       2.759
       2.819
       2.730
       2.483
       2.095
       1.603
       1.046
       0.455
      -0.137
      -0.694
      -1.180
      -1.570
      -1.856
      -2.050
      -2.164
      -2.201
      -2.153
      -2.020
      -1.827
      -1.619
      -1.439
      -1.304
      -1.203
      -1.105
      -0.978
      -0.806
      -0.589
      -0.339
      -0.068
       0.215
       0.505
       0.806
       1.120
       1.437
       1.728
       1.966
       2.147
       2.296
       2.441
       2.587
       2.696
       2.704
       2.560
       2.261
       1.859
       1.428
       1.022
       0.659
       0.330
       0.024
      -0.265
      -0.544
      -0.828
      -1.130
      -1.441
      -1.718
      -1.906
      -1.968
      -1.924
      -1.840
      -1.795
      -1.839
      -1.970
      -2.143
      -2.300
      -2.414
      -2.487
      -2.531
      -2.531
      -2.447
      -2.237
      -1.891
      -1.437
      -0.933
      -0.435
       0.019
       0.427
       0.807
       1.185
       1.582
       2.005
       2.443
       2.860
       3.202
       3.407
       3.438
       3.291
       3.008
       2.650
       2.273
       1.899
       1.524
       1.140
       0.751
       0.377
       0.032
      -0.283
      -0.578
      -0.868
      -1.154
      -1.425
      -1.668
      -1.879
      -2.059
      -2.208
      -2.318
      -2.380
      -2.371
      -2.258
      -2.013
      -1.629
      -1.141
      -0.608
      -0.085
       0.408
       0.883
       1.357
       1.815
       2.202
       2.447
       2.515
       2.427
       2.252
       2.058
       1.877
       1.699
       1.491
       1.238
       0.957
       0.670
       0.388
       0.108
      -0.164
      -0.402
      -0.581
      -0.702
      -0.810
      -0.973
      -1.243
      -1.616
      -2.034
      -2.423
      -2.729
      -2.930
      -3.026
      -3.018
      -2.911
      -2.717
      -2.457
      -2.153
      -1.810
      -1.409
      -0.916
      -0.304
       0.418
       1.195
       1.951
       2.613
       3.136
       3.505
       3.728
       3.834
       3.852
       3.795
       3.647
       3.373
       2.944
       2.372
       1.716
       1.051
       0.437
      -0.110
      -0.614
      -1.109
      -1.616
      -2.123
      -2.583
      -2.942
      -3.160
      -3.217
      -3.118
      -2.878
      -2.533
      -2.128
      -1.705
      -1.287
      -0.881
      -0.480
      -0.080
       0.316
       0.699
       1.059
       1.396
       1.709
       1.977
       2.155
       2.197
       2.087
       1.845
       1.513
       1.136
       0.752
       0.389
       0.066
      -0.205
      -0.431
      -0.629
      -0.820
      -1.012
      -1.185
      -1.297
      -1.302
      -1.169
      -0.901
      -0.534
      -0.125
       0.267
       0.605
       0.872
       1.069
       1.203
       1.278
       1.295
       1.255
       1.171
       1.061
       0.930
       0.769
       0.558
       0.295
       0.002
      -0.290
      -0.551
      -0.770
      -0.950
      -1.100
      -1.222
      -1.308
      -1.346
      -1.332
      -1.271
      -1.179
      -1.081
      -0.999
      -0.941
      -0.901
      -0.862
      -0.809
      -0.728
      -0.612
      -0.460
      -0.285
      -0.107
       0.065
       0.230
       0.397
       0.572
       0.760
       0.954
       1.137
       1.280
       1.348
       1.313
       1.172
       0.951
       0.693
       0.439
       0.206
      -0.010
      -0.225
      -0.445
      -0.666
      -0.864
      -1.014
      -1.094
      -1.095
      -1.016
      -0.860
      -0.637
      -0.370
      -0.088
       0.195
       0.484
       0.784
       1.079
       1.327
       1.476
       1.491
       1.388
       1.227
       1.083
       0.997
       0.964
       0.944
       0.898
       0.813
       0.707
       0.615
       0.562
       0.555
       0.569
       0.568
       0.520
       0.407
       0.232
       0.015
      -0.233
      -0.510
      -0.823
      -1.168
      -1.515
      -1.823
      -2.052
      -2.175
      -2.194
      -2.121
      -1.975
      -1.759
      -1.478
      -1.154
      -0.832
      -0.562
      -0.367
      -0.223
      -0.074
       0.136
       0.419
       0.736
       1.022
       1.227
       1.334
       1.351
       1.293
       1.170
       0.994
       0.779
       0.545
       0.311
       0.091
      -0.111
      -0.281
      -0.388
      -0.391
      -0.269
      -0.046
       0.212
       0.438
       0.590
       0.671
       0.714
       0.747
       0.779
       0.802
       0.807
       0.782
       0.708
       0.560
       0.328
       0.037
      -0.260
      -0.504
      -0.659
      -0.733
      -0.759
      -0.765
      -0.739
      -0.644
      -0.464
      -0.236
      -0.039
       0.056
       0.031
      -0.080
      -0.211
      -0.320
      -0.402
      -0.472
      -0.532
      -0.567
      -0.555
      -0.497
      -0.408
      -0.301
      -0.170
      -0.013
       0.152
       0.289
       0.360
       0.364
       0.333
       0.313
       0.319
       0.327
       0.293
       0.188
       0.014
      -0.204
      -0.433
      -0.639
      -0.782
      -0.825
      -0.738
      -0.523
      -0.227
       0.072
       0.304
       0.437
       0.480
       0.460
       0.403
       0.328
       0.259
       0.221
       0.237
       0.307
       0.390
       0.423
       0.362
       0.222
       0.062
      -0.055
      -0.103
      -0.101
      -0.093
      -0.106
      -0.142
      -0.174
      -0.181
      -0.158
      -0.115
      -0.056
       0.023
       0.120
       0.222
       0.304
       0.348
       0.358
       0.365
       0.404
       0.483
       0.573
       0.626
       0.615
       0.546
       0.446
       0.345
       0.254
       0.159
       0.045
      -0.088
      -0.218
      -0.321
      -0.401
      -0.485
      -0.594
      -0.724
      -0.844
      -0.918
      -0.932
      -0.900
      -0.848
      -0.793
      -0.729
      -0.644
      -0.533
      -0.404
      -0.271
      -0.148
      -0.043
       0.040
       0.107
       0.168
       0.237
       0.320
       0.407
       0.477
       0.513
       0.520
       0.524
       0.554
       0.618
       0.692
       0.732
       0.705
       0.601
       0.441
       0.262
       0.099
      -0.023
      -0.096
      -0.127
      -0.131
      -0.138
      -0.174
      -0.250
      -0.350
      -0.443
      -0.495
      -0.489
      -0.429
      -0.341
      -0.250
      -0.167
      -0.089
      -0.009
       0.073
       0.159
       0.257
       0.379
       0.528
       0.691
       0.838
       0.932
       0.947
       0.889
       0.780
       0.638
       0.466
       0.259
       0.028
      -0.199
      -0.384
      -0.505
      -0.567
      -0.594
      -0.615
      -0.642
      -0.659
      -0.637
      -0.555
      -0.417
      -0.252
      -0.098
       0.020
       0.102
       0.159
       0.193
       0.194
       0.149
       0.067
      -0.029
      -0.113
      -0.175
      -0.229
      -0.306
      -0.424
      -0.561
      -0.662
      -0.676
      -0.586
      -0.413
      -0.196
       0.039
       0.284
       0.540
       0.797
       1.022
       1.178
       1.249
       1.251
       1.221
       1.181
       1.130
       1.055
       0.942
       0.788
       0.597
       0.373
       0.126
      -0.127
      -0.358
      -0.545
      -0.687
      -0.814
      -0.963
      -1.152
      -1.361
      -1.543
      -1.651
      -1.662
      -1.586
      -1.453
      -1.295
      -1.132
      -0.974
      -0.821
      -0.661
      -0.474
      -0.245
       0.029
       0.327
       0.607
       0.828
       0.968
       1.041
       1.081
       1.112
       1.124
       1.088
       0.991
       0.850
       0.709
       0.607
       0.562
       0.551
       0.526
