Origin Time       16/4/2013 10:44:11	 UTC
Lat.              28.0 N	
Long.             62.1 E	
Depth (Km)         46.0
Magnitude         7.8
 Region           Iran-Pakistan-Border-Region                                      
 Above details taken from IMD 
    
Station Code      CKR
Station Lat.       30.694  N
Station Long.      77.901  E
Station Height(m) 2118.0
Site Class        B   Vs30 between 375 m/sec to 700 m/sec *  
Record Time       16.04.2013 10:49:39.989 UTC
Sampling Rate     200. Hz
 Record Duration   80.010 Sec.
 Direction         N-S (N positive)
Max. Acceleration     -1.228 cm/sec**2
     
  * For reference see Site Classification link of website 
     
 Base Line Corrected and Low Pass Filtered (Cut Off at 35 Hz) Time History
 Acceleration data in cm/sec**2
    
[...]
       0.048
       0.038
       0.013
      -0.014
      -0.032
      -0.045
      -0.060
      -0.075
      -0.079
      -0.072
      -0.065
      -0.069
      -0.081
      -0.088
      -0.083
      -0.070
      -0.060
      -0.052
      -0.038
      -0.015
       0.009
       0.028
       0.048
       0.078
       0.114
       0.141
       0.152
       0.157
       0.173
       0.194
       0.205
       0.195
       0.174
       0.152
       0.131
       0.104
       0.074
       0.050
       0.038
       0.032
       0.021
       0.003
      -0.011
      -0.011
       0.002
       0.017
       0.033
       0.060
       0.098
       0.138
       0.169
       0.195
       0.225
       0.259
       0.287
       0.301
       0.307
       0.312
       0.316
       0.310
       0.291
       0.266
       0.247
       0.236
       0.221
       0.198
       0.173
       0.158
       0.153
       0.146
       0.132
       0.121
       0.124
       0.137
       0.145
       0.148
       0.153
       0.169
       0.188
       0.200
       0.201
       0.200
       0.201
       0.200
       0.191
       0.176
       0.166
       0.164
       0.161
       0.144
       0.114
       0.085
       0.063
       0.041
       0.013
      -0.012
      -0.022
      -0.019
      -0.016
      -0.022
      -0.031
      -0.031
      -0.018
       0.001
       0.021
       0.044
       0.075
       0.111
       0.134
       0.138
       0.134
       0.135
       0.142
       0.143
       0.135
       0.128
       0.130
       0.135
       0.130
       0.118
       0.113
       0.121
       0.132
       0.132
       0.122
       0.118
       0.133
       0.159
       0.180
       0.187
       0.188
       0.193
       0.200
       0.207
       0.219
       0.244
       0.278
       0.299
       0.297
       0.282
       0.270
       0.268
       0.265
       0.254
       0.239
       0.225
       0.208
       0.180
       0.140
       0.099
       0.068
       0.046
       0.020
      -0.013
      -0.042
      -0.055
      -0.063
      -0.079
      -0.105
      -0.123
      -0.123
      -0.116
      -0.117
      -0.125
      -0.124
      -0.109
      -0.090
      -0.081
      -0.083
      -0.086
      -0.082
      -0.072
      -0.062
      -0.050
      -0.031
      -0.005
       0.014
       0.019
       0.021
       0.035
       0.064
       0.091
       0.111
       0.131
       0.162
       0.196
       0.217
       0.220
       0.217
       0.221
       0.234
       0.243
       0.245
       0.244
       0.248
       0.253
       0.249
       0.234
       0.220
       0.211
       0.196
       0.167
       0.135
       0.119
       0.121
       0.122
       0.102
       0.065
       0.027
       0.001
      -0.016
      -0.033
      -0.048
      -0.058
      -0.064
      -0.075
      -0.098
      -0.125
      -0.142
      -0.149
      -0.154
      -0.169
      -0.184
      -0.188
      -0.182
      -0.176
      -0.179
      -0.181
      -0.176
      -0.165
      -0.158
      -0.156
      -0.150
      -0.134
      -0.116
      -0.108
      -0.115
      -0.127
      -0.135
      -0.140
      -0.151
      -0.164
      -0.165
      -0.150
      -0.131
      -0.122
      -0.118
      -0.105
      -0.078
      -0.050
      -0.031
      -0.019
      -0.001
       0.026
       0.051
       0.061
       0.055
       0.042
       0.027
       0.006
      -0.023
      -0.051
      -0.070
      -0.084
      -0.109
      -0.153
      -0.206
      -0.253
      -0.297
      -0.345
      -0.402
      -0.457
      -0.502
      -0.541
      -0.583
      -0.627
      -0.666
      -0.693
      -0.714
      -0.736
      -0.755
      -0.763
      -0.753
      -0.736
      -0.727
      -0.725
      -0.716
      -0.689
      -0.653
      -0.619
      -0.586
      -0.544
      -0.488
      -0.428
      -0.368
      -0.304
      -0.230
      -0.147
      -0.066
       0.003
       0.065
       0.131
       0.208
       0.286
       0.350
       0.395
       0.426
       0.448
       0.458
       0.460
       0.462
       0.466
       0.460
       0.428
       0.377
       0.324
       0.283
       0.244
       0.198
       0.143
       0.094
       0.062
       0.040
       0.017
      -0.014
      -0.047
      -0.073
      -0.091
      -0.101
      -0.096
      -0.073
      -0.044
      -0.033
      -0.049
      -0.073
      -0.082
      -0.076
      -0.075
      -0.093
      -0.121
      -0.141
      -0.148
      -0.154
      -0.164
      -0.175
      -0.179
      -0.175
      -0.174
      -0.179
      -0.178
      -0.160
      -0.131
      -0.107
      -0.091
      -0.067
      -0.024
       0.026
       0.068
       0.100
       0.135
       0.181
       0.230
       0.267
       0.289
       0.303
       0.315
       0.324
       0.325
       0.320
       0.319
       0.319
       0.308
       0.275
       0.231
       0.198
       0.183
       0.174
       0.160
       0.147
       0.146
       0.158
       0.169
       0.173
       0.175
       0.185
       0.203
       0.222
       0.239
       0.259
       0.285
       0.311
       0.323
       0.320
       0.309
       0.299
       0.283
       0.249
       0.200
       0.152
       0.111
       0.069
       0.015
      -0.050
      -0.114
      -0.174
      -0.236
      -0.304
      -0.368
      -0.412
      -0.437
      -0.457
      -0.487
      -0.523
      -0.551
      -0.561
      -0.563
      -0.567
      -0.570
      -0.563
      -0.551
      -0.550
      -0.562
      -0.572
      -0.564
      -0.542
      -0.519
      -0.500
      -0.473
      -0.429
      -0.373
      -0.322
      -0.283
      -0.247
      -0.203
      -0.153
      -0.106
      -0.059
      -0.002
       0.074
       0.154
       0.220
       0.270
       0.320
       0.379
       0.444
       0.507
       0.566
       0.625
       0.678
       0.712
       0.724
       0.724
       0.723
       0.720
       0.701
       0.663
       0.618
       0.582
       0.558
       0.529
       0.484
       0.431
       0.384
       0.345
       0.303
       0.256
       0.216
       0.194
       0.183
       0.169
       0.146
       0.121
       0.101
       0.081
       0.054
       0.026
       0.007
       0.004
       0.002
      -0.016
      -0.053
      -0.095
      -0.129
      -0.161
      -0.197
      -0.229
      -0.245
      -0.248
      -0.256
      -0.281
      -0.315
      -0.339
      -0.344
      -0.338
      -0.330
      -0.320
      -0.300
      -0.268
      -0.232
      -0.198
      -0.162
      -0.120
      -0.076
      -0.039
      -0.011
       0.018
       0.054
       0.088
       0.105
       0.105
       0.103
       0.109
       0.118
       0.120
       0.118
       0.120
       0.131
       0.141
       0.139
       0.128
       0.120
       0.121
       0.126
       0.125
       0.124
       0.140
       0.177
       0.217
       0.246
       0.263
       0.282
       0.305
       0.323
       0.332
       0.336
       0.344
       0.351
       0.343
       0.316
       0.279
       0.245
       0.214
       0.176
       0.129
       0.083
       0.050
       0.025
      -0.009
      -0.061
      -0.116
      -0.160
      -0.192
      -0.222
      -0.248
      -0.262
      -0.260
      -0.256
      -0.265
      -0.285
      -0.303
      -0.312
      -0.317
      -0.323
      -0.326
      -0.317
      -0.292
      -0.265
      -0.245
      -0.227
      -0.200
      -0.162
      -0.122
      -0.085
      -0.041
       0.020
       0.091
       0.156
       0.209
       0.258
       0.313
       0.374
       0.431
       0.484
       0.537
       0.592
       0.640
       0.666
       0.666
       0.649
       0.628
       0.602
       0.563
       0.516
       0.473
       0.438
       0.399
       0.342
       0.273
       0.209
       0.159
       0.115
       0.069
       0.018
      -0.030
      -0.071
      -0.108
      -0.144
      -0.176
      -0.200
      -0.221
      -0.248
      -0.280
      -0.306
      -0.318
      -0.324
      -0.345
      -0.387
      -0.433
      -0.468
      -0.498
      -0.537
      -0.589
      -0.643
      -0.685
      -0.717
      -0.748
      -0.782
      -0.813
      -0.832
      -0.837
      -0.836
      -0.826
      -0.799
      -0.748
      -0.683
      -0.620
      -0.558
      -0.485
      -0.398
      -0.309
      -0.231
      -0.162
      -0.093
      -0.022
       0.039
       0.084
       0.117
       0.147
       0.174
       0.189
       0.188
       0.178
       0.170
       0.158
       0.128
       0.072
       0.003
      -0.063
      -0.121
      -0.185
      -0.256
      -0.320
      -0.366
      -0.401
      -0.437
      -0.477
      -0.509
      -0.525
      -0.525
      -0.520
      -0.511
      -0.495
      -0.467
      -0.436
      -0.412
      -0.393
      -0.368
      -0.332
      -0.293
      -0.262
      -0.232
      -0.190
      -0.135
      -0.086
      -0.053
      -0.030
      -0.001
       0.039
       0.084
       0.129
       0.179
       0.239
       0.303
       0.359
       0.401
       0.437
       0.479
       0.526
       0.563
       0.584
       0.596
       0.614
       0.633
       0.635
       0.613
       0.575
       0.533
       0.487
       0.434
       0.375
       0.321
       0.276
       0.231
       0.174
       0.110
       0.054
       0.018
      -0.007
      -0.036
      -0.074
      -0.108
      -0.126
      -0.137
      -0.149
      -0.159
      -0.155
      -0.139
      -0.123
      -0.114
      -0.097
      -0.059
      -0.001
       0.055
       0.096
       0.127
       0.159
       0.195
       0.227
       0.253
       0.277
       0.303
       0.323
       0.322
       0.300
       0.274
       0.256
       0.238
       0.204
       0.154
       0.104
       0.068
       0.041
       0.012
      -0.022
      -0.052
      -0.072
      -0.086
      -0.096
      -0.100
      -0.088
      -0.061
      -0.032
      -0.016
      -0.007
       0.008
       0.038
       0.075
       0.112
       0.154
       0.210
       0.279
       0.347
       0.403
       0.453
       0.502
       0.546
       0.576
       0.590
       0.594
       0.597
       0.598
       0.589
       0.569
       0.544
       0.517
       0.482
       0.430
       0.367
       0.313
       0.278
       0.250
       0.212
       0.162
       0.116
       0.083
       0.057
       0.031
       0.009
       0.000
       0.005
       0.017
       0.028
       0.042
       0.065
       0.097
       0.127
       0.149
       0.172
       0.207
       0.248
       0.276
       0.281
       0.275
       0.273
       0.273
       0.260
       0.228
       0.189
       0.152
       0.112
       0.057
      -0.013
      -0.080
      -0.130
      -0.166
      -0.202
      -0.243
      -0.279
      -0.301
      -0.313
      -0.331
      -0.362
      -0.393
      -0.414
      -0.427
      -0.439
      -0.449
      -0.452
      -0.450
      -0.459
      -0.483
      -0.510
      -0.526
      -0.531
      -0.537
      -0.554
      -0.571
      -0.570
      -0.542
      -0.501
      -0.463
      -0.423
      -0.369
      -0.293
      -0.206
      -0.117
      -0.023
       0.082
       0.191
       0.290
       0.373
       0.441
       0.498
       0.540
       0.563
       0.569
       0.564
       0.549
       0.513
       0.446
       0.352
       0.252
       0.158
       0.070
      -0.019
      -0.103
      -0.166
      -0.206
      -0.237
      -0.277
      -0.322
      -0.358
      -0.379
      -0.391
      -0.400
      -0.401
      -0.390
      -0.374
      -0.363
      -0.364
      -0.371
      -0.378
      -0.386
      -0.402
      -0.424
      -0.438
      -0.437
      -0.432
      -0.438
      -0.457
      -0.471
      -0.467
      -0.454
      -0.444
      -0.436
      -0.415
      -0.377
      -0.335
      -0.303
      -0.284
      -0.263
      -0.235
      -0.207
      -0.190
      -0.184
      -0.174
      -0.151
      -0.126
      -0.116
      -0.123
      -0.138
      -0.152
      -0.169
      -0.187
      -0.196
      -0.183
      -0.153
      -0.122
      -0.099
      -0.079
      -0.047
       0.000
       0.055
       0.112
       0.173
       0.248
       0.332
       0.415
       0.488
       0.557
       0.629
       0.704
       0.774
       0.839
       0.907
       0.977
       1.033
       1.059
       1.059
       1.048
       1.031
       1.000
       0.949
       0.883
       0.811
       0.730
       0.625
       0.488
       0.332
       0.186
       0.060
      -0.056
      -0.178
      -0.300
      -0.404
      -0.486
      -0.556
      -0.622
      -0.680
      -0.723
      -0.752
      -0.774
      -0.788
      -0.787
      -0.768
      -0.743
      -0.721
      -0.703
      -0.677
      -0.634
      -0.580
      -0.529
      -0.478
      -0.414
      -0.326
      -0.228
      -0.142
      -0.071
      -0.002
       0.076
       0.162
       0.245
       0.326
       0.409
       0.487
       0.548
       0.585
       0.608
       0.637
       0.677
       0.721
       0.759
       0.796
       0.839
       0.887
       0.923
       0.937
       0.936
       0.937
       0.940
       0.931
       0.907
       0.875
       0.841
       0.794
       0.720
       0.617
       0.497
       0.373
       0.247
       0.112
      -0.033
      -0.182
      -0.327
      -0.466
      -0.605
      -0.739
      -0.858
      -0.958
      -1.045
      -1.123
      -1.185
      -1.220
      -1.228
      -1.227
      -1.227
      -1.222
      -1.201
      -1.161
      -1.110
      -1.052
      -0.984
      -0.903
      -0.812
      -0.723
      -0.640
      -0.553
      -0.452
      -0.342
      -0.240
      -0.149
      -0.056
       0.055
       0.183
       0.309
       0.421
       0.525
       0.624
       0.718
       0.803
       0.879
       0.951
       1.015
       1.061
       1.081
       1.082
       1.077
       1.073
       1.061
       1.028
       0.976
       0.921
       0.868
       0.804
       0.718
       0.617
       0.517
       0.427
       0.346
       0.273
       0.215
       0.178
       0.157
       0.143
       0.132
       0.131
       0.146
       0.172
       0.194
       0.208
       0.221
       0.242
       0.263
       0.265
       0.243
       0.212
       0.182
       0.149
       0.097
       0.030
      -0.032
      -0.076
      -0.109
      -0.146
      -0.191
      -0.235
      -0.267
      -0.286
      -0.298
      -0.306
      -0.303
      -0.288
      -0.273
      -0.266
      -0.264
      -0.251
      -0.224
      -0.192
      -0.161
      -0.128
      -0.086
      -0.043
      -0.012
       0.003
       0.013
       0.027
       0.041
       0.039
       0.019
      -0.010
      -0.033
      -0.054
      -0.085
      -0.131
      -0.184
      -0.231
      -0.271
      -0.313
      -0.352
      -0.374
      -0.375
      -0.371
      -0.380
      -0.403
      -0.426
      -0.437
      -0.441
      -0.447
      -0.456
      -0.463
      -0.466
      -0.470
      -0.480
      -0.493
      -0.503
      -0.512
      -0.531
      -0.563
      -0.596
      -0.610
      -0.607
      -0.602
      -0.606
      -0.613
      -0.612
      -0.604
      -0.593
      -0.577
      -0.545
      -0.494
      -0.436
      -0.389
      -0.352
      -0.312
      -0.258
      -0.195
      -0.135
      -0.081
      -0.019
       0.060
       0.146
       0.222
       0.284
       0.342
       0.400
       0.453
       0.493
       0.527
       0.565
       0.604
       0.629
       0.629
       0.606
       0.572
       0.529
       0.472
       0.398
       0.318
       0.242
       0.171
       0.092
      -0.001
      -0.101
      -0.192
      -0.273
      -0.351
      -0.428
      -0.493
      -0.537
      -0.569
      -0.600
      -0.632
      -0.651
      -0.648
      -0.628
      -0.597
      -0.558
      -0.502
      -0.431
      -0.356
      -0.292
      -0.242
      -0.191
      -0.127
      -0.056
       0.012
       0.073
       0.133
       0.191
       0.239
       0.274
       0.302
       0.328
       0.349
       0.356
       0.349
       0.339
       0.336
       0.337
       0.329
       0.306
       0.274
       0.248
       0.229
       0.206
       0.174
       0.142
       0.121
       0.105
       0.081
       0.049
       0.021
       0.005
      -0.005
      -0.017
      -0.030
      -0.032
      -0.020
      -0.004
       0.006
       0.011
       0.022
       0.044
       0.070
       0.088
       0.101
       0.117
       0.134
       0.136
       0.110
       0.068
       0.028
      -0.003
      -0.037
      -0.079
      -0.116
      -0.135
      -0.138
      -0.139
      -0.145
      -0.149
      -0.139
      -0.113
      -0.084
      -0.057
      -0.031
       0.001
       0.031
       0.047
       0.048
       0.044
       0.048
       0.054
       0.054
       0.051
       0.058
       0.076
       0.092
       0.096
       0.096
       0.104
       0.121
       0.135
       0.136
       0.129
       0.131
       0.146
       0.162
       0.162
       0.147
       0.129
       0.115
       0.098
       0.070
       0.040
       0.017
      -0.005
      -0.040
      -0.093
      -0.157
      -0.220
      -0.281
      -0.346
      -0.414
      -0.475
      -0.520
      -0.552
      -0.576
      -0.591
      -0.582
      -0.537
      -0.462
      -0.373
      -0.274
      -0.157
      -0.018
       0.126
       0.255
       0.363
       0.458
       0.546
       0.620
       0.672
       0.699
       0.706
       0.692
       0.654
       0.593
       0.519
       0.443
       0.366
       0.280
       0.183
       0.086
       0.005
      -0.061
      -0.125
      -0.194
      -0.256
      -0.301
      -0.329
      -0.351
      -0.368
      -0.370
      -0.357
      -0.338
      -0.327
      -0.323
      -0.316
      -0.296
      -0.271
      -0.254
      -0.252
      -0.256
      -0.257
      -0.262
      -0.280
      -0.310
      -0.334
      -0.344
      -0.346
      -0.348
      -0.344
      -0.320
      -0.274
      -0.218
      -0.164
      -0.110
      -0.050
       0.016
       0.081
       0.141
       0.202
       0.268
       0.332
       0.374
       0.386
       0.380
       0.371
       0.357
       0.324
       0.267
       0.204
       0.149
       0.097
       0.031
      -0.054
      -0.147
      -0.230
      -0.300
      -0.358
      -0.403
      -0.426
      -0.426
      -0.410
      -0.392
      -0.377
      -0.356
      -0.329
      -0.304
      -0.290
      -0.277
      -0.252
      -0.215
      -0.185
      -0.175
      -0.178
      -0.176
      -0.165
      -0.154
      -0.149
      -0.138
      -0.109
      -0.066
      -0.024
       0.004
       0.022
       0.046
       0.082
       0.120
       0.154
       0.186
       0.224
       0.268
       0.307
       0.339
       0.372
       0.411
       0.449
       0.479
       0.504
       0.536
       0.577
       0.617
       0.644
       0.661
       0.677
       0.695
       0.708
       0.710
       0.708
       0.714
       0.729
       0.740
       0.734
       0.715
       0.698
       0.684
       0.665
       0.633
       0.599
       0.573
       0.550
       0.515
       0.459
       0.387
       0.313
