Origin Time       11/2/2013 10:48:55	
Lat.              31.0 N	
Long.             78.4 E	
Depth (Km)          5.0
Magnitude         4.3
 Region           UTTARKASHI-UTTARAKHAND                                           
 Above details taken from IMD 
     
Station Code      CKR
Station Lat.       30.694  N
Station Long.      77.901  E
Station Height(m) 2118.0
Site Class        B   Vs30 between 375 m/sec to 700 m/sec *  
Record Time       11.02.2013 10:48:39.304
Sampling Rate     200. Hz
 Record Duration   80.255 Sec.
 Direction         E-W (E positive)
Max. Acceleration      2.776 cm/sec**2
     
  * For reference see Site Classification link of website 
     
 Base Line Corrected and Low Pass Filtered (Cut Off at 35 Hz) Time History
 Acceleration data in cm/sec**2
    
[...]
       0.371
       0.258
       0.115
      -0.039
      -0.158
      -0.201
      -0.162
      -0.081
      -0.018
      -0.008
      -0.037
      -0.057
      -0.024
       0.077
       0.216
       0.336
       0.376
       0.300
       0.110
      -0.146
      -0.388
      -0.541
      -0.561
      -0.459
      -0.286
      -0.107
       0.029
       0.101
       0.108
       0.056
      -0.046
      -0.176
      -0.301
      -0.384
      -0.403
      -0.364
      -0.299
      -0.244
      -0.224
      -0.235
      -0.254
      -0.254
      -0.219
      -0.149
      -0.053
       0.058
       0.176
       0.294
       0.410
       0.518
       0.603
       0.636
       0.588
       0.451
       0.261
       0.078
      -0.042
      -0.089
      -0.097
      -0.116
      -0.173
      -0.259
      -0.347
      -0.418
      -0.467
      -0.495
      -0.500
      -0.466
      -0.370
      -0.202
       0.019
       0.239
       0.403
       0.477
       0.468
       0.406
       0.324
       0.238
       0.149
       0.060
      -0.017
      -0.062
      -0.058
      -0.006
       0.069
       0.137
       0.178
       0.191
       0.183
       0.159
       0.124
       0.079
       0.031
      -0.014
      -0.058
      -0.108
      -0.175
      -0.262
      -0.353
      -0.424
      -0.454
      -0.445
      -0.424
      -0.415
      -0.426
      -0.438
      -0.426
      -0.372
      -0.278
      -0.155
      -0.013
       0.143
       0.299
       0.428
       0.500
       0.499
       0.447
       0.391
       0.385
       0.452
       0.573
       0.695
       0.760
       0.736
       0.630
       0.479
       0.331
       0.216
       0.138
       0.077
       0.010
      -0.077
      -0.179
      -0.280
      -0.357
      -0.401
      -0.420
      -0.441
      -0.488
      -0.557
      -0.620
      -0.644
      -0.623
      -0.577
      -0.537
      -0.514
      -0.495
      -0.464
      -0.419
      -0.383
      -0.381
      -0.416
      -0.467
      -0.495
      -0.470
      -0.392
      -0.288
      -0.197
      -0.138
      -0.094
      -0.026
       0.099
       0.278
       0.465
       0.605
       0.668
       0.666
       0.635
       0.612
       0.609
       0.615
       0.617
       0.603
       0.566
       0.501
       0.404
       0.274
       0.119
      -0.042
      -0.179
      -0.259
      -0.261
      -0.192
      -0.086
       0.019
       0.094
       0.128
       0.117
       0.062
      -0.026
      -0.113
      -0.159
      -0.138
      -0.060
       0.029
       0.079
       0.062
      -0.012
      -0.113
      -0.212
      -0.291
      -0.341
      -0.354
      -0.324
      -0.259
      -0.185
      -0.137
      -0.141
      -0.200
      -0.296
      -0.396
      -0.473
      -0.507
      -0.488
      -0.421
      -0.322
      -0.217
      -0.126
      -0.055
       0.014
       0.103
       0.221
       0.350
       0.448
       0.473
       0.418
       0.324
       0.257
       0.268
       0.362
       0.497
       0.613
       0.668
       0.645
       0.554
       0.420
       0.273
       0.143
       0.050
       0.004
      -0.002
       0.012
       0.020
       0.004
      -0.035
      -0.078
      -0.096
      -0.073
      -0.013
       0.059
       0.108
       0.108
       0.048
      -0.067
      -0.215
      -0.360
      -0.458
      -0.480
      -0.433
      -0.353
      -0.286
      -0.254
      -0.249
      -0.242
      -0.220
      -0.193
      -0.189
      -0.221
      -0.277
      -0.326
      -0.351
      -0.355
      -0.364
      -0.396
      -0.451
      -0.505
      -0.519
      -0.464
      -0.336
      -0.160
       0.026
       0.182
       0.288
       0.344
       0.366
       0.382
       0.417
       0.488
       0.593
       0.710
       0.809
       0.860
       0.850
       0.775
       0.647
       0.487
       0.318
       0.156
       0.010
      -0.114
      -0.211
      -0.277
      -0.313
      -0.329
      -0.342
      -0.354
      -0.350
      -0.302
      -0.201
      -0.070
       0.036
       0.071
       0.023
      -0.072
      -0.161
      -0.203
      -0.193
      -0.152
      -0.105
      -0.063
      -0.022
       0.020
       0.047
       0.035
      -0.024
      -0.105
      -0.158
      -0.145
      -0.072
       0.011
       0.052
       0.037
      -0.002
      -0.023
      -0.014
       0.001
      -0.009
      -0.046
      -0.088
      -0.109
      -0.104
      -0.093
      -0.092
      -0.105
      -0.117
      -0.115
      -0.099
      -0.079
      -0.066
      -0.063
      -0.067
      -0.071
      -0.073
      -0.073
      -0.073
      -0.071
      -0.058
      -0.029
       0.014
       0.066
       0.115
       0.152
       0.172
       0.177
       0.168
       0.149
       0.120
       0.084
       0.047
       0.015
      -0.012
      -0.038
      -0.063
      -0.081
      -0.084
      -0.068
      -0.038
      -0.011
       0.001
      -0.002
      -0.005
       0.013
       0.064
       0.137
       0.207
       0.256
       0.286
       0.300
       0.295
       0.253
       0.166
       0.054
      -0.032
      -0.053
      -0.006
       0.062
       0.096
       0.070
       0.008
      -0.042
      -0.051
      -0.027
       0.001
       0.014
       0.013
       0.014
       0.022
       0.026
       0.009
      -0.032
      -0.080
      -0.101
      -0.068
       0.016
       0.109
       0.145
       0.079
      -0.086
      -0.296
      -0.478
      -0.583
      -0.603
      -0.563
      -0.493
      -0.416
      -0.344
      -0.285
      -0.248
      -0.239
      -0.246
      -0.240
      -0.187
      -0.071
       0.094
       0.270
       0.415
       0.499
       0.518
       0.493
       0.452
       0.422
       0.411
       0.412
       0.407
       0.378
       0.326
       0.265
       0.216
       0.184
       0.152
       0.099
       0.013
      -0.089
      -0.176
      -0.224
      -0.235
      -0.233
      -0.242
      -0.269
      -0.298
      -0.307
      -0.282
      -0.225
      -0.158
      -0.103
      -0.070
      -0.053
      -0.035
      -0.006
       0.020
       0.016
      -0.033
      -0.113
      -0.184
      -0.208
      -0.176
      -0.107
      -0.030
       0.049
       0.141
       0.258
       0.381
       0.463
       0.465
       0.389
       0.272
       0.165
       0.093
       0.052
       0.018
      -0.027
      -0.079
      -0.122
      -0.137
      -0.125
      -0.098
      -0.068
      -0.037
       0.003
       0.052
       0.104
       0.150
       0.193
       0.245
       0.312
       0.386
       0.440
       0.449
       0.407
       0.322
       0.210
       0.081
      -0.055
      -0.176
      -0.249
      -0.253
      -0.202
      -0.151
      -0.164
      -0.274
      -0.457
      -0.650
      -0.788
      -0.839
      -0.818
      -0.762
      -0.703
      -0.658
      -0.625
      -0.603
      -0.589
      -0.583
      -0.580
      -0.574
      -0.556
      -0.508
      -0.415
      -0.283
      -0.138
      -0.014
       0.076
       0.149
       0.237
       0.362
       0.517
       0.674
       0.803
       0.884
       0.915
       0.897
       0.832
       0.728
       0.600
       0.473
       0.366
       0.290
       0.244
       0.223
       0.218
       0.213
       0.178
       0.088
      -0.059
      -0.231
      -0.370
      -0.429
      -0.396
      -0.301
      -0.193
      -0.104
      -0.035
       0.031
       0.105
       0.177
       0.225
       0.238
       0.221
       0.189
       0.154
       0.111
       0.048
      -0.039
      -0.141
      -0.238
      -0.305
      -0.327
      -0.303
      -0.246
      -0.178
      -0.120
      -0.078
      -0.046
      -0.013
       0.027
       0.070
       0.108
       0.134
       0.155
       0.181
       0.220
       0.265
       0.301
       0.311
       0.290
       0.243
       0.193
       0.165
       0.177
       0.222
       0.267
       0.266
       0.192
       0.053
      -0.110
      -0.245
      -0.318
      -0.326
      -0.295
      -0.261
      -0.251
      -0.272
      -0.307
      -0.331
      -0.322
      -0.280
      -0.217
      -0.147
      -0.078
      -0.008
       0.052
       0.081
       0.053
      -0.036
      -0.161
      -0.275
      -0.334
      -0.324
      -0.261
      -0.182
      -0.123
      -0.106
      -0.125
      -0.158
      -0.171
      -0.146
      -0.088
      -0.018
       0.044
       0.097
       0.148
       0.198
       0.230
       0.225
       0.179
       0.115
       0.072
       0.082
       0.152
       0.253
       0.337
       0.361
       0.316
       0.234
       0.172
       0.175
       0.250
       0.362
       0.457
       0.492
       0.450
       0.348
       0.217
       0.098
       0.017
      -0.020
      -0.032
      -0.048
      -0.088
      -0.151
      -0.225
      -0.299
      -0.377
      -0.466
      -0.563
      -0.640
      -0.663
      -0.613
      -0.505
      -0.373
      -0.260
      -0.188
      -0.155
      -0.137
      -0.104
      -0.032
       0.082
       0.214
       0.320
       0.362
       0.330
       0.245
       0.142
       0.048
      -0.029
      -0.087
      -0.122
      -0.123
      -0.084
      -0.016
       0.054
       0.096
       0.087
       0.033
      -0.034
      -0.074
      -0.065
      -0.014
       0.049
       0.093
       0.097
       0.062
       0.002
      -0.055
      -0.075
      -0.030
       0.084
       0.244
       0.405
       0.520
       0.562
       0.534
       0.459
       0.366
       0.276
       0.196
       0.123
       0.040
      -0.065
      -0.193
      -0.326
      -0.434
      -0.495
      -0.508
      -0.490
      -0.460
      -0.427
      -0.388
      -0.341
      -0.285
      -0.228
      -0.175
      -0.128
      -0.087
      -0.050
      -0.026
      -0.023
      -0.042
      -0.068
      -0.079
      -0.068
      -0.054
      -0.072
      -0.139
      -0.242
      -0.347
      -0.430
      -0.484
      -0.513
      -0.521
      -0.506
      -0.459
      -0.375
      -0.257
      -0.114
       0.042
       0.197
       0.343
       0.469
       0.561
       0.609
       0.614
       0.589
       0.546
       0.488
       0.411
       0.310
       0.188
       0.056
      -0.076
      -0.204
      -0.330
      -0.465
      -0.617
      -0.786
      -0.960
      -1.124
      -1.271
      -1.401
      -1.507
      -1.563
      -1.529
      -1.382
      -1.135
      -0.826
      -0.496
      -0.172
       0.136
       0.423
       0.680
       0.903
       1.097
       1.267
       1.408
       1.508
       1.555
       1.556
       1.529
       1.499
       1.486
       1.500
       1.545
       1.613
       1.685
       1.733
       1.725
       1.640
       1.483
       1.289
       1.100
       0.949
       0.838
       0.740
       0.627
       0.483
       0.324
       0.182
       0.087
       0.049
       0.062
       0.113
       0.184
       0.252
       0.286
       0.261
       0.173
       0.052
      -0.064
      -0.152
      -0.229
      -0.326
      -0.462
      -0.623
      -0.781
      -0.918
      -1.041
      -1.161
      -1.280
      -1.388
      -1.477
      -1.550
      -1.616
      -1.676
      -1.717
      -1.713
      -1.639
      -1.483
      -1.260
      -1.005
      -0.766
      -0.574
      -0.440
      -0.347
      -0.268
      -0.178
      -0.059
       0.086
       0.235
       0.365
       0.465
       0.554
       0.656
       0.779
       0.906
       1.012
       1.091
       1.160
       1.236
       1.317
       1.377
       1.385
       1.331
       1.224
       1.078
       0.902
       0.699
       0.480
       0.260
       0.054
      -0.135
      -0.310
      -0.476
      -0.630
      -0.767
      -0.885
      -0.988
      -1.080
      -1.158
      -1.210
      -1.221
      -1.183
      -1.105
      -1.007
      -0.905
      -0.801
      -0.679
      -0.519
      -0.320
      -0.109
       0.077
       0.215
       0.307
       0.372
       0.429
       0.485
       0.539
       0.574
       0.562
       0.485
       0.351
       0.196
       0.063
      -0.039
      -0.139
      -0.275
      -0.451
      -0.630
      -0.764
      -0.825
      -0.829
      -0.809
      -0.782
      -0.735
      -0.632
      -0.449
      -0.190
       0.099
       0.361
       0.549
       0.656
       0.714
       0.766
       0.840
       0.934
       1.023
       1.082
       1.091
       1.040
       0.922
       0.741
       0.517
       0.275
       0.034
      -0.200
      -0.430
      -0.655
      -0.866
      -1.048
      -1.189
      -1.291
      -1.368
      -1.434
      -1.491
      -1.518
      -1.487
      -1.383
      -1.213
      -0.996
      -0.750
      -0.481
      -0.181
       0.165
       0.564
       1.002
       1.434
       1.806
       2.075
       2.232
       2.296
       2.290
       2.221
       2.081
       1.868
       1.596
       1.298
       0.999
       0.704
       0.406
       0.092
      -0.235
      -0.566
      -0.891
      -1.200
      -1.489
      -1.749
      -1.959
      -2.090
      -2.125
      -2.069
      -1.950
      -1.803
      -1.655
      -1.528
      -1.432
      -1.368
      -1.304
      -1.189
      -0.985
      -0.694
      -0.366
      -0.058
       0.212
       0.468
       0.753
       1.080
       1.425
       1.746
       2.012
       2.216
       2.374
       2.506
       2.621
       2.714
       2.770
       2.776
       2.730
       2.634
       2.495
       2.317
       2.114
       1.898
       1.679
       1.454
       1.210
       0.935
       0.636
       0.333
       0.043
      -0.237
      -0.525
      -0.829
      -1.132
      -1.391
      -1.570
      -1.653
      -1.651
      -1.594
      -1.517
      -1.450
      -1.411
      -1.400
      -1.406
      -1.413
      -1.407
      -1.368
      -1.282
      -1.147
      -0.991
      -0.866
      -0.815
      -0.851
      -0.948
      -1.063
      -1.163
      -1.233
      -1.267
      -1.261
      -1.210
      -1.111
      -0.970
      -0.805
      -0.648
      -0.524
      -0.440
      -0.382
      -0.327
      -0.262
      -0.188
      -0.110
      -0.031
       0.059
       0.169
       0.301
       0.445
       0.580
       0.684
       0.746
       0.765
       0.755
       0.736
       0.732
       0.753
       0.798
       0.850
       0.891
       0.915
       0.932
       0.961
       1.007
       1.052
       1.063
       1.010
       0.882
       0.701
       0.504
       0.339
       0.234
       0.185
       0.161
       0.127
       0.064
      -0.025
      -0.125
      -0.223
      -0.312
      -0.389
      -0.460
      -0.532
      -0.616
      -0.713
      -0.811
      -0.901
      -0.979
      -1.045
      -1.091
      -1.098
      -1.044
      -0.917
      -0.733
      -0.528
      -0.329
      -0.144
       0.036
       0.220
       0.400
       0.552
       0.654
       0.697
       0.699
       0.692
       0.698
       0.718
       0.729
       0.705
       0.634
       0.526
       0.408
       0.301
       0.207
       0.104
      -0.032
      -0.200
      -0.364
      -0.477
      -0.510
      -0.464
      -0.362
      -0.229
      -0.087
       0.049
       0.167
       0.263
       0.333
       0.370
       0.366
       0.326
       0.282
       0.269
       0.299
       0.342
       0.341
       0.257
       0.100
      -0.083
      -0.241
      -0.356
      -0.445
      -0.534
      -0.637
      -0.742
      -0.825
      -0.872
      -0.892
      -0.900
      -0.895
      -0.849
      -0.713
      -0.459
      -0.100
       0.313
       0.708
       1.034
       1.268
       1.419
       1.504
       1.542
       1.543
       1.518
       1.470
       1.401
       1.305
       1.176
       1.019
       0.847
       0.676
       0.525
       0.407
       0.331
       0.294
       0.285
       0.286
       0.285
       0.278
       0.259
       0.224
       0.172
       0.120
       0.096
       0.113
       0.142
       0.124
       0.009
      -0.200
      -0.449
      -0.666
      -0.805
      -0.854
      -0.834
      -0.781
      -0.734
      -0.718
      -0.739
      -0.776
      -0.805
      -0.804
      -0.760
      -0.664
      -0.516
      -0.336
      -0.166
      -0.059
      -0.047
      -0.121
      -0.232
      -0.324
      -0.360
      -0.347
      -0.325
      -0.336
      -0.390
      -0.450
      -0.460
      -0.394
      -0.283
      -0.199
      -0.205
      -0.305
      -0.446
      -0.555
      -0.584
      -0.533
      -0.429
      -0.295
      -0.138
       0.046
       0.244
       0.415
       0.508
       0.496
       0.395
       0.259
       0.136
       0.032
      -0.086
      -0.254
      -0.479
      -0.731
      -0.964
      -1.146
      -1.270
      -1.340
      -1.363
      -1.343
      -1.284
      -1.193
      -1.083
      -0.964
      -0.841
      -0.708
      -0.557
      -0.383
      -0.191
       0.009
       0.200
       0.370
       0.517
       0.650
       0.785
       0.930
       1.078
       1.212
       1.315
       1.384
       1.422
       1.436
       1.430
       1.400
       1.340
       1.252
       1.155
       1.085
       1.077
       1.132
       1.209
       1.249
       1.214
       1.116
       0.997
       0.895
       0.814
       0.733
       0.639
       0.547
       0.494
       0.505
       0.573
       0.659
       0.716
       0.721
       0.681
       0.622
       0.563
       0.504
       0.426
       0.302
       0.115
      -0.127
      -0.399
      -0.669
      -0.914
      -1.125
      -1.297
      -1.424
      -1.506
      -1.547
      -1.555
      -1.529
      -1.458
      -1.333
      -1.163
      -0.975
      -0.794
      -0.633
      -0.490
      -0.359
      -0.242
      -0.150
      -0.088
      -0.050
      -0.018
       0.030
       0.109
       0.214
       0.325
       0.411
       0.455
       0.456
       0.425
       0.365
       0.263
       0.101
      -0.112
      -0.334
      -0.513
      -0.622
      -0.673
      -0.710
      -0.776
      -0.890
      -1.039
      -1.183
      -1.275
      -1.283
      -1.210
      -1.092
      -0.975
      -0.878
      -0.794
      -0.698
      -0.580
      -0.451
      -0.328
      -0.216
      -0.109
       0.006
       0.139
       0.287
       0.437
       0.569
       0.670
       0.732
       0.763
       0.772
       0.768
       0.757
       0.743
       0.740
       0.762
       0.811
       0.868
       0.902
       0.891
       0.835
       0.768
       0.728
       0.743
       0.808
       0.887
       0.936
       0.931
       0.881
       0.819
       0.768
       0.726
       0.663
       0.552
       0.385
       0.189
       0.009
      -0.121
      -0.202
      -0.265
      -0.349
      -0.461
      -0.575
      -0.658
      -0.700
      -0.729
      -0.777
      -0.861
      -0.965
      -1.062
      -1.131
      -1.168
      -1.179
      -1.175
      -1.164
      -1.149
      -1.126
      -1.079
      -0.989
      -0.847
      -0.659
      -0.443
      -0.212
       0.031
       0.293
       0.585
       0.904
       1.222
       1.496
       1.684
       1.773
       1.776
       1.722
       1.636
       1.528
       1.397
