Origin Time       27/11/2012 12:15:15
Lat.              30.9 N	
Long.             78.4 E	
Depth (Km)         12.0
Magnitude         4.8
 Region           Uttarkashi-Uttarakhand                                           
 Above details taken from IMD 
   
Station Code      CKR
Station Lat.       30.694
Station Long.      77.901
Station Height(m) 2118.0
Site Class        B   Vs30 between 375 m/sec to 700 m/sec *  
Record Time       27.11.2012 12:15:04.739
Sampling Rate     200. Hz
 Record Duration   82.890 Sec.
 Direction         Vert. (Up positive)
Max. Acceleration      1.934 cm/sec**2
     
  * For reference see Site Classification link of website 
     
 Base Line Corrected and Low Pass Filtered (Cut Off at 35 Hz) Time History
 Acceleration data in cm/sec**2
    
[...]
       0.300
       0.216
       0.077
      -0.084
      -0.193
      -0.194
      -0.085
       0.071
       0.195
       0.241
       0.228
       0.211
       0.229
       0.280
       0.348
       0.417
       0.467
       0.459
       0.360
       0.181
      -0.024
      -0.197
      -0.310
      -0.370
      -0.411
      -0.463
      -0.535
      -0.612
      -0.664
      -0.668
      -0.606
      -0.475
      -0.301
      -0.128
       0.011
       0.123
       0.239
       0.372
       0.510
       0.620
       0.667
       0.634
       0.528
       0.377
       0.213
       0.060
      -0.066
      -0.148
      -0.171
      -0.140
      -0.069
       0.030
       0.144
       0.263
       0.382
       0.502
       0.617
       0.690
       0.673
       0.532
       0.277
      -0.050
      -0.384
      -0.667
      -0.860
      -0.956
      -0.958
      -0.869
      -0.702
      -0.484
      -0.253
      -0.034
       0.154
       0.285
       0.328
       0.276
       0.150
      -0.004
      -0.142
      -0.233
      -0.269
      -0.261
      -0.223
      -0.158
      -0.070
       0.029
       0.117
       0.179
       0.210
       0.200
       0.140
       0.042
      -0.061
      -0.136
      -0.182
      -0.223
      -0.286
      -0.369
      -0.440
      -0.447
      -0.362
      -0.195
       0.017
       0.242
       0.468
       0.695
       0.921
       1.146
       1.356
       1.509
       1.543
       1.402
       1.078
       0.612
       0.086
      -0.402
      -0.773
      -0.999
      -1.099
      -1.107
      -1.035
      -0.871
      -0.616
      -0.308
      -0.033
       0.113
       0.083
      -0.083
      -0.289
      -0.454
      -0.552
      -0.593
      -0.592
      -0.554
      -0.483
      -0.381
      -0.238
      -0.038
       0.225
       0.532
       0.832
       1.062
       1.181
       1.203
       1.172
       1.119
       1.026
       0.846
       0.543
       0.122
      -0.360
      -0.803
      -1.105
      -1.216
      -1.160
      -0.996
      -0.778
      -0.534
      -0.279
      -0.039
       0.149
       0.244
       0.226
       0.116
      -0.031
      -0.157
      -0.230
      -0.244
      -0.207
      -0.136
      -0.047
       0.050
       0.147
       0.226
       0.268
       0.266
       0.241
       0.214
       0.188
       0.148
       0.087
       0.015
      -0.043
      -0.064
      -0.038
       0.016
       0.066
       0.090
       0.084
       0.055
       0.016
      -0.011
       0.005
       0.083
       0.213
       0.363
       0.505
       0.612
       0.656
       0.621
       0.517
       0.377
       0.231
       0.095
      -0.031
      -0.147
      -0.243
      -0.302
      -0.314
      -0.293
      -0.270
      -0.269
      -0.294
      -0.330
      -0.354
      -0.344
      -0.286
      -0.194
      -0.105
      -0.052
      -0.033
      -0.017
       0.033
       0.136
       0.285
       0.440
       0.538
       0.532
       0.420
       0.248
       0.075
      -0.060
      -0.151
      -0.225
      -0.311
      -0.417
      -0.519
      -0.585
      -0.603
      -0.579
      -0.521
      -0.439
      -0.336
      -0.207
      -0.037
       0.180
       0.412
       0.589
       0.646
       0.561
       0.364
       0.121
      -0.098
      -0.250
      -0.329
      -0.353
      -0.335
      -0.279
      -0.199
      -0.118
      -0.047
       0.019
       0.096
       0.191
       0.296
       0.385
       0.428
       0.407
       0.339
       0.263
       0.213
       0.206
       0.234
       0.270
       0.270
       0.195
       0.037
      -0.175
      -0.388
      -0.541
      -0.586
      -0.505
      -0.335
      -0.149
      -0.011
       0.059
       0.082
       0.094
       0.117
       0.137
       0.119
       0.029
      -0.136
      -0.342
      -0.538
      -0.671
      -0.692
      -0.581
      -0.367
      -0.109
       0.137
       0.348
       0.515
       0.629
       0.683
       0.690
       0.675
       0.666
       0.674
       0.682
       0.655
       0.566
       0.412
       0.212
      -0.020
      -0.267
      -0.495
      -0.649
      -0.699
      -0.657
      -0.564
      -0.455
      -0.350
      -0.257
      -0.180
      -0.118
      -0.064
      -0.015
       0.027
       0.044
       0.018
      -0.054
      -0.142
      -0.195
      -0.177
      -0.088
       0.042
       0.176
       0.269
       0.283
       0.205
       0.052
      -0.138
      -0.323
      -0.469
      -0.547
      -0.551
      -0.499
      -0.409
      -0.280
      -0.109
       0.093
       0.300
       0.491
       0.654
       0.777
       0.844
       0.846
       0.788
       0.693
       0.582
       0.465
       0.327
       0.158
      -0.015
      -0.126
      -0.120
      -0.005
       0.150
       0.265
       0.294
       0.228
       0.077
      -0.133
      -0.360
      -0.541
      -0.617
      -0.567
      -0.436
      -0.310
      -0.253
      -0.277
      -0.355
      -0.454
      -0.555
      -0.648
      -0.735
      -0.820
      -0.896
      -0.932
      -0.886
      -0.733
      -0.479
      -0.154
       0.184
       0.471
       0.654
       0.713
       0.660
       0.523
       0.352
       0.216
       0.175
       0.239
       0.373
       0.529
       0.677
       0.813
       0.945
       1.074
       1.183
       1.246
       1.242
       1.166
       1.020
       0.804
       0.529
       0.230
      -0.050
      -0.286
      -0.478
      -0.643
      -0.799
      -0.957
      -1.107
      -1.215
      -1.244
      -1.179
      -1.044
      -0.885
      -0.750
      -0.677
      -0.668
      -0.683
      -0.663
      -0.573
      -0.420
      -0.229
      -0.032
       0.143
       0.274
       0.362
       0.431
       0.519
       0.653
       0.830
       1.013
       1.144
       1.182
       1.124
       1.000
       0.833
       0.629
       0.393
       0.144
      -0.088
      -0.262
      -0.349
      -0.340
      -0.259
      -0.142
      -0.024
       0.060
       0.076
       0.011
      -0.111
      -0.247
      -0.376
      -0.506
      -0.638
      -0.753
      -0.826
      -0.846
      -0.809
      -0.709
      -0.552
      -0.365
      -0.184
      -0.032
       0.087
       0.173
       0.226
       0.245
       0.232
       0.206
       0.198
       0.229
       0.289
       0.349
       0.395
       0.443
       0.503
       0.556
       0.556
       0.471
       0.300
       0.076
      -0.149
      -0.340
      -0.491
      -0.617
      -0.713
      -0.742
      -0.664
      -0.478
      -0.221
       0.042
       0.243
       0.327
       0.283
       0.149
      -0.009
      -0.134
      -0.200
      -0.206
      -0.165
      -0.105
      -0.064
      -0.074
      -0.142
      -0.233
      -0.278
      -0.224
      -0.079
       0.094
       0.240
       0.363
       0.502
       0.674
       0.841
       0.928
       0.878
       0.703
       0.487
       0.332
       0.290
       0.331
       0.380
       0.363
       0.246
       0.041
      -0.193
      -0.375
      -0.443
      -0.390
      -0.255
      -0.099
       0.010
       0.023
      -0.055
      -0.156
      -0.189
      -0.111
       0.057
       0.236
       0.339
       0.307
       0.158
      -0.026
      -0.147
      -0.165
      -0.113
      -0.062
      -0.073
      -0.175
      -0.360
      -0.581
      -0.767
      -0.855
      -0.819
      -0.690
      -0.531
      -0.396
      -0.300
      -0.225
      -0.164
      -0.137
      -0.160
      -0.217
      -0.267
      -0.287
      -0.269
      -0.207
      -0.091
       0.074
       0.263
       0.434
       0.544
       0.575
       0.546
       0.504
       0.496
       0.528
       0.568
       0.583
       0.557
       0.485
       0.369
       0.216
       0.033
      -0.159
      -0.328
      -0.436
      -0.456
      -0.394
      -0.277
      -0.139
      -0.009
       0.086
       0.130
       0.130
       0.105
       0.071
       0.031
      -0.022
      -0.091
      -0.163
      -0.210
      -0.207
      -0.151
      -0.062
       0.049
       0.197
       0.390
       0.597
       0.754
       0.817
       0.786
       0.684
       0.530
       0.347
       0.161
       0.005
      -0.101
      -0.157
      -0.190
      -0.241
      -0.334
      -0.445
      -0.524
      -0.535
      -0.483
      -0.396
      -0.295
      -0.190
      -0.088
       0.001
       0.067
       0.102
       0.112
       0.116
       0.132
       0.148
       0.125
       0.025
      -0.155
      -0.380
      -0.596
      -0.753
      -0.823
      -0.804
      -0.710
      -0.557
      -0.373
      -0.197
      -0.052
       0.077
       0.228
       0.411
       0.593
       0.724
       0.769
       0.714
       0.565
       0.355
       0.138
      -0.043
      -0.170
      -0.248
      -0.281
      -0.265
      -0.198
      -0.083
       0.064
       0.212
       0.334
       0.419
       0.471
       0.484
       0.443
       0.347
       0.230
       0.134
       0.075
       0.041
       0.017
      -0.004
      -0.014
      -0.010
      -0.006
      -0.027
      -0.096
      -0.211
      -0.348
      -0.477
      -0.564
      -0.574
      -0.477
      -0.287
      -0.068
       0.103
       0.177
       0.155
       0.076
       0.012
       0.042
       0.207
       0.472
       0.728
       0.855
       0.787
       0.557
       0.267
       0.022
      -0.136
      -0.242
      -0.355
      -0.497
      -0.651
      -0.771
      -0.796
      -0.666
      -0.352
       0.106
       0.602
       1.005
       1.215
       1.201
       1.003
       0.694
       0.329
      -0.064
      -0.470
      -0.844
      -1.128
      -1.274
      -1.265
      -1.115
      -0.861
      -0.556
      -0.251
       0.020
       0.245
       0.421
       0.558
       0.668
       0.745
       0.761
       0.689
       0.532
       0.323
       0.107
      -0.075
      -0.181
      -0.189
      -0.115
      -0.014
       0.053
       0.056
       0.009
      -0.039
      -0.043
       0.001
       0.050
       0.054
       0.003
      -0.081
      -0.173
      -0.263
      -0.333
      -0.348
      -0.281
      -0.137
       0.038
       0.178
       0.237
       0.222
       0.186
       0.181
       0.200
       0.191
       0.103
      -0.071
      -0.304
      -0.547
      -0.743
      -0.840
      -0.832
      -0.758
      -0.667
      -0.573
      -0.464
      -0.327
      -0.168
       0.004
       0.186
       0.373
       0.544
       0.658
       0.663
       0.540
       0.334
       0.132
       0.000
      -0.062
      -0.095
      -0.127
      -0.132
      -0.061
       0.103
       0.313
       0.478
       0.531
       0.467
       0.342
       0.211
       0.103
       0.021
      -0.025
      -0.011
       0.100
       0.331
       0.654
       0.981
       1.190
       1.192
       0.974
       0.593
       0.131
      -0.336
      -0.749
      -1.061
      -1.231
      -1.236
      -1.090
      -0.870
      -0.675
      -0.574
      -0.559
      -0.565
      -0.520
      -0.383
      -0.164
       0.094
       0.331
       0.506
       0.592
       0.575
       0.463
       0.306
       0.179
       0.130
       0.151
       0.193
       0.217
       0.211
       0.184
       0.154
       0.151
       0.196
       0.286
       0.384
       0.446
       0.447
       0.389
       0.289
       0.156
      -0.015
      -0.221
      -0.433
      -0.601
      -0.695
      -0.728
      -0.737
      -0.749
      -0.767
      -0.776
      -0.747
      -0.651
      -0.465
      -0.192
       0.142
       0.483
       0.752
       0.869
       0.798
       0.581
       0.319
       0.111
       0.005
      -0.011
       0.013
       0.020
      -0.030
      -0.140
      -0.280
      -0.403
      -0.463
      -0.426
      -0.290
      -0.082
       0.157
       0.400
       0.637
       0.859
       1.050
       1.176
       1.199
       1.088
       0.843
       0.505
       0.140
      -0.188
      -0.433
      -0.584
      -0.660
      -0.700
      -0.724
      -0.719
      -0.660
      -0.546
      -0.421
      -0.350
      -0.380
      -0.523
      -0.741
      -0.966
      -1.127
      -1.175
      -1.089
      -0.872
      -0.559
      -0.204
       0.140
       0.456
       0.752
       1.038
       1.301
       1.514
       1.643
       1.666
       1.579
       1.408
       1.192
       0.959
       0.723
       0.495
       0.276
       0.055
      -0.182
      -0.438
      -0.694
      -0.926
      -1.116
      -1.254
      -1.334
      -1.355
      -1.319
      -1.225
      -1.087
      -0.943
      -0.850
      -0.837
      -0.873
      -0.878
      -0.773
      -0.524
      -0.171
       0.198
       0.491
       0.664
       0.722
       0.704
       0.649
       0.603
       0.610
       0.690
       0.821
       0.949
       1.015
       0.998
       0.921
       0.833
       0.774
       0.752
       0.760
       0.780
       0.786
       0.734
       0.582
       0.328
       0.004
      -0.346
      -0.667
      -0.897
      -0.985
      -0.945
      -0.858
      -0.817
      -0.852
      -0.923
      -0.965
      -0.943
      -0.856
      -0.734
      -0.619
      -0.548
      -0.544
      -0.605
      -0.695
      -0.752
      -0.707
      -0.528
      -0.240
       0.089
       0.391
       0.629
       0.807
       0.954
       1.104
       1.282
       1.492
       1.705
       1.870
       1.934
       1.876
       1.715
       1.502
       1.283
       1.077
       0.871
       0.623
       0.290
      -0.129
      -0.570
      -0.932
      -1.154
      -1.238
      -1.224
      -1.159
      -1.083
      -1.035
      -1.031
      -1.042
      -1.006
      -0.867
      -0.612
      -0.275
       0.076
       0.370
       0.556
       0.624
       0.590
       0.484
       0.332
       0.153
      -0.050
      -0.279
      -0.529
      -0.763
      -0.931
      -0.987
      -0.918
      -0.753
      -0.552
      -0.372
      -0.227
      -0.096
       0.047
       0.194
       0.320
       0.410
       0.469
       0.508
       0.529
       0.526
       0.484
       0.395
       0.272
       0.146
       0.043
      -0.036
      -0.090
      -0.111
      -0.081
       0.006
       0.135
       0.275
       0.380
       0.413
       0.368
       0.278
       0.168
       0.029
      -0.170
      -0.432
      -0.704
      -0.912
      -1.003
      -0.962
      -0.812
      -0.588
      -0.324
      -0.053
       0.184
       0.344
       0.402
       0.375
       0.307
       0.251
       0.242
       0.299
       0.414
       0.554
       0.680
       0.771
       0.835
       0.888
       0.945
       0.993
       0.993
       0.896
       0.687
       0.407
       0.122
      -0.126
      -0.336
      -0.521
      -0.697
      -0.876
      -1.062
      -1.237
      -1.367
      -1.423
      -1.396
      -1.286
      -1.102
      -0.870
      -0.634
      -0.424
      -0.238
      -0.055
       0.136
       0.325
       0.484
       0.588
       0.632
       0.631
       0.598
       0.542
       0.468
       0.396
       0.346
       0.319
       0.303
       0.293
       0.291
       0.289
       0.264
       0.194
       0.079
      -0.063
      -0.207
      -0.324
      -0.400
      -0.432
      -0.410
      -0.309
      -0.117
       0.130
       0.343
       0.433
       0.362
       0.161
      -0.091
      -0.308
      -0.436
      -0.474
      -0.442
      -0.354
      -0.216
      -0.050
       0.110
       0.244
       0.375
       0.533
       0.716
       0.875
       0.939
       0.858
       0.627
       0.292
      -0.083
      -0.440
      -0.740
      -0.948
      -1.045
      -1.042
      -0.980
      -0.896
      -0.793
      -0.633
      -0.367
       0.025
       0.492
       0.918
       1.182
       1.227
       1.087
       0.833
       0.529
       0.218
      -0.059
      -0.271
      -0.399
      -0.443
      -0.422
      -0.368
      -0.312
      -0.269
      -0.226
      -0.170
      -0.104
      -0.049
      -0.011
       0.020
       0.062
       0.129
       0.212
       0.276
       0.278
       0.200
       0.066
      -0.077
      -0.182
      -0.220
      -0.188
      -0.113
      -0.027
       0.061
       0.167
       0.300
       0.430
       0.506
       0.498
       0.414
       0.280
       0.122
      -0.042
      -0.194
      -0.307
      -0.357
      -0.338
      -0.284
      -0.251
      -0.260
      -0.275
      -0.242
      -0.143
      -0.018
       0.072
       0.075
      -0.023
      -0.194
      -0.379
      -0.517
      -0.563
      -0.491
      -0.293
       0.009
       0.343
       0.612
       0.747
       0.744
       0.659
       0.565
       0.510
       0.489
       0.456
       0.371
       0.228
       0.044
      -0.154
      -0.338
      -0.465
      -0.480
      -0.353
      -0.106
       0.181
       0.394
       0.446
       0.323
       0.096
      -0.141
      -0.329
      -0.461
      -0.555
      -0.624
      -0.660
      -0.639
      -0.537
      -0.363
      -0.171
      -0.022
       0.067
       0.134
       0.222
       0.341
       0.461
       0.544
       0.561
       0.517
       0.441
       0.363
       0.293
       0.227
       0.164
       0.114
       0.071
       0.016
      -0.066
      -0.164
      -0.248
      -0.288
      -0.263
      -0.179
      -0.073
       0.010
       0.040
       0.018
      -0.035
      -0.086
      -0.106
      -0.078
      -0.008
       0.079
       0.150
       0.174
       0.123
      -0.009
      -0.187
      -0.348
      -0.433
      -0.422
      -0.331
      -0.194
      -0.045
       0.091
       0.196
       0.251
       0.231
       0.132
      -0.016
      -0.165
      -0.279
      -0.348
      -0.366
      -0.319
      -0.209
      -0.071
       0.049
       0.112
       0.105
       0.047
      -0.017
      -0.030
       0.042
       0.182
       0.339
       0.449
       0.471
       0.391
       0.231
       0.033
      -0.160
      -0.309
      -0.380
      -0.353
      -0.238
      -0.075
       0.083
       0.198
       0.259
       0.296
       0.354
       0.449
       0.542
       0.559
       0.456
       0.258
       0.030
      -0.168
      -0.304
      -0.373
      -0.386
      -0.359
      -0.305
      -0.238
      -0.185
      -0.172
      -0.201
      -0.236
      -0.236
      -0.186
      -0.102
      -0.010
       0.060
       0.096
       0.104
       0.101
       0.089
       0.046
      -0.040
      -0.144
      -0.213
      -0.208
      -0.125
       0.016
       0.180
       0.329
       0.439
       0.508
       0.544
       0.543
       0.498
       0.403
       0.264
       0.094
      -0.086
      -0.260
      -0.424
      -0.584
      -0.730
      -0.832
      -0.858
      -0.805
      -0.703
      -0.593
      -0.508
      -0.464
      -0.446
      -0.425
      -0.377
      -0.294
      -0.170
       0.004
       0.224
       0.460
       0.672
       0.835
       0.942
       0.990
       0.983
       0.940
       0.875
       0.784
       0.646
       0.450
       0.210
      -0.045
      -0.279
      -0.452
      -0.538
      -0.542
      -0.497
      -0.436
      -0.376
      -0.320
