Origin Time       09/2/2011 19:17:29	
Lat.              30.9 N	
Long.             78.2 E	
Depth (Km)         10.0
Magnitude         5.0
 Region           UTTARKASHI-UTTARAKHAND                                           
 Above details taken from IMD 
     
Station Code      CKR
Station Lat.       30.694  N
Station Long.      77.901  E
Station Height(m) 2118.0
Site Class        B   Vs30 between 375 m/sec to 700 m/sec *  
Record Time       09.02.2012 19:17:12.269
Sampling Rate     200. Hz
 Record Duration  101.110 Sec.
 Direction         E-W (E positive)
Max. Acceleration     -3.932 cm/sec**2
     
  * For reference see Site Classification link of website 
     
 Base Line Corrected and Low Pass Filtered (Cut Off at 35 Hz) Time History
 Acceleration data in cm/sec**2
    
[...]
       0.445
       0.437
       0.411
       0.387
       0.384
       0.387
       0.358
       0.261
       0.104
      -0.055
      -0.152
      -0.164
      -0.116
      -0.054
      -0.009
       0.009
       0.002
      -0.032
      -0.093
      -0.169
      -0.246
      -0.312
      -0.371
      -0.431
      -0.487
      -0.523
      -0.523
      -0.483
      -0.415
      -0.332
      -0.249
      -0.181
      -0.142
      -0.140
      -0.173
      -0.229
      -0.298
      -0.376
      -0.463
      -0.547
      -0.595
      -0.559
      -0.399
      -0.122
       0.210
       0.500
       0.670
       0.701
       0.640
       0.558
       0.505
       0.481
       0.458
       0.413
       0.352
       0.303
       0.281
       0.270
       0.229
       0.123
      -0.050
      -0.250
      -0.409
      -0.469
      -0.424
      -0.315
      -0.203
      -0.125
      -0.067
       0.012
       0.143
       0.312
       0.463
       0.538
       0.526
       0.466
       0.413
       0.377
       0.312
       0.159
      -0.087
      -0.356
      -0.544
      -0.581
      -0.478
      -0.303
      -0.129
       0.014
       0.141
       0.280
       0.433
       0.567
       0.631
       0.586
       0.434
       0.216
       0.006
      -0.125
      -0.135
      -0.042
       0.090
       0.176
       0.153
       0.002
      -0.248
      -0.537
      -0.786
      -0.921
      -0.898
      -0.715
      -0.425
      -0.118
       0.104
       0.169
       0.078
      -0.097
      -0.253
      -0.313
      -0.263
      -0.151
      -0.041
       0.019
       0.017
      -0.032
      -0.098
      -0.155
      -0.183
      -0.178
      -0.153
      -0.140
      -0.175
      -0.278
      -0.436
      -0.589
      -0.659
      -0.586
      -0.376
      -0.102
       0.142
       0.293
       0.355
       0.383
       0.435
       0.537
       0.678
       0.839
       1.011
       1.178
       1.306
       1.338
       1.238
       1.020
       0.741
       0.472
       0.258
       0.115
       0.034
      -0.004
      -0.028
      -0.070
      -0.146
      -0.251
      -0.358
      -0.442
      -0.495
      -0.515
      -0.501
      -0.447
      -0.363
      -0.274
      -0.209
      -0.176
      -0.164
      -0.154
      -0.145
      -0.144
      -0.146
      -0.128
      -0.070
       0.018
       0.081
       0.064
      -0.053
      -0.232
      -0.395
      -0.477
      -0.452
      -0.347
      -0.210
      -0.083
       0.020
       0.093
       0.125
       0.098
       0.010
      -0.106
      -0.197
      -0.229
      -0.207
      -0.165
      -0.126
      -0.088
      -0.028
       0.061
       0.154
       0.206
       0.187
       0.104
      -0.009
      -0.122
      -0.214
      -0.262
      -0.240
      -0.128
       0.060
       0.277
       0.469
       0.600
       0.667
       0.678
       0.640
       0.553
       0.419
       0.256
       0.087
      -0.063
      -0.178
      -0.245
      -0.251
      -0.187
      -0.066
       0.079
       0.204
       0.277
       0.289
       0.246
       0.156
       0.035
      -0.086
      -0.167
      -0.174
      -0.101
       0.030
       0.187
       0.347
       0.489
       0.590
       0.625
       0.583
       0.479
       0.352
       0.253
       0.218
       0.236
       0.256
       0.215
       0.087
      -0.105
      -0.316
      -0.523
      -0.725
      -0.921
      -1.076
      -1.125
      -1.027
      -0.797
      -0.504
      -0.235
      -0.047
       0.039
       0.035
      -0.027
      -0.101
      -0.144
      -0.141
      -0.105
      -0.055
       0.009
       0.112
       0.262
       0.425
       0.533
       0.530
       0.410
       0.210
      -0.027
      -0.279
      -0.544
      -0.809
      -1.041
      -1.204
      -1.280
      -1.271
      -1.185
      -1.028
      -0.818
      -0.598
      -0.416
      -0.300
      -0.233
      -0.168
      -0.068
       0.062
       0.181
       0.245
       0.245
       0.219
       0.225
       0.309
       0.479
       0.704
       0.936
       1.136
       1.285
       1.391
       1.464
       1.491
       1.444
       1.300
       1.080
       0.841
       0.651
       0.543
       0.505
       0.497
       0.481
       0.436
       0.364
       0.271
       0.162
       0.045
      -0.064
      -0.144
      -0.187
      -0.203
      -0.214
      -0.234
      -0.256
      -0.250
      -0.187
      -0.059
       0.099
       0.225
       0.265
       0.208
       0.091
      -0.034
      -0.138
      -0.230
      -0.335
      -0.457
      -0.577
      -0.662
      -0.700
      -0.714
      -0.744
      -0.820
      -0.931
      -1.026
      -1.040
      -0.951
      -0.801
      -0.677
      -0.649
      -0.725
      -0.840
      -0.908
      -0.878
      -0.757
      -0.597
      -0.455
      -0.357
      -0.293
      -0.224
      -0.116
       0.038
       0.198
       0.298
       0.298
       0.225
       0.166
       0.209
       0.375
       0.601
       0.798
       0.909
       0.941
       0.935
       0.925
       0.918
       0.907
       0.890
       0.878
       0.877
       0.875
       0.839
       0.741
       0.580
       0.399
       0.259
       0.206
       0.253
       0.372
       0.509
       0.599
       0.584
       0.432
       0.159
      -0.174
      -0.486
      -0.708
      -0.819
      -0.846
      -0.845
      -0.860
      -0.905
      -0.967
      -1.027
      -1.062
      -1.033
      -0.896
      -0.633
      -0.283
       0.061
       0.298
       0.375
       0.323
       0.220
       0.146
       0.137
       0.177
       0.230
       0.272
       0.307
       0.350
       0.404
       0.448
       0.442
       0.355
       0.179
      -0.063
      -0.341
      -0.617
      -0.855
      -1.013
      -1.053
      -0.962
      -0.772
      -0.552
      -0.371
      -0.260
      -0.198
      -0.130
      -0.011
       0.161
       0.342
       0.477
       0.529
       0.507
       0.453
       0.421
       0.436
       0.483
       0.507
       0.455
       0.305
       0.083
      -0.162
      -0.385
      -0.570
      -0.713
      -0.809
      -0.840
      -0.786
      -0.649
      -0.464
      -0.285
      -0.159
      -0.095
      -0.067
      -0.046
      -0.020
       0.005
       0.022
       0.039
       0.067
       0.110
       0.163
       0.222
       0.296
       0.399
       0.539
       0.705
       0.878
       1.040
       1.184
       1.311
       1.420
       1.499
       1.531
       1.502
       1.394
       1.198
       0.920
       0.602
       0.303
       0.073
      -0.084
      -0.207
      -0.341
      -0.490
      -0.621
      -0.691
      -0.693
      -0.664
      -0.657
      -0.700
      -0.777
      -0.852
      -0.905
      -0.948
      -1.016
      -1.135
      -1.298
      -1.461
      -1.559
      -1.527
      -1.329
      -0.985
      -0.579
      -0.225
      -0.009
       0.058
       0.036
      -0.001
      -0.014
      -0.010
      -0.015
      -0.038
      -0.053
      -0.024
       0.059
       0.173
       0.271
       0.320
       0.320
       0.291
       0.253
       0.209
       0.155
       0.086
       0.008
      -0.068
      -0.131
      -0.169
      -0.184
      -0.184
      -0.182
      -0.181
      -0.161
      -0.085
       0.081
       0.336
       0.630
       0.878
       0.998
       0.954
       0.785
       0.592
       0.486
       0.523
       0.675
       0.847
       0.940
       0.903
       0.759
       0.575
       0.413
       0.298
       0.230
       0.203
       0.224
       0.304
       0.426
       0.548
       0.622
       0.622
       0.570
       0.516
       0.510
       0.572
       0.683
       0.807
       0.917
       1.011
       1.109
       1.229
       1.360
       1.474
       1.540
       1.557
       1.538
       1.497
       1.435
       1.351
       1.252
       1.153
       1.067
       0.994
       0.909
       0.779
       0.574
       0.296
      -0.012
      -0.288
      -0.486
      -0.610
      -0.716
      -0.864
      -1.073
      -1.302
      -1.480
      -1.554
      -1.525
      -1.433
      -1.321
      -1.192
      -1.004
      -0.708
      -0.295
       0.167
       0.549
       0.724
       0.638
       0.338
      -0.057
      -0.425
      -0.698
      -0.868
      -0.957
      -0.983
      -0.974
      -0.976
      -1.046
      -1.212
      -1.433
      -1.617
      -1.682
      -1.606
      -1.434
      -1.235
      -1.052
      -0.889
      -0.729
      -0.555
      -0.360
      -0.140
       0.105
       0.365
       0.611
       0.800
       0.882
       0.833
       0.677
       0.482
       0.335
       0.280
       0.290
       0.268
       0.111
      -0.217
      -0.651
      -1.055
      -1.309
      -1.375
      -1.317
      -1.240
      -1.215
      -1.233
      -1.236
      -1.177
      -1.066
      -0.961
      -0.911
      -0.916
      -0.938
      -0.938
      -0.913
      -0.894
      -0.904
      -0.939
      -0.958
      -0.920
      -0.796
      -0.589
      -0.322
      -0.034
       0.247
       0.519
       0.812
       1.160
       1.570
       2.000
       2.383
       2.666
       2.838
       2.922
       2.948
       2.938
       2.912
       2.885
       2.865
       2.833
       2.747
       2.565
       2.276
       1.905
       1.499
       1.090
       0.680
       0.248
      -0.217
      -0.699
      -1.157
      -1.554
      -1.880
      -2.152
      -2.389
      -2.600
      -2.775
      -2.905
      -2.990
      -3.040
      -3.065
      -3.070
      -3.050
      -2.995
      -2.888
      -2.715
      -2.471
      -2.164
      -1.808
      -1.417
      -1.002
      -0.585
      -0.206
       0.094
       0.304
       0.453
       0.591
       0.743
       0.886
       0.981
       1.016
       1.019
       1.018
       1.001
       0.919
       0.731
       0.456
       0.175
      -0.019
      -0.088
      -0.069
      -0.033
      -0.011
       0.038
       0.191
       0.495
       0.912
       1.340
       1.668
       1.838
       1.859
       1.787
       1.694
       1.641
       1.656
       1.732
       1.840
       1.961
       2.092
       2.244
       2.408
       2.551
       2.633
       2.632
       2.561
       2.449
       2.318
       2.168
       1.973
       1.707
       1.355
       0.924
       0.445
      -0.031
      -0.456
      -0.807
      -1.097
      -1.362
      -1.626
      -1.877
      -2.081
      -2.211
      -2.275
      -2.303
      -2.308
      -2.262
      -2.106
      -1.806
      -1.391
      -0.946
      -0.572
      -0.322
      -0.182
      -0.093
      -0.011
       0.064
       0.095
       0.042
      -0.098
      -0.288
      -0.478
      -0.632
      -0.748
      -0.851
      -0.961
      -1.065
      -1.125
      -1.111
      -1.036
      -0.962
      -0.951
      -1.022
      -1.138
      -1.235
      -1.262
      -1.196
      -1.030
      -0.764
      -0.413
      -0.026
       0.323
       0.576
       0.726
       0.812
       0.877
       0.940
       0.991
       1.023
       1.039
       1.035
       0.995
       0.898
       0.748
       0.590
       0.469
       0.394
       0.324
       0.204
       0.016
      -0.209
      -0.420
      -0.590
      -0.727
      -0.846
      -0.934
      -0.949
      -0.848
      -0.633
      -0.361
      -0.100
       0.114
       0.295
       0.476
       0.668
       0.855
       1.023
       1.174
       1.318
       1.447
       1.527
       1.527
       1.437
       1.273
       1.059
       0.817
       0.577
       0.372
       0.225
       0.125
       0.027
      -0.122
      -0.335
      -0.575
      -0.781
      -0.913
      -0.979
      -1.020
      -1.072
      -1.135
      -1.176
      -1.144
      -1.016
      -0.825
      -0.659
      -0.620
      -0.753
      -1.004
      -1.253
      -1.385
      -1.354
      -1.192
      -0.965
      -0.730
      -0.520
      -0.357
      -0.263
      -0.248
      -0.299
      -0.382
      -0.453
      -0.480
      -0.456
      -0.400
      -0.344
      -0.319
      -0.323
      -0.315
      -0.229
      -0.006
       0.359
       0.803
       1.218
       1.512
       1.661
       1.717
       1.756
       1.830
       1.934
       2.025
       2.063
       2.043
       1.998
       1.968
       1.951
       1.894
       1.733
       1.461
       1.150
       0.894
       0.736
       0.625
       0.471
       0.215
      -0.128
      -0.491
      -0.808
      -1.042
      -1.187
      -1.245
      -1.223
      -1.125
      -0.953
      -0.712
      -0.415
      -0.101
       0.174
       0.353
       0.419
       0.403
       0.369
       0.370
       0.416
       0.482
       0.535
       0.574
       0.625
       0.714
       0.828
       0.920
       0.934
       0.846
       0.675
       0.471
       0.286
       0.157
       0.093
       0.072
       0.060
       0.026
      -0.032
      -0.082
      -0.073
       0.026
       0.196
       0.375
       0.497
       0.547
       0.577
       0.669
       0.862
       1.112
       1.311
       1.370
       1.284
       1.137
       1.029
       1.003
       1.013
       0.971
       0.820
       0.577
       0.319
       0.111
      -0.045
      -0.207
      -0.440
      -0.761
      -1.125
      -1.465
      -1.744
      -1.976
      -2.208
      -2.478
      -2.785
      -3.096
      -3.370
      -3.584
      -3.740
      -3.850
      -3.917
      -3.932
      -3.878
      -3.738
      -3.499
      -3.155
      -2.712
      -2.207
      -1.705
      -1.271
      -0.941
      -0.705
      -0.531
      -0.389
      -0.258
      -0.112
       0.085
       0.371
       0.744
       1.153
       1.516
       1.760
       1.856
       1.823
       1.704
       1.542
       1.364
       1.179
       0.996
       0.828
       0.698
       0.617
       0.571
       0.524
       0.433
       0.274
       0.062
      -0.156
      -0.318
      -0.381
      -0.342
      -0.227
      -0.071
       0.100
       0.278
       0.468
       0.673
       0.890
       1.119
       1.374
       1.672
       2.016
       2.372
       2.677
       2.876
       2.949
       2.916
       2.818
       2.685
       2.527
       2.347
       2.152
       1.952
       1.747
       1.522
       1.263
       0.973
       0.673
       0.384
       0.123
      -0.096
      -0.251
      -0.317
      -0.293
      -0.211
      -0.140
      -0.155
      -0.301
      -0.565
      -0.881
      -1.167
      -1.362
      -1.450
      -1.457
      -1.428
      -1.408
      -1.428
      -1.500
      -1.611
      -1.722
      -1.780
      -1.743
      -1.616
      -1.455
      -1.343
      -1.345
      -1.463
      -1.631
      -1.745
      -1.716
      -1.519
      -1.200
      -0.860
      -0.610
      -0.524
      -0.605
      -0.788
      -0.974
      -1.081
      -1.074
      -0.965
      -0.785
      -0.567
      -0.346
      -0.165
      -0.066
      -0.067
      -0.147
      -0.248
      -0.292
      -0.219
      -0.015
       0.281
       0.585
       0.816
       0.937
       0.980
       1.015
       1.107
       1.266
       1.443
       1.555
       1.522
       1.308
       0.932
       0.469
       0.019
      -0.326
      -0.511
      -0.534
      -0.433
      -0.256
      -0.052
       0.144
       0.304
       0.423
       0.517
       0.618
       0.749
       0.898
       1.018
       1.050
       0.958
       0.763
       0.530
       0.333
       0.213
       0.158
       0.128
       0.076
      -0.029
      -0.195
      -0.405
      -0.619
      -0.778
      -0.831
      -0.760
      -0.597
      -0.408
      -0.256
      -0.169
      -0.140
      -0.146
      -0.169
      -0.202
      -0.242
      -0.282
      -0.313
      -0.330
      -0.339
      -0.348
      -0.348
      -0.316
      -0.221
      -0.059
       0.151
       0.375
       0.591
       0.783
       0.929
       1.003
       0.983
       0.884
       0.761
       0.695
       0.746
       0.916
       1.142
       1.331
       1.410
       1.362
       1.210
       1.001
       0.780
       0.590
       0.469
       0.436
       0.471
       0.507
       0.465
       0.305
       0.054
      -0.199
      -0.352
      -0.353
      -0.221
      -0.027
       0.150
       0.264
       0.308
       0.300
       0.259
       0.201
       0.143
       0.110
       0.118
       0.162
       0.212
       0.232
       0.213
       0.176
       0.160
       0.197
       0.289
       0.405
       0.488
       0.473
       0.328
       0.072
      -0.232
      -0.513
      -0.737
      -0.914
      -1.084
      -1.273
      -1.464
      -1.603
      -1.635
      -1.547
      -1.376
      -1.187
      -1.029
      -0.906
      -0.796
      -0.683
      -0.583
      -0.531
      -0.538
      -0.573
      -0.582
      -0.538
      -0.463
      -0.408
      -0.417
      -0.500
      -0.628
      -0.753
      -0.822
      -0.798
      -0.681
      -0.515
      -0.373
      -0.320
      -0.376
      -0.492
      -0.582
      -0.576
      -0.469
      -0.309
      -0.154
      -0.033
       0.055
       0.116
       0.133
       0.078
      -0.060
      -0.249
      -0.426
      -0.528
      -0.540
      -0.502
      -0.485
      -0.545
      -0.680
      -0.836
      -0.949
      -0.981
      -0.936
      -0.829
      -0.674
      -0.488
      -0.301
      -0.159
      -0.106
      -0.156
      -0.291
      -0.461
      -0.607
      -0.681
      -0.662
      -0.568
      -0.451
      -0.367
      -0.345
      -0.374
      -0.411
      -0.416
      -0.367
      -0.265
      -0.116
       0.073
       0.294
       0.526
       0.743
       0.919
       1.042
       1.109
       1.123
       1.091
       1.037
       0.986
       0.956
       0.943
       0.928
       0.905
       0.894
       0.928
       1.020
       1.142
       1.244
       1.297
       1.308
       1.318
       1.359
       1.425
       1.481
       1.487
       1.437
       1.357
       1.285
       1.242
       1.209
       1.145
       1.014
       0.815
       0.582
       0.369
       0.220
       0.155
       0.176
       0.271
       0.420
       0.588
       0.740
       0.851
       0.920
       0.960
       0.981
       0.972
       0.917
       0.819
       0.718
       0.663
       0.676
       0.728
       0.761
       0.727
       0.614
       0.435
       0.210
      -0.039
      -0.282
      -0.467
      -0.542
      -0.487
      -0.337
      -0.171
      -0.080
      -0.130
      -0.341
      -0.676
      -1.058
      -1.400
      -1.639
      -1.762
      -1.800
      -1.799
      -1.791
      -1.773
      -1.721
      -1.618
      -1.473
      -1.310
      -1.151
      -1.001
      -0.841
      -0.656
      -0.459
      -0.301
      -0.241
      -0.304
      -0.457
      -0.635
      -0.792
      -0.925
      -1.067
      -1.242
      -1.434
      -1.599
      -1.698
      -1.714
      -1.655
      -1.530
      -1.342
      -1.099
      -0.821
      -0.544
      -0.298
      -0.089
       0.101
       0.301
       0.539
       0.823
       1.142
       1.465
       1.745
       1.933
       1.988
       1.900
       1.707
       1.484
       1.323
       1.290
       1.399
       1.605
