Origin Time       09/2/2011 19:17:29	
Lat.              30.9 N	
Long.             78.2 E	
Depth (Km)         10.0
Magnitude         5.0
 Region           UTTARKASHI-UTTARAKHAND                                           
 Above details taken from IMD 
   
Station Code      CKR
Station Lat.       30.694
Station Long.      77.901
Station Height(m) 2118.0
Site Class        B   Vs30 between 375 m/sec to 700 m/sec *  
Record Time       09.02.2012 19:17:12.269
Sampling Rate     200. Hz
 Record Duration  101.110 Sec.
 Direction         Vert. (Up positive)
Max. Acceleration     -2.620 cm/sec**2
     
  * For reference see Site Classification link of website 
     
 Base Line Corrected and Low Pass Filtered (Cut Off at 35 Hz) Time History
 Acceleration data in cm/sec**2
    
[...]
      -0.452
      -0.343
       0.038
       0.584
       1.092
       1.362
       1.271
       0.823
       0.159
      -0.492
      -0.896
      -0.918
      -0.596
      -0.139
       0.174
       0.162
      -0.143
      -0.513
      -0.677
      -0.489
       0.013
       0.637
       1.131
       1.290
       1.057
       0.558
       0.034
      -0.291
      -0.332
      -0.179
      -0.030
      -0.067
      -0.352
      -0.810
      -1.289
      -1.625
      -1.686
      -1.392
      -0.766
       0.044
       0.801
       1.284
       1.380
       1.127
       0.672
       0.208
      -0.107
      -0.190
      -0.048
       0.232
       0.497
       0.587
       0.427
       0.085
      -0.267
      -0.462
      -0.439
      -0.258
      -0.036
       0.131
       0.209
       0.212
       0.155
       0.049
      -0.071
      -0.130
      -0.066
       0.100
       0.258
       0.293
       0.165
      -0.073
      -0.317
      -0.475
      -0.507
      -0.423
      -0.264
      -0.067
       0.144
       0.348
       0.514
       0.592
       0.532
       0.313
      -0.011
      -0.317
      -0.476
      -0.434
      -0.220
       0.098
       0.449
       0.770
       0.991
       1.048
       0.920
       0.644
       0.300
      -0.040
      -0.348
      -0.633
      -0.896
      -1.108
      -1.202
      -1.107
      -0.777
      -0.242
       0.367
       0.861
       1.098
       1.054
       0.810
       0.453
       0.036
      -0.397
      -0.769
      -0.998
      -1.040
      -0.915
      -0.674
      -0.361
       0.003
       0.394
       0.766
       1.048
       1.185
       1.169
       1.025
       0.780
       0.436
      -0.007
      -0.509
      -0.976
      -1.301
      -1.426
      -1.382
      -1.256
      -1.130
      -1.037
      -0.977
      -0.939
      -0.890
      -0.759
      -0.467
       0.004
       0.572
       1.089
       1.422
       1.509
       1.370
       1.074
       0.704
       0.342
       0.060
      -0.099
      -0.154
      -0.172
      -0.195
      -0.192
      -0.082
       0.158
       0.438
       0.615
       0.600
       0.419
       0.182
       0.007
      -0.041
       0.044
       0.220
       0.424
       0.592
       0.676
       0.650
       0.515
       0.293
       0.024
      -0.245
      -0.476
      -0.656
      -0.793
      -0.871
      -0.849
      -0.705
      -0.484
      -0.280
      -0.153
      -0.092
      -0.069
      -0.099
      -0.230
      -0.457
      -0.678
      -0.756
      -0.625
      -0.345
      -0.027
       0.282
       0.611
       0.972
       1.270
       1.346
       1.118
       0.659
       0.139
      -0.298
      -0.602
      -0.782
      -0.858
      -0.844
      -0.775
      -0.707
      -0.661
      -0.578
      -0.351
       0.061
       0.550
       0.915
       1.011
       0.848
       0.553
       0.270
       0.092
       0.051
       0.130
       0.272
       0.402
       0.468
       0.484
       0.508
       0.585
       0.681
       0.692
       0.536
       0.237
      -0.091
      -0.334
      -0.464
      -0.530
      -0.605
      -0.740
      -0.931
      -1.118
      -1.202
      -1.097
      -0.790
      -0.359
       0.057
       0.312
       0.336
       0.171
      -0.039
      -0.126
       0.007
       0.346
       0.765
       1.077
       1.136
       0.924
       0.571
       0.275
       0.163
       0.222
       0.318
       0.299
       0.099
      -0.226
      -0.542
      -0.722
      -0.705
      -0.505
      -0.189
       0.144
       0.397
       0.508
       0.459
       0.279
       0.032
      -0.192
      -0.312
      -0.304
      -0.215
      -0.124
      -0.094
      -0.151
      -0.285
      -0.462
      -0.622
      -0.704
      -0.667
      -0.509
      -0.277
      -0.049
       0.116
       0.225
       0.346
       0.529
       0.742
       0.897
       0.920
       0.796
       0.557
       0.254
      -0.050
      -0.266
      -0.305
      -0.144
       0.131
       0.351
       0.361
       0.123
      -0.266
      -0.634
      -0.833
      -0.796
      -0.569
      -0.284
      -0.112
      -0.168
      -0.447
      -0.821
      -1.094
      -1.085
      -0.725
      -0.115
       0.516
       0.936
       1.040
       0.890
       0.639
       0.431
       0.331
       0.310
       0.281
       0.161
      -0.085
      -0.422
      -0.757
      -0.968
      -0.953
      -0.692
      -0.271
       0.164
       0.477
       0.600
       0.537
       0.345
       0.109
      -0.084
      -0.170
      -0.114
       0.076
       0.359
       0.670
       0.938
       1.094
       1.086
       0.899
       0.589
       0.260
      -0.002
      -0.197
      -0.393
      -0.643
      -0.918
      -1.107
      -1.093
      -0.850
      -0.477
      -0.149
       0.002
      -0.028
      -0.127
      -0.146
       0.001
       0.307
       0.692
       1.049
       1.280
       1.319
       1.139
       0.769
       0.297
      -0.168
      -0.548
      -0.827
      -1.035
      -1.203
      -1.323
      -1.342
      -1.185
      -0.810
      -0.255
       0.360
       0.891
       1.239
       1.376
       1.341
       1.213
       1.080
       0.984
       0.907
       0.803
       0.651
       0.473
       0.294
       0.114
      -0.070
      -0.227
      -0.304
      -0.276
      -0.191
      -0.147
      -0.225
      -0.418
      -0.645
      -0.823
      -0.924
      -0.959
      -0.919
      -0.774
      -0.530
      -0.262
      -0.072
      -0.007
      -0.026
      -0.041
       0.004
       0.102
       0.212
       0.312
       0.411
       0.504
       0.557
       0.532
       0.439
       0.333
       0.264
       0.242
       0.248
       0.281
       0.365
       0.513
       0.669
       0.714
       0.551
       0.217
      -0.116
      -0.259
      -0.157
       0.090
       0.313
       0.388
       0.280
       0.038
      -0.234
      -0.414
      -0.425
      -0.287
      -0.117
      -0.061
      -0.202
      -0.483
      -0.727
      -0.747
      -0.480
      -0.032
       0.398
       0.655
       0.715
       0.670
       0.638
       0.675
       0.762
       0.856
       0.921
       0.929
       0.836
       0.597
       0.206
      -0.292
      -0.838
      -1.370
      -1.809
      -2.050
      -2.022
      -1.754
      -1.385
      -1.079
      -0.910
      -0.811
      -0.644
      -0.322
       0.108
       0.518
       0.792
       0.893
       0.843
       0.686
       0.474
       0.271
       0.141
       0.121
       0.204
       0.337
       0.464
       0.559
       0.638
       0.723
       0.802
       0.835
       0.798
       0.690
       0.506
       0.227
      -0.153
      -0.598
      -1.030
      -1.362
      -1.532
      -1.522
      -1.356
      -1.082
      -0.754
      -0.425
      -0.148
       0.059
       0.225
       0.416
       0.652
       0.868
       0.940
       0.778
       0.394
      -0.098
      -0.553
      -0.887
      -1.106
      -1.259
      -1.356
      -1.347
      -1.165
      -0.785
      -0.249
       0.337
       0.823
       1.059
       0.961
       0.566
       0.028
      -0.455
      -0.741
      -0.814
      -0.779
      -0.779
      -0.903
      -1.150
      -1.437
      -1.625
      -1.569
      -1.187
      -0.568
       0.026
       0.289
       0.072
      -0.513
      -1.159
      -1.565
      -1.590
      -1.283
      -0.797
      -0.302
       0.063
       0.212
       0.142
      -0.052
      -0.227
      -0.269
      -0.135
       0.169
       0.604
       1.090
       1.501
       1.712
       1.687
       1.511
       1.344
       1.302
       1.382
       1.458
       1.379
       1.074
       0.596
       0.066
      -0.399
      -0.732
      -0.902
      -0.896
      -0.712
      -0.374
       0.060
       0.514
       0.930
       1.296
       1.617
       1.861
       1.946
       1.803
       1.440
       0.944
       0.423
      -0.048
      -0.438
      -0.722
      -0.861
      -0.810
      -0.566
      -0.192
       0.212
       0.555
       0.774
       0.822
       0.694
       0.460
       0.265
       0.233
       0.366
       0.522
       0.527
       0.308
      -0.053
      -0.398
      -0.609
      -0.681
      -0.685
      -0.674
      -0.644
      -0.566
      -0.447
      -0.335
      -0.278
      -0.265
      -0.222
      -0.061
       0.247
       0.641
       1.000
       1.218
       1.240
       1.066
       0.740
       0.343
      -0.030
      -0.322
      -0.548
      -0.761
      -0.969
      -1.101
      -1.046
      -0.751
      -0.277
       0.238
       0.669
       0.961
       1.096
       1.022
       0.673
       0.067
      -0.626
      -1.176
      -1.447
      -1.465
      -1.325
      -1.065
      -0.645
      -0.047
       0.629
       1.185
       1.457
       1.432
       1.254
       1.105
       1.074
       1.110
       1.088
       0.912
       0.591
       0.219
      -0.085
      -0.237
      -0.203
       0.020
       0.380
       0.750
       0.973
       0.960
       0.755
       0.489
       0.274
       0.152
       0.110
       0.122
       0.152
       0.154
       0.092
      -0.033
      -0.191
      -0.353
      -0.514
      -0.672
      -0.784
      -0.787
      -0.651
      -0.442
      -0.292
      -0.294
      -0.430
      -0.586
      -0.640
      -0.550
      -0.369
      -0.221
      -0.217
      -0.388
      -0.676
      -1.000
      -1.315
      -1.605
      -1.836
      -1.947
      -1.903
      -1.738
      -1.530
      -1.341
      -1.167
      -0.946
      -0.625
      -0.238
       0.105
       0.295
       0.322
       0.284
       0.310
       0.474
       0.750
       1.034
       1.202
       1.179
       0.978
       0.684
       0.390
       0.164
       0.044
       0.038
       0.110
       0.182
       0.168
       0.032
      -0.157
      -0.245
      -0.083
       0.351
       0.909
       1.356
       1.514
       1.342
       0.927
       0.397
      -0.132
      -0.584
      -0.913
      -1.102
      -1.185
      -1.242
      -1.341
      -1.452
      -1.450
      -1.226
      -0.811
      -0.361
      -0.020
       0.188
       0.342
       0.514
       0.702
       0.842
       0.867
       0.746
       0.495
       0.172
      -0.127
      -0.278
      -0.188
       0.138
       0.561
       0.870
       0.913
       0.681
       0.288
      -0.123
      -0.457
      -0.676
      -0.756
      -0.663
      -0.385
       0.013
       0.399
       0.659
       0.762
       0.742
       0.620
       0.368
      -0.026
      -0.486
      -0.857
      -0.988
      -0.827
      -0.444
       0.033
       0.511
       0.960
       1.369
       1.703
       1.912
       1.973
       1.900
       1.695
       1.326
       0.767
       0.077
      -0.590
      -1.052
      -1.198
      -1.040
      -0.699
      -0.338
      -0.081
       0.024
       0.007
      -0.057
      -0.093
      -0.082
      -0.061
      -0.081
      -0.148
      -0.221
      -0.250
      -0.228
      -0.184
      -0.169
      -0.221
      -0.338
      -0.464
      -0.521
      -0.475
      -0.356
      -0.240
      -0.199
      -0.270
      -0.435
      -0.636
      -0.807
      -0.922
      -0.987
      -1.000
      -0.916
      -0.692
      -0.349
       0.028
       0.343
       0.553
       0.675
       0.738
       0.756
       0.736
       0.701
       0.683
       0.688
       0.681
       0.622
       0.527
       0.464
       0.495
       0.610
       0.730
       0.758
       0.645
       0.412
       0.138
      -0.095
      -0.243
      -0.294
      -0.241
      -0.062
       0.239
       0.597
       0.904
       1.069
       1.070
       0.949
       0.772
       0.602
       0.489
       0.464
       0.510
       0.532
       0.397
       0.025
      -0.521
      -1.061
      -1.422
      -1.541
      -1.479
      -1.343
      -1.224
      -1.153
      -1.106
      -1.035
      -0.911
      -0.732
      -0.504
      -0.218
       0.134
       0.515
       0.834
       0.990
       0.920
       0.637
       0.228
      -0.177
      -0.460
      -0.572
      -0.552
      -0.509
      -0.556
      -0.746
      -1.027
      -1.271
      -1.346
      -1.186
      -0.823
      -0.361
       0.078
       0.406
       0.596
       0.672
       0.671
       0.603
       0.460
       0.245
      -0.002
      -0.198
      -0.239
      -0.067
       0.271
       0.627
       0.828
       0.781
       0.507
       0.093
      -0.378
      -0.852
      -1.276
      -1.570
      -1.631
      -1.395
      -0.890
      -0.247
       0.365
       0.795
       0.955
       0.830
       0.486
       0.049
      -0.348
      -0.618
      -0.726
      -0.670
      -0.473
      -0.185
       0.126
       0.405
       0.636
       0.848
       1.082
       1.336
       1.544
       1.597
       1.427
       1.050
       0.555
       0.053
      -0.353
      -0.582
      -0.598
      -0.436
      -0.190
       0.046
       0.218
       0.320
       0.354
       0.295
       0.085
      -0.329
      -0.935
      -1.618
      -2.192
      -2.472
      -2.359
      -1.887
      -1.216
      -0.553
      -0.045
       0.285
       0.499
       0.659
       0.770
       0.792
       0.696
       0.496
       0.260
       0.084
       0.042
       0.150
       0.364
       0.613
       0.831
       0.970
       0.982
       0.818
       0.434
      -0.177
      -0.951
      -1.744
      -2.361
      -2.620
      -2.424
      -1.815
      -0.977
      -0.164
       0.414
       0.677
       0.693
       0.626
       0.653
       0.870
       1.236
       1.583
       1.718
       1.544
       1.121
       0.631
       0.287
       0.232
       0.467
       0.854
       1.190
       1.315
       1.171
       0.795
       0.290
      -0.217
      -0.617
      -0.860
      -0.963
      -0.982
      -0.965
      -0.925
      -0.842
      -0.701
      -0.538
      -0.439
      -0.454
      -0.518
      -0.471
      -0.179
       0.340
       0.898
       1.247
       1.231
       0.863
       0.311
      -0.211
      -0.546
      -0.646
      -0.577
      -0.469
      -0.447
      -0.545
      -0.678
      -0.685
      -0.436
       0.098
       0.817
       1.520
       1.973
       2.020
       1.677
       1.120
       0.584
       0.235
       0.101
       0.096
       0.093
       0.022
      -0.103
      -0.212
      -0.241
      -0.168
      -0.002
       0.234
       0.493
       0.697
       0.752
       0.602
       0.273
      -0.120
      -0.426
      -0.545
      -0.479
      -0.303
      -0.103
       0.061
       0.148
       0.123
      -0.040
      -0.341
      -0.738
      -1.133
      -1.400
      -1.443
      -1.257
      -0.916
      -0.515
      -0.118
       0.233
       0.495
       0.638
       0.673
       0.658
       0.661
       0.728
       0.857
       1.001
       1.100
       1.116
       1.061
       0.988
       0.945
       0.938
       0.928
       0.865
       0.736
       0.552
       0.314
      -0.008
      -0.415
      -0.824
      -1.093
      -1.132
      -0.977
      -0.769
      -0.643
      -0.654
      -0.761
      -0.870
      -0.894
      -0.793
      -0.584
      -0.314
      -0.033
       0.224
       0.435
       0.577
       0.617
       0.523
       0.309
       0.049
      -0.158
      -0.261
      -0.299
      -0.355
      -0.489
      -0.689
      -0.879
      -0.959
      -0.866
      -0.617
      -0.302
      -0.036
       0.099
       0.095
       0.012
      -0.041
       0.032
       0.243
       0.504
       0.678
       0.669
       0.471
       0.152
      -0.203
      -0.542
      -0.838
      -1.057
      -1.149
      -1.090
      -0.929
      -0.757
      -0.637
      -0.559
      -0.477
      -0.351
      -0.151
       0.146
       0.523
       0.893
       1.121
       1.111
       0.882
       0.556
       0.275
       0.115
       0.060
       0.045
       0.017
      -0.043
      -0.146
      -0.315
      -0.562
      -0.845
      -1.077
      -1.168
      -1.082
      -0.850
      -0.549
      -0.261
      -0.059
       0.013
      -0.058
      -0.230
      -0.408
      -0.492
      -0.432
      -0.251
      -0.008
       0.223
       0.372
       0.390
       0.288
       0.148
       0.074
       0.119
       0.255
       0.404
       0.497
       0.509
       0.457
       0.373
       0.287
       0.223
       0.195
       0.198
       0.203
       0.180
       0.129
       0.078
       0.046
       0.021
      -0.004
      -0.009
       0.038
       0.142
       0.264
       0.358
       0.420
       0.495
       0.614
       0.732
       0.724
       0.492
       0.069
      -0.371
      -0.649
      -0.706
      -0.613
      -0.479
      -0.365
      -0.286
      -0.238
      -0.213
      -0.183
      -0.103
       0.056
       0.267
       0.443
       0.505
       0.452
       0.369
       0.360
       0.464
       0.636
       0.781
       0.814
       0.709
       0.516
       0.336
       0.248
       0.262
       0.322
       0.356
       0.320
       0.209
       0.037
      -0.177
      -0.407
      -0.609
      -0.702
      -0.601
      -0.282
       0.183
       0.669
       1.080
       1.372
       1.524
       1.496
       1.251
       0.815
       0.311
      -0.095
      -0.303
      -0.352
      -0.376
      -0.481
      -0.660
      -0.821
      -0.873
      -0.766
      -0.499
      -0.111
       0.320
       0.686
       0.894
       0.919
       0.808
       0.654
       0.533
       0.465
       0.396
       0.245
      -0.041
      -0.448
      -0.895
      -1.251
      -1.398
      -1.302
      -1.050
      -0.797
      -0.667
      -0.682
      -0.769
      -0.824
      -0.784
      -0.651
      -0.474
      -0.298
      -0.132
       0.048
       0.265
       0.516
       0.760
       0.925
       0.926
       0.725
       0.365
      -0.046
      -0.395
      -0.626
      -0.732
      -0.732
      -0.645
      -0.489
      -0.289
      -0.075
       0.114
       0.242
       0.272
       0.179
      -0.031
      -0.299
      -0.530
      -0.650
      -0.655
      -0.601
      -0.542
      -0.497
      -0.453
      -0.394
      -0.313
      -0.209
      -0.085
       0.060
       0.233
       0.440
       0.665
       0.865
       0.979
       0.945
       0.734
       0.383
      -0.005
      -0.303
      -0.435
      -0.419
      -0.347
      -0.318
      -0.378
      -0.489
      -0.574
      -0.576
      -0.492
      -0.350
      -0.167
       0.055
       0.312
       0.570
       0.770
       0.856
       0.804
       0.647
       0.457
       0.297
       0.188
       0.114
       0.044
      -0.039
      -0.136
      -0.219
      -0.237
      -0.150
       0.031
       0.238
       0.375
       0.378
       0.238
       0.010
      -0.219
      -0.373
      -0.428
      -0.404
      -0.339
      -0.267
      -0.218
      -0.204
      -0.201
      -0.164
      -0.073
       0.032
       0.075
       0.014
      -0.111
      -0.206
      -0.190
      -0.046
       0.169
       0.381
       0.544
       0.644
       0.672
       0.613
       0.459
       0.235
      -0.016
      -0.250
      -0.422
      -0.500
      -0.485
      -0.416
      -0.351
