Origin Time       11/2/2013 10:48:55	 UTC
Lat.              31.0 N	
Long.             78.4 E	
Depth (Km)          5.0
Magnitude         4.3
 Region           UTTARKASHI-UTTARAKHAND                                           
 Above details taken from IMD 
    
Station Code      CKR
Station Lat.       30.694  N
Station Long.      77.901  E
Station Height(m) 2118.0
Site Class        B   Vs30 between 375 m/sec to 700 m/sec *  
Record Time       11.02.2013 10:48:39.304 UTC
Sampling Rate     200. Hz
 Record Duration   80.255 Sec.
 Direction         N-S (N positive)
Max. Acceleration     -2.038 cm/sec**2
     
  * For reference see Site Classification link of website 
     
 Base Line Corrected and Low Pass Filtered (Cut Off at 35 Hz) Time History
 Acceleration data in cm/sec**2
    
[...]
      -0.750
      -0.881
      -1.000
      -1.077
      -1.073
      -0.964
      -0.757
      -0.489
      -0.213
       0.017
       0.156
       0.174
       0.069
      -0.124
      -0.339
      -0.514
      -0.623
      -0.685
      -0.734
      -0.783
      -0.807
      -0.756
      -0.598
      -0.340
      -0.025
       0.294
       0.573
       0.788
       0.925
       0.994
       1.023
       1.050
       1.095
       1.138
       1.127
       1.009
       0.778
       0.483
       0.212
       0.046
       0.020
       0.106
       0.237
       0.342
       0.391
       0.397
       0.392
       0.390
       0.370
       0.301
       0.165
      -0.029
      -0.258
      -0.500
      -0.741
      -0.968
      -1.165
      -1.312
      -1.397
      -1.420
      -1.386
      -1.298
      -1.156
      -0.966
      -0.736
      -0.472
      -0.177
       0.131
       0.408
       0.594
       0.643
       0.558
       0.394
       0.236
       0.162
       0.212
       0.376
       0.597
       0.795
       0.903
       0.895
       0.801
       0.686
       0.608
       0.596
       0.640
       0.704
       0.742
       0.717
       0.614
       0.440
       0.207
      -0.068
      -0.365
      -0.647
      -0.862
      -0.958
      -0.911
      -0.745
      -0.524
      -0.315
      -0.161
      -0.071
      -0.032
      -0.028
      -0.051
      -0.092
      -0.145
      -0.197
      -0.232
      -0.242
      -0.234
      -0.230
      -0.264
      -0.356
      -0.503
      -0.672
      -0.806
      -0.855
      -0.796
      -0.635
      -0.403
      -0.132
       0.150
       0.424
       0.678
       0.903
       1.092
       1.233
       1.313
       1.333
       1.302
       1.235
       1.126
       0.958
       0.713
       0.404
       0.079
      -0.202
      -0.398
      -0.508
      -0.558
      -0.570
      -0.547
      -0.480
      -0.377
      -0.273
      -0.211
      -0.217
      -0.280
      -0.369
      -0.456
      -0.529
      -0.591
      -0.656
      -0.728
      -0.797
      -0.837
      -0.825
      -0.751
      -0.618
      -0.426
      -0.173
       0.139
       0.480
       0.801
       1.043
       1.166
       1.154
       1.011
       0.752
       0.412
       0.050
      -0.261
      -0.465
      -0.553
      -0.559
      -0.536
      -0.510
      -0.469
      -0.378
      -0.208
       0.027
       0.285
       0.514
       0.681
       0.779
       0.818
       0.806
       0.743
       0.633
       0.488
       0.335
       0.204
       0.113
       0.061
       0.037
       0.034
       0.049
       0.071
       0.080
       0.052
      -0.026
      -0.148
      -0.293
      -0.437
      -0.561
      -0.659
      -0.739
      -0.817
      -0.907
      -1.003
      -1.075
      -1.081
      -0.983
      -0.776
      -0.495
      -0.204
       0.028
       0.157
       0.185
       0.157
       0.138
       0.181
       0.300
       0.460
       0.598
       0.662
       0.636
       0.558
       0.481
       0.444
       0.445
       0.454
       0.443
       0.410
       0.384
       0.392
       0.429
       0.459
       0.431
       0.325
       0.160
      -0.020
      -0.171
      -0.272
      -0.320
      -0.320
      -0.284
      -0.233
      -0.197
      -0.193
      -0.216
      -0.232
      -0.203
      -0.114
       0.020
       0.164
       0.285
       0.364
       0.393
       0.364
       0.263
       0.084
      -0.159
      -0.416
      -0.618
      -0.703
      -0.653
      -0.508
      -0.343
      -0.222
      -0.162
      -0.132
      -0.086
       0.001
       0.127
       0.271
       0.408
       0.518
       0.588
       0.610
       0.580
       0.501
       0.382
       0.231
       0.059
      -0.118
      -0.275
      -0.387
      -0.439
      -0.437
      -0.401
      -0.347
      -0.289
      -0.237
      -0.197
      -0.173
      -0.163
      -0.161
      -0.157
      -0.145
      -0.126
      -0.105
      -0.092
      -0.099
      -0.135
      -0.198
      -0.266
      -0.309
      -0.296
      -0.208
      -0.049
       0.164
       0.398
       0.617
       0.794
       0.919
       0.998
       1.036
       1.033
       0.984
       0.893
       0.774
       0.645
       0.505
       0.333
       0.099
      -0.203
      -0.541
      -0.852
      -1.069
      -1.159
      -1.127
      -1.010
      -0.853
      -0.694
      -0.559
      -0.456
      -0.381
      -0.315
      -0.234
      -0.116
       0.041
       0.215
       0.359
       0.432
       0.419
       0.342
       0.248
       0.177
       0.149
       0.165
       0.216
       0.287
       0.357
       0.404
       0.407
       0.357
       0.262
       0.147
       0.046
      -0.010
      -0.007
       0.040
       0.087
       0.077
      -0.031
      -0.225
      -0.439
      -0.586
      -0.602
      -0.482
      -0.282
      -0.083
       0.055
       0.124
       0.155
       0.189
       0.236
       0.273
       0.272
       0.232
       0.180
       0.138
       0.095
       0.019
      -0.105
      -0.247
      -0.356
      -0.404
      -0.411
      -0.421
      -0.453
      -0.482
      -0.462
      -0.375
      -0.254
      -0.158
      -0.129
      -0.158
      -0.191
      -0.162
      -0.040
       0.156
       0.373
       0.555
       0.678
       0.750
       0.790
       0.802
       0.781
       0.730
       0.670
       0.631
       0.616
       0.601
       0.546
       0.432
       0.266
       0.080
      -0.101
      -0.267
      -0.416
      -0.542
      -0.627
      -0.659
      -0.649
      -0.629
      -0.638
      -0.693
      -0.774
      -0.833
      -0.831
      -0.768
      -0.679
      -0.603
      -0.549
      -0.493
      -0.409
      -0.300
      -0.199
      -0.136
      -0.102
      -0.055
       0.048
       0.216
       0.419
       0.610
       0.756
       0.842
       0.871
       0.850
       0.787
       0.677
       0.518
       0.315
       0.091
      -0.112
      -0.249
      -0.300
      -0.272
      -0.202
      -0.121
      -0.036
       0.064
       0.191
       0.337
       0.470
       0.557
       0.577
       0.528
       0.425
       0.296
       0.169
       0.062
      -0.028
      -0.115
      -0.214
      -0.321
      -0.413
      -0.465
      -0.472
      -0.448
      -0.417
      -0.391
      -0.358
      -0.289
      -0.173
      -0.031
       0.084
       0.124
       0.076
      -0.031
      -0.147
      -0.229
      -0.261
      -0.247
      -0.206
      -0.154
      -0.097
      -0.035
       0.034
       0.111
       0.192
       0.270
       0.337
       0.388
       0.418
       0.419
       0.377
       0.291
       0.192
       0.129
       0.137
       0.204
       0.274
       0.290
       0.227
       0.108
      -0.019
      -0.114
      -0.163
      -0.171
      -0.148
      -0.103
      -0.052
      -0.015
      -0.005
      -0.020
      -0.049
      -0.073
      -0.078
      -0.059
      -0.026
       0.004
       0.019
       0.014
      -0.004
      -0.028
      -0.050
      -0.066
      -0.082
      -0.115
      -0.188
      -0.316
      -0.486
      -0.651
      -0.745
      -0.721
      -0.585
      -0.396
      -0.229
      -0.116
      -0.034
       0.066
       0.201
       0.339
       0.423
       0.420
       0.346
       0.251
       0.174
       0.123
       0.079
       0.022
      -0.044
      -0.091
      -0.078
       0.018
       0.180
       0.352
       0.461
       0.457
       0.344
       0.182
       0.056
       0.030
       0.112
       0.261
       0.406
       0.484
       0.464
       0.354
       0.196
       0.039
      -0.079
      -0.141
      -0.143
      -0.088
       0.013
       0.139
       0.255
       0.323
       0.319
       0.238
       0.106
      -0.036
      -0.145
      -0.203
      -0.223
      -0.248
      -0.317
      -0.444
      -0.606
      -0.762
      -0.874
      -0.923
      -0.899
      -0.796
      -0.615
      -0.387
      -0.170
      -0.036
      -0.018
      -0.083
      -0.148
      -0.130
      -0.005
       0.184
       0.359
       0.457
       0.458
       0.385
       0.280
       0.176
       0.087
       0.015
      -0.039
      -0.061
      -0.039
       0.028
       0.114
       0.184
       0.211
       0.199
       0.173
       0.156
       0.156
       0.169
       0.187
       0.207
       0.228
       0.250
       0.262
       0.251
       0.209
       0.143
       0.063
      -0.024
      -0.118
      -0.216
      -0.304
      -0.364
      -0.381
      -0.356
      -0.297
      -0.220
      -0.134
      -0.040
       0.068
       0.189
       0.307
       0.390
       0.411
       0.369
       0.300
       0.254
       0.266
       0.327
       0.382
       0.368
       0.252
       0.051
      -0.175
      -0.359
      -0.463
      -0.490
      -0.476
      -0.465
      -0.487
      -0.540
      -0.595
      -0.614
      -0.573
      -0.468
      -0.325
      -0.177
      -0.052
       0.047
       0.138
       0.246
       0.385
       0.544
       0.691
       0.796
       0.845
       0.845
       0.815
       0.772
       0.725
       0.668
       0.588
       0.476
       0.337
       0.191
       0.054
      -0.067
      -0.176
      -0.279
      -0.375
      -0.458
      -0.533
      -0.609
      -0.701
      -0.801
      -0.878
      -0.888
      -0.798
      -0.614
      -0.384
      -0.175
      -0.042
       0.000
      -0.017
      -0.042
      -0.033
       0.019
       0.096
       0.169
       0.216
       0.224
       0.189
       0.114
       0.015
      -0.083
      -0.157
      -0.194
      -0.197
      -0.167
      -0.103
      -0.009
       0.097
       0.182
       0.221
       0.210
       0.163
       0.111
       0.077
       0.079
       0.121
       0.188
       0.257
       0.298
       0.290
       0.226
       0.112
      -0.034
      -0.183
      -0.299
      -0.352
      -0.336
      -0.274
      -0.209
      -0.180
      -0.194
      -0.228
      -0.236
      -0.181
      -0.050
       0.131
       0.308
       0.421
       0.432
       0.344
       0.195
       0.035
      -0.102
      -0.207
      -0.279
      -0.311
      -0.292
      -0.219
      -0.106
       0.020
       0.131
       0.214
       0.277
       0.338
       0.418
       0.516
       0.613
       0.682
       0.704
       0.684
       0.649
       0.622
       0.611
       0.600
       0.569
       0.511
       0.434
       0.351
       0.263
       0.156
       0.011
      -0.167
      -0.339
      -0.452
      -0.471
      -0.408
      -0.315
      -0.253
      -0.262
      -0.333
      -0.425
      -0.493
      -0.526
      -0.549
      -0.599
      -0.689
      -0.798
      -0.881
      -0.902
      -0.842
      -0.711
      -0.542
      -0.373
      -0.234
      -0.125
      -0.028
       0.087
       0.235
       0.410
       0.588
       0.738
       0.838
       0.881
       0.878
       0.843
       0.786
       0.701
       0.584
       0.442
       0.298
       0.179
       0.087
      -0.001
      -0.111
      -0.245
      -0.378
      -0.475
      -0.534
      -0.591
      -0.694
      -0.860
      -1.047
      -1.176
      -1.186
      -1.063
      -0.839
      -0.572
      -0.308
      -0.075
       0.118
       0.275
       0.408
       0.539
       0.687
       0.851
       1.006
       1.117
       1.158
       1.133
       1.067
       0.985
       0.901
       0.807
       0.696
       0.565
       0.417
       0.252
       0.063
      -0.153
      -0.378
      -0.584
      -0.744
      -0.851
      -0.924
      -0.984
      -1.041
      -1.074
      -1.051
      -0.948
      -0.766
      -0.522
      -0.239
       0.066
       0.379
       0.685
       0.968
       1.213
       1.416
       1.581
       1.713
       1.800
       1.822
       1.755
       1.585
       1.315
       0.968
       0.589
       0.229
      -0.074
      -0.320
      -0.542
      -0.783
      -1.053
      -1.322
      -1.538
      -1.667
      -1.715
      -1.721
      -1.724
      -1.733
      -1.717
      -1.635
      -1.466
      -1.232
      -0.989
      -0.786
      -0.638
      -0.524
      -0.409
      -0.261
      -0.056
       0.216
       0.541
       0.870
       1.142
       1.320
       1.398
       1.399
       1.337
       1.206
       0.991
       0.692
       0.336
      -0.035
      -0.384
      -0.689
      -0.943
      -1.148
      -1.306
      -1.417
      -1.482
      -1.508
      -1.503
      -1.470
      -1.397
      -1.257
      -1.035
      -0.743
      -0.428
      -0.146
       0.075
       0.244
       0.402
       0.587
       0.814
       1.065
       1.304
       1.482
       1.565
       1.552
       1.479
       1.410
       1.393
       1.430
       1.483
       1.502
       1.462
       1.375
       1.272
       1.183
       1.105
       1.005
       0.834
       0.559
       0.192
      -0.202
      -0.531
      -0.731
      -0.802
      -0.807
      -0.830
      -0.924
      -1.089
      -1.280
      -1.448
      -1.561
      -1.621
      -1.647
      -1.661
      -1.672
      -1.666
      -1.615
      -1.494
      -1.297
      -1.037
      -0.734
      -0.400
      -0.038
       0.339
       0.707
       1.042
       1.335
       1.587
       1.782
       1.887
       1.867
       1.725
       1.502
       1.253
       1.010
       0.766
       0.490
       0.152
      -0.258
      -0.720
      -1.189
      -1.603
      -1.902
      -2.038
      -1.990
      -1.770
      -1.420
      -1.009
      -0.610
      -0.279
      -0.032
       0.153
       0.322
       0.505
       0.696
       0.857
       0.943
       0.939
       0.870
       0.783
       0.713
       0.660
       0.596
       0.491
       0.350
       0.213
       0.127
       0.117
       0.174
       0.271
       0.380
       0.480
       0.559
       0.602
       0.592
       0.521
       0.393
       0.235
       0.091
       0.006
       0.006
       0.084
       0.195
       0.273
       0.264
       0.159
       0.000
      -0.134
      -0.177
      -0.112
       0.024
       0.165
       0.251
       0.257
       0.194
       0.097
      -0.006
      -0.115
      -0.256
      -0.460
      -0.727
      -1.011
      -1.233
      -1.333
      -1.299
      -1.158
      -0.950
      -0.700
      -0.420
      -0.125
       0.165
       0.425
       0.639
       0.813
       0.954
       1.064
       1.127
       1.119
       1.022
       0.828
       0.545
       0.196
      -0.179
      -0.536
      -0.834
      -1.046
      -1.164
      -1.196
      -1.156
      -1.066
      -0.951
      -0.838
      -0.751
      -0.710
      -0.715
      -0.737
      -0.718
      -0.609
      -0.402
      -0.140
       0.120
       0.355
       0.576
       0.803
       1.026
       1.208
       1.312
       1.335
       1.308
       1.269
       1.229
       1.161
       1.025
       0.795
       0.482
       0.124
      -0.234
      -0.563
      -0.867
      -1.161
      -1.442
      -1.671
      -1.785
      -1.735
      -1.512
      -1.159
      -0.742
      -0.320
       0.074
       0.435
       0.759
       1.034
       1.242
       1.374
       1.430
       1.409
       1.316
       1.161
       0.979
       0.812
       0.693
       0.622
       0.564
       0.470
       0.310
       0.090
      -0.150
      -0.357
      -0.496
      -0.566
      -0.591
      -0.603
      -0.625
      -0.660
      -0.699
      -0.729
      -0.738
      -0.722
      -0.680
      -0.609
      -0.503
      -0.355
      -0.168
       0.043
       0.243
       0.398
       0.490
       0.517
       0.486
       0.395
       0.229
      -0.024
      -0.358
      -0.742
      -1.127
      -1.462
      -1.705
      -1.833
      -1.839
      -1.727
      -1.509
      -1.212
      -0.885
      -0.580
      -0.335
      -0.151
      -0.004
       0.132
       0.267
       0.383
       0.450
       0.442
       0.359
       0.233
       0.119
       0.071
       0.119
       0.256
       0.446
       0.638
       0.787
       0.873
       0.909
       0.919
       0.919
       0.908
       0.883
       0.850
       0.827
       0.822
       0.816
       0.773
       0.668
       0.506
       0.326
       0.172
       0.069
       0.013
      -0.024
      -0.061
      -0.095
      -0.101
      -0.074
      -0.046
      -0.070
      -0.173
      -0.317
      -0.412
      -0.369
      -0.164
       0.143
       0.447
       0.655
       0.727
       0.688
       0.593
       0.491
       0.401
       0.321
       0.243
       0.182
       0.160
       0.190
       0.253
       0.301
       0.281
       0.169
      -0.024
      -0.254
      -0.471
      -0.633
      -0.724
      -0.752
      -0.738
      -0.711
      -0.687
      -0.658
      -0.595
      -0.471
      -0.290
      -0.106
       0.004
      -0.010
      -0.131
      -0.279
      -0.354
      -0.296
      -0.104
       0.171
       0.454
       0.683
       0.825
       0.883
       0.884
       0.862
       0.840
       0.818
       0.780
       0.696
       0.540
       0.305
       0.017
      -0.274
      -0.511
      -0.664
      -0.738
      -0.757
      -0.750
      -0.731
      -0.708
      -0.685
      -0.660
      -0.625
      -0.575
      -0.518
      -0.479
      -0.483
      -0.532
      -0.597
      -0.642
      -0.646
      -0.615
      -0.580
      -0.558
      -0.541
      -0.486
      -0.350
      -0.117
       0.188
       0.519
       0.834
       1.113
       1.351
       1.539
       1.647
       1.639
       1.491
       1.208
       0.824
       0.386
      -0.046
      -0.415
      -0.674
      -0.803
      -0.819
      -0.773
      -0.726
      -0.720
      -0.757
      -0.807
      -0.837
      -0.831
      -0.798
      -0.757
      -0.722
      -0.702
      -0.703
      -0.733
      -0.789
      -0.845
      -0.847
      -0.736
      -0.494
      -0.160
       0.180
       0.444
       0.594
       0.645
       0.640
       0.613
       0.586
       0.571
       0.580
       0.614
       0.638
       0.594
       0.440
       0.193
      -0.067
      -0.242
      -0.274
      -0.176
      -0.014
       0.134
       0.229
       0.280
       0.327
       0.400
       0.495
       0.575
       0.608
       0.586
       0.526
       0.442
       0.325
       0.146
      -0.104
      -0.394
      -0.661
      -0.845
      -0.932
      -0.957
      -0.973
      -1.017
      -1.082
      -1.135
      -1.142
      -1.086
      -0.974
      -0.831
      -0.692
      -0.582
      -0.514
      -0.476
      -0.438
      -0.354
      -0.188
       0.073
       0.403
       0.747
       1.046
       1.263
       1.394
       1.457
       1.476
       1.458
       1.397
       1.280
       1.098
       0.846
       0.520
       0.130
      -0.293
      -0.699
      -1.028
      -1.241
      -1.339
      -1.354
      -1.324
      -1.271
      -1.185
      -1.037
      -0.806
      -0.495
      -0.134
       0.228
       0.543
       0.782
       0.938
       1.026
       1.061
       1.047
       0.973
       0.818
       0.576
       0.272
      -0.034
      -0.272
      -0.392
      -0.396
      -0.335
      -0.275
      -0.256
      -0.271
      -0.275
      -0.221
      -0.084
