Origin Time       16/4/2013 10:44:11	
Lat.              28.0 N	
Long.             62.1 E	
Depth (Km)         46.0
Magnitude         7.8
 Region           Iran-Pakistan-Border-Region                                      
 Above details taken from IMD 
   
Station Code      CKR
Station Lat.       30.694
Station Long.      77.901
Station Height(m) 2118.0
Site Class        B   Vs30 between 375 m/sec to 700 m/sec *  
Record Time       16.04.2013 10:49:39.989
Sampling Rate     200. Hz
 Record Duration   80.010 Sec.
 Direction         Vert. (Up positive)
Max. Acceleration      0.610 cm/sec**2
     
  * For reference see Site Classification link of website 
     
 Base Line Corrected and Low Pass Filtered (Cut Off at 35 Hz) Time History
 Acceleration data in cm/sec**2
    
[...]
      -0.201
      -0.202
      -0.191
      -0.180
      -0.173
      -0.164
      -0.151
      -0.138
      -0.126
      -0.114
      -0.104
      -0.094
      -0.077
      -0.054
      -0.036
      -0.027
      -0.017
      -0.002
       0.003
      -0.017
      -0.054
      -0.086
      -0.109
      -0.133
      -0.159
      -0.175
      -0.176
      -0.168
      -0.157
      -0.142
      -0.122
      -0.095
      -0.056
      -0.008
       0.035
       0.068
       0.099
       0.126
       0.135
       0.116
       0.084
       0.055
       0.024
      -0.021
      -0.074
      -0.115
      -0.136
      -0.147
      -0.155
      -0.159
      -0.156
      -0.138
      -0.098
      -0.041
       0.017
       0.063
       0.100
       0.127
       0.136
       0.124
       0.105
       0.087
       0.059
       0.010
      -0.046
      -0.088
      -0.118
      -0.155
      -0.202
      -0.247
      -0.277
      -0.294
      -0.307
      -0.325
      -0.347
      -0.362
      -0.362
      -0.356
      -0.362
      -0.385
      -0.406
      -0.417
      -0.427
      -0.443
      -0.454
      -0.450
      -0.440
      -0.435
      -0.428
      -0.405
      -0.365
      -0.313
      -0.252
      -0.180
      -0.106
      -0.037
       0.019
       0.063
       0.099
       0.137
       0.186
       0.235
       0.267
       0.281
       0.295
       0.312
       0.315
       0.294
       0.271
       0.262
       0.261
       0.253
       0.238
       0.227
       0.221
       0.218
       0.216
       0.213
       0.208
       0.203
       0.204
       0.208
       0.213
       0.223
       0.245
       0.267
       0.268
       0.245
       0.223
       0.216
       0.214
       0.208
       0.203
       0.204
       0.200
       0.182
       0.152
       0.124
       0.101
       0.082
       0.062
       0.032
      -0.010
      -0.058
      -0.102
      -0.146
      -0.203
      -0.268
      -0.324
      -0.366
      -0.406
      -0.448
      -0.477
      -0.485
      -0.487
      -0.494
      -0.503
      -0.505
      -0.499
      -0.483
      -0.456
      -0.420
      -0.383
      -0.349
      -0.313
      -0.277
      -0.246
      -0.213
      -0.167
      -0.111
      -0.059
      -0.009
       0.051
       0.120
       0.172
       0.193
       0.195
       0.193
       0.191
       0.186
       0.180
       0.170
       0.152
       0.124
       0.090
       0.052
       0.013
      -0.014
      -0.022
      -0.020
      -0.024
      -0.027
      -0.015
       0.011
       0.032
       0.041
       0.053
       0.069
       0.076
       0.059
       0.027
      -0.008
      -0.042
      -0.077
      -0.116
      -0.161
      -0.211
      -0.253
      -0.277
      -0.290
      -0.295
      -0.287
      -0.263
      -0.236
      -0.226
      -0.228
      -0.224
      -0.212
      -0.205
      -0.206
      -0.200
      -0.180
      -0.157
      -0.142
      -0.133
      -0.123
      -0.105
      -0.076
      -0.037
       0.004
       0.039
       0.077
       0.124
       0.170
       0.205
       0.237
       0.277
       0.320
       0.347
       0.356
       0.360
       0.362
       0.354
       0.330
       0.297
       0.262
       0.227
       0.190
       0.151
       0.108
       0.063
       0.024
      -0.007
      -0.041
      -0.085
      -0.127
      -0.154
      -0.167
      -0.174
      -0.169
      -0.142
      -0.102
      -0.067
      -0.037
       0.005
       0.061
       0.117
       0.158
       0.186
       0.203
       0.214
       0.220
       0.221
       0.216
       0.209
       0.209
       0.220
       0.229
       0.230
       0.234
       0.243
       0.243
       0.223
       0.197
       0.183
       0.180
       0.167
       0.138
       0.102
       0.071
       0.044
       0.019
      -0.005
      -0.027
      -0.047
      -0.056
      -0.053
      -0.047
      -0.041
      -0.026
       0.002
       0.028
       0.042
       0.056
       0.084
       0.118
       0.141
       0.154
       0.172
       0.199
       0.224
       0.238
       0.242
       0.241
       0.240
       0.242
       0.245
       0.239
       0.221
       0.202
       0.183
       0.154
       0.110
       0.064
       0.033
       0.012
      -0.007
      -0.020
      -0.020
      -0.016
      -0.019
      -0.028
      -0.035
      -0.036
      -0.033
      -0.030
      -0.032
      -0.045
      -0.065
      -0.078
      -0.079
      -0.078
      -0.077
      -0.066
      -0.042
      -0.022
      -0.019
      -0.027
      -0.033
      -0.036
      -0.040
      -0.043
      -0.045
      -0.052
      -0.071
      -0.094
      -0.110
      -0.118
      -0.123
      -0.126
      -0.134
      -0.148
      -0.157
      -0.144
      -0.110
      -0.077
      -0.056
      -0.035
      -0.006
       0.022
       0.041
       0.060
       0.089
       0.119
       0.138
       0.149
       0.163
       0.180
       0.195
       0.200
       0.196
       0.184
       0.172
       0.164
       0.156
       0.143
       0.134
       0.138
       0.148
       0.139
       0.108
       0.076
       0.062
       0.059
       0.048
       0.026
       0.004
      -0.010
      -0.018
      -0.021
      -0.019
      -0.008
       0.014
       0.048
       0.080
       0.101
       0.120
       0.145
       0.171
       0.180
       0.175
       0.178
       0.191
       0.197
       0.183
       0.162
       0.147
       0.131
       0.105
       0.071
       0.042
       0.020
       0.000
      -0.024
      -0.055
      -0.091
      -0.125
      -0.153
      -0.180
      -0.212
      -0.242
      -0.254
      -0.254
      -0.256
      -0.261
      -0.253
      -0.233
      -0.221
      -0.228
      -0.242
      -0.250
      -0.253
      -0.256
      -0.258
      -0.255
      -0.243
      -0.220
      -0.189
      -0.159
      -0.139
      -0.122
      -0.096
      -0.063
      -0.031
       0.002
       0.046
       0.089
       0.114
       0.118
       0.124
       0.140
       0.155
       0.152
       0.134
       0.111
       0.087
       0.057
       0.018
      -0.032
      -0.087
      -0.131
      -0.162
      -0.191
      -0.231
      -0.271
      -0.296
      -0.308
      -0.319
      -0.331
      -0.327
      -0.306
      -0.279
      -0.253
      -0.219
      -0.174
      -0.130
      -0.098
      -0.076
      -0.056
      -0.028
       0.013
       0.064
       0.110
       0.148
       0.185
       0.227
       0.257
       0.257
       0.238
       0.221
       0.214
       0.202
       0.180
       0.162
       0.152
       0.138
       0.114
       0.087
       0.067
       0.059
       0.060
       0.064
       0.063
       0.057
       0.053
       0.051
       0.040
       0.016
      -0.005
      -0.015
      -0.023
      -0.047
      -0.085
      -0.119
      -0.149
      -0.183
      -0.221
      -0.252
      -0.275
      -0.293
      -0.302
      -0.295
      -0.272
      -0.243
      -0.221
      -0.210
      -0.215
      -0.226
      -0.228
      -0.218
      -0.210
      -0.216
      -0.225
      -0.220
      -0.205
      -0.190
      -0.175
      -0.147
      -0.108
      -0.074
      -0.049
      -0.027
      -0.005
       0.014
       0.025
       0.027
       0.019
       0.011
       0.019
       0.051
       0.093
       0.134
       0.178
       0.234
       0.293
       0.348
       0.401
       0.456
       0.502
       0.525
       0.530
       0.533
       0.535
       0.531
       0.515
       0.493
       0.468
       0.445
       0.429
       0.419
       0.410
       0.405
       0.413
       0.431
       0.445
       0.449
       0.459
       0.485
       0.510
       0.507
       0.474
       0.429
       0.379
       0.318
       0.242
       0.154
       0.061
      -0.028
      -0.106
      -0.170
      -0.224
      -0.267
      -0.293
      -0.308
      -0.328
      -0.358
      -0.381
      -0.388
      -0.390
      -0.397
      -0.399
      -0.384
      -0.358
      -0.335
      -0.313
      -0.285
      -0.252
      -0.217
      -0.181
      -0.143
      -0.106
      -0.073
      -0.044
      -0.022
      -0.014
      -0.014
      -0.010
      -0.003
      -0.003
      -0.008
      -0.004
       0.015
       0.029
       0.026
       0.017
       0.020
       0.032
       0.039
       0.034
       0.023
       0.008
      -0.011
      -0.034
      -0.062
      -0.096
      -0.131
      -0.158
      -0.176
      -0.190
      -0.195
      -0.185
      -0.166
      -0.155
      -0.151
      -0.130
      -0.086
      -0.038
      -0.002
       0.026
       0.059
       0.089
       0.103
       0.102
       0.094
       0.086
       0.078
       0.071
       0.064
       0.057
       0.057
       0.067
       0.076
       0.069
       0.050
       0.036
       0.029
       0.017
      -0.001
      -0.005
       0.008
       0.020
       0.016
       0.005
      -0.001
       0.000
       0.003
       0.004
      -0.001
      -0.016
      -0.040
      -0.068
      -0.098
      -0.130
      -0.157
      -0.169
      -0.171
      -0.175
      -0.175
      -0.160
      -0.130
      -0.106
      -0.095
      -0.088
      -0.073
      -0.055
      -0.037
      -0.018
       0.001
       0.013
       0.016
       0.017
       0.019
       0.023
       0.030
       0.046
       0.065
       0.080
       0.095
       0.116
       0.133
       0.132
       0.118
       0.115
       0.130
       0.148
       0.151
       0.142
       0.128
       0.112
       0.091
       0.069
       0.049
       0.033
       0.029
       0.033
       0.034
       0.022
       0.010
       0.012
       0.022
       0.021
       0.009
       0.005
       0.012
       0.018
       0.016
       0.017
       0.022
       0.022
       0.013
       0.002
       0.001
       0.009
       0.019
       0.025
       0.025
       0.024
       0.034
       0.052
       0.060
       0.051
       0.039
       0.038
       0.041
       0.029
       0.004
      -0.013
      -0.019
      -0.025
      -0.040
      -0.053
      -0.057
      -0.051
      -0.041
      -0.028
      -0.015
      -0.008
      -0.008
      -0.017
      -0.037
      -0.060
      -0.073
      -0.071
      -0.071
      -0.084
      -0.100
      -0.102
      -0.098
      -0.106
      -0.128
      -0.148
      -0.156
      -0.157
      -0.148
      -0.125
      -0.091
      -0.053
      -0.018
       0.018
       0.058
       0.099
       0.142
       0.182
       0.209
       0.221
       0.230
       0.245
       0.252
       0.239
       0.220
       0.212
       0.214
       0.213
       0.206
       0.201
       0.194
       0.173
       0.135
       0.089
       0.043
      -0.002
      -0.043
      -0.077
      -0.101
      -0.113
      -0.107
      -0.089
      -0.073
      -0.062
      -0.042
      -0.008
       0.019
       0.020
       0.003
      -0.011
      -0.020
      -0.036
      -0.064
      -0.095
      -0.120
      -0.136
      -0.140
      -0.135
      -0.122
      -0.101
      -0.068
      -0.029
       0.002
       0.020
       0.040
       0.071
       0.100
       0.113
       0.119
       0.131
       0.145
       0.148
       0.142
       0.137
       0.138
       0.139
       0.136
       0.130
       0.123
       0.118
       0.118
       0.115
       0.097
       0.072
       0.056
       0.057
       0.061
       0.057
       0.054
       0.051
       0.039
       0.012
      -0.014
      -0.023
      -0.026
      -0.040
      -0.066
      -0.094
      -0.116
      -0.136
      -0.156
      -0.182
      -0.212
      -0.236
      -0.245
      -0.246
      -0.253
      -0.264
      -0.265
      -0.254
      -0.247
      -0.251
      -0.255
      -0.248
      -0.241
      -0.242
      -0.242
      -0.229
      -0.207
      -0.191
      -0.186
      -0.183
      -0.177
      -0.160
      -0.132
      -0.100
      -0.069
      -0.035
       0.010
       0.059
       0.094
       0.115
       0.138
       0.167
       0.187
       0.193
       0.197
       0.207
       0.210
       0.192
       0.165
       0.149
       0.148
       0.152
       0.153
       0.151
       0.149
       0.151
       0.153
       0.143
       0.113
       0.080
       0.061
       0.049
       0.022
      -0.025
      -0.072
      -0.106
      -0.138
      -0.179
      -0.223
      -0.254
      -0.270
      -0.274
      -0.263
      -0.239
      -0.204
      -0.165
      -0.124
      -0.087
      -0.056
      -0.020
       0.029
       0.081
       0.118
       0.141
       0.161
       0.180
       0.182
       0.166
       0.146
       0.130
       0.108
       0.075
       0.038
       0.005
      -0.032
      -0.074
      -0.118
      -0.157
      -0.185
      -0.197
      -0.189
      -0.172
      -0.155
      -0.137
      -0.110
      -0.080
      -0.058
      -0.038
      -0.003
       0.044
       0.086
       0.113
       0.131
       0.145
       0.151
       0.144
       0.132
       0.116
       0.096
       0.074
       0.054
       0.033
       0.008
      -0.014
      -0.031
      -0.049
      -0.078
      -0.111
      -0.136
      -0.157
      -0.187
      -0.223
      -0.253
      -0.276
      -0.307
      -0.349
      -0.389
      -0.414
      -0.427
      -0.428
      -0.417
      -0.391
      -0.347
      -0.285
      -0.214
      -0.147
      -0.088
      -0.019
       0.074
       0.180
       0.274
       0.357
       0.439
       0.515
       0.569
       0.595
       0.606
       0.610
       0.600
       0.572
       0.533
       0.490
       0.445
       0.396
       0.340
       0.273
       0.202
       0.144
       0.105
       0.074
       0.038
       0.005
      -0.013
      -0.030
      -0.060
      -0.097
      -0.117
      -0.115
      -0.109
      -0.108
      -0.110
      -0.108
      -0.102
      -0.094
      -0.085
      -0.080
      -0.077
      -0.069
      -0.049
      -0.026
      -0.004
       0.018
       0.039
       0.045
       0.032
       0.014
       0.007
       0.001
      -0.018
      -0.046
      -0.071
      -0.091
      -0.119
      -0.158
      -0.199
      -0.233
      -0.256
      -0.265
      -0.264
      -0.256
      -0.239
      -0.205
      -0.155
      -0.106
      -0.063
      -0.013
       0.052
       0.116
       0.163
       0.197
       0.227
       0.247
       0.242
       0.216
       0.187
       0.169
       0.159
       0.157
       0.159
       0.163
       0.168
       0.181
       0.201
       0.221
       0.241
       0.268
       0.298
       0.314
       0.305
       0.285
       0.269
       0.246
       0.203
       0.148
       0.096
       0.055
       0.021
      -0.005
      -0.019
      -0.022
      -0.019
      -0.008
       0.008
       0.025
       0.041
       0.061
       0.074
       0.065
       0.036
       0.008
      -0.010
      -0.032
      -0.071
      -0.115
      -0.149
      -0.172
      -0.193
      -0.210
      -0.212
      -0.203
      -0.192
      -0.187
      -0.188
      -0.195
      -0.198
      -0.187
      -0.168
      -0.150
      -0.137
      -0.119
      -0.097
      -0.083
      -0.074
      -0.056
      -0.021
       0.013
       0.033
       0.047
       0.069
       0.093
       0.106
       0.104
       0.097
       0.090
       0.084
       0.075
       0.057
       0.031
       0.008
       0.002
       0.003
      -0.006
      -0.023
      -0.032
      -0.027
      -0.022
      -0.021
      -0.013
       0.006
       0.025
       0.033
       0.034
       0.040
       0.048
       0.051
       0.050
       0.047
       0.041
       0.030
       0.010
      -0.021
      -0.061
      -0.095
      -0.111
      -0.118
      -0.136
      -0.159
      -0.170
      -0.168
      -0.173
      -0.191
      -0.210
      -0.218
      -0.222
      -0.230
      -0.236
      -0.231
      -0.218
      -0.208
      -0.204
      -0.207
      -0.211
      -0.207
      -0.190
      -0.169
      -0.156
      -0.145
      -0.127
      -0.104
      -0.096
      -0.106
      -0.117
      -0.118
      -0.118
      -0.121
      -0.120
      -0.109
      -0.093
      -0.079
      -0.065
      -0.050
      -0.033
      -0.013
       0.011
       0.028
       0.031
       0.023
       0.016
       0.006
      -0.015
      -0.040
      -0.053
      -0.054
      -0.057
      -0.066
      -0.072
      -0.073
      -0.081
      -0.097
      -0.113
      -0.124
      -0.133
      -0.139
      -0.136
      -0.124
      -0.105
      -0.080
      -0.055
      -0.040
      -0.038
      -0.034
      -0.016
       0.009
       0.025
       0.036
       0.055
       0.077
       0.083
       0.064
       0.033
       0.001
      -0.035
      -0.079
      -0.127
      -0.173
      -0.211
      -0.237
      -0.254
      -0.265
      -0.270
      -0.258
      -0.223
      -0.182
      -0.145
      -0.103
      -0.041
       0.028
       0.076
       0.096
       0.107
       0.119
       0.128
       0.127
       0.120
       0.112
       0.104
       0.099
       0.101
       0.108
       0.119
       0.136
       0.157
       0.173
       0.181
       0.189
       0.199
       0.192
       0.154
       0.103
       0.067
       0.049
       0.037
       0.023
       0.016
       0.020
       0.030
       0.049
       0.078
       0.111
       0.141
       0.168
       0.193
       0.214
       0.232
       0.254
       0.278
       0.287
       0.269
       0.235
       0.202
       0.170
       0.131
       0.087
       0.047
       0.007
      -0.040
      -0.088
      -0.125
      -0.143
      -0.145
      -0.131
      -0.101
      -0.058
      -0.005
       0.056
       0.116
       0.165
       0.204
       0.247
       0.296
       0.333
       0.346
       0.349
       0.355
       0.355
       0.334
       0.294
       0.251
       0.214
       0.176
       0.138
       0.104
       0.080
       0.067
       0.065
       0.069
       0.068
       0.063
       0.064
       0.074
       0.084
       0.085
       0.084
       0.081
       0.065
       0.035
       0.009
       0.004
       0.014
       0.020
       0.016
       0.011
       0.011
       0.018
       0.030
       0.043
       0.055
       0.067
       0.085
       0.102
       0.106
       0.099
       0.096
       0.101
       0.102
       0.092
       0.084
       0.090
       0.105
       0.119
       0.132
       0.149
       0.159
       0.150
       0.124
       0.093
       0.064
       0.035
       0.004
      -0.038
      -0.093
      -0.149
      -0.190
      -0.212
      -0.229
      -0.240
      -0.231
      -0.200
      -0.168
      -0.152
      -0.144
      -0.134
      -0.129
      -0.135
      -0.151
      -0.167
      -0.179
      -0.188
      -0.188
      -0.180
      -0.164
      -0.145
      -0.127
      -0.116
      -0.117
      -0.119
      -0.108
      -0.092
      -0.088
      -0.101
      -0.114
      -0.124
      -0.143
      -0.174
      -0.201
      -0.213
      -0.216
      -0.218
      -0.212
      -0.193
      -0.165
      -0.138
      -0.119
      -0.107
      -0.098
      -0.078
      -0.041
       0.000
       0.028
       0.039
       0.047
       0.053
       0.044
       0.023
       0.008
       0.006
       0.008
       0.001
      -0.007
      -0.007
       0.001
