Origin Time       18/9/2011 13:11:59	 UTC
Lat.              27.6 N	
Long.             88.5 E	
Depth (Km)         16.0
Magnitude         5.0
 Region           India(Sikkim)-Nepar-Border                                       
 Above details taken from IMD 
    
Station Code      COB
Station Lat.       26.319  N
Station Long.      89.440  E
Station Height(m)   64.0
Site Class        C   Vs30 between 200 m/sec to 375 m/sec *  
Record Time       18.09.2011 13:12:18.419 UTC
Sampling Rate     200. Hz
 Record Duration   81.950 Sec.
 Direction         N-S (N positive)
Max. Acceleration     -9.622 cm/sec**2
     
  * For reference see Site Classification link of website 
     
 Base Line Corrected and Low Pass Filtered (Cut Off at 35 Hz) Time History
 Acceleration data in cm/sec**2
    
[...]
      -0.144
      -0.137
      -0.129
      -0.123
      -0.119
      -0.110
      -0.088
      -0.051
      -0.005
       0.037
       0.060
       0.063
       0.055
       0.047
       0.049
       0.062
       0.083
       0.106
       0.131
       0.154
       0.171
       0.175
       0.160
       0.129
       0.090
       0.051
       0.019
      -0.003
      -0.013
      -0.009
       0.008
       0.034
       0.059
       0.079
       0.084
       0.069
       0.027
      -0.038
      -0.108
      -0.161
      -0.182
      -0.171
      -0.143
      -0.117
      -0.102
      -0.096
      -0.094
      -0.091
      -0.083
      -0.070
      -0.050
      -0.026
      -0.004
       0.010
       0.012
       0.007
       0.003
       0.008
       0.023
       0.040
       0.049
       0.045
       0.030
       0.013
      -0.001
      -0.010
      -0.017
      -0.022
      -0.025
      -0.024
      -0.016
      -0.001
       0.020
       0.045
       0.066
       0.075
       0.065
       0.038
       0.006
      -0.016
      -0.017
       0.006
       0.047
       0.094
       0.133
       0.149
       0.134
       0.095
       0.048
       0.010
      -0.010
      -0.014
      -0.010
      -0.005
      -0.001
      -0.001
      -0.007
      -0.021
      -0.042
      -0.065
      -0.089
      -0.112
      -0.134
      -0.153
      -0.164
      -0.160
      -0.135
      -0.095
      -0.055
      -0.027
      -0.016
      -0.014
      -0.014
      -0.010
      -0.005
       0.001
       0.009
       0.023
       0.044
       0.065
       0.083
       0.100
       0.118
       0.139
       0.153
       0.149
       0.124
       0.086
       0.047
       0.021
       0.012
       0.018
       0.031
       0.041
       0.040
       0.026
       0.000
      -0.030
      -0.056
      -0.076
      -0.091
      -0.104
      -0.116
      -0.129
      -0.138
      -0.143
      -0.142
      -0.134
      -0.120
      -0.105
      -0.095
      -0.093
      -0.099
      -0.104
      -0.097
      -0.071
      -0.028
       0.021
       0.063
       0.091
       0.108
       0.119
       0.132
       0.148
       0.164
       0.176
       0.186
       0.192
       0.194
       0.189
       0.178
       0.164
       0.151
       0.136
       0.114
       0.082
       0.043
       0.007
      -0.015
      -0.023
      -0.023
      -0.027
      -0.039
      -0.061
      -0.090
      -0.121
      -0.149
      -0.167
      -0.170
      -0.161
      -0.150
      -0.146
      -0.151
      -0.157
      -0.156
      -0.138
      -0.106
      -0.062
      -0.015
       0.029
       0.058
       0.067
       0.054
       0.029
       0.004
      -0.011
      -0.015
      -0.010
       0.000
       0.017
       0.040
       0.067
       0.093
       0.116
       0.132
       0.139
       0.129
       0.102
       0.064
       0.029
       0.012
       0.016
       0.030
       0.037
       0.030
       0.015
       0.008
       0.017
       0.041
       0.070
       0.094
       0.107
       0.107
       0.095
       0.074
       0.054
       0.045
       0.051
       0.066
       0.075
       0.063
       0.030
      -0.015
      -0.061
      -0.100
      -0.128
      -0.146
      -0.151
      -0.148
      -0.143
      -0.146
      -0.156
      -0.164
      -0.159
      -0.138
      -0.114
      -0.103
      -0.113
      -0.136
      -0.157
      -0.164
      -0.153
      -0.130
      -0.103
      -0.078
      -0.058
      -0.041
      -0.025
      -0.005
       0.026
       0.071
       0.127
       0.182
       0.227
       0.255
       0.267
       0.268
       0.260
       0.245
       0.223
       0.194
       0.156
       0.109
       0.058
       0.011
      -0.020
      -0.034
      -0.036
      -0.038
      -0.051
      -0.073
      -0.097
      -0.113
      -0.116
      -0.109
      -0.092
      -0.071
      -0.051
      -0.034
      -0.022
      -0.008
       0.016
       0.051
       0.088
       0.112
       0.117
       0.104
       0.082
       0.058
       0.041
       0.037
       0.046
       0.059
       0.062
       0.045
       0.012
      -0.023
      -0.043
      -0.039
      -0.014
       0.011
       0.020
       0.005
      -0.026
      -0.060
      -0.082
      -0.090
      -0.085
      -0.072
      -0.056
      -0.044
      -0.039
      -0.037
      -0.031
      -0.014
       0.014
       0.042
       0.057
       0.050
       0.026
       0.000
      -0.016
      -0.017
      -0.005
       0.015
       0.039
       0.060
       0.074
       0.078
       0.075
       0.073
       0.080
       0.094
       0.105
       0.104
       0.092
       0.077
       0.069
       0.070
       0.077
       0.083
       0.085
       0.079
       0.061
       0.030
      -0.006
      -0.035
      -0.043
      -0.030
      -0.010
      -0.002
      -0.017
      -0.046
      -0.075
      -0.090
      -0.091
      -0.089
      -0.095
      -0.115
      -0.145
      -0.183
      -0.223
      -0.258
      -0.278
      -0.274
      -0.249
      -0.212
      -0.178
      -0.156
      -0.143
      -0.129
      -0.106
      -0.072
      -0.031
       0.013
       0.053
       0.083
       0.098
       0.094
       0.075
       0.051
       0.032
       0.020
       0.013
       0.006
      -0.001
      -0.003
       0.004
       0.025
       0.057
       0.093
       0.128
       0.152
       0.161
       0.152
       0.130
       0.104
       0.084
       0.074
       0.069
       0.065
       0.066
       0.077
       0.100
       0.124
       0.141
       0.145
       0.139
       0.129
       0.116
       0.101
       0.088
       0.083
       0.090
       0.108
       0.126
       0.130
       0.118
       0.098
       0.079
       0.066
       0.054
       0.038
       0.017
      -0.006
      -0.028
      -0.045
      -0.056
      -0.057
      -0.045
      -0.024
      -0.007
      -0.007
      -0.028
      -0.061
      -0.092
      -0.109
      -0.109
      -0.102
      -0.095
      -0.092
      -0.092
      -0.093
      -0.090
      -0.082
      -0.066
      -0.042
      -0.014
       0.014
       0.037
       0.049
       0.051
       0.044
       0.032
       0.019
       0.007
      -0.005
      -0.020
      -0.040
      -0.057
      -0.060
      -0.039
       0.006
       0.063
       0.110
       0.129
       0.113
       0.067
       0.006
      -0.058
      -0.118
      -0.167
      -0.204
      -0.225
      -0.228
      -0.210
      -0.172
      -0.118
      -0.056
       0.001
       0.039
       0.052
       0.040
       0.013
      -0.013
      -0.027
      -0.025
      -0.008
       0.015
       0.032
       0.036
       0.024
       0.005
      -0.008
       0.000
       0.037
       0.090
       0.139
       0.165
       0.162
       0.136
       0.102
       0.067
       0.036
       0.008
      -0.017
      -0.040
      -0.061
      -0.075
      -0.077
      -0.065
      -0.044
      -0.024
      -0.008
       0.001
       0.009
       0.020
       0.037
       0.063
       0.098
       0.135
       0.166
       0.181
       0.174
       0.148
       0.113
       0.085
       0.076
       0.087
       0.115
       0.150
       0.181
       0.202
       0.205
       0.194
       0.174
       0.154
       0.136
       0.118
       0.092
       0.058
       0.024
       0.000
      -0.007
       0.000
       0.007
       0.003
      -0.021
      -0.062
      -0.106
      -0.141
      -0.159
      -0.161
      -0.152
      -0.140
      -0.127
      -0.118
      -0.113
      -0.113
      -0.112
      -0.105
      -0.088
      -0.063
      -0.039
      -0.020
      -0.009
       0.000
       0.008
       0.018
       0.028
       0.036
       0.036
       0.024
      -0.004
      -0.043
      -0.079
      -0.097
      -0.092
      -0.073
      -0.053
      -0.041
      -0.034
      -0.026
      -0.014
      -0.004
      -0.004
      -0.016
      -0.036
      -0.061
      -0.088
      -0.113
      -0.133
      -0.139
      -0.128
      -0.099
      -0.059
      -0.016
       0.021
       0.046
       0.058
       0.059
       0.053
       0.041
       0.025
       0.007
      -0.009
      -0.024
      -0.032
      -0.029
      -0.014
       0.008
       0.025
       0.026
       0.012
      -0.007
      -0.015
      -0.003
       0.028
       0.066
       0.102
       0.123
       0.124
       0.101
       0.058
       0.005
      -0.042
      -0.074
      -0.090
      -0.097
      -0.100
      -0.095
      -0.078
      -0.047
      -0.006
       0.035
       0.067
       0.085
       0.085
       0.071
       0.053
       0.044
       0.054
       0.081
       0.113
       0.135
       0.140
       0.132
       0.121
       0.112
       0.108
       0.104
       0.097
       0.089
       0.080
       0.070
       0.058
       0.045
       0.036
       0.039
       0.053
       0.071
       0.077
       0.065
       0.035
      -0.003
      -0.033
      -0.045
      -0.035
      -0.008
       0.021
       0.040
       0.043
       0.035
       0.028
       0.027
       0.028
       0.017
      -0.014
      -0.062
      -0.114
      -0.154
      -0.177
      -0.182
      -0.174
      -0.158
      -0.142
      -0.133
      -0.136
      -0.151
      -0.168
      -0.174
      -0.161
      -0.131
      -0.099
      -0.077
      -0.069
      -0.071
      -0.070
      -0.059
      -0.040
      -0.019
       0.000
       0.015
       0.028
       0.037
       0.041
       0.044
       0.048
       0.054
       0.058
       0.054
       0.039
       0.018
      -0.002
      -0.014
      -0.011
       0.007
       0.036
       0.069
       0.091
       0.094
       0.077
       0.050
       0.027
       0.016
       0.014
       0.012
       0.001
      -0.021
      -0.043
      -0.055
      -0.047
      -0.023
       0.003
       0.020
       0.022
       0.018
       0.016
       0.022
       0.035
       0.051
       0.068
       0.085
       0.097
       0.101
       0.094
       0.080
       0.069
       0.071
       0.090
       0.116
       0.136
       0.140
       0.127
       0.105
       0.082
       0.065
       0.058
       0.057
       0.056
       0.054
       0.051
       0.052
       0.058
       0.066
       0.071
       0.070
       0.069
       0.073
       0.082
       0.092
       0.099
       0.103
       0.103
       0.094
       0.067
       0.018
      -0.040
      -0.092
      -0.122
      -0.130
      -0.125
      -0.114
      -0.106
      -0.103
      -0.111
      -0.130
      -0.154
      -0.169
      -0.163
      -0.136
      -0.102
      -0.077
      -0.069
      -0.074
      -0.080
      -0.082
      -0.081
      -0.080
      -0.076
      -0.067
      -0.054
      -0.044
      -0.041
      -0.043
      -0.043
      -0.038
      -0.032
      -0.035
      -0.054
      -0.082
      -0.108
      -0.122
      -0.115
      -0.088
      -0.045
       0.000
       0.035
       0.051
       0.049
       0.041
       0.039
       0.048
       0.068
       0.091
       0.116
       0.146
       0.182
       0.225
       0.271
       0.315
       0.352
       0.377
       0.387
       0.380
       0.359
       0.335
       0.321
       0.325
       0.342
       0.358
       0.360
       0.346
       0.323
       0.301
       0.284
       0.268
       0.245
       0.213
       0.171
       0.119
       0.058
      -0.010
      -0.077
      -0.135
      -0.180
      -0.216
      -0.251
      -0.292
      -0.338
      -0.382
      -0.416
      -0.434
      -0.438
      -0.434
      -0.431
      -0.435
      -0.449
      -0.465
      -0.470
      -0.453
      -0.413
      -0.359
      -0.310
      -0.279
      -0.274
      -0.290
      -0.318
      -0.346
      -0.365
      -0.364
      -0.341
      -0.299
      -0.247
      -0.193
      -0.138
      -0.078
      -0.015
       0.041
       0.077
       0.086
       0.071
       0.046
       0.025
       0.017
       0.022
       0.037
       0.055
       0.071
       0.084
       0.090
       0.090
       0.085
       0.075
       0.063
       0.048
       0.033
       0.016
      -0.002
      -0.019
      -0.030
      -0.034
      -0.030
      -0.023
      -0.019
      -0.022
      -0.033
      -0.048
      -0.057
      -0.050
      -0.023
       0.015
       0.048
       0.068
       0.075
       0.075
       0.075
       0.083
       0.104
       0.144
       0.204
       0.279
       0.359
       0.438
       0.520
       0.611
       0.716
       0.827
       0.932
       1.023
       1.103
       1.182
       1.270
       1.372
       1.487
       1.610
       1.731
       1.841
       1.932
       2.000
       2.052
       2.098
       2.156
       2.235
       2.338
       2.456
       2.577
       2.696
       2.811
       2.920
       3.020
       3.102
       3.159
       3.189
       3.195
       3.182
       3.154
       3.115
       3.069
       3.017
       2.958
       2.883
       2.784
       2.659
       2.507
       2.331
       2.137
       1.930
       1.716
       1.498
       1.271
       1.022
       0.740
       0.422
       0.069
      -0.310
      -0.713
      -1.140
      -1.593
      -2.067
      -2.550
      -3.027
      -3.488
      -3.933
      -4.365
      -4.790
      -5.213
      -5.638
      -6.069
      -6.509
      -6.955
      -7.397
      -7.817
      -8.192
      -8.507
      -8.759
      -8.962
      -9.132
      -9.281
      -9.410
      -9.513
      -9.583
      -9.618
      -9.622
      -9.597
      -9.539
      -9.439
      -9.283
      -9.067
      -8.792
      -8.473
      -8.123
      -7.749
      -7.348
      -6.913
      -6.439
      -5.927
      -5.377
      -4.792
      -4.170
      -3.517
      -2.840
      -2.144
      -1.429
      -0.693
       0.057
       0.806
       1.534
       2.234
       2.906
       3.555
       4.180
       4.776
       5.342
       5.881
       6.395
       6.873
       7.297
       7.650
       7.934
       8.159
       8.341
       8.480
       8.565
       8.587
       8.551
       8.477
       8.385
       8.283
       8.168
       8.031
       7.865
       7.666
       7.432
       7.167
       6.883
       6.600
       6.339
       6.115
       5.929
       5.771
       5.630
       5.499
       5.373
       5.250
       5.133
       5.024
       4.924
       4.828
       4.728
       4.616
       4.491
       4.364
       4.245
       4.134
       4.018
       3.881
       3.713
       3.516
       3.298
       3.066
       2.826
       2.584
       2.340
       2.090
       1.819
       1.509
       1.148
       0.738
       0.290
      -0.191
      -0.708
      -1.271
      -1.883
      -2.534
      -3.203
      -3.865
      -4.506
      -5.125
      -5.723
      -6.301
      -6.855
      -7.381
      -7.869
      -8.306
      -8.673
      -8.954
      -9.142
      -9.238
      -9.248
      -9.177
      -9.026
      -8.797
      -8.488
      -8.099
      -7.625
      -7.061
      -6.410
      -5.690
      -4.927
      -4.147
      -3.367
      -2.592
      -1.831
      -1.091
      -0.378
       0.312
       0.992
       1.672
       2.353
       3.024
       3.670
       4.276
       4.826
       5.314
       5.734
       6.089
       6.385
       6.630
       6.832
       6.988
       7.094
       7.139
       7.117
       7.022
       6.849
       6.594
       6.254
       5.836
       5.352
       4.815
       4.232
       3.605
       2.936
       2.231
       1.498
       0.740
      -0.042
      -0.845
      -1.652
      -2.433
      -3.159
      -3.810
      -4.377
      -4.853
      -5.233
      -5.515
      -5.706
      -5.822
      -5.872
      -5.859
      -5.775
      -5.623
      -5.418
      -5.190
      -4.960
      -4.738
      -4.521
      -4.302
      -4.078
      -3.846
      -3.599
      -3.329
      -3.033
      -2.714
      -2.381
      -2.039
      -1.689
      -1.328
      -0.964
      -0.614
      -0.296
      -0.015
       0.238
       0.479
       0.723
       0.981
       1.263
       1.573
       1.902
       2.232
       2.541
       2.812
       3.037
       3.215
       3.342
       3.413
       3.425
       3.385
       3.306
       3.207
       3.093
       2.960
       2.799
       2.605
       2.381
       2.125
       1.832
       1.501
       1.147
       0.798
       0.484
       0.218
       0.000
      -0.179
      -0.321
      -0.423
      -0.478
      -0.489
      -0.467
      -0.417
      -0.342
      -0.239
      -0.112
       0.030
       0.181
       0.335
       0.491
       0.645
       0.793
       0.938
       1.085
       1.244
       1.412
       1.578
       1.721
       1.824
       1.878
       1.878
       1.816
       1.689
       1.507
       1.287
       1.055
       0.822
       0.585
       0.335
       0.065
      -0.215
      -0.495
      -0.765
      -1.019
      -1.252
      -1.452
      -1.612
      -1.726
      -1.796
      -1.825
      -1.813
      -1.762
      -1.685
      -1.607
      -1.559
      -1.560
      -1.612
      -1.704
      -1.822
      -1.959
      -2.106
      -2.254
      -2.387
      -2.495
      -2.576
      -2.632
      -2.665
      -2.668
      -2.637
      -2.570
      -2.462
      -2.298
      -2.058
      -1.721
      -1.292
      -0.794
      -0.264
       0.272
       0.794
       1.294
       1.761
       2.180
       2.543
       2.853
       3.121
       3.357
       3.558
       3.718
       3.833
       3.909
       3.953
       3.966
       3.942
       3.872
       3.753
       3.587
       3.370
       3.099
       2.779
       2.421
       2.046
       1.662
       1.269
       0.861
       0.436
       0.008
      -0.412
      -0.813
      -1.193
      -1.544
      -1.852
      -2.106
      -2.309
      -2.481
      -2.640
      -2.797
      -2.943
      -3.066
      -3.157
      -3.223
      -3.271
      -3.304
      -3.313
      -3.285
      -3.214
      -3.097
      -2.933
      -2.719
      -2.452
      -2.139
      -1.794
      -1.433
      -1.068
      -0.711
      -0.371
      -0.059
       0.219
       0.467
       0.699
       0.923
       1.134
       1.316
       1.455
       1.548
       1.597
       1.606
       1.573
       1.494
       1.378
       1.240
       1.094
       0.943
       0.775
       0.578
       0.350
       0.101
      -0.154
      -0.404
      -0.637
      -0.846
      -1.023
      -1.167
      -1.287
      -1.393
      -1.485
      -1.558
      -1.605
      -1.629
      -1.640
      -1.646
      -1.647
      -1.628
      -1.576
      -1.480
      -1.336
      -1.141
      -0.892
      -0.587
      -0.236
       0.138
       0.512
       0.869
       1.203
       1.515
       1.803
       2.059
       2.282
       2.478
       2.660
       2.840
       3.017
       3.180
       3.316
       3.409
       3.446
       3.420
       3.337
       3.212
       3.072
       2.938
       2.817
       2.699
       2.567
       2.410
       2.229
       2.028
       1.811
       1.578
       1.334
       1.085
       0.840
       0.599
       0.361
       0.132
      -0.076
      -0.249
      -0.388
      -0.516
      -0.665
      -0.859
      -1.106
      -1.405
      -1.751
      -2.131
      -2.520
      -2.883
      -3.181
      -3.382
      -3.473
