Origin Time       4/2/2011 13:53:39	 
Lat.              24.8 N	
Long.             94.6 E	
Depth (Km)         30.0
Magnitude         6.4
 Region           Myanmar-India-Border                                             
 Above details taken from IMD 
   
Station Code      COB
Station Lat.       26.319
Station Long.      89.440
Station Height(m)   64.0
Site Class        C   Vs30 between 200 m/sec to 375 m/sec *  
Record Time       04.02.2011 13:55:25.679
Sampling Rate     200. Hz
 Record Duration   80.005 Sec.
 Direction         Vert. (Up positive)
Max. Acceleration     -3.903 cm/sec**2
     
  * For reference see Site Classification link of website 
     
 Base Line Corrected and Low Pass Filtered (Cut Off at 35 Hz) Time History
 Acceleration data in cm/sec**2
    
[...]
       0.038
       0.354
       0.575
       0.627
       0.509
       0.286
       0.041
      -0.160
      -0.292
      -0.362
      -0.382
      -0.353
      -0.274
      -0.155
      -0.035
       0.034
       0.019
      -0.069
      -0.180
      -0.260
      -0.288
      -0.274
      -0.238
      -0.186
      -0.116
      -0.031
       0.057
       0.136
       0.212
       0.302
       0.412
       0.517
       0.571
       0.532
       0.404
       0.232
       0.075
      -0.034
      -0.100
      -0.151
      -0.213
      -0.284
      -0.350
      -0.396
      -0.418
      -0.419
      -0.391
      -0.319
      -0.190
      -0.020
       0.150
       0.275
       0.338
       0.356
       0.357
       0.345
       0.295
       0.179
       0.000
      -0.187
      -0.307
      -0.309
      -0.208
      -0.074
       0.019
       0.048
       0.053
       0.083
       0.142
       0.175
       0.115
      -0.054
      -0.275
      -0.447
      -0.489
      -0.379
      -0.158
       0.113
       0.380
       0.615
       0.795
       0.889
       0.864
       0.703
       0.428
       0.103
      -0.190
      -0.384
      -0.450
      -0.409
      -0.307
      -0.199
      -0.117
      -0.068
      -0.042
      -0.031
      -0.049
      -0.115
      -0.224
      -0.322
      -0.330
      -0.193
       0.069
       0.368
       0.595
       0.690
       0.664
       0.578
       0.484
       0.395
       0.291
       0.155
       0.003
      -0.121
      -0.170
      -0.137
      -0.065
      -0.015
      -0.018
      -0.052
      -0.064
      -0.020
       0.064
       0.141
       0.172
       0.155
       0.111
       0.060
       0.017
      -0.014
      -0.042
      -0.088
      -0.155
      -0.213
      -0.219
      -0.152
      -0.031
       0.100
       0.202
       0.271
       0.336
       0.433
       0.572
       0.716
       0.808
       0.804
       0.702
       0.528
       0.319
       0.108
      -0.081
      -0.241
      -0.382
      -0.523
      -0.659
      -0.747
      -0.721
      -0.538
      -0.218
       0.150
       0.453
       0.602
       0.565
       0.368
       0.071
      -0.261
      -0.571
      -0.802
      -0.896
      -0.803
      -0.515
      -0.091
       0.358
       0.712
       0.889
       0.863
       0.649
       0.292
      -0.132
      -0.517
      -0.748
      -0.757
      -0.568
      -0.291
      -0.062
       0.040
       0.033
      -0.009
      -0.017
       0.021
       0.071
       0.094
       0.092
       0.106
       0.168
       0.268
       0.359
       0.399
       0.375
       0.308
       0.232
       0.174
       0.150
       0.163
       0.207
       0.263
       0.300
       0.274
       0.154
      -0.061
      -0.326
      -0.570
      -0.723
      -0.748
      -0.654
      -0.494
      -0.347
      -0.285
      -0.345
      -0.511
      -0.723
      -0.905
      -0.997
      -0.966
      -0.817
      -0.589
      -0.337
      -0.118
       0.039
       0.131
       0.182
       0.221
       0.268
       0.324
       0.365
       0.358
       0.286
       0.173
       0.076
       0.048
       0.090
       0.154
       0.177
       0.132
       0.056
       0.017
       0.057
       0.152
       0.232
       0.227
       0.108
      -0.095
      -0.319
      -0.499
      -0.610
      -0.681
      -0.759
      -0.866
      -0.969
      -0.995
      -0.884
      -0.632
      -0.286
       0.088
       0.442
       0.754
       1.008
       1.180
       1.243
       1.186
       1.025
       0.793
       0.520
       0.227
      -0.067
      -0.330
      -0.513
      -0.574
      -0.513
      -0.377
      -0.234
      -0.127
      -0.059
       0.003
       0.085
       0.181
       0.259
       0.289
       0.274
       0.251
       0.256
       0.297
       0.339
       0.336
       0.266
       0.162
       0.092
       0.113
       0.224
       0.356
       0.415
       0.350
       0.179
      -0.031
      -0.210
      -0.305
      -0.295
      -0.192
      -0.033
       0.141
       0.309
       0.477
       0.644
       0.775
       0.801
       0.663
       0.357
      -0.049
      -0.449
      -0.747
      -0.903
      -0.923
      -0.835
      -0.661
      -0.423
      -0.151
       0.116
       0.339
       0.489
       0.550
       0.521
       0.412
       0.250
       0.070
      -0.087
      -0.191
      -0.229
      -0.208
      -0.136
      -0.006
       0.204
       0.504
       0.861
       1.190
       1.381
       1.355
       1.103
       0.688
       0.206
      -0.256
      -0.638
      -0.907
      -1.036
      -1.015
      -0.846
      -0.554
      -0.185
       0.184
       0.451
       0.513
       0.327
      -0.048
      -0.473
      -0.800
      -0.946
      -0.913
      -0.757
      -0.546
      -0.331
      -0.139
       0.019
       0.145
       0.235
       0.272
       0.239
       0.149
       0.057
       0.037
       0.139
       0.352
       0.607
       0.797
       0.834
       0.697
       0.447
       0.188
      -0.011
      -0.156
      -0.305
      -0.487
      -0.660
      -0.744
      -0.689
      -0.531
      -0.364
      -0.269
      -0.264
      -0.308
      -0.347
      -0.353
      -0.331
      -0.285
      -0.204
      -0.071
       0.113
       0.310
       0.466
       0.545
       0.554
       0.530
       0.501
       0.458
       0.371
       0.214
      -0.006
      -0.245
      -0.449
      -0.585
      -0.652
      -0.670
      -0.659
      -0.626
      -0.571
      -0.497
      -0.408
      -0.311
      -0.226
      -0.186
      -0.221
      -0.320
      -0.423
      -0.440
      -0.300
       0.005
       0.399
       0.744
       0.894
       0.770
       0.395
      -0.129
      -0.664
      -1.089
      -1.319
      -1.316
      -1.082
      -0.659
      -0.134
       0.374
       0.746
       0.903
       0.830
       0.581
       0.258
      -0.011
      -0.124
      -0.045
       0.183
       0.472
       0.730
       0.889
       0.903
       0.740
       0.389
      -0.106
      -0.636
      -1.066
      -1.300
      -1.328
      -1.213
      -1.024
      -0.796
      -0.531
      -0.232
       0.068
       0.311
       0.451
       0.475
       0.411
       0.297
       0.170
       0.053
      -0.044
      -0.132
      -0.243
      -0.408
      -0.632
      -0.866
      -1.014
      -0.984
      -0.759
      -0.417
      -0.073
       0.208
       0.461
       0.766
       1.153
       1.550
       1.821
       1.848
       1.606
       1.163
       0.640
       0.160
      -0.183
      -0.335
      -0.292
      -0.108
       0.131
       0.348
       0.501
       0.583
       0.584
       0.481
       0.257
      -0.081
      -0.489
      -0.887
      -1.181
      -1.294
      -1.215
      -1.012
      -0.809
      -0.705
      -0.724
      -0.804
      -0.846
      -0.771
      -0.556
      -0.227
       0.153
       0.509
       0.783
       0.955
       1.048
       1.101
       1.121
       1.069
       0.896
       0.599
       0.257
      -0.023
      -0.178
      -0.227
      -0.233
      -0.249
      -0.292
      -0.354
      -0.411
      -0.438
      -0.420
      -0.374
      -0.342
      -0.370
      -0.466
      -0.586
      -0.656
      -0.625
      -0.502
      -0.348
      -0.246
      -0.248
      -0.356
      -0.524
      -0.679
      -0.759
      -0.739
      -0.620
      -0.418
      -0.146
       0.181
       0.528
       0.850
       1.102
       1.262
       1.334
       1.333
       1.270
       1.164
       1.047
       0.963
       0.934
       0.924
       0.838
       0.577
       0.105
      -0.516
      -1.167
      -1.735
      -2.169
      -2.475
      -2.667
      -2.722
      -2.580
      -2.188
      -1.571
      -0.838
      -0.139
       0.424
       0.830
       1.109
       1.288
       1.368
       1.343
       1.237
       1.100
       0.978
       0.879
       0.781
       0.661
       0.526
       0.391
       0.252
       0.079
      -0.147
      -0.399
      -0.602
      -0.671
      -0.566
      -0.316
      -0.011
       0.246
       0.380
       0.380
       0.295
       0.197
       0.138
       0.123
       0.125
       0.131
       0.168
       0.296
       0.565
       0.958
       1.386
       1.726
       1.871
       1.762
       1.396
       0.822
       0.121
      -0.605
      -1.235
      -1.637
      -1.698
      -1.381
      -0.751
       0.042
       0.828
       1.464
       1.863
       1.974
       1.773
       1.274
       0.565
      -0.178
      -0.743
      -0.973
      -0.821
      -0.364
       0.247
       0.843
       1.295
       1.525
       1.507
       1.240
       0.744
       0.064
      -0.721
      -1.492
      -2.113
      -2.472
      -2.508
      -2.233
      -1.719
      -1.083
      -0.446
       0.103
       0.534
       0.859
       1.101
       1.268
       1.355
       1.353
       1.254
       1.054
       0.771
       0.455
       0.184
       0.036
       0.057
       0.244
       0.544
       0.871
       1.125
       1.214
       1.076
       0.702
       0.124
      -0.606
      -1.414
      -2.196
      -2.810
      -3.122
      -3.071
      -2.689
      -2.069
      -1.307
      -0.482
       0.321
       0.995
       1.438
       1.624
       1.629
       1.574
       1.529
       1.442
       1.178
       0.630
      -0.165
      -1.025
      -1.731
      -2.164
      -2.347
      -2.359
      -2.235
      -1.933
      -1.402
      -0.656
       0.185
       0.936
       1.417
       1.534
       1.300
       0.805
       0.176
      -0.454
      -0.951
      -1.189
      -1.094
      -0.682
      -0.069
       0.573
       1.086
       1.363
       1.347
       1.021
       0.417
      -0.349
      -1.088
      -1.581
      -1.677
      -1.356
      -0.740
      -0.023
       0.617
       1.079
       1.327
       1.346
       1.127
       0.693
       0.141
      -0.374
      -0.696
      -0.740
      -0.510
      -0.081
       0.434
       0.892
       1.147
       1.104
       0.774
       0.274
      -0.233
      -0.618
      -0.822
      -0.833
      -0.636
      -0.217
       0.389
       1.034
       1.485
       1.543
       1.148
       0.412
      -0.455
      -1.227
      -1.729
      -1.855
      -1.573
      -0.944
      -0.128
       0.644
       1.147
       1.266
       1.033
       0.583
       0.064
      -0.424
      -0.825
      -1.094
      -1.184
      -1.059
      -0.740
      -0.346
      -0.080
      -0.141
      -0.588
      -1.267
      -1.879
      -2.143
      -1.935
      -1.307
      -0.409
       0.593
       1.564
       2.387
       2.955
       3.181
       3.025
       2.512
       1.733
       0.822
      -0.051
      -0.707
      -1.008
      -0.912
      -0.494
       0.077
       0.606
       0.931
       0.970
       0.727
       0.292
      -0.197
      -0.589
      -0.766
      -0.684
      -0.376
       0.063
       0.524
       0.926
       1.232
       1.431
       1.500
       1.409
       1.165
       0.849
       0.583
       0.445
       0.402
       0.346
       0.179
      -0.105
      -0.439
      -0.747
      -0.996
      -1.170
      -1.223
      -1.084
      -0.726
      -0.230
       0.233
       0.494
       0.478
       0.236
      -0.111
      -0.444
      -0.699
      -0.859
      -0.940
      -0.963
      -0.949
      -0.909
      -0.846
      -0.773
      -0.724
      -0.744
      -0.856
      -1.024
      -1.164
      -1.173
      -0.962
      -0.474
       0.288
       1.227
       2.139
       2.772
       2.930
       2.575
       1.846
       0.979
       0.178
      -0.461
      -0.935
      -1.255
      -1.397
      -1.320
      -1.013
      -0.544
      -0.056
       0.265
       0.259
      -0.140
      -0.840
      -1.604
      -2.137
      -2.223
      -1.834
      -1.133
      -0.359
       0.290
       0.717
       0.913
       0.918
       0.789
       0.581
       0.325
       0.033
      -0.277
      -0.554
      -0.714
      -0.673
      -0.409
       0.005
       0.429
       0.725
       0.812
       0.681
       0.378
       0.002
      -0.317
      -0.465
      -0.424
      -0.292
      -0.196
      -0.183
      -0.168
      -0.024
       0.290
       0.652
       0.857
       0.758
       0.371
      -0.156
      -0.657
      -1.037
      -1.270
      -1.350
      -1.265
      -1.004
      -0.577
      -0.026
       0.584
       1.156
       1.587
       1.792
       1.752
       1.524
       1.213
       0.917
       0.674
       0.472
       0.282
       0.103
      -0.041
      -0.139
      -0.219
      -0.335
      -0.531
      -0.811
      -1.133
      -1.411
      -1.532
      -1.406
      -1.036
      -0.548
      -0.122
       0.138
       0.269
       0.391
       0.564
       0.717
       0.695
       0.397
      -0.126
      -0.671
      -0.989
      -0.939
      -0.550
       0.010
       0.564
       1.023
       1.400
       1.744
       2.054
       2.254
       2.236
       1.927
       1.331
       0.534
      -0.317
      -1.065
      -1.600
      -1.892
      -1.991
      -1.980
      -1.899
      -1.715
      -1.350
      -0.775
      -0.071
       0.596
       1.070
       1.295
       1.316
       1.205
       1.005
       0.736
       0.453
       0.264
       0.291
       0.578
       1.064
       1.621
       2.145
       2.579
       2.857
       2.849
       2.394
       1.418
       0.034
      -1.468
      -2.749
      -3.576
      -3.903
      -3.828
      -3.478
      -2.905
      -2.085
      -1.017
       0.188
       1.293
       2.042
       2.299
       2.112
       1.674
       1.201
       0.821
       0.556
       0.375
       0.257
       0.212
       0.255
       0.383
       0.559
       0.726
       0.828
       0.823
       0.701
       0.483
       0.214
      -0.058
      -0.300
      -0.499
      -0.648
      -0.733
      -0.740
      -0.669
      -0.544
      -0.384
      -0.195
       0.041
       0.328
       0.635
       0.895
       1.035
       1.011
       0.837
       0.565
       0.247
      -0.104
      -0.493
      -0.884
      -1.168
      -1.212
      -0.959
      -0.490
       0.002
       0.317
       0.354
       0.138
      -0.223
      -0.606
      -0.918
      -1.088
      -1.062
      -0.821
      -0.410
       0.058
       0.460
       0.731
       0.875
       0.919
       0.866
       0.705
       0.458
       0.210
       0.056
       0.024
       0.043
      -0.009
      -0.207
      -0.537
      -0.901
      -1.183
      -1.299
      -1.221
      -0.985
      -0.662
      -0.318
       0.008
       0.301
       0.521
       0.589
       0.444
       0.125
      -0.226
      -0.450
      -0.486
      -0.397
      -0.297
      -0.245
      -0.209
      -0.129
       0.000
       0.111
       0.135
       0.068
      -0.034
      -0.111
      -0.147
      -0.167
      -0.204
      -0.241
      -0.212
      -0.037
       0.282
       0.627
       0.829
       0.799
       0.586
       0.322
       0.098
      -0.088
      -0.276
      -0.452
      -0.526
      -0.404
      -0.074
       0.355
       0.730
       0.954
       1.022
       0.969
       0.810
       0.531
       0.148
      -0.257
      -0.580
      -0.785
      -0.951
      -1.218
      -1.653
      -2.152
      -2.483
      -2.436
      -1.962
      -1.198
      -0.351
       0.434
       1.108
       1.660
       2.052
       2.215
       2.116
       1.790
       1.312
       0.740
       0.110
      -0.503
      -0.951
      -1.066
      -0.786
      -0.241
       0.306
       0.624
       0.650
       0.496
       0.334
       0.259
       0.233
       0.146
      -0.071
      -0.369
      -0.598
      -0.617
      -0.405
      -0.098
       0.128
       0.192
       0.166
       0.190
       0.331
       0.546
       0.733
       0.834
       0.846
       0.774
       0.583
       0.242
      -0.206
      -0.627
      -0.872
      -0.882
      -0.716
      -0.485
      -0.253
      -0.001
       0.325
       0.712
       1.050
       1.191
       1.052
       0.671
       0.174
      -0.313
      -0.724
      -1.055
      -1.306
      -1.438
      -1.385
      -1.111
      -0.640
      -0.044
       0.594
       1.197
       1.683
       1.955
       1.939
       1.634
       1.135
       0.581
       0.070
      -0.383
      -0.803
      -1.171
      -1.395
      -1.376
      -1.105
      -0.706
      -0.368
      -0.226
      -0.291
      -0.470
      -0.648
      -0.769
      -0.842
      -0.893
      -0.910
      -0.833
      -0.595
      -0.193
       0.287
       0.713
       0.992
       1.133
       1.226
       1.348
       1.483
       1.537
       1.428
       1.161
       0.818
       0.486
       0.212
      -0.002
      -0.178
      -0.345
      -0.531
      -0.743
      -0.954
      -1.116
      -1.188
      -1.167
      -1.078
      -0.932
      -0.708
      -0.391
      -0.042
       0.191
       0.169
      -0.116
      -0.499
      -0.748
      -0.724
      -0.467
      -0.131
       0.136
       0.267
       0.268
       0.178
       0.031
      -0.158
      -0.396
      -0.711
      -1.125
      -1.610
      -2.050
      -2.263
      -2.098
      -1.551
      -0.785
      -0.037
       0.515
       0.835
       1.004
       1.129
       1.245
       1.285
       1.141
       0.775
       0.285
      -0.129
      -0.279
      -0.091
       0.348
       0.846
       1.203
       1.309
       1.176
       0.903
       0.604
       0.344
       0.120
      -0.104
      -0.327
      -0.469
      -0.422
      -0.147
       0.275
       0.694
       0.997
       1.177
       1.300
       1.420
       1.522
       1.529
       1.361
       0.975
       0.377
      -0.380
      -1.207
      -1.981
      -2.547
      -2.768
      -2.588
      -2.065
      -1.334
      -0.542
       0.187
       0.742
       1.011
       0.917
       0.488
      -0.105
      -0.613
      -0.845
      -0.754
      -0.416
       0.075
       0.669
       1.324
       1.944
       2.385
       2.529
       2.369
       2.014
       1.620
       1.297
       1.068
       0.880
       0.664
       0.381
       0.045
      -0.305
      -0.627
      -0.897
      -1.106
      -1.255
      -1.337
      -1.325
      -1.182
      -0.919
      -0.611
      -0.365
      -0.251
      -0.256
      -0.302
      -0.296
      -0.198
      -0.017
       0.226
       0.535
       0.914
       1.318
       1.641
       1.759
       1.605
       1.212
       0.698
       0.201
      -0.184
      -0.429
      -0.562
      -0.629
      -0.640
      -0.563
      -0.362
      -0.071
       0.198
       0.318
       0.240
       0.028
      -0.199
      -0.355
      -0.406
      -0.342
      -0.134
       0.229
       0.675
       1.051
       1.213
       1.132
       0.905
       0.656
       0.418
       0.124
      -0.290
      -0.787
      -1.227
      -1.460
      -1.437
      -1.251
      -1.069
      -1.015
      -1.101
      -1.242
      -1.328
      -1.281
      -1.080
      -0.756
      -0.373
       0.002
       0.321
       0.551
       0.669
       0.671
       0.583
       0.452
       0.317
       0.188
       0.044
      -0.134
      -0.332
      -0.478
      -0.473
      -0.256
       0.124
