Origin Time       4/2/2011 13:53:39	  UTC
Lat.              24.8 N	
Long.             94.6 E	
Depth (Km)         30.0
Magnitude         6.4
 Region           Myanmar-India-Border                                             
 Above details taken from IMD 
    
Station Code      COB
Station Lat.       26.319  N
Station Long.      89.440  E
Station Height(m)   64.0
Site Class        C   Vs30 between 200 m/sec to 375 m/sec *  
Record Time       04.02.2011 13:55:25.679 UTC
Sampling Rate     200. Hz
 Record Duration   80.005 Sec.
 Direction         N-S (N positive)
Max. Acceleration      3.011 cm/sec**2
     
  * For reference see Site Classification link of website 
     
 Base Line Corrected and Low Pass Filtered (Cut Off at 35 Hz) Time History
 Acceleration data in cm/sec**2
    
[...]
      -0.753
      -0.868
      -0.952
      -0.957
      -0.845
      -0.614
      -0.305
       0.010
       0.259
       0.394
       0.410
       0.339
       0.242
       0.187
       0.227
       0.377
       0.619
       0.914
       1.228
       1.529
       1.793
       1.993
       2.115
       2.158
       2.138
       2.076
       1.978
       1.839
       1.655
       1.432
       1.195
       0.967
       0.770
       0.616
       0.514
       0.468
       0.460
       0.458
       0.423
       0.339
       0.224
       0.121
       0.077
       0.112
       0.220
       0.374
       0.531
       0.641
       0.663
       0.585
       0.445
       0.323
       0.298
       0.409
       0.626
       0.881
       1.099
       1.236
       1.274
       1.207
       1.037
       0.779
       0.484
       0.221
       0.059
       0.038
       0.164
       0.415
       0.752
       1.128
       1.499
       1.819
       2.044
       2.137
       2.085
       1.905
       1.641
       1.350
       1.080
       0.861
       0.692
       0.552
       0.411
       0.240
       0.018
      -0.250
      -0.534
      -0.782
      -0.947
      -1.017
      -1.023
      -1.021
      -1.064
      -1.178
      -1.361
      -1.595
      -1.849
      -2.085
      -2.252
      -2.304
      -2.220
      -2.017
      -1.733
      -1.403
      -1.050
      -0.689
      -0.347
      -0.061
       0.132
       0.213
       0.188
       0.081
      -0.061
      -0.181
      -0.216
      -0.123
       0.106
       0.444
       0.835
       1.207
       1.488
       1.619
       1.579
       1.391
       1.121
       0.842
       0.602
       0.409
       0.252
       0.119
       0.018
      -0.036
      -0.037
      -0.002
       0.035
       0.040
      -0.014
      -0.138
      -0.332
      -0.579
      -0.850
      -1.103
      -1.302
      -1.430
      -1.496
      -1.522
      -1.525
      -1.514
      -1.489
      -1.447
      -1.387
      -1.299
      -1.171
      -1.007
      -0.829
      -0.676
      -0.581
      -0.560
      -0.610
      -0.721
      -0.886
      -1.094
      -1.321
      -1.522
      -1.630
      -1.573
      -1.302
      -0.815
      -0.166
       0.550
       1.229
       1.790
       2.189
       2.425
       2.529
       2.542
       2.506
       2.458
       2.428
       2.428
       2.457
       2.496
       2.519
       2.503
       2.432
       2.292
       2.068
       1.748
       1.338
       0.877
       0.426
       0.039
      -0.263
      -0.491
      -0.674
      -0.837
      -0.994
      -1.147
      -1.294
      -1.426
      -1.530
      -1.597
      -1.626
      -1.620
      -1.584
      -1.530
      -1.482
      -1.482
      -1.571
      -1.768
      -2.050
      -2.359
      -2.610
      -2.722
      -2.632
      -2.318
      -1.802
      -1.146
      -0.439
       0.225
       0.770
       1.163
       1.419
       1.591
       1.734
       1.876
       2.010
       2.112
       2.161
       2.156
       2.115
       2.069
       2.046
       2.057
       2.093
       2.120
       2.093
       1.967
       1.709
       1.322
       0.843
       0.338
      -0.124
      -0.495
      -0.753
      -0.904
      -0.963
      -0.954
      -0.897
      -0.812
      -0.715
      -0.634
      -0.601
      -0.644
      -0.766
      -0.927
      -1.066
      -1.126
      -1.082
      -0.951
      -0.770
      -0.576
      -0.397
      -0.253
      -0.158
      -0.113
      -0.098
      -0.090
      -0.083
      -0.098
      -0.165
      -0.303
      -0.508
      -0.761
      -1.046
      -1.348
      -1.646
      -1.905
      -2.085
      -2.151
      -2.096
      -1.940
      -1.726
      -1.493
      -1.273
      -1.089
      -0.967
      -0.926
      -0.973
      -1.092
      -1.240
      -1.364
      -1.409
      -1.341
      -1.153
      -0.868
      -0.537
      -0.228
      -0.009
       0.072
       0.024
      -0.088
      -0.172
      -0.156
      -0.026
       0.181
       0.411
       0.620
       0.786
       0.894
       0.937
       0.909
       0.826
       0.717
       0.619
       0.553
       0.513
       0.485
       0.457
       0.428
       0.409
       0.413
       0.450
       0.521
       0.612
       0.694
       0.724
       0.668
       0.524
       0.335
       0.170
       0.080
       0.068
       0.089
       0.087
       0.040
      -0.036
      -0.106
      -0.147
      -0.156
      -0.142
      -0.103
      -0.023
       0.117
       0.317
       0.545
       0.738
       0.840
       0.830
       0.745
       0.645
       0.579
       0.545
       0.506
       0.423
       0.290
       0.133
      -0.016
      -0.143
      -0.256
      -0.369
      -0.487
      -0.607
      -0.715
      -0.797
      -0.834
      -0.810
      -0.723
      -0.605
      -0.513
      -0.503
      -0.598
      -0.771
      -0.960
      -1.098
      -1.149
      -1.111
      -1.001
      -0.836
      -0.621
      -0.362
      -0.082
       0.178
       0.377
       0.488
       0.512
       0.468
       0.390
       0.313
       0.264
       0.254
       0.273
       0.298
       0.302
       0.280
       0.246
       0.234
       0.272
       0.366
       0.502
       0.655
       0.809
       0.961
       1.115
       1.269
       1.407
       1.497
       1.501
       1.397
       1.193
       0.920
       0.621
       0.339
       0.109
      -0.042
      -0.107
      -0.102
      -0.068
      -0.051
      -0.079
      -0.150
      -0.231
      -0.278
      -0.247
      -0.111
       0.126
       0.424
       0.717
       0.941
       1.062
       1.082
       1.023
       0.911
       0.761
       0.586
       0.403
       0.229
       0.070
      -0.092
      -0.283
      -0.506
      -0.730
      -0.897
      -0.960
      -0.915
      -0.803
      -0.682
      -0.596
      -0.558
      -0.550
      -0.541
      -0.500
      -0.407
      -0.261
      -0.091
       0.048
       0.099
       0.042
      -0.104
      -0.288
      -0.467
      -0.611
      -0.698
      -0.704
      -0.612
      -0.433
      -0.218
      -0.033
       0.071
       0.088
       0.051
       0.004
      -0.011
       0.031
       0.147
       0.336
       0.579
       0.842
       1.089
       1.287
       1.413
       1.456
       1.420
       1.324
       1.201
       1.083
       0.989
       0.914
       0.833
       0.717
       0.556
       0.368
       0.188
       0.044
      -0.054
      -0.111
      -0.127
      -0.104
      -0.058
      -0.030
      -0.074
      -0.226
      -0.470
      -0.746
      -0.974
      -1.089
      -1.062
      -0.894
      -0.616
      -0.271
       0.093
       0.434
       0.717
       0.925
       1.047
       1.072
       0.991
       0.806
       0.541
       0.252
      -0.005
      -0.191
      -0.308
      -0.387
      -0.459
      -0.538
      -0.608
      -0.642
      -0.614
      -0.522
      -0.382
      -0.221
      -0.063
       0.070
       0.161
       0.197
       0.171
       0.088
      -0.041
      -0.187
      -0.307
      -0.352
      -0.290
      -0.132
       0.067
       0.235
       0.315
       0.292
       0.185
       0.035
      -0.125
      -0.271
      -0.398
      -0.510
      -0.608
      -0.676
      -0.682
      -0.592
      -0.392
      -0.115
       0.170
       0.387
       0.480
       0.436
       0.272
       0.036
      -0.209
      -0.400
      -0.491
      -0.463
      -0.329
      -0.117
       0.131
       0.363
       0.527
       0.589
       0.552
       0.459
       0.372
       0.333
       0.349
       0.398
       0.444
       0.460
       0.432
       0.353
       0.229
       0.078
      -0.068
      -0.161
      -0.152
      -0.014
       0.239
       0.545
       0.815
       0.962
       0.935
       0.735
       0.411
       0.034
      -0.325
      -0.621
      -0.832
      -0.955
      -0.998
      -0.978
      -0.922
      -0.868
      -0.858
      -0.916
      -1.034
      -1.173
      -1.284
      -1.341
      -1.345
      -1.315
      -1.265
      -1.195
      -1.095
      -0.958
      -0.783
      -0.576
      -0.348
      -0.122
       0.078
       0.234
       0.352
       0.462
       0.590
       0.745
       0.916
       1.087
       1.249
       1.401
       1.535
       1.631
       1.667
       1.636
       1.551
       1.429
       1.278
       1.102
       0.908
       0.724
       0.576
       0.466
       0.359
       0.193
      -0.075
      -0.441
      -0.839
      -1.178
      -1.375
      -1.401
      -1.290
      -1.127
      -1.016
      -1.033
      -1.193
      -1.455
      -1.743
      -1.981
      -2.116
      -2.124
      -2.017
      -1.831
      -1.620
      -1.432
      -1.293
      -1.203
      -1.140
      -1.072
      -0.963
      -0.785
      -0.534
      -0.250
       0.004
       0.168
       0.222
       0.199
       0.155
       0.143
       0.201
       0.355
       0.617
       0.979
       1.401
       1.827
       2.201
       2.490
       2.681
       2.775
       2.787
       2.750
       2.699
       2.655
       2.607
       2.520
       2.363
       2.134
       1.856
       1.559
       1.265
       0.980
       0.703
       0.432
       0.168
      -0.083
      -0.307
      -0.488
      -0.614
      -0.682
      -0.712
      -0.734
      -0.786
      -0.901
      -1.087
      -1.327
      -1.582
      -1.818
      -2.030
      -2.235
      -2.448
      -2.651
      -2.790
      -2.806
      -2.666
      -2.385
      -2.010
      -1.601
      -1.211
      -0.884
      -0.636
      -0.454
      -0.301
      -0.127
       0.093
       0.350
       0.606
       0.823
       0.992
       1.138
       1.299
       1.493
       1.704
       1.895
       2.045
       2.159
       2.259
       2.358
       2.449
       2.511
       2.529
       2.496
       2.408
       2.255
       2.038
       1.776
       1.510
       1.281
       1.108
       0.993
       0.921
       0.866
       0.799
       0.688
       0.506
       0.249
      -0.060
      -0.374
      -0.650
      -0.866
      -1.028
      -1.154
      -1.246
      -1.287
      -1.258
      -1.157
      -1.016
      -0.874
      -0.761
      -0.690
      -0.672
      -0.724
      -0.859
      -1.067
      -1.305
      -1.502
      -1.593
      -1.548
      -1.389
      -1.169
      -0.940
      -0.722
      -0.508
      -0.293
      -0.086
       0.086
       0.196
       0.232
       0.197
       0.101
      -0.048
      -0.240
      -0.467
      -0.712
      -0.953
      -1.170
      -1.345
      -1.473
      -1.550
      -1.576
      -1.551
      -1.486
      -1.403
      -1.318
      -1.239
      -1.155
      -1.058
      -0.949
      -0.833
      -0.705
      -0.544
      -0.316
       0.002
       0.413
       0.888
       1.377
       1.811
       2.118
       2.241
       2.166
       1.922
       1.561
       1.129
       0.655
       0.161
      -0.312
      -0.703
      -0.959
      -1.053
      -1.001
      -0.850
      -0.652
      -0.450
      -0.277
      -0.161
      -0.130
      -0.191
      -0.318
      -0.450
      -0.518
      -0.473
      -0.308
      -0.055
       0.228
       0.474
       0.620
       0.631
       0.512
       0.308
       0.082
      -0.105
      -0.215
      -0.234
      -0.181
      -0.099
      -0.037
      -0.022
      -0.054
      -0.112
      -0.172
      -0.216
      -0.223
      -0.175
      -0.062
       0.092
       0.238
       0.321
       0.320
       0.250
       0.143
       0.017
      -0.134
      -0.323
      -0.538
      -0.736
      -0.859
      -0.860
      -0.717
      -0.435
      -0.044
       0.400
       0.826
       1.157
       1.348
       1.397
       1.349
       1.269
       1.201
       1.157
       1.121
       1.090
       1.080
       1.115
       1.197
       1.287
       1.329
       1.295
       1.199
       1.086
       1.002
       0.973
       0.990
       1.030
       1.059
       1.053
       1.007
       0.926
       0.813
       0.660
       0.451
       0.182
      -0.133
      -0.471
      -0.817
      -1.160
      -1.477
      -1.728
      -1.870
      -1.882
      -1.776
      -1.584
      -1.344
      -1.085
      -0.830
      -0.596
      -0.392
      -0.219
      -0.075
       0.038
       0.103
       0.099
       0.013
      -0.138
      -0.312
      -0.466
      -0.576
      -0.634
      -0.639
      -0.597
      -0.526
      -0.455
      -0.413
      -0.407
      -0.421
      -0.424
      -0.391
      -0.322
      -0.233
      -0.147
      -0.080
      -0.035
      -0.002
       0.039
       0.115
       0.252
       0.468
       0.770
       1.147
       1.567
       1.978
       2.310
       2.488
       2.453
       2.192
       1.761
       1.264
       0.817
       0.497
       0.316
       0.244
       0.227
       0.214
       0.160
       0.030
      -0.195
      -0.500
      -0.835
      -1.136
      -1.348
      -1.452
      -1.456
      -1.389
      -1.292
      -1.218
      -1.214
      -1.306
      -1.483
      -1.717
      -1.980
      -2.251
      -2.505
      -2.701
      -2.802
      -2.801
      -2.737
      -2.665
      -2.617
      -2.583
      -2.523
      -2.404
      -2.218
      -1.973
      -1.678
      -1.331
      -0.936
      -0.512
      -0.095
       0.277
       0.587
       0.838
       1.041
       1.205
       1.343
       1.478
       1.641
       1.849
       2.094
       2.353
       2.597
       2.804
       2.952
       3.011
       2.963
       2.814
       2.602
       2.384
       2.203
       2.075
       1.984
       1.916
       1.870
       1.851
       1.846
       1.817
       1.722
       1.548
       1.315
       1.058
       0.791
       0.498
       0.160
      -0.217
      -0.594
      -0.917
      -1.152
      -1.311
      -1.438
      -1.588
      -1.791
      -2.046
      -2.322
      -2.574
      -2.762
      -2.854
      -2.825
      -2.655
      -2.340
      -1.902
      -1.393
      -0.874
      -0.398
       0.008
       0.337
       0.596
       0.796
       0.950
       1.074
       1.185
       1.288
       1.383
       1.457
       1.500
       1.511
       1.495
       1.462
       1.415
       1.350
       1.269
       1.180
       1.099
       1.046
       1.034
       1.066
       1.127
       1.171
       1.136
       0.967
       0.654
       0.260
      -0.104
      -0.319
      -0.325
      -0.141
       0.150
       0.443
       0.654
       0.736
       0.684
       0.527
       0.319
       0.121
      -0.033
      -0.145
      -0.252
      -0.391
      -0.562
      -0.716
      -0.790
      -0.743
      -0.594
      -0.404
      -0.246
      -0.167
      -0.180
      -0.270
      -0.403
      -0.552
      -0.696
      -0.823
      -0.925
      -0.985
      -0.985
      -0.912
      -0.760
      -0.539
      -0.270
       0.018
       0.287
       0.500
       0.641
       0.719
       0.762
       0.794
       0.816
       0.812
       0.767
       0.679
       0.572
       0.487
       0.460
       0.510
       0.628
       0.785
       0.942
       1.059
       1.102
       1.054
       0.925
       0.751
       0.577
       0.430
       0.309
       0.207
       0.124
       0.080
       0.085
       0.125
       0.154
       0.128
       0.026
      -0.145
      -0.369
      -0.626
      -0.892
      -1.126
      -1.284
      -1.339
      -1.303
      -1.231
      -1.200
      -1.273
      -1.473
      -1.767
      -2.082
      -2.346
      -2.523
      -2.613
      -2.636
      -2.605
      -2.522
      -2.397
      -2.249
      -2.096
      -1.936
      -1.748
      -1.503
      -1.193
      -0.832
      -0.451
      -0.081
       0.252
       0.535
       0.759
       0.931
       1.075
       1.232
       1.445
       1.729
       2.062
       2.394
       2.674
       2.873
       2.982
       3.001
       2.922
       2.728
       2.414
       2.006
       1.557
       1.132
       0.779
       0.519
       0.353
       0.267
       0.242
       0.247
       0.254
       0.246
       0.231
       0.217
       0.201
       0.152
       0.034
      -0.164
      -0.413
      -0.653
      -0.831
      -0.925
      -0.929
      -0.842
      -0.665
      -0.425
      -0.186
      -0.022
       0.027
      -0.011
      -0.060
      -0.052
       0.036
       0.175
       0.314
       0.404
       0.406
       0.295
       0.068
      -0.241
      -0.566
      -0.835
      -1.005
      -1.089
      -1.135
      -1.187
      -1.257
      -1.319
      -1.327
      -1.249
      -1.078
      -0.844
      -0.603
      -0.417
      -0.323
      -0.316
      -0.358
      -0.394
      -0.385
      -0.311
      -0.171
       0.024
       0.251
       0.476
       0.659
       0.769
       0.804
       0.800
       0.816
       0.886
       0.997
       1.085
       1.081
       0.954
       0.726
       0.450
       0.175
      -0.072
      -0.289
      -0.492
      -0.696
      -0.906
      -1.111
      -1.293
      -1.434
      -1.528
      -1.580
      -1.605
      -1.614
      -1.615
      -1.612
      -1.608
      -1.604
      -1.588
      -1.540
      -1.427
      -1.223
      -0.926
      -0.569
      -0.210
       0.107
       0.372
       0.611
       0.853
       1.113
       1.380
       1.625
       1.814
       1.920
       1.946
       1.931
       1.931
       1.988
       2.093
       2.191
       2.220
       2.150
       1.992
       1.782
       1.551
       1.318
       1.095
       0.890
       0.701
       0.511
       0.296
       0.037
      -0.265
      -0.592
      -0.918
      -1.219
      -1.480
      -1.692
      -1.854
      -1.966
      -2.030
      -2.047
      -2.021
      -1.971
      -1.923
      -1.902
      -1.919
      -1.953
      -1.963
      -1.903
      -1.749
      -1.510
      -1.212
      -0.883
      -0.549
      -0.237
       0.021
       0.203
       0.302
       0.332
       0.324
       0.310
       0.312
       0.337
       0.383
       0.452
       0.551
       0.683
       0.830
       0.957
       1.027
       1.024
       0.961
       0.876
       0.823
       0.853
       0.990
       1.212
       1.453
       1.627
       1.668
       1.556
       1.316
       1.004
       0.686
       0.413
       0.213
       0.093
       0.045
       0.062
       0.139
       0.265
       0.421
       0.583
       0.725
       0.822
       0.853
       0.804
       0.685
       0.531
       0.398
       0.337
       0.372
       0.483
       0.615
       0.698
       0.673
       0.507
       0.202
      -0.208
      -0.670
      -1.123
      -1.514
      -1.809
      -1.995
      -2.081
      -2.084
      -2.021
      -1.905
      -1.740
      -1.535
      -1.306
      -1.074
      -0.849
      -0.631
      -0.410
      -0.182
       0.048
       0.270
       0.479
       0.672
       0.841
       0.978
       1.085
       1.172
       1.248
       1.304
       1.310
       1.235
       1.074
       0.864
       0.665
       0.533
       0.489
       0.517
       0.573
       0.613
       0.610
       0.560
       0.480
       0.394
       0.328
       0.292
       0.277
       0.266
       0.241
       0.202
       0.156
       0.107
       0.049
      -0.032
      -0.139
      -0.256
      -0.357
