Origin Time       4/2/2011 13:53:39	 
Lat.              24.8 N	
Long.             94.6 E	
Depth (Km)         30.0
Magnitude         6.4
 Region           Myanmar-India-Border                                             
 Above details taken from IMD 
     
Station Code      COB
Station Lat.       26.319  N
Station Long.      89.440  E
Station Height(m)   64.0
Site Class        C   Vs30 between 200 m/sec to 375 m/sec *  
Record Time       04.02.2011 13:55:25.679
Sampling Rate     200. Hz
 Record Duration   80.005 Sec.
 Direction         E-W (E positive)
Max. Acceleration     -3.184 cm/sec**2
     
  * For reference see Site Classification link of website 
     
 Base Line Corrected and Low Pass Filtered (Cut Off at 35 Hz) Time History
 Acceleration data in cm/sec**2
    
[...]
       0.082
       0.102
       0.141
       0.209
       0.299
       0.400
       0.497
       0.585
       0.661
       0.718
       0.743
       0.723
       0.658
       0.557
       0.438
       0.315
       0.201
       0.105
       0.031
      -0.020
      -0.056
      -0.086
      -0.115
      -0.147
      -0.176
      -0.194
      -0.187
      -0.148
      -0.082
      -0.010
       0.043
       0.062
       0.052
       0.030
       0.011
      -0.004
      -0.021
      -0.047
      -0.085
      -0.127
      -0.162
      -0.170
      -0.135
      -0.058
       0.038
       0.117
       0.153
       0.153
       0.143
       0.149
       0.178
       0.219
       0.256
       0.282
       0.295
       0.294
       0.273
       0.227
       0.156
       0.073
      -0.001
      -0.051
      -0.074
      -0.080
      -0.085
      -0.095
      -0.104
      -0.106
      -0.100
      -0.090
      -0.075
      -0.042
       0.029
       0.146
       0.294
       0.441
       0.554
       0.619
       0.640
       0.630
       0.602
       0.563
       0.516
       0.460
       0.395
       0.316
       0.221
       0.108
      -0.015
      -0.131
      -0.222
      -0.273
      -0.283
      -0.264
      -0.234
      -0.211
      -0.212
      -0.246
      -0.304
      -0.362
      -0.386
      -0.355
      -0.279
      -0.192
      -0.128
      -0.100
      -0.096
      -0.093
      -0.076
      -0.045
      -0.004
       0.045
       0.107
       0.179
       0.253
       0.318
       0.366
       0.399
       0.420
       0.429
       0.424
       0.403
       0.377
       0.364
       0.386
       0.451
       0.550
       0.656
       0.740
       0.786
       0.788
       0.747
       0.663
       0.540
       0.387
       0.221
       0.062
      -0.075
      -0.182
      -0.256
      -0.304
      -0.339
      -0.375
      -0.416
      -0.457
      -0.490
      -0.518
      -0.558
      -0.622
      -0.705
      -0.784
      -0.826
      -0.813
      -0.749
      -0.649
      -0.535
      -0.419
      -0.305
      -0.194
      -0.085
       0.023
       0.120
       0.190
       0.217
       0.195
       0.139
       0.078
       0.039
       0.028
       0.030
       0.020
      -0.012
      -0.053
      -0.074
      -0.059
      -0.017
       0.026
       0.048
       0.055
       0.071
       0.119
       0.195
       0.270
       0.309
       0.286
       0.196
       0.047
      -0.139
      -0.340
      -0.533
      -0.694
      -0.804
      -0.847
      -0.823
      -0.746
      -0.642
      -0.539
      -0.454
      -0.395
      -0.362
      -0.341
      -0.314
      -0.263
      -0.175
      -0.055
       0.080
       0.204
       0.297
       0.349
       0.364
       0.348
       0.313
       0.261
       0.193
       0.103
      -0.012
      -0.159
      -0.335
      -0.532
      -0.726
      -0.882
      -0.969
      -0.969
      -0.886
      -0.744
      -0.575
      -0.405
      -0.246
      -0.100
       0.034
       0.155
       0.262
       0.351
       0.415
       0.438
       0.397
       0.275
       0.069
      -0.201
      -0.492
      -0.743
      -0.895
      -0.912
      -0.796
      -0.585
      -0.337
      -0.102
       0.094
       0.241
       0.341
       0.389
       0.387
       0.352
       0.318
       0.320
       0.376
       0.468
       0.554
       0.589
       0.552
       0.446
       0.292
       0.121
      -0.038
      -0.157
      -0.217
      -0.210
      -0.144
      -0.034
       0.101
       0.238
       0.352
       0.414
       0.409
       0.353
       0.295
       0.285
       0.343
       0.439
       0.518
       0.538
       0.501
       0.440
       0.384
       0.328
       0.236
       0.072
      -0.174
      -0.476
      -0.784
      -1.045
      -1.221
      -1.302
      -1.301
      -1.254
      -1.190
      -1.123
      -1.041
      -0.920
      -0.744
      -0.522
      -0.277
      -0.032
       0.201
       0.412
       0.586
       0.709
       0.768
       0.756
       0.674
       0.529
       0.337
       0.126
      -0.072
      -0.226
      -0.318
      -0.341
      -0.306
      -0.229
      -0.128
      -0.017
       0.093
       0.190
       0.264
       0.306
       0.323
       0.336
       0.380
       0.488
       0.671
       0.910
       1.155
       1.343
       1.422
       1.366
       1.176
       0.879
       0.518
       0.144
      -0.198
      -0.477
      -0.678
      -0.805
      -0.868
      -0.888
      -0.878
      -0.850
      -0.814
      -0.778
      -0.754
      -0.746
      -0.750
      -0.757
      -0.766
      -0.782
      -0.810
      -0.839
      -0.847
      -0.809
      -0.723
      -0.615
      -0.523
      -0.473
      -0.462
      -0.462
      -0.438
      -0.369
      -0.246
      -0.070
       0.155
       0.420
       0.709
       0.998
       1.266
       1.504
       1.715
       1.899
       2.043
       2.118
       2.098
       1.980
       1.786
       1.544
       1.269
       0.958
       0.604
       0.218
      -0.163
      -0.498
      -0.756
      -0.927
      -1.024
      -1.071
      -1.101
      -1.151
      -1.241
      -1.375
      -1.535
      -1.698
      -1.837
      -1.928
      -1.939
      -1.837
      -1.599
      -1.235
      -0.790
      -0.332
       0.071
       0.377
       0.571
       0.660
       0.678
       0.673
       0.697
       0.782
       0.930
       1.118
       1.314
       1.488
       1.607
       1.645
       1.585
       1.435
       1.236
       1.051
       0.946
       0.965
       1.103
       1.298
       1.445
       1.433
       1.191
       0.715
       0.060
      -0.686
      -1.422
      -2.057
      -2.510
      -2.733
      -2.720
      -2.519
      -2.214
      -1.883
      -1.573
      -1.287
      -1.011
      -0.735
      -0.453
      -0.161
       0.152
       0.499
       0.872
       1.243
       1.568
       1.807
       1.937
       1.953
       1.864
       1.687
       1.450
       1.188
       0.939
       0.726
       0.554
       0.412
       0.285
       0.166
       0.047
      -0.076
      -0.205
      -0.329
      -0.430
      -0.481
      -0.455
      -0.336
      -0.122
       0.153
       0.421
       0.596
       0.604
       0.421
       0.078
      -0.353
      -0.786
      -1.142
      -1.363
      -1.418
      -1.298
      -1.018
      -0.607
      -0.108
       0.424
       0.927
       1.346
       1.661
       1.896
       2.097
       2.300
       2.494
       2.628
       2.639
       2.486
       2.168
       1.710
       1.151
       0.533
      -0.086
      -0.629
      -1.023
      -1.235
      -1.293
      -1.266
      -1.225
      -1.209
      -1.218
      -1.234
      -1.245
      -1.248
      -1.249
      -1.253
      -1.252
      -1.221
      -1.123
      -0.934
      -0.656
      -0.318
       0.033
       0.345
       0.569
       0.663
       0.602
       0.389
       0.065
      -0.297
      -0.616
      -0.829
      -0.899
      -0.818
      -0.594
      -0.244
       0.191
       0.656
       1.090
       1.456
       1.748
       1.967
       2.103
       2.132
       2.038
       1.836
       1.562
       1.250
       0.919
       0.570
       0.198
      -0.196
      -0.612
      -1.042
      -1.463
      -1.831
      -2.096
      -2.224
      -2.213
      -2.088
      -1.881
      -1.619
      -1.322
      -1.017
      -0.742
      -0.536
      -0.409
      -0.337
      -0.277
      -0.198
      -0.098
       0.008
       0.105
       0.186
       0.241
       0.250
       0.190
       0.049
      -0.157
      -0.388
      -0.593
      -0.727
      -0.761
      -0.691
      -0.527
      -0.292
      -0.017
       0.263
       0.500
       0.648
       0.683
       0.628
       0.548
       0.513
       0.549
       0.620
       0.662
       0.623
       0.492
       0.292
       0.052
      -0.209
      -0.482
      -0.761
      -1.024
      -1.238
      -1.368
      -1.388
      -1.296
      -1.114
      -0.873
      -0.606
      -0.337
      -0.077
       0.168
       0.387
       0.557
       0.654
       0.672
       0.628
       0.559
       0.505
       0.483
       0.488
       0.498
       0.482
       0.402
       0.217
      -0.102
      -0.545
      -1.048
      -1.511
      -1.840
      -1.991
      -1.983
      -1.869
      -1.692
      -1.472
      -1.217
      -0.941
      -0.663
      -0.388
      -0.099
       0.233
       0.618
       1.036
       1.438
       1.767
       1.973
       2.025
       1.919
       1.686
       1.386
       1.096
       0.891
       0.824
       0.920
       1.168
       1.519
       1.897
       2.205
       2.358
       2.320
       2.112
       1.797
       1.435
       1.060
       0.686
       0.334
       0.034
      -0.195
      -0.366
      -0.522
      -0.704
      -0.930
      -1.190
      -1.457
      -1.704
      -1.904
      -2.027
      -2.052
      -1.974
      -1.814
      -1.608
      -1.395
      -1.203
      -1.049
      -0.941
      -0.874
      -0.823
      -0.757
      -0.657
      -0.532
      -0.407
      -0.304
      -0.217
      -0.130
      -0.034
       0.065
       0.154
       0.220
       0.258
       0.272
       0.282
       0.328
       0.453
       0.683
       1.005
       1.375
       1.729
       2.017
       2.209
       2.301
       2.313
       2.282
       2.256
       2.277
       2.355
       2.460
       2.539
       2.549
       2.476
       2.321
       2.075
       1.720
       1.248
       0.700
       0.155
      -0.302
      -0.636
      -0.873
      -1.083
      -1.326
      -1.629
      -1.976
      -2.328
      -2.634
      -2.852
      -2.965
      -2.992
      -2.974
      -2.952
      -2.937
      -2.919
      -2.876
      -2.791
      -2.649
      -2.436
      -2.141
      -1.774
      -1.366
      -0.953
      -0.563
      -0.224
       0.036
       0.193
       0.250
       0.239
       0.200
       0.151
       0.081
      -0.026
      -0.150
      -0.219
      -0.142
       0.141
       0.615
       1.189
       1.741
       2.181
       2.485
       2.686
       2.825
       2.912
       2.921
       2.816
       2.584
       2.251
       1.873
       1.515
       1.224
       1.014
       0.859
       0.714
       0.541
       0.326
       0.092
      -0.122
      -0.283
      -0.385
      -0.445
      -0.496
      -0.564
      -0.662
      -0.800
      -0.987
      -1.215
      -1.447
      -1.624
      -1.696
      -1.654
      -1.530
      -1.372
      -1.207
      -1.041
      -0.879
      -0.742
      -0.674
      -0.709
      -0.847
      -1.045
      -1.234
      -1.346
      -1.337
      -1.191
      -0.920
      -0.562
      -0.173
       0.188
       0.478
       0.682
       0.816
       0.922
       1.044
       1.203
       1.367
       1.466
       1.431
       1.237
       0.920
       0.549
       0.176
      -0.187
      -0.562
      -0.961
      -1.350
      -1.649
      -1.771
      -1.671
      -1.369
      -0.937
      -0.461
      -0.001
       0.416
       0.785
       1.097
       1.342
       1.510
       1.609
       1.664
       1.705
       1.751
       1.793
       1.795
       1.711
       1.508
       1.191
       0.797
       0.376
      -0.029
      -0.390
      -0.678
      -0.877
      -0.988
      -1.042
      -1.088
      -1.155
      -1.234
      -1.279
      -1.250
      -1.143
      -0.996
      -0.868
      -0.790
      -0.757
      -0.736
      -0.701
      -0.649
      -0.592
      -0.543
      -0.495
      -0.438
      -0.368
      -0.299
      -0.246
      -0.215
      -0.194
      -0.162
      -0.094
       0.036
       0.249
       0.552
       0.924
       1.319
       1.674
       1.921
       2.012
       1.928
       1.691
       1.358
       0.995
       0.655
       0.361
       0.113
      -0.091
      -0.255
      -0.386
      -0.506
      -0.642
      -0.801
      -0.952
      -1.043
      -1.035
      -0.935
      -0.788
      -0.635
      -0.485
      -0.311
      -0.084
       0.201
       0.509
       0.784
       0.975
       1.056
       1.023
       0.887
       0.668
       0.400
       0.139
      -0.046
      -0.106
      -0.042
       0.099
       0.253
       0.385
       0.502
       0.626
       0.764
       0.897
       0.993
       1.030
       1.001
       0.916
       0.786
       0.620
       0.423
       0.191
      -0.084
      -0.405
      -0.756
      -1.087
      -1.330
      -1.431
      -1.381
      -1.222
      -1.029
      -0.864
      -0.756
      -0.689
      -0.631
      -0.563
      -0.495
      -0.445
      -0.403
      -0.328
      -0.170
       0.081
       0.392
       0.712
       0.997
       1.220
       1.355
       1.366
       1.232
       0.966
       0.621
       0.269
      -0.029
      -0.243
      -0.373
      -0.447
      -0.496
      -0.548
      -0.615
      -0.700
      -0.807
      -0.944
      -1.101
      -1.232
      -1.270
      -1.171
      -0.954
      -0.710
      -0.550
      -0.541
      -0.672
      -0.870
      -1.042
      -1.108
      -1.014
      -0.732
      -0.275
       0.298
       0.893
       1.413
       1.792
       2.008
       2.065
       1.973
       1.750
       1.444
       1.132
       0.903
       0.809
       0.836
       0.910
       0.950
       0.908
       0.786
       0.609
       0.389
       0.111
      -0.255
      -0.725
      -1.280
      -1.868
      -2.417
      -2.851
      -3.115
      -3.184
      -3.064
      -2.786
      -2.392
      -1.920
      -1.396
      -0.833
      -0.254
       0.301
       0.771
       1.101
       1.272
       1.309
       1.267
       1.209
       1.173
       1.173
       1.209
       1.287
       1.421
       1.628
       1.902
       2.195
       2.432
       2.546
       2.508
       2.331
       2.053
       1.705
       1.313
       0.908
       0.538
       0.255
       0.078
      -0.019
      -0.094
      -0.195
      -0.328
      -0.465
      -0.567
      -0.623
      -0.653
      -0.705
      -0.826
      -1.041
      -1.328
      -1.617
      -1.823
      -1.885
      -1.795
      -1.585
      -1.289
      -0.923
      -0.502
      -0.067
       0.295
       0.479
       0.414
       0.097
      -0.399
      -0.960
      -1.475
      -1.872
      -2.124
      -2.233
      -2.217
      -2.092
      -1.862
      -1.529
      -1.110
      -0.651
      -0.215
       0.156
       0.466
       0.756
       1.064
       1.389
       1.691
       1.926
       2.080
       2.175
       2.254
       2.345
       2.441
       2.493
       2.441
       2.240
       1.894
       1.453
       0.997
       0.597
       0.281
       0.026
      -0.222
      -0.506
      -0.823
      -1.122
      -1.349
      -1.482
      -1.539
      -1.544
      -1.487
      -1.322
      -1.014
      -0.578
      -0.101
       0.308
       0.573
       0.681
       0.667
       0.575
       0.424
       0.213
      -0.053
      -0.345
      -0.614
      -0.812
      -0.908
      -0.887
      -0.746
      -0.503
      -0.199
       0.116
       0.404
       0.650
       0.848
       0.979
       1.009
       0.924
       0.756
       0.570
       0.426
       0.336
       0.271
       0.196
       0.107
       0.028
      -0.011
      -0.003
       0.038
       0.085
       0.106
       0.076
      -0.012
      -0.143
      -0.276
      -0.360
      -0.361
      -0.288
      -0.190
      -0.136
      -0.169
      -0.292
      -0.477
      -0.681
      -0.862
      -0.985
      -1.029
      -1.004
      -0.949
      -0.917
      -0.943
      -1.031
      -1.156
      -1.290
      -1.407
      -1.480
      -1.474
      -1.359
      -1.135
      -0.843
      -0.552
      -0.328
      -0.202
      -0.167
      -0.187
      -0.214
      -0.201
      -0.120
       0.029
       0.224
       0.439
       0.658
       0.876
       1.085
       1.274
       1.424
       1.524
       1.565
       1.541
       1.454
       1.326
       1.204
       1.142
       1.167
       1.247
       1.304
       1.259
       1.089
       0.835
       0.576
       0.372
       0.241
       0.171
       0.141
       0.132
       0.127
       0.104
       0.052
      -0.028
      -0.122
      -0.217
      -0.313
      -0.423
      -0.556
      -0.712
      -0.884
      -1.067
      -1.249
      -1.412
      -1.526
      -1.575
      -1.566
      -1.535
      -1.514
      -1.506
      -1.492
      -1.451
      -1.380
      -1.286
      -1.165
      -0.997
      -0.774
      -0.531
      -0.332
      -0.216
      -0.158
      -0.072
       0.127
       0.469
       0.914
       1.373
       1.760
       2.017
       2.124
       2.102
       1.992
       1.843
       1.687
       1.531
       1.356
       1.143
       0.902
       0.685
       0.572
       0.623
       0.839
       1.136
       1.389
       1.491
       1.408
       1.184
       0.908
       0.664
       0.493
       0.382
       0.285
       0.148
      -0.063
      -0.352
      -0.699
      -1.075
      -1.444
      -1.772
      -2.019
      -2.159
      -2.194
      -2.159
      -2.105
      -2.071
      -2.067
      -2.071
      -2.048
      -1.970
      -1.820
      -1.597
      -1.305
      -0.957
      -0.569
      -0.176
       0.169
       0.406
       0.496
       0.444
       0.298
       0.117
      -0.056
      -0.203
      -0.312
      -0.356
      -0.304
      -0.135
       0.141
       0.494
       0.884
       1.277
       1.641
       1.935
       2.119
       2.178
       2.138
       2.054
       1.978
       1.929
       1.887
       1.820
       1.713
       1.571
       1.409
       1.229
       1.026
       0.800
       0.564
       0.334
       0.115
      -0.099
      -0.317
      -0.534
      -0.729
      -0.882
      -0.998
      -1.098
      -1.200
      -1.292
      -1.335
      -1.294
      -1.174
      -1.008
      -0.843
      -0.710
      -0.634
      -0.646
      -0.771
      -1.009
      -1.315
      -1.611
      -1.812
      -1.864
      -1.752
      -1.504
      -1.158
      -0.741
      -0.277
       0.202
       0.641
       0.981
       1.194
       1.300
       1.342
       1.347
       1.304
       1.194
       1.029
       0.863
       0.767
       0.791
       0.936
       1.159
       1.398
       1.590
       1.683
       1.649
       1.498
       1.280
       1.065
       0.900
       0.781
       0.665
       0.516
       0.341
       0.189
       0.118
       0.155
       0.287
       0.478
       0.689
       0.883
       1.017
       1.040
       0.917
       0.657
       0.323
       0.000
      -0.258
      -0.455
      -0.641
      -0.864
      -1.139
      -1.448
      -1.760
      -2.051
      -2.297
      -2.466
      -2.514
      -2.408
      -2.145
      -1.770
      -1.360
      -0.992
      -0.706
      -0.493
      -0.313
      -0.124
       0.089
       0.310
       0.504
       0.633
       0.685
       0.671
       0.619
       0.557
       0.495
       0.425
       0.330
       0.203
       0.045
      -0.124
      -0.274
      -0.376
      -0.408
      -0.371
      -0.283
      -0.176
      -0.081
      -0.025
      -0.033
      -0.118
      -0.286
      -0.518
      -0.773
      -0.993
      -1.119
      -1.116
      -0.980
