Origin Time       18/9/2011 12:40:47	
Lat.              27.6 N	
Long.             88.2 E	
Depth (Km)         10.0
Magnitude         6.8
 Region           India(Sikkim)-Nepar-Border                                       
 Above details taken from IMD 
     
Station Code      COB
Station Lat.       26.319  N
Station Long.      89.440  E
Station Height(m)   64.0
Site Class        C   Vs30 between 200 m/sec to 375 m/sec *  
Record Time       18.09.2011 12:40:55.224
Sampling Rate     200. Hz
 Record Duration  195.445 Sec.
 Direction         E-W (E positive)
Max. Acceleration    -44.235 cm/sec**2
     
  * For reference see Site Classification link of website 
     
 Base Line Corrected and Low Pass Filtered (Cut Off at 35 Hz) Time History
 Acceleration data in cm/sec**2
    
[...]
      -5.407
      -4.872
      -3.945
      -2.609
      -0.889
       1.085
       3.069
       4.778
       5.991
       6.598
       6.589
       6.014
       4.972
       3.617
       2.159
       0.825
      -0.209
      -0.881
      -1.256
      -1.488
      -1.756
      -2.203
      -2.887
      -3.764
      -4.706
      -5.562
      -6.240
      -6.749
      -7.187
      -7.655
      -8.159
      -8.579
      -8.732
      -8.491
      -7.856
      -6.933
      -5.859
      -4.741
      -3.656
      -2.680
      -1.893
      -1.347
      -1.023
      -0.817
      -0.563
      -0.114
       0.567
       1.375
       2.109
       2.597
       2.814
       2.895
       3.044
       3.378
       3.844
       4.269
       4.519
       4.650
       4.912
       5.599
       6.854
       8.566
      10.440
      12.177
      13.608
      14.725
      15.599
      16.283
      16.767
      17.011
      17.020
      16.883
      16.734
      16.641
      16.507
      16.076
      15.058
      13.306
      10.893
       8.078
       5.183
       2.489
       0.188
      -1.610
      -2.880
      -3.682
      -4.160
      -4.499
      -4.860
      -5.334
      -5.906
      -6.463
      -6.820
      -6.774
      -6.195
      -5.106
      -3.703
      -2.291
      -1.161
      -0.484
      -0.297
      -0.564
      -1.245
      -2.313
      -3.701
      -5.221
      -6.560
      -7.383
      -7.494
      -6.934
      -5.938
      -4.779
      -3.616
      -2.457
      -1.249
      -0.008
       1.104
       1.845
       2.035
       1.680
       0.957
       0.112
      -0.663
      -1.265
      -1.633
      -1.684
      -1.316
      -0.485
       0.710
       2.017
       3.140
       3.890
       4.275
       4.456
       4.614
       4.842
       5.143
       5.525
       6.058
       6.832
       7.855
       8.973
       9.914
      10.415
      10.336
       9.684
       8.563
       7.114
       5.510
       3.982
       2.788
       2.095
       1.849
       1.761
       1.447
       0.629
      -0.758
      -2.597
      -4.741
      -7.120
      -9.715
     -12.444
     -15.064
     -17.199
     -18.493
     -18.761
     -18.028
     -16.452
     -14.228
     -11.573
      -8.782
      -6.237
      -4.308
      -3.198
      -2.849
      -2.993
      -3.291
      -3.469
      -3.393
      -3.077
      -2.665
      -2.374
      -2.388
      -2.740
      -3.280
      -3.772
      -4.065
      -4.167
      -4.176
      -4.108
      -3.841
      -3.228
      -2.291
      -1.283
      -0.536
      -0.225
      -0.273
      -0.475
      -0.710
      -1.023
      -1.529
      -2.231
      -2.970
      -3.531
      -3.802
      -3.826
      -3.707
      -3.475
      -3.087
      -2.538
      -1.969
      -1.609
      -1.596
      -1.831
      -2.031
      -1.907
      -1.335
      -0.361
       0.896
       2.334
       3.859
       5.337
       6.576
       7.375
       7.584
       7.134
       6.013
       4.261
       1.980
      -0.639
      -3.332
      -5.860
      -8.125
     -10.209
     -12.268
     -14.345
     -16.262
     -17.707
     -18.439
     -18.437
     -17.858
     -16.870
     -15.513
     -13.691
     -11.301
      -8.353
      -5.017
      -1.557
       1.777
       4.824
       7.528
       9.909
      12.010
      13.851
      15.403
      16.602
      17.408
      17.867
      18.124
      18.378
      18.786
      19.397
      20.138
      20.877
      21.498
      21.957
      22.273
      22.476
      22.547
      22.433
      22.109
      21.638
      21.143
      20.690
      20.193
      19.443
      18.253
      16.601
      14.650
      12.637
      10.737
       9.010
       7.476
       6.227
       5.472
       5.424
       6.155
       7.516
       9.226
      11.028
      12.772
      14.377
      15.705
      16.501
      16.469
      15.428
      13.419
      10.667
       7.459
       4.029
       0.535
      -2.890
      -6.084
      -8.875
     -11.174
     -13.052
     -14.724
     -16.405
     -18.149
     -19.816
     -21.200
     -22.213
     -22.968
     -23.691
     -24.529
     -25.440
     -26.242
     -26.791
     -27.110
     -27.379
     -27.754
     -28.197
     -28.430
     -28.073
     -26.872
     -24.874
     -22.420
     -19.971
     -17.877
     -16.244
     -14.964
     -13.885
     -12.976
     -12.356
     -12.174
     -12.428
     -12.885
     -13.170
     -12.971
     -12.185
     -10.914
      -9.346
      -7.656
      -5.996
      -4.518
      -3.336
      -2.412
      -1.481
      -0.137
       1.936
       4.734
       7.887
      10.817
      12.988
      14.089
      14.084
      13.137
      11.516
       9.528
       7.499
       5.766
       4.633
       4.301
       4.813
       6.057
       7.810
       9.770
      11.590
      12.916
      13.467
      13.132
      12.033
      10.501
       8.957
       7.758
       7.108
       7.065
       7.612
       8.693
      10.201
      11.939
      13.666
      15.191
      16.466
      17.569
      18.583
      19.454
      19.957
      19.776
      18.650
      16.487
      13.429
       9.841
       6.233
       3.099
       0.746
      -0.790
      -1.672
      -2.083
      -2.075
      -1.592
      -0.610
       0.708
       2.021
       2.964
       3.326
       3.117
       2.489
       1.618
       0.642
      -0.303
      -1.045
      -1.404
      -1.292
      -0.772
      -0.001
       0.873
       1.777
       2.632
       3.236
       3.243
       2.299
       0.267
      -2.649
      -5.980
      -9.248
     -12.186
     -14.779
     -17.136
     -19.346
     -21.434
     -23.385
     -25.153
     -26.655
     -27.775
     -28.415
     -28.558
     -28.284
     -27.747
     -27.124
     -26.553
     -26.072
     -25.608
     -25.018
     -24.182
     -23.059
     -21.681
     -20.086
     -18.262
     -16.144
     -13.679
     -10.905
      -7.978
      -5.150
      -2.682
      -0.751
       0.626
       1.630
       2.578
       3.788
       5.398
       7.265
       9.030
      10.312
      10.916
      10.890
      10.415
       9.633
       8.570
       7.172
       5.392
       3.248
       0.825
      -1.754
      -4.348
      -6.835
      -9.142
     -11.269
     -13.247
     -15.057
     -16.574
     -17.629
     -18.159
     -18.315
     -18.436
     -18.876
     -19.826
     -21.224
     -22.799
     -24.207
     -25.177
     -25.585
     -25.429
     -24.736
     -23.492
     -21.645
     -19.142
     -15.974
     -12.191
      -7.909
      -3.320
       1.303
       5.664
       9.564
      13.025
      16.283
      19.622
      23.170
      26.795
      30.186
      33.044
      35.240
      36.823
      37.925
      38.647
      39.003
      38.973
      38.585
      37.976
      37.369
      36.992
      36.955
      37.159
      37.264
      36.769
      35.174
      32.172
      27.761
      22.235
      16.062
       9.737
       3.661
      -1.900
      -6.804
     -10.978
     -14.367
     -16.896
     -18.472
     -19.020
     -18.551
     -17.226
     -15.356
     -13.319
     -11.434
      -9.854
      -8.589
      -7.629
      -7.049
      -6.997
      -7.545
      -8.545
      -9.625
     -10.365
     -10.518
     -10.112
      -9.367
      -8.497
      -7.587
      -6.601
      -5.504
      -4.349
      -3.261
      -2.344
      -1.607
      -0.978
      -0.386
       0.155
       0.535
       0.625
       0.387
      -0.089
      -0.626
      -1.004
      -1.000
      -0.430
       0.790
       2.582
       4.716
       6.902
       8.917
      10.674
      12.178
      13.403
      14.206
      14.354
      13.653
      12.099
       9.922
       7.490
       5.158
       3.154
       1.596
       0.583
       0.237
       0.642
       1.743
       3.296
       4.926
       6.279
       7.137
       7.437
       7.167
       6.251
       4.558
       2.054
      -1.035
      -4.256
      -7.119
      -9.325
     -10.829
     -11.740
     -12.171
     -12.163
     -11.715
     -10.872
      -9.772
      -8.617
      -7.571
      -6.688
      -5.925
      -5.258
      -4.802
      -4.820
      -5.577
      -7.156
      -9.357
     -11.779
     -14.003
     -15.759
     -16.991
     -17.790
     -18.271
     -18.476
     -18.376
     -17.971
     -17.374
     -16.800
     -16.433
     -16.294
     -16.207
     -15.924
     -15.279
     -14.274
     -13.011
     -11.562
      -9.875
      -7.826
      -5.323
      -2.409
       0.713
       3.740
       6.363
       8.366
       9.686
      10.417
      10.782
      11.067
      11.550
      12.421
      13.711
      15.284
      16.916
      18.411
      19.677
      20.687
      21.383
      21.615
      21.194
      20.029
      18.229
      16.057
      13.789
      11.575
       9.427
       7.326
       5.333
       3.599
       2.256
       1.305
       0.604
      -0.023
      -0.633
      -1.111
      -1.247
      -0.906
      -0.145
       0.781
       1.542
       1.880
       1.693
       1.021
      -0.028
      -1.347
      -2.845
      -4.410
      -5.876
      -7.053
      -7.816
      -8.194
      -8.350
      -8.444
      -8.495
      -8.370
      -7.947
      -7.289
      -6.660
      -6.327
      -6.307
      -6.293
      -5.837
      -4.669
      -2.890
      -0.888
       0.917
       2.309
       3.295
       3.968
       4.343
       4.332
       3.844
       2.912
       1.727
       0.548
      -0.430
      -1.153
      -1.682
      -2.091
      -2.393
      -2.511
      -2.283
      -1.471
       0.207
       2.954
       6.694
      10.963
      15.033
      18.244
      20.312
      21.375
      21.738
      21.590
      20.900
      19.565
      17.618
      15.313
      13.038
      11.167
       9.951
       9.510
       9.854
      10.884
      12.383
      14.044
      15.554
      16.721
      17.517
      18.029
      18.337
      18.415
      18.138
      17.374
      16.103
      14.436
      12.530
      10.478
       8.282
       5.948
       3.570
       1.320
      -0.684
      -2.495
      -4.338
      -6.459
      -8.942
     -11.629
     -14.222
     -16.474
     -18.335
     -19.918
     -21.333
     -22.535
     -23.295
     -23.332
     -22.506
     -20.921
     -18.884
     -16.768
     -14.910
     -13.565
     -12.904
     -12.994
     -13.785
     -15.125
     -16.801
     -18.555
     -20.081
     -21.036
     -21.092
     -20.043
     -17.912
     -14.997
     -11.821
      -8.971
      -6.899
      -5.778
      -5.477
      -5.677
      -6.040
      -6.334
      -6.447
      -6.326
      -5.893
      -5.024
      -3.579
      -1.481
       1.224
       4.325
       7.491
      10.383
      12.826
      14.905
      16.872
      18.911
      20.941
      22.648
      23.709
      24.036
      23.821
      23.392
      22.995
      22.659
      22.166
      21.120
      19.100
      15.883
      11.626
       6.893
       2.433
      -1.135
      -3.529
      -4.790
      -5.140
      -4.855
      -4.219
      -3.522
      -3.019
      -2.874
      -3.126
      -3.725
      -4.602
      -5.705
      -6.989
      -8.360
      -9.647
     -10.640
     -11.172
     -11.181
     -10.700
      -9.788
      -8.484
      -6.792
      -4.692
      -2.170
       0.727
       3.861
       7.023
      10.003
      12.647
      14.848
      16.486
      17.402
      17.439
      16.538
      14.813
      12.536
      10.023
       7.529
       5.220
       3.204
       1.571
       0.362
      -0.470
      -1.062
      -1.593
      -2.237
      -3.161
      -4.533
      -6.481
      -9.013
     -11.967
     -15.031
     -17.855
     -20.174
     -21.880
     -22.994
     -23.575
     -23.661
     -23.299
     -22.630
     -21.907
     -21.398
     -21.225
     -21.254
     -21.168
     -20.693
     -19.824
     -18.876
     -18.298
     -18.391
     -19.118
     -20.150
     -21.087
     -21.697
     -22.007
     -22.200
     -22.420
     -22.623
     -22.540
     -21.773
     -19.953
     -16.918
     -12.839
      -8.212
      -3.685
       0.219
       3.310
       5.726
       7.756
       9.646
      11.533
      13.523
      15.740
      18.268
      21.027
      23.727
      25.975
      27.476
      28.184
      28.300
      28.129
      27.924
      27.814
      27.827
      27.938
      28.081
      28.116
      27.816
      26.924
      25.241
      22.722
      19.493
      15.806
      11.945
       8.165
       4.671
       1.622
      -0.884
      -2.834
      -4.303
      -5.401
      -6.203
      -6.686
      -6.763
      -6.398
      -5.678
      -4.801
      -3.959
      -3.213
      -2.489
      -1.658
      -0.652
       0.487
       1.658
       2.793
       3.920
       5.150
       6.583
       8.195
       9.785
      11.042
      11.710
      11.735
      11.288
      10.627
       9.933
       9.230
       8.459
       7.617
       6.820
       6.250
       6.052
       6.264
       6.825
       7.607
       8.472
       9.338
      10.241
      11.326
      12.736
      14.450
      16.208
      17.623
      18.417
      18.573
      18.264
      17.570
      16.239
      13.748
       9.709
       4.312
      -1.598
      -6.932
     -10.948
     -13.559
     -15.161
     -16.212
     -16.934
     -17.298
     -17.184
     -16.552
     -15.541
     -14.495
     -13.903
     -14.260
     -15.891
     -18.825
     -22.779
     -27.274
     -31.789
     -35.900
     -39.328
     -41.917
     -43.574
     -44.235
     -43.847
     -42.373
     -39.789
     -36.125
     -31.504
     -26.177
     -20.466
     -14.683
      -9.051
      -3.694
       1.342
       6.061
      10.518
      14.789
      18.920
      22.848
      26.406
      29.403
      31.739
      33.437
      34.597
      35.306
      35.596
      35.470
      34.945
      34.053
      32.807
      31.183
      29.124
      26.608
      23.708
      20.644
      17.762
      15.437
      13.915
      13.203
      13.083
      13.257
      13.472
      13.524
      13.201
      12.320
      10.835
       8.890
       6.749
       4.648
       2.683
       0.831
      -0.905
      -2.317
      -2.992
      -2.540
      -0.901
       1.550
       4.208
       6.602
       8.606
      10.353
      11.978
      13.434
      14.531
      15.119
      15.215
      14.987
      14.603
      14.109
      13.436
      12.534
      11.516
      10.685
      10.397
      10.831
      11.834
      12.969
      13.740
      13.810
      13.075
      11.543
       9.192
       5.947
       1.827
      -2.910
      -7.812
     -12.450
     -16.618
     -20.331
     -23.634
     -26.430
     -28.482
     -29.604
     -29.825
     -29.399
     -28.661
     -27.862
     -27.114
     -26.418
     -25.707
     -24.842
     -23.614
     -21.807
     -19.324
     -16.283
     -12.981
      -9.753
      -6.820
      -4.259
      -2.120
      -0.576
       0.038
      -0.618
      -2.627
      -5.627
      -8.870
     -11.513
     -12.977
     -13.152
     -12.313
     -10.862
      -9.079
      -7.039
      -4.717
      -2.139
       0.526
       3.006
       5.049
       6.523
       7.437
       7.875
       7.920
       7.626
       7.051
       6.302
       5.539
       4.906
       4.459
       4.144
       3.871
       3.608
       3.420
       3.402
       3.573
       3.813
       3.924
       3.763
       3.380
       3.011
       2.940
       3.310
       4.045
       4.947
       5.878
       6.884
       8.133
       9.735
      11.571
      13.265
      14.310
      14.258
      12.870
      10.170
       6.423
       2.065
      -2.383
      -6.413
      -9.617
     -11.759
     -12.819
     -12.963
     -12.462
     -11.583
     -10.530
      -9.451
      -8.448
      -7.522
      -6.497
      -5.047
      -2.885
      -0.017
       3.172
       6.081
       8.209
       9.383
       9.739
       9.514
       8.847
       7.754
       6.287
       4.707
       3.487
       3.106
       3.756
       5.197
       6.879
       8.249
       9.010
       9.142
       8.738
       7.839
       6.448
       4.650
       2.694
       0.910
      -0.476
      -1.445
      -2.122
      -2.608
      -2.887
      -2.897
      -2.695
      -2.524
      -2.709
      -3.463
      -4.794
      -6.562
      -8.610
     -10.834
     -13.129
     -15.320
     -17.151
     -18.394
     -18.988
     -19.077
     -18.922
     -18.705
     -18.369
     -17.625
     -16.142
     -13.829
     -10.981
      -8.206
      -6.145
      -5.207
      -5.471
      -6.766
      -8.828
     -11.381
     -14.167
     -16.938
     -19.477
     -21.609
     -23.210
     -24.189
     -24.513
     -24.241
     -23.542
     -22.647
     -21.774
     -21.076
     -20.626
     -20.433
     -20.443
     -20.547
     -20.600
     -20.465
     -20.053
     -19.323
     -18.240
     -16.747
     -14.765
     -12.238
      -9.172
      -5.644
      -1.779
       2.268
       6.298
      10.032
      13.109
      15.168
      15.993
      15.669
      14.601
      13.353
      12.397
      11.917
      11.817
      11.868
      11.878
      11.778
      11.616
      11.506
      11.577
      11.929
      12.592
      13.514
      14.561
      15.569
      16.377
      16.875
      17.018
      16.833
      16.391
      15.747
      14.911
      13.834
      12.461
      10.778
       8.829
       6.700
       4.495
       2.377
       0.626
      -0.362
      -0.195
       1.310
       3.986
       7.364
      10.910
      14.263
      17.294
      19.962
      22.125
      23.513
      23.869
      23.127
      21.457
      19.148
      16.455
      13.547
      10.578
       7.773
       5.425
       3.760
       2.796
       2.308
       1.943
       1.397
       0.547
      -0.540
      -1.703
      -2.814
      -3.840
      -4.810
      -5.751
      -6.647
      -7.480
      -8.274
      -9.086
      -9.915
     -10.632
     -11.010
     -10.845
     -10.085
      -8.841
      -7.315
      -5.720
      -4.265
      -3.174
      -2.642
      -2.694
      -3.081
      -3.355
      -3.109
      -2.227
      -0.937
       0.367
       1.376
       2.006
       2.347
       2.528
       2.639
       2.754
       2.966
       3.350
       3.866
       4.301
       4.335
       3.724
       2.459
       0.804
      -0.834
      -2.104
      -2.850
      -3.120
      -3.051
      -2.730
      -2.147
      -1.255
      -0.103
       1.105
       2.104
       2.743
       3.114
       3.490
       4.132
       5.108
       6.282
       7.462
       8.572
       9.708
      11.041
      12.659
      14.492
      16.337
      17.931
      19.005
      19.292
      18.573
      16.784
      14.119
      11.015
       7.963
       5.287
       3.063
       1.246
      -0.116
      -0.784
      -0.445
       1.045
       3.475
       6.312
       8.930
      10.880
      12.043
      12.588
      12.780
      12.806
      12.706
      12.438
      11.989
      11.444
      10.967
      10.717
      10.736
      10.916
      11.057
      10.988
      10.663
      10.147
       9.520
       8.795
       7.921
       6.833
       5.497
       3.900
       2.006
      -0.238
      -2.861
      -5.814
      -8.967
     -12.162
     -15.263
     -18.177
     -20.846
