Origin Time       21/9/2009 8:53:04	  UTC
Lat.              27.3 N	
Long.             91.5 E	
Depth (Km)          8.0
Magnitude         6.2
 Region           BHUTAN                                                           
 Above details taken from IMD 
    
Station Code      COB
Station Lat.       26.319  N
Station Long.      89.440  E
Station Height(m)   49.6
Site Class        C   Vs30 between 200 m/sec to 375 m/sec *  
Record Time       21.09.2009 08:53:57.499 UTC
Sampling Rate     200. Hz
 Record Duration   76.650 Sec.
 Direction         N-S (N positive)
Max. Acceleration    -15.512 cm/sec**2
     
  * For reference see Site Classification link of website 
     
 Base Line Corrected and Low Pass Filtered (Cut Off at 35 Hz) Time History
 Acceleration data in cm/sec**2
    
[...]
      -0.871
      -0.845
      -0.795
      -0.727
      -0.651
      -0.579
      -0.522
      -0.483
      -0.456
      -0.429
      -0.388
      -0.321
      -0.223
      -0.097
       0.041
       0.172
       0.277
       0.346
       0.382
       0.396
       0.405
       0.425
       0.462
       0.517
       0.582
       0.649
       0.712
       0.764
       0.800
       0.816
       0.811
       0.787
       0.750
       0.710
       0.674
       0.644
       0.622
       0.605
       0.585
       0.546
       0.472
       0.353
       0.194
       0.011
      -0.180
      -0.368
      -0.540
      -0.684
      -0.784
      -0.834
      -0.835
      -0.799
      -0.743
      -0.682
      -0.623
      -0.568
      -0.517
      -0.470
      -0.427
      -0.387
      -0.351
      -0.319
      -0.298
      -0.297
      -0.324
      -0.377
      -0.444
      -0.517
      -0.585
      -0.641
      -0.672
      -0.664
      -0.607
      -0.499
      -0.351
      -0.180
      -0.005
       0.155
       0.282
       0.364
       0.398
       0.391
       0.357
       0.309
       0.254
       0.198
       0.144
       0.097
       0.056
       0.016
      -0.029
      -0.083
      -0.142
      -0.199
      -0.251
      -0.295
      -0.331
      -0.360
      -0.383
      -0.400
      -0.402
      -0.382
      -0.342
      -0.291
      -0.241
      -0.198
      -0.159
      -0.118
      -0.075
      -0.032
       0.006
       0.037
       0.060
       0.077
       0.085
       0.083
       0.072
       0.055
       0.036
       0.011
      -0.025
      -0.080
      -0.156
      -0.244
      -0.334
      -0.409
      -0.457
      -0.467
      -0.436
      -0.369
      -0.282
      -0.192
      -0.113
      -0.053
      -0.012
       0.014
       0.032
       0.047
       0.063
       0.079
       0.090
       0.090
       0.080
       0.066
       0.061
       0.074
       0.107
       0.153
       0.198
       0.232
       0.247
       0.236
       0.201
       0.149
       0.097
       0.067
       0.080
       0.142
       0.239
       0.341
       0.415
       0.444
       0.430
       0.393
       0.349
       0.310
       0.278
       0.257
       0.251
       0.262
       0.290
       0.321
       0.339
       0.331
       0.292
       0.227
       0.145
       0.056
      -0.034
      -0.114
      -0.173
      -0.199
      -0.189
      -0.146
      -0.082
      -0.015
       0.039
       0.071
       0.083
       0.081
       0.075
       0.074
       0.084
       0.112
       0.161
       0.233
       0.322
       0.423
       0.525
       0.620
       0.696
       0.748
       0.772
       0.770
       0.746
       0.705
       0.659
       0.617
       0.586
       0.571
       0.568
       0.572
       0.580
       0.589
       0.595
       0.588
       0.559
       0.503
       0.429
       0.352
       0.286
       0.239
       0.208
       0.189
       0.178
       0.172
       0.168
       0.160
       0.144
       0.121
       0.097
       0.081
       0.079
       0.091
       0.117
       0.154
       0.199
       0.244
       0.282
       0.308
       0.319
       0.311
       0.280
       0.223
       0.151
       0.085
       0.044
       0.034
       0.046
       0.063
       0.071
       0.064
       0.047
       0.024
      -0.001
      -0.031
      -0.068
      -0.106
      -0.138
      -0.161
      -0.180
      -0.207
      -0.249
      -0.306
      -0.369
      -0.424
      -0.460
      -0.472
      -0.464
      -0.449
      -0.438
      -0.434
      -0.436
      -0.437
      -0.432
      -0.420
      -0.402
      -0.382
      -0.367
      -0.367
      -0.393
      -0.453
      -0.540
      -0.638
      -0.727
      -0.793
      -0.834
      -0.858
      -0.881
      -0.919
      -0.981
      -1.068
      -1.166
      -1.251
      -1.295
      -1.282
      -1.213
      -1.107
      -0.992
      -0.890
      -0.808
      -0.740
      -0.674
      -0.599
      -0.510
      -0.409
      -0.300
      -0.191
      -0.088
       0.002
       0.069
       0.102
       0.095
       0.055
      -0.003
      -0.062
      -0.113
      -0.160
      -0.210
      -0.268
      -0.326
      -0.377
      -0.412
      -0.425
      -0.414
      -0.377
      -0.316
      -0.242
      -0.175
      -0.132
      -0.117
      -0.114
      -0.094
      -0.034
       0.075
       0.223
       0.393
       0.563
       0.716
       0.842
       0.940
       1.007
       1.045
       1.057
       1.054
       1.051
       1.058
       1.077
       1.095
       1.101
       1.083
       1.035
       0.955
       0.844
       0.706
       0.543
       0.358
       0.153
      -0.065
      -0.286
      -0.497
      -0.683
      -0.840
      -0.973
      -1.083
      -1.169
      -1.222
      -1.234
      -1.209
      -1.159
      -1.098
      -1.036
      -0.973
      -0.906
      -0.832
      -0.752
      -0.668
      -0.584
      -0.504
      -0.431
      -0.368
      -0.314
      -0.266
      -0.215
      -0.148
      -0.062
       0.033
       0.114
       0.155
       0.137
       0.060
      -0.065
      -0.223
      -0.398
      -0.578
      -0.750
      -0.902
      -1.023
      -1.116
      -1.194
      -1.279
      -1.383
      -1.508
      -1.644
      -1.779
      -1.904
      -2.018
      -2.124
      -2.224
      -2.322
      -2.416
      -2.504
      -2.579
      -2.627
      -2.632
      -2.585
      -2.486
      -2.350
      -2.194
      -2.027
      -1.848
      -1.641
      -1.392
      -1.095
      -0.759
      -0.408
      -0.071
       0.230
       0.481
       0.678
       0.821
       0.916
       0.977
       1.025
       1.085
       1.173
       1.288
       1.412
       1.509
       1.551
       1.521
       1.425
       1.283
       1.117
       0.946
       0.785
       0.643
       0.526
       0.424
       0.319
       0.189
       0.021
      -0.185
      -0.415
      -0.654
      -0.889
      -1.106
      -1.291
      -1.429
      -1.511
      -1.535
      -1.515
      -1.472
      -1.430
      -1.409
      -1.418
      -1.459
      -1.523
      -1.598
      -1.666
      -1.710
      -1.714
      -1.671
      -1.579
      -1.449
      -1.295
      -1.134
      -0.976
      -0.824
      -0.673
      -0.517
      -0.349
      -0.161
       0.048
       0.271
       0.488
       0.676
       0.819
       0.917
       0.976
       1.004
       1.006
       0.988
       0.964
       0.952
       0.964
       1.005
       1.065
       1.131
       1.195
       1.247
       1.280
       1.282
       1.247
       1.173
       1.069
       0.944
       0.812
       0.687
       0.588
       0.528
       0.514
       0.539
       0.587
       0.640
       0.681
       0.701
       0.696
       0.667
       0.622
       0.576
       0.542
       0.525
       0.527
       0.545
       0.585
       0.657
       0.768
       0.910
       1.066
       1.214
       1.336
       1.422
       1.470
       1.484
       1.471
       1.442
       1.405
       1.370
       1.344
       1.331
       1.329
       1.337
       1.354
       1.371
       1.373
       1.340
       1.261
       1.138
       0.981
       0.802
       0.611
       0.413
       0.212
       0.010
      -0.192
      -0.388
      -0.569
      -0.723
      -0.843
      -0.926
      -0.973
      -0.988
      -0.973
      -0.924
      -0.835
      -0.701
      -0.519
      -0.293
      -0.038
       0.232
       0.503
       0.770
       1.037
       1.310
       1.594
       1.889
       2.190
       2.488
       2.771
       3.028
       3.248
       3.420
       3.542
       3.609
       3.625
       3.596
       3.535
       3.453
       3.351
       3.221
       3.051
       2.832
       2.564
       2.249
       1.891
       1.495
       1.061
       0.587
       0.070
      -0.486
      -1.064
      -1.636
      -2.171
      -2.643
      -3.036
      -3.350
      -3.599
      -3.805
      -3.996
      -4.189
      -4.392
      -4.593
      -4.766
      -4.888
      -4.937
      -4.905
      -4.786
      -4.584
      -4.305
      -3.957
      -3.544
      -3.067
      -2.531
      -1.951
      -1.348
      -0.741
      -0.141
       0.453
       1.047
       1.646
       2.250
       2.859
       3.475
       4.105
       4.749
       5.397
       6.024
       6.602
       7.104
       7.519
       7.845
       8.095
       8.283
       8.415
       8.483
       8.476
       8.380
       8.180
       7.865
       7.423
       6.848
       6.147
       5.336
       4.440
       3.481
       2.484
       1.469
       0.463
      -0.507
      -1.406
      -2.207
      -2.898
      -3.485
      -3.988
      -4.427
      -4.815
      -5.157
      -5.453
      -5.694
      -5.873
      -5.977
      -5.996
      -5.928
      -5.779
      -5.566
      -5.312
      -5.038
      -4.763
      -4.498
      -4.242
      -3.983
      -3.700
      -3.379
      -3.010
      -2.592
      -2.126
      -1.614
      -1.065
      -0.498
       0.068
       0.618
       1.145
       1.649
       2.133
       2.601
       3.060
       3.520
       3.986
       4.455
       4.916
       5.355
       5.757
       6.110
       6.406
       6.634
       6.788
       6.860
       6.851
       6.769
       6.634
       6.471
       6.304
       6.153
       6.021
       5.908
       5.805
       5.707
       5.613
       5.532
       5.475
       5.453
       5.470
       5.519
       5.588
       5.666
       5.743
       5.809
       5.852
       5.862
       5.827
       5.743
       5.609
       5.429
       5.210
       4.955
       4.661
       4.317
       3.910
       3.428
       2.860
       2.199
       1.447
       0.621
      -0.251
      -1.138
      -2.011
      -2.850
      -3.637
      -4.353
      -4.983
      -5.521
      -5.969
      -6.335
      -6.628
      -6.842
      -6.960
      -6.960
      -6.821
      -6.531
      -6.093
      -5.520
      -4.834
      -4.061
      -3.230
      -2.369
      -1.503
      -0.646
       0.199
       1.029
       1.829
       2.571
       3.221
       3.755
       4.168
       4.462
       4.643
       4.708
       4.656
       4.487
       4.210
       3.834
       3.370
       2.828
       2.216
       1.545
       0.828
       0.075
      -0.710
      -1.533
      -2.401
      -3.306
      -4.222
      -5.107
      -5.928
      -6.661
      -7.301
      -7.837
      -8.256
      -8.537
      -8.668
      -8.657
      -8.521
      -8.286
      -7.972
      -7.594
      -7.161
      -6.678
      -6.150
      -5.585
      -4.996
      -4.397
      -3.802
      -3.226
      -2.688
      -2.211
      -1.820
      -1.529
      -1.337
      -1.232
      -1.197
      -1.223
      -1.312
      -1.465
      -1.682
      -1.959
      -2.283
      -2.646
      -3.044
      -3.480
      -3.961
      -4.490
      -5.061
      -5.660
      -6.263
      -6.842
      -7.368
      -7.819
      -8.174
      -8.424
      -8.565
      -8.610
      -8.573
      -8.462
      -8.266
      -7.959
      -7.511
      -6.911
      -6.166
      -5.309
      -4.385
      -3.447
      -2.547
      -1.731
      -1.029
      -0.455
      -0.005
       0.343
       0.610
       0.814
       0.962
       1.057
       1.107
       1.126
       1.128
       1.130
       1.144
       1.190
       1.287
       1.456
       1.710
       2.051
       2.470
       2.941
       3.430
       3.899
       4.321
       4.684
       4.982
       5.212
       5.370
       5.454
       5.468
       5.430
       5.358
       5.268
       5.168
       5.066
       4.970
       4.894
       4.846
       4.825
       4.811
       4.767
       4.655
       4.450
       4.139
       3.724
       3.208
       2.600
       1.909
       1.149
       0.334
      -0.530
      -1.439
      -2.392
      -3.383
      -4.392
      -5.387
      -6.327
      -7.173
      -7.896
      -8.482
      -8.931
      -9.252
      -9.460
      -9.570
      -9.599
      -9.559
      -9.452
      -9.268
      -8.990
      -8.602
      -8.102
      -7.502
      -6.820
      -6.079
      -5.300
      -4.501
      -3.706
      -2.938
      -2.223
      -1.583
      -1.035
      -0.589
      -0.242
       0.018
       0.218
       0.392
       0.579
       0.814
       1.126
       1.532
       2.034
       2.618
       3.251
       3.891
       4.497
       5.038
       5.498
       5.874
       6.172
       6.407
       6.596
       6.750
       6.873
       6.962
       7.006
       6.987
       6.884
       6.683
       6.381
       5.995
       5.555
       5.096
       4.650
       4.236
       3.866
       3.551
       3.310
       3.174
       3.178
       3.349
       3.702
       4.236
       4.933
       5.763
       6.685
       7.654
       8.623
       9.551
      10.405
      11.166
      11.830
      12.407
      12.904
      13.319
      13.631
      13.810
      13.831
      13.683
      13.373
      12.920
      12.353
      11.711
      11.037
      10.371
       9.745
       9.166
       8.624
       8.098
       7.564
       7.004
       6.403
       5.752
       5.046
       4.285
       3.476
       2.629
       1.750
       0.842
      -0.098
      -1.077
      -2.097
      -3.155
      -4.239
      -5.330
      -6.410
      -7.465
      -8.492
      -9.488
     -10.445
     -11.342
     -12.155
     -12.869
     -13.477
     -13.987
     -14.410
     -14.756
     -15.032
     -15.244
     -15.394
     -15.485
     -15.512
     -15.462
     -15.313
     -15.047
     -14.660
     -14.172
     -13.616
     -13.010
     -12.358
     -11.652
     -10.899
     -10.118
      -9.333
      -8.541
      -7.716
      -6.813
      -5.795
      -4.643
      -3.361
      -1.968
      -0.495
       1.018
       2.519
       3.955
       5.279
       6.456
       7.465
       8.298
       8.955
       9.444
       9.777
       9.960
       9.996
       9.882
       9.613
       9.188
       8.608
       7.875
       6.997
       5.996
       4.912
       3.806
       2.743
       1.789
       0.992
       0.373
      -0.073
      -0.372
      -0.561
      -0.671
      -0.725
      -0.738
      -0.721
      -0.680
      -0.617
      -0.523
      -0.387
      -0.203
       0.027
       0.288
       0.553
       0.791
       0.971
       1.065
       1.054
       0.927
       0.682
       0.323
      -0.129
      -0.644
      -1.185
      -1.708
      -2.171
      -2.541
      -2.798
      -2.940
      -2.971
      -2.898
      -2.717
      -2.423
      -2.022
      -1.533
      -0.992
      -0.442
       0.069
       0.493
       0.776
       0.867
       0.736
       0.389
      -0.128
      -0.739
      -1.362
      -1.929
      -2.392
      -2.733
      -2.956
      -3.087
      -3.160
      -3.207
      -3.248
      -3.285
      -3.301
      -3.278
      -3.199
      -3.050
      -2.818
      -2.499
      -2.100
      -1.646
      -1.164
      -0.677
      -0.197
       0.274
       0.733
       1.175
       1.597
       1.996
       2.379
       2.749
       3.102
       3.417
       3.666
       3.812
       3.820
       3.665
       3.343
       2.875
       2.296
       1.654
       0.996
       0.372
      -0.176
      -0.620
      -0.961
      -1.219
      -1.427
      -1.620
      -1.823
      -2.052
      -2.312
      -2.598
      -2.897
      -3.191
      -3.464
      -3.701
      -3.889
      -4.020
      -4.091
      -4.106
      -4.072
      -4.001
      -3.901
      -3.778
      -3.633
      -3.462
      -3.260
      -3.029
      -2.796
      -2.609
      -2.518
      -2.551
      -2.700
      -2.924
      -3.175
      -3.416
      -3.625
      -3.791
      -3.900
      -3.921
      -3.820
      -3.571
      -3.163
      -2.605
      -1.918
      -1.122
      -0.237
       0.706
       1.662
       2.594
       3.492
       4.368
       5.235
       6.094
       6.929
       7.721
       8.451
       9.107
       9.682
      10.177
      10.593
      10.928
      11.183
      11.368
      11.504
      11.599
      11.632
      11.561
      11.351
      10.991
      10.499
       9.905
       9.233
       8.495
       7.697
       6.856
       5.996
       5.153
       4.355
       3.611
       2.915
       2.251
       1.608
       0.974
       0.337
      -0.318
      -0.998
      -1.684
      -2.337
      -2.909
      -3.373
      -3.729
      -3.995
      -4.187
      -4.303
      -4.331
      -4.265
      -4.123
      -3.935
      -3.733
      -3.538
      -3.352
      -3.165
      -2.976
      -2.793
      -2.635
      -2.514
      -2.422
      -2.333
      -2.217
      -2.054
      -1.846
      -1.610
      -1.371
      -1.150
      -0.965
      -0.838
      -0.785
      -0.810
      -0.894
      -1.014
      -1.159
      -1.347
      -1.606
      -1.959
      -2.404
      -2.911
      -3.433
      -3.916
      -4.312
      -4.584
      -4.706
      -4.660
      -4.445
      -4.070
      -3.561
      -2.959
      -2.314
      -1.678
      -1.103
      -0.632
      -0.293
      -0.096
      -0.029
      -0.056
      -0.119
      -0.150
      -0.088
       0.116
       0.485
       1.022
       1.710
       2.503
       3.338
       4.141
       4.847
       5.417
       5.839
       6.123
       6.290
       6.361
       6.347
       6.249
       6.068
       5.800
       5.449
       5.016
       4.505
       3.913
       3.237
       2.469
       1.594
       0.593
      -0.544
      -1.816
      -3.195
      -4.633
      -6.066
      -7.424
      -8.643
      -9.674
     -10.491
     -11.086
     -11.470
     -11.653
     -11.633
     -11.397
     -10.932
     -10.237
      -9.331
      -8.245
      -7.025
      -5.720
      -4.383
      -3.063
      -1.800
      -0.629
       0.431
       1.374
       2.209
       2.947
       3.589
       4.118
       4.513
       4.758
       4.848
       4.787
       4.584
       4.258
       3.844
       3.389
       2.939
       2.528
       2.169
       1.856
       1.569
       1.282
       0.965
       0.594
       0.158
      -0.326
      -0.822
      -1.287
      -1.683
      -1.986
      -2.193
      -2.319
      -2.397
      -2.467
      -2.563
      -2.710
      -2.919
      -3.190
      -3.513
      -3.870
      -4.235
      -4.578
      -4.871
      -5.088
      -5.213
      -5.241
      -5.176
      -5.027
      -4.796
      -4.480
      -4.075
      -3.576
      -2.977
      -2.271
      -1.452
      -0.534
       0.448
       1.440
       2.382
       3.228
       3.951
       4.543
       5.003
       5.333
       5.538
       5.632
       5.645
       5.611
       5.564
       5.522
       5.486
       5.442
       5.374
       5.275
       5.153
       5.025
       4.907
       4.811
       4.743
       4.713
       4.728
       4.789
       4.882
       4.983
       5.058
       5.073
       4.994
       4.796
       4.467
       4.004
       3.418
       2.738
       2.005
       1.269
       0.574
      -0.047
      -0.579
      -1.015
      -1.350
      -1.587
      -1.742
      -1.847
      -1.935
      -2.034
      -2.164
      -2.338
      -2.574
      -2.882
      -3.254
      -3.665
      -4.071
      -4.432
      -4.719
      -4.917
      -5.024
      -5.052
      -5.020
      -4.955
      -4.882
