Origin Time       18/9/2011 13:11:59	
Lat.              27.6 N	
Long.             88.5 E	
Depth (Km)         16.0
Magnitude         5.0
 Region           India(Sikkim)-Nepar-Border                                       
 Above details taken from IMD 
     
Station Code      COB
Station Lat.       26.319  N
Station Long.      89.440  E
Station Height(m)   64.0
Site Class        C   Vs30 between 200 m/sec to 375 m/sec *  
Record Time       18.09.2011 13:12:18.419
Sampling Rate     200. Hz
 Record Duration   81.950 Sec.
 Direction         E-W (E positive)
Max. Acceleration     -6.260 cm/sec**2
     
  * For reference see Site Classification link of website 
     
 Base Line Corrected and Low Pass Filtered (Cut Off at 35 Hz) Time History
 Acceleration data in cm/sec**2
    
[...]
      -0.110
      -0.103
      -0.102
      -0.093
      -0.067
      -0.023
       0.027
       0.074
       0.115
       0.150
       0.178
       0.200
       0.217
       0.233
       0.246
       0.249
       0.232
       0.192
       0.141
       0.095
       0.062
       0.034
       0.004
      -0.029
      -0.051
      -0.053
      -0.040
      -0.032
      -0.039
      -0.057
      -0.065
      -0.053
      -0.024
       0.005
       0.020
       0.022
       0.013
      -0.003
      -0.031
      -0.069
      -0.109
      -0.137
      -0.147
      -0.140
      -0.120
      -0.085
      -0.033
       0.032
       0.098
       0.151
       0.185
       0.208
       0.233
       0.261
       0.287
       0.296
       0.287
       0.264
       0.235
       0.200
       0.157
       0.111
       0.075
       0.060
       0.062
       0.067
       0.060
       0.040
       0.015
      -0.011
      -0.038
      -0.071
      -0.104
      -0.128
      -0.138
      -0.143
      -0.159
      -0.189
      -0.220
      -0.233
      -0.218
      -0.184
      -0.150
      -0.128
      -0.113
      -0.096
      -0.071
      -0.045
      -0.025
      -0.014
      -0.013
      -0.024
      -0.048
      -0.081
      -0.107
      -0.112
      -0.094
      -0.065
      -0.044
      -0.037
      -0.035
      -0.025
      -0.001
       0.033
       0.074
       0.117
       0.162
       0.203
       0.231
       0.238
       0.229
       0.216
       0.206
       0.198
       0.181
       0.151
       0.114
       0.087
       0.074
       0.066
       0.050
       0.023
      -0.005
      -0.021
      -0.027
      -0.034
      -0.054
      -0.082
      -0.105
      -0.114
      -0.115
      -0.119
      -0.129
      -0.140
      -0.138
      -0.126
      -0.114
      -0.115
      -0.130
      -0.148
      -0.157
      -0.156
      -0.149
      -0.134
      -0.107
      -0.062
      -0.006
       0.045
       0.081
       0.103
       0.119
       0.133
       0.140
       0.134
       0.117
       0.101
       0.093
       0.089
       0.083
       0.074
       0.070
       0.076
       0.089
       0.096
       0.089
       0.068
       0.043
       0.021
       0.003
      -0.012
      -0.026
      -0.033
      -0.035
      -0.041
      -0.061
      -0.093
      -0.122
      -0.131
      -0.118
      -0.096
      -0.083
      -0.078
      -0.067
      -0.037
       0.009
       0.056
       0.087
       0.098
       0.098
       0.095
       0.089
       0.076
       0.060
       0.053
       0.061
       0.078
       0.094
       0.100
       0.102
       0.108
       0.120
       0.132
       0.139
       0.140
       0.140
       0.136
       0.121
       0.091
       0.052
       0.021
       0.008
       0.012
       0.016
       0.010
      -0.005
      -0.016
      -0.014
      -0.003
       0.008
       0.009
       0.000
      -0.015
      -0.033
      -0.058
      -0.083
      -0.097
      -0.092
      -0.074
      -0.060
      -0.067
      -0.094
      -0.126
      -0.142
      -0.138
      -0.118
      -0.089
      -0.048
       0.003
       0.056
       0.091
       0.096
       0.076
       0.044
       0.013
      -0.016
      -0.047
      -0.082
      -0.109
      -0.118
      -0.107
      -0.087
      -0.071
      -0.059
      -0.040
      -0.011
       0.022
       0.042
       0.043
       0.031
       0.022
       0.026
       0.037
       0.042
       0.036
       0.022
       0.006
      -0.013
      -0.036
      -0.057
      -0.066
      -0.056
      -0.036
      -0.023
      -0.028
      -0.043
      -0.052
      -0.045
      -0.030
      -0.021
      -0.022
      -0.018
       0.001
       0.033
       0.059
       0.065
       0.055
       0.046
       0.048
       0.058
       0.065
       0.071
       0.083
       0.109
       0.139
       0.154
       0.139
       0.096
       0.045
       0.003
      -0.026
      -0.044
      -0.052
      -0.051
      -0.041
      -0.027
      -0.023
      -0.030
      -0.040
      -0.038
      -0.020
       0.009
       0.036
       0.057
       0.077
       0.099
       0.117
       0.120
       0.103
       0.069
       0.033
       0.000
      -0.029
      -0.056
      -0.078
      -0.091
      -0.095
      -0.097
      -0.106
      -0.122
      -0.131
      -0.123
      -0.096
      -0.059
      -0.024
       0.008
       0.035
       0.052
       0.050
       0.024
      -0.015
      -0.050
      -0.067
      -0.066
      -0.059
      -0.057
      -0.055
      -0.044
      -0.016
       0.021
       0.056
       0.079
       0.091
       0.095
       0.088
       0.066
       0.030
      -0.011
      -0.046
      -0.072
      -0.091
      -0.108
      -0.121
      -0.119
      -0.094
      -0.049
      -0.001
       0.037
       0.058
       0.066
       0.058
       0.032
      -0.009
      -0.048
      -0.068
      -0.062
      -0.039
      -0.019
      -0.012
      -0.012
      -0.007
       0.011
       0.037
       0.061
       0.080
       0.101
       0.129
       0.156
       0.172
       0.170
       0.154
       0.133
       0.110
       0.081
       0.041
      -0.001
      -0.030
      -0.032
      -0.008
       0.032
       0.078
       0.121
       0.154
       0.167
       0.149
       0.100
       0.034
      -0.028
      -0.072
      -0.097
      -0.113
      -0.122
      -0.120
      -0.102
      -0.070
      -0.032
       0.003
       0.029
       0.040
       0.028
      -0.011
      -0.067
      -0.116
      -0.138
      -0.127
      -0.101
      -0.080
      -0.075
      -0.078
      -0.077
      -0.068
      -0.060
      -0.059
      -0.060
      -0.052
      -0.033
      -0.016
      -0.013
      -0.022
      -0.029
      -0.022
      -0.007
      -0.002
      -0.017
      -0.048
      -0.079
      -0.095
      -0.094
      -0.080
      -0.055
      -0.017
       0.033
       0.080
       0.107
       0.106
       0.089
       0.071
       0.059
       0.040
       0.000
      -0.059
      -0.114
      -0.140
      -0.131
      -0.103
      -0.076
      -0.062
      -0.061
      -0.070
      -0.094
      -0.132
      -0.176
      -0.209
      -0.216
      -0.195
      -0.158
      -0.118
      -0.080
      -0.045
      -0.015
       0.005
       0.009
       0.004
       0.002
       0.010
       0.025
       0.038
       0.045
       0.049
       0.061
       0.081
       0.099
       0.105
       0.102
       0.100
       0.106
       0.113
       0.111
       0.097
       0.084
       0.084
       0.097
       0.107
       0.104
       0.094
       0.093
       0.105
       0.120
       0.121
       0.100
       0.069
       0.045
       0.038
       0.039
       0.036
       0.029
       0.024
       0.027
       0.033
       0.034
       0.028
       0.022
       0.016
       0.010
       0.000
      -0.009
      -0.006
       0.016
       0.050
       0.084
       0.106
       0.117
       0.122
       0.119
       0.097
       0.046
      -0.026
      -0.096
      -0.139
      -0.147
      -0.134
      -0.118
      -0.112
      -0.110
      -0.104
      -0.091
      -0.077
      -0.068
      -0.064
      -0.066
      -0.075
      -0.095
      -0.122
      -0.144
      -0.149
      -0.132
      -0.102
      -0.069
      -0.038
      -0.008
       0.024
       0.052
       0.068
       0.071
       0.066
       0.062
       0.058
       0.046
       0.026
       0.004
      -0.007
      -0.003
       0.007
       0.010
       0.000
      -0.014
      -0.017
      -0.003
       0.021
       0.045
       0.062
       0.074
       0.078
       0.068
       0.032
      -0.030
      -0.104
      -0.176
      -0.234
      -0.275
      -0.296
      -0.292
      -0.256
      -0.191
      -0.110
      -0.032
       0.031
       0.079
       0.113
       0.129
       0.119
       0.085
       0.042
       0.014
       0.014
       0.039
       0.070
       0.091
       0.103
       0.113
       0.122
       0.125
       0.117
       0.102
       0.093
       0.099
       0.112
       0.120
       0.112
       0.093
       0.075
       0.059
       0.034
      -0.009
      -0.065
      -0.115
      -0.139
      -0.135
      -0.113
      -0.082
      -0.043
       0.006
       0.059
       0.103
       0.128
       0.130
       0.114
       0.084
       0.043
      -0.003
      -0.045
      -0.073
      -0.085
      -0.090
      -0.095
      -0.098
      -0.087
      -0.052
       0.002
       0.058
       0.103
       0.140
       0.179
       0.223
       0.264
       0.285
       0.276
       0.243
       0.199
       0.152
       0.102
       0.047
      -0.004
      -0.042
      -0.061
      -0.072
      -0.087
      -0.109
      -0.127
      -0.129
      -0.113
      -0.095
      -0.091
      -0.102
      -0.117
      -0.125
      -0.126
      -0.131
      -0.143
      -0.156
      -0.155
      -0.136
      -0.106
      -0.078
      -0.057
      -0.042
      -0.030
      -0.027
      -0.044
      -0.086
      -0.146
      -0.212
      -0.273
      -0.326
      -0.369
      -0.398
      -0.407
      -0.393
      -0.361
      -0.317
      -0.259
      -0.187
      -0.108
      -0.037
       0.012
       0.037
       0.048
       0.058
       0.069
       0.075
       0.073
       0.066
       0.061
       0.063
       0.068
       0.071
       0.073
       0.077
       0.087
       0.101
       0.109
       0.102
       0.084
       0.063
       0.048
       0.037
       0.024
       0.006
      -0.008
      -0.010
      -0.002
       0.003
      -0.005
      -0.022
      -0.033
      -0.026
      -0.006
       0.010
       0.009
      -0.013
      -0.047
      -0.083
      -0.118
      -0.145
      -0.160
      -0.163
      -0.157
      -0.149
      -0.141
      -0.124
      -0.091
      -0.044
       0.000
       0.024
       0.025
       0.016
       0.012
       0.018
       0.031
       0.041
       0.048
       0.052
       0.051
       0.038
       0.008
      -0.029
      -0.057
      -0.068
      -0.065
      -0.062
      -0.066
      -0.069
      -0.055
      -0.015
       0.044
       0.105
       0.158
       0.206
       0.252
       0.295
       0.323
       0.327
       0.308
       0.279
       0.251
       0.223
       0.192
       0.159
       0.134
       0.133
       0.157
       0.197
       0.233
       0.247
       0.231
       0.187
       0.123
       0.054
      -0.003
      -0.037
      -0.049
      -0.051
      -0.061
      -0.088
      -0.132
      -0.182
      -0.229
      -0.270
      -0.305
      -0.331
      -0.349
      -0.362
      -0.381
      -0.413
      -0.454
      -0.490
      -0.512
      -0.520
      -0.526
      -0.542
      -0.568
      -0.595
      -0.613
      -0.618
      -0.613
      -0.604
      -0.592
      -0.581
      -0.577
      -0.584
      -0.599
      -0.615
      -0.622
      -0.622
      -0.628
      -0.647
      -0.675
      -0.697
      -0.698
      -0.682
      -0.664
      -0.657
      -0.658
      -0.658
      -0.647
      -0.628
      -0.609
      -0.588
      -0.559
      -0.513
      -0.450
      -0.375
      -0.291
      -0.197
      -0.092
       0.020
       0.128
       0.229
       0.329
       0.442
       0.571
       0.707
       0.832
       0.940
       1.037
       1.134
       1.234
       1.328
       1.406
       1.466
       1.518
       1.575
       1.641
       1.713
       1.788
       1.870
       1.965
       2.071
       2.172
       2.246
       2.284
       2.291
       2.282
       2.263
       2.235
       2.194
       2.145
       2.095
       2.049
       2.006
       1.961
       1.914
       1.866
       1.820
       1.771
       1.711
       1.642
       1.578
       1.537
       1.526
       1.531
       1.535
       1.527
       1.513
       1.504
       1.504
       1.504
       1.486
       1.439
       1.363
       1.260
       1.133
       0.978
       0.798
       0.599
       0.392
       0.185
      -0.016
      -0.205
      -0.382
      -0.550
      -0.721
      -0.912
      -1.128
      -1.365
      -1.614
      -1.872
      -2.144
      -2.433
      -2.737
      -3.041
      -3.337
      -3.620
      -3.894
      -4.157
      -4.397
      -4.600
      -4.760
      -4.879
      -4.962
      -5.010
      -5.020
      -4.988
      -4.919
      -4.820
      -4.696
      -4.542
      -4.349
      -4.107
      -3.814
      -3.474
      -3.089
      -2.662
      -2.194
      -1.699
      -1.197
      -0.714
      -0.268
       0.135
       0.497
       0.819
       1.099
       1.330
       1.510
       1.641
       1.730
       1.784
       1.814
       1.832
       1.850
       1.868
       1.878
       1.866
       1.822
       1.740
       1.618
       1.461
       1.282
       1.098
       0.926
       0.772
       0.625
       0.471
       0.305
       0.135
      -0.023
      -0.156
      -0.263
      -0.345
      -0.402
      -0.423
      -0.395
      -0.306
      -0.152
       0.067
       0.349
       0.684
       1.054
       1.435
       1.807
       2.159
       2.494
       2.823
       3.148
       3.465
       3.766
       4.041
       4.282
       4.480
       4.617
       4.671
       4.625
       4.473
       4.220
       3.881
       3.470
       3.002
       2.486
       1.930
       1.337
       0.714
       0.066
      -0.601
      -1.277
      -1.958
      -2.636
      -3.300
      -3.931
      -4.507
      -5.011
      -5.431
      -5.767
      -6.018
      -6.185
      -6.260
      -6.242
      -6.131
      -5.936
      -5.659
      -5.300
      -4.853
      -4.320
      -3.713
      -3.046
      -2.324
      -1.543
      -0.705
       0.170
       1.041
       1.863
       2.603
       3.248
       3.796
       4.251
       4.615
       4.892
       5.083
       5.189
       5.206
       5.134
       4.979
       4.755
       4.479
       4.160
       3.805
       3.423
       3.025
       2.628
       2.242
       1.865
       1.489
       1.109
       0.728
       0.354
      -0.004
      -0.340
      -0.652
      -0.933
      -1.179
      -1.386
      -1.558
      -1.705
      -1.832
      -1.934
      -1.999
      -2.016
      -1.983
      -1.899
      -1.766
      -1.580
      -1.339
      -1.054
      -0.746
      -0.438
      -0.154
       0.088
       0.266
       0.363
       0.371
       0.296
       0.156
      -0.032
      -0.252
      -0.487
      -0.716
      -0.913
      -1.069
      -1.190
      -1.298
      -1.408
      -1.519
      -1.623
      -1.713
      -1.793
      -1.870
      -1.942
      -1.993
      -2.005
      -1.969
      -1.892
      -1.784
      -1.649
      -1.489
      -1.310
      -1.126
      -0.952
      -0.796
      -0.649
      -0.500
      -0.336
      -0.153
       0.058
       0.306
       0.598
       0.928
       1.277
       1.627
       1.967
       2.284
       2.565
       2.798
       2.972
       3.093
       3.172
       3.219
       3.232
       3.197
       3.100
       2.928
       2.674
       2.334
       1.908
       1.412
       0.879
       0.350
      -0.137
      -0.555
      -0.892
      -1.135
      -1.279
      -1.324
      -1.287
      -1.199
      -1.089
      -0.979
      -0.878
      -0.787
      -0.705
      -0.628
      -0.543
      -0.431
      -0.278
      -0.084
       0.140
       0.373
       0.599
       0.802
       0.962
       1.058
       1.079
       1.032
       0.942
       0.830
       0.703
       0.548
       0.354
       0.125
      -0.125
      -0.384
      -0.646
      -0.908
      -1.163
      -1.398
      -1.603
      -1.786
      -1.965
      -2.155
      -2.367
      -2.601
      -2.861
      -3.150
      -3.461
      -3.767
      -4.027
      -4.200
      -4.263
      -4.210
      -4.048
      -3.780
      -3.414
      -2.967
      -2.464
      -1.935
      -1.402
      -0.876
      -0.361
       0.143
       0.638
       1.128
       1.614
       2.087
       2.523
       2.899
       3.201
       3.437
       3.623
       3.774
       3.892
       3.973
       4.017
       4.034
       4.031
       4.000
       3.922
       3.781
       3.580
       3.342
       3.091
       2.839
       2.579
       2.294
       1.971
       1.601
       1.179
       0.703
       0.184
      -0.356
      -0.883
      -1.369
      -1.798
      -2.165
      -2.464
      -2.688
      -2.838
      -2.929
      -2.987
      -3.037
      -3.091
      -3.149
      -3.204
      -3.251
      -3.278
      -3.266
      -3.184
      -3.004
      -2.710
      -2.307
      -1.808
      -1.235
      -0.618
       0.006
       0.593
       1.099
       1.498
       1.791
       1.992
       2.123
       2.197
       2.220
       2.205
       2.169
       2.123
       2.069
       1.996
       1.897
       1.774
       1.639
       1.503
       1.372
       1.250
       1.147
       1.070
       1.016
       0.970
       0.913
       0.835
       0.738
       0.632
       0.525
       0.425
       0.339
       0.274
       0.233
       0.209
       0.192
       0.178
       0.168
       0.168
       0.174
       0.169
       0.142
       0.097
       0.057
       0.046
       0.071
       0.122
       0.183
       0.244
       0.301
       0.349
       0.373
       0.363
       0.316
       0.235
       0.123
      -0.020
      -0.192
      -0.377
      -0.549
      -0.687
      -0.789
      -0.871
      -0.956
      -1.061
      -1.190
      -1.343
      -1.521
      -1.719
      -1.918
      -2.092
      -2.211
      -2.259
      -2.233
      -2.135
      -1.962
      -1.717
      -1.421
      -1.110
      -0.822
      -0.579
      -0.382
      -0.224
      -0.094
       0.020
       0.143
       0.315
       0.565
       0.892
       1.253
       1.592
       1.861
       2.040
       2.125
       2.117
       2.024
       1.862
       1.668
       1.481
       1.325
       1.204
       1.107
       1.021
       0.937
       0.846
       0.739
       0.609
       0.465
       0.324
       0.207
       0.121
       0.060
       0.015
      -0.020
      -0.046
      -0.067
      -0.096
      -0.147
      -0.223
      -0.312
      -0.396
      -0.469
      -0.534
      -0.603
      -0.682
      -0.764
      -0.843
      -0.915
      -0.979
      -1.034
      -1.075
      -1.100
      -1.105
      -1.088
      -1.037
      -0.942
      -0.802
      -0.639
      -0.486
      -0.375
      -0.316
      -0.305
      -0.340
      -0.424
      -0.562
      -0.741
      -0.933
      -1.105
      -1.239
      -1.328
      -1.374
      -1.374
      -1.330
      -1.250
      -1.151
      -1.055
      -0.969
      -0.886
      -0.797
      -0.698
      -0.591
      -0.472
      -0.327
      -0.143
       0.074
       0.296
       0.491
       0.647
       0.776
       0.896
       1.014
       1.118
       1.202
       1.275
       1.361
       1.479
       1.630
       1.798
       1.966
       2.122
       2.255
       2.349
       2.384
       2.346
       2.241
       2.091
       1.921
       1.747
       1.571
       1.401
       1.246
       1.117
       1.012
       0.920
       0.827
       0.730
       0.634
       0.545
       0.461
       0.376
       0.282
       0.175
       0.049
      -0.104
      -0.287
      -0.488
      -0.681
      -0.834
      -0.932
