Origin Time       18/9/2011 13:11:59	
Lat.              27.6 N	
Long.             88.5 E	
Depth (Km)         16.0
Magnitude         5.0
 Region           India(Sikkim)-Nepar-Border                                       
 Above details taken from IMD 
   
Station Code      COB
Station Lat.       26.319
Station Long.      89.440
Station Height(m)   64.0
Site Class        C   Vs30 between 200 m/sec to 375 m/sec *  
Record Time       18.09.2011 13:12:18.419
Sampling Rate     200. Hz
 Record Duration   81.950 Sec.
 Direction         Vert. (Up positive)
Max. Acceleration     -4.011 cm/sec**2
     
  * For reference see Site Classification link of website 
     
 Base Line Corrected and Low Pass Filtered (Cut Off at 35 Hz) Time History
 Acceleration data in cm/sec**2
    
[...]
      -0.211
      -0.137
      -0.039
       0.083
       0.209
       0.304
       0.340
       0.312
       0.232
       0.113
      -0.041
      -0.221
      -0.398
      -0.531
      -0.587
      -0.557
      -0.456
      -0.297
      -0.089
       0.152
       0.386
       0.557
       0.624
       0.582
       0.462
       0.302
       0.123
      -0.060
      -0.230
      -0.357
      -0.416
      -0.402
      -0.327
      -0.209
      -0.061
       0.100
       0.245
       0.336
       0.346
       0.285
       0.186
       0.081
      -0.023
      -0.137
      -0.255
      -0.345
      -0.368
      -0.314
      -0.212
      -0.103
      -0.002
       0.100
       0.213
       0.317
       0.374
       0.357
       0.279
       0.179
       0.087
       0.010
      -0.056
      -0.104
      -0.118
      -0.095
      -0.056
      -0.030
      -0.028
      -0.031
      -0.013
       0.027
       0.056
       0.043
      -0.016
      -0.092
      -0.147
      -0.162
      -0.142
      -0.097
      -0.028
       0.063
       0.158
       0.225
       0.236
       0.195
       0.135
       0.086
       0.054
       0.019
      -0.033
      -0.092
      -0.130
      -0.124
      -0.073
       0.014
       0.124
       0.246
       0.357
       0.424
       0.424
       0.363
       0.271
       0.173
       0.067
      -0.057
      -0.196
      -0.318
      -0.382
      -0.367
      -0.281
      -0.151
      -0.001
       0.152
       0.284
       0.366
       0.380
       0.328
       0.234
       0.123
       0.006
      -0.117
      -0.237
      -0.325
      -0.348
      -0.296
      -0.197
      -0.092
      -0.006
       0.060
       0.109
       0.123
       0.074
      -0.050
      -0.211
      -0.344
      -0.399
      -0.376
      -0.311
      -0.231
      -0.137
      -0.017
       0.122
       0.242
       0.301
       0.286
       0.219
       0.131
       0.032
      -0.085
      -0.223
      -0.365
      -0.477
      -0.532
      -0.527
      -0.470
      -0.371
      -0.237
      -0.091
       0.037
       0.123
       0.169
       0.201
       0.237
       0.265
       0.255
       0.185
       0.072
      -0.037
      -0.097
      -0.103
      -0.071
      -0.021
       0.047
       0.128
       0.201
       0.235
       0.212
       0.145
       0.061
      -0.026
      -0.120
      -0.229
      -0.328
      -0.370
      -0.324
      -0.200
      -0.047
       0.090
       0.192
       0.263
       0.302
       0.300
       0.245
       0.146
       0.027
      -0.088
      -0.187
      -0.264
      -0.308
      -0.293
      -0.200
      -0.043
       0.127
       0.255
       0.310
       0.301
       0.251
       0.167
       0.052
      -0.081
      -0.189
      -0.223
      -0.172
      -0.069
       0.037
       0.124
       0.204
       0.293
       0.377
       0.412
       0.363
       0.231
       0.054
      -0.122
      -0.263
      -0.349
      -0.372
      -0.336
      -0.254
      -0.145
      -0.018
       0.126
       0.282
       0.420
       0.490
       0.454
       0.323
       0.153
       0.011
      -0.068
      -0.086
      -0.065
      -0.013
       0.075
       0.199
       0.336
       0.446
       0.497
       0.490
       0.441
       0.364
       0.257
       0.118
      -0.034
      -0.160
      -0.234
      -0.257
      -0.249
      -0.228
      -0.193
      -0.143
      -0.090
      -0.056
      -0.049
      -0.056
      -0.061
      -0.063
      -0.089
      -0.158
      -0.255
      -0.339
      -0.380
      -0.385
      -0.384
      -0.391
      -0.389
      -0.346
      -0.256
      -0.147
      -0.054
       0.012
       0.064
       0.110
       0.125
       0.078
      -0.039
      -0.183
      -0.294
      -0.334
      -0.317
      -0.281
      -0.252
      -0.221
      -0.167
      -0.082
       0.014
       0.099
       0.166
       0.220
       0.252
       0.237
       0.160
       0.042
      -0.068
      -0.131
      -0.149
      -0.151
      -0.161
      -0.172
      -0.154
      -0.091
       0.008
       0.117
       0.216
       0.304
       0.378
       0.426
       0.431
       0.393
       0.335
       0.286
       0.256
       0.230
       0.192
       0.148
       0.124
       0.141
       0.202
       0.285
       0.370
       0.444
       0.502
       0.533
       0.523
       0.469
       0.388
       0.306
       0.239
       0.187
       0.143
       0.111
       0.099
       0.107
       0.122
       0.129
       0.136
       0.157
       0.196
       0.222
       0.195
       0.100
      -0.026
      -0.126
      -0.161
      -0.143
      -0.115
      -0.112
      -0.138
      -0.174
      -0.201
      -0.213
      -0.202
      -0.158
      -0.074
       0.032
       0.123
       0.161
       0.145
       0.103
       0.069
       0.047
       0.011
      -0.068
      -0.185
      -0.304
      -0.383
      -0.409
      -0.396
      -0.364
      -0.316
      -0.249
      -0.168
      -0.100
      -0.068
      -0.076
      -0.099
      -0.115
      -0.124
      -0.153
      -0.224
      -0.324
      -0.417
      -0.474
      -0.498
      -0.513
      -0.535
      -0.558
      -0.566
      -0.554
      -0.533
      -0.516
      -0.511
      -0.516
      -0.533
      -0.565
      -0.602
      -0.626
      -0.623
      -0.591
      -0.536
      -0.454
      -0.331
      -0.150
       0.078
       0.313
       0.510
       0.646
       0.738
       0.812
       0.882
       0.944
       0.986
       1.010
       1.030
       1.051
       1.061
       1.041
       0.999
       0.959
       0.944
       0.938
       0.899
       0.790
       0.620
       0.431
       0.262
       0.119
      -0.016
      -0.157
      -0.290
      -0.386
      -0.436
      -0.456
      -0.473
      -0.503
      -0.542
      -0.592
      -0.669
      -0.787
      -0.938
      -1.091
      -1.213
      -1.295
      -1.341
      -1.354
      -1.324
      -1.244
      -1.128
      -1.013
      -0.931
      -0.887
      -0.855
      -0.804
      -0.721
      -0.613
      -0.486
      -0.333
      -0.136
       0.109
       0.387
       0.677
       0.962
       1.229
       1.448
       1.574
       1.576
       1.474
       1.337
       1.234
       1.182
       1.144
       1.072
       0.959
       0.832
       0.714
       0.592
       0.432
       0.209
      -0.062
      -0.349
      -0.622
      -0.873
      -1.098
      -1.285
      -1.415
      -1.479
      -1.489
      -1.464
      -1.413
      -1.332
      -1.215
      -1.063
      -0.879
      -0.656
      -0.380
      -0.048
       0.317
       0.670
       0.973
       1.216
       1.406
       1.549
       1.633
       1.639
       1.568
       1.439
       1.281
       1.105
       0.909
       0.699
       0.495
       0.322
       0.180
       0.043
      -0.114
      -0.280
      -0.414
      -0.473
      -0.454
      -0.384
      -0.293
      -0.181
      -0.034
       0.148
       0.342
       0.515
       0.644
       0.720
       0.728
       0.631
       0.402
       0.051
      -0.359
      -0.746
      -1.052
      -1.268
      -1.408
      -1.470
      -1.428
      -1.249
      -0.932
      -0.520
      -0.077
       0.337
       0.680
       0.931
       1.071
       1.095
       1.005
       0.816
       0.543
       0.197
      -0.205
      -0.628
      -1.015
      -1.311
      -1.491
      -1.571
      -1.583
      -1.544
      -1.449
      -1.286
      -1.064
      -0.813
      -0.564
      -0.328
      -0.111
       0.082
       0.237
       0.348
       0.428
       0.509
       0.611
       0.733
       0.858
       0.970
       1.068
       1.160
       1.243
       1.297
       1.302
       1.251
       1.161
       1.050
       0.930
       0.797
       0.654
       0.522
       0.431
       0.401
       0.437
       0.530
       0.674
       0.861
       1.070
       1.268
       1.414
       1.484
       1.479
       1.415
       1.302
       1.139
       0.919
       0.653
       0.374
       0.123
      -0.069
      -0.194
      -0.260
      -0.287
      -0.295
      -0.306
      -0.340
      -0.409
      -0.516
      -0.661
      -0.851
      -1.089
      -1.356
      -1.598
      -1.737
      -1.713
      -1.515
      -1.179
      -0.763
      -0.317
       0.117
       0.495
       0.765
       0.883
       0.836
       0.655
       0.386
       0.060
      -0.314
      -0.728
      -1.145
      -1.504
      -1.752
      -1.881
      -1.921
      -1.911
      -1.871
      -1.803
      -1.706
      -1.598
      -1.503
      -1.441
      -1.409
      -1.389
      -1.359
      -1.303
      -1.219
      -1.100
      -0.937
      -0.719
      -0.448
      -0.138
       0.187
       0.496
       0.760
       0.956
       1.076
       1.126
       1.125
       1.092
       1.044
       0.989
       0.936
       0.894
       0.865
       0.844
       0.824
       0.808
       0.816
       0.868
       0.962
       1.073
       1.166
       1.227
       1.272
       1.319
       1.360
       1.346
       1.228
       0.987
       0.650
       0.263
      -0.132
      -0.499
      -0.799
      -0.997
      -1.074
      -1.043
      -0.934
      -0.776
      -0.587
      -0.375
      -0.156
       0.038
       0.175
       0.237
       0.230
       0.176
       0.104
       0.030
      -0.041
      -0.109
      -0.173
      -0.229
      -0.274
      -0.305
      -0.321
      -0.317
      -0.289
      -0.237
      -0.165
      -0.073
       0.041
       0.179
       0.333
       0.484
       0.612
       0.714
       0.803
       0.893
       0.984
       1.057
       1.096
       1.098
       1.068
       1.004
       0.898
       0.748
       0.574
       0.408
       0.275
       0.167
       0.054
      -0.088
      -0.252
      -0.404
      -0.511
      -0.571
      -0.616
      -0.680
      -0.776
      -0.890
      -1.002
      -1.097
      -1.167
      -1.205
      -1.204
      -1.165
      -1.095
      -1.004
      -0.893
      -0.761
      -0.605
      -0.436
      -0.276
      -0.146
      -0.064
      -0.040
      -0.080
      -0.183
      -0.339
      -0.527
      -0.722
      -0.901
      -1.045
      -1.126
      -1.109
      -0.963
      -0.682
      -0.296
       0.144
       0.585
       0.992
       1.348
       1.644
       1.862
       1.982
       1.983
       1.856
       1.617
       1.295
       0.932
       0.562
       0.202
      -0.142
      -0.470
      -0.768
      -1.005
      -1.140
      -1.145
      -1.020
      -0.800
      -0.534
      -0.266
      -0.021
       0.191
       0.362
       0.483
       0.543
       0.553
       0.545
       0.560
       0.614
       0.692
       0.767
       0.827
       0.880
       0.926
       0.936
       0.858
       0.654
       0.336
      -0.038
      -0.400
      -0.701
      -0.921
      -1.055
      -1.093
      -1.022
      -0.833
      -0.532
      -0.152
       0.251
       0.610
       0.866
       1.002
       1.047
       1.055
       1.074
       1.116
       1.162
       1.186
       1.174
       1.121
       1.026
       0.893
       0.735
       0.570
       0.401
       0.211
      -0.027
      -0.317
      -0.631
      -0.917
      -1.129
      -1.258
      -1.333
      -1.400
      -1.490
      -1.612
      -1.767
      -1.952
      -2.159
      -2.366
      -2.532
      -2.618
      -2.598
      -2.465
      -2.215
      -1.848
      -1.373
      -0.825
      -0.266
       0.237
       0.640
       0.928
       1.109
       1.194
       1.203
       1.159
       1.095
       1.039
       1.007
       1.000
       1.011
       1.039
       1.090
       1.159
       1.218
       1.215
       1.101
       0.862
       0.531
       0.172
      -0.148
      -0.375
      -0.478
      -0.446
      -0.290
      -0.034
       0.292
       0.657
       1.033
       1.393
       1.697
       1.900
       1.956
       1.844
       1.579
       1.211
       0.799
       0.392
       0.024
      -0.285
      -0.522
      -0.683
      -0.772
      -0.798
      -0.782
      -0.759
      -0.770
      -0.851
      -1.008
      -1.211
      -1.412
      -1.576
      -1.697
      -1.783
      -1.834
      -1.831
      -1.745
      -1.561
      -1.295
      -0.986
      -0.672
      -0.375
      -0.091
       0.185
       0.445
       0.667
       0.823
       0.908
       0.940
       0.954
       0.984
       1.052
       1.158
       1.286
       1.398
       1.454
       1.429
       1.334
       1.204
       1.067
       0.928
       0.777
       0.613
       0.460
       0.361
       0.350
       0.444
       0.636
       0.891
       1.154
       1.352
       1.416
       1.299
       1.001
       0.566
       0.050
      -0.500
      -1.054
      -1.579
      -2.015
      -2.285
      -2.329
      -2.142
      -1.787
      -1.361
      -0.969
      -0.688
      -0.559
      -0.585
      -0.738
      -0.974
      -1.244
      -1.500
      -1.693
      -1.772
      -1.694
      -1.440
      -1.023
      -0.493
       0.076
       0.604
       1.015
       1.262
       1.337
       1.278
       1.150
       1.025
       0.954
       0.959
       1.045
       1.208
       1.431
       1.680
       1.896
       2.005
       1.950
       1.715
       1.342
       0.914
       0.516
       0.212
       0.033
      -0.021
       0.026
       0.132
       0.237
       0.276
       0.192
      -0.052
      -0.472
      -1.059
      -1.775
      -2.541
      -3.244
      -3.763
      -4.011
      -3.964
      -3.661
      -3.177
      -2.584
      -1.943
      -1.312
      -0.766
      -0.378
      -0.183
      -0.161
      -0.243
      -0.346
      -0.399
      -0.359
      -0.206
       0.055
       0.400
       0.795
       1.197
       1.571
       1.881
       2.085
       2.148
       2.058
       1.845
       1.574
       1.315
       1.116
       0.999
       0.974
       1.049
       1.231
       1.506
       1.834
       2.154
       2.399
       2.525
       2.516
       2.380
       2.133
       1.801
       1.415
       1.017
       0.646
       0.329
       0.075
      -0.119
      -0.273
      -0.415
      -0.581
      -0.791
      -1.035
      -1.268
      -1.441
      -1.522
      -1.507
      -1.411
      -1.244
      -1.014
      -0.738
      -0.451
      -0.195
       0.001
       0.124
       0.180
       0.177
       0.129
       0.067
       0.032
       0.057
       0.147
       0.279
       0.426
       0.575
       0.721
       0.848
       0.923
       0.907
       0.788
       0.591
       0.363
       0.149
      -0.031
      -0.172
      -0.263
      -0.286
      -0.225
      -0.097
       0.047
       0.144
       0.145
       0.035
      -0.180
      -0.483
      -0.848
      -1.235
      -1.596
      -1.896
      -2.115
      -2.241
      -2.257
      -2.142
      -1.904
      -1.590
      -1.275
      -1.025
      -0.859
      -0.752
      -0.662
      -0.574
      -0.502
      -0.464
      -0.457
      -0.454
      -0.422
      -0.341
      -0.208
      -0.033
       0.171
       0.381
       0.564
       0.687
       0.729
       0.691
       0.590
       0.445
       0.263
       0.048
      -0.196
      -0.445
      -0.656
      -0.783
      -0.792
      -0.672
      -0.443
      -0.151
       0.143
       0.390
       0.565
       0.672
       0.727
       0.739
       0.718
       0.682
       0.667
       0.711
       0.832
       1.022
       1.261
       1.528
       1.806
       2.063
       2.247
       2.298
       2.178
       1.892
       1.477
       0.983
       0.455
      -0.061
      -0.521
      -0.890
      -1.159
      -1.340
      -1.459
      -1.523
      -1.511
      -1.394
      -1.174
      -0.901
      -0.657
      -0.500
      -0.435
      -0.416
      -0.394
      -0.348
      -0.287
      -0.225
      -0.164
      -0.099
      -0.039
      -0.003
      -0.002
      -0.025
      -0.052
      -0.078
      -0.118
      -0.184
      -0.266
      -0.333
      -0.359
      -0.338
      -0.280
      -0.186
      -0.054
       0.118
       0.313
       0.513
       0.709
       0.903
       1.089
       1.234
       1.294
       1.242
       1.095
       0.907
       0.743
       0.645
       0.624
       0.670
       0.762
       0.864
       0.925
       0.886
       0.702
       0.373
      -0.051
      -0.502
      -0.924
      -1.291
      -1.583
      -1.769
      -1.804
      -1.659
      -1.342
      -0.907
      -0.428
       0.022
       0.386
       0.619
       0.700
       0.635
       0.467
       0.253
       0.043
      -0.132
      -0.251
      -0.295
      -0.246
      -0.102
       0.111
       0.345
       0.552
       0.690
       0.729
       0.655
       0.478
       0.235
      -0.025
      -0.268
      -0.486
      -0.683
      -0.854
      -0.978
      -1.029
      -0.996
      -0.883
      -0.706
      -0.476
      -0.208
       0.073
       0.326
       0.510
       0.610
       0.645
       0.653
       0.654
       0.631
       0.545
       0.384
       0.176
      -0.028
      -0.193
      -0.316
      -0.405
      -0.462
      -0.481
      -0.477
      -0.483
      -0.532
      -0.617
      -0.691
      -0.710
      -0.671
      -0.618
      -0.597
      -0.617
      -0.642
      -0.625
      -0.542
      -0.400
      -0.230
      -0.069
       0.051
       0.108
       0.099
       0.042
      -0.027
      -0.072
      -0.073
      -0.031
       0.043
       0.142
       0.266
       0.418
       0.585
       0.729
       0.795
       0.741
       0.559
       0.284
      -0.025
      -0.303
      -0.505
      -0.608
      -0.605
      -0.497
      -0.294
      -0.013
       0.313
       0.633
       0.891
       1.046
       1.085
       1.029
       0.914
       0.765
       0.582
       0.360
       0.113
      -0.117
      -0.289
      -0.397
      -0.480
      -0.588
      -0.747
      -0.938
      -1.113
      -1.224
      -1.244
      -1.171
      -1.022
      -0.823
      -0.600
      -0.374
      -0.159
       0.034
       0.201
       0.335
       0.437
       0.509
       0.560
       0.594
       0.615
       0.622
       0.620
       0.623
       0.644
       0.691
       0.757
       0.830
       0.909
       1.003
       1.108
       1.201
       1.245
       1.226
       1.165
       1.095
       1.031
       0.954
       0.836
       0.680
       0.521
       0.406
       0.351
       0.336
       0.334
       0.340
       0.376
       0.456
       0.564
       0.644
       0.637
       0.519
       0.308
       0.048
      -0.226
      -0.496
      -0.747
      -0.955
      -1.089
      -1.135
      -1.101
      -1.009
      -0.886
      -0.758
      -0.653
      -0.608
      -0.647
      -0.764
      -0.922
      -1.077
      -1.205
      -1.304
      -1.367
      -1.365
      -1.260
      -1.047
      -0.774
      -0.519
      -0.333
      -0.213
      -0.119
      -0.026
       0.058
       0.107
       0.113
       0.105
       0.125
       0.198
       0.308
       0.414
       0.478
       0.486
       0.444
       0.363
       0.252
       0.117
      -0.030
      -0.168
      -0.272
      -0.316
      -0.284
      -0.176
      -0.018
       0.149
       0.276
       0.332
       0.317
       0.254
       0.172
       0.091
