Origin Time       18/9/2011 12:40:47	
Lat.              27.6 N	
Long.             88.2 E	
Depth (Km)         10.0
Magnitude         6.8
 Region           India(Sikkim)-Nepar-Border                                       
 Above details taken from IMD 
   
Station Code      COB
Station Lat.       26.319
Station Long.      89.440
Station Height(m)   64.0
Site Class        C   Vs30 between 200 m/sec to 375 m/sec *  
Record Time       18.09.2011 12:40:55.224
Sampling Rate     200. Hz
 Record Duration  195.445 Sec.
 Direction         Vert. (Up positive)
Max. Acceleration    -44.787 cm/sec**2
     
  * For reference see Site Classification link of website 
     
 Base Line Corrected and Low Pass Filtered (Cut Off at 35 Hz) Time History
 Acceleration data in cm/sec**2
    
[...]
       9.259
       9.394
       7.823
       4.816
       1.150
      -2.250
      -4.713
      -5.965
      -6.014
      -4.984
      -3.043
      -0.421
       2.609
       5.744
       8.594
      10.609
      11.169
       9.879
       6.836
       2.618
      -1.991
      -6.286
      -9.739
     -11.988
     -12.825
     -12.232
     -10.381
      -7.579
      -4.187
      -0.574
       2.915
       6.009
       8.563
      10.565
      12.022
      12.797
      12.585
      11.132
       8.557
       5.483
       2.777
       1.046
       0.266
      -0.162
      -0.988
      -2.616
      -4.861
      -7.101
      -8.695
      -9.412
      -9.548
      -9.632
      -9.938
     -10.198
      -9.779
      -8.177
      -5.449
      -2.261
       0.452
       1.952
       1.953
       0.584
      -1.807
      -4.805
      -7.962
     -10.802
     -12.857
     -13.737
     -13.191
     -11.146
      -7.746
      -3.370
       1.401
       5.899
       9.492
      11.655
      11.976
      10.215
       6.472
       1.297
      -4.404
      -9.652
     -13.644
     -15.841
     -15.948
     -13.898
      -9.853
      -4.192
       2.484
       9.321
      15.237
      19.085
      19.980
      17.611
      12.377
       5.238
      -2.637
     -10.189
     -16.556
     -20.946
     -22.552
     -20.788
     -15.751
      -8.463
      -0.502
       6.767
      12.718
      17.291
      20.409
      21.654
      20.578
      17.319
      12.862
       8.644
       5.764
       4.456
       4.190
       4.257
       4.290
       4.354
       4.672
       5.311
       6.042
       6.422
       6.021
       4.692
       2.723
       0.751
      -0.503
      -0.529
       0.770
       3.011
       5.414
       7.097
       7.491
       6.627
       5.050
       3.342
       1.643
      -0.390
      -3.126
      -6.467
      -9.832
     -12.573
     -14.330
     -15.018
     -14.594
     -12.969
     -10.184
      -6.625
      -3.002
      -0.066
       1.750
       2.504
       2.649
       2.754
       3.218
       4.142
       5.381
       6.723
       8.042
       9.301
      10.415
      11.099
      10.889
       9.373
       6.444
       2.372
      -2.310
      -6.980
     -11.018
     -13.814
     -14.844
     -13.865
     -11.154
      -7.534
      -4.066
      -1.552
      -0.165
       0.539
       1.247
       2.381
       3.833
       5.132
       5.908
       6.243
       6.581
       7.272
       8.150
       8.533
       7.687
       5.400
       2.170
      -1.168
      -4.051
      -6.488
      -8.773
     -10.907
     -12.315
     -12.159
     -10.045
      -6.515
      -2.866
      -0.383
       0.449
       0.166
      -0.102
       0.649
       2.775
       5.869
       9.040
      11.384
      12.426
      12.317
      11.669
      11.121
      10.918
      10.814
      10.319
       9.051
       6.944
       4.265
       1.537
      -0.609
      -1.660
      -1.479
      -0.422
       0.828
       1.663
       1.912
       1.903
       2.149
       2.923
       3.986
       4.679
       4.276
       2.410
      -0.702
      -4.357
      -7.755
     -10.411
     -12.323
     -13.749
     -14.818
     -15.337
     -14.954
     -13.513
     -11.222
      -8.551
      -5.999
      -3.975
      -2.785
      -2.614
      -3.486
      -5.265
      -7.697
     -10.468
     -13.273
     -15.896
     -18.229
     -20.159
     -21.437
     -21.718
     -20.752
     -18.520
     -15.176
     -10.913
      -5.951
      -0.666
       4.359
       8.478
      11.240
      12.542
      12.560
      11.562
       9.799
       7.585
       5.443
       4.114
       4.298
       6.264
       9.581
      13.196
      15.865
      16.730
      15.747
      13.619
      11.267
       9.206
       7.355
       5.402
       3.327
       1.613
       0.975
       1.873
       4.153
       7.035
       9.430
      10.399
       9.543
       7.113
       3.804
       0.343
      -2.818
      -5.511
      -7.644
      -9.064
      -9.643
      -9.498
      -9.024
      -8.635
      -8.399
      -7.930
      -6.680
      -4.424
      -1.502
       1.394
       3.680
       5.170
       5.973
       6.201
       5.818
       4.730
       2.957
       0.671
      -1.846
      -4.210
      -5.937
      -6.550
      -5.825
      -3.978
      -1.614
       0.546
       1.949
       2.360
       1.839
       0.637
      -0.929
      -2.552
      -3.929
      -4.734
      -4.641
      -3.408
      -1.007
       2.268
       5.819
       8.940
      11.119
      12.199
      12.254
      11.309
       9.252
       6.038
       1.915
      -2.591
      -6.933
     -10.794
     -14.123
     -17.000
     -19.470
     -21.478
     -22.888
     -23.570
     -23.481
     -22.678
     -21.250
     -19.183
     -16.305
     -12.409
      -7.524
      -2.082
       3.204
       7.696
      11.100
      13.418
      14.660
      14.620
      12.990
       9.734
       5.324
       0.520
      -4.065
      -8.112
     -11.398
     -13.546
     -14.103
     -12.905
     -10.322
      -7.112
      -4.004
      -1.343
       0.958
       3.123
       5.165
       6.755
       7.407
       6.874
       5.430
       3.775
       2.637
       2.307
       2.513
       2.782
       2.941
       3.308
       4.372
       6.223
       8.303
       9.764
      10.038
       9.113
       7.319
       4.942
       2.085
      -1.144
      -4.419
      -7.127
      -8.465
      -7.646
      -4.200
       1.670
       8.936
      16.058
      21.671
      25.119
      26.449
      25.948
      23.706
      19.585
      13.573
       6.176
      -1.474
      -7.895
     -11.797
     -12.538
     -10.250
      -5.629
       0.335
       6.483
      11.542
      14.361
      14.362
      11.877
       8.023
       4.103
       0.948
      -1.294
      -2.810
      -3.585
      -3.192
      -1.107
       2.697
       7.390
      11.511
      13.653
      13.137
      10.179
       5.498
      -0.178
      -6.296
     -12.323
     -17.572
     -21.272
     -22.818
     -22.000
     -19.072
     -14.641
      -9.501
      -4.520
      -0.601
       1.402
       0.905
      -2.162
      -7.298
     -13.661
     -20.379
     -26.680
     -31.815
     -35.029
     -35.751
     -33.906
     -30.038
     -25.110
     -20.142
     -15.888
     -12.710
     -10.624
      -9.406
      -8.725
      -8.239
      -7.625
      -6.577
      -4.786
      -1.970
       2.037
       7.153
      12.942
      18.667
      23.524
      26.968
      28.924
      29.748
      29.987
      30.083
      30.225
      30.410
      30.584
      30.663
      30.435
      29.516
      27.523
      24.352
      20.291
      15.823
      11.291
       6.715
       1.923
      -3.093
      -7.905
     -11.684
     -13.578
     -13.183
     -10.771
      -7.082
      -2.811
       1.775
       6.780
      12.249
      17.807
      22.664
      25.932
      26.946
      25.414
      21.420
      15.376
       7.995
       0.255
      -6.746
     -12.077
     -15.333
     -16.765
     -17.013
     -16.569
     -15.387
     -13.016
      -9.197
      -4.465
      -0.157
       2.342
       2.560
       1.304
       0.065
      -0.082
       0.803
       1.692
       1.463
      -0.244
      -2.777
      -5.005
      -6.198
      -6.568
      -7.024
      -8.368
     -10.590
     -12.862
     -14.174
     -14.078
     -12.971
     -11.784
     -11.368
     -12.025
     -13.420
     -14.870
     -15.798
     -16.017
     -15.636
     -14.685
     -12.875
      -9.771
      -5.236
       0.385
       6.505
      12.628
      18.359
      23.175
      26.338
      27.174
      25.483
      21.747
      16.984
      12.309
       8.459
       5.588
       3.496
       2.067
       1.480
       2.023
       3.749
       6.292
       8.944
      10.912
      11.597
      10.786
       8.615
       5.347
       1.194
      -3.614
      -8.606
     -13.052
     -16.248
     -17.864
     -17.997
     -16.884
     -14.631
     -11.263
      -7.018
      -2.530
       1.330
       3.817
       4.583
       3.683
       1.409
      -1.850
      -5.628
      -9.360
     -12.375
     -14.013
     -13.819
     -11.702
      -7.964
      -3.192
       1.874
       6.507
      10.193
      12.736
      14.132
      14.278
      12.866
       9.660
       4.954
      -0.285
      -4.829
      -7.838
      -9.169
      -9.128
      -7.983
      -5.758
      -2.395
       2.012
       7.184
      12.750
      18.298
      23.316
      27.150
      29.114
      28.715
      25.848
      20.844
      14.321
       6.962
      -0.666
      -8.145
     -15.106
     -21.088
     -25.481
     -27.641
     -27.172
     -24.217
     -19.487
     -13.919
      -8.226
      -2.734
       2.349
       6.594
       9.322
       9.988
       8.626
       5.917
       2.771
      -0.193
      -2.779
      -4.900
      -6.232
      -6.278
      -4.809
      -2.187
       0.727
       2.987
       3.881
       3.017
       0.330
      -3.836
      -8.679
     -13.139
     -16.316
     -17.865
     -18.041
     -17.349
     -16.044
     -13.915
     -10.564
      -5.985
      -0.888
       3.516
       6.100
       6.296
       4.246
       0.678
      -3.332
      -6.661
      -8.435
      -8.234
      -6.114
      -2.501
       1.961
       6.539
      10.564
      13.591
      15.485
      16.299
      16.055
      14.656
      12.106
       8.871
       5.974
       4.587
       5.343
       7.918
      11.223
      14.091
      15.915
      16.796
      17.186
      17.384
      17.260
      16.296
      13.883
       9.724
       4.165
      -1.770
      -6.810
     -10.121
     -11.788
     -12.688
     -13.796
     -15.431
     -17.007
     -17.499
     -16.235
     -13.377
      -9.787
      -6.487
      -4.120
      -2.743
      -1.946
      -1.094
       0.368
       2.619
       5.326
       7.810
       9.440
       9.992
       9.739
       9.244
       9.022
       9.257
       9.686
       9.701
       8.651
       6.293
       3.142
       0.357
      -0.885
      -0.156
       1.950
       4.256
       5.726
       5.860
       4.568
       1.861
      -2.230
      -7.495
     -13.476
     -19.606
     -25.313
     -29.877
     -32.322
     -31.724
     -27.880
     -21.693
     -14.753
      -8.403
      -3.132
       1.201
       4.622
       6.612
       6.424
       3.762
      -0.883
      -6.486
     -11.947
     -16.261
     -18.479
     -17.824
     -14.080
      -7.810
      -0.035
       8.355
      16.850
      25.027
      32.157
      37.247
      39.465
      38.558
      34.993
      29.764
      24.044
      18.883
      14.956
      12.426
      11.032
      10.363
      10.123
      10.131
      10.033
       9.167
       6.860
       2.936
      -2.027
      -7.001
     -11.172
     -14.357
     -16.810
     -18.690
     -19.730
     -19.429
     -17.510
     -14.210
     -10.205
      -6.308
      -3.085
      -0.610
       1.483
       3.682
       6.208
       8.849
      11.139
      12.643
      13.100
      12.326
      10.054
       6.001
       0.230
      -6.482
     -12.743
     -17.212
     -19.333
     -19.458
     -18.248
     -15.955
     -12.262
      -6.814
       0.100
       7.373
      13.552
      17.499
      18.739
      17.364
      13.761
       8.443
       2.050
      -4.622
     -10.669
     -15.198
     -17.546
     -17.506
     -15.377
     -11.724
      -7.015
      -1.481
       4.646
      10.809
      16.128
      19.771
      21.347
      21.012
      19.268
      16.705
      13.840
      11.045
       8.532
       6.382
       4.585
       3.077
       1.763
       0.588
      -0.386
      -1.009
      -1.186
      -1.047
      -0.989
      -1.531
      -3.042
      -5.505
      -8.464
     -11.221
     -13.194
     -14.193
     -14.397
     -14.072
     -13.271
     -11.796
      -9.475
      -6.458
      -3.265
      -0.574
       1.008
       1.057
      -0.652
      -4.073
      -8.810
     -14.147
     -19.213
     -23.196
     -25.501
     -25.826
     -24.178
     -20.837
     -16.267
     -10.992
      -5.490
      -0.197
       4.393
       7.717
       9.340
       9.264
       8.032
       6.460
       5.168
       4.282
       3.556
       2.816
       2.332
       2.740
       4.537
       7.555
      10.877
      13.288
      13.976
      12.993
      11.129
       9.328
       8.103
       7.407
       7.012
       6.936
       7.507
       9.036
      11.410
      13.947
      15.620
      15.468
      12.993
       8.296
       1.909
      -5.462
     -13.094
     -20.272
     -26.244
     -30.258
     -31.684
     -30.195
     -25.936
     -19.570
     -12.105
      -4.631
       1.889
       6.700
       9.308
       9.585
       7.851
       4.811
       1.357
      -1.628
      -3.388
      -3.351
      -1.197
       3.013
       8.760
      15.143
      21.080
      25.502
      27.449
      26.173
      21.373
      13.479
       3.675
      -6.493
     -15.628
     -22.744
     -27.174
     -28.393
     -26.047
     -20.243
     -11.806
      -2.210
       6.863
      14.093
      18.850
      21.148
      21.301
      19.567
      15.998
      10.605
       3.770
      -3.424
      -9.308
     -12.294
     -11.675
      -7.939
      -2.341
       3.863
       9.839
      14.978
      18.491
      19.389
      16.960
      11.212
       2.792
      -7.462
     -18.730
     -29.910
     -39.273
     -44.739
     -44.787
     -39.280
     -29.493
     -17.335
      -4.448
       8.143
      19.729
      29.415
      35.957
      38.110
      35.229
      27.719
      16.986
       4.988
      -6.297
     -15.228
     -20.743
     -22.561
     -21.174
     -17.515
     -12.472
      -6.662
      -0.672
       4.576
       7.829
       8.013
       4.836
      -1.023
      -8.304
     -15.755
     -22.450
     -27.681
     -30.802
     -31.338
     -29.329
     -25.450
     -20.652
     -15.640
     -10.695
      -5.987
      -1.906
       0.958
       2.150
       1.655
      -0.041
      -2.049
      -3.195
      -2.272
       1.475
       7.861
      15.742
      23.614
      30.366
      35.578
      39.231
      41.241
      41.282
      38.940
      33.932
      26.268
      16.433
       5.552
      -4.727
     -12.712
     -17.282
     -18.237
     -16.185
     -12.179
      -7.371
      -2.824
       0.580
       2.236
       1.991
       0.184
      -2.610
      -5.986
      -9.864
     -14.165
     -18.313
     -21.172
     -21.626
     -19.319
     -14.891
      -9.520
      -4.202
       0.575
       4.650
       7.871
      10.026
      10.951
      10.579
       8.851
       5.640
       0.884
      -5.114
     -11.507
     -17.106
     -20.877
     -22.379
     -21.816
     -19.727
     -16.604
     -12.651
      -7.791
      -1.936
       4.568
      10.615
      14.490
      14.601
      10.412
       2.914
      -5.798
     -13.633
     -19.491
     -23.452
     -26.159
     -27.989
     -28.658
     -27.463
     -23.861
     -17.914
     -10.344
      -2.264
       5.188
      11.165
      15.303
      17.720
      18.824
      19.042
      18.646
      17.761
      16.469
      14.921
      13.370
      12.177
      11.781
      12.587
      14.747
      17.974
      21.580
      24.741
      26.784
      27.305
      26.162
      23.482
      19.623
      14.984
       9.778
       4.043
      -2.040
      -7.889
     -12.611
     -15.373
     -15.789
     -14.026
     -10.620
      -6.221
      -1.384
       3.542
       8.319
      12.630
      15.993
      17.866
      17.822
      15.623
      11.205
       4.800
      -2.875
     -10.591
     -16.957
     -21.029
     -22.684
     -22.394
     -20.632
     -17.486
     -12.809
      -6.740
      -0.088
       5.771
       9.367
       9.709
       6.690
       1.189
      -5.195
     -10.700
     -14.037
     -14.783
     -13.310
     -10.349
      -6.499
      -2.082
       2.606
       6.977
      10.145
      11.309
      10.231
       7.418
       3.887
       0.673
      -1.633
      -3.072
      -4.126
      -5.242
      -6.377
      -6.927
      -6.146
      -3.749
      -0.238
       3.287
       5.738
       6.665
       6.496
       6.228
       6.771
       8.357
      10.412
      11.956
      12.273
      11.364
       9.853
       8.453
       7.483
       6.806
       6.081
       5.002
       3.399
       1.287
      -1.058
      -3.085
      -4.140
      -3.757
      -1.939
       0.788
       3.628
       5.951
       7.576
       8.662
       9.290
       9.152
       7.729
       4.812
       0.862
      -3.196
      -6.604
      -9.225
     -11.424
     -13.555
     -15.564
     -17.052
     -17.690
     -17.508
     -16.807
     -15.875
     -14.792
     -13.434
     -11.549
      -8.822
      -4.970
       0.125
       6.297
      13.069
      19.701
      25.297
      29.007
      30.308
      29.232
      26.355
      22.512
      18.401
      14.321
      10.274
       6.353
       3.042
       1.109
       1.146
       3.186
       6.712
      10.955
      15.103
      18.309
      19.735
      18.810
      15.576
      10.783
       5.502
       0.494
      -4.112
      -8.531
     -12.769
     -16.309
     -18.311
     -18.104
     -15.660
     -11.781
      -7.883
      -5.374
      -4.911
      -6.011
      -7.383
      -7.853
      -7.217
      -6.352
      -6.380
      -7.549
      -8.792
      -8.466
      -5.681
      -1.029
       3.879
       7.526
       9.239
       9.140
       7.629
       4.970
       1.328
      -2.921
      -6.969
      -9.793
     -10.741
     -10.000
      -8.471
      -7.079
      -6.127
      -5.265
      -4.073
      -2.678
      -1.807
      -2.270
      -4.355
      -7.638
     -11.260
     -14.328
     -16.102
     -16.014
     -13.778
      -9.640
      -4.472
       0.569
       4.638
       7.537
       9.571
      11.120
      12.302
      12.932
      12.702
      11.471
       9.546
       7.716
       6.875
       7.398
       8.710
       9.506
       8.563
       5.551
       1.201
      -3.332
      -7.308
     -10.682
     -13.677
     -16.221
     -17.877
     -18.241
     -17.292
     -15.357
     -12.814
      -9.894
      -6.687
      -3.286
       0.081
       3.020
       5.102
       6.151
       6.481
       6.784
       7.663
       9.150
      10.646
      11.361
      10.921
       9.636
       8.182
       6.956
       5.622
       3.267
      -0.893
      -6.810
     -13.440
     -19.222
     -22.777
     -23.401
     -21.170
     -16.744
     -10.970
      -4.455
       2.590
      10.093
      17.663
      24.431
      29.381
      31.895
      32.001
      30.204
      27.159
      23.515
      19.904
      16.852
      14.518
      12.560
      10.403
       7.796
       5.124
       3.110
       2.131
       1.782
       1.186
      -0.252
      -2.357
      -4.402
      -5.728
      -6.161
      -5.971
      -5.601
      -5.445
      -5.736
      -6.506
      -7.661
      -9.115
     -10.863
     -12.883
     -14.931
     -16.477
     -16.936
     -16.021
     -13.855
     -10.712
      -6.701
      -1.812
       3.673
       8.956
      13.011
      15.146
      15.272
      13.710
      10.851
