Origin Time       18/9/2011 12:40:47	 UTC
Lat.              27.6 N	
Long.             88.2 E	
Depth (Km)         10.0
Magnitude         6.8
 Region           India(Sikkim)-Nepar-Border                                       
 Above details taken from IMD 
    
Station Code      COB
Station Lat.       26.319  N
Station Long.      89.440  E
Station Height(m)   64.0
Site Class        C   Vs30 between 200 m/sec to 375 m/sec *  
Record Time       18.09.2011 12:40:55.224 UTC
Sampling Rate     200. Hz
 Record Duration  195.445 Sec.
 Direction         N-S (N positive)
Max. Acceleration     58.112 cm/sec**2
     
  * For reference see Site Classification link of website 
     
 Base Line Corrected and Low Pass Filtered (Cut Off at 35 Hz) Time History
 Acceleration data in cm/sec**2
    
[...]
       0.711
       1.920
       2.764
       3.230
       3.425
       3.500
       3.548
       3.560
       3.483
       3.306
       3.097
       2.968
       2.995
       3.171
       3.394
       3.513
       3.404
       3.030
       2.454
       1.782
       1.101
       0.470
      -0.036
      -0.305
      -0.214
       0.281
       1.110
       2.113
       3.118
       3.987
       4.613
       4.912
       4.827
       4.348
       3.533
       2.503
       1.406
       0.362
      -0.577
      -1.430
      -2.253
      -3.085
      -3.916
      -4.671
      -5.234
      -5.484
      -5.339
      -4.770
      -3.804
      -2.505
      -0.980
       0.622
       2.132
       3.396
       4.317
       4.856
       5.002
       4.746
       4.080
       3.053
       1.828
       0.686
      -0.071
      -0.267
       0.030
       0.515
       0.777
       0.468
      -0.561
      -2.217
      -4.230
      -6.255
      -7.989
      -9.238
      -9.940
     -10.132
      -9.908
      -9.366
      -8.580
      -7.598
      -6.457
      -5.201
      -3.880
      -2.527
      -1.154
       0.250
       1.683
       3.102
       4.414
       5.507
       6.299
       6.778
       6.985
       6.963
       6.719
       6.228
       5.474
       4.488
       3.368
       2.253
       1.275
       0.512
      -0.030
      -0.396
      -0.639
      -0.776
      -0.796
      -0.700
      -0.545
      -0.441
      -0.500
      -0.785
      -1.279
      -1.892
      -2.455
      -2.753
      -2.587
      -1.859
      -0.623
       0.924
       2.519
       3.922
       4.973
       5.606
       5.817
       5.622
       5.039
       4.085
       2.799
       1.280
      -0.292
      -1.669
      -2.635
      -3.118
      -3.254
      -3.302
      -3.466
      -3.739
      -3.902
      -3.678
      -2.894
      -1.566
       0.149
       2.048
       3.942
       5.661
       7.039
       7.929
       8.243
       7.979
       7.200
       6.003
       4.520
       2.921
       1.383
       0.031
      -1.116
      -2.121
      -3.059
      -3.957
      -4.812
      -5.649
      -6.564
      -7.681
      -9.052
     -10.561
     -11.933
     -12.838
     -13.058
     -12.590
     -11.638
     -10.497
      -9.413
      -8.536
      -7.959
      -7.745
      -7.884
      -8.232
      -8.515
      -8.431
      -7.778
      -6.523
      -4.797
      -2.834
      -0.896
       0.812
       2.211
       3.347
       4.332
       5.252
       6.127
       6.940
       7.679
       8.351
       8.928
       9.319
       9.385
       9.024
       8.234
       7.128
       5.879
       4.655
       3.582
       2.738
       2.181
       1.959
       2.095
       2.563
       3.267
       4.056
       4.766
       5.255
       5.414
       5.161
       4.463
       3.377
       2.070
       0.782
      -0.265
      -0.943
      -1.223
      -1.144
      -0.765
      -0.151
       0.608
       1.379
       2.002
       2.327
       2.279
       1.877
       1.215
       0.402
      -0.516
      -1.574
      -2.841
      -4.309
      -5.820
      -7.090
      -7.837
      -7.949
      -7.564
      -7.011
      -6.628
      -6.580
      -6.799
      -7.070
      -7.179
      -7.040
      -6.715
      -6.348
      -6.075
      -5.951
      -5.932
      -5.913
      -5.786
      -5.491
      -5.023
      -4.394
      -3.580
      -2.516
      -1.147
       0.490
       2.233
       3.838
       5.064
       5.760
       5.885
       5.494
       4.717
       3.735
       2.737
       1.864
       1.169
       0.625
       0.190
      -0.141
      -0.328
      -0.328
      -0.143
       0.147
       0.380
       0.336
      -0.185
      -1.266
      -2.802
      -4.531
      -6.147
      -7.409
      -8.184
      -8.417
      -8.093
      -7.238
      -5.946
      -4.420
      -2.958
      -1.874
      -1.366
      -1.435
      -1.896
      -2.484
      -2.983
      -3.279
      -3.351
      -3.236
      -2.985
      -2.665
      -2.354
      -2.111
      -1.942
      -1.783
      -1.537
      -1.135
      -0.567
       0.131
       0.895
       1.639
       2.250
       2.609
       2.615
       2.191
       1.286
      -0.093
      -1.843
      -3.742
      -5.502
      -6.875
      -7.773
      -8.311
      -8.737
      -9.293
     -10.102
     -11.149
     -12.355
     -13.651
     -14.998
     -16.349
     -17.610
     -18.656
     -19.400
     -19.841
     -20.066
     -20.194
     -20.314
     -20.450
     -20.569
     -20.621
     -20.578
     -20.448
     -20.248
     -19.960
     -19.514
     -18.825
     -17.847
     -16.609
     -15.181
     -13.608
     -11.848
      -9.782
      -7.288
      -4.326
      -0.968
       2.648
       6.397
      10.196
      13.962
      17.531
      20.654
      23.085
      24.714
      25.624
      26.031
      26.168
      26.179
      26.115
      25.983
      25.805
      25.626
      25.484
      25.372
      25.226
      24.952
      24.450
      23.663
      22.587
      21.259
      19.717
      17.966
      15.980
      13.717
      11.137
       8.218
       4.979
       1.499
      -2.079
      -5.594
      -8.896
     -11.858
     -14.356
     -16.272
     -17.539
     -18.218
     -18.533
     -18.817
     -19.375
     -20.350
     -21.659
     -23.058
     -24.259
     -25.028
     -25.208
     -24.704
     -23.512
     -21.769
     -19.742
     -17.735
     -15.973
     -14.535
     -13.382
     -12.413
     -11.504
     -10.519
      -9.315
      -7.775
      -5.845
      -3.574
      -1.110
       1.338
       3.560
       5.401
       6.795
       7.764
       8.409
       8.889
       9.395
      10.133
      11.278
      12.904
      14.917
      17.066
      19.055
      20.667
      21.812
      22.485
      22.708
      22.546
      22.142
      21.715
      21.486
      21.589
      22.038
      22.736
      23.519
      24.182
      24.533
      24.453
      23.933
      23.057
      21.917
      20.520
      18.776
      16.582
      13.954
      11.095
       8.356
       6.126
       4.706
       4.241
       4.702
       5.900
       7.530
       9.227
      10.641
      11.514
      11.732
      11.355
      10.568
       9.608
       8.673
       7.875
       7.252
       6.785
       6.418
       6.063
       5.610
       4.961
       4.055
       2.894
       1.534
       0.038
      -1.566
      -3.295
      -5.193
      -7.309
      -9.672
     -12.245
     -14.909
     -17.492
     -19.870
     -22.042
     -24.120
     -26.202
     -28.233
     -29.949
     -31.007
     -31.191
     -30.558
     -29.380
     -27.925
     -26.254
     -24.235
     -21.759
     -18.951
     -16.167
     -13.778
     -11.947
     -10.589
      -9.531
      -8.697
      -8.152
      -7.998
      -8.257
      -8.843
      -9.620
     -10.446
     -11.194
     -11.744
     -12.014
     -11.991
     -11.756
     -11.453
     -11.241
     -11.255
     -11.588
     -12.277
     -13.286
     -14.512
     -15.796
     -16.954
     -17.811
     -18.233
     -18.155
     -17.598
     -16.675
     -15.560
     -14.444
     -13.477
     -12.735
     -12.232
     -11.957
     -11.911
     -12.100
     -12.517
     -13.136
     -13.925
     -14.866
     -15.953
     -17.152
     -18.368
     -19.437
     -20.178
     -20.451
     -20.202
     -19.456
     -18.266
     -16.659
     -14.627
     -12.180
      -9.398
      -6.439
      -3.500
      -0.766
       1.623
       3.606
       5.230
       6.644
       8.020
       9.423
      10.728
      11.671
      12.022
      11.790
      11.276
      10.934
      11.120
      11.915
      13.135
      14.498
      15.800
      17.006
      18.200
      19.458
      20.763
      22.004
      23.073
      23.969
      24.815
      25.763
      26.844
      27.866
      28.416
      27.999
      26.263
      23.221
      19.335
      15.391
      12.171
      10.126
       9.279
       9.379
      10.155
      11.439
      13.132
      15.125
      17.272
      19.414
      21.407
      23.134
      24.522
      25.548
      26.220
      26.543
      26.502
      26.060
      25.181
      23.886
      22.310
      20.723
      19.462
      18.802
      18.830
      19.391
      20.126
      20.586
      20.372
      19.255
      17.235
      14.547
      11.612
       8.914
       6.848
       5.591
       5.094
       5.169
       5.614
       6.272
       7.023
       7.747
       8.307
       8.577
       8.473
       7.968
       7.072
       5.786
       4.089
       1.955
      -0.597
      -3.471
      -6.495
      -9.472
     -12.218
     -14.597
     -16.501
     -17.813
     -18.370
     -17.967
     -16.476
     -14.022
     -11.111
      -8.523
      -6.967
      -6.727
      -7.551
      -8.844
     -10.002
     -10.650
     -10.684
     -10.171
      -9.247
      -8.077
      -6.873
      -5.893
      -5.397
      -5.579
      -6.490
      -8.015
      -9.894
     -11.802
     -13.441
     -14.616
     -15.255
     -15.373
     -15.009
     -14.194
     -12.969
     -11.458
      -9.912
      -8.685
      -8.109
      -8.351
      -9.309
     -10.640
     -11.893
     -12.678
     -12.776
     -12.120
     -10.723
      -8.600
      -5.759
      -2.238
       1.837
       6.220
      10.583
      14.597
      18.049
      20.905
      23.294
      25.410
      27.397
      29.285
      30.981
      32.330
      33.205
      33.592
      33.602
      33.384
      32.975
      32.230
      30.911
      28.900
      26.413
      23.992
      22.266
      21.605
      21.956
      22.967
      24.253
      25.558
      26.733
      27.655
      28.231
      28.480
      28.581
      28.798
      29.336
      30.209
      31.221
      32.080
      32.576
      32.706
      32.600
      32.262
      31.322
      29.059
      24.814
      18.541
      11.023
       3.512
      -2.998
      -8.265
     -12.714
     -16.908
     -21.079
     -25.051
     -28.498
     -31.233
     -33.306
     -34.952
     -36.474
     -38.137
     -40.050
     -42.096
     -43.952
     -45.225
     -45.599
     -44.928
     -43.261
     -40.798
     -37.810
     -34.548
     -31.194
     -27.867
     -24.662
     -21.663
     -18.934
     -16.494
     -14.301
     -12.263
     -10.254
      -8.165
      -5.944
      -3.625
      -1.293
       0.988
       3.209
       5.415
       7.665
      10.004
      12.458
      15.024
      17.658
      20.287
      22.847
      25.311
      27.663
      29.826
      31.631
      32.864
      33.349
      32.985
      31.683
      29.334
      25.889
      21.539
      16.791
      12.299
       8.523
       5.504
       2.948
       0.510
      -2.000
      -4.623
      -7.382
     -10.354
     -13.604
     -17.084
     -20.639
     -24.107
     -27.417
     -30.585
     -33.636
     -36.539
     -39.210
     -41.533
     -43.351
     -44.431
     -44.491
     -43.323
     -40.931
     -37.580
     -33.716
     -29.802
     -26.198
     -23.109
     -20.611
     -18.697
     -17.278
     -16.182
     -15.208
     -14.201
     -13.111
     -11.957
     -10.745
      -9.415
      -7.869
      -6.084
      -4.199
      -2.494
      -1.267
      -0.720
      -0.925
      -1.864
      -3.484
      -5.714
      -8.410
     -11.317
     -14.117
     -16.545
     -18.506
     -20.070
     -21.372
     -22.515
     -23.557
     -24.571
     -25.666
     -26.890
     -28.021
     -28.459
     -27.404
     -24.338
     -19.487
     -13.882
      -8.900
      -5.587
      -4.229
      -4.387
      -5.266
      -6.115
      -6.435
      -5.984
      -4.683
      -2.545
       0.351
       3.847
       7.705
      11.636
      15.325
      18.449
      20.678
      21.731
      21.488
      20.083
      17.890
      15.363
      12.831
      10.388
       7.962
       5.467
       2.929
       0.496
      -1.639
      -3.311
      -4.392
      -4.744
      -4.186
      -2.576
       0.006
       3.136
       6.148
       8.456
       9.866
      10.621
      11.167
      11.847
      12.750
      13.772
      14.792
      15.816
      16.999
      18.543
      20.573
      23.070
      25.911
      28.959
      32.123
      35.356
      38.633
      41.917
      45.153
      48.247
      51.072
      53.487
      55.377
      56.688
      57.416
      57.571
      57.136
      56.053
      54.231
      51.600
      48.199
      44.253
      40.124
      36.134
      32.381
      28.721
      24.920
      20.858
      16.608
      12.361
       8.264
       4.318
       0.412
      -3.574
      -7.672
     -11.817
     -15.904
     -19.860
     -23.655
     -27.266
     -30.607
     -33.523
     -35.849
     -37.491
     -38.455
     -38.838
     -38.798
     -38.552
     -38.364
     -38.492
     -39.096
     -40.162
     -41.494
     -42.802
     -43.820
     -44.405
     -44.559
     -44.394
     -44.084
     -43.813
     -43.733
     -43.941
     -44.469
     -45.280
     -46.271
     -47.277
     -48.122
     -48.687
     -48.963
     -49.047
     -49.070
     -49.108
     -49.120
     -48.946
     -48.361
     -47.146
     -45.125
     -42.171
     -38.229
     -33.384
     -27.905
     -22.186
     -16.594
     -11.319
      -6.355
      -1.584
       3.116
       7.841
      12.681
      17.725
      23.010
      28.462
      33.885
      39.017
      43.588
      47.365
      50.202
      52.110
      53.293
      54.102
      54.887
      55.842
      56.905
      57.788
      58.112
      57.572
      56.044
      53.585
      50.352
      46.525
      42.300
      37.930
      33.706
      29.855
      26.408
      23.160
      19.784
      16.012
      11.802
       7.368
       3.098
      -0.618
      -3.532
      -5.580
      -6.794
      -7.175
      -6.620
      -4.997
      -2.318
       1.089
       4.583
       7.455
       9.300
      10.260
      10.928
      11.973
      13.746
      16.126
      18.695
      21.071
      23.143
      25.063
      27.031
      29.087
      31.035
      32.519
      33.202
      32.950
      31.938
      30.561
      29.215
      28.081
      27.088
      26.054
      24.899
      23.728
      22.758
      22.143
      21.872
      21.801
      21.754
      21.594
      21.218
      20.533
      19.480
      18.072
      16.400
      14.600
      12.819
      11.193
       9.826
       8.757
       7.964
       7.395
       7.016
       6.812
       6.765
       6.814
       6.835
       6.655
       6.093
       5.043
       3.539
       1.742
      -0.145
      -1.991
      -3.791
      -5.633
      -7.613
      -9.765
     -12.040
     -14.321
     -16.491
     -18.501
     -20.427
     -22.463
     -24.856
     -27.784
     -31.269
     -35.146
     -39.129
     -42.910
     -46.265
     -49.106
     -51.473
     -53.475
     -55.192
     -56.597
     -57.560
     -57.939
     -57.720
     -57.085
     -56.335
     -55.684
     -55.066
     -54.122
     -52.401
     -49.645
     -45.933
     -41.564
     -36.805
     -31.742
     -26.347
     -20.660
     -14.873
      -9.249
      -3.970
       0.934
       5.516
       9.793
      13.714
      17.248
      20.468
      23.518
      26.467
      29.207
      31.494
      33.108
      34.029
      34.479
      34.815
      35.315
      36.005
      36.656
      36.959
      36.746
      36.107
      35.315
      34.627
      34.091
      33.499
      32.509
      30.850
      28.485
      25.624
      22.607
      19.749
      17.247
      15.178
      13.548
      12.331
      11.481
      10.944
      10.648
      10.514
      10.437
      10.286
       9.895
       9.108
       7.826
       6.040
       3.816
       1.237
      -1.648
      -4.828
      -8.286
     -11.930
     -15.567
     -18.940
     -21.820
     -24.085
     -25.763
     -27.016
     -28.100
     -29.283
     -30.762
     -32.609
     -34.755
     -37.018
     -39.133
     -40.818
     -41.838
     -42.031
     -41.291
     -39.516
     -36.620
     -32.603
     -27.648
     -22.136
     -16.564
     -11.393
      -6.897
      -3.085
       0.282
       3.560
       7.046
      10.846
      14.837
      18.739
      22.262
      25.247
      27.701
      29.724
      31.375
      32.601
      33.290
      33.391
      33.028
      32.514
      32.252
      32.550
      33.462
      34.765
      36.084
      37.087
      37.603
      37.583
      36.980
      35.679
      33.561
      30.660
      27.249
      23.752
      20.526
      17.690
      15.136
      12.682
      10.235
       7.851
       5.691
       3.931
       2.705
       2.071
       1.987
       2.267
       2.599
       2.649
       2.223
       1.355
       0.218
      -1.075
      -2.586
      -4.455
      -6.687
      -9.013
     -10.989
     -12.283
     -12.900
     -13.143
     -13.347
     -13.642
     -13.935
     -14.098
     -14.136
     -14.206
     -14.501
     -15.116
     -16.007
     -17.039
     -18.072
     -19.000
     -19.759
     -20.303
     -20.582
     -20.540
     -20.125
     -19.315
     -18.125
     -16.600
     -14.827
     -12.969
     -11.286
     -10.075
      -9.536
      -9.656
     -10.206
     -10.887
     -11.470
     -11.868
     -12.085
     -12.150
     -12.079
     -11.902
     -11.698
     -11.600
     -11.743
     -12.189
     -12.896
     -13.757
     -14.637
     -15.364
     -15.671
     -15.202
     -13.655
     -11.011
      -7.658
      -4.247
      -1.333
       0.909
       2.680
       4.252
       5.696
       6.889
       7.789
       8.622
       9.746
      11.331
      13.177
      14.826
      15.823
      15.935
      15.235
      14.017
      12.639
      11.370
      10.339
       9.575
       9.041
       8.608
       8.044
       7.130
       5.843
       4.435
       3.281
       2.591
       2.242
       1.830
       0.917
      -0.698
      -2.842
      -5.044
      -6.800
      -7.886
      -8.475
      -8.981
      -9.740
     -10.761
     -11.707
     -12.089
     -11.529
      -9.937
      -7.535
      -4.708
      -1.835
       0.800
       2.991
       4.559
       5.385
       5.491
       5.065
       4.387
       3.697
       3.118
       2.675
       2.365
       2.200
       2.165
       2.149
       1.952
       1.385
       0.400
      -0.882
      -2.258
      -3.562
      -4.735
      -5.802
      -6.835
      -7.902
      -9.034
     -10.215
     -11.396
     -12.529
     -13.575
     -14.487
     -15.177
     -15.512
     -15.332
     -14.493
     -12.927
     -10.712
      -8.110
      -5.536
      -3.462
      -2.261
      -2.076
      -2.785
      -4.084
      -5.628
      -7.128
      -8.372
      -9.193
      -9.446
      -9.020
      -7.885
      -6.145
      -4.065
      -2.038
      -0.464
       0.389
       0.469
      -0.100
      -1.127
      -2.431
      -3.861
      -5.274
      -6.535
      -7.538
      -8.240
      -8.690
      -9.011
      -9.337
      -9.720
     -10.082
     -10.238
      -9.987
      -9.220
      -7.997
      -6.568
      -5.297
      -4.502
      -4.328
      -4.721
      -5.539
      -6.672
      -8.087
      -9.750
     -11.536
     -13.204
     -14.473
     -15.142
     -15.174
     -14.699
     -13.951
     -13.181
     -12.574
     -12.215
     -12.093
     -12.144
