Origin Time       21/9/2009 8:53:04	 
Lat.              27.3 N	
Long.             91.5 E	
Depth (Km)          8.0
Magnitude         6.2
 Region           BHUTAN                                                           
 Above details taken from IMD 
   
Station Code      COB
Station Lat.       26.319
Station Long.      89.440
Station Height(m)   49.6
Site Class        C   Vs30 between 200 m/sec to 375 m/sec *  
Record Time       21.09.2009 08:53:57.499
Sampling Rate     200. Hz
 Record Duration   76.650 Sec.
 Direction         Vert. (Up positive)
Max. Acceleration     -6.532 cm/sec**2
     
  * For reference see Site Classification link of website 
     
 Base Line Corrected and Low Pass Filtered (Cut Off at 35 Hz) Time History
 Acceleration data in cm/sec**2
    
[...]
       0.344
       0.824
       1.219
       1.444
       1.462
       1.281
       0.937
       0.482
      -0.015
      -0.472
      -0.812
      -0.978
      -0.955
      -0.786
      -0.564
      -0.396
      -0.359
      -0.468
      -0.684
      -0.940
      -1.176
      -1.349
      -1.436
      -1.422
      -1.297
      -1.057
      -0.723
      -0.336
       0.052
       0.405
       0.698
       0.910
       1.025
       1.042
       0.987
       0.893
       0.781
       0.654
       0.516
       0.376
       0.244
       0.120
      -0.001
      -0.129
      -0.276
      -0.447
      -0.628
      -0.782
      -0.857
      -0.813
      -0.641
      -0.365
      -0.035
       0.285
       0.545
       0.718
       0.808
       0.830
       0.796
       0.719
       0.616
       0.509
       0.414
       0.325
       0.222
       0.083
      -0.104
      -0.318
      -0.517
      -0.648
      -0.685
      -0.636
      -0.527
      -0.382
      -0.213
      -0.037
       0.125
       0.243
       0.293
       0.256
       0.133
      -0.043
      -0.208
      -0.294
      -0.249
      -0.059
       0.243
       0.579
       0.844
       0.951
       0.868
       0.622
       0.276
      -0.105
      -0.459
      -0.727
      -0.863
      -0.839
      -0.651
      -0.321
       0.105
       0.564
       0.985
       1.301
       1.469
       1.470
       1.323
       1.078
       0.800
       0.544
       0.336
       0.177
       0.060
      -0.020
      -0.067
      -0.083
      -0.070
      -0.041
      -0.021
      -0.028
      -0.063
      -0.098
      -0.108
      -0.090
      -0.060
      -0.037
      -0.039
      -0.079
      -0.170
      -0.310
      -0.484
      -0.667
      -0.835
      -0.965
      -1.035
      -1.033
      -0.952
      -0.788
      -0.532
      -0.187
       0.221
       0.645
       1.041
       1.375
       1.619
       1.751
       1.765
       1.682
       1.545
       1.395
       1.263
       1.150
       1.033
       0.880
       0.677
       0.455
       0.274
       0.180
       0.176
       0.223
       0.275
       0.307
       0.326
       0.361
       0.431
       0.513
       0.543
       0.462
       0.252
      -0.044
      -0.350
      -0.601
      -0.768
      -0.855
      -0.891
      -0.900
      -0.886
      -0.828
      -0.704
      -0.520
      -0.316
      -0.148
      -0.067
      -0.101
      -0.244
      -0.456
      -0.673
      -0.844
      -0.948
      -0.985
      -0.961
      -0.876
      -0.725
      -0.505
      -0.221
       0.103
       0.408
       0.618
       0.670
       0.543
       0.261
      -0.126
      -0.560
      -0.977
      -1.318
      -1.540
      -1.613
      -1.523
      -1.266
      -0.860
      -0.354
       0.177
       0.648
       0.982
       1.131
       1.092
       0.913
       0.661
       0.400
       0.179
       0.039
       0.013
       0.113
       0.323
       0.594
       0.847
       0.998
       0.976
       0.768
       0.420
       0.009
      -0.400
      -0.768
      -1.078
      -1.311
      -1.454
      -1.501
      -1.459
      -1.337
      -1.155
      -0.952
      -0.781
      -0.688
      -0.683
      -0.734
      -0.784
      -0.782
      -0.707
      -0.575
      -0.423
      -0.284
      -0.175
      -0.113
      -0.120
      -0.219
      -0.423
      -0.722
      -1.081
      -1.437
      -1.704
      -1.796
      -1.666
      -1.327
      -0.838
      -0.280
       0.259
       0.693
       0.956
       1.024
       0.924
       0.720
       0.485
       0.287
       0.183
       0.210
       0.392
       0.729
       1.192
       1.706
       2.159
       2.434
       2.451
       2.202
       1.748
       1.187
       0.624
       0.135
      -0.236
      -0.463
      -0.523
      -0.399
      -0.104
       0.304
       0.744
       1.155
       1.518
       1.842
       2.141
       2.404
       2.600
       2.693
       2.661
       2.512
       2.270
       1.969
       1.643
       1.329
       1.067
       0.880
       0.763
       0.682
       0.594
       0.461
       0.253
      -0.051
      -0.457
      -0.941
      -1.456
      -1.930
      -2.289
      -2.466
      -2.434
      -2.222
      -1.909
      -1.599
      -1.388
      -1.340
      -1.482
      -1.801
      -2.257
      -2.796
      -3.359
      -3.882
      -4.303
      -4.566
      -4.633
      -4.489
      -4.143
      -3.637
      -3.046
      -2.465
      -1.970
      -1.589
      -1.299
      -1.063
      -0.842
      -0.611
      -0.345
      -0.019
       0.383
       0.862
       1.386
       1.896
       2.319
       2.596
       2.693
       2.603
       2.340
       1.927
       1.404
       0.818
       0.220
      -0.336
      -0.797
      -1.121
      -1.299
      -1.347
      -1.291
      -1.150
      -0.936
      -0.674
      -0.395
      -0.129
       0.105
       0.294
       0.424
       0.467
       0.387
       0.152
      -0.247
      -0.778
      -1.378
      -1.967
      -2.475
      -2.849
      -3.056
      -3.086
      -2.940
      -2.621
      -2.134
      -1.511
      -0.813
      -0.120
       0.494
       0.980
       1.304
       1.447
       1.403
       1.185
       0.819
       0.339
      -0.206
      -0.744
      -1.177
      -1.420
      -1.426
      -1.212
      -0.849
      -0.444
      -0.104
       0.093
       0.115
      -0.042
      -0.366
      -0.831
      -1.384
      -1.947
      -2.425
      -2.731
      -2.797
      -2.589
      -2.121
      -1.451
      -0.662
       0.165
       0.957
       1.649
       2.180
       2.502
       2.594
       2.464
       2.148
       1.696
       1.162
       0.591
       0.021
      -0.500
      -0.918
      -1.205
      -1.365
      -1.437
      -1.448
      -1.399
      -1.270
      -1.040
      -0.701
      -0.267
       0.232
       0.760
       1.295
       1.840
       2.401
       2.954
       3.438
       3.770
       3.877
       3.726
       3.333
       2.762
       2.107
       1.458
       0.873
       0.375
      -0.035
      -0.357
      -0.590
      -0.725
      -0.760
      -0.717
      -0.650
      -0.626
      -0.695
      -0.859
      -1.083
      -1.318
      -1.510
      -1.618
      -1.616
      -1.516
      -1.353
      -1.159
      -0.938
      -0.666
      -0.322
       0.092
       0.538
       0.957
       1.292
       1.514
       1.644
       1.732
       1.821
       1.914
       1.987
       2.008
       1.976
       1.922
       1.893
       1.915
       1.962
       1.967
       1.860
       1.597
       1.158
       0.540
      -0.238
      -1.115
      -1.990
      -2.763
      -3.360
      -3.743
      -3.903
      -3.855
      -3.638
      -3.297
      -2.869
      -2.389
      -1.908
      -1.503
      -1.245
      -1.161
      -1.218
      -1.334
      -1.408
      -1.342
      -1.069
      -0.566
       0.141
       0.979
       1.840
       2.602
       3.155
       3.417
       3.345
       2.941
       2.268
       1.464
       0.722
       0.243
       0.165
       0.526
       1.265
       2.243
       3.274
       4.177
       4.812
       5.109
       5.057
       4.689
       4.077
       3.332
       2.585
       1.967
       1.575
       1.456
       1.601
       1.950
       2.409
       2.873
       3.246
       3.452
       3.435
       3.173
       2.677
       1.996
       1.215
       0.440
      -0.212
      -0.643
      -0.800
      -0.692
      -0.386
       0.026
       0.463
       0.875
       1.240
       1.550
       1.790
       1.957
       2.073
       2.193
       2.381
       2.664
       3.014
       3.353
       3.584
       3.615
       3.381
       2.861
       2.064
       1.020
      -0.222
      -1.581
      -2.934
      -4.139
      -5.083
      -5.705
      -5.985
      -5.916
      -5.499
      -4.769
      -3.811
      -2.757
      -1.760
      -0.951
      -0.417
      -0.200
      -0.311
      -0.743
      -1.460
      -2.376
      -3.349
      -4.214
      -4.828
      -5.098
      -4.992
      -4.525
      -3.753
      -2.762
      -1.661
      -0.570
       0.386
       1.107
       1.553
       1.741
       1.716
       1.505
       1.111
       0.551
      -0.102
      -0.732
      -1.217
      -1.476
      -1.482
      -1.258
      -0.859
      -0.365
       0.138
       0.586
       0.943
       1.200
       1.352
       1.378
       1.244
       0.925
       0.446
      -0.096
      -0.556
      -0.794
      -0.733
      -0.388
       0.153
       0.771
       1.363
       1.860
       2.220
       2.409
       2.398
       2.180
       1.793
       1.328
       0.913
       0.686
       0.751
       1.139
       1.790
       2.560
       3.273
       3.774
       3.959
       3.781
       3.242
       2.394
       1.341
       0.220
      -0.826
      -1.679
      -2.271
      -2.589
      -2.677
      -2.616
      -2.497
      -2.414
      -2.451
      -2.676
      -3.109
      -3.695
      -4.304
      -4.772
      -4.970
      -4.838
      -4.385
      -3.653
      -2.682
      -1.512
      -0.208
       1.113
       2.306
       3.244
       3.864
       4.176
       4.226
       4.064
       3.720
       3.222
       2.619
       1.989
       1.425
       0.996
       0.732
       0.632
       0.684
       0.873
       1.161
       1.477
       1.738
       1.879
       1.872
       1.713
       1.392
       0.901
       0.259
      -0.463
      -1.151
      -1.690
      -2.009
      -2.086
      -1.934
      -1.586
      -1.079
      -0.455
       0.235
       0.933
       1.569
       2.070
       2.381
       2.490
       2.443
       2.321
       2.201
       2.117
       2.066
       2.028
       1.989
       1.940
       1.855
       1.676
       1.322
       0.728
      -0.114
      -1.138
      -2.223
      -3.229
      -4.028
      -4.513
      -4.611
      -4.294
      -3.587
      -2.563
      -1.327
       0.007
       1.324
       2.517
       3.491
       4.171
       4.504
       4.480
       4.143
       3.578
       2.891
       2.174
       1.496
       0.906
       0.462
       0.229
       0.272
       0.619
       1.227
       1.987
       2.760
       3.403
       3.811
       3.929
       3.756
       3.350
       2.806
       2.230
       1.718
       1.348
       1.164
       1.180
       1.370
       1.675
       2.005
       2.260
       2.333
       2.135
       1.617
       0.786
      -0.281
      -1.456
      -2.580
      -3.506
      -4.133
      -4.436
      -4.455
      -4.281
      -4.016
      -3.748
      -3.533
      -3.398
      -3.353
      -3.398
      -3.509
      -3.633
      -3.688
      -3.590
      -3.285
      -2.777
      -2.143
      -1.511
      -0.999
      -0.671
      -0.520
      -0.501
      -0.564
      -0.669
      -0.787
      -0.896
      -0.982
      -1.049
      -1.117
      -1.208
      -1.339
      -1.515
      -1.718
      -1.909
      -2.023
      -2.001
      -1.806
      -1.446
      -0.962
      -0.418
       0.124
       0.626
       1.068
       1.444
       1.747
       1.977
       2.149
       2.288
       2.416
       2.538
       2.636
       2.676
       2.613
       2.417
       2.074
       1.594
       0.985
       0.259
      -0.554
      -1.376
      -2.089
      -2.567
      -2.732
      -2.585
      -2.202
      -1.701
      -1.200
      -0.778
      -0.464
      -0.256
      -0.144
      -0.123
      -0.171
      -0.233
      -0.213
      -0.006
       0.450
       1.132
       1.932
       2.693
       3.264
       3.544
       3.494
       3.129
       2.518
       1.763
       0.978
       0.275
      -0.244
      -0.483
      -0.368
       0.123
       0.940
       1.961
       3.010
       3.895
       4.460
       4.625
       4.382
       3.754
       2.780
       1.525
       0.107
      -1.326
      -2.630
      -3.711
      -4.533
      -5.094
      -5.410
      -5.500
      -5.383
      -5.070
      -4.579
      -3.950
      -3.233
      -2.478
      -1.719
      -0.993
      -0.356
       0.113
       0.345
       0.316
       0.062
      -0.340
      -0.799
      -1.220
      -1.517
      -1.616
      -1.474
      -1.099
      -0.578
      -0.066
       0.257
       0.255
      -0.115
      -0.807
      -1.708
      -2.682
      -3.584
      -4.267
      -4.586
      -4.416
      -3.684
      -2.420
      -0.777
       0.983
       2.566
       3.733
       4.356
       4.418
       3.975
       3.124
       1.999
       0.786
      -0.284
      -0.973
      -1.102
      -0.612
       0.415
       1.775
       3.194
       4.399
       5.173
       5.387
       4.999
       4.043
       2.615
       0.867
      -1.001
      -2.759
      -4.175
      -5.059
      -5.307
      -4.921
      -4.016
      -2.780
      -1.416
      -0.102
       1.033
       1.893
       2.414
       2.578
       2.430
       2.085
       1.704
       1.454
       1.461
       1.773
       2.342
       3.042
       3.712
       4.199
       4.378
       4.150
       3.448
       2.271
       0.724
      -0.977
      -2.561
      -3.772
      -4.443
      -4.501
      -3.960
      -2.901
      -1.471
       0.129
       1.651
       2.840
       3.480
       3.450
       2.770
       1.597
       0.176
      -1.241
      -2.433
      -3.226
      -3.494
      -3.202
      -2.444
      -1.439
      -0.461
       0.252
       0.558
       0.410
      -0.167
      -1.108
      -2.308
      -3.626
      -4.885
      -5.889
      -6.469
      -6.532
      -6.100
      -5.287
      -4.247
      -3.115
      -1.990
      -0.952
      -0.084
       0.539
       0.880
       0.958
       0.826
       0.548
       0.192
      -0.173
      -0.487
      -0.736
      -0.956
      -1.188
      -1.436
      -1.662
      -1.815
      -1.859
      -1.788
      -1.615
      -1.342
      -0.935
      -0.342
       0.457
       1.409
       2.389
       3.234
       3.802
       3.999
       3.789
       3.185
       2.239
       1.033
      -0.302
      -1.561
      -2.505
      -2.949
      -2.837
      -2.229
      -1.246
      -0.007
       1.379
       2.785
       4.024
       4.875
       5.163
       4.847
       4.054
       3.012
       1.946
       0.999
       0.229
      -0.332
      -0.629
      -0.607
      -0.264
       0.292
       0.860
       1.216
       1.211
       0.826
       0.158
      -0.662
      -1.547
      -2.470
      -3.416
      -4.302
      -4.962
      -5.196
      -4.879
      -4.019
      -2.738
      -1.210
       0.397
       1.910
       3.150
       3.962
       4.258
       4.041
       3.397
       2.465
       1.419
       0.450
      -0.272
      -0.636
      -0.601
      -0.204
       0.453
       1.222
       1.953
       2.521
       2.840
       2.858
       2.563
       2.000
       1.279
       0.546
      -0.061
      -0.448
      -0.584
      -0.497
      -0.265
       0.012
       0.233
       0.309
       0.161
      -0.274
      -1.008
      -1.962
      -2.971
      -3.840
      -4.428
      -4.697
      -4.696
      -4.501
      -4.162
      -3.697
      -3.125
      -2.510
      -1.963
      -1.609
      -1.525
      -1.693
      -2.001
      -2.301
      -2.486
      -2.531
      -2.462
      -2.317
      -2.120
      -1.905
      -1.736
      -1.684
      -1.776
      -1.967
      -2.158
      -2.247
      -2.174
      -1.914
      -1.464
      -0.831
      -0.054
       0.773
       1.496
       1.932
       1.935
       1.468
       0.618
      -0.444
      -1.537
      -2.526
      -3.318
      -3.829
      -3.963
      -3.631
      -2.809
      -1.570
      -0.074
       1.485
       2.937
       4.155
       5.041
       5.523
       5.574
       5.236
       4.613
       3.828
       2.998
       2.230
       1.630
       1.282
       1.211
       1.379
       1.697
       2.069
       2.408
       2.653
       2.778
       2.792
       2.727
       2.615
       2.479
       2.340
       2.221
       2.136
       2.069
       1.977
       1.818
       1.580
       1.276
       0.914
       0.487
      -0.007
      -0.532
      -1.014
      -1.372
      -1.560
      -1.592
      -1.527
      -1.451
      -1.459
      -1.632
      -2.012
      -2.584
      -3.276
      -3.978
      -4.564
      -4.912
      -4.921
      -4.527
      -3.728
      -2.586
      -1.223
       0.202
       1.520
       2.593
       3.332
       3.709
       3.736
       3.452
       2.911
       2.190
       1.387
       0.595
      -0.127
      -0.768
      -1.355
      -1.929
      -2.508
      -3.081
      -3.628
      -4.135
      -4.601
      -5.012
      -5.307
      -5.387
      -5.151
      -4.558
      -3.649
      -2.533
      -1.338
      -0.166
       0.921
       1.886
       2.695
       3.317
       3.743
       4.013
       4.212
       4.431
       4.722
       5.078
       5.438
       5.718
       5.827
       5.693
       5.274
       4.560
       3.580
       2.401
       1.135
      -0.079
      -1.111
      -1.880
      -2.367
      -2.595
      -2.597
      -2.413
      -2.099
      -1.734
      -1.404
      -1.174
      -1.062
      -1.037
      -1.037
      -0.989
      -0.828
      -0.512
      -0.014
       0.677
       1.553
       2.571
       3.644
       4.649
       5.463
       6.007
       6.271
       6.299
       6.137
       5.801
       5.291
       4.630
       3.892
       3.176
       2.569
       2.116
       1.807
       1.595
       1.418
       1.246
       1.088
       0.976
       0.909
       0.831
       0.660
       0.359
      -0.025
      -0.373
      -0.563
      -0.544
      -0.355
      -0.107
       0.090
       0.166
       0.104
      -0.086
      -0.384
      -0.755
      -1.144
      -1.479
      -1.693
      -1.751
      -1.671
      -1.509
      -1.331
      -1.182
      -1.088
      -1.083
      -1.217
      -1.539
      -2.045
      -2.667
      -3.294
      -3.819
      -4.170
      -4.310
      -4.222
      -3.901
      -3.355
      -2.617
      -1.764
      -0.910
      -0.173
       0.376
       0.738
       0.951
       1.050
       1.048
       0.943
       0.748
       0.490
       0.210
      -0.051
      -0.266
      -0.430
      -0.566
      -0.716
      -0.924
      -1.210
      -1.552
      -1.890
      -2.160
      -2.326
      -2.380
      -2.310
      -2.083
      -1.663
      -1.044
      -0.264
       0.618
       1.544
       2.455
       3.298
       4.020
       4.589
       4.991
       5.227
       5.301
       5.210
       4.939
       4.461
       3.756
       2.835
       1.760
       0.636
      -0.426
      -1.335
      -2.037
      -2.502
      -2.716
      -2.677
      -2.418
      -2.017
      -1.574
      -1.170
      -0.844
      -0.608
      -0.493
      -0.539
      -0.755
      -1.087
      -1.432
      -1.692
      -1.818
      -1.810
      -1.682
      -1.442
      -1.088
      -0.640
      -0.159
       0.248
       0.470
       0.461
       0.264
      -0.015
      -0.277
      -0.470
      -0.578
      -0.585
      -0.447
      -0.115
       0.419
       1.092
       1.768
       2.282
       2.501
       2.369
       1.891
       1.115
       0.123
      -0.963
      -1.982
      -2.766
      -3.190
      -3.189
      -2.773
      -2.015
      -1.037
       0.002
