Origin Time       21/9/2009 8:53:04	 
Lat.              27.3 N	
Long.             91.5 E	
Depth (Km)          8.0
Magnitude         6.2
 Region           BHUTAN                                                           
 Above details taken from IMD 
     
Station Code      COB
Station Lat.       26.319  N
Station Long.      89.440  E
Station Height(m)   49.6
Site Class        C   Vs30 between 200 m/sec to 375 m/sec *  
Record Time       21.09.2009 08:53:57.499
Sampling Rate     200. Hz
 Record Duration   76.650 Sec.
 Direction         E-W (E positive)
Max. Acceleration    -15.656 cm/sec**2
     
  * For reference see Site Classification link of website 
     
 Base Line Corrected and Low Pass Filtered (Cut Off at 35 Hz) Time History
 Acceleration data in cm/sec**2
    
[...]
       0.334
       0.321
       0.319
       0.338
       0.388
       0.465
       0.557
       0.644
       0.703
       0.718
       0.684
       0.607
       0.495
       0.362
       0.225
       0.101
       0.008
      -0.042
      -0.050
      -0.025
       0.021
       0.076
       0.128
       0.168
       0.187
       0.182
       0.153
       0.105
       0.040
      -0.037
      -0.122
      -0.207
      -0.286
      -0.354
      -0.409
      -0.452
      -0.482
      -0.501
      -0.508
      -0.500
      -0.473
      -0.425
      -0.359
      -0.281
      -0.198
      -0.112
      -0.024
       0.060
       0.127
       0.160
       0.151
       0.107
       0.044
      -0.021
      -0.076
      -0.116
      -0.139
      -0.147
      -0.154
      -0.176
      -0.228
      -0.306
      -0.396
      -0.476
      -0.535
      -0.575
      -0.597
      -0.600
      -0.578
      -0.531
      -0.464
      -0.389
      -0.317
      -0.251
      -0.193
      -0.135
      -0.067
       0.023
       0.143
       0.290
       0.453
       0.616
       0.761
       0.876
       0.957
       1.005
       1.025
       1.018
       0.983
       0.917
       0.823
       0.705
       0.570
       0.422
       0.261
       0.087
      -0.095
      -0.277
      -0.453
      -0.617
      -0.764
      -0.891
      -1.000
      -1.096
      -1.187
      -1.274
      -1.352
      -1.410
      -1.432
      -1.405
      -1.322
      -1.190
      -1.025
      -0.845
      -0.664
      -0.488
      -0.319
      -0.158
      -0.001
       0.158
       0.321
       0.487
       0.645
       0.784
       0.894
       0.974
       1.031
       1.070
       1.092
       1.093
       1.069
       1.016
       0.935
       0.826
       0.689
       0.524
       0.340
       0.155
      -0.010
      -0.140
      -0.229
      -0.289
      -0.342
      -0.405
      -0.482
      -0.562
      -0.634
      -0.687
      -0.719
      -0.730
      -0.722
      -0.694
      -0.641
      -0.558
      -0.437
      -0.282
      -0.108
       0.063
       0.207
       0.317
       0.399
       0.469
       0.546
       0.631
       0.716
       0.781
       0.812
       0.807
       0.772
       0.717
       0.652
       0.584
       0.516
       0.450
       0.395
       0.364
       0.362
       0.386
       0.417
       0.433
       0.415
       0.352
       0.248
       0.123
      -0.001
      -0.104
      -0.184
      -0.248
      -0.307
      -0.362
      -0.407
      -0.433
      -0.433
      -0.407
      -0.359
      -0.296
      -0.221
      -0.142
      -0.069
      -0.014
       0.009
      -0.004
      -0.046
      -0.101
      -0.148
      -0.167
      -0.144
      -0.083
       0.001
       0.090
       0.165
       0.217
       0.240
       0.230
       0.189
       0.126
       0.053
      -0.013
      -0.056
      -0.066
      -0.039
       0.020
       0.094
       0.162
       0.206
       0.216
       0.194
       0.155
       0.118
       0.101
       0.108
       0.135
       0.169
       0.196
       0.203
       0.183
       0.133
       0.061
      -0.021
      -0.095
      -0.142
      -0.151
      -0.124
      -0.079
      -0.039
      -0.022
      -0.032
      -0.058
      -0.093
      -0.138
      -0.199
      -0.275
      -0.349
      -0.392
      -0.386
      -0.336
      -0.260
      -0.180
      -0.104
      -0.035
       0.022
       0.061
       0.076
       0.066
       0.031
      -0.024
      -0.091
      -0.158
      -0.206
      -0.216
      -0.176
      -0.092
       0.016
       0.122
       0.202
       0.244
       0.243
       0.197
       0.111
      -0.006
      -0.138
      -0.264
      -0.366
      -0.430
      -0.451
      -0.428
      -0.370
      -0.284
      -0.181
      -0.073
       0.026
       0.100
       0.141
       0.152
       0.138
       0.105
       0.053
      -0.014
      -0.087
      -0.146
      -0.176
      -0.166
      -0.125
      -0.071
      -0.021
       0.012
       0.025
       0.020
      -0.001
      -0.028
      -0.048
      -0.049
      -0.031
      -0.004
       0.022
       0.040
       0.052
       0.062
       0.068
       0.063
       0.046
       0.026
       0.018
       0.033
       0.074
       0.130
       0.193
       0.252
       0.302
       0.340
       0.364
       0.376
       0.387
       0.412
       0.462
       0.540
       0.644
       0.765
       0.891
       1.009
       1.103
       1.155
       1.154
       1.092
       0.979
       0.837
       0.687
       0.550
       0.433
       0.342
       0.283
       0.252
       0.234
       0.205
       0.146
       0.060
      -0.036
      -0.122
      -0.190
      -0.241
      -0.283
      -0.320
      -0.347
      -0.360
      -0.353
      -0.333
      -0.310
      -0.298
      -0.301
      -0.313
      -0.324
      -0.326
      -0.319
      -0.304
      -0.281
      -0.250
      -0.209
      -0.159
      -0.106
      -0.052
       0.000
       0.045
       0.076
       0.081
       0.053
      -0.004
      -0.076
      -0.146
      -0.203
      -0.237
      -0.249
      -0.244
      -0.228
      -0.206
      -0.175
      -0.136
      -0.095
      -0.066
      -0.055
      -0.059
      -0.061
      -0.050
      -0.021
       0.016
       0.041
       0.036
      -0.003
      -0.064
      -0.126
      -0.172
      -0.192
      -0.189
      -0.168
      -0.132
      -0.087
      -0.036
       0.015
       0.063
       0.104
       0.140
       0.172
       0.206
       0.243
       0.284
       0.322
       0.347
       0.342
       0.294
       0.201
       0.073
      -0.073
      -0.217
      -0.342
      -0.433
      -0.483
      -0.493
      -0.471
      -0.432
      -0.390
      -0.360
      -0.356
      -0.387
      -0.449
      -0.527
      -0.602
      -0.661
      -0.691
      -0.690
      -0.658
      -0.602
      -0.532
      -0.456
      -0.380
      -0.308
      -0.239
      -0.173
      -0.107
      -0.042
       0.018
       0.062
       0.079
       0.061
       0.012
      -0.052
      -0.110
      -0.148
      -0.161
      -0.153
      -0.131
      -0.102
      -0.078
      -0.069
      -0.091
      -0.156
      -0.268
      -0.419
      -0.585
      -0.732
      -0.834
      -0.875
      -0.851
      -0.767
      -0.637
      -0.477
      -0.305
      -0.136
       0.022
       0.157
       0.257
       0.307
       0.301
       0.249
       0.175
       0.106
       0.067
       0.068
       0.100
       0.148
       0.198
       0.245
       0.289
       0.333
       0.383
       0.444
       0.517
       0.592
       0.656
       0.702
       0.734
       0.766
       0.805
       0.852
       0.894
       0.916
       0.911
       0.878
       0.830
       0.776
       0.723
       0.671
       0.620
       0.570
       0.519
       0.466
       0.414
       0.368
       0.331
       0.300
       0.270
       0.240
       0.213
       0.192
       0.180
       0.173
       0.165
       0.150
       0.126
       0.094
       0.059
       0.018
      -0.031
      -0.093
      -0.168
      -0.250
      -0.326
      -0.381
      -0.407
      -0.406
      -0.388
      -0.370
      -0.357
      -0.344
      -0.325
      -0.297
      -0.262
      -0.221
      -0.172
      -0.115
      -0.051
       0.013
       0.067
       0.101
       0.115
       0.117
       0.118
       0.127
       0.138
       0.134
       0.097
       0.018
      -0.091
      -0.201
      -0.279
      -0.304
      -0.274
      -0.204
      -0.111
      -0.014
       0.071
       0.134
       0.170
       0.188
       0.192
       0.182
       0.151
       0.099
       0.031
      -0.036
      -0.091
      -0.124
      -0.136
      -0.138
      -0.142
      -0.158
      -0.184
      -0.211
      -0.233
      -0.249
      -0.269
      -0.305
      -0.366
      -0.455
      -0.562
      -0.672
      -0.774
      -0.870
      -0.969
      -1.081
      -1.208
      -1.335
      -1.445
      -1.520
      -1.553
      -1.549
      -1.518
      -1.470
      -1.409
      -1.338
      -1.263
      -1.192
      -1.134
      -1.099
      -1.093
      -1.114
      -1.147
      -1.169
      -1.162
      -1.123
      -1.060
      -0.983
      -0.901
      -0.815
      -0.723
      -0.619
      -0.503
      -0.380
      -0.260
      -0.147
      -0.042
       0.061
       0.163
       0.256
       0.326
       0.355
       0.334
       0.268
       0.177
       0.085
       0.002
      -0.081
      -0.178
      -0.300
      -0.447
      -0.608
      -0.767
      -0.904
      -1.003
      -1.063
      -1.090
      -1.098
      -1.103
      -1.110
      -1.124
      -1.143
      -1.165
      -1.186
      -1.197
      -1.190
      -1.155
      -1.093
      -1.014
      -0.931
      -0.856
      -0.793
      -0.744
      -0.706
      -0.676
      -0.647
      -0.611
      -0.562
      -0.500
      -0.429
      -0.356
      -0.285
      -0.218
      -0.155
      -0.100
      -0.064
      -0.055
      -0.074
      -0.114
      -0.164
      -0.215
      -0.263
      -0.311
      -0.368
      -0.443
      -0.545
      -0.677
      -0.838
      -1.027
      -1.236
      -1.448
      -1.643
      -1.803
      -1.922
      -2.007
      -2.066
      -2.105
      -2.123
      -2.117
      -2.090
      -2.053
      -2.015
      -1.983
      -1.959
      -1.946
      -1.950
      -1.973
      -2.014
      -2.059
      -2.089
      -2.085
      -2.036
      -1.940
      -1.808
      -1.656
      -1.502
      -1.359
      -1.234
      -1.134
      -1.063
      -1.015
      -0.985
      -0.960
      -0.933
      -0.897
      -0.845
      -0.773
      -0.685
      -0.596
      -0.521
      -0.469
      -0.436
      -0.405
      -0.358
      -0.285
      -0.193
      -0.098
      -0.021
       0.030
       0.056
       0.064
       0.065
       0.071
       0.092
       0.140
       0.227
       0.356
       0.521
       0.703
       0.882
       1.046
       1.193
       1.329
       1.459
       1.589
       1.722
       1.861
       2.006
       2.151
       2.288
       2.407
       2.498
       2.549
       2.557
       2.525
       2.459
       2.360
       2.227
       2.059
       1.869
       1.675
       1.496
       1.342
       1.204
       1.061
       0.895
       0.699
       0.479
       0.245
       0.003
      -0.240
      -0.477
      -0.699
      -0.897
      -1.067
      -1.207
      -1.315
      -1.387
      -1.426
      -1.439
      -1.441
      -1.443
      -1.444
      -1.433
      -1.392
      -1.313
      -1.196
      -1.054
      -0.898
      -0.731
      -0.549
      -0.351
      -0.144
       0.063
       0.259
       0.447
       0.641
       0.861
       1.114
       1.394
       1.676
       1.932
       2.141
       2.291
       2.386
       2.435
       2.450
       2.443
       2.419
       2.382
       2.332
       2.263
       2.165
       2.022
       1.835
       1.619
       1.401
       1.199
       1.016
       0.834
       0.617
       0.335
      -0.027
      -0.459
      -0.930
      -1.407
      -1.864
      -2.280
      -2.638
      -2.926
      -3.141
      -3.286
      -3.368
      -3.393
      -3.365
      -3.280
      -3.132
      -2.906
      -2.591
      -2.179
      -1.679
      -1.110
      -0.496
       0.148
       0.817
       1.514
       2.244
       2.998
       3.759
       4.500
       5.194
       5.820
       6.371
       6.855
       7.286
       7.675
       8.018
       8.298
       8.494
       8.591
       8.575
       8.438
       8.174
       7.782
       7.263
       6.623
       5.871
       5.023
       4.103
       3.135
       2.143
       1.142
       0.136
      -0.875
      -1.885
      -2.868
      -3.786
      -4.597
      -5.272
      -5.794
      -6.160
      -6.366
      -6.413
      -6.297
      -6.015
      -5.568
      -4.970
      -4.241
      -3.407
      -2.492
      -1.526
      -0.541
       0.433
       1.371
       2.255
       3.074
       3.826
       4.518
       5.162
       5.768
       6.335
       6.850
       7.296
       7.662
       7.938
       8.121
       8.207
       8.191
       8.078
       7.882
       7.633
       7.359
       7.078
       6.794
       6.501
       6.191
       5.865
       5.531
       5.209
       4.916
       4.659
       4.440
       4.255
       4.106
       3.990
       3.904
       3.835
       3.777
       3.733
       3.714
       3.735
       3.802
       3.919
       4.084
       4.291
       4.530
       4.790
       5.067
       5.359
       5.670
       5.997
       6.334
       6.666
       6.974
       7.239
       7.436
       7.546
       7.558
       7.473
       7.305
       7.064
       6.753
       6.367
       5.901
       5.359
       4.749
       4.072
       3.330
       2.531
       1.697
       0.866
       0.088
      -0.590
      -1.140
      -1.556
      -1.842
      -2.004
      -2.041
      -1.951
      -1.737
      -1.408
      -0.974
      -0.451
       0.139
       0.765
       1.391
       1.993
       2.558
       3.093
       3.610
       4.117
       4.610
       5.074
       5.493
       5.857
       6.155
       6.365
       6.456
       6.394
       6.154
       5.728
       5.122
       4.349
       3.412
       2.307
       1.027
      -0.426
      -2.019
      -3.692
      -5.365
      -6.969
      -8.461
      -9.829
     -11.072
     -12.180
     -13.138
     -13.933
     -14.563
     -15.037
     -15.369
     -15.574
     -15.656
     -15.614
     -15.437
     -15.112
     -14.635
     -14.006
     -13.235
     -12.334
     -11.311
     -10.178
      -8.947
      -7.645
      -6.316
      -5.014
      -3.790
      -2.674
      -1.677
      -0.806
      -0.074
       0.497
       0.894
       1.119
       1.189
       1.127
       0.951
       0.667
       0.274
      -0.235
      -0.863
      -1.597
      -2.404
      -3.239
      -4.056
      -4.821
      -5.512
      -6.120
      -6.643
      -7.078
      -7.417
      -7.657
      -7.794
      -7.828
      -7.758
      -7.579
      -7.284
      -6.874
      -6.360
      -5.766
      -5.125
      -4.477
      -3.857
      -3.294
      -2.811
      -2.419
      -2.125
      -1.922
      -1.790
      -1.704
      -1.638
      -1.576
      -1.509
      -1.432
      -1.337
      -1.223
      -1.093
      -0.965
      -0.861
      -0.803
      -0.804
      -0.866
      -0.983
      -1.149
      -1.350
      -1.566
      -1.771
      -1.944
      -2.078
      -2.180
      -2.263
      -2.333
      -2.389
      -2.434
      -2.476
      -2.525
      -2.579
      -2.627
      -2.649
      -2.629
      -2.561
      -2.443
      -2.274
      -2.045
      -1.750
      -1.389
      -0.974
      -0.528
      -0.084
       0.318
       0.642
       0.864
       0.982
       1.015
       0.989
       0.930
       0.850
       0.760
       0.677
       0.628
       0.637
       0.714
       0.850
       1.023
       1.220
       1.446
       1.718
       2.053
       2.466
       2.963
       3.545
       4.210
       4.950
       5.747
       6.574
       7.402
       8.198
       8.933
       9.579
      10.119
      10.545
      10.862
      11.079
      11.196
      11.203
      11.084
      10.837
      10.479
      10.048
       9.587
       9.129
       8.688
       8.267
       7.858
       7.456
       7.059
       6.671
       6.292
       5.918
       5.535
       5.114
       4.628
       4.065
       3.444
       2.808
       2.203
       1.666
       1.211
       0.833
       0.509
       0.199
      -0.141
      -0.547
      -1.031
      -1.575
      -2.135
      -2.662
      -3.110
      -3.450
      -3.666
      -3.755
      -3.728
      -3.614
      -3.455
      -3.304
      -3.209
      -3.202
      -3.299
      -3.504
      -3.813
      -4.214
      -4.686
      -5.195
      -5.703
      -6.171
      -6.567
      -6.867
      -7.059
      -7.137
      -7.108
      -6.977
      -6.756
      -6.457
      -6.095
      -5.682
      -5.223
      -4.719
      -4.161
      -3.541
      -2.857
      -2.113
      -1.325
      -0.515
       0.292
       1.074
       1.813
       2.498
       3.121
       3.672
       4.142
       4.524
       4.815
       5.010
       5.101
       5.069
       4.896
       4.573
       4.115
       3.557
       2.943
       2.313
       1.699
       1.122
       0.594
       0.115
      -0.328
      -0.752
      -1.167
      -1.579
      -1.987
      -2.386
      -2.768
      -3.122
      -3.437
      -3.706
      -3.932
      -4.130
      -4.319
      -4.522
      -4.761
      -5.060
      -5.430
      -5.868
      -6.350
      -6.846
      -7.334
      -7.802
      -8.242
      -8.626
      -8.910
      -9.048
      -9.008
      -8.779
      -8.366
      -7.782
      -7.044
      -6.175
      -5.210
      -4.188
      -3.155
      -2.154
      -1.233
      -0.447
       0.161
       0.572
       0.798
       0.869
       0.820
       0.680
       0.479
       0.251
       0.032
      -0.146
      -0.271
      -0.351
      -0.412
      -0.489
      -0.610
      -0.779
      -0.981
      -1.198
      -1.422
      -1.656
      -1.909
      -2.178
      -2.446
      -2.690
      -2.888
      -3.031
      -3.116
      -3.153
      -3.149
      -3.112
      -3.040
      -2.927
      -2.762
      -2.531
      -2.225
      -1.837
      -1.359
      -0.786
      -0.114
       0.644
       1.463
       2.305
       3.129
       3.905
       4.621
       5.286
       5.921
       6.551
       7.187
       7.824
       8.447
       9.036
       9.574
      10.046
      10.431
      10.698
      10.812
      10.748
      10.503
      10.092
       9.532
       8.833
       7.999
       7.049
       6.024
       4.986
       4.001
       3.116
       2.357
       1.720
       1.180
       0.701
       0.246
      -0.204
      -0.642
      -1.042
      -1.373
      -1.616
      -1.769
      -1.847
      -1.870
      -1.863
      -1.857
      -1.891
      -2.016
      -2.285
      -2.731
      -3.348
      -4.089
      -4.870
      -5.601
      -6.211
      -6.656
      -6.919
      -7.001
      -6.914
      -6.682
      -6.349
      -5.970
      -5.606
      -5.314
      -5.133
      -5.079
      -5.136
      -5.255
      -5.374
      -5.433
      -5.391
      -5.229
      -4.951
      -4.569
      -4.102
      -3.577
      -3.028
      -2.496
      -2.012
      -1.590
      -1.221
      -0.884
      -0.556
      -0.221
       0.130
       0.509
       0.929
       1.401
       1.929
       2.500
       3.094
       3.676
       4.207
       4.646
       4.960
       5.135
       5.180
       5.120
       4.983
       4.788
       4.545
       4.269
       3.982
       3.712
       3.483
       3.302
       3.157
       3.029
       2.904
       2.784
       2.680
       2.597
       2.527
       2.452
       2.357
       2.238
       2.095
       1.927
       1.738
       1.552
       1.418
       1.382
       1.464
       1.640
       1.859
       2.070
       2.233
       2.323
       2.307
       2.147
       1.805
       1.266
       0.550
      -0.277
      -1.120
      -1.886
      -2.523
      -3.021
      -3.401
      -3.683
      -3.868
      -3.943
      -3.910
      -3.798
      -3.662
      -3.551
