Origin Time       25/11/2007 23:12:20
Lat.              28.6 N 
Long.             77.0 E 
Depth (Km)         20.3
Magnitude         4.3
 Region           DELHI-HARYANA-BORDER-REGION                                      
 Above details taken from IMD 
     
Station Code       CRRI
Station Lat.       29.020  N
Station Long.      77.050  E
Station Height(m)  200.0
Site Class        A   Vs30 between 700 m/sec to 1620 m/sec * 
Record Time        1/25/1980 ) 16:35:04.0
Sampling Rate     200. Hz
 Record Duration   54.000 Sec.
 Direction         E-W (E positive)
Max. Acceleration  14.341 cm/sec**2
     
  * For reference see Site Classification link of website 
     
 Base Line Corrected and Low Pass Filtered (Cut Off at 35 Hz) Time History
 Acceleration data in cm/sec**2
    
[...]
    0.002
    0.007
    0.010
    0.010
    0.006
    0.001
   -0.004
   -0.004
    0.000
    0.003
    0.003
    0.000
   -0.003
   -0.005
   -0.004
   -0.001
    0.001
    0.002
    0.003
    0.003
    0.004
    0.007
    0.010
    0.013
    0.014
    0.012
    0.010
    0.007
    0.005
    0.002
   -0.002
   -0.006
   -0.009
   -0.009
   -0.007
   -0.004
    0.000
    0.003
    0.006
    0.007
    0.006
    0.004
    0.003
    0.003
    0.005
    0.007
    0.006
    0.001
   -0.004
   -0.008
   -0.008
   -0.004
    0.001
    0.004
    0.004
    0.002
   -0.002
   -0.004
   -0.003
    0.002
    0.009
    0.013
    0.012
    0.007
    0.001
   -0.003
   -0.002
    0.001
    0.006
    0.009
    0.008
    0.003
   -0.001
   -0.003
   -0.002
    0.000
    0.002
    0.000
   -0.004
   -0.009
   -0.012
   -0.011
   -0.004
    0.003
    0.007
    0.007
    0.006
    0.005
    0.004
    0.003
    0.001
    0.000
   -0.002
   -0.005
   -0.008
   -0.009
   -0.006
   -0.001
    0.002
    0.002
    0.000
   -0.001
   -0.001
    0.000
    0.002
    0.005
    0.007
    0.007
    0.005
    0.002
    0.001
    0.003
    0.006
    0.006
    0.004
   -0.002
   -0.006
   -0.007
   -0.004
    0.000
    0.001
   -0.002
   -0.005
   -0.005
   -0.001
    0.004
    0.007
    0.006
    0.004
    0.001
   -0.002
   -0.002
    0.000
    0.003
    0.003
    0.000
   -0.003
   -0.003
    0.000
    0.004
    0.003
   -0.002
   -0.007
   -0.007
   -0.005
   -0.001
    0.003
    0.004
    0.004
    0.002
   -0.001
   -0.003
   -0.003
   -0.001
    0.002
    0.006
    0.008
    0.006
    0.002
   -0.002
   -0.003
    0.000
    0.004
    0.004
    0.001
   -0.004
   -0.007
   -0.010
   -0.010
   -0.009
   -0.007
   -0.002
    0.002
    0.005
    0.006
    0.007
    0.007
    0.008
    0.008
    0.006
    0.002
   -0.003
   -0.006
   -0.008
   -0.006
   -0.003
    0.002
    0.005
    0.006
    0.003
   -0.002
   -0.006
   -0.007
   -0.003
    0.002
    0.005
    0.004
    0.001
   -0.001
   -0.003
   -0.004
   -0.004
   -0.002
    0.002
    0.007
    0.011
    0.009
    0.004
   -0.002
   -0.005
   -0.002
    0.002
    0.005
    0.003
   -0.002
   -0.007
   -0.010
   -0.009
   -0.004
    0.002
    0.007
    0.009
    0.006
    0.001
   -0.003
   -0.004
   -0.002
    0.003
    0.007
    0.008
    0.005
   -0.001
   -0.006
   -0.007
   -0.002
    0.004
    0.008
    0.006
   -0.001
   -0.009
   -0.013
   -0.011
   -0.006
    0.000
    0.003
    0.003
    0.001
    0.000
    0.002
    0.005
    0.008
    0.007
    0.004
    0.001
    0.000
    0.003
    0.005
    0.005
    0.001
   -0.005
   -0.008
   -0.007
   -0.002
    0.004
    0.010
    0.012
    0.011
    0.006
   -0.001
   -0.007
   -0.009
   -0.007
   -0.003
    0.002
    0.003
    0.003
    0.001
   -0.001
   -0.002
   -0.001
    0.002
    0.005
    0.006
    0.003
    0.000
   -0.001
    0.001
    0.005
    0.007
    0.005
    0.000
   -0.005
   -0.006
   -0.004
    0.002
    0.007
    0.010
    0.010
    0.007
    0.002
   -0.002
   -0.004
   -0.003
   -0.001
    0.003
    0.005
    0.005
    0.003
   -0.001
   -0.002
    0.001
    0.007
    0.012
    0.014
    0.012
    0.007
    0.001
   -0.002
   -0.004
   -0.004
   -0.002
   -0.002
   -0.002
   -0.002
   -0.001
    0.000
    0.003
    0.006
    0.006
    0.005
    0.004
    0.003
    0.003
    0.004
    0.002
    0.000
   -0.002
   -0.001
    0.004
    0.011
    0.017
    0.018
    0.013
    0.004
   -0.004
   -0.008
   -0.006
    0.001
    0.008
    0.012
    0.010
    0.002
   -0.006
   -0.009
   -0.006
    0.002
    0.010
    0.016
    0.017
    0.013
    0.006
    0.001
    0.001
    0.004
    0.006
    0.006
    0.004
    0.001
    0.000
    0.001
    0.003
    0.006
    0.009
    0.010
    0.008
    0.006
    0.006
    0.006
    0.005
    0.003
    0.000
   -0.002
   -0.001
    0.001
    0.002
    0.004
    0.005
    0.007
    0.008
    0.009
    0.008
    0.005
    0.001
   -0.002
   -0.001
    0.002
    0.006
    0.006
    0.005
    0.004
    0.005
    0.006
    0.007
    0.007
    0.007
    0.006
    0.003
    0.000
   -0.002
   -0.002
   -0.002
   -0.001
   -0.002
   -0.003
   -0.001
    0.002
    0.004
    0.005
    0.005
    0.006
    0.006
    0.006
    0.004
    0.004
    0.005
    0.005
    0.003
    0.000
   -0.001
   -0.001
    0.001
    0.003
    0.005
    0.006
    0.006
    0.005
    0.004
    0.002
    0.001
    0.001
    0.000
   -0.001
   -0.004
   -0.005
   -0.002
    0.004
    0.012
    0.016
    0.016
    0.010
    0.003
   -0.003
   -0.003
    0.001
    0.005
    0.006
    0.003
   -0.002
   -0.006
   -0.006
   -0.002
    0.004
    0.008
    0.008
    0.007
    0.006
    0.008
    0.012
    0.015
    0.013
    0.006
   -0.003
   -0.007
   -0.006
    0.000
    0.005
    0.008
    0.006
    0.002
   -0.003
   -0.004
   -0.003
    0.000
    0.003
    0.004
    0.002
    0.001
    0.000
    0.000
    0.002
    0.005
    0.008
    0.008
    0.003
   -0.003
   -0.006
   -0.004
    0.001
    0.005
    0.005
    0.002
   -0.003
   -0.006
   -0.007
   -0.005
    0.000
    0.006
    0.010
    0.012
    0.011
    0.008
    0.004
    0.001
    0.001
    0.004
    0.007
    0.006
    0.003
   -0.002
   -0.004
   -0.003
    0.000
    0.004
    0.007
    0.007
    0.003
   -0.002
   -0.006
   -0.006
   -0.004
    0.000
    0.004
    0.006
    0.008
    0.007
    0.004
    0.002
    0.001
    0.002
    0.003
    0.004
    0.004
    0.002
    0.000
   -0.002
   -0.002
    0.002
    0.005
    0.007
    0.005
    0.004
    0.006
    0.011
    0.014
    0.019
    0.040
    0.091
    0.165
    0.214
    0.165
   -0.020
   -0.295
   -0.535
   -0.636
   -0.614
   -0.604
   -0.709
   -0.806
   -0.532
    0.441
    2.020
    3.534
    4.067
    3.084
    0.894
   -1.478
   -2.949
   -3.075
   -2.249
   -1.295
   -0.816
   -0.838
   -0.961
   -0.828
   -0.462
   -0.220
   -0.410
   -0.919
   -1.154
   -0.415
    1.514
    3.996
    5.728
    5.495
    3.040
   -0.647
   -3.905
   -5.477
   -5.199
   -3.796
   -2.057
   -0.250
    1.723
    3.731
    5.130
    5.146
    3.519
    0.779
   -2.045
   -3.925
   -4.183
   -2.655
    0.189
    3.249
    5.132
    4.837
    2.357
   -1.283
   -4.633
   -6.580
   -6.720
   -5.253
   -2.692
    0.300
    2.995
    4.772
    5.341
    4.779
    3.330
    1.202
   -1.361
   -3.833
   -5.335
   -5.036
   -2.781
    0.580
    3.534
    4.754
    3.855
    1.545
   -0.907
   -2.450
   -2.733
   -2.023
   -0.772
    0.709
    2.208
    3.361
    3.600
    2.475
    0.119
   -2.608
   -4.510
   -4.738
   -3.260
   -0.816
    1.560
    3.066
    3.396
    2.700
    1.369
   -0.173
   -1.579
   -2.585
   -2.960
   -2.508
   -1.155
    0.890
    3.050
    4.508
    4.573
    3.079
    0.538
   -2.095
   -3.883
   -4.303
   -3.364
   -1.494
    0.635
    2.291
    2.917
    2.390
    1.088
   -0.353
   -1.440
   -2.038
   -2.231
   -2.037
   -1.326
   -0.047
    1.531
    2.844
    3.340
    2.788
    1.373
   -0.427
   -2.036
   -2.927
   -2.773
   -1.600
    0.121
    1.623
    2.227
    1.726
    0.468
   -0.914
   -1.892
   -2.256
   -2.082
   -1.538
   -0.732
    0.285
    1.402
    2.326
    2.635
    2.034
    0.670
   -0.825
   -1.706
   -1.669
   -1.057
   -0.480
   -0.203
    0.075
    0.816
    2.020
    3.035
    3.019
    1.654
   -0.522
   -2.425
   -3.143
   -2.516
   -1.149
    0.125
    0.872
    1.238
    1.517
    1.587
    0.912
   -0.784
   -2.890
   -4.123
   -3.548
   -1.453
    0.841
    2.078
    2.037
    1.460
    1.133
    1.134
    0.974
    0.353
   -0.373
   -0.538
    0.103
    1.063
    1.526
    1.039
   -0.176
   -1.469
   -2.240
   -2.230
   -1.527
   -0.450
    0.600
    1.310
    1.605
    1.598
    1.349
    0.729
   -0.370
   -1.660
   -2.397
   -1.875
   -0.099
    2.015
    3.195
    2.712
    0.869
   -1.291
   -2.718
   -2.937
   -2.130
   -0.852
    0.337
    1.120
    1.490
    1.643
    1.725
    1.636
    1.096
   -0.030
   -1.430
   -2.437
   -2.485
   -1.544
   -0.128
    1.094
    1.696
    1.618
    1.051
    0.282
   -0.406
   -0.841
   -1.026
   -1.054
   -0.925
   -0.512
    0.192
    0.826
    0.844
    0.098
   -0.815
   -0.981
   -0.088
    1.161
    1.654
    0.922
   -0.453
   -1.447
   -1.482
   -0.728
    0.257
    0.994
    1.235
    0.938
    0.266
   -0.444
   -0.888
   -1.010
   -0.952
   -0.778
   -0.396
    0.177
    0.612
    0.527
   -0.026
   -0.500
   -0.372
    0.325
    1.060
    1.350
    1.105
    0.517
   -0.180
   -0.719
   -0.779
   -0.268
    0.346
    0.275
   -0.788
   -2.158
   -2.652
   -1.690
    0.152
    1.701
    2.228
    1.912
    1.421
    1.211
    1.196
    0.967
    0.261
   -0.696
   -1.241
   -0.798
    0.458
    1.467
    1.072
   -0.837
   -2.993
   -3.766
   -2.566
   -0.262
    1.741
    2.695
    2.811
    2.590
    2.175
    1.374
    0.135
   -1.236
   -2.336
   -2.985
   -3.202
   -2.977
   -2.201
   -0.867
    0.748
    2.132
    2.802
    2.566
    1.613
    0.413
   -0.515
   -0.870
   -0.706
   -0.319
    0.057
    0.422
    0.845
    1.158
    0.935
   -0.104
   -1.658
   -2.903
   -3.086
   -2.110
   -0.566
    0.763
    1.455
    1.608
    1.583
    1.648
    1.802
    1.808
    1.338
    0.178
   -1.531
   -3.197
   -4.023
   -3.536
   -1.950
   -0.006
    1.583
    2.556
    3.035
    3.188
    3.034
    2.543
    1.793
    0.934
    0.048
   -0.872
   -1.758
   -2.341
   -2.303
   -1.608
   -0.668
   -0.090
   -0.155
   -0.517
   -0.490
    0.268
    1.308
    1.712
    0.975
   -0.409
   -1.318
   -1.056
   -0.081
    0.400
   -0.380
   -1.946
   -2.954
   -2.411
   -0.548
    1.405
    2.269
    1.797
    0.701
   -0.070
   -0.106
    0.297
    0.597
    0.589
    0.506
    0.623
    0.845
    0.780
    0.156
   -0.892
   -1.958
   -2.682
   -2.854
   -2.280
   -0.784
    1.446
    3.589
    4.520
    3.653
    1.491
   -0.715
   -1.940
   -2.041
   -1.543
   -0.936
   -0.304
    0.444
    1.180
    1.540
    1.220
    0.225
   -1.132
   -2.334
   -2.799
   -2.115
   -0.396
    1.592
    2.810
    2.659
    1.420
   -0.022
   -0.912
   -1.155
   -1.196
   -1.428
   -1.741
   -1.623
   -0.688
    0.889
    2.398
    3.041
    2.448
    0.956
   -0.542
   -1.165
   -0.716
    0.125
    0.363
   -0.377
   -1.428
   -1.652
   -0.560
    1.119
    2.043
    1.481
   -0.026
   -1.209
   -1.235
   -0.380
    0.385
    0.382
   -0.177
   -0.541
   -0.286
    0.199
    0.094
   -0.941
   -2.252
   -2.616
   -1.278
    1.323
    3.758
    4.603
    3.409
    0.935
   -1.452
   -2.646
   -2.349
   -1.069
    0.284
    0.971
    0.834
    0.240
   -0.385
   -0.972
   -1.715
   -2.578
   -3.010
   -2.301
   -0.302
    2.246
    4.153
    4.591
    3.568
    1.768
    0.054
   -0.969
   -1.173
   -0.913
   -0.763
   -1.044
   -1.488
   -1.459
   -0.659
    0.365
    0.579
   -0.525
   -2.241
   -3.106
   -2.150
    0.234
    2.622
    3.692
    3.113
    1.527
   -0.089
   -1.030
   -1.108
   -0.634
   -0.202
   -0.318
   -1.007
   -1.734
   -1.775
   -0.803
    0.805
    2.210
    2.718
    2.256
    1.363
    0.740
    0.712
    1.002
    1.005
    0.315
   -0.943
   -2.224
   -2.941
   -2.809
   -1.983
   -0.952
   -0.227
    0.027
    0.123
    0.534
    1.303
    1.813
    1.324
   -0.133
   -1.491
   -1.537
   -0.160
    1.401
    1.699
    0.463
   -1.214
   -1.993
   -1.466
   -0.277
    0.673
    0.962
    0.713
    0.270
   -0.036
    0.051
    0.589
    1.274
    1.551
    1.060
    0.000
   -0.997
   -1.399
   -1.164
   -0.613
   -0.030
    0.505
    0.927
    1.023
    0.615
   -0.068
   -0.383
    0.170
    1.325
    2.081
    1.522
   -0.319
   -2.391
   -3.439
   -2.966
   -1.518
   -0.122
    0.546
    0.564
    0.493
    0.781
    1.374
    1.829
    1.764
    1.234
    0.666
    0.395
    0.277
   -0.185
   -1.289
   -2.703
   -3.623
   -3.363
   -1.877
    0.195
    1.965
    2.876
    2.967
    2.616
    2.032
    1.038
   -0.533
   -2.225
   -2.934
   -1.792
    0.752
    2.911
    2.933
    0.664
   -2.275
   -3.910
   -3.536
   -2.012
   -0.654
   -0.014
    0.284
    0.764
    1.409
    1.715
    1.248
    0.082
   -1.206
   -1.889
   -1.565
   -0.488
    0.531
    0.712
    0.007
   -0.783
   -0.691
    0.512
    2.055
    2.803
    2.153
    0.443
   -1.353
   -2.234
   -1.678
    0.095
    2.158
    3.306
    2.790
    0.890
   -1.209
   -2.250
   -1.834
   -0.618
    0.371
    0.658
    0.550
    0.561
    0.735
    0.620
   -0.165
   -1.403
   -2.364
   -2.412
   -1.511
   -0.176
    1.023
    1.816
    2.117
    1.748
    0.535
   -1.212
   -2.486
   -2.153
   -0.002
    2.740
    4.134
    3.028
    0.023
   -3.018
   -4.404
   -3.702
   -1.690
    0.456
    1.933
    2.572
    2.674
    2.622
    2.480
    1.822
    0.078
   -2.712
   -5.390
   -6.178
   -4.062
    0.176
    4.377
    6.572
    6.210
    4.031
    1.056
   -2.057
   -4.810
   -6.463
   -6.252
   -4.114
   -1.008
    1.682
    3.100
    3.284
    2.720
    1.777
    0.654
   -0.333
   -0.697
   -0.146
    1.080
    2.364
    3.218
    3.548
    3.404
    2.579
    0.677
   -2.319
   -5.586
   -7.668
   -7.287
   -4.187
    0.544
    4.865
    6.742
    5.243
    1.198
   -3.139
   -5.437
   -4.840
   -2.512
   -0.610
   -0.437
   -1.336
   -1.339
    0.949
    4.880
    7.991
    7.832
    3.967
   -1.417
   -4.895
   -4.262
   -0.222
    4.061
    5.297
    2.458
   -2.645
   -6.963
   -8.548
   -7.740
   -6.384
   -5.945
   -6.156
   -5.312
   -1.840
    4.136
   10.500
   14.341
   13.823
    9.425
    3.633
   -0.799
   -2.759
   -3.379
   -4.735
   -7.668
  -10.644
  -10.776
   -6.315
    1.541
    9.121
   12.702
   10.901
    5.304
   -0.868
   -4.777
   -5.324
   -3.268
   -0.381
    1.718
    2.382
    1.959
    1.113
    0.202
   -0.647
   -1.007
   -0.091
    2.437
    5.634
    7.616
    7.020
    4.158
    0.615
   -2.285
   -4.448
   -6.441
   -8.233
   -8.818
   -7.184
   -3.548
    0.447
    2.764
    2.300
   -0.543
   -4.301
   -7.375
   -8.708
   -7.888
   -4.919
   -0.107
    5.745
   11.071
   13.800
   12.439
    7.385
    1.199
   -2.831
   -2.936
   -0.087
    2.845
    3.300
    0.850
   -2.747
   -5.174
   -5.420
   -4.311
   -3.358
   -3.132
   -2.791
   -1.237
    1.279
    2.854
    1.516
   -2.685
   -7.212
   -8.899
   -6.541
   -1.863
    1.991
    3.013
    1.724
    0.407
    1.123
    4.176
    8.046
   10.549
   10.280
    7.393
    3.342
   -0.141
   -2.106
   -2.776
   -3.067
   -3.613
   -4.149
   -3.797
   -2.051
    0.487
    2.366
    2.409
    0.757
   -1.116
   -1.527
   -0.045
    1.963
    2.383
    0.291
   -2.920
   -4.435
   -2.350
    2.558
    7.275
    8.919
    6.955
    3.265
    0.178
   -1.438
   -2.202
   -2.751
   -2.754
   -1.523
    0.668
    2.332
    2.038
   -0.158
   -2.717
   -4.058
   -3.907
   -3.228
   -3.017
   -3.284
   -3.158
   -1.838
    0.565
    2.970
    4.037
    3.063
    0.444
   -2.543
   -4.422
   -4.254
   -2.103
    0.976
    3.446
    4.101
    2.733
    0.254
   -1.852
   -2.462
   -1.547
   -0.138
    0.542
    0.093
   -0.813
   -1.187
   -0.750
   -0.211
   -0.470
   -1.557
   -2.451
   -2.051
   -0.334
    1.512
    2.160
    1.317
   -0.121
   -0.989
   -0.852
   -0.191
    0.210
   -0.006
   -0.517
   -0.624
    0.187
    1.785
    3.329
    3.757
    2.565
    0.329
   -1.546
   -1.763
   -0.122
    2.213
    3.471
    2.594
    0.102
   -2.227
   -2.671
   -0.786
    2.377
    5.111
    6.169
    5.359
    3.381
    1.239
   -0.293
   -0.961
   -1.012
   -0.949
   -1.135
   -1.554
   -1.954
   -2.201
   -2.425
   -2.780
   -3.165
   -3.277
   -2.929
   -2.236
   -1.481
   -0.868
   -0.446
   -0.211
   -0.185
   -0.349
   -0.573
   -0.676
   -0.556
   -0.179
    0.516
    1.574
    2.816
    3.741
    3.744
    2.516
    0.309
   -2.167
   -4.103
   -4.945
   -4.557
   -3.175
   -1.259
    0.659
    2.086
    2.619
    2.034
    0.476
   -1.393
   -2.595
   -2.447
   -1.100
    0.571
    1.741
    2.322
    2.859
    3.726
    4.458
    4.000
    1.772
   -1.490
   -4.028
   -4.397
   -2.658
   -0.315
    0.989
    0.803
    0.052
   -0.011
    0.974
    2.198
    2.476
    1.296
   -0.734
   -2.260
   -2.053
    0.147
    3.291
    5.501
    5.235
    2.407
   -1.424
   -4.104
   -4.396
   -2.780
   -0.873
   -0.016
   -0.285
   -0.731
   -0.481
    0.387
    0.987
    0.576
   -0.571
   -1.233
   -0.305
    2.060
    4.329
    4.759
    2.869
   -0.095
   -2.181
   -2.345
   -1.223
   -0.432
   -1.071
   -2.790
   -4.176
   -4.012
   -2.260
   -0.032
    1.303
    1.091
   -0.266
   -1.746
   -2.475
   -2.212
   -1.283
   -0.217
    0.544
    0.787
    0.602
    0.356
    0.450
    0.961
    1.509
    1.574
    1.040
    0.405
    0.430
    1.488
    3.204
    4.615
    4.716
    3.028
   -0.083
   -3.465
   -5.688
   -5.836
   -4.108
   -1.679
    0.163
    0.892
    0.871
    0.728
    0.722
    0.686
    0.436
    0.099
   -0.006
    0.296
    0.876
    1.438
    1.754
    1.731
    1.346
    0.597
   -0.413
   -1.350
   -1.714
   -1.168
    0.064
    1.150
    1.194
    0.070
   -1.283
   -1.618
   -0.562
    0.997
    1.824
    1.583
    1.069
    1.233
    2.102
    2.728
    2.138
    0.202
   -2.324
   -4.383
   -5.120
   -4.118
   -1.576
    1.563
    3.895
    4.391
    3.153
    1.312
    0.022
   -0.490
   -0.869
   -1.710
   -2.846
   -3.574
   -3.435
   -2.565
   -1.335
    0.065
    1.496
    2.456
    2.222
    0.641
   -1.291
   -2.011
   -0.790
    1.470
    2.982
    2.730
    1.332
    0.251
    0.216
    0.530
   -0.042
   -1.800
   -3.648
   -4.130
   -2.853
   -0.862
    0.367
    0.253
   -0.504
   -0.755
   -0.029
    1.128
    1.798
    1.572
    0.809
    0.179
    0.053
    0.264
    0.332
   -0.131
   -1.110
   -2.087
   -2.237
   -0.933
    1.642
    4.292
    5.410
    4.158
    1.263
   -1.428
   -2.391
   -1.584
   -0.279
    0.212
   -0.359
   -1.207
   -1.453
   -0.971
   -0.429
   -0.644
   -1.875
   -3.538
   -4.490
   -3.746
   -1.249
    1.877
    4.000
    4.201
    2.971
    1.630
    1.064
    1.086
    0.984
    0.454
   -0.156
   -0.405
   -0.282
   -0.090
    0.033
    0.272
    0.814
    1.507
    1.985
    2.045
    1.763
    1.259
    0.539
   -0.360
   -1.177
   -1.564
   -1.438
   -1.152
   -1.233
   -1.929
   -2.963
   -3.690
   -3.482
   -2.084
    0.205
    2.576
    4.052
    4.046
    2.768
    1.094
   -0.060
   -0.344
   -0.055
    0.273
    0.354
    0.280
    0.276
    0.378
    0.364
   -0.010
   -0.717
   -1.358
   -1.392
   -0.534
    0.944
    2.296
    2.738
    1.918
    0.083
   -2.050
   -3.592
   -3.831
   -2.601
   -0.456
    1.591
    2.686
    2.643
    1.912
    1.076
    0.369
   -0.340
   -1.190
   -2.042
   -2.567
   -2.537
   -2.002
   -1.216
   -0.431
    0.227
    0.727
    1.018
    0.958
    0.371
   -0.731
   -1.889
   -2.246
   -1.099
    1.358
    3.860
    4.850
    3.659
    1.069
   -1.299
   -2.219
   -1.644
   -0.430
    0.552
    1.009
    1.107
    1.028
    0.769
    0.323
   -0.144
   -0.395
   -0.374
   -0.254
   -0.213
   -0.247
   -0.308
   -0.566
   -1.323
   -2.504
   -3.285
   -2.524
    0.140
    3.535
    5.542
    4.753
    1.771
   -1.218
   -2.332
   -1.574
   -0.588
   -0.887
   -2.401
   -3.702
   -3.509
   -1.872
    0.014
    0.986
