Origin Time       25/11/2007 23:12:20
Lat.              28.6 N 
Long.             77.0 E 
Depth (Km)         20.3
Magnitude         4.3
 Region           DELHI-HARYANA-BORDER-REGION                                      
 Above details taken from IMD 
    
Station Code       CRRI
Station Lat.       29.020  N
Station Long.      77.050  E
Station Height(m)  200.0
Site Class        A   Vs30 between 700 m/sec to 1620 m/sec * 
Record Time        1/25/1980 ) 16:35:04.0
Sampling Rate     200. Hz
 Record Duration   54.000 Sec.
 Direction         N-S (N positive)
Max. Acceleration -34.555 cm/sec**2
     
  * For reference see Site Classification link of website 
     
 Base Line Corrected and Low Pass Filtered (Cut Off at 35 Hz) Time History
 Acceleration data in cm/sec**2
    
[...]
   -0.014
   -0.012
   -0.012
   -0.011
   -0.012
   -0.014
   -0.017
   -0.019
   -0.020
   -0.020
   -0.019
   -0.018
   -0.016
   -0.015
   -0.015
   -0.015
   -0.016
   -0.015
   -0.015
   -0.015
   -0.016
   -0.017
   -0.017
   -0.017
   -0.017
   -0.018
   -0.017
   -0.016
   -0.014
   -0.013
   -0.014
   -0.016
   -0.019
   -0.020
   -0.019
   -0.018
   -0.017
   -0.015
   -0.013
   -0.010
   -0.008
   -0.007
   -0.009
   -0.011
   -0.014
   -0.016
   -0.016
   -0.016
   -0.016
   -0.015
   -0.012
   -0.010
   -0.009
   -0.012
   -0.016
   -0.020
   -0.021
   -0.019
   -0.015
   -0.013
   -0.013
   -0.014
   -0.016
   -0.017
   -0.017
   -0.018
   -0.019
   -0.020
   -0.018
   -0.015
   -0.011
   -0.010
   -0.012
   -0.016
   -0.019
   -0.020
   -0.020
   -0.020
   -0.019
   -0.018
   -0.015
   -0.014
   -0.016
   -0.019
   -0.022
   -0.023
   -0.020
   -0.015
   -0.011
   -0.011
   -0.013
   -0.015
   -0.015
   -0.014
   -0.014
   -0.017
   -0.020
   -0.023
   -0.024
   -0.022
   -0.019
   -0.015
   -0.015
   -0.019
   -0.024
   -0.027
   -0.025
   -0.021
   -0.017
   -0.016
   -0.018
   -0.020
   -0.020
   -0.019
   -0.016
   -0.013
   -0.012
   -0.012
   -0.015
   -0.019
   -0.021
   -0.021
   -0.019
   -0.015
   -0.013
   -0.012
   -0.013
   -0.017
   -0.020
   -0.023
   -0.022
   -0.019
   -0.014
   -0.010
   -0.008
   -0.010
   -0.014
   -0.016
   -0.017
   -0.016
   -0.015
   -0.016
   -0.018
   -0.019
   -0.020
   -0.019
   -0.019
   -0.018
   -0.018
   -0.017
   -0.017
   -0.017
   -0.018
   -0.018
   -0.018
   -0.018
   -0.018
   -0.017
   -0.017
   -0.015
   -0.013
   -0.012
   -0.012
   -0.014
   -0.015
   -0.015
   -0.014
   -0.014
   -0.016
   -0.018
   -0.019
   -0.018
   -0.015
   -0.013
   -0.013
   -0.013
   -0.013
   -0.011
   -0.010
   -0.010
   -0.009
   -0.009
   -0.009
   -0.012
   -0.016
   -0.020
   -0.022
   -0.022
   -0.019
   -0.015
   -0.013
   -0.013
   -0.014
   -0.015
   -0.016
   -0.017
   -0.017
   -0.017
   -0.016
   -0.015
   -0.014
   -0.013
   -0.014
   -0.015
   -0.017
   -0.019
   -0.019
   -0.017
   -0.015
   -0.014
   -0.015
   -0.016
   -0.016
   -0.016
   -0.016
   -0.018
   -0.019
   -0.018
   -0.016
   -0.014
   -0.013
   -0.013
   -0.013
   -0.013
   -0.013
   -0.012
   -0.012
   -0.012
   -0.013
   -0.015
   -0.017
   -0.019
   -0.019
   -0.018
   -0.017
   -0.017
   -0.017
   -0.018
   -0.020
   -0.022
   -0.023
   -0.023
   -0.022
   -0.020
   -0.019
   -0.018
   -0.017
   -0.015
   -0.012
   -0.009
   -0.008
   -0.008
   -0.009
   -0.011
   -0.012
   -0.014
   -0.015
   -0.016
   -0.017
   -0.018
   -0.018
   -0.016
   -0.015
   -0.015
   -0.016
   -0.018
   -0.019
   -0.018
   -0.016
   -0.013
   -0.011
   -0.010
   -0.010
   -0.011
   -0.013
   -0.012
   -0.011
   -0.011
   -0.014
   -0.019
   -0.023
   -0.024
   -0.021
   -0.017
   -0.016
   -0.018
   -0.019
   -0.020
   -0.019
   -0.017
   -0.015
   -0.015
   -0.014
   -0.014
   -0.013
   -0.013
   -0.015
   -0.017
   -0.019
   -0.021
   -0.021
   -0.019
   -0.017
   -0.016
   -0.017
   -0.020
   -0.023
   -0.025
   -0.026
   -0.024
   -0.021
   -0.018
   -0.015
   -0.015
   -0.015
   -0.014
   -0.013
   -0.012
   -0.012
   -0.013
   -0.015
   -0.015
   -0.014
   -0.014
   -0.015
   -0.017
   -0.018
   -0.019
   -0.019
   -0.018
   -0.016
   -0.015
   -0.014
   -0.015
   -0.017
   -0.017
   -0.016
   -0.015
   -0.015
   -0.015
   -0.016
   -0.018
   -0.020
   -0.022
   -0.023
   -0.023
   -0.022
   -0.019
   -0.016
   -0.014
   -0.015
   -0.017
   -0.021
   -0.022
   -0.022
   -0.019
   -0.015
   -0.012
   -0.011
   -0.012
   -0.015
   -0.018
   -0.019
   -0.020
   -0.019
   -0.019
   -0.019
   -0.019
   -0.019
   -0.018
   -0.017
   -0.018
   -0.019
   -0.021
   -0.022
   -0.021
   -0.018
   -0.015
   -0.014
   -0.015
   -0.018
   -0.020
   -0.020
   -0.019
   -0.017
   -0.016
   -0.017
   -0.018
   -0.020
   -0.020
   -0.020
   -0.020
   -0.020
   -0.021
   -0.020
   -0.018
   -0.017
   -0.019
   -0.024
   -0.027
   -0.027
   -0.023
   -0.018
   -0.015
   -0.015
   -0.016
   -0.016
   -0.016
   -0.016
   -0.018
   -0.020
   -0.022
   -0.021
   -0.020
   -0.018
   -0.017
   -0.017
   -0.019
   -0.020
   -0.020
   -0.018
   -0.016
   -0.014
   -0.014
   -0.015
   -0.014
   -0.013
   -0.013
   -0.013
   -0.014
   -0.015
   -0.016
   -0.016
   -0.015
   -0.016
   -0.017
   -0.018
   -0.018
   -0.018
   -0.019
   -0.019
   -0.020
   -0.020
   -0.021
   -0.020
   -0.020
   -0.019
   -0.018
   -0.018
   -0.017
   -0.016
   -0.014
   -0.013
   -0.014
   -0.016
   -0.018
   -0.019
   -0.020
   -0.021
   -0.023
   -0.026
   -0.027
   -0.024
   -0.020
   -0.017
   -0.017
   -0.020
   -0.023
   -0.024
   -0.021
   -0.015
   -0.011
   -0.009
   -0.012
   -0.016
   -0.018
   -0.019
   -0.018
   -0.018
   -0.019
   -0.020
   -0.020
   -0.018
   -0.015
   -0.014
   -0.016
   -0.018
   -0.020
   -0.020
   -0.019
   -0.018
   -0.018
   -0.018
   -0.016
   -0.013
   -0.010
   -0.009
   -0.010
   -0.014
   -0.018
   -0.021
   -0.022
   -0.021
   -0.021
   -0.021
   -0.022
   -0.022
   -0.020
   -0.017
   -0.015
   -0.014
   -0.014
   -0.014
   -0.013
   -0.012
   -0.011
   -0.011
   -0.012
   -0.013
   -0.014
   -0.015
   -0.016
   -0.019
   -0.022
   -0.025
   -0.025
   -0.023
   -0.018
   -0.012
   -0.009
   -0.011
   -0.016
   -0.021
   -0.024
   -0.023
   -0.020
   -0.017
   -0.014
   -0.012
   -0.011
   -0.012
   -0.014
   -0.017
   -0.020
   -0.024
   -0.026
   -0.026
   -0.024
   -0.021
   -0.019
   -0.018
   -0.018
   -0.017
   -0.016
   -0.013
   -0.011
   -0.012
   -0.014
   -0.017
   -0.017
   -0.016
   -0.015
   -0.015
   -0.016
   -0.017
   -0.018
   -0.018
   -0.018
   -0.017
   -0.016
   -0.014
   -0.011
   -0.012
   -0.016
   -0.024
   -0.032
   -0.036
   -0.036
   -0.037
   -0.039
   -0.036
   -0.015
    0.024
    0.059
    0.060
    0.018
   -0.026
   -0.023
    0.007
   -0.056
   -0.333
   -0.768
   -1.045
   -0.756
    0.226
    1.494
    2.237
    1.803
    0.251
   -1.568
   -2.547
   -2.093
   -0.519
    1.209
    2.147
    1.944
    0.942
   -0.168
   -0.826
   -0.913
   -0.743
   -0.772
   -1.183
   -1.613
   -1.327
    0.158
    2.425
    4.174
    4.090
    1.937
   -1.117
   -3.333
   -3.689
   -2.500
   -0.904
    0.178
    0.629
    0.893
    1.325
    1.835
    2.012
    1.472
    0.136
   -1.647
   -3.104
   -3.295
   -1.681
    1.273
    4.068
    5.018
    3.444
    0.193
   -3.024
   -4.843
   -4.955
   -3.853
   -2.158
   -0.256
    1.622
    3.216
    4.260
    4.594
    4.151
    2.837
    0.555
   -2.507
   -5.563
   -7.291
   -6.493
   -2.969
    2.050
    6.368
    7.991
    6.259
    2.196
   -2.141
   -4.861
   -5.212
   -3.729
   -1.595
    0.224
    1.425
    2.186
    2.691
    2.862
    2.456
    1.333
   -0.350
   -2.123
   -3.339
   -3.453
   -2.348
   -0.485
    1.290
    2.228
    2.091
    1.198
    0.115
   -0.732
   -1.202
   -1.295
   -0.971
   -0.160
    1.026
    2.155
    2.615
    1.987
    0.371
   -1.585
   -3.000
   -3.218
   -2.159
   -0.367
    1.274
    2.045
    1.793
    0.952
    0.152
   -0.260
   -0.373
   -0.469
   -0.662
   -0.775
   -0.522
    0.237
    1.380
    2.561
    3.294
    3.079
    1.625
   -0.850
   -3.491
   -5.126
   -4.941
   -3.051
   -0.481
    1.482
    2.094
    1.529
    0.596
    0.090
    0.253
    0.725
    0.929
    0.587
   -0.050
   -0.408
   -0.071
    0.865
    1.820
    2.137
    1.515
    0.179
   -1.287
   -2.282
   -2.481
   -1.926
   -0.918
    0.200
    1.193
    1.935
    2.285
    1.990
    0.834
   -1.023
   -2.827
   -3.553
   -2.664
   -0.635
    1.339
    2.263
    2.021
    1.215
    0.447
   -0.157
   -0.761
   -1.362
   -1.652
   -1.338
   -0.501
    0.461
    1.198
    1.632
    1.795
    1.593
    0.910
   -0.056
   -0.756
   -0.754
   -0.205
    0.259
    0.180
   -0.262
   -0.474
   -0.108
    0.571
    0.966
    0.702
   -0.092
   -0.972
   -1.519
   -1.510
   -0.935
   -0.017
    0.773
    0.938
    0.383
   -0.377
   -0.582
    0.049
    0.994
    1.390
    0.840
   -0.245
   -1.085
   -1.215
   -0.739
   -0.048
    0.549
    0.901
    0.909
    0.548
    0.000
   -0.371
   -0.301
    0.107
    0.447
    0.324
   -0.359
   -1.346
   -2.127
   -2.156
   -1.150
    0.600
    2.237
    2.833
    2.103
    0.665
   -0.505
   -0.916
   -0.891
   -1.029
   -1.414
   -1.466
   -0.609
    0.999
    2.500
    3.059
    2.475
    1.143
   -0.382
   -1.677
   -2.467
   -2.599
   -2.096
   -1.130
    0.096
    1.374
    2.364
    2.572
    1.690
    0.013
   -1.614
   -2.424
   -2.285
   -1.613
   -0.823
   -0.019
    0.796
    1.412
    1.538
    1.211
    0.878
    0.948
    1.298
    1.373
    0.771
   -0.323
   -1.310
   -1.678
   -1.312
   -0.446
    0.522
    1.166
    1.156
    0.418
   -0.749
   -1.762
   -2.052
   -1.388
   -0.042
    1.300
    1.862
    1.243
   -0.238
   -1.668
   -2.166
   -1.554
   -0.397
    0.623
    1.308
    1.853
    2.260
    2.074
    0.862
   -1.107
   -2.821
   -3.244
   -2.131
   -0.171
    1.595
    2.501
    2.503
    1.931
    1.150
    0.425
   -0.100
   -0.468
   -0.904
   -1.594
   -2.396
   -2.815
   -2.328
   -0.802
    1.297
    3.026
    3.391
    1.946
   -0.773
   -3.367
   -4.346
   -3.072
   -0.174
    2.894
    4.772
    4.885
    3.492
    1.278
   -1.073
   -3.042
   -4.226
   -4.341
   -3.309
   -1.360
    0.974
    2.983
    4.005
    3.736
    2.462
    0.956
   -0.066
   -0.525
   -1.006
   -2.076
   -3.490
   -4.152
   -2.998
   -0.053
    3.312
    5.252
    4.768
    2.385
   -0.358
   -2.092
   -2.468
   -2.072
   -1.662
   -1.501
   -1.305
   -0.683
    0.436
    1.738
    2.757
    3.094
    2.489
    0.915
   -1.243
   -3.136
   -3.833
   -2.979
   -1.143
    0.551
    1.301
    1.207
    0.997
    1.163
    1.421
    1.058
   -0.215
   -1.797
   -2.592
   -1.912
   -0.089
    1.707
    2.331
    1.500
   -0.077
   -1.298
   -1.414
   -0.382
    1.241
    2.632
    3.080
    2.315
    0.665
   -1.114
   -2.281
   -2.576
   -2.321
   -2.036
   -1.842
   -1.285
    0.157
    2.306
    4.102
    4.287
    2.405
   -0.773
   -3.701
   -5.005
   -4.240
   -2.038
    0.360
    1.892
    2.264
    1.938
    1.549
    1.288
    0.840
   -0.069
   -1.122
   -1.512
   -0.674
    1.065
    2.616
    2.969
    1.959
    0.276
   -1.215
   -2.103
   -2.456
   -2.419
   -1.952
   -0.993
    0.280
    1.448
    2.090
    1.998
    1.201
   -0.073
   -1.420
   -2.319
   -2.341
   -1.417
    0.065
    1.470
    2.317
    2.532
    2.347
    1.938
    1.209
   -0.033
   -1.635
   -2.898
   -2.927
   -1.368
    1.104
    3.076
    3.343
    1.738
   -0.826
   -3.061
   -4.096
   -3.782
   -2.488
   -0.771
    0.827
    1.899
    2.282
    2.070
    1.472
    0.657
   -0.210
   -0.793
   -0.646
    0.391
    1.830
    2.734
    2.413
    0.997
   -0.703
   -1.859
   -2.172
   -1.871
   -1.358
   -0.931
   -0.695
   -0.533
   -0.132
    0.750
    1.891
    2.539
    1.981
    0.303
   -1.492
   -2.313
   -2.000
   -1.431
   -1.506
   -2.068
   -1.989
   -0.391
    2.246
    4.312
    4.418
    2.549
    0.029
   -1.552
   -1.448
   -0.149
    1.109
    1.298
    0.360
   -0.802
   -1.123
   -0.314
    0.889
    1.373
    0.618
   -0.844
   -1.823
   -1.423
    0.182
    1.823
    2.238
    1.084
   -0.823
   -2.204
   -2.301
   -1.284
    0.057
    0.908
    0.830
   -0.087
   -1.243
   -1.778
   -1.096
    0.597
    2.242
    2.618
    1.338
   -0.743
   -2.227
   -2.396
   -1.715
   -1.137
   -1.019
   -0.845
    0.058
    1.702
    3.334
    4.025
    3.309
    1.430
   -0.860
   -2.680
   -3.391
   -2.834
   -1.396
    0.170
    1.167
    1.390
    1.213
    1.170
    1.398
    1.498
    0.955
   -0.289
   -1.709
   -2.588
   -2.504
   -1.495
    0.063
    1.610
    2.531
    2.382
    1.235
   -0.207
   -1.005
   -0.697
    0.292
    0.986
    0.668
   -0.544
   -1.832
   -2.348
   -1.781
   -0.456
    0.957
    1.807
    1.728
    0.790
   -0.495
   -1.396
   -1.357
   -0.395
    0.790
    1.243
    0.513
   -0.891
   -1.894
   -1.772
   -0.696
    0.581
    1.447
    1.770
    1.704
    1.402
    1.003
    0.688
    0.513
    0.180
   -0.755
   -2.229
   -3.287
   -2.668
   -0.056
    3.198
    4.827
    3.420
   -0.293
   -3.865
   -4.954
   -3.026
    0.410
    3.053
    3.463
    1.857
   -0.335
   -1.641
   -1.523
   -0.521
    0.371
    0.509
   -0.021
   -0.647
   -0.885
   -0.714
   -0.428
   -0.188
    0.169
    0.830
    1.583
    1.864
    1.289
    0.090
   -1.052
   -1.572
   -1.374
   -0.722
    0.049
    0.650
    0.833
    0.509
   -0.063
   -0.340
    0.050
    0.875
    1.402
    1.041
   -0.113
   -1.367
   -2.050
   -2.046
   -1.735
   -1.487
   -1.265
   -0.730
    0.317
    1.649
    2.778
    3.313
    3.093
    2.061
    0.237
   -1.983
   -3.601
   -3.473
   -1.305
    1.766
    3.791
    3.430
    0.928
   -2.171
   -4.163
   -4.172
   -2.393
    0.261
    2.651
    3.877
    3.705
    2.751
    2.053
    2.109
    2.232
    1.085
   -1.861
   -5.373
   -7.124
   -5.533
   -1.132
    3.742
    6.569
    6.153
    2.968
   -1.469
   -5.343
   -7.027
   -5.651
   -1.781
    2.534
    4.941
    4.485
    2.264
    0.334
   -0.087
    0.542
    0.840
   -0.021
   -1.519
   -2.224
   -0.921
    2.543
    7.160
   11.275
   13.342
   12.663
    9.838
    6.610
    4.981
    6.078
    9.509
   13.613
   16.342
   16.179
   12.653
    6.409
   -1.143
   -8.486
  -14.709
  -19.843
  -24.521
  -29.110
  -32.981
  -34.555
  -32.286
  -25.974
  -17.406
   -9.657
   -5.313
   -4.793
   -6.079
   -6.234
   -3.679
    0.482
    3.217
    1.977
   -2.988
   -8.272
   -9.469
   -4.391
    5.143
   14.502
   19.595
   19.739
   17.860
   17.946
   21.765
   27.247
   29.714
   25.139
   13.148
   -2.415
  -15.799
  -22.857
  -23.177
  -19.452
  -14.802
  -10.252
   -4.375
    4.640
   16.103
   25.672
   27.445
   18.350
    1.544
  -14.418
  -20.776
  -14.450
    0.003
   13.871
   20.278
   18.031
   10.955
    4.110
    0.315
   -0.665
   -0.550
   -0.583
   -0.913
   -1.408
   -2.604
   -5.572
  -10.737
  -16.839
  -21.261
  -21.723
  -17.997
  -12.084
   -6.646
   -3.077
   -0.872
    1.396
    4.620
    8.462
   11.688
   13.029
   11.932
    8.869
    5.096
    2.020
    0.553
    0.820
    2.291
    4.064
    5.116
    4.546
    1.963
   -2.141
   -6.451
   -9.523
  -10.644
  -10.090
   -8.524
   -6.203
   -2.929
    1.119
    4.642
    5.653
    3.054
   -2.061
   -6.792
   -8.385
   -6.082
   -1.336
    3.557
    7.009
    8.657
    8.863
    8.050
    6.501
    4.504
    2.428
    0.643
   -0.498
   -0.614
    0.515
    2.427
    3.681
    2.448
   -2.096
   -8.627
  -13.951
  -14.813
  -10.091
   -1.764
    6.111
    9.850
    8.364
    3.589
   -1.086
   -3.107
   -2.042
    0.789
    3.566
    4.946
    4.352
    2.024
   -0.888
   -2.585
   -1.669
    1.552
    4.856
    5.611
    2.856
   -1.973
   -6.331
   -8.498
   -8.326
   -6.510
   -3.632
   -0.146
    3.025
    4.484
    3.383
    0.520
   -1.844
   -1.578
    1.625
    5.923
    8.644
    8.197
    5.130
    1.614
   -0.232
    0.078
    1.114
    0.757
   -2.027
   -6.276
   -9.655
  -10.074
   -7.072
   -2.037
    2.766
    5.582
    6.008
    4.819
    3.083
    1.355
   -0.471
   -2.725
   -5.397
   -7.873
   -9.120
   -8.238
   -5.078
   -0.456
    4.252
    7.793
    9.458
    9.090
    6.984
    3.865
    0.735
   -1.613
   -3.080
   -4.201
   -5.494
   -6.843
   -7.528
   -6.859
   -4.744
   -1.663
    1.817
    5.359
    8.632
   10.897
   11.090
    8.668
    4.467
    0.493
   -1.486
   -1.323
   -0.450
   -0.422
   -1.445
   -2.263
   -1.419
    1.295
    4.440
    5.898
    4.437
    0.657
   -3.388
   -5.560
   -4.934
   -2.135
    1.328
    4.018
    5.118
    4.421
    2.089
   -1.446
   -5.427
   -8.800
  -10.492
   -9.884
   -7.190
   -3.453
   -0.076
    1.839
    1.919
    0.579
   -1.192
   -2.270
   -2.044
   -0.915
   -0.069
   -0.450
   -1.834
   -2.950
   -2.581
   -0.567
    2.170
    4.433
    5.556
    5.592
    4.952
    3.996
    2.940
    2.019
    1.571
    1.813
    2.484
    2.785
    1.863
   -0.457
   -3.342
   -5.406
   -5.679
   -4.357
   -2.695
   -2.074
   -2.899
   -4.241
   -4.606
   -3.278
   -1.035
    0.522
    0.495
   -0.366
   -0.294
    1.781
    5.018
    7.128
    6.193
    2.284
   -2.465
   -5.316
   -4.743
   -1.295
    2.938
    5.751
    6.128
    4.636
    2.753
    1.707
    1.659
    1.769
    1.025
   -0.809
   -2.860
   -3.759
   -2.794
   -0.651
    0.982
    0.753
   -1.162
   -3.084
   -3.154
   -0.881
    2.420
    4.699
    4.816
    3.282
    1.525
    0.501
   -0.030
   -0.968
   -2.698
   -4.416
   -4.637
   -2.472
    1.419
    5.056
    6.432
    4.885
    1.550
   -1.423
   -2.324
   -1.017
    0.994
    1.651
   -0.141
   -3.592
   -6.419
   -6.408
   -3.110
    1.637
    4.931
    4.916
    2.070
   -1.366
   -3.253
   -3.029
   -1.650
   -0.394
    0.206
    0.458
    0.931
    1.887
    3.092
    3.926
    3.702
    2.155
   -0.165
   -2.041
   -2.395
   -1.178
    0.486
    1.129
    0.103
   -1.943
   -3.677
   -4.222
   -3.750
   -3.055
   -2.658
   -2.418
   -1.924
   -1.084
   -0.217
    0.366
    0.706
    1.051
    1.399
    1.312
    0.285
   -1.661
   -3.797
   -5.166
   -5.225
   -4.006
   -1.814
    0.986
    3.824
    5.871
    6.483
    5.798
    4.706
    4.059
    3.901
    3.601
    2.710
    1.546
    0.792
    0.605
    0.374
   -0.522
   -1.859
   -2.706
   -2.455
   -1.568
   -1.115
   -1.600
   -2.396
   -2.471
   -1.583
   -0.574
   -0.422
   -1.154
   -1.820
   -1.504
   -0.207
    1.298
    2.310
    2.687
    2.560
    1.833
    0.266
   -1.856
   -3.357
   -2.829
    0.047
    3.805
    6.055
    5.344
    2.375
   -0.582
   -1.577
   -0.479
    1.150
    1.473
   -0.231
   -3.194
   -5.786
   -6.521
   -4.841
   -1.374
    2.412
    4.997
    5.656
    4.799
    3.486
    2.502
    1.757
    0.601
   -1.286
   -3.353
   -4.558
   -4.326
   -3.111
   -2.045
   -2.027
   -3.071
   -4.371
   -4.869
   -3.858
   -1.333
    1.956
    4.762
    5.903
    4.932
    2.439
   -0.335
   -2.288
   -2.965
   -2.474
   -1.168
    0.432
    1.588
    1.687
    0.921
    0.513
    1.821
    4.937
    8.190
    9.255
    6.933
    2.018
   -3.350
   -7.047
   -7.976
   -6.294
   -3.105
    0.055
    1.841
    1.691
    0.098
   -1.718
   -2.565
   -1.958
   -0.230
    1.900
    3.812
    5.146
    5.677
    5.220
    3.705
    1.266
   -1.751
   -4.796
   -7.138
   -8.003
   -6.936
   -4.144
   -0.498
    2.898
    5.212
    6.108
    5.633
    4.021
    1.594
   -1.295
   -4.290
   -6.960
   -8.657
   -8.582
   -6.245
   -2.040
    2.647
    6.086
    7.164
    5.935
    3.356
    0.573
   -1.614
   -2.761
   -2.555
   -0.810
    2.157
    5.196
    6.623
    5.192
    1.110
   -3.752
   -6.783
   -6.179
   -2.151
    3.075
    6.568
    6.516
    3.328
   -0.780
   -3.387
   -3.452
   -1.778
   -0.169
   -0.063
   -1.647
   -3.963
   -5.740
   -6.220
   -5.408
   -3.735
   -1.618
    0.690
    2.936
    4.741
    5.665
    5.392
    3.833
    1.209
   -1.807
   -4.082
   -4.434
   -2.442
    0.958
    3.786
    4.309
    2.384
   -0.328
   -1.642
   -0.610
    1.783
    3.585
    3.535
    1.859
   -0.355
   -2.255
