Origin Time       21/9/2009 8:53:04	 
Lat.              27.3 N	
Long.             91.5 E	
Depth (Km)          8.0
Magnitude         6.2
 Region           BHUTAN                                                           
 Above details taken from IMD 
   
Station Code      DJL
Station Lat.       27.050
Station Long.      88.262
Station Height(m)  393.0
Site Class        A   Vs30 between 700 m/sec to 1400 m/sec * 
Record Time       21.09.2009 08:54:22.334
Sampling Rate     200. Hz
 Record Duration   73.360 Sec.
 Direction         Vert. (Up positive)
Max. Acceleration      3.123 cm/sec**2
     
  * For reference see Site Classification link of website 
     
 Base Line Corrected and Low Pass Filtered (Cut Off at 35 Hz) Time History
 Acceleration data in cm/sec**2
    
[...]
       0.397
       0.447
       0.489
       0.509
       0.503
       0.487
       0.478
       0.487
       0.509
       0.531
       0.539
       0.525
       0.496
       0.467
       0.449
       0.446
       0.446
       0.437
       0.416
       0.400
       0.409
       0.443
       0.480
       0.501
       0.502
       0.484
       0.448
       0.403
       0.356
       0.320
       0.301
       0.299
       0.310
       0.335
       0.370
       0.405
       0.423
       0.399
       0.321
       0.195
       0.041
      -0.123
      -0.286
      -0.441
      -0.580
      -0.693
      -0.770
      -0.809
      -0.815
      -0.794
      -0.756
      -0.712
      -0.671
      -0.638
      -0.613
      -0.589
      -0.558
      -0.512
      -0.452
      -0.386
      -0.330
      -0.293
      -0.270
      -0.250
      -0.220
      -0.181
      -0.140
      -0.109
      -0.097
      -0.113
      -0.158
      -0.221
      -0.293
      -0.365
      -0.434
      -0.488
      -0.510
      -0.480
      -0.397
      -0.277
      -0.150
      -0.042
       0.037
       0.087
       0.114
       0.121
       0.108
       0.072
       0.023
      -0.021
      -0.041
      -0.031
      -0.003
       0.025
       0.047
       0.077
       0.125
       0.192
       0.259
       0.299
       0.293
       0.240
       0.158
       0.072
       0.002
      -0.042
      -0.064
      -0.072
      -0.077
      -0.088
      -0.103
      -0.114
      -0.121
      -0.132
      -0.160
      -0.217
      -0.300
      -0.390
      -0.457
      -0.477
      -0.445
      -0.368
      -0.259
      -0.132
       0.009
       0.160
       0.317
       0.468
       0.591
       0.666
       0.683
       0.650
       0.579
       0.488
       0.394
       0.317
       0.270
       0.253
       0.251
       0.240
       0.209
       0.158
       0.098
       0.042
      -0.003
      -0.039
      -0.074
      -0.118
      -0.179
      -0.254
      -0.334
      -0.411
      -0.478
      -0.531
      -0.563
      -0.573
      -0.561
      -0.528
      -0.479
      -0.418
      -0.354
      -0.294
      -0.244
      -0.208
      -0.179
      -0.146
      -0.093
      -0.008
       0.106
       0.238
       0.374
       0.514
       0.662
       0.816
       0.962
       1.082
       1.169
       1.233
       1.288
       1.337
       1.370
       1.367
       1.321
       1.229
       1.098
       0.941
       0.780
       0.633
       0.501
       0.375
       0.249
       0.134
       0.044
      -0.017
      -0.067
      -0.132
      -0.233
      -0.365
      -0.509
      -0.645
      -0.760
      -0.855
      -0.933
      -0.997
      -1.036
      -1.041
      -1.009
      -0.956
      -0.912
      -0.900
      -0.925
      -0.969
      -1.009
      -1.029
      -1.022
      -0.988
      -0.930
      -0.856
      -0.782
      -0.719
      -0.663
      -0.606
      -0.542
      -0.470
      -0.388
      -0.290
      -0.173
      -0.038
       0.098
       0.222
       0.333
       0.443
       0.557
       0.654
       0.700
       0.677
       0.605
       0.540
       0.526
       0.573
       0.645
       0.692
       0.675
       0.585
       0.443
       0.286
       0.143
       0.026
      -0.068
      -0.139
      -0.175
      -0.162
      -0.106
      -0.029
       0.048
       0.121
       0.204
       0.310
       0.437
       0.566
       0.666
       0.715
       0.711
       0.675
       0.631
       0.590
       0.549
       0.493
       0.413
       0.310
       0.196
       0.090
       0.008
      -0.044
      -0.071
      -0.083
      -0.084
      -0.080
      -0.079
      -0.090
      -0.114
      -0.139
      -0.146
      -0.126
      -0.094
      -0.076
      -0.085
      -0.110
      -0.125
      -0.111
      -0.064
       0.001
       0.065
       0.110
       0.125
       0.107
       0.062
       0.000
      -0.075
      -0.170
      -0.297
      -0.470
      -0.688
      -0.930
      -1.162
      -1.353
      -1.481
      -1.532
      -1.501
      -1.387
      -1.192
      -0.931
      -0.634
      -0.339
      -0.076
       0.140
       0.316
       0.456
       0.558
       0.613
       0.621
       0.594
       0.553
       0.514
       0.488
       0.478
       0.481
       0.491
       0.500
       0.508
       0.522
       0.556
       0.621
       0.723
       0.850
       0.973
       1.056
       1.075
       1.030
       0.947
       0.860
       0.791
       0.739
       0.688
       0.621
       0.530
       0.419
       0.296
       0.169
       0.042
      -0.084
      -0.211
      -0.334
      -0.446
      -0.541
      -0.623
      -0.708
      -0.806
      -0.921
      -1.035
      -1.122
      -1.161
      -1.140
      -1.059
      -0.928
      -0.759
      -0.565
      -0.364
      -0.180
      -0.040
       0.039
       0.048
      -0.004
      -0.094
      -0.189
      -0.261
      -0.302
      -0.324
      -0.354
      -0.410
      -0.493
      -0.585
      -0.660
      -0.697
      -0.688
      -0.631
      -0.536
      -0.420
      -0.306
      -0.214
      -0.151
      -0.105
      -0.058
       0.004
       0.080
       0.162
       0.235
       0.292
       0.326
       0.339
       0.344
       0.368
       0.438
       0.567
       0.740
       0.927
       1.098
       1.236
       1.332
       1.385
       1.391
       1.350
       1.269
       1.164
       1.053
       0.942
       0.825
       0.692
       0.539
       0.370
       0.194
       0.016
      -0.159
      -0.327
      -0.479
      -0.606
      -0.712
      -0.806
      -0.900
      -0.991
      -1.066
      -1.108
      -1.109
      -1.073
      -1.010
      -0.931
      -0.843
      -0.744
      -0.627
      -0.492
      -0.350
      -0.218
      -0.110
      -0.028
       0.038
       0.092
       0.130
       0.145
       0.137
       0.120
       0.105
       0.091
       0.075
       0.062
       0.062
       0.080
       0.109
       0.141
       0.168
       0.190
       0.208
       0.221
       0.223
       0.212
       0.191
       0.173
       0.175
       0.215
       0.306
       0.450
       0.642
       0.866
       1.103
       1.332
       1.540
       1.718
       1.855
       1.939
       1.963
       1.927
       1.841
       1.714
       1.550
       1.349
       1.110
       0.829
       0.510
       0.152
      -0.237
      -0.641
      -1.033
      -1.381
      -1.665
      -1.877
      -2.025
      -2.127
      -2.206
      -2.274
      -2.332
      -2.377
      -2.409
      -2.427
      -2.423
      -2.387
      -2.310
      -2.206
      -2.097
      -2.000
      -1.913
      -1.822
      -1.713
      -1.575
      -1.409
      -1.220
      -1.015
      -0.795
      -0.565
      -0.328
      -0.086
       0.161
       0.410
       0.647
       0.850
       0.997
       1.080
       1.108
       1.097
       1.064
       1.019
       0.970
       0.924
       0.895
       0.892
       0.913
       0.938
       0.941
       0.900
       0.822
       0.739
       0.688
       0.683
       0.709
       0.735
       0.747
       0.759
       0.796
       0.875
       0.991
       1.121
       1.239
       1.323
       1.367
       1.372
       1.342
       1.277
       1.174
       1.033
       0.864
       0.685
       0.512
       0.360
       0.239
       0.157
       0.112
       0.098
       0.103
       0.117
       0.133
       0.146
       0.153
       0.147
       0.127
       0.092
       0.046
      -0.006
      -0.058
      -0.104
      -0.135
      -0.142
      -0.122
      -0.080
      -0.024
       0.031
       0.067
       0.076
       0.053
       0.000
      -0.073
      -0.154
      -0.223
      -0.267
      -0.284
      -0.282
      -0.272
      -0.262
      -0.252
      -0.246
      -0.243
      -0.235
      -0.197
      -0.099
       0.072
       0.291
       0.512
       0.701
       0.858
       1.013
       1.180
       1.339
       1.452
       1.487
       1.440
       1.328
       1.175
       0.999
       0.816
       0.638
       0.472
       0.308
       0.140
      -0.032
      -0.202
      -0.367
      -0.528
      -0.688
      -0.849
      -1.016
      -1.200
      -1.405
      -1.624
      -1.845
      -2.049
      -2.216
      -2.318
      -2.336
      -2.261
      -2.108
      -1.893
      -1.632
      -1.338
      -1.031
      -0.741
      -0.499
      -0.327
      -0.224
      -0.174
      -0.160
      -0.176
      -0.232
      -0.343
      -0.510
      -0.713
      -0.919
      -1.100
      -1.238
      -1.332
      -1.389
      -1.415
      -1.412
      -1.382
      -1.329
      -1.253
      -1.159
      -1.056
      -0.946
      -0.827
      -0.689
      -0.524
      -0.335
      -0.133
       0.072
       0.281
       0.509
       0.779
       1.103
       1.476
       1.864
       2.221
       2.505
       2.696
       2.804
       2.851
       2.848
       2.791
       2.669
       2.483
       2.251
       2.010
       1.785
       1.575
       1.362
       1.130
       0.882
       0.641
       0.432
       0.266
       0.145
       0.062
       0.008
      -0.035
      -0.086
      -0.158
      -0.252
      -0.357
      -0.458
      -0.541
      -0.601
      -0.635
      -0.648
      -0.654
      -0.671
      -0.711
      -0.770
      -0.833
      -0.877
      -0.891
      -0.872
      -0.822
      -0.740
      -0.626
      -0.485
      -0.336
      -0.199
      -0.085
       0.014
       0.110
       0.195
       0.247
       0.250
       0.201
       0.118
       0.017
      -0.097
      -0.227
      -0.377
      -0.545
      -0.720
      -0.896
      -1.066
      -1.233
      -1.397
      -1.559
      -1.717
      -1.864
      -1.986
      -2.074
      -2.119
      -2.119
      -2.073
      -1.978
      -1.826
      -1.609
      -1.327
      -0.991
      -0.621
      -0.243
       0.118
       0.444
       0.717
       0.927
       1.067
       1.138
       1.147
       1.116
       1.075
       1.050
       1.056
       1.093
       1.154
       1.226
       1.294
       1.340
       1.350
       1.320
       1.259
       1.189
       1.131
       1.098
       1.090
       1.097
       1.101
       1.089
       1.049
       0.986
       0.918
       0.867
       0.842
       0.829
       0.801
       0.739
       0.644
       0.527
       0.386
       0.206
      -0.031
      -0.325
      -0.656
      -1.000
      -1.332
      -1.637
      -1.899
      -2.105
      -2.248
      -2.335
      -2.371
      -2.355
      -2.283
      -2.154
      -1.974
      -1.744
      -1.467
      -1.145
      -0.794
      -0.436
      -0.098
       0.199
       0.446
       0.639
       0.779
       0.866
       0.908
       0.917
       0.909
       0.893
       0.865
       0.808
       0.703
       0.544
       0.342
       0.120
      -0.101
      -0.305
      -0.483
      -0.629
      -0.743
      -0.825
      -0.873
      -0.890
      -0.878
      -0.844
      -0.789
      -0.711
      -0.603
      -0.465
      -0.300
      -0.120
       0.065
       0.246
       0.421
       0.593
       0.768
       0.954
       1.157
       1.383
       1.630
       1.888
       2.129
       2.324
       2.456
       2.529
       2.558
       2.547
       2.484
       2.349
       2.141
       1.877
       1.576
       1.244
       0.876
       0.468
       0.036
      -0.396
      -0.803
      -1.167
      -1.478
      -1.720
      -1.876
      -1.928
      -1.867
      -1.703
      -1.456
      -1.157
      -0.837
      -0.524
      -0.238
       0.010
       0.217
       0.386
       0.525
       0.643
       0.750
       0.851
       0.942
       1.016
       1.058
       1.060
       1.019
       0.942
       0.846
       0.748
       0.655
       0.562
       0.457
       0.332
       0.195
       0.062
      -0.043
      -0.101
      -0.108
      -0.078
      -0.033
       0.009
       0.038
       0.052
       0.050
       0.033
       0.000
      -0.045
      -0.099
      -0.158
      -0.220
      -0.295
      -0.394
      -0.520
      -0.658
      -0.782
      -0.866
      -0.901
      -0.896
      -0.871
      -0.840
      -0.812
      -0.787
      -0.770
      -0.769
      -0.790
      -0.834
      -0.885
      -0.925
      -0.944
      -0.937
      -0.904
      -0.842
      -0.743
      -0.609
      -0.452
      -0.295
      -0.151
      -0.014
       0.136
       0.310
       0.491
       0.636
       0.705
       0.690
       0.611
       0.490
       0.332
       0.115
      -0.168
      -0.485
      -0.771
      -0.969
      -1.077
      -1.140
      -1.208
      -1.293
      -1.381
      -1.462
      -1.545
      -1.641
      -1.740
      -1.816
      -1.842
      -1.815
      -1.744
      -1.639
      -1.505
      -1.344
      -1.161
      -0.954
      -0.721
      -0.461
      -0.189
       0.078
       0.335
       0.584
       0.823
       1.030
       1.175
       1.244
       1.246
       1.207
       1.150
       1.091
       1.035
       0.983
       0.932
       0.879
       0.820
       0.747
       0.651
       0.518
       0.339
       0.118
      -0.130
      -0.388
      -0.645
      -0.896
      -1.139
      -1.369
      -1.579
      -1.752
      -1.872
      -1.922
      -1.897
      -1.801
      -1.649
      -1.456
      -1.236
      -1.000
      -0.757
      -0.514
      -0.275
      -0.034
       0.224
       0.514
       0.850
       1.229
       1.634
       2.038
       2.417
       2.744
       2.990
       3.123
       3.117
       2.975
       2.734
       2.448
       2.163
       1.913
       1.721
       1.589
       1.496
       1.415
       1.321
       1.205
       1.064
       0.903
       0.726
       0.547
       0.383
       0.247
       0.146
       0.081
       0.055
       0.071
       0.127
       0.216
       0.319
       0.415
       0.487
       0.520
       0.516
       0.488
       0.442
       0.371
       0.248
       0.049
      -0.229
      -0.554
      -0.866
      -1.113
      -1.276
      -1.370
      -1.427
      -1.471
      -1.521
      -1.593
      -1.694
      -1.809
      -1.901
      -1.931
      -1.875
      -1.727
      -1.502
      -1.219
      -0.904
      -0.577
      -0.257
       0.045
       0.324
       0.580
       0.813
       1.029
       1.241
       1.454
       1.661
       1.839
       1.970
       2.055
       2.114
       2.159
       2.170
       2.109
       1.962
       1.759
       1.550
       1.368
       1.216
       1.078
       0.943
       0.824
       0.749
       0.733
       0.763
       0.799
       0.802
       0.755
       0.679
       0.606
       0.561
       0.549
       0.571
       0.630
       0.726
       0.847
       0.967
       1.058
       1.101
       1.085
       1.006
       0.861
       0.653
       0.393
       0.107
      -0.179
      -0.443
      -0.681
      -0.896
      -1.089
      -1.257
      -1.399
      -1.520
      -1.635
      -1.758
      -1.889
      -2.018
      -2.127
      -2.204
      -2.246
      -2.249
      -2.203
      -2.094
      -1.916
      -1.680
      -1.421
      -1.174
      -0.966
      -0.799
      -0.650
      -0.482
      -0.270
      -0.014
       0.261
       0.525
       0.761
       0.970
       1.154
       1.306
       1.413
       1.464
       1.462
       1.417
       1.352
       1.290
       1.243
       1.212
       1.176
       1.108
       0.986
       0.805
       0.581
       0.340
       0.111
      -0.076
      -0.197
      -0.236
      -0.203
      -0.130
      -0.055
      -0.008
       0.004
      -0.018
      -0.075
      -0.171
      -0.297
      -0.437
      -0.573
      -0.706
      -0.855
      -1.041
      -1.269
      -1.520
      -1.770
      -2.005
      -2.226
      -2.430
      -2.597
      -2.693
      -2.691
      -2.584
      -2.383
      -2.098
      -1.744
      -1.347
      -0.945
      -0.582
      -0.291
      -0.081
       0.057
       0.130
       0.143
       0.092
      -0.012
      -0.148
      -0.291
      -0.421
      -0.536
      -0.645
      -0.755
      -0.854
      -0.919
      -0.920
      -0.835
      -0.666
      -0.439
      -0.185
       0.074
       0.343
       0.631
       0.928
       1.186
       1.351
       1.398
       1.348
       1.243
       1.113
       0.952
       0.750
       0.517
       0.285
       0.079
      -0.099
      -0.257
      -0.402
      -0.522
      -0.604
      -0.646
      -0.665
      -0.681
      -0.710
      -0.752
      -0.799
      -0.834
      -0.846
      -0.841
      -0.840
      -0.867
      -0.932
      -1.022
      -1.104
      -1.142
      -1.113
      -1.015
      -0.857
      -0.656
      -0.425
      -0.176
       0.078
       0.329
       0.576
       0.818
       1.053
       1.273
       1.465
       1.615
       1.712
       1.750
       1.741
       1.705
       1.667
       1.645
       1.651
       1.686
       1.747
       1.822
       1.897
       1.954
       1.981
       1.978
       1.948
       1.887
       1.785
       1.633
       1.427
       1.180
       0.918
       0.665
       0.437
       0.246
       0.099
       0.001
      -0.049
      -0.059
      -0.042
      -0.011
       0.030
       0.075
       0.122
       0.169
       0.223
       0.297
       0.402
       0.529
       0.659
       0.773
       0.875
       0.979
       1.086
       1.167
       1.174
       1.074
       0.867
       0.579
       0.245
      -0.110
      -0.466
      -0.806
      -1.114
      -1.373
      -1.571
      -1.705
      -1.777
      -1.791
      -1.751
      -1.667
      -1.546
      -1.400
      -1.238
      -1.073
      -0.916
      -0.780
      -0.674
      -0.598
      -0.549
      -0.524
      -0.515
      -0.515
      -0.513
      -0.496
      -0.457
      -0.394
      -0.309
      -0.200
      -0.058
       0.127
       0.352
       0.602
       0.846
       1.062
       1.249
       1.423
       1.601
       1.775
       1.918
       1.990
       1.969
       1.855
       1.671
       1.451
       1.221
       0.992
       0.767
       0.547
       0.345
       0.181
       0.070
       0.016
       0.006
       0.028
       0.072
       0.131
       0.197
       0.259
       0.308
       0.335
       0.334
       0.299
       0.227
       0.117
      -0.027
      -0.192
      -0.366
      -0.535
      -0.692
      -0.832
      -0.955
      -1.069
      -1.180
      -1.289
      -1.383
      -1.437
      -1.426
      -1.339
      -1.194
      -1.024
      -0.857
      -0.700
      -0.537
      -0.351
      -0.140
       0.071
       0.241
       0.332
       0.335
       0.265
       0.147
      -0.006
      -0.191
      -0.398
      -0.604
      -0.785
      -0.933
      -1.059
      -1.167
      -1.247
      -1.281
      -1.273
      -1.251
      -1.234
      -1.216
      -1.171
      -1.081
      -0.947
      -0.784
      -0.601
      -0.401
      -0.186
       0.030
       0.222
       0.371
       0.471
       0.527
       0.543
       0.522
       0.477
       0.438
       0.439
       0.490
       0.570
       0.639
       0.666
       0.650
       0.615
       0.589
       0.588
       0.612
       0.648
       0.673
       0.657
       0.578
       0.435
       0.242
       0.022
      -0.212
      -0.449
      -0.674
