Origin Time       21/9/2009 8:53:04	  UTC
Lat.              27.3 N	
Long.             91.5 E	
Depth (Km)          8.0
Magnitude         6.2
 Region           BHUTAN                                                           
 Above details taken from IMD 
    
Station Code      DJL
Station Lat.       27.050  N
Station Long.      88.262  E
Station Height(m)  393.0
Site Class        A   Vs30 between 700 m/sec to 1400 m/sec * 
Record Time       21.09.2009 08:54:22.334 UTC
Sampling Rate     200. Hz
 Record Duration   73.360 Sec.
 Direction         N-S (N positive)
Max. Acceleration     -7.349 cm/sec**2
     
  * For reference see Site Classification link of website 
     
 Base Line Corrected and Low Pass Filtered (Cut Off at 35 Hz) Time History
 Acceleration data in cm/sec**2
    
[...]
      -0.150
      -0.220
      -0.258
      -0.273
      -0.272
      -0.255
      -0.221
      -0.170
      -0.110
      -0.049
       0.007
       0.059
       0.115
       0.181
       0.263
       0.356
       0.452
       0.541
       0.617
       0.678
       0.723
       0.756
       0.776
       0.779
       0.760
       0.717
       0.658
       0.593
       0.525
       0.448
       0.357
       0.254
       0.148
       0.049
      -0.043
      -0.134
      -0.230
      -0.330
      -0.424
      -0.504
      -0.565
      -0.607
      -0.629
      -0.629
      -0.605
      -0.554
      -0.471
      -0.354
      -0.201
      -0.019
       0.186
       0.399
       0.609
       0.808
       0.989
       1.149
       1.285
       1.399
       1.491
       1.561
       1.604
       1.612
       1.578
       1.503
       1.389
       1.245
       1.082
       0.919
       0.775
       0.666
       0.595
       0.554
       0.523
       0.487
       0.441
       0.388
       0.332
       0.276
       0.219
       0.161
       0.111
       0.075
       0.059
       0.062
       0.082
       0.118
       0.167
       0.223
       0.278
       0.314
       0.316
       0.275
       0.189
       0.063
      -0.091
      -0.261
      -0.443
      -0.633
      -0.836
      -1.047
      -1.254
      -1.434
      -1.570
      -1.656
      -1.698
      -1.705
      -1.681
      -1.630
      -1.553
      -1.458
      -1.355
      -1.244
      -1.124
      -0.987
      -0.826
      -0.642
      -0.440
      -0.229
      -0.019
       0.183
       0.373
       0.547
       0.701
       0.829
       0.930
       1.000
       1.045
       1.074
       1.094
       1.110
       1.115
       1.102
       1.063
       1.000
       0.920
       0.825
       0.716
       0.591
       0.455
       0.313
       0.167
       0.009
      -0.165
      -0.351
      -0.538
      -0.714
      -0.874
      -1.022
      -1.160
      -1.286
      -1.395
      -1.482
      -1.547
      -1.590
      -1.611
      -1.609
      -1.591
      -1.573
      -1.566
      -1.570
      -1.570
      -1.549
      -1.496
      -1.419
      -1.331
      -1.241
      -1.149
      -1.054
      -0.956
      -0.859
      -0.761
      -0.657
      -0.536
      -0.389
      -0.212
      -0.010
       0.205
       0.417
       0.610
       0.774
       0.906
       1.010
       1.088
       1.141
       1.169
       1.173
       1.159
       1.137
       1.114
       1.093
       1.071
       1.042
       1.007
       0.976
       0.962
       0.978
       1.029
       1.108
       1.206
       1.311
       1.421
       1.533
       1.646
       1.756
       1.861
       1.956
       2.033
       2.083
       2.095
       2.066
       1.996
       1.890
       1.754
       1.597
       1.425
       1.243
       1.049
       0.835
       0.594
       0.328
       0.051
      -0.217
      -0.460
      -0.671
      -0.848
      -0.992
      -1.097
      -1.154
      -1.160
      -1.113
      -1.026
      -0.914
      -0.790
      -0.663
      -0.536
      -0.419
      -0.329
      -0.282
      -0.289
      -0.347
      -0.440
      -0.555
      -0.687
      -0.841
      -1.018
      -1.214
      -1.414
      -1.600
      -1.762
      -1.899
      -2.014
      -2.109
      -2.184
      -2.236
      -2.260
      -2.248
      -2.196
      -2.098
      -1.952
      -1.759
      -1.526
      -1.265
      -0.991
      -0.722
      -0.469
      -0.236
      -0.020
       0.182
       0.367
       0.527
       0.655
       0.750
       0.820
       0.874
       0.915
       0.941
       0.949
       0.938
       0.913
       0.880
       0.848
       0.826
       0.817
       0.819
       0.829
       0.843
       0.860
       0.878
       0.895
       0.904
       0.900
       0.884
       0.863
       0.850
       0.850
       0.850
       0.830
       0.779
       0.701
       0.614
       0.531
       0.454
       0.371
       0.271
       0.151
       0.023
      -0.102
      -0.209
      -0.291
      -0.347
      -0.375
      -0.372
      -0.334
      -0.261
      -0.156
      -0.031
       0.103
       0.236
       0.363
       0.478
       0.578
       0.654
       0.697
       0.698
       0.661
       0.598
       0.529
       0.466
       0.405
       0.326
       0.213
       0.064
      -0.108
      -0.287
      -0.463
      -0.639
      -0.817
      -0.995
      -1.164
      -1.312
      -1.435
      -1.532
      -1.606
      -1.656
      -1.684
      -1.691
      -1.684
      -1.668
      -1.649
      -1.633
      -1.625
      -1.625
      -1.626
      -1.615
      -1.574
      -1.494
      -1.376
      -1.228
      -1.063
      -0.885
      -0.689
      -0.462
      -0.196
       0.102
       0.414
       0.714
       0.981
       1.203
       1.376
       1.492
       1.544
       1.528
       1.450
       1.321
       1.155
       0.959
       0.740
       0.500
       0.245
      -0.016
      -0.275
      -0.523
      -0.749
      -0.945
      -1.106
      -1.232
      -1.329
      -1.401
      -1.452
      -1.489
      -1.520
      -1.557
      -1.608
      -1.676
      -1.755
      -1.837
      -1.912
      -1.974
      -2.022
      -2.053
      -2.061
      -2.036
      -1.966
      -1.847
      -1.680
      -1.469
      -1.219
      -0.932
      -0.609
      -0.257
       0.110
       0.477
       0.831
       1.164
       1.471
       1.748
       1.988
       2.183
       2.329
       2.424
       2.471
       2.471
       2.423
       2.324
       2.170
       1.972
       1.747
       1.514
       1.286
       1.056
       0.816
       0.559
       0.297
       0.049
      -0.165
      -0.335
      -0.462
      -0.549
      -0.598
      -0.608
      -0.584
      -0.537
      -0.483
      -0.442
      -0.428
      -0.448
      -0.507
      -0.604
      -0.738
      -0.903
      -1.088
      -1.282
      -1.480
      -1.678
      -1.873
      -2.055
      -2.212
      -2.335
      -2.425
      -2.493
      -2.550
      -2.599
      -2.631
      -2.638
      -2.613
      -2.548
      -2.432
      -2.250
      -1.992
      -1.660
      -1.268
      -0.838
      -0.389
       0.069
       0.530
       0.989
       1.430
       1.832
       2.177
       2.463
       2.702
       2.908
       3.088
       3.238
       3.351
       3.429
       3.479
       3.509
       3.528
       3.542
       3.553
       3.563
       3.562
       3.538
       3.477
       3.369
       3.211
       3.003
       2.746
       2.438
       2.079
       1.667
       1.205
       0.693
       0.133
      -0.465
      -1.081
      -1.689
      -2.260
      -2.775
      -3.223
      -3.603
      -3.914
      -4.150
      -4.307
      -4.384
      -4.381
      -4.304
      -4.158
      -3.947
      -3.680
      -3.362
      -3.004
      -2.611
      -2.184
      -1.730
      -1.261
      -0.799
      -0.364
       0.030
       0.376
       0.667
       0.890
       1.035
       1.097
       1.076
       0.980
       0.820
       0.614
       0.387
       0.168
      -0.014
      -0.143
      -0.218
      -0.243
      -0.224
      -0.163
      -0.059
       0.089
       0.276
       0.492
       0.728
       0.978
       1.233
       1.484
       1.724
       1.954
       2.182
       2.414
       2.651
       2.887
       3.112
       3.309
       3.460
       3.543
       3.542
       3.448
       3.264
       3.002
       2.675
       2.292
       1.859
       1.381
       0.871
       0.350
      -0.154
      -0.618
      -1.027
      -1.377
      -1.662
      -1.873
      -1.998
      -2.029
      -1.966
      -1.813
      -1.575
      -1.261
      -0.880
      -0.448
       0.019
       0.506
       0.998
       1.475
       1.911
       2.275
       2.546
       2.708
       2.756
       2.693
       2.529
       2.277
       1.948
       1.546
       1.077
       0.554
       0.004
      -0.541
      -1.051
      -1.506
      -1.899
      -2.227
      -2.490
      -2.687
      -2.818
      -2.880
      -2.870
      -2.787
      -2.638
      -2.436
      -2.195
      -1.929
      -1.652
      -1.383
      -1.136
      -0.925
      -0.752
      -0.618
      -0.519
      -0.451
      -0.409
      -0.389
      -0.387
      -0.403
      -0.431
      -0.466
      -0.498
      -0.516
      -0.513
      -0.481
      -0.417
      -0.320
      -0.183
      -0.002
       0.222
       0.477
       0.746
       1.009
       1.256
       1.481
       1.676
       1.828
       1.921
       1.953
       1.930
       1.868
       1.777
       1.658
       1.506
       1.322
       1.116
       0.906
       0.710
       0.540
       0.397
       0.277
       0.178
       0.100
       0.049
       0.032
       0.048
       0.093
       0.160
       0.243
       0.337
       0.434
       0.525
       0.592
       0.619
       0.595
       0.521
       0.400
       0.235
       0.027
      -0.219
      -0.494
      -0.776
      -1.040
      -1.253
      -1.396
      -1.464
      -1.468
      -1.419
      -1.321
      -1.171
      -0.968
      -0.718
      -0.435
      -0.128
       0.199
       0.553
       0.939
       1.359
       1.804
       2.262
       2.714
       3.138
       3.511
       3.808
       4.014
       4.122
       4.131
       4.044
       3.869
       3.620
       3.313
       2.970
       2.606
       2.235
       1.870
       1.524
       1.215
       0.954
       0.747
       0.598
       0.513
       0.501
       0.563
       0.691
       0.866
       1.063
       1.257
       1.430
       1.570
       1.673
       1.739
       1.768
       1.755
       1.690
       1.561
       1.358
       1.082
       0.743
       0.363
      -0.039
      -0.454
      -0.879
      -1.315
      -1.752
      -2.176
      -2.574
      -2.942
      -3.286
      -3.615
      -3.927
      -4.205
      -4.427
      -4.576
      -4.646
      -4.637
      -4.553
      -4.392
      -4.154
      -3.843
      -3.472
      -3.061
      -2.630
      -2.194
      -1.760
      -1.333
      -0.927
      -0.559
      -0.249
      -0.005
       0.177
       0.312
       0.411
       0.479
       0.512
       0.509
       0.473
       0.412
       0.339
       0.263
       0.185
       0.104
       0.023
      -0.045
      -0.082
      -0.074
      -0.014
       0.092
       0.235
       0.411
       0.627
       0.887
       1.186
       1.506
       1.817
       2.098
       2.338
       2.545
       2.726
       2.886
       3.020
       3.122
       3.194
       3.243
       3.277
       3.303
       3.320
       3.328
       3.329
       3.325
       3.323
       3.320
       3.313
       3.292
       3.246
       3.167
       3.051
       2.894
       2.695
       2.458
       2.184
       1.876
       1.535
       1.166
       0.776
       0.378
      -0.012
      -0.379
      -0.711
      -0.995
      -1.225
      -1.396
      -1.508
      -1.568
      -1.586
      -1.570
      -1.524
      -1.449
      -1.347
      -1.226
      -1.107
      -1.016
      -0.969
      -0.968
      -1.003
      -1.061
      -1.137
      -1.236
      -1.363
      -1.521
      -1.708
      -1.921
      -2.159
      -2.418
      -2.686
      -2.945
      -3.178
      -3.374
      -3.532
      -3.651
      -3.725
      -3.745
      -3.694
      -3.564
      -3.351
      -3.066
      -2.726
      -2.355
      -1.969
      -1.579
      -1.187
      -0.789
      -0.383
       0.024
       0.412
       0.754
       1.024
       1.210
       1.311
       1.331
       1.274
       1.148
       0.966
       0.743
       0.492
       0.217
      -0.084
      -0.410
      -0.746
      -1.071
      -1.360
      -1.596
      -1.768
      -1.871
      -1.905
      -1.868
      -1.763
      -1.594
      -1.372
      -1.108
      -0.812
      -0.488
      -0.140
       0.225
       0.595
       0.958
       1.302
       1.618
       1.902
       2.146
       2.351
       2.516
       2.645
       2.737
       2.787
       2.794
       2.763
       2.701
       2.611
       2.490
       2.329
       2.120
       1.863
       1.567
       1.250
       0.935
       0.643
       0.385
       0.165
      -0.016
      -0.157
      -0.258
      -0.317
      -0.339
      -0.337
      -0.324
      -0.311
      -0.299
      -0.290
      -0.289
      -0.301
      -0.332
      -0.383
      -0.449
      -0.524
      -0.602
      -0.681
      -0.759
      -0.839
      -0.923
      -1.018
      -1.132
      -1.270
      -1.437
      -1.637
      -1.871
      -2.130
      -2.397
      -2.649
      -2.866
      -3.033
      -3.140
      -3.181
      -3.150
      -3.042
      -2.854
      -2.582
      -2.232
      -1.817
      -1.351
      -0.848
      -0.320
       0.221
       0.769
       1.316
       1.856
       2.380
       2.874
       3.324
       3.722
       4.066
       4.355
       4.590
       4.770
       4.896
       4.975
       5.016
       5.029
       5.019
       4.984
       4.916
       4.814
       4.676
       4.501
       4.284
       4.018
       3.708
       3.368
       3.008
       2.629
       2.224
       1.782
       1.305
       0.807
       0.308
      -0.173
      -0.625
      -1.048
      -1.442
      -1.809
      -2.141
      -2.433
      -2.684
      -2.902
      -3.103
      -3.302
      -3.507
      -3.721
      -3.953
      -4.217
      -4.524
      -4.871
      -5.245
      -5.625
      -5.998
      -6.350
      -6.668
      -6.940
      -7.152
      -7.294
      -7.349
      -7.303
      -7.153
      -6.907
      -6.588
      -6.213
      -5.792
      -5.316
      -4.774
      -4.163
      -3.492
      -2.777
      -2.037
      -1.282
      -0.523
       0.223
       0.925
       1.555
       2.092
       2.538
       2.909
       3.225
       3.498
       3.727
       3.902
       4.019
       4.084
       4.113
       4.127
       4.142
       4.161
       4.176
       4.175
       4.150
       4.100
       4.032
       3.948
       3.841
       3.698
       3.515
       3.297
       3.059
       2.816
       2.576
       2.341
       2.113
       1.897
       1.704
       1.541
       1.406
       1.278
       1.126
       0.927
       0.674
       0.372
       0.031
      -0.350
      -0.779
      -1.261
      -1.790
      -2.352
      -2.922
      -3.479
      -4.002
      -4.470
      -4.865
      -5.170
      -5.370
      -5.460
      -5.440
      -5.319
      -5.109
      -4.819
      -4.457
      -4.033
      -3.556
      -3.040
      -2.508
      -1.984
      -1.498
      -1.071
      -0.716
      -0.434
      -0.223
      -0.080
      -0.001
       0.026
       0.027
       0.030
       0.049
       0.077
       0.098
       0.098
       0.081
       0.063
       0.061
       0.086
       0.137
       0.214
       0.321
       0.464
       0.644
       0.851
       1.066
       1.272
       1.454
       1.607
       1.726
       1.809
       1.845
       1.820
       1.722
       1.544
       1.285
       0.954
       0.562
       0.128
      -0.328
      -0.778
      -1.201
      -1.577
      -1.889
      -2.124
      -2.279
      -2.354
      -2.359
      -2.303
      -2.194
      -2.041
      -1.851
      -1.633
      -1.394
      -1.144
      -0.891
      -0.641
      -0.399
      -0.170
       0.038
       0.216
       0.364
       0.484
       0.584
       0.669
       0.741
       0.798
       0.839
       0.867
       0.885
       0.896
       0.906
       0.922
       0.954
       1.009
       1.093
       1.200
       1.326
       1.467
       1.622
       1.788
       1.961
       2.136
       2.315
       2.506
       2.711
       2.923
       3.127
       3.306
       3.453
       3.566
       3.652
       3.718
       3.767
       3.798
       3.808
       3.794
       3.759
       3.708
       3.642
       3.553
       3.432
       3.278
       3.099
       2.906
       2.706
       2.494
       2.263
       2.005
       1.719
       1.409
       1.078
       0.723
       0.342
      -0.062
      -0.477
      -0.882
      -1.263
      -1.615
      -1.944
      -2.257
      -2.552
      -2.812
      -3.015
      -3.148
      -3.214
      -3.228
      -3.203
      -3.141
      -3.032
      -2.869
      -2.652
      -2.387
      -2.086
      -1.753
      -1.394
      -1.015
      -0.633
      -0.267
       0.060
       0.334
       0.538
       0.661
       0.690
       0.621
       0.457
       0.211
      -0.094
      -0.429
      -0.759
      -1.048
      -1.272
      -1.417
      -1.477
      -1.454
      -1.348
      -1.164
      -0.910
      -0.601
      -0.260
       0.088
       0.416
       0.708
       0.952
       1.142
       1.275
       1.351
       1.371
       1.347
       1.295
       1.238
       1.193
       1.175
       1.188
       1.232
       1.299
       1.381
       1.467
       1.546
       1.608
       1.642
       1.636
       1.576
       1.454
       1.269
       1.025
       0.732
       0.400
       0.049
      -0.302
      -0.629
      -0.913
      -1.142
      -1.310
      -1.413
      -1.445
      -1.405
      -1.292
      -1.114
      -0.889
      -0.643
      -0.404
      -0.196
      -0.031
       0.085
       0.152
       0.169
       0.134
       0.041
      -0.113
      -0.326
      -0.589
      -0.885
      -1.191
      -1.482
      -1.738
      -1.943
      -2.085
      -2.157
      -2.156
      -2.081
      -1.933
      -1.712
      -1.421
      -1.063
      -0.646
      -0.189
       0.285
       0.745
       1.156
       1.488
       1.716
       1.829
       1.828
       1.726
       1.539
       1.290
       1.000
       0.695
       0.397
       0.125
      -0.107
      -0.287
      -0.409
      -0.471
      -0.483
      -0.464
      -0.437
      -0.414
      -0.397
      -0.383
      -0.376
      -0.391
      -0.453
      -0.578
      -0.765
      -0.999
      -1.254
      -1.504
      -1.728
      -1.915
      -2.055
      -2.143
      -2.172
      -2.140
      -2.045
      -1.896
      -1.701
      -1.469
      -1.207
      -0.915
      -0.599
      -0.272
       0.047
       0.335
       0.580
       0.780
       0.936
       1.052
       1.128
       1.165
       1.166
       1.139
       1.088
       1.014
       0.919
       0.809
       0.702
       0.619
       0.578
       0.589
       0.651
       0.757
       0.892
       1.045
       1.205
       1.361
       1.501
       1.615
       1.699
       1.754
       1.787
       1.797
       1.784
       1.743
       1.678
       1.594
       1.499
       1.398
       1.288
       1.157
       0.996
       0.800
       0.574
       0.333
       0.088
      -0.151
      -0.381
      -0.599
      -0.798
      -0.971
      -1.111
      -1.218
      -1.293
      -1.339
      -1.352
      -1.329
      -1.268
      -1.177
      -1.070
      -0.961
      -0.857
      -0.759
      -0.668
      -0.582
      -0.500
      -0.414
      -0.311
      -0.186
      -0.041
       0.113
       0.263
       0.404
       0.542
       0.679
       0.811
       0.924
       1.003
       1.041
       1.044
       1.029
       1.012
       1.001
       0.993
       0.975
       0.936
       0.877
       0.807
       0.730
       0.645
       0.546
       0.433
       0.313
       0.193
       0.078
      -0.033
