Origin Time       21/9/2009 8:53:04	 
Lat.              27.3 N	
Long.             91.5 E	
Depth (Km)          8.0
Magnitude         6.2
 Region           BHUTAN                                                           
 Above details taken from IMD 
     
Station Code      DJL
Station Lat.       27.050  N
Station Long.      88.262  E
Station Height(m)  393.0
Site Class        A   Vs30 between 700 m/sec to 1400 m/sec * 
Record Time       21.09.2009 08:54:22.334
Sampling Rate     200. Hz
 Record Duration   73.360 Sec.
 Direction         E-W (E positive)
Max. Acceleration      7.672 cm/sec**2
     
  * For reference see Site Classification link of website 
     
 Base Line Corrected and Low Pass Filtered (Cut Off at 35 Hz) Time History
 Acceleration data in cm/sec**2
    
[...]
      -0.957
      -0.976
      -0.972
      -0.938
      -0.877
      -0.795
      -0.698
      -0.588
      -0.458
      -0.309
      -0.149
       0.008
       0.149
       0.270
       0.375
       0.472
       0.559
       0.635
       0.700
       0.757
       0.812
       0.873
       0.941
       1.011
       1.076
       1.127
       1.159
       1.175
       1.185
       1.192
       1.191
       1.170
       1.122
       1.043
       0.939
       0.817
       0.684
       0.544
       0.400
       0.251
       0.096
      -0.061
      -0.215
      -0.363
      -0.504
      -0.641
      -0.779
      -0.914
      -1.037
      -1.141
      -1.223
      -1.289
      -1.344
      -1.388
      -1.417
      -1.433
      -1.445
      -1.469
      -1.513
      -1.582
      -1.667
      -1.761
      -1.854
      -1.943
      -2.027
      -2.102
      -2.163
      -2.200
      -2.205
      -2.172
      -2.103
      -2.002
      -1.879
      -1.740
      -1.587
      -1.415
      -1.224
      -1.016
      -0.802
      -0.592
      -0.389
      -0.188
       0.020
       0.235
       0.453
       0.669
       0.885
       1.109
       1.345
       1.590
       1.836
       2.071
       2.294
       2.508
       2.721
       2.927
       3.109
       3.250
       3.339
       3.377
       3.371
       3.328
       3.252
       3.143
       3.002
       2.833
       2.639
       2.424
       2.195
       1.959
       1.722
       1.488
       1.253
       1.012
       0.768
       0.524
       0.282
       0.037
      -0.215
      -0.480
      -0.752
      -1.017
      -1.260
      -1.475
      -1.667
      -1.845
      -2.013
      -2.161
      -2.279
      -2.355
      -2.392
      -2.398
      -2.381
      -2.342
      -2.273
      -2.171
      -2.038
      -1.885
      -1.723
      -1.553
      -1.369
      -1.164
      -0.940
      -0.712
      -0.493
      -0.289
      -0.094
       0.101
       0.304
       0.510
       0.716
       0.917
       1.113
       1.305
       1.493
       1.672
       1.832
       1.966
       2.071
       2.154
       2.220
       2.276
       2.324
       2.361
       2.380
       2.375
       2.339
       2.270
       2.166
       2.026
       1.844
       1.616
       1.337
       1.009
       0.642
       0.247
      -0.166
      -0.590
      -1.019
      -1.441
      -1.844
      -2.212
      -2.536
      -2.815
      -3.054
      -3.256
      -3.423
      -3.546
      -3.618
      -3.631
      -3.586
      -3.493
      -3.359
      -3.186
      -2.969
      -2.702
      -2.386
      -2.031
      -1.655
      -1.271
      -0.883
      -0.489
      -0.095
       0.290
       0.645
       0.956
       1.215
       1.425
       1.597
       1.739
       1.856
       1.952
       2.027
       2.084
       2.130
       2.166
       2.186
       2.180
       2.137
       2.050
       1.919
       1.746
       1.533
       1.279
       0.988
       0.668
       0.333
      -0.004
      -0.331
      -0.640
      -0.931
      -1.202
      -1.450
      -1.670
      -1.850
      -1.979
      -2.051
      -2.071
      -2.055
      -2.017
      -1.968
      -1.908
      -1.840
      -1.774
      -1.721
      -1.687
      -1.668
      -1.652
      -1.625
      -1.577
      -1.507
      -1.414
      -1.295
      -1.144
      -0.958
      -0.737
      -0.488
      -0.219
       0.059
       0.338
       0.612
       0.879
       1.141
       1.392
       1.624
       1.823
       1.981
       2.100
       2.189
       2.251
       2.279
       2.261
       2.187
       2.064
       1.912
       1.756
       1.613
       1.486
       1.371
       1.266
       1.177
       1.114
       1.082
       1.077
       1.090
       1.109
       1.132
       1.162
       1.207
       1.263
       1.316
       1.353
       1.364
       1.353
       1.330
       1.310
       1.298
       1.295
       1.295
       1.292
       1.281
       1.267
       1.252
       1.237
       1.219
       1.195
       1.167
       1.144
       1.136
       1.145
       1.163
       1.174
       1.166
       1.135
       1.083
       1.020
       0.946
       0.856
       0.742
       0.599
       0.432
       0.250
       0.060
      -0.144
      -0.371
      -0.627
      -0.908
      -1.200
      -1.486
      -1.761
      -2.030
      -2.303
      -2.585
      -2.867
      -3.133
      -3.367
      -3.564
      -3.727
      -3.864
      -3.978
      -4.068
      -4.127
      -4.150
      -4.138
      -4.102
      -4.050
      -3.977
      -3.867
      -3.698
      -3.457
      -3.150
      -2.794
      -2.408
      -1.999
      -1.564
      -1.106
      -0.635
      -0.170
       0.273
       0.682
       1.054
       1.394
       1.704
       1.981
       2.217
       2.404
       2.540
       2.633
       2.695
       2.735
       2.754
       2.749
       2.718
       2.665
       2.598
       2.524
       2.445
       2.357
       2.257
       2.141
       2.016
       1.887
       1.759
       1.628
       1.488
       1.337
       1.178
       1.021
       0.876
       0.746
       0.628
       0.512
       0.389
       0.257
       0.121
      -0.009
      -0.127
      -0.231
      -0.325
      -0.416
      -0.506
      -0.590
      -0.664
      -0.731
      -0.800
      -0.883
      -0.983
      -1.094
      -1.201
      -1.292
      -1.358
      -1.396
      -1.408
      -1.397
      -1.359
      -1.289
      -1.187
      -1.065
      -0.939
      -0.832
      -0.756
      -0.709
      -0.690
      -0.695
      -0.732
      -0.807
      -0.924
      -1.075
      -1.247
      -1.426
      -1.602
      -1.772
      -1.928
      -2.062
      -2.155
      -2.190
      -2.159
      -2.065
      -1.919
      -1.736
      -1.524
      -1.285
      -1.018
      -0.733
      -0.442
      -0.159
       0.108
       0.361
       0.606
       0.845
       1.070
       1.269
       1.437
       1.580
       1.715
       1.856
       2.001
       2.138
       2.250
       2.331
       2.382
       2.412
       2.427
       2.430
       2.417
       2.381
       2.319
       2.227
       2.107
       1.958
       1.774
       1.547
       1.267
       0.936
       0.563
       0.163
      -0.253
      -0.683
      -1.125
      -1.569
      -1.999
      -2.394
      -2.739
      -3.030
      -3.269
      -3.464
      -3.616
      -3.727
      -3.795
      -3.826
      -3.824
      -3.794
      -3.736
      -3.651
      -3.537
      -3.398
      -3.235
      -3.054
      -2.859
      -2.652
      -2.430
      -2.189
      -1.924
      -1.634
      -1.322
      -0.995
      -0.656
      -0.301
       0.076
       0.482
       0.912
       1.351
       1.783
       2.195
       2.584
       2.951
       3.294
       3.603
       3.864
       4.073
       4.236
       4.364
       4.463
       4.527
       4.547
       4.514
       4.424
       4.281
       4.092
       3.867
       3.616
       3.342
       3.047
       2.730
       2.396
       2.062
       1.745
       1.460
       1.206
       0.977
       0.765
       0.570
       0.401
       0.260
       0.143
       0.038
      -0.068
      -0.180
      -0.290
      -0.390
      -0.472
      -0.537
      -0.589
      -0.626
      -0.641
      -0.625
      -0.573
      -0.485
      -0.368
      -0.227
      -0.068
       0.112
       0.315
       0.543
       0.790
       1.043
       1.285
       1.506
       1.703
       1.876
       2.017
       2.113
       2.151
       2.126
       2.043
       1.915
       1.757
       1.575
       1.371
       1.145
       0.896
       0.627
       0.337
       0.021
      -0.328
      -0.710
      -1.118
      -1.538
      -1.946
      -2.324
      -2.659
      -2.944
      -3.180
      -3.367
      -3.501
      -3.575
      -3.581
      -3.522
      -3.407
      -3.256
      -3.091
      -2.927
      -2.773
      -2.641
      -2.547
      -2.508
      -2.533
      -2.617
      -2.738
      -2.869
      -2.995
      -3.112
      -3.220
      -3.320
      -3.401
      -3.452
      -3.467
      -3.446
      -3.393
      -3.305
      -3.168
      -2.966
      -2.685
      -2.328
      -1.904
      -1.428
      -0.915
      -0.373
       0.189
       0.765
       1.346
       1.921
       2.473
       2.983
       3.435
       3.816
       4.124
       4.360
       4.528
       4.636
       4.688
       4.690
       4.644
       4.551
       4.412
       4.231
       4.019
       3.791
       3.566
       3.361
       3.187
       3.041
       2.920
       2.820
       2.748
       2.708
       2.700
       2.712
       2.732
       2.749
       2.760
       2.770
       2.788
       2.820
       2.861
       2.901
       2.932
       2.951
       2.961
       2.968
       2.966
       2.942
       2.880
       2.770
       2.610
       2.401
       2.142
       1.831
       1.465
       1.050
       0.596
       0.118
      -0.368
      -0.851
      -1.326
      -1.792
      -2.246
      -2.681
      -3.085
      -3.447
      -3.760
      -4.023
      -4.245
      -4.437
      -4.607
      -4.759
      -4.892
      -5.003
      -5.098
      -5.185
      -5.272
      -5.356
      -5.427
      -5.483
      -5.530
      -5.574
      -5.615
      -5.643
      -5.640
      -5.600
      -5.530
      -5.441
      -5.339
      -5.219
      -5.068
      -4.870
      -4.618
      -4.312
      -3.956
      -3.553
      -3.111
      -2.631
      -2.115
      -1.568
      -0.998
      -0.420
       0.151
       0.704
       1.227
       1.714
       2.154
       2.536
       2.850
       3.093
       3.276
       3.420
       3.541
       3.647
       3.736
       3.805
       3.853
       3.881
       3.893
       3.889
       3.864
       3.811
       3.722
       3.591
       3.418
       3.209
       2.974
       2.722
       2.460
       2.194
       1.930
       1.678
       1.444
       1.238
       1.068
       0.945
       0.873
       0.853
       0.883
       0.957
       1.061
       1.179
       1.291
       1.385
       1.455
       1.500
       1.513
       1.483
       1.398
       1.260
       1.081
       0.879
       0.667
       0.452
       0.235
       0.019
      -0.199
      -0.419
      -0.640
      -0.856
      -1.062
      -1.256
      -1.438
      -1.607
      -1.757
      -1.879
      -1.970
      -2.034
      -2.078
      -2.107
      -2.118
      -2.098
      -2.037
      -1.941
      -1.829
      -1.721
      -1.631
      -1.563
      -1.515
      -1.485
      -1.478
      -1.489
      -1.514
      -1.541
      -1.560
      -1.566
      -1.557
      -1.530
      -1.481
      -1.404
      -1.293
      -1.141
      -0.941
      -0.693
      -0.402
      -0.079
       0.265
       0.623
       0.993
       1.373
       1.759
       2.140
       2.504
       2.845
       3.158
       3.443
       3.696
       3.912
       4.088
       4.225
       4.330
       4.413
       4.479
       4.524
       4.538
       4.514
       4.458
       4.380
       4.294
       4.206
       4.111
       4.002
       3.878
       3.752
       3.641
       3.560
       3.512
       3.482
       3.448
       3.387
       3.281
       3.123
       2.908
       2.629
       2.279
       1.854
       1.356
       0.799
       0.200
      -0.422
      -1.053
      -1.678
      -2.279
      -2.841
      -3.349
      -3.799
      -4.194
      -4.539
      -4.831
      -5.059
      -5.216
      -5.292
      -5.283
      -5.192
      -5.022
      -4.787
      -4.498
      -4.163
      -3.783
      -3.361
      -2.906
      -2.435
      -1.965
      -1.509
      -1.069
      -0.648
      -0.251
       0.115
       0.438
       0.709
       0.922
       1.078
       1.179
       1.225
       1.212
       1.132
       0.979
       0.762
       0.499
       0.214
      -0.078
      -0.368
      -0.651
      -0.919
      -1.162
      -1.367
      -1.526
      -1.635
      -1.691
      -1.690
      -1.629
      -1.506
      -1.326
      -1.103
      -0.863
      -0.634
      -0.439
      -0.287
      -0.178
      -0.107
      -0.079
      -0.102
      -0.186
      -0.330
      -0.520
      -0.736
      -0.958
      -1.180
      -1.399
      -1.610
      -1.801
      -1.952
      -2.051
      -2.090
      -2.072
      -1.999
      -1.873
      -1.694
      -1.465
      -1.198
      -0.909
      -0.609
      -0.306
       0.000
       0.310
       0.625
       0.947
       1.275
       1.607
       1.941
       2.276
       2.614
       2.950
       3.267
       3.545
       3.767
       3.921
       4.003
       4.017
       3.960
       3.823
       3.593
       3.267
       2.854
       2.377
       1.863
       1.329
       0.778
       0.211
      -0.368
      -0.947
      -1.509
      -2.043
      -2.551
      -3.040
      -3.520
      -3.995
      -4.463
      -4.918
      -5.355
      -5.769
      -6.153
      -6.498
      -6.790
      -7.026
      -7.206
      -7.340
      -7.433
      -7.483
      -7.488
      -7.451
      -7.382
      -7.287
      -7.169
      -7.024
      -6.848
      -6.643
      -6.410
      -6.147
      -5.845
      -5.499
      -5.111
      -4.689
      -4.235
      -3.745
      -3.209
      -2.625
      -2.001
      -1.348
      -0.679
       0.004
       0.705
       1.427
       2.160
       2.889
       3.592
       4.255
       4.865
       5.413
       5.889
       6.285
       6.603
       6.853
       7.054
       7.226
       7.379
       7.509
       7.606
       7.661
       7.672
       7.645
       7.585
       7.487
       7.343
       7.146
       6.895
       6.599
       6.272
       5.932
       5.591
       5.251
       4.901
       4.529
       4.133
       3.730
       3.341
       2.982
       2.653
       2.344
       2.042
       1.738
       1.424
       1.092
       0.737
       0.353
      -0.057
      -0.484
      -0.915
      -1.336
      -1.735
      -2.105
      -2.442
      -2.747
      -3.020
      -3.251
      -3.419
      -3.506
      -3.501
      -3.418
      -3.276
      -3.092
      -2.868
      -2.603
      -2.301
      -1.970
      -1.621
      -1.264
      -0.907
      -0.557
      -0.217
       0.110
       0.426
       0.731
       1.023
       1.300
       1.556
       1.783
       1.977
       2.132
       2.243
       2.308
       2.328
       2.312
       2.262
       2.176
       2.045
       1.861
       1.627
       1.365
       1.103
       0.863
       0.656
       0.479
       0.327
       0.194
       0.082
      -0.009
      -0.079
      -0.135
      -0.186
      -0.242
      -0.301
      -0.353
      -0.390
      -0.407
      -0.405
      -0.385
      -0.347
      -0.289
      -0.210
      -0.113
       0.000
       0.121
       0.244
       0.364
       0.476
       0.574
       0.647
       0.685
       0.687
       0.656
       0.605
       0.547
       0.488
       0.433
       0.390
       0.369
       0.383
       0.436
       0.530
       0.655
       0.796
       0.936
       1.056
       1.148
       1.206
       1.226
       1.199
       1.107
       0.931
       0.664
       0.320
      -0.071
      -0.471
      -0.851
      -1.192
      -1.484
      -1.722
      -1.898
      -2.011
      -2.066
      -2.075
      -2.051
      -2.005
      -1.948
      -1.883
      -1.813
      -1.745
      -1.689
      -1.664
      -1.688
      -1.775
      -1.927
      -2.140
      -2.398
      -2.687
      -2.986
      -3.278
      -3.546
      -3.776
      -3.968
      -4.124
      -4.253
      -4.357
      -4.433
      -4.474
      -4.480
      -4.457
      -4.414
      -4.359
      -4.294
      -4.216
      -4.125
      -4.025
      -3.921
      -3.819
      -3.715
      -3.602
      -3.468
      -3.309
      -3.125
      -2.921
      -2.702
      -2.467
      -2.208
      -1.921
      -1.606
      -1.275
      -0.942
      -0.616
      -0.305
      -0.009
       0.265
       0.507
       0.704
       0.849
       0.943
       0.996
       1.026
       1.051
       1.084
       1.136
       1.212
       1.323
       1.475
       1.674
       1.922
       2.215
       2.543
       2.894
       3.251
       3.601
       3.934
       4.239
       4.503
       4.709
       4.850
       4.930
       4.964
       4.970
       4.956
       4.926
       4.878
       4.814
       4.740
       4.670
       4.612
       4.566
       4.527
       4.484
       4.429
       4.353
       4.247
       4.098
       3.894
       3.633
       3.310
       2.928
       2.489
       2.006
       1.490
       0.956
       0.420
      -0.101
      -0.586
      -1.013
      -1.367
      -1.643
      -1.843
      -1.975
      -2.045
      -2.062
      -2.034
      -1.975
      -1.901
      -1.827
      -1.761
      -1.705
      -1.653
      -1.604
      -1.558
      -1.516
      -1.476
      -1.426
      -1.352
      -1.242
      -1.098
      -0.934
      -0.769
      -0.620
      -0.494
      -0.389
      -0.300
      -0.228
      -0.177
      -0.156
      -0.172
      -0.228
      -0.324
      -0.459
      -0.631
      -0.835
      -1.058
      -1.285
      -1.498
      -1.686
      -1.839
      -1.956
      -2.035
      -2.074
      -2.064
      -1.997
      -1.869
      -1.687
      -1.467
      -1.227
      -0.978
      -0.720
      -0.445
      -0.152
       0.153
       0.458
       0.749
       1.018
       1.264
       1.489
       1.688
       1.860
       2.000
       2.109
       2.192
       2.261
       2.329
       2.410
       2.509
       2.625
       2.749
       2.872
       2.991
       3.106
       3.218
       3.322
       3.410
       3.474
       3.509
       3.511
       3.470
       3.382
       3.242
       3.053
       2.822
       2.564
       2.293
       2.022
       1.758
       1.507
       1.273
       1.059
       0.871
       0.711
       0.581
       0.479
       0.398
       0.330
       0.267
       0.203
       0.134
       0.054
      -0.048
      -0.183
      -0.361
      -0.582
      -0.840
      -1.127
      -1.437
      -1.760
      -2.088
      -2.410
      -2.712
      -2.985
      -3.222
      -3.418
      -3.567
      -3.660
      -3.683
      -3.625
      -3.486
      -3.282
      -3.036
      -2.772
      -2.504
      -2.239
      -1.980
      -1.735
      -1.513
      -1.317
      -1.149
      -1.006
      -0.884
      -0.780
      -0.700
      -0.648
      -0.626
      -0.625
      -0.628
      -0.614
      -0.570
      -0.492
      -0.385
      -0.255
      -0.101
       0.081
       0.294
       0.536
       0.798
       1.066
       1.329
       1.579
       1.814
       2.035
       2.243
       2.440
       2.624
       2.792
       2.940
       3.069
       3.177
       3.260
       3.311
       3.323
       3.295
       3.233
       3.147
       3.043
       2.920
       2.773
       2.601
       2.411
       2.210
       1.998
       1.765
       1.495
       1.186
       0.849
       0.500
       0.156
      -0.176
      -0.495
      -0.799
      -1.082
      -1.335
      -1.551
      -1.729
      -1.874
      -1.999
      -2.117
      -2.235
      -2.350
      -2.451
      -2.526
      -2.572
      -2.598
      -2.613
      -2.623
      -2.623
      -2.604
      -2.564
      -2.506
      -2.444
      -2.391
      -2.356
      -2.334
      -2.315
