Origin Time       14/03/2010 6:53:21	 UTC
Lat.              31.7 N	
Long.             76.1 E	
Depth (Km)         29.0
Magnitude         4.6
 Region           HIMACHAL-PUNJAB-(HOSHIARPUR)-BORDER                              
 Above details taken from IMD 
    
Station Code      DAS
Station Lat.       31.805  N
Station Long.      75.660  E
Station Height(m)    1.0
Site Class        C   Vs30 between 200 m/sec to 375 m/sec *  
Record Time       14.03.2010 06:53:15.524 UTC
Sampling Rate     200. Hz
 Record Duration   72.545 Sec.
 Direction         N-S (N positive)
Max. Acceleration     16.017 cm/sec**2
     
  * For reference see Site Classification link of website 
     
 Base Line Corrected and Low Pass Filtered (Cut Off at 35 Hz) Time History
 Acceleration data in cm/sec**2
    
[...]
       0.660
       0.663
       0.635
       0.585
       0.506
       0.391
       0.261
       0.157
       0.118
       0.132
       0.138
       0.064
      -0.109
      -0.309
      -0.417
      -0.351
      -0.137
       0.105
       0.242
       0.226
       0.119
       0.040
       0.081
       0.249
       0.478
       0.685
       0.830
       0.935
       1.039
       1.151
       1.217
       1.161
       0.954
       0.648
       0.351
       0.151
       0.062
       0.017
      -0.066
      -0.230
      -0.446
      -0.652
      -0.805
      -0.913
      -1.015
      -1.123
      -1.198
      -1.176
      -1.026
      -0.777
      -0.500
      -0.265
      -0.121
      -0.096
      -0.188
      -0.360
      -0.527
      -0.590
      -0.491
      -0.252
       0.041
       0.282
       0.406
       0.404
       0.311
       0.176
       0.041
      -0.062
      -0.102
      -0.058
       0.071
       0.260
       0.458
       0.602
       0.647
       0.582
       0.440
       0.285
       0.176
       0.139
       0.164
       0.215
       0.258
       0.264
       0.204
       0.049
      -0.209
      -0.526
      -0.819
      -0.994
      -0.992
      -0.810
      -0.503
      -0.169
       0.084
       0.165
       0.049
      -0.212
      -0.491
      -0.641
      -0.569
      -0.284
       0.106
       0.463
       0.698
       0.814
       0.869
       0.910
       0.918
       0.831
       0.599
       0.251
      -0.102
      -0.319
      -0.320
      -0.154
       0.019
       0.032
      -0.174
      -0.508
      -0.792
      -0.888
      -0.780
      -0.561
      -0.353
      -0.224
      -0.159
      -0.101
      -0.010
       0.104
       0.202
       0.267
       0.328
       0.440
       0.627
       0.851
       1.030
       1.091
       1.008
       0.805
       0.539
       0.283
       0.095
      -0.006
      -0.055
      -0.115
      -0.229
      -0.381
      -0.518
      -0.592
      -0.601
      -0.570
      -0.525
      -0.462
      -0.367
      -0.239
      -0.116
      -0.062
      -0.122
      -0.286
      -0.479
      -0.598
      -0.577
      -0.422
      -0.199
       0.017
       0.199
       0.363
       0.526
       0.661
       0.701
       0.586
       0.332
       0.044
      -0.140
      -0.143
       0.000
       0.169
       0.264
       0.271
       0.242
       0.218
       0.174
       0.042
      -0.207
      -0.512
      -0.737
      -0.757
      -0.540
      -0.169
       0.202
       0.445
       0.508
       0.435
       0.315
       0.227
       0.208
       0.237
       0.269
       0.263
       0.213
       0.137
       0.053
      -0.049
      -0.203
      -0.423
      -0.670
      -0.858
      -0.903
      -0.780
      -0.548
      -0.312
      -0.152
      -0.079
      -0.041
       0.033
       0.169
       0.334
       0.455
       0.476
       0.410
       0.324
       0.281
       0.282
       0.268
       0.177
       0.013
      -0.160
      -0.268
      -0.288
      -0.256
      -0.233
      -0.250
      -0.294
      -0.336
      -0.358
      -0.364
      -0.358
      -0.321
      -0.219
      -0.038
       0.182
       0.365
       0.455
       0.458
       0.433
       0.430
       0.449
       0.443
       0.373
       0.250
       0.124
       0.053
       0.062
       0.123
       0.171
       0.141
       0.001
      -0.217
      -0.435
      -0.571
      -0.578
      -0.468
      -0.299
      -0.153
      -0.100
      -0.171
      -0.332
      -0.494
      -0.547
      -0.428
      -0.170
       0.115
       0.311
       0.385
       0.402
       0.453
       0.560
       0.658
       0.669
       0.585
       0.480
       0.430
       0.448
       0.482
       0.479
       0.423
       0.331
       0.210
       0.056
      -0.133
      -0.329
      -0.487
      -0.574
      -0.584
      -0.534
      -0.437
      -0.305
      -0.168
      -0.072
      -0.047
      -0.072
      -0.074
       0.018
       0.209
       0.419
       0.532
       0.479
       0.293
       0.065
      -0.138
      -0.313
      -0.488
      -0.647
      -0.715
      -0.620
      -0.367
      -0.047
       0.213
       0.324
       0.265
       0.071
      -0.191
      -0.445
      -0.616
      -0.647
      -0.524
      -0.291
      -0.022
       0.216
       0.393
       0.509
       0.559
       0.530
       0.420
       0.268
       0.145
       0.113
       0.181
       0.304
       0.411
       0.447
       0.391
       0.260
       0.091
      -0.079
      -0.231
      -0.368
      -0.496
      -0.597
      -0.630
      -0.565
      -0.413
      -0.231
      -0.077
       0.035
       0.136
       0.260
       0.409
       0.540
       0.601
       0.572
       0.471
       0.340
       0.212
       0.106
       0.026
      -0.025
      -0.050
      -0.064
      -0.099
      -0.179
      -0.300
      -0.425
      -0.521
      -0.586
      -0.634
      -0.659
      -0.615
      -0.457
      -0.197
       0.085
       0.299
       0.420
       0.493
       0.582
       0.694
       0.762
       0.704
       0.514
       0.292
       0.179
       0.226
       0.338
       0.333
       0.101
      -0.283
      -0.613
      -0.721
      -0.620
      -0.483
      -0.483
      -0.648
      -0.846
      -0.914
      -0.786
      -0.529
      -0.270
      -0.097
      -0.006
       0.074
       0.216
       0.438
       0.681
       0.846
       0.862
       0.741
       0.577
       0.487
       0.523
       0.628
       0.665
       0.523
       0.211
      -0.131
      -0.332
      -0.322
      -0.189
      -0.106
      -0.187
      -0.400
      -0.607
      -0.677
      -0.588
      -0.433
      -0.339
      -0.356
      -0.424
      -0.422
      -0.277
      -0.031
       0.187
       0.255
       0.153
      -0.026
      -0.137
      -0.077
       0.151
       0.437
       0.633
       0.641
       0.466
       0.205
      -0.017
      -0.123
      -0.115
      -0.046
       0.029
       0.075
       0.081
       0.050
      -0.001
      -0.045
      -0.071
      -0.104
      -0.183
      -0.320
      -0.466
      -0.541
      -0.491
      -0.329
      -0.127
       0.036
       0.121
       0.149
       0.173
       0.238
       0.348
       0.461
       0.511
       0.456
       0.308
       0.140
       0.050
       0.095
       0.240
       0.362
       0.338
       0.136
      -0.155
      -0.399
      -0.508
      -0.491
      -0.419
      -0.346
      -0.263
      -0.109
       0.168
       0.540
       0.881
       1.030
       0.894
       0.521
       0.077
      -0.265
      -0.434
      -0.482
      -0.500
      -0.532
      -0.551
      -0.526
      -0.478
      -0.476
      -0.565
      -0.715
      -0.834
      -0.825
      -0.644
      -0.324
       0.045
       0.361
       0.566
       0.674
       0.741
       0.807
       0.858
       0.844
       0.736
       0.562
       0.391
       0.278
       0.219
       0.156
       0.028
      -0.174
      -0.382
      -0.499
      -0.474
      -0.351
      -0.245
      -0.252
      -0.376
      -0.525
      -0.588
      -0.512
      -0.341
      -0.180
      -0.106
      -0.120
      -0.141
      -0.080
       0.085
       0.283
       0.403
       0.387
       0.277
       0.192
       0.246
       0.467
       0.773
       1.026
       1.114
       1.016
       0.788
       0.518
       0.262
       0.033
      -0.168
      -0.326
      -0.428
      -0.495
      -0.580
      -0.726
      -0.917
      -1.081
      -1.141
      -1.072
      -0.896
      -0.645
      -0.328
       0.049
       0.442
       0.762
       0.912
       0.861
       0.673
       0.461
       0.323
       0.305
       0.405
       0.591
       0.799
       0.937
       0.923
       0.735
       0.429
       0.099
      -0.200
      -0.468
      -0.724
      -0.951
      -1.087
      -1.090
      -0.985
      -0.861
      -0.794
      -0.786
      -0.770
      -0.686
      -0.539
      -0.406
      -0.359
      -0.391
      -0.402
      -0.272
       0.043
       0.473
       0.889
       1.184
       1.317
       1.274
       1.035
       0.596
       0.032
      -0.489
      -0.786
      -0.781
      -0.550
      -0.261
      -0.047
       0.076
       0.173
       0.282
       0.352
       0.288
       0.070
      -0.203
      -0.377
      -0.364
      -0.192
       0.049
       0.290
       0.510
       0.699
       0.820
       0.827
       0.712
       0.533
       0.373
       0.267
       0.166
      -0.003
      -0.245
      -0.469
      -0.565
      -0.513
      -0.419
      -0.431
      -0.614
      -0.896
      -1.112
      -1.119
      -0.897
      -0.544
      -0.209
       0.018
       0.147
       0.244
       0.352
       0.447
       0.463
       0.364
       0.187
       0.015
      -0.070
      -0.024
       0.144
       0.387
       0.624
       0.751
       0.686
       0.412
       0.017
      -0.336
      -0.487
      -0.370
      -0.047
       0.320
       0.562
       0.593
       0.459
       0.284
       0.166
       0.098
      -0.017
      -0.266
      -0.626
      -0.958
      -1.091
      -0.936
      -0.531
      -0.006
       0.497
       0.878
       1.091
       1.119
       0.966
       0.663
       0.266
      -0.157
      -0.550
      -0.856
      -1.007
      -0.922
      -0.568
      -0.027
       0.502
       0.804
       0.790
       0.542
       0.224
      -0.049
      -0.271
      -0.494
      -0.727
      -0.900
      -0.917
      -0.738
      -0.426
      -0.113
       0.088
       0.156
       0.160
       0.190
       0.272
       0.344
       0.317
       0.166
      -0.029
      -0.144
      -0.107
       0.061
       0.275
       0.458
       0.579
       0.643
       0.663
       0.634
       0.525
       0.304
      -0.018
      -0.353
      -0.571
      -0.571
      -0.354
      -0.039
       0.207
       0.276
       0.174
      -0.009
      -0.190
      -0.358
      -0.563
      -0.832
      -1.109
      -1.276
      -1.232
      -0.970
      -0.585
      -0.199
       0.121
       0.385
       0.632
       0.859
       1.016
       1.055
       0.972
       0.815
       0.632
       0.441
       0.250
       0.090
       0.022
       0.084
       0.248
       0.420
       0.507
       0.484
       0.400
       0.318
       0.247
       0.132
      -0.086
      -0.401
      -0.727
      -0.964
      -1.063
      -1.052
      -1.001
      -0.957
      -0.913
      -0.821
      -0.635
      -0.363
      -0.077
       0.122
       0.181
       0.144
       0.134
       0.248
       0.465
       0.650
       0.662
       0.486
       0.257
       0.145
       0.214
       0.382
       0.502
       0.490
       0.367
       0.203
       0.044
      -0.105
      -0.240
      -0.331
      -0.331
      -0.226
      -0.052
       0.131
       0.295
       0.449
       0.589
       0.657
       0.552
       0.221
      -0.258
      -0.691
      -0.872
      -0.715
      -0.305
       0.164
       0.498
       0.601
       0.493
       0.261
       0.006
      -0.194
      -0.305
      -0.328
      -0.298
      -0.271
      -0.286
      -0.339
      -0.372
      -0.306
      -0.108
       0.168
       0.409
       0.523
       0.507
       0.435
       0.377
       0.327
       0.217
      -0.006
      -0.311
      -0.588
      -0.717
      -0.631
      -0.348
       0.040
       0.401
       0.620
       0.649
       0.508
       0.264
      -0.012
      -0.266
      -0.451
      -0.522
      -0.455
      -0.272
      -0.047
       0.131
       0.203
       0.164
       0.048
      -0.096
      -0.225
      -0.304
      -0.307
      -0.224
      -0.062
       0.144
       0.333
       0.437
       0.429
       0.347
       0.263
       0.219
       0.189
       0.114
      -0.019
      -0.157
      -0.230
      -0.221
      -0.188
      -0.210
      -0.320
      -0.472
      -0.580
      -0.578
      -0.460
      -0.275
      -0.089
       0.054
       0.138
       0.158
       0.111
       0.015
      -0.078
      -0.101
      -0.022
       0.127
       0.278
       0.388
       0.471
       0.566
       0.683
       0.781
       0.798
       0.701
       0.507
       0.261
       0.006
      -0.231
      -0.436
      -0.595
      -0.704
      -0.771
      -0.822
      -0.877
      -0.943
      -1.015
      -1.083
      -1.139
      -1.178
      -1.216
      -1.310
      -1.547
      -1.994
      -2.616
      -3.266
      -3.761
      -4.008
      -4.062
      -4.071
      -4.138
      -4.244
      -4.275
      -4.141
      -3.870
      -3.581
      -3.372
      -3.206
      -2.899
      -2.221
      -1.039
       0.603
       2.511
       4.440
       6.203
       7.704
       8.922
       9.863
      10.525
      10.897
      10.970
      10.752
      10.281
       9.613
       8.800
       7.855
       6.753
       5.446
       3.883
       2.029
      -0.113
      -2.466
      -4.861
      -7.054
      -8.797
      -9.925
     -10.399
     -10.290
      -9.703
      -8.705
      -7.320
      -5.586
      -3.619
      -1.607
       0.275
       1.935
       3.345
       4.440
       5.048
       4.944
       4.019
       2.400
       0.419
      -1.561
      -3.320
      -4.807
      -6.031
      -6.954
      -7.499
      -7.661
      -7.550
      -7.307
      -6.961
      -6.378
      -5.369
      -3.828
      -1.802
       0.553
       3.061
       5.583
       8.035
      10.365
      12.500
      14.295
      15.533
      16.017
      15.707
      14.756
      13.403
      11.802
       9.956
       7.842
       5.561
       3.362
       1.484
      -0.005
      -1.222
      -2.347
      -3.482
      -4.623
      -5.737
      -6.808
      -7.805
      -8.627
      -9.116
      -9.153
      -8.743
      -8.012
      -7.115
      -6.159
      -5.194
      -4.272
      -3.480
      -2.898
      -2.534
      -2.294
      -2.021
      -1.577
      -0.907
      -0.069
       0.795
       1.515
       1.961
       2.082
       1.906
       1.522
       1.066
       0.700
       0.589
       0.849
       1.500
       2.448
       3.514
       4.508
       5.281
       5.752
       5.894
       5.725
       5.316
       4.788
       4.288
       3.932
       3.734
       3.574
       3.230
       2.478
       1.205
      -0.517
      -2.468
      -4.378
      -6.041
      -7.354
      -8.284
      -8.819
      -8.955
      -8.715
      -8.191
      -7.529
      -6.879
      -6.307
      -5.760
      -5.126
      -4.324
      -3.349
      -2.237
      -1.016
       0.275
       1.529
       2.557
       3.189
       3.408
       3.381
       3.333
       3.368
       3.398
       3.233
       2.756
       2.025
       1.248
       0.656
       0.373
       0.376
       0.546
       0.761
       0.942
       1.042
       1.022
       0.856
       0.555
       0.172
      -0.230
      -0.587
      -0.820
      -0.825
      -0.508
       0.127
       0.925
       1.622
       1.977
       1.903
       1.484
       0.889
       0.251
      -0.374
      -0.976
      -1.536
      -2.000
      -2.305
      -2.399
      -2.278
      -2.001
      -1.683
      -1.442
      -1.329
      -1.293
      -1.230
      -1.054
      -0.743
      -0.306
       0.272
       1.032
       1.979
       3.025
       3.987
       4.685
       5.026
       5.044
       4.850
       4.544
       4.145
       3.589
       2.807
       1.818
       0.749
      -0.245
      -1.081
      -1.794
      -2.469
      -3.126
      -3.673
      -3.968
      -3.942
      -3.665
      -3.298
      -2.972
      -2.703
      -2.406
      -1.983
      -1.391
      -0.669
       0.097
       0.807
       1.388
       1.812
       2.081
       2.208
       2.191
       2.025
       1.731
       1.378
       1.070
       0.894
       0.868
       0.917
       0.894
       0.650
       0.127
      -0.593
      -1.322
      -1.860
      -2.090
      -2.002
      -1.652
      -1.130
      -0.536
       0.030
       0.497
       0.838
       1.063
       1.189
       1.228
       1.208
       1.192
       1.262
       1.450
       1.680
       1.775
       1.554
       0.961
       0.124
      -0.730
      -1.410
      -1.846
      -2.063
      -2.103
      -1.987
      -1.742
      -1.437
      -1.168
      -1.013
      -0.998
      -1.085
      -1.202
      -1.263
      -1.178
      -0.872
      -0.320
       0.407
       1.131
       1.632
       1.752
       1.498
       1.038
       0.598
       0.316
       0.186
       0.108
       0.009
      -0.100
      -0.173
      -0.213
      -0.294
      -0.486
      -0.754
      -0.953
      -0.924
      -0.611
      -0.096
       0.459
       0.916
       1.221
       1.388
       1.451
       1.424
       1.302
       1.078
       0.762
       0.384
      -0.021
      -0.435
      -0.844
      -1.221
      -1.502
      -1.615
      -1.540
      -1.356
      -1.206
      -1.199
      -1.304
      -1.360
      -1.203
      -0.798
      -0.283
       0.150
       0.397
       0.525
       0.696
       1.038
       1.552
       2.122
       2.598
       2.866
       2.874
       2.619
       2.127
       1.456
       0.697
      -0.038
      -0.658
      -1.133
      -1.489
      -1.754
      -1.914
      -1.925
      -1.785
      -1.594
      -1.521
      -1.666
      -1.953
      -2.147
      -2.004
      -1.436
      -0.557
       0.414
       1.306
       2.070
       2.724
       3.257
       3.572
       3.532
       3.061
       2.214
       1.165
       0.142
      -0.663
      -1.138
      -1.282
      -1.192
      -1.036
      -0.979
      -1.107
      -1.395
      -1.739
      -2.012
      -2.113
      -1.967
      -1.527
      -0.792
       0.169
       1.213
       2.149
       2.801
       3.072
       2.989
       2.681
       2.291
       1.893
       1.464
       0.948
       0.337
      -0.285
      -0.793
      -1.110
      -1.264
      -1.365
      -1.513
      -1.711
      -1.870
      -1.877
      -1.694
      -1.394
      -1.108
      -0.924
      -0.835
      -0.756
      -0.611
      -0.386
      -0.144
       0.016
       0.027
      -0.089
      -0.216
      -0.203
       0.032
       0.449
       0.919
       1.325
       1.621
       1.805
       1.854
       1.702
       1.307
       0.722
       0.109
      -0.332
      -0.471
      -0.315
      -0.002
       0.295
       0.468
       0.517
       0.491
       0.408
       0.224
      -0.098
      -0.522
      -0.924
      -1.153
      -1.115
      -0.813
      -0.360
       0.067
       0.317
       0.354
       0.277
       0.224
       0.255
       0.321
       0.345
       0.323
       0.336
       0.454
       0.631
       0.712
       0.532
       0.049
      -0.626
      -1.297
      -1.809
      -2.124
      -2.280
      -2.313
      -2.206
      -1.934
      -1.541
      -1.144
      -0.870
      -0.771
      -0.806
      -0.887
      -0.929
      -0.871
      -0.684
      -0.386
      -0.046
       0.246
       0.462
       0.669
       0.989
       1.492
       2.135
       2.787
       3.307
       3.623
       3.740
       3.705
       3.543
       3.236
       2.744
       2.066
       1.281
       0.534
      -0.061
      -0.495
      -0.867
      -1.296
      -1.823
      -2.375
      -2.826
