Origin Time       14/03/2010 6:53:21	
Lat.              31.7 N	
Long.             76.1 E	
Depth (Km)         29.0
Magnitude         4.6
 Region           HIMACHAL-PUNJAB-(HOSHIARPUR)-BORDER                              
 Above details taken from IMD 
   
Station Code      DAS
Station Lat.       31.805
Station Long.      75.660
Station Height(m)    1.0
Site Class        C   Vs30 between 200 m/sec to 375 m/sec *  
Record Time       14.03.2010 06:53:15.524
Sampling Rate     200. Hz
 Record Duration   72.545 Sec.
 Direction         Vert. (Up positive)
Max. Acceleration    -14.248 cm/sec**2
     
  * For reference see Site Classification link of website 
     
 Base Line Corrected and Low Pass Filtered (Cut Off at 35 Hz) Time History
 Acceleration data in cm/sec**2
    
[...]
      -0.002
      -0.001
      -0.004
      -0.004
       0.003
       0.016
       0.026
       0.024
       0.009
      -0.012
      -0.031
      -0.042
      -0.046
      -0.042
      -0.033
      -0.018
       0.000
       0.016
       0.026
       0.027
       0.023
       0.017
       0.011
       0.004
      -0.005
      -0.013
      -0.017
      -0.015
      -0.008
       0.002
       0.014
       0.028
       0.041
       0.051
       0.057
       0.061
       0.061
       0.055
       0.041
       0.023
       0.005
      -0.009
      -0.018
      -0.023
      -0.022
      -0.018
      -0.010
       0.000
       0.010
       0.019
       0.026
       0.030
       0.029
       0.024
       0.014
       0.002
      -0.011
      -0.024
      -0.034
      -0.038
      -0.036
      -0.028
      -0.017
      -0.006
       0.001
       0.003
       0.003
       0.003
       0.005
       0.007
       0.004
      -0.003
      -0.012
      -0.017
      -0.016
      -0.007
       0.007
       0.022
       0.031
       0.035
       0.035
       0.038
       0.044
       0.050
       0.051
       0.042
       0.022
      -0.005
      -0.033
      -0.053
      -0.061
      -0.058
      -0.049
      -0.036
      -0.019
      -0.001
       0.013
       0.016
       0.011
       0.008
       0.012
       0.022
       0.028
       0.022
       0.005
      -0.016
      -0.029
      -0.030
      -0.020
      -0.005
       0.010
       0.021
       0.028
       0.032
       0.033
       0.034
       0.036
       0.039
       0.042
       0.041
       0.035
       0.025
       0.011
      -0.001
      -0.011
      -0.017
      -0.019
      -0.018
      -0.010
       0.002
       0.013
       0.017
       0.014
       0.008
       0.000
      -0.007
      -0.017
      -0.029
      -0.040
      -0.045
      -0.044
      -0.040
      -0.035
      -0.031
      -0.024
      -0.015
      -0.009
      -0.007
      -0.007
      -0.002
       0.009
       0.020
       0.022
       0.015
       0.003
      -0.006
      -0.005
       0.007
       0.023
       0.036
       0.042
       0.042
       0.037
       0.028
       0.017
       0.006
      -0.003
      -0.008
      -0.010
      -0.007
       0.001
       0.014
       0.028
       0.040
       0.047
       0.048
       0.044
       0.037
       0.028
       0.021
       0.014
       0.008
      -0.001
      -0.012
      -0.024
      -0.031
      -0.032
      -0.027
      -0.018
      -0.006
       0.006
       0.017
       0.023
       0.026
       0.026
       0.020
       0.010
      -0.004
      -0.016
      -0.021
      -0.018
      -0.012
      -0.010
      -0.012
      -0.010
      -0.001
       0.018
       0.039
       0.055
       0.063
       0.063
       0.058
       0.053
       0.045
       0.032
       0.014
      -0.006
      -0.025
      -0.038
      -0.043
      -0.039
      -0.027
      -0.012
      -0.004
      -0.006
      -0.016
      -0.025
      -0.028
      -0.025
      -0.021
      -0.018
      -0.019
      -0.026
      -0.036
      -0.047
      -0.058
      -0.064
      -0.062
      -0.049
      -0.030
      -0.010
       0.003
       0.004
       0.000
      -0.002
       0.006
       0.022
       0.042
       0.057
       0.062
       0.058
       0.045
       0.030
       0.019
       0.012
       0.012
       0.013
       0.012
       0.009
       0.004
       0.004
       0.012
       0.026
       0.041
       0.046
       0.038
       0.019
      -0.002
      -0.014
      -0.014
      -0.007
       0.000
       0.001
      -0.006
      -0.017
      -0.027
      -0.031
      -0.026
      -0.012
       0.008
       0.023
       0.023
       0.007
      -0.020
      -0.045
      -0.058
      -0.060
      -0.057
      -0.053
      -0.049
      -0.042
      -0.033
      -0.022
      -0.008
       0.008
       0.021
       0.026
       0.023
       0.015
       0.010
       0.007
       0.006
       0.006
       0.008
       0.013
       0.021
       0.028
       0.031
       0.029
       0.022
       0.013
       0.006
       0.005
       0.007
       0.005
      -0.001
      -0.011
      -0.019
      -0.020
      -0.013
       0.000
       0.012
       0.018
       0.013
      -0.003
      -0.026
      -0.045
      -0.054
      -0.051
      -0.042
      -0.030
      -0.021
      -0.015
      -0.012
      -0.009
      -0.006
      -0.001
       0.004
       0.008
       0.012
       0.015
       0.016
       0.012
       0.002
      -0.008
      -0.012
      -0.004
       0.011
       0.027
       0.037
       0.037
       0.028
       0.011
      -0.007
      -0.016
      -0.012
       0.000
       0.013
       0.017
       0.010
      -0.004
      -0.019
      -0.027
      -0.025
      -0.014
       0.000
       0.010
       0.010
      -0.003
      -0.023
      -0.041
      -0.048
      -0.042
      -0.028
      -0.015
      -0.010
      -0.013
      -0.019
      -0.021
      -0.014
       0.000
       0.017
       0.034
       0.050
       0.063
       0.069
       0.063
       0.047
       0.028
       0.017
       0.014
       0.015
       0.010
      -0.001
      -0.011
      -0.013
      -0.007
       0.003
       0.010
       0.013
       0.009
      -0.002
      -0.019
      -0.037
      -0.049
      -0.049
      -0.040
      -0.028
      -0.020
      -0.018
      -0.022
      -0.029
      -0.034
      -0.034
      -0.028
      -0.017
      -0.008
      -0.006
      -0.014
      -0.027
      -0.036
      -0.033
      -0.018
       0.005
       0.024
       0.031
       0.026
       0.014
       0.006
       0.005
       0.011
       0.018
       0.023
       0.023
       0.016
       0.006
      -0.003
      -0.006
       0.001
       0.019
       0.038
       0.050
       0.047
       0.031
       0.012
      -0.003
      -0.009
      -0.008
      -0.005
      -0.003
      -0.002
      -0.002
      -0.005
      -0.012
      -0.022
      -0.029
      -0.033
      -0.033
      -0.031
      -0.030
      -0.032
      -0.038
      -0.043
      -0.042
      -0.035
      -0.026
      -0.020
      -0.017
      -0.013
      -0.010
      -0.008
      -0.007
      -0.007
      -0.005
      -0.004
      -0.003
      -0.003
      -0.002
       0.001
       0.007
       0.013
       0.020
       0.028
       0.035
       0.040
       0.039
       0.036
       0.031
       0.026
       0.019
       0.009
      -0.004
      -0.014
      -0.016
      -0.006
       0.010
       0.025
       0.032
       0.029
       0.018
       0.003
      -0.014
      -0.030
      -0.046
      -0.058
      -0.064
      -0.065
      -0.059
      -0.047
      -0.030
      -0.013
       0.000
       0.004
       0.004
       0.004
       0.007
       0.008
       0.003
      -0.010
      -0.024
      -0.032
      -0.033
      -0.029
      -0.024
      -0.018
      -0.009
       0.006
       0.025
       0.043
       0.050
       0.041
       0.025
       0.010
       0.004
       0.007
       0.016
       0.023
       0.025
       0.020
       0.013
       0.008
       0.008
       0.013
       0.019
       0.023
       0.023
       0.017
       0.006
      -0.007
      -0.020
      -0.030
      -0.036
      -0.037
      -0.035
      -0.031
      -0.029
      -0.031
      -0.034
      -0.033
      -0.022
      -0.001
       0.023
       0.037
       0.035
       0.017
      -0.007
      -0.026
      -0.033
      -0.028
      -0.013
       0.003
       0.014
       0.015
       0.011
       0.007
       0.010
       0.021
       0.036
       0.049
       0.052
       0.044
       0.026
       0.003
      -0.019
      -0.031
      -0.030
      -0.018
      -0.006
      -0.003
      -0.011
      -0.023
      -0.029
      -0.022
      -0.008
       0.006
       0.012
       0.008
      -0.010
      -0.033
      -0.053
      -0.058
      -0.047
      -0.029
      -0.015
      -0.010
      -0.012
      -0.016
      -0.018
      -0.015
      -0.009
      -0.002
       0.004
       0.009
       0.012
       0.014
       0.016
       0.020
       0.023
       0.023
       0.017
       0.009
      -0.001
      -0.010
      -0.017
      -0.019
      -0.015
      -0.005
       0.010
       0.027
       0.039
       0.044
       0.039
       0.028
       0.015
       0.004
      -0.003
      -0.005
      -0.005
      -0.003
      -0.002
       0.001
       0.004
       0.007
       0.007
       0.003
      -0.003
      -0.011
      -0.017
      -0.018
      -0.014
      -0.005
       0.004
       0.010
       0.013
       0.013
       0.010
       0.002
      -0.008
      -0.019
      -0.030
      -0.039
      -0.044
      -0.045
      -0.041
      -0.033
      -0.021
      -0.011
      -0.008
      -0.013
      -0.022
      -0.026
      -0.018
      -0.003
       0.013
       0.024
       0.028
       0.028
       0.028
       0.027
       0.023
       0.013
      -0.002
      -0.018
      -0.030
      -0.034
      -0.030
      -0.022
      -0.011
       0.003
       0.016
       0.023
       0.019
       0.005
      -0.010
      -0.017
      -0.013
      -0.002
       0.009
       0.012
       0.008
      -0.005
      -0.020
      -0.030
      -0.031
      -0.022
      -0.008
      -0.001
      -0.005
      -0.018
      -0.028
      -0.028
      -0.016
      -0.002
       0.007
       0.008
       0.001
      -0.007
      -0.010
      -0.006
       0.003
       0.012
       0.015
       0.010
      -0.001
      -0.015
      -0.026
      -0.032
      -0.028
      -0.016
       0.000
       0.012
       0.015
       0.009
      -0.001
      -0.010
      -0.013
      -0.008
       0.003
       0.015
       0.021
       0.018
       0.009
       0.000
      -0.003
       0.002
       0.014
       0.025
       0.031
       0.029
       0.021
       0.009
      -0.004
      -0.016
      -0.023
      -0.020
      -0.009
       0.003
       0.008
       0.002
      -0.006
      -0.007
       0.003
       0.017
       0.024
       0.018
      -0.001
      -0.021
      -0.030
      -0.023
      -0.004
       0.017
       0.030
       0.031
       0.021
       0.002
      -0.018
      -0.033
      -0.039
      -0.033
      -0.022
      -0.013
      -0.011
      -0.017
      -0.025
      -0.029
      -0.023
      -0.013
      -0.003
       0.003
       0.004
       0.002
      -0.007
      -0.023
      -0.040
      -0.049
      -0.045
      -0.032
      -0.016
      -0.003
       0.007
       0.017
       0.024
       0.028
       0.031
       0.035
       0.041
       0.045
       0.043
       0.033
       0.020
       0.005
      -0.008
      -0.016
      -0.016
      -0.007
       0.008
       0.022
       0.030
       0.031
       0.025
       0.016
       0.006
      -0.005
      -0.015
      -0.023
      -0.029
      -0.033
      -0.034
      -0.035
      -0.035
      -0.032
      -0.023
      -0.009
       0.005
       0.013
       0.009
      -0.008
      -0.029
      -0.041
      -0.041
      -0.033
      -0.027
      -0.028
      -0.034
      -0.037
      -0.034
      -0.022
      -0.003
       0.018
       0.039
       0.051
       0.051
       0.041
       0.032
       0.031
       0.039
       0.047
       0.045
       0.027
       0.002
      -0.018
      -0.026
      -0.023
      -0.017
      -0.012
      -0.007
       0.001
       0.011
       0.017
       0.013
       0.000
      -0.015
      -0.021
      -0.018
      -0.010
      -0.006
      -0.010
      -0.020
      -0.030
      -0.032
      -0.024
      -0.007
       0.013
       0.027
       0.027
       0.014
      -0.006
      -0.021
      -0.026
      -0.024
      -0.020
      -0.019
      -0.023
      -0.029
      -0.032
      -0.028
      -0.014
       0.007
       0.029
       0.046
       0.051
       0.040
       0.017
      -0.006
      -0.021
      -0.025
      -0.023
      -0.019
      -0.018
      -0.018
      -0.019
      -0.016
      -0.009
       0.003
       0.016
       0.027
       0.032
       0.027
       0.013
      -0.003
      -0.012
      -0.009
       0.003
       0.014
       0.019
       0.014
       0.002
      -0.011
      -0.022
      -0.024
      -0.017
      -0.002
       0.017
       0.032
       0.038
       0.032
       0.018
       0.005
      -0.001
       0.001
       0.005
       0.003
      -0.006
      -0.019
      -0.028
      -0.032
      -0.029
      -0.022
      -0.011
      -0.001
       0.005
       0.004
      -0.001
      -0.006
      -0.007
      -0.005
      -0.002
      -0.001
      -0.001
       0.001
       0.005
       0.010
       0.011
       0.006
       0.002
       0.002
       0.007
       0.011
       0.008
      -0.003
      -0.018
      -0.030
      -0.035
      -0.036
      -0.035
      -0.034
      -0.032
      -0.029
      -0.025
      -0.023
      -0.024
      -0.025
      -0.025
      -0.022
      -0.016
      -0.013
      -0.015
      -0.018
      -0.017
      -0.009
       0.003
       0.013
       0.021
       0.033
       0.061
       0.110
       0.179
       0.262
       0.353
       0.451
       0.553
       0.662
       0.792
       0.961
       1.184
       1.456
       1.731
       1.925
       1.916
       1.573
       0.797
      -0.433
      -2.015
      -3.715
      -5.196
      -6.102
      -6.170
      -5.306
      -3.604
      -1.306
       1.271
       3.808
       6.036
       7.752
       8.823
       9.167
       8.725
       7.434
       5.238
       2.132
      -1.746
      -6.024
     -10.066
     -13.062
     -14.248
     -13.188
      -9.964
      -5.194
       0.137
       4.944
       8.300
       9.621
       8.772
       6.108
       2.400
      -1.372
      -4.312
      -5.884
      -6.031
      -5.079
      -3.508
      -1.742
      -0.076
       1.311
       2.308
       2.874
       3.056
       2.967
       2.714
       2.344
       1.830
       1.128
       0.257
      -0.650
      -1.380
      -1.730
      -1.586
      -0.953
       0.039
       1.155
       2.086
       2.520
       2.235
       1.188
      -0.421
      -2.162
      -3.489
      -3.932
      -3.277
      -1.646
       0.564
       2.829
       4.649
       5.647
       5.607
       4.501
       2.519
       0.054
      -2.390
      -4.350
      -5.520
      -5.764
      -5.062
      -3.482
      -1.227
       1.304
       3.542
       4.920
       5.115
       4.198
       2.590
       0.844
      -0.603
      -1.554
      -2.024
      -2.127
      -1.968
      -1.637
      -1.259
      -1.018
      -1.071
      -1.386
      -1.650
      -1.390
      -0.309
       1.431
       3.206
       4.256
       4.115
       2.846
       0.944
      -0.980
      -2.468
      -3.293
      -3.383
      -2.747
      -1.514
      -0.007
       1.267
       1.822
       1.476
       0.490
      -0.572
      -1.173
      -1.085
      -0.441
       0.416
       1.119
       1.389
       1.083
       0.250
      -0.841
      -1.762
      -2.120
      -1.771
      -0.890
       0.165
       1.074
       1.699
       2.057
       2.185
       2.030
       1.475
       0.480
      -0.769
      -1.841
      -2.249
      -1.761
      -0.610
       0.586
       1.195
       0.960
       0.095
      -0.948
      -1.817
      -2.393
      -2.666
      -2.559
      -1.930
      -0.758
       0.708
       2.019
       2.774
       2.852
       2.436
       1.836
       1.286
       0.860
       0.527
       0.255
       0.057
      -0.018
       0.053
       0.221
       0.354
       0.312
       0.046
      -0.355
      -0.726
      -0.945
      -0.997
      -0.921
      -0.739
      -0.460
      -0.170
      -0.065
      -0.314
      -0.868
      -1.407
      -1.534
      -1.039
      -0.013
       1.248
       2.404
       3.143
       3.197
       2.413
       0.887
      -0.977
      -2.575
      -3.366
      -3.104
      -1.919
      -0.244
       1.352
       2.361
       2.512
       1.874
       0.821
      -0.179
      -0.813
      -1.057
      -1.091
      -1.089
      -1.074
      -0.957
      -0.699
      -0.396
      -0.189
      -0.130
      -0.155
      -0.181
      -0.188
      -0.158
      -0.007
       0.371
       0.944
       1.473
       1.654
       1.368
       0.776
       0.184
      -0.185
      -0.285
      -0.179
       0.052
       0.316
       0.473
       0.362
      -0.087
      -0.769
      -1.431
      -1.803
      -1.744
      -1.297
      -0.643
      -0.014
       0.404
       0.536
       0.437
       0.246
       0.088
      -0.018
      -0.158
      -0.419
      -0.784
      -1.105
      -1.173
      -0.831
      -0.050
       1.037
       2.138
       2.872
       2.927
       2.256
       1.135
       0.020
      -0.749
      -1.120
      -1.267
      -1.357
      -1.392
      -1.251
      -0.871
      -0.354
       0.089
       0.298
       0.282
       0.201
       0.263
       0.576
       1.067
       1.479
       1.503
       0.991
       0.086
      -0.841
      -1.440
      -1.573
      -1.326
      -0.860
      -0.282
       0.333
       0.866
       1.155
       1.107
       0.799
       0.435
       0.198
       0.114
       0.065
      -0.103
      -0.456
      -0.937
      -1.409
      -1.722
      -1.770
      -1.508
      -0.954
      -0.195
       0.609
       1.245
       1.537
       1.446
       1.101
       0.681
       0.259
      -0.232
      -0.863
      -1.537
      -1.961
      -1.821
      -1.034
       0.136
       1.203
       1.760
       1.736
       1.419
       1.203
       1.263
       1.410
       1.274
       0.631
      -0.389
      -1.410
      -2.099
      -2.364
      -2.301
      -1.985
      -1.351
      -0.296
       1.090
       2.426
       3.212
       3.139
       2.272
       0.965
      -0.395
      -1.569
      -2.461
      -3.003
      -3.110
      -2.736
      -1.951
      -0.933
       0.127
       1.107
       1.950
       2.612
       3.013
       3.042
       2.609
       1.711
       0.497
      -0.759
      -1.796
      -2.533
      -3.080
      -3.551
      -3.823
      -3.525
      -2.325
      -0.295
       2.020
       3.885
       4.796
       4.674
       3.764
       2.382
       0.771
      -0.877
      -2.324
      -3.282
      -3.526
      -3.027
      -1.979
      -0.698
       0.537
       1.586
       2.423
       3.010
       3.212
       2.846
       1.850
       0.424
      -1.023
      -2.095
      -2.612
      -2.640
      -2.350
      -1.859
      -1.187
      -0.334
       0.617
       1.470
       2.014
       2.154
       1.964
       1.586
       1.077
       0.363
      -0.644
      -1.850
      -2.912
      -3.389
      -3.014
      -1.865
      -0.309
       1.214
       2.394
       3.098
       3.286
       2.910
       1.935
       0.453
      -1.231
      -2.664
      -3.448
      -3.428
      -2.712
      -1.542
      -0.161
       1.218
       2.353
       2.974
       2.902
       2.212
       1.256
       0.477
       0.115
       0.048
      -0.103
      -0.663
      -1.649
      -2.738
      -3.464
      -3.477
      -2.686
      -1.256
       0.490
       2.170
       3.425
       4.004
       3.816
       2.932
       1.529
      -0.149
      -1.816
      -3.171
      -3.986
      -4.175
      -3.770
      -2.852
      -1.509
       0.112
       1.754
       3.086
       3.845
