Origin Time       10/4/2012 20:10:01 
Lat.              29.0 N 
Long.             76.6 E 
Depth (Km)         10.0
Magnitude         3.5
 Region           ROHTAK-HARYANA                                                   
 Above details taken from IMD 
     
Station Code      DCE
Station Lat.       28.795  N
Station Long.      77.118  E
Station Height(m)  208.0
Site Class        C   Vs30 between 200 m/sec to 375 m/sec *  
Record Time       10.04.2013 20:09:47.769
Sampling Rate     200. Hz
 Record Duration   80.010 Sec.
 Direction         E-W (E positive)
Max. Acceleration      1.307 cm/sec**2
     
  * For reference see Site Classification link of website 
     
 Base Line Corrected and Low Pass Filtered (Cut Off at 35 Hz) Time History
 Acceleration data in cm/sec**2
    
[...]
      -0.159
      -0.093
      -0.010
       0.073
       0.139
       0.171
       0.164
       0.125
       0.075
       0.035
       0.020
       0.025
       0.034
       0.032
       0.011
      -0.025
      -0.065
      -0.102
      -0.128
      -0.133
      -0.112
      -0.066
      -0.006
       0.053
       0.100
       0.130
       0.137
       0.117
       0.073
       0.017
      -0.032
      -0.060
      -0.064
      -0.053
      -0.034
      -0.009
       0.022
       0.048
       0.052
       0.026
      -0.021
      -0.063
      -0.077
      -0.057
      -0.018
       0.020
       0.044
       0.057
       0.066
       0.069
       0.055
       0.023
      -0.015
      -0.034
      -0.021
       0.021
       0.070
       0.100
       0.089
       0.031
      -0.060
      -0.155
      -0.215
      -0.212
      -0.145
      -0.040
       0.062
       0.131
       0.151
       0.130
       0.088
       0.050
       0.027
       0.017
       0.015
       0.019
       0.028
       0.035
       0.026
      -0.006
      -0.043
      -0.057
      -0.038
      -0.007
       0.005
      -0.008
      -0.021
      -0.002
       0.049
       0.092
       0.084
       0.018
      -0.064
      -0.108
      -0.092
      -0.044
      -0.009
      -0.005
      -0.008
       0.018
       0.079
       0.133
       0.128
       0.050
      -0.056
      -0.115
      -0.080
       0.037
       0.165
       0.225
       0.178
       0.049
      -0.092
      -0.168
      -0.153
      -0.076
       0.000
       0.026
      -0.001
      -0.046
      -0.069
      -0.060
      -0.047
      -0.060
      -0.097
      -0.119
      -0.080
       0.034
       0.182
       0.297
       0.331
       0.282
       0.188
       0.093
       0.018
      -0.044
      -0.107
      -0.168
      -0.202
      -0.188
      -0.128
      -0.052
       0.004
       0.029
       0.043
       0.067
       0.095
       0.096
       0.054
      -0.010
      -0.050
      -0.036
       0.020
       0.081
       0.112
       0.105
       0.070
       0.023
      -0.029
      -0.080
      -0.119
      -0.133
      -0.114
      -0.071
      -0.026
       0.002
       0.005
      -0.010
      -0.029
      -0.038
      -0.031
      -0.010
       0.020
       0.050
       0.070
       0.077
       0.070
       0.051
       0.026
       0.003
      -0.016
      -0.027
      -0.033
      -0.029
      -0.009
       0.033
       0.082
       0.107
       0.079
      -0.003
      -0.104
      -0.177
      -0.188
      -0.137
      -0.043
       0.066
       0.160
       0.210
       0.199
       0.134
       0.049
      -0.018
      -0.049
      -0.049
      -0.031
       0.002
       0.046
       0.084
       0.089
       0.041
      -0.047
      -0.140
      -0.196
      -0.196
      -0.144
      -0.066
       0.005
       0.045
       0.050
       0.035
       0.027
       0.040
       0.070
       0.098
       0.104
       0.082
       0.044
       0.008
      -0.007
      -0.001
       0.011
       0.007
      -0.021
      -0.061
      -0.085
      -0.071
      -0.013
       0.071
       0.150
       0.193
       0.187
       0.145
       0.088
       0.029
      -0.028
      -0.080
      -0.115
      -0.123
      -0.104
      -0.075
      -0.055
      -0.051
      -0.052
      -0.043
      -0.024
      -0.008
      -0.004
      -0.013
      -0.027
      -0.040
      -0.053
      -0.061
      -0.053
      -0.020
       0.031
       0.081
       0.113
       0.118
       0.100
       0.061
       0.007
      -0.046
      -0.074
      -0.060
      -0.017
       0.024
       0.038
       0.025
       0.005
      -0.005
      -0.002
       0.003
      -0.008
      -0.044
      -0.099
      -0.141
      -0.140
      -0.091
      -0.018
       0.041
       0.064
       0.058
       0.049
       0.056
       0.076
       0.090
       0.082
       0.054
       0.016
      -0.019
      -0.046
      -0.070
      -0.091
      -0.105
      -0.100
      -0.066
      -0.010
       0.052
       0.099
       0.122
       0.125
       0.113
       0.088
       0.054
       0.013
      -0.029
      -0.067
      -0.101
      -0.137
      -0.176
      -0.212
      -0.229
      -0.204
      -0.124
      -0.002
       0.128
       0.220
       0.238
       0.179
       0.081
      -0.008
      -0.056
      -0.074
      -0.086
      -0.096
      -0.084
      -0.030
       0.053
       0.113
       0.105
       0.026
      -0.076
      -0.139
      -0.127
      -0.048
       0.054
       0.126
       0.131
       0.070
      -0.017
      -0.073
      -0.066
      -0.013
       0.032
       0.026
      -0.026
      -0.082
      -0.100
      -0.072
      -0.022
       0.019
       0.034
       0.023
      -0.009
      -0.052
      -0.088
      -0.096
      -0.063
       0.008
       0.093
       0.158
       0.170
       0.119
       0.025
      -0.070
      -0.136
      -0.161
      -0.157
      -0.136
      -0.108
      -0.075
      -0.039
       0.000
       0.037
       0.066
       0.075
       0.066
       0.054
       0.062
       0.098
       0.136
       0.133
       0.060
      -0.065
      -0.184
      -0.242
      -0.227
      -0.172
      -0.123
      -0.095
      -0.072
      -0.033
       0.011
       0.032
       0.017
      -0.005
       0.010
       0.071
       0.134
       0.141
       0.072
      -0.039
      -0.131
      -0.164
      -0.141
      -0.091
      -0.044
      -0.008
       0.028
       0.077
       0.135
       0.177
       0.171
       0.106
       0.008
      -0.077
      -0.114
      -0.107
      -0.089
      -0.086
      -0.095
      -0.096
      -0.070
      -0.017
       0.048
       0.098
       0.110
       0.079
       0.033
       0.010
       0.033
       0.081
       0.111
       0.089
       0.019
      -0.063
      -0.125
      -0.153
      -0.151
      -0.123
      -0.071
      -0.002
       0.062
       0.095
       0.086
       0.054
       0.025
       0.013
       0.008
      -0.013
      -0.057
      -0.110
      -0.149
      -0.157
      -0.139
      -0.110
      -0.087
      -0.065
      -0.023
       0.053
       0.145
       0.206
       0.196
       0.119
       0.021
      -0.045
      -0.059
      -0.043
      -0.037
      -0.068
      -0.127
      -0.171
      -0.153
      -0.058
       0.077
       0.185
       0.210
       0.150
       0.048
      -0.030
      -0.045
      -0.002
       0.052
       0.063
       0.007
      -0.091
      -0.168
      -0.169
      -0.090
       0.018
       0.093
       0.108
       0.084
       0.053
       0.023
      -0.020
      -0.087
      -0.160
      -0.204
      -0.191
      -0.120
      -0.021
       0.064
       0.105
       0.108
       0.101
       0.113
       0.137
       0.136
       0.088
       0.018
      -0.028
      -0.023
       0.008
       0.017
      -0.019
      -0.082
      -0.128
      -0.127
      -0.076
      -0.001
       0.053
       0.045
      -0.031
      -0.139
      -0.218
      -0.214
      -0.112
       0.052
       0.207
       0.280
       0.238
       0.111
      -0.030
      -0.122
      -0.141
      -0.109
      -0.059
      -0.010
       0.026
       0.044
       0.031
      -0.014
      -0.074
      -0.119
      -0.125
      -0.079
       0.008
       0.106
       0.169
       0.159
       0.080
      -0.015
      -0.061
      -0.028
       0.055
       0.132
       0.159
       0.128
       0.064
      -0.002
      -0.050
      -0.080
      -0.106
      -0.136
      -0.165
      -0.167
      -0.123
      -0.039
       0.046
       0.087
       0.067
       0.011
      -0.029
      -0.021
       0.026
       0.070
       0.072
       0.022
      -0.055
      -0.120
      -0.137
      -0.092
       0.004
       0.122
       0.221
       0.258
       0.208
       0.078
      -0.082
      -0.196
      -0.209
      -0.129
      -0.026
       0.022
      -0.016
      -0.110
      -0.201
      -0.235
      -0.191
      -0.083
       0.052
       0.168
       0.233
       0.240
       0.203
       0.147
       0.095
       0.071
       0.079
       0.103
       0.109
       0.062
      -0.048
      -0.198
      -0.340
      -0.418
      -0.392
      -0.271
      -0.105
       0.038
       0.113
       0.121
       0.094
       0.066
       0.062
       0.086
       0.124
       0.153
       0.147
       0.100
       0.029
      -0.029
      -0.042
      -0.004
       0.060
       0.107
       0.091
       0.000
      -0.134
      -0.233
      -0.227
      -0.103
       0.071
       0.194
       0.204
       0.124
       0.036
       0.005
       0.032
       0.068
       0.063
       0.011
      -0.061
      -0.119
      -0.138
      -0.105
      -0.031
       0.051
       0.100
       0.091
       0.041
      -0.011
      -0.033
      -0.023
      -0.009
      -0.021
      -0.069
      -0.128
      -0.163
      -0.154
      -0.106
      -0.037
       0.044
       0.138
       0.237
       0.315
       0.330
       0.254
       0.097
      -0.090
      -0.241
      -0.316
      -0.308
      -0.235
      -0.125
      -0.007
       0.089
       0.140
       0.138
       0.098
       0.049
       0.008
      -0.021
      -0.046
      -0.066
      -0.070
      -0.049
      -0.010
       0.031
       0.061
       0.074
       0.061
       0.019
      -0.043
      -0.091
      -0.092
      -0.043
       0.019
       0.057
       0.063
       0.058
       0.057
       0.050
       0.015
      -0.048
      -0.110
      -0.135
      -0.103
      -0.018
       0.100
       0.219
       0.298
       0.302
       0.220
       0.074
      -0.089
      -0.223
      -0.294
      -0.287
      -0.215
      -0.108
      -0.010
       0.049
       0.061
       0.039
       0.000
      -0.037
      -0.056
      -0.048
      -0.020
       0.011
       0.036
       0.063
       0.103
       0.141
       0.141
       0.079
      -0.020
      -0.094
      -0.091
      -0.009
       0.096
       0.146
       0.087
      -0.071
      -0.252
      -0.372
      -0.387
      -0.322
      -0.220
      -0.095
       0.065
       0.254
       0.420
       0.498
       0.472
       0.383
       0.297
       0.240
       0.194
       0.120
       0.004
      -0.138
      -0.267
      -0.349
      -0.375
      -0.362
      -0.332
      -0.291
      -0.224
      -0.116
       0.019
       0.139
       0.203
       0.191
       0.122
       0.034
      -0.024
      -0.019
       0.046
       0.127
       0.169
       0.146
       0.081
       0.016
      -0.022
      -0.043
      -0.070
      -0.104
      -0.113
      -0.072
      -0.002
       0.028
      -0.036
      -0.173
      -0.287
      -0.281
      -0.138
       0.070
       0.233
       0.284
       0.234
       0.156
       0.122
       0.151
       0.208
       0.243
       0.232
       0.182
       0.105
       0.000
      -0.133
      -0.273
      -0.378
      -0.412
      -0.370
      -0.272
      -0.139
      -0.001
       0.105
       0.144
       0.110
       0.037
      -0.021
      -0.036
      -0.010
       0.038
       0.102
       0.179
       0.257
       0.305
       0.298
       0.224
       0.088
      -0.083
      -0.245
      -0.335
      -0.299
      -0.132
       0.095
       0.260
       0.260
       0.084
      -0.174
      -0.376
      -0.422
      -0.295
      -0.058
       0.189
       0.354
       0.394
       0.329
       0.218
       0.113
       0.025
      -0.061
      -0.149
      -0.204
      -0.175
      -0.041
       0.137
       0.244
       0.179
      -0.056
      -0.342
      -0.517
      -0.488
      -0.291
      -0.044
       0.151
       0.269
       0.339
       0.383
       0.379
       0.293
       0.137
      -0.021
      -0.100
      -0.067
       0.044
       0.161
       0.214
       0.162
       0.005
      -0.208
      -0.386
      -0.449
      -0.375
      -0.213
      -0.048
       0.055
       0.079
       0.047
       0.000
      -0.024
      -0.010
       0.030
       0.074
       0.112
       0.153
       0.211
       0.276
       0.315
       0.291
       0.187
       0.024
      -0.150
      -0.290
      -0.376
      -0.411
      -0.404
      -0.351
      -0.240
      -0.088
       0.053
       0.115
       0.072
      -0.028
      -0.100
      -0.088
      -0.007
       0.080
       0.129
       0.150
       0.185
       0.257
       0.337
       0.352
       0.246
       0.026
      -0.221
      -0.386
      -0.411
      -0.324
      -0.202
      -0.104
      -0.040
       0.005
       0.044
       0.072
       0.088
       0.103
       0.124
       0.155
       0.194
       0.234
       0.264
       0.260
       0.204
       0.100
      -0.015
      -0.091
      -0.092
      -0.018
       0.093
       0.184
       0.201
       0.130
       0.004
      -0.109
      -0.154
      -0.119
      -0.041
       0.026
       0.036
      -0.032
      -0.169
      -0.337
      -0.476
      -0.530
      -0.481
      -0.360
      -0.226
      -0.128
      -0.074
      -0.039
       0.014
       0.097
       0.183
       0.222
       0.176
       0.058
      -0.065
      -0.114
      -0.049
       0.103
       0.274
       0.395
       0.435
       0.401
       0.316
       0.194
       0.031
      -0.179
      -0.415
      -0.609
      -0.688
      -0.623
      -0.461
      -0.302
      -0.221
      -0.220
      -0.241
      -0.218
      -0.126
       0.011
       0.155
       0.290
       0.435
       0.626
       0.873
       1.131
       1.307
       1.306
       1.080
       0.657
       0.136
      -0.354
      -0.700
      -0.850
      -0.827
      -0.711
      -0.592
      -0.520
      -0.487
      -0.444
      -0.340
      -0.162
       0.054
       0.248
       0.373
       0.422
       0.423
       0.399
       0.345
       0.238
       0.071
      -0.129
      -0.307
      -0.417
      -0.448
      -0.431
      -0.405
      -0.385
      -0.345
      -0.242
      -0.067
       0.129
       0.255
       0.253
       0.136
      -0.020
      -0.131
      -0.156
      -0.115
      -0.070
      -0.069
      -0.107
      -0.122
      -0.051
       0.106
       0.272
       0.350
       0.296
       0.154
       0.017
      -0.035
       0.016
       0.128
       0.251
       0.366
       0.488
       0.616
       0.710
       0.693
       0.514
       0.185
      -0.211
      -0.567
      -0.801
      -0.891
      -0.872
      -0.814
      -0.766
      -0.737
      -0.689
      -0.579
      -0.399
      -0.180
       0.035
       0.237
       0.449
       0.688
       0.910
       1.019
       0.936
       0.682
       0.381
       0.167
       0.081
       0.038
      -0.088
      -0.346
      -0.656
      -0.872
      -0.889
      -0.714
      -0.435
      -0.151
       0.081
       0.248
       0.356
       0.421
       0.462
       0.492
       0.499
       0.465
       0.391
       0.317
       0.281
       0.282
       0.267
       0.187
       0.049
      -0.091
      -0.181
      -0.224
      -0.269
      -0.360
      -0.490
      -0.599
      -0.607
      -0.477
      -0.259
      -0.057
       0.033
       0.002
      -0.070
      -0.083
       0.005
       0.147
       0.251
       0.259
       0.187
       0.111
       0.095
       0.146
       0.213
       0.239
       0.207
       0.145
       0.096
       0.079
       0.067
       0.016
      -0.097
      -0.233
      -0.319
      -0.302
      -0.199
      -0.091
      -0.059
      -0.114
      -0.188
      -0.194
      -0.110
       0.002
       0.056
       0.023
      -0.041
      -0.046
       0.060
       0.253
       0.457
       0.592
       0.608
       0.505
       0.325
       0.137
      -0.001
      -0.065
      -0.070
      -0.043
      -0.005
       0.016
      -0.019
      -0.135
      -0.299
      -0.411
      -0.374
      -0.176
       0.081
       0.241
       0.200
      -0.025
      -0.311
      -0.518
      -0.577
      -0.517
      -0.414
      -0.320
      -0.235
      -0.126
       0.022
       0.184
       0.316
       0.395
       0.437
       0.483
       0.543
       0.580
       0.531
       0.367
       0.119
      -0.139
      -0.340
      -0.451
      -0.480
      -0.454
      -0.410
      -0.380
      -0.379
      -0.390
      -0.364
      -0.258
      -0.070
       0.151
       0.333
       0.428
       0.445
       0.427
       0.401
       0.351
       0.236
       0.051
      -0.140
      -0.237
      -0.163
       0.062
       0.328
       0.494
       0.487
       0.347
       0.181
       0.066
      -0.004
      -0.082
      -0.174
      -0.218
      -0.148
       0.017
       0.164
       0.172
       0.005
      -0.260
      -0.504
      -0.645
      -0.667
      -0.592
      -0.433
      -0.195
       0.086
       0.335
       0.472
       0.479
       0.419
       0.392
       0.459
       0.585
       0.671
       0.631
       0.458
       0.215
      -0.017
      -0.194
      -0.311
      -0.379
      -0.404
      -0.392
      -0.354
      -0.314
      -0.299
      -0.326
      -0.383
      -0.422
      -0.381
      -0.230
      -0.001
       0.225
       0.373
       0.410
       0.350
       0.236
       0.119
       0.059
       0.100
       0.230
       0.364
       0.391
       0.260
       0.018
      -0.233
      -0.424
      -0.540
      -0.592
      -0.574
      -0.475
      -0.321
      -0.183
      -0.126
      -0.156
      -0.213
      -0.229
      -0.175
      -0.060
       0.098
       0.290
       0.495
       0.655
       0.692
       0.554
       0.272
      -0.038
      -0.235
      -0.250
      -0.144
      -0.058
      -0.086
      -0.192
      -0.249
      -0.168
       0.018
       0.207
       0.331
       0.411
       0.501
       0.596
       0.613
       0.459
       0.118
      -0.321
      -0.716
      -0.943
      -0.955
      -0.786
      -0.535
      -0.313
      -0.189
      -0.156
      -0.145
      -0.081
       0.069
       0.279
       0.487
       0.632
       0.680
       0.635
       0.534
       0.427
       0.345
       0.288
       0.240
       0.194
       0.152
       0.100
      -0.002
      -0.189
      -0.429
      -0.626
      -0.686
      -0.600
      -0.462
      -0.398
      -0.469
      -0.621
      -0.724
      -0.673
      -0.460
      -0.172
       0.088
       0.283
       0.451
       0.640
       0.835
       0.955
       0.923
       0.739
       0.487
       0.273
       0.160
       0.143
       0.172
       0.197
       0.186
       0.140
       0.083
       0.044
       0.035
       0.036
       0.015
      -0.050
      -0.142
      -0.210
      -0.207
      -0.136
      -0.067
      -0.095
      -0.255
      -0.479
      -0.635
      -0.632
      -0.484
      -0.292
      -0.154
      -0.097
      -0.079
      -0.048
       0.011
       0.074
       0.102
       0.069
      -0.028
      -0.157
      -0.260
      -0.275
      -0.177
       0.004
       0.187
       0.291
       0.279
       0.190
       0.116
       0.143
       0.286
       0.473
       0.609
       0.645
       0.607
       0.559
       0.543
       0.545
       0.511
       0.385
       0.159
      -0.115
      -0.356
      -0.507
      -0.559
      -0.544
      -0.511
      -0.518
      -0.605
      -0.763
      -0.911
      -0.935
      -0.766
