Origin Time       24/2/2010 19:20:52	
Lat.              28.6 N	
Long.             76.9 E	
Depth (Km)         17.0
Magnitude         2.5
 Region           Rohtak                                                           
 Above details taken from IMD 
     
Station Code      DCE
Station Lat.       28.795  N
Station Long.      77.118  E
Station Height(m)  208.0
Site Class        C   Vs30 between 200 m/sec to 375 m/sec *  
Record Time       24.02.2010 19:18:25.944
Sampling Rate     200. Hz
 Record Duration   80.010 Sec.
 Direction         E-W (E positive)
Max. Acceleration     -1.242 cm/sec**2
     
  * For reference see Site Classification link of website 
     
 Base Line Corrected and Low Pass Filtered (Cut Off at 35 Hz) Time History
 Acceleration data in cm/sec**2
    
[...]
      -0.021
      -0.027
      -0.022
      -0.004
       0.016
       0.028
       0.026
       0.018
       0.010
       0.004
       0.001
       0.004
       0.014
       0.023
       0.021
       0.006
      -0.013
      -0.027
      -0.029
      -0.019
      -0.002
       0.015
       0.022
       0.016
       0.007
       0.006
       0.016
       0.027
       0.032
       0.030
       0.024
       0.014
       0.003
      -0.005
      -0.009
      -0.011
      -0.014
      -0.016
      -0.014
      -0.009
      -0.003
       0.003
       0.011
       0.022
       0.031
       0.036
       0.038
       0.036
       0.029
       0.016
       0.001
      -0.009
      -0.012
      -0.012
      -0.011
      -0.010
      -0.008
      -0.005
       0.000
       0.010
       0.024
       0.036
       0.039
       0.034
       0.028
       0.023
       0.018
       0.011
       0.006
       0.006
       0.006
       0.001
      -0.008
      -0.017
      -0.023
      -0.023
      -0.017
      -0.004
       0.011
       0.018
       0.015
       0.006
      -0.002
      -0.005
      -0.006
      -0.004
      -0.001
       0.002
       0.000
      -0.006
      -0.011
      -0.012
      -0.008
       0.001
       0.012
       0.021
       0.022
       0.016
       0.008
       0.005
       0.008
       0.013
       0.017
       0.021
       0.020
       0.010
      -0.005
      -0.016
      -0.015
      -0.003
       0.011
       0.023
       0.029
       0.026
       0.016
       0.005
      -0.001
       0.003
       0.011
       0.015
       0.014
       0.007
      -0.001
      -0.010
      -0.014
      -0.010
      -0.001
       0.006
       0.009
       0.007
       0.004
       0.003
       0.004
       0.011
       0.019
       0.020
       0.013
       0.002
      -0.003
       0.000
       0.004
       0.009
       0.016
       0.027
       0.035
       0.037
       0.032
       0.025
       0.015
       0.005
       0.000
       0.004
       0.015
       0.021
       0.016
      -0.001
      -0.022
      -0.038
      -0.038
      -0.016
       0.022
       0.058
       0.070
       0.049
       0.006
      -0.042
      -0.074
      -0.078
      -0.051
      -0.003
       0.044
       0.070
       0.069
       0.043
       0.001
      -0.048
      -0.091
      -0.112
      -0.103
      -0.059
       0.020
       0.117
       0.197
       0.218
       0.160
       0.039
      -0.096
      -0.189
      -0.201
      -0.130
      -0.005
       0.115
       0.174
       0.153
       0.073
      -0.021
      -0.100
      -0.153
      -0.172
      -0.144
      -0.052
       0.097
       0.260
       0.362
       0.340
       0.187
      -0.035
      -0.227
      -0.321
      -0.309
      -0.219
      -0.082
       0.084
       0.242
       0.323
       0.267
       0.077
      -0.151
      -0.292
      -0.275
      -0.134
       0.032
       0.135
       0.160
       0.144
       0.125
       0.107
       0.074
       0.022
      -0.030
      -0.072
      -0.106
      -0.133
      -0.137
      -0.092
       0.001
       0.098
       0.138
       0.094
      -0.001
      -0.074
      -0.076
      -0.009
       0.075
       0.127
       0.133
       0.108
       0.073
       0.035
       0.000
      -0.014
       0.007
       0.050
       0.082
       0.076
       0.040
      -0.002
      -0.042
      -0.103
      -0.207
      -0.340
      -0.445
      -0.454
      -0.339
      -0.135
       0.080
       0.241
       0.320
       0.328
       0.282
       0.206
       0.128
       0.090
       0.117
       0.194
       0.262
       0.252
       0.139
      -0.041
      -0.205
      -0.286
      -0.274
      -0.214
      -0.156
      -0.107
      -0.042
       0.054
       0.155
       0.206
       0.176
       0.080
      -0.034
      -0.107
      -0.105
      -0.042
       0.026
       0.034
      -0.039
      -0.150
      -0.226
      -0.228
      -0.166
      -0.081
      -0.003
       0.060
       0.113
       0.162
       0.206
       0.232
       0.222
       0.168
       0.081
      -0.012
      -0.079
      -0.101
      -0.078
      -0.035
      -0.015
      -0.051
      -0.140
      -0.234
      -0.270
      -0.202
      -0.037
       0.169
       0.330
       0.376
       0.300
       0.152
       0.002
      -0.111
      -0.181
      -0.216
      -0.212
      -0.158
      -0.059
       0.053
       0.136
       0.163
       0.140
       0.095
       0.052
       0.021
      -0.003
      -0.030
      -0.059
      -0.085
      -0.100
      -0.098
      -0.075
      -0.033
       0.016
       0.058
       0.091
       0.120
       0.144
       0.144
       0.108
       0.044
      -0.018
      -0.057
      -0.078
      -0.096
      -0.112
      -0.112
      -0.077
       0.006
       0.124
       0.237
       0.287
       0.234
       0.088
      -0.086
      -0.203
      -0.207
      -0.097
       0.070
       0.212
       0.256
       0.166
      -0.029
      -0.251
      -0.407
      -0.443
      -0.358
      -0.196
      -0.012
       0.148
       0.258
       0.306
       0.281
       0.182
       0.048
      -0.052
      -0.066
      -0.013
       0.033
       0.016
      -0.046
      -0.077
      -0.027
       0.075
       0.143
       0.118
       0.019
      -0.080
      -0.110
      -0.063
       0.008
       0.039
       0.007
      -0.053
      -0.088
      -0.074
      -0.020
       0.049
       0.105
       0.120
       0.086
       0.020
      -0.037
      -0.058
      -0.042
      -0.005
       0.032
       0.058
       0.067
       0.055
       0.023
      -0.029
      -0.091
      -0.139
      -0.147
      -0.116
      -0.079
      -0.059
      -0.029
       0.069
       0.249
       0.428
       0.473
       0.319
       0.034
      -0.226
      -0.346
      -0.323
      -0.225
      -0.114
      -0.002
       0.106
       0.169
       0.129
      -0.025
      -0.225
      -0.360
      -0.365
      -0.260
      -0.116
       0.018
       0.139
       0.253
       0.337
       0.353
       0.298
       0.209
       0.128
       0.063
      -0.001
      -0.064
      -0.100
      -0.079
       0.000
       0.097
       0.151
       0.117
      -0.004
      -0.164
      -0.292
      -0.326
      -0.249
      -0.087
       0.096
       0.225
       0.238
       0.128
      -0.043
      -0.174
      -0.191
      -0.098
       0.025
       0.090
       0.062
      -0.022
      -0.091
      -0.094
      -0.038
       0.033
       0.079
       0.088
       0.065
       0.017
      -0.043
      -0.087
      -0.083
      -0.037
       0.011
       0.026
       0.020
       0.032
       0.075
       0.123
       0.141
       0.119
       0.080
       0.049
       0.030
       0.010
      -0.024
      -0.073
      -0.123
      -0.162
      -0.176
      -0.153
      -0.081
       0.030
       0.135
       0.175
       0.131
       0.052
       0.007
       0.023
       0.058
       0.061
       0.025
      -0.012
      -0.016
       0.002
       0.006
      -0.022
      -0.065
      -0.076
      -0.026
       0.061
       0.105
       0.036
      -0.128
      -0.279
      -0.297
      -0.156
       0.062
       0.234
       0.285
       0.212
       0.068
      -0.079
      -0.162
      -0.146
      -0.048
       0.066
       0.129
       0.120
       0.064
      -0.007
      -0.069
      -0.108
      -0.117
      -0.096
      -0.059
      -0.021
       0.010
       0.034
       0.050
       0.048
       0.017
      -0.043
      -0.099
      -0.103
      -0.022
       0.122
       0.258
       0.309
       0.245
       0.099
      -0.053
      -0.147
      -0.178
      -0.182
      -0.187
      -0.185
      -0.156
      -0.101
      -0.044
       0.002
       0.050
       0.111
       0.161
       0.151
       0.063
      -0.056
      -0.125
      -0.097
       0.002
       0.097
       0.122
       0.066
      -0.021
      -0.074
      -0.053
       0.017
       0.073
       0.062
      -0.016
      -0.110
      -0.167
      -0.158
      -0.079
       0.050
       0.184
       0.258
       0.228
       0.119
       0.013
      -0.010
       0.053
       0.129
       0.131
       0.031
      -0.122
      -0.247
      -0.289
      -0.257
      -0.207
      -0.189
      -0.195
      -0.160
      -0.028
       0.191
       0.409
       0.514
       0.439
       0.210
      -0.067
      -0.263
      -0.289
      -0.145
       0.075
       0.224
       0.203
       0.039
      -0.125
      -0.149
      -0.026
       0.118
       0.142
       0.009
      -0.194
      -0.341
      -0.352
      -0.216
       0.029
       0.296
       0.466
       0.442
       0.234
      -0.033
      -0.209
      -0.240
      -0.179
      -0.119
      -0.105
      -0.119
      -0.114
      -0.056
       0.044
       0.140
       0.181
       0.151
       0.067
      -0.034
      -0.117
      -0.149
      -0.106
      -0.002
       0.099
       0.119
       0.033
      -0.096
      -0.159
      -0.094
       0.072
       0.247
       0.338
       0.300
       0.156
      -0.026
      -0.169
      -0.225
      -0.196
      -0.130
      -0.081
      -0.067
      -0.062
      -0.023
       0.054
       0.118
       0.105
       0.003
      -0.114
      -0.144
      -0.045
       0.119
       0.226
       0.198
       0.064
      -0.067
      -0.106
      -0.051
       0.027
       0.058
       0.030
      -0.028
      -0.084
      -0.121
      -0.119
      -0.052
       0.070
       0.170
       0.151
       0.000
      -0.182
      -0.260
      -0.181
      -0.021
       0.097
       0.102
       0.020
      -0.073
      -0.108
      -0.058
       0.053
       0.164
       0.211
       0.171
       0.074
      -0.015
      -0.049
      -0.026
       0.022
       0.056
       0.042
      -0.026
      -0.121
      -0.187
      -0.179
      -0.101
      -0.002
       0.062
       0.071
       0.055
       0.055
       0.096
       0.164
       0.224
       0.236
       0.182
       0.073
      -0.052
      -0.142
      -0.160
      -0.105
      -0.015
       0.062
       0.092
       0.069
       0.013
      -0.048
      -0.091
      -0.106
      -0.103
      -0.102
      -0.109
      -0.106
      -0.076
      -0.032
      -0.013
      -0.051
      -0.138
      -0.231
      -0.286
      -0.265
      -0.139
       0.091
       0.362
       0.545
       0.519
       0.270
      -0.064
      -0.284
      -0.286
      -0.151
      -0.062
      -0.126
      -0.272
      -0.336
      -0.241
      -0.072
       0.023
      -0.009
      -0.079
      -0.064
       0.072
       0.249
       0.353
       0.334
       0.238
       0.161
       0.164
       0.233
       0.296
       0.291
       0.199
       0.047
      -0.118
      -0.240
      -0.270
      -0.196
      -0.064
       0.037
       0.048
      -0.012
      -0.065
      -0.047
       0.028
       0.084
       0.063
      -0.019
      -0.093
      -0.114
      -0.114
      -0.163
      -0.291
      -0.439
      -0.493
      -0.386
      -0.162
       0.057
       0.179
       0.200
       0.187
       0.195
       0.231
       0.267
       0.281
       0.272
       0.250
       0.205
       0.109
      -0.060
      -0.286
      -0.499
      -0.604
      -0.525
      -0.252
       0.144
       0.526
       0.761
       0.780
       0.601
       0.299
      -0.044
      -0.361
      -0.588
      -0.657
      -0.521
      -0.202
       0.188
       0.497
       0.606
       0.483
       0.192
      -0.131
      -0.354
      -0.417
      -0.362
      -0.270
      -0.188
      -0.110
      -0.017
       0.090
       0.194
       0.273
       0.299
       0.245
       0.098
      -0.109
      -0.304
      -0.409
      -0.391
      -0.277
      -0.135
      -0.033
      -0.005
      -0.029
      -0.046
      -0.012
       0.053
       0.097
       0.093
       0.069
       0.070
       0.101
       0.119
       0.080
      -0.028
      -0.160
      -0.228
      -0.151
       0.084
       0.373
       0.537
       0.448
       0.139
      -0.193
      -0.328
      -0.186
       0.121
       0.381
       0.440
       0.285
       0.024
      -0.208
      -0.328
      -0.320
      -0.218
      -0.084
       0.000
      -0.028
      -0.142
      -0.231
      -0.193
      -0.039
       0.098
       0.084
      -0.083
      -0.254
      -0.265
      -0.088
       0.138
       0.237
       0.138
      -0.072
      -0.232
      -0.231
      -0.080
       0.132
       0.305
       0.364
       0.265
       0.012
      -0.298
      -0.478
      -0.359
       0.067
       0.595
       0.929
       0.865
       0.420
      -0.197
      -0.712
      -0.941
      -0.849
      -0.519
      -0.082
       0.326
       0.601
       0.707
       0.683
       0.592
       0.440
       0.179
      -0.195
      -0.556
      -0.718
      -0.598
      -0.313
      -0.087
      -0.064
      -0.194
      -0.312
      -0.281
      -0.089
       0.184
       0.439
       0.614
       0.675
       0.586
       0.329
      -0.058
      -0.462
      -0.737
      -0.782
      -0.581
      -0.194
       0.272
       0.681
       0.892
       0.807
       0.429
      -0.111
      -0.603
      -0.872
      -0.858
      -0.623
      -0.292
       0.020
       0.239
       0.336
       0.322
       0.254
       0.202
       0.191
       0.172
       0.070
      -0.119
      -0.275
      -0.231
       0.082
       0.552
       0.929
       0.969
       0.577
      -0.124
      -0.837
      -1.242
      -1.180
      -0.740
      -0.189
       0.198
       0.294
       0.165
       0.004
      -0.013
       0.141
       0.326
       0.354
       0.162
      -0.120
      -0.288
      -0.242
      -0.060
       0.095
       0.125
       0.051
      -0.033
      -0.049
       0.014
       0.102
       0.135
       0.072
      -0.041
      -0.089
       0.007
       0.188
       0.288
       0.177
      -0.099
      -0.333
      -0.322
      -0.033
       0.367
       0.637
       0.630
       0.376
       0.014
      -0.315
      -0.526
      -0.576
      -0.473
      -0.295
      -0.169
      -0.174
      -0.262
      -0.296
      -0.166
       0.114
       0.411
       0.557
       0.465
       0.191
      -0.107
      -0.276
      -0.275
      -0.175
      -0.076
      -0.024
       0.003
       0.043
       0.105
       0.161
       0.170
       0.123
       0.044
      -0.013
      -0.003
       0.087
       0.217
       0.316
       0.329
       0.239
       0.065
      -0.137
      -0.285
      -0.315
      -0.230
      -0.110
      -0.033
      -0.011
       0.005
       0.058
       0.140
       0.206
       0.217
       0.146
      -0.020
      -0.273
      -0.563
      -0.784
      -0.822
      -0.632
      -0.275
       0.108
       0.375
       0.457
       0.376
       0.221
       0.099
       0.085
       0.189
       0.348
       0.465
       0.460
       0.323
       0.108
      -0.106
      -0.268
      -0.355
      -0.348
      -0.233
      -0.038
       0.159
       0.266
       0.237
       0.112
      -0.008
      -0.031
       0.062
       0.195
       0.249
       0.149
      -0.082
      -0.342
      -0.512
      -0.508
      -0.312
       0.009
       0.326
       0.504
       0.471
       0.266
       0.015
      -0.143
      -0.157
      -0.099
      -0.102
      -0.234
      -0.423
      -0.520
      -0.427
      -0.198
       0.010
       0.064
      -0.040
      -0.188
      -0.236
      -0.113
       0.139
       0.392
       0.519
       0.478
       0.338
       0.213
       0.160
       0.153
       0.145
       0.132
       0.143
       0.183
       0.207
       0.170
       0.076
      -0.028
      -0.102
      -0.150
      -0.188
      -0.209
      -0.185
      -0.113
      -0.050
      -0.078
      -0.227
      -0.437
      -0.590
      -0.586
      -0.409
      -0.128
       0.157
       0.379
       0.519
       0.589
       0.587
       0.503
       0.336
       0.123
      -0.081
      -0.237
      -0.344
      -0.422
      -0.475
      -0.466
      -0.352
      -0.134
       0.124
       0.318
       0.361
       0.236
       0.019
      -0.155
      -0.166
       0.004
       0.253
       0.425
       0.420
       0.256
       0.044
      -0.097
      -0.117
      -0.049
       0.032
       0.070
       0.065
       0.064
       0.113
       0.208
       0.287
       0.274
       0.138
      -0.078
      -0.271
      -0.342
      -0.270
      -0.141
      -0.089
      -0.190
      -0.385
      -0.521
      -0.473
      -0.240
       0.061
       0.291
       0.380
       0.341
       0.215
       0.039
      -0.150
      -0.283
      -0.271
      -0.072
       0.234
       0.463
       0.448
       0.178
      -0.178
      -0.393
      -0.357
      -0.146
       0.052
       0.092
      -0.029
      -0.176
      -0.193
      -0.025
       0.241
       0.444
       0.475
       0.343
       0.138
      -0.044
      -0.140
      -0.120
       0.018
       0.229
       0.422
       0.487
       0.355
       0.057
      -0.277
      -0.494
      -0.510
      -0.351
      -0.125
       0.046
       0.091
       0.011
      -0.129
      -0.253
      -0.309
      -0.290
      -0.213
      -0.093
       0.063
       0.231
       0.345
       0.331
       0.170
      -0.052
      -0.181
      -0.116
       0.115
       0.357
       0.437
       0.272
      -0.068
      -0.399
      -0.525
      -0.378
      -0.058
       0.235
       0.339
       0.222
      -0.021
      -0.245
      -0.341
      -0.284
      -0.130
       0.024
       0.093
       0.059
      -0.023
      -0.057
       0.012
       0.161
       0.294
       0.321
       0.224
       0.078
      -0.022
      -0.039
      -0.021
      -0.032
      -0.077
      -0.103
      -0.060
       0.040
       0.127
       0.134
       0.043
      -0.097
      -0.218
      -0.282
      -0.292
      -0.262
      -0.181
      -0.031
       0.164
       0.321
       0.357
       0.259
       0.101
      -0.025
      -0.078
      -0.083
      -0.085
      -0.105
      -0.133
      -0.139
      -0.102
      -0.022
       0.076
       0.162
       0.220
       0.244
       0.239
       0.216
       0.186
       0.143
       0.066
      -0.056
      -0.186
      -0.249
      -0.198
      -0.074
       0.012
      -0.026
      -0.163
      -0.283
      -0.279
      -0.148
       0.008
       0.071
       0.010
      -0.090
      -0.101
       0.033
       0.235
       0.353
       0.282
       0.051
      -0.203
      -0.326
      -0.245
       0.004
       0.315
       0.560
       0.640
       0.517
       0.219
      -0.163
      -0.505
      -0.693
      -0.674
      -0.480
      -0.209
       0.039
       0.202
       0.262
       0.234
       0.148
       0.053
      -0.004
      -0.001
       0.047
       0.113
       0.177
       0.228
       0.250
       0.218
       0.122
      -0.030
      -0.212
      -0.387
      -0.508
      -0.532
      -0.451
      -0.307
      -0.156
      -0.025
       0.098
       0.228
       0.344
       0.408
       0.401
       0.340
       0.248
       0.137
       0.013
      -0.095
      -0.150
      -0.147
      -0.127
      -0.148
      -0.232
      -0.336
      -0.383
      -0.325
      -0.185
      -0.030
       0.082
