Origin Time       11/11/2013 20:11:30
Lat.              28.4 N	
Long.             77.2 E	
Depth (Km)         10.0
Magnitude         3.3
 Region           DELHI                                                            
 Above details taken from IMD 
     
Station Code      DCE
Station Lat.       28.795  N
Station Long.      77.118  E
Station Height(m)  208.0
Site Class        C   Vs30 between 200 m/sec to 375 m/sec *  
Record Time       11.11.2013 20:11:08.514
Sampling Rate     200. Hz
 Record Duration   86.960 Sec.
 Direction         E-W (E positive)
Max. Acceleration     -6.123 cm/sec**2
     
  * For reference see Site Classification link of website 
     
 Base Line Corrected and Low Pass Filtered (Cut Off at 35 Hz) Time History
 Acceleration data in cm/sec**2
    
[...]
       0.026
       0.036
       0.039
       0.034
       0.026
       0.020
       0.016
       0.017
       0.020
       0.024
       0.024
       0.021
       0.017
       0.015
       0.017
       0.020
       0.021
       0.020
       0.019
       0.017
       0.012
       0.005
      -0.003
      -0.006
      -0.002
       0.009
       0.021
       0.026
       0.024
       0.016
       0.008
       0.003
       0.002
       0.002
       0.002
       0.000
      -0.003
      -0.003
       0.003
       0.014
       0.021
       0.021
       0.012
       0.002
      -0.003
       0.000
       0.008
       0.016
       0.020
       0.019
       0.015
       0.011
       0.009
       0.010
       0.011
       0.012
       0.011
       0.010
       0.010
       0.010
       0.012
       0.014
       0.013
       0.010
       0.003
      -0.004
      -0.010
      -0.011
      -0.007
       0.002
       0.011
       0.018
       0.018
       0.015
       0.010
       0.006
       0.002
      -0.002
      -0.005
      -0.006
      -0.004
       0.002
       0.009
       0.014
       0.017
       0.019
       0.018
       0.014
       0.009
       0.006
       0.008
       0.012
       0.016
       0.017
       0.016
       0.015
       0.016
       0.018
       0.019
       0.019
       0.016
       0.011
       0.005
       0.001
       0.003
       0.013
       0.024
       0.028
       0.022
       0.012
       0.007
       0.009
       0.013
       0.014
       0.010
       0.005
       0.004
       0.006
       0.009
       0.010
       0.009
       0.009
       0.010
       0.008
       0.002
      -0.005
      -0.008
      -0.005
       0.002
       0.009
       0.012
       0.009
       0.000
      -0.010
      -0.015
      -0.011
      -0.001
       0.011
       0.018
       0.017
       0.010
       0.002
      -0.003
      -0.005
      -0.006
      -0.005
      -0.001
       0.004
       0.007
       0.006
       0.001
      -0.005
      -0.008
      -0.007
      -0.006
      -0.007
      -0.008
      -0.004
       0.003
       0.011
       0.014
       0.013
       0.012
       0.011
       0.011
       0.011
       0.010
       0.011
       0.015
       0.021
       0.026
       0.027
       0.021
       0.009
      -0.002
      -0.008
      -0.004
       0.006
       0.015
       0.015
       0.008
       0.000
      -0.005
      -0.005
      -0.003
       0.001
       0.007
       0.014
       0.018
       0.017
       0.011
       0.002
      -0.006
      -0.010
      -0.011
      -0.010
      -0.008
      -0.006
      -0.004
      -0.003
      -0.001
       0.000
       0.000
      -0.005
      -0.015
      -0.022
      -0.018
      -0.002
       0.012
       0.005
      -0.022
      -0.046
      -0.031
       0.030
       0.101
       0.123
       0.074
      -0.011
      -0.063
      -0.051
      -0.013
      -0.013
      -0.061
      -0.089
      -0.010
       0.172
       0.326
       0.285
       0.011
      -0.329
      -0.477
      -0.315
       0.022
       0.269
       0.279
       0.134
       0.027
       0.037
       0.074
       0.005
      -0.171
      -0.292
      -0.184
       0.136
       0.419
       0.385
       0.015
      -0.388
      -0.479
      -0.210
       0.136
       0.261
       0.145
       0.020
       0.087
       0.289
       0.359
       0.098
      -0.371
      -0.657
      -0.454
       0.117
       0.576
       0.523
       0.010
      -0.513
      -0.594
      -0.156
       0.456
       0.750
       0.496
      -0.076
      -0.468
      -0.380
      -0.006
       0.189
      -0.031
      -0.415
      -0.510
      -0.144
       0.418
       0.770
       0.704
       0.292
      -0.238
      -0.609
      -0.613
      -0.294
       0.041
       0.100
      -0.070
      -0.161
       0.008
       0.297
       0.437
       0.296
      -0.077
      -0.532
      -0.824
      -0.695
      -0.136
       0.444
       0.525
       0.024
      -0.541
      -0.549
       0.085
       0.834
       1.104
       0.786
       0.279
       0.039
       0.137
       0.224
      -0.085
      -0.791
      -1.439
      -1.490
      -0.764
       0.430
       1.525
       2.015
       1.670
       0.632
      -0.613
      -1.466
      -1.605
      -1.192
      -0.641
      -0.181
       0.294
       0.907
       1.451
       1.482
       0.778
      -0.365
      -1.305
      -1.539
      -1.041
      -0.194
       0.536
       0.903
       0.920
       0.715
       0.386
      -0.049
      -0.572
      -1.033
      -1.120
      -0.571
       0.472
       1.391
       1.529
       0.804
      -0.200
      -0.804
      -0.841
      -0.639
      -0.519
      -0.447
      -0.195
       0.294
       0.776
       0.914
       0.565
      -0.109
      -0.760
      -1.063
      -0.878
      -0.304
       0.379
       0.845
       0.906
       0.591
       0.087
      -0.388
      -0.675
      -0.698
      -0.491
      -0.184
       0.094
       0.326
       0.565
       0.773
       0.756
       0.361
      -0.278
      -0.746
      -0.706
      -0.224
       0.289
       0.484
       0.352
       0.097
      -0.172
      -0.490
      -0.806
      -0.876
      -0.486
       0.269
       1.011
       1.380
       1.235
       0.633
      -0.259
      -1.160
      -1.681
      -1.486
      -0.539
       0.787
       1.866
       2.149
       1.470
       0.144
      -1.211
      -2.003
      -1.942
      -1.113
       0.107
       1.204
       1.738
       1.573
       0.963
       0.319
      -0.171
      -0.642
      -1.213
      -1.641
      -1.471
      -0.562
       0.641
       1.438
       1.438
       0.791
      -0.029
      -0.610
      -0.821
      -0.798
      -0.730
      -0.627
      -0.313
       0.309
       1.004
       1.309
       0.943
       0.093
      -0.729
      -1.092
      -0.907
      -0.370
       0.276
       0.860
       1.219
       1.133
       0.480
      -0.491
      -1.170
      -1.058
      -0.298
       0.396
       0.438
      -0.034
      -0.351
      -0.087
       0.458
       0.588
      -0.018
      -0.892
      -1.164
      -0.434
       0.739
       1.288
       0.685
      -0.525
      -1.286
      -1.062
      -0.244
       0.419
       0.596
       0.544
       0.616
       0.795
       0.742
       0.242
      -0.495
      -0.982
      -0.902
      -0.398
       0.091
       0.293
       0.351
       0.551
       0.852
       0.862
       0.319
      -0.503
      -1.008
      -0.883
      -0.402
      -0.084
      -0.139
      -0.309
      -0.210
       0.234
       0.729
       0.896
       0.579
      -0.058
      -0.670
      -0.947
      -0.783
      -0.325
       0.130
       0.329
       0.234
       0.041
       0.002
       0.196
       0.445
       0.488
       0.234
      -0.171
      -0.498
      -0.607
      -0.468
      -0.134
       0.256
       0.488
       0.422
       0.139
      -0.105
      -0.111
       0.093
       0.313
       0.360
       0.161
      -0.219
      -0.590
      -0.717
      -0.484
      -0.019
       0.369
       0.425
       0.165
      -0.138
      -0.177
       0.127
       0.542
       0.686
       0.333
      -0.347
      -0.860
      -0.790
      -0.211
       0.369
       0.516
       0.282
       0.043
       0.005
       0.010
      -0.146
      -0.365
      -0.358
      -0.040
       0.328
       0.424
       0.213
      -0.048
      -0.110
       0.021
       0.128
       0.019
      -0.280
      -0.532
      -0.459
       0.049
       0.781
       1.276
       1.145
       0.406
      -0.505
      -1.073
      -1.076
      -0.655
      -0.123
       0.249
       0.336
       0.167
      -0.095
      -0.242
      -0.196
      -0.097
      -0.161
      -0.380
      -0.448
      -0.094
       0.513
       0.847
       0.579
      -0.036
      -0.435
      -0.368
      -0.100
      -0.025
      -0.192
      -0.303
      -0.122
       0.244
       0.503
       0.537
       0.482
       0.468
       0.383
       0.022
      -0.585
      -1.068
      -1.021
      -0.381
       0.465
       0.973
       0.857
       0.287
      -0.289
      -0.521
      -0.413
      -0.228
      -0.204
      -0.329
      -0.376
      -0.141
       0.328
       0.714
       0.709
       0.329
      -0.081
      -0.200
      -0.068
      -0.012
      -0.220
      -0.459
      -0.297
       0.371
       1.068
       1.114
       0.312
      -0.798
      -1.425
      -1.254
      -0.639
      -0.106
       0.174
       0.378
       0.641
       0.852
       0.815
       0.482
      -0.032
      -0.553
      -0.901
      -0.897
      -0.453
       0.291
       0.948
       1.118
       0.688
      -0.086
      -0.749
      -0.922
      -0.511
       0.190
       0.627
       0.429
      -0.181
      -0.542
      -0.259
       0.323
       0.500
       0.022
      -0.636
      -0.833
      -0.439
       0.141
       0.485
       0.518
       0.390
       0.218
       0.033
      -0.124
      -0.232
      -0.342
      -0.477
      -0.489
      -0.181
       0.384
       0.821
       0.752
       0.157
      -0.579
      -0.935
      -0.623
       0.152
       0.782
       0.766
       0.225
      -0.178
       0.017
       0.495
       0.488
      -0.291
      -1.201
      -1.306
      -0.412
       0.697
       1.084
       0.585
      -0.159
      -0.447
      -0.164
       0.272
       0.425
       0.229
      -0.093
      -0.347
      -0.507
      -0.558
      -0.372
       0.098
       0.560
       0.544
      -0.058
      -0.727
      -0.769
      -0.066
       0.747
       0.927
       0.386
      -0.269
      -0.413
      -0.017
       0.407
       0.389
      -0.037
      -0.414
      -0.361
       0.043
       0.381
       0.357
       0.077
      -0.130
      -0.059
       0.217
       0.458
       0.453
       0.157
      -0.270
      -0.558
      -0.517
      -0.178
       0.199
       0.294
      -0.020
      -0.515
      -0.737
      -0.432
       0.122
       0.341
      -0.034
      -0.588
      -0.658
      -0.068
       0.682
       0.988
       0.766
       0.394
       0.149
      -0.093
      -0.524
      -0.986
      -1.039
      -0.449
       0.501
       1.192
       1.172
       0.525
      -0.203
      -0.483
      -0.259
       0.085
       0.180
       0.029
      -0.139
      -0.217
      -0.291
      -0.376
      -0.312
      -0.030
       0.231
       0.157
      -0.202
      -0.399
      -0.093
       0.512
       0.842
       0.556
      -0.093
      -0.538
      -0.504
      -0.260
      -0.260
      -0.544
      -0.601
       0.061
       1.220
       1.996
       1.726
       0.659
      -0.356
      -0.803
      -0.881
      -1.017
      -1.240
      -1.172
      -0.531
       0.496
       1.379
       1.685
       1.367
       0.672
      -0.129
      -0.869
      -1.414
      -1.613
      -1.362
      -0.704
       0.150
       0.901
       1.297
       1.251
       0.839
       0.231
      -0.386
      -0.823
      -0.947
      -0.769
      -0.450
      -0.110
       0.297
       0.814
       1.194
       1.000
       0.138
      -0.841
      -1.182
      -0.683
       0.121
       0.520
       0.286
      -0.203
      -0.386
      -0.053
       0.460
       0.622
       0.280
      -0.179
      -0.301
      -0.097
       0.054
      -0.011
      -0.001
       0.355
       0.765
       0.576
      -0.397
      -1.416
      -1.457
      -0.352
       0.872
       0.995
      -0.101
      -1.260
      -1.233
       0.051
       1.415
       1.570
       0.322
      -1.263
      -1.846
      -1.005
       0.470
       1.408
       1.323
       0.681
       0.233
       0.218
       0.280
       0.041
      -0.417
      -0.721
      -0.703
      -0.523
      -0.318
       0.054
       0.708
       1.300
       1.180
       0.142
      -1.162
      -1.750
      -1.261
      -0.263
       0.393
       0.386
       0.101
       0.144
       0.763
       1.613
       1.982
       1.348
      -0.110
      -1.538
      -2.021
      -1.323
      -0.061
       0.857
       0.989
       0.621
       0.336
       0.359
       0.350
      -0.148
      -1.051
      -1.694
      -1.521
      -0.683
       0.201
       0.709
       0.810
       0.592
       0.165
      -0.158
      -0.003
       0.596
       1.120
       1.116
       0.616
      -0.126
      -1.027
      -2.023
      -2.674
      -2.352
      -0.945
       0.810
       1.902
       1.904
       1.181
       0.328
      -0.394
      -1.017
      -1.431
      -1.238
      -0.129
       1.662
       3.342
       4.029
       3.333
       1.615
      -0.261
      -1.488
      -1.806
      -1.585
      -1.418
      -1.550
      -1.677
      -1.383
      -0.757
      -0.419
      -0.803
      -1.508
      -1.571
      -0.473
       1.253
       2.501
       2.592
       1.749
       0.734
       0.246
       0.548
       1.324
       1.744
       0.970
      -1.010
      -2.993
      -3.346
      -1.483
       1.418
       3.321
       3.021
       0.964
      -1.426
      -2.964
      -3.265
      -2.545
      -1.247
       0.150
       1.280
       2.002
       2.271
       1.895
       0.626
      -1.355
      -3.224
      -3.988
      -3.221
      -1.308
       0.958
       2.888
       4.084
       4.339
       3.577
       1.959
      -0.026
      -1.717
      -2.622
      -2.619
      -1.860
      -0.566
       1.024
       2.535
       3.397
       3.003
       1.071
      -1.969
      -4.881
      -6.123
      -4.835
      -1.587
       1.889
       3.923
       3.994
       2.716
       0.961
      -0.780
      -2.173
      -2.643
      -1.689
       0.339
       2.120
       2.342
       0.879
      -1.045
      -1.885
      -1.047
       0.702
       1.928
       1.670
       0.082
      -1.818
      -2.937
      -2.757
      -1.416
       0.561
       2.483
       3.629
       3.514
       2.261
       0.625
      -0.542
      -0.915
      -0.771
      -0.562
      -0.553
      -0.820
      -1.313
      -1.779
      -1.809
      -1.180
      -0.161
       0.663
       0.925
       0.799
       0.768
       1.078
       1.430
       1.217
       0.142
      -1.326
      -2.176
      -1.692
      -0.163
       1.283
       1.648
       0.924
      -0.020
      -0.320
       0.147
       0.819
       1.044
       0.585
      -0.343
      -1.301
      -1.815
      -1.491
      -0.266
       1.297
       2.133
       1.449
      -0.489
      -2.428
      -3.140
      -2.380
      -0.910
       0.324
       0.970
       1.318
       1.741
       2.213
       2.397
       2.053
       1.256
       0.217
      -0.912
      -1.942
      -2.476
      -2.080
      -0.766
       0.809
       1.736
       1.535
       0.460
      -0.800
      -1.674
      -2.000
      -1.884
      -1.401
      -0.512
       0.748
       2.073
       2.962
       2.975
       1.965
       0.164
      -1.829
      -3.205
      -3.329
      -2.164
      -0.356
       1.171
       1.821
       1.627
       1.059
       0.574
       0.318
       0.136
      -0.196
      -0.712
      -1.157
      -1.164
      -0.575
       0.385
       1.264
       1.700
       1.625
       1.215
       0.719
       0.310
       0.027
      -0.237
      -0.664
      -1.339
      -2.066
      -2.405
      -1.993
      -0.911
       0.271
       0.901
       0.786
       0.360
       0.283
       0.821
       1.612
       2.015
       1.658
       0.656
      -0.551
      -1.461
      -1.700
      -1.204
      -0.308
       0.442
       0.709
       0.609
       0.518
       0.659
       0.881
       0.819
       0.260
      -0.627
      -1.412
      -1.761
      -1.667
      -1.343
      -0.937
      -0.408
       0.315
       1.091
       1.538
       1.307
       0.433
      -0.595
      -1.143
      -0.864
       0.065
       1.064
       1.545
       1.323
       0.705
       0.163
      -0.075
      -0.127
      -0.224
      -0.454
      -0.692
      -0.704
      -0.327
       0.327
       0.856
       0.878
       0.447
       0.054
       0.118
       0.520
       0.742
       0.430
      -0.261
      -0.864
      -1.054
      -0.929
      -0.865
      -1.111
      -1.472
      -1.447
      -0.770
       0.217
       0.839
       0.758
       0.265
      -0.097
      -0.124
      -0.066
      -0.228
      -0.566
      -0.722
      -0.392
       0.350
       1.075
       1.318
       0.917
       0.116
      -0.629
      -0.947
      -0.722
      -0.091
       0.679
       1.350
       1.800
       1.988
       1.837
       1.234
       0.187
      -1.030
      -1.966
      -2.256
      -1.827
      -0.871
       0.278
       1.240
       1.689
       1.516
       0.942
       0.371
       0.056
      -0.040
      -0.061
      -0.077
      -0.091
      -0.134
      -0.239
      -0.397
      -0.577
      -0.724
      -0.713
      -0.425
       0.025
       0.244
      -0.075
      -0.749
      -1.201
      -1.056
      -0.520
      -0.081
       0.069
       0.177
       0.504
       0.927
       1.065
       0.733
       0.149
      -0.293
      -0.378
      -0.169
       0.129
       0.340
       0.391
       0.311
       0.190
       0.092
      -0.017
      -0.237
      -0.590
      -0.940
      -1.077
      -0.884
      -0.377
       0.365
       1.197
       1.804
       1.774
       0.970
      -0.173
      -0.901
      -0.818
      -0.271
       0.027
      -0.268
      -0.811
      -1.003
      -0.667
      -0.214
      -0.127
      -0.397
      -0.537
      -0.170
       0.527
       1.002
       0.910
       0.441
       0.064
      -0.010
      -0.028
      -0.338
      -0.898
      -1.238
      -0.956
      -0.161
       0.646
       1.046
       0.984
       0.671
       0.388
       0.348
       0.585
       0.890
       0.957
       0.643
       0.097
      -0.361
      -0.518
      -0.488
      -0.632
      -1.175
      -1.849
      -2.036
      -1.347
      -0.034
       1.209
       1.821
       1.761
       1.404
       1.125
       0.956
       0.643
       0.038
      -0.579
      -0.709
      -0.224
       0.352
       0.303
      -0.492
      -1.349
      -1.436
      -0.620
       0.418
       0.853
       0.455
      -0.340
      -0.925
      -0.986
      -0.574
       0.089
       0.759
       1.214
       1.308
       1.017
       0.439
      -0.270
      -0.941
      -1.415
      -1.556
      -1.290
      -0.679
       0.056
       0.669
       1.108
       1.494
       1.821
       1.763
       0.968
      -0.426
      -1.711
      -2.143
      -1.540
      -0.384
       0.594
       0.924
       0.652
       0.210
      -0.002
       0.032
       0.009
      -0.276
      -0.625
      -0.588
       0.101
       1.197
       2.023
       1.916
       0.773
      -0.761
      -1.733
      -1.629
      -0.730
       0.265
       0.853
       0.946
       0.632
      -0.028
      -0.908
      -1.678
      -1.933
      -1.506
      -0.650
       0.133
       0.501
       0.519
       0.493
       0.583
       0.637
       0.414
      -0.095
      -0.588
      -0.696
      -0.309
       0.287
       0.647
       0.598
       0.410
       0.472
       0.831
       1.151
       1.124
       0.809
       0.513
       0.403
       0.332
       0.019
      -0.641
      -1.441
