Origin Time       11/11/2013 20:11:30
Lat.              28.4 N	
Long.             77.2 E	
Depth (Km)         10.0
Magnitude         3.3
 Region           DELHI                                                            
 Above details taken from IMD 
   
Station Code      DCE
Station Lat.       28.795
Station Long.      77.118
Station Height(m)  208.0
Site Class        C   Vs30 between 200 m/sec to 375 m/sec *  
Record Time       11.11.2013 20:11:08.514
Sampling Rate     200. Hz
 Record Duration   86.960 Sec.
 Direction         Vert. (Up positive)
Max. Acceleration      3.861 cm/sec**2
     
  * For reference see Site Classification link of website 
     
 Base Line Corrected and Low Pass Filtered (Cut Off at 35 Hz) Time History
 Acceleration data in cm/sec**2
    
[...]
      -0.008
      -0.007
      -0.006
      -0.004
      -0.001
       0.003
       0.004
       0.002
      -0.003
      -0.006
      -0.005
      -0.003
       0.000
       0.001
       0.002
       0.003
       0.006
       0.007
       0.007
       0.005
       0.003
       0.004
       0.006
       0.008
       0.010
       0.011
       0.011
       0.006
      -0.001
      -0.006
      -0.007
      -0.005
      -0.004
      -0.004
      -0.002
       0.004
       0.010
       0.013
       0.009
       0.000
      -0.007
      -0.007
      -0.002
       0.006
       0.013
       0.017
       0.017
       0.014
       0.009
       0.003
      -0.001
      -0.005
      -0.008
      -0.009
      -0.006
       0.001
       0.008
       0.012
       0.011
       0.009
       0.009
       0.013
       0.014
       0.012
       0.006
       0.002
       0.003
       0.006
       0.009
       0.009
       0.007
       0.004
       0.002
       0.003
       0.005
       0.007
       0.005
       0.001
      -0.004
      -0.007
      -0.008
      -0.008
      -0.008
      -0.006
      -0.004
      -0.003
      -0.004
      -0.006
      -0.007
      -0.006
      -0.003
       0.001
       0.004
       0.003
      -0.001
      -0.008
      -0.013
      -0.016
      -0.015
      -0.013
      -0.009
      -0.005
       0.000
       0.004
       0.005
       0.004
       0.001
      -0.002
      -0.004
      -0.004
      -0.001
       0.002
       0.005
       0.005
       0.000
      -0.006
      -0.007
      -0.002
       0.005
       0.010
       0.010
       0.009
       0.011
       0.016
       0.021
       0.023
       0.021
       0.018
       0.014
       0.010
       0.006
       0.004
       0.004
       0.006
       0.007
       0.004
      -0.001
      -0.003
      -0.002
       0.003
       0.008
       0.010
       0.007
       0.002
      -0.003
      -0.005
      -0.004
      -0.003
      -0.005
      -0.012
      -0.019
      -0.019
      -0.013
      -0.004
       0.002
       0.001
      -0.002
      -0.003
       0.001
       0.005
       0.004
      -0.002
      -0.008
      -0.009
      -0.005
      -0.002
      -0.001
      -0.003
      -0.004
      -0.002
       0.001
       0.003
       0.003
       0.001
       0.002
       0.008
       0.019
       0.032
       0.045
       0.055
       0.062
       0.068
       0.076
       0.084
       0.086
       0.077
       0.056
       0.034
       0.036
       0.086
       0.184
       0.290
       0.326
       0.208
      -0.095
      -0.525
      -0.935
      -1.153
      -1.060
      -0.646
      -0.005
       0.696
       1.267
       1.523
       1.324
       0.634
      -0.404
      -1.450
      -2.073
      -1.955
      -1.086
       0.197
       1.375
       1.996
       1.874
       1.136
       0.118
      -0.797
      -1.337
      -1.401
      -1.041
      -0.421
       0.231
       0.689
       0.826
       0.687
       0.432
       0.209
       0.062
      -0.052
      -0.176
      -0.293
      -0.329
      -0.220
      -0.012
       0.134
       0.065
      -0.193
      -0.426
      -0.411
      -0.117
       0.266
       0.484
       0.407
       0.136
      -0.080
      -0.061
       0.127
       0.215
      -0.002
      -0.432
      -0.743
      -0.648
      -0.153
       0.445
       0.789
       0.710
       0.323
      -0.086
      -0.267
      -0.184
      -0.021
       0.001
      -0.161
      -0.338
      -0.350
      -0.201
      -0.044
       0.023
       0.054
       0.158
       0.371
       0.613
       0.727
       0.556
       0.073
      -0.506
      -0.833
      -0.702
      -0.243
       0.214
       0.435
       0.446
       0.434
       0.514
       0.605
       0.484
      -0.005
      -0.749
      -1.352
      -1.379
      -0.701
       0.355
       1.199
       1.366
       0.796
      -0.158
      -0.933
      -1.087
      -0.586
       0.174
       0.675
       0.680
       0.348
      -0.026
      -0.299
      -0.507
      -0.675
      -0.699
      -0.471
      -0.043
       0.371
       0.579
       0.562
       0.455
       0.387
       0.347
       0.196
      -0.162
      -0.612
      -0.858
      -0.655
      -0.027
       0.717
       1.160
       1.035
       0.410
      -0.342
      -0.791
      -0.752
      -0.378
       0.028
       0.275
       0.373
       0.408
       0.397
       0.276
      -0.009
      -0.401
      -0.715
      -0.740
      -0.403
       0.124
       0.513
       0.498
       0.075
      -0.466
      -0.725
      -0.499
       0.056
       0.545
       0.649
       0.357
      -0.078
      -0.365
      -0.397
      -0.277
      -0.180
      -0.162
      -0.116
       0.097
       0.463
       0.763
       0.732
       0.287
      -0.371
      -0.863
      -0.879
      -0.383
       0.357
       0.935
       1.036
       0.604
      -0.119
      -0.709
      -0.810
      -0.388
       0.231
       0.597
       0.469
      -0.032
      -0.553
      -0.769
      -0.562
      -0.054
       0.501
       0.847
       0.840
       0.482
      -0.085
      -0.627
      -0.907
      -0.796
      -0.351
       0.213
       0.658
       0.831
       0.688
       0.285
      -0.210
      -0.555
      -0.562
      -0.261
       0.088
       0.221
       0.099
      -0.078
      -0.099
       0.063
       0.262
       0.313
       0.122
      -0.236
      -0.534
      -0.522
      -0.134
       0.419
       0.772
       0.666
       0.142
      -0.487
      -0.831
      -0.670
      -0.108
       0.485
       0.737
       0.554
       0.160
      -0.108
      -0.066
       0.193
       0.379
       0.233
      -0.247
      -0.748
      -0.875
      -0.492
       0.137
       0.584
       0.616
       0.336
       0.009
      -0.180
      -0.222
      -0.200
      -0.170
      -0.108
       0.034
       0.216
       0.299
       0.181
      -0.071
      -0.279
      -0.320
      -0.206
      -0.017
       0.165
       0.282
       0.305
       0.249
       0.157
       0.062
      -0.058
      -0.247
      -0.484
      -0.648
      -0.593
      -0.261
       0.259
       0.775
       1.049
       0.913
       0.377
      -0.339
      -0.906
      -1.041
      -0.646
       0.113
       0.851
       1.149
       0.822
       0.071
      -0.618
      -0.813
      -0.459
       0.104
       0.435
       0.344
      -0.008
      -0.289
      -0.291
      -0.077
       0.108
       0.071
      -0.169
      -0.425
      -0.509
      -0.359
      -0.035
       0.334
       0.590
       0.609
       0.378
       0.028
      -0.253
      -0.358
      -0.318
      -0.232
      -0.183
      -0.184
      -0.161
       0.007
       0.383
       0.849
       1.117
       0.922
       0.253
      -0.591
      -1.177
      -1.210
      -0.709
       0.016
       0.570
       0.715
       0.488
       0.120
      -0.152
      -0.232
      -0.160
      -0.023
       0.102
       0.131
      -0.004
      -0.269
      -0.496
      -0.494
      -0.220
       0.188
       0.528
       0.664
       0.558
       0.253
      -0.125
      -0.389
      -0.388
      -0.122
       0.220
       0.361
       0.119
      -0.436
      -0.969
      -1.074
      -0.544
       0.450
       1.411
       1.773
       1.235
      -0.010
      -1.325
      -1.976
      -1.579
      -0.347
       1.020
       1.757
       1.501
       0.507
      -0.541
      -0.992
      -0.647
       0.147
       0.763
       0.759
       0.173
      -0.557
      -0.960
      -0.839
      -0.309
       0.346
       0.810
       0.833
       0.360
      -0.359
      -0.862
      -0.780
      -0.135
       0.633
       0.978
       0.654
      -0.107
      -0.806
      -1.052
      -0.782
      -0.209
       0.373
       0.726
       0.736
       0.424
      -0.058
      -0.485
      -0.678
      -0.594
      -0.313
       0.049
       0.394
       0.631
       0.664
       0.448
       0.077
      -0.240
      -0.336
      -0.219
      -0.031
       0.092
       0.110
       0.053
      -0.037
      -0.126
      -0.167
      -0.090
       0.134
       0.416
       0.573
       0.478
       0.181
      -0.128
      -0.302
      -0.336
      -0.305
      -0.262
      -0.218
      -0.187
      -0.173
      -0.132
      -0.008
       0.160
       0.221
       0.050
      -0.295
      -0.568
      -0.523
      -0.137
       0.338
       0.571
       0.404
      -0.044
      -0.478
      -0.602
      -0.298
       0.281
       0.801
       0.988
       0.786
       0.324
      -0.212
      -0.642
      -0.810
      -0.646
      -0.224
       0.269
       0.649
       0.830
       0.809
       0.612
       0.288
      -0.079
      -0.403
      -0.643
      -0.815
      -0.906
      -0.811
      -0.407
       0.270
       0.945
       1.235
       0.908
       0.091
      -0.740
      -1.051
      -0.678
       0.000
       0.390
       0.235
      -0.175
      -0.330
      -0.005
       0.555
       0.882
       0.697
       0.097
      -0.569
      -0.974
      -0.974
      -0.612
      -0.059
       0.480
       0.856
       1.009
       0.918
       0.560
      -0.053
      -0.802
      -1.421
      -1.571
      -1.046
      -0.020
       0.949
       1.291
       0.887
       0.166
      -0.282
      -0.202
       0.181
       0.455
       0.396
       0.096
      -0.201
      -0.314
      -0.206
       0.040
       0.293
       0.436
       0.414
       0.225
      -0.080
      -0.400
      -0.630
      -0.726
      -0.692
      -0.498
      -0.107
       0.380
       0.681
       0.542
       0.016
      -0.519
      -0.637
      -0.220
       0.439
       0.866
       0.783
       0.313
      -0.175
      -0.414
      -0.432
      -0.411
      -0.433
      -0.405
      -0.217
       0.101
       0.403
       0.573
       0.596
       0.504
       0.301
      -0.016
      -0.372
      -0.615
      -0.614
      -0.354
       0.046
       0.379
       0.470
       0.316
       0.085
      -0.024
       0.071
       0.296
       0.470
       0.391
      -0.033
      -0.660
      -1.120
      -1.061
      -0.466
       0.277
       0.693
       0.621
       0.296
       0.066
       0.087
       0.248
       0.338
       0.232
      -0.033
      -0.328
      -0.540
      -0.612
      -0.500
      -0.154
       0.382
       0.858
       0.918
       0.426
      -0.339
      -0.912
      -1.049
      -0.823
      -0.396
       0.131
       0.640
       0.951
       0.939
       0.637
       0.200
      -0.197
      -0.459
      -0.589
      -0.613
      -0.518
      -0.300
      -0.043
       0.098
       0.024
      -0.207
      -0.400
      -0.351
      -0.011
       0.453
       0.765
       0.728
       0.328
      -0.286
      -0.864
      -1.092
      -0.712
       0.252
       1.335
       1.834
       1.350
       0.170
      -0.925
      -1.280
      -0.812
       0.022
       0.591
       0.484
      -0.216
      -0.985
      -1.243
      -0.767
       0.222
       1.231
       1.732
       1.400
       0.359
      -0.779
      -1.274
      -0.832
       0.125
       0.801
       0.689
      -0.014
      -0.621
      -0.575
       0.058
       0.671
       0.678
       0.045
      -0.688
      -0.853
      -0.191
       0.925
       1.725
       1.592
       0.510
      -0.921
      -1.899
      -1.934
      -1.121
      -0.012
       0.785
       0.969
       0.631
       0.058
      -0.486
      -0.860
      -1.001
      -0.856
      -0.368
       0.418
       1.245
       1.692
       1.438
       0.548
      -0.513
      -1.208
      -1.312
      -0.991
      -0.557
      -0.198
       0.073
       0.348
       0.726
       1.207
       1.563
       1.412
       0.531
      -0.831
      -1.989
      -2.215
      -1.237
       0.517
       2.116
       2.686
       1.938
       0.336
      -1.242
      -2.071
      -1.946
      -1.144
      -0.190
       0.394
       0.378
      -0.013
      -0.303
      -0.199
       0.234
       0.716
       0.928
       0.605
      -0.271
      -1.284
      -1.780
      -1.412
      -0.454
       0.507
       1.119
       1.466
       1.794
       2.149
       2.262
       1.729
       0.381
      -1.454
      -3.026
      -3.582
      -2.819
      -1.078
       0.835
       2.070
       2.142
       1.147
      -0.314
      -1.459
      -1.755
      -1.178
      -0.130
       0.866
       1.412
       1.355
       0.817
       0.135
      -0.351
      -0.508
      -0.419
      -0.202
       0.123
       0.571
       1.054
       1.350
       1.223
       0.565
      -0.516
      -1.655
      -2.304
      -2.045
      -0.957
       0.352
       1.172
       1.211
       0.721
       0.183
      -0.119
      -0.249
      -0.410
      -0.682
      -0.943
      -0.971
      -0.585
       0.213
       1.132
       1.703
       1.594
       0.891
       0.041
      -0.482
      -0.491
      -0.135
       0.268
       0.425
       0.217
      -0.240
      -0.678
      -0.876
      -0.773
      -0.457
      -0.095
       0.132
       0.135
      -0.001
      -0.098
      -0.055
       0.078
       0.183
       0.192
       0.134
       0.107
       0.181
       0.337
       0.489
       0.568
       0.550
       0.413
       0.076
      -0.511
      -1.191
      -1.569
      -1.311
      -0.505
       0.339
       0.730
       0.642
       0.477
       0.564
       0.787
       0.707
       0.016
      -1.135
      -2.178
      -2.478
      -1.730
      -0.126
       1.773
       3.286
       3.861
       3.260
       1.668
      -0.351
      -2.094
      -3.062
      -3.139
      -2.487
      -1.299
       0.235
       1.747
       2.660
       2.551
       1.539
       0.228
      -0.784
      -1.277
      -1.355
      -1.174
      -0.808
      -0.306
       0.242
       0.708
       0.981
       0.999
       0.758
       0.280
      -0.413
      -1.224
      -1.876
      -1.978
      -1.321
      -0.147
       0.946
       1.418
       1.148
       0.438
      -0.255
      -0.583
      -0.437
       0.022
       0.439
       0.464
       0.002
      -0.677
      -1.056
      -0.684
       0.468
       1.849
       2.635
       2.303
       1.007
      -0.553
      -1.622
      -1.810
      -1.232
      -0.347
       0.332
       0.497
       0.166
      -0.350
      -0.631
      -0.452
       0.034
       0.433
       0.452
       0.140
      -0.214
      -0.369
      -0.294
      -0.102
       0.114
       0.335
       0.536
       0.607
       0.396
      -0.141
      -0.826
      -1.324
      -1.370
      -0.949
      -0.256
       0.466
       1.009
       1.194
       0.911
       0.261
      -0.402
      -0.642
      -0.261
       0.500
       1.078
       0.998
       0.246
      -0.693
      -1.160
      -0.781
       0.271
       1.384
       1.900
       1.512
       0.415
      -0.852
      -1.698
      -1.776
      -1.127
      -0.115
       0.796
       1.265
       1.197
       0.723
       0.091
      -0.467
      -0.820
      -0.952
      -0.929
      -0.839
      -0.713
      -0.504
      -0.144
       0.343
       0.773
       0.872
       0.497
      -0.187
      -0.765
      -0.886
      -0.554
      -0.074
       0.261
       0.399
       0.476
       0.619
       0.817
       0.919
       0.731
       0.199
      -0.484
      -0.962
      -0.976
      -0.547
       0.037
       0.427
       0.435
       0.166
      -0.072
      -0.026
       0.274
       0.538
       0.493
       0.160
      -0.150
      -0.136
       0.182
       0.467
       0.384
      -0.108
      -0.743
      -1.155
      -1.116
      -0.669
      -0.089
       0.309
       0.363
       0.111
      -0.281
      -0.587
      -0.601
      -0.261
       0.280
       0.740
       0.901
       0.722
       0.287
      -0.269
      -0.762
      -0.965
      -0.724
      -0.082
       0.713
       1.298
       1.345
       0.759
      -0.176
      -0.898
      -0.951
      -0.348
       0.456
       0.936
       0.850
       0.324
      -0.294
      -0.634
      -0.520
      -0.066
       0.393
       0.523
       0.199
      -0.430
      -1.035
      -1.298
      -1.104
      -0.593
      -0.035
       0.396
       0.697
       0.907
       0.964
       0.750
       0.259
      -0.344
      -0.824
      -1.014
      -0.874
      -0.487
      -0.012
       0.389
       0.620
       0.670
       0.574
       0.362
       0.061
      -0.249
      -0.436
      -0.390
      -0.118
       0.252
       0.526
       0.528
       0.235
      -0.140
      -0.271
      -0.021
       0.439
       0.808
       0.892
       0.662
       0.190
      -0.358
      -0.735
      -0.736
      -0.379
       0.070
       0.312
       0.248
      -0.006
      -0.276
      -0.466
      -0.555
      -0.562
      -0.529
      -0.512
      -0.548
      -0.607
      -0.580
      -0.331
       0.201
       0.902
       1.466
       1.543
       0.985
       0.015
      -0.876
      -1.241
      -0.970
      -0.332
       0.255
       0.539
       0.572
       0.552
       0.562
       0.481
       0.140
      -0.453
      -1.064
      -1.363
      -1.146
      -0.474
       0.335
       0.875
       0.888
       0.416
      -0.217
      -0.590
      -0.459
       0.071
       0.632
       0.873
       0.695
       0.267
      -0.148
      -0.370
      -0.362
      -0.177
       0.098
       0.368
       0.507
       0.397
       0.049
      -0.322
      -0.444
      -0.240
       0.105
       0.336
       0.316
       0.064
      -0.279
      -0.517
      -0.499
      -0.214
       0.206
       0.545
       0.580
       0.226
      -0.310
      -0.611
      -0.389
       0.234
       0.785
       0.812
       0.255
      -0.479
      -0.822
      -0.501
       0.225
       0.777
       0.735
       0.163
      -0.504
      -0.848
      -0.756
      -0.404
      -0.063
       0.092
       0.045
      -0.079
      -0.106
       0.058
       0.343
       0.561
       0.567
       0.365
       0.074
      -0.185
      -0.343
      -0.344
      -0.138
       0.244
       0.614
       0.694
       0.312
      -0.416
      -1.074
      -1.204
      -0.683
       0.142
       0.719
       0.732
       0.283
      -0.288
      -0.657
      -0.648
      -0.263
       0.313
       0.807
       1.013
       0.891
       0.539
       0.118
      -0.210
      -0.358
      -0.383
      -0.429
      -0.560
      -0.671
      -0.580
      -0.216
       0.297
       0.677
       0.636
       0.097
      -0.668
      -1.162
      -1.030
      -0.331
       0.527
       1.115
       1.230
       0.933
       0.437
      -0.025
      -0.316
      -0.433
      -0.442
      -0.384
      -0.277
      -0.166
      -0.121
      -0.170
      -0.275
      -0.354
      -0.323
      -0.155
       0.074
       0.225
       0.220
       0.129
       0.103
       0.247
       0.518
       0.724
       0.660
       0.304
      -0.124
      -0.344
      -0.274
      -0.090
      -0.032
      -0.181
      -0.407
      -0.506
      -0.371
      -0.063
       0.240
       0.378
       0.318
       0.147
      -0.022
      -0.130
      -0.188
      -0.239
      -0.312
      -0.387
      -0.390
      -0.234
       0.109
       0.548
       0.879
       0.867
       0.427
      -0.248
      -0.757
      -0.768
      -0.275
