Origin Time       05/3/2012 07:41:05	 UTC
Lat.              28.7 N	
Long.             76.6 E	
Depth (Km)         14.0
Magnitude         4.9
 Region           Haryana-Delhi-Border-Region                                      
 Above details taken from IMD 
    
Station Code      DCE
Station Lat.       28.795  N
Station Long.      77.118  E
Station Height(m)  208.0
Site Class        C   Vs30 between 200 m/sec to 375 m/sec *  
Record Time       05.03.2012 07:40:50.884 UTC
Sampling Rate     200. Hz
 Record Duration  110.460 Sec.
 Direction         N-S (N positive)
Max. Acceleration     10.320 cm/sec**2
     
  * For reference see Site Classification link of website 
     
 Base Line Corrected and Low Pass Filtered (Cut Off at 35 Hz) Time History
 Acceleration data in cm/sec**2
    
[...]
      -0.081
      -0.062
       0.093
       0.413
       0.778
       1.006
       0.995
       0.801
       0.573
       0.426
       0.346
       0.234
       0.036
      -0.183
      -0.283
      -0.179
       0.074
       0.312
       0.375
       0.206
      -0.132
      -0.511
      -0.815
      -0.986
      -1.015
      -0.921
      -0.743
      -0.546
      -0.411
      -0.398
      -0.501
      -0.643
      -0.722
      -0.674
      -0.499
      -0.254
      -0.017
       0.138
       0.163
       0.054
      -0.129
      -0.287
      -0.329
      -0.226
      -0.014
       0.222
       0.404
       0.492
       0.498
       0.470
       0.463
       0.521
       0.664
       0.863
       1.023
       1.017
       0.768
       0.323
      -0.147
      -0.456
      -0.516
      -0.386
      -0.198
      -0.058
      -0.004
      -0.031
      -0.137
      -0.327
      -0.561
      -0.738
      -0.733
      -0.491
      -0.078
       0.352
       0.651
       0.753
       0.685
       0.515
       0.305
       0.097
      -0.071
      -0.161
      -0.150
      -0.049
       0.114
       0.301
       0.464
       0.536
       0.459
       0.238
      -0.037
      -0.229
      -0.237
      -0.069
       0.161
       0.301
       0.258
       0.053
      -0.209
      -0.429
      -0.573
      -0.676
      -0.786
      -0.916
      -1.030
      -1.050
      -0.907
      -0.595
      -0.205
       0.101
       0.184
       0.011
      -0.318
      -0.644
      -0.846
      -0.906
      -0.880
      -0.818
      -0.713
      -0.516
      -0.193
       0.230
       0.656
       0.953
       1.026
       0.867
       0.568
       0.268
       0.069
      -0.015
      -0.033
      -0.020
       0.053
       0.247
       0.579
       0.979
       1.326
       1.521
       1.525
       1.368
       1.124
       0.858
       0.607
       0.369
       0.135
      -0.082
      -0.244
      -0.312
      -0.298
      -0.279
      -0.356
      -0.572
      -0.862
      -1.085
      -1.111
      -0.901
      -0.499
       0.019
       0.584
       1.113
       1.485
       1.559
       1.253
       0.614
      -0.169
      -0.842
      -1.185
      -1.102
      -0.642
       0.029
       0.686
       1.105
       1.108
       0.637
      -0.200
      -1.141
      -1.871
      -2.170
      -2.023
      -1.595
      -1.114
      -0.735
      -0.491
      -0.350
      -0.288
      -0.302
      -0.355
      -0.358
      -0.211
       0.105
       0.495
       0.810
       0.936
       0.853
       0.609
       0.271
      -0.103
      -0.442
      -0.659
      -0.678
      -0.502
      -0.229
       0.001
       0.093
       0.045
      -0.071
      -0.164
      -0.173
      -0.097
       0.002
       0.042
      -0.018
      -0.144
      -0.243
      -0.240
      -0.136
       0.008
       0.143
       0.281
       0.462
       0.665
       0.774
       0.666
       0.339
      -0.052
      -0.301
      -0.307
      -0.129
       0.090
       0.247
       0.335
       0.395
       0.442
       0.462
       0.466
       0.513
       0.656
       0.865
       1.012
       0.962
       0.687
       0.313
       0.030
      -0.034
       0.100
       0.292
       0.368
       0.205
      -0.222
      -0.825
      -1.423
      -1.795
      -1.777
      -1.354
      -0.677
       0.011
       0.522
       0.811
       0.957
       1.050
       1.105
       1.083
       0.968
       0.809
       0.680
       0.608
       0.542
       0.392
       0.102
      -0.297
      -0.691
      -0.934
      -0.927
      -0.674
      -0.296
       0.008
       0.064
      -0.172
      -0.581
      -0.952
      -1.106
      -0.988
      -0.661
      -0.241
       0.177
       0.541
       0.829
       1.027
       1.137
       1.199
       1.275
       1.402
       1.538
       1.570
       1.391
       0.978
       0.424
      -0.109
      -0.486
      -0.674
      -0.733
      -0.740
      -0.730
      -0.686
      -0.590
      -0.460
      -0.345
      -0.299
      -0.358
      -0.528
      -0.764
      -0.972
      -1.044
      -0.910
      -0.580
      -0.140
       0.285
       0.577
       0.667
       0.568
       0.359
       0.154
       0.058
       0.136
       0.369
       0.637
       0.767
       0.627
       0.215
      -0.342
      -0.867
      -1.224
      -1.378
      -1.373
      -1.268
      -1.090
      -0.839
      -0.523
      -0.197
       0.051
       0.160
       0.136
       0.050
      -0.041
      -0.143
      -0.308
      -0.535
      -0.725
      -0.733
      -0.480
      -0.033
       0.420
       0.685
       0.682
       0.464
       0.151
      -0.180
      -0.534
      -0.949
      -1.395
      -1.725
      -1.739
      -1.330
      -0.602
       0.186
       0.791
       1.146
       1.339
       1.476
       1.568
       1.537
       1.328
       0.981
       0.620
       0.367
       0.272
       0.298
       0.364
       0.379
       0.264
      -0.029
      -0.464
      -0.888
      -1.089
      -0.935
      -0.473
       0.096
       0.545
       0.749
       0.706
       0.500
       0.250
       0.083
       0.110
       0.369
       0.768
       1.092
       1.112
       0.737
       0.113
      -0.452
      -0.677
      -0.476
       0.008
       0.508
       0.782
       0.709
       0.309
      -0.281
      -0.850
      -1.193
      -1.199
      -0.910
      -0.489
      -0.125
       0.078
       0.132
       0.125
       0.122
       0.117
       0.058
      -0.078
      -0.227
      -0.292
      -0.232
      -0.116
      -0.049
      -0.059
      -0.064
       0.026
       0.177
       0.246
       0.132
      -0.093
      -0.217
      -0.074
       0.308
       0.719
       0.928
       0.840
       0.527
       0.140
      -0.190
      -0.380
      -0.381
      -0.192
       0.104
       0.339
       0.372
       0.216
       0.059
       0.114
       0.426
       0.791
       0.898
       0.567
      -0.098
      -0.770
      -1.129
      -1.049
      -0.655
      -0.201
       0.089
       0.138
       0.036
      -0.039
       0.057
       0.342
       0.713
       1.013
       1.111
       0.940
       0.523
      -0.020
      -0.511
      -0.787
      -0.785
      -0.566
      -0.267
      -0.013
       0.135
       0.164
       0.080
      -0.110
      -0.370
      -0.601
      -0.667
      -0.476
      -0.077
       0.340
       0.550
       0.439
       0.072
      -0.346
      -0.597
      -0.566
      -0.303
       0.020
       0.228
       0.241
       0.101
      -0.068
      -0.147
      -0.089
       0.060
       0.189
       0.181
      -0.019
      -0.378
      -0.776
      -1.065
      -1.157
      -1.083
      -0.952
      -0.832
      -0.661
      -0.296
       0.317
       1.040
       1.608
       1.801
       1.567
       1.003
       0.261
      -0.521
      -1.187
      -1.553
      -1.484
      -1.011
      -0.353
       0.220
       0.570
       0.738
       0.821
       0.817
       0.609
       0.116
      -0.555
      -1.125
      -1.341
      -1.161
      -0.746
      -0.294
       0.102
       0.454
       0.773
       1.008
       1.089
       1.016
       0.899
       0.874
       0.976
       1.091
       1.027
       0.670
       0.080
      -0.533
      -0.939
      -1.028
      -0.854
      -0.596
      -0.465
      -0.592
      -0.942
      -1.304
      -1.397
      -1.044
      -0.296
       0.573
       1.228
       1.475
       1.359
       1.103
       0.923
       0.890
       0.921
       0.894
       0.744
       0.478
       0.130
      -0.278
      -0.709
      -1.075
      -1.263
      -1.239
      -1.121
      -1.106
      -1.290
      -1.540
      -1.575
      -1.182
      -0.397
       0.537
       1.346
       1.883
       2.121
       2.058
       1.681
       1.027
       0.259
      -0.379
      -0.690
      -0.616
      -0.235
       0.307
       0.850
       1.248
       1.406
       1.324
       1.132
       1.030
       1.136
       1.350
       1.383
       0.969
       0.096
      -0.945
      -1.737
      -1.996
      -1.724
      -1.157
      -0.593
      -0.224
      -0.093
      -0.133
      -0.228
      -0.258
      -0.137
       0.133
       0.436
       0.596
       0.505
       0.220
      -0.072
      -0.218
      -0.244
      -0.342
      -0.691
      -1.259
      -1.798
      -2.027
      -1.840
      -1.343
      -0.744
      -0.216
       0.139
       0.270
       0.162
      -0.131
      -0.480
      -0.720
      -0.724
      -0.460
      -0.006
       0.486
       0.854
       0.982
       0.837
       0.468
      -0.047
      -0.665
      -1.392
      -2.239
      -3.151
      -4.006
      -4.663
      -5.026
      -5.070
      -4.850
      -4.476
      -4.070
      -3.715
      -3.412
      -3.101
      -2.716
      -2.240
      -1.697
      -1.122
      -0.544
      -0.004
       0.451
       0.789
       1.021
       1.196
       1.368
       1.564
       1.759
       1.906
       1.970
       1.966
       1.937
       1.917
       1.903
       1.856
       1.718
       1.432
       0.973
       0.367
      -0.305
      -0.921
      -1.344
      -1.460
      -1.220
      -0.672
       0.036
       0.716
       1.231
       1.546
       1.702
       1.754
       1.754
       1.781
       1.945
       2.341
       2.983
       3.783
       4.593
       5.288
       5.855
       6.378
       6.941
       7.501
       7.886
       7.933
       7.633
       7.148
       6.661
       6.235
       5.793
       5.219
       4.465
       3.551
       2.499
       1.278
      -0.164
      -1.805
      -3.499
      -5.025
      -6.208
      -6.989
      -7.381
      -7.380
      -6.929
      -5.977
      -4.563
      -2.847
      -1.065
       0.567
       1.929
       3.014
       3.898
       4.660
       5.318
       5.779
       5.852
       5.334
       4.151
       2.465
       0.648
      -0.869
      -1.810
      -2.173
      -2.213
      -2.316
      -2.836
      -3.951
      -5.570
      -7.342
      -8.806
      -9.622
      -9.747
      -9.423
      -8.965
      -8.516
      -7.952
      -7.024
      -5.623
      -3.917
      -2.246
      -0.867
       0.218
       1.198
       2.222
       3.215
       3.916
       4.114
       3.893
       3.654
       3.865
       4.699
       5.844
       6.673
       6.656
       5.717
       4.245
       2.819
       1.861
       1.466
       1.454
       1.523
       1.393
       0.881
      -0.055
      -1.309
      -2.662
      -3.854
      -4.685
      -5.077
      -5.065
      -4.734
      -4.151
      -3.335
      -2.284
      -1.024
       0.331
       1.562
       2.392
       2.609
       2.219
       1.475
       0.730
       0.202
      -0.136
      -0.467
      -0.911
      -1.415
      -1.830
      -2.083
      -2.252
      -2.454
      -2.673
      -2.761
      -2.605
      -2.298
      -2.092
      -2.159
      -2.410
      -2.548
      -2.312
      -1.665
      -0.753
       0.283
       1.421
       2.665
       3.876
       4.763
       5.069
       4.807
       4.286
       3.909
       3.888
       4.129
       4.348
       4.287
       3.834
       3.012
       1.908
       0.664
      -0.513
      -1.386
      -1.800
      -1.788
      -1.572
      -1.434
      -1.549
      -1.881
      -2.238
      -2.419
      -2.324
      -1.958
      -1.386
      -0.698
      -0.024
       0.464
       0.595
       0.297
      -0.320
      -0.975
      -1.368
      -1.352
      -1.006
      -0.563
      -0.243
      -0.117
      -0.097
      -0.072
      -0.066
      -0.247
      -0.748
      -1.482
      -2.170
      -2.561
      -2.610
      -2.453
      -2.227
      -1.960
      -1.640
      -1.345
      -1.239
      -1.391
      -1.623
      -1.579
      -0.983
       0.164
       1.596
       2.963
       3.983
       4.507
       4.525
       4.164
       3.652
       3.222
       3.010
       3.005
       3.106
       3.203
       3.218
       3.071
       2.641
       1.823
       0.619
      -0.815
      -2.234
      -3.415
      -4.208
      -4.525
      -4.333
      -3.690
      -2.787
      -1.896
      -1.257
      -0.947
      -0.846
      -0.708
      -0.308
       0.409
       1.285
       2.020
       2.335
       2.132
       1.543
       0.831
       0.252
      -0.019
       0.114
       0.686
       1.638
       2.798
       3.912
       4.726
       5.071
       4.894
       4.262
       3.338
       2.367
       1.632
       1.345
       1.489
       1.754
       1.694
       1.031
      -0.131
      -1.368
      -2.243
      -2.600
      -2.638
      -2.716
      -3.063
      -3.635
      -4.194
      -4.510
      -4.492
      -4.192
      -3.754
      -3.346
      -3.109
      -3.085
      -3.168
      -3.133
      -2.768
      -2.025
      -1.085
      -0.250
       0.239
       0.339
       0.189
       0.003
      -0.062
       0.039
       0.272
       0.587
       0.912
       1.099
       0.942
       0.302
      -0.778
      -2.098
      -3.459
      -4.773
      -6.012
      -7.087
      -7.767
      -7.757
      -6.882
      -5.233
      -3.163
      -1.120
       0.562
       1.758
       2.522
       2.985
       3.243
       3.285
       3.007
       2.342
       1.415
       0.589
       0.299
       0.737
       1.643
       2.389
       2.350
       1.302
      -0.422
      -2.118
      -3.085
      -2.919
      -1.601
       0.608
       3.307
       6.036
       8.332
       9.817
      10.320
       9.966
       9.144
       8.307
       7.687
       7.136
       6.274
       4.878
       3.171
       1.711
       0.969
       0.989
       1.434
       1.886
       2.104
       2.069
       1.872
       1.613
       1.371
       1.214
       1.171
       1.168
       1.008
       0.511
      -0.303
      -1.174
      -1.777
      -1.974
      -1.903
      -1.860
      -2.096
      -2.696
      -3.558
      -4.437
      -5.020
      -5.017
      -4.298
      -2.995
      -1.497
      -0.298
       0.227
      -0.020
      -0.857
      -1.968
      -3.067
      -3.960
      -4.505
      -4.567
      -4.049
      -2.978
      -1.576
      -0.231
       0.632
       0.731
       0.059
      -1.088
      -2.233
      -2.932
      -2.962
      -2.375
      -1.378
      -0.149
       1.254
       2.830
       4.463
       5.802
       6.328
       5.645
       3.788
       1.334
      -0.831
      -1.969
      -1.882
      -0.985
      -0.014
       0.405
       0.053
      -0.869
      -1.960
      -2.896
      -3.587
      -4.115
      -4.543
      -4.776
      -4.611
      -3.919
      -2.802
      -1.587
      -0.656
      -0.210
      -0.153
      -0.184
      -0.012
       0.450
       1.050
       1.505
       1.595
       1.327
       0.972
       0.939
       1.521
       2.656
       3.861
       4.426
       3.802
       1.949
      -0.591
      -2.971
      -4.474
      -4.839
      -4.265
      -3.166
      -1.898
      -0.674
       0.352
       1.021
       1.250
       1.117
       0.820
       0.522
       0.266
       0.042
      -0.108
      -0.073
       0.203
       0.601
       0.843
       0.691
       0.175
      -0.351
      -0.434
       0.138
       1.162
       2.160
       2.712
       2.706
       2.338
       1.898
       1.566
       1.347
       1.144
       0.851
       0.431
      -0.051
      -0.431
      -0.535
      -0.322
       0.014
       0.126
      -0.250
      -1.066
      -1.936
      -2.371
      -2.120
      -1.344
      -0.487
       0.038
       0.086
      -0.243
      -0.787
      -1.484
      -2.352
      -3.331
      -4.138
      -4.332
      -3.597
      -2.057
      -0.317
       0.897
       1.226
       0.912
       0.558
       0.632
       1.145
       1.753
       2.123
       2.190
       2.136
       2.148
       2.253
       2.340
       2.324
       2.283
       2.411
       2.848
       3.537
       4.238
       4.670
       4.653
       4.160
       3.272
       2.126
       0.904
      -0.159
      -0.819
      -0.940
      -0.614
      -0.145
       0.134
       0.042
      -0.386
      -1.000
      -1.646
      -2.197
      -2.528
      -2.520
      -2.125
      -1.462
      -0.809
      -0.448
      -0.459
      -0.642
      -0.667
      -0.301
       0.451
       1.415
       2.395
       3.247
       3.834
       3.982
       3.578
       2.738
       1.848
       1.356
       1.467
       1.990
       2.497
       2.648
       2.390
       1.858
       1.121
       0.084
      -1.336
      -2.972
      -4.409
      -5.243
      -5.358
      -4.949
      -4.310
      -3.623
      -2.925
      -2.242
      -1.687
      -1.418
      -1.506
      -1.840
      -2.144
      -2.113
      -1.589
      -0.666
       0.362
       1.202
       1.744
       2.083
       2.415
       2.901
       3.571
       4.296
       4.845
       5.008
       4.685
       3.886
       2.671
       1.130
      -0.594
      -2.293
      -3.739
      -4.771
      -5.378
      -5.725
      -6.062
      -6.521
      -6.965
      -7.048
      -6.489
      -5.343
      -4.024
      -3.034
      -2.646
      -2.759
      -3.023
      -3.074
      -2.703
      -1.906
      -0.854
       0.145
       0.743
       0.736
       0.232
      -0.333
      -0.421
       0.282
       1.689
       3.375
       4.815
       5.616
       5.650
       5.061
       4.185
       3.398
       2.921
       2.668
       2.298
       1.506
       0.320
      -0.863
      -1.593
      -1.739
      -1.552
      -1.352
      -1.177
      -0.759
       0.153
       1.462
       2.706
       3.345
       3.131
       2.273
       1.280
       0.608
       0.401
       0.517
       0.760
       1.036
       1.307
       1.443
       1.171
       0.240
      -1.334
      -3.121
      -4.432
      -4.722
      -3.950
      -2.580
      -1.224
      -0.224
       0.476
       1.134
       1.908
       2.691
       3.185
       3.111
       2.401
       1.252
       0.038
      -0.865
      -1.253
      -1.195
      -0.988
      -0.964
      -1.265
      -1.758
      -2.158
      -2.247
      -2.004
      -1.550
      -0.993
      -0.323
       0.533
       1.558
       2.536
       3.110
       2.976
       2.086
       0.705
      -0.695
      -1.657
      -1.953
      -1.664
      -1.081
      -0.487
      -0.018
       0.314
       0.495
       0.474
       0.236
      -0.130
      -0.454
      -0.583
      -0.474
      -0.236
      -0.068
      -0.139
      -0.474
      -0.970
      -1.496
      -1.985
      -2.407
      -2.673
      -2.586
      -1.918
      -0.601
       1.128
       2.759
       3.747
       3.802
       3.032
       1.897
       1.019
       0.915
       1.753
       3.221
       4.633
       5.253
       4.664
       2.943
       0.576
      -1.775
      -3.498
      -4.181
      -3.714
      -2.312
      -0.439
       1.394
       2.842
       3.833
       4.505
       4.999
       5.285
       5.181
       4.572
       3.593
       2.561
       1.697
       0.913
      -0.111
      -1.616
      -3.469
      -5.133
      -5.936
      -5.465
      -3.834
      -1.647
       0.313
       1.454
       1.588
       0.907
      -0.200
      -1.343
      -2.231
      -2.679
      -2.609
      -2.085
      -1.335
