Origin Time       16/4/2013 10:44:11	
Lat.              28.0 N	
Long.             62.1 E	
Depth (Km)         46.0
Magnitude         7.8
 Region           Iran-Pakistan-Border-Region                                      
 Above details taken from IMD 
   
Station Code      DCE
Station Lat.       28.795
Station Long.      77.118
Station Height(m)  208.0
Site Class        C   Vs30 between 200 m/sec to 375 m/sec *  
Record Time       16.04.2013 10:49:13.829
Sampling Rate     200. Hz
 Record Duration  169.970 Sec.
 Direction         Vert. (Up positive)
Max. Acceleration     -0.839 cm/sec**2
     
  * For reference see Site Classification link of website 
     
 Base Line Corrected and Low Pass Filtered (Cut Off at 35 Hz) Time History
 Acceleration data in cm/sec**2
    
[...]
      -0.059
      -0.048
      -0.029
      -0.012
       0.001
       0.009
       0.019
       0.034
       0.051
       0.060
       0.050
       0.017
      -0.032
      -0.082
      -0.123
      -0.149
      -0.160
      -0.158
      -0.148
      -0.129
      -0.104
      -0.075
      -0.042
      -0.008
       0.021
       0.036
       0.032
       0.016
      -0.004
      -0.018
      -0.024
      -0.023
      -0.020
      -0.018
      -0.016
      -0.012
      -0.004
       0.007
       0.014
       0.011
      -0.004
      -0.025
      -0.049
      -0.072
      -0.089
      -0.094
      -0.082
      -0.055
      -0.018
       0.017
       0.044
       0.060
       0.073
       0.092
       0.126
       0.177
       0.239
       0.301
       0.346
       0.364
       0.355
       0.330
       0.305
       0.289
       0.281
       0.275
       0.261
       0.234
       0.194
       0.150
       0.112
       0.094
       0.097
       0.112
       0.123
       0.120
       0.106
       0.095
       0.098
       0.106
       0.102
       0.070
       0.019
      -0.024
      -0.032
      -0.008
       0.023
       0.030
       0.008
      -0.020
      -0.023
       0.007
       0.051
       0.076
       0.066
       0.030
      -0.010
      -0.039
      -0.051
      -0.049
      -0.037
      -0.017
       0.006
       0.021
       0.023
       0.010
      -0.014
      -0.041
      -0.066
      -0.086
      -0.103
      -0.124
      -0.150
      -0.179
      -0.206
      -0.227
      -0.238
      -0.242
      -0.242
      -0.236
      -0.221
      -0.194
      -0.159
      -0.126
      -0.106
      -0.104
      -0.113
      -0.121
      -0.114
      -0.086
      -0.043
       0.003
       0.040
       0.060
       0.062
       0.053
       0.044
       0.045
       0.064
       0.098
       0.139
       0.175
       0.195
       0.197
       0.188
       0.181
       0.185
       0.201
       0.221
       0.239
       0.249
       0.249
       0.242
       0.233
       0.229
       0.236
       0.256
       0.282
       0.303
       0.308
       0.296
       0.274
       0.255
       0.245
       0.244
       0.248
       0.254
       0.259
       0.262
       0.266
       0.266
       0.261
       0.249
       0.241
       0.254
       0.298
       0.359
       0.407
       0.412
       0.372
       0.311
       0.265
       0.253
       0.265
       0.270
       0.245
       0.192
       0.132
       0.090
       0.069
       0.057
       0.032
      -0.013
      -0.065
      -0.108
      -0.127
      -0.123
      -0.106
      -0.087
      -0.072
      -0.061
      -0.049
      -0.030
      -0.003
       0.025
       0.042
       0.035
       0.005
      -0.035
      -0.066
      -0.075
      -0.069
      -0.067
      -0.089
      -0.142
      -0.213
      -0.278
      -0.319
      -0.332
      -0.327
      -0.321
      -0.320
      -0.326
      -0.332
      -0.335
      -0.333
      -0.329
      -0.324
      -0.316
      -0.306
      -0.298
      -0.297
      -0.306
      -0.314
      -0.309
      -0.281
      -0.236
      -0.190
      -0.157
      -0.137
      -0.116
      -0.079
      -0.022
       0.046
       0.106
       0.145
       0.155
       0.141
       0.108
       0.067
       0.033
       0.013
       0.011
       0.021
       0.034
       0.044
       0.048
       0.046
       0.042
       0.038
       0.036
       0.037
       0.042
       0.049
       0.052
       0.046
       0.021
      -0.028
      -0.098
      -0.170
      -0.218
      -0.227
      -0.208
      -0.193
      -0.204
      -0.242
      -0.280
      -0.291
      -0.269
      -0.233
      -0.210
      -0.209
      -0.219
      -0.220
      -0.204
      -0.182
      -0.170
      -0.172
      -0.178
      -0.176
      -0.159
      -0.133
      -0.109
      -0.091
      -0.075
      -0.051
      -0.014
       0.031
       0.073
       0.100
       0.111
       0.112
       0.115
       0.121
       0.128
       0.130
       0.123
       0.108
       0.088
       0.064
       0.039
       0.016
      -0.003
      -0.013
      -0.009
       0.011
       0.043
       0.081
       0.115
       0.138
       0.148
       0.148
       0.142
       0.137
       0.139
       0.151
       0.175
       0.206
       0.241
       0.276
       0.309
       0.339
       0.359
       0.366
       0.358
       0.339
       0.319
       0.305
       0.302
       0.308
       0.315
       0.318
       0.316
       0.311
       0.307
       0.308
       0.313
       0.318
       0.325
       0.335
       0.351
       0.371
       0.388
       0.392
       0.378
       0.350
       0.313
       0.275
       0.242
       0.218
       0.204
       0.199
       0.190
       0.166
       0.121
       0.063
       0.014
      -0.003
       0.015
       0.048
       0.062
       0.044
       0.005
      -0.024
      -0.021
       0.012
       0.052
       0.072
       0.066
       0.044
       0.028
       0.030
       0.048
       0.071
       0.091
       0.109
       0.128
       0.146
       0.157
       0.156
       0.146
       0.138
       0.139
       0.151
       0.163
       0.165
       0.152
       0.125
       0.092
       0.056
       0.020
      -0.013
      -0.037
      -0.049
      -0.050
      -0.047
      -0.049
      -0.055
      -0.056
      -0.043
      -0.013
       0.019
       0.038
       0.037
       0.028
       0.030
       0.053
       0.091
       0.124
       0.138
       0.130
       0.106
       0.075
       0.043
       0.013
      -0.007
      -0.011
       0.002
       0.029
       0.058
       0.078
       0.085
       0.081
       0.073
       0.068
       0.069
       0.072
       0.078
       0.089
       0.112
       0.150
       0.199
       0.245
       0.276
       0.287
       0.281
       0.265
       0.242
       0.212
       0.176
       0.138
       0.104
       0.076
       0.050
       0.018
      -0.026
      -0.084
      -0.151
      -0.213
      -0.253
      -0.256
      -0.223
      -0.175
      -0.145
      -0.156
      -0.205
      -0.261
      -0.289
      -0.276
      -0.238
      -0.208
      -0.208
      -0.238
      -0.275
      -0.293
      -0.284
      -0.259
      -0.242
      -0.241
      -0.252
      -0.254
      -0.235
      -0.197
      -0.159
      -0.138
      -0.134
      -0.135
      -0.121
      -0.088
      -0.050
      -0.029
      -0.041
      -0.089
      -0.160
      -0.237
      -0.305
      -0.357
      -0.394
      -0.423
      -0.447
      -0.466
      -0.477
      -0.474
      -0.457
      -0.436
      -0.420
      -0.413
      -0.409
      -0.401
      -0.386
      -0.363
      -0.333
      -0.294
      -0.246
      -0.193
      -0.144
      -0.107
      -0.086
      -0.079
      -0.080
      -0.081
      -0.078
      -0.074
      -0.069
      -0.065
      -0.059
      -0.052
      -0.046
      -0.042
      -0.041
      -0.043
      -0.049
      -0.059
      -0.071
      -0.081
      -0.084
      -0.081
      -0.075
      -0.074
      -0.083
      -0.102
      -0.127
      -0.153
      -0.172
      -0.182
      -0.187
      -0.194
      -0.206
      -0.216
      -0.212
      -0.186
      -0.142
      -0.096
      -0.068
      -0.066
      -0.082
      -0.103
      -0.123
      -0.145
      -0.181
      -0.230
      -0.283
      -0.323
      -0.347
      -0.360
      -0.375
      -0.398
      -0.422
      -0.429
      -0.409
      -0.363
      -0.309
      -0.265
      -0.236
      -0.212
      -0.177
      -0.123
      -0.056
       0.011
       0.069
       0.111
       0.139
       0.152
       0.148
       0.130
       0.104
       0.082
       0.072
       0.074
       0.078
       0.067
       0.029
      -0.026
      -0.076
      -0.103
      -0.106
      -0.098
      -0.091
      -0.087
      -0.076
      -0.056
      -0.030
      -0.007
       0.000
      -0.016
      -0.051
      -0.090
      -0.113
      -0.107
      -0.068
      -0.003
       0.070
       0.135
       0.181
       0.209
       0.228
       0.249
       0.278
       0.312
       0.341
       0.355
       0.355
       0.350
       0.355
       0.375
       0.402
       0.422
       0.425
       0.412
       0.393
       0.377
       0.366
       0.355
       0.336
       0.307
       0.276
       0.260
       0.270
       0.304
       0.348
       0.379
       0.383
       0.361
       0.329
       0.304
       0.294
       0.299
       0.310
       0.317
       0.311
       0.290
       0.255
       0.211
       0.170
       0.138
       0.115
       0.099
       0.093
       0.108
       0.147
       0.202
       0.249
       0.266
       0.250
       0.221
       0.204
       0.216
       0.253
       0.296
       0.324
       0.329
       0.315
       0.294
       0.273
       0.248
       0.214
       0.171
       0.125
       0.089
       0.068
       0.062
       0.062
       0.055
       0.034
       0.002
      -0.037
      -0.069
      -0.090
      -0.098
      -0.100
      -0.103
      -0.109
      -0.109
      -0.092
      -0.050
       0.010
       0.069
       0.108
       0.115
       0.096
       0.063
       0.029
       0.002
      -0.020
      -0.035
      -0.044
      -0.043
      -0.035
      -0.031
      -0.044
      -0.078
      -0.124
      -0.162
      -0.177
      -0.169
      -0.149
      -0.126
      -0.100
      -0.067
      -0.024
       0.020
       0.054
       0.069
       0.068
       0.060
       0.055
       0.054
       0.059
       0.069
       0.080
       0.085
       0.072
       0.038
      -0.013
      -0.071
      -0.123
      -0.163
      -0.191
      -0.212
      -0.228
      -0.239
      -0.241
      -0.231
      -0.205
      -0.172
      -0.142
      -0.124
      -0.121
      -0.131
      -0.148
      -0.169
      -0.194
      -0.223
      -0.253
      -0.275
      -0.284
      -0.282
      -0.281
      -0.294
      -0.322
      -0.355
      -0.377
      -0.379
      -0.367
      -0.354
      -0.346
      -0.335
      -0.307
      -0.260
      -0.207
      -0.170
      -0.162
      -0.176
      -0.195
      -0.204
      -0.203
      -0.206
      -0.227
      -0.273
      -0.334
      -0.392
      -0.425
      -0.418
      -0.379
      -0.326
      -0.286
      -0.269
      -0.275
      -0.288
      -0.295
      -0.289
      -0.273
      -0.253
      -0.234
      -0.213
      -0.185
      -0.150
      -0.111
      -0.075
      -0.051
      -0.043
      -0.048
      -0.062
      -0.080
      -0.102
      -0.124
      -0.138
      -0.139
      -0.121
      -0.088
      -0.046
      -0.002
       0.038
       0.069
       0.090
       0.102
       0.109
       0.114
       0.118
       0.122
       0.127
       0.134
       0.144
       0.149
       0.138
       0.104
       0.051
      -0.005
      -0.045
      -0.059
      -0.048
      -0.022
       0.002
       0.010
      -0.008
      -0.049
      -0.099
      -0.137
      -0.148
      -0.125
      -0.079
      -0.028
       0.006
       0.011
      -0.017
      -0.069
      -0.120
      -0.141
      -0.119
      -0.058
       0.015
       0.074
       0.104
       0.114
       0.124
       0.151
       0.190
       0.221
       0.222
       0.179
       0.106
       0.029
      -0.024
      -0.041
      -0.034
      -0.022
      -0.020
      -0.025
      -0.027
      -0.022
      -0.019
      -0.032
      -0.065
      -0.110
      -0.147
      -0.160
      -0.148
      -0.118
      -0.081
      -0.042
       0.003
       0.054
       0.108
       0.156
       0.187
       0.193
       0.177
       0.151
       0.131
       0.128
       0.150
       0.197
       0.255
       0.307
       0.335
       0.332
       0.301
       0.253
       0.205
       0.168
       0.147
       0.144
       0.159
       0.195
       0.248
       0.307
       0.364
       0.409
       0.439
       0.453
       0.459
       0.468
       0.494
       0.539
       0.597
       0.653
       0.695
       0.713
       0.704
       0.670
       0.622
       0.576
       0.545
       0.530
       0.524
       0.518
       0.507
       0.494
       0.486
       0.486
       0.497
       0.520
       0.550
       0.583
       0.612
       0.635
       0.649
       0.656
       0.659
       0.656
       0.645
       0.623
       0.590
       0.546
       0.494
       0.440
       0.386
       0.334
       0.288
       0.249
       0.214
       0.178
       0.129
       0.063
      -0.016
      -0.091
      -0.147
      -0.181
      -0.203
      -0.230
      -0.266
      -0.307
      -0.336
      -0.343
      -0.331
      -0.319
      -0.325
      -0.357
      -0.397
      -0.416
      -0.389
      -0.316
      -0.222
      -0.145
      -0.109
      -0.111
      -0.130
      -0.140
      -0.130
      -0.110
      -0.097
      -0.101
      -0.113
      -0.116
      -0.096
      -0.053
      -0.002
       0.041
       0.067
       0.079
       0.085
       0.096
       0.113
       0.130
       0.137
       0.133
       0.125
       0.123
       0.133
       0.145
       0.142
       0.117
       0.079
       0.046
       0.032
       0.034
       0.038
       0.030
       0.004
      -0.031
      -0.065
      -0.090
      -0.105
      -0.118
      -0.136
      -0.163
      -0.193
      -0.216
      -0.222
      -0.210
      -0.189
      -0.175
      -0.182
      -0.216
      -0.277
      -0.356
      -0.443
      -0.527
      -0.600
      -0.660
      -0.711
      -0.755
      -0.795
      -0.827
      -0.839
      -0.814
      -0.746
      -0.644
      -0.531
      -0.430
      -0.359
      -0.322
      -0.317
      -0.341
      -0.388
      -0.450
      -0.517
      -0.581
      -0.638
      -0.688
      -0.727
      -0.752
      -0.761
      -0.759
      -0.753
      -0.746
      -0.729
      -0.688
      -0.616
      -0.524
      -0.437
      -0.379
      -0.351
      -0.333
      -0.298
      -0.236
      -0.164
      -0.120
      -0.133
      -0.206
      -0.313
      -0.413
      -0.479
      -0.500
      -0.487
      -0.458
      -0.423
      -0.384
      -0.341
      -0.298
      -0.263
      -0.235
      -0.210
      -0.179
      -0.141
      -0.102
      -0.073
      -0.056
      -0.051
      -0.045
      -0.026
       0.016
       0.079
       0.152
       0.210
       0.232
       0.213
       0.172
       0.147
       0.173
       0.253
       0.351
       0.411
       0.406
       0.353
       0.301
       0.290
       0.316
       0.339
       0.312
       0.229
       0.122
       0.043
       0.021
       0.049
       0.097
       0.131
       0.134
       0.108
       0.068
       0.032
       0.008
       0.000
       0.001
       0.008
       0.014
       0.017
       0.017
       0.017
       0.019
       0.021
       0.015
      -0.004
      -0.033
      -0.060
      -0.068
      -0.044
       0.018
       0.107
       0.202
       0.279
       0.318
       0.321
       0.306
       0.298
       0.313
       0.349
       0.389
       0.417
       0.425
       0.420
       0.413
       0.410
       0.404
       0.384
       0.341
       0.284
       0.230
       0.197
       0.189
       0.195
       0.197
       0.184
       0.153
       0.113
       0.071
       0.033
      -0.007
      -0.051
      -0.098
      -0.142
      -0.171
      -0.180
      -0.173
      -0.158
      -0.143
      -0.130
      -0.112
      -0.082
      -0.038
       0.011
       0.046
       0.054
       0.025
      -0.033
      -0.107
      -0.177
      -0.227
      -0.244
      -0.225
      -0.179
      -0.123
      -0.081
      -0.066
      -0.074
      -0.086
      -0.077
      -0.036
       0.031
       0.109
       0.180
       0.237
       0.283
       0.327
       0.372
       0.412
       0.440
       0.451
       0.446
       0.429
       0.404
       0.374
       0.340
       0.304
       0.269
       0.237
       0.215
       0.203
       0.198
       0.193
       0.186
       0.180
       0.182
       0.198
       0.227
       0.261
       0.290
       0.306
       0.307
       0.298
       0.281
       0.263
       0.249
       0.241
       0.239
       0.235
       0.221
       0.188
       0.139
       0.081
       0.026
      -0.019
      -0.053
      -0.082
      -0.113
      -0.145
      -0.174
      -0.193
      -0.197
      -0.186
      -0.164
      -0.136
      -0.107
      -0.077
      -0.043
      -0.005
       0.034
       0.069
       0.092
       0.101
       0.098
       0.086
       0.063
       0.026
      -0.025
      -0.083
      -0.140
      -0.186
      -0.222
      -0.253
      -0.289
      -0.332
      -0.380
      -0.425
      -0.463
      -0.492
      -0.507
      -0.504
      -0.477
      -0.429
      -0.369
      -0.304
      -0.238
      -0.165
      -0.085
      -0.001
       0.070
       0.107
       0.094
       0.032
      -0.062
      -0.159
      -0.234
      -0.271
      -0.269
      -0.237
      -0.188
      -0.135
      -0.088
      -0.051
      -0.024
      -0.009
      -0.010
      -0.032
      -0.076
      -0.131
      -0.178
      -0.202
      -0.200
      -0.178
      -0.145
      -0.108
      -0.069
      -0.033
      -0.006
       0.003
      -0.013
      -0.049
      -0.088
      -0.109
      -0.103
      -0.084
      -0.075
      -0.090
      -0.123
      -0.153
      -0.163
      -0.155
      -0.145
      -0.148
      -0.162
      -0.168
      -0.150
      -0.112
      -0.071
      -0.042
      -0.023
       0.001
       0.040
       0.085
       0.119
       0.126
       0.109
       0.083
       0.063
       0.055
       0.052
       0.046
       0.038
       0.037
       0.052
       0.076
       0.088
       0.070
       0.015
      -0.060
      -0.128
      -0.166
      -0.169
      -0.150
      -0.126
      -0.108
      -0.094
      -0.073
      -0.030
       0.037
       0.123
       0.212
       0.291
       0.348
       0.378
       0.380
       0.354
       0.306
       0.247
       0.198
       0.181
       0.205
       0.262
       0.323
       0.353
       0.334
       0.273
       0.201
       0.148
       0.131
       0.145
       0.173
       0.202
       0.224
       0.239
       0.245
       0.236
       0.207
       0.160
       0.107
       0.059
       0.024
       0.002
      -0.011
      -0.024
      -0.043
      -0.074
      -0.122
      -0.180
      -0.237
      -0.281
      -0.301
      -0.302
      -0.296
      -0.301
      -0.321
      -0.347
      -0.364
      -0.368
      -0.365
      -0.369
      -0.381
      -0.388
      -0.372
      -0.325
      -0.254
      -0.172
      -0.088
      -0.001
       0.095
       0.197
       0.291
       0.358
       0.387
       0.382
       0.358
       0.333
       0.312
       0.290
       0.258
       0.207
       0.137
       0.055
      -0.025
      -0.091
      -0.137
      -0.163
      -0.174
      -0.182
      -0.195
      -0.218
      -0.241
      -0.252
      -0.243
      -0.212
      -0.166
      -0.114
      -0.062
      -0.012
       0.039
       0.098
       0.168
       0.237
       0.287
       0.304
       0.294
       0.274
       0.261
       0.261
       0.266
       0.267
       0.260
       0.247
       0.231
       0.217
       0.206
       0.196
       0.184
       0.170
       0.161
       0.166
       0.188
