Origin Time       11/11/2013 22:10:42
Lat.              28.4 N	
Long.             77.2 E	
Depth (Km)         11.0
Magnitude         2.8
 Region           DELHI                                                            
 Above details taken from IMD 
     
Station Code      DCE
Station Lat.       28.795  N
Station Long.      77.118  E
Station Height(m)  208.0
Site Class        C   Vs30 between 200 m/sec to 375 m/sec *  
Record Time       11.11.2013 22:10:24.279
Sampling Rate     200. Hz
 Record Duration   80.195 Sec.
 Direction         E-W (E positive)
Max. Acceleration      1.827 cm/sec**2
     
  * For reference see Site Classification link of website 
     
 Base Line Corrected and Low Pass Filtered (Cut Off at 35 Hz) Time History
 Acceleration data in cm/sec**2
    
[...]
      -0.015
      -0.018
      -0.022
      -0.023
      -0.022
      -0.017
      -0.009
      -0.001
       0.001
      -0.004
      -0.014
      -0.022
      -0.022
      -0.015
      -0.003
       0.010
       0.017
       0.019
       0.016
       0.011
       0.007
       0.005
       0.005
       0.006
       0.005
       0.003
       0.001
       0.002
       0.005
       0.008
       0.009
       0.008
       0.004
      -0.002
      -0.006
      -0.006
      -0.002
       0.003
       0.005
       0.002
      -0.002
      -0.005
      -0.006
      -0.007
      -0.009
      -0.010
      -0.009
      -0.005
      -0.003
      -0.005
      -0.013
      -0.022
      -0.027
      -0.025
      -0.015
      -0.004
       0.002
       0.001
      -0.002
      -0.002
       0.003
       0.010
       0.015
       0.018
       0.019
       0.019
       0.017
       0.014
       0.009
       0.004
       0.000
      -0.003
      -0.003
      -0.001
       0.002
       0.003
       0.002
       0.000
       0.000
       0.004
       0.010
       0.011
       0.006
      -0.001
      -0.007
      -0.008
      -0.007
      -0.007
      -0.006
      -0.006
      -0.005
      -0.005
      -0.007
      -0.007
      -0.003
       0.005
       0.013
       0.018
       0.018
       0.014
       0.007
      -0.001
      -0.005
      -0.002
       0.004
       0.007
       0.005
       0.002
       0.001
       0.004
       0.009
       0.012
       0.012
       0.009
       0.004
      -0.003
      -0.010
      -0.016
      -0.017
      -0.012
      -0.004
       0.004
       0.007
       0.002
      -0.008
      -0.015
      -0.015
      -0.008
      -0.003
      -0.004
      -0.009
      -0.013
      -0.015
      -0.018
      -0.021
      -0.022
      -0.015
      -0.005
       0.001
      -0.001
      -0.011
      -0.022
      -0.025
      -0.020
      -0.010
       0.000
       0.006
       0.007
       0.005
       0.002
       0.001
       0.003
       0.005
       0.006
       0.003
      -0.001
      -0.007
      -0.014
      -0.019
      -0.017
      -0.007
       0.004
       0.007
      -0.003
      -0.020
      -0.031
      -0.027
      -0.013
      -0.002
      -0.005
      -0.020
      -0.038
      -0.046
      -0.041
      -0.027
      -0.013
      -0.010
      -0.015
      -0.016
      -0.008
       0.005
       0.010
       0.005
      -0.003
      -0.004
       0.000
       0.003
       0.001
      -0.003
      -0.005
      -0.005
      -0.003
       0.002
       0.014
       0.028
       0.031
       0.022
       0.010
       0.011
       0.021
       0.023
       0.007
      -0.016
      -0.022
      -0.001
       0.023
       0.022
      -0.006
      -0.034
      -0.031
       0.001
       0.033
       0.034
       0.004
      -0.034
      -0.052
      -0.038
      -0.008
       0.015
       0.011
      -0.017
      -0.048
      -0.055
      -0.027
       0.022
       0.057
       0.050
       0.005
      -0.046
      -0.065
      -0.039
       0.015
       0.056
       0.055
       0.016
      -0.025
      -0.033
      -0.003
       0.032
       0.038
       0.013
      -0.013
      -0.015
       0.004
       0.018
       0.009
      -0.012
      -0.021
      -0.003
       0.031
       0.061
       0.073
       0.064
       0.039
       0.002
      -0.038
      -0.069
      -0.079
      -0.065
      -0.036
      -0.002
       0.029
       0.050
       0.048
       0.021
      -0.017
      -0.037
      -0.022
       0.018
       0.050
       0.051
       0.028
       0.009
       0.018
       0.048
       0.063
       0.032
      -0.038
      -0.103
      -0.114
      -0.064
       0.004
       0.030
      -0.003
      -0.049
      -0.043
       0.030
       0.115
       0.131
       0.052
      -0.060
      -0.106
      -0.040
       0.074
       0.116
       0.023
      -0.141
      -0.243
      -0.198
      -0.042
       0.103
       0.126
       0.020
      -0.111
      -0.145
      -0.042
       0.113
       0.183
       0.095
      -0.088
      -0.208
      -0.148
       0.050
       0.210
       0.188
       0.016
      -0.139
      -0.156
      -0.072
      -0.003
      -0.001
      -0.023
      -0.022
      -0.009
      -0.015
      -0.024
       0.009
       0.089
       0.144
       0.097
      -0.051
      -0.199
      -0.232
      -0.136
      -0.011
       0.032
      -0.020
      -0.070
      -0.023
       0.116
       0.249
       0.284
       0.227
       0.147
       0.089
       0.038
      -0.033
      -0.106
      -0.151
      -0.176
      -0.218
      -0.268
      -0.262
      -0.153
       0.011
       0.132
       0.152
       0.098
       0.047
       0.044
       0.073
       0.093
       0.086
       0.067
       0.057
       0.060
       0.054
       0.006
      -0.092
      -0.190
      -0.216
      -0.152
      -0.068
      -0.033
      -0.032
       0.004
       0.093
       0.174
       0.179
       0.120
       0.066
       0.058
       0.045
      -0.048
      -0.204
      -0.300
      -0.245
      -0.097
       0.000
      -0.009
      -0.040
       0.000
       0.088
       0.128
       0.077
      -0.014
      -0.082
      -0.108
      -0.099
      -0.055
       0.011
       0.064
       0.075
       0.055
       0.040
       0.042
       0.037
       0.010
      -0.021
      -0.029
      -0.034
      -0.074
      -0.127
      -0.104
       0.039
       0.207
       0.248
       0.132
      -0.014
      -0.055
      -0.002
       0.014
      -0.096
      -0.257
      -0.295
      -0.132
       0.106
       0.199
       0.065
      -0.143
      -0.209
      -0.078
       0.104
       0.171
       0.103
       0.017
       0.000
       0.027
       0.043
       0.060
       0.118
       0.185
       0.171
       0.060
      -0.050
      -0.069
      -0.037
      -0.069
      -0.196
      -0.300
      -0.247
      -0.047
       0.136
       0.154
       0.028
      -0.078
      -0.044
       0.082
       0.147
       0.064
      -0.100
      -0.214
      -0.219
      -0.162
      -0.091
       0.011
       0.158
       0.265
       0.208
      -0.010
      -0.204
      -0.189
       0.005
       0.163
       0.111
      -0.102
      -0.267
      -0.218
       0.023
       0.278
       0.360
       0.238
       0.048
      -0.048
      -0.014
       0.048
       0.038
      -0.048
      -0.145
      -0.205
      -0.221
      -0.196
      -0.114
       0.024
       0.151
       0.138
      -0.079
      -0.359
      -0.427
      -0.152
       0.269
       0.470
       0.299
      -0.024
      -0.160
      -0.022
       0.163
       0.147
      -0.046
      -0.168
      -0.058
       0.164
       0.249
       0.106
      -0.117
      -0.221
      -0.165
      -0.062
      -0.027
      -0.059
      -0.074
      -0.008
       0.106
       0.165
       0.103
      -0.041
      -0.144
      -0.125
      -0.027
       0.027
      -0.025
      -0.121
      -0.136
      -0.027
       0.118
       0.153
       0.020
      -0.168
      -0.216
      -0.059
       0.156
       0.218
       0.090
      -0.060
      -0.079
      -0.007
       0.007
      -0.077
      -0.144
      -0.090
       0.022
       0.042
      -0.059
      -0.139
      -0.076
       0.062
       0.100
      -0.005
      -0.097
      -0.023
       0.177
       0.306
       0.228
       0.002
      -0.185
      -0.185
      -0.016
       0.159
       0.175
       0.019
      -0.154
      -0.182
      -0.052
       0.087
       0.092
      -0.028
      -0.134
      -0.120
      -0.024
       0.046
       0.052
       0.055
       0.089
       0.095
       0.010
      -0.120
      -0.186
      -0.154
      -0.104
      -0.107
      -0.128
      -0.071
       0.088
       0.243
       0.264
       0.140
       0.001
      -0.025
       0.042
       0.075
       0.024
      -0.017
       0.043
       0.135
       0.100
      -0.092
      -0.274
      -0.272
      -0.107
       0.041
       0.060
       0.005
      -0.030
      -0.053
      -0.126
      -0.211
      -0.183
      -0.007
       0.170
       0.171
       0.002
      -0.142
      -0.107
       0.066
       0.204
       0.188
       0.051
      -0.075
      -0.093
      -0.032
      -0.003
      -0.060
      -0.127
      -0.096
       0.024
       0.119
       0.119
       0.074
       0.062
       0.062
      -0.016
      -0.174
      -0.268
      -0.158
       0.098
       0.259
       0.161
      -0.093
      -0.239
      -0.141
       0.075
       0.166
       0.027
      -0.213
      -0.319
      -0.179
       0.102
       0.304
       0.296
       0.127
      -0.053
      -0.124
      -0.059
       0.071
       0.144
       0.080
      -0.070
      -0.149
      -0.076
       0.039
       0.022
      -0.150
      -0.302
      -0.254
      -0.018
       0.207
       0.235
       0.067
      -0.107
      -0.098
       0.081
       0.233
       0.196
       0.022
      -0.099
      -0.073
       0.006
       0.001
      -0.074
      -0.082
       0.026
       0.107
       0.006
      -0.201
      -0.256
      -0.035
       0.265
       0.340
       0.132
      -0.122
      -0.178
      -0.037
       0.116
       0.140
       0.040
      -0.079
      -0.127
      -0.081
      -0.001
       0.035
       0.005
      -0.042
      -0.061
      -0.066
      -0.083
      -0.080
      -0.004
       0.123
       0.191
       0.115
      -0.064
      -0.217
      -0.236
      -0.116
       0.054
       0.144
       0.073
      -0.112
      -0.226
      -0.085
       0.276
       0.568
       0.490
       0.054
      -0.392
      -0.491
      -0.201
       0.196
       0.368
       0.204
      -0.129
      -0.346
      -0.274
       0.016
       0.253
       0.191
      -0.147
      -0.451
      -0.389
       0.044
       0.466
       0.457
      -0.014
      -0.523
      -0.586
      -0.124
       0.458
       0.652
       0.306
      -0.244
      -0.506
      -0.287
       0.172
       0.457
       0.341
      -0.073
      -0.472
      -0.542
      -0.201
       0.308
       0.566
       0.349
      -0.132
      -0.417
      -0.259
       0.130
       0.331
       0.182
      -0.077
      -0.116
       0.103
       0.310
       0.243
      -0.075
      -0.384
      -0.444
      -0.238
       0.044
       0.193
       0.145
      -0.012
      -0.150
      -0.204
      -0.177
      -0.099
      -0.019
       0.018
       0.008
       0.004
       0.048
       0.112
       0.129
       0.089
       0.055
       0.083
       0.134
       0.115
       0.007
      -0.106
      -0.134
      -0.092
      -0.049
      -0.022
       0.009
       0.013
      -0.073
      -0.212
      -0.251
      -0.091
       0.185
       0.380
       0.371
       0.190
      -0.038
      -0.202
      -0.268
      -0.274
      -0.256
      -0.193
      -0.042
       0.162
       0.280
       0.196
      -0.026
      -0.175
      -0.098
       0.105
       0.181
       0.021
      -0.181
      -0.129
       0.217
       0.548
       0.503
       0.067
      -0.390
      -0.481
      -0.191
       0.138
       0.180
      -0.066
      -0.339
      -0.410
      -0.268
      -0.054
       0.108
       0.185
       0.208
       0.211
       0.194
       0.132
       0.023
      -0.080
      -0.108
      -0.067
      -0.048
      -0.110
      -0.175
      -0.094
       0.151
       0.375
       0.364
       0.109
      -0.183
      -0.301
      -0.236
      -0.140
      -0.135
      -0.187
      -0.176
      -0.036
       0.179
       0.343
       0.335
       0.126
      -0.179
      -0.370
      -0.279
       0.055
       0.385
       0.470
       0.283
       0.014
      -0.124
      -0.079
       0.034
       0.080
       0.022
      -0.081
      -0.153
      -0.159
      -0.115
      -0.071
      -0.059
      -0.047
       0.028
       0.159
       0.221
       0.081
      -0.244
      -0.562
      -0.648
      -0.431
      -0.044
       0.269
       0.326
       0.131
      -0.132
      -0.218
      -0.005
       0.390
       0.671
       0.612
       0.271
      -0.084
      -0.230
      -0.153
       0.018
       0.135
       0.083
      -0.171
      -0.496
      -0.636
      -0.429
      -0.021
       0.243
       0.180
      -0.018
       0.003
       0.339
       0.691
       0.649
       0.120
      -0.561
      -0.914
      -0.715
      -0.139
       0.417
       0.645
       0.493
       0.127
      -0.207
      -0.296
      -0.080
       0.275
       0.467
       0.340
       0.079
       0.036
       0.303
       0.539
       0.315
      -0.374
      -1.026
      -1.138
      -0.724
      -0.288
      -0.243
      -0.474
      -0.516
      -0.112
       0.489
       0.809
       0.639
       0.199
      -0.148
      -0.269
      -0.269
      -0.208
       0.043
       0.562
       1.103
       1.244
       0.840
       0.221
      -0.151
      -0.176
      -0.164
      -0.402
      -0.767
      -0.849
      -0.438
       0.221
       0.684
       0.749
       0.565
       0.351
       0.130
      -0.221
      -0.737
      -1.243
      -1.486
      -1.353
      -0.957
      -0.512
      -0.122
       0.260
       0.665
       0.951
       0.902
       0.515
       0.128
       0.166
       0.710
       1.354
       1.536
       1.053
       0.250
      -0.313
      -0.391
      -0.233
      -0.287
      -0.743
      -1.358
      -1.671
      -1.424
      -0.826
      -0.375
      -0.361
      -0.534
      -0.365
       0.358
       1.279
       1.827
       1.746
       1.232
       0.657
       0.258
       0.048
      -0.108
      -0.360
      -0.756
      -1.173
      -1.350
      -1.031
      -0.183
       0.852
       1.485
       1.291
       0.408
      -0.509
      -0.835
      -0.530
      -0.122
      -0.120
      -0.485
      -0.719
      -0.469
       0.085
       0.485
       0.541
       0.493
       0.626
       0.866
       0.824
       0.245
      -0.649
      -1.287
      -1.246
      -0.630
       0.058
       0.425
       0.503
       0.554
       0.663
       0.644
       0.316
      -0.224
      -0.667
      -0.777
      -0.589
      -0.328
      -0.200
      -0.236
      -0.291
      -0.181
       0.147
       0.537
       0.741
       0.637
       0.335
       0.048
      -0.073
      -0.004
       0.189
       0.393
       0.480
       0.365
       0.051
      -0.379
      -0.774
      -0.941
      -0.750
      -0.278
       0.194
       0.385
       0.248
      -0.033
      -0.232
      -0.251
      -0.137
       0.009
       0.106
       0.137
       0.173
       0.324
       0.618
       0.886
       0.842
       0.368
      -0.268
      -0.572
      -0.312
       0.199
       0.402
       0.070
      -0.515
      -0.943
      -1.072
      -1.001
      -0.815
      -0.516
      -0.168
       0.101
       0.258
       0.399
       0.569
       0.649
       0.512
       0.235
       0.044
       0.070
       0.236
       0.385
       0.427
       0.347
       0.158
      -0.090
      -0.279
      -0.290
      -0.120
       0.089
       0.191
       0.192
       0.222
       0.319
       0.300
      -0.048
      -0.651
      -1.111
      -1.086
      -0.652
      -0.225
      -0.108
      -0.189
      -0.133
       0.183
       0.516
       0.541
       0.213
      -0.204
      -0.406
      -0.304
      -0.011
       0.298
       0.495
       0.529
       0.448
       0.367
       0.377
       0.463
       0.524
       0.450
       0.177
      -0.261
      -0.697
      -0.907
      -0.815
      -0.586
      -0.450
      -0.429
      -0.309
       0.077
       0.591
       0.865
       0.656
       0.128
      -0.242
      -0.089
       0.471
       0.905
       0.758
       0.101
      -0.545
      -0.752
      -0.594
      -0.469
      -0.581
      -0.706
      -0.496
       0.072
       0.654
       0.891
       0.717
       0.327
      -0.031
      -0.179
      -0.057
       0.207
       0.338
       0.141
      -0.280
      -0.599
      -0.596
      -0.358
      -0.153
      -0.131
      -0.193
      -0.133
       0.131
       0.473
       0.661
       0.530
       0.078
      -0.501
      -0.908
      -0.917
      -0.548
      -0.032
       0.393
       0.632
       0.710
       0.680
       0.603
       0.547
       0.534
       0.478
       0.253
      -0.150
      -0.569
      -0.819
      -0.858
      -0.770
      -0.606
      -0.329
       0.054
       0.408
       0.565
       0.495
       0.325
       0.189
       0.102
      -0.013
      -0.194
      -0.364
      -0.405
      -0.272
      -0.041
       0.152
       0.197
       0.054
      -0.234
      -0.533
      -0.662
      -0.516
      -0.151
       0.247
       0.503
       0.571
       0.523
       0.470
       0.477
       0.525
       0.498
       0.266
      -0.177
      -0.624
      -0.788
      -0.561
      -0.143
       0.141
       0.130
      -0.067
      -0.229
      -0.234
      -0.117
       0.021
       0.109
       0.142
       0.162
       0.205
       0.269
       0.329
       0.373
       0.412
       0.435
       0.383
       0.196
      -0.126
      -0.494
      -0.750
      -0.745
      -0.446
      -0.011
       0.290
       0.291
       0.066
      -0.153
      -0.200
      -0.082
       0.094
       0.248
       0.333
       0.302
       0.127
      -0.108
      -0.223
      -0.116
       0.072
       0.067
      -0.254
      -0.690
      -0.882
      -0.653
      -0.174
       0.200
       0.257
       0.099
       0.011
       0.168
       0.479
       0.709
       0.712
       0.540
       0.362
       0.310
       0.373
       0.404
       0.227
      -0.194
      -0.684
      -0.968
      -0.885
      -0.530
      -0.164
      -0.013
      -0.110
      -0.298
      -0.360
      -0.197
       0.096
       0.330
       0.410
       0.397
       0.388
       0.373
       0.257
       0.010
      -0.271
      -0.441
      -0.442
      -0.337
      -0.223
      -0.139
      -0.062
       0.033
       0.131
       0.208
       0.265
       0.312
       0.321
       0.246
       0.093
      -0.072
      -0.177
      -0.210
      -0.218
      -0.271
      -0.394
      -0.499
      -0.412
      -0.044
       0.433
       0.683
       0.528
       0.170
      -0.006
       0.171
       0.496
       0.626
       0.435
       0.082
      -0.214
      -0.384
      -0.483
      -0.540
      -0.500
      -0.318
      -0.055
       0.152
       0.202
       0.115
       0.016
       0.033
       0.168
       0.267
       0.167
      -0.105
      -0.298
      -0.185
       0.167
       0.423
       0.326
      -0.034
      -0.325
      -0.349
      -0.224
      -0.183
      -0.274
      -0.336
      -0.244
      -0.055
       0.093
       0.156
       0.188
       0.231
       0.267
       0.278
       0.268
       0.212
       0.060
      -0.188
      -0.425
      -0.498
      -0.333
      -0.002
       0.322
       0.467
       0.373
       0.141
      -0.054
      -0.121
      -0.133
      -0.210
      -0.337
      -0.357
      -0.147
       0.205
       0.451
       0.402
       0.098
      -0.223
      -0.326
      -0.154
       0.146
       0.360
       0.377
       0.252
       0.107
      -0.005
      -0.118
      -0.252
      -0.336
      -0.285
      -0.119
       0.019
      -0.014
