Origin Time       11/11/2013 20:11:30 UTC
Lat.              28.4 N	
Long.             77.2 E	
Depth (Km)         10.0
Magnitude         3.3
 Region           DELHI                                                            
 Above details taken from IMD 
    
Station Code      DCE
Station Lat.       28.795  N
Station Long.      77.118  E
Station Height(m)  208.0
Site Class        C   Vs30 between 200 m/sec to 375 m/sec *  
Record Time       11.11.2013 20:11:08.514 UTC
Sampling Rate     200. Hz
 Record Duration   86.960 Sec.
 Direction         N-S (N positive)
Max. Acceleration     -5.673 cm/sec**2
     
  * For reference see Site Classification link of website 
     
 Base Line Corrected and Low Pass Filtered (Cut Off at 35 Hz) Time History
 Acceleration data in cm/sec**2
    
[...]
       0.001
      -0.006
      -0.011
      -0.014
      -0.015
      -0.015
      -0.012
      -0.008
      -0.004
      -0.003
      -0.004
      -0.004
      -0.002
       0.002
       0.006
       0.008
       0.008
       0.007
       0.007
       0.006
       0.002
      -0.003
      -0.006
      -0.005
      -0.002
       0.001
       0.003
       0.005
       0.010
       0.013
       0.012
       0.008
       0.005
       0.004
       0.005
       0.004
       0.002
       0.002
       0.004
       0.004
       0.000
      -0.006
      -0.011
      -0.010
      -0.005
      -0.001
      -0.002
      -0.007
      -0.011
      -0.012
      -0.008
      -0.004
      -0.001
      -0.001
      -0.002
      -0.004
      -0.006
      -0.005
      -0.003
      -0.002
      -0.005
      -0.012
      -0.016
      -0.016
      -0.010
      -0.003
       0.001
       0.001
      -0.003
      -0.005
      -0.006
      -0.005
      -0.003
      -0.001
       0.002
       0.001
      -0.003
      -0.011
      -0.015
      -0.014
      -0.005
       0.003
       0.006
       0.001
      -0.006
      -0.010
      -0.008
      -0.003
      -0.001
      -0.002
      -0.004
      -0.005
      -0.006
      -0.007
      -0.006
      -0.004
      -0.002
       0.002
       0.004
       0.006
       0.006
       0.003
      -0.001
      -0.004
      -0.004
      -0.001
       0.001
       0.001
       0.002
       0.004
       0.009
       0.013
       0.010
       0.003
      -0.004
      -0.008
      -0.011
      -0.015
      -0.022
      -0.027
      -0.027
      -0.024
      -0.017
      -0.011
      -0.004
       0.002
       0.006
       0.006
       0.004
       0.001
       0.002
       0.004
       0.007
       0.009
       0.009
       0.008
       0.006
       0.000
      -0.009
      -0.017
      -0.022
      -0.021
      -0.019
      -0.016
      -0.012
      -0.008
      -0.001
       0.005
       0.004
      -0.006
      -0.021
      -0.032
      -0.032
      -0.023
      -0.012
      -0.005
      -0.004
      -0.005
      -0.007
      -0.009
      -0.009
      -0.010
      -0.012
      -0.014
      -0.014
      -0.010
      -0.001
       0.006
       0.008
       0.006
       0.004
       0.003
       0.003
      -0.002
      -0.011
      -0.019
      -0.021
      -0.016
      -0.010
      -0.009
      -0.012
      -0.012
      -0.007
       0.002
       0.008
       0.009
       0.007
       0.007
       0.008
       0.008
       0.004
      -0.003
      -0.009
      -0.008
      -0.002
       0.005
       0.007
       0.003
      -0.006
      -0.013
      -0.015
      -0.008
       0.002
       0.009
       0.011
       0.012
       0.014
       0.016
       0.011
       0.000
      -0.008
       0.004
       0.038
       0.076
       0.087
       0.047
      -0.041
      -0.136
      -0.193
      -0.181
      -0.108
      -0.003
       0.104
       0.192
       0.244
       0.232
       0.124
      -0.084
      -0.328
      -0.482
      -0.432
      -0.162
       0.205
       0.485
       0.545
       0.383
       0.102
      -0.174
      -0.366
      -0.451
      -0.419
      -0.262
       0.002
       0.281
       0.429
       0.345
       0.076
      -0.194
      -0.294
      -0.201
      -0.040
       0.057
       0.077
       0.102
       0.196
       0.297
       0.259
      -0.005
      -0.389
      -0.633
      -0.525
      -0.108
       0.338
       0.524
       0.382
       0.098
      -0.079
      -0.052
       0.062
       0.057
      -0.146
      -0.409
      -0.489
      -0.267
       0.132
       0.448
       0.508
       0.345
       0.122
      -0.028
      -0.098
      -0.162
      -0.268
      -0.365
      -0.349
      -0.166
       0.112
       0.323
       0.351
       0.220
       0.060
      -0.029
      -0.055
      -0.066
      -0.072
      -0.050
      -0.020
      -0.023
      -0.052
      -0.038
       0.052
       0.151
       0.167
       0.090
       0.008
       0.019
       0.138
       0.269
       0.263
       0.031
      -0.336
      -0.593
      -0.529
      -0.183
       0.166
       0.248
       0.043
      -0.227
      -0.317
      -0.148
       0.156
       0.385
       0.377
       0.128
      -0.195
      -0.378
      -0.331
      -0.139
       0.046
       0.151
       0.188
       0.179
       0.114
      -0.014
      -0.163
      -0.258
      -0.236
      -0.087
       0.113
       0.227
       0.160
      -0.029
      -0.159
      -0.110
       0.037
       0.087
      -0.045
      -0.223
      -0.232
      -0.005
       0.296
       0.437
       0.318
       0.044
      -0.190
      -0.266
      -0.220
      -0.174
      -0.209
      -0.281
      -0.251
      -0.017
       0.370
       0.702
       0.757
       0.475
      -0.001
      -0.436
      -0.667
      -0.661
      -0.479
      -0.204
       0.089
       0.335
       0.486
       0.509
       0.397
       0.170
      -0.117
      -0.355
      -0.410
      -0.221
       0.092
       0.278
       0.159
      -0.195
      -0.500
      -0.496
      -0.156
       0.299
       0.582
       0.540
       0.234
      -0.130
      -0.361
      -0.397
      -0.294
      -0.137
       0.032
       0.194
       0.303
       0.289
       0.129
      -0.091
      -0.214
      -0.145
       0.064
       0.251
       0.284
       0.135
      -0.140
      -0.447
      -0.680
      -0.715
      -0.474
      -0.013
       0.467
       0.738
       0.689
       0.386
      -0.004
      -0.311
      -0.431
      -0.349
      -0.145
       0.045
       0.114
       0.065
      -0.005
       0.002
       0.090
       0.174
       0.155
       0.024
      -0.119
      -0.143
      -0.024
       0.103
       0.074
      -0.120
      -0.302
      -0.283
      -0.047
       0.255
       0.446
       0.450
       0.291
       0.041
      -0.216
      -0.389
      -0.404
      -0.252
      -0.025
       0.102
      -0.009
      -0.305
      -0.519
      -0.386
       0.089
       0.597
       0.791
       0.604
       0.264
       0.034
      -0.030
      -0.061
      -0.181
      -0.355
      -0.449
      -0.395
      -0.260
      -0.158
      -0.098
       0.037
       0.336
       0.697
       0.855
       0.590
      -0.042
      -0.699
      -0.982
      -0.742
      -0.213
       0.194
       0.239
       0.038
      -0.102
      -0.008
       0.228
       0.382
       0.347
       0.195
       0.050
      -0.059
      -0.172
      -0.292
      -0.347
      -0.283
      -0.141
      -0.029
      -0.008
      -0.041
      -0.035
       0.067
       0.234
       0.378
       0.420
       0.345
       0.199
       0.027
      -0.167
      -0.386
      -0.570
      -0.598
      -0.398
      -0.032
       0.340
       0.571
       0.614
       0.511
       0.321
       0.073
      -0.223
      -0.519
      -0.689
      -0.602
      -0.253
       0.174
       0.413
       0.316
      -0.023
      -0.336
      -0.364
      -0.048
       0.414
       0.697
       0.595
       0.183
      -0.251
      -0.451
      -0.376
      -0.170
       0.004
       0.081
       0.080
       0.038
      -0.028
      -0.097
      -0.141
      -0.137
      -0.072
       0.043
       0.174
       0.254
       0.218
       0.063
      -0.132
      -0.271
      -0.319
      -0.310
      -0.276
      -0.206
      -0.066
       0.159
       0.425
       0.640
       0.696
       0.543
       0.227
      -0.146
      -0.486
      -0.740
      -0.833
      -0.657
      -0.187
       0.410
       0.828
       0.830
       0.423
      -0.154
      -0.606
      -0.759
      -0.613
      -0.290
       0.063
       0.330
       0.448
       0.405
       0.249
       0.080
       0.007
       0.069
       0.192
       0.230
       0.078
      -0.225
      -0.502
      -0.563
      -0.340
       0.053
       0.383
       0.461
       0.279
       0.011
      -0.130
      -0.060
       0.125
       0.235
       0.150
      -0.081
      -0.278
      -0.284
      -0.107
       0.082
       0.123
       0.025
      -0.056
       0.002
       0.151
       0.216
       0.086
      -0.169
      -0.365
      -0.385
      -0.262
      -0.116
      -0.030
       0.007
       0.059
       0.168
       0.298
       0.359
       0.294
       0.147
       0.020
      -0.044
      -0.100
      -0.213
      -0.339
      -0.346
      -0.145
       0.190
       0.432
       0.360
      -0.048
      -0.549
      -0.795
      -0.595
      -0.051
       0.546
       0.927
       0.987
       0.765
       0.368
      -0.082
      -0.457
      -0.649
      -0.604
      -0.369
      -0.081
       0.108
       0.140
       0.080
       0.038
       0.046
       0.033
      -0.069
      -0.203
      -0.205
       0.023
       0.359
       0.526
       0.340
      -0.102
      -0.510
      -0.657
      -0.534
      -0.294
      -0.075
       0.094
       0.257
       0.417
       0.492
       0.399
       0.180
       0.000
      -0.011
       0.094
       0.131
      -0.007
      -0.222
      -0.308
      -0.155
       0.140
       0.354
       0.316
       0.022
      -0.349
      -0.550
      -0.438
      -0.105
       0.172
       0.191
       0.032
      -0.019
       0.203
       0.540
       0.647
       0.333
      -0.235
      -0.668
      -0.691
      -0.385
      -0.090
      -0.057
      -0.209
      -0.237
       0.048
       0.499
       0.763
       0.616
       0.155
      -0.318
      -0.550
      -0.473
      -0.175
       0.167
       0.346
       0.242
      -0.043
      -0.222
      -0.074
       0.320
       0.630
       0.579
       0.192
      -0.241
      -0.433
      -0.344
      -0.180
      -0.164
      -0.291
      -0.337
      -0.114
       0.277
       0.506
       0.349
      -0.074
      -0.404
      -0.389
      -0.107
       0.137
       0.077
      -0.285
      -0.679
      -0.751
      -0.335
       0.409
       1.079
       1.295
       0.942
       0.246
      -0.383
      -0.644
      -0.547
      -0.345
      -0.256
      -0.273
      -0.225
      -0.009
       0.286
       0.474
       0.468
       0.359
       0.297
       0.302
       0.240
      -0.003
      -0.330
      -0.473
      -0.265
       0.137
       0.347
       0.118
      -0.386
      -0.709
      -0.531
       0.037
       0.572
       0.705
       0.382
      -0.180
      -0.687
      -0.920
      -0.803
      -0.410
       0.072
       0.451
       0.645
       0.705
       0.712
       0.667
       0.505
       0.195
      -0.181
      -0.457
      -0.512
      -0.381
      -0.222
      -0.136
      -0.055
       0.144
       0.408
       0.494
       0.241
      -0.188
      -0.432
      -0.310
      -0.008
       0.134
      -0.035
      -0.365
      -0.578
      -0.508
      -0.219
       0.076
       0.221
       0.236
       0.232
       0.255
       0.258
       0.233
       0.260
       0.388
       0.490
       0.333
      -0.157
      -0.736
      -1.005
      -0.772
      -0.224
       0.264
       0.455
       0.385
       0.235
       0.156
       0.187
       0.257
       0.230
       0.001
      -0.385
      -0.704
      -0.692
      -0.258
       0.402
       0.914
       0.970
       0.562
      -0.009
      -0.375
      -0.414
      -0.307
      -0.274
      -0.317
      -0.276
      -0.091
       0.108
       0.187
       0.171
       0.157
       0.144
       0.032
      -0.196
      -0.359
      -0.234
       0.161
       0.453
       0.191
      -0.681
      -1.628
      -1.903
      -1.200
       0.035
       0.968
       1.068
       0.486
      -0.201
      -0.579
      -0.689
      -0.804
      -1.010
      -1.085
      -0.781
      -0.149
       0.462
       0.720
       0.608
       0.416
       0.444
       0.728
       1.057
       1.215
       1.150
       0.938
       0.663
       0.394
       0.248
       0.376
       0.799
       1.287
       1.468
       1.128
       0.443
      -0.122
      -0.197
       0.137
       0.403
       0.180
      -0.463
      -1.021
      -1.050
      -0.589
      -0.084
       0.070
      -0.136
      -0.377
      -0.318
       0.107
       0.652
       0.918
       0.600
      -0.313
      -1.478
      -2.346
      -2.445
      -1.650
      -0.280
       1.049
       1.750
       1.578
       0.732
      -0.281
      -0.890
      -0.752
      -0.004
       0.746
       0.850
       0.194
      -0.670
      -1.011
      -0.534
       0.430
       1.237
       1.372
       0.712
      -0.443
      -1.541
      -2.059
      -1.756
      -0.746
       0.602
       1.815
       2.440
       2.192
       1.124
      -0.285
      -1.313
      -1.423
      -0.636
       0.482
       1.220
       1.169
       0.412
      -0.616
      -1.440
      -1.787
      -1.620
      -1.040
      -0.200
       0.703
       1.407
       1.620
       1.124
      -0.068
      -1.593
      -2.787
      -3.040
      -2.262
      -1.054
      -0.275
      -0.296
      -0.622
      -0.316
       1.097
       3.086
       4.429
       4.169
       2.385
       0.137
      -1.347
      -1.534
      -0.803
       0.071
       0.614
       0.873
       1.044
       1.014
       0.389
      -1.024
      -2.842
      -4.280
      -4.672
      -3.834
      -2.049
       0.166
       2.286
       3.943
       4.970
       5.296
       4.778
       3.224
       0.703
      -2.180
      -4.387
      -4.954
      -3.533
      -0.656
       2.443
       4.364
       4.197
       1.979
      -1.310
      -4.243
      -5.673
      -5.227
      -3.311
      -0.716
       1.830
       3.835
       4.961
       4.914
       3.552
       1.149
      -1.518
      -3.469
      -4.082
      -3.466
      -2.297
      -1.229
      -0.384
       0.598
       2.002
       3.515
       4.269
       3.487
       1.164
      -1.833
      -4.287
      -5.279
      -4.515
      -2.298
       0.617
       3.190
       4.442
       3.953
       2.162
       0.109
      -1.255
      -1.634
      -1.379
      -0.987
      -0.611
       0.003
       1.091
       2.383
       3.057
       2.319
       0.146
      -2.497
      -4.222
      -4.099
      -2.219
       0.392
       2.388
       2.885
       1.957
       0.520
      -0.363
      -0.249
       0.444
       0.864
       0.449
      -0.641
      -1.645
      -1.748
      -0.678
       1.014
       2.225
       2.024
       0.330
      -1.956
      -3.500
      -3.367
      -1.590
       0.868
       2.712
       3.090
       2.062
       0.436
      -0.858
      -1.366
      -1.274
      -1.057
      -0.983
      -0.890
      -0.393
       0.667
       1.957
       2.747
       2.357
       0.645
      -1.729
      -3.516
      -3.551
      -1.538
       1.589
       4.102
       4.521
       2.577
      -0.628
      -3.370
      -4.397
      -3.534
      -1.493
       0.776
       2.584
       3.601
       3.712
       2.940
       1.481
      -0.267
      -1.789
      -2.635
      -2.600
      -1.805
      -0.632
       0.453
       1.095
       1.162
       0.756
       0.131
      -0.423
      -0.670
      -0.506
      -0.002
       0.576
       0.867
       0.616
      -0.126
      -0.974
      -1.429
      -1.209
      -0.414
       0.578
       1.362
       1.684
       1.463
       0.744
      -0.322
      -1.454
      -2.268
      -2.384
      -1.642
      -0.277
       1.108
       1.815
       1.450
       0.189
      -1.302
      -2.255
      -2.242
      -1.386
      -0.205
       0.760
       1.253
       1.346
       1.239
       1.040
       0.709
       0.187
      -0.432
      -0.869
      -0.824
      -0.229
       0.614
       1.202
       1.216
       0.775
       0.277
      -0.011
      -0.170
      -0.424
      -0.763
      -0.855
      -0.381
       0.557
       1.388
       1.515
       0.828
      -0.186
      -0.839
      -0.788
      -0.253
       0.234
       0.296
      -0.002
      -0.277
      -0.211
       0.160
       0.503
       0.459
      -0.084
      -0.898
      -1.533
      -1.611
      -1.086
      -0.263
       0.445
       0.782
       0.706
       0.277
      -0.421
      -1.207
      -1.724
      -1.550
      -0.530
       0.936
       2.009
       1.995
       0.958
      -0.271
      -0.787
      -0.375
       0.403
       0.826
       0.674
       0.271
       0.001
      -0.124
      -0.395
      -0.949
      -1.444
      -1.270
      -0.143
       1.491
       2.694
       2.732
       1.599
      -0.056
      -1.426
      -2.003
      -1.727
      -0.888
       0.073
       0.766
       0.996
       0.800
       0.349
      -0.175
      -0.639
      -0.944
      -1.010
      -0.781
      -0.273
       0.390
       0.987
       1.276
       1.120
       0.591
      -0.029
      -0.397
      -0.335
       0.019
       0.313
       0.300
       0.090
       0.038
       0.326
       0.684
       0.621
      -0.033
      -0.889
      -1.352
      -1.174
      -0.618
      -0.110
       0.160
       0.314
       0.536
       0.800
       0.844
       0.420
      -0.405
      -1.206
      -1.514
      -1.219
      -0.675
      -0.359
      -0.422
      -0.569
      -0.388
       0.232
       0.973
       1.362
       1.144
       0.463
      -0.261
      -0.626
      -0.502
      -0.064
       0.419
       0.834
       1.251
       1.716
       2.038
       1.859
       0.976
      -0.362
      -1.519
      -1.882
      -1.308
      -0.232
       0.657
       0.909
       0.596
       0.135
      -0.142
      -0.273
      -0.507
      -0.893
      -1.108
      -0.759
       0.139
       1.030
       1.219
       0.455
      -0.837
      -1.872
      -2.093
      -1.535
      -0.689
      -0.063
       0.149
       0.080
      -0.022
       0.018
       0.226
       0.521
       0.777
       0.872
       0.713
       0.290
      -0.244
      -0.591
      -0.499
      -0.001
       0.569
       0.812
       0.559
      -0.018
      -0.546
      -0.709
      -0.441
       0.094
       0.664
       1.107
       1.340
       1.316
       1.002
       0.393
      -0.443
      -1.329
      -1.976
      -2.107
      -1.643
      -0.776
       0.154
       0.871
       1.275
       1.399
       1.335
       1.166
       0.947
       0.695
       0.401
       0.041
      -0.399
      -0.888
      -1.309
      -1.470
      -1.221
      -0.607
       0.094
       0.518
       0.472
       0.071
      -0.376
      -0.599
      -0.530
      -0.274
       0.006
       0.193
       0.258
       0.260
       0.275
       0.310
       0.279
       0.097
      -0.204
      -0.464
      -0.483
      -0.183
       0.286
       0.603
       0.501
       0.010
      -0.547
      -0.817
      -0.690
      -0.332
       0.006
       0.183
       0.229
       0.269
       0.409
       0.645
       0.869
       0.947
       0.834
       0.600
       0.361
       0.165
      -0.038
      -0.320
      -0.647
      -0.854
      -0.754
      -0.304
       0.330
       0.851
       0.977
       0.571
      -0.264
      -1.161
      -1.630
      -1.363
      -0.503
       0.419
       0.867
       0.702
       0.254
       0.005
       0.157
       0.466
       0.479
      -0.051
      -0.949
      -1.753
      -2.057
      -1.762
      -1.079
      -0.324
       0.321
       0.856
       1.310
       1.599
       1.569
