Origin Time       12/3/2012 22:07:20	 UTC
Lat.              28.9 N	
Long.             77.3 E	
Depth (Km)          5.0
Magnitude         3.5
 Region           Baghpat-U.P.                                                     
 Above details taken from IMD 
    
Station Code      DCE
Station Lat.       28.795  N
Station Long.      77.118  E
Station Height(m)  208.0
Site Class        C   Vs30 between 200 m/sec to 375 m/sec *  
Record Time       12.03.2012 22:07:03.864 UTC
Sampling Rate     200. Hz
 Record Duration   80.000 Sec.
 Direction         N-S (N positive)
Max. Acceleration      3.337 cm/sec**2
     
  * For reference see Site Classification link of website 
     
 Base Line Corrected and Low Pass Filtered (Cut Off at 35 Hz) Time History
 Acceleration data in cm/sec**2
    
[...]
      -0.005
       0.000
       0.001
      -0.001
      -0.003
      -0.004
      -0.003
       0.001
       0.007
       0.013
       0.015
       0.013
       0.009
       0.006
       0.011
       0.021
       0.030
       0.033
       0.029
       0.023
       0.019
       0.018
       0.018
       0.014
       0.006
      -0.001
      -0.004
      -0.003
       0.000
       0.003
       0.005
       0.005
       0.004
       0.004
       0.004
       0.003
       0.001
      -0.002
      -0.005
      -0.005
      -0.002
       0.002
       0.006
       0.008
       0.006
       0.001
      -0.005
      -0.008
      -0.009
      -0.009
      -0.009
      -0.010
      -0.010
      -0.009
      -0.010
      -0.011
      -0.011
      -0.008
      -0.002
       0.006
       0.010
       0.010
       0.008
       0.006
       0.006
       0.008
       0.009
       0.006
       0.003
       0.001
       0.002
       0.004
       0.002
      -0.002
      -0.005
      -0.003
       0.004
       0.009
       0.009
       0.001
      -0.012
      -0.022
      -0.028
      -0.027
      -0.023
      -0.019
      -0.016
      -0.015
      -0.016
      -0.018
      -0.023
      -0.028
      -0.029
      -0.020
       0.001
       0.030
       0.057
       0.064
       0.041
      -0.004
      -0.045
      -0.057
      -0.028
       0.026
       0.070
       0.078
       0.048
       0.002
      -0.035
      -0.048
      -0.042
      -0.024
      -0.003
       0.012
       0.017
       0.013
       0.011
       0.022
       0.050
       0.088
       0.115
       0.107
       0.054
      -0.029
      -0.103
      -0.129
      -0.099
      -0.045
      -0.010
      -0.019
      -0.052
      -0.064
      -0.027
       0.045
       0.111
       0.140
       0.130
       0.098
       0.054
      -0.001
      -0.065
      -0.121
      -0.151
      -0.147
      -0.120
      -0.083
      -0.037
       0.025
       0.095
       0.135
       0.102
      -0.009
      -0.140
      -0.199
      -0.138
       0.005
       0.138
       0.184
       0.146
       0.085
       0.066
       0.101
       0.146
       0.148
       0.092
       0.016
      -0.031
      -0.031
      -0.003
       0.020
       0.028
       0.035
       0.062
       0.112
       0.160
       0.176
       0.143
       0.070
      -0.030
      -0.151
      -0.289
      -0.417
      -0.491
      -0.477
      -0.376
      -0.231
      -0.093
       0.003
       0.051
       0.064
       0.060
       0.052
       0.054
       0.075
       0.123
       0.192
       0.265
       0.319
       0.335
       0.312
       0.265
       0.212
       0.156
       0.082
      -0.022
      -0.153
      -0.284
      -0.388
      -0.443
      -0.444
      -0.394
      -0.310
      -0.216
      -0.129
      -0.046
       0.053
       0.178
       0.304
       0.384
       0.381
       0.306
       0.211
       0.150
       0.132
       0.127
       0.099
       0.042
      -0.020
      -0.070
      -0.109
      -0.145
      -0.168
      -0.152
      -0.088
      -0.009
       0.031
       0.004
      -0.065
      -0.130
      -0.161
      -0.164
      -0.159
      -0.141
      -0.088
       0.011
       0.125
       0.201
       0.206
       0.163
       0.128
       0.136
       0.164
       0.153
       0.064
      -0.080
      -0.210
      -0.263
      -0.231
      -0.156
      -0.096
      -0.083
      -0.110
      -0.133
      -0.103
       0.001
       0.153
       0.282
       0.323
       0.261
       0.145
       0.051
       0.016
       0.021
       0.020
      -0.004
      -0.020
       0.005
       0.055
       0.065
      -0.014
      -0.162
      -0.301
      -0.359
      -0.327
      -0.238
      -0.119
       0.033
       0.229
       0.432
       0.551
       0.506
       0.295
       0.013
      -0.218
      -0.325
      -0.308
      -0.217
      -0.096
       0.028
       0.139
       0.213
       0.231
       0.192
       0.115
       0.020
      -0.075
      -0.163
      -0.231
      -0.259
      -0.226
      -0.132
      -0.006
       0.109
       0.175
       0.182
       0.154
       0.128
       0.117
       0.101
       0.053
      -0.024
      -0.088
      -0.099
      -0.068
      -0.049
      -0.094
      -0.187
      -0.255
      -0.226
      -0.095
       0.072
       0.189
       0.215
       0.172
       0.106
       0.038
      -0.038
      -0.127
      -0.195
      -0.192
      -0.095
       0.062
       0.205
       0.268
       0.242
       0.174
       0.114
       0.079
       0.041
      -0.023
      -0.094
      -0.117
      -0.056
       0.064
       0.172
       0.208
       0.170
       0.103
       0.039
      -0.030
      -0.128
      -0.242
      -0.318
      -0.300
      -0.194
      -0.063
       0.024
       0.049
       0.046
       0.060
       0.108
       0.160
       0.169
       0.102
      -0.028
      -0.162
      -0.226
      -0.178
      -0.038
       0.128
       0.243
       0.264
       0.199
       0.092
      -0.007
      -0.072
      -0.106
      -0.135
      -0.179
      -0.231
      -0.256
      -0.209
      -0.067
       0.142
       0.341
       0.433
       0.362
       0.155
      -0.081
      -0.222
      -0.205
      -0.072
       0.059
       0.093
       0.028
      -0.053
      -0.077
      -0.040
       0.010
       0.040
       0.071
       0.137
       0.232
       0.295
       0.263
       0.125
      -0.063
      -0.224
      -0.314
      -0.340
      -0.322
      -0.267
      -0.174
      -0.058
       0.039
       0.074
       0.051
       0.013
       0.015
       0.069
       0.146
       0.199
       0.207
       0.185
       0.160
       0.139
       0.109
       0.060
      -0.003
      -0.067
      -0.128
      -0.185
      -0.223
      -0.214
      -0.134
      -0.002
       0.119
       0.160
       0.097
      -0.027
      -0.125
      -0.132
      -0.046
       0.078
       0.186
       0.262
       0.317
       0.343
       0.301
       0.160
      -0.050
      -0.249
      -0.365
      -0.383
      -0.339
      -0.271
      -0.195
      -0.109
      -0.018
       0.061
       0.113
       0.139
       0.154
       0.163
       0.150
       0.090
      -0.013
      -0.112
      -0.142
      -0.082
       0.021
       0.085
       0.069
       0.017
       0.006
       0.067
       0.145
       0.155
       0.074
      -0.043
      -0.124
      -0.147
      -0.144
      -0.149
      -0.156
      -0.118
      -0.006
       0.150
       0.266
       0.267
       0.147
      -0.032
      -0.186
      -0.257
      -0.231
      -0.130
       0.006
       0.139
       0.237
       0.270
       0.222
       0.102
      -0.047
      -0.175
      -0.236
      -0.218
      -0.150
      -0.089
      -0.080
      -0.121
      -0.166
      -0.168
      -0.126
      -0.074
      -0.039
      -0.016
       0.025
       0.109
       0.233
       0.370
       0.470
       0.484
       0.387
       0.197
      -0.026
      -0.211
      -0.299
      -0.258
      -0.100
       0.106
       0.255
       0.258
       0.111
      -0.097
      -0.244
      -0.265
      -0.189
      -0.101
      -0.064
      -0.076
      -0.094
      -0.087
      -0.059
      -0.025
       0.018
       0.085
       0.171
       0.238
       0.237
       0.153
       0.025
      -0.078
      -0.106
      -0.076
      -0.051
      -0.081
      -0.152
      -0.205
      -0.184
      -0.083
       0.049
       0.146
       0.164
       0.109
       0.032
      -0.008
       0.003
       0.030
       0.027
      -0.001
       0.010
       0.116
       0.290
       0.409
       0.346
       0.080
      -0.266
      -0.502
      -0.492
      -0.242
       0.110
       0.373
       0.413
       0.230
      -0.050
      -0.257
      -0.294
      -0.188
      -0.046
       0.040
       0.051
       0.027
       0.007
       0.004
       0.024
       0.076
       0.149
       0.196
       0.161
       0.035
      -0.121
      -0.217
      -0.192
      -0.063
       0.084
       0.150
       0.094
      -0.033
      -0.129
      -0.140
      -0.112
      -0.136
      -0.236
      -0.314
      -0.239
       0.005
       0.277
       0.393
       0.299
       0.114
       0.015
       0.064
       0.150
       0.114
      -0.079
      -0.292
      -0.340
      -0.166
       0.097
       0.245
       0.183
       0.002
      -0.118
      -0.075
       0.076
       0.195
       0.204
       0.145
       0.109
       0.122
       0.127
       0.073
      -0.015
      -0.074
      -0.083
      -0.089
      -0.146
      -0.241
      -0.297
      -0.252
      -0.124
      -0.002
       0.041
       0.009
      -0.029
      -0.018
       0.038
       0.103
       0.162
       0.230
       0.312
       0.360
       0.303
       0.121
      -0.106
      -0.242
      -0.217
      -0.089
      -0.007
      -0.068
      -0.222
      -0.289
      -0.124
       0.225
       0.522
       0.536
       0.255
      -0.095
      -0.258
      -0.171
       0.003
       0.061
      -0.041
      -0.168
      -0.159
       0.008
       0.192
       0.217
       0.021
      -0.292
      -0.543
      -0.603
      -0.456
      -0.178
       0.131
       0.389
       0.552
       0.607
       0.565
       0.442
       0.253
       0.017
      -0.226
      -0.408
      -0.456
      -0.344
      -0.135
       0.044
       0.083
      -0.017
      -0.144
      -0.171
      -0.063
       0.094
       0.180
       0.153
       0.089
       0.089
       0.174
       0.254
       0.228
       0.084
      -0.078
      -0.146
      -0.084
       0.049
       0.148
       0.146
       0.056
      -0.046
      -0.087
      -0.057
      -0.013
      -0.022
      -0.090
      -0.164
      -0.184
      -0.143
      -0.089
      -0.065
      -0.072
      -0.073
      -0.040
       0.024
       0.101
       0.182
       0.256
       0.287
       0.227
       0.062
      -0.135
      -0.231
      -0.136
       0.091
       0.273
       0.256
       0.049
      -0.185
      -0.275
      -0.191
      -0.053
       0.005
      -0.025
      -0.026
       0.106
       0.340
       0.526
       0.519
       0.301
      -0.010
      -0.245
      -0.305
      -0.219
      -0.120
      -0.129
      -0.256
      -0.385
      -0.381
      -0.215
       0.004
       0.139
       0.155
       0.132
       0.156
       0.209
       0.188
       0.034
      -0.181
      -0.305
      -0.238
      -0.026
       0.183
       0.259
       0.177
       0.018
      -0.100
      -0.093
       0.045
       0.250
       0.411
       0.421
       0.239
      -0.057
      -0.300
      -0.349
      -0.209
      -0.029
       0.030
      -0.064
      -0.196
      -0.220
      -0.094
       0.079
       0.156
       0.088
      -0.033
      -0.079
      -0.023
       0.054
       0.077
       0.067
       0.095
       0.185
       0.285
       0.323
       0.263
       0.115
      -0.100
      -0.358
      -0.603
      -0.729
      -0.628
      -0.273
       0.225
       0.670
       0.887
       0.805
       0.475
       0.038
      -0.337
      -0.510
      -0.445
      -0.220
       0.033
       0.218
       0.297
       0.251
       0.052
      -0.271
      -0.581
      -0.682
      -0.458
       0.009
       0.488
       0.744
       0.681
       0.377
       0.013
      -0.239
      -0.296
      -0.176
       0.026
       0.203
       0.282
       0.247
       0.120
      -0.061
      -0.249
      -0.384
      -0.414
      -0.340
      -0.216
      -0.106
      -0.038
       0.013
       0.073
       0.129
       0.130
       0.057
      -0.027
      -0.019
       0.118
       0.303
       0.398
       0.324
       0.125
      -0.083
      -0.212
      -0.261
      -0.276
      -0.267
      -0.170
       0.072
       0.398
       0.626
       0.583
       0.264
      -0.162
      -0.490
      -0.620
      -0.571
      -0.393
      -0.119
       0.220
       0.542
       0.728
       0.697
       0.467
       0.130
      -0.222
      -0.535
      -0.769
      -0.857
      -0.730
      -0.387
       0.064
       0.447
       0.614
       0.515
       0.212
      -0.157
      -0.445
      -0.538
      -0.376
       0.024
       0.543
       0.957
       1.036
       0.705
       0.121
      -0.419
      -0.680
      -0.641
      -0.465
      -0.324
      -0.249
      -0.151
       0.047
       0.300
       0.477
       0.470
       0.272
      -0.016
      -0.248
      -0.318
      -0.221
      -0.053
       0.073
       0.101
       0.068
       0.044
       0.062
       0.095
       0.096
       0.056
       0.007
      -0.015
       0.004
       0.045
       0.072
       0.050
      -0.041
      -0.179
      -0.294
      -0.309
      -0.209
      -0.062
       0.032
       0.033
      -0.002
       0.034
       0.180
       0.353
       0.420
       0.326
       0.139
      -0.031
      -0.131
      -0.180
      -0.207
      -0.215
      -0.197
      -0.155
      -0.099
      -0.037
       0.025
       0.076
       0.098
       0.105
       0.167
       0.400
       0.857
       1.411
       1.753
       1.577
       0.833
      -0.200
      -1.069
      -1.426
      -1.220
      -0.681
      -0.140
       0.168
       0.195
       0.051
      -0.116
      -0.227
      -0.318
      -0.484
      -0.767
      -1.079
      -1.252
      -1.168
      -0.860
      -0.501
      -0.292
      -0.328
      -0.514
      -0.575
      -0.203
       0.717
       1.952
       2.994
       3.337
       2.757
       1.419
      -0.224
      -1.662
      -2.528
      -2.698
      -2.269
      -1.470
      -0.570
       0.223
       0.809
       1.181
       1.347
       1.300
       1.059
       0.730
       0.483
       0.426
       0.485
       0.438
       0.114
      -0.419
      -0.878
      -1.016
      -0.849
      -0.627
      -0.575
      -0.669
      -0.668
      -0.376
       0.151
       0.640
       0.856
       0.794
       0.641
       0.581
       0.633
       0.662
       0.500
       0.071
      -0.560
      -1.222
      -1.704
      -1.836
      -1.548
      -0.905
      -0.100
       0.610
       1.021
       1.077
       0.895
       0.685
       0.610
       0.682
       0.753
       0.636
       0.278
      -0.172
      -0.471
      -0.494
      -0.323
      -0.142
      -0.039
       0.056
       0.249
       0.510
       0.642
       0.449
      -0.071
      -0.707
      -1.198
      -1.383
      -1.206
      -0.637
       0.298
       1.385
       2.192
       2.294
       1.604
       0.500
      -0.419
      -0.780
      -0.673
      -0.503
      -0.607
      -0.971
      -1.273
      -1.192
      -0.702
      -0.123
       0.164
       0.063
      -0.131
      -0.020
       0.501
       1.089
       1.225
       0.662
      -0.335
      -1.178
      -1.422
      -1.064
      -0.433
       0.173
       0.700
       1.219
       1.690
       1.895
       1.592
       0.744
      -0.406
      -1.449
      -2.025
      -2.009
      -1.548
      -0.940
      -0.424
      -0.037
       0.335
       0.764
       1.141
       1.260
       1.038
       0.600
       0.169
      -0.110
      -0.204
      -0.117
       0.155
       0.539
       0.799
       0.605
      -0.207
      -1.397
      -2.370
      -2.552
      -1.809
      -0.531
       0.686
       1.480
       1.887
       2.118
       2.212
       1.945
       1.095
      -0.221
      -1.489
      -2.098
      -1.755
      -0.687
       0.505
       1.199
       1.066
       0.183
      -1.046
      -2.095
      -2.540
      -2.231
      -1.318
      -0.131
       1.014
       1.905
       2.404
       2.385
       1.788
       0.751
      -0.350
      -1.068
      -1.154
      -0.718
      -0.136
       0.215
       0.193
      -0.055
      -0.224
      -0.102
       0.247
       0.528
       0.476
       0.097
      -0.348
      -0.578
      -0.505
      -0.252
      -0.025
       0.050
      -0.013
      -0.097
      -0.094
       0.025
       0.195
       0.294
       0.200
      -0.142
      -0.614
      -0.916
      -0.720
       0.060
       1.104
       1.818
       1.707
       0.735
      -0.609
      -1.608
      -1.773
      -1.131
      -0.150
       0.616
       0.882
       0.739
       0.467
       0.263
       0.145
       0.074
       0.092
       0.250
       0.427
       0.322
      -0.267
      -1.130
      -1.711
      -1.554
      -0.718
       0.265
       0.831
       0.809
       0.445
       0.079
      -0.170
      -0.413
      -0.731
      -0.962
      -0.790
      -0.066
       0.967
       1.790
       1.976
       1.473
       0.593
      -0.254
      -0.832
      -1.133
      -1.239
      -1.152
      -0.782
      -0.072
       0.838
       1.583
       1.738
       1.096
      -0.128
      -1.343
      -1.890
      -1.438
      -0.222
       1.054
       1.639
       1.202
       0.041
      -1.150
      -1.755
      -1.564
      -0.792
       0.162
       0.947
       1.356
       1.308
       0.814
       0.005
      -0.826
      -1.294
      -1.122
      -0.355
       0.607
       1.238
       1.210
       0.595
      -0.216
      -0.788
      -0.894
      -0.588
      -0.083
       0.410
       0.757
       0.883
       0.760
       0.449
       0.112
      -0.074
      -0.040
       0.102
       0.142
      -0.089
      -0.571
      -1.074
      -1.279
      -1.005
      -0.362
       0.311
       0.691
       0.704
       0.525
       0.378
       0.339
       0.303
       0.121
      -0.244
      -0.650
      -0.857
      -0.705
      -0.242
       0.307
       0.711
       0.857
       0.764
       0.507
       0.164
      -0.199
      -0.516
      -0.735
      -0.854
      -0.922
      -0.979
      -0.967
      -0.716
      -0.100
       0.769
       1.508
       1.707
       1.264
       0.493
      -0.115
      -0.269
      -0.066
       0.158
       0.141
      -0.094
      -0.299
      -0.234
       0.133
       0.608
       0.907
       0.828
       0.352
      -0.353
      -1.012
      -1.356
      -1.246
      -0.755
      -0.148
       0.260
       0.295
       0.019
      -0.336
      -0.529
      -0.454
      -0.178
       0.123
       0.299
       0.320
       0.268
       0.232
       0.204
       0.086
      -0.184
      -0.506
      -0.623
      -0.304
       0.423
       1.198
       1.523
       1.112
       0.126
      -0.891
      -1.371
      -1.118
      -0.435
       0.132
       0.221
      -0.107
      -0.470
      -0.480
      -0.015
       0.744
       1.457
       1.803
       1.607
       0.895
      -0.097
      -0.987
      -1.412
      -1.219
      -0.561
       0.194
       0.674
       0.712
       0.391
      -0.064
      -0.446
      -0.641
      -0.615
      -0.398
      -0.097
       0.127
       0.176
       0.129
       0.174
       0.400
       0.642
       0.597
       0.122
      -0.594
      -1.156
      -1.281
      -0.992
      -0.562
      -0.267
      -0.187
      -0.175
      -0.011
       0.390
       0.879
       1.162
       1.017
       0.472
      -0.166
      -0.495
      -0.296
       0.293
       0.860
       1.003
       0.591
      -0.183
      -0.947
      -1.358
      -1.241
      -0.635
       0.234
       1.046
       1.521
       1.519
       1.067
       0.314
