Origin Time       05/3/2012 07:41:05	
Lat.              28.7 N	
Long.             76.6 E	
Depth (Km)         14.0
Magnitude         4.9
 Region           Haryana-Delhi-Border-Region                                      
 Above details taken from IMD 
   
Station Code      DCE
Station Lat.       28.795
Station Long.      77.118
Station Height(m)  208.0
Site Class        C   Vs30 between 200 m/sec to 375 m/sec *  
Record Time       05.03.2012 07:40:50.884
Sampling Rate     200. Hz
 Record Duration  110.460 Sec.
 Direction         Vert. (Up positive)
Max. Acceleration     -5.599 cm/sec**2
     
  * For reference see Site Classification link of website 
     
 Base Line Corrected and Low Pass Filtered (Cut Off at 35 Hz) Time History
 Acceleration data in cm/sec**2
    
[...]
      -1.087
      -0.313
       0.361
       0.619
       0.358
      -0.242
      -0.807
      -1.009
      -0.773
      -0.311
       0.062
       0.171
       0.082
       0.000
       0.079
       0.310
       0.561
       0.695
       0.663
       0.512
       0.320
       0.125
      -0.079
      -0.280
      -0.406
      -0.360
      -0.121
       0.212
       0.493
       0.659
       0.775
       0.939
       1.135
       1.191
       0.901
       0.228
      -0.607
      -1.227
      -1.339
      -0.929
      -0.267
       0.276
       0.453
       0.265
      -0.098
      -0.400
      -0.487
      -0.329
       0.002
       0.368
       0.605
       0.595
       0.344
       0.019
      -0.124
       0.103
       0.680
       1.351
       1.756
       1.648
       1.044
       0.214
      -0.487
      -0.806
      -0.684
      -0.228
       0.376
       0.936
       1.285
       1.304
       0.963
       0.351
      -0.331
      -0.837
      -0.974
      -0.694
      -0.132
       0.439
       0.743
       0.635
       0.170
      -0.445
      -0.967
      -1.228
      -1.162
      -0.801
      -0.240
       0.375
       0.864
       1.072
       0.955
       0.633
       0.341
       0.277
       0.452
       0.674
       0.691
       0.376
      -0.172
      -0.699
      -0.963
      -0.896
      -0.639
      -0.433
      -0.442
      -0.643
      -0.853
      -0.870
      -0.634
      -0.285
      -0.070
      -0.154
      -0.482
      -0.805
      -0.850
      -0.511
       0.077
       0.632
       0.899
       0.798
       0.450
       0.084
      -0.108
      -0.077
       0.067
       0.125
      -0.071
      -0.541
      -1.126
      -1.563
      -1.653
      -1.374
      -0.882
      -0.397
      -0.073
       0.074
       0.146
       0.254
       0.429
       0.592
       0.629
       0.502
       0.301
       0.194
       0.283
       0.503
       0.641
       0.488
       0.000
      -0.632
      -1.078
      -1.080
      -0.646
      -0.072
       0.258
       0.149
      -0.275
      -0.689
      -0.817
      -0.613
      -0.243
       0.086
       0.298
       0.476
       0.740
       1.090
       1.331
       1.193
       0.555
      -0.379
      -1.147
      -1.306
      -0.721
       0.350
       1.428
       2.072
       2.079
       1.527
       0.691
      -0.096
      -0.576
      -0.649
      -0.386
       0.031
       0.406
       0.607
       0.602
       0.436
       0.200
      -0.010
      -0.123
      -0.111
       0.006
       0.151
       0.189
      -0.026
      -0.541
      -1.200
      -1.659
      -1.565
      -0.825
       0.270
       1.182
       1.467
       1.069
       0.345
      -0.195
      -0.227
       0.209
       0.781
       1.099
       0.939
       0.363
      -0.338
      -0.816
      -0.880
      -0.588
      -0.161
       0.191
       0.388
       0.473
       0.544
       0.676
       0.870
       1.050
       1.093
       0.913
       0.521
       0.034
      -0.396
      -0.670
      -0.792
      -0.849
      -0.937
      -1.089
      -1.251
      -1.322
      -1.226
      -0.965
      -0.627
      -0.328
      -0.133
      -0.036
      -0.008
      -0.062
      -0.240
      -0.533
      -0.831
      -0.965
      -0.824
      -0.447
       0.006
       0.374
       0.591
       0.684
       0.682
       0.568
       0.319
      -0.011
      -0.269
      -0.291
      -0.054
       0.253
       0.320
      -0.055
      -0.789
      -1.516
      -1.798
      -1.399
      -0.436
       0.673
       1.425
       1.489
       0.855
      -0.178
      -1.166
      -1.717
      -1.648
      -1.016
      -0.067
       0.877
       1.514
       1.651
       1.266
       0.532
      -0.238
      -0.730
      -0.791
      -0.501
      -0.118
       0.089
       0.000
      -0.303
      -0.607
      -0.706
      -0.510
      -0.086
       0.377
       0.642
       0.541
       0.074
      -0.552
      -1.004
      -0.983
      -0.394
       0.579
       1.541
       2.093
       2.045
       1.490
       0.706
      -0.004
      -0.418
      -0.421
      -0.023
       0.614
       1.206
       1.479
       1.334
       0.915
       0.516
       0.383
       0.565
       0.893
       1.095
       0.958
       0.451
      -0.266
      -0.933
      -1.314
      -1.299
      -0.951
      -0.476
      -0.106
       0.046
       0.051
       0.086
       0.263
       0.502
       0.570
       0.273
      -0.349
      -1.005
      -1.341
      -1.188
      -0.658
      -0.038
       0.433
       0.704
       0.901
       1.171
       1.517
       1.759
       1.647
       1.051
       0.068
      -1.016
      -1.870
      -2.266
      -2.157
      -1.671
      -1.029
      -0.448
      -0.033
       0.256
       0.528
       0.812
       0.985
       0.861
       0.379
      -0.294
      -0.838
      -0.980
      -0.685
      -0.184
       0.178
       0.170
      -0.183
      -0.657
      -1.006
      -1.121
      -1.060
      -0.933
      -0.793
      -0.628
      -0.449
      -0.353
      -0.450
      -0.726
      -0.995
      -1.028
      -0.751
      -0.324
      -0.026
      -0.042
      -0.337
      -0.671
      -0.750
      -0.384
       0.397
       1.337
       2.061
       2.243
       1.770
       0.818
      -0.221
      -0.926
      -1.071
      -0.715
      -0.130
       0.379
       0.643
       0.671
       0.587
       0.505
       0.458
       0.402
       0.288
       0.121
      -0.028
      -0.086
      -0.032
       0.088
       0.207
       0.294
       0.366
       0.447
       0.527
       0.565
       0.537
       0.480
       0.480
       0.599
       0.803
       0.943
       0.841
       0.418
      -0.196
      -0.682
      -0.715
      -0.213
       0.543
       1.037
       0.870
       0.064
      -0.909
      -1.443
      -1.220
      -0.418
       0.460
       0.963
       0.979
       0.713
       0.456
       0.365
       0.410
       0.459
       0.399
       0.218
       0.018
      -0.047
       0.123
       0.494
       0.909
       1.170
       1.147
       0.868
       0.514
       0.303
       0.314
       0.393
       0.253
      -0.279
      -1.067
      -1.721
      -1.877
      -1.491
      -0.881
      -0.483
      -0.511
      -0.798
      -0.965
      -0.776
      -0.362
      -0.138
      -0.451
      -1.239
      -1.996
      -2.110
      -1.328
       0.016
       1.220
       1.685
       1.273
       0.320
      -0.628
      -1.112
      -0.942
      -0.217
       0.763
       1.630
       2.086
       1.995
       1.403
       0.515
      -0.371
      -0.996
      -1.265
      -1.286
      -1.250
      -1.250
      -1.212
      -1.005
      -0.623
      -0.250
      -0.127
      -0.326
      -0.666
      -0.871
      -0.813
      -0.609
      -0.487
      -0.570
      -0.770
      -0.869
      -0.680
      -0.166
       0.541
       1.199
       1.572
       1.549
       1.207
       0.764
       0.442
       0.345
       0.426
       0.559
       0.642
       0.646
       0.592
       0.490
       0.320
       0.071
      -0.216
      -0.417
      -0.383
      -0.040
       0.545
       1.194
       1.694
       1.854
       1.551
       0.817
      -0.092
      -0.754
      -0.807
      -0.213
       0.665
       1.265
       1.193
       0.505
      -0.340
      -0.817
      -0.700
      -0.163
       0.424
       0.795
       0.927
       0.963
       1.022
       1.093
       1.055
       0.799
       0.338
      -0.175
      -0.541
      -0.679
      -0.717
      -0.888
      -1.298
      -1.758
      -1.873
      -1.336
      -0.223
       0.980
       1.666
       1.540
       0.834
       0.149
       0.030
       0.588
       1.431
       1.947
       1.730
       0.857
      -0.196
      -0.912
      -1.075
      -0.844
      -0.543
      -0.384
      -0.356
      -0.329
      -0.212
      -0.025
       0.143
       0.206
       0.104
      -0.184
      -0.627
      -1.120
      -1.516
      -1.707
      -1.693
      -1.587
      -1.523
      -1.527
      -1.468
      -1.149
      -0.504
       0.292
       0.909
       1.076
       0.741
       0.080
      -0.612
      -1.072
      -1.185
      -1.020
      -0.785
      -0.734
      -1.050
      -1.743
      -2.606
      -3.295
      -3.500
      -3.113
      -2.299
      -1.390
      -0.690
      -0.294
      -0.072
       0.200
       0.659
       1.258
       1.792
       2.020
       1.822
       1.296
       0.726
       0.426
       0.541
       0.946
       1.355
       1.533
       1.455
       1.278
       1.175
       1.172
       1.127
       0.865
       0.347
      -0.275
      -0.771
      -0.998
      -0.975
      -0.842
      -0.753
      -0.783
      -0.899
      -0.993
      -0.961
      -0.750
      -0.360
       0.175
       0.763
       1.233
       1.399
       1.197
       0.785
       0.483
       0.566
       1.057
       1.680
       2.008
       1.726
       0.827
      -0.384
      -1.467
      -2.084
      -2.142
      -1.772
      -1.202
      -0.635
      -0.194
       0.096
       0.285
       0.441
       0.612
       0.836
       1.168
       1.632
       2.128
       2.404
       2.196
       1.439
       0.398
      -0.444
      -0.669
      -0.183
       0.734
       1.601
       1.985
       1.685
       0.802
      -0.317
      -1.242
      -1.649
      -1.467
      -0.883
      -0.224
       0.231
       0.358
       0.182
      -0.220
      -0.774
      -1.406
      -2.004
      -2.366
      -2.196
      -1.229
       0.518
       2.564
       4.078
       4.321
       3.137
       1.108
      -0.791
      -1.800
      -1.795
      -1.240
      -0.751
      -0.642
      -0.792
      -0.860
      -0.641
      -0.220
       0.127
       0.157
      -0.188
      -0.769
      -1.342
      -1.692
      -1.725
      -1.484
      -1.076
      -0.578
      -0.016
       0.591
       1.197
       1.729
       2.110
       2.271
       2.150
       1.712
       0.989
       0.095
      -0.786
      -1.454
      -1.759
      -1.668
      -1.306
      -0.932
      -0.822
      -1.102
      -1.657
      -2.197
      -2.453
      -2.363
      -2.105
      -1.949
      -2.019
      -2.153
      -1.994
      -1.244
       0.091
       1.634
       2.823
       3.248
       2.920
       2.258
       1.776
       1.697
       1.804
       1.660
       1.037
       0.186
      -0.303
       0.042
       1.143
       2.345
       2.831
       2.198
       0.761
      -0.667
      -1.362
      -1.204
      -0.713
      -0.592
      -1.130
      -1.972
      -2.401
      -1.924
      -0.676
       0.644
       1.243
       0.765
      -0.493
      -1.801
      -2.437
      -2.054
      -0.775
       0.941
       2.553
       3.652
       4.071
       3.900
       3.408
       2.903
       2.567
       2.364
       2.063
       1.374
       0.155
      -1.429
      -2.893
      -3.626
      -3.232
      -1.832
      -0.087
       1.153
       1.361
       0.628
      -0.473
      -1.303
      -1.524
      -1.185
      -0.560
       0.058
       0.483
       0.645
       0.573
       0.404
       0.362
       0.631
       1.187
       1.723
       1.829
       1.296
       0.301
      -0.713
      -1.357
      -1.532
      -1.393
      -1.135
      -0.834
      -0.484
      -0.155
      -0.053
      -0.390
      -1.166
      -2.052
      -2.526
      -2.192
      -1.076
       0.357
       1.482
       1.888
       1.551
       0.774
      -0.021
      -0.494
      -0.527
      -0.255
       0.029
       0.069
      -0.183
      -0.546
      -0.780
      -0.806
      -0.769
      -0.851
      -1.007
      -0.888
      -0.078
       1.517
       3.412
       4.704
       4.609
       3.023
       0.663
      -1.370
      -2.286
      -2.052
      -1.296
      -0.769
      -0.810
      -1.228
      -1.634
      -1.856
      -2.030
      -2.331
      -2.706
      -2.894
      -2.692
      -2.149
      -1.514
      -1.004
      -0.635
      -0.269
       0.155
       0.457
       0.293
      -0.548
      -1.898
      -3.219
      -3.882
      -3.554
      -2.407
      -0.981
       0.210
       1.008
       1.599
       2.212
       2.824
       3.163
       2.979
       2.316
       1.529
       1.048
       1.086
       1.549
       2.178
       2.753
       3.148
       3.251
       2.938
       2.185
       1.194
       0.341
      -0.060
       0.001
       0.226
       0.228
      -0.158
      -0.745
      -1.124
      -0.982
      -0.372
       0.283
       0.488
       0.076
      -0.625
      -1.043
      -0.826
      -0.118
       0.604
       0.921
       0.745
       0.289
      -0.122
      -0.228
       0.071
       0.673
       1.284
       1.518
       1.094
       0.033
      -1.267
      -2.179
      -2.197
      -1.271
       0.099
       1.128
       1.213
       0.326
      -0.927
      -1.660
      -1.269
       0.186
       2.020
       3.348
       3.583
       2.704
       1.181
      -0.338
      -1.348
      -1.674
      -1.474
      -1.089
      -0.794
      -0.633
      -0.451
      -0.124
       0.257
       0.428
       0.160
      -0.534
      -1.377
      -1.974
      -2.036
      -1.533
      -0.664
       0.301
       1.154
       1.774
       2.089
       2.073
       1.764
       1.268
       0.767
       0.504
       0.705
       1.384
       2.219
       2.667
       2.307
       1.131
      -0.461
      -1.977
      -3.164
      -4.081
      -4.865
      -5.461
      -5.599
      -5.010
      -3.686
      -1.955
      -0.338
       0.723
       1.112
       1.083
       1.075
       1.365
       1.831
       2.022
       1.534
       0.390
      -0.915
      -1.734
      -1.677
      -0.796
       0.507
       1.683
       2.239
       1.883
       0.636
      -1.142
      -2.857
      -3.912
      -3.967
      -3.108
      -1.812
      -0.671
      -0.063
       0.022
      -0.107
      -0.035
       0.555
       1.717
       3.187
       4.505
       5.272
       5.338
       4.788
       3.793
       2.515
       1.120
      -0.171
      -1.112
      -1.546
      -1.524
      -1.314
      -1.263
      -1.576
      -2.172
      -2.715
      -2.821
      -2.295
      -1.255
      -0.060
       0.892
       1.370
       1.382
       1.076
       0.588
      -0.016
      -0.665
      -1.196
      -1.383
      -1.087
      -0.406
       0.317
       0.676
       0.479
      -0.075
      -0.508
      -0.375
       0.430
       1.601
       2.609
       2.998
       2.593
       1.532
       0.166
      -1.084
      -1.883
      -2.083
      -1.707
      -0.857
       0.325
       1.572
       2.430
       2.385
       1.193
      -0.811
      -2.758
      -3.705
      -3.236
      -1.738
      -0.176
       0.508
       0.011
      -1.076
      -1.635
      -0.857
       1.085
       3.106
       4.001
       3.306
       1.540
      -0.267
      -1.295
      -1.351
      -0.798
      -0.221
      -0.099
      -0.575
      -1.386
      -2.020
      -2.098
      -1.712
      -1.379
      -1.609
      -2.440
      -3.321
      -3.459
      -2.360
      -0.198
       2.235
       3.965
       4.377
       3.548
       2.158
       1.033
       0.631
       0.817
       1.111
       1.156
       0.968
       0.791
       0.791
       0.937
       1.096
       1.157
       1.030
       0.592
      -0.265
      -1.469
      -2.670
      -3.376
      -3.274
      -2.480
      -1.476
      -0.783
      -0.600
      -0.672
      -0.493
       0.286
       1.537
       2.693
       3.146
       2.679
       1.594
       0.451
      -0.294
      -0.485
      -0.209
       0.353
       1.006
       1.552
       1.816
       1.708
       1.269
       0.651
       0.022
      -0.491
      -0.800
      -0.834
      -0.581
      -0.146
       0.259
       0.467
       0.488
       0.494
       0.596
       0.653
       0.351
      -0.489
      -1.654
      -2.639
      -2.998
      -2.659
      -1.932
      -1.218
      -0.690
      -0.209
       0.450
       1.263
       1.830
       1.614
       0.389
      -1.469
      -3.117
      -3.756
      -3.136
      -1.680
      -0.154
       0.849
       1.221
       1.253
       1.286
       1.437
       1.593
       1.633
       1.628
       1.802
       2.253
       2.733
       2.776
       2.107
       0.926
      -0.221
      -0.847
      -0.834
      -0.424
      -0.002
       0.139
      -0.122
      -0.733
      -1.498
      -2.111
      -2.251
      -1.746
      -0.689
       0.564
       1.545
       1.907
       1.599
       0.889
       0.209
      -0.113
      -0.056
       0.103
       0.043
      -0.274
      -0.498
      -0.206
       0.630
       1.458
       1.517
       0.482
      -1.175
      -2.458
      -2.559
      -1.451
       0.090
       1.018
       0.692
      -0.749
      -2.494
      -3.547
      -3.295
      -1.833
       0.131
       1.703
       2.275
       1.768
       0.591
      -0.622
      -1.364
      -1.494
      -1.216
      -0.824
      -0.443
      -0.019
       0.510
       1.084
       1.568
       1.876
       2.051
       2.223
       2.475
       2.701
       2.621
       1.998
       0.899
      -0.261
      -0.986
      -1.068
      -0.755
      -0.543
      -0.755
      -1.294
      -1.774
      -1.901
      -1.705
      -1.438
      -1.288
      -1.212
      -1.008
      -0.526
       0.193
       0.920
       1.362
       1.289
       0.644
      -0.395
      -1.443
      -2.070
      -2.058
      -1.556
      -0.970
      -0.631
      -0.566
      -0.541
      -0.315
       0.174
       0.795
       1.318
       1.505
       1.246
       0.688
       0.223
       0.237
       0.761
       1.372
       1.487
       0.834
      -0.282
      -1.163
      -1.198
      -0.329
       0.819
       1.333
       0.703
      -0.737
      -2.053
      -2.445
      -1.827
      -0.796
      -0.091
      -0.027
      -0.295
      -0.272
       0.406
       1.469
       2.170
       1.862
       0.528
      -1.183
      -2.409
      -2.641
      -1.955
      -0.806
       0.375
       1.401
       2.242
       2.806
       2.902
       2.399
       1.421
       0.373
      -0.229
      -0.056
       0.814
       1.913
       2.662
       2.699
       2.037
       0.959
      -0.183
      -1.096
      -1.599
      -1.661
      -1.447
      -1.253
      -1.306
      -1.551
      -1.670
      -1.377
      -0.749
      -0.231
      -0.287
      -0.967
      -1.801
      -2.125
      -1.589
      -0.436
       0.679
       1.164
       0.893
       0.224
      -0.335
      -0.509
      -0.345
      -0.001
       0.469
       1.075
       1.700
       2.039
       1.779
       0.848
      -0.480
      -1.696
      -2.311
      -2.130
      -1.355
      -0.444
       0.193
       0.430
       0.443
       0.508
       0.748
       1.033
       1.118
       0.887
       0.476
       0.202
       0.376
       1.104
       2.145
       2.938
       2.853
       1.589
      -0.539
      -2.717
      -4.093
      -4.264
      -3.431
      -2.190
      -1.174
      -0.724
      -0.746
      -0.816
      -0.513
       0.245
       1.136
       1.724
       1.818
       1.576
       1.299
       1.169
       1.151
       1.086
       0.838
       0.408
      -0.047
