Origin Time       16/4/2013 10:44:11	
Lat.              28.0 N	
Long.             62.1 E	
Depth (Km)         46.0
Magnitude         7.8
 Region           Iran-Pakistan-Border-Region                                      
 Above details taken from IMD 
     
Station Code      DCE
Station Lat.       28.795  N
Station Long.      77.118  E
Station Height(m)  208.0
Site Class        C   Vs30 between 200 m/sec to 375 m/sec *  
Record Time       16.04.2013 10:49:13.829
Sampling Rate     200. Hz
 Record Duration  169.970 Sec.
 Direction         E-W (E positive)
Max. Acceleration     -1.521 cm/sec**2
     
  * For reference see Site Classification link of website 
     
 Base Line Corrected and Low Pass Filtered (Cut Off at 35 Hz) Time History
 Acceleration data in cm/sec**2
    
[...]
      -0.519
      -0.569
      -0.578
      -0.574
      -0.578
      -0.581
      -0.563
      -0.532
      -0.522
      -0.563
      -0.642
      -0.709
      -0.719
      -0.672
      -0.607
      -0.563
      -0.547
      -0.533
      -0.486
      -0.398
      -0.295
      -0.214
      -0.182
      -0.192
      -0.218
      -0.231
      -0.220
      -0.190
      -0.154
      -0.117
      -0.079
      -0.037
       0.003
       0.034
       0.060
       0.089
       0.126
       0.159
       0.171
       0.152
       0.109
       0.050
      -0.020
      -0.102
      -0.194
      -0.284
      -0.357
      -0.397
      -0.393
      -0.345
      -0.263
      -0.168
      -0.077
       0.001
       0.071
       0.138
       0.209
       0.285
       0.368
       0.461
       0.560
       0.654
       0.721
       0.740
       0.701
       0.618
       0.518
       0.429
       0.362
       0.312
       0.271
       0.240
       0.218
       0.202
       0.188
       0.172
       0.164
       0.171
       0.192
       0.213
       0.213
       0.190
       0.158
       0.145
       0.170
       0.234
       0.317
       0.391
       0.429
       0.418
       0.360
       0.268
       0.167
       0.082
       0.022
      -0.009
      -0.017
      -0.003
       0.028
       0.063
       0.087
       0.085
       0.060
       0.022
      -0.015
      -0.042
      -0.055
      -0.046
      -0.002
       0.088
       0.218
       0.361
       0.485
       0.568
       0.615
       0.634
       0.626
       0.585
       0.520
       0.455
       0.415
       0.409
       0.422
       0.431
       0.420
       0.391
       0.355
       0.322
       0.294
       0.268
       0.236
       0.196
       0.144
       0.079
      -0.001
      -0.100
      -0.216
      -0.336
      -0.446
      -0.537
      -0.603
      -0.636
      -0.621
      -0.550
      -0.441
      -0.335
      -0.272
      -0.260
      -0.279
      -0.302
      -0.307
      -0.285
      -0.230
      -0.137
      -0.013
       0.116
       0.219
       0.272
       0.277
       0.257
       0.241
       0.242
       0.258
       0.269
       0.254
       0.201
       0.116
       0.006
      -0.125
      -0.275
      -0.435
      -0.581
      -0.692
      -0.762
      -0.798
      -0.809
      -0.798
      -0.763
      -0.705
      -0.636
      -0.571
      -0.521
      -0.480
      -0.432
      -0.366
      -0.278
      -0.176
      -0.074
       0.015
       0.086
       0.137
       0.168
       0.181
       0.178
       0.163
       0.150
       0.151
       0.174
       0.213
       0.250
       0.267
       0.255
       0.224
       0.188
       0.153
       0.110
       0.039
      -0.068
      -0.199
      -0.326
      -0.422
      -0.468
      -0.463
      -0.421
      -0.369
      -0.334
      -0.333
      -0.362
      -0.407
      -0.448
      -0.476
      -0.493
      -0.510
      -0.527
      -0.533
      -0.510
      -0.455
      -0.386
      -0.328
      -0.291
      -0.265
      -0.238
      -0.202
      -0.157
      -0.088
       0.021
       0.174
       0.347
       0.493
       0.576
       0.587
       0.553
       0.513
       0.498
       0.517
       0.560
       0.612
       0.661
       0.702
       0.733
       0.750
       0.746
       0.715
       0.655
       0.566
       0.456
       0.335
       0.221
       0.132
       0.078
       0.062
       0.083
       0.134
       0.199
       0.254
       0.285
       0.298
       0.311
       0.331
       0.352
       0.367
       0.370
       0.359
       0.335
       0.298
       0.256
       0.229
       0.238
       0.288
       0.357
       0.411
       0.424
       0.397
       0.349
       0.306
       0.288
       0.302
       0.343
       0.405
       0.484
       0.576
       0.659
       0.704
       0.691
       0.626
       0.534
       0.433
       0.332
       0.235
       0.154
       0.097
       0.058
       0.015
      -0.045
      -0.122
      -0.198
      -0.263
      -0.320
      -0.375
      -0.429
      -0.476
      -0.510
      -0.532
      -0.552
      -0.587
      -0.650
      -0.737
      -0.826
      -0.884
      -0.894
      -0.869
      -0.834
      -0.811
      -0.797
      -0.776
      -0.731
      -0.661
      -0.573
      -0.481
      -0.400
      -0.340
      -0.311
      -0.312
      -0.336
      -0.374
      -0.419
      -0.465
      -0.502
      -0.520
      -0.514
      -0.488
      -0.441
      -0.366
      -0.266
      -0.151
      -0.035
       0.078
       0.196
       0.324
       0.451
       0.553
       0.605
       0.594
       0.532
       0.447
       0.371
       0.329
       0.328
       0.361
       0.407
       0.449
       0.474
       0.477
       0.462
       0.440
       0.426
       0.430
       0.454
       0.492
       0.544
       0.614
       0.700
       0.788
       0.858
       0.898
       0.907
       0.884
       0.831
       0.753
       0.659
       0.564
       0.484
       0.433
       0.410
       0.392
       0.355
       0.296
       0.229
       0.163
       0.086
      -0.020
      -0.147
      -0.261
      -0.326
      -0.347
      -0.362
      -0.408
      -0.489
      -0.575
      -0.630
      -0.649
      -0.652
      -0.661
      -0.683
      -0.709
      -0.729
      -0.743
      -0.753
      -0.762
      -0.771
      -0.784
      -0.798
      -0.795
      -0.758
      -0.685
      -0.591
      -0.489
      -0.379
      -0.250
      -0.097
       0.064
       0.203
       0.288
       0.311
       0.294
       0.277
       0.288
       0.338
       0.414
       0.497
       0.562
       0.590
       0.575
       0.534
       0.494
       0.478
       0.491
       0.515
       0.531
       0.524
       0.495
       0.459
       0.433
       0.417
       0.391
       0.336
       0.255
       0.177
       0.139
       0.144
       0.165
       0.172
       0.163
       0.170
       0.210
       0.266
       0.302
       0.304
       0.296
       0.308
       0.342
       0.370
       0.358
       0.307
       0.247
       0.200
       0.162
       0.098
      -0.012
      -0.155
      -0.279
      -0.325
      -0.266
      -0.122
       0.042
       0.157
       0.189
       0.155
       0.104
       0.075
       0.076
       0.098
       0.133
       0.188
       0.256
       0.311
       0.321
       0.270
       0.181
       0.086
       0.004
      -0.070
      -0.147
      -0.218
      -0.258
      -0.252
      -0.217
      -0.201
      -0.241
      -0.335
      -0.437
      -0.504
      -0.532
      -0.556
      -0.604
      -0.666
      -0.706
      -0.713
      -0.711
      -0.734
      -0.785
      -0.839
      -0.884
      -0.941
      -1.040
      -1.179
      -1.310
      -1.379
      -1.373
      -1.327
      -1.278
      -1.226
      -1.156
      -1.072
      -1.004
      -0.970
      -0.946
      -0.888
      -0.765
      -0.588
      -0.385
      -0.186
      -0.002
       0.159
       0.290
       0.376
       0.417
       0.433
       0.455
       0.497
       0.538
       0.539
       0.477
       0.365
       0.240
       0.128
       0.024
      -0.086
      -0.196
      -0.270
      -0.269
      -0.188
      -0.060
       0.070
       0.172
       0.234
       0.257
       0.257
       0.266
       0.307
       0.374
       0.440
       0.488
       0.531
       0.596
       0.693
       0.806
       0.915
       1.005
       1.071
       1.108
       1.119
       1.121
       1.125
       1.131
       1.120
       1.076
       1.002
       0.915
       0.836
       0.771
       0.717
       0.669
       0.623
       0.571
       0.511
       0.453
       0.415
       0.393
       0.357
       0.276
       0.152
       0.019
      -0.088
      -0.163
      -0.225
      -0.295
      -0.380
      -0.471
      -0.549
      -0.605
      -0.648
      -0.705
      -0.793
      -0.902
      -1.003
      -1.078
      -1.132
      -1.172
      -1.188
      -1.160
      -1.074
      -0.944
      -0.800
      -0.673
      -0.583
      -0.519
      -0.445
      -0.321
      -0.147
       0.027
       0.135
       0.149
       0.103
       0.061
       0.062
       0.085
       0.080
       0.020
      -0.066
      -0.123
      -0.116
      -0.062
       0.000
       0.042
       0.066
       0.098
       0.159
       0.243
       0.324
       0.372
       0.387
       0.397
       0.429
       0.487
       0.552
       0.597
       0.602
       0.571
       0.525
       0.493
       0.487
       0.487
       0.461
       0.403
       0.347
       0.332
       0.351
       0.354
       0.307
       0.236
       0.203
       0.242
       0.322
       0.384
       0.388
       0.344
       0.290
       0.258
       0.254
       0.265
       0.273
       0.267
       0.245
       0.220
       0.203
       0.193
       0.173
       0.124
       0.059
       0.021
       0.052
       0.149
       0.262
       0.333
       0.341
       0.306
       0.262
       0.228
       0.204
       0.176
       0.125
       0.039
      -0.078
      -0.206
      -0.321
      -0.414
      -0.491
      -0.559
      -0.607
      -0.624
      -0.612
      -0.601
      -0.622
      -0.685
      -0.763
      -0.823
      -0.848
      -0.847
      -0.837
      -0.831
      -0.839
      -0.877
      -0.954
      -1.063
      -1.170
      -1.233
      -1.232
      -1.190
      -1.154
      -1.156
      -1.176
      -1.165
      -1.089
      -0.973
      -0.872
      -0.828
      -0.838
      -0.867
      -0.881
      -0.868
      -0.835
      -0.796
      -0.754
      -0.699
      -0.621
      -0.517
      -0.397
      -0.277
      -0.165
      -0.060
       0.038
       0.133
       0.228
       0.322
       0.409
       0.474
       0.506
       0.500
       0.465
       0.419
       0.381
       0.361
       0.361
       0.375
       0.399
       0.425
       0.432
       0.390
       0.290
       0.159
       0.050
       0.008
       0.036
       0.105
       0.177
       0.236
       0.287
       0.341
       0.398
       0.448
       0.486
       0.519
       0.559
       0.614
       0.678
       0.733
       0.760
       0.753
       0.725
       0.704
       0.704
       0.718
       0.727
       0.720
       0.700
       0.674
       0.645
       0.615
       0.601
       0.622
       0.678
       0.734
       0.745
       0.706
       0.663
       0.669
       0.724
       0.772
       0.756
       0.679
       0.595
       0.547
       0.526
       0.494
       0.433
       0.360
       0.294
       0.229
       0.144
       0.037
      -0.064
      -0.127
      -0.149
      -0.153
      -0.167
      -0.198
      -0.231
      -0.243
      -0.230
      -0.209
      -0.211
      -0.257
      -0.340
      -0.431
      -0.498
      -0.525
      -0.527
      -0.523
      -0.517
      -0.491
      -0.434
      -0.368
      -0.340
      -0.374
      -0.439
      -0.469
      -0.432
      -0.357
      -0.307
      -0.313
      -0.353
      -0.383
      -0.386
      -0.379
      -0.394
      -0.435
      -0.476
      -0.480
      -0.426
      -0.323
      -0.198
      -0.083
      -0.007
       0.016
      -0.007
      -0.051
      -0.096
      -0.138
      -0.195
      -0.274
      -0.361
      -0.430
      -0.472
      -0.503
      -0.538
      -0.569
      -0.563
      -0.506
      -0.419
      -0.342
      -0.293
      -0.260
      -0.219
      -0.167
      -0.121
      -0.100
      -0.105
      -0.115
      -0.104
      -0.054
       0.045
       0.186
       0.345
       0.485
       0.568
       0.572
       0.502
       0.394
       0.295
       0.238
       0.227
       0.251
       0.291
       0.331
       0.352
       0.338
       0.282
       0.201
       0.124
       0.074
       0.050
       0.038
       0.031
       0.031
       0.041
       0.056
       0.065
       0.071
       0.089
       0.135
       0.209
       0.294
       0.371
       0.426
       0.461
       0.476
       0.469
       0.439
       0.396
       0.354
       0.328
       0.314
       0.296
       0.255
       0.191
       0.118
       0.063
       0.035
       0.022
       0.001
      -0.035
      -0.072
      -0.086
      -0.065
      -0.020
       0.023
       0.049
       0.060
       0.065
       0.077
       0.096
       0.114
       0.130
       0.148
       0.181
       0.232
       0.293
       0.343
       0.368
       0.366
       0.354
       0.359
       0.397
       0.462
       0.527
       0.570
       0.594
       0.620
       0.672
       0.749
       0.835
       0.913
       0.978
       1.032
       1.069
       1.079
       1.050
       0.980
       0.877
       0.759
       0.646
       0.551
       0.485
       0.447
       0.433
       0.432
       0.430
       0.411
       0.364
       0.294
       0.223
       0.172
       0.147
       0.136
       0.119
       0.083
       0.036
      -0.004
      -0.023
      -0.013
       0.020
       0.064
       0.107
       0.132
       0.131
       0.106
       0.065
       0.018
      -0.032
      -0.081
      -0.122
      -0.151
      -0.176
      -0.216
      -0.289
      -0.395
      -0.509
      -0.599
      -0.647
      -0.662
      -0.666
      -0.681
      -0.716
      -0.768
      -0.827
      -0.880
      -0.918
      -0.938
      -0.944
      -0.941
      -0.938
      -0.945
      -0.970
      -1.013
      -1.072
      -1.141
      -1.214
      -1.288
      -1.359
      -1.421
      -1.472
      -1.507
      -1.521
      -1.511
      -1.472
      -1.395
      -1.270
      -1.100
      -0.913
      -0.743
      -0.602
      -0.467
      -0.311
      -0.139
       0.007
       0.083
       0.080
       0.026
      -0.037
      -0.076
      -0.064
       0.010
       0.137
       0.277
       0.387
       0.441
       0.443
       0.420
       0.401
       0.405
       0.433
       0.472
       0.502
       0.510
       0.499
       0.483
       0.478
       0.488
       0.513
       0.551
       0.600
       0.651
       0.678
       0.653
       0.561
       0.422
       0.281
       0.182
       0.138
       0.129
       0.126
       0.118
       0.111
       0.110
       0.112
       0.106
       0.093
       0.085
       0.094
       0.120
       0.153
       0.185
       0.223
       0.277
       0.350
       0.431
       0.500
       0.540
       0.550
       0.544
       0.539
       0.544
       0.554
       0.550
       0.517
       0.456
       0.386
       0.331
       0.297
       0.266
       0.209
       0.105
      -0.045
      -0.217
      -0.377
      -0.494
      -0.555
      -0.568
      -0.551
      -0.524
      -0.498
      -0.478
      -0.466
      -0.462
      -0.457
      -0.433
      -0.372
      -0.275
      -0.171
      -0.095
      -0.066
      -0.085
      -0.136
      -0.206
      -0.282
      -0.350
      -0.401
      -0.438
      -0.467
      -0.483
      -0.474
      -0.427
      -0.353
      -0.283
      -0.248
      -0.259
      -0.305
      -0.365
      -0.425
      -0.475
      -0.509
      -0.516
      -0.489
      -0.432
      -0.361
      -0.295
      -0.246
      -0.208
      -0.166
      -0.112
      -0.045
       0.030
       0.112
       0.199
       0.277
       0.321
       0.315
       0.265
       0.196
       0.129
       0.066
      -0.001
      -0.071
      -0.131
      -0.167
      -0.180
      -0.184
      -0.192
      -0.202
      -0.203
      -0.180
      -0.130
      -0.060
       0.020
       0.096
       0.165
       0.232
       0.303
       0.381
       0.456
       0.508
       0.519
       0.483
       0.412
       0.331
       0.255
       0.186
       0.119
       0.053
      -0.002
      -0.033
      -0.046
      -0.055
      -0.077
      -0.107
      -0.125
      -0.111
      -0.072
      -0.035
      -0.034
      -0.086
      -0.184
      -0.298
      -0.391
      -0.437
      -0.442
      -0.437
      -0.455
      -0.505
      -0.562
      -0.591
      -0.576
      -0.529
      -0.471
      -0.421
      -0.386
      -0.366
      -0.350
      -0.319
      -0.259
      -0.165
      -0.046
       0.093
       0.252
       0.431
       0.611
       0.764
       0.868
       0.932
       0.982
       1.035
       1.086
       1.124
       1.149
       1.172
       1.183
       1.153
       1.064
       0.944
       0.858
       0.862
       0.957
       1.090
       1.197
       1.249
       1.254
       1.230
       1.181
       1.099
       0.985
       0.860
       0.751
       0.669
       0.599
       0.527
       0.449
       0.373
       0.305
       0.246
       0.191
       0.145
       0.120
       0.128
       0.165
       0.213
       0.243
       0.240
       0.213
       0.188
       0.188
       0.216
       0.261
       0.311
       0.357
       0.388
       0.390
       0.359
       0.304
       0.245
       0.194
       0.147
       0.093
       0.032
      -0.026
      -0.073
      -0.116
      -0.172
      -0.258
      -0.375
      -0.508
      -0.632
      -0.727
      -0.784
      -0.809
      -0.818
      -0.826
      -0.836
      -0.843
      -0.844
      -0.843
      -0.844
      -0.852
      -0.873
      -0.911
      -0.964
      -1.024
      -1.082
      -1.141
      -1.204
      -1.269
      -1.317
      -1.328
      -1.292
      -1.221
      -1.133
      -1.041
      -0.947
      -0.844
      -0.728
      -0.608
      -0.494
      -0.398
      -0.326
      -0.276
      -0.245
      -0.225
      -0.204
      -0.171
      -0.128
      -0.093
      -0.086
      -0.117
      -0.172
      -0.231
      -0.271
      -0.287
      -0.278
      -0.245
      -0.188
      -0.115
      -0.042
       0.021
       0.079
       0.147
       0.231
       0.315
       0.371
       0.390
       0.381
       0.359
       0.322
       0.261
       0.165
       0.045
      -0.080
      -0.185
      -0.260
      -0.307
      -0.338
      -0.360
      -0.366
      -0.345
      -0.284
      -0.182
      -0.050
       0.096
       0.229
       0.328
       0.384
       0.414
       0.444
       0.486
       0.524
       0.526
       0.480
       0.405
       0.345
       0.330
       0.358
       0.404
       0.438
       0.457
       0.471
       0.489
       0.505
       0.500
       0.466
       0.409
       0.343
       0.273
       0.195
       0.104
       0.007
      -0.084
      -0.154
      -0.201
      -0.234
      -0.269
      -0.315
      -0.366
      -0.405
      -0.416
      -0.394
      -0.345
      -0.289
      -0.244
      -0.218
      -0.204
      -0.182
      -0.141
      -0.086
      -0.047
      -0.059
      -0.131
      -0.236
      -0.327
      -0.369
      -0.369
      -0.359
      -0.366
      -0.385
      -0.391
      -0.364
      -0.308
      -0.254
      -0.227
      -0.225
      -0.213
      -0.159
      -0.059
       0.053
       0.139
       0.190
       0.228
       0.283
       0.359
       0.429
       0.458
       0.432
       0.363
       0.280
       0.207
       0.153
       0.109
       0.065
       0.014
      -0.039
      -0.084
      -0.102
      -0.083
      -0.030
       0.045
       0.129
       0.215
       0.296
       0.368
       0.429
       0.479
       0.524
       0.565
       0.606
       0.641
       0.656
       0.628
       0.549
       0.436
