Origin Time       11/11/2013 22:10:42 UTC
Lat.              28.4 N	
Long.             77.2 E	
Depth (Km)         11.0
Magnitude         2.8
 Region           DELHI                                                            
 Above details taken from IMD 
    
Station Code      DCE
Station Lat.       28.795  N
Station Long.      77.118  E
Station Height(m)  208.0
Site Class        C   Vs30 between 200 m/sec to 375 m/sec *  
Record Time       11.11.2013 22:10:24.279 UTC
Sampling Rate     200. Hz
 Record Duration   80.195 Sec.
 Direction         N-S (N positive)
Max. Acceleration      2.155 cm/sec**2
     
  * For reference see Site Classification link of website 
     
 Base Line Corrected and Low Pass Filtered (Cut Off at 35 Hz) Time History
 Acceleration data in cm/sec**2
    
[...]
       0.005
       0.006
       0.007
       0.008
       0.011
       0.014
       0.017
       0.017
       0.018
       0.020
       0.022
       0.023
       0.021
       0.015
       0.007
       0.002
       0.001
       0.005
       0.009
       0.012
       0.015
       0.018
       0.020
       0.021
       0.018
       0.012
       0.006
       0.002
       0.002
       0.007
       0.013
       0.017
       0.016
       0.011
       0.007
       0.006
       0.009
       0.013
       0.014
       0.010
       0.004
      -0.001
      -0.002
       0.000
       0.006
       0.012
       0.016
       0.015
       0.010
       0.005
       0.004
       0.007
       0.011
       0.013
       0.011
       0.008
       0.007
       0.009
       0.014
       0.017
       0.015
       0.009
       0.005
       0.004
       0.006
       0.008
       0.006
       0.003
       0.002
       0.005
       0.010
       0.014
       0.013
       0.008
       0.003
       0.002
       0.006
       0.010
       0.011
       0.009
       0.008
       0.012
       0.016
       0.015
       0.007
      -0.004
      -0.011
      -0.008
       0.001
       0.008
       0.008
       0.003
      -0.002
      -0.004
      -0.004
      -0.003
      -0.001
       0.001
       0.004
       0.007
       0.009
       0.011
       0.012
       0.012
       0.012
       0.012
       0.013
       0.012
       0.012
       0.010
       0.007
       0.001
      -0.005
      -0.009
      -0.009
      -0.005
       0.001
       0.008
       0.014
       0.015
       0.011
       0.005
       0.000
      -0.001
       0.003
       0.010
       0.016
       0.018
       0.016
       0.012
       0.006
       0.000
      -0.002
       0.003
       0.013
       0.022
       0.025
       0.019
       0.010
       0.003
       0.004
       0.012
       0.019
       0.018
       0.009
       0.001
      -0.001
       0.003
       0.005
       0.004
       0.001
      -0.001
       0.001
       0.006
       0.009
       0.009
       0.007
       0.009
       0.012
       0.013
       0.007
      -0.005
      -0.016
      -0.019
      -0.010
       0.004
       0.015
       0.017
       0.011
       0.004
       0.002
       0.004
       0.007
       0.011
       0.014
       0.015
       0.014
       0.014
       0.018
       0.023
       0.022
       0.015
       0.005
       0.000
       0.005
       0.014
       0.017
       0.010
      -0.003
      -0.011
      -0.006
       0.010
       0.026
       0.031
       0.019
      -0.001
      -0.013
      -0.009
       0.005
       0.018
       0.021
       0.016
       0.011
       0.012
       0.018
       0.024
       0.024
       0.020
       0.014
       0.009
       0.009
       0.015
       0.023
       0.029
       0.030
       0.025
       0.017
       0.003
      -0.016
      -0.031
      -0.034
      -0.017
       0.011
       0.034
       0.035
       0.016
      -0.010
      -0.022
      -0.016
      -0.001
       0.007
       0.001
      -0.008
      -0.010
       0.002
       0.019
       0.031
       0.029
       0.014
      -0.007
      -0.022
      -0.021
      -0.005
       0.018
       0.033
       0.029
       0.009
      -0.015
      -0.023
      -0.011
       0.012
       0.027
       0.024
       0.011
       0.002
       0.005
       0.012
       0.015
       0.011
       0.005
       0.004
       0.008
       0.011
       0.010
       0.007
       0.005
       0.006
       0.004
      -0.005
      -0.021
      -0.034
      -0.036
      -0.025
      -0.010
       0.002
       0.008
       0.012
       0.018
       0.024
       0.024
       0.015
       0.001
      -0.008
      -0.006
       0.008
       0.031
       0.053
       0.065
       0.062
       0.042
       0.008
      -0.031
      -0.066
      -0.083
      -0.078
      -0.052
      -0.013
       0.026
       0.054
       0.062
       0.050
       0.030
       0.018
       0.026
       0.048
       0.058
       0.037
      -0.013
      -0.062
      -0.075
      -0.043
       0.004
       0.021
      -0.014
      -0.074
      -0.106
      -0.077
      -0.001
       0.073
       0.092
       0.048
      -0.018
      -0.044
      -0.002
       0.076
       0.126
       0.101
       0.015
      -0.071
      -0.096
      -0.052
       0.015
       0.042
       0.010
      -0.049
      -0.085
      -0.074
      -0.027
       0.029
       0.073
       0.097
       0.098
       0.075
       0.036
       0.003
      -0.003
       0.018
       0.034
       0.016
      -0.027
      -0.048
      -0.016
       0.043
       0.070
       0.038
      -0.017
      -0.039
      -0.012
       0.024
       0.017
      -0.033
      -0.085
      -0.098
      -0.075
      -0.049
      -0.042
      -0.049
      -0.048
      -0.029
      -0.002
       0.018
       0.032
       0.050
       0.077
       0.102
       0.107
       0.094
       0.081
       0.077
       0.062
       0.017
      -0.046
      -0.085
      -0.078
      -0.048
      -0.037
      -0.057
      -0.078
      -0.057
       0.009
       0.082
       0.114
       0.096
       0.059
       0.033
       0.024
       0.019
       0.005
      -0.015
      -0.034
      -0.044
      -0.051
      -0.056
      -0.055
      -0.037
      -0.008
       0.014
       0.013
      -0.004
      -0.019
      -0.016
       0.000
       0.020
       0.038
       0.063
       0.098
       0.129
       0.121
       0.054
      -0.047
      -0.129
      -0.156
      -0.134
      -0.088
      -0.034
       0.024
       0.072
       0.087
       0.064
       0.035
       0.044
       0.098
       0.145
       0.118
       0.005
      -0.127
      -0.184
      -0.127
      -0.011
       0.071
       0.071
       0.023
       0.002
       0.048
       0.109
       0.095
      -0.019
      -0.147
      -0.175
      -0.078
       0.055
       0.116
       0.075
      -0.002
      -0.033
       0.003
       0.051
       0.046
      -0.020
      -0.094
      -0.112
      -0.064
       0.009
       0.053
       0.050
       0.021
       0.002
       0.006
       0.024
       0.042
       0.043
       0.015
      -0.036
      -0.073
      -0.054
       0.021
       0.108
       0.145
       0.113
       0.039
      -0.031
      -0.064
      -0.049
       0.004
       0.070
       0.095
       0.029
      -0.114
      -0.239
      -0.234
      -0.085
       0.099
       0.176
       0.100
      -0.040
      -0.113
      -0.064
       0.046
       0.112
       0.090
       0.023
      -0.022
      -0.027
      -0.020
      -0.027
      -0.048
      -0.075
      -0.108
      -0.139
      -0.130
      -0.034
       0.142
       0.313
       0.365
       0.249
       0.039
      -0.118
      -0.130
      -0.049
      -0.008
      -0.086
      -0.220
      -0.283
      -0.210
      -0.063
       0.046
       0.067
       0.052
       0.077
       0.145
       0.182
       0.126
       0.012
      -0.064
      -0.044
       0.031
       0.071
       0.035
      -0.030
      -0.057
      -0.050
      -0.074
      -0.161
      -0.245
      -0.228
      -0.094
       0.062
       0.134
       0.107
       0.058
       0.059
       0.116
       0.168
       0.159
       0.091
       0.024
       0.010
       0.037
       0.032
      -0.061
      -0.207
      -0.296
      -0.250
      -0.096
       0.055
       0.120
       0.102
       0.069
       0.061
       0.063
       0.039
      -0.007
      -0.028
      -0.002
       0.032
       0.015
      -0.047
      -0.075
       0.007
       0.171
       0.291
       0.262
       0.106
      -0.045
      -0.087
      -0.049
      -0.047
      -0.137
      -0.251
      -0.279
      -0.188
      -0.047
       0.044
       0.052
       0.027
       0.042
       0.117
       0.190
       0.184
       0.094
       0.002
      -0.007
       0.061
       0.116
       0.077
      -0.045
      -0.153
      -0.166
      -0.093
      -0.014
       0.006
      -0.027
      -0.069
      -0.082
      -0.062
      -0.023
       0.012
       0.021
       0.012
       0.013
       0.048
       0.100
       0.121
       0.085
       0.015
      -0.031
      -0.014
       0.047
       0.084
       0.042
      -0.070
      -0.183
      -0.221
      -0.163
      -0.048
       0.061
       0.124
       0.135
       0.113
       0.079
       0.048
       0.034
       0.032
       0.023
      -0.001
      -0.024
      -0.021
       0.001
       0.007
      -0.022
      -0.056
      -0.048
       0.002
       0.046
       0.055
       0.045
       0.040
       0.026
      -0.029
      -0.114
      -0.157
      -0.089
       0.074
       0.218
       0.224
       0.079
      -0.104
      -0.187
      -0.127
      -0.008
       0.054
       0.023
      -0.037
      -0.045
      -0.004
       0.006
      -0.064
      -0.169
      -0.208
      -0.130
       0.017
       0.132
       0.153
       0.101
       0.051
       0.053
       0.088
       0.095
       0.043
      -0.028
      -0.047
       0.009
       0.099
       0.145
       0.088
      -0.061
      -0.220
      -0.273
      -0.165
       0.042
       0.215
       0.256
       0.174
       0.044
      -0.064
      -0.121
      -0.119
      -0.063
       0.019
       0.074
       0.058
      -0.016
      -0.077
      -0.065
       0.005
       0.056
       0.026
      -0.069
      -0.141
      -0.107
       0.032
       0.181
       0.224
       0.138
       0.011
      -0.048
      -0.025
       0.006
      -0.006
      -0.038
      -0.040
      -0.013
       0.000
      -0.018
      -0.032
       0.001
       0.078
       0.151
       0.163
       0.099
       0.000
      -0.057
      -0.030
       0.035
       0.042
      -0.046
      -0.152
      -0.154
      -0.020
       0.138
       0.166
       0.029
      -0.150
      -0.204
      -0.085
       0.098
       0.178
       0.083
      -0.094
      -0.180
      -0.080
       0.125
       0.251
       0.186
      -0.007
      -0.147
      -0.108
       0.072
       0.226
       0.201
      -0.009
      -0.248
      -0.319
      -0.153
       0.125
       0.297
       0.242
       0.047
      -0.088
      -0.041
       0.116
       0.198
       0.091
      -0.143
      -0.336
      -0.352
      -0.191
       0.026
       0.161
       0.164
       0.091
       0.032
       0.017
       0.013
      -0.017
      -0.064
      -0.072
      -0.001
       0.126
       0.228
       0.227
       0.110
      -0.059
      -0.189
      -0.232
      -0.204
      -0.151
      -0.089
      -0.003
       0.111
       0.212
       0.246
       0.193
       0.091
       0.002
      -0.033
      -0.017
       0.015
       0.030
       0.028
       0.041
       0.084
       0.123
       0.098
      -0.011
      -0.163
      -0.285
      -0.327
      -0.284
      -0.181
      -0.051
       0.071
       0.143
       0.134
       0.058
      -0.024
      -0.041
       0.025
       0.126
       0.183
       0.146
       0.029
      -0.098
      -0.171
      -0.173
      -0.120
      -0.017
       0.128
       0.260
       0.293
       0.192
       0.036
      -0.047
       0.001
       0.098
       0.093
      -0.078
      -0.303
      -0.382
      -0.215
       0.087
       0.290
       0.252
       0.058
      -0.073
       0.001
       0.204
       0.328
       0.247
       0.046
      -0.085
      -0.057
       0.034
       0.026
      -0.123
      -0.297
      -0.352
      -0.263
      -0.128
      -0.048
      -0.024
       0.012
       0.087
       0.146
       0.119
       0.018
      -0.066
      -0.050
       0.066
       0.213
       0.302
       0.281
       0.157
      -0.004
      -0.116
      -0.139
      -0.109
      -0.089
      -0.101
      -0.115
      -0.099
      -0.054
      -0.001
       0.047
       0.095
       0.143
       0.172
       0.151
       0.060
      -0.083
      -0.208
      -0.224
      -0.090
       0.134
       0.315
       0.339
       0.198
      -0.013
      -0.177
      -0.237
      -0.205
      -0.128
      -0.040
       0.045
       0.111
       0.114
       0.011
      -0.185
      -0.372
      -0.414
      -0.257
       0.012
       0.196
       0.127
      -0.202
      -0.610
      -0.842
      -0.727
      -0.286
       0.287
       0.739
       0.900
       0.754
       0.422
       0.070
      -0.166
      -0.232
      -0.163
      -0.043
       0.080
       0.218
       0.381
       0.507
       0.488
       0.287
       0.015
      -0.115
       0.042
       0.427
       0.785
       0.855
       0.582
       0.167
      -0.111
      -0.137
      -0.040
      -0.051
      -0.293
      -0.684
      -1.019
      -1.134
      -1.009
      -0.753
      -0.491
      -0.261
      -0.001
       0.343
       0.704
       0.914
       0.859
       0.616
       0.407
       0.383
       0.456
       0.372
      -0.021
      -0.578
      -0.957
      -0.929
      -0.595
      -0.272
      -0.196
      -0.325
      -0.429
      -0.327
      -0.029
       0.339
       0.684
       0.974
       1.147
       1.062
       0.625
      -0.037
      -0.590
      -0.726
      -0.418
       0.042
       0.283
       0.164
      -0.141
      -0.327
      -0.251
      -0.023
       0.129
       0.083
      -0.095
      -0.239
      -0.232
      -0.078
       0.136
       0.300
       0.337
       0.214
      -0.043
      -0.370
      -0.717
      -1.060
      -1.349
      -1.449
      -1.168
      -0.413
       0.664
       1.663
       2.155
       1.964
       1.304
       0.618
       0.246
       0.194
       0.203
       0.037
      -0.298
      -0.600
      -0.703
      -0.657
      -0.656
      -0.811
      -1.005
      -1.007
      -0.699
      -0.182
       0.344
       0.740
       0.985
       1.113
       1.148
       1.084
       0.882
       0.499
      -0.057
      -0.685
      -1.218
      -1.486
      -1.388
      -0.943
      -0.315
       0.242
       0.525
       0.501
       0.327
       0.214
       0.282
       0.497
       0.731
       0.866
       0.832
       0.609
       0.228
      -0.213
      -0.584
      -0.793
      -0.848
      -0.817
      -0.737
      -0.554
      -0.170
       0.415
       0.996
       1.250
       0.978
       0.300
      -0.428
      -0.881
      -0.984
      -0.882
      -0.752
      -0.627
      -0.401
       0.016
       0.559
       1.022
       1.221
       1.117
       0.800
       0.386
      -0.041
      -0.419
      -0.683
      -0.771
      -0.653
      -0.368
      -0.027
       0.210
       0.221
       0.011
      -0.280
      -0.489
      -0.551
      -0.494
      -0.333
      -0.036
       0.379
       0.754
       0.890
       0.751
       0.519
       0.431
       0.537
       0.654
       0.542
       0.135
      -0.375
      -0.696
      -0.682
      -0.445
      -0.248
      -0.270
      -0.467
      -0.631
      -0.580
      -0.297
       0.082
       0.395
       0.575
       0.634
       0.587
       0.409
       0.093
      -0.275
      -0.532
      -0.539
      -0.289
       0.079
       0.370
       0.465
       0.377
       0.201
       0.020
      -0.132
      -0.231
      -0.260
      -0.257
      -0.322
      -0.519
      -0.757
      -0.814
      -0.529
       0.026
       0.574
       0.854
       0.818
       0.642
       0.538
       0.555
       0.548
       0.344
      -0.056
      -0.446
      -0.594
      -0.464
      -0.236
      -0.111
      -0.107
      -0.071
       0.126
       0.409
       0.554
       0.418
       0.105
      -0.122
      -0.103
       0.048
       0.074
      -0.150
      -0.469
      -0.600
      -0.422
      -0.082
       0.167
       0.199
       0.069
      -0.113
      -0.284
      -0.391
      -0.340
      -0.073
       0.333
       0.679
       0.791
       0.655
       0.411
       0.235
       0.193
       0.191
       0.077
      -0.177
      -0.425
      -0.490
      -0.369
      -0.249
      -0.314
      -0.557
      -0.776
      -0.776
      -0.532
      -0.190
       0.091
       0.269
       0.411
       0.564
       0.675
       0.634
       0.408
       0.112
      -0.062
       0.006
       0.268
       0.530
       0.580
       0.320
      -0.163
      -0.617
      -0.767
      -0.519
      -0.068
       0.230
       0.170
      -0.112
      -0.289
      -0.160
       0.175
       0.449
       0.492
       0.353
       0.204
       0.169
       0.217
       0.210
       0.026
      -0.320
      -0.646
      -0.717
      -0.439
       0.029
       0.362
       0.321
      -0.049
      -0.447
      -0.546
      -0.250
       0.221
       0.505
       0.402
       0.037
      -0.282
      -0.360
      -0.263
      -0.178
      -0.168
      -0.106
       0.135
       0.479
       0.668
       0.506
       0.058
      -0.387
      -0.552
      -0.402
      -0.146
      -0.041
      -0.151
      -0.297
      -0.240
       0.071
       0.438
       0.583
       0.409
       0.103
      -0.015
       0.220
       0.653
       0.922
       0.769
       0.257
      -0.291
      -0.591
      -0.611
      -0.536
      -0.538
      -0.614
      -0.624
      -0.465
      -0.179
       0.086
       0.198
       0.142
       0.028
       0.005
       0.145
       0.393
       0.607
       0.676
       0.576
       0.358
       0.086
      -0.186
      -0.413
      -0.547
      -0.542
      -0.387
      -0.126
       0.150
       0.353
       0.453
       0.469
       0.417
       0.287
       0.083
      -0.125
      -0.234
      -0.201
      -0.080
       0.029
       0.066
       0.032
      -0.056
      -0.198
      -0.388
      -0.569
      -0.631
      -0.476
      -0.107
       0.321
       0.566
       0.461
       0.071
      -0.322
      -0.442
      -0.263
      -0.009
       0.080
      -0.012
      -0.089
       0.022
       0.293
       0.528
       0.564
       0.415
       0.232
       0.143
       0.156
       0.190
       0.168
       0.080
      -0.032
      -0.116
      -0.141
      -0.096
       0.008
       0.132
       0.205
       0.153
      -0.048
      -0.335
      -0.565
      -0.596
      -0.385
      -0.037
       0.247
       0.305
       0.132
      -0.119
      -0.258
      -0.209
      -0.064
       0.014
      -0.059
      -0.227
      -0.361
      -0.376
      -0.289
      -0.161
      -0.031
       0.100
       0.226
       0.308
       0.317
       0.298
       0.357
       0.544
       0.751
       0.768
       0.475
      -0.023
      -0.467
      -0.650
      -0.561
      -0.364
      -0.243
      -0.264
      -0.352
      -0.383
      -0.288
      -0.094
       0.126
       0.310
       0.421
       0.435
       0.354
       0.232
       0.167
       0.211
       0.306
       0.311
       0.148
      -0.106
      -0.283
      -0.282
      -0.166
      -0.081
      -0.098
      -0.152
      -0.130
      -0.016
       0.079
       0.035
      -0.129
      -0.259
      -0.210
       0.006
       0.224
       0.283
       0.170
       0.012
      -0.046
       0.024
       0.119
       0.123
       0.016
      -0.116
      -0.187
      -0.188
      -0.170
      -0.163
      -0.156
      -0.146
      -0.165
      -0.229
      -0.285
      -0.242
      -0.063
       0.193
       0.413
       0.522
       0.528
       0.491
       0.446
