Origin Time       10/4/2012 20:10:01 
Lat.              29.0 N 
Long.             76.6 E 
Depth (Km)         10.0
Magnitude         3.5
 Region           ROHTAK-HARYANA                                                   
 Above details taken from IMD 
   
Station Code      DCE
Station Lat.       28.795
Station Long.      77.118
Station Height(m)  208.0
Site Class        C   Vs30 between 200 m/sec to 375 m/sec *  
Record Time       10.04.2013 20:09:47.769
Sampling Rate     200. Hz
 Record Duration   80.010 Sec.
 Direction         Vert. (Up positive)
Max. Acceleration     -0.958 cm/sec**2
     
  * For reference see Site Classification link of website 
     
 Base Line Corrected and Low Pass Filtered (Cut Off at 35 Hz) Time History
 Acceleration data in cm/sec**2
    
[...]
      -0.021
       0.027
       0.052
       0.054
       0.040
       0.023
       0.016
       0.026
       0.052
       0.080
       0.094
       0.083
       0.047
       0.000
      -0.042
      -0.069
      -0.081
      -0.082
      -0.075
      -0.061
      -0.036
      -0.004
       0.023
       0.031
       0.018
      -0.007
      -0.020
      -0.007
       0.028
       0.061
       0.062
       0.019
      -0.049
      -0.104
      -0.113
      -0.076
      -0.016
       0.033
       0.055
       0.054
       0.043
       0.032
       0.020
       0.004
      -0.017
      -0.041
      -0.057
      -0.055
      -0.030
       0.018
       0.072
       0.110
       0.115
       0.084
       0.027
      -0.037
      -0.091
      -0.122
      -0.125
      -0.103
      -0.060
      -0.005
       0.047
       0.081
       0.083
       0.054
       0.009
      -0.027
      -0.037
      -0.015
       0.018
       0.035
       0.022
      -0.013
      -0.039
      -0.038
      -0.014
       0.008
       0.006
      -0.023
      -0.061
      -0.088
      -0.096
      -0.090
      -0.075
      -0.054
      -0.027
       0.006
       0.038
       0.060
       0.063
       0.050
       0.029
       0.013
       0.011
       0.023
       0.040
       0.045
       0.032
       0.005
      -0.021
      -0.033
      -0.030
      -0.021
      -0.019
      -0.026
      -0.038
      -0.047
      -0.047
      -0.040
      -0.029
      -0.016
      -0.002
       0.015
       0.036
       0.058
       0.077
       0.085
       0.075
       0.043
      -0.004
      -0.051
      -0.078
      -0.075
      -0.047
      -0.012
       0.003
      -0.014
      -0.052
      -0.084
      -0.086
      -0.050
       0.013
       0.076
       0.116
       0.125
       0.113
       0.091
       0.064
       0.026
      -0.024
      -0.075
      -0.104
      -0.095
      -0.048
       0.019
       0.074
       0.095
       0.074
       0.026
      -0.018
      -0.034
      -0.019
       0.002
      -0.003
      -0.043
      -0.094
      -0.118
      -0.093
      -0.030
       0.031
       0.054
       0.025
      -0.039
      -0.100
      -0.126
      -0.101
      -0.040
       0.026
       0.069
       0.075
       0.048
       0.006
      -0.031
      -0.043
      -0.025
       0.014
       0.052
       0.071
       0.071
       0.069
       0.076
       0.080
       0.055
      -0.017
      -0.121
      -0.213
      -0.246
      -0.205
      -0.112
      -0.015
       0.045
       0.061
       0.054
       0.053
       0.069
       0.089
       0.090
       0.055
      -0.002
      -0.044
      -0.035
       0.028
       0.110
       0.158
       0.142
       0.071
      -0.012
      -0.065
      -0.074
      -0.060
      -0.059
      -0.085
      -0.128
      -0.157
      -0.151
      -0.112
      -0.061
      -0.015
       0.030
       0.083
       0.147
       0.199
       0.208
       0.155
       0.047
      -0.086
      -0.200
      -0.261
      -0.250
      -0.174
      -0.057
       0.068
       0.171
       0.228
       0.225
       0.159
       0.048
      -0.068
      -0.143
      -0.155
      -0.114
      -0.054
      -0.006
       0.018
       0.022
       0.014
       0.000
      -0.015
      -0.031
      -0.046
      -0.055
      -0.057
      -0.051
      -0.040
      -0.027
      -0.015
      -0.005
       0.008
       0.025
       0.037
       0.031
       0.005
      -0.031
      -0.056
      -0.059
      -0.045
      -0.032
      -0.034
      -0.046
      -0.053
      -0.041
      -0.007
       0.035
       0.069
       0.082
       0.066
       0.023
      -0.034
      -0.076
      -0.075
      -0.028
       0.037
       0.080
       0.072
       0.023
      -0.031
      -0.050
      -0.013
       0.063
       0.131
       0.144
       0.082
      -0.029
      -0.129
      -0.168
      -0.138
      -0.072
      -0.016
       0.007
       0.002
      -0.008
      -0.007
       0.007
       0.021
       0.026
       0.022
       0.022
       0.037
       0.067
       0.095
       0.093
       0.043
      -0.047
      -0.144
      -0.205
      -0.202
      -0.137
      -0.040
       0.047
       0.093
       0.089
       0.051
       0.006
      -0.027
      -0.042
      -0.044
      -0.041
      -0.038
      -0.027
       0.004
       0.058
       0.115
       0.139
       0.102
       0.009
      -0.101
      -0.175
      -0.175
      -0.105
      -0.004
       0.078
       0.103
       0.073
       0.018
      -0.015
      -0.003
       0.041
       0.074
       0.053
      -0.029
      -0.137
      -0.210
      -0.206
      -0.127
      -0.020
       0.057
       0.069
       0.025
      -0.036
      -0.066
      -0.042
       0.029
       0.105
       0.144
       0.124
       0.063
      -0.001
      -0.037
      -0.036
      -0.011
       0.021
       0.045
       0.052
       0.037
       0.000
      -0.054
      -0.114
      -0.162
      -0.179
      -0.147
      -0.063
       0.052
       0.156
       0.202
       0.167
       0.067
      -0.046
      -0.116
      -0.111
      -0.041
       0.051
       0.119
       0.131
       0.086
       0.012
      -0.055
      -0.086
      -0.079
      -0.052
      -0.031
      -0.030
      -0.046
      -0.059
      -0.058
      -0.049
      -0.049
      -0.072
      -0.113
      -0.149
      -0.154
      -0.114
      -0.042
       0.028
       0.063
       0.055
       0.028
       0.020
       0.059
       0.138
       0.211
       0.218
       0.126
      -0.037
      -0.190
      -0.249
      -0.183
      -0.036
       0.109
       0.180
       0.150
       0.043
      -0.085
      -0.174
      -0.185
      -0.117
      -0.005
       0.102
       0.168
       0.182
       0.156
       0.104
       0.039
      -0.030
      -0.092
      -0.133
      -0.151
      -0.159
      -0.166
      -0.164
      -0.131
      -0.054
       0.046
       0.127
       0.149
       0.112
       0.042
      -0.020
      -0.049
      -0.045
      -0.021
       0.004
       0.016
       0.010
      -0.014
      -0.049
      -0.086
      -0.111
      -0.115
      -0.095
      -0.052
       0.006
       0.067
       0.112
       0.130
       0.118
       0.091
       0.067
       0.051
       0.035
       0.000
      -0.052
      -0.103
      -0.125
      -0.105
      -0.053
       0.002
       0.034
       0.031
      -0.006
      -0.061
      -0.112
      -0.136
      -0.116
      -0.048
       0.044
       0.118
       0.133
       0.091
       0.035
       0.017
       0.050
       0.092
       0.080
      -0.009
      -0.139
      -0.236
      -0.247
      -0.174
      -0.068
       0.007
       0.020
      -0.017
      -0.055
      -0.051
       0.002
       0.071
       0.106
       0.079
       0.009
      -0.058
      -0.077
      -0.042
       0.024
       0.081
       0.098
       0.069
       0.011
      -0.044
      -0.074
      -0.079
      -0.072
      -0.066
      -0.060
      -0.044
      -0.005
       0.053
       0.114
       0.149
       0.137
       0.075
      -0.014
      -0.095
      -0.137
      -0.126
      -0.077
      -0.025
       0.000
      -0.008
      -0.022
      -0.008
       0.042
       0.091
       0.084
      -0.004
      -0.143
      -0.258
      -0.277
      -0.180
      -0.015
       0.126
       0.168
       0.098
      -0.026
      -0.120
      -0.122
      -0.023
       0.134
       0.278
       0.345
       0.308
       0.182
       0.016
      -0.141
      -0.249
      -0.294
      -0.277
      -0.218
      -0.141
      -0.072
      -0.019
       0.026
       0.077
       0.138
       0.191
       0.208
       0.170
       0.080
      -0.034
      -0.127
      -0.161
      -0.121
      -0.032
       0.058
       0.103
       0.097
       0.066
       0.039
       0.019
      -0.015
      -0.078
      -0.154
      -0.200
      -0.177
      -0.074
       0.075
       0.204
       0.244
       0.173
       0.028
      -0.111
      -0.182
      -0.176
      -0.131
      -0.088
      -0.065
      -0.049
      -0.028
       0.001
       0.029
       0.046
       0.058
       0.080
       0.125
       0.185
       0.220
       0.178
       0.037
      -0.170
      -0.361
      -0.444
      -0.371
      -0.168
       0.069
       0.228
       0.249
       0.160
       0.043
      -0.028
      -0.038
      -0.018
      -0.005
      -0.014
      -0.034
      -0.045
      -0.039
      -0.020
      -0.001
       0.012
       0.019
       0.031
       0.056
       0.087
       0.098
       0.063
      -0.017
      -0.098
      -0.124
      -0.059
       0.075
       0.212
       0.273
       0.218
       0.068
      -0.109
      -0.237
      -0.267
      -0.204
      -0.089
       0.017
       0.063
       0.032
      -0.054
      -0.148
      -0.204
      -0.204
      -0.159
      -0.094
      -0.031
       0.017
       0.047
       0.061
       0.065
       0.059
       0.043
       0.021
       0.008
       0.026
       0.080
       0.145
       0.175
       0.129
       0.008
      -0.134
      -0.220
      -0.205
      -0.106
       0.004
       0.055
       0.028
      -0.041
      -0.087
      -0.064
       0.033
       0.165
       0.268
       0.283
       0.193
       0.036
      -0.112
      -0.183
      -0.154
      -0.054
       0.051
       0.096
       0.054
      -0.049
      -0.155
      -0.211
      -0.198
      -0.136
      -0.066
      -0.026
      -0.029
      -0.054
      -0.055
      -0.001
       0.092
       0.164
       0.156
       0.064
      -0.055
      -0.122
      -0.099
      -0.012
       0.067
       0.080
       0.018
      -0.073
      -0.132
      -0.129
      -0.080
      -0.033
      -0.024
      -0.044
      -0.051
      -0.009
       0.075
       0.154
       0.178
       0.134
       0.059
       0.004
       0.003
       0.049
       0.107
       0.142
       0.135
       0.094
       0.036
      -0.013
      -0.040
      -0.050
      -0.062
      -0.092
      -0.143
      -0.196
      -0.227
      -0.215
      -0.164
      -0.102
      -0.063
      -0.059
      -0.065
      -0.044
       0.032
       0.156
       0.291
       0.379
       0.370
       0.251
       0.054
      -0.154
      -0.305
      -0.360
      -0.327
      -0.246
      -0.161
      -0.097
      -0.053
      -0.013
       0.031
       0.074
       0.100
       0.098
       0.071
       0.032
      -0.004
      -0.011
       0.032
       0.128
       0.248
       0.335
       0.340
       0.256
       0.121
      -0.013
      -0.115
      -0.182
      -0.219
      -0.224
      -0.196
      -0.147
      -0.099
      -0.070
      -0.063
      -0.076
      -0.105
      -0.136
      -0.142
      -0.087
       0.038
       0.199
       0.331
       0.372
       0.299
       0.140
      -0.046
      -0.193
      -0.265
      -0.260
      -0.209
      -0.153
      -0.121
      -0.118
      -0.128
      -0.125
      -0.087
      -0.016
       0.063
       0.114
       0.119
       0.091
       0.060
       0.052
       0.067
       0.090
       0.098
       0.074
       0.006
      -0.098
      -0.200
      -0.244
      -0.194
      -0.067
       0.073
       0.149
       0.125
       0.030
      -0.055
      -0.045
       0.093
       0.299
       0.449
       0.434
       0.236
      -0.059
      -0.320
      -0.447
      -0.414
      -0.269
      -0.092
       0.040
       0.087
       0.059
      -0.002
      -0.045
      -0.042
       0.008
       0.078
       0.129
       0.127
       0.066
      -0.032
      -0.125
      -0.178
      -0.179
      -0.138
      -0.078
      -0.019
       0.024
       0.047
       0.060
       0.078
       0.102
       0.116
       0.105
       0.074
       0.038
       0.012
      -0.006
      -0.032
      -0.077
      -0.133
      -0.171
      -0.160
      -0.097
      -0.008
       0.068
       0.114
       0.139
       0.155
       0.155
       0.117
       0.033
      -0.081
      -0.180
      -0.215
      -0.165
      -0.048
       0.079
       0.151
       0.128
       0.025
      -0.104
      -0.193
      -0.202
      -0.133
      -0.029
       0.055
       0.088
       0.082
       0.075
       0.090
       0.110
       0.089
       0.001
      -0.130
      -0.243
      -0.279
      -0.223
      -0.106
       0.018
       0.095
       0.096
       0.038
      -0.025
      -0.034
       0.035
       0.141
       0.207
       0.177
       0.064
      -0.062
      -0.130
      -0.124
      -0.085
      -0.060
      -0.057
      -0.046
       0.006
       0.099
       0.198
       0.248
       0.205
       0.068
      -0.110
      -0.246
      -0.276
      -0.199
      -0.076
       0.018
       0.045
       0.025
       0.009
       0.025
       0.049
       0.030
      -0.051
      -0.152
      -0.203
      -0.154
      -0.018
       0.146
       0.281
       0.358
       0.378
       0.349
       0.269
       0.133
      -0.035
      -0.186
      -0.269
      -0.262
      -0.178
      -0.050
       0.077
       0.153
       0.139
       0.033
      -0.118
      -0.245
      -0.296
      -0.262
      -0.173
      -0.084
      -0.054
      -0.114
      -0.242
      -0.360
      -0.372
      -0.223
       0.052
       0.348
       0.540
       0.553
       0.401
       0.172
      -0.024
      -0.112
      -0.072
       0.067
       0.243
       0.385
       0.431
       0.360
       0.204
       0.031
      -0.113
      -0.234
      -0.380
      -0.580
      -0.798
      -0.951
      -0.958
      -0.801
      -0.532
      -0.237
       0.011
       0.182
       0.295
       0.387
       0.477
       0.550
       0.573
       0.535
       0.462
       0.393
       0.352
       0.322
       0.264
       0.145
      -0.033
      -0.227
      -0.370
      -0.413
      -0.353
      -0.236
      -0.131
      -0.088
      -0.114
      -0.173
      -0.212
      -0.187
      -0.085
       0.067
       0.213
       0.299
       0.296
       0.213
       0.078
      -0.070
      -0.191
      -0.251
      -0.229
      -0.127
       0.024
       0.173
       0.266
       0.273
       0.189
       0.044
      -0.104
      -0.196
      -0.198
      -0.125
      -0.035
       0.018
       0.012
      -0.035
      -0.087
      -0.111
      -0.098
      -0.064
      -0.043
      -0.060
      -0.105
      -0.137
      -0.107
       0.006
       0.169
       0.311
       0.362
       0.298
       0.161
       0.039
      -0.002
       0.039
       0.098
       0.100
       0.019
      -0.102
      -0.188
      -0.179
      -0.070
       0.093
       0.234
       0.277
       0.184
      -0.014
      -0.229
      -0.361
      -0.355
      -0.235
      -0.077
       0.036
       0.060
       0.003
      -0.090
      -0.172
      -0.209
      -0.181
      -0.080
       0.087
       0.276
       0.414
       0.426
       0.288
       0.046
      -0.188
      -0.300
      -0.233
      -0.021
       0.220
       0.363
       0.336
       0.163
      -0.059
      -0.222
      -0.276
      -0.242
      -0.182
      -0.152
      -0.162
      -0.184
      -0.180
      -0.133
      -0.061
       0.000
       0.032
       0.042
       0.050
       0.062
       0.068
       0.056
       0.028
      -0.008
      -0.042
      -0.066
      -0.077
      -0.075
      -0.064
      -0.044
      -0.004
       0.065
       0.151
       0.220
       0.233
       0.177
       0.080
      -0.004
      -0.026
       0.021
       0.097
       0.141
       0.111
       0.017
      -0.094
      -0.173
      -0.201
      -0.191
      -0.173
      -0.170
      -0.181
      -0.182
      -0.148
      -0.081
      -0.014
       0.012
      -0.010
      -0.046
      -0.046
       0.007
       0.077
       0.109
       0.072
      -0.003
      -0.052
      -0.030
       0.052
       0.142
       0.202
       0.238
       0.278
       0.327
       0.349
       0.299
       0.167
       0.003
      -0.118
      -0.149
      -0.106
      -0.050
      -0.046
      -0.124
      -0.269
      -0.429
      -0.534
      -0.529
      -0.416
      -0.252
      -0.115
      -0.036
       0.020
       0.105
       0.222
       0.307
       0.289
       0.161
      -0.001
      -0.092
      -0.056
       0.087
       0.259
       0.370
       0.376
       0.284
       0.143
       0.004
      -0.095
      -0.142
      -0.143
      -0.121
      -0.095
      -0.078
      -0.074
      -0.086
      -0.117
      -0.155
      -0.174
      -0.156
      -0.110
      -0.068
      -0.056
      -0.074
      -0.096
      -0.095
      -0.054
       0.018
       0.101
       0.176
       0.238
       0.295
       0.350
       0.388
       0.372
       0.260
       0.047
      -0.216
      -0.443
      -0.561
      -0.557
      -0.474
      -0.376
      -0.298
      -0.236
      -0.161
      -0.050
       0.098
       0.255
       0.375
       0.416
       0.368
       0.266
       0.176
       0.150
       0.200
       0.292
       0.366
       0.363
       0.256
       0.051
      -0.204
      -0.437
      -0.585
      -0.616
      -0.548
      -0.434
      -0.331
      -0.264
      -0.220
      -0.163
      -0.072
       0.035
       0.115
       0.131
       0.081
       0.002
      -0.054
      -0.058
      -0.011
       0.056
       0.110
       0.139
       0.154
       0.171
       0.193
       0.207
       0.201
       0.173
       0.134
       0.104
       0.098
       0.116
       0.131
       0.106
       0.026
      -0.083
      -0.168
      -0.191
      -0.158
      -0.119
      -0.132
      -0.210
      -0.305
      -0.333
      -0.235
      -0.026
       0.221
       0.409
       0.474
       0.412
       0.279
       0.151
       0.076
       0.051
       0.031
      -0.020
      -0.101
      -0.184
      -0.234
      -0.228
      -0.157
      -0.028
       0.118
       0.214
       0.196
       0.042
      -0.197
      -0.419
      -0.527
      -0.490
      -0.351
      -0.185
      -0.043
       0.067
       0.155
       0.223
       0.252
       0.215
       0.112
      -0.015
      -0.104
      -0.109
      -0.031
       0.088
       0.199
       0.267
       0.284
       0.266
       0.236
       0.198
       0.128
       0.002
      -0.170
      -0.325
      -0.390
      -0.339
      -0.210
      -0.081
      -0.004
       0.025
       0.053
       0.117
       0.211
       0.284
       0.282
       0.189
       0.045
      -0.068
      -0.076
       0.028
       0.171
       0.238
       0.152
      -0.064
      -0.306
      -0.458
      -0.465
      -0.351
      -0.187
      -0.050
       0.012
      -0.009
      -0.075
      -0.128
      -0.124
      -0.069
      -0.001
       0.042
       0.054
       0.062
       0.093
       0.138
       0.157
       0.110
       0.002
      -0.110
      -0.143
      -0.059
       0.098
       0.216
       0.195
       0.025
      -0.198
      -0.340
      -0.322
      -0.158
       0.063
       0.237
       0.300
       0.241
       0.108
      -0.028
      -0.111
      -0.128
      -0.106
      -0.079
      -0.066
      -0.057
      -0.039
      -0.011
       0.010
       0.018
       0.035
       0.089
       0.173
       0.228
       0.179
       0.006
      -0.231
      -0.424
      -0.487
      -0.406
      -0.245
      -0.100
      -0.035
      -0.038
