Origin Time       10/4/2012 20:10:01  UTC
Lat.              29.0 N 
Long.             76.6 E 
Depth (Km)         10.0
Magnitude         3.5
 Region           ROHTAK-HARYANA                                                   
 Above details taken from IMD 
    
Station Code      DCE
Station Lat.       28.795  N
Station Long.      77.118  E
Station Height(m)  208.0
Site Class        C   Vs30 between 200 m/sec to 375 m/sec *  
Record Time       10.04.2013 20:09:47.769 UTC
Sampling Rate     200. Hz
 Record Duration   80.010 Sec.
 Direction         N-S (N positive)
Max. Acceleration     -1.261 cm/sec**2
     
  * For reference see Site Classification link of website 
     
 Base Line Corrected and Low Pass Filtered (Cut Off at 35 Hz) Time History
 Acceleration data in cm/sec**2
    
[...]
      -0.013
      -0.018
      -0.021
      -0.022
      -0.020
      -0.010
       0.009
       0.035
       0.062
       0.086
       0.100
       0.102
       0.089
       0.065
       0.038
       0.012
      -0.013
      -0.041
      -0.072
      -0.101
      -0.118
      -0.114
      -0.093
      -0.063
      -0.035
      -0.013
       0.006
       0.023
       0.034
       0.038
       0.030
       0.017
       0.007
       0.004
       0.010
       0.021
       0.032
       0.043
       0.053
       0.056
       0.044
       0.009
      -0.046
      -0.108
      -0.154
      -0.164
      -0.132
      -0.078
      -0.030
      -0.007
      -0.002
       0.002
       0.025
       0.065
       0.108
       0.132
       0.128
       0.103
       0.071
       0.044
       0.021
      -0.012
      -0.066
      -0.136
      -0.191
      -0.197
      -0.142
      -0.048
       0.037
       0.078
       0.072
       0.045
       0.028
       0.034
       0.057
       0.072
       0.064
       0.030
      -0.012
      -0.038
      -0.030
       0.009
       0.060
       0.095
       0.098
       0.067
       0.015
      -0.038
      -0.080
      -0.105
      -0.111
      -0.102
      -0.079
      -0.046
      -0.007
       0.029
       0.054
       0.064
       0.061
       0.050
       0.038
       0.032
       0.034
       0.045
       0.060
       0.070
       0.065
       0.044
       0.016
      -0.004
      -0.015
      -0.027
      -0.057
      -0.106
      -0.149
      -0.149
      -0.087
       0.012
       0.090
       0.100
       0.038
      -0.047
      -0.093
      -0.070
       0.008
       0.093
       0.143
       0.145
       0.115
       0.079
       0.052
       0.029
      -0.004
      -0.054
      -0.107
      -0.133
      -0.112
      -0.047
       0.031
       0.083
       0.083
       0.034
      -0.038
      -0.102
      -0.140
      -0.145
      -0.120
      -0.066
       0.011
       0.095
       0.160
       0.184
       0.161
       0.110
       0.061
       0.028
       0.008
      -0.007
      -0.022
      -0.033
      -0.035
      -0.032
      -0.034
      -0.051
      -0.081
      -0.108
      -0.114
      -0.087
      -0.034
       0.023
       0.065
       0.080
       0.071
       0.049
       0.027
       0.009
      -0.002
      -0.002
       0.011
       0.032
       0.049
       0.045
       0.015
      -0.035
      -0.085
      -0.116
      -0.117
      -0.091
      -0.051
      -0.007
       0.032
       0.056
       0.062
       0.053
       0.043
       0.047
       0.068
       0.091
       0.095
       0.070
       0.024
      -0.020
      -0.044
      -0.042
      -0.026
      -0.010
      -0.010
      -0.030
      -0.062
      -0.090
      -0.098
      -0.082
      -0.049
      -0.010
       0.026
       0.054
       0.073
       0.081
       0.077
       0.056
       0.019
      -0.022
      -0.048
      -0.043
      -0.005
       0.046
       0.081
       0.077
       0.034
      -0.023
      -0.059
      -0.053
      -0.012
       0.035
       0.059
       0.052
       0.027
       0.008
       0.009
       0.023
       0.032
       0.019
      -0.022
      -0.078
      -0.117
      -0.111
      -0.057
       0.017
       0.067
       0.061
       0.004
      -0.066
      -0.105
      -0.096
      -0.050
       0.003
       0.034
       0.030
       0.001
      -0.030
      -0.044
      -0.029
       0.007
       0.047
       0.073
       0.080
       0.078
       0.080
       0.092
       0.105
       0.096
       0.050
      -0.030
      -0.114
      -0.160
      -0.136
      -0.046
       0.064
       0.132
       0.120
       0.037
      -0.060
      -0.111
      -0.091
      -0.017
       0.063
       0.107
       0.104
       0.066
       0.017
      -0.030
      -0.077
      -0.125
      -0.165
      -0.169
      -0.116
      -0.016
       0.092
       0.156
       0.148
       0.083
       0.003
      -0.042
      -0.032
       0.017
       0.073
       0.104
       0.102
       0.075
       0.035
      -0.010
      -0.060
      -0.112
      -0.154
      -0.170
      -0.151
      -0.105
      -0.046
       0.006
       0.040
       0.053
       0.051
       0.045
       0.048
       0.070
       0.113
       0.164
       0.197
       0.181
       0.107
      -0.001
      -0.097
      -0.138
      -0.114
      -0.056
      -0.013
      -0.023
      -0.088
      -0.172
      -0.227
      -0.221
      -0.159
      -0.072
       0.008
       0.069
       0.116
       0.157
       0.183
       0.173
       0.112
       0.008
      -0.102
      -0.170
      -0.164
      -0.091
       0.007
       0.077
       0.084
       0.038
      -0.024
      -0.060
      -0.056
      -0.026
       0.009
       0.039
       0.063
       0.083
       0.093
       0.084
       0.057
       0.021
      -0.009
      -0.026
      -0.028
      -0.015
       0.008
       0.029
       0.036
       0.017
      -0.028
      -0.088
      -0.142
      -0.169
      -0.155
      -0.097
      -0.006
       0.095
       0.167
       0.176
       0.108
      -0.008
      -0.115
      -0.160
      -0.126
      -0.041
       0.044
       0.095
       0.108
       0.100
       0.084
       0.056
       0.003
      -0.072
      -0.146
      -0.189
      -0.182
      -0.136
      -0.080
      -0.043
      -0.030
      -0.027
      -0.012
       0.022
       0.063
       0.099
       0.125
       0.147
       0.171
       0.195
       0.201
       0.170
       0.099
       0.012
      -0.053
      -0.073
      -0.053
      -0.024
      -0.012
      -0.023
      -0.046
      -0.071
      -0.099
      -0.134
      -0.165
      -0.163
      -0.111
      -0.022
       0.060
       0.087
       0.043
      -0.043
      -0.111
      -0.111
      -0.035
       0.073
       0.146
       0.138
       0.059
      -0.033
      -0.078
      -0.051
       0.023
       0.088
       0.099
       0.048
      -0.034
      -0.102
      -0.126
      -0.107
      -0.065
      -0.023
       0.004
       0.015
       0.022
       0.042
       0.083
       0.132
       0.159
       0.136
       0.064
      -0.020
      -0.070
      -0.061
      -0.014
       0.023
       0.008
      -0.062
      -0.144
      -0.182
      -0.146
      -0.050
       0.060
       0.135
       0.155
       0.128
       0.085
       0.050
       0.030
       0.012
      -0.018
      -0.063
      -0.107
      -0.128
      -0.108
      -0.054
       0.010
       0.051
       0.049
       0.008
      -0.047
      -0.089
      -0.099
      -0.078
      -0.036
       0.013
       0.059
       0.092
       0.102
       0.083
       0.043
       0.003
      -0.015
      -0.011
      -0.005
      -0.014
      -0.034
      -0.041
      -0.017
       0.035
       0.094
       0.135
       0.142
       0.119
       0.080
       0.046
       0.027
       0.015
      -0.009
      -0.057
      -0.119
      -0.166
      -0.170
      -0.128
      -0.063
      -0.008
       0.011
      -0.008
      -0.045
      -0.068
      -0.057
      -0.018
       0.020
       0.029
       0.003
      -0.034
      -0.038
       0.023
       0.143
       0.270
       0.330
       0.278
       0.131
      -0.045
      -0.177
      -0.226
      -0.200
      -0.133
      -0.064
      -0.015
       0.010
       0.021
       0.032
       0.051
       0.076
       0.096
       0.104
       0.096
       0.072
       0.030
      -0.031
      -0.099
      -0.150
      -0.157
      -0.108
      -0.010
       0.102
       0.181
       0.189
       0.119
       0.004
      -0.099
      -0.144
      -0.121
      -0.063
      -0.013
       0.006
       0.008
       0.023
       0.069
       0.127
       0.154
       0.122
       0.038
      -0.053
      -0.109
      -0.113
      -0.085
      -0.056
      -0.049
      -0.066
      -0.092
      -0.106
      -0.092
      -0.045
       0.021
       0.080
       0.100
       0.070
       0.004
      -0.060
      -0.083
      -0.048
       0.034
       0.127
       0.189
       0.193
       0.140
       0.055
      -0.022
      -0.070
      -0.093
      -0.106
      -0.112
      -0.100
      -0.058
       0.001
       0.043
       0.033
      -0.031
      -0.117
      -0.169
      -0.149
      -0.060
       0.043
       0.099
       0.079
       0.007
      -0.065
      -0.094
      -0.069
      -0.007
       0.060
       0.103
       0.113
       0.100
       0.090
       0.098
       0.120
       0.134
       0.116
       0.065
      -0.004
      -0.066
      -0.101
      -0.102
      -0.072
      -0.029
      -0.004
      -0.020
      -0.073
      -0.126
      -0.133
      -0.073
       0.025
       0.104
       0.116
       0.053
      -0.049
      -0.134
      -0.162
      -0.122
      -0.039
       0.046
       0.102
       0.117
       0.103
       0.080
       0.055
       0.019
      -0.039
      -0.112
      -0.169
      -0.174
      -0.112
      -0.013
       0.072
       0.109
       0.110
       0.111
       0.138
       0.177
       0.189
       0.143
       0.035
      -0.100
      -0.211
      -0.255
      -0.224
      -0.144
      -0.067
      -0.036
      -0.059
      -0.102
      -0.111
      -0.054
       0.057
       0.171
       0.229
       0.204
       0.109
      -0.005
      -0.084
      -0.099
      -0.052
       0.029
       0.111
       0.164
       0.169
       0.121
       0.033
      -0.070
      -0.157
      -0.203
      -0.194
      -0.129
      -0.031
       0.063
       0.116
       0.112
       0.064
       0.005
      -0.030
      -0.022
       0.031
       0.110
       0.184
       0.211
       0.168
       0.062
      -0.068
      -0.176
      -0.233
      -0.243
      -0.219
      -0.174
      -0.115
      -0.050
       0.011
       0.057
       0.086
       0.103
       0.108
       0.097
       0.061
       0.005
      -0.046
      -0.060
      -0.020
       0.058
       0.132
       0.160
       0.127
       0.043
      -0.069
      -0.178
      -0.252
      -0.262
      -0.196
      -0.076
       0.051
       0.135
       0.151
       0.108
       0.037
      -0.027
      -0.046
      -0.003
       0.089
       0.184
       0.228
       0.193
       0.101
       0.006
      -0.044
      -0.038
      -0.012
      -0.011
      -0.056
      -0.121
      -0.157
      -0.140
      -0.088
      -0.049
      -0.055
      -0.094
      -0.126
      -0.114
      -0.053
       0.033
       0.112
       0.162
       0.179
       0.175
       0.164
       0.148
       0.116
       0.056
      -0.029
      -0.121
      -0.195
      -0.236
      -0.241
      -0.209
      -0.141
      -0.043
       0.066
       0.149
       0.175
       0.135
       0.054
      -0.018
      -0.046
      -0.025
       0.019
       0.058
       0.080
       0.094
       0.111
       0.132
       0.137
       0.102
       0.021
      -0.078
      -0.144
      -0.144
      -0.095
      -0.051
      -0.064
      -0.136
      -0.221
      -0.256
      -0.211
      -0.100
       0.028
       0.133
       0.205
       0.254
       0.282
       0.261
       0.166
       0.008
      -0.147
      -0.219
      -0.174
      -0.047
       0.080
       0.131
       0.076
      -0.055
      -0.203
      -0.303
      -0.318
      -0.246
      -0.120
       0.016
       0.128
       0.207
       0.257
       0.279
       0.260
       0.191
       0.083
      -0.028
      -0.098
      -0.094
      -0.013
       0.115
       0.234
       0.281
       0.214
       0.041
      -0.171
      -0.325
      -0.355
      -0.265
      -0.118
       0.007
       0.063
       0.049
      -0.009
      -0.080
      -0.141
      -0.175
      -0.172
      -0.127
      -0.052
       0.040
       0.133
       0.213
       0.262
       0.262
       0.206
       0.108
      -0.003
      -0.097
      -0.157
      -0.182
      -0.172
      -0.118
      -0.019
       0.100
       0.182
       0.173
       0.063
      -0.086
      -0.181
      -0.159
      -0.029
       0.137
       0.253
       0.262
       0.160
      -0.007
      -0.165
      -0.246
      -0.214
      -0.088
       0.074
       0.202
       0.245
       0.188
       0.058
      -0.087
      -0.185
      -0.202
      -0.143
      -0.055
       0.007
       0.010
      -0.040
      -0.096
      -0.116
      -0.089
      -0.046
      -0.021
      -0.024
      -0.031
      -0.018
       0.012
       0.037
       0.044
       0.042
       0.051
       0.075
       0.101
       0.110
       0.100
       0.078
       0.046
       0.007
      -0.030
      -0.047
      -0.029
       0.013
       0.049
       0.049
       0.006
      -0.060
      -0.113
      -0.123
      -0.082
      -0.005
       0.076
       0.128
       0.127
       0.078
       0.007
      -0.049
      -0.067
      -0.047
      -0.004
       0.050
       0.118
       0.212
       0.326
       0.426
       0.458
       0.383
       0.203
      -0.032
      -0.249
      -0.375
      -0.371
      -0.247
      -0.063
       0.097
       0.174
       0.167
       0.127
       0.106
       0.115
       0.118
       0.074
      -0.020
      -0.125
      -0.197
      -0.226
      -0.241
      -0.281
      -0.359
      -0.454
      -0.515
      -0.485
      -0.334
      -0.070
       0.251
       0.538
       0.701
       0.699
       0.565
       0.391
       0.264
       0.215
       0.206
       0.181
       0.106
      -0.014
      -0.158
      -0.316
      -0.498
      -0.713
      -0.951
      -1.159
      -1.261
      -1.187
      -0.920
      -0.523
      -0.107
       0.228
       0.442
       0.567
       0.656
       0.736
       0.788
       0.766
       0.641
       0.428
       0.186
      -0.008
      -0.103
      -0.104
      -0.064
      -0.049
      -0.090
      -0.160
      -0.201
      -0.166
      -0.059
       0.063
       0.132
       0.114
       0.033
      -0.059
      -0.116
      -0.125
      -0.109
      -0.104
      -0.133
      -0.196
      -0.266
      -0.303
      -0.273
      -0.167
      -0.010
       0.158
       0.295
       0.375
       0.398
       0.377
       0.331
       0.277
       0.236
       0.229
       0.261
       0.310
       0.318
       0.231
       0.043
      -0.183
      -0.355
      -0.421
      -0.402
      -0.368
      -0.370
      -0.401
      -0.415
      -0.372
      -0.277
      -0.164
      -0.067
       0.013
       0.093
       0.184
       0.274
       0.338
       0.356
       0.326
       0.259
       0.183
       0.131
       0.127
       0.164
       0.199
       0.184
       0.111
       0.018
      -0.044
      -0.054
      -0.046
      -0.070
      -0.145
      -0.237
      -0.289
      -0.271
      -0.203
      -0.139
      -0.105
      -0.083
      -0.025
       0.092
       0.231
       0.324
       0.317
       0.220
       0.100
       0.042
       0.093
       0.236
       0.393
       0.468
       0.402
       0.206
      -0.050
      -0.279
      -0.417
      -0.446
      -0.375
      -0.235
      -0.073
       0.046
       0.062
      -0.039
      -0.209
      -0.357
      -0.412
      -0.364
      -0.253
      -0.131
      -0.030
       0.040
       0.094
       0.153
       0.234
       0.333
       0.417
       0.437
       0.357
       0.184
      -0.019
      -0.172
      -0.228
      -0.204
      -0.162
      -0.150
      -0.166
      -0.171
      -0.130
      -0.043
       0.063
       0.151
       0.198
       0.188
       0.121
       0.008
      -0.126
      -0.255
      -0.355
      -0.408
      -0.402
      -0.346
      -0.269
      -0.221
      -0.232
      -0.289
      -0.322
      -0.254
      -0.062
       0.204
       0.447
       0.588
       0.614
       0.578
       0.542
       0.536
       0.536
       0.501
       0.405
       0.264
       0.114
      -0.015
      -0.115
      -0.193
      -0.249
      -0.274
      -0.270
      -0.269
      -0.324
      -0.459
      -0.637
      -0.762
      -0.739
      -0.534
      -0.210
       0.113
       0.330
       0.410
       0.386
       0.317
       0.237
       0.152
       0.064
      -0.005
      -0.020
       0.030
       0.114
       0.173
       0.172
       0.121
       0.073
       0.071
       0.114
       0.161
       0.163
       0.101
      -0.010
      -0.133
      -0.231
      -0.276
      -0.258
      -0.183
      -0.074
       0.043
       0.148
       0.227
       0.260
       0.218
       0.083
      -0.126
      -0.339
      -0.466
      -0.448
      -0.294
      -0.081
       0.100
       0.194
       0.204
       0.178
       0.162
       0.169
       0.176
       0.146
       0.065
      -0.031
      -0.080
      -0.037
       0.076
       0.185
       0.219
       0.156
       0.033
      -0.087
      -0.161
      -0.184
      -0.175
      -0.158
      -0.143
      -0.133
      -0.122
      -0.106
      -0.072
      -0.011
       0.072
       0.154
       0.207
       0.214
       0.186
       0.150
       0.136
       0.157
       0.200
       0.227
       0.203
       0.120
       0.011
      -0.060
      -0.045
       0.051
       0.159
       0.201
       0.146
       0.032
      -0.076
      -0.141
      -0.173
      -0.201
      -0.229
      -0.233
      -0.193
      -0.128
      -0.080
      -0.080
      -0.117
      -0.141
      -0.108
      -0.009
       0.117
       0.215
       0.237
       0.176
       0.057
      -0.077
      -0.185
      -0.241
      -0.230
      -0.146
      -0.003
       0.152
       0.259
       0.278
       0.223
       0.143
       0.072
       0.009
      -0.072
      -0.168
      -0.236
      -0.223
      -0.115
       0.039
       0.151
       0.152
       0.037
      -0.128
      -0.241
      -0.225
      -0.080
       0.121
       0.274
       0.310
       0.228
       0.085
      -0.047
      -0.131
      -0.165
      -0.171
      -0.155
      -0.102
      -0.001
       0.116
       0.173
       0.092
      -0.140
      -0.445
      -0.692
      -0.769
      -0.648
      -0.389
      -0.090
       0.168
       0.355
       0.479
       0.550
       0.565
       0.516
       0.409
       0.275
       0.167
       0.130
       0.177
       0.266
       0.316
       0.249
       0.046
      -0.239
      -0.513
      -0.688
      -0.724
      -0.627
      -0.433
      -0.192
       0.047
       0.242
       0.369
       0.436
       0.468
       0.490
       0.485
       0.408
       0.221
      -0.057
      -0.339
      -0.513
      -0.505
      -0.325
      -0.060
       0.181
       0.316
       0.324
       0.241
       0.133
       0.065
       0.059
       0.097
       0.139
       0.163
       0.178
       0.201
       0.222
       0.197
       0.066
      -0.189
      -0.517
      -0.804
      -0.925
      -0.809
      -0.491
      -0.102
       0.193
       0.286
       0.182
      -0.020
      -0.187
      -0.237
      -0.168
      -0.043
       0.070
       0.143
       0.196
       0.250
       0.295
       0.287
       0.192
       0.029
      -0.133
      -0.212
      -0.160
       0.013
       0.253
       0.477
       0.599
       0.562
       0.376
       0.120
      -0.095
      -0.196
      -0.188
      -0.144
      -0.143
      -0.216
      -0.335
      -0.445
      -0.514
      -0.545
      -0.546
      -0.500
      -0.375
      -0.162
