Origin Time       16/4/2013 10:44:11	 UTC
Lat.              28.0 N	
Long.             62.1 E	
Depth (Km)         46.0
Magnitude         7.8
 Region           Iran-Pakistan-Border-Region                                      
 Above details taken from IMD 
    
Station Code      DCE
Station Lat.       28.795  N
Station Long.      77.118  E
Station Height(m)  208.0
Site Class        C   Vs30 between 200 m/sec to 375 m/sec *  
Record Time       16.04.2013 10:49:13.829 UTC
Sampling Rate     200. Hz
 Record Duration  169.970 Sec.
 Direction         N-S (N positive)
Max. Acceleration     -1.851 cm/sec**2
     
  * For reference see Site Classification link of website 
     
 Base Line Corrected and Low Pass Filtered (Cut Off at 35 Hz) Time History
 Acceleration data in cm/sec**2
    
[...]
       0.053
       0.085
       0.133
       0.209
       0.316
       0.448
       0.593
       0.735
       0.858
       0.942
       0.973
       0.949
       0.884
       0.802
       0.732
       0.690
       0.671
       0.658
       0.628
       0.569
       0.481
       0.380
       0.288
       0.227
       0.215
       0.252
       0.322
       0.400
       0.464
       0.508
       0.539
       0.570
       0.605
       0.632
       0.637
       0.615
       0.577
       0.540
       0.516
       0.499
       0.474
       0.432
       0.371
       0.300
       0.230
       0.166
       0.112
       0.064
       0.017
      -0.034
      -0.088
      -0.135
      -0.158
      -0.144
      -0.096
      -0.035
       0.014
       0.042
       0.057
       0.069
       0.083
       0.094
       0.103
       0.117
       0.144
       0.179
       0.197
       0.172
       0.090
      -0.036
      -0.175
      -0.294
      -0.371
      -0.404
      -0.400
      -0.375
      -0.339
      -0.300
      -0.256
      -0.203
      -0.136
      -0.055
       0.041
       0.153
       0.280
       0.417
       0.557
       0.684
       0.782
       0.835
       0.836
       0.789
       0.710
       0.621
       0.543
       0.484
       0.441
       0.402
       0.354
       0.292
       0.215
       0.134
       0.065
       0.025
       0.020
       0.050
       0.104
       0.167
       0.226
       0.268
       0.285
       0.280
       0.261
       0.235
       0.205
       0.170
       0.135
       0.112
       0.116
       0.156
       0.228
       0.322
       0.419
       0.499
       0.541
       0.539
       0.502
       0.453
       0.414
       0.392
       0.379
       0.368
       0.349
       0.320
       0.282
       0.241
       0.208
       0.187
       0.176
       0.160
       0.127
       0.075
       0.015
      -0.038
      -0.071
      -0.082
      -0.078
      -0.078
      -0.097
      -0.140
      -0.193
      -0.230
      -0.223
      -0.165
      -0.084
      -0.027
      -0.035
      -0.110
      -0.212
      -0.292
      -0.325
      -0.324
      -0.325
      -0.349
      -0.387
      -0.409
      -0.386
      -0.307
      -0.182
      -0.031
       0.122
       0.254
       0.340
       0.373
       0.364
       0.339
       0.320
       0.309
       0.293
       0.262
       0.220
       0.185
       0.175
       0.190
       0.217
       0.242
       0.265
       0.297
       0.348
       0.413
       0.473
       0.512
       0.530
       0.538
       0.546
       0.557
       0.566
       0.566
       0.548
       0.508
       0.440
       0.346
       0.236
       0.125
       0.019
      -0.080
      -0.180
      -0.290
      -0.416
      -0.552
      -0.687
      -0.806
      -0.894
      -0.947
      -0.971
      -0.972
      -0.951
      -0.901
      -0.809
      -0.677
      -0.518
      -0.349
      -0.184
      -0.030
       0.112
       0.239
       0.347
       0.431
       0.483
       0.500
       0.483
       0.439
       0.382
       0.324
       0.277
       0.245
       0.229
       0.233
       0.258
       0.302
       0.356
       0.407
       0.444
       0.464
       0.472
       0.472
       0.462
       0.432
       0.372
       0.274
       0.137
      -0.034
      -0.228
      -0.429
      -0.613
      -0.758
      -0.850
      -0.886
      -0.868
      -0.805
      -0.709
      -0.600
      -0.496
      -0.404
      -0.317
      -0.222
      -0.116
      -0.015
       0.065
       0.117
       0.148
       0.168
       0.181
       0.183
       0.167
       0.133
       0.092
       0.060
       0.044
       0.037
       0.030
       0.016
      -0.005
      -0.031
      -0.061
      -0.090
      -0.109
      -0.112
      -0.100
      -0.083
      -0.073
      -0.076
      -0.093
      -0.124
      -0.167
      -0.217
      -0.273
      -0.330
      -0.386
      -0.435
      -0.470
      -0.487
      -0.479
      -0.444
      -0.376
      -0.280
      -0.172
      -0.076
      -0.005
       0.042
       0.073
       0.092
       0.093
       0.065
       0.009
      -0.066
      -0.143
      -0.206
      -0.243
      -0.245
      -0.214
      -0.155
      -0.084
      -0.016
       0.034
       0.064
       0.079
       0.091
       0.109
       0.141
       0.189
       0.250
       0.313
       0.363
       0.389
       0.393
       0.389
       0.393
       0.417
       0.459
       0.509
       0.555
       0.587
       0.592
       0.565
       0.508
       0.436
       0.369
       0.321
       0.285
       0.251
       0.211
       0.176
       0.167
       0.195
       0.253
       0.315
       0.350
       0.337
       0.271
       0.161
       0.023
      -0.130
      -0.292
      -0.463
      -0.631
      -0.779
      -0.882
      -0.928
      -0.922
      -0.885
      -0.834
      -0.774
      -0.698
      -0.604
      -0.499
      -0.399
      -0.312
      -0.229
      -0.138
      -0.044
       0.033
       0.062
       0.031
      -0.049
      -0.148
      -0.240
      -0.314
      -0.384
      -0.467
      -0.568
      -0.680
      -0.787
      -0.875
      -0.936
      -0.961
      -0.942
      -0.874
      -0.761
      -0.619
      -0.472
      -0.346
      -0.256
      -0.207
      -0.193
      -0.203
      -0.221
      -0.234
      -0.235
      -0.222
      -0.198
      -0.168
      -0.129
      -0.077
      -0.018
       0.035
       0.063
       0.064
       0.050
       0.044
       0.060
       0.095
       0.137
       0.174
       0.208
       0.252
       0.317
       0.402
       0.489
       0.557
       0.592
       0.596
       0.574
       0.532
       0.466
       0.375
       0.269
       0.165
       0.083
       0.026
      -0.018
      -0.063
      -0.109
      -0.144
      -0.151
      -0.124
      -0.068
       0.002
       0.073
       0.137
       0.186
       0.218
       0.230
       0.218
       0.172
       0.091
      -0.019
      -0.138
      -0.241
      -0.314
      -0.358
      -0.387
      -0.416
      -0.448
      -0.476
      -0.483
      -0.459
      -0.403
      -0.329
      -0.251
      -0.180
      -0.120
      -0.067
      -0.020
       0.023
       0.056
       0.079
       0.097
       0.122
       0.163
       0.220
       0.281
       0.328
       0.346
       0.324
       0.260
       0.166
       0.068
      -0.012
      -0.065
      -0.102
      -0.147
      -0.222
      -0.333
      -0.462
      -0.581
      -0.669
      -0.727
      -0.768
      -0.804
      -0.835
      -0.848
      -0.820
      -0.739
      -0.612
      -0.475
      -0.364
      -0.297
      -0.256
      -0.210
      -0.140
      -0.058
       0.007
       0.036
       0.034
       0.016
      -0.001
      -0.012
      -0.014
      -0.004
       0.028
       0.082
       0.155
       0.230
       0.292
       0.330
       0.347
       0.350
       0.346
       0.336
       0.314
       0.278
       0.239
       0.212
       0.202
       0.204
       0.204
       0.184
       0.134
       0.056
      -0.037
      -0.120
      -0.174
      -0.197
      -0.202
      -0.202
      -0.195
      -0.169
      -0.116
      -0.040
       0.038
       0.099
       0.131
       0.133
       0.113
       0.080
       0.047
       0.025
       0.018
       0.023
       0.026
       0.016
      -0.015
      -0.065
      -0.123
      -0.171
      -0.195
      -0.192
      -0.167
      -0.133
      -0.103
      -0.089
      -0.097
      -0.132
      -0.192
      -0.264
      -0.328
      -0.369
      -0.390
      -0.407
      -0.436
      -0.483
      -0.536
      -0.572
      -0.573
      -0.539
      -0.479
      -0.410
      -0.347
      -0.302
      -0.282
      -0.281
      -0.288
      -0.293
      -0.287
      -0.270
      -0.244
      -0.215
      -0.195
      -0.192
      -0.208
      -0.227
      -0.227
      -0.192
      -0.120
      -0.029
       0.066
       0.156
       0.245
       0.334
       0.415
       0.470
       0.492
       0.486
       0.477
       0.488
       0.527
       0.578
       0.614
       0.627
       0.635
       0.667
       0.738
       0.830
       0.912
       0.965
       0.993
       1.001
       0.985
       0.932
       0.841
       0.736
       0.648
       0.587
       0.543
       0.502
       0.463
       0.444
       0.452
       0.478
       0.498
       0.504
       0.506
       0.524
       0.558
       0.589
       0.593
       0.569
       0.534
       0.508
       0.505
       0.523
       0.552
       0.589
       0.633
       0.684
       0.738
       0.787
       0.822
       0.837
       0.828
       0.801
       0.759
       0.704
       0.632
       0.536
       0.415
       0.280
       0.152
       0.044
      -0.035
      -0.086
      -0.114
      -0.124
      -0.127
      -0.135
      -0.157
      -0.192
      -0.233
      -0.276
      -0.333
      -0.414
      -0.523
      -0.649
      -0.781
      -0.913
      -1.039
      -1.143
      -1.210
      -1.228
      -1.209
      -1.173
      -1.134
      -1.094
      -1.047
      -0.992
      -0.933
      -0.873
      -0.807
      -0.726
      -0.628
      -0.521
      -0.417
      -0.326
      -0.250
      -0.189
      -0.146
      -0.119
      -0.106
      -0.100
      -0.099
      -0.099
      -0.098
      -0.102
      -0.122
      -0.170
      -0.242
      -0.319
      -0.380
      -0.412
      -0.410
      -0.372
      -0.293
      -0.176
      -0.039
       0.083
       0.165
       0.201
       0.211
       0.229
       0.279
       0.355
       0.424
       0.440
       0.378
       0.251
       0.108
       0.004
      -0.037
      -0.031
      -0.025
      -0.047
      -0.088
      -0.116
      -0.113
      -0.088
      -0.069
      -0.066
      -0.067
      -0.045
       0.007
       0.074
       0.130
       0.167
       0.201
       0.255
       0.335
       0.419
       0.471
       0.474
       0.449
       0.432
       0.451
       0.501
       0.557
       0.597
       0.617
       0.624
       0.615
       0.571
       0.476
       0.336
       0.184
       0.061
      -0.015
      -0.056
      -0.081
      -0.099
      -0.102
      -0.078
      -0.038
      -0.010
      -0.019
      -0.064
      -0.114
      -0.130
      -0.098
      -0.039
       0.009
       0.016
      -0.029
      -0.115
      -0.221
      -0.323
      -0.396
      -0.420
      -0.384
      -0.300
      -0.199
      -0.112
      -0.051
      -0.006
       0.036
       0.081
       0.132
       0.197
       0.284
       0.383
       0.468
       0.505
       0.484
       0.414
       0.311
       0.184
       0.032
      -0.133
      -0.286
      -0.397
      -0.446
      -0.435
      -0.388
      -0.338
      -0.314
      -0.325
      -0.358
      -0.387
      -0.386
      -0.342
      -0.256
      -0.137
       0.008
       0.162
       0.297
       0.389
       0.433
       0.460
       0.512
       0.606
       0.718
       0.805
       0.844
       0.842
       0.817
       0.771
       0.690
       0.567
       0.421
       0.284
       0.171
       0.065
      -0.058
      -0.205
      -0.348
      -0.452
      -0.504
      -0.517
      -0.515
      -0.507
      -0.482
      -0.420
      -0.314
      -0.180
      -0.047
       0.063
       0.144
       0.195
       0.212
       0.187
       0.125
       0.050
      -0.004
      -0.032
      -0.064
      -0.139
      -0.261
      -0.392
      -0.477
      -0.488
      -0.435
      -0.346
      -0.242
      -0.129
      -0.015
       0.076
       0.110
       0.067
      -0.041
      -0.181
      -0.317
      -0.423
      -0.490
      -0.516
      -0.503
      -0.456
      -0.386
      -0.313
      -0.251
      -0.206
      -0.176
      -0.155
      -0.139
      -0.126
      -0.111
      -0.090
      -0.058
      -0.013
       0.047
       0.125
       0.222
       0.333
       0.443
       0.541
       0.625
       0.694
       0.737
       0.732
       0.667
       0.562
       0.453
       0.360
       0.276
       0.182
       0.072
      -0.040
      -0.137
      -0.220
      -0.304
      -0.401
      -0.503
      -0.581
      -0.602
      -0.551
      -0.439
      -0.294
      -0.135
       0.035
       0.218
       0.400
       0.557
       0.668
       0.738
       0.779
       0.805
       0.818
       0.816
       0.798
       0.766
       0.725
       0.678
       0.633
       0.592
       0.549
       0.496
       0.427
       0.352
       0.285
       0.235
       0.199
       0.171
       0.153
       0.151
       0.170
       0.200
       0.225
       0.231
       0.222
       0.218
       0.243
       0.297
       0.359
       0.407
       0.437
       0.461
       0.486
       0.503
       0.502
       0.486
       0.478
       0.493
       0.521
       0.540
       0.537
       0.517
       0.495
       0.484
       0.486
       0.496
       0.509
       0.518
       0.513
       0.483
       0.425
       0.350
       0.273
       0.206
       0.149
       0.093
       0.030
      -0.046
      -0.139
      -0.255
      -0.393
      -0.541
      -0.670
      -0.744
      -0.744
      -0.684
      -0.598
      -0.520
      -0.457
      -0.396
      -0.319
      -0.228
      -0.142
      -0.093
      -0.104
      -0.167
      -0.253
      -0.330
      -0.390
      -0.448
      -0.528
      -0.638
      -0.768
      -0.904
      -1.039
      -1.174
      -1.312
      -1.448
      -1.577
      -1.690
      -1.779
      -1.835
      -1.851
      -1.833
      -1.803
      -1.787
      -1.793
      -1.800
      -1.782
      -1.721
      -1.619
      -1.488
      -1.339
      -1.180
      -1.019
      -0.865
      -0.725
      -0.602
      -0.496
      -0.402
      -0.308
      -0.201
      -0.078
       0.054
       0.182
       0.292
       0.381
       0.452
       0.511
       0.565
       0.612
       0.643
       0.650
       0.642
       0.636
       0.651
       0.689
       0.731
       0.758
       0.757
       0.730
       0.677
       0.602
       0.512
       0.427
       0.364
       0.324
       0.285
       0.233
       0.185
       0.174
       0.218
       0.297
       0.373
       0.422
       0.450
       0.476
       0.508
       0.537
       0.545
       0.517
       0.450
       0.355
       0.256
       0.175
       0.124
       0.099
       0.082
       0.068
       0.062
       0.083
       0.141
       0.230
       0.326
       0.401
       0.436
       0.427
       0.376
       0.292
       0.191
       0.089
      -0.003
      -0.080
      -0.141
      -0.177
      -0.174
      -0.125
      -0.039
       0.062
       0.151
       0.218
       0.261
       0.281
       0.281
       0.268
       0.257
       0.260
       0.266
       0.250
       0.187
       0.077
      -0.057
      -0.188
      -0.291
      -0.358
      -0.386
      -0.383
      -0.364
      -0.346
      -0.339
      -0.341
      -0.337
      -0.319
      -0.287
      -0.253
      -0.226
      -0.216
      -0.224
      -0.246
      -0.279
      -0.322
      -0.382
      -0.468
      -0.574
      -0.673
      -0.734
      -0.739
      -0.697
      -0.638
      -0.585
      -0.538
      -0.485
      -0.415
      -0.338
      -0.270
      -0.221
      -0.185
      -0.154
      -0.123
      -0.105
      -0.115
      -0.159
      -0.227
      -0.297
      -0.351
      -0.386
      -0.410
      -0.433
      -0.458
      -0.474
      -0.471
      -0.447
      -0.407
      -0.360
      -0.312
      -0.265
      -0.218
      -0.175
      -0.138
      -0.101
      -0.061
      -0.016
       0.028
       0.065
       0.098
       0.132
       0.163
       0.183
       0.184
       0.175
       0.173
       0.183
       0.200
       0.212
       0.219
       0.231
       0.262
       0.311
       0.360
       0.382
       0.354
       0.278
       0.179
       0.086
       0.013
      -0.044
      -0.100
      -0.165
      -0.246
      -0.344
      -0.455
      -0.568
      -0.663
      -0.722
      -0.740
      -0.718
      -0.662
      -0.572
      -0.461
      -0.351
      -0.267
      -0.220
      -0.197
      -0.179
      -0.153
      -0.119
      -0.092
      -0.080
      -0.081
      -0.083
      -0.074
      -0.049
      -0.011
       0.038
       0.094
       0.153
       0.213
       0.276
       0.349
       0.439
       0.551
       0.680
       0.812
       0.922
       0.988
       0.991
       0.928
       0.808
       0.659
       0.518
       0.421
       0.383
       0.390
       0.409
       0.414
       0.404
       0.390
       0.388
       0.400
       0.421
       0.450
       0.481
       0.506
       0.516
       0.500
       0.456
       0.389
       0.312
       0.242
       0.196
       0.177
       0.174
       0.175
       0.171
       0.169
       0.178
       0.199
       0.224
       0.239
       0.240
       0.234
       0.228
       0.229
       0.237
       0.260
       0.307
       0.382
       0.478
       0.576
       0.658
       0.722
       0.780
       0.845
       0.915
       0.968
       0.980
       0.942
       0.867
       0.778
       0.697
       0.627
       0.558
       0.478
       0.377
       0.262
       0.145
       0.047
      -0.019
      -0.046
      -0.038
      -0.011
       0.021
       0.047
       0.063
       0.071
       0.068
       0.049
       0.013
      -0.040
      -0.105
      -0.176
      -0.252
      -0.330
      -0.414
      -0.505
      -0.596
      -0.673
      -0.720
      -0.728
      -0.698
      -0.630
      -0.525
      -0.393
      -0.252
      -0.126
      -0.032
       0.028
       0.060
       0.064
       0.032
      -0.040
      -0.145
      -0.261
      -0.362
      -0.437
      -0.492
      -0.537
      -0.576
      -0.603
      -0.613
      -0.608
      -0.594
      -0.578
      -0.563
      -0.541
      -0.500
      -0.432
      -0.339
      -0.234
      -0.136
      -0.063
      -0.023
      -0.018
      -0.046
      -0.105
      -0.183
      -0.257
      -0.306
      -0.321
      -0.320
      -0.325
      -0.347
      -0.374
      -0.383
      -0.365
      -0.329
      -0.293
      -0.266
      -0.233
      -0.175
      -0.094
      -0.015
       0.026
       0.011
      -0.041
      -0.088
      -0.094
      -0.049
       0.033
       0.127
       0.212
       0.279
       0.317
       0.315
       0.266
       0.179
       0.076
      -0.017
      -0.084
      -0.123
      -0.136
      -0.122
      -0.075
       0.006
       0.111
       0.217
       0.302
       0.354
       0.380
       0.401
       0.434
       0.486
       0.548
       0.604
       0.645
       0.671
       0.685
       0.690
       0.679
       0.651
       0.607
       0.555
       0.503
       0.456
       0.413
       0.377
       0.345
       0.316
       0.285
       0.251
       0.212
       0.165
       0.097
       0.000
      -0.124
      -0.252
      -0.354
      -0.409
      -0.410
      -0.363
      -0.282
      -0.182
      -0.082
       0.002
       0.056
       0.082
       0.095
       0.110
       0.128
       0.132
       0.106
       0.048
      -0.025
      -0.089
      -0.125
      -0.126
      -0.096
      -0.046
       0.006
       0.045
       0.064
       0.066
       0.061
       0.058
       0.057
       0.047
