Origin Time       12/3/2012 22:07:20	
Lat.              28.9 N	
Long.             77.3 E	
Depth (Km)          5.0
Magnitude         3.5
 Region           Baghpat-U.P.                                                     
 Above details taken from IMD 
     
Station Code      DCE
Station Lat.       28.795  N
Station Long.      77.118  E
Station Height(m)  208.0
Site Class        C   Vs30 between 200 m/sec to 375 m/sec *  
Record Time       12.03.2012 22:07:03.864
Sampling Rate     200. Hz
 Record Duration   80.000 Sec.
 Direction         E-W (E positive)
Max. Acceleration      3.449 cm/sec**2
     
  * For reference see Site Classification link of website 
     
 Base Line Corrected and Low Pass Filtered (Cut Off at 35 Hz) Time History
 Acceleration data in cm/sec**2
    
[...]
      -0.073
       0.047
       0.165
       0.203
       0.150
       0.054
      -0.046
      -0.139
      -0.201
      -0.186
      -0.061
       0.143
       0.337
       0.435
       0.404
       0.268
       0.079
      -0.105
      -0.241
      -0.306
      -0.302
      -0.259
      -0.212
      -0.184
      -0.163
      -0.112
      -0.005
       0.146
       0.288
       0.359
       0.336
       0.242
       0.127
       0.018
      -0.088
      -0.192
      -0.264
      -0.247
      -0.114
       0.086
       0.249
       0.287
       0.200
       0.069
      -0.024
      -0.066
      -0.115
      -0.220
      -0.353
      -0.423
      -0.365
      -0.199
      -0.001
       0.170
       0.301
       0.394
       0.416
       0.323
       0.121
      -0.099
      -0.216
      -0.180
      -0.055
       0.043
       0.046
      -0.010
      -0.040
       0.002
       0.079
       0.113
       0.066
      -0.026
      -0.094
      -0.106
      -0.091
      -0.091
      -0.112
      -0.114
      -0.054
       0.072
       0.227
       0.358
       0.415
       0.354
       0.156
      -0.138
      -0.414
      -0.539
      -0.457
      -0.232
       0.002
       0.152
       0.206
       0.187
       0.100
      -0.063
      -0.266
      -0.406
      -0.377
      -0.158
       0.144
       0.379
       0.462
       0.425
       0.354
       0.294
       0.217
       0.069
      -0.148
      -0.359
      -0.461
      -0.408
      -0.244
      -0.070
       0.038
       0.079
       0.098
       0.123
       0.143
       0.135
       0.099
       0.050
       0.000
      -0.050
      -0.098
      -0.131
      -0.127
      -0.073
       0.015
       0.088
       0.091
       0.006
      -0.126
      -0.225
      -0.225
      -0.120
       0.034
       0.154
       0.200
       0.190
       0.156
       0.099
      -0.001
      -0.130
      -0.208
      -0.158
      -0.006
       0.121
       0.113
      -0.011
      -0.131
      -0.150
      -0.075
       0.010
       0.041
       0.024
       0.009
       0.034
       0.083
       0.111
       0.096
       0.063
       0.052
       0.065
       0.063
       0.011
      -0.080
      -0.168
      -0.207
      -0.177
      -0.085
       0.036
       0.138
       0.181
       0.160
       0.099
       0.021
      -0.071
      -0.177
      -0.271
      -0.302
      -0.244
      -0.126
      -0.004
       0.091
       0.163
       0.212
       0.217
       0.169
       0.107
       0.094
       0.149
       0.219
       0.228
       0.148
       0.001
      -0.175
      -0.342
      -0.447
      -0.420
      -0.244
       0.009
       0.208
       0.264
       0.193
       0.073
      -0.038
      -0.119
      -0.169
      -0.176
      -0.133
      -0.052
       0.044
       0.135
       0.201
       0.223
       0.183
       0.072
      -0.093
      -0.263
      -0.344
      -0.248
       0.030
       0.359
       0.544
       0.451
       0.115
      -0.283
      -0.539
      -0.550
      -0.360
      -0.085
       0.181
       0.391
       0.511
       0.499
       0.333
       0.058
      -0.214
      -0.367
      -0.351
      -0.223
      -0.102
      -0.078
      -0.141
      -0.205
      -0.197
      -0.108
       0.032
       0.202
       0.373
       0.475
       0.426
       0.214
      -0.060
      -0.253
      -0.285
      -0.187
      -0.046
       0.068
       0.127
       0.118
       0.036
      -0.087
      -0.184
      -0.199
      -0.130
      -0.027
       0.065
       0.126
       0.150
       0.132
       0.082
       0.036
       0.025
       0.029
      -0.005
      -0.102
      -0.201
      -0.204
      -0.083
       0.083
       0.168
       0.117
      -0.023
      -0.157
      -0.216
      -0.182
      -0.077
       0.049
       0.135
       0.134
       0.050
      -0.052
      -0.073
       0.050
       0.280
       0.474
       0.475
       0.252
      -0.060
      -0.272
      -0.309
      -0.249
      -0.219
      -0.252
      -0.274
      -0.203
      -0.051
       0.088
       0.127
       0.072
      -0.003
      -0.031
      -0.001
       0.050
       0.069
       0.032
      -0.034
      -0.063
      -0.009
       0.104
       0.201
       0.217
       0.141
       0.013
      -0.101
      -0.149
      -0.137
      -0.135
      -0.205
      -0.305
      -0.312
      -0.157
       0.086
       0.267
       0.301
       0.226
       0.135
       0.091
       0.101
       0.144
       0.199
       0.239
       0.226
       0.129
      -0.055
      -0.278
      -0.456
      -0.505
      -0.398
      -0.194
      -0.006
       0.077
       0.068
       0.051
       0.077
       0.101
       0.041
      -0.092
      -0.165
      -0.056
       0.209
       0.449
       0.484
       0.273
      -0.067
      -0.357
      -0.472
      -0.397
      -0.224
      -0.072
       0.008
       0.052
       0.111
       0.171
       0.172
       0.098
       0.021
       0.030
       0.136
       0.245
       0.242
       0.104
      -0.072
      -0.152
      -0.096
       0.001
       0.020
      -0.068
      -0.189
      -0.264
      -0.274
      -0.231
      -0.142
      -0.031
       0.051
       0.080
       0.105
       0.188
       0.295
       0.296
       0.110
      -0.171
      -0.357
      -0.345
      -0.194
      -0.015
       0.151
       0.306
       0.412
       0.398
       0.270
       0.118
      -0.005
      -0.160
      -0.397
      -0.602
      -0.561
      -0.204
       0.254
       0.486
       0.359
       0.042
      -0.186
      -0.192
      -0.064
       0.037
       0.047
       0.017
       0.025
       0.094
       0.183
       0.216
       0.145
      -0.004
      -0.143
      -0.217
      -0.263
      -0.345
      -0.425
      -0.368
      -0.110
       0.220
       0.401
       0.351
       0.205
       0.149
       0.217
       0.280
       0.207
       0.010
      -0.189
      -0.275
      -0.236
      -0.143
      -0.085
      -0.081
      -0.060
       0.059
       0.248
       0.359
       0.267
       0.020
      -0.180
      -0.177
      -0.016
       0.106
       0.037
      -0.175
      -0.332
      -0.283
      -0.076
       0.094
       0.098
       0.000
      -0.047
      -0.007
      -0.003
      -0.142
      -0.334
      -0.366
      -0.139
       0.202
       0.415
       0.416
       0.329
       0.308
       0.350
       0.322
       0.149
      -0.089
      -0.247
      -0.267
      -0.226
      -0.237
      -0.310
      -0.325
      -0.157
       0.168
       0.447
       0.461
       0.168
      -0.232
      -0.446
      -0.306
       0.094
       0.450
       0.474
       0.133
      -0.311
      -0.521
      -0.392
      -0.122
       0.007
      -0.084
      -0.215
      -0.157
       0.128
       0.460
       0.601
       0.458
       0.125
      -0.206
      -0.378
      -0.341
      -0.148
       0.071
       0.175
       0.097
      -0.112
      -0.310
      -0.368
      -0.259
      -0.059
       0.131
       0.262
       0.347
       0.411
       0.427
       0.326
       0.076
      -0.234
      -0.420
      -0.355
      -0.094
       0.159
       0.224
       0.089
      -0.104
      -0.208
      -0.190
      -0.136
      -0.134
      -0.187
      -0.219
      -0.163
      -0.016
       0.174
       0.346
       0.441
       0.425
       0.312
       0.164
       0.023
      -0.123
      -0.302
      -0.469
      -0.504
      -0.341
      -0.066
       0.147
       0.203
       0.158
       0.110
       0.075
      -0.009
      -0.164
      -0.304
      -0.304
      -0.110
       0.190
       0.426
       0.465
       0.319
       0.122
       0.000
      -0.047
      -0.108
      -0.215
      -0.253
      -0.085
       0.250
       0.505
       0.440
       0.065
      -0.367
      -0.582
      -0.500
      -0.232
       0.046
       0.209
       0.220
       0.128
       0.032
      -0.002
      -0.012
      -0.087
      -0.242
      -0.358
      -0.300
      -0.074
       0.174
       0.308
       0.322
       0.304
       0.310
       0.297
       0.196
       0.014
      -0.157
      -0.230
      -0.212
      -0.186
      -0.195
      -0.199
      -0.148
      -0.070
      -0.054
      -0.130
      -0.209
      -0.152
       0.083
       0.370
       0.512
       0.429
       0.232
       0.091
       0.031
      -0.067
      -0.265
      -0.437
      -0.406
      -0.185
       0.014
       0.011
      -0.149
      -0.229
      -0.021
       0.437
       0.857
       0.915
       0.530
      -0.070
      -0.561
      -0.773
      -0.743
      -0.562
      -0.282
       0.033
       0.253
       0.269
       0.117
      -0.043
      -0.071
       0.039
       0.198
       0.320
       0.361
       0.282
       0.047
      -0.300
      -0.587
      -0.609
      -0.311
       0.129
       0.440
       0.488
       0.364
       0.237
       0.160
       0.049
      -0.160
      -0.378
      -0.434
      -0.250
       0.069
       0.306
       0.303
       0.073
      -0.212
      -0.348
      -0.249
      -0.011
       0.167
       0.165
       0.059
       0.015
       0.097
       0.185
       0.125
      -0.099
      -0.347
      -0.481
      -0.470
      -0.358
      -0.169
       0.099
       0.393
       0.559
       0.426
      -0.010
      -0.490
      -0.646
      -0.326
       0.220
       0.570
       0.536
       0.317
       0.220
       0.305
       0.362
       0.194
      -0.149
      -0.424
      -0.441
      -0.219
       0.068
       0.262
       0.317
       0.268
       0.151
      -0.027
      -0.255
      -0.490
      -0.667
      -0.717
      -0.577
      -0.225
       0.284
       0.803
       1.144
       1.147
       0.756
       0.073
      -0.642
      -1.083
      -1.078
      -0.707
      -0.201
       0.242
       0.552
       0.709
       0.649
       0.314
      -0.189
      -0.565
      -0.544
      -0.166
       0.206
       0.209
      -0.164
      -0.563
      -0.614
      -0.257
       0.240
       0.549
       0.546
       0.348
       0.159
       0.081
       0.076
       0.056
      -0.002
      -0.052
      -0.060
      -0.044
      -0.023
       0.016
       0.057
       0.007
      -0.211
      -0.501
      -0.615
      -0.385
       0.088
       0.522
       0.733
       0.752
       0.693
       0.568
       0.311
      -0.080
      -0.498
      -0.808
      -0.900
      -0.694
      -0.173
       0.521
       1.092
       1.249
       0.900
       0.204
      -0.526
      -0.997
      -1.066
      -0.777
      -0.300
       0.182
       0.533
       0.678
       0.613
       0.425
       0.245
       0.130
       0.023
      -0.151
      -0.337
      -0.380
      -0.191
       0.093
       0.187
      -0.083
      -0.587
      -0.973
      -0.975
      -0.623
      -0.164
       0.183
       0.337
       0.303
       0.117
      -0.119
      -0.235
      -0.124
       0.164
       0.478
       0.696
       0.745
       0.549
       0.051
      -0.655
      -1.286
      -1.519
      -1.229
      -0.599
       0.025
       0.407
       0.545
       0.554
       0.486
       0.328
       0.129
       0.019
       0.076
       0.223
       0.307
       0.241
       0.040
      -0.244
      -0.579
      -0.900
      -1.045
      -0.801
      -0.095
       0.873
       1.748
       2.298
       2.505
       2.361
       1.690
       0.342
      -1.400
      -2.769
      -3.048
      -2.207
      -0.958
      -0.097
       0.170
       0.249
       0.558
       1.060
       1.398
       1.363
       1.094
       0.819
       0.562
       0.190
      -0.323
      -0.781
      -0.937
      -0.744
      -0.415
      -0.259
      -0.440
      -0.867
      -1.264
      -1.358
      -1.045
      -0.441
       0.222
       0.740
       1.032
       1.105
       0.998
       0.768
       0.510
       0.322
       0.248
       0.281
       0.407
       0.569
       0.606
       0.302
      -0.398
      -1.264
      -1.912
      -2.063
      -1.675
      -0.878
       0.122
       1.053
       1.611
       1.608
       1.122
       0.435
      -0.213
      -0.783
      -1.309
      -1.654
      -1.486
      -0.570
       0.911
       2.343
       3.043
       2.717
       1.618
       0.295
      -0.814
      -1.592
      -2.110
      -2.410
      -2.428
      -2.060
      -1.250
      -0.101
       1.060
       1.782
       1.816
       1.369
       0.931
       0.777
       0.705
       0.312
      -0.448
      -1.059
      -0.872
       0.233
       1.613
       2.291
       1.696
       0.067
      -1.740
      -2.820
      -2.746
      -1.727
      -0.378
       0.738
       1.435
       1.844
       2.071
       1.985
       1.394
       0.407
      -0.512
      -0.950
      -0.991
      -1.159
      -1.804
      -2.590
      -2.705
      -1.659
       0.171
       1.815
       2.510
       2.194
       1.320
       0.351
      -0.484
      -1.048
      -1.140
      -0.626
       0.276
       0.975
       0.883
      -0.095
      -1.420
      -2.275
      -2.147
      -1.150
       0.124
       1.079
       1.468
       1.388
       1.043
       0.592
       0.175
      -0.055
      -0.033
       0.153
       0.377
       0.638
       1.001
       1.383
       1.480
       1.015
       0.065
      -0.898
      -1.334
      -1.059
      -0.405
       0.019
      -0.212
      -0.991
      -1.770
      -2.057
      -1.817
      -1.356
      -0.863
      -0.199
       0.822
       2.063
       3.084
       3.449
       2.975
       1.776
       0.232
      -1.101
      -1.764
      -1.718
      -1.362
      -1.165
      -1.238
      -1.293
      -0.979
      -0.248
       0.593
       1.152
       1.236
       0.926
       0.428
      -0.082
      -0.489
      -0.707
      -0.652
      -0.277
       0.332
       0.885
       1.010
       0.583
      -0.054
      -0.328
      -0.004
       0.539
       0.668
       0.126
      -0.762
      -1.451
      -1.654
      -1.414
      -0.858
      -0.033
       0.952
       1.709
       1.705
       0.763
      -0.572
      -1.339
      -0.990
       0.094
       0.964
       1.027
       0.527
       0.146
       0.217
       0.454
       0.405
       0.020
      -0.344
      -0.411
      -0.330
      -0.451
      -0.841
      -1.161
      -1.035
      -0.466
       0.199
       0.657
       0.896
       1.036
       1.045
       0.727
       0.032
      -0.708
      -0.975
      -0.560
       0.171
       0.588
       0.389
      -0.127
      -0.376
      -0.068
       0.521
       0.829
       0.524
      -0.215
      -0.867
      -0.973
      -0.440
       0.439
       1.190
       1.429
       1.054
       0.248
      -0.682
      -1.454
      -1.830
      -1.590
      -0.650
       0.701
       1.810
       2.079
       1.440
       0.384
      -0.490
      -0.952
      -1.190
      -1.478
      -1.841
      -1.993
      -1.598
      -0.605
       0.632
       1.592
       1.988
       1.948
       1.768
       1.496
       0.870
      -0.269
      -1.526
      -2.067
      -1.308
       0.453
       2.113
       2.583
       1.619
      -0.101
      -1.671
      -2.666
      -3.163
      -3.256
      -2.794
      -1.657
      -0.100
       1.336
       2.240
       2.566
       2.502
       2.225
       1.814
       1.287
       0.622
      -0.206
      -1.098
      -1.768
      -1.880
      -1.331
      -0.389
       0.466
       0.896
       0.936
       0.860
       0.838
       0.740
       0.306
      -0.521
      -1.447
      -2.015
      -1.929
      -1.229
      -0.239
       0.633
       1.091
       1.066
       0.735
       0.402
       0.268
       0.265
       0.151
      -0.161
      -0.439
      -0.351
       0.150
       0.734
       1.004
       0.823
       0.334
      -0.267
      -0.878
      -1.422
      -1.756
      -1.727
      -1.296
      -0.562
       0.331
       1.214
       1.842
       1.938
       1.411
       0.518
      -0.277
      -0.632
      -0.511
      -0.081
       0.476
       0.987
       1.208
       0.900
       0.093
      -0.806
      -1.290
      -1.205
      -0.852
      -0.607
      -0.508
      -0.299
       0.123
       0.478
       0.413
      -0.009
      -0.301
      -0.099
       0.370
       0.516
       0.078
      -0.519
      -0.598
       0.013
       0.783
       1.015
       0.505
      -0.348
      -0.973
      -1.074
      -0.731
      -0.227
       0.159
       0.297
       0.246
       0.168
       0.178
       0.259
       0.340
       0.393
       0.422
       0.406
       0.318
       0.195
       0.113
       0.093
       0.072
      -0.003
      -0.107
      -0.192
      -0.241
      -0.242
      -0.140
       0.108
       0.427
       0.647
       0.642
       0.443
       0.162
      -0.156
      -0.562
      -1.061
      -1.479
      -1.555
      -1.190
      -0.585
      -0.085
       0.094
      -0.007
      -0.169
      -0.144
       0.215
       0.864
       1.556
       1.969
       1.899
       1.354
       0.505
      -0.385
      -1.034
      -1.243
      -1.025
      -0.609
      -0.287
      -0.209
      -0.310
      -0.384
      -0.244
       0.144
       0.635
       1.006
       1.107
       0.912
       0.467
      -0.140
      -0.733
      -1.039
      -0.864
      -0.331
       0.133
       0.138
      -0.314
      -0.853
      -1.093
      -0.917
      -0.435
       0.194
       0.812
       1.206
       1.165
       0.691
       0.076
      -0.310
      -0.340
      -0.177
      -0.019
       0.122
       0.347
       0.617
       0.704
       0.394
      -0.300
      -1.127
      -1.744
      -1.850
      -1.328
      -0.355
       0.654
       1.317
       1.524
       1.402
       1.070
       0.522
      -0.221
      -0.912
      -1.132
      -0.636
       0.358
       1.270
       1.612
       1.318
       0.644
      -0.183
      -1.080
      -1.908
      -2.318
      -1.962
      -0.874
       0.448
       1.378
       1.586
       1.164
       0.435
      -0.295
      -0.810
      -0.952
      -0.633
       0.041
       0.726
       1.040
       0.854
       0.354
      -0.151
      -0.442
      -0.438
      -0.175
       0.179
       0.360
       0.173
      -0.313
      -0.764
      -0.827
      -0.453
       0.032
       0.230
       0.075
      -0.099
       0.062
       0.506
       0.792
       0.568
      -0.019
      -0.443
      -0.346
       0.070
       0.254
      -0.092
      -0.680
      -0.958
      -0.695
      -0.137
       0.344
       0.611
       0.727
       0.705
       0.480
       0.096
      -0.208
      -0.197
       0.097
       0.368
       0.309
      -0.089
      -0.488
      -0.462
       0.115
       0.897
       1.279
       0.884
      -0.093
      -0.997
      -1.249
      -0.819
      -0.177
       0.196
       0.231
       0.193
       0.303
       0.518
       0.647
       0.590
       0.409
       0.231
       0.102
      -0.048
      -0.328
      -0.744
      -1.135
      -1.258
      -0.975
      -0.391
       0.213
       0.583
       0.644
       0.473
       0.155
      -0.237
      -0.551
      -0.531
      -0.014
       0.839
       1.551
       1.635
       0.950
      -0.195
      -1.242
      -1.728
      -1.510
      -0.774
       0.110
       0.767
       0.972
