Origin Time       24/2/2010 19:20:52	 UTC
Lat.              28.6 N	
Long.             76.9 E	
Depth (Km)         17.0
Magnitude         2.5
 Region           Rohtak                                                           
 Above details taken from IMD 
    
Station Code      DCE
Station Lat.       28.795  N
Station Long.      77.118  E
Station Height(m)  208.0
Site Class        C   Vs30 between 200 m/sec to 375 m/sec *  
Record Time       24.02.2010 19:18:25.944 UTC
Sampling Rate     200. Hz
 Record Duration   80.010 Sec.
 Direction         N-S (N positive)
Max. Acceleration      1.480 cm/sec**2
     
  * For reference see Site Classification link of website 
     
 Base Line Corrected and Low Pass Filtered (Cut Off at 35 Hz) Time History
 Acceleration data in cm/sec**2
    
[...]
      -0.002
      -0.001
      -0.001
      -0.004
      -0.007
      -0.005
       0.002
       0.012
       0.020
       0.023
       0.021
       0.017
       0.011
       0.006
       0.007
       0.014
       0.020
       0.019
       0.010
      -0.001
      -0.009
      -0.013
      -0.011
      -0.003
       0.010
       0.021
       0.025
       0.020
       0.011
       0.000
      -0.009
      -0.013
      -0.008
       0.002
       0.010
       0.014
       0.014
       0.010
       0.005
       0.000
      -0.002
      -0.003
      -0.004
      -0.008
      -0.014
      -0.019
      -0.018
      -0.006
       0.015
       0.037
       0.049
       0.042
       0.021
       0.000
      -0.015
      -0.022
      -0.025
      -0.024
      -0.016
      -0.002
       0.011
       0.019
       0.020
       0.017
       0.014
       0.013
       0.014
       0.015
       0.011
       0.003
      -0.005
      -0.007
       0.001
       0.014
       0.025
       0.028
       0.022
       0.008
      -0.008
      -0.017
      -0.017
      -0.011
      -0.003
       0.003
       0.006
       0.003
      -0.003
      -0.007
      -0.003
       0.007
       0.017
       0.022
       0.022
       0.017
       0.008
      -0.003
      -0.010
      -0.006
       0.007
       0.021
       0.026
       0.021
       0.011
      -0.003
      -0.018
      -0.030
      -0.035
      -0.030
      -0.016
      -0.002
       0.007
       0.007
       0.000
      -0.003
       0.005
       0.021
       0.035
       0.037
       0.025
       0.009
      -0.005
      -0.012
      -0.013
      -0.008
      -0.003
      -0.003
      -0.006
      -0.004
       0.003
       0.010
       0.011
       0.008
       0.009
       0.014
       0.022
       0.025
       0.022
       0.010
      -0.006
      -0.017
      -0.015
      -0.001
       0.013
       0.014
       0.003
      -0.014
      -0.024
      -0.025
      -0.018
      -0.009
      -0.005
      -0.005
      -0.006
      -0.003
       0.007
       0.016
       0.021
       0.020
       0.015
       0.006
      -0.007
      -0.020
      -0.030
      -0.029
      -0.018
       0.001
       0.019
       0.030
       0.030
       0.020
       0.007
      -0.001
      -0.003
       0.001
       0.004
       0.007
       0.006
      -0.001
      -0.013
      -0.023
      -0.023
      -0.016
      -0.013
      -0.016
      -0.023
      -0.024
      -0.018
      -0.009
      -0.001
       0.005
       0.007
       0.005
       0.000
      -0.006
      -0.013
      -0.017
      -0.018
      -0.014
      -0.007
      -0.003
      -0.003
      -0.008
      -0.013
      -0.017
      -0.017
      -0.012
      -0.003
       0.005
       0.008
       0.008
       0.009
       0.011
       0.011
       0.010
       0.008
       0.010
       0.010
       0.006
      -0.004
      -0.016
      -0.022
      -0.021
      -0.015
      -0.007
      -0.003
      -0.005
      -0.010
      -0.011
      -0.005
       0.005
       0.012
       0.013
       0.012
       0.012
       0.012
       0.008
       0.002
      -0.002
      -0.003
      -0.001
       0.002
       0.005
       0.003
      -0.005
      -0.016
      -0.025
      -0.026
      -0.023
      -0.018
      -0.013
      -0.007
      -0.003
      -0.003
      -0.005
      -0.003
       0.002
       0.007
       0.010
       0.012
       0.009
       0.000
      -0.014
      -0.023
      -0.020
      -0.007
       0.010
       0.023
       0.032
       0.035
       0.031
       0.025
       0.020
       0.017
       0.013
       0.003
      -0.008
      -0.015
      -0.018
      -0.018
      -0.015
      -0.007
       0.005
       0.014
       0.015
       0.009
      -0.002
      -0.013
      -0.021
      -0.021
      -0.014
      -0.005
       0.002
       0.004
       0.001
      -0.005
      -0.009
      -0.012
      -0.011
      -0.012
      -0.016
      -0.020
      -0.018
      -0.008
       0.003
       0.007
       0.004
      -0.001
      -0.006
      -0.012
      -0.020
      -0.024
      -0.018
      -0.006
       0.006
       0.013
       0.014
       0.009
       0.001
      -0.006
      -0.005
       0.003
       0.013
       0.021
       0.027
       0.031
       0.031
       0.026
       0.016
       0.007
       0.002
       0.001
       0.002
       0.001
      -0.001
      -0.005
      -0.010
      -0.010
      -0.005
       0.001
       0.003
       0.003
       0.002
       0.003
       0.007
       0.015
       0.027
       0.040
       0.047
       0.042
       0.030
       0.014
      -0.003
      -0.019
      -0.029
      -0.029
      -0.019
      -0.007
      -0.004
      -0.012
      -0.028
      -0.041
      -0.038
      -0.015
       0.022
       0.054
       0.064
       0.046
       0.011
      -0.024
      -0.043
      -0.042
      -0.029
      -0.016
      -0.007
       0.006
       0.031
       0.058
       0.062
       0.024
      -0.051
      -0.127
      -0.153
      -0.095
       0.024
       0.131
       0.152
       0.085
       0.007
       0.000
       0.052
       0.064
      -0.034
      -0.182
      -0.234
      -0.115
       0.085
       0.192
       0.117
      -0.049
      -0.137
      -0.077
       0.041
       0.084
       0.023
      -0.037
       0.006
       0.123
       0.183
       0.098
      -0.074
      -0.191
      -0.176
      -0.081
      -0.008
       0.018
       0.053
       0.131
       0.201
       0.175
       0.037
      -0.130
      -0.214
      -0.169
      -0.040
       0.075
       0.109
       0.070
       0.018
       0.002
       0.019
       0.032
       0.013
      -0.034
      -0.069
      -0.054
       0.007
       0.060
       0.056
      -0.001
      -0.052
      -0.043
       0.015
       0.058
       0.034
      -0.046
      -0.115
      -0.117
      -0.054
       0.026
       0.081
       0.095
       0.064
      -0.004
      -0.074
      -0.088
      -0.014
       0.099
       0.149
       0.072
      -0.076
      -0.170
      -0.136
      -0.019
       0.080
       0.116
       0.124
       0.141
       0.145
       0.087
      -0.034
      -0.152
      -0.198
      -0.157
      -0.065
       0.024
       0.071
       0.062
       0.013
      -0.042
      -0.079
      -0.098
      -0.108
      -0.091
      -0.015
       0.110
       0.220
       0.243
       0.179
       0.092
       0.034
      -0.012
      -0.088
      -0.186
      -0.235
      -0.185
      -0.076
      -0.007
      -0.040
      -0.136
      -0.189
      -0.120
       0.052
       0.236
       0.340
       0.349
       0.319
       0.297
       0.265
       0.162
      -0.031
      -0.259
      -0.435
      -0.500
      -0.435
      -0.259
      -0.019
       0.205
       0.337
       0.339
       0.230
       0.064
      -0.090
      -0.170
      -0.147
      -0.051
       0.059
       0.140
       0.194
       0.227
       0.205
       0.077
      -0.141
      -0.335
      -0.380
      -0.257
      -0.075
       0.039
       0.062
       0.063
       0.093
       0.126
       0.108
       0.037
      -0.028
      -0.033
       0.025
       0.099
       0.148
       0.161
       0.140
       0.074
      -0.043
      -0.170
      -0.225
      -0.154
       0.016
       0.186
       0.257
       0.184
       0.014
      -0.143
      -0.188
      -0.112
      -0.003
       0.042
       0.000
      -0.064
      -0.070
       0.001
       0.084
       0.093
      -0.002
      -0.138
      -0.206
      -0.131
       0.062
       0.262
       0.350
       0.300
       0.184
       0.080
      -0.012
      -0.143
      -0.315
      -0.436
      -0.401
      -0.195
       0.079
       0.271
       0.288
       0.147
      -0.049
      -0.192
      -0.226
      -0.160
      -0.046
       0.060
       0.128
       0.163
       0.174
       0.170
       0.175
       0.215
       0.273
       0.268
       0.136
      -0.079
      -0.241
      -0.249
      -0.137
      -0.046
      -0.079
      -0.201
      -0.270
      -0.188
      -0.008
       0.118
       0.107
       0.032
       0.026
       0.114
       0.186
       0.134
      -0.012
      -0.124
      -0.121
      -0.035
       0.048
       0.098
       0.146
       0.204
       0.217
       0.120
      -0.074
      -0.261
      -0.338
      -0.291
      -0.189
      -0.107
      -0.048
       0.031
       0.145
       0.236
       0.222
       0.092
      -0.051
      -0.075
       0.055
       0.222
       0.269
       0.145
      -0.054
      -0.190
      -0.207
      -0.156
      -0.105
      -0.071
      -0.019
       0.063
       0.122
       0.086
      -0.047
      -0.183
      -0.211
      -0.109
       0.043
       0.150
       0.201
       0.239
       0.272
       0.240
       0.102
      -0.084
      -0.194
      -0.168
      -0.080
      -0.051
      -0.125
      -0.226
      -0.244
      -0.141
       0.016
       0.132
       0.165
       0.155
       0.164
       0.202
       0.210
       0.124
      -0.050
      -0.229
      -0.326
      -0.305
      -0.177
       0.019
       0.218
       0.329
       0.290
       0.125
      -0.060
      -0.165
      -0.170
      -0.117
      -0.059
      -0.019
       0.012
       0.052
       0.111
       0.161
       0.153
       0.059
      -0.094
      -0.223
      -0.261
      -0.200
      -0.092
       0.011
       0.093
       0.163
       0.223
       0.264
       0.272
       0.227
       0.102
      -0.095
      -0.283
      -0.340
      -0.212
       0.019
       0.192
       0.202
       0.071
      -0.101
      -0.233
      -0.296
      -0.283
      -0.197
      -0.069
       0.060
       0.168
       0.267
       0.360
       0.411
       0.364
       0.193
      -0.059
      -0.297
      -0.422
      -0.382
      -0.207
       0.001
       0.122
       0.100
       0.000
      -0.050
       0.023
       0.154
       0.206
       0.111
      -0.065
      -0.192
      -0.196
      -0.101
       0.014
       0.083
       0.097
       0.099
       0.139
       0.210
       0.248
       0.177
      -0.017
      -0.256
      -0.410
      -0.388
      -0.217
      -0.020
       0.087
       0.079
       0.010
      -0.043
      -0.038
       0.014
       0.064
       0.078
       0.079
       0.123
       0.208
       0.249
       0.157
      -0.039
      -0.201
      -0.212
      -0.094
       0.032
       0.079
       0.062
       0.039
       0.024
      -0.012
      -0.082
      -0.149
      -0.166
      -0.128
      -0.066
      -0.017
       0.002
      -0.001
       0.013
       0.089
       0.213
       0.294
       0.237
       0.047
      -0.143
      -0.180
      -0.036
       0.157
       0.233
       0.141
      -0.032
      -0.165
      -0.206
      -0.176
      -0.119
      -0.064
      -0.024
       0.001
       0.026
       0.062
       0.098
       0.096
       0.026
      -0.090
      -0.162
      -0.097
       0.109
       0.339
       0.442
       0.355
       0.140
      -0.083
      -0.219
      -0.238
      -0.174
      -0.097
      -0.069
      -0.105
      -0.166
      -0.194
      -0.146
      -0.027
       0.115
       0.211
       0.204
       0.094
      -0.040
      -0.082
       0.032
       0.229
       0.344
       0.272
       0.066
      -0.121
      -0.191
      -0.169
      -0.129
      -0.110
      -0.100
      -0.083
      -0.052
      -0.002
       0.070
       0.153
       0.208
       0.204
       0.142
       0.053
      -0.036
      -0.120
      -0.200
      -0.248
      -0.213
      -0.070
       0.122
       0.243
       0.212
       0.073
      -0.048
      -0.067
      -0.019
      -0.005
      -0.068
      -0.145
      -0.144
      -0.042
       0.079
       0.115
       0.042
      -0.063
      -0.102
      -0.052
       0.039
       0.123
       0.189
       0.220
       0.174
       0.031
      -0.140
      -0.209
      -0.120
       0.039
       0.118
       0.051
      -0.092
      -0.188
      -0.175
      -0.085
      -0.003
       0.004
      -0.082
      -0.197
      -0.216
      -0.042
       0.273
       0.522
       0.515
       0.265
      -0.019
      -0.156
      -0.150
      -0.130
      -0.167
      -0.203
      -0.156
      -0.044
       0.029
      -0.016
      -0.132
      -0.176
      -0.054
       0.177
       0.346
       0.328
       0.159
      -0.022
      -0.106
      -0.098
      -0.070
      -0.072
      -0.090
      -0.075
      -0.009
       0.066
       0.085
       0.039
      -0.010
      -0.001
       0.041
       0.038
      -0.038
      -0.124
      -0.132
      -0.044
       0.074
       0.146
       0.143
       0.086
       0.006
      -0.083
      -0.172
      -0.233
      -0.230
      -0.170
      -0.110
      -0.101
      -0.125
      -0.106
       0.001
       0.151
       0.234
       0.179
       0.039
      -0.055
      -0.029
       0.050
       0.040
      -0.110
      -0.293
      -0.344
      -0.192
       0.078
       0.308
       0.376
       0.271
       0.093
      -0.011
       0.039
       0.198
       0.342
       0.393
       0.377
       0.348
       0.306
       0.227
       0.146
       0.136
       0.185
       0.181
       0.059
      -0.078
      -0.071
       0.075
       0.158
      -0.012
      -0.402
      -0.786
      -0.944
      -0.828
      -0.571
      -0.366
      -0.337
      -0.461
      -0.601
      -0.616
      -0.461
      -0.196
       0.078
       0.309
       0.522
       0.769
       1.065
       1.345
       1.480
       1.336
       0.879
       0.236
      -0.355
      -0.727
      -0.885
      -0.927
      -0.878
      -0.659
      -0.233
       0.265
       0.611
       0.669
       0.482
       0.199
      -0.052
      -0.201
      -0.217
      -0.113
       0.041
       0.146
       0.152
       0.078
      -0.035
      -0.176
      -0.342
      -0.498
      -0.589
      -0.592
      -0.533
      -0.447
      -0.320
      -0.089
       0.278
       0.694
       0.971
       0.973
       0.739
       0.437
       0.199
       0.020
      -0.162
      -0.348
      -0.469
      -0.479
      -0.425
      -0.399
      -0.434
      -0.435
      -0.239
       0.216
       0.774
       1.127
       1.033
       0.506
      -0.195
      -0.759
      -1.012
      -0.947
      -0.643
      -0.188
       0.312
       0.715
       0.887
       0.778
       0.442
      -0.011
      -0.459
      -0.772
      -0.834
      -0.616
      -0.238
       0.096
       0.262
       0.303
       0.346
       0.433
       0.463
       0.315
      -0.013
      -0.380
      -0.608
      -0.585
      -0.317
       0.087
       0.480
       0.747
       0.834
       0.728
       0.439
       0.027
      -0.368
      -0.573
      -0.522
      -0.340
      -0.240
      -0.294
      -0.341
      -0.192
       0.099
       0.250
       0.060
      -0.344
      -0.619
      -0.541
      -0.193
       0.176
       0.411
       0.526
       0.568
       0.495
       0.240
      -0.148
      -0.485
      -0.588
      -0.419
      -0.090
       0.261
       0.547
       0.740
       0.817
       0.748
       0.519
       0.171
      -0.202
      -0.498
      -0.631
      -0.547
      -0.253
       0.139
       0.423
       0.425
       0.149
      -0.213
      -0.430
      -0.401
      -0.196
       0.021
       0.124
       0.081
      -0.041
      -0.141
      -0.171
      -0.166
      -0.198
      -0.271
      -0.315
      -0.268
      -0.144
       0.003
       0.144
       0.259
       0.292
       0.182
      -0.031
      -0.197
      -0.186
      -0.019
       0.162
       0.251
       0.281
       0.360
       0.535
       0.718
       0.747
       0.528
       0.116
      -0.318
      -0.623
      -0.760
      -0.771
      -0.684
      -0.477
      -0.145
       0.213
       0.426
       0.381
       0.135
      -0.122
      -0.217
      -0.119
       0.081
       0.278
       0.414
       0.448
       0.353
       0.135
      -0.149
      -0.431
      -0.674
      -0.835
      -0.816
      -0.515
       0.033
       0.581
       0.814
       0.611
       0.148
      -0.259
      -0.409
      -0.301
      -0.015
       0.370
       0.745
       0.937
       0.819
       0.454
       0.058
      -0.207
      -0.364
      -0.518
      -0.665
      -0.655
      -0.376
       0.067
       0.387
       0.360
       0.021
      -0.380
      -0.586
      -0.499
      -0.185
       0.192
       0.466
       0.555
       0.494
       0.377
       0.255
       0.098
      -0.137
      -0.417
      -0.629
      -0.656
      -0.452
      -0.079
       0.332
       0.656
       0.817
       0.764
       0.476
       0.001
      -0.505
      -0.852
      -0.944
      -0.827
      -0.626
      -0.437
      -0.276
      -0.077
       0.229
       0.620
       0.955
       1.077
       0.953
       0.706
       0.493
       0.370
       0.279
       0.130
      -0.114
      -0.422
      -0.730
      -0.952
      -0.988
      -0.773
      -0.363
       0.060
       0.322
       0.388
       0.338
       0.235
       0.061
      -0.213
      -0.544
      -0.803
      -0.835
      -0.552
      -0.017
       0.544
       0.880
       0.900
       0.735
       0.582
       0.489
       0.334
       0.009
      -0.391
      -0.611
      -0.474
      -0.058
       0.363
       0.527
       0.361
      -0.004
      -0.334
      -0.440
      -0.298
      -0.052
       0.106
       0.100
       0.015
      -0.017
       0.043
       0.124
       0.135
       0.069
       0.000
      -0.016
      -0.021
      -0.113
      -0.311
      -0.489
      -0.469
      -0.199
       0.183
       0.465
       0.527
       0.394
       0.167
      -0.066
      -0.258
      -0.381
      -0.401
      -0.310
      -0.147
       0.009
       0.093
       0.094
       0.044
      -0.005
      -0.008
       0.054
       0.145
       0.205
       0.202
       0.168
       0.155
       0.171
       0.175
       0.128
       0.035
      -0.052
      -0.071
       0.005
       0.160
       0.320
       0.388
       0.306
       0.121
      -0.040
      -0.077
      -0.020
       0.012
      -0.050
      -0.163
      -0.272
      -0.412
      -0.643
      -0.903
      -0.988
      -0.735
      -0.186
       0.450
       0.958
       1.227
       1.221
       0.923
       0.378
      -0.249
      -0.708
      -0.810
      -0.569
      -0.183
       0.105
       0.162
       0.025
      -0.161
      -0.264
      -0.253
      -0.191
      -0.140
      -0.088
       0.021
       0.197
       0.358
       0.387
       0.233
      -0.032
      -0.255
      -0.320
      -0.235
      -0.117
      -0.060
      -0.036
       0.073
       0.326
       0.613
       0.715
       0.510
       0.097
      -0.274
      -0.409
      -0.305
      -0.100
       0.073
       0.174
       0.207
       0.147
      -0.050
      -0.347
      -0.580
      -0.568
      -0.286
       0.076
       0.266
       0.188
      -0.027
      -0.145
      -0.038
       0.208
       0.379
       0.318
       0.063
      -0.189
      -0.270
      -0.174
      -0.033
       0.035
       0.035
       0.056
       0.149
       0.263
       0.297
       0.207
       0.048
      -0.075
      -0.094
      -0.032
       0.030
       0.028
      -0.031
      -0.096
      -0.132
