Origin Time       12/3/2012 22:07:20	
Lat.              28.9 N	
Long.             77.3 E	
Depth (Km)          5.0
Magnitude         3.5
 Region           Baghpat-U.P.                                                     
 Above details taken from IMD 
   
Station Code      DCE
Station Lat.       28.795
Station Long.      77.118
Station Height(m)  208.0
Site Class        C   Vs30 between 200 m/sec to 375 m/sec *  
Record Time       12.03.2012 22:07:03.864
Sampling Rate     200. Hz
 Record Duration   80.000 Sec.
 Direction         Vert. (Up positive)
Max. Acceleration      2.466 cm/sec**2
     
  * For reference see Site Classification link of website 
     
 Base Line Corrected and Low Pass Filtered (Cut Off at 35 Hz) Time History
 Acceleration data in cm/sec**2
    
[...]
       0.094
       0.196
       0.276
       0.313
       0.306
       0.275
       0.250
       0.258
       0.301
       0.349
       0.346
       0.232
      -0.021
      -0.379
      -0.742
      -0.973
      -0.967
      -0.710
      -0.298
       0.110
       0.373
       0.437
       0.348
       0.205
       0.099
       0.070
       0.100
       0.131
       0.103
       0.000
      -0.136
      -0.227
      -0.218
      -0.109
       0.043
       0.160
       0.177
       0.086
      -0.059
      -0.166
      -0.167
      -0.067
       0.051
       0.081
      -0.027
      -0.217
      -0.354
      -0.310
      -0.054
       0.310
       0.601
       0.661
       0.449
       0.059
      -0.330
      -0.559
      -0.557
      -0.368
      -0.106
       0.116
       0.246
       0.304
       0.334
       0.351
       0.322
       0.195
      -0.032
      -0.287
      -0.451
      -0.442
      -0.279
      -0.063
       0.098
       0.153
       0.129
       0.095
       0.096
       0.120
       0.109
       0.020
      -0.134
      -0.289
      -0.387
      -0.404
      -0.356
      -0.270
      -0.160
      -0.026
       0.133
       0.305
       0.465
       0.579
       0.613
       0.536
       0.337
       0.042
      -0.282
      -0.552
      -0.695
      -0.667
      -0.464
      -0.132
       0.237
       0.518
       0.601
       0.443
       0.091
      -0.325
      -0.642
      -0.728
      -0.540
      -0.148
       0.295
       0.621
       0.723
       0.607
       0.375
       0.155
       0.012
      -0.082
      -0.209
      -0.407
      -0.615
      -0.697
      -0.538
      -0.150
       0.318
       0.654
       0.718
       0.515
       0.177
      -0.129
      -0.298
      -0.326
      -0.276
      -0.216
      -0.178
      -0.154
      -0.119
      -0.054
       0.042
       0.152
       0.240
       0.269
       0.225
       0.128
       0.027
      -0.038
      -0.066
      -0.086
      -0.126
      -0.175
      -0.185
      -0.115
       0.030
       0.189
       0.273
       0.235
       0.094
      -0.071
      -0.180
      -0.200
      -0.151
      -0.072
       0.010
       0.089
       0.162
       0.209
       0.197
       0.100
      -0.070
      -0.252
      -0.358
      -0.330
      -0.188
      -0.033
       0.031
      -0.021
      -0.099
      -0.074
       0.110
       0.368
       0.531
       0.477
       0.225
      -0.081
      -0.280
      -0.305
      -0.216
      -0.125
      -0.101
      -0.120
      -0.108
      -0.012
       0.152
       0.305
       0.353
       0.249
       0.025
      -0.223
      -0.376
      -0.349
      -0.141
       0.151
       0.374
       0.406
       0.233
      -0.039
      -0.252
      -0.299
      -0.178
       0.015
       0.153
       0.151
       0.014
      -0.176
      -0.305
      -0.298
      -0.152
       0.065
       0.248
       0.310
       0.224
       0.043
      -0.126
      -0.194
      -0.139
      -0.024
       0.044
       0.003
      -0.113
      -0.194
      -0.142
       0.047
       0.276
       0.419
       0.401
       0.232
      -0.015
      -0.254
      -0.398
      -0.395
      -0.243
      -0.006
       0.219
       0.347
       0.345
       0.236
       0.084
      -0.057
      -0.168
      -0.259
      -0.335
      -0.367
      -0.310
      -0.140
       0.103
       0.320
       0.400
       0.286
       0.021
      -0.260
      -0.401
      -0.319
      -0.059
       0.232
       0.400
       0.375
       0.198
      -0.015
      -0.155
      -0.169
      -0.083
       0.025
       0.079
       0.048
      -0.041
      -0.131
      -0.183
      -0.187
      -0.156
      -0.104
      -0.043
       0.020
       0.084
       0.155
       0.238
       0.302
       0.290
       0.159
      -0.075
      -0.325
      -0.478
      -0.454
      -0.249
       0.057
       0.331
       0.452
       0.374
       0.157
      -0.068
      -0.189
      -0.177
      -0.089
      -0.005
       0.025
       0.002
      -0.040
      -0.065
      -0.067
      -0.068
      -0.091
      -0.119
      -0.104
      -0.007
       0.151
       0.285
       0.295
       0.147
      -0.087
      -0.265
      -0.275
      -0.114
       0.109
       0.249
       0.210
       0.001
      -0.263
      -0.432
      -0.395
      -0.140
       0.239
       0.578
       0.710
       0.551
       0.158
      -0.277
      -0.529
      -0.483
      -0.207
       0.097
       0.242
       0.173
      -0.009
      -0.142
      -0.125
       0.013
       0.146
       0.160
       0.046
      -0.105
      -0.180
      -0.131
      -0.010
       0.078
       0.059
      -0.060
      -0.197
      -0.255
      -0.175
       0.020
       0.231
       0.330
       0.253
       0.047
      -0.162
      -0.257
      -0.215
      -0.102
      -0.003
       0.053
       0.097
       0.163
       0.241
       0.286
       0.264
       0.172
       0.033
      -0.126
      -0.280
      -0.398
      -0.438
      -0.361
      -0.157
       0.133
       0.426
       0.630
       0.682
       0.553
       0.256
      -0.146
      -0.523
      -0.716
      -0.630
      -0.312
       0.061
       0.292
       0.288
       0.111
      -0.077
      -0.134
      -0.041
       0.100
       0.162
       0.100
      -0.021
      -0.085
      -0.034
       0.064
       0.076
      -0.073
      -0.309
      -0.457
      -0.372
      -0.051
       0.354
       0.616
       0.581
       0.272
      -0.130
      -0.415
      -0.468
      -0.306
      -0.030
       0.240
       0.409
       0.429
       0.302
       0.079
      -0.167
      -0.365
      -0.458
      -0.419
      -0.268
      -0.070
       0.097
       0.180
       0.183
       0.144
       0.104
       0.091
       0.116
       0.173
       0.228
       0.222
       0.116
      -0.062
      -0.216
      -0.265
      -0.213
      -0.149
      -0.152
      -0.206
      -0.206
      -0.057
       0.226
       0.494
       0.559
       0.335
      -0.074
      -0.430
      -0.522
      -0.317
       0.025
       0.272
       0.279
       0.070
      -0.199
      -0.344
      -0.272
      -0.037
       0.197
       0.269
       0.125
      -0.146
      -0.365
      -0.368
      -0.120
       0.249
       0.517
       0.527
       0.296
       0.002
      -0.154
      -0.093
       0.086
       0.170
      -0.010
      -0.423
      -0.817
      -0.870
      -0.454
       0.239
       0.813
       0.956
       0.656
       0.176
      -0.164
      -0.203
      -0.021
       0.156
       0.122
      -0.164
      -0.535
      -0.718
      -0.543
      -0.089
       0.365
       0.557
       0.425
       0.116
      -0.156
      -0.263
      -0.213
      -0.097
      -0.002
       0.040
       0.048
       0.054
       0.078
       0.114
       0.139
       0.140
       0.121
       0.081
       0.000
      -0.134
      -0.283
      -0.373
      -0.356
      -0.248
      -0.097
       0.069
       0.249
       0.425
       0.523
       0.461
       0.228
      -0.081
      -0.323
      -0.386
      -0.262
      -0.056
       0.080
       0.045
      -0.128
      -0.289
      -0.289
      -0.103
       0.162
       0.349
       0.359
       0.195
      -0.056
      -0.271
      -0.345
      -0.248
      -0.048
       0.127
       0.180
       0.111
       0.016
      -0.001
       0.073
       0.140
       0.089
      -0.080
      -0.235
      -0.227
      -0.040
       0.192
       0.306
       0.248
       0.100
      -0.016
      -0.057
      -0.076
      -0.148
      -0.283
      -0.404
      -0.398
      -0.197
       0.158
       0.522
       0.717
       0.640
       0.314
      -0.127
      -0.506
      -0.665
      -0.539
      -0.191
       0.201
       0.430
       0.384
       0.126
      -0.139
      -0.213
      -0.060
       0.144
       0.171
      -0.051
      -0.351
      -0.455
      -0.237
       0.170
       0.473
       0.457
       0.144
      -0.242
      -0.440
      -0.339
      -0.040
       0.227
       0.270
       0.070
      -0.209
      -0.349
      -0.244
       0.019
       0.230
       0.236
       0.068
      -0.092
      -0.071
       0.147
       0.410
       0.517
       0.375
       0.067
      -0.221
      -0.338
      -0.267
      -0.110
       0.009
       0.035
      -0.002
      -0.026
       0.015
       0.103
       0.159
       0.100
      -0.088
      -0.327
      -0.484
      -0.446
      -0.179
       0.238
       0.632
       0.810
       0.656
       0.199
      -0.383
      -0.823
      -0.896
      -0.568
      -0.033
       0.395
       0.504
       0.320
       0.054
      -0.089
      -0.067
       0.010
       0.016
      -0.070
      -0.153
      -0.113
       0.096
       0.389
       0.599
       0.580
       0.312
      -0.086
      -0.438
      -0.602
      -0.521
      -0.239
       0.114
       0.366
       0.394
       0.206
      -0.057
      -0.231
      -0.255
      -0.206
      -0.187
      -0.216
      -0.207
      -0.069
       0.196
       0.474
       0.599
       0.463
       0.098
      -0.310
      -0.529
      -0.448
      -0.165
       0.096
       0.164
       0.044
      -0.128
      -0.219
      -0.187
      -0.066
       0.096
       0.265
       0.404
       0.462
       0.400
       0.233
       0.027
      -0.142
      -0.238
      -0.261
      -0.220
      -0.129
      -0.030
       0.009
      -0.048
      -0.152
      -0.188
      -0.063
       0.187
       0.394
       0.381
       0.124
      -0.207
      -0.381
      -0.299
      -0.051
       0.187
       0.296
       0.265
       0.156
       0.042
      -0.036
      -0.083
      -0.108
      -0.099
      -0.056
      -0.023
      -0.074
      -0.222
      -0.388
      -0.456
      -0.352
      -0.093
       0.232
       0.500
       0.593
       0.452
       0.123
      -0.256
      -0.520
      -0.563
      -0.384
      -0.065
       0.258
       0.445
       0.417
       0.206
      -0.041
      -0.154
      -0.064
       0.136
       0.267
       0.211
      -0.007
      -0.248
      -0.380
      -0.365
      -0.250
      -0.102
       0.047
       0.203
       0.373
       0.521
       0.547
       0.341
      -0.103
      -0.617
      -0.921
      -0.806
      -0.302
       0.332
       0.769
       0.824
       0.523
       0.036
      -0.439
      -0.747
      -0.808
      -0.637
      -0.330
      -0.001
       0.280
       0.504
       0.668
       0.725
       0.591
       0.235
      -0.229
      -0.546
      -0.483
      -0.037
       0.513
       0.791
       0.608
       0.096
      -0.413
      -0.628
      -0.483
      -0.140
       0.156
       0.261
       0.206
       0.137
       0.165
       0.274
       0.339
       0.239
      -0.026
      -0.321
      -0.470
      -0.394
      -0.163
       0.060
       0.143
       0.065
      -0.090
      -0.222
      -0.296
      -0.356
      -0.463
      -0.612
      -0.712
      -0.651
      -0.385
       0.026
       0.479
       0.864
       1.066
       0.970
       0.527
      -0.141
      -0.720
      -0.854
      -0.397
       0.408
       1.037
       1.048
       0.416
      -0.427
      -0.909
      -0.748
      -0.163
       0.286
       0.143
      -0.574
      -1.350
      -1.542
      -0.847
       0.456
       1.653
       2.046
       1.411
       0.179
      -0.838
      -0.988
      -0.240
       0.804
       1.364
       1.050
       0.099
      -0.864
      -1.291
      -1.039
      -0.386
       0.216
       0.439
       0.258
      -0.081
      -0.288
      -0.255
      -0.107
      -0.033
      -0.083
      -0.135
      -0.036
       0.255
       0.620
       0.861
       0.823
       0.501
       0.031
      -0.417
      -0.738
      -0.897
      -0.883
      -0.683
      -0.319
       0.128
       0.517
       0.694
       0.565
       0.183
      -0.227
      -0.384
      -0.143
       0.364
       0.780
       0.735
       0.130
      -0.744
      -1.364
      -1.332
      -0.656
       0.241
       0.797
       0.663
      -0.057
      -0.849
      -1.114
      -0.573
       0.522
       1.554
       1.955
       1.562
       0.673
      -0.211
      -0.714
      -0.788
      -0.657
      -0.597
      -0.707
      -0.846
      -0.747
      -0.238
       0.568
       1.263
       1.382
       0.761
      -0.274
      -1.083
      -1.128
      -0.337
       0.815
       1.574
       1.372
       0.202
      -1.332
      -2.351
      -2.217
      -0.947
       0.768
       1.986
       2.131
       1.348
       0.302
      -0.392
      -0.600
      -0.611
      -0.735
      -0.969
      -1.028
      -0.672
       0.026
       0.726
       1.098
       1.058
       0.767
       0.471
       0.324
       0.281
       0.142
      -0.268
      -0.923
      -1.549
      -1.777
      -1.391
      -0.484
       0.593
       1.435
       1.784
       1.591
       0.964
       0.092
      -0.774
      -1.356
      -1.426
      -0.920
      -0.029
       0.847
       1.287
       1.084
       0.369
      -0.481
      -1.081
      -1.214
      -0.869
      -0.188
       0.585
       1.155
       1.281
       0.903
       0.177
      -0.608
      -1.165
      -1.299
      -0.968
      -0.304
       0.441
       1.014
       1.290
       1.291
       1.070
       0.590
      -0.227
      -1.281
      -2.154
      -2.271
      -1.338
       0.317
       1.805
       2.215
       1.257
      -0.468
      -1.825
      -1.914
      -0.672
       1.122
       2.392
       2.466
       1.465
       0.112
      -0.860
      -1.232
      -1.294
      -1.386
      -1.482
      -1.240
      -0.435
       0.708
       1.613
       1.815
       1.355
       0.714
       0.338
       0.225
      -0.015
      -0.697
      -1.639
      -2.200
      -1.787
      -0.430
       1.097
       1.800
       1.238
      -0.093
      -1.121
      -1.037
       0.071
       1.310
       1.710
       0.974
      -0.339
      -1.321
      -1.418
      -0.753
       0.102
       0.594
       0.527
       0.115
      -0.221
      -0.164
       0.280
       0.779
       0.890
       0.376
      -0.590
      -1.475
      -1.703
      -1.031
       0.262
       1.507
       2.024
       1.531
       0.325
      -0.886
      -1.418
      -1.037
      -0.085
       0.767
       0.984
       0.516
      -0.196
      -0.576
      -0.369
       0.141
       0.404
       0.114
      -0.481
      -0.794
      -0.432
       0.427
       1.143
       1.121
       0.291
      -0.834
      -1.553
      -1.484
      -0.790
       0.018
       0.492
       0.525
       0.292
       0.028
      -0.098
      -0.004
       0.277
       0.589
       0.731
       0.591
       0.206
      -0.280
      -0.677
      -0.804
      -0.574
      -0.091
       0.376
       0.566
       0.406
       0.058
      -0.224
      -0.281
      -0.136
       0.076
       0.233
       0.289
       0.244
       0.105
      -0.103
      -0.320
      -0.461
      -0.444
      -0.229
       0.129
       0.451
       0.526
       0.297
      -0.049
      -0.221
      -0.083
       0.217
       0.387
       0.241
      -0.165
      -0.613
      -0.900
      -0.940
      -0.729
      -0.286
       0.331
       0.965
       1.369
       1.351
       0.940
       0.365
      -0.141
      -0.518
      -0.829
      -1.080
      -1.143
      -0.891
      -0.375
       0.159
       0.455
       0.451
       0.292
       0.163
       0.123
       0.113
       0.064
      -0.012
      -0.057
      -0.017
       0.129
       0.361
       0.604
       0.716
       0.532
      -0.015
      -0.761
      -1.320
      -1.294
      -0.589
       0.457
       1.257
       1.378
       0.836
       0.067
      -0.405
      -0.356
       0.017
       0.297
       0.189
      -0.291
      -0.851
      -1.147
      -1.017
      -0.566
      -0.052
       0.321
       0.515
       0.603
       0.645
       0.628
       0.493
       0.201
      -0.233
      -0.699
      -1.007
      -0.970
      -0.546
       0.095
       0.658
       0.897
       0.746
       0.338
      -0.060
      -0.189
       0.037
       0.444
       0.693
       0.512
      -0.086
      -0.795
      -1.228
      -1.170
      -0.677
       0.021
       0.663
       1.054
       1.070
       0.681
       0.014
      -0.607
      -0.802
      -0.413
       0.330
       0.943
       1.018
       0.468
      -0.441
      -1.226
      -1.447
      -0.983
      -0.144
       0.532
       0.658
       0.262
      -0.296
      -0.637
      -0.623
      -0.356
      -0.004
       0.322
       0.561
       0.650
       0.537
       0.258
      -0.029
      -0.133
       0.021
       0.317
       0.528
       0.477
       0.173
      -0.202
      -0.418
      -0.371
      -0.164
      -0.015
      -0.081
      -0.306
      -0.448
      -0.271
       0.210
       0.678
       0.745
       0.291
      -0.393
      -0.830
      -0.723
      -0.172
       0.425
       0.681
       0.486
       0.066
      -0.206
      -0.094
       0.312
       0.662
       0.616
       0.137
      -0.467
      -0.792
      -0.666
      -0.262
       0.086
       0.137
      -0.135
      -0.553
      -0.829
      -0.696
      -0.073
       0.818
       1.499
       1.500
       0.707
      -0.489
      -1.416
      -1.568
      -0.923
       0.089
       0.895
       1.109
       0.701
      -0.039
      -0.660
      -0.778
      -0.293
       0.503
       1.077
       1.012
       0.336
      -0.482
      -0.883
      -0.651
      -0.071
       0.322
       0.170
      -0.397
      -0.840
      -0.637
       0.251
       1.259
       1.599
       0.876
      -0.554
      -1.803
      -2.081
      -1.234
       0.199
       1.395
       1.770
       1.286
       0.377
      -0.415
      -0.792
      -0.775
      -0.525
      -0.167
       0.224
       0.542
       0.649
       0.483
       0.142
      -0.169
      -0.295
      -0.241
      -0.153
      -0.193
      -0.409
      -0.683
      -0.781
      -0.511
       0.111
       0.819
       1.230
       1.091
       0.464
      -0.307
      -0.818
      -0.842
      -0.428
       0.156
       0.575
       0.607
       0.268
      -0.203
      -0.490
      -0.378
       0.124
       0.770
       1.170
       0.993
       0.220
      -0.792
      -1.500
      -1.519
      -0.877
       0.010
       0.610
       0.649
       0.304
       0.035
       0.185
       0.655
       0.969
       0.675
      -0.242
      -1.302
      -1.854
      -1.501
      -0.336
       1.096
       2.058
       2.007
       0.943
      -0.534
      -1.578
      -1.677
      -0.980
      -0.129
       0.284
       0.166
      -0.093
      -0.038
       0.430
       0.992
       1.191
       0.792
      -0.027
      -0.783
      -1.015
      -0.621
       0.067
       0.538
       0.482
      -0.032
      -0.665
      -1.034
      -0.905
      -0.310
       0.454
       0.969
       0.942
       0.400
      -0.311
      -0.741
      -0.628
      -0.067
       0.603
       1.049
       1.105
       0.766
       0.132
      -0.600
      -1.131
      -1.176
      -0.666
       0.140
       0.776
       0.874
       0.403
      -0.357
      -1.021
      -1.313
      -1.140
      -0.550
       0.315
       1.210
       1.813
       1.846
       1.226
