Origin Time       24/2/2010 19:20:52	
Lat.              28.6 N	
Long.             76.9 E	
Depth (Km)         17.0
Magnitude         2.5
 Region           Rohtak                                                           
 Above details taken from IMD 
   
Station Code      DCE
Station Lat.       28.795
Station Long.      77.118
Station Height(m)  208.0
Site Class        C   Vs30 between 200 m/sec to 375 m/sec *  
Record Time       24.02.2010 19:18:25.944
Sampling Rate     200. Hz
 Record Duration   80.010 Sec.
 Direction         Vert. (Up positive)
Max. Acceleration     -1.099 cm/sec**2
     
  * For reference see Site Classification link of website 
     
 Base Line Corrected and Low Pass Filtered (Cut Off at 35 Hz) Time History
 Acceleration data in cm/sec**2
    
[...]
      -0.003
      -0.004
      -0.001
       0.007
       0.013
       0.013
       0.009
       0.006
       0.005
       0.003
      -0.001
      -0.005
      -0.006
      -0.005
      -0.003
      -0.001
       0.002
       0.004
       0.005
       0.010
       0.018
       0.025
       0.026
       0.021
       0.013
       0.004
      -0.004
      -0.009
      -0.010
      -0.005
       0.000
       0.005
       0.008
       0.010
       0.008
       0.002
      -0.005
      -0.010
      -0.012
      -0.014
      -0.016
      -0.015
      -0.011
      -0.006
      -0.005
      -0.007
      -0.009
      -0.012
      -0.015
      -0.016
      -0.014
      -0.010
      -0.006
      -0.003
       0.001
       0.007
       0.011
       0.009
       0.003
      -0.002
      -0.003
      -0.001
       0.005
       0.012
       0.015
       0.011
       0.001
      -0.007
      -0.007
       0.001
       0.011
       0.018
       0.020
       0.016
       0.009
       0.004
       0.003
       0.006
       0.008
       0.010
       0.012
       0.012
       0.006
      -0.006
      -0.018
      -0.020
      -0.012
       0.000
       0.008
       0.009
       0.005
       0.001
      -0.001
       0.001
       0.005
       0.006
       0.002
      -0.006
      -0.013
      -0.018
      -0.018
      -0.014
      -0.005
       0.006
       0.013
       0.012
       0.010
       0.011
       0.016
       0.022
       0.027
       0.031
       0.032
       0.029
       0.021
       0.011
      -0.001
      -0.016
      -0.030
      -0.034
      -0.028
      -0.015
      -0.006
      -0.002
       0.000
       0.005
       0.015
       0.026
       0.035
       0.039
       0.035
       0.025
       0.013
       0.001
      -0.009
      -0.013
      -0.010
       0.002
       0.015
       0.020
       0.015
       0.005
      -0.003
      -0.005
      -0.004
      -0.002
      -0.002
      -0.006
      -0.014
      -0.019
      -0.018
      -0.012
      -0.005
      -0.001
       0.002
       0.003
       0.003
      -0.001
      -0.006
      -0.009
      -0.007
      -0.002
       0.005
       0.012
       0.014
       0.009
       0.000
      -0.008
      -0.011
      -0.010
      -0.008
      -0.006
      -0.003
      -0.001
      -0.005
      -0.009
      -0.009
      -0.001
       0.008
       0.014
       0.012
       0.003
      -0.009
      -0.019
      -0.021
      -0.014
      -0.004
       0.004
       0.007
       0.006
       0.004
       0.001
       0.003
       0.010
       0.019
       0.026
       0.026
       0.021
       0.016
       0.014
       0.013
       0.014
       0.016
       0.015
       0.011
       0.002
      -0.006
      -0.010
      -0.008
      -0.005
      -0.001
       0.000
      -0.003
      -0.008
      -0.013
      -0.015
      -0.012
      -0.006
       0.002
       0.012
       0.021
       0.024
       0.017
       0.006
      -0.003
      -0.006
      -0.007
      -0.009
      -0.011
      -0.010
      -0.007
      -0.005
      -0.006
      -0.008
      -0.008
      -0.007
      -0.003
       0.004
       0.008
       0.008
       0.005
       0.005
       0.009
       0.013
       0.008
      -0.005
      -0.021
      -0.033
      -0.036
      -0.028
      -0.012
       0.003
       0.010
       0.008
       0.003
       0.001
       0.000
      -0.004
      -0.008
      -0.010
      -0.010
      -0.011
      -0.014
      -0.016
      -0.017
      -0.017
      -0.016
      -0.012
      -0.006
       0.002
       0.006
       0.006
       0.005
       0.005
       0.008
       0.012
       0.016
       0.017
       0.013
       0.006
       0.001
      -0.001
      -0.004
      -0.010
      -0.017
      -0.021
      -0.021
      -0.018
      -0.014
      -0.008
      -0.001
       0.005
       0.005
       0.001
      -0.002
      -0.005
      -0.007
      -0.007
      -0.006
      -0.005
      -0.007
      -0.010
      -0.009
      -0.003
       0.004
       0.005
       0.000
      -0.008
      -0.012
      -0.013
      -0.009
      -0.002
       0.004
       0.004
      -0.003
      -0.013
      -0.022
      -0.029
      -0.034
      -0.034
      -0.030
      -0.023
      -0.019
      -0.018
      -0.016
      -0.012
      -0.005
       0.006
       0.017
       0.025
       0.023
       0.009
      -0.007
      -0.016
      -0.014
      -0.007
      -0.001
       0.000
       0.000
      -0.002
      -0.002
       0.000
       0.005
       0.007
       0.006
       0.002
       0.000
       0.000
      -0.002
      -0.005
      -0.004
       0.001
       0.009
       0.015
       0.017
       0.014
       0.005
      -0.009
      -0.020
      -0.020
      -0.010
       0.004
       0.015
       0.022
       0.023
       0.020
       0.014
       0.005
      -0.002
      -0.009
      -0.017
      -0.024
      -0.024
      -0.020
      -0.014
      -0.010
      -0.008
      -0.006
      -0.005
      -0.006
      -0.009
      -0.012
      -0.016
      -0.023
      -0.027
      -0.025
      -0.017
      -0.007
       0.001
       0.007
       0.009
       0.006
      -0.003
      -0.012
      -0.016
      -0.016
      -0.016
      -0.019
      -0.020
      -0.016
      -0.009
      -0.001
       0.005
       0.007
       0.005
       0.000
      -0.004
      -0.002
       0.004
       0.008
       0.011
       0.014
       0.018
       0.023
       0.029
       0.041
       0.059
       0.078
       0.086
       0.076
       0.046
       0.004
      -0.030
      -0.028
       0.027
       0.120
       0.200
       0.202
       0.083
      -0.146
      -0.417
      -0.630
      -0.702
      -0.608
      -0.385
      -0.102
       0.177
       0.407
       0.553
       0.577
       0.453
       0.195
      -0.117
      -0.347
      -0.369
      -0.153
       0.194
       0.481
       0.555
       0.397
       0.113
      -0.162
      -0.354
      -0.455
      -0.476
      -0.405
      -0.230
       0.014
       0.237
       0.343
       0.294
       0.135
      -0.040
      -0.153
      -0.174
      -0.119
      -0.022
       0.081
       0.157
       0.171
       0.100
      -0.047
      -0.219
      -0.341
      -0.354
      -0.231
       0.004
       0.273
       0.460
       0.466
       0.280
      -0.016
      -0.288
      -0.417
      -0.340
      -0.092
       0.197
       0.355
       0.273
      -0.010
      -0.321
      -0.453
      -0.314
       0.005
       0.284
       0.343
       0.169
      -0.091
      -0.250
      -0.211
      -0.013
       0.204
       0.308
       0.250
       0.083
      -0.091
      -0.185
      -0.172
      -0.083
       0.030
       0.133
       0.212
       0.244
       0.181
       0.004
      -0.221
      -0.363
      -0.317
      -0.098
       0.150
       0.266
       0.195
       0.016
      -0.143
      -0.207
      -0.185
      -0.118
      -0.036
       0.043
       0.099
       0.110
       0.062
      -0.031
      -0.128
      -0.176
      -0.142
      -0.039
       0.072
       0.129
       0.109
       0.043
      -0.022
      -0.062
      -0.077
      -0.073
      -0.047
      -0.007
       0.028
       0.048
       0.072
       0.126
       0.202
       0.247
       0.199
       0.050
      -0.141
      -0.279
      -0.300
      -0.210
      -0.084
      -0.014
      -0.040
      -0.113
      -0.146
      -0.086
       0.047
       0.182
       0.250
       0.224
       0.129
       0.027
      -0.021
      -0.008
       0.008
      -0.038
      -0.142
      -0.229
      -0.215
      -0.078
       0.122
       0.276
       0.289
       0.142
      -0.080
      -0.241
      -0.252
      -0.132
       0.025
       0.140
       0.193
       0.207
       0.191
       0.124
      -0.002
      -0.148
      -0.234
      -0.202
      -0.069
       0.082
       0.162
       0.126
      -0.004
      -0.151
      -0.226
      -0.180
      -0.041
       0.110
       0.192
       0.173
       0.089
       0.012
      -0.009
       0.013
       0.026
       0.001
      -0.044
      -0.075
      -0.073
      -0.050
      -0.037
      -0.064
      -0.123
      -0.157
      -0.099
       0.055
       0.227
       0.304
       0.213
      -0.019
      -0.260
      -0.354
      -0.234
       0.028
       0.267
       0.339
       0.223
       0.030
      -0.091
      -0.070
       0.049
       0.167
       0.205
       0.137
      -0.009
      -0.175
      -0.303
      -0.358
      -0.328
      -0.209
      -0.009
       0.215
       0.357
       0.320
       0.089
      -0.226
      -0.440
      -0.400
      -0.102
       0.292
       0.556
       0.543
       0.272
      -0.101
      -0.363
      -0.372
      -0.147
       0.146
       0.309
       0.246
       0.014
      -0.234
      -0.358
      -0.320
      -0.188
      -0.056
       0.037
       0.107
       0.173
       0.217
       0.214
       0.173
       0.119
       0.064
       0.008
      -0.035
      -0.039
      -0.013
      -0.008
      -0.070
      -0.185
      -0.272
      -0.253
      -0.115
       0.073
       0.211
       0.241
       0.180
       0.094
       0.040
       0.025
       0.013
      -0.023
      -0.074
      -0.100
      -0.079
      -0.029
       0.007
       0.005
      -0.014
      -0.013
       0.025
       0.074
       0.090
       0.042
      -0.060
      -0.167
      -0.227
      -0.222
      -0.165
      -0.079
       0.024
       0.131
       0.211
       0.232
       0.179
       0.070
      -0.057
      -0.147
      -0.142
      -0.017
       0.180
       0.324
       0.280
       0.028
      -0.298
      -0.494
      -0.432
      -0.150
       0.186
       0.384
       0.352
       0.128
      -0.150
      -0.329
      -0.321
      -0.142
       0.110
       0.319
       0.413
       0.375
       0.237
       0.054
      -0.135
      -0.306
      -0.423
      -0.428
      -0.285
      -0.044
       0.172
       0.261
       0.213
       0.102
       0.011
      -0.022
       0.001
       0.040
       0.045
      -0.014
      -0.107
      -0.164
      -0.133
      -0.027
       0.089
       0.146
       0.117
       0.030
      -0.051
      -0.065
       0.002
       0.104
       0.157
       0.097
      -0.051
      -0.193
      -0.239
      -0.174
      -0.056
       0.037
       0.071
       0.070
       0.090
       0.168
       0.275
       0.325
       0.230
      -0.023
      -0.327
      -0.502
      -0.435
      -0.181
       0.081
       0.184
       0.090
      -0.096
      -0.205
      -0.130
       0.098
       0.332
       0.411
       0.278
       0.016
      -0.214
      -0.283
      -0.179
       0.005
       0.151
       0.194
       0.147
       0.067
       0.008
      -0.011
      -0.016
      -0.051
      -0.123
      -0.187
      -0.196
      -0.153
      -0.098
      -0.065
      -0.048
      -0.015
       0.056
       0.157
       0.240
       0.255
       0.190
       0.086
      -0.014
      -0.093
      -0.154
      -0.196
      -0.208
      -0.168
      -0.054
       0.115
       0.264
       0.305
       0.216
       0.055
      -0.092
      -0.183
      -0.221
      -0.220
      -0.179
      -0.101
      -0.006
       0.081
       0.153
       0.210
       0.239
       0.212
       0.124
       0.001
      -0.115
      -0.191
      -0.210
      -0.165
      -0.074
       0.011
       0.033
      -0.007
      -0.043
       0.001
       0.126
       0.246
       0.243
       0.065
      -0.199
      -0.371
      -0.319
      -0.061
       0.239
       0.381
       0.258
      -0.053
      -0.335
      -0.384
      -0.170
       0.144
       0.328
       0.249
      -0.037
      -0.332
      -0.436
      -0.276
       0.047
       0.343
       0.458
       0.361
       0.141
      -0.053
      -0.114
      -0.046
       0.047
       0.063
      -0.012
      -0.107
      -0.137
      -0.064
       0.063
       0.141
       0.085
      -0.092
      -0.271
      -0.313
      -0.159
       0.116
       0.355
       0.420
       0.292
       0.059
      -0.154
      -0.260
      -0.240
      -0.131
      -0.006
       0.068
       0.068
       0.019
      -0.038
      -0.078
      -0.083
      -0.034
       0.070
       0.182
       0.226
       0.149
      -0.020
      -0.178
      -0.228
      -0.160
      -0.070
      -0.072
      -0.189
      -0.321
      -0.337
      -0.194
       0.018
       0.164
       0.183
       0.127
       0.094
       0.146
       0.264
       0.376
       0.406
       0.331
       0.185
       0.025
      -0.100
      -0.167
      -0.190
      -0.214
      -0.271
      -0.336
      -0.327
      -0.183
       0.065
       0.287
       0.348
       0.216
      -0.009
      -0.171
      -0.154
       0.049
       0.332
       0.532
       0.523
       0.299
      -0.020
      -0.264
      -0.331
      -0.257
      -0.165
      -0.140
      -0.155
      -0.136
      -0.063
       0.000
      -0.009
      -0.082
      -0.138
      -0.101
       0.030
       0.174
       0.215
       0.102
      -0.105
      -0.277
      -0.309
      -0.171
       0.095
       0.388
       0.578
       0.573
       0.380
       0.108
      -0.114
      -0.210
      -0.182
      -0.088
      -0.016
      -0.037
      -0.160
      -0.335
      -0.491
      -0.570
      -0.525
      -0.333
      -0.034
       0.266
       0.453
       0.465
       0.306
       0.055
      -0.140
      -0.112
       0.200
       0.656
       0.966
       0.878
       0.358
      -0.367
      -0.941
      -1.099
      -0.839
      -0.396
      -0.055
       0.050
      -0.005
      -0.042
       0.054
       0.248
       0.397
       0.385
       0.218
       0.010
      -0.122
      -0.147
      -0.131
      -0.160
      -0.255
      -0.339
      -0.280
      -0.009
       0.391
       0.717
       0.788
       0.576
       0.203
      -0.170
      -0.418
      -0.474
      -0.333
      -0.066
       0.184
       0.290
       0.220
       0.026
      -0.225
      -0.465
      -0.602
      -0.555
      -0.328
      -0.031
       0.201
       0.295
       0.257
       0.152
       0.076
       0.119
       0.288
       0.474
       0.509
       0.293
      -0.119
      -0.535
      -0.735
      -0.600
      -0.206
       0.209
       0.406
       0.312
       0.058
      -0.147
      -0.175
      -0.055
       0.100
       0.209
       0.258
       0.263
       0.215
       0.099
      -0.072
      -0.248
      -0.364
      -0.374
      -0.257
      -0.031
       0.228
       0.393
       0.348
       0.084
      -0.273
      -0.530
      -0.547
      -0.305
       0.092
       0.467
       0.642
       0.529
       0.184
      -0.219
      -0.482
      -0.497
      -0.294
      -0.013
       0.194
       0.269
       0.261
       0.228
       0.171
       0.062
      -0.071
      -0.147
      -0.117
      -0.017
       0.055
       0.014
      -0.160
      -0.404
      -0.596
      -0.631
      -0.489
      -0.218
       0.113
       0.440
       0.690
       0.780
       0.656
       0.343
      -0.043
      -0.331
      -0.392
      -0.205
       0.109
       0.350
       0.345
       0.077
      -0.283
      -0.487
      -0.402
      -0.111
       0.162
       0.243
       0.133
      -0.035
      -0.139
      -0.167
      -0.185
      -0.223
      -0.229
      -0.123
       0.106
       0.365
       0.508
       0.435
       0.168
      -0.149
      -0.347
      -0.333
      -0.135
       0.142
       0.362
       0.403
       0.208
      -0.159
      -0.507
      -0.618
      -0.406
      -0.005
       0.324
       0.395
       0.223
      -0.034
      -0.227
      -0.297
      -0.256
      -0.123
       0.083
       0.310
       0.465
       0.459
       0.295
       0.074
      -0.083
      -0.144
      -0.169
      -0.233
      -0.350
      -0.454
      -0.444
      -0.252
       0.089
       0.437
       0.607
       0.508
       0.225
      -0.033
      -0.093
       0.041
       0.184
       0.133
      -0.133
      -0.425
      -0.514
      -0.331
      -0.011
       0.230
       0.255
       0.091
      -0.112
      -0.207
      -0.163
      -0.072
      -0.053
      -0.121
      -0.170
      -0.083
       0.141
       0.381
       0.498
       0.430
       0.213
      -0.045
      -0.218
      -0.219
      -0.068
       0.110
       0.186
       0.131
       0.024
      -0.046
      -0.051
      -0.044
      -0.092
      -0.209
      -0.313
      -0.279
      -0.051
       0.286
       0.551
       0.605
       0.430
       0.112
      -0.237
      -0.516
      -0.641
      -0.547
      -0.243
       0.153
       0.445
       0.463
       0.180
      -0.251
      -0.577
      -0.591
      -0.248
       0.295
       0.742
       0.825
       0.490
      -0.041
      -0.422
      -0.452
      -0.202
       0.080
       0.186
       0.091
      -0.089
      -0.232
      -0.292
      -0.276
      -0.200
      -0.096
      -0.014
       0.026
       0.064
       0.146
       0.244
       0.264
       0.148
      -0.039
      -0.159
      -0.117
       0.056
       0.221
       0.242
       0.099
      -0.092
      -0.179
      -0.099
       0.078
       0.214
       0.199
       0.025
      -0.200
      -0.327
      -0.294
      -0.184
      -0.136
      -0.202
      -0.297
      -0.281
      -0.086
       0.219
       0.471
       0.525
       0.352
       0.050
      -0.223
      -0.339
      -0.224
       0.103
       0.503
       0.747
       0.658
       0.242
      -0.292
      -0.667
      -0.703
      -0.417
      -0.021
       0.219
       0.178
      -0.034
      -0.189
      -0.139
       0.070
       0.262
       0.276
       0.087
      -0.179
      -0.348
      -0.335
      -0.194
      -0.053
       0.002
      -0.012
       0.004
       0.127
       0.309
       0.396
       0.282
       0.022
      -0.205
      -0.250
      -0.104
       0.093
       0.152
      -0.024
      -0.348
      -0.586
      -0.538
      -0.201
       0.231
       0.526
       0.567
       0.404
       0.183
       0.020
      -0.057
      -0.086
      -0.105
      -0.105
      -0.048
       0.087
       0.256
       0.368
       0.341
       0.171
      -0.062
      -0.258
      -0.374
      -0.435
      -0.474
      -0.473
      -0.379
      -0.183
       0.043
       0.184
       0.166
       0.027
      -0.116
      -0.161
      -0.079
       0.097
       0.314
       0.504
       0.592
       0.516
       0.279
      -0.041
      -0.317
      -0.435
      -0.352
      -0.138
       0.063
       0.127
       0.033
      -0.121
      -0.197
      -0.127
       0.017
       0.091
       0.023
      -0.100
      -0.123
       0.009
       0.182
       0.225
       0.067
      -0.184
      -0.320
      -0.205
       0.102
       0.384
       0.437
       0.240
      -0.028
      -0.147
      -0.047
       0.137
       0.193
       0.034
      -0.219
      -0.352
      -0.264
      -0.052
       0.092
       0.063
      -0.102
      -0.279
      -0.358
      -0.287
      -0.089
       0.141
       0.285
       0.281
       0.178
       0.087
       0.085
       0.145
       0.167
       0.069
      -0.131
      -0.322
      -0.376
      -0.245
       0.008
       0.244
       0.345
       0.285
       0.125
      -0.050
      -0.178
      -0.229
      -0.195
