Origin Time       11/11/2013 22:10:42
Lat.              28.4 N	
Long.             77.2 E	
Depth (Km)         11.0
Magnitude         2.8
 Region           DELHI                                                            
 Above details taken from IMD 
   
Station Code      DCE
Station Lat.       28.795
Station Long.      77.118
Station Height(m)  208.0
Site Class        C   Vs30 between 200 m/sec to 375 m/sec *  
Record Time       11.11.2013 22:10:24.279
Sampling Rate     200. Hz
 Record Duration   80.195 Sec.
 Direction         Vert. (Up positive)
Max. Acceleration     -1.073 cm/sec**2
     
  * For reference see Site Classification link of website 
     
 Base Line Corrected and Low Pass Filtered (Cut Off at 35 Hz) Time History
 Acceleration data in cm/sec**2
    
[...]
      -0.008
      -0.003
      -0.001
      -0.004
      -0.012
      -0.020
      -0.026
      -0.026
      -0.018
      -0.007
       0.001
       0.002
      -0.003
      -0.008
      -0.011
      -0.008
      -0.002
       0.004
       0.006
       0.003
      -0.004
      -0.011
      -0.011
      -0.005
       0.005
       0.013
       0.016
       0.012
       0.006
       0.000
      -0.001
       0.002
       0.007
       0.011
       0.011
       0.008
       0.003
      -0.002
      -0.006
      -0.011
      -0.013
      -0.013
      -0.008
      -0.002
       0.002
       0.001
      -0.004
      -0.011
      -0.015
      -0.015
      -0.010
      -0.003
       0.002
       0.004
       0.002
      -0.001
      -0.004
      -0.005
      -0.002
       0.002
       0.005
       0.005
       0.002
       0.000
       0.000
       0.003
       0.006
       0.006
       0.003
      -0.002
      -0.007
      -0.008
      -0.005
       0.001
       0.005
       0.006
       0.004
       0.002
       0.001
       0.000
      -0.001
      -0.003
      -0.004
      -0.004
      -0.004
      -0.005
      -0.006
      -0.009
      -0.013
      -0.017
      -0.019
      -0.015
      -0.009
      -0.005
      -0.006
      -0.011
      -0.015
      -0.015
      -0.011
      -0.007
      -0.007
      -0.011
      -0.016
      -0.019
      -0.018
      -0.012
      -0.003
       0.006
       0.012
       0.014
       0.008
      -0.004
      -0.021
      -0.035
      -0.042
      -0.042
      -0.036
      -0.028
      -0.015
       0.004
       0.030
       0.056
       0.070
       0.061
       0.030
      -0.012
      -0.045
      -0.054
      -0.038
      -0.006
       0.021
       0.032
       0.022
      -0.001
      -0.024
      -0.038
      -0.036
      -0.021
      -0.001
       0.013
       0.014
       0.007
       0.001
       0.005
       0.015
       0.024
       0.024
       0.017
       0.006
      -0.005
      -0.013
      -0.017
      -0.019
      -0.026
      -0.043
      -0.067
      -0.081
      -0.066
      -0.018
       0.046
       0.090
       0.088
       0.043
      -0.014
      -0.050
      -0.052
      -0.031
      -0.013
      -0.012
      -0.024
      -0.031
      -0.018
       0.014
       0.042
       0.041
       0.002
      -0.051
      -0.083
      -0.067
      -0.009
       0.054
       0.084
       0.067
       0.024
      -0.010
      -0.008
       0.024
       0.059
       0.066
       0.038
      -0.006
      -0.036
      -0.031
       0.004
       0.050
       0.082
       0.083
       0.052
       0.001
      -0.053
      -0.092
      -0.109
      -0.110
      -0.109
      -0.123
      -0.158
      -0.202
      -0.231
      -0.220
      -0.160
      -0.056
       0.068
       0.180
       0.252
       0.272
       0.244
       0.177
       0.087
      -0.011
      -0.094
      -0.136
      -0.122
      -0.062
       0.012
       0.059
       0.058
       0.015
      -0.043
      -0.088
      -0.104
      -0.092
      -0.057
       0.001
       0.077
       0.160
       0.226
       0.244
       0.199
       0.107
       0.008
      -0.065
      -0.112
      -0.159
      -0.232
      -0.314
      -0.348
      -0.272
      -0.084
       0.136
       0.277
       0.277
       0.167
       0.047
       0.006
       0.056
       0.120
       0.102
      -0.028
      -0.194
      -0.270
      -0.183
       0.016
       0.187
       0.204
       0.058
      -0.139
      -0.241
      -0.185
      -0.025
       0.127
       0.191
       0.152
       0.054
      -0.033
      -0.048
       0.017
       0.108
       0.140
       0.073
      -0.056
      -0.162
      -0.176
      -0.087
       0.054
       0.171
       0.220
       0.204
       0.153
       0.089
       0.015
      -0.065
      -0.138
      -0.187
      -0.204
      -0.185
      -0.132
      -0.059
       0.007
       0.038
       0.032
       0.020
       0.040
       0.093
       0.136
       0.116
       0.029
      -0.064
      -0.095
      -0.043
       0.053
       0.126
       0.125
       0.041
      -0.084
      -0.188
      -0.225
      -0.185
      -0.098
      -0.016
       0.018
       0.011
       0.011
       0.067
       0.192
       0.347
       0.454
       0.432
       0.261
       0.006
      -0.222
      -0.350
      -0.368
      -0.313
      -0.227
      -0.131
      -0.035
       0.047
       0.085
       0.074
       0.046
       0.046
       0.077
       0.105
       0.100
       0.071
       0.037
       0.002
      -0.038
      -0.070
      -0.072
      -0.042
      -0.013
      -0.014
      -0.046
      -0.088
      -0.123
      -0.131
      -0.095
      -0.008
       0.112
       0.220
       0.266
       0.220
       0.107
      -0.013
      -0.079
      -0.065
       0.020
       0.128
       0.191
       0.145
      -0.008
      -0.195
      -0.313
      -0.292
      -0.143
       0.052
       0.190
       0.221
       0.170
       0.087
      -0.001
      -0.078
      -0.120
      -0.112
      -0.065
      -0.017
       0.006
       0.010
       0.015
       0.035
       0.067
       0.105
       0.149
       0.179
       0.151
       0.038
      -0.108
      -0.182
      -0.125
       0.003
       0.067
      -0.012
      -0.185
      -0.310
      -0.279
      -0.105
       0.096
       0.209
       0.203
       0.126
       0.043
      -0.002
       0.004
       0.043
       0.072
       0.049
      -0.026
      -0.095
      -0.077
       0.039
       0.155
       0.138
      -0.048
      -0.281
      -0.390
      -0.298
      -0.073
       0.150
       0.266
       0.250
       0.143
       0.016
      -0.059
      -0.054
       0.010
       0.080
       0.111
       0.085
       0.019
      -0.040
      -0.062
      -0.068
      -0.104
      -0.173
      -0.219
      -0.170
      -0.012
       0.188
       0.306
       0.241
       0.012
      -0.225
      -0.291
      -0.142
       0.099
       0.253
       0.234
       0.088
      -0.074
      -0.160
      -0.142
      -0.043
       0.077
       0.140
       0.092
      -0.048
      -0.177
      -0.186
      -0.055
       0.119
       0.213
       0.174
       0.045
      -0.078
      -0.118
      -0.060
       0.050
       0.149
       0.186
       0.150
       0.069
      -0.002
      -0.026
      -0.007
       0.010
      -0.020
      -0.088
      -0.134
      -0.109
      -0.034
       0.024
       0.031
       0.011
      -0.009
      -0.031
      -0.065
      -0.099
      -0.111
      -0.098
      -0.077
      -0.052
      -0.014
       0.041
       0.083
       0.080
       0.039
       0.020
       0.070
       0.163
       0.210
       0.143
      -0.016
      -0.171
      -0.233
      -0.178
      -0.045
       0.090
       0.166
       0.168
       0.118
       0.047
      -0.023
      -0.077
      -0.106
      -0.109
      -0.087
      -0.035
       0.049
       0.134
       0.172
       0.135
       0.045
      -0.041
      -0.078
      -0.066
      -0.043
      -0.046
      -0.066
      -0.054
       0.013
       0.094
       0.112
       0.042
      -0.058
      -0.095
      -0.029
       0.084
       0.131
       0.040
      -0.137
      -0.265
      -0.240
      -0.071
       0.144
       0.308
       0.359
       0.278
       0.086
      -0.135
      -0.277
      -0.274
      -0.149
       0.018
       0.147
       0.198
       0.163
       0.047
      -0.108
      -0.207
      -0.162
       0.018
       0.210
       0.270
       0.159
      -0.023
      -0.135
      -0.114
      -0.013
       0.068
       0.059
      -0.029
      -0.127
      -0.154
      -0.083
       0.049
       0.170
       0.201
       0.093
      -0.108
      -0.265
      -0.250
      -0.078
       0.096
       0.121
      -0.012
      -0.162
      -0.175
      -0.023
       0.184
       0.302
       0.268
       0.121
      -0.062
      -0.212
      -0.278
      -0.241
      -0.117
       0.044
       0.175
       0.219
       0.160
       0.039
      -0.071
      -0.110
      -0.059
       0.065
       0.205
       0.269
       0.183
      -0.027
      -0.218
      -0.249
      -0.113
       0.060
       0.137
       0.096
       0.013
      -0.022
       0.014
       0.062
       0.040
      -0.074
      -0.199
      -0.226
      -0.119
       0.055
       0.194
       0.229
       0.141
      -0.036
      -0.226
      -0.329
      -0.273
      -0.089
       0.089
       0.125
       0.011
      -0.125
      -0.149
      -0.044
       0.101
       0.190
       0.196
       0.146
       0.082
       0.053
       0.096
       0.196
       0.270
       0.226
       0.038
      -0.217
      -0.398
      -0.389
      -0.185
       0.074
       0.199
       0.103
      -0.115
      -0.265
      -0.225
      -0.017
       0.233
       0.382
       0.338
       0.122
      -0.135
      -0.268
      -0.211
      -0.054
       0.041
       0.000
      -0.101
      -0.119
      -0.008
       0.137
       0.186
       0.105
      -0.016
      -0.045
       0.066
       0.223
       0.251
       0.058
      -0.251
      -0.429
      -0.298
       0.077
       0.415
       0.439
       0.109
      -0.340
      -0.583
      -0.457
      -0.087
       0.241
       0.320
       0.159
      -0.061
      -0.161
      -0.099
       0.038
       0.150
       0.213
       0.264
       0.327
       0.367
       0.303
       0.067
      -0.312
      -0.653
      -0.720
      -0.423
       0.066
       0.435
       0.487
       0.277
       0.018
      -0.123
      -0.137
      -0.113
      -0.108
      -0.108
      -0.080
      -0.028
       0.018
       0.036
       0.036
       0.040
       0.051
       0.042
      -0.018
      -0.119
      -0.200
      -0.189
      -0.052
       0.181
       0.416
       0.512
       0.371
       0.046
      -0.261
      -0.363
      -0.249
      -0.076
      -0.008
      -0.061
      -0.117
      -0.057
       0.122
       0.308
       0.370
       0.258
       0.027
      -0.197
      -0.286
      -0.200
      -0.035
       0.042
      -0.057
      -0.255
      -0.391
      -0.355
      -0.148
       0.132
       0.357
       0.439
       0.371
       0.208
       0.014
      -0.151
      -0.224
      -0.162
       0.010
       0.196
       0.292
       0.263
       0.148
       0.016
      -0.094
      -0.187
      -0.271
      -0.327
      -0.323
      -0.251
      -0.136
      -0.024
       0.048
       0.075
       0.087
       0.118
       0.177
       0.248
       0.293
       0.269
       0.158
       0.006
      -0.093
      -0.074
       0.026
       0.090
       0.030
      -0.126
      -0.257
      -0.266
      -0.163
      -0.049
      -0.041
      -0.173
      -0.358
      -0.435
      -0.288
       0.043
       0.365
       0.475
       0.318
       0.020
      -0.210
      -0.220
      -0.010
       0.282
       0.475
       0.466
       0.280
       0.034
      -0.157
      -0.247
      -0.255
      -0.226
      -0.189
      -0.141
      -0.080
      -0.021
       0.012
       0.008
      -0.006
       0.011
       0.072
       0.142
       0.175
       0.164
       0.150
       0.164
       0.188
       0.171
       0.079
      -0.072
      -0.228
      -0.326
      -0.344
      -0.318
      -0.302
      -0.308
      -0.287
      -0.171
       0.083
       0.433
       0.743
       0.833
       0.606
       0.143
      -0.329
      -0.571
      -0.491
      -0.202
       0.073
       0.176
       0.100
      -0.073
      -0.251
      -0.364
      -0.381
      -0.333
      -0.283
      -0.244
      -0.142
       0.107
       0.466
       0.750
       0.760
       0.467
       0.058
      -0.195
      -0.143
       0.136
       0.391
       0.385
       0.070
      -0.371
      -0.660
      -0.618
      -0.281
       0.138
       0.397
       0.376
       0.150
      -0.090
      -0.212
      -0.238
      -0.268
      -0.326
      -0.320
      -0.168
       0.064
       0.203
       0.142
      -0.034
      -0.126
      -0.014
       0.236
       0.453
       0.525
       0.455
       0.289
       0.058
      -0.194
      -0.377
      -0.409
      -0.303
      -0.184
      -0.173
      -0.249
      -0.257
      -0.083
       0.193
       0.384
       0.396
       0.308
       0.225
       0.142
      -0.015
      -0.235
      -0.379
      -0.304
      -0.045
       0.192
       0.225
       0.073
      -0.077
      -0.089
      -0.017
      -0.014
      -0.149
      -0.329
      -0.397
      -0.263
       0.034
       0.375
       0.647
       0.770
       0.689
       0.384
      -0.076
      -0.519
      -0.761
      -0.720
      -0.451
      -0.092
       0.213
       0.360
       0.312
       0.118
      -0.099
      -0.200
      -0.117
       0.088
       0.247
       0.220
       0.017
      -0.225
      -0.370
      -0.371
      -0.243
      -0.019
       0.226
       0.388
       0.399
       0.272
       0.058
      -0.185
      -0.373
      -0.402
      -0.229
       0.058
       0.294
       0.377
       0.337
       0.289
       0.321
       0.404
       0.406
       0.193
      -0.228
      -0.672
      -0.907
      -0.832
      -0.536
      -0.190
       0.099
       0.321
       0.468
       0.470
       0.272
      -0.039
      -0.246
      -0.186
       0.098
       0.374
       0.410
       0.169
      -0.158
      -0.314
      -0.213
      -0.011
       0.080
       0.021
      -0.039
       0.042
       0.243
       0.385
       0.268
      -0.158
      -0.714
      -1.073
      -0.972
      -0.423
       0.273
       0.728
       0.755
       0.485
       0.224
       0.179
       0.314
       0.419
       0.314
       0.001
      -0.330
      -0.468
      -0.360
      -0.128
       0.066
       0.135
       0.075
      -0.065
      -0.189
      -0.185
      -0.018
       0.213
       0.340
       0.259
       0.000
      -0.306
      -0.508
      -0.499
      -0.275
       0.053
       0.310
       0.358
       0.183
      -0.101
      -0.328
      -0.387
      -0.288
      -0.137
      -0.035
      -0.013
      -0.044
      -0.077
      -0.043
       0.106
       0.330
       0.502
       0.513
       0.380
       0.214
       0.100
       0.032
      -0.025
      -0.068
      -0.063
       0.000
       0.088
       0.139
       0.106
      -0.006
      -0.129
      -0.177
      -0.123
      -0.026
       0.013
      -0.072
      -0.272
      -0.504
      -0.644
      -0.587
      -0.325
       0.037
       0.366
       0.582
       0.662
       0.603
       0.429
       0.219
       0.063
      -0.004
      -0.029
      -0.076
      -0.157
      -0.230
      -0.256
      -0.253
      -0.262
      -0.290
      -0.305
      -0.269
      -0.173
      -0.021
       0.168
       0.346
       0.438
       0.395
       0.260
       0.156
       0.191
       0.355
       0.504
       0.446
       0.110
      -0.349
      -0.629
      -0.541
      -0.178
       0.186
       0.342
       0.277
       0.104
      -0.071
      -0.211
      -0.332
      -0.441
      -0.493
      -0.420
      -0.224
      -0.013
       0.084
       0.060
       0.043
       0.145
       0.323
       0.415
       0.327
       0.141
       0.029
       0.085
       0.241
       0.336
       0.247
      -0.035
      -0.388
      -0.616
      -0.564
      -0.252
       0.108
       0.263
       0.127
      -0.162
      -0.359
      -0.281
       0.071
       0.506
       0.769
       0.732
       0.464
       0.150
      -0.062
      -0.133
      -0.114
      -0.072
      -0.043
      -0.048
      -0.117
      -0.253
      -0.392
      -0.434
      -0.332
      -0.131
       0.060
       0.147
       0.104
      -0.015
      -0.118
      -0.133
      -0.046
       0.098
       0.228
       0.283
       0.255
       0.180
       0.094
       0.006
      -0.090
      -0.177
      -0.212
      -0.164
      -0.052
       0.055
       0.101
       0.101
       0.114
       0.164
       0.199
       0.148
       0.015
      -0.118
      -0.161
      -0.097
       0.019
       0.109
       0.120
       0.057
      -0.026
      -0.070
      -0.065
      -0.043
      -0.029
      -0.015
       0.016
       0.045
       0.022
      -0.074
      -0.194
      -0.253
      -0.203
      -0.068
       0.068
       0.115
       0.044
      -0.087
      -0.165
      -0.120
       0.007
       0.107
       0.110
       0.046
      -0.004
       0.014
       0.089
       0.166
       0.190
       0.152
       0.100
       0.081
       0.085
       0.049
      -0.049
      -0.149
      -0.166
      -0.085
       0.036
       0.123
       0.144
       0.121
       0.104
       0.138
       0.229
       0.315
       0.290
       0.089
      -0.232
      -0.509
      -0.580
      -0.417
      -0.153
       0.025
       0.015
      -0.130
      -0.268
      -0.286
      -0.179
      -0.034
       0.061
       0.095
       0.117
       0.173
       0.257
       0.325
       0.324
       0.225
       0.065
      -0.052
      -0.032
       0.112
       0.254
       0.257
       0.095
      -0.121
      -0.239
      -0.199
      -0.083
      -0.036
      -0.129
      -0.295
      -0.386
      -0.314
      -0.130
       0.039
       0.105
       0.066
      -0.025
      -0.102
      -0.115
      -0.042
       0.104
       0.280
       0.428
       0.500
       0.477
       0.378
       0.230
       0.057
      -0.118
      -0.249
      -0.295
      -0.271
      -0.248
      -0.284
      -0.360
      -0.386
      -0.280
      -0.044
       0.226
       0.397
       0.403
       0.296
       0.187
       0.129
       0.086
       0.012
      -0.076
      -0.125
      -0.122
      -0.100
      -0.078
      -0.024
       0.102
       0.273
       0.392
       0.365
       0.182
      -0.075
      -0.295
      -0.407
      -0.411
      -0.341
      -0.233
      -0.108
       0.011
       0.099
       0.126
       0.075
      -0.030
      -0.117
      -0.102
       0.047
       0.273
       0.457
       0.495
       0.361
       0.113
      -0.150
      -0.333
      -0.374
      -0.272
      -0.092
       0.070
       0.153
       0.148
       0.071
      -0.054
      -0.173
      -0.194
      -0.046
       0.230
       0.471
       0.492
       0.232
      -0.185
      -0.526
      -0.604
      -0.408
      -0.112
       0.068
       0.044
      -0.096
      -0.198
      -0.180
      -0.063
       0.085
       0.212
       0.284
       0.284
       0.225
       0.151
       0.108
       0.116
       0.159
       0.192
       0.165
       0.048
      -0.134
      -0.297
      -0.345
      -0.249
      -0.075
       0.072
       0.120
       0.078
       0.000
      -0.062
      -0.092
      -0.109
      -0.131
      -0.142
      -0.101
       0.006
       0.133
       0.198
       0.146
       0.002
      -0.137
      -0.162
      -0.038
       0.148
       0.251
       0.190
       0.025
      -0.104
      -0.103
       0.001
       0.101
       0.106
       0.014
      -0.097
      -0.140
      -0.081
       0.031
       0.102
       0.063
      -0.061
      -0.163
      -0.145
       0.000
       0.171
       0.228
       0.102
      -0.139
      -0.325
      -0.316
      -0.112
       0.143
       0.271
       0.208
       0.042
      -0.074
      -0.071
      -0.003
       0.025
