Origin Time       11/11/2013 19:11:18
Lat.              28.5 N	
Long.             77.2 E	
Depth (Km)         10.0
Magnitude         3.1
 Region           DELHI                                                            
 Above details taken from IMD 
     
Station Code      DCE
Station Lat.       28.795  N
Station Long.      77.118  E
Station Height(m)  208.0
Site Class        C   Vs30 between 200 m/sec to 375 m/sec *  
Record Time       11.11.2013 19:10:57.994
Sampling Rate     200. Hz
 Record Duration   80.630 Sec.
 Direction         E-W (E positive)
Max. Acceleration     -2.773 cm/sec**2
     
  * For reference see Site Classification link of website 
     
 Base Line Corrected and Low Pass Filtered (Cut Off at 35 Hz) Time History
 Acceleration data in cm/sec**2
    
[...]
       0.002
      -0.001
      -0.003
      -0.003
       0.000
       0.007
       0.015
       0.019
       0.020
       0.018
       0.016
       0.016
       0.017
       0.017
       0.015
       0.009
      -0.002
      -0.013
      -0.018
      -0.013
      -0.003
       0.005
       0.005
      -0.002
      -0.011
      -0.017
      -0.016
      -0.006
       0.010
       0.022
       0.022
       0.011
      -0.004
      -0.013
      -0.014
      -0.008
       0.001
       0.008
       0.010
       0.007
       0.004
       0.003
       0.004
       0.004
       0.003
       0.004
       0.010
       0.016
       0.018
       0.012
       0.000
      -0.009
      -0.010
      -0.004
       0.006
       0.014
       0.018
       0.014
       0.005
       0.000
       0.002
       0.010
       0.018
       0.021
       0.020
       0.016
       0.010
       0.004
      -0.001
      -0.003
      -0.001
       0.001
      -0.002
      -0.009
      -0.014
      -0.011
      -0.002
       0.007
       0.009
       0.007
       0.004
       0.007
       0.015
       0.024
       0.023
       0.011
      -0.004
      -0.010
      -0.002
       0.012
       0.020
       0.022
       0.021
       0.020
       0.015
       0.006
      -0.002
      -0.002
       0.005
       0.011
       0.010
       0.004
      -0.003
      -0.005
      -0.003
      -0.002
      -0.005
      -0.012
      -0.017
      -0.015
      -0.007
       0.001
       0.003
      -0.001
      -0.006
      -0.013
      -0.020
      -0.024
      -0.022
      -0.016
      -0.010
      -0.006
       0.001
       0.011
       0.018
       0.018
       0.013
       0.006
       0.000
      -0.003
      -0.004
       0.000
       0.008
       0.015
       0.015
       0.009
       0.001
      -0.003
      -0.002
       0.001
       0.002
       0.003
       0.007
       0.012
       0.014
       0.008
      -0.003
      -0.012
      -0.014
      -0.010
      -0.006
      -0.003
       0.001
       0.006
       0.011
       0.011
       0.004
      -0.007
      -0.015
      -0.014
      -0.006
       0.000
       0.001
      -0.002
      -0.005
      -0.003
       0.003
       0.011
       0.015
       0.013
       0.006
      -0.002
      -0.008
      -0.011
      -0.011
      -0.010
      -0.009
      -0.009
      -0.009
      -0.007
      -0.004
       0.000
       0.001
      -0.003
      -0.009
      -0.013
      -0.013
      -0.010
      -0.009
      -0.009
      -0.005
       0.003
       0.013
       0.020
       0.018
       0.009
      -0.004
      -0.017
      -0.022
      -0.017
      -0.004
       0.006
       0.005
      -0.005
      -0.014
      -0.017
      -0.014
      -0.007
       0.000
       0.006
       0.010
       0.011
       0.012
       0.011
       0.006
      -0.003
      -0.013
      -0.020
      -0.021
      -0.020
      -0.020
      -0.022
      -0.021
      -0.014
      -0.005
       0.000
       0.002
       0.007
       0.018
       0.032
       0.041
       0.038
       0.027
       0.015
       0.009
       0.008
       0.000
      -0.026
      -0.055
      -0.058
      -0.018
       0.044
       0.082
       0.068
       0.014
      -0.049
      -0.100
      -0.134
      -0.137
      -0.081
       0.031
       0.133
       0.137
       0.034
      -0.084
      -0.102
      -0.006
       0.097
       0.098
       0.013
      -0.047
      -0.009
       0.072
       0.084
      -0.012
      -0.143
      -0.200
      -0.140
       0.001
       0.145
       0.211
       0.157
       0.020
      -0.094
      -0.104
      -0.024
       0.061
       0.091
       0.070
       0.027
      -0.040
      -0.128
      -0.193
      -0.165
      -0.029
       0.139
       0.229
       0.190
       0.066
      -0.047
      -0.089
      -0.070
      -0.036
      -0.031
      -0.058
      -0.087
      -0.071
       0.016
       0.131
       0.175
       0.087
      -0.070
      -0.155
      -0.106
      -0.006
       0.020
      -0.036
      -0.066
       0.003
       0.099
       0.088
      -0.052
      -0.188
      -0.182
      -0.062
       0.022
      -0.022
      -0.120
      -0.131
      -0.027
       0.077
       0.072
      -0.004
      -0.003
       0.163
       0.430
       0.648
       0.703
       0.571
       0.283
      -0.087
      -0.427
      -0.614
      -0.598
      -0.437
      -0.224
      -0.015
       0.158
       0.229
       0.134
      -0.098
      -0.337
      -0.442
      -0.365
      -0.153
       0.100
       0.318
       0.453
       0.480
       0.377
       0.153
      -0.122
      -0.332
      -0.382
      -0.258
      -0.027
       0.221
       0.402
       0.450
       0.344
       0.128
      -0.100
      -0.246
      -0.282
      -0.254
      -0.221
      -0.197
      -0.148
      -0.045
       0.097
       0.247
       0.373
       0.445
       0.407
       0.210
      -0.116
      -0.440
      -0.609
      -0.559
      -0.350
      -0.116
       0.029
       0.060
       0.056
       0.120
       0.241
       0.282
       0.131
      -0.119
      -0.235
      -0.094
       0.169
       0.303
       0.198
      -0.028
      -0.183
      -0.177
      -0.073
       0.018
       0.045
       0.025
      -0.012
      -0.053
      -0.080
      -0.065
      -0.015
       0.019
      -0.002
      -0.034
       0.021
       0.207
       0.435
       0.516
       0.319
      -0.098
      -0.506
      -0.691
      -0.617
      -0.409
      -0.186
       0.022
       0.223
       0.390
       0.480
       0.485
       0.432
       0.340
       0.208
       0.047
      -0.104
      -0.199
      -0.232
      -0.243
      -0.281
      -0.331
      -0.297
      -0.094
       0.241
       0.527
       0.584
       0.396
       0.136
      -0.010
      -0.029
      -0.085
      -0.319
      -0.652
      -0.821
      -0.614
      -0.077
       0.497
       0.775
       0.619
       0.170
      -0.274
      -0.487
      -0.450
      -0.296
      -0.143
      -0.005
       0.165
       0.378
       0.564
       0.620
       0.490
       0.209
      -0.116
      -0.366
      -0.461
      -0.377
      -0.162
       0.061
       0.146
       0.048
      -0.104
      -0.115
       0.069
       0.277
       0.265
      -0.026
      -0.395
      -0.561
      -0.423
      -0.126
       0.094
       0.129
       0.059
       0.033
       0.113
       0.227
       0.251
       0.134
      -0.047
      -0.154
      -0.115
       0.022
       0.158
       0.242
       0.276
       0.250
       0.144
      -0.009
      -0.108
      -0.085
       0.015
       0.080
       0.055
      -0.015
      -0.048
      -0.029
      -0.023
      -0.105
      -0.286
      -0.490
      -0.591
      -0.500
      -0.238
       0.076
       0.312
       0.429
       0.465
       0.460
       0.392
       0.221
      -0.017
      -0.192
      -0.186
      -0.033
       0.079
      -0.016
      -0.284
      -0.509
      -0.508
      -0.298
      -0.061
       0.058
       0.089
       0.165
       0.340
       0.506
       0.501
       0.289
       0.008
      -0.161
      -0.163
      -0.102
      -0.081
      -0.079
       0.002
       0.162
       0.271
       0.215
       0.042
      -0.097
      -0.111
      -0.049
      -0.019
      -0.086
      -0.230
      -0.376
      -0.429
      -0.314
      -0.029
       0.324
       0.569
       0.565
       0.305
      -0.069
      -0.349
      -0.389
      -0.197
       0.076
       0.238
       0.195
       0.009
      -0.170
      -0.218
      -0.110
       0.073
       0.209
       0.223
       0.140
       0.050
       0.028
       0.073
       0.106
       0.040
      -0.126
      -0.265
      -0.212
       0.061
       0.370
       0.460
       0.244
      -0.093
      -0.276
      -0.220
      -0.101
      -0.123
      -0.270
      -0.347
      -0.235
      -0.038
       0.071
       0.073
       0.090
       0.178
       0.222
       0.095
      -0.149
      -0.310
      -0.257
      -0.060
       0.113
       0.173
       0.138
       0.049
      -0.069
      -0.140
      -0.057
       0.191
       0.443
       0.489
       0.281
      -0.037
      -0.288
      -0.394
      -0.368
      -0.230
      -0.002
       0.229
       0.335
       0.263
       0.110
       0.023
       0.031
       0.008
      -0.174
      -0.465
      -0.648
      -0.539
      -0.163
       0.260
       0.504
       0.498
       0.338
       0.178
       0.111
       0.109
       0.053
      -0.131
      -0.364
      -0.457
      -0.310
      -0.041
       0.117
       0.064
      -0.079
      -0.110
       0.044
       0.269
       0.380
       0.284
       0.060
      -0.112
      -0.133
      -0.093
      -0.167
      -0.379
      -0.519
      -0.338
       0.150
       0.612
       0.691
       0.338
      -0.138
      -0.369
      -0.246
       0.039
       0.213
       0.165
      -0.026
      -0.197
      -0.228
      -0.084
       0.164
       0.345
       0.277
      -0.049
      -0.402
      -0.492
      -0.264
       0.046
       0.179
       0.128
       0.085
       0.171
       0.294
       0.268
       0.025
      -0.317
      -0.552
      -0.534
      -0.264
       0.109
       0.387
       0.445
       0.305
       0.102
      -0.039
      -0.107
      -0.185
      -0.307
      -0.377
      -0.259
       0.035
       0.311
       0.378
       0.246
       0.090
       0.028
       0.009
      -0.067
      -0.153
      -0.091
       0.163
       0.424
       0.446
       0.189
      -0.156
      -0.376
      -0.414
      -0.358
      -0.308
      -0.309
      -0.351
      -0.376
      -0.306
      -0.113
       0.131
       0.302
       0.354
       0.359
       0.391
       0.428
       0.393
       0.272
       0.124
      -0.013
      -0.144
      -0.228
      -0.173
       0.040
       0.265
       0.312
       0.145
      -0.076
      -0.175
      -0.128
      -0.053
      -0.070
      -0.185
      -0.291
      -0.282
      -0.165
      -0.067
      -0.102
      -0.216
      -0.240
      -0.089
       0.136
       0.277
       0.303
       0.303
       0.314
       0.250
       0.019
      -0.314
      -0.538
      -0.489
      -0.227
       0.022
       0.098
       0.073
       0.155
       0.412
       0.661
       0.635
       0.272
      -0.190
      -0.411
      -0.271
       0.005
       0.069
      -0.181
      -0.481
      -0.480
      -0.130
       0.245
       0.284
      -0.049
      -0.435
      -0.522
      -0.250
       0.127
       0.313
       0.246
       0.102
       0.082
       0.211
       0.353
       0.366
       0.229
       0.034
      -0.104
      -0.134
      -0.099
      -0.087
      -0.151
      -0.250
      -0.273
      -0.132
       0.139
       0.371
       0.400
       0.220
      -0.023
      -0.198
      -0.299
      -0.363
      -0.328
      -0.089
       0.313
       0.636
       0.625
       0.269
      -0.174
      -0.428
      -0.458
      -0.432
      -0.467
      -0.469
      -0.282
       0.074
       0.397
       0.522
       0.466
       0.357
       0.275
       0.205
       0.104
      -0.037
      -0.195
      -0.335
      -0.419
      -0.402
      -0.247
       0.026
       0.317
       0.489
       0.463
       0.263
      -0.034
      -0.342
      -0.574
      -0.620
      -0.413
      -0.044
       0.245
       0.250
       0.026
      -0.156
      -0.105
       0.083
       0.154
       0.006
      -0.205
      -0.246
      -0.037
       0.282
       0.468
       0.375
       0.078
      -0.168
      -0.154
       0.070
       0.235
       0.158
      -0.036
      -0.060
       0.187
       0.477
       0.493
       0.142
      -0.368
      -0.730
      -0.777
      -0.570
      -0.296
      -0.100
      -0.015
      -0.016
      -0.077
      -0.161
      -0.197
      -0.124
       0.044
       0.215
       0.302
       0.325
       0.404
       0.623
       0.879
       0.909
       0.542
      -0.092
      -0.652
      -0.889
      -0.846
      -0.745
      -0.723
      -0.708
      -0.510
      -0.017
       0.673
       1.281
       1.509
       1.251
       0.654
       0.011
      -0.418
      -0.532
      -0.424
      -0.320
      -0.410
      -0.680
      -0.913
      -0.882
      -0.541
      -0.062
       0.309
       0.443
       0.398
       0.340
       0.381
       0.483
       0.501
       0.325
      -0.019
      -0.374
      -0.588
      -0.647
      -0.671
      -0.754
      -0.812
      -0.641
      -0.134
       0.552
       1.092
       1.246
       1.008
       0.556
       0.099
      -0.214
      -0.301
      -0.149
       0.171
       0.506
       0.697
       0.669
       0.461
       0.160
      -0.183
      -0.577
      -0.981
      -1.199
      -0.972
      -0.260
       0.580
       1.000
       0.723
       0.002
      -0.605
      -0.730
      -0.453
      -0.137
      -0.037
      -0.079
       0.027
       0.492
       1.183
       1.646
       1.431
       0.504
      -0.641
      -1.352
      -1.360
      -0.958
      -0.615
      -0.474
      -0.284
       0.193
       0.820
       1.188
       1.039
       0.497
      -0.103
      -0.520
      -0.704
      -0.690
      -0.533
      -0.331
      -0.219
      -0.256
      -0.340
      -0.274
       0.071
       0.630
       1.145
       1.293
       0.880
       0.019
      -0.869
      -1.287
      -0.994
      -0.154
       0.816
       1.527
       1.758
       1.404
       0.449
      -0.916
      -2.200
      -2.773
      -2.276
      -0.938
       0.541
       1.462
       1.557
       1.050
       0.370
      -0.160
      -0.429
      -0.460
      -0.299
       0.007
       0.363
       0.609
       0.623
       0.464
       0.324
       0.262
       0.048
      -0.596
      -1.561
      -2.260
      -2.097
      -1.016
       0.424
       1.514
       1.903
       1.703
       1.209
       0.600
      -0.073
      -0.708
      -1.062
      -0.902
      -0.223
       0.674
       1.324
       1.350
       0.708
      -0.244
      -0.972
      -1.153
      -0.880
      -0.483
      -0.195
      -0.043
       0.000
      -0.106
      -0.366
      -0.595
      -0.522
      -0.081
       0.449
       0.681
       0.512
       0.223
       0.177
       0.439
       0.730
       0.747
       0.464
       0.126
      -0.032
       0.002
       0.063
       0.019
      -0.090
      -0.138
      -0.092
      -0.102
      -0.341
      -0.800
      -1.255
      -1.448
      -1.282
      -0.834
      -0.253
       0.333
       0.834
       1.173
       1.297
       1.199
       0.956
       0.699
       0.527
       0.414
       0.219
      -0.163
      -0.639
      -0.944
      -0.885
      -0.561
      -0.297
      -0.312
      -0.474
      -0.446
      -0.102
       0.275
       0.281
      -0.142
      -0.566
      -0.466
       0.235
       1.048
       1.346
       0.941
       0.206
      -0.340
      -0.521
      -0.550
      -0.653
      -0.748
      -0.549
       0.028
       0.669
       0.920
       0.623
       0.034
      -0.482
      -0.792
      -0.984
      -1.073
      -0.867
      -0.185
       0.819
       1.652
       1.849
       1.359
       0.538
      -0.177
      -0.569
      -0.675
      -0.632
      -0.538
      -0.386
      -0.114
       0.278
       0.635
       0.705
       0.338
      -0.349
      -1.019
      -1.331
      -1.154
      -0.612
       0.047
       0.601
       0.923
       0.973
       0.795
       0.517
       0.286
       0.160
       0.079
      -0.027
      -0.111
      -0.043
       0.202
       0.434
       0.367
      -0.086
      -0.666
      -0.976
      -0.834
      -0.422
      -0.058
       0.107
       0.157
       0.228
       0.330
       0.354
       0.217
      -0.037
      -0.269
      -0.371
      -0.315
      -0.109
       0.233
       0.638
       0.912
       0.828
       0.316
      -0.421
      -1.016
      -1.189
      -0.930
      -0.461
      -0.038
       0.231
       0.386
       0.493
       0.550
       0.504
       0.310
      -0.003
      -0.307
      -0.412
      -0.202
       0.232
       0.616
       0.696
       0.438
       0.042
      -0.226
      -0.239
      -0.084
       0.037
      -0.006
      -0.157
      -0.248
      -0.193
      -0.081
      -0.073
      -0.233
      -0.483
      -0.676
      -0.690
      -0.474
      -0.068
       0.387
       0.688
       0.689
       0.395
      -0.036
      -0.395
      -0.527
      -0.387
      -0.056
       0.278
       0.438
       0.393
       0.272
       0.214
       0.201
       0.123
      -0.030
      -0.101
       0.039
       0.281
       0.352
       0.086
      -0.390
      -0.768
      -0.811
      -0.519
      -0.085
       0.274
       0.466
       0.546
       0.602
       0.628
       0.529
       0.261
      -0.065
      -0.253
      -0.207
      -0.016
       0.151
       0.210
       0.201
       0.185
       0.127
      -0.057
      -0.382
      -0.714
      -0.862
      -0.744
      -0.462
      -0.217
      -0.143
      -0.231
      -0.364
      -0.395
      -0.220
       0.126
       0.454
       0.552
       0.399
       0.215
       0.252
       0.521
       0.757
       0.677
       0.278
      -0.152
      -0.314
      -0.171
       0.066
       0.184
       0.153
       0.068
       0.002
      -0.048
      -0.112
      -0.195
      -0.299
      -0.432
      -0.560
      -0.594
      -0.468
      -0.251
      -0.108
      -0.111
      -0.134
       0.016
       0.382
       0.801
       1.061
       1.043
       0.739
       0.204
      -0.433
      -0.963
      -1.185
      -1.054
      -0.710
      -0.360
      -0.112
       0.063
       0.233
       0.395
       0.486
       0.467
       0.370
       0.268
       0.205
       0.173
       0.133
       0.064
      -0.001
       0.002
       0.107
       0.274
       0.395
       0.371
       0.186
      -0.093
      -0.383
      -0.621
      -0.764
      -0.766
      -0.593
      -0.273
       0.094
       0.380
       0.503
       0.459
       0.306
       0.122
      -0.041
      -0.187
      -0.344
      -0.501
      -0.579
      -0.479
      -0.173
       0.246
       0.601
       0.734
       0.612
       0.352
       0.134
       0.073
       0.150
       0.237
       0.225
       0.126
       0.071
       0.155
       0.285
       0.224
      -0.151
      -0.661
      -0.939
      -0.784
      -0.355
       0.014
       0.156
       0.185
       0.274
       0.405
       0.391
       0.121
      -0.277
      -0.543
      -0.514
      -0.236
       0.121
       0.409
       0.562
       0.544
       0.327
      -0.045
      -0.410
      -0.578
      -0.498
      -0.305
      -0.166
      -0.093
       0.056
       0.376
       0.739
       0.868
       0.591
       0.019
      -0.526
      -0.768
      -0.670
      -0.405
      -0.172
      -0.033
       0.089
       0.281
       0.498
       0.562
       0.347
      -0.033
      -0.286
      -0.231
      -0.006
       0.088
      -0.096
      -0.398
      -0.544
      -0.428
      -0.179
       0.006
       0.057
       0.027
      -0.027
      -0.105
      -0.191
      -0.203
      -0.056
       0.225
       0.503
       0.645
       0.617
       0.473
       0.289
       0.122
       0.010
      -0.033
