Origin Time       05/3/2012 07:41:05	
Lat.              28.7 N	
Long.             76.6 E	
Depth (Km)         14.0
Magnitude         4.9
 Region           Haryana-Delhi-Border-Region                                      
 Above details taken from IMD 
     
Station Code      DCE
Station Lat.       28.795  N
Station Long.      77.118  E
Station Height(m)  208.0
Site Class        C   Vs30 between 200 m/sec to 375 m/sec *  
Record Time       05.03.2012 07:40:50.884
Sampling Rate     200. Hz
 Record Duration  110.460 Sec.
 Direction         E-W (E positive)
Max. Acceleration     -7.615 cm/sec**2
     
  * For reference see Site Classification link of website 
     
 Base Line Corrected and Low Pass Filtered (Cut Off at 35 Hz) Time History
 Acceleration data in cm/sec**2
    
[...]
      -0.114
       0.041
       0.016
      -0.122
      -0.240
      -0.221
      -0.038
       0.234
       0.477
       0.605
       0.605
       0.513
       0.363
       0.175
      -0.003
      -0.073
       0.066
       0.408
       0.807
       1.073
       1.124
       1.027
       0.903
       0.812
       0.731
       0.629
       0.514
       0.386
       0.193
      -0.121
      -0.515
      -0.812
      -0.827
      -0.536
      -0.103
       0.266
       0.494
       0.630
       0.726
       0.750
       0.650
       0.470
       0.322
       0.265
       0.218
       0.048
      -0.273
      -0.605
      -0.760
      -0.666
      -0.429
      -0.221
      -0.122
      -0.064
       0.063
       0.270
       0.450
       0.499
       0.431
       0.373
       0.428
       0.557
       0.597
       0.399
      -0.025
      -0.499
      -0.808
      -0.846
      -0.646
      -0.314
       0.046
       0.373
       0.639
       0.821
       0.865
       0.702
       0.332
      -0.114
      -0.432
      -0.511
      -0.427
      -0.366
      -0.448
      -0.643
      -0.822
      -0.877
      -0.774
      -0.541
      -0.225
       0.115
       0.401
       0.537
       0.450
       0.149
      -0.254
      -0.588
      -0.701
      -0.538
      -0.154
       0.323
       0.757
       1.046
       1.126
       0.980
       0.675
       0.365
       0.216
       0.279
       0.444
       0.531
       0.418
       0.119
      -0.241
      -0.504
      -0.560
      -0.423
      -0.221
      -0.097
      -0.055
       0.049
       0.340
       0.739
       0.980
       0.862
       0.442
      -0.029
      -0.354
      -0.540
      -0.691
      -0.822
      -0.820
      -0.603
      -0.250
       0.039
       0.127
       0.059
      -0.006
       0.036
       0.136
       0.170
       0.069
      -0.130
      -0.346
      -0.543
      -0.747
      -0.971
      -1.141
      -1.113
      -0.778
      -0.174
       0.503
       1.004
       1.176
       1.011
       0.614
       0.124
      -0.322
      -0.623
      -0.733
      -0.670
      -0.502
      -0.303
      -0.126
       0.007
       0.094
       0.128
       0.088
      -0.035
      -0.206
      -0.352
      -0.412
      -0.393
      -0.355
      -0.353
      -0.373
      -0.356
      -0.256
      -0.089
       0.070
       0.145
       0.122
       0.068
       0.066
       0.126
       0.166
       0.098
      -0.058
      -0.167
      -0.101
       0.140
       0.399
       0.471
       0.254
      -0.171
      -0.576
      -0.727
      -0.520
      -0.032
       0.557
       1.086
       1.472
       1.690
       1.709
       1.471
       0.947
       0.200
      -0.594
      -1.222
      -1.526
      -1.456
      -1.067
      -0.469
       0.188
       0.737
       1.037
       1.048
       0.851
       0.578
       0.315
       0.080
      -0.112
      -0.197
      -0.113
       0.106
       0.311
       0.355
       0.223
       0.027
      -0.114
      -0.201
      -0.322
      -0.531
      -0.769
      -0.904
      -0.847
      -0.623
      -0.340
      -0.106
       0.049
       0.166
       0.295
       0.417
       0.450
       0.310
      -0.006
      -0.410
      -0.778
      -1.015
      -1.081
      -0.986
      -0.769
      -0.480
      -0.177
       0.100
       0.334
       0.530
       0.683
       0.782
       0.813
       0.757
       0.588
       0.311
       0.019
      -0.136
      -0.074
       0.109
       0.209
       0.116
      -0.073
      -0.159
      -0.056
       0.123
       0.215
       0.199
       0.201
       0.317
       0.467
       0.484
       0.328
       0.180
       0.293
       0.746
       1.330
       1.668
       1.478
       0.788
      -0.042
      -0.560
      -0.541
      -0.143
       0.265
       0.445
       0.457
       0.516
       0.700
       0.828
       0.635
       0.039
      -0.747
      -1.379
      -1.631
      -1.514
      -1.191
      -0.798
      -0.364
       0.134
       0.651
       1.043
       1.170
       1.020
       0.731
       0.451
       0.195
      -0.144
      -0.635
      -1.168
      -1.495
      -1.418
      -0.954
      -0.329
       0.188
       0.458
       0.533
       0.556
       0.617
       0.692
       0.711
       0.659
       0.603
       0.612
       0.673
       0.697
       0.600
       0.376
       0.087
      -0.194
      -0.419
      -0.548
      -0.550
      -0.438
      -0.306
      -0.278
      -0.415
      -0.651
      -0.847
      -0.902
      -0.821
      -0.678
      -0.534
      -0.389
      -0.221
      -0.043
       0.090
       0.143
       0.175
       0.292
       0.521
       0.730
       0.705
       0.333
      -0.276
      -0.857
      -1.168
      -1.141
      -0.886
      -0.576
      -0.332
      -0.195
      -0.161
      -0.218
      -0.334
      -0.452
      -0.524
      -0.537
      -0.506
      -0.453
      -0.396
      -0.369
      -0.418
      -0.572
      -0.808
      -1.056
      -1.238
      -1.319
      -1.307
      -1.220
      -1.042
      -0.745
      -0.353
       0.033
       0.294
       0.370
       0.274
       0.048
      -0.263
      -0.595
      -0.858
      -0.967
      -0.889
      -0.665
      -0.385
      -0.126
       0.074
       0.231
       0.390
       0.591
       0.835
       1.082
       1.275
       1.376
       1.369
       1.253
       1.063
       0.896
       0.867
       1.006
       1.220
       1.373
       1.389
       1.264
       0.986
       0.521
      -0.099
      -0.700
      -1.035
      -0.951
      -0.499
       0.117
       0.666
       0.986
       1.017
       0.809
       0.505
       0.264
       0.168
       0.205
       0.325
       0.492
       0.664
       0.754
       0.671
       0.417
       0.128
      -0.033
      -0.020
       0.060
       0.066
      -0.040
      -0.167
      -0.178
       0.013
       0.410
       0.947
       1.498
       1.904
       2.017
       1.753
       1.126
       0.257
      -0.626
      -1.247
      -1.414
      -1.159
      -0.759
      -0.558
      -0.717
      -1.110
      -1.450
      -1.538
      -1.382
      -1.096
      -0.739
      -0.281
       0.252
       0.697
       0.857
       0.689
       0.344
       0.022
      -0.159
      -0.185
      -0.084
       0.091
       0.254
       0.321
       0.272
       0.158
       0.032
      -0.104
      -0.285
      -0.501
      -0.673
      -0.718
      -0.635
      -0.523
      -0.485
      -0.528
      -0.553
      -0.455
      -0.231
       0.009
       0.137
       0.119
       0.040
       0.016
       0.061
       0.046
      -0.172
      -0.583
      -0.982
      -1.122
      -0.907
      -0.447
       0.068
       0.521
       0.906
       1.223
       1.394
       1.306
       0.937
       0.424
      -0.020
      -0.264
      -0.332
      -0.330
      -0.311
      -0.228
      -0.017
       0.284
       0.516
       0.492
       0.133
      -0.472
      -1.129
      -1.630
      -1.848
      -1.765
      -1.480
      -1.155
      -0.926
      -0.819
      -0.739
      -0.558
      -0.239
       0.123
       0.370
       0.416
       0.325
       0.255
       0.327
       0.523
       0.716
       0.780
       0.680
       0.490
       0.343
       0.367
       0.639
       1.147
       1.755
       2.217
       2.284
       1.859
       1.085
       0.278
      -0.250
      -0.350
      -0.079
       0.367
       0.774
       1.003
       1.003
       0.754
       0.250
      -0.425
      -1.030
      -1.259
      -0.977
      -0.375
       0.169
       0.396
       0.333
       0.167
       0.020
      -0.128
      -0.323
      -0.516
      -0.584
      -0.453
      -0.158
       0.191
       0.490
       0.684
       0.739
       0.606
       0.243
      -0.307
      -0.881
      -1.267
      -1.346
      -1.182
      -0.944
      -0.728
      -0.473
      -0.071
       0.443
       0.851
       0.954
       0.785
       0.590
       0.562
       0.655
       0.666
       0.473
       0.157
      -0.116
      -0.270
      -0.375
      -0.539
      -0.786
      -1.022
      -1.111
      -0.986
      -0.714
      -0.446
      -0.292
      -0.209
      -0.037
       0.316
       0.738
       0.969
       0.838
       0.423
       0.001
      -0.175
      -0.064
       0.147
       0.197
      -0.044
      -0.481
      -0.888
      -1.122
      -1.234
      -1.361
      -1.515
      -1.500
      -1.086
      -0.278
       0.609
       1.176
       1.271
       1.094
       0.960
       0.991
       1.052
       0.978
       0.788
       0.641
       0.622
       0.649
       0.601
       0.473
       0.374
       0.382
       0.451
       0.472
       0.418
       0.386
       0.476
       0.642
       0.683
       0.430
      -0.082
      -0.639
      -1.052
      -1.312
      -1.552
      -1.858
      -2.133
      -2.167
      -1.822
      -1.171
      -0.458
       0.066
       0.297
       0.313
       0.286
       0.357
       0.532
       0.673
       0.592
       0.208
      -0.352
      -0.817
      -0.957
      -0.731
      -0.295
       0.124
       0.360
       0.374
       0.241
       0.082
      -0.009
      -0.010
       0.056
       0.175
       0.378
       0.692
       1.048
       1.264
       1.153
       0.711
       0.171
      -0.160
      -0.166
      -0.017
       0.025
      -0.100
      -0.194
      -0.041
       0.312
       0.564
       0.420
      -0.150
      -0.893
      -1.457
      -1.611
      -1.344
      -0.809
      -0.185
       0.425
       0.981
       1.424
       1.649
       1.615
       1.456
       1.414
       1.620
       1.935
       2.046
       1.735
       1.071
       0.357
      -0.123
      -0.314
      -0.395
      -0.606
      -1.043
      -1.575
      -1.915
      -1.811
      -1.240
      -0.443
       0.271
       0.750
       1.044
       1.231
       1.266
       1.071
       0.721
       0.456
       0.452
       0.616
       0.657
       0.359
      -0.218
      -0.785
      -1.025
      -0.798
      -0.225
       0.386
       0.708
       0.603
       0.188
      -0.273
      -0.594
      -0.800
      -1.034
      -1.331
      -1.510
      -1.338
      -0.785
      -0.090
       0.456
       0.763
       0.953
       1.130
       1.209
       1.007
       0.461
      -0.272
      -0.936
      -1.346
      -1.452
      -1.283
      -0.902
      -0.423
      -0.028
       0.108
      -0.079
      -0.499
      -0.986
      -1.404
      -1.692
      -1.810
      -1.677
      -1.183
      -0.297
       0.802
       1.744
       2.204
       2.152
       1.866
       1.645
       1.556
       1.476
       1.325
       1.178
       1.127
       1.099
       0.876
       0.331
      -0.384
      -0.909
      -0.990
      -0.738
      -0.545
      -0.721
      -1.193
      -1.597
      -1.625
      -1.285
      -0.793
      -0.304
       0.195
       0.735
       1.208
       1.426
       1.313
       0.995
       0.663
       0.404
       0.188
      -0.011
      -0.129
      -0.109
      -0.018
      -0.018
      -0.176
      -0.354
      -0.324
       0.001
       0.465
       0.801
       0.864
       0.746
       0.684
       0.836
       1.124
       1.272
       1.051
       0.515
      -0.008
      -0.196
      -0.011
       0.290
       0.434
       0.364
       0.197
      -0.014
      -0.375
      -0.974
      -1.659
      -2.072
      -1.965
      -1.446
      -0.900
      -0.672
      -0.791
      -0.984
      -0.920
      -0.476
       0.217
       0.943
       1.577
       2.065
       2.301
       2.096
       1.348
       0.218
      -0.914
      -1.681
      -1.932
      -1.743
      -1.298
      -0.781
      -0.356
      -0.172
      -0.310
      -0.716
      -1.213
      -1.596
      -1.731
      -1.590
      -1.219
      -0.699
      -0.129
       0.382
       0.721
       0.782
       0.520
       0.002
      -0.584
      -1.035
      -1.255
      -1.279
      -1.174
      -0.935
      -0.534
      -0.047
       0.313
       0.342
       0.030
      -0.405
      -0.682
      -0.677
      -0.461
      -0.161
       0.175
       0.556
       0.938
       1.204
       1.249
       1.060
       0.679
       0.159
      -0.425
      -0.933
      -1.211
      -1.185
      -0.898
      -0.469
      -0.031
       0.295
       0.409
       0.278
      -0.038
      -0.396
      -0.629
      -0.597
      -0.241
       0.380
       1.095
       1.702
       2.062
       2.123
       1.866
       1.300
       0.517
      -0.287
      -0.905
      -1.224
      -1.224
      -0.898
      -0.238
       0.656
       1.509
       1.979
       1.894
       1.384
       0.779
       0.381
       0.338
       0.651
       1.228
       1.866
       2.254
       2.092
       1.313
       0.197
      -0.758
      -1.154
      -0.915
      -0.242
       0.608
       1.499
       2.418
       3.372
       4.304
       5.050
       5.403
       5.237
       4.616
       3.751
       2.810
       1.791
       0.620
      -0.638
      -1.718
      -2.380
      -2.662
      -2.898
      -3.419
      -4.253
      -5.089
      -5.573
      -5.646
      -5.596
      -5.745
      -6.085
      -6.245
      -5.825
      -4.750
      -3.277
      -1.723
      -0.251
       1.083
       2.206
       3.041
       3.621
       4.103
       4.619
       5.125
       5.394
       5.160
       4.285
       2.817
       0.954
      -1.057
      -3.011
      -4.771
      -6.225
      -7.230
      -7.615
      -7.281
      -6.276
      -4.784
      -3.017
      -1.143
       0.693
       2.299
       3.455
       4.018
       4.039
       3.734
       3.326
       2.908
       2.447
       1.899
       1.283
       0.678
       0.194
      -0.047
       0.017
       0.261
       0.340
      -0.092
      -1.042
      -2.028
      -2.369
      -1.721
      -0.408
       0.761
       1.055
       0.309
      -1.004
      -2.152
      -2.647
      -2.516
      -2.161
      -1.978
      -2.045
      -2.155
      -2.098
      -1.897
      -1.747
      -1.736
      -1.652
      -1.085
       0.211
       1.998
       3.585
       4.248
       3.720
       2.353
       0.819
      -0.361
      -1.065
      -1.435
      -1.584
      -1.471
      -1.001
      -0.196
       0.764
       1.627
       2.155
       2.167
       1.596
       0.574
      -0.551
      -1.391
      -1.770
      -1.789
      -1.614
      -1.244
      -0.542
       0.496
       1.586
       2.325
       2.516
       2.312
       2.045
       1.930
       1.940
       1.947
       1.938
       2.079
       2.517
       3.152
       3.643
       3.688
       3.269
       2.587
       1.771
       0.735
      -0.640
      -2.188
      -3.433
      -3.929
      -3.648
      -2.981
      -2.363
      -1.893
      -1.313
      -0.341
       0.989
       2.278
       3.056
       3.140
       2.743
       2.219
       1.722
       1.156
       0.427
      -0.326
      -0.825
      -0.955
      -0.891
      -0.892
      -1.000
      -1.021
      -0.825
      -0.601
      -0.746
      -1.464
      -2.503
      -3.301
      -3.387
      -2.673
      -1.434
      -0.073
       1.109
       2.006
       2.654
       3.103
       3.319
       3.192
       2.676
       1.897
       1.075
       0.285
      -0.674
      -2.025
      -3.609
      -4.804
      -5.019
      -4.290
      -3.328
      -2.897
      -3.130
      -3.440
      -3.090
      -1.867
      -0.229
       1.145
       1.934
       2.354
       2.841
       3.635
       4.629
       5.499
       5.929
       5.793
       5.226
       4.541
       3.977
       3.470
       2.686
       1.357
      -0.415
      -2.165
      -3.416
      -4.022
      -4.199
      -4.229
      -4.168
      -3.883
      -3.349
      -2.830
      -2.691
      -3.011
      -3.433
      -3.442
      -2.769
      -1.565
      -0.210
       0.980
       1.894
       2.570
       3.083
       3.498
       3.870
       4.209
       4.468
       4.559
       4.385
       3.828
       2.776
       1.271
      -0.353
      -1.582
      -2.089
      -1.996
      -1.726
      -1.581
      -1.505
      -1.281
      -0.877
      -0.542
      -0.528
      -0.766
      -0.877
      -0.536
       0.176
       0.820
       0.972
       0.555
      -0.180
      -0.936
      -1.604
      -2.238
      -2.868
      -3.330
      -3.302
      -2.521
      -1.030
       0.746
       2.203
       2.901
       2.767
       2.017
       0.915
      -0.337
      -1.505
      -2.255
      -2.327
      -1.801
      -1.111
      -0.732
      -0.856
      -1.329
      -1.845
      -2.138
      -2.022
      -1.355
      -0.074
       1.675
       3.446
       4.661
       4.979
       4.556
       3.883
       3.344
       2.955
       2.502
       1.869
       1.170
       0.653
       0.536
       0.912
       1.684
       2.515
       2.886
       2.345
       0.812
      -1.310
      -3.363
      -4.831
      -5.521
      -5.462
      -4.704
      -3.307
      -1.477
       0.406
       1.966
       3.019
       3.562
       3.622
       3.221
       2.492
       1.679
       0.940
       0.186
      -0.746
      -1.751
      -2.422
      -2.437
      -1.958
      -1.535
      -1.619
      -2.201
      -2.891
      -3.269
      -3.141
      -2.527
      -1.517
      -0.202
       1.218
       2.334
       2.689
       2.143
       1.067
       0.042
      -0.624
      -1.050
      -1.448
      -1.736
      -1.572
      -0.732
       0.608
       1.991
       3.028
       3.605
       3.768
       3.473
       2.535
       0.867
      -1.231
      -3.117
      -4.216
      -4.448
      -4.252
      -4.191
      -4.494
      -4.894
      -4.887
      -4.135
      -2.709
      -0.973
       0.704
       2.123
       3.204
       3.858
       4.000
       3.668
       3.078
       2.505
       2.114
       1.882
       1.675
       1.387
       1.031
       0.738
       0.684
       0.963
       1.492
       2.027
       2.315
       2.223
       1.769
       1.067
       0.303
      -0.300
      -0.611
      -0.771
      -1.199
      -2.268
      -3.855
      -5.236
      -5.552
      -4.477
      -2.484
      -0.495
       0.709
       0.855
       0.200
      -0.684
      -1.231
      -1.191
      -0.702
      -0.043
       0.671
       1.458
       2.137
       2.219
       1.325
      -0.246
      -1.506
      -1.502
      -0.073
       2.109
       4.167
       5.582
       6.188
       5.877
       4.565
       2.458
       0.174
      -1.603
      -2.607
      -3.122
      -3.599
      -4.186
      -4.601
      -4.430
      -3.507
      -2.042
      -0.466
       0.832
       1.686
       2.190
       2.546
       2.829
       2.911
       2.659
       2.178
       1.784
       1.639
       1.494
       0.880
      -0.369
      -1.822
      -2.727
      -2.582
      -1.475
       0.066
       1.471
       2.382
       2.683
       2.445
       1.870
       1.200
       0.564
      -0.089
      -0.886
      -1.856
      -2.869
      -3.698
      -4.102
      -3.860
      -2.861
      -1.236
       0.576
       1.972
       2.513
       2.164
       1.267
       0.277
      -0.496
      -0.943
      -1.058
      -0.884
      -0.572
      -0.387
      -0.500
      -0.702
      -0.418
