Origin Time       04/04/2011 11:31:40
Lat.              29.6 N	
Long.             80.8 E	
Depth (Km)         10.0
Magnitude         5.7
 Region           NEPAL-INDIA-BORDER-REGION                                        
 Above details taken from IMD 
   
Station Code      DEH
Station Lat.       30.316
Station Long.      78.042
Station Height(m)  662.0
Site Class        C   Vs30 between 200 m/sec to 375 m/sec *  
Record Time       04.04.2011 11:32:27.469
Sampling Rate     200. Hz
 Record Duration   89.035 Sec.
 Direction         Vert. (Up positive)
Max. Acceleration      1.535 cm/sec**2
     
  * For reference see Site Classification link of website 
     
 Base Line Corrected and Low Pass Filtered (Cut Off at 35 Hz) Time History
 Acceleration data in cm/sec**2
    
[...]
      -0.417
      -0.372
      -0.332
      -0.289
      -0.228
      -0.142
      -0.030
       0.098
       0.232
       0.366
       0.493
       0.599
       0.665
       0.676
       0.634
       0.557
       0.466
       0.373
       0.275
       0.162
       0.038
      -0.075
      -0.156
      -0.198
      -0.210
      -0.203
      -0.182
      -0.153
      -0.123
      -0.098
      -0.077
      -0.053
      -0.022
       0.021
       0.068
       0.106
       0.124
       0.116
       0.086
       0.042
      -0.004
      -0.046
      -0.085
      -0.123
      -0.158
      -0.179
      -0.178
      -0.154
      -0.116
      -0.070
      -0.026
       0.010
       0.035
       0.052
       0.061
       0.057
       0.036
      -0.005
      -0.059
      -0.112
      -0.150
      -0.167
      -0.169
      -0.167
      -0.165
      -0.163
      -0.157
      -0.144
      -0.123
      -0.095
      -0.066
      -0.043
      -0.034
      -0.041
      -0.052
      -0.053
      -0.033
       0.008
       0.062
       0.122
       0.184
       0.245
       0.299
       0.337
       0.358
       0.362
       0.352
       0.327
       0.287
       0.244
       0.208
       0.188
       0.181
       0.182
       0.188
       0.198
       0.207
       0.200
       0.158
       0.075
      -0.039
      -0.167
      -0.303
      -0.451
      -0.610
      -0.767
      -0.895
      -0.973
      -0.996
      -0.977
      -0.927
      -0.847
      -0.732
      -0.580
      -0.399
      -0.205
      -0.007
       0.187
       0.370
       0.536
       0.682
       0.806
       0.908
       0.981
       1.021
       1.029
       1.014
       0.987
       0.953
       0.912
       0.861
       0.807
       0.756
       0.711
       0.669
       0.621
       0.562
       0.497
       0.440
       0.401
       0.380
       0.368
       0.349
       0.312
       0.249
       0.158
       0.043
      -0.090
      -0.233
      -0.382
      -0.535
      -0.681
      -0.801
      -0.877
      -0.902
      -0.886
      -0.845
      -0.791
      -0.730
      -0.666
      -0.612
      -0.577
      -0.561
      -0.554
      -0.540
      -0.508
      -0.455
      -0.385
      -0.305
      -0.217
      -0.123
      -0.024
       0.080
       0.187
       0.289
       0.375
       0.442
       0.504
       0.586
       0.706
       0.850
       0.980
       1.058
       1.070
       1.030
       0.954
       0.844
       0.687
       0.480
       0.241
      -0.001
      -0.216
      -0.391
      -0.511
      -0.558
      -0.513
      -0.379
      -0.188
       0.012
       0.185
       0.321
       0.431
       0.519
       0.577
       0.588
       0.543
       0.444
       0.309
       0.166
       0.042
      -0.044
      -0.100
      -0.150
      -0.222
      -0.324
      -0.435
      -0.519
      -0.549
      -0.517
      -0.438
      -0.334
      -0.228
      -0.131
      -0.039
       0.059
       0.160
       0.237
       0.254
       0.198
       0.097
       0.001
      -0.062
      -0.101
      -0.143
      -0.201
      -0.256
      -0.283
      -0.277
      -0.254
      -0.233
      -0.222
      -0.215
      -0.206
      -0.199
      -0.197
      -0.199
      -0.202
      -0.206
      -0.209
      -0.201
      -0.163
      -0.084
       0.028
       0.152
       0.262
       0.351
       0.424
       0.491
       0.550
       0.595
       0.625
       0.641
       0.644
       0.636
       0.616
       0.591
       0.568
       0.550
       0.527
       0.484
       0.416
       0.329
       0.233
       0.133
       0.027
      -0.082
      -0.178
      -0.251
      -0.301
      -0.342
      -0.382
      -0.412
      -0.413
      -0.379
      -0.323
      -0.271
      -0.234
      -0.211
      -0.198
      -0.195
      -0.207
      -0.235
      -0.274
      -0.321
      -0.378
      -0.450
      -0.532
      -0.611
      -0.674
      -0.714
      -0.730
      -0.714
      -0.657
      -0.551
      -0.403
      -0.234
      -0.064
       0.095
       0.235
       0.344
       0.409
       0.425
       0.409
       0.391
       0.389
       0.398
       0.400
       0.373
       0.315
       0.233
       0.142
       0.058
      -0.014
      -0.073
      -0.128
      -0.182
      -0.225
      -0.242
      -0.223
      -0.182
      -0.145
      -0.132
      -0.136
      -0.136
      -0.115
      -0.077
      -0.040
      -0.017
      -0.008
      -0.006
      -0.006
      -0.007
      -0.006
      -0.001
       0.005
       0.002
      -0.016
      -0.040
      -0.057
      -0.062
      -0.068
      -0.088
      -0.123
      -0.159
      -0.184
      -0.203
      -0.226
      -0.253
      -0.268
      -0.255
      -0.217
      -0.182
      -0.184
      -0.234
      -0.314
      -0.396
      -0.462
      -0.506
      -0.526
      -0.521
      -0.486
      -0.426
      -0.344
      -0.249
      -0.148
      -0.051
       0.036
       0.117
       0.201
       0.293
       0.386
       0.463
       0.510
       0.532
       0.544
       0.558
       0.573
       0.575
       0.560
       0.540
       0.530
       0.535
       0.541
       0.532
       0.495
       0.433
       0.356
       0.275
       0.195
       0.124
       0.061
       0.002
      -0.065
      -0.143
      -0.223
      -0.287
      -0.328
      -0.356
      -0.381
      -0.404
      -0.409
      -0.380
      -0.317
      -0.238
      -0.163
      -0.102
      -0.045
       0.025
       0.118
       0.235
       0.372
       0.519
       0.655
       0.755
       0.805
       0.805
       0.770
       0.715
       0.642
       0.553
       0.458
       0.374
       0.316
       0.283
       0.263
       0.248
       0.240
       0.246
       0.272
       0.315
       0.373
       0.441
       0.514
       0.585
       0.642
       0.669
       0.647
       0.567
       0.428
       0.239
       0.018
      -0.211
      -0.422
      -0.597
      -0.729
      -0.819
      -0.867
      -0.875
      -0.851
      -0.809
      -0.757
      -0.697
      -0.629
      -0.548
      -0.450
      -0.330
      -0.188
      -0.034
       0.115
       0.246
       0.356
       0.451
       0.538
       0.617
       0.680
       0.711
       0.701
       0.650
       0.568
       0.464
       0.341
       0.204
       0.064
      -0.058
      -0.148
      -0.211
      -0.270
      -0.338
      -0.409
      -0.468
      -0.510
      -0.549
      -0.594
      -0.639
      -0.663
      -0.647
      -0.596
      -0.526
      -0.454
      -0.391
      -0.343
      -0.318
      -0.317
      -0.336
      -0.359
      -0.367
      -0.347
      -0.290
      -0.203
      -0.104
      -0.015
       0.050
       0.095
       0.143
       0.210
       0.295
       0.371
       0.413
       0.409
       0.374
       0.337
       0.320
       0.324
       0.332
       0.323
       0.297
       0.270
       0.267
       0.289
       0.316
       0.315
       0.273
       0.197
       0.103
      -0.001
      -0.119
      -0.254
      -0.400
      -0.545
      -0.672
      -0.766
      -0.817
      -0.827
      -0.810
      -0.779
      -0.740
      -0.686
      -0.614
      -0.525
      -0.417
      -0.295
      -0.177
      -0.097
      -0.085
      -0.139
      -0.223
      -0.292
      -0.325
      -0.338
      -0.363
      -0.411
      -0.464
      -0.488
      -0.453
      -0.352
      -0.204
      -0.046
       0.090
       0.191
       0.273
       0.360
       0.469
       0.595
       0.711
       0.783
       0.788
       0.737
       0.664
       0.595
       0.524
       0.425
       0.275
       0.079
      -0.137
      -0.337
      -0.489
      -0.572
      -0.578
      -0.524
      -0.445
      -0.378
      -0.339
      -0.310
      -0.261
      -0.175
      -0.064
       0.031
       0.076
       0.060
       0.007
      -0.033
      -0.018
       0.060
       0.167
       0.252
       0.291
       0.294
       0.283
       0.266
       0.227
       0.150
       0.040
      -0.072
      -0.151
      -0.190
      -0.202
      -0.207
      -0.210
      -0.206
      -0.188
      -0.150
      -0.093
      -0.025
       0.048
       0.125
       0.215
       0.318
       0.421
       0.501
       0.543
       0.548
       0.533
       0.513
       0.490
       0.450
       0.374
       0.260
       0.120
      -0.030
      -0.181
      -0.336
      -0.494
      -0.646
      -0.772
      -0.852
      -0.868
      -0.809
      -0.669
      -0.463
      -0.237
      -0.040
       0.105
       0.215
       0.314
       0.404
       0.464
       0.474
       0.432
       0.352
       0.256
       0.176
       0.128
       0.112
       0.109
       0.090
       0.033
      -0.062
      -0.168
      -0.253
      -0.296
      -0.299
      -0.275
      -0.238
      -0.191
      -0.130
      -0.048
       0.058
       0.183
       0.309
       0.409
       0.465
       0.470
       0.427
       0.341
       0.225
       0.103
      -0.003
      -0.086
      -0.155
      -0.213
      -0.243
      -0.228
      -0.164
      -0.072
       0.020
       0.100
       0.173
       0.252
       0.350
       0.472
       0.607
       0.732
       0.819
       0.850
       0.820
       0.735
       0.605
       0.444
       0.269
       0.092
      -0.076
      -0.222
      -0.335
      -0.413
      -0.459
      -0.481
      -0.482
      -0.461
      -0.419
      -0.361
      -0.295
      -0.225
      -0.157
      -0.097
      -0.047
      -0.010
       0.011
       0.008
      -0.023
      -0.077
      -0.133
      -0.167
      -0.165
      -0.126
      -0.065
      -0.004
       0.044
       0.076
       0.103
       0.140
       0.195
       0.269
       0.356
       0.441
       0.509
       0.543
       0.535
       0.485
       0.406
       0.309
       0.201
       0.085
      -0.038
      -0.168
      -0.299
      -0.415
      -0.496
      -0.529
      -0.530
      -0.518
      -0.499
      -0.452
      -0.353
      -0.205
      -0.031
       0.149
       0.325
       0.490
       0.625
       0.711
       0.750
       0.753
       0.729
       0.672
       0.571
       0.436
       0.301
       0.199
       0.130
       0.063
      -0.028
      -0.135
      -0.222
      -0.258
      -0.248
      -0.218
      -0.196
      -0.185
      -0.175
      -0.151
      -0.105
      -0.044
       0.020
       0.072
       0.100
       0.106
       0.112
       0.141
       0.203
       0.281
       0.345
       0.369
       0.356
       0.327
       0.303
       0.292
       0.282
       0.256
       0.209
       0.148
       0.086
       0.026
      -0.041
      -0.131
      -0.250
      -0.389
      -0.526
      -0.648
      -0.760
      -0.871
      -0.977
      -1.059
      -1.092
      -1.064
      -0.980
      -0.859
      -0.722
      -0.577
      -0.423
      -0.256
      -0.077
       0.101
       0.266
       0.409
       0.520
       0.591
       0.621
       0.620
       0.600
       0.567
       0.517
       0.446
       0.357
       0.256
       0.154
       0.061
      -0.007
      -0.041
      -0.039
      -0.004
       0.061
       0.159
       0.291
       0.438
       0.567
       0.645
       0.658
       0.614
       0.531
       0.430
       0.320
       0.210
       0.104
       0.012
      -0.058
      -0.107
      -0.143
      -0.168
      -0.173
      -0.150
      -0.097
      -0.031
       0.029
       0.075
       0.108
       0.132
       0.141
       0.117
       0.051
      -0.052
      -0.173
      -0.290
      -0.393
      -0.482
      -0.558
      -0.623
      -0.674
      -0.703
      -0.698
      -0.652
      -0.561
      -0.433
      -0.291
      -0.162
      -0.059
       0.031
       0.130
       0.239
       0.330
       0.363
       0.324
       0.228
       0.106
      -0.018
      -0.131
      -0.226
      -0.295
      -0.337
      -0.357
      -0.358
      -0.340
      -0.296
      -0.222
      -0.124
      -0.019
       0.077
       0.159
       0.229
       0.295
       0.350
       0.382
       0.370
       0.302
       0.173
      -0.009
      -0.227
      -0.459
      -0.684
      -0.890
      -1.069
      -1.214
      -1.309
      -1.333
      -1.266
      -1.104
      -0.861
      -0.571
      -0.275
      -0.014
       0.197
       0.361
       0.494
       0.608
       0.698
       0.756
       0.777
       0.763
       0.727
       0.682
       0.631
       0.568
       0.483
       0.375
       0.257
       0.157
       0.094
       0.075
       0.087
       0.112
       0.144
       0.186
       0.241
       0.308
       0.381
       0.451
       0.506
       0.532
       0.513
       0.445
       0.338
       0.212
       0.084
      -0.039
      -0.158
      -0.273
      -0.373
      -0.436
      -0.447
      -0.406
      -0.336
      -0.269
      -0.228
      -0.220
      -0.234
      -0.257
      -0.280
      -0.301
      -0.314
      -0.313
      -0.294
      -0.266
      -0.236
      -0.206
      -0.169
      -0.128
      -0.093
      -0.072
      -0.059
      -0.041
      -0.008
       0.046
       0.125
       0.233
       0.366
       0.506
       0.619
       0.674
       0.664
       0.606
       0.522
       0.416
       0.268
       0.063
      -0.192
      -0.462
      -0.697
      -0.858
      -0.933
      -0.937
      -0.894
      -0.821
      -0.718
      -0.570
      -0.364
      -0.105
       0.176
       0.445
       0.681
       0.882
       1.058
       1.215
       1.349
       1.453
       1.518
       1.535
       1.495
       1.387
       1.216
       1.004
       0.780
       0.563
       0.349
       0.123
      -0.108
      -0.314
      -0.453
      -0.510
      -0.505
      -0.478
      -0.457
      -0.448
      -0.440
      -0.427
      -0.419
      -0.433
      -0.475
      -0.538
      -0.599
      -0.630
      -0.615
      -0.564
      -0.503
      -0.460
      -0.442
      -0.445
      -0.463
      -0.487
      -0.506
      -0.498
      -0.452
      -0.369
      -0.261
      -0.142
      -0.019
       0.105
       0.223
       0.322
       0.384
       0.400
       0.369
       0.304
       0.219
       0.134
       0.069
       0.045
       0.078
       0.172
       0.310
       0.462
       0.593
       0.683
       0.735
       0.763
       0.779
       0.776
       0.738
       0.650
       0.512
       0.344
       0.172
       0.016
      -0.114
      -0.223
      -0.317
      -0.402
      -0.476
      -0.534
      -0.567
      -0.571
      -0.546
      -0.491
      -0.403
      -0.288
      -0.159
      -0.042
       0.042
       0.089
       0.108
       0.120
       0.137
       0.168
       0.212
       0.259
       0.299
       0.323
       0.326
       0.307
       0.267
       0.214
       0.155
       0.097
       0.036
      -0.035
      -0.113
      -0.191
      -0.262
      -0.326
      -0.397
      -0.488
      -0.597
      -0.699
      -0.761
      -0.763
      -0.715
      -0.646
      -0.584
      -0.545
      -0.529
      -0.525
      -0.520
      -0.503
      -0.476
      -0.439
      -0.393
      -0.336
      -0.265
      -0.178
      -0.082
       0.007
       0.068
       0.084
       0.052
      -0.010
      -0.076
      -0.115
      -0.109
      -0.060
       0.014
       0.084
       0.126
       0.131
       0.106
       0.070
       0.048
       0.055
       0.091
       0.142
       0.193
       0.229
       0.246
       0.246
       0.225
       0.179
       0.099
      -0.010
      -0.129
      -0.238
      -0.323
      -0.388
      -0.441
      -0.485
      -0.511
      -0.507
      -0.473
      -0.419
      -0.355
      -0.274
      -0.161
      -0.010
       0.168
       0.343
       0.481
       0.562
       0.587
       0.575
       0.546
       0.507
       0.457
       0.389
       0.305
       0.219
       0.144
       0.086
       0.025
      -0.068
      -0.207
      -0.378
      -0.539
      -0.650
      -0.693
      -0.672
      -0.603
      -0.496
      -0.357
      -0.195
      -0.026
       0.136
       0.281
       0.409
       0.513
       0.582
       0.608
       0.597
       0.569
       0.549
       0.547
       0.571
       0.618
       0.675
       0.709
       0.681
       0.575
       0.417
       0.257
       0.134
       0.045
      -0.042
      -0.158
      -0.313
      -0.490
      -0.653
      -0.767
      -0.820
      -0.832
      -0.842
      -0.873
      -0.916
      -0.941
      -0.936
      -0.907
      -0.863
      -0.800
      -0.704
      -0.572
      -0.423
      -0.279
      -0.149
      -0.017
       0.137
       0.314
       0.492
       0.643
       0.752
       0.825
       0.880
       0.922
       0.936
       0.899
       0.801
       0.655
       0.490
       0.327
       0.177
       0.033
      -0.103
      -0.220
      -0.294
      -0.306
      -0.257
      -0.173
      -0.079
       0.006
       0.080
       0.150
       0.220
       0.285
       0.332
       0.357
       0.365
       0.369
       0.378
       0.381
       0.360
       0.299
       0.202
       0.084
      -0.036
      -0.152
      -0.261
      -0.362
      -0.450
      -0.524
      -0.586
      -0.638
      -0.675
      -0.687
      -0.668
      -0.617
      -0.542
      -0.458
      -0.372
      -0.285
      -0.190
      -0.085
       0.030
       0.150
       0.271
       0.389
       0.499
       0.598
       0.680
       0.744
       0.788
       0.812
       0.811
       0.778
       0.709
       0.611
       0.494
       0.367
       0.234
       0.093
      -0.057
      -0.212
      -0.357
      -0.472
      -0.549
      -0.585
      -0.581
      -0.538
      -0.462
      -0.362
      -0.249
      -0.132
      -0.015
       0.101
       0.207
       0.289
       0.326
       0.304
       0.232
       0.136
       0.053
       0.003
      -0.013
      -0.007
       0.008
       0.033
       0.076
       0.147
       0.245
       0.364
       0.487
       0.589
       0.643
       0.637
       0.583
       0.508
       0.433
       0.368
       0.311
       0.258
       0.206
       0.152
       0.102
       0.065
       0.055
       0.080
       0.135
       0.205
       0.275
       0.343
       0.413
       0.493
       0.583
       0.671
       0.737
       0.763
       0.744
       0.691
       0.618
       0.526
       0.403
       0.236
       0.033
      -0.180
      -0.370
      -0.515
      -0.609
      -0.662
      -0.682
      -0.668
      -0.615
      -0.524
      -0.411
      -0.304
      -0.221
      -0.163
      -0.124
      -0.106
      -0.119
      -0.161
      -0.211
      -0.238
      -0.224
      -0.179
      -0.131
      -0.104
      -0.096
      -0.092
      -0.084
      -0.074
      -0.078
      -0.099
      -0.136
      -0.178
      -0.221
      -0.261
      -0.297
      -0.327
      -0.346
      -0.355
      -0.362
      -0.383
      -0.430
      -0.509
      -0.613
      -0.726
      -0.822
      -0.880
      -0.896
      -0.882
      -0.853
      -0.813
      -0.743
      -0.615
      -0.415
      -0.157
       0.110
       0.329
       0.467
       0.537
       0.575
       0.614
       0.653
       0.667
       0.628
       0.536
       0.423
       0.328
       0.268
       0.234
       0.209
       0.183
       0.160
       0.149
       0.159
       0.195
