Origin Time       04/04/2011 11:31:40
Lat.              29.6 N	
Long.             80.8 E	
Depth (Km)         10.0
Magnitude         5.7
 Region           NEPAL-INDIA-BORDER-REGION                                        
 Above details taken from IMD 
     
Station Code      DEH
Station Lat.       30.316  N
Station Long.      78.042  E
Station Height(m)  662.0
Site Class        C   Vs30 between 200 m/sec to 375 m/sec *  
Record Time       04.04.2011 11:32:27.469
Sampling Rate     200. Hz
 Record Duration   89.035 Sec.
 Direction         E-W (E positive)
Max. Acceleration      3.165 cm/sec**2
     
  * For reference see Site Classification link of website 
     
 Base Line Corrected and Low Pass Filtered (Cut Off at 35 Hz) Time History
 Acceleration data in cm/sec**2
    
[...]
      -0.111
      -0.124
      -0.134
      -0.137
      -0.129
      -0.111
      -0.094
      -0.086
      -0.092
      -0.111
      -0.136
      -0.157
      -0.171
      -0.177
      -0.181
      -0.186
      -0.187
      -0.183
      -0.173
      -0.161
      -0.154
      -0.149
      -0.138
      -0.112
      -0.070
      -0.021
       0.024
       0.063
       0.098
       0.136
       0.173
       0.199
       0.211
       0.213
       0.212
       0.213
       0.211
       0.200
       0.177
       0.147
       0.116
       0.087
       0.065
       0.051
       0.051
       0.070
       0.102
       0.137
       0.165
       0.178
       0.179
       0.180
       0.188
       0.204
       0.220
       0.228
       0.226
       0.219
       0.210
       0.199
       0.181
       0.155
       0.125
       0.095
       0.065
       0.032
      -0.008
      -0.052
      -0.091
      -0.118
      -0.134
      -0.144
      -0.154
      -0.166
      -0.178
      -0.183
      -0.176
      -0.155
      -0.126
      -0.093
      -0.059
      -0.029
      -0.009
      -0.005
      -0.016
      -0.036
      -0.055
      -0.071
      -0.092
      -0.124
      -0.168
      -0.209
      -0.236
      -0.245
      -0.250
      -0.262
      -0.286
      -0.311
      -0.322
      -0.307
      -0.271
      -0.228
      -0.191
      -0.169
      -0.154
      -0.133
      -0.095
      -0.040
       0.022
       0.079
       0.121
       0.149
       0.168
       0.187
       0.211
       0.241
       0.272
       0.301
       0.323
       0.338
       0.346
       0.350
       0.352
       0.350
       0.337
       0.306
       0.261
       0.212
       0.174
       0.145
       0.112
       0.059
      -0.014
      -0.095
      -0.161
      -0.203
      -0.222
      -0.234
      -0.246
      -0.258
      -0.261
      -0.250
      -0.221
      -0.176
      -0.119
      -0.056
       0.006
       0.063
       0.113
       0.156
       0.190
       0.211
       0.212
       0.189
       0.149
       0.105
       0.072
       0.057
       0.056
       0.061
       0.069
       0.080
       0.099
       0.130
       0.175
       0.225
       0.263
       0.275
       0.261
       0.230
       0.202
       0.182
       0.165
       0.138
       0.093
       0.037
      -0.015
      -0.051
      -0.072
      -0.088
      -0.113
      -0.152
      -0.200
      -0.246
      -0.281
      -0.303
      -0.316
      -0.325
      -0.333
      -0.336
      -0.333
      -0.323
      -0.309
      -0.294
      -0.276
      -0.252
      -0.222
      -0.192
      -0.175
      -0.179
      -0.200
      -0.222
      -0.230
      -0.219
      -0.192
      -0.160
      -0.131
      -0.107
      -0.081
      -0.048
      -0.006
       0.042
       0.093
       0.141
       0.181
       0.209
       0.225
       0.230
       0.225
       0.213
       0.196
       0.174
       0.145
       0.105
       0.051
      -0.012
      -0.071
      -0.109
      -0.118
      -0.110
      -0.105
      -0.117
      -0.138
      -0.147
      -0.127
      -0.080
      -0.027
       0.007
       0.008
      -0.019
      -0.058
      -0.096
      -0.124
      -0.141
      -0.150
      -0.158
      -0.167
      -0.175
      -0.169
      -0.142
      -0.093
      -0.026
       0.048
       0.119
       0.179
       0.227
       0.270
       0.314
       0.364
       0.419
       0.472
       0.516
       0.545
       0.559
       0.559
       0.543
       0.511
       0.469
       0.425
       0.381
       0.334
       0.277
       0.212
       0.145
       0.085
       0.031
      -0.024
      -0.082
      -0.137
      -0.178
      -0.198
      -0.201
      -0.199
      -0.198
      -0.197
      -0.190
      -0.177
      -0.162
      -0.154
      -0.155
      -0.162
      -0.164
      -0.156
      -0.139
      -0.119
      -0.103
      -0.091
      -0.080
      -0.065
      -0.049
      -0.038
      -0.042
      -0.061
      -0.090
      -0.119
      -0.140
      -0.153
      -0.162
      -0.169
      -0.178
      -0.189
      -0.201
      -0.208
      -0.205
      -0.192
      -0.169
      -0.143
      -0.116
      -0.087
      -0.047
       0.012
       0.089
       0.171
       0.246
       0.307
       0.357
       0.401
       0.440
       0.471
       0.490
       0.501
       0.516
       0.542
       0.571
       0.588
       0.581
       0.553
       0.520
       0.490
       0.459
       0.414
       0.351
       0.278
       0.208
       0.142
       0.074
       0.000
      -0.075
      -0.142
      -0.196
      -0.243
      -0.288
      -0.329
      -0.357
      -0.367
      -0.358
      -0.340
      -0.320
      -0.301
      -0.279
      -0.248
      -0.206
      -0.156
      -0.100
      -0.048
      -0.004
       0.025
       0.041
       0.053
       0.071
       0.098
       0.130
       0.153
       0.153
       0.124
       0.077
       0.028
      -0.008
      -0.027
      -0.038
      -0.048
      -0.059
      -0.068
      -0.071
      -0.064
      -0.047
      -0.024
       0.000
       0.024
       0.046
       0.064
       0.077
       0.083
       0.077
       0.052
       0.008
      -0.051
      -0.117
      -0.184
      -0.244
      -0.298
      -0.345
      -0.381
      -0.405
      -0.415
      -0.415
      -0.407
      -0.389
      -0.361
      -0.328
      -0.296
      -0.269
      -0.247
      -0.232
      -0.223
      -0.215
      -0.196
      -0.162
      -0.121
      -0.091
      -0.087
      -0.107
      -0.137
      -0.162
      -0.176
      -0.186
      -0.199
      -0.214
      -0.227
      -0.235
      -0.242
      -0.245
      -0.239
      -0.219
      -0.186
      -0.141
      -0.087
      -0.023
       0.052
       0.135
       0.219
       0.293
       0.349
       0.388
       0.414
       0.431
       0.433
       0.413
       0.374
       0.329
       0.293
       0.267
       0.240
       0.198
       0.139
       0.078
       0.033
       0.013
       0.012
       0.022
       0.035
       0.052
       0.077
       0.115
       0.167
       0.230
       0.299
       0.367
       0.432
       0.493
       0.551
       0.602
       0.640
       0.659
       0.659
       0.645
       0.622
       0.591
       0.553
       0.511
       0.473
       0.437
       0.395
       0.339
       0.270
       0.194
       0.121
       0.055
      -0.003
      -0.058
      -0.115
      -0.177
      -0.237
      -0.286
      -0.316
      -0.327
      -0.329
      -0.335
      -0.358
      -0.395
      -0.434
      -0.459
      -0.464
      -0.457
      -0.452
      -0.460
      -0.478
      -0.499
      -0.516
      -0.528
      -0.540
      -0.559
      -0.588
      -0.623
      -0.656
      -0.676
      -0.672
      -0.649
      -0.618
      -0.595
      -0.587
      -0.592
      -0.601
      -0.601
      -0.587
      -0.561
      -0.527
      -0.487
      -0.438
      -0.378
      -0.311
      -0.243
      -0.176
      -0.110
      -0.043
       0.026
       0.099
       0.172
       0.244
       0.313
       0.383
       0.453
       0.522
       0.581
       0.624
       0.645
       0.650
       0.646
       0.636
       0.617
       0.582
       0.529
       0.466
       0.402
       0.340
       0.276
       0.200
       0.109
       0.009
      -0.085
      -0.166
      -0.233
      -0.294
      -0.353
      -0.412
      -0.471
      -0.529
      -0.581
      -0.621
      -0.648
      -0.663
      -0.672
      -0.674
      -0.666
      -0.649
      -0.625
      -0.599
      -0.571
      -0.533
      -0.480
      -0.417
      -0.355
      -0.298
      -0.245
      -0.189
      -0.129
      -0.068
      -0.010
       0.047
       0.108
       0.177
       0.250
       0.315
       0.360
       0.381
       0.389
       0.396
       0.410
       0.426
       0.432
       0.422
       0.399
       0.375
       0.361
       0.357
       0.353
       0.337
       0.304
       0.262
       0.221
       0.189
       0.169
       0.158
       0.153
       0.154
       0.160
       0.171
       0.184
       0.194
       0.203
       0.214
       0.237
       0.274
       0.322
       0.373
       0.417
       0.453
       0.483
       0.509
       0.525
       0.521
       0.492
       0.443
       0.382
       0.314
       0.246
       0.182
       0.126
       0.079
       0.038
      -0.002
      -0.036
      -0.058
      -0.065
      -0.060
      -0.053
      -0.053
      -0.061
      -0.074
      -0.089
      -0.105
      -0.119
      -0.130
      -0.138
      -0.147
      -0.163
      -0.191
      -0.232
      -0.287
      -0.354
      -0.436
      -0.530
      -0.627
      -0.714
      -0.780
      -0.824
      -0.855
      -0.880
      -0.901
      -0.910
      -0.901
      -0.873
      -0.832
      -0.787
      -0.739
      -0.685
      -0.623
      -0.552
      -0.477
      -0.402
      -0.329
      -0.255
      -0.179
      -0.103
      -0.035
       0.014
       0.042
       0.056
       0.070
       0.091
       0.113
       0.127
       0.127
       0.116
       0.110
       0.122
       0.160
       0.217
       0.283
       0.348
       0.414
       0.481
       0.555
       0.636
       0.722
       0.802
       0.867
       0.911
       0.931
       0.928
       0.907
       0.880
       0.856
       0.839
       0.822
       0.800
       0.773
       0.748
       0.728
       0.709
       0.682
       0.636
       0.566
       0.478
       0.379
       0.276
       0.176
       0.083
      -0.003
      -0.079
      -0.148
      -0.213
      -0.278
      -0.350
      -0.431
      -0.522
      -0.621
      -0.721
      -0.817
      -0.904
      -0.980
      -1.047
      -1.108
      -1.162
      -1.206
      -1.235
      -1.241
      -1.216
      -1.154
      -1.056
      -0.933
      -0.795
      -0.652
      -0.508
      -0.362
      -0.214
      -0.063
       0.088
       0.232
       0.364
       0.480
       0.579
       0.667
       0.747
       0.823
       0.895
       0.958
       1.011
       1.055
       1.095
       1.138
       1.184
       1.235
       1.287
       1.336
       1.374
       1.393
       1.383
       1.340
       1.273
       1.195
       1.113
       1.020
       0.906
       0.773
       0.637
       0.515
       0.411
       0.313
       0.204
       0.078
      -0.055
      -0.175
      -0.271
      -0.341
      -0.394
      -0.438
      -0.473
      -0.494
      -0.498
      -0.488
      -0.467
      -0.434
      -0.388
      -0.333
      -0.284
      -0.254
      -0.249
      -0.270
      -0.316
      -0.384
      -0.466
      -0.553
      -0.635
      -0.714
      -0.795
      -0.881
      -0.968
      -1.044
      -1.102
      -1.142
      -1.167
      -1.177
      -1.166
      -1.122
      -1.042
      -0.932
      -0.809
      -0.687
      -0.577
      -0.480
      -0.399
      -0.339
      -0.305
      -0.296
      -0.305
      -0.323
      -0.347
      -0.373
      -0.392
      -0.392
      -0.372
      -0.346
      -0.328
      -0.313
      -0.279
      -0.210
      -0.103
       0.028
       0.169
       0.322
       0.498
       0.697
       0.910
       1.118
       1.307
       1.466
       1.585
       1.654
       1.668
       1.631
       1.548
       1.423
       1.258
       1.058
       0.835
       0.606
       0.389
       0.194
       0.020
      -0.135
      -0.272
      -0.385
      -0.469
      -0.525
      -0.555
      -0.556
      -0.522
      -0.451
      -0.350
      -0.236
      -0.122
      -0.016
       0.085
       0.182
       0.267
       0.328
       0.358
       0.358
       0.331
       0.280
       0.213
       0.141
       0.078
       0.036
       0.014
       0.009
       0.018
       0.047
       0.104
       0.194
       0.307
       0.426
       0.541
       0.647
       0.749
       0.847
       0.940
       1.014
       1.055
       1.048
       0.994
       0.910
       0.813
       0.706
       0.579
       0.414
       0.212
      -0.007
      -0.215
      -0.397
      -0.558
      -0.712
      -0.864
      -1.007
      -1.124
      -1.205
      -1.247
      -1.249
      -1.212
      -1.145
      -1.060
      -0.972
      -0.888
      -0.803
      -0.712
      -0.618
      -0.536
      -0.484
      -0.469
      -0.478
      -0.493
      -0.502
      -0.503
      -0.501
      -0.500
      -0.502
      -0.499
      -0.485
      -0.456
      -0.413
      -0.351
      -0.263
      -0.145
       0.008
       0.194
       0.411
       0.653
       0.909
       1.166
       1.407
       1.621
       1.798
       1.935
       2.030
       2.083
       2.095
       2.070
       2.010
       1.922
       1.817
       1.703
       1.586
       1.462
       1.327
       1.176
       1.007
       0.818
       0.609
       0.380
       0.134
      -0.118
      -0.363
      -0.597
      -0.823
      -1.050
      -1.279
      -1.505
      -1.722
      -1.924
      -2.110
      -2.278
      -2.430
      -2.563
      -2.682
      -2.791
      -2.888
      -2.969
      -3.029
      -3.060
      -3.061
      -3.029
      -2.962
      -2.856
      -2.711
      -2.531
      -2.321
      -2.086
      -1.830
      -1.558
      -1.280
      -1.005
      -0.740
      -0.480
      -0.218
       0.048
       0.319
       0.585
       0.842
       1.091
       1.332
       1.563
       1.779
       1.976
       2.156
       2.327
       2.490
       2.643
       2.780
       2.898
       3.000
       3.083
       3.141
       3.165
       3.148
       3.088
       2.985
       2.839
       2.653
       2.433
       2.192
       1.940
       1.679
       1.412
       1.137
       0.860
       0.583
       0.310
       0.037
      -0.240
      -0.520
      -0.792
      -1.042
      -1.264
      -1.457
      -1.627
      -1.777
      -1.907
      -2.012
      -2.087
      -2.135
      -2.163
      -2.184
      -2.208
      -2.236
      -2.260
      -2.267
      -2.249
      -2.208
      -2.149
      -2.074
      -1.982
      -1.872
      -1.746
      -1.612
      -1.476
      -1.337
      -1.187
      -1.016
      -0.823
      -0.616
      -0.409
      -0.213
      -0.023
       0.169
       0.369
       0.574
       0.774
       0.960
       1.131
       1.285
       1.418
       1.525
       1.602
       1.651
       1.678
       1.684
       1.668
       1.627
       1.564
       1.485
       1.398
       1.305
       1.205
       1.094
       0.965
       0.813
       0.636
       0.437
       0.223
       0.003
      -0.214
      -0.418
      -0.599
      -0.743
      -0.843
      -0.895
      -0.904
      -0.879
      -0.828
      -0.754
      -0.659
      -0.549
      -0.427
      -0.302
      -0.180
      -0.063
       0.048
       0.151
       0.238
       0.301
       0.335
       0.340
       0.319
       0.275
       0.212
       0.144
       0.082
       0.035
       0.005
      -0.012
      -0.025
      -0.037
      -0.046
      -0.045
      -0.031
      -0.005
       0.027
       0.057
       0.079
       0.093
       0.097
       0.094
       0.081
       0.059
       0.027
      -0.013
      -0.057
      -0.103
      -0.154
      -0.209
      -0.264
      -0.310
      -0.342
      -0.366
      -0.399
      -0.455
      -0.529
      -0.599
      -0.642
      -0.644
      -0.610
      -0.548
      -0.466
      -0.360
      -0.226
      -0.070
       0.096
       0.255
       0.401
       0.536
       0.665
       0.792
       0.913
       1.019
       1.103
       1.162
       1.202
       1.227
       1.235
       1.222
       1.182
       1.117
       1.035
       0.940
       0.835
       0.716
       0.585
       0.445
       0.302
       0.156
       0.004
      -0.155
      -0.317
      -0.471
      -0.607
      -0.718
      -0.800
      -0.855
      -0.888
      -0.902
      -0.897
      -0.875
      -0.838
      -0.787
      -0.720
      -0.638
      -0.545
      -0.455
      -0.380
      -0.327
      -0.294
      -0.269
      -0.244
      -0.216
      -0.190
      -0.169
      -0.151
      -0.128
      -0.092
      -0.033
       0.051
       0.158
       0.281
       0.410
       0.540
       0.666
       0.784
       0.894
       0.992
       1.077
       1.148
       1.200
       1.229
       1.231
       1.205
       1.154
       1.088
       1.010
       0.920
       0.816
       0.695
       0.557
       0.409
       0.260
       0.119
      -0.010
      -0.131
      -0.251
      -0.369
      -0.482
      -0.586
      -0.682
      -0.771
      -0.856
      -0.933
      -0.994
      -1.031
      -1.037
      -1.018
      -0.986
      -0.951
      -0.922
      -0.896
      -0.869
      -0.843
      -0.826
      -0.827
      -0.850
      -0.886
      -0.922
      -0.945
      -0.950
      -0.939
      -0.915
      -0.880
      -0.833
      -0.774
      -0.702
      -0.620
      -0.534
      -0.447
      -0.355
      -0.254
      -0.148
      -0.042
       0.055
       0.142
       0.223
       0.305
       0.396
       0.498
       0.607
       0.720
       0.836
       0.961
       1.098
       1.243
       1.386
       1.513
       1.615
       1.689
       1.735
       1.755
       1.743
       1.698
       1.621
       1.520
       1.401
       1.269
       1.124
       0.961
       0.777
       0.574
       0.360
       0.147
      -0.054
      -0.236
      -0.398
      -0.541
      -0.668
      -0.779
      -0.874
      -0.953
      -1.015
      -1.058
      -1.086
      -1.104
      -1.121
      -1.140
      -1.163
      -1.186
      -1.206
      -1.219
      -1.228
      -1.239
      -1.258
      -1.285
      -1.312
      -1.327
      -1.315
      -1.268
      -1.187
      -1.075
      -0.935
      -0.767
      -0.574
      -0.364
      -0.148
       0.066
       0.272
       0.465
       0.636
       0.776
       0.878
       0.942
       0.976
       0.988
       0.990
       0.987
       0.979
       0.960
       0.929
       0.885
       0.832
       0.776
       0.715
       0.650
       0.579
       0.510
       0.450
       0.403
       0.367
       0.336
       0.312
       0.303
       0.319
       0.364
       0.425
       0.480
       0.511
       0.512
       0.489
       0.455
       0.417
       0.371
       0.311
       0.231
       0.135
       0.030
      -0.077
      -0.178
      -0.267
      -0.338
      -0.391
      -0.434
      -0.475
      -0.520
      -0.571
      -0.623
      -0.674
      -0.724
      -0.771
      -0.813
      -0.839
      -0.837
      -0.801
      -0.731
      -0.639
      -0.538
      -0.434
      -0.330
      -0.224
      -0.116
      -0.013
       0.073
       0.135
       0.179
       0.215
       0.252
       0.288
       0.315
       0.330
       0.340
       0.353
       0.377
       0.410
       0.444
       0.474
       0.500
       0.530
       0.566
       0.599
       0.624
       0.634
       0.631
       0.614
       0.578
       0.515
       0.420
       0.304
       0.184
       0.078
      -0.009
      -0.082
      -0.147
      -0.203
      -0.245
      -0.266
      -0.267
      -0.251
      -0.227
      -0.201
      -0.175
      -0.148
      -0.121
      -0.096
      -0.076
      -0.061
      -0.054
      -0.061
      -0.089
      -0.138
      -0.206
      -0.287
      -0.372
      -0.456
