Origin Time       22/10/2009 19:51:25
Lat.              36.5°N	
Long.             71.0°E	
Depth (Km)        168.0
Magnitude         6.3
 Region           HINDUKUSH-REGION-AFGHANISTAN                                     
 Above details taken from IMD 
     
Station Code      DEH
Station Lat.       31.883  N
Station Long.      76.216  E
Station Height(m)    0.0
Site Class        B   Vs30 between 375 m/sec to 700 m/sec *  
Record Time       22.10.2009 19:53:54.824
Sampling Rate     200. Hz
 Record Duration   65.030 Sec.
 Direction         E-W (E positive)
Max. Acceleration     -1.767 cm/sec**2
     
  * For reference see Site Classification link of website 
     
 Base Line Corrected and Low Pass Filtered (Cut Off at 35 Hz) Time History
 Acceleration data in cm/sec**2
    
[...]
      -0.133
      -0.132
      -0.120
      -0.101
      -0.084
      -0.069
      -0.054
      -0.036
      -0.018
      -0.002
       0.008
       0.011
       0.013
       0.015
       0.020
       0.029
       0.039
       0.049
       0.056
       0.063
       0.073
       0.092
       0.119
       0.143
       0.153
       0.141
       0.114
       0.086
       0.069
       0.065
       0.065
       0.060
       0.052
       0.047
       0.052
       0.065
       0.080
       0.094
       0.106
       0.116
       0.122
       0.123
       0.118
       0.108
       0.097
       0.086
       0.075
       0.060
       0.039
       0.016
      -0.004
      -0.018
      -0.028
      -0.039
      -0.055
      -0.072
      -0.081
      -0.076
      -0.059
      -0.039
      -0.027
      -0.028
      -0.035
      -0.041
      -0.043
      -0.040
      -0.039
      -0.040
      -0.041
      -0.038
      -0.033
      -0.027
      -0.023
      -0.020
      -0.017
      -0.018
      -0.024
      -0.035
      -0.048
      -0.059
      -0.065
      -0.064
      -0.053
      -0.030
       0.002
       0.035
       0.063
       0.081
       0.091
       0.098
       0.105
       0.112
       0.116
       0.111
       0.095
       0.076
       0.061
       0.059
       0.065
       0.071
       0.070
       0.061
       0.048
       0.034
       0.023
       0.016
       0.014
       0.016
       0.019
       0.024
       0.033
       0.048
       0.071
       0.097
       0.117
       0.122
       0.111
       0.088
       0.058
       0.028
       0.000
      -0.025
      -0.047
      -0.066
      -0.078
      -0.080
      -0.074
      -0.064
      -0.056
      -0.057
      -0.065
      -0.080
      -0.095
      -0.104
      -0.107
      -0.105
      -0.103
      -0.107
      -0.115
      -0.122
      -0.124
      -0.121
      -0.120
      -0.125
      -0.139
      -0.154
      -0.159
      -0.148
      -0.123
      -0.095
      -0.073
      -0.057
      -0.040
      -0.013
       0.024
       0.058
       0.075
       0.069
       0.046
       0.019
       0.002
      -0.002
       0.002
       0.005
      -0.002
      -0.015
      -0.030
      -0.041
      -0.044
      -0.039
      -0.027
      -0.010
       0.006
       0.014
       0.009
      -0.005
      -0.020
      -0.032
      -0.038
      -0.044
      -0.050
      -0.057
      -0.063
      -0.070
      -0.078
      -0.081
      -0.071
      -0.047
      -0.017
       0.004
       0.009
       0.000
      -0.010
      -0.010
      -0.001
       0.009
       0.008
      -0.006
      -0.025
      -0.039
      -0.042
      -0.032
      -0.014
       0.011
       0.035
       0.052
       0.058
       0.050
       0.034
       0.016
       0.004
      -0.002
      -0.008
      -0.018
      -0.031
      -0.041
      -0.041
      -0.029
      -0.009
       0.006
       0.011
       0.006
       0.000
       0.001
       0.009
       0.018
       0.023
       0.024
       0.028
       0.040
       0.057
       0.069
       0.064
       0.041
       0.008
      -0.022
      -0.043
      -0.059
      -0.073
      -0.088
      -0.103
      -0.114
      -0.116
      -0.107
      -0.085
      -0.055
      -0.026
      -0.004
       0.007
       0.013
       0.026
       0.051
       0.084
       0.112
       0.126
       0.125
       0.120
       0.120
       0.130
       0.141
       0.145
       0.135
       0.112
       0.083
       0.057
       0.038
       0.028
       0.024
       0.023
       0.021
       0.018
       0.014
       0.011
       0.009
       0.007
       0.002
      -0.006
      -0.017
      -0.026
      -0.029
      -0.023
      -0.011
       0.005
       0.022
       0.041
       0.066
       0.098
       0.130
       0.147
       0.143
       0.119
       0.085
       0.053
       0.028
       0.008
      -0.011
      -0.031
      -0.050
      -0.061
      -0.058
      -0.041
      -0.019
      -0.001
       0.006
       0.003
      -0.003
      -0.004
       0.002
       0.013
       0.027
       0.039
       0.048
       0.054
       0.063
       0.077
       0.094
       0.108
       0.113
       0.105
       0.086
       0.060
       0.033
       0.007
      -0.016
      -0.032
      -0.041
      -0.040
      -0.030
      -0.014
       0.007
       0.028
       0.045
       0.053
       0.046
       0.023
      -0.014
      -0.057
      -0.098
      -0.133
      -0.158
      -0.174
      -0.183
      -0.184
      -0.173
      -0.145
      -0.102
      -0.050
       0.001
       0.042
       0.068
       0.078
       0.073
       0.058
       0.038
       0.019
       0.000
      -0.019
      -0.036
      -0.045
      -0.039
      -0.019
       0.008
       0.031
       0.043
       0.043
       0.035
       0.027
       0.017
       0.007
      -0.007
      -0.022
      -0.033
      -0.039
      -0.040
      -0.037
      -0.034
      -0.031
      -0.031
      -0.034
      -0.043
      -0.062
      -0.085
      -0.104
      -0.112
      -0.107
      -0.096
      -0.088
      -0.082
      -0.071
      -0.046
      -0.007
       0.034
       0.061
       0.065
       0.051
       0.026
       0.000
      -0.029
      -0.062
      -0.099
      -0.133
      -0.158
      -0.167
      -0.161
      -0.144
      -0.120
      -0.087
      -0.045
       0.003
       0.050
       0.088
       0.110
       0.111
       0.093
       0.060
       0.022
      -0.017
      -0.051
      -0.079
      -0.101
      -0.116
      -0.123
      -0.121
      -0.111
      -0.097
      -0.080
      -0.062
      -0.045
      -0.029
      -0.013
       0.006
       0.031
       0.064
       0.100
       0.129
       0.143
       0.142
       0.131
       0.119
       0.109
       0.099
       0.085
       0.067
       0.049
       0.035
       0.029
       0.028
       0.031
       0.033
       0.031
       0.022
       0.006
      -0.015
      -0.038
      -0.054
      -0.057
      -0.048
      -0.034
      -0.019
      -0.002
       0.022
       0.056
       0.098
       0.138
       0.165
       0.173
       0.160
       0.131
       0.093
       0.050
       0.004
      -0.044
      -0.089
      -0.126
      -0.150
      -0.159
      -0.155
      -0.145
      -0.134
      -0.121
      -0.106
      -0.088
      -0.074
      -0.067
      -0.071
      -0.082
      -0.090
      -0.092
      -0.087
      -0.079
      -0.072
      -0.066
      -0.057
      -0.042
      -0.017
       0.018
       0.059
       0.098
       0.130
       0.149
       0.152
       0.139
       0.114
       0.082
       0.051
       0.025
       0.002
      -0.020
      -0.043
      -0.062
      -0.071
      -0.065
      -0.047
      -0.028
      -0.018
      -0.020
      -0.030
      -0.040
      -0.043
      -0.040
      -0.035
      -0.032
      -0.037
      -0.048
      -0.059
      -0.063
      -0.055
      -0.038
      -0.020
      -0.010
      -0.007
      -0.009
      -0.011
      -0.012
      -0.015
      -0.022
      -0.031
      -0.039
      -0.045
      -0.052
      -0.061
      -0.069
      -0.068
      -0.054
      -0.024
       0.014
       0.049
       0.075
       0.091
       0.103
       0.112
       0.120
       0.120
       0.111
       0.092
       0.069
       0.047
       0.031
       0.028
       0.041
       0.068
       0.102
       0.133
       0.153
       0.160
       0.156
       0.145
       0.126
       0.098
       0.062
       0.021
      -0.020
      -0.060
      -0.100
      -0.139
      -0.171
      -0.184
      -0.173
      -0.140
      -0.098
      -0.061
      -0.036
      -0.023
      -0.015
      -0.010
      -0.011
      -0.021
      -0.038
      -0.053
      -0.054
      -0.037
      -0.008
       0.024
       0.052
       0.077
       0.100
       0.124
       0.147
       0.162
       0.169
       0.168
       0.163
       0.153
       0.134
       0.107
       0.071
       0.031
      -0.005
      -0.030
      -0.043
      -0.051
      -0.065
      -0.091
      -0.123
      -0.147
      -0.153
      -0.142
      -0.125
      -0.113
      -0.111
      -0.111
      -0.105
      -0.088
      -0.061
      -0.032
      -0.006
       0.014
       0.030
       0.046
       0.061
       0.074
       0.079
       0.074
       0.057
       0.035
       0.015
       0.002
       0.000
       0.010
       0.029
       0.056
       0.089
       0.129
       0.172
       0.214
       0.250
       0.273
       0.281
       0.272
       0.251
       0.222
       0.192
       0.164
       0.142
       0.125
       0.112
       0.099
       0.088
       0.077
       0.069
       0.063
       0.054
       0.040
       0.022
       0.005
      -0.008
      -0.015
      -0.020
      -0.029
      -0.047
      -0.072
      -0.098
      -0.116
      -0.123
      -0.123
      -0.126
      -0.140
      -0.165
      -0.194
      -0.215
      -0.222
      -0.213
      -0.194
      -0.174
      -0.156
      -0.141
      -0.124
      -0.105
      -0.082
      -0.057
      -0.033
      -0.010
       0.016
       0.046
       0.080
       0.114
       0.149
       0.187
       0.233
       0.286
       0.341
       0.389
       0.425
       0.451
       0.472
       0.492
       0.507
       0.511
       0.500
       0.473
       0.436
       0.392
       0.351
       0.315
       0.286
       0.261
       0.237
       0.212
       0.186
       0.162
       0.141
       0.125
       0.111
       0.096
       0.081
       0.066
       0.053
       0.042
       0.032
       0.022
       0.011
      -0.005
      -0.025
      -0.048
      -0.068
      -0.078
      -0.077
      -0.065
      -0.052
      -0.044
      -0.044
      -0.050
      -0.058
      -0.070
      -0.089
      -0.117
      -0.153
      -0.188
      -0.212
      -0.223
      -0.223
      -0.221
      -0.225
      -0.233
      -0.239
      -0.235
      -0.215
      -0.182
      -0.141
      -0.095
      -0.044
       0.016
       0.081
       0.143
       0.194
       0.229
       0.249
       0.262
       0.273
       0.286
       0.301
       0.316
       0.326
       0.329
       0.326
       0.317
       0.305
       0.289
       0.269
       0.241
       0.205
       0.164
       0.123
       0.087
       0.056
       0.026
      -0.007
      -0.051
      -0.104
      -0.158
      -0.201
      -0.231
      -0.251
      -0.270
      -0.293
      -0.315
      -0.327
      -0.323
      -0.306
      -0.280
      -0.243
      -0.197
      -0.141
      -0.081
      -0.022
       0.033
       0.079
       0.117
       0.146
       0.169
       0.190
       0.209
       0.222
       0.224
       0.215
       0.203
       0.196
       0.201
       0.217
       0.239
       0.259
       0.268
       0.264
       0.250
       0.231
       0.213
       0.197
       0.178
       0.145
       0.092
       0.020
      -0.060
      -0.127
      -0.170
      -0.189
      -0.197
      -0.209
      -0.231
      -0.260
      -0.290
      -0.315
      -0.337
      -0.363
      -0.399
      -0.448
      -0.503
      -0.552
      -0.591
      -0.618
      -0.638
      -0.653
      -0.660
      -0.658
      -0.645
      -0.623
      -0.598
      -0.574
      -0.553
      -0.532
      -0.507
      -0.472
      -0.419
      -0.347
      -0.256
      -0.152
      -0.037
       0.082
       0.201
       0.310
       0.398
       0.456
       0.486
       0.495
       0.496
       0.496
       0.497
       0.496
       0.491
       0.487
       0.492
       0.507
       0.529
       0.543
       0.541
       0.519
       0.481
       0.432
       0.373
       0.301
       0.216
       0.121
       0.021
      -0.074
      -0.159
      -0.228
      -0.276
      -0.299
      -0.296
      -0.274
      -0.244
      -0.218
      -0.199
      -0.184
      -0.164
      -0.135
      -0.101
      -0.070
      -0.049
      -0.037
      -0.028
      -0.017
      -0.004
       0.003
      -0.001
      -0.014
      -0.026
      -0.027
      -0.017
       0.000
       0.018
       0.038
       0.066
       0.105
       0.154
       0.205
       0.246
       0.269
       0.273
       0.263
       0.240
       0.203
       0.149
       0.079
       0.004
      -0.056
      -0.089
      -0.091
      -0.068
      -0.027
       0.025
       0.090
       0.168
       0.251
       0.322
       0.369
       0.385
       0.373
       0.338
       0.285
       0.220
       0.148
       0.078
       0.011
      -0.055
      -0.124
      -0.200
      -0.281
      -0.360
      -0.431
      -0.491
      -0.547
      -0.605
      -0.669
      -0.732
      -0.780
      -0.804
      -0.804
      -0.789
      -0.769
      -0.746
      -0.709
      -0.645
      -0.544
      -0.410
      -0.262
      -0.119
       0.005
       0.115
       0.218
       0.318
       0.410
       0.485
       0.538
       0.572
       0.596
       0.616
       0.631
       0.638
       0.629
       0.603
       0.565
       0.519
       0.465
       0.403
       0.337
       0.273
       0.214
       0.165
       0.121
       0.081
       0.046
       0.022
       0.020
       0.043
       0.090
       0.149
       0.207
       0.253
       0.281
       0.296
       0.299
       0.292
       0.267
       0.219
       0.148
       0.058
      -0.040
      -0.139
      -0.233
      -0.326
      -0.423
      -0.532
      -0.652
      -0.779
      -0.908
      -1.038
      -1.171
      -1.307
      -1.444
      -1.569
      -1.669
      -1.734
      -1.764
      -1.767
      -1.746
      -1.698
      -1.618
      -1.503
      -1.360
      -1.196
      -1.020
      -0.837
      -0.646
      -0.450
      -0.252
      -0.063
       0.110
       0.263
       0.398
       0.521
       0.637
       0.743
       0.832
       0.893
       0.924
       0.929
       0.911
       0.874
       0.818
       0.747
       0.663
       0.570
       0.472
       0.372
       0.272
       0.173
       0.082
       0.005
      -0.058
      -0.110
      -0.158
      -0.205
      -0.245
      -0.274
      -0.287
      -0.284
      -0.273
      -0.260
      -0.248
      -0.231
      -0.203
      -0.157
      -0.098
      -0.033
       0.025
       0.074
       0.113
       0.146
       0.172
       0.188
       0.189
       0.169
       0.128
       0.071
       0.008
      -0.056
      -0.115
      -0.169
      -0.214
      -0.248
      -0.265
      -0.265
      -0.252
      -0.232
      -0.209
      -0.178
      -0.135
      -0.072
       0.011
       0.112
       0.224
       0.343
       0.462
       0.573
       0.670
       0.747
       0.801
       0.830
       0.837
       0.821
       0.783
       0.720
       0.629
       0.518
       0.400
       0.290
       0.195
       0.112
       0.026
      -0.080
      -0.212
      -0.366
      -0.532
      -0.700
      -0.868
      -1.038
      -1.211
      -1.378
      -1.518
      -1.609
      -1.634
      -1.586
      -1.468
      -1.288
      -1.055
      -0.776
      -0.466
      -0.139
       0.186
       0.496
       0.780
       1.030
       1.236
       1.392
       1.500
       1.570
       1.614
       1.642
       1.657
       1.658
       1.639
       1.598
       1.540
       1.475
       1.407
       1.336
       1.252
       1.150
       1.033
       0.913
       0.808
       0.726
       0.668
       0.625
       0.586
       0.549
       0.513
       0.478
       0.445
       0.409
       0.364
       0.308
       0.243
       0.172
       0.104
       0.044
      -0.005
      -0.041
      -0.062
      -0.072
      -0.077
      -0.090
      -0.125
      -0.195
      -0.303
      -0.443
      -0.606
      -0.781
      -0.960
      -1.133
      -1.291
      -1.426
      -1.527
      -1.586
      -1.594
      -1.551
      -1.462
      -1.333
      -1.172
      -0.983
      -0.770
      -0.539
      -0.301
      -0.072
       0.140
       0.331
       0.507
       0.671
       0.824
       0.962
       1.079
       1.173
       1.247
       1.300
       1.331
       1.330
       1.287
       1.197
       1.061
       0.890
       0.693
       0.483
       0.267
       0.052
      -0.156
      -0.348
      -0.514
      -0.646
      -0.742
      -0.803
      -0.832
      -0.832
      -0.809
      -0.768
      -0.716
      -0.658
      -0.596
      -0.531
      -0.463
      -0.392
      -0.318
      -0.240
      -0.153
      -0.053
       0.065
       0.202
       0.356
       0.514
       0.660
       0.780
       0.864
       0.911
       0.924
       0.904
       0.850
       0.758
       0.629
       0.472
       0.301
       0.133
      -0.020
      -0.156
      -0.281
      -0.402
      -0.517
      -0.618
      -0.693
      -0.732
      -0.738
      -0.720
      -0.692
      -0.658
      -0.614
      -0.553
      -0.468
      -0.359
      -0.237
      -0.112
       0.005
       0.107
       0.192
       0.260
       0.312
       0.349
       0.364
       0.348
       0.296
       0.210
       0.095
      -0.038
      -0.183
      -0.335
      -0.489
      -0.641
      -0.780
      -0.894
      -0.971
      -1.007
      -1.005
      -0.977
      -0.927
      -0.853
      -0.750
      -0.618
      -0.467
      -0.309
      -0.152
       0.003
       0.158
       0.314
       0.463
       0.594
       0.695
       0.761
       0.796
       0.806
       0.795
       0.769
       0.731
       0.686
       0.641
       0.599
       0.563
       0.529
       0.491
       0.449
       0.409
       0.379
       0.360
       0.345
       0.322
       0.288
       0.246
       0.205
       0.172
       0.149
       0.130
       0.113
       0.099
       0.092
       0.094
       0.102
       0.105
       0.092
       0.056
       0.001
      -0.065
      -0.137
      -0.214
      -0.301
      -0.400
      -0.501
      -0.592
      -0.662
      -0.710
      -0.737
      -0.749
      -0.745
      -0.719
      -0.670
      -0.597
      -0.507
      -0.409
      -0.312
      -0.224
      -0.147
      -0.079
      -0.016
       0.045
       0.104
       0.159
       0.213
       0.273
       0.345
       0.433
       0.532
       0.628
       0.711
       0.769
       0.798
       0.795
       0.761
       0.700
       0.615
       0.512
       0.396
       0.276
       0.161
       0.062
      -0.011
      -0.054
      -0.066
      -0.052
      -0.020
       0.021
       0.061
       0.091
       0.106
       0.104
       0.085
       0.051
       0.008
      -0.033
      -0.057
      -0.052
      -0.018
       0.035
       0.093
       0.150
       0.210
       0.282
       0.368
       0.459
       0.543
       0.610
       0.658
       0.690
       0.710
       0.716
       0.700
       0.659
       0.596
       0.518
       0.431
       0.335
       0.225
       0.094
      -0.058
      -0.224
      -0.393
      -0.552
      -0.692
      -0.805
      -0.891
      -0.952
      -0.991
      -1.014
      -1.024
      -1.028
      -1.031
      -1.041
      -1.061
      -1.092
      -1.131
      -1.174
      -1.221
      -1.264
      -1.296
      -1.299
      -1.257
      -1.163
      -1.022
      -0.852
      -0.671
      -0.493
      -0.323
      -0.162
      -0.009
       0.134
       0.260
       0.362
       0.436
       0.484
       0.516
       0.548
       0.593
       0.657
