Origin Time       04/04/2011 11:31:40 UTC
Lat.              29.6 N	
Long.             80.8 E	
Depth (Km)         10.0
Magnitude         5.7
 Region           NEPAL-INDIA-BORDER-REGION                                        
 Above details taken from IMD 
    
Station Code      DEH
Station Lat.       30.316  N
Station Long.      78.042  E
Station Height(m)  662.0
Site Class        C   Vs30 between 200 m/sec to 375 m/sec *  
Record Time       04.04.2011 11:32:27.469 UTC
Sampling Rate     200. Hz
 Record Duration   89.035 Sec.
 Direction         N-S (N positive)
Max. Acceleration     -3.288 cm/sec**2
     
  * For reference see Site Classification link of website 
     
 Base Line Corrected and Low Pass Filtered (Cut Off at 35 Hz) Time History
 Acceleration data in cm/sec**2
    
[...]
       1.215
       1.333
       1.419
       1.475
       1.502
       1.500
       1.476
       1.437
       1.388
       1.331
       1.269
       1.200
       1.118
       1.018
       0.896
       0.753
       0.595
       0.432
       0.272
       0.123
      -0.014
      -0.142
      -0.265
      -0.378
      -0.474
      -0.545
      -0.591
      -0.616
      -0.632
      -0.644
      -0.654
      -0.656
      -0.650
      -0.641
      -0.635
      -0.630
      -0.620
      -0.593
      -0.543
      -0.471
      -0.390
      -0.316
      -0.261
      -0.235
      -0.239
      -0.271
      -0.326
      -0.392
      -0.456
      -0.504
      -0.532
      -0.544
      -0.550
      -0.556
      -0.563
      -0.565
      -0.560
      -0.550
      -0.539
      -0.527
      -0.508
      -0.475
      -0.429
      -0.377
      -0.330
      -0.294
      -0.270
      -0.249
      -0.224
      -0.192
      -0.152
      -0.111
      -0.077
      -0.049
      -0.021
       0.016
       0.064
       0.118
       0.168
       0.210
       0.247
       0.284
       0.329
       0.383
       0.440
       0.493
       0.544
       0.597
       0.657
       0.723
       0.790
       0.847
       0.882
       0.891
       0.877
       0.847
       0.805
       0.753
       0.695
       0.636
       0.582
       0.532
       0.485
       0.439
       0.398
       0.370
       0.360
       0.366
       0.375
       0.380
       0.374
       0.357
       0.328
       0.286
       0.230
       0.160
       0.081
       0.001
      -0.069
      -0.120
      -0.147
      -0.145
      -0.114
      -0.059
       0.011
       0.085
       0.156
       0.220
       0.274
       0.315
       0.341
       0.348
       0.336
       0.308
       0.268
       0.219
       0.159
       0.082
      -0.014
      -0.124
      -0.236
      -0.342
      -0.443
      -0.547
      -0.665
      -0.796
      -0.927
      -1.038
      -1.118
      -1.172
      -1.210
      -1.235
      -1.236
      -1.200
      -1.123
      -1.009
      -0.866
      -0.701
      -0.521
      -0.334
      -0.143
       0.049
       0.243
       0.438
       0.632
       0.814
       0.979
       1.124
       1.249
       1.351
       1.429
       1.482
       1.514
       1.527
       1.518
       1.481
       1.416
       1.327
       1.223
       1.117
       1.013
       0.918
       0.829
       0.743
       0.654
       0.561
       0.470
       0.392
       0.330
       0.287
       0.263
       0.263
       0.283
       0.314
       0.338
       0.348
       0.342
       0.333
       0.330
       0.335
       0.341
       0.339
       0.319
       0.279
       0.224
       0.162
       0.104
       0.051
       0.000
      -0.055
      -0.109
      -0.149
      -0.168
      -0.170
      -0.166
      -0.169
      -0.183
      -0.205
      -0.223
      -0.221
      -0.198
      -0.166
      -0.146
      -0.150
      -0.174
      -0.204
      -0.228
      -0.250
      -0.283
      -0.337
      -0.412
      -0.496
      -0.580
      -0.662
      -0.746
      -0.826
      -0.886
      -0.908
      -0.886
      -0.828
      -0.749
      -0.659
      -0.562
      -0.455
      -0.331
      -0.187
      -0.030
       0.129
       0.280
       0.419
       0.552
       0.684
       0.814
       0.936
       1.042
       1.128
       1.193
       1.240
       1.271
       1.285
       1.272
       1.219
       1.123
       0.991
       0.837
       0.673
       0.505
       0.329
       0.144
      -0.051
      -0.252
      -0.453
      -0.654
      -0.853
      -1.047
      -1.232
      -1.404
      -1.554
      -1.673
      -1.753
      -1.795
      -1.802
      -1.782
      -1.736
      -1.664
      -1.568
      -1.452
      -1.325
      -1.192
      -1.051
      -0.901
      -0.744
      -0.588
      -0.442
      -0.305
      -0.169
      -0.025
       0.126
       0.276
       0.415
       0.536
       0.635
       0.715
       0.790
       0.870
       0.956
       1.036
       1.098
       1.139
       1.167
       1.193
       1.216
       1.224
       1.191
       1.093
       0.931
       0.730
       0.525
       0.336
       0.165
      -0.001
      -0.165
      -0.325
      -0.468
      -0.589
      -0.689
      -0.777
      -0.861
      -0.946
      -1.031
      -1.115
      -1.201
      -1.293
      -1.393
      -1.492
      -1.579
      -1.644
      -1.685
      -1.703
      -1.701
      -1.679
      -1.633
      -1.563
      -1.475
      -1.378
      -1.276
      -1.168
      -1.049
      -0.917
      -0.766
      -0.594
      -0.406
      -0.216
      -0.032
       0.141
       0.304
       0.454
       0.587
       0.696
       0.781
       0.846
       0.901
       0.955
       1.012
       1.070
       1.126
       1.183
       1.245
       1.310
       1.375
       1.434
       1.482
       1.519
       1.537
       1.530
       1.487
       1.402
       1.279
       1.128
       0.963
       0.793
       0.618
       0.441
       0.264
       0.092
      -0.077
      -0.241
      -0.401
      -0.550
      -0.679
      -0.778
      -0.843
      -0.878
      -0.887
      -0.871
      -0.827
      -0.758
      -0.668
      -0.569
      -0.471
      -0.381
      -0.302
      -0.232
      -0.172
      -0.120
      -0.078
      -0.040
       0.003
       0.061
       0.138
       0.233
       0.337
       0.435
       0.519
       0.588
       0.644
       0.688
       0.719
       0.739
       0.750
       0.754
       0.742
       0.708
       0.646
       0.563
       0.466
       0.365
       0.267
       0.174
       0.090
       0.018
      -0.036
      -0.069
      -0.082
      -0.085
      -0.091
      -0.112
      -0.147
      -0.187
      -0.221
      -0.248
      -0.274
      -0.307
      -0.352
      -0.407
      -0.474
      -0.552
      -0.643
      -0.745
      -0.855
      -0.972
      -1.095
      -1.218
      -1.331
      -1.424
      -1.494
      -1.550
      -1.596
      -1.632
      -1.649
      -1.638
      -1.596
      -1.523
      -1.421
      -1.292
      -1.145
      -0.989
      -0.834
      -0.684
      -0.539
      -0.398
      -0.267
      -0.150
      -0.048
       0.045
       0.134
       0.220
       0.296
       0.360
       0.410
       0.449
       0.483
       0.513
       0.541
       0.565
       0.583
       0.591
       0.587
       0.573
       0.555
       0.537
       0.525
       0.519
       0.515
       0.509
       0.504
       0.510
       0.537
       0.591
       0.671
       0.775
       0.906
       1.063
       1.242
       1.425
       1.593
       1.731
       1.834
       1.899
       1.929
       1.921
       1.878
       1.799
       1.692
       1.567
       1.437
       1.311
       1.192
       1.080
       0.971
       0.863
       0.759
       0.667
       0.594
       0.538
       0.486
       0.426
       0.351
       0.263
       0.172
       0.089
       0.018
      -0.049
      -0.123
      -0.210
      -0.301
      -0.389
      -0.482
      -0.600
      -0.760
      -0.967
      -1.207
      -1.456
      -1.699
      -1.926
      -2.136
      -2.323
      -2.481
      -2.602
      -2.683
      -2.719
      -2.712
      -2.669
      -2.596
      -2.492
      -2.350
      -2.163
      -1.933
      -1.663
      -1.362
      -1.032
      -0.676
      -0.294
       0.107
       0.517
       0.922
       1.304
       1.649
       1.950
       2.208
       2.429
       2.617
       2.768
       2.877
       2.947
       2.985
       2.997
       2.988
       2.956
       2.895
       2.800
       2.671
       2.510
       2.324
       2.111
       1.866
       1.589
       1.283
       0.958
       0.617
       0.261
      -0.109
      -0.478
      -0.825
      -1.130
      -1.387
      -1.599
      -1.778
      -1.928
      -2.050
      -2.141
      -2.202
      -2.235
      -2.244
      -2.233
      -2.204
      -2.159
      -2.098
      -2.018
      -1.919
      -1.802
      -1.676
      -1.546
      -1.416
      -1.282
      -1.143
      -1.004
      -0.874
      -0.753
      -0.631
      -0.497
      -0.347
      -0.192
      -0.045
       0.083
       0.194
       0.291
       0.383
       0.476
       0.568
       0.650
       0.704
       0.719
       0.699
       0.657
       0.610
       0.567
       0.529
       0.494
       0.464
       0.437
       0.411
       0.381
       0.344
       0.299
       0.247
       0.192
       0.138
       0.089
       0.044
       0.003
      -0.032
      -0.059
      -0.075
      -0.078
      -0.070
      -0.054
      -0.034
      -0.011
       0.022
       0.070
       0.139
       0.226
       0.319
       0.400
       0.461
       0.507
       0.550
       0.600
       0.655
       0.707
       0.751
       0.782
       0.801
       0.807
       0.802
       0.787
       0.763
       0.730
       0.683
       0.614
       0.521
       0.408
       0.285
       0.162
       0.040
      -0.085
      -0.214
      -0.345
      -0.472
      -0.592
      -0.708
      -0.822
      -0.929
      -1.022
      -1.090
      -1.135
      -1.161
      -1.172
      -1.171
      -1.158
      -1.139
      -1.123
      -1.116
      -1.118
      -1.121
      -1.112
      -1.081
      -1.025
      -0.943
      -0.834
      -0.697
      -0.534
      -0.356
      -0.181
      -0.032
       0.078
       0.150
       0.202
       0.254
       0.314
       0.376
       0.432
       0.479
       0.523
       0.573
       0.635
       0.700
       0.758
       0.805
       0.848
       0.896
       0.947
       0.993
       1.023
       1.035
       1.031
       1.014
       0.983
       0.938
       0.884
       0.827
       0.775
       0.733
       0.704
       0.690
       0.688
       0.688
       0.677
       0.647
       0.598
       0.531
       0.449
       0.351
       0.236
       0.102
      -0.045
      -0.196
      -0.342
      -0.483
      -0.619
      -0.750
      -0.871
      -0.976
      -1.063
      -1.137
      -1.198
      -1.250
      -1.291
      -1.321
      -1.338
      -1.339
      -1.322
      -1.285
      -1.230
      -1.161
      -1.078
      -0.981
      -0.869
      -0.750
      -0.639
      -0.548
      -0.479
      -0.424
      -0.369
      -0.304
      -0.228
      -0.148
      -0.074
      -0.013
       0.037
       0.086
       0.137
       0.185
       0.223
       0.248
       0.264
       0.282
       0.304
       0.322
       0.328
       0.322
       0.314
       0.313
       0.317
       0.321
       0.319
       0.313
       0.311
       0.319
       0.341
       0.376
       0.419
       0.461
       0.494
       0.511
       0.513
       0.508
       0.501
       0.497
       0.492
       0.487
       0.486
       0.489
       0.494
       0.498
       0.505
       0.520
       0.548
       0.585
       0.619
       0.645
       0.660
       0.664
       0.660
       0.648
       0.625
       0.588
       0.532
       0.462
       0.383
       0.304
       0.229
       0.159
       0.087
       0.009
      -0.075
      -0.153
      -0.212
      -0.246
      -0.256
      -0.255
      -0.254
      -0.260
      -0.268
      -0.273
      -0.273
      -0.266
      -0.247
      -0.211
      -0.158
      -0.092
      -0.020
       0.056
       0.135
       0.220
       0.309
       0.402
       0.496
       0.590
       0.676
       0.748
       0.805
       0.852
       0.895
       0.939
       0.980
       1.010
       1.027
       1.036
       1.040
       1.039
       1.031
       1.013
       0.980
       0.926
       0.850
       0.760
       0.667
       0.586
       0.526
       0.484
       0.454
       0.428
       0.403
       0.372
       0.323
       0.237
       0.107
      -0.062
      -0.256
      -0.464
      -0.683
      -0.915
      -1.155
      -1.387
      -1.595
      -1.773
      -1.923
      -2.046
      -2.138
      -2.193
      -2.203
      -2.171
      -2.107
      -2.035
      -1.972
      -1.926
      -1.886
      -1.836
      -1.769
      -1.687
      -1.601
      -1.513
      -1.420
      -1.310
      -1.171
      -1.000
      -0.802
      -0.585
      -0.359
      -0.126
       0.114
       0.354
       0.583
       0.783
       0.945
       1.071
       1.170
       1.247
       1.303
       1.335
       1.342
       1.332
       1.312
       1.289
       1.264
       1.234
       1.193
       1.140
       1.072
       0.988
       0.888
       0.770
       0.638
       0.500
       0.366
       0.245
       0.141
       0.054
      -0.019
      -0.085
      -0.149
      -0.214
      -0.280
      -0.348
      -0.418
      -0.497
      -0.587
      -0.687
      -0.790
      -0.888
      -0.979
      -1.062
      -1.135
      -1.189
      -1.213
      -1.198
      -1.150
      -1.080
      -0.998
      -0.909
      -0.807
      -0.691
      -0.564
      -0.428
      -0.284
      -0.130
       0.028
       0.183
       0.330
       0.470
       0.615
       0.771
       0.937
       1.105
       1.266
       1.417
       1.563
       1.705
       1.842
       1.971
       2.094
       2.209
       2.310
       2.377
       2.392
       2.345
       2.241
       2.098
       1.933
       1.748
       1.532
       1.274
       0.972
       0.636
       0.282
      -0.081
      -0.448
      -0.816
      -1.173
      -1.506
      -1.802
      -2.060
      -2.284
      -2.477
      -2.641
      -2.781
      -2.904
      -3.021
      -3.131
      -3.224
      -3.282
      -3.288
      -3.243
      -3.159
      -3.055
      -2.936
      -2.795
      -2.622
      -2.411
      -2.169
      -1.904
      -1.619
      -1.318
      -1.002
      -0.676
      -0.347
      -0.019
       0.307
       0.633
       0.956
       1.263
       1.537
       1.769
       1.959
       2.110
       2.219
       2.287
       2.321
       2.333
       2.334
       2.327
       2.303
       2.250
       2.166
       2.058
       1.934
       1.792
       1.629
       1.443
       1.251
       1.070
       0.908
       0.760
       0.612
       0.460
       0.311
       0.177
       0.054
      -0.081
      -0.252
      -0.456
      -0.665
      -0.846
      -0.987
      -1.095
      -1.187
      -1.262
      -1.302
      -1.293
      -1.231
      -1.124
      -0.981
      -0.809
      -0.616
      -0.416
      -0.228
      -0.070
       0.048
       0.123
       0.165
       0.182
       0.175
       0.136
       0.055
      -0.063
      -0.203
      -0.345
      -0.477
      -0.594
      -0.699
      -0.790
      -0.861
      -0.905
      -0.917
      -0.899
      -0.852
      -0.780
      -0.687
      -0.581
      -0.468
      -0.353
      -0.236
      -0.120
      -0.004
       0.115
       0.242
       0.381
       0.528
       0.677
       0.826
       0.973
       1.114
       1.248
       1.371
       1.491
       1.617
       1.757
       1.904
       2.044
       2.161
       2.252
       2.321
       2.368
       2.377
       2.331
       2.228
       2.081
       1.909
       1.723
       1.525
       1.316
       1.099
       0.884
       0.680
       0.484
       0.283
       0.073
      -0.139
      -0.341
      -0.517
      -0.662
      -0.777
      -0.872
      -0.956
      -1.028
      -1.083
      -1.124
      -1.167
      -1.233
      -1.333
      -1.464
      -1.608
      -1.749
      -1.879
      -2.000
      -2.115
      -2.217
      -2.286
      -2.298
      -2.243
      -2.125
      -1.961
      -1.766
      -1.548
      -1.305
      -1.038
      -0.750
      -0.447
      -0.138
       0.172
       0.474
       0.758
       1.024
       1.270
       1.492
       1.686
       1.845
       1.970
       2.068
       2.148
       2.214
       2.257
       2.262
       2.217
       2.120
       1.977
       1.797
       1.590
       1.364
       1.126
       0.883
       0.641
       0.409
       0.194
      -0.003
      -0.185
      -0.354
      -0.508
      -0.643
      -0.756
      -0.854
      -0.939
      -1.009
      -1.051
      -1.048
      -0.996
      -0.904
      -0.787
      -0.659
      -0.527
      -0.390
      -0.253
      -0.128
      -0.031
       0.023
       0.031
      -0.001
      -0.067
      -0.163
      -0.287
      -0.432
      -0.585
      -0.728
      -0.851
      -0.950
      -1.024
      -1.067
      -1.066
      -1.011
      -0.906
      -0.768
      -0.611
      -0.446
      -0.275
      -0.100
       0.075
       0.246
       0.405
       0.540
       0.641
       0.702
       0.732
       0.751
       0.771
       0.795
       0.808
       0.791
       0.737
       0.649
       0.535
       0.397
       0.233
       0.045
      -0.158
      -0.356
      -0.536
      -0.693
      -0.826
      -0.934
      -1.016
      -1.064
      -1.073
      -1.041
      -0.969
      -0.865
      -0.742
      -0.611
      -0.475
      -0.327
      -0.162
       0.014
       0.186
       0.340
       0.481
       0.621
       0.770
       0.916
       1.032
       1.098
       1.110
       1.078
       1.017
       0.929
       0.815
       0.677
       0.522
       0.358
       0.199
       0.053
      -0.072
      -0.172
      -0.241
      -0.273
      -0.267
      -0.238
      -0.203
      -0.171
      -0.136
      -0.091
      -0.039
       0.009
       0.043
       0.063
       0.076
       0.096
       0.133
       0.191
       0.263
       0.334
       0.394
       0.442
       0.482
       0.518
       0.543
       0.543
       0.512
       0.458
       0.399
       0.343
       0.289
       0.234
       0.183
       0.146
       0.127
       0.111
       0.078
       0.007
      -0.102
      -0.228
      -0.342
      -0.429
      -0.496
      -0.571
      -0.677
      -0.820
      -0.982
      -1.140
      -1.286
      -1.431
      -1.584
      -1.736
      -1.867
      -1.961
      -2.017
      -2.042
      -2.044
      -2.021
      -1.969
      -1.887
      -1.783
      -1.673
      -1.568
      -1.461
      -1.338
      -1.190
      -1.015
      -0.824
      -0.621
      -0.407
      -0.182
       0.046
       0.264
       0.460
       0.634
       0.791
       0.938
       1.079
       1.226
       1.384
       1.548
       1.705
       1.838
       1.934
       1.989
       2.003
       1.982
       1.932
       1.860
       1.774
       1.679
       1.578
       1.472
       1.360
       1.238
       1.107
       0.967
       0.823
       0.681
       0.543
       0.403
       0.254
       0.089
      -0.091
      -0.280
      -0.473
      -0.669
      -0.866
      -1.061
      -1.247
      -1.413
      -1.555
      -1.673
      -1.774
      -1.865
      -1.944
      -1.998
      -2.011
      -1.969
      -1.876
      -1.748
      -1.607
      -1.464
      -1.316
      -1.154
      -0.974
      -0.776
      -0.569
      -0.356
      -0.137
       0.091
       0.323
       0.548
       0.746
       0.903
       1.023
       1.116
       1.191
       1.250
       1.287
       1.302
       1.298
       1.281
       1.257
       1.229
       1.201
       1.177
       1.164
       1.169
       1.194
       1.233
       1.274
       1.307
       1.327
       1.337
       1.342
       1.344
       1.341
       1.322
       1.279
       1.210
       1.120
       1.019
       0.916
       0.811
       0.706
