Origin Time       22/10/2009 19:51:25
Lat.              36.5°N	
Long.             71.0°E	
Depth (Km)        168.0
Magnitude         6.3
 Region           HINDUKUSH-REGION-AFGHANISTAN                                     
 Above details taken from IMD 
   
Station Code      DEH
Station Lat.       31.883
Station Long.      76.216
Station Height(m)    0.0
Site Class        B   Vs30 between 375 m/sec to 700 m/sec *  
Record Time       22.10.2009 19:53:54.824
Sampling Rate     200. Hz
 Record Duration   65.030 Sec.
 Direction         Vert. (Up positive)
Max. Acceleration      0.738 cm/sec**2
     
  * For reference see Site Classification link of website 
     
 Base Line Corrected and Low Pass Filtered (Cut Off at 35 Hz) Time History
 Acceleration data in cm/sec**2
    
[...]
       0.093
       0.112
       0.107
       0.082
       0.055
       0.045
       0.061
       0.100
       0.151
       0.199
       0.233
       0.245
       0.235
       0.205
       0.164
       0.121
       0.084
       0.059
       0.046
       0.033
       0.007
      -0.038
      -0.096
      -0.149
      -0.176
      -0.165
      -0.126
      -0.078
      -0.035
      -0.001
       0.027
       0.051
       0.068
       0.071
       0.059
       0.042
       0.025
       0.010
      -0.010
      -0.039
      -0.073
      -0.100
      -0.112
      -0.106
      -0.085
      -0.056
      -0.024
       0.010
       0.042
       0.067
       0.075
       0.065
       0.042
       0.022
       0.016
       0.027
       0.044
       0.049
       0.031
      -0.005
      -0.043
      -0.058
      -0.040
       0.002
       0.046
       0.068
       0.063
       0.040
       0.012
      -0.009
      -0.023
      -0.032
      -0.038
      -0.036
      -0.023
       0.000
       0.024
       0.038
       0.035
       0.023
       0.014
       0.020
       0.038
       0.054
       0.053
       0.032
       0.000
      -0.028
      -0.046
      -0.053
      -0.056
      -0.059
      -0.060
      -0.057
      -0.050
      -0.037
      -0.017
       0.010
       0.041
       0.066
       0.079
       0.078
       0.068
       0.055
       0.039
       0.015
      -0.020
      -0.061
      -0.096
      -0.112
      -0.107
      -0.089
      -0.067
      -0.045
      -0.024
      -0.006
       0.003
      -0.001
      -0.014
      -0.022
      -0.012
       0.014
       0.042
       0.050
       0.031
      -0.003
      -0.030
      -0.036
      -0.024
      -0.010
      -0.002
       0.001
       0.006
       0.016
       0.019
       0.006
      -0.026
      -0.060
      -0.075
      -0.062
      -0.032
      -0.009
      -0.010
      -0.034
      -0.062
      -0.074
      -0.060
      -0.025
       0.012
       0.034
       0.032
       0.012
      -0.016
      -0.041
      -0.055
      -0.056
      -0.045
      -0.024
       0.002
       0.026
       0.040
       0.037
       0.019
      -0.009
      -0.037
      -0.058
      -0.068
      -0.069
      -0.062
      -0.052
      -0.042
      -0.035
      -0.031
      -0.028
      -0.024
      -0.018
      -0.013
      -0.011
      -0.013
      -0.015
      -0.012
      -0.002
       0.003
      -0.009
      -0.045
      -0.093
      -0.129
      -0.134
      -0.109
      -0.069
      -0.037
      -0.017
      -0.002
       0.018
       0.045
       0.068
       0.078
       0.072
       0.056
       0.038
       0.021
       0.003
      -0.020
      -0.045
      -0.067
      -0.081
      -0.087
      -0.088
      -0.087
      -0.083
      -0.077
      -0.073
      -0.077
      -0.086
      -0.095
      -0.091
      -0.068
      -0.027
       0.022
       0.070
       0.111
       0.141
       0.155
       0.146
       0.118
       0.081
       0.054
       0.050
       0.072
       0.107
       0.140
       0.155
       0.148
       0.125
       0.095
       0.069
       0.052
       0.042
       0.040
       0.039
       0.035
       0.022
      -0.004
      -0.038
      -0.068
      -0.083
      -0.078
      -0.058
      -0.036
      -0.023
      -0.025
      -0.040
      -0.060
      -0.075
      -0.076
      -0.059
      -0.024
       0.015
       0.037
       0.026
      -0.017
      -0.071
      -0.106
      -0.103
      -0.061
       0.000
       0.057
       0.097
       0.116
       0.115
       0.100
       0.076
       0.053
       0.036
       0.029
       0.027
       0.024
       0.017
       0.008
       0.005
       0.010
       0.017
       0.016
      -0.001
      -0.027
      -0.050
      -0.059
      -0.051
      -0.033
      -0.016
      -0.007
      -0.003
       0.001
       0.009
       0.016
       0.012
      -0.010
      -0.040
      -0.060
      -0.051
      -0.016
       0.024
       0.046
       0.045
       0.038
       0.045
       0.066
       0.083
       0.069
       0.016
      -0.054
      -0.107
      -0.121
      -0.100
      -0.070
      -0.056
      -0.066
      -0.088
      -0.107
      -0.117
      -0.120
      -0.127
      -0.140
      -0.153
      -0.156
      -0.150
      -0.140
      -0.130
      -0.120
      -0.105
      -0.080
      -0.049
      -0.017
       0.012
       0.033
       0.045
       0.050
       0.046
       0.041
       0.041
       0.057
       0.086
       0.112
       0.116
       0.084
       0.028
      -0.026
      -0.048
      -0.029
       0.016
       0.058
       0.077
       0.073
       0.065
       0.068
       0.083
       0.098
       0.102
       0.095
       0.086
       0.086
       0.092
       0.098
       0.094
       0.081
       0.064
       0.048
       0.035
       0.026
       0.022
       0.026
       0.035
       0.044
       0.047
       0.041
       0.032
       0.029
       0.035
       0.042
       0.038
       0.022
       0.004
       0.004
       0.033
       0.082
       0.127
       0.142
       0.115
       0.054
      -0.021
      -0.088
      -0.132
      -0.143
      -0.121
      -0.073
      -0.018
       0.023
       0.037
       0.025
      -0.002
      -0.029
      -0.047
      -0.053
      -0.048
      -0.040
      -0.035
      -0.037
      -0.042
      -0.045
      -0.044
      -0.042
      -0.042
      -0.050
      -0.066
      -0.086
      -0.107
      -0.127
      -0.144
      -0.153
      -0.141
      -0.100
      -0.029
       0.055
       0.129
       0.176
       0.194
       0.192
       0.182
       0.173
       0.171
       0.178
       0.196
       0.222
       0.250
       0.268
       0.269
       0.250
       0.215
       0.170
       0.122
       0.082
       0.056
       0.045
       0.040
       0.032
       0.019
       0.010
       0.021
       0.052
       0.087
       0.101
       0.084
       0.051
       0.026
       0.018
       0.018
       0.003
      -0.034
      -0.083
      -0.127
      -0.158
      -0.185
      -0.215
      -0.243
      -0.249
      -0.220
      -0.164
      -0.106
      -0.067
      -0.047
      -0.032
      -0.008
       0.023
       0.045
       0.045
       0.022
      -0.005
      -0.020
      -0.014
       0.004
       0.021
       0.028
       0.028
       0.030
       0.043
       0.063
       0.080
       0.084
       0.077
       0.072
       0.084
       0.111
       0.138
       0.149
       0.142
       0.135
       0.143
       0.161
       0.165
       0.134
       0.073
       0.009
      -0.031
      -0.048
      -0.064
      -0.105
      -0.167
      -0.218
      -0.224
      -0.179
      -0.115
      -0.073
      -0.074
      -0.102
      -0.126
      -0.126
      -0.113
      -0.114
      -0.144
      -0.191
      -0.229
      -0.234
      -0.207
      -0.166
      -0.134
      -0.118
      -0.109
      -0.094
      -0.067
      -0.036
      -0.014
      -0.004
       0.000
       0.009
       0.030
       0.054
       0.073
       0.088
       0.110
       0.146
       0.189
       0.219
       0.222
       0.201
       0.177
       0.173
       0.199
       0.242
       0.281
       0.300
       0.292
       0.266
       0.236
       0.215
       0.204
       0.196
       0.180
       0.152
       0.121
       0.100
       0.097
       0.114
       0.145
       0.179
       0.200
       0.194
       0.148
       0.060
      -0.053
      -0.161
      -0.239
      -0.275
      -0.278
      -0.266
      -0.253
      -0.246
      -0.244
      -0.244
      -0.247
      -0.249
      -0.244
      -0.228
      -0.203
      -0.180
      -0.171
      -0.176
      -0.188
      -0.193
      -0.183
      -0.155
      -0.111
      -0.058
      -0.009
       0.029
       0.053
       0.069
       0.090
       0.123
       0.170
       0.223
       0.274
       0.317
       0.347
       0.362
       0.356
       0.328
       0.282
       0.230
       0.181
       0.142
       0.112
       0.085
       0.054
       0.015
      -0.030
      -0.072
      -0.103
      -0.112
      -0.098
      -0.070
      -0.047
      -0.051
      -0.086
      -0.138
      -0.185
      -0.212
      -0.227
      -0.249
      -0.291
      -0.347
      -0.401
      -0.437
      -0.453
      -0.460
      -0.464
      -0.465
      -0.455
      -0.433
      -0.410
      -0.400
      -0.408
      -0.420
      -0.414
      -0.377
      -0.314
      -0.246
      -0.193
      -0.161
      -0.144
      -0.127
      -0.102
      -0.067
      -0.023
       0.028
       0.084
       0.142
       0.195
       0.233
       0.255
       0.269
       0.288
       0.322
       0.368
       0.407
       0.416
       0.382
       0.314
       0.236
       0.171
       0.132
       0.116
       0.106
       0.087
       0.051
       0.009
      -0.023
      -0.029
      -0.007
       0.027
       0.052
       0.054
       0.039
       0.022
       0.016
       0.024
       0.036
       0.046
       0.054
       0.059
       0.054
       0.030
      -0.008
      -0.043
      -0.058
      -0.053
      -0.049
      -0.075
      -0.138
      -0.220
      -0.285
      -0.308
      -0.293
      -0.263
      -0.244
      -0.249
      -0.264
      -0.270
      -0.257
      -0.232
      -0.210
      -0.196
      -0.188
      -0.176
      -0.154
      -0.122
      -0.087
      -0.055
      -0.027
       0.001
       0.038
       0.088
       0.148
       0.207
       0.255
       0.288
       0.310
       0.335
       0.368
       0.406
       0.432
       0.436
       0.420
       0.398
       0.384
       0.383
       0.382
       0.368
       0.338
       0.299
       0.264
       0.237
       0.213
       0.184
       0.151
       0.126
       0.115
       0.114
       0.109
       0.082
       0.029
      -0.041
      -0.109
      -0.168
      -0.221
      -0.278
      -0.343
      -0.413
      -0.480
      -0.537
      -0.581
      -0.603
      -0.599
      -0.567
      -0.520
      -0.477
      -0.453
      -0.445
      -0.430
      -0.388
      -0.314
      -0.228
      -0.155
      -0.108
      -0.073
      -0.024
       0.057
       0.164
       0.268
       0.343
       0.377
       0.380
       0.371
       0.365
       0.368
       0.377
       0.387
       0.393
       0.391
       0.375
       0.342
       0.294
       0.245
       0.214
       0.215
       0.242
       0.272
       0.279
       0.248
       0.185
       0.108
       0.029
      -0.049
      -0.135
      -0.231
      -0.324
      -0.391
      -0.413
      -0.389
      -0.341
      -0.295
      -0.262
      -0.230
      -0.179
      -0.104
      -0.025
       0.025
       0.019
      -0.036
      -0.106
      -0.153
      -0.159
      -0.135
      -0.109
      -0.100
      -0.106
      -0.115
      -0.115
      -0.107
      -0.100
      -0.100
      -0.104
      -0.102
      -0.090
      -0.067
      -0.034
       0.011
       0.074
       0.151
       0.225
       0.272
       0.280
       0.264
       0.261
       0.298
       0.367
       0.435
       0.464
       0.447
       0.405
       0.368
       0.345
       0.321
       0.274
       0.200
       0.124
       0.075
       0.061
       0.064
       0.058
       0.032
       0.000
      -0.015
      -0.006
       0.012
       0.015
      -0.013
      -0.060
      -0.106
      -0.132
      -0.141
      -0.141
      -0.142
      -0.138
      -0.123
      -0.090
      -0.042
       0.011
       0.057
       0.091
       0.117
       0.146
       0.180
       0.213
       0.229
       0.219
       0.189
       0.158
       0.145
       0.150
       0.159
       0.151
       0.122
       0.080
       0.043
       0.017
      -0.005
      -0.031
      -0.059
      -0.073
      -0.059
      -0.022
       0.014
       0.028
       0.021
       0.018
       0.040
       0.090
       0.144
       0.169
       0.149
       0.089
       0.014
      -0.048
      -0.084
      -0.097
      -0.101
      -0.114
      -0.146
      -0.193
      -0.240
      -0.271
      -0.280
      -0.277
      -0.279
      -0.299
      -0.332
      -0.364
      -0.377
      -0.368
      -0.347
      -0.329
      -0.318
      -0.303
      -0.269
      -0.213
      -0.152
      -0.109
      -0.103
      -0.127
      -0.161
      -0.184
      -0.188
      -0.180
      -0.170
      -0.163
      -0.155
      -0.132
      -0.086
      -0.013
       0.079
       0.174
       0.258
       0.320
       0.356
       0.371
       0.370
       0.357
       0.334
       0.300
       0.253
       0.192
       0.124
       0.066
       0.036
       0.042
       0.072
       0.098
       0.098
       0.067
       0.021
      -0.020
      -0.044
      -0.050
      -0.042
      -0.026
      -0.009
      -0.003
      -0.018
      -0.058
      -0.109
      -0.146
      -0.144
      -0.099
      -0.035
       0.013
       0.024
       0.002
      -0.032
      -0.057
      -0.065
      -0.065
      -0.065
      -0.067
      -0.069
      -0.071
      -0.083
      -0.107
      -0.137
      -0.158
      -0.159
      -0.145
      -0.123
      -0.098
      -0.065
      -0.023
       0.010
       0.011
      -0.034
      -0.110
      -0.188
      -0.236
      -0.249
      -0.243
      -0.242
      -0.255
      -0.278
      -0.291
      -0.276
      -0.225
      -0.142
      -0.045
       0.040
       0.098
       0.130
       0.157
       0.202
       0.273
       0.356
       0.430
       0.487
       0.536
       0.593
       0.659
       0.716
       0.738
       0.718
       0.671
       0.616
       0.557
       0.481
       0.379
       0.264
       0.172
       0.131
       0.142
       0.173
       0.181
       0.145
       0.078
       0.009
      -0.046
      -0.091
      -0.139
      -0.193
      -0.236
      -0.252
      -0.233
      -0.190
      -0.142
      -0.103
      -0.076
      -0.063
      -0.065
      -0.080
      -0.098
      -0.104
      -0.091
      -0.065
      -0.037
      -0.017
       0.001
       0.024
       0.052
       0.068
       0.052
       0.000
      -0.068
      -0.119
      -0.127
      -0.097
      -0.052
      -0.019
      -0.004
       0.004
       0.024
       0.064
       0.115
       0.158
       0.180
       0.180
       0.162
       0.133
       0.102
       0.080
       0.073
       0.077
       0.074
       0.044
      -0.021
      -0.113
      -0.213
      -0.303
      -0.373
      -0.422
      -0.449
      -0.455
      -0.441
      -0.415
      -0.387
      -0.362
      -0.333
      -0.289
      -0.219
      -0.128
      -0.030
       0.059
       0.132
       0.187
       0.228
       0.260
       0.292
       0.335
       0.394
       0.460
       0.513
       0.540
       0.543
       0.534
       0.525
       0.511
       0.481
       0.424
       0.346
       0.267
       0.200
       0.141
       0.074
      -0.017
      -0.127
      -0.232
      -0.305
      -0.340
      -0.356
      -0.381
      -0.424
      -0.471
      -0.498
      -0.492
      -0.462
      -0.436
      -0.437
      -0.472
      -0.523
      -0.565
      -0.579
      -0.563
      -0.527
      -0.484
      -0.441
      -0.405
      -0.379
      -0.362
      -0.340
      -0.294
      -0.212
      -0.106
      -0.009
       0.051
       0.071
       0.083
       0.124
       0.206
       0.298
       0.350
       0.332
       0.252
       0.148
       0.056
      -0.017
      -0.089
      -0.177
      -0.275
      -0.355
      -0.391
      -0.381
      -0.345
      -0.301
      -0.250
      -0.178
      -0.082
       0.020
       0.096
       0.124
       0.114
       0.099
       0.108
       0.144
       0.186
       0.209
       0.203
       0.177
       0.153
       0.146
       0.161
       0.189
       0.219
       0.242
       0.255
       0.256
       0.246
       0.226
       0.205
       0.198
       0.217
       0.264
       0.330
       0.389
       0.419
       0.407
       0.363
       0.309
       0.264
       0.232
       0.200
       0.152
       0.091
       0.034
       0.003
       0.005
       0.030
       0.054
       0.057
       0.033
      -0.007
      -0.049
      -0.081
      -0.107
      -0.132
      -0.161
      -0.184
      -0.189
      -0.164
      -0.116
      -0.068
      -0.048
      -0.065
      -0.105
      -0.143
      -0.158
      -0.151
      -0.137
      -0.130
      -0.130
      -0.125
      -0.095
      -0.031
       0.062
       0.161
       0.245
       0.299
       0.327
       0.340
       0.350
       0.356
       0.354
       0.342
       0.319
       0.291
       0.257
       0.215
       0.164
       0.112
       0.066
       0.035
       0.013
      -0.010
      -0.043
      -0.082
      -0.109
      -0.108
      -0.082
      -0.050
      -0.034
      -0.038
      -0.047
      -0.040
      -0.011
       0.029
       0.062
       0.078
       0.080
       0.072
       0.052
       0.020
      -0.021
      -0.059
      -0.078
      -0.078
      -0.069
      -0.066
      -0.074
      -0.080
      -0.067
      -0.027
       0.029
       0.074
       0.084
       0.057
       0.011
      -0.030
      -0.050
      -0.049
      -0.035
      -0.015
       0.007
       0.029
       0.042
       0.037
       0.006
      -0.046
      -0.109
      -0.173
      -0.235
      -0.301
      -0.374
      -0.450
      -0.518
      -0.561
      -0.567
      -0.534
      -0.467
      -0.381
      -0.292
      -0.216
      -0.169
      -0.153
      -0.159
      -0.171
      -0.174
      -0.162
      -0.134
      -0.096
      -0.050
      -0.001
       0.044
       0.079
       0.101
       0.116
       0.140
       0.183
       0.241
       0.292
       0.309
       0.278
       0.215
       0.152
       0.120
       0.128
       0.156
       0.177
       0.170
       0.141
       0.111
       0.099
       0.109
       0.131
       0.151
       0.163
       0.167
       0.170
       0.176
       0.181
       0.173
       0.144
       0.098
       0.042
      -0.012
      -0.060
      -0.105
      -0.154
      -0.205
      -0.247
      -0.265
      -0.249
      -0.201
      -0.134
      -0.066
      -0.006
       0.044
       0.088
       0.128
       0.162
       0.192
       0.218
       0.244
       0.272
       0.301
       0.334
       0.369
       0.403
       0.426
       0.425
       0.396
       0.347
       0.296
       0.254
       0.220
       0.177
       0.113
       0.034
      -0.044
      -0.104
      -0.143
      -0.168
      -0.186
      -0.201
      -0.210
      -0.213
      -0.212
      -0.211
      -0.209
      -0.212
      -0.230
      -0.274
      -0.344
      -0.424
      -0.482
      -0.492
      -0.454
      -0.390
      -0.333
      -0.304
      -0.300
      -0.306
      -0.309
      -0.304
      -0.293
      -0.276
      -0.243
      -0.187
      -0.110
      -0.026
       0.051
       0.116
       0.182
       0.258
       0.339
       0.406
       0.442
       0.446
       0.443
       0.460
       0.505
       0.554
       0.568
       0.525
       0.433
       0.327
       0.245
       0.198
       0.170
       0.133
       0.068
      -0.019
      -0.105
      -0.162
      -0.175
      -0.151
      -0.108
      -0.073
      -0.064
      -0.088
      -0.144
      -0.221
      -0.299
      -0.353
      -0.359
      -0.311
