Origin Time       14/03/2010 6:53:21	 UTC
Lat.              31.7 N	
Long.             76.1 E	
Depth (Km)         29.0
Magnitude         4.6
 Region           HIMACHAL-PUNJAB-(HOSHIARPUR)-BORDER                              
 Above details taken from IMD 
    
Station Code      DEH
Station Lat.       31.883  N
Station Long.      76.216  E
Station Height(m)    1.0
Site Class        B   Vs30 between 375 m/sec to 700 m/sec *  
Record Time       14.03.2010 06:53:13.744 UTC
Sampling Rate     200. Hz
 Record Duration   50.875 Sec.
 Direction         N-S (N positive)
Max. Acceleration     -4.930 cm/sec**2
     
  * For reference see Site Classification link of website 
     
 Base Line Corrected and Low Pass Filtered (Cut Off at 35 Hz) Time History
 Acceleration data in cm/sec**2
    
[...]
      -0.109
       0.066
       0.276
       0.498
       0.683
       0.780
       0.765
       0.663
       0.526
       0.402
       0.303
       0.202
       0.065
      -0.108
      -0.274
      -0.372
      -0.373
      -0.299
      -0.213
      -0.175
      -0.211
      -0.302
      -0.390
      -0.418
      -0.367
      -0.277
      -0.226
      -0.263
      -0.353
      -0.388
      -0.266
       0.012
       0.346
       0.606
       0.728
       0.734
       0.675
       0.566
       0.400
       0.199
       0.046
       0.026
       0.139
       0.273
       0.279
       0.088
      -0.242
      -0.574
      -0.801
      -0.899
      -0.911
      -0.881
      -0.819
      -0.707
      -0.533
      -0.309
      -0.068
       0.148
       0.309
       0.399
       0.427
       0.421
       0.416
       0.428
       0.436
       0.400
       0.308
       0.200
       0.151
       0.206
       0.338
       0.456
       0.468
       0.340
       0.116
      -0.110
      -0.248
      -0.251
      -0.142
       0.003
       0.101
       0.115
       0.079
       0.057
       0.066
       0.050
      -0.077
      -0.334
      -0.622
      -0.789
      -0.738
      -0.486
      -0.128
       0.242
       0.564
       0.788
       0.853
       0.725
       0.459
       0.194
       0.061
       0.078
       0.142
       0.138
       0.055
      -0.020
      -0.011
       0.051
       0.059
      -0.055
      -0.238
      -0.372
      -0.380
      -0.287
      -0.173
      -0.082
      -0.001
       0.089
       0.164
       0.172
       0.089
      -0.034
      -0.119
      -0.124
      -0.079
      -0.051
      -0.076
      -0.126
      -0.145
      -0.105
      -0.036
      -0.002
      -0.046
      -0.156
      -0.268
      -0.322
      -0.304
      -0.254
      -0.225
      -0.245
      -0.300
      -0.366
      -0.426
      -0.468
      -0.464
      -0.370
      -0.169
       0.098
       0.341
       0.480
       0.493
       0.416
       0.297
       0.161
       0.014
      -0.123
      -0.206
      -0.196
      -0.091
       0.064
       0.206
       0.287
       0.287
       0.214
       0.094
      -0.031
      -0.116
      -0.134
      -0.093
      -0.027
       0.031
       0.088
       0.171
       0.295
       0.424
       0.489
       0.437
       0.266
       0.034
      -0.177
      -0.291
      -0.269
      -0.123
       0.077
       0.238
       0.294
       0.243
       0.142
       0.061
       0.037
       0.066
       0.119
       0.162
       0.165
       0.124
       0.074
       0.074
       0.160
       0.293
       0.370
       0.294
       0.057
      -0.247
      -0.492
      -0.592
      -0.542
      -0.390
      -0.203
      -0.052
       0.019
       0.010
      -0.020
       0.000
       0.090
       0.189
       0.208
       0.113
      -0.035
      -0.138
      -0.152
      -0.111
      -0.072
      -0.049
      -0.010
       0.059
       0.119
       0.103
      -0.004
      -0.148
      -0.246
      -0.266
      -0.245
      -0.236
      -0.250
      -0.245
      -0.178
      -0.044
       0.120
       0.267
       0.369
       0.415
       0.404
       0.336
       0.210
       0.033
      -0.171
      -0.359
      -0.475
      -0.477
      -0.361
      -0.163
       0.065
       0.277
       0.449
       0.558
       0.578
       0.495
       0.333
       0.157
       0.039
       0.020
       0.081
       0.169
       0.230
       0.232
       0.166
       0.043
      -0.107
      -0.241
      -0.319
      -0.328
      -0.295
      -0.260
      -0.238
      -0.207
      -0.135
      -0.010
       0.144
       0.281
       0.354
       0.319
       0.151
      -0.128
      -0.428
      -0.623
      -0.631
      -0.484
      -0.306
      -0.214
      -0.221
      -0.239
      -0.178
      -0.052
       0.032
      -0.027
      -0.222
      -0.441
      -0.562
      -0.549
      -0.457
      -0.352
      -0.247
      -0.100
       0.108
       0.325
       0.455
       0.446
       0.341
       0.229
       0.161
       0.103
      -0.009
      -0.166
      -0.261
      -0.178
       0.092
       0.413
       0.596
       0.534
       0.262
      -0.096
      -0.414
      -0.620
      -0.680
      -0.576
      -0.322
       0.010
       0.303
       0.462
       0.473
       0.408
       0.346
       0.317
       0.295
       0.246
       0.167
       0.096
       0.084
       0.163
       0.330
       0.544
       0.734
       0.832
       0.806
       0.676
       0.472
       0.202
      -0.139
      -0.510
      -0.807
      -0.934
      -0.892
      -0.786
      -0.729
      -0.736
      -0.722
      -0.613
      -0.442
      -0.311
      -0.280
      -0.297
      -0.260
      -0.139
      -0.010
       0.033
      -0.007
      -0.026
       0.067
       0.250
       0.409
       0.452
       0.386
       0.284
       0.192
       0.093
      -0.041
      -0.190
      -0.286
      -0.274
      -0.160
       0.007
       0.182
       0.360
       0.548
       0.731
       0.855
       0.849
       0.687
       0.423
       0.171
       0.034
       0.035
       0.105
       0.151
       0.130
       0.074
       0.032
       0.009
      -0.042
      -0.146
      -0.267
      -0.336
      -0.329
      -0.299
      -0.318
      -0.383
      -0.406
      -0.301
      -0.087
       0.114
       0.187
       0.118
      -0.002
      -0.082
      -0.110
      -0.131
      -0.170
      -0.187
      -0.122
       0.023
       0.178
       0.263
       0.258
       0.201
       0.131
       0.053
      -0.048
      -0.161
      -0.246
      -0.273
      -0.261
      -0.250
      -0.244
      -0.191
      -0.044
       0.170
       0.340
       0.353
       0.188
      -0.066
      -0.285
      -0.402
      -0.445
      -0.481
      -0.539
      -0.574
      -0.498
      -0.252
       0.134
       0.541
       0.824
       0.900
       0.781
       0.549
       0.289
       0.053
      -0.130
      -0.227
      -0.206
      -0.080
       0.074
       0.146
       0.081
      -0.071
      -0.193
      -0.203
      -0.121
      -0.047
      -0.056
      -0.137
      -0.199
      -0.160
      -0.007
       0.198
       0.371
       0.448
       0.407
       0.259
       0.042
      -0.194
      -0.394
      -0.509
      -0.503
      -0.358
      -0.081
       0.279
       0.628
       0.838
       0.795
       0.461
      -0.076
      -0.621
      -0.957
      -0.970
      -0.711
      -0.357
      -0.080
       0.059
       0.111
       0.168
       0.270
       0.392
       0.482
       0.504
       0.446
       0.296
       0.055
      -0.239
      -0.501
      -0.645
      -0.640
      -0.548
      -0.464
      -0.433
      -0.406
      -0.283
       0.000
       0.407
       0.814
       1.067
       1.057
       0.779
       0.342
      -0.074
      -0.306
      -0.295
      -0.116
       0.077
       0.143
       0.042
      -0.156
      -0.341
      -0.439
      -0.445
      -0.395
      -0.319
      -0.221
      -0.102
       0.027
       0.157
       0.302
       0.482
       0.674
       0.788
       0.715
       0.405
      -0.078
      -0.589
      -0.984
      -1.180
      -1.156
      -0.916
      -0.481
       0.082
       0.644
       1.041
       1.155
       0.971
       0.578
       0.102
      -0.358
      -0.735
      -0.966
      -0.982
      -0.741
      -0.292
       0.223
       0.615
       0.744
       0.577
       0.206
      -0.193
      -0.435
      -0.430
      -0.237
      -0.018
       0.095
       0.104
       0.117
       0.197
       0.274
       0.206
      -0.056
      -0.390
      -0.604
      -0.606
      -0.472
      -0.344
      -0.277
      -0.207
      -0.053
       0.163
       0.326
       0.346
       0.259
       0.183
       0.190
       0.231
       0.201
       0.060
      -0.124
      -0.241
      -0.237
      -0.134
       0.025
       0.208
       0.377
       0.459
       0.385
       0.164
      -0.088
      -0.228
      -0.203
      -0.094
      -0.024
      -0.043
      -0.089
      -0.078
      -0.007
       0.044
       0.018
      -0.042
      -0.022
       0.128
       0.322
       0.401
       0.280
       0.032
      -0.184
      -0.258
      -0.209
      -0.146
      -0.159
      -0.247
      -0.338
      -0.350
      -0.251
      -0.080
       0.081
       0.159
       0.140
       0.080
       0.052
       0.089
       0.155
       0.182
       0.126
       0.001
      -0.136
      -0.230
      -0.248
      -0.186
      -0.051
       0.137
       0.335
       0.479
       0.517
       0.440
       0.291
       0.125
      -0.017
      -0.117
      -0.161
      -0.137
      -0.051
       0.056
       0.129
       0.149
       0.156
       0.209
       0.314
       0.398
       0.350
       0.125
      -0.197
      -0.456
      -0.519
      -0.374
      -0.124
       0.101
       0.235
       0.279
       0.253
       0.156
      -0.014
      -0.230
      -0.432
      -0.560
      -0.582
      -0.481
      -0.248
       0.090
       0.439
       0.659
       0.644
       0.408
       0.083
      -0.179
      -0.319
      -0.372
      -0.376
      -0.293
      -0.045
       0.347
       0.701
       0.788
       0.527
       0.062
      -0.363
      -0.610
      -0.714
      -0.764
      -0.756
      -0.589
      -0.214
       0.248
       0.578
       0.641
       0.503
       0.353
       0.309
       0.312
       0.212
      -0.059
      -0.407
      -0.671
      -0.773
      -0.754
      -0.687
      -0.581
      -0.398
      -0.137
       0.117
       0.265
       0.280
       0.230
       0.193
       0.186
       0.168
       0.113
       0.042
      -0.004
      -0.032
      -0.092
      -0.209
      -0.310
      -0.257
       0.029
       0.458
       0.783
       0.759
       0.328
      -0.318
      -0.860
      -1.068
      -0.933
      -0.621
      -0.309
      -0.055
       0.178
       0.417
       0.600
       0.617
       0.430
       0.126
      -0.145
      -0.291
      -0.338
      -0.347
      -0.309
      -0.130
       0.245
       0.715
       1.050
       1.058
       0.752
       0.331
       0.017
      -0.116
      -0.156
      -0.243
      -0.426
      -0.635
      -0.737
      -0.634
      -0.325
       0.094
       0.472
       0.670
       0.632
       0.402
       0.098
      -0.155
      -0.277
      -0.257
      -0.133
       0.038
       0.185
       0.246
       0.184
       0.024
      -0.142
      -0.211
      -0.137
       0.034
       0.215
       0.343
       0.410
       0.422
       0.368
       0.233
       0.032
      -0.176
      -0.330
      -0.409
      -0.417
      -0.357
      -0.240
      -0.118
      -0.083
      -0.187
      -0.359
      -0.427
      -0.250
       0.144
       0.568
       0.803
       0.759
       0.499
       0.150
      -0.198
      -0.512
      -0.759
      -0.861
      -0.742
      -0.410
       0.007
       0.326
       0.420
       0.284
       0.015
      -0.265
      -0.461
      -0.528
      -0.458
      -0.276
      -0.041
       0.168
       0.279
       0.260
       0.139
      -0.002
      -0.068
      -0.007
       0.143
       0.263
       0.222
      -0.017
      -0.352
      -0.591
      -0.582
      -0.319
       0.061
       0.375
       0.518
       0.509
       0.441
       0.389
       0.351
       0.274
       0.117
      -0.099
      -0.306
      -0.446
      -0.506
      -0.509
      -0.469
      -0.358
      -0.143
       0.155
       0.435
       0.574
       0.527
       0.376
       0.261
       0.265
       0.338
       0.358
       0.245
       0.028
      -0.189
      -0.312
      -0.306
      -0.195
      -0.053
       0.016
      -0.088
      -0.380
      -0.758
      -1.055
      -1.157
      -1.074
      -0.908
      -0.751
      -0.614
      -0.467
      -0.304
      -0.185
      -0.172
      -0.263
      -0.385
      -0.476
      -0.549
      -0.664
      -0.820
      -0.909
      -0.794
      -0.443
       0.031
       0.476
       0.832
       1.139
       1.443
       1.697
       1.782
       1.597
       1.123
       0.412
      -0.450
      -1.345
      -2.106
      -2.542
      -2.526
      -2.056
      -1.249
      -0.260
       0.787
       1.824
       2.788
       3.583
       4.085
       4.202
       3.926
       3.331
       2.500
       1.489
       0.350
      -0.806
      -1.795
      -2.438
      -2.637
      -2.404
      -1.820
      -1.008
      -0.107
       0.735
       1.389
       1.776
       1.862
       1.645
       1.147
       0.432
      -0.391
      -1.187
      -1.846
      -2.318
      -2.595
      -2.664
      -2.481
      -2.004
      -1.243
      -0.296
       0.683
       1.548
       2.211
       2.645
       2.845
       2.814
       2.580
       2.223
       1.858
       1.572
       1.367
       1.167
       0.894
       0.549
       0.213
      -0.019
      -0.125
      -0.173
      -0.264
      -0.455
      -0.728
      -1.019
      -1.255
      -1.383
      -1.363
      -1.170
      -0.805
      -0.295
       0.312
       0.964
       1.605
       2.157
       2.517
       2.588
       2.336
       1.809
       1.097
       0.267
      -0.664
      -1.683
      -2.722
      -3.658
      -4.358
      -4.736
      -4.752
      -4.384
      -3.610
      -2.438
      -0.953
       0.673
       2.211
       3.443
       4.192
       4.340
       3.840
       2.735
       1.178
      -0.594
      -2.313
      -3.722
      -4.627
      -4.930
      -4.645
      -3.880
      -2.798
      -1.586
      -0.432
       0.518
       1.190
       1.579
       1.684
       1.454
       0.827
      -0.160
      -1.300
      -2.276
      -2.812
      -2.794
      -2.263
      -1.331
      -0.135
       1.168
       2.407
       3.438
       4.167
       4.533
       4.474
       3.926
       2.882
       1.448
      -0.157
      -1.667
      -2.847
      -3.550
      -3.735
      -3.457
      -2.827
      -1.974
      -1.020
      -0.090
       0.682
       1.180
       1.358
       1.272
       1.049
       0.805
       0.593
       0.398
       0.202
       0.023
      -0.091
      -0.103
      -0.022
       0.102
       0.215
       0.307
       0.415
       0.582
       0.798
       0.993
       1.093
       1.099
       1.093
       1.155
       1.282
       1.379
       1.335
       1.109
       0.745
       0.311
      -0.149
      -0.616
      -1.049
      -1.366
      -1.470
      -1.309
      -0.903
      -0.328
       0.311
       0.901
       1.322
       1.454
       1.216
       0.620
      -0.216
      -1.106
      -1.880
      -2.440
      -2.762
      -2.855
      -2.726
      -2.367
      -1.769
      -0.943
       0.059
       1.139
       2.149
       2.898
       3.192
       2.913
       2.091
       0.921
      -0.312
      -1.335
      -1.979
      -2.189
      -1.989
      -1.426
      -0.576
       0.428
       1.379
       2.042
       2.255
       2.005
       1.411
       0.620
      -0.283
      -1.278
      -2.327
      -3.294
      -3.945
      -4.043
      -3.455
      -2.230
      -0.583
       1.161
       2.660
       3.648
       3.990
       3.707
       2.950
       1.930
       0.837
      -0.209
      -1.160
      -1.997
      -2.679
      -3.133
      -3.277
      -3.049
      -2.437
      -1.505
      -0.401
       0.675
       1.532
       2.061
       2.247
       2.140
       1.815
       1.358
       0.873
       0.455
       0.144
      -0.099
      -0.344
      -0.607
      -0.821
      -0.894
      -0.805
      -0.631
      -0.475
      -0.372
      -0.259
      -0.047
       0.307
       0.762
       1.248
       1.712
       2.126
       2.451
       2.608
       2.511
       2.139
       1.574
       0.968
       0.461
       0.097
      -0.180
      -0.449
      -0.729
      -0.959
      -1.047
      -0.953
      -0.705
      -0.378
      -0.052
       0.199
       0.320
       0.307
       0.226
       0.178
       0.225
       0.331
       0.413
       0.433
       0.455
       0.592
       0.884
       1.225
       1.421
       1.337
       1.001
       0.559
       0.129
      -0.304
      -0.834
      -1.494
      -2.172
      -2.689
      -2.946
      -3.002
      -2.987
      -2.948
      -2.799
      -2.400
      -1.695
      -0.767
       0.221
       1.105
       1.767
       2.126
       2.133
       1.812
       1.280
       0.705
       0.216
      -0.172
      -0.524
      -0.891
      -1.234
      -1.449
      -1.449
      -1.233
      -0.868
      -0.437
       0.006
       0.431
       0.819
       1.149
       1.409
       1.584
       1.634
       1.497
       1.129
       0.573
      -0.033
      -0.525
      -0.816
      -0.942
      -0.996
      -1.018
      -0.943
      -0.660
      -0.136
       0.523
       1.130
       1.537
       1.726
       1.785
       1.805
       1.802
       1.715
       1.458
       0.981
       0.292
      -0.538
      -1.384
      -2.084
      -2.488
      -2.522
      -2.212
      -1.671
      -1.040
      -0.437
       0.054
       0.374
       0.492
       0.417
       0.205
      -0.056
      -0.294
      -0.481
      -0.627
      -0.746
      -0.823
      -0.816
      -0.683
      -0.421
      -0.081
       0.250
       0.477
       0.538
       0.437
       0.244
       0.056
      -0.067
      -0.132
      -0.199
      -0.310
      -0.458
      -0.594
      -0.679
      -0.704
      -0.676
      -0.586
      -0.405
      -0.126
       0.209
       0.523
       0.755
       0.911
       1.043
       1.187
       1.303
       1.294
       1.088
       0.708
       0.266
      -0.113
      -0.353
      -0.440
      -0.376
      -0.167
       0.157
       0.519
       0.818
       0.986
       1.018
       0.936
       0.744
       0.429
       0.004
      -0.448
      -0.809
      -0.997
      -1.013
      -0.917
      -0.765
      -0.572
      -0.353
      -0.166
      -0.101
      -0.195
      -0.355
      -0.392
      -0.171
       0.264
       0.705
       0.931
       0.870
       0.629
       0.379
       0.218
       0.120
       0.001
      -0.177
      -0.374
      -0.498
      -0.474
      -0.284
       0.024
       0.357
       0.618
       0.740
       0.711
       0.566
       0.347
       0.064
      -0.296
      -0.737
      -1.211
      -1.625
      -1.879
      -1.908
      -1.692
      -1.252
      -0.647
       0.034
       0.681
       1.197
       1.528
       1.667
       1.636
       1.450
       1.105
       0.593
      -0.065
      -0.794
      -1.477
      -1.967
      -2.134
      -1.905
      -1.299
      -0.445
       0.452
       1.179
       1.594
       1.670
       1.488
       1.166
       0.795
       0.413
       0.030
      -0.324
      -0.597
      -0.753
      -0.796
      -0.753
      -0.631
      -0.410
      -0.097
       0.240
       0.492
       0.602
       0.605
       0.585
       0.581
       0.561
       0.471
       0.301
       0.101
      -0.064
      -0.153
      -0.155
      -0.071
       0.095
       0.322
       0.553
       0.709
       0.725
       0.583
       0.324
       0.033
      -0.206
      -0.345
      -0.400
      -0.431
      -0.499
      -0.616
      -0.734
      -0.775
      -0.694
      -0.507
      -0.263
      -0.003
