Origin Time       20/06/2011 06:27:18 UTC
Lat.              30.5 N	
Long.             79.4 E	
Depth (Km)         12.0
Magnitude         4.6
 Region           Chamoli-Uttarakhand                                              
 Above details taken from IMD 
    
Station Code      DEH
Station Lat.       30.316  N
Station Long.      78.042  E
Station Height(m)  662.0
Site Class        C   Vs30 between 200 m/sec to 375 m/sec *  
Record Time       20.06.2011 06:27:29.874 UTC
Sampling Rate     200. Hz
 Record Duration   80.170 Sec.
 Direction         N-S (N positive)
Max. Acceleration      3.060 cm/sec**2
     
  * For reference see Site Classification link of website 
     
 Base Line Corrected and Low Pass Filtered (Cut Off at 35 Hz) Time History
 Acceleration data in cm/sec**2
    
[...]
       0.198
       0.145
       0.077
       0.007
      -0.058
      -0.111
      -0.150
      -0.181
      -0.218
      -0.265
      -0.312
      -0.335
      -0.316
      -0.255
      -0.171
      -0.090
      -0.033
      -0.005
       0.002
       0.005
       0.015
       0.028
       0.031
       0.007
      -0.043
      -0.103
      -0.146
      -0.161
      -0.151
      -0.130
      -0.111
      -0.094
      -0.070
      -0.036
       0.006
       0.049
       0.089
       0.135
       0.191
       0.252
       0.300
       0.319
       0.304
       0.268
       0.225
       0.184
       0.146
       0.107
       0.065
       0.020
      -0.027
      -0.068
      -0.099
      -0.115
      -0.119
      -0.117
      -0.111
      -0.102
      -0.092
      -0.085
      -0.084
      -0.094
      -0.117
      -0.151
      -0.189
      -0.223
      -0.242
      -0.245
      -0.235
      -0.217
      -0.191
      -0.154
      -0.100
      -0.037
       0.022
       0.065
       0.097
       0.130
       0.172
       0.224
       0.284
       0.341
       0.381
       0.390
       0.359
       0.291
       0.205
       0.126
       0.065
       0.020
      -0.020
      -0.062
      -0.101
      -0.130
      -0.147
      -0.156
      -0.157
      -0.147
      -0.124
      -0.093
      -0.070
      -0.066
      -0.076
      -0.090
      -0.099
      -0.108
      -0.128
      -0.157
      -0.184
      -0.201
      -0.212
      -0.229
      -0.256
      -0.283
      -0.290
      -0.266
      -0.212
      -0.139
      -0.059
       0.022
       0.094
       0.154
       0.197
       0.223
       0.238
       0.245
       0.250
       0.259
       0.271
       0.279
       0.276
       0.253
       0.215
       0.171
       0.130
       0.095
       0.062
       0.030
      -0.003
      -0.035
      -0.062
      -0.081
      -0.087
      -0.083
      -0.079
      -0.088
      -0.120
      -0.170
      -0.218
      -0.242
      -0.228
      -0.184
      -0.133
      -0.091
      -0.060
      -0.028
       0.020
       0.085
       0.152
       0.206
       0.236
       0.245
       0.242
       0.236
       0.231
       0.221
       0.198
       0.162
       0.130
       0.121
       0.139
       0.163
       0.163
       0.123
       0.052
      -0.027
      -0.092
      -0.140
      -0.179
      -0.222
      -0.270
      -0.311
      -0.330
      -0.317
      -0.279
      -0.237
      -0.217
      -0.228
      -0.255
      -0.272
      -0.259
      -0.215
      -0.163
      -0.127
      -0.121
      -0.135
      -0.147
      -0.135
      -0.097
      -0.041
       0.019
       0.072
       0.115
       0.148
       0.173
       0.192
       0.209
       0.223
       0.226
       0.209
       0.173
       0.131
       0.105
       0.101
       0.111
       0.122
       0.124
       0.123
       0.127
       0.138
       0.152
       0.158
       0.154
       0.142
       0.128
       0.115
       0.099
       0.075
       0.038
      -0.007
      -0.045
      -0.062
      -0.053
      -0.028
      -0.008
      -0.008
      -0.026
      -0.049
      -0.066
      -0.084
      -0.120
      -0.183
      -0.254
      -0.299
      -0.288
      -0.222
      -0.133
      -0.064
      -0.041
      -0.058
      -0.085
      -0.095
      -0.078
      -0.049
      -0.025
      -0.011
       0.011
       0.062
       0.141
       0.216
       0.251
       0.233
       0.183
       0.137
       0.116
       0.111
       0.101
       0.076
       0.054
       0.063
       0.103
       0.144
       0.139
       0.077
      -0.014
      -0.080
      -0.095
      -0.076
      -0.068
      -0.098
      -0.145
      -0.167
      -0.143
      -0.092
      -0.054
      -0.056
      -0.088
      -0.122
      -0.137
      -0.137
      -0.146
      -0.175
      -0.205
      -0.206
      -0.166
      -0.103
      -0.049
      -0.023
      -0.013
       0.003
       0.039
       0.081
       0.108
       0.107
       0.092
       0.082
       0.088
       0.104
       0.109
       0.089
       0.046
      -0.002
      -0.041
      -0.065
      -0.079
      -0.082
      -0.070
      -0.047
      -0.021
      -0.003
       0.013
       0.042
       0.099
       0.185
       0.284
       0.370
       0.424
       0.445
       0.442
       0.423
       0.389
       0.331
       0.248
       0.144
       0.037
      -0.058
      -0.130
      -0.185
      -0.236
      -0.296
      -0.364
      -0.425
      -0.460
      -0.460
      -0.431
      -0.394
      -0.372
      -0.373
      -0.384
      -0.388
      -0.372
      -0.339
      -0.301
      -0.267
      -0.232
      -0.190
      -0.142
      -0.100
      -0.076
      -0.069
      -0.064
      -0.044
      -0.004
       0.043
       0.082
       0.109
       0.136
       0.175
       0.228
       0.283
       0.325
       0.344
       0.344
       0.332
       0.311
       0.278
       0.229
       0.168
       0.105
       0.056
       0.034
       0.041
       0.068
       0.101
       0.131
       0.158
       0.187
       0.224
       0.267
       0.308
       0.335
       0.342
       0.327
       0.298
       0.263
       0.225
       0.190
       0.157
       0.125
       0.093
       0.056
       0.007
      -0.055
      -0.127
      -0.197
      -0.257
      -0.302
      -0.331
      -0.347
      -0.351
      -0.343
      -0.318
      -0.276
      -0.228
      -0.191
      -0.178
      -0.191
      -0.223
      -0.264
      -0.310
      -0.362
      -0.417
      -0.466
      -0.494
      -0.489
      -0.451
      -0.390
      -0.320
      -0.245
      -0.162
      -0.069
       0.030
       0.120
       0.183
       0.219
       0.243
       0.274
       0.319
       0.362
       0.383
       0.374
       0.352
       0.342
       0.363
       0.404
       0.436
       0.436
       0.406
       0.372
       0.354
       0.347
       0.329
       0.283
       0.214
       0.153
       0.128
       0.138
       0.157
       0.150
       0.100
       0.017
      -0.071
      -0.140
      -0.188
      -0.235
      -0.299
      -0.378
      -0.452
      -0.497
      -0.504
      -0.487
      -0.467
      -0.456
      -0.443
      -0.409
      -0.341
      -0.241
      -0.126
      -0.016
       0.073
       0.140
       0.184
       0.206
       0.201
       0.167
       0.107
       0.039
      -0.018
      -0.053
      -0.062
      -0.056
      -0.042
      -0.021
       0.007
       0.039
       0.068
       0.086
       0.092
       0.095
       0.102
       0.115
       0.124
       0.113
       0.070
       0.002
      -0.073
      -0.137
      -0.175
      -0.182
      -0.159
      -0.113
      -0.058
      -0.009
       0.022
       0.029
       0.020
       0.004
      -0.010
      -0.017
      -0.017
      -0.018
      -0.026
      -0.043
      -0.054
      -0.040
       0.005
       0.064
       0.113
       0.134
       0.128
       0.112
       0.097
       0.091
       0.088
       0.080
       0.064
       0.048
       0.040
       0.050
       0.080
       0.124
       0.171
       0.212
       0.241
       0.259
       0.269
       0.277
       0.284
       0.277
       0.242
       0.171
       0.075
      -0.024
      -0.106
      -0.165
      -0.205
      -0.232
      -0.252
      -0.266
      -0.273
      -0.278
      -0.285
      -0.298
      -0.315
      -0.327
      -0.326
      -0.312
      -0.291
      -0.272
      -0.253
      -0.224
      -0.175
      -0.108
      -0.042
      -0.001
       0.006
      -0.005
      -0.005
       0.032
       0.104
       0.184
       0.240
       0.258
       0.248
       0.235
       0.242
       0.273
       0.316
       0.349
       0.360
       0.349
       0.327
       0.303
       0.280
       0.250
       0.204
       0.141
       0.078
       0.034
       0.022
       0.033
       0.039
       0.016
      -0.040
      -0.105
      -0.152
      -0.163
      -0.144
      -0.114
      -0.086
      -0.065
      -0.044
      -0.016
       0.024
       0.068
       0.098
       0.099
       0.072
       0.031
      -0.001
      -0.017
      -0.026
      -0.048
      -0.092
      -0.146
      -0.184
      -0.186
      -0.151
      -0.090
      -0.018
       0.051
       0.111
       0.154
       0.165
       0.134
       0.060
      -0.040
      -0.137
      -0.209
      -0.246
      -0.256
      -0.255
      -0.261
      -0.283
      -0.318
      -0.358
      -0.390
      -0.414
      -0.433
      -0.454
      -0.471
      -0.471
      -0.434
      -0.355
      -0.248
      -0.142
      -0.063
      -0.023
      -0.010
       0.005
       0.047
       0.120
       0.208
       0.288
       0.346
       0.382
       0.405
       0.418
       0.417
       0.397
       0.354
       0.299
       0.250
       0.225
       0.231
       0.256
       0.282
       0.297
       0.303
       0.306
       0.303
       0.280
       0.224
       0.140
       0.049
      -0.017
      -0.046
      -0.047
      -0.044
      -0.055
      -0.075
      -0.082
      -0.065
      -0.033
      -0.013
      -0.031
      -0.084
      -0.142
      -0.172
      -0.166
      -0.143
      -0.135
      -0.161
      -0.212
      -0.262
      -0.293
      -0.308
      -0.324
      -0.348
      -0.366
      -0.353
      -0.295
      -0.212
      -0.137
      -0.093
      -0.074
      -0.058
      -0.028
       0.010
       0.038
       0.051
       0.068
       0.116
       0.205
       0.317
       0.418
       0.486
       0.524
       0.550
       0.576
       0.591
       0.571
       0.500
       0.382
       0.242
       0.109
       0.005
      -0.065
      -0.106
      -0.124
      -0.122
      -0.096
      -0.050
       0.003
       0.048
       0.068
       0.056
       0.018
      -0.030
      -0.071
      -0.100
      -0.123
      -0.151
      -0.185
      -0.217
      -0.238
      -0.250
      -0.264
      -0.286
      -0.306
      -0.306
      -0.274
      -0.215
      -0.147
      -0.089
      -0.053
      -0.044
      -0.055
      -0.070
      -0.078
      -0.075
      -0.070
      -0.074
      -0.092
      -0.117
      -0.138
      -0.145
      -0.140
      -0.129
      -0.117
      -0.104
      -0.084
      -0.051
      -0.006
       0.044
       0.097
       0.153
       0.212
       0.271
       0.318
       0.343
       0.346
       0.335
       0.319
       0.307
       0.304
       0.313
       0.324
       0.326
       0.313
       0.287
       0.260
       0.242
       0.222
       0.175
       0.081
      -0.047
      -0.169
      -0.245
      -0.264
      -0.252
      -0.248
      -0.269
      -0.301
      -0.319
      -0.310
      -0.281
      -0.251
      -0.236
      -0.240
      -0.261
      -0.286
      -0.299
      -0.286
      -0.244
      -0.191
      -0.153
      -0.151
      -0.182
      -0.216
      -0.227
      -0.203
      -0.153
      -0.090
      -0.022
       0.052
       0.128
       0.196
       0.242
       0.268
       0.290
       0.327
       0.385
       0.448
       0.499
       0.526
       0.533
       0.527
       0.513
       0.485
       0.440
       0.383
       0.332
       0.303
       0.303
       0.321
       0.335
       0.325
       0.281
       0.209
       0.132
       0.072
       0.039
       0.028
       0.025
       0.024
       0.039
       0.085
       0.160
       0.234
       0.274
       0.275
       0.266
       0.286
       0.348
       0.426
       0.484
       0.498
       0.480
       0.456
       0.445
       0.441
       0.424
       0.375
       0.291
       0.182
       0.061
      -0.060
      -0.179
      -0.299
      -0.423
      -0.545
      -0.660
      -0.764
      -0.857
      -0.945
      -1.035
      -1.124
      -1.201
      -1.250
      -1.263
      -1.246
      -1.209
      -1.157
      -1.086
      -0.989
      -0.871
      -0.745
      -0.628
      -0.529
      -0.444
      -0.368
      -0.299
      -0.237
      -0.186
      -0.145
      -0.115
      -0.094
      -0.076
      -0.052
      -0.015
       0.038
       0.104
       0.179
       0.258
       0.342
       0.432
       0.525
       0.616
       0.704
       0.794
       0.889
       0.985
       1.073
       1.144
       1.198
       1.240
       1.273
       1.295
       1.295
       1.255
       1.159
       1.006
       0.812
       0.606
       0.411
       0.234
       0.066
      -0.103
      -0.278
      -0.458
      -0.636
      -0.808
      -0.967
      -1.108
      -1.221
      -1.295
      -1.326
      -1.319
      -1.285
      -1.229
      -1.146
      -1.025
      -0.858
      -0.648
      -0.405
      -0.146
       0.117
       0.381
       0.644
       0.895
       1.113
       1.274
       1.368
       1.405
       1.410
       1.409
       1.414
       1.415
       1.394
       1.333
       1.227
       1.078
       0.898
       0.698
       0.489
       0.276
       0.060
      -0.160
      -0.389
      -0.623
      -0.848
      -1.048
      -1.220
      -1.370
      -1.502
      -1.615
      -1.704
      -1.771
      -1.821
      -1.857
      -1.871
      -1.853
      -1.797
      -1.709
      -1.600
      -1.480
      -1.350
      -1.204
      -1.040
      -0.871
      -0.722
      -0.624
      -0.587
      -0.601
      -0.626
      -0.621
      -0.554
      -0.417
      -0.227
      -0.003
       0.245
       0.518
       0.817
       1.134
       1.452
       1.755
       2.035
       2.288
       2.514
       2.710
       2.874
       2.996
       3.060
       3.052
       2.964
       2.800
       2.571
       2.286
       1.951
       1.571
       1.158
       0.731
       0.304
      -0.114
      -0.526
      -0.935
      -1.334
      -1.707
      -2.037
      -2.318
      -2.554
      -2.750
      -2.903
      -3.007
      -3.051
      -3.028
      -2.940
      -2.798
      -2.615
      -2.399
      -2.151
      -1.870
      -1.553
      -1.204
      -0.824
      -0.424
      -0.019
       0.374
       0.748
       1.099
       1.430
       1.736
       2.004
       2.218
       2.367
       2.453
       2.488
       2.485
       2.454
       2.394
       2.304
       2.174
       1.997
       1.768
       1.492
       1.183
       0.854
       0.519
       0.180
      -0.160
      -0.498
      -0.824
      -1.126
      -1.395
      -1.622
      -1.801
      -1.936
      -2.036
      -2.111
      -2.167
      -2.193
      -2.178
      -2.112
      -2.001
      -1.868
      -1.735
      -1.609
      -1.479
      -1.328
      -1.156
      -0.981
      -0.821
      -0.684
      -0.556
      -0.416
      -0.248
      -0.052
       0.166
       0.395
       0.629
       0.860
       1.083
       1.294
       1.491
       1.671
       1.833
       1.972
       2.081
       2.151
       2.179
       2.169
       2.136
       2.099
       2.074
       2.064
       2.058
       2.042
       2.001
       1.938
       1.862
       1.780
       1.696
       1.602
       1.493
       1.373
       1.253
       1.139
       1.021
       0.883
       0.711
       0.505
       0.280
       0.054
      -0.163
      -0.365
      -0.551
      -0.717
      -0.858
      -0.976
      -1.082
      -1.188
      -1.303
      -1.427
      -1.562
      -1.708
      -1.861
      -2.011
      -2.146
      -2.262
      -2.365
      -2.462
      -2.548
      -2.612
      -2.642
      -2.636
      -2.594
      -2.508
      -2.369
      -2.168
      -1.907
      -1.602
      -1.274
      -0.947
      -0.630
      -0.326
      -0.033
       0.241
       0.477
       0.663
       0.798
       0.900
       0.990
       1.072
       1.131
       1.150
       1.126
       1.077
       1.034
       1.027
       1.068
       1.150
       1.249
       1.345
       1.432
       1.517
       1.598
       1.668
       1.710
       1.717
       1.702
       1.687
       1.694
       1.725
       1.765
       1.791
       1.780
       1.724
       1.630
       1.512
       1.375
       1.216
       1.031
       0.830
       0.640
       0.481
       0.349
       0.219
       0.062
      -0.142
      -0.389
      -0.657
      -0.919
      -1.154
      -1.349
      -1.495
      -1.589
      -1.630
      -1.625
      -1.585
      -1.524
      -1.453
      -1.376
      -1.291
      -1.193
      -1.080
      -0.950
      -0.806
      -0.650
      -0.483
      -0.312
      -0.148
      -0.015
       0.061
       0.057
      -0.026
      -0.162
      -0.312
      -0.445
      -0.554
      -0.652
      -0.754
      -0.864
      -0.972
      -1.069
      -1.149
      -1.216
      -1.271
      -1.311
      -1.325
      -1.294
      -1.206
      -1.055
      -0.851
      -0.615
      -0.376
      -0.156
       0.030
       0.179
       0.288
       0.357
       0.395
       0.420
       0.460
       0.530
       0.626
       0.725
       0.808
       0.873
       0.926
       0.965
       0.968
       0.909
       0.782
       0.610
       0.438
       0.302
       0.206
       0.127
       0.040
      -0.057
      -0.146
      -0.205
      -0.228
      -0.220
      -0.191
      -0.142
      -0.068
       0.037
       0.165
       0.300
       0.428
       0.538
       0.620
       0.655
       0.617
       0.486
       0.277
       0.038
      -0.166
      -0.301
      -0.378
      -0.440
      -0.512
      -0.584
      -0.625
      -0.611
      -0.547
      -0.465
      -0.390
      -0.323
      -0.238
      -0.108
       0.072
       0.279
       0.480
       0.645
       0.771
       0.876
       0.987
       1.118
       1.264
       1.400
       1.503
       1.559
       1.561
       1.510
       1.408
       1.257
       1.054
       0.802
       0.507
       0.183
      -0.153
      -0.483
      -0.789
      -1.052
      -1.262
      -1.415
      -1.514
      -1.566
      -1.576
      -1.553
      -1.503
      -1.429
      -1.336
      -1.225
      -1.098
      -0.956
      -0.794
      -0.604
      -0.384
      -0.144
       0.096
       0.312
       0.488
       0.614
       0.694
       0.739
       0.765
       0.778
       0.785
       0.785
       0.776
       0.753
       0.707
       0.624
       0.494
       0.320
       0.121
      -0.078
      -0.252
      -0.386
      -0.477
      -0.531
      -0.558
      -0.561
      -0.538
      -0.483
      -0.402
      -0.307
      -0.214
      -0.131
      -0.050
       0.043
       0.161
       0.302
       0.455
       0.602
       0.724
       0.808
       0.847
       0.845
       0.809
       0.746
       0.660
       0.553
       0.425
       0.275
       0.114
      -0.039
      -0.161
      -0.238
      -0.274
      -0.286
      -0.294
      -0.310
      -0.334
      -0.366
      -0.410
      -0.475
      -0.567
      -0.679
      -0.790
      -0.875
      -0.917
      -0.912
      -0.865
      -0.784
      -0.678
      -0.554
      -0.417
      -0.272
      -0.115
       0.060
       0.259
       0.478
       0.700
       0.902
       1.060
       1.167
       1.226
       1.247
       1.235
       1.192
       1.121
       1.030
       0.935
       0.850
       0.779
       0.717
       0.653
       0.573
       0.466
       0.318
       0.124
      -0.105
      -0.341
      -0.550
      -0.703
      -0.783
      -0.788
      -0.726
      -0.615
      -0.483
      -0.362
      -0.284
