Origin Time       20/06/2011 06:27:18
Lat.              30.5 N	
Long.             79.4 E	
Depth (Km)         12.0
Magnitude         4.6
 Region           Chamoli-Uttarakhand                                              
 Above details taken from IMD 
   
Station Code      DEH
Station Lat.       30.316
Station Long.      78.042
Station Height(m)  662.0
Site Class        C   Vs30 between 200 m/sec to 375 m/sec *  
Record Time       20.06.2011 06:27:29.874
Sampling Rate     200. Hz
 Record Duration   80.170 Sec.
 Direction         Vert. (Up positive)
Max. Acceleration      2.307 cm/sec**2
     
  * For reference see Site Classification link of website 
     
 Base Line Corrected and Low Pass Filtered (Cut Off at 35 Hz) Time History
 Acceleration data in cm/sec**2
    
[...]
      -0.499
      -0.455
      -0.393
      -0.317
      -0.232
      -0.133
      -0.016
       0.113
       0.233
       0.317
       0.349
       0.335
       0.298
       0.264
       0.241
       0.219
       0.186
       0.136
       0.075
       0.013
      -0.041
      -0.080
      -0.100
      -0.100
      -0.083
      -0.053
      -0.017
       0.018
       0.046
       0.058
       0.046
       0.010
      -0.038
      -0.083
      -0.115
      -0.134
      -0.147
      -0.156
      -0.153
      -0.122
      -0.059
       0.019
       0.077
       0.086
       0.052
       0.018
       0.038
       0.135
       0.276
       0.384
       0.395
       0.300
       0.147
       0.012
      -0.056
      -0.051
      -0.001
       0.058
       0.108
       0.154
       0.212
       0.293
       0.390
       0.472
       0.498
       0.437
       0.291
       0.101
      -0.081
      -0.210
      -0.273
      -0.285
      -0.276
      -0.272
      -0.280
      -0.294
      -0.307
      -0.320
      -0.339
      -0.368
      -0.405
      -0.445
      -0.481
      -0.511
      -0.527
      -0.517
      -0.468
      -0.387
      -0.299
      -0.232
      -0.190
      -0.155
      -0.098
      -0.002
       0.126
       0.264
       0.384
       0.463
       0.490
       0.474
       0.438
       0.409
       0.396
       0.375
       0.307
       0.175
      -0.001
      -0.167
      -0.277
      -0.314
      -0.294
      -0.249
      -0.213
      -0.206
      -0.236
      -0.289
      -0.333
      -0.325
      -0.237
      -0.076
       0.114
       0.272
       0.348
       0.328
       0.246
       0.164
       0.138
       0.178
       0.245
       0.280
       0.251
       0.175
       0.105
       0.085
       0.128
       0.218
       0.324
       0.412
       0.459
       0.460
       0.433
       0.400
       0.370
       0.337
       0.289
       0.224
       0.155
       0.094
       0.038
      -0.027
      -0.116
      -0.222
      -0.318
      -0.379
      -0.401
      -0.398
      -0.389
      -0.378
      -0.349
      -0.284
      -0.190
      -0.105
      -0.064
      -0.065
      -0.072
      -0.056
      -0.021
      -0.005
      -0.036
      -0.103
      -0.166
      -0.188
      -0.167
      -0.132
      -0.109
      -0.102
      -0.102
      -0.101
      -0.099
      -0.089
      -0.061
      -0.014
       0.038
       0.069
       0.071
       0.057
       0.055
       0.074
       0.102
       0.122
       0.144
       0.193
       0.278
       0.368
       0.412
       0.376
       0.270
       0.136
       0.011
      -0.098
      -0.205
      -0.312
      -0.397
      -0.437
      -0.430
      -0.401
      -0.371
      -0.347
      -0.320
      -0.284
      -0.250
      -0.228
      -0.207
      -0.154
      -0.043
       0.112
       0.269
       0.385
       0.444
       0.452
       0.425
       0.376
       0.317
       0.262
       0.224
       0.194
       0.146
       0.057
      -0.063
      -0.172
      -0.219
      -0.190
      -0.115
      -0.041
       0.005
       0.023
       0.036
       0.061
       0.099
       0.142
       0.189
       0.243
       0.298
       0.338
       0.349
       0.328
       0.290
       0.251
       0.218
       0.191
       0.162
       0.126
       0.072
      -0.012
      -0.132
      -0.273
      -0.392
      -0.438
      -0.384
      -0.254
      -0.105
       0.005
       0.052
       0.047
       0.015
      -0.030
      -0.086
      -0.158
      -0.244
      -0.341
      -0.433
      -0.492
      -0.490
      -0.423
      -0.318
      -0.211
      -0.122
      -0.046
       0.037
       0.130
       0.213
       0.262
       0.276
       0.284
       0.313
       0.363
       0.404
       0.407
       0.365
       0.298
       0.224
       0.143
       0.037
      -0.108
      -0.274
      -0.425
      -0.527
      -0.572
      -0.571
      -0.535
      -0.470
      -0.378
      -0.268
      -0.157
      -0.068
      -0.013
       0.016
       0.044
       0.094
       0.173
       0.266
       0.340
       0.364
       0.334
       0.266
       0.189
       0.122
       0.074
       0.039
       0.009
      -0.026
      -0.071
      -0.120
      -0.158
      -0.167
      -0.125
      -0.027
       0.103
       0.218
       0.274
       0.255
       0.175
       0.071
      -0.018
      -0.073
      -0.099
      -0.114
      -0.125
      -0.120
      -0.079
       0.017
       0.167
       0.343
       0.499
       0.593
       0.609
       0.564
       0.481
       0.375
       0.241
       0.073
      -0.117
      -0.300
      -0.450
      -0.557
      -0.632
      -0.683
      -0.712
      -0.715
      -0.693
      -0.654
      -0.606
      -0.555
      -0.491
      -0.404
      -0.289
      -0.158
      -0.034
       0.065
       0.135
       0.188
       0.246
       0.319
       0.400
       0.466
       0.494
       0.476
       0.429
       0.386
       0.369
       0.383
       0.410
       0.431
       0.433
       0.412
       0.373
       0.318
       0.253
       0.177
       0.090
      -0.010
      -0.123
      -0.242
      -0.350
      -0.420
      -0.429
      -0.383
      -0.309
      -0.236
      -0.176
      -0.127
      -0.084
      -0.051
      -0.033
      -0.029
      -0.030
      -0.025
      -0.018
      -0.027
      -0.063
      -0.120
      -0.177
      -0.217
      -0.234
      -0.241
      -0.246
      -0.245
      -0.221
      -0.151
      -0.028
       0.134
       0.299
       0.426
       0.484
       0.466
       0.401
       0.342
       0.331
       0.376
       0.444
       0.494
       0.499
       0.451
       0.363
       0.259
       0.159
       0.075
       0.012
      -0.030
      -0.053
      -0.066
      -0.076
      -0.085
      -0.088
      -0.086
      -0.091
      -0.122
      -0.195
      -0.311
      -0.450
      -0.580
      -0.674
      -0.722
      -0.734
      -0.732
      -0.735
      -0.747
      -0.759
      -0.751
      -0.708
      -0.617
      -0.472
      -0.277
      -0.046
       0.194
       0.415
       0.593
       0.718
       0.795
       0.836
       0.853
       0.847
       0.815
       0.758
       0.692
       0.636
       0.599
       0.577
       0.551
       0.495
       0.387
       0.218
      -0.004
      -0.259
      -0.513
      -0.734
      -0.902
      -1.016
      -1.089
      -1.131
      -1.133
      -1.066
      -0.914
      -0.694
      -0.458
      -0.264
      -0.135
      -0.054
       0.019
       0.112
       0.226
       0.349
       0.470
       0.586
       0.690
       0.764
       0.785
       0.747
       0.668
       0.570
       0.461
       0.331
       0.169
      -0.008
      -0.155
      -0.215
      -0.162
      -0.017
       0.167
       0.337
       0.453
       0.499
       0.478
       0.405
       0.307
       0.217
       0.153
       0.111
       0.068
       0.000
      -0.095
      -0.203
      -0.306
      -0.398
      -0.479
      -0.554
      -0.628
      -0.705
      -0.779
      -0.838
      -0.857
      -0.809
      -0.690
      -0.526
      -0.360
      -0.227
      -0.129
      -0.049
       0.034
       0.130
       0.235
       0.330
       0.396
       0.421
       0.416
       0.404
       0.408
       0.446
       0.516
       0.601
       0.675
       0.715
       0.719
       0.701
       0.676
       0.653
       0.618
       0.554
       0.451
       0.323
       0.197
       0.090
       0.002
      -0.076
      -0.158
      -0.249
      -0.346
      -0.444
      -0.539
      -0.630
      -0.708
      -0.758
      -0.767
      -0.731
      -0.658
      -0.565
      -0.469
      -0.382
      -0.312
      -0.264
      -0.254
      -0.290
      -0.372
      -0.477
      -0.569
      -0.606
      -0.561
      -0.433
      -0.253
      -0.070
       0.066
       0.139
       0.165
       0.193
       0.264
       0.391
       0.550
       0.706
       0.838
       0.938
       1.008
       1.042
       1.024
       0.934
       0.764
       0.528
       0.262
       0.007
      -0.204
      -0.360
      -0.463
      -0.516
      -0.516
      -0.469
      -0.395
      -0.330
      -0.301
      -0.309
      -0.333
      -0.339
      -0.304
      -0.223
      -0.112
       0.004
       0.105
       0.187
       0.253
       0.298
       0.312
       0.286
       0.233
       0.185
       0.179
       0.232
       0.337
       0.467
       0.585
       0.656
       0.653
       0.570
       0.423
       0.237
       0.036
      -0.162
      -0.342
      -0.496
      -0.617
      -0.705
      -0.761
      -0.782
      -0.767
      -0.714
      -0.633
      -0.547
      -0.473
      -0.408
      -0.322
      -0.191
      -0.017
       0.158
       0.276
       0.299
       0.233
       0.118
       0.003
      -0.089
      -0.165
      -0.240
      -0.314
      -0.367
      -0.368
      -0.297
      -0.163
      -0.002
       0.146
       0.258
       0.337
       0.398
       0.448
       0.479
       0.471
       0.410
       0.302
       0.168
       0.029
      -0.109
      -0.242
      -0.361
      -0.448
      -0.481
      -0.457
      -0.387
      -0.286
      -0.153
       0.023
       0.249
       0.502
       0.738
       0.911
       1.002
       1.012
       0.949
       0.820
       0.629
       0.389
       0.119
      -0.156
      -0.413
      -0.627
      -0.771
      -0.824
      -0.772
      -0.625
      -0.407
      -0.159
       0.076
       0.264
       0.401
       0.512
       0.629
       0.762
       0.885
       0.942
       0.878
       0.673
       0.343
      -0.065
      -0.501
      -0.916
      -1.261
      -1.491
      -1.569
      -1.482
      -1.241
      -0.885
      -0.465
      -0.032
       0.374
       0.721
       0.988
       1.162
       1.240
       1.232
       1.153
       1.022
       0.854
       0.652
       0.417
       0.143
      -0.168
      -0.506
      -0.847
      -1.157
      -1.411
      -1.592
      -1.687
      -1.676
      -1.541
      -1.287
      -0.946
      -0.575
      -0.230
       0.050
       0.251
       0.375
       0.430
       0.424
       0.374
       0.305
       0.250
       0.232
       0.259
       0.318
       0.384
       0.435
       0.463
       0.486
       0.524
       0.593
       0.688
       0.788
       0.857
       0.865
       0.805
       0.692
       0.552
       0.396
       0.218
       0.001
      -0.260
      -0.544
      -0.807
      -1.000
      -1.093
      -1.089
      -1.009
      -0.883
      -0.734
      -0.576
      -0.412
      -0.239
      -0.058
       0.121
       0.289
       0.434
       0.550
       0.643
       0.723
       0.794
       0.846
       0.854
       0.792
       0.658
       0.475
       0.286
       0.123
      -0.001
      -0.092
      -0.166
      -0.238
      -0.313
      -0.380
      -0.412
      -0.380
      -0.277
      -0.122
       0.044
       0.176
       0.247
       0.256
       0.224
       0.179
       0.147
       0.134
       0.125
       0.091
       0.007
      -0.128
      -0.280
      -0.404
      -0.466
      -0.472
      -0.462
      -0.480
      -0.533
      -0.581
      -0.561
      -0.435
      -0.215
       0.047
       0.288
       0.469
       0.579
       0.632
       0.645
       0.637
       0.623
       0.602
       0.560
       0.478
       0.351
       0.196
       0.043
      -0.077
      -0.150
      -0.188
      -0.221
      -0.276
      -0.352
      -0.416
      -0.424
      -0.360
      -0.244
      -0.124
      -0.043
      -0.011
      -0.008
      -0.009
      -0.006
      -0.007
      -0.022
      -0.052
      -0.096
      -0.144
      -0.183
      -0.190
      -0.144
      -0.047
       0.066
       0.141
       0.138
       0.053
      -0.081
      -0.215
      -0.310
      -0.352
      -0.355
      -0.339
      -0.314
      -0.270
      -0.193
      -0.082
       0.041
       0.145
       0.203
       0.201
       0.144
       0.050
      -0.054
      -0.133
      -0.153
      -0.097
       0.018
       0.145
       0.230
       0.244
       0.196
       0.116
       0.031
      -0.049
      -0.127
      -0.199
      -0.250
      -0.265
      -0.242
      -0.182
      -0.088
       0.043
       0.202
       0.368
       0.508
       0.602
       0.649
       0.666
       0.671
       0.661
       0.624
       0.546
       0.436
       0.313
       0.201
       0.118
       0.073
       0.063
       0.081
       0.115
       0.155
       0.183
       0.188
       0.169
       0.134
       0.092
       0.033
      -0.063
      -0.219
      -0.433
      -0.670
      -0.876
      -1.014
      -1.080
      -1.086
      -1.035
      -0.909
      -0.687
      -0.369
       0.005
       0.372
       0.671
       0.872
       0.977
       1.004
       0.976
       0.922
       0.868
       0.829
       0.795
       0.737
       0.618
       0.414
       0.130
      -0.196
      -0.521
      -0.814
      -1.066
      -1.266
      -1.395
      -1.424
      -1.332
      -1.120
      -0.817
      -0.467
      -0.114
       0.213
       0.488
       0.691
       0.807
       0.844
       0.821
       0.750
       0.631
       0.451
       0.207
      -0.082
      -0.377
      -0.637
      -0.846
      -1.005
      -1.117
      -1.178
      -1.182
      -1.139
      -1.075
      -1.005
      -0.920
      -0.784
      -0.563
      -0.256
       0.104
       0.483
       0.867
       1.262
       1.659
       2.011
       2.245
       2.307
       2.194
       1.955
       1.649
       1.307
       0.933
       0.535
       0.149
      -0.177
      -0.417
      -0.593
      -0.750
      -0.919
      -1.084
      -1.206
      -1.255
      -1.233
      -1.156
      -1.039
      -0.884
      -0.699
      -0.500
      -0.313
      -0.159
      -0.048
       0.016
       0.026
      -0.029
      -0.148
      -0.304
      -0.450
      -0.538
      -0.553
      -0.508
      -0.430
      -0.334
      -0.221
      -0.086
       0.066
       0.225
       0.390
       0.567
       0.761
       0.952
       1.102
       1.175
       1.159
       1.072
       0.942
       0.776
       0.560
       0.276
      -0.068
      -0.426
      -0.736
      -0.946
      -1.026
      -0.979
      -0.827
      -0.611
      -0.375
      -0.163
       0.000
       0.108
       0.181
       0.234
       0.258
       0.229
       0.134
      -0.008
      -0.157
      -0.284
      -0.389
      -0.506
      -0.661
      -0.842
      -0.998
      -1.074
      -1.041
      -0.908
      -0.700
      -0.442
      -0.150
       0.162
       0.475
       0.759
       0.989
       1.158
       1.269
       1.320
       1.300
       1.199
       1.031
       0.826
       0.609
       0.392
       0.168
      -0.076
      -0.340
      -0.608
      -0.852
      -1.035
      -1.109
      -1.033
      -0.796
      -0.435
      -0.026
       0.351
       0.655
       0.887
       1.079
       1.266
       1.450
       1.597
       1.651
       1.566
       1.333
       0.983
       0.568
       0.129
      -0.313
      -0.757
      -1.194
      -1.597
      -1.919
      -2.100
      -2.090
      -1.872
      -1.474
      -0.959
      -0.395
       0.170
       0.709
       1.200
       1.608
       1.883
       1.989
       1.919
       1.697
       1.368
       0.975
       0.558
       0.144
      -0.254
      -0.639
      -1.005
      -1.330
      -1.565
      -1.666
      -1.612
      -1.421
      -1.139
      -0.813
      -0.471
      -0.131
       0.187
       0.458
       0.660
       0.781
       0.822
       0.788
       0.672
       0.468
       0.185
      -0.131
      -0.422
      -0.647
      -0.802
      -0.901
      -0.948
      -0.925
      -0.803
      -0.575
      -0.265
       0.075
       0.389
       0.641
       0.819
       0.926
       0.971
       0.956
       0.873
       0.713
       0.487
       0.228
      -0.023
      -0.239
      -0.406
      -0.526
      -0.605
      -0.648
      -0.652
      -0.599
      -0.472
      -0.268
      -0.006
       0.274
       0.528
       0.729
       0.877
       0.984
       1.046
       1.046
       0.956
       0.763
       0.475
       0.120
      -0.267
      -0.653
      -1.007
      -1.304
      -1.520
      -1.644
      -1.671
      -1.592
      -1.396
      -1.079
      -0.660
      -0.177
       0.313
       0.758
       1.114
       1.354
       1.464
       1.443
       1.299
       1.057
       0.753
       0.414
       0.054
      -0.316
      -0.674
      -0.984
      -1.211
      -1.330
      -1.331
      -1.218
      -0.995
      -0.674
      -0.283
       0.130
       0.508
       0.806
       1.002
       1.100
       1.113
       1.055
       0.929
       0.736
       0.481
       0.177
      -0.148
      -0.462
      -0.727
      -0.920
      -1.034
      -1.073
      -1.040
      -0.928
      -0.736
      -0.480
      -0.198
       0.066
       0.273
       0.407
       0.465
       0.459
       0.400
       0.309
       0.213
       0.138
       0.094
       0.080
       0.081
       0.084
       0.082
       0.076
       0.068
       0.064
       0.070
       0.096
       0.150
       0.230
       0.319
       0.388
       0.410
       0.369
       0.265
       0.108
      -0.095
      -0.335
      -0.598
      -0.853
      -1.062
      -1.193
      -1.237
      -1.196
      -1.079
      -0.897
      -0.664
      -0.398
      -0.125
       0.138
       0.382
       0.598
       0.771
       0.875
       0.899
       0.855
       0.779
       0.701
       0.637
       0.580
       0.519
       0.447
       0.367
       0.287
       0.215
       0.153
       0.102
       0.065
       0.042
       0.034
       0.044
       0.083
       0.164
       0.295
       0.460
       0.613
       0.694
       0.662
       0.522
       0.327
       0.145
       0.025
      -0.022
      -0.017
       0.007
       0.033
       0.054
       0.071
       0.088
       0.109
       0.136
       0.163
       0.168
       0.121
      -0.002
      -0.202
      -0.456
      -0.721
      -0.969
      -1.197
      -1.413
      -1.610
      -1.751
      -1.787
      -1.686
      -1.455
      -1.137
      -0.792
      -0.466
      -0.183
       0.061
       0.285
       0.510
       0.749
       0.989
       1.201
       1.360
       1.454
       1.475
       1.411
       1.252
       0.993
       0.646
       0.238
      -0.188
      -0.579
      -0.885
      -1.066
      -1.109
      -1.029
      -0.864
      -0.659
      -0.451
      -0.260
      -0.094
       0.045
       0.162
       0.270
       0.387
       0.521
       0.665
       0.789
       0.861
       0.871
       0.827
       0.738
       0.599
       0.398
       0.141
      -0.135
      -0.370
      -0.516
      -0.563
      -0.536
      -0.472
      -0.397
      -0.318
      -0.235
      -0.145
      -0.044
       0.074
       0.208
       0.347
       0.472
       0.560
       0.603
       0.598
       0.538
       0.412
       0.215
      -0.035
      -0.296
      -0.519
      -0.673
      -0.749
      -0.760
      -0.724
      -0.652
      -0.547
      -0.415
      -0.266
      -0.113
       0.043
       0.208
       0.380
       0.545
       0.679
       0.756
       0.766
       0.712
       0.607
