Origin Time       22/10/2009 19:51:25 UTC
Lat.              36.5°N	
Long.             71.0°E	
Depth (Km)        168.0
Magnitude         6.3
 Region           HINDUKUSH-REGION-AFGHANISTAN                                     
 Above details taken from IMD 
    
Station Code      DEH
Station Lat.       31.883  N
Station Long.      76.216  E
Station Height(m)    0.0
Site Class        B   Vs30 between 375 m/sec to 700 m/sec *  
Record Time       22.10.2009 19:53:54.824 UTC
Sampling Rate     200. Hz
 Record Duration   65.030 Sec.
 Direction         N-S (N positive)
Max. Acceleration      1.423 cm/sec**2
     
  * For reference see Site Classification link of website 
     
 Base Line Corrected and Low Pass Filtered (Cut Off at 35 Hz) Time History
 Acceleration data in cm/sec**2
    
[...]
      -0.098
      -0.111
      -0.120
      -0.120
      -0.108
      -0.086
      -0.060
      -0.037
      -0.021
      -0.007
       0.014
       0.048
       0.092
       0.134
       0.161
       0.172
       0.172
       0.174
       0.181
       0.190
       0.191
       0.174
       0.142
       0.106
       0.081
       0.070
       0.072
       0.079
       0.088
       0.095
       0.101
       0.110
       0.121
       0.136
       0.154
       0.172
       0.188
       0.198
       0.196
       0.179
       0.148
       0.104
       0.052
       0.000
      -0.048
      -0.087
      -0.116
      -0.137
      -0.154
      -0.167
      -0.175
      -0.168
      -0.141
      -0.097
      -0.049
      -0.008
       0.020
       0.036
       0.043
       0.047
       0.048
       0.045
       0.036
       0.021
       0.004
      -0.011
      -0.019
      -0.020
      -0.017
      -0.017
      -0.023
      -0.030
      -0.032
      -0.027
      -0.023
      -0.023
      -0.027
      -0.031
      -0.030
      -0.024
      -0.017
      -0.013
      -0.015
      -0.023
      -0.033
      -0.040
      -0.038
      -0.025
      -0.007
       0.004
       0.002
      -0.015
      -0.038
      -0.055
      -0.060
      -0.054
      -0.042
      -0.032
      -0.026
      -0.020
      -0.012
      -0.002
       0.005
       0.007
       0.003
      -0.003
      -0.004
       0.003
       0.012
       0.014
       0.005
      -0.014
      -0.035
      -0.054
      -0.075
      -0.099
      -0.127
      -0.151
      -0.167
      -0.171
      -0.164
      -0.152
      -0.140
      -0.130
      -0.124
      -0.119
      -0.111
      -0.099
      -0.084
      -0.067
      -0.053
      -0.044
      -0.039
      -0.037
      -0.031
      -0.019
       0.005
       0.033
       0.056
       0.060
       0.046
       0.024
       0.005
      -0.005
      -0.011
      -0.022
      -0.040
      -0.061
      -0.076
      -0.080
      -0.071
      -0.052
      -0.027
      -0.002
       0.018
       0.036
       0.056
       0.081
       0.105
       0.121
       0.125
       0.122
       0.119
       0.126
       0.142
       0.161
       0.172
       0.171
       0.161
       0.148
       0.136
       0.124
       0.110
       0.095
       0.082
       0.072
       0.068
       0.072
       0.084
       0.102
       0.122
       0.135
       0.138
       0.130
       0.115
       0.095
       0.070
       0.040
       0.008
      -0.020
      -0.038
      -0.043
      -0.034
      -0.011
       0.020
       0.054
       0.088
       0.119
       0.143
       0.157
       0.157
       0.141
       0.110
       0.068
       0.021
      -0.023
      -0.062
      -0.089
      -0.101
      -0.096
      -0.075
      -0.041
       0.001
       0.041
       0.070
       0.086
       0.094
       0.101
       0.107
       0.106
       0.092
       0.062
       0.024
      -0.010
      -0.029
      -0.030
      -0.019
      -0.008
      -0.002
       0.000
       0.001
       0.003
       0.003
      -0.007
      -0.030
      -0.064
      -0.096
      -0.119
      -0.125
      -0.116
      -0.095
      -0.064
      -0.026
       0.015
       0.057
       0.097
       0.135
       0.165
       0.186
       0.194
       0.185
       0.159
       0.117
       0.065
       0.012
      -0.033
      -0.066
      -0.092
      -0.118
      -0.145
      -0.165
      -0.168
      -0.151
      -0.122
      -0.093
      -0.073
      -0.062
      -0.054
      -0.045
      -0.035
      -0.034
      -0.049
      -0.079
      -0.113
      -0.142
      -0.159
      -0.164
      -0.159
      -0.147
      -0.127
      -0.098
      -0.067
      -0.038
      -0.019
      -0.008
      -0.005
      -0.008
      -0.016
      -0.026
      -0.034
      -0.035
      -0.031
      -0.023
      -0.016
      -0.009
       0.001
       0.020
       0.047
       0.074
       0.090
       0.091
       0.077
       0.056
       0.033
       0.009
      -0.016
      -0.043
      -0.066
      -0.078
      -0.071
      -0.044
      -0.003
       0.041
       0.085
       0.124
       0.158
       0.184
       0.202
       0.210
       0.207
       0.195
       0.177
       0.155
       0.131
       0.104
       0.074
       0.044
       0.015
      -0.013
      -0.042
      -0.073
      -0.104
      -0.124
      -0.129
      -0.119
      -0.107
      -0.103
      -0.112
      -0.125
      -0.133
      -0.129
      -0.115
      -0.099
      -0.087
      -0.075
      -0.060
      -0.038
      -0.014
       0.006
       0.017
       0.020
       0.020
       0.020
       0.024
       0.030
       0.034
       0.033
       0.031
       0.031
       0.035
       0.041
       0.048
       0.052
       0.056
       0.060
       0.066
       0.071
       0.072
       0.066
       0.053
       0.036
       0.019
       0.004
      -0.006
      -0.010
      -0.008
       0.004
       0.024
       0.051
       0.079
       0.107
       0.135
       0.168
       0.202
       0.230
       0.241
       0.226
       0.190
       0.143
       0.100
       0.066
       0.038
       0.010
      -0.019
      -0.046
      -0.062
      -0.062
      -0.044
      -0.016
       0.013
       0.036
       0.050
       0.059
       0.062
       0.060
       0.053
       0.044
       0.034
       0.029
       0.031
       0.043
       0.064
       0.088
       0.111
       0.127
       0.130
       0.116
       0.087
       0.045
      -0.007
      -0.063
      -0.122
      -0.180
      -0.236
      -0.281
      -0.305
      -0.304
      -0.277
      -0.231
      -0.175
      -0.115
      -0.058
      -0.007
       0.033
       0.057
       0.064
       0.055
       0.038
       0.022
       0.011
       0.005
       0.001
       0.000
       0.003
       0.016
       0.040
       0.078
       0.124
       0.173
       0.217
       0.245
       0.251
       0.235
       0.204
       0.167
       0.130
       0.091
       0.050
       0.010
      -0.022
      -0.039
      -0.039
      -0.031
      -0.025
      -0.024
      -0.027
      -0.025
      -0.017
      -0.005
       0.004
       0.004
      -0.004
      -0.015
      -0.017
      -0.007
       0.013
       0.036
       0.056
       0.071
       0.085
       0.100
       0.112
       0.117
       0.108
       0.084
       0.049
       0.008
      -0.033
      -0.071
      -0.100
      -0.117
      -0.118
      -0.101
      -0.066
      -0.016
       0.045
       0.105
       0.153
       0.183
       0.191
       0.187
       0.178
       0.170
       0.158
       0.135
       0.100
       0.059
       0.022
      -0.003
      -0.018
      -0.029
      -0.041
      -0.056
      -0.069
      -0.075
      -0.071
      -0.061
      -0.050
      -0.042
      -0.038
      -0.036
      -0.032
      -0.020
      -0.002
       0.020
       0.036
       0.043
       0.044
       0.042
       0.040
       0.040
       0.039
       0.034
       0.025
       0.014
       0.005
      -0.001
      -0.003
      -0.004
      -0.004
      -0.004
      -0.002
       0.004
       0.016
       0.031
       0.041
       0.041
       0.033
       0.022
       0.013
       0.010
       0.010
       0.013
       0.018
       0.027
       0.044
       0.067
       0.094
       0.122
       0.148
       0.168
       0.182
       0.187
       0.182
       0.169
       0.150
       0.130
       0.110
       0.087
       0.062
       0.037
       0.022
       0.022
       0.037
       0.060
       0.084
       0.108
       0.128
       0.144
       0.150
       0.144
       0.124
       0.098
       0.074
       0.056
       0.044
       0.030
       0.008
      -0.024
      -0.063
      -0.099
      -0.127
      -0.143
      -0.149
      -0.149
      -0.147
      -0.146
      -0.148
      -0.149
      -0.146
      -0.138
      -0.125
      -0.112
      -0.105
      -0.106
      -0.116
      -0.126
      -0.125
      -0.108
      -0.079
      -0.047
      -0.020
      -0.003
       0.008
       0.019
       0.035
       0.057
       0.081
       0.102
       0.114
       0.112
       0.094
       0.064
       0.027
      -0.011
      -0.045
      -0.070
      -0.087
      -0.100
      -0.115
      -0.138
      -0.170
      -0.205
      -0.237
      -0.260
      -0.275
      -0.287
      -0.299
      -0.308
      -0.307
      -0.294
      -0.273
      -0.251
      -0.233
      -0.222
      -0.216
      -0.214
      -0.210
      -0.204
      -0.195
      -0.182
      -0.163
      -0.138
      -0.108
      -0.073
      -0.037
      -0.001
       0.037
       0.081
       0.131
       0.181
       0.225
       0.259
       0.282
       0.293
       0.290
       0.274
       0.248
       0.217
       0.184
       0.147
       0.106
       0.061
       0.016
      -0.020
      -0.041
      -0.046
      -0.039
      -0.029
      -0.019
      -0.008
       0.006
       0.024
       0.044
       0.061
       0.080
       0.105
       0.139
       0.176
       0.203
       0.209
       0.194
       0.163
       0.123
       0.078
       0.028
      -0.026
      -0.079
      -0.124
      -0.157
      -0.183
      -0.206
      -0.226
      -0.238
      -0.233
      -0.214
      -0.187
      -0.167
      -0.158
      -0.161
      -0.166
      -0.167
      -0.160
      -0.152
      -0.151
      -0.159
      -0.173
      -0.190
      -0.205
      -0.218
      -0.228
      -0.238
      -0.244
      -0.246
      -0.244
      -0.238
      -0.227
      -0.213
      -0.193
      -0.165
      -0.125
      -0.073
      -0.015
       0.035
       0.070
       0.089
       0.097
       0.100
       0.103
       0.107
       0.114
       0.127
       0.144
       0.165
       0.187
       0.207
       0.225
       0.239
       0.250
       0.261
       0.274
       0.291
       0.308
       0.324
       0.337
       0.350
       0.366
       0.388
       0.414
       0.438
       0.456
       0.463
       0.456
       0.433
       0.392
       0.335
       0.266
       0.190
       0.113
       0.037
      -0.038
      -0.111
      -0.174
      -0.220
      -0.242
      -0.242
      -0.226
      -0.207
      -0.189
      -0.176
      -0.164
      -0.157
      -0.160
      -0.176
      -0.202
      -0.229
      -0.245
      -0.243
      -0.220
      -0.178
      -0.115
      -0.031
       0.073
       0.188
       0.299
       0.386
       0.436
       0.447
       0.426
       0.386
       0.336
       0.275
       0.194
       0.091
      -0.027
      -0.144
      -0.250
      -0.342
      -0.425
      -0.506
      -0.583
      -0.648
      -0.695
      -0.726
      -0.748
      -0.767
      -0.782
      -0.790
      -0.789
      -0.784
      -0.782
      -0.784
      -0.780
      -0.761
      -0.719
      -0.663
      -0.605
      -0.551
      -0.497
      -0.433
      -0.356
      -0.269
      -0.186
      -0.121
      -0.076
      -0.046
      -0.016
       0.023
       0.071
       0.121
       0.166
       0.209
       0.259
       0.326
       0.406
       0.485
       0.549
       0.592
       0.623
       0.651
       0.684
       0.723
       0.766
       0.812
       0.862
       0.922
       0.995
       1.075
       1.151
       1.214
       1.259
       1.283
       1.282
       1.255
       1.204
       1.129
       1.032
       0.915
       0.786
       0.650
       0.514
       0.380
       0.254
       0.135
       0.025
      -0.081
      -0.185
      -0.289
      -0.393
      -0.499
      -0.606
      -0.712
      -0.815
      -0.914
      -1.006
      -1.089
      -1.160
      -1.211
      -1.240
      -1.244
      -1.226
      -1.188
      -1.134
      -1.068
      -0.989
      -0.896
      -0.789
      -0.671
      -0.546
      -0.418
      -0.291
      -0.168
      -0.053
       0.050
       0.138
       0.212
       0.274
       0.329
       0.378
       0.422
       0.462
       0.500
       0.535
       0.566
       0.591
       0.609
       0.622
       0.634
       0.646
       0.656
       0.666
       0.677
       0.690
       0.702
       0.703
       0.689
       0.658
       0.613
       0.562
       0.506
       0.444
       0.371
       0.282
       0.177
       0.058
      -0.075
      -0.217
      -0.363
      -0.510
      -0.651
      -0.781
      -0.899
      -1.007
      -1.103
      -1.180
      -1.231
      -1.253
      -1.252
      -1.239
      -1.223
      -1.204
      -1.177
      -1.136
      -1.080
      -1.015
      -0.946
      -0.873
      -0.785
      -0.671
      -0.527
      -0.360
      -0.178
       0.006
       0.187
       0.360
       0.519
       0.658
       0.771
       0.854
       0.909
       0.933
       0.926
       0.885
       0.808
       0.701
       0.575
       0.446
       0.329
       0.229
       0.140
       0.059
      -0.015
      -0.081
      -0.139
      -0.190
      -0.243
      -0.300
      -0.359
      -0.412
      -0.449
      -0.462
      -0.451
      -0.425
      -0.393
      -0.360
      -0.321
      -0.270
      -0.205
      -0.136
      -0.079
      -0.051
      -0.057
      -0.092
      -0.141
      -0.194
      -0.251
      -0.315
      -0.384
      -0.451
      -0.507
      -0.548
      -0.575
      -0.591
      -0.593
      -0.582
      -0.557
      -0.521
      -0.483
      -0.445
      -0.402
      -0.337
      -0.236
      -0.093
       0.083
       0.271
       0.457
       0.636
       0.813
       0.989
       1.154
       1.288
       1.378
       1.420
       1.423
       1.396
       1.349
       1.288
       1.221
       1.149
       1.073
       0.998
       0.929
       0.870
       0.821
       0.774
       0.723
       0.666
       0.605
       0.543
       0.477
       0.403
       0.319
       0.226
       0.130
       0.037
      -0.053
      -0.143
      -0.236
      -0.333
      -0.431
      -0.522
      -0.602
      -0.671
      -0.735
      -0.800
      -0.859
      -0.904
      -0.924
      -0.915
      -0.882
      -0.827
      -0.752
      -0.653
      -0.527
      -0.376
      -0.211
      -0.043
       0.117
       0.265
       0.393
       0.496
       0.568
       0.600
       0.591
       0.547
       0.478
       0.399
       0.321
       0.256
       0.213
       0.198
       0.210
       0.242
       0.284
       0.329
       0.371
       0.412
       0.448
       0.474
       0.485
       0.478
       0.458
       0.436
       0.420
       0.411
       0.405
       0.396
       0.376
       0.343
       0.296
       0.234
       0.155
       0.057
      -0.058
      -0.183
      -0.314
      -0.448
      -0.583
      -0.711
      -0.822
      -0.898
      -0.930
      -0.917
      -0.871
      -0.804
      -0.727
      -0.643
      -0.554
      -0.465
      -0.386
      -0.323
      -0.279
      -0.243
      -0.198
      -0.133
      -0.052
       0.034
       0.113
       0.183
       0.252
       0.333
       0.430
       0.531
       0.613
       0.658
       0.663
       0.636
       0.589
       0.530
       0.460
       0.377
       0.281
       0.181
       0.089
       0.012
      -0.050
      -0.099
      -0.139
      -0.171
      -0.196
      -0.220
      -0.247
      -0.279
      -0.310
      -0.332
      -0.342
      -0.344
      -0.349
      -0.360
      -0.368
      -0.363
      -0.337
      -0.290
      -0.235
      -0.186
      -0.153
      -0.140
      -0.145
      -0.163
      -0.193
      -0.235
      -0.286
      -0.336
      -0.379
      -0.409
      -0.422
      -0.415
      -0.387
      -0.335
      -0.257
      -0.159
      -0.048
       0.067
       0.176
       0.274
       0.356
       0.423
       0.475
       0.516
       0.548
       0.571
       0.590
       0.609
       0.630
       0.654
       0.674
       0.687
       0.692
       0.687
       0.666
       0.622
       0.547
       0.444
       0.320
       0.186
       0.049
      -0.089
      -0.227
      -0.359
      -0.475
      -0.566
      -0.629
      -0.669
      -0.698
      -0.725
      -0.751
      -0.774
      -0.788
      -0.793
      -0.793
      -0.789
      -0.780
      -0.756
      -0.709
      -0.634
      -0.535
      -0.428
      -0.324
      -0.235
      -0.162
      -0.101
      -0.044
       0.013
       0.066
       0.103
       0.121
       0.125
       0.126
       0.138
       0.169
       0.217
       0.275
       0.330
       0.378
       0.420
       0.461
       0.499
       0.526
       0.535
       0.522
       0.493
       0.457
       0.421
       0.387
       0.354
       0.321
       0.287
       0.248
       0.197
       0.131
       0.054
      -0.026
      -0.106
      -0.186
      -0.272
      -0.364
      -0.455
      -0.532
      -0.584
      -0.607
      -0.599
      -0.566
      -0.509
      -0.431
      -0.335
      -0.227
      -0.121
      -0.032
       0.032
       0.071
       0.097
       0.115
       0.132
       0.148
       0.166
       0.187
       0.213
       0.244
       0.283
       0.327
       0.372
       0.410
       0.432
       0.428
       0.394
       0.329
       0.245
       0.153
       0.066
      -0.011
      -0.073
      -0.122
      -0.160
      -0.188
      -0.207
      -0.225
      -0.252
      -0.293
      -0.350
      -0.419
      -0.500
      -0.593
      -0.694
      -0.792
      -0.872
      -0.920
      -0.926
      -0.888
      -0.805
      -0.674
      -0.496
      -0.278
      -0.035
       0.213
       0.445
       0.649
       0.821
       0.965
       1.087
       1.194
       1.285
       1.355
       1.397
       1.407
       1.384
       1.339
       1.281
       1.215
       1.137
       1.040
       0.921
       0.788
       0.654
       0.531
       0.421
       0.320
       0.220
       0.121
       0.031
      -0.040
      -0.087
      -0.115
      -0.129
      -0.131
      -0.123
      -0.106
      -0.090
      -0.086
      -0.101
      -0.131
      -0.162
      -0.188
      -0.213
      -0.248
      -0.300
      -0.363
      -0.425
      -0.477
      -0.512
      -0.532
      -0.537
      -0.523
      -0.486
      -0.422
      -0.331
      -0.219
      -0.091
       0.053
       0.211
       0.381
       0.551
       0.710
       0.846
       0.955
       1.037
       1.088
       1.097
       1.055
       0.961
       0.822
       0.652
       0.464
       0.268
       0.071
      -0.123
      -0.308
      -0.475
      -0.619
      -0.738
      -0.837
      -0.921
      -0.993
      -1.056
      -1.114
      -1.167
      -1.213
      -1.246
      -1.259
      -1.249
      -1.210
      -1.139
      -1.023
      -0.851
      -0.619
      -0.336
      -0.021
       0.304
       0.616
       0.895
       1.121
       1.277
       1.355
       1.353
       1.275
       1.129
       0.925
       0.679
       0.408
       0.134
      -0.121
      -0.341
      -0.517
      -0.648
      -0.737
      -0.794
      -0.828
      -0.846
      -0.852
      -0.842
      -0.815
      -0.767
      -0.698
      -0.615
      -0.530
      -0.449
      -0.377
      -0.314
      -0.261
      -0.225
      -0.208
      -0.212
      -0.231
      -0.257
      -0.283
      -0.303
      -0.310
      -0.293
      -0.237
      -0.132
       0.017
       0.195
       0.382
       0.557
       0.708
       0.830
       0.917
       0.965
