Origin Time       20/06/2011 06:27:18
Lat.              30.5 N	
Long.             79.4 E	
Depth (Km)         12.0
Magnitude         4.6
 Region           Chamoli-Uttarakhand                                              
 Above details taken from IMD 
     
Station Code      DEH
Station Lat.       30.316  N
Station Long.      78.042  E
Station Height(m)  662.0
Site Class        C   Vs30 between 200 m/sec to 375 m/sec *  
Record Time       20.06.2011 06:27:29.874
Sampling Rate     200. Hz
 Record Duration   80.170 Sec.
 Direction         E-W (E positive)
Max. Acceleration      3.701 cm/sec**2
     
  * For reference see Site Classification link of website 
     
 Base Line Corrected and Low Pass Filtered (Cut Off at 35 Hz) Time History
 Acceleration data in cm/sec**2
    
[...]
       0.715
       0.782
       0.789
       0.747
       0.687
       0.633
       0.588
       0.536
       0.455
       0.329
       0.166
      -0.003
      -0.138
      -0.224
      -0.283
      -0.352
      -0.446
      -0.542
      -0.600
      -0.602
      -0.572
      -0.549
      -0.555
      -0.568
      -0.545
      -0.460
      -0.335
      -0.222
      -0.167
      -0.177
      -0.216
      -0.236
      -0.219
      -0.188
      -0.182
      -0.218
      -0.274
      -0.311
      -0.314
      -0.296
      -0.280
      -0.267
      -0.235
      -0.160
      -0.047
       0.077
       0.183
       0.271
       0.353
       0.435
       0.506
       0.548
       0.546
       0.508
       0.452
       0.396
       0.347
       0.303
       0.257
       0.205
       0.152
       0.103
       0.060
       0.017
      -0.040
      -0.112
      -0.192
      -0.266
      -0.323
      -0.358
      -0.368
      -0.353
      -0.315
      -0.258
      -0.182
      -0.095
      -0.009
       0.058
       0.101
       0.126
       0.150
       0.179
       0.199
       0.186
       0.129
       0.051
      -0.007
      -0.018
       0.010
       0.048
       0.071
       0.074
       0.073
       0.083
       0.102
       0.119
       0.125
       0.122
       0.120
       0.124
       0.128
       0.129
       0.122
       0.114
       0.111
       0.119
       0.139
       0.167
       0.201
       0.231
       0.245
       0.233
       0.197
       0.148
       0.094
       0.034
      -0.044
      -0.148
      -0.269
      -0.382
      -0.464
      -0.511
      -0.539
      -0.568
      -0.604
      -0.633
      -0.634
      -0.595
      -0.516
      -0.412
      -0.299
      -0.191
      -0.094
       0.001
       0.107
       0.235
       0.378
       0.510
       0.597
       0.630
       0.625
       0.610
       0.601
       0.595
       0.581
       0.551
       0.503
       0.437
       0.358
       0.274
       0.201
       0.152
       0.124
       0.102
       0.070
       0.029
      -0.008
      -0.020
       0.002
       0.052
       0.112
       0.168
       0.211
       0.240
       0.256
       0.260
       0.255
       0.243
       0.222
       0.186
       0.138
       0.083
       0.031
      -0.009
      -0.031
      -0.035
      -0.028
      -0.024
      -0.037
      -0.073
      -0.120
      -0.156
      -0.161
      -0.138
      -0.115
      -0.120
      -0.155
      -0.196
      -0.212
      -0.194
      -0.164
      -0.156
      -0.188
      -0.248
      -0.307
      -0.350
      -0.381
      -0.413
      -0.452
      -0.493
      -0.532
      -0.570
      -0.607
      -0.634
      -0.627
      -0.571
      -0.474
      -0.371
      -0.296
      -0.255
      -0.229
      -0.190
      -0.123
      -0.037
       0.045
       0.098
       0.110
       0.088
       0.046
      -0.004
      -0.057
      -0.116
      -0.185
      -0.262
      -0.332
      -0.381
      -0.401
      -0.400
      -0.388
      -0.368
      -0.338
      -0.298
      -0.251
      -0.207
      -0.171
      -0.139
      -0.100
      -0.047
       0.017
       0.087
       0.161
       0.243
       0.333
       0.430
       0.527
       0.623
       0.717
       0.808
       0.897
       0.986
       1.082
       1.187
       1.290
       1.364
       1.381
       1.333
       1.237
       1.114
       0.974
       0.810
       0.614
       0.397
       0.178
      -0.022
      -0.199
      -0.365
      -0.528
      -0.685
      -0.823
      -0.938
      -1.028
      -1.100
      -1.156
      -1.202
      -1.239
      -1.259
      -1.244
      -1.179
      -1.065
      -0.929
      -0.808
      -0.727
      -0.680
      -0.639
      -0.583
      -0.513
      -0.443
      -0.390
      -0.359
      -0.343
      -0.327
      -0.297
      -0.246
      -0.177
      -0.092
       0.009
       0.132
       0.280
       0.449
       0.620
       0.771
       0.890
       0.982
       1.057
       1.121
       1.169
       1.185
       1.156
       1.080
       0.970
       0.850
       0.737
       0.634
       0.537
       0.438
       0.338
       0.239
       0.143
       0.052
      -0.034
      -0.111
      -0.175
      -0.223
      -0.255
      -0.270
      -0.266
      -0.237
      -0.182
      -0.104
      -0.013
       0.084
       0.183
       0.285
       0.397
       0.515
       0.632
       0.729
       0.794
       0.816
       0.800
       0.758
       0.705
       0.646
       0.581
       0.504
       0.410
       0.294
       0.162
       0.028
      -0.088
      -0.174
      -0.236
      -0.289
      -0.353
      -0.438
      -0.539
      -0.635
      -0.703
      -0.734
      -0.739
      -0.741
      -0.759
      -0.797
      -0.845
      -0.886
      -0.906
      -0.905
      -0.884
      -0.842
      -0.775
      -0.683
      -0.576
      -0.469
      -0.374
      -0.280
      -0.168
      -0.019
       0.155
       0.324
       0.457
       0.541
       0.582
       0.596
       0.592
       0.566
       0.505
       0.402
       0.257
       0.089
      -0.079
      -0.226
      -0.350
      -0.454
      -0.545
      -0.619
      -0.666
      -0.680
      -0.667
      -0.638
      -0.602
      -0.561
      -0.513
      -0.457
      -0.392
      -0.312
      -0.211
      -0.090
       0.035
       0.138
       0.196
       0.209
       0.190
       0.157
       0.118
       0.074
       0.031
       0.002
      -0.001
       0.029
       0.085
       0.162
       0.262
       0.393
       0.551
       0.708
       0.830
       0.900
       0.927
       0.947
       0.995
       1.080
       1.175
       1.248
       1.277
       1.269
       1.241
       1.201
       1.144
       1.048
       0.897
       0.694
       0.460
       0.225
       0.005
      -0.195
      -0.385
      -0.571
      -0.747
      -0.895
      -0.999
      -1.053
      -1.068
      -1.054
      -1.016
      -0.954
      -0.869
      -0.768
      -0.659
      -0.550
      -0.443
      -0.336
      -0.228
      -0.130
      -0.053
      -0.005
       0.025
       0.058
       0.109
       0.179
       0.247
       0.283
       0.265
       0.190
       0.074
      -0.056
      -0.177
      -0.277
      -0.363
      -0.449
      -0.546
      -0.646
      -0.726
      -0.764
      -0.744
      -0.669
      -0.559
      -0.440
      -0.334
      -0.245
      -0.163
      -0.073
       0.031
       0.139
       0.232
       0.293
       0.323
       0.334
       0.340
       0.348
       0.352
       0.331
       0.266
       0.148
      -0.012
      -0.187
      -0.351
      -0.486
      -0.594
      -0.683
      -0.766
      -0.840
      -0.893
      -0.913
      -0.888
      -0.819
      -0.717
      -0.594
      -0.457
      -0.305
      -0.135
       0.050
       0.243
       0.430
       0.604
       0.759
       0.899
       1.029
       1.153
       1.266
       1.361
       1.431
       1.468
       1.465
       1.420
       1.338
       1.233
       1.122
       1.028
       0.963
       0.920
       0.873
       0.794
       0.676
       0.541
       0.429
       0.373
       0.384
       0.440
       0.507
       0.552
       0.557
       0.520
       0.444
       0.337
       0.207
       0.060
      -0.100
      -0.272
      -0.457
      -0.652
      -0.852
      -1.046
      -1.230
      -1.404
      -1.572
      -1.734
      -1.881
      -2.000
      -2.076
      -2.103
      -2.082
      -2.019
      -1.919
      -1.790
      -1.639
      -1.468
      -1.280
      -1.075
      -0.858
      -0.637
      -0.420
      -0.212
      -0.015
       0.176
       0.365
       0.547
       0.710
       0.839
       0.927
       0.973
       0.975
       0.934
       0.854
       0.745
       0.624
       0.502
       0.383
       0.264
       0.139
       0.014
      -0.097
      -0.182
      -0.234
      -0.257
      -0.256
      -0.238
      -0.198
      -0.126
      -0.011
       0.145
       0.322
       0.482
       0.590
       0.625
       0.589
       0.494
       0.352
       0.164
      -0.064
      -0.318
      -0.567
      -0.774
      -0.915
      -0.988
      -1.009
      -0.997
      -0.960
      -0.886
      -0.756
      -0.558
      -0.286
       0.049
       0.433
       0.847
       1.275
       1.700
       2.101
       2.450
       2.723
       2.905
       2.994
       3.001
       2.938
       2.820
       2.659
       2.468
       2.255
       2.020
       1.750
       1.440
       1.095
       0.741
       0.412
       0.131
      -0.104
      -0.318
      -0.539
      -0.769
      -0.988
      -1.176
      -1.337
      -1.498
      -1.690
      -1.928
      -2.197
      -2.463
      -2.691
      -2.858
      -2.958
      -2.992
      -2.964
      -2.882
      -2.749
      -2.568
      -2.338
      -2.058
      -1.727
      -1.353
      -0.957
      -0.564
      -0.191
       0.166
       0.519
       0.873
       1.209
       1.481
       1.646
       1.696
       1.660
       1.585
       1.509
       1.442
       1.383
       1.334
       1.309
       1.319
       1.370
       1.450
       1.541
       1.629
       1.717
       1.811
       1.903
       1.972
       1.991
       1.946
       1.846
       1.715
       1.574
       1.423
       1.241
       1.003
       0.700
       0.342
      -0.046
      -0.433
      -0.802
      -1.150
      -1.480
      -1.791
      -2.075
      -2.319
      -2.510
      -2.641
      -2.719
      -2.756
      -2.767
      -2.757
      -2.715
      -2.622
      -2.460
      -2.224
      -1.931
      -1.614
      -1.299
      -0.995
      -0.692
      -0.376
      -0.050
       0.266
       0.541
       0.752
       0.888
       0.952
       0.952
       0.901
       0.816
       0.710
       0.587
       0.440
       0.258
       0.036
      -0.214
      -0.461
      -0.669
      -0.813
      -0.887
      -0.897
      -0.851
      -0.751
      -0.594
      -0.380
      -0.119
       0.167
       0.452
       0.715
       0.939
       1.117
       1.248
       1.342
       1.414
       1.472
       1.507
       1.496
       1.416
       1.265
       1.074
       0.889
       0.742
       0.637
       0.557
       0.485
       0.425
       0.395
       0.410
       0.466
       0.541
       0.607
       0.650
       0.675
       0.699
       0.734
       0.778
       0.817
       0.839
       0.836
       0.811
       0.765
       0.689
       0.564
       0.381
       0.149
      -0.114
      -0.396
      -0.690
      -0.995
      -1.296
      -1.565
      -1.769
      -1.890
      -1.936
      -1.925
      -1.879
      -1.811
      -1.729
      -1.637
      -1.537
      -1.434
      -1.335
      -1.248
      -1.179
      -1.131
      -1.106
      -1.099
      -1.109
      -1.135
      -1.173
      -1.213
      -1.243
      -1.252
      -1.237
      -1.196
      -1.119
      -0.996
      -0.812
      -0.558
      -0.236
       0.142
       0.559
       0.995
       1.427
       1.829
       2.172
       2.434
       2.595
       2.654
       2.622
       2.522
       2.378
       2.208
       2.023
       1.834
       1.651
       1.489
       1.359
       1.269
       1.215
       1.192
       1.194
       1.223
       1.277
       1.351
       1.435
       1.514
       1.566
       1.573
       1.519
       1.396
       1.204
       0.952
       0.653
       0.316
      -0.062
      -0.488
      -0.964
      -1.476
      -1.991
      -2.470
      -2.879
      -3.204
      -3.441
      -3.581
      -3.608
      -3.510
      -3.285
      -2.955
      -2.554
      -2.115
      -1.655
      -1.182
      -0.707
      -0.260
       0.123
       0.411
       0.600
       0.703
       0.749
       0.769
       0.783
       0.795
       0.800
       0.788
       0.760
       0.725
       0.706
       0.722
       0.773
       0.838
       0.886
       0.896
       0.867
       0.817
       0.775
       0.764
       0.786
       0.827
       0.861
       0.865
       0.830
       0.759
       0.660
       0.535
       0.385
       0.214
       0.031
      -0.147
      -0.305
      -0.422
      -0.470
      -0.429
      -0.298
      -0.104
       0.106
       0.289
       0.423
       0.512
       0.565
       0.584
       0.550
       0.444
       0.255
      -0.007
      -0.320
      -0.654
      -0.979
      -1.273
      -1.520
      -1.716
      -1.867
      -1.983
      -2.062
      -2.094
      -2.068
      -1.982
      -1.848
      -1.682
      -1.496
      -1.293
      -1.064
      -0.803
      -0.510
      -0.200
       0.107
       0.384
       0.611
       0.777
       0.890
       0.975
       1.063
       1.178
       1.327
       1.502
       1.684
       1.864
       2.046
       2.241
       2.458
       2.692
       2.924
       3.131
       3.290
       3.385
       3.403
       3.332
       3.160
       2.881
       2.498
       2.017
       1.446
       0.798
       0.100
      -0.603
      -1.256
      -1.814
      -2.251
      -2.569
      -2.775
      -2.875
      -2.876
      -2.788
      -2.639
      -2.464
      -2.298
      -2.169
      -2.093
      -2.073
      -2.095
      -2.137
      -2.182
      -2.225
      -2.281
      -2.367
      -2.488
      -2.625
      -2.744
      -2.818
      -2.829
      -2.771
      -2.643
      -2.440
      -2.152
      -1.769
      -1.294
      -0.733
      -0.107
       0.560
       1.228
       1.861
       2.428
       2.907
       3.281
       3.542
       3.684
       3.701
       3.579
       3.306
       2.889
       2.362
       1.781
       1.206
       0.684
       0.247
      -0.083
      -0.287
      -0.350
      -0.275
      -0.080
       0.210
       0.572
       0.980
       1.400
       1.789
       2.104
       2.310
       2.386
       2.332
       2.158
       1.884
       1.528
       1.106
       0.635
       0.135
      -0.361
      -0.812
      -1.186
      -1.470
      -1.673
      -1.810
      -1.890
      -1.918
      -1.887
      -1.792
      -1.637
      -1.435
      -1.203
      -0.958
      -0.710
      -0.474
      -0.267
      -0.112
      -0.026
      -0.013
      -0.056
      -0.139
      -0.254
      -0.401
      -0.578
      -0.772
      -0.962
      -1.130
      -1.263
      -1.346
      -1.367
      -1.319
      -1.210
      -1.071
      -0.937
      -0.828
      -0.736
      -0.646
      -0.547
      -0.444
      -0.342
      -0.235
      -0.109
       0.045
       0.221
       0.400
       0.575
       0.751
       0.940
       1.143
       1.348
       1.545
       1.728
       1.891
       2.022
       2.097
       2.099
       2.029
       1.905
       1.752
       1.577
       1.367
       1.111
       0.816
       0.510
       0.226
      -0.019
      -0.216
      -0.358
      -0.425
      -0.397
      -0.268
      -0.069
       0.152
       0.361
       0.545
       0.711
       0.855
       0.955
       0.980
       0.906
       0.738
       0.498
       0.205
      -0.137
      -0.528
      -0.946
      -1.351
      -1.700
      -1.971
      -2.163
      -2.277
      -2.309
      -2.241
      -2.068
      -1.804
      -1.482
      -1.135
      -0.783
      -0.441
      -0.130
       0.130
       0.322
       0.443
       0.497
       0.484
       0.398
       0.235
       0.007
      -0.254
      -0.516
      -0.754
      -0.952
      -1.097
      -1.165
      -1.133
      -0.991
      -0.745
      -0.419
      -0.044
       0.355
       0.753
       1.122
       1.437
       1.687
       1.871
       1.993
       2.039
       1.990
       1.828
       1.565
       1.235
       0.880
       0.525
       0.170
      -0.182
      -0.510
      -0.772
      -0.930
      -0.975
      -0.920
      -0.789
      -0.596
      -0.349
      -0.052
       0.275
       0.602
       0.902
       1.153
       1.344
       1.464
       1.511
       1.490
       1.414
       1.303
       1.169
       1.014
       0.827
       0.602
       0.338
       0.040
      -0.286
      -0.633
      -0.987
      -1.330
      -1.641
      -1.907
      -2.125
      -2.293
      -2.404
      -2.447
      -2.415
      -2.320
      -2.186
      -2.041
      -1.893
      -1.739
      -1.572
      -1.394
      -1.220
      -1.068
      -0.944
      -0.839
      -0.729
      -0.590
      -0.405
      -0.166
       0.118
       0.421
       0.714
       0.975
       1.196
       1.386
       1.556
       1.709
       1.836
       1.919
       1.946
       1.921
       1.861
       1.785
       1.700
       1.602
       1.481
       1.332
       1.156
       0.966
       0.776
       0.599
       0.438
       0.291
       0.154
       0.029
      -0.076
      -0.155
      -0.209
      -0.246
      -0.268
      -0.270
      -0.247
      -0.200
      -0.141
      -0.080
      -0.028
       0.008
       0.013
      -0.033
      -0.148
      -0.329
      -0.551
      -0.781
      -0.991
      -1.167
      -1.302
      -1.392
      -1.439
      -1.445
      -1.417
      -1.360
      -1.273
      -1.145
      -0.963
      -0.725
      -0.448
      -0.164
       0.097
       0.318
       0.507
       0.682
       0.848
       0.987
       1.068
       1.075
       1.020
       0.941
       0.865
       0.800
       0.734
       0.651
       0.554
       0.458
       0.379
       0.327
       0.301
       0.298
       0.315
       0.350
       0.405
       0.481
       0.576
       0.683
       0.782
       0.839
       0.821
       0.703
       0.485
       0.191
      -0.139
      -0.464
      -0.753
      -0.998
      -1.205
      -1.387
      -1.547
      -1.674
      -1.744
      -1.734
      -1.635
      -1.457
      -1.227
      -0.974
      -0.715
      -0.457
      -0.201
       0.054
       0.310
       0.561
       0.792
       0.981
       1.108
       1.172
       1.193
       1.203
       1.226
       1.260
       1.289
       1.292
       1.252
       1.164
       1.029
       0.854
       0.645
       0.409
       0.158
      -0.093
      -0.325
      -0.520
      -0.668
      -0.772
      -0.849
      -0.924
      -1.016
      -1.122
      -1.226
      -1.299
      -1.322
      -1.283
      -1.187
      -1.044
      -0.866
      -0.667
      -0.463
      -0.266
      -0.079
       0.105
       0.292
       0.479
       0.659
       0.814
       0.924
       0.978
       0.971
       0.907
       0.786
       0.600
       0.351
       0.052
      -0.263
      -0.552
      -0.778
      -0.931
      -1.020
      -1.051
      -1.011
      -0.879
      -0.644
      -0.328
       0.030
       0.399
       0.767
       1.135
       1.494
       1.807
       2.037
       2.163
       2.186
       2.121
       1.976
       1.759
       1.485
       1.177
       0.861
       0.556
       0.275
       0.030
      -0.163
      -0.291
      -0.350
      -0.355
      -0.331
      -0.304
      -0.297
      -0.323
      -0.383
      -0.461
      -0.540
      -0.612
      -0.682
      -0.764
      -0.873
      -1.011
      -1.166
      -1.317
      -1.444
      -1.540
      -1.612
      -1.678
      -1.758
      -1.852
      -1.938
      -1.982
      -1.952
      -1.833
      -1.626
      -1.348
      -1.028
      -0.691
      -0.356
      -0.032
       0.279
       0.570
       0.827
       1.035
       1.188
       1.296
