Origin Time       14/03/2010 6:53:21	
Lat.              31.7 N	
Long.             76.1 E	
Depth (Km)         29.0
Magnitude         4.6
 Region           HIMACHAL-PUNJAB-(HOSHIARPUR)-BORDER                              
 Above details taken from IMD 
     
Station Code      DEH
Station Lat.       31.883  N
Station Long.      76.216  E
Station Height(m)    1.0
Site Class        B   Vs30 between 375 m/sec to 700 m/sec *  
Record Time       14.03.2010 06:53:13.744
Sampling Rate     200. Hz
 Record Duration   50.875 Sec.
 Direction         E-W (E positive)
Max. Acceleration      5.086 cm/sec**2
     
  * For reference see Site Classification link of website 
     
 Base Line Corrected and Low Pass Filtered (Cut Off at 35 Hz) Time History
 Acceleration data in cm/sec**2
    
[...]
      -0.026
      -0.119
      -0.211
      -0.288
      -0.345
      -0.390
      -0.424
      -0.436
      -0.400
      -0.297
      -0.133
       0.059
       0.237
       0.374
       0.466
       0.523
       0.549
       0.539
       0.480
       0.369
       0.215
       0.042
      -0.112
      -0.209
      -0.234
      -0.196
      -0.125
      -0.052
       0.008
       0.056
       0.102
       0.154
       0.212
       0.265
       0.288
       0.250
       0.142
      -0.001
      -0.101
      -0.093
       0.020
       0.146
       0.162
       0.007
      -0.255
      -0.474
      -0.514
      -0.358
      -0.120
       0.043
       0.047
      -0.052
      -0.116
      -0.040
       0.160
       0.359
       0.428
       0.335
       0.157
       0.009
      -0.043
      -0.009
       0.064
       0.133
       0.176
       0.178
       0.123
       0.011
      -0.138
      -0.292
      -0.426
      -0.519
      -0.547
      -0.480
      -0.318
      -0.122
       0.008
       0.008
      -0.087
      -0.161
      -0.115
       0.038
       0.174
       0.162
      -0.012
      -0.219
      -0.294
      -0.166
       0.092
       0.330
       0.448
       0.454
       0.416
       0.371
       0.281
       0.081
      -0.232
      -0.558
      -0.742
      -0.687
      -0.428
      -0.120
       0.074
       0.100
       0.039
       0.028
       0.119
       0.229
       0.207
      -0.010
      -0.321
      -0.521
      -0.467
      -0.189
       0.139
       0.345
       0.376
       0.290
       0.167
       0.045
      -0.066
      -0.138
      -0.130
      -0.037
       0.072
       0.106
       0.038
      -0.057
      -0.068
       0.047
       0.228
       0.369
       0.400
       0.327
       0.198
       0.059
      -0.055
      -0.111
      -0.085
       0.008
       0.105
       0.136
       0.079
      -0.023
      -0.113
      -0.186
      -0.285
      -0.450
      -0.645
      -0.772
      -0.743
      -0.553
      -0.277
      -0.014
       0.169
       0.257
       0.270
       0.237
       0.180
       0.111
       0.036
      -0.036
      -0.082
      -0.074
      -0.007
       0.079
       0.126
       0.101
       0.028
      -0.032
      -0.040
      -0.001
       0.053
       0.107
       0.170
       0.249
       0.322
       0.345
       0.300
       0.215
       0.137
       0.083
       0.030
      -0.057
      -0.181
      -0.301
      -0.360
      -0.329
      -0.228
      -0.112
      -0.037
      -0.034
      -0.091
      -0.160
      -0.178
      -0.105
       0.041
       0.201
       0.310
       0.343
       0.317
       0.271
       0.241
       0.242
       0.274
       0.305
       0.269
       0.108
      -0.166
      -0.442
      -0.567
      -0.467
      -0.214
       0.014
       0.066
      -0.068
      -0.258
      -0.342
      -0.241
      -0.009
       0.217
       0.313
       0.237
       0.043
      -0.161
      -0.284
      -0.295
      -0.220
      -0.106
       0.016
       0.127
       0.209
       0.247
       0.248
       0.246
       0.273
       0.314
       0.303
       0.184
      -0.031
      -0.247
      -0.359
      -0.330
      -0.205
      -0.058
       0.075
       0.195
       0.292
       0.321
       0.231
       0.030
      -0.197
      -0.336
      -0.330
      -0.212
      -0.073
       0.011
       0.034
       0.051
       0.128
       0.284
       0.451
       0.499
       0.327
      -0.050
      -0.475
      -0.738
      -0.718
      -0.462
      -0.150
       0.043
       0.062
      -0.013
      -0.058
      -0.012
       0.091
       0.158
       0.111
      -0.068
      -0.328
      -0.565
      -0.668
      -0.568
      -0.292
       0.043
       0.289
       0.359
       0.274
       0.136
       0.043
       0.028
       0.060
       0.086
       0.075
       0.041
       0.026
       0.071
       0.184
       0.329
       0.445
       0.490
       0.461
       0.369
       0.203
      -0.054
      -0.381
      -0.671
      -0.774
      -0.610
      -0.251
       0.113
       0.320
       0.350
       0.316
       0.351
       0.484
       0.627
       0.663
       0.544
       0.337
       0.163
       0.122
       0.237
       0.451
       0.659
       0.741
       0.613
       0.276
      -0.163
      -0.541
      -0.730
      -0.720
      -0.616
      -0.552
      -0.580
      -0.650
      -0.660
      -0.561
      -0.391
      -0.237
      -0.173
      -0.220
      -0.364
      -0.569
      -0.782
      -0.911
      -0.858
      -0.574
      -0.132
       0.290
       0.507
       0.455
       0.232
       0.022
      -0.048
       0.012
       0.089
       0.085
       0.003
      -0.065
      -0.016
       0.177
       0.457
       0.728
       0.916
       0.999
       0.989
       0.894
       0.704
       0.421
       0.097
      -0.167
      -0.287
      -0.269
      -0.220
      -0.259
      -0.408
      -0.568
      -0.615
      -0.518
      -0.366
      -0.273
      -0.269
      -0.281
      -0.226
      -0.100
       0.030
       0.108
       0.140
       0.154
       0.134
       0.014
      -0.231
      -0.527
      -0.745
      -0.803
      -0.734
      -0.624
      -0.516
      -0.383
      -0.191
       0.034
       0.213
       0.301
       0.320
       0.322
       0.316
       0.246
       0.063
      -0.202
      -0.425
      -0.469
      -0.276
       0.088
       0.478
       0.753
       0.843
       0.771
       0.618
       0.471
       0.370
       0.304
       0.235
       0.143
       0.038
      -0.044
      -0.070
      -0.025
       0.072
       0.178
       0.233
       0.192
       0.049
      -0.157
      -0.363
      -0.513
      -0.583
      -0.570
      -0.472
      -0.286
      -0.039
       0.192
       0.309
       0.275
       0.165
       0.122
       0.232
       0.433
       0.549
       0.450
       0.177
      -0.067
      -0.086
       0.150
       0.482
       0.708
       0.724
       0.578
       0.383
       0.217
       0.093
      -0.019
      -0.153
      -0.327
      -0.541
      -0.758
      -0.915
      -0.955
      -0.864
      -0.678
      -0.452
      -0.231
      -0.052
       0.045
       0.031
      -0.075
      -0.187
      -0.209
      -0.110
       0.042
       0.137
       0.115
       0.017
      -0.066
      -0.077
      -0.036
      -0.018
      -0.076
      -0.202
      -0.323
      -0.347
      -0.211
       0.071
       0.400
       0.651
       0.745
       0.715
       0.669
       0.685
       0.727
       0.666
       0.403
      -0.024
      -0.451
      -0.709
      -0.744
      -0.624
      -0.457
      -0.301
      -0.154
      -0.010
       0.101
       0.134
       0.084
       0.002
      -0.046
      -0.039
      -0.018
      -0.030
      -0.077
      -0.103
      -0.043
       0.115
       0.308
       0.441
       0.452
       0.348
       0.192
       0.050
      -0.042
      -0.093
      -0.136
      -0.198
      -0.273
      -0.330
      -0.341
      -0.318
      -0.305
      -0.341
      -0.412
      -0.460
      -0.437
      -0.350
      -0.245
      -0.144
      -0.005
       0.232
       0.565
       0.880
       1.009
       0.842
       0.414
      -0.095
      -0.468
      -0.579
      -0.457
      -0.257
      -0.135
      -0.147
      -0.231
      -0.275
      -0.201
      -0.005
       0.252
       0.478
       0.577
       0.490
       0.230
      -0.104
      -0.375
      -0.491
      -0.455
      -0.347
      -0.250
      -0.197
      -0.163
      -0.106
      -0.016
       0.085
       0.164
       0.208
       0.225
       0.229
       0.221
       0.194
       0.141
       0.074
       0.021
       0.012
       0.057
       0.126
       0.154
       0.075
      -0.126
      -0.373
      -0.518
      -0.443
      -0.157
       0.203
       0.468
       0.561
       0.523
       0.450
       0.396
       0.335
       0.202
      -0.047
      -0.397
      -0.774
      -1.065
      -1.155
      -0.979
      -0.572
      -0.067
       0.372
       0.649
       0.767
       0.770
       0.661
       0.391
      -0.049
      -0.530
      -0.837
      -0.828
      -0.568
      -0.268
      -0.099
      -0.048
       0.024
       0.208
       0.433
       0.532
       0.420
       0.176
      -0.027
      -0.075
       0.003
       0.095
       0.128
       0.110
       0.092
       0.094
       0.090
       0.058
       0.007
      -0.032
      -0.045
      -0.040
      -0.023
       0.012
       0.070
       0.142
       0.205
       0.242
       0.237
       0.155
      -0.041
      -0.336
      -0.615
      -0.710
      -0.529
      -0.160
       0.183
       0.317
       0.237
       0.097
       0.056
       0.132
       0.209
       0.156
      -0.049
      -0.300
      -0.452
      -0.422
      -0.218
       0.074
       0.343
       0.497
       0.496
       0.374
       0.209
       0.069
      -0.029
      -0.108
      -0.182
      -0.230
      -0.220
      -0.154
      -0.076
      -0.029
      -0.009
       0.025
       0.099
       0.185
       0.221
       0.163
       0.035
      -0.093
      -0.156
      -0.136
      -0.060
       0.032
       0.108
       0.139
       0.100
      -0.007
      -0.136
      -0.207
      -0.174
      -0.068
       0.024
       0.047
       0.035
       0.067
       0.174
       0.282
       0.263
       0.063
      -0.235
      -0.463
      -0.495
      -0.331
      -0.079
       0.148
       0.300
       0.382
       0.397
       0.329
       0.175
      -0.024
      -0.204
      -0.330
      -0.418
      -0.499
      -0.572
      -0.594
      -0.525
      -0.359
      -0.121
       0.163
       0.467
       0.731
       0.848
       0.723
       0.366
      -0.072
      -0.393
      -0.506
      -0.500
      -0.538
      -0.670
      -0.763
      -0.623
      -0.210
       0.289
       0.607
       0.615
       0.405
       0.177
       0.061
       0.054
       0.095
       0.159
       0.269
       0.427
       0.573
       0.626
       0.568
       0.463
       0.395
       0.363
       0.269
       0.004
      -0.416
      -0.804
      -0.899
      -0.568
       0.078
       0.723
       1.045
       0.916
       0.471
       0.004
      -0.227
      -0.161
       0.045
       0.148
       0.004
      -0.328
      -0.644
      -0.753
      -0.609
      -0.332
      -0.107
      -0.058
      -0.169
      -0.303
      -0.304
      -0.117
       0.157
       0.324
       0.251
      -0.011
      -0.260
      -0.318
      -0.174
       0.023
       0.113
       0.062
      -0.045
      -0.116
      -0.151
      -0.226
      -0.386
      -0.564
      -0.616
      -0.443
      -0.073
       0.357
       0.703
       0.888
       0.903
       0.769
       0.518
       0.196
      -0.127
      -0.380
      -0.517
      -0.521
      -0.393
      -0.164
       0.108
       0.360
       0.549
       0.663
       0.679
       0.543
       0.217
      -0.241
      -0.659
      -0.847
      -0.744
      -0.464
      -0.190
      -0.016
       0.114
       0.305
       0.567
       0.775
       0.762
       0.466
      -0.009
      -0.453
      -0.681
      -0.640
      -0.418
      -0.179
      -0.069
      -0.127
      -0.271
      -0.351
      -0.258
      -0.019
       0.221
       0.308
       0.214
       0.061
       0.023
       0.167
       0.387
       0.478
       0.314
      -0.046
      -0.396
      -0.545
      -0.448
      -0.226
      -0.059
      -0.062
      -0.217
      -0.387
      -0.405
      -0.175
       0.244
       0.659
       0.858
       0.746
       0.409
       0.044
      -0.169
      -0.179
      -0.055
       0.081
       0.132
       0.059
      -0.101
      -0.246
      -0.254
      -0.078
       0.193
       0.377
       0.328
       0.067
      -0.225
      -0.338
      -0.198
       0.080
       0.292
       0.308
       0.163
      -0.002
      -0.065
      -0.031
      -0.013
      -0.112
      -0.317
      -0.509
      -0.570
      -0.504
      -0.428
      -0.451
      -0.553
      -0.587
      -0.408
      -0.021
       0.400
       0.627
       0.544
       0.222
      -0.137
      -0.331
      -0.271
       0.000
       0.354
       0.644
       0.762
       0.680
       0.471
       0.264
       0.171
       0.224
       0.373
       0.527
       0.602
       0.546
       0.375
       0.177
       0.085
       0.188
       0.445
       0.691
       0.756
       0.603
       0.359
       0.200
       0.191
       0.235
       0.163
      -0.117
      -0.541
      -0.930
      -1.108
      -1.000
      -0.645
      -0.149
       0.379
       0.848
       1.193
       1.388
       1.452
       1.434
       1.357
       1.199
       0.907
       0.460
      -0.118
      -0.773
      -1.457
      -2.110
      -2.625
      -2.856
      -2.689
      -2.146
      -1.412
      -0.738
      -0.294
      -0.102
      -0.091
      -0.198
      -0.403
      -0.681
      -0.940
      -1.044
      -0.914
      -0.604
      -0.277
      -0.087
      -0.089
      -0.235
      -0.429
      -0.590
      -0.686
      -0.736
      -0.787
      -0.874
      -0.969
      -0.979
      -0.791
      -0.351
       0.285
       0.978
       1.594
       2.074
       2.428
       2.682
       2.815
       2.757
       2.428
       1.805
       0.940
      -0.058
      -1.053
      -1.894
      -2.427
      -2.532
      -2.173
      -1.420
      -0.407
       0.737
       1.919
       3.062
       4.058
       4.772
       5.086
       4.955
       4.403
       3.483
       2.260
       0.834
      -0.631
      -1.947
      -2.995
      -3.771
      -4.335
      -4.701
      -4.779
      -4.437
      -3.632
      -2.480
      -1.208
      -0.037
       0.916
       1.641
       2.186
       2.582
       2.816
       2.839
       2.609
       2.124
       1.428
       0.590
      -0.311
      -1.186
      -1.937
      -2.488
      -2.817
      -2.935
      -2.831
      -2.463
      -1.822
      -1.023
      -0.295
       0.143
       0.223
       0.055
      -0.160
      -0.259
      -0.174
       0.079
       0.454
       0.904
       1.378
       1.801
       2.065
       2.044
       1.646
       0.868
      -0.170
      -1.273
      -2.251
      -2.980
      -3.400
      -3.482
      -3.214
      -2.617
      -1.757
      -0.743
       0.294
       1.223
       1.935
       2.358
       2.471
       2.296
       1.877
       1.261
       0.498
      -0.345
      -1.178
      -1.895
      -2.397
      -2.597
      -2.424
      -1.841
      -0.883
       0.308
       1.497
       2.431
       2.947
       3.032
       2.805
       2.428
       2.002
       1.535
       0.988
       0.370
      -0.211
      -0.567
      -0.548
      -0.152
       0.441
       0.953
       1.163
       1.011
       0.593
       0.069
      -0.438
      -0.873
      -1.221
      -1.455
      -1.537
      -1.432
      -1.140
      -0.700
      -0.177
       0.356
       0.815
       1.121
       1.215
       1.087
       0.785
       0.402
       0.028
      -0.270
      -0.453
      -0.491
      -0.366
      -0.083
       0.305
       0.693
       0.943
       0.933
       0.613
       0.035
      -0.665
      -1.342
      -1.912
      -2.362
      -2.685
      -2.809
      -2.620
      -2.038
      -1.113
      -0.033
       0.946
       1.600
       1.817
       1.632
       1.194
       0.697
       0.288
       0.007
      -0.206
      -0.436
      -0.703
      -0.919
      -0.942
      -0.674
      -0.141
       0.502
       1.049
       1.357
       1.393
       1.211
       0.891
       0.513
       0.145
      -0.153
      -0.359
      -0.491
      -0.591
      -0.678
      -0.726
      -0.684
      -0.509
      -0.199
       0.191
       0.548
       0.728
       0.615
       0.222
      -0.283
      -0.652
      -0.713
      -0.473
      -0.087
       0.279
       0.559
       0.795
       1.046
       1.314
       1.544
       1.665
       1.631
       1.427
       1.078
       0.659
       0.301
       0.149
       0.284
       0.657
       1.108
       1.450
       1.585
       1.541
       1.409
       1.248
       1.034
       0.700
       0.198
      -0.459
      -1.213
      -1.982
      -2.659
      -3.103
      -3.187
      -2.880
      -2.301
      -1.672
      -1.175
      -0.849
      -0.605
      -0.348
      -0.077
       0.117
       0.139
      -0.024
      -0.299
      -0.569
      -0.736
      -0.755
      -0.640
      -0.458
      -0.291
      -0.198
      -0.170
      -0.150
      -0.080
       0.044
       0.164
       0.217
       0.191
       0.134
       0.109
       0.131
       0.152
       0.113
       0.014
      -0.073
      -0.060
       0.064
       0.212
       0.285
       0.276
       0.297
       0.483
       0.855
       1.267
       1.497
       1.392
       0.960
       0.346
      -0.259
      -0.688
      -0.847
      -0.732
      -0.436
      -0.122
       0.070
       0.113
       0.101
       0.161
       0.336
       0.545
       0.661
       0.619
       0.466
       0.321
       0.283
       0.378
       0.557
       0.737
       0.839
       0.809
       0.650
       0.432
       0.260
       0.207
       0.246
       0.254
       0.102
      -0.225
      -0.600
      -0.831
      -0.821
      -0.650
      -0.519
      -0.588
      -0.851
      -1.147
      -1.280
      -1.155
      -0.813
      -0.371
       0.063
       0.430
       0.715
       0.914
       1.020
       1.014
       0.885
       0.649
       0.357
       0.083
      -0.116
      -0.238
      -0.324
      -0.406
      -0.455
      -0.400
      -0.189
       0.152
       0.525
       0.814
       0.938
       0.878
       0.671
       0.395
       0.152
       0.015
      -0.016
      -0.009
      -0.044
      -0.135
      -0.212
      -0.176
       0.004
       0.244
       0.385
       0.299
      -0.010
      -0.414
      -0.745
      -0.907
      -0.916
      -0.843
      -0.747
      -0.635
      -0.493
      -0.326
      -0.161
      -0.018
       0.102
       0.180
       0.156
      -0.044
      -0.432
      -0.902
      -1.280
      -1.426
      -1.330
      -1.100
      -0.879
      -0.746
      -0.687
      -0.641
      -0.563
      -0.450
      -0.323
      -0.197
      -0.079
       0.024
       0.103
       0.159
       0.210
       0.281
       0.372
       0.457
       0.500
       0.482
       0.397
       0.242
       0.013
      -0.258
      -0.472
      -0.500
      -0.275
       0.129
       0.532
       0.770
       0.818
       0.805
       0.884
       1.105
       1.372
       1.536
       1.511
       1.337
       1.131
       0.998
       0.949
       0.905
       0.763
       0.483
       0.125
      -0.182
      -0.331
      -0.313
      -0.220
      -0.181
      -0.267
      -0.444
      -0.609
      -0.679
      -0.651
      -0.592
      -0.568
      -0.599
      -0.659
      -0.707
      -0.712
      -0.648
      -0.494
      -0.252
       0.037
       0.305
       0.511
       0.662
       0.795
       0.909
       0.926
       0.734
       0.287
      -0.315
      -0.872
      -1.215
      -1.330
      -1.348
      -1.401
      -1.496
      -1.508
      -1.308
      -0.883
      -0.351
       0.131
       0.458
       0.605
       0.610
