Origin Time       14/03/2010 6:53:21	
Lat.              31.7 N	
Long.             76.1 E	
Depth (Km)         29.0
Magnitude         4.6
 Region           HIMACHAL-PUNJAB-(HOSHIARPUR)-BORDER                              
 Above details taken from IMD 
   
Station Code      DEH
Station Lat.       31.883
Station Long.      76.216
Station Height(m)    1.0
Site Class        B   Vs30 between 375 m/sec to 700 m/sec *  
Record Time       14.03.2010 06:53:13.744
Sampling Rate     200. Hz
 Record Duration   50.875 Sec.
 Direction         Vert. (Up positive)
Max. Acceleration      4.359 cm/sec**2
     
  * For reference see Site Classification link of website 
     
 Base Line Corrected and Low Pass Filtered (Cut Off at 35 Hz) Time History
 Acceleration data in cm/sec**2
    
[...]
       0.015
       0.007
      -0.006
      -0.015
      -0.015
      -0.005
       0.007
       0.012
       0.008
      -0.001
      -0.006
      -0.003
       0.004
       0.010
       0.013
       0.015
       0.014
       0.011
       0.004
      -0.003
      -0.008
      -0.008
      -0.005
      -0.002
      -0.002
      -0.003
      -0.002
       0.000
       0.003
       0.006
       0.006
       0.007
       0.008
       0.010
       0.010
       0.011
       0.012
       0.011
       0.006
       0.000
      -0.004
      -0.001
       0.005
       0.010
       0.009
       0.007
       0.008
       0.013
       0.018
       0.013
      -0.002
      -0.018
      -0.022
      -0.010
       0.008
       0.018
       0.013
       0.002
      -0.005
      -0.003
       0.003
       0.004
      -0.003
      -0.008
      -0.006
       0.004
       0.008
       0.001
      -0.017
      -0.031
      -0.030
      -0.014
       0.006
       0.017
       0.017
       0.009
       0.001
      -0.005
      -0.009
      -0.007
       0.003
       0.017
       0.026
       0.023
       0.007
      -0.011
      -0.021
      -0.019
      -0.010
       0.000
       0.008
       0.015
       0.019
       0.015
       0.004
      -0.008
      -0.008
       0.008
       0.030
       0.041
       0.031
       0.007
      -0.015
      -0.024
      -0.017
      -0.005
       0.006
       0.013
       0.017
       0.015
       0.007
      -0.006
      -0.013
      -0.007
       0.008
       0.023
       0.026
       0.017
       0.004
      -0.001
       0.005
       0.016
       0.021
       0.019
       0.014
       0.010
       0.009
       0.007
       0.004
       0.003
       0.007
       0.013
       0.016
       0.014
       0.008
       0.001
      -0.003
      -0.003
       0.005
       0.016
       0.026
       0.027
       0.017
       0.001
      -0.010
      -0.009
       0.002
       0.015
       0.022
       0.020
       0.009
      -0.002
      -0.009
      -0.007
       0.003
       0.015
       0.022
       0.021
       0.012
       0.001
      -0.008
      -0.008
       0.000
       0.010
       0.018
       0.023
       0.024
       0.021
       0.015
       0.006
      -0.003
      -0.006
       0.001
       0.017
       0.033
       0.036
       0.023
      -0.001
      -0.021
      -0.023
      -0.006
       0.018
       0.034
       0.034
       0.022
       0.008
      -0.002
      -0.006
      -0.006
      -0.001
       0.008
       0.019
       0.026
       0.023
       0.011
      -0.001
      -0.008
      -0.007
       0.002
       0.013
       0.022
       0.027
       0.025
       0.013
      -0.004
      -0.015
      -0.012
       0.003
       0.017
       0.016
       0.002
      -0.014
      -0.017
      -0.004
       0.012
       0.019
       0.012
       0.001
      -0.006
      -0.007
      -0.004
       0.000
       0.004
       0.008
       0.008
      -0.001
      -0.015
      -0.024
      -0.018
       0.002
       0.024
       0.034
       0.025
       0.004
      -0.013
      -0.017
      -0.008
       0.002
       0.007
       0.008
       0.006
       0.003
      -0.006
      -0.021
      -0.039
      -0.060
      -0.085
      -0.125
      -0.186
      -0.268
      -0.355
      -0.431
      -0.485
      -0.522
      -0.544
      -0.537
      -0.464
      -0.288
      -0.004
       0.335
       0.626
       0.774
       0.751
       0.613
       0.458
       0.343
       0.236
       0.044
      -0.305
      -0.792
      -1.311
      -1.735
      -1.991
      -2.078
      -2.029
      -1.857
      -1.543
      -1.070
      -0.462
       0.195
       0.783
       1.187
       1.333
       1.222
       0.953
       0.714
       0.720
       1.099
       1.786
       2.498
       2.859
       2.627
       1.897
       1.098
       0.725
       0.969
       1.525
       1.777
       1.262
       0.070
      -1.174
      -1.758
      -1.419
      -0.539
       0.166
       0.221
      -0.259
      -0.722
      -0.704
      -0.241
       0.177
       0.070
      -0.571
      -1.250
      -1.382
      -0.779
       0.200
       0.966
       1.170
       0.923
       0.619
       0.563
       0.739
       0.876
       0.704
       0.158
      -0.582
      -1.203
      -1.417
      -1.112
      -0.435
       0.240
       0.497
       0.144
      -0.635
      -1.380
      -1.664
      -1.384
      -0.795
      -0.284
      -0.075
      -0.121
      -0.228
      -0.249
      -0.173
      -0.036
       0.178
       0.502
       0.857
       1.019
       0.778
       0.195
      -0.336
      -0.334
       0.365
       1.393
       2.058
       1.835
       0.777
      -0.502
      -1.272
      -1.216
      -0.645
      -0.206
      -0.322
      -0.842
      -1.201
      -0.960
      -0.242
       0.359
       0.324
      -0.309
      -0.979
      -1.111
      -0.624
       0.070
       0.508
       0.601
       0.629
       0.854
       1.209
       1.372
       1.132
       0.615
       0.149
      -0.081
      -0.184
      -0.380
      -0.702
      -0.920
      -0.784
      -0.305
       0.209
       0.419
       0.239
      -0.126
      -0.400
      -0.472
      -0.431
      -0.422
      -0.498
      -0.599
      -0.622
      -0.481
      -0.134
       0.381
       0.912
       1.213
       1.079
       0.521
      -0.185
      -0.664
      -0.707
      -0.411
      -0.077
       0.050
      -0.044
      -0.162
      -0.079
       0.275
       0.763
       1.135
       1.192
       0.900
       0.397
      -0.092
      -0.394
      -0.471
      -0.418
      -0.366
      -0.387
      -0.460
      -0.516
      -0.496
      -0.379
      -0.187
       0.018
       0.143
       0.100
      -0.132
      -0.456
      -0.687
      -0.644
      -0.274
       0.307
       0.872
       1.200
       1.186
       0.891
       0.498
       0.214
       0.153
       0.269
       0.387
       0.319
      -0.005
      -0.481
      -0.888
      -1.018
      -0.795
      -0.317
       0.182
       0.449
       0.355
      -0.001
      -0.328
      -0.349
      -0.036
       0.339
       0.420
       0.090
      -0.397
      -0.616
      -0.344
       0.233
       0.670
       0.626
       0.129
      -0.486
      -0.847
      -0.813
      -0.510
      -0.175
       0.031
       0.102
       0.130
       0.192
       0.304
       0.435
       0.547
       0.595
       0.514
       0.234
      -0.226
      -0.672
      -0.791
      -0.377
       0.422
       1.120
       1.228
       0.665
      -0.145
      -0.622
      -0.538
      -0.213
      -0.188
      -0.665
      -1.256
      -1.312
      -0.543
       0.643
       1.433
       1.288
       0.397
      -0.486
      -0.672
      -0.091
       0.693
       0.971
       0.449
      -0.556
      -1.385
      -1.514
      -0.884
       0.113
       0.937
       1.240
       1.033
       0.578
       0.151
      -0.121
      -0.263
      -0.343
      -0.399
      -0.430
      -0.429
      -0.372
      -0.191
       0.183
       0.695
       1.079
       0.990
       0.308
      -0.657
      -1.313
      -1.244
      -0.556
       0.196
       0.484
       0.253
      -0.075
      -0.026
       0.469
       1.015
       1.120
       0.631
      -0.165
      -0.817
      -1.091
      -1.086
      -1.029
      -0.976
      -0.742
      -0.142
       0.712
       1.394
       1.492
       0.989
       0.312
      -0.027
       0.122
       0.441
       0.477
       0.094
      -0.400
      -0.569
      -0.277
       0.197
       0.456
       0.372
       0.157
       0.080
       0.143
       0.073
      -0.352
      -0.998
      -1.402
      -1.164
      -0.320
       0.658
       1.228
       1.176
       0.700
       0.162
      -0.216
      -0.431
      -0.560
      -0.612
      -0.533
      -0.304
       0.004
       0.301
       0.551
       0.753
       0.862
       0.767
       0.382
      -0.223
      -0.809
      -1.109
      -1.008
      -0.616
      -0.153
       0.231
       0.545
       0.874
       1.209
       1.396
       1.246
       0.720
       0.006
      -0.597
      -0.887
      -0.898
      -0.835
      -0.866
      -0.959
      -0.904
      -0.527
       0.112
       0.718
       0.979
       0.823
       0.460
       0.173
       0.052
      -0.041
      -0.253
      -0.521
      -0.621
      -0.434
      -0.118
       0.023
      -0.132
      -0.376
      -0.372
      -0.022
       0.396
       0.481
       0.103
      -0.456
      -0.767
      -0.631
      -0.210
       0.164
       0.265
       0.093
      -0.207
      -0.462
      -0.540
      -0.367
       0.012
       0.399
       0.533
       0.289
      -0.154
      -0.396
      -0.128
       0.569
       1.242
       1.401
       0.912
       0.110
      -0.468
      -0.499
      -0.089
       0.356
       0.468
       0.176
      -0.290
      -0.598
      -0.547
      -0.174
       0.294
       0.604
       0.628
       0.417
       0.140
      -0.052
      -0.126
      -0.166
      -0.269
      -0.424
      -0.486
      -0.292
       0.174
       0.693
       0.912
       0.586
      -0.199
      -1.011
      -1.344
      -0.999
      -0.267
       0.294
       0.321
      -0.062
      -0.400
      -0.338
       0.084
       0.553
       0.828
       0.918
       0.919
       0.756
       0.205
      -0.784
      -1.836
      -2.326
      -1.889
      -0.766
       0.382
       1.017
       1.112
       1.045
       1.146
       1.356
       1.302
       0.688
      -0.371
      -1.343
      -1.627
      -0.989
       0.209
       1.205
       1.342
       0.552
      -0.565
      -1.181
      -0.858
       0.133
       1.042
       1.219
       0.584
      -0.362
      -0.929
      -0.710
       0.177
       1.218
       1.818
       1.638
       0.756
      -0.386
      -1.254
      -1.537
      -1.325
      -0.978
      -0.800
      -0.766
      -0.570
       0.055
       1.022
       1.877
       2.109
       1.520
       0.348
      -0.917
      -1.819
      -2.113
      -1.789
      -1.038
      -0.205
       0.317
       0.287
      -0.181
      -0.636
      -0.587
       0.102
       1.062
       1.653
       1.433
       0.486
      -0.639
      -1.322
      -1.297
      -0.778
      -0.227
       0.034
       0.055
       0.145
       0.528
       1.076
       1.376
       1.084
       0.264
      -0.612
      -1.025
      -0.816
      -0.282
       0.123
       0.203
       0.160
       0.325
       0.762
       1.123
       0.949
       0.114
      -0.985
      -1.695
      -1.591
      -0.773
       0.255
       0.974
       1.191
       1.071
       0.899
       0.813
       0.750
       0.605
       0.392
       0.221
       0.109
      -0.108
      -0.624
      -1.400
      -2.088
      -2.249
      -1.702
      -0.652
       0.493
       1.400
       1.907
       1.917
       1.306
       0.048
      -1.550
      -2.828
      -3.095
      -2.109
      -0.326
       1.351
       2.142
       1.880
       1.042
       0.314
       0.089
       0.256
       0.414
       0.262
      -0.154
      -0.513
      -0.518
      -0.160
       0.273
       0.449
       0.272
      -0.041
      -0.182
      -0.044
       0.169
       0.151
      -0.175
      -0.551
      -0.609
      -0.221
       0.376
       0.791
       0.805
       0.510
       0.174
      -0.010
      -0.063
      -0.157
      -0.430
      -0.862
      -1.254
      -1.340
      -0.935
      -0.087
       0.876
       1.480
       1.434
       0.875
       0.291
       0.086
       0.195
       0.160
      -0.357
      -1.126
      -1.490
      -0.998
       0.095
       0.999
       1.086
       0.449
      -0.242
      -0.401
      -0.046
       0.332
       0.347
       0.121
       0.085
       0.437
       0.873
       0.871
       0.249
      -0.606
      -1.056
      -0.768
       0.023
       0.734
       0.913
       0.555
       0.046
      -0.171
       0.059
       0.481
       0.613
       0.138
      -0.792
      -1.619
      -1.805
      -1.282
      -0.504
      -0.022
       0.026
       0.016
       0.428
       1.331
       2.250
       2.536
       1.885
       0.531
      -0.979
      -2.152
      -2.737
      -2.690
      -2.076
      -1.068
       0.031
       0.879
       1.283
       1.303
       1.154
       0.987
       0.767
       0.363
      -0.263
      -0.956
      -1.439
      -1.485
      -1.058
      -0.328
       0.433
       0.983
       1.193
       1.075
       0.747
       0.351
      -0.022
      -0.367
      -0.704
      -0.998
      -1.149
      -1.074
      -0.793
      -0.403
       0.015
       0.437
       0.810
       0.969
       0.718
       0.082
      -0.564
      -0.704
      -0.113
       0.888
       1.658
       1.763
       1.315
       0.789
       0.503
       0.302
      -0.219
      -1.183
      -2.154
      -2.436
      -1.684
      -0.265
       0.996
       1.426
       0.965
       0.108
      -0.511
      -0.549
      -0.108
       0.389
       0.460
      -0.138
      -1.206
      -2.133
      -2.236
      -1.247
       0.415
       1.865
       2.368
       1.887
       1.054
       0.566
       0.547
       0.498
      -0.118
      -1.252
      -2.237
      -2.375
      -1.539
      -0.193
       1.075
       1.967
       2.410
       2.288
       1.433
      -0.027
      -1.424
      -1.879
      -1.044
       0.423
       1.244
       0.569
      -1.195
      -2.565
      -2.151
       0.152
       2.947
       4.359
       3.459
       0.958
      -1.402
      -2.201
      -1.357
      -0.037
       0.390
      -0.540
      -2.061
      -2.835
      -2.032
       0.016
       2.079
       2.956
       2.339
       0.926
      -0.209
      -0.456
      -0.022
       0.374
       0.120
      -0.841
      -2.009
      -2.670
      -2.314
      -0.904
       1.077
       2.830
       3.601
       3.044
       1.391
      -0.658
      -2.259
      -2.796
      -2.148
      -0.745
       0.645
       1.332
       1.108
       0.358
      -0.245
      -0.245
       0.268
       0.776
       0.804
       0.344
      -0.155
      -0.242
       0.078
       0.320
      -0.023
      -0.964
      -1.935
      -2.190
      -1.378
       0.163
       1.594
       2.114
       1.491
       0.222
      -0.804
      -0.960
      -0.332
       0.404
       0.594
       0.167
      -0.378
      -0.524
      -0.261
      -0.076
      -0.411
      -1.135
      -1.569
      -1.067
       0.378
       2.052
       3.014
       2.740
       1.429
      -0.214
      -1.455
      -1.895
      -1.543
      -0.698
       0.224
       0.840
       0.951
       0.630
       0.146
      -0.251
      -0.512
      -0.760
      -1.083
      -1.354
      -1.288
      -0.701
       0.272
       1.193
       1.586
       1.251
       0.406
      -0.414
      -0.630
       0.037
       1.310
       2.384
       2.358
       0.900
      -1.365
      -3.143
      -3.344
      -1.864
       0.349
       1.992
       2.279
       1.345
      -0.006
      -0.913
      -0.960
      -0.330
       0.400
       0.657
       0.243
      -0.532
      -1.082
      -0.992
      -0.342
       0.384
       0.724
       0.615
       0.391
       0.418
       0.720
       0.945
       0.698
      -0.051
      -0.891
      -1.282
      -1.006
      -0.340
       0.190
       0.242
      -0.100
      -0.464
      -0.543
      -0.308
       0.063
       0.397
       0.602
       0.583
       0.184
      -0.662
      -1.707
      -2.383
      -2.144
      -0.927
       0.684
       1.796
       1.844
       1.003
       0.043
      -0.272
       0.251
       1.115
       1.532
       0.987
      -0.396
      -1.924
      -2.760
      -2.461
      -1.255
       0.134
       1.016
       1.204
       1.032
       0.933
       0.991
       0.893
       0.326
      -0.611
      -1.406
      -1.554
      -1.009
      -0.220
       0.278
       0.296
       0.075
      -0.022
       0.140
       0.410
       0.593
       0.670
       0.766
       0.921
       0.979
       0.734
       0.180
      -0.430
      -0.770
      -0.679
      -0.215
       0.436
       1.059
       1.439
       1.422
       1.009
       0.395
      -0.149
      -0.480
      -0.649
      -0.751
      -0.717
      -0.333
       0.483
       1.424
       1.905
       1.506
       0.368
      -0.852
      -1.445
      -1.129
      -0.164
       0.890
       1.524
       1.475
       0.763
      -0.317
      -1.257
      -1.550
      -1.019
       0.006
       0.884
       1.127
       0.742
       0.138
      -0.249
      -0.289
      -0.162
      -0.117
      -0.229
      -0.370
      -0.373
      -0.205
      -0.006
       0.040
      -0.138
      -0.455
      -0.743
      -0.859
      -0.742
      -0.408
       0.061
       0.506
       0.725
       0.581
       0.113
      -0.458
      -0.868
      -0.967
      -0.775
      -0.413
      -0.024
       0.260
       0.345
       0.219
       0.000
      -0.133
      -0.100
      -0.024
      -0.140
      -0.552
      -1.074
      -1.338
      -1.093
      -0.427
       0.294
       0.709
       0.712
       0.469
       0.239
       0.201
       0.399
       0.773
       1.184
       1.404
       1.186
       0.421
      -0.691
      -1.636
      -1.862
      -1.196
      -0.060
       0.798
       0.882
       0.322
      -0.289
      -0.452
      -0.165
       0.171
       0.195
      -0.085
      -0.345
      -0.272
       0.173
       0.738
       1.070
       0.971
       0.530
       0.050
      -0.185
      -0.123
       0.029
      -0.007
      -0.350
      -0.875
      -1.325
      -1.479
      -1.262
      -0.732
      -0.017
       0.720
       1.284
       1.491
       1.272
       0.749
       0.200
      -0.096
      -0.066
       0.064
      -0.098
      -0.773
      -1.727
      -2.344
      -2.071
      -0.880
       0.658
       1.734
       1.848
       1.124
       0.183
      -0.304
      -0.078
       0.568
       1.035
       0.878
       0.132
      -0.719
      -1.102
      -0.771
       0.009
       0.670
       0.765
       0.287
      -0.378
      -0.796
      -0.827
      -0.671
      -0.603
      -0.686
      -0.737
      -0.553
      -0.138
       0.302
       0.565
       0.627
       0.596
       0.553
       0.461
       0.275
       0.114
       0.215
       0.653
       1.121
       1.092
       0.297
      -0.910
      -1.698
      -1.374
       0.031
       1.694
       2.548
       2.038
       0.515
      -1.032
      -1.690
      -1.241
      -0.267
       0.340
       0.071
      -0.818
      -1.541
      -1.423
      -0.414
       0.920
       1.884
       2.146
       1.853
       1.378
       0.979
       0.676
       0.349
      -0.088
      -0.599
      -1.051
      -1.307
      -1.289
      -0.996
      -0.494
       0.106
       0.637
       0.918
       0.842
       0.473
       0.036
      -0.233
      -0.250
      -0.140
      -0.122
      -0.341
      -0.770
      -1.237
      -1.499
      -1.344
      -0.692
       0.344
       1.474
       2.346
       2.676
       2.362
       1.526
       0.469
      -0.464
      -1.062
      -1.356
      -1.554
      -1.816
      -2.060
      -1.996
      -1.389
      -0.319
       0.821
       1.603
       1.865
