Origin Time       04/04/2011 11:31:40
Lat.              29.6 N	
Long.             80.8 E	
Depth (Km)         10.0
Magnitude         5.7
 Region           NEPAL-INDIA-BORDER-REGION                                        
 Above details taken from IMD 
     
Station Code      LDR
Station Lat.       28.590  N
Station Long.      77.220  E
Station Height(m)  228.0
Site Class        C   Vs30 between 200 m/sec to 375 m/sec *  
Record Time       04.04.2011 11:32:44.285
Sampling Rate     200. Hz
 Record Duration  130.090 Sec.
 Direction         E-W (E positive)
Max. Acceleration     -1.786 cm/sec**2
     
  * For reference see Site Classification link of website 
     
 Base Line Corrected and Low Pass Filtered (Cut Off at 35 Hz) Time History
 Acceleration data in cm/sec**2
    
[...]
      -0.466
      -0.577
      -0.708
      -0.844
      -0.950
      -1.006
      -1.019
      -1.020
      -1.024
      -1.022
      -0.985
      -0.899
      -0.782
      -0.662
      -0.553
      -0.449
      -0.338
      -0.223
      -0.120
      -0.034
       0.046
       0.138
       0.247
       0.359
       0.455
       0.531
       0.600
       0.672
       0.742
       0.788
       0.795
       0.762
       0.705
       0.635
       0.550
       0.448
       0.332
       0.215
       0.113
       0.029
      -0.043
      -0.111
      -0.175
      -0.234
      -0.290
      -0.345
      -0.403
      -0.457
      -0.497
      -0.513
      -0.507
      -0.488
      -0.461
      -0.422
      -0.360
      -0.270
      -0.159
      -0.041
       0.071
       0.176
       0.275
       0.370
       0.457
       0.539
       0.621
       0.710
       0.800
       0.875
       0.916
       0.921
       0.900
       0.864
       0.815
       0.743
       0.637
       0.507
       0.370
       0.240
       0.111
      -0.029
      -0.181
      -0.326
      -0.446
      -0.536
      -0.612
      -0.681
      -0.734
      -0.755
      -0.737
      -0.691
      -0.635
      -0.572
      -0.492
      -0.383
      -0.251
      -0.122
      -0.020
       0.045
       0.087
       0.120
       0.144
       0.142
       0.104
       0.038
      -0.038
      -0.112
      -0.185
      -0.265
      -0.348
      -0.423
      -0.476
      -0.510
      -0.539
      -0.574
      -0.610
      -0.626
      -0.611
      -0.568
      -0.508
      -0.433
      -0.331
      -0.193
      -0.028
       0.139
       0.289
       0.417
       0.529
       0.622
       0.680
       0.700
       0.693
       0.684
       0.682
       0.672
       0.633
       0.565
       0.493
       0.449
       0.437
       0.428
       0.391
       0.315
       0.220
       0.132
       0.056
      -0.019
      -0.103
      -0.187
      -0.250
      -0.272
      -0.254
      -0.205
      -0.133
      -0.046
       0.046
       0.122
       0.170
       0.197
       0.223
       0.262
       0.304
       0.320
       0.290
       0.224
       0.156
       0.117
       0.105
       0.092
       0.049
      -0.022
      -0.093
      -0.134
      -0.142
      -0.136
      -0.136
      -0.145
      -0.154
      -0.155
      -0.154
      -0.161
      -0.185
      -0.217
      -0.244
      -0.252
      -0.240
      -0.215
      -0.186
      -0.162
      -0.156
      -0.180
      -0.232
      -0.300
      -0.370
      -0.432
      -0.494
      -0.566
      -0.649
      -0.726
      -0.777
      -0.791
      -0.777
      -0.744
      -0.694
      -0.613
      -0.494
      -0.341
      -0.175
      -0.014
       0.141
       0.296
       0.452
       0.598
       0.715
       0.798
       0.858
       0.904
       0.937
       0.950
       0.945
       0.933
       0.927
       0.927
       0.915
       0.871
       0.785
       0.667
       0.535
       0.393
       0.236
       0.061
      -0.122
      -0.285
      -0.406
      -0.474
      -0.485
      -0.442
      -0.345
      -0.208
      -0.050
       0.106
       0.251
       0.389
       0.524
       0.647
       0.740
       0.785
       0.791
       0.779
       0.768
       0.755
       0.725
       0.672
       0.605
       0.542
       0.489
       0.429
       0.333
       0.188
       0.007
      -0.186
      -0.378
      -0.571
      -0.772
      -0.968
      -1.137
      -1.263
      -1.347
      -1.401
      -1.429
      -1.426
      -1.390
      -1.334
      -1.272
      -1.212
      -1.144
      -1.055
      -0.949
      -0.842
      -0.753
      -0.680
      -0.604
      -0.507
      -0.392
      -0.277
      -0.180
      -0.099
      -0.021
       0.066
       0.161
       0.251
       0.328
       0.389
       0.433
       0.458
       0.456
       0.421
       0.360
       0.291
       0.227
       0.173
       0.119
       0.060
       0.006
      -0.030
      -0.046
      -0.057
      -0.075
      -0.099
      -0.118
      -0.131
      -0.152
      -0.199
      -0.272
      -0.355
      -0.426
      -0.473
      -0.501
      -0.513
      -0.509
      -0.487
      -0.454
      -0.423
      -0.402
      -0.384
      -0.358
      -0.324
      -0.293
      -0.280
      -0.286
      -0.296
      -0.294
      -0.270
      -0.232
      -0.197
      -0.169
      -0.142
      -0.107
      -0.070
      -0.044
      -0.034
      -0.026
       0.006
       0.069
       0.138
       0.175
       0.163
       0.123
       0.095
       0.099
       0.125
       0.146
       0.149
       0.145
       0.156
       0.193
       0.253
       0.330
       0.421
       0.529
       0.647
       0.760
       0.852
       0.925
       0.994
       1.071
       1.141
       1.182
       1.178
       1.143
       1.101
       1.069
       1.039
       0.992
       0.918
       0.824
       0.721
       0.614
       0.498
       0.379
       0.268
       0.183
       0.126
       0.091
       0.071
       0.070
       0.095
       0.146
       0.211
       0.269
       0.312
       0.344
       0.373
       0.394
       0.394
       0.364
       0.315
       0.266
       0.228
       0.196
       0.157
       0.111
       0.076
       0.071
       0.101
       0.149
       0.195
       0.236
       0.283
       0.345
       0.413
       0.465
       0.487
       0.483
       0.467
       0.446
       0.411
       0.349
       0.267
       0.185
       0.126
       0.085
       0.036
      -0.043
      -0.152
      -0.269
      -0.372
      -0.462
      -0.554
      -0.661
      -0.779
      -0.894
      -0.996
      -1.084
      -1.156
      -1.207
      -1.229
      -1.230
      -1.233
      -1.259
      -1.313
      -1.383
      -1.451
      -1.509
      -1.559
      -1.594
      -1.597
      -1.547
      -1.442
      -1.296
      -1.130
      -0.953
      -0.768
      -0.584
      -0.424
      -0.317
      -0.275
      -0.283
      -0.318
      -0.364
      -0.424
      -0.510
      -0.622
      -0.741
      -0.842
      -0.914
      -0.963
      -1.011
      -1.069
      -1.140
      -1.212
      -1.279
      -1.336
      -1.379
      -1.397
      -1.378
      -1.315
      -1.214
      -1.084
      -0.928
      -0.741
      -0.518
      -0.278
      -0.049
       0.147
       0.310
       0.459
       0.607
       0.741
       0.841
       0.900
       0.936
       0.975
       1.026
       1.084
       1.144
       1.208
       1.283
       1.365
       1.441
       1.499
       1.547
       1.599
       1.655
       1.690
       1.673
       1.593
       1.475
       1.363
       1.285
       1.238
       1.196
       1.141
       1.075
       1.008
       0.950
       0.899
       0.848
       0.792
       0.732
       0.670
       0.606
       0.543
       0.485
       0.437
       0.399
       0.365
       0.324
       0.270
       0.209
       0.153
       0.114
       0.092
       0.080
       0.072
       0.069
       0.074
       0.081
       0.078
       0.054
       0.010
      -0.042
      -0.094
      -0.144
      -0.199
      -0.260
      -0.321
      -0.371
      -0.401
      -0.414
      -0.415
      -0.407
      -0.383
      -0.344
      -0.301
      -0.268
      -0.246
      -0.219
      -0.172
      -0.101
      -0.026
       0.036
       0.082
       0.121
       0.158
       0.186
       0.197
       0.197
       0.208
       0.241
       0.285
       0.310
       0.298
       0.265
       0.247
       0.269
       0.332
       0.416
       0.503
       0.587
       0.668
       0.739
       0.786
       0.806
       0.806
       0.802
       0.793
       0.766
       0.701
       0.594
       0.463
       0.327
       0.195
       0.062
      -0.077
      -0.211
      -0.317
      -0.382
      -0.418
      -0.445
      -0.477
      -0.509
      -0.531
      -0.540
      -0.542
      -0.542
      -0.528
      -0.484
      -0.400
      -0.292
      -0.183
      -0.090
      -0.015
       0.046
       0.086
       0.090
       0.043
      -0.049
      -0.169
      -0.298
      -0.432
      -0.582
      -0.748
      -0.908
      -1.033
      -1.110
      -1.158
      -1.204
      -1.262
      -1.321
      -1.362
      -1.377
      -1.375
      -1.366
      -1.345
      -1.303
      -1.240
      -1.174
      -1.124
      -1.096
      -1.076
      -1.047
      -1.004
      -0.956
      -0.912
      -0.868
      -0.810
      -0.727
      -0.631
      -0.539
      -0.463
      -0.399
      -0.333
      -0.257
      -0.181
      -0.117
      -0.073
      -0.041
      -0.013
       0.013
       0.032
       0.040
       0.048
       0.071
       0.119
       0.190
       0.276
       0.367
       0.457
       0.537
       0.590
       0.605
       0.589
       0.573
       0.587
       0.644
       0.731
       0.829
       0.923
       1.012
       1.087
       1.137
       1.154
       1.151
       1.161
       1.207
       1.281
       1.347
       1.367
       1.330
       1.261
       1.197
       1.157
       1.135
       1.116
       1.092
       1.065
       1.032
       0.982
       0.904
       0.805
       0.699
       0.601
       0.508
       0.405
       0.284
       0.151
       0.020
      -0.101
      -0.222
      -0.351
      -0.484
      -0.601
      -0.682
      -0.721
      -0.726
      -0.709
      -0.670
      -0.604
      -0.515
      -0.419
      -0.334
      -0.257
      -0.166
      -0.047
       0.095
       0.225
       0.310
       0.336
       0.314
       0.264
       0.196
       0.114
       0.021
      -0.075
      -0.167
      -0.249
      -0.325
      -0.394
      -0.450
      -0.487
      -0.510
      -0.533
      -0.567
      -0.607
      -0.636
      -0.647
      -0.646
      -0.646
      -0.651
      -0.647
      -0.616
      -0.558
      -0.493
      -0.448
      -0.422
      -0.390
      -0.321
      -0.204
      -0.060
       0.089
       0.233
       0.376
       0.522
       0.658
       0.767
       0.843
       0.901
       0.960
       1.027
       1.093
       1.143
       1.170
       1.173
       1.147
       1.084
       0.976
       0.827
       0.651
       0.459
       0.250
       0.017
      -0.239
      -0.497
      -0.732
      -0.927
      -1.087
      -1.226
      -1.348
      -1.439
      -1.487
      -1.495
      -1.487
      -1.484
      -1.484
      -1.461
      -1.388
      -1.262
      -1.102
      -0.928
      -0.749
      -0.567
      -0.387
      -0.218
      -0.067
       0.068
       0.192
       0.308
       0.408
       0.481
       0.526
       0.559
       0.598
       0.646
       0.690
       0.713
       0.717
       0.723
       0.752
       0.803
       0.859
       0.900
       0.920
       0.921
       0.906
       0.866
       0.797
       0.708
       0.613
       0.519
       0.415
       0.282
       0.116
      -0.064
      -0.229
      -0.358
      -0.455
      -0.533
      -0.599
      -0.648
      -0.675
      -0.678
      -0.661
      -0.626
      -0.569
      -0.494
      -0.415
      -0.354
      -0.315
      -0.280
      -0.216
      -0.107
       0.023
       0.134
       0.197
       0.215
       0.209
       0.195
       0.167
       0.112
       0.029
      -0.067
      -0.162
      -0.257
      -0.363
      -0.486
      -0.613
      -0.719
      -0.786
      -0.818
      -0.834
      -0.849
      -0.867
      -0.878
      -0.872
      -0.847
      -0.805
      -0.747
      -0.677
      -0.598
      -0.521
      -0.450
      -0.383
      -0.312
      -0.233
      -0.161
      -0.114
      -0.103
      -0.116
      -0.120
      -0.092
      -0.030
       0.054
       0.150
       0.258
       0.377
       0.488
       0.565
       0.595
       0.602
       0.623
       0.682
       0.768
       0.852
       0.917
       0.962
       0.990
       0.998
       0.973
       0.919
       0.856
       0.811
       0.794
       0.791
       0.779
       0.749
       0.708
       0.666
       0.621
       0.557
       0.460
       0.339
       0.225
       0.148
       0.117
       0.113
       0.108
       0.096
       0.086
       0.092
       0.108
       0.120
       0.121
       0.114
       0.098
       0.063
      -0.009
      -0.117
      -0.238
      -0.338
      -0.396
      -0.421
      -0.435
      -0.460
      -0.498
      -0.538
      -0.567
      -0.565
      -0.516
      -0.408
      -0.255
      -0.097
       0.022
       0.079
       0.092
       0.100
       0.126
       0.166
       0.199
       0.219
       0.243
       0.297
       0.393
       0.523
       0.665
       0.805
       0.935
       1.046
       1.121
       1.144
       1.115
       1.057
       1.003
       0.967
       0.942
       0.911
       0.868
       0.830
       0.811
       0.809
       0.799
       0.756
       0.678
       0.586
       0.506
       0.445
       0.395
       0.340
       0.271
       0.184
       0.078
      -0.044
      -0.162
      -0.247
      -0.276
      -0.255
      -0.214
      -0.183
      -0.172
      -0.162
      -0.131
      -0.086
      -0.056
      -0.071
      -0.132
      -0.218
      -0.304
      -0.386
      -0.474
      -0.571
      -0.659
      -0.713
      -0.726
      -0.716
      -0.703
      -0.697
      -0.686
      -0.665
      -0.646
      -0.656
      -0.707
      -0.788
      -0.872
      -0.938
      -0.992
      -1.053
      -1.134
      -1.230
      -1.328
      -1.421
      -1.519
      -1.622
      -1.716
      -1.776
      -1.786
      -1.752
      -1.692
      -1.618
      -1.529
      -1.424
      -1.310
      -1.200
      -1.100
      -0.998
      -0.872
      -0.716
      -0.548
      -0.389
      -0.248
      -0.111
       0.037
       0.196
       0.350
       0.484
       0.594
       0.687
       0.764
       0.818
       0.839
       0.827
       0.793
       0.747
       0.690
       0.616
       0.526
       0.435
       0.353
       0.280
       0.198
       0.093
      -0.031
      -0.153
      -0.253
      -0.329
      -0.397
      -0.463
      -0.518
      -0.545
      -0.541
      -0.524
      -0.521
      -0.541
      -0.569
      -0.582
      -0.571
      -0.549
      -0.524
      -0.488
      -0.420
      -0.310
      -0.169
      -0.017
       0.135
       0.295
       0.471
       0.658
       0.843
       1.017
       1.183
       1.353
       1.517
       1.647
       1.706
       1.688
       1.624
       1.559
       1.516
       1.481
       1.426
       1.344
       1.257
       1.196
       1.168
       1.151
       1.118
       1.059
       0.991
       0.938
       0.904
       0.876
       0.843
       0.802
       0.756
       0.706
       0.641
       0.559
       0.468
       0.386
       0.319
       0.261
       0.206
       0.161
       0.147
       0.172
       0.229
       0.295
       0.357
       0.417
       0.487
       0.567
       0.640
       0.686
       0.706
       0.715
       0.734
       0.765
       0.796
       0.814
       0.819
       0.811
       0.782
       0.714
       0.597
       0.436
       0.255
       0.071
      -0.112
      -0.304
      -0.503
      -0.693
      -0.851
      -0.967
      -1.049
      -1.109
      -1.148
      -1.160
      -1.148
      -1.138
      -1.156
      -1.208
      -1.272
      -1.325
      -1.361
      -1.395
      -1.438
      -1.476
      -1.477
      -1.420
      -1.312
      -1.182
      -1.057
      -0.942
      -0.828
      -0.707
      -0.590
      -0.497
      -0.442
      -0.418
      -0.406
      -0.386
      -0.347
      -0.286
      -0.199
      -0.086
       0.051
       0.198
       0.339
       0.469
       0.586
       0.683
       0.741
       0.737
       0.663
       0.540
       0.402
       0.265
       0.128
      -0.023
      -0.188
      -0.349
      -0.492
      -0.621
      -0.757
      -0.913
      -1.075
      -1.217
      -1.322
      -1.404
      -1.485
      -1.576
      -1.660
      -1.706
      -1.702
      -1.661
      -1.605
      -1.540
      -1.460
      -1.361
      -1.251
      -1.140
      -1.028
      -0.899
      -0.739
      -0.556
      -0.373
      -0.212
      -0.075
       0.054
       0.187
       0.319
       0.435
       0.530
       0.614
       0.705
       0.809
       0.915
       1.004
       1.068
       1.111
       1.139
       1.154
       1.150
       1.128
       1.095
       1.060
       1.022
       0.971
       0.899
       0.810
       0.718
       0.629
       0.539
       0.438
       0.325
       0.213
       0.115
       0.035
      -0.034
      -0.099
      -0.151
      -0.175
      -0.165
      -0.130
      -0.091
      -0.055
      -0.013
       0.052
       0.145
       0.251
       0.353
       0.444
       0.533
       0.627
       0.719
       0.786
       0.818
       0.825
       0.831
       0.850
       0.873
       0.884
       0.884
       0.883
       0.893
       0.910
       0.919
       0.917
       0.909
       0.899
       0.881
       0.838
       0.760
       0.654
       0.543
       0.450
       0.383
       0.328
       0.275
       0.226
       0.198
       0.204
       0.237
       0.278
       0.310
       0.327
       0.329
       0.312
       0.268
       0.198
       0.118
       0.046
      -0.018
      -0.090
      -0.185
      -0.294
      -0.387
      -0.438
      -0.449
      -0.441
      -0.428
      -0.402
      -0.342
      -0.247
      -0.140
      -0.052
       0.009
       0.063
       0.134
       0.228
       0.328
       0.412
       0.478
       0.537
       0.595
       0.643
       0.668
       0.667
       0.654
       0.637
       0.612
       0.559
       0.467
       0.347
       0.227
       0.128
       0.050
      -0.021
      -0.094
      -0.164
      -0.224
      -0.280
      -0.347
      -0.434
      -0.527
      -0.593
      -0.610
      -0.579
      -0.525
      -0.463
      -0.392
      -0.302
      -0.191
      -0.074
       0.029
       0.106
       0.158
       0.191
       0.209
       0.210
       0.197
       0.172
       0.140
       0.096
       0.028
      -0.081
      -0.233
      -0.412
      -0.595
      -0.765
      -0.922
      -1.062
      -1.170
      -1.222
      -1.212
      -1.154
      -1.079
      -1.012
      -0.959
      -0.919
      -0.893
      -0.886
      -0.896
      -0.910
      -0.913
      -0.900
      -0.883
      -0.883
      -0.902
      -0.924
      -0.929
      -0.912
      -0.894
      -0.896
      -0.924
      -0.964
      -1.005
      -1.048
      -1.102
      -1.162
      -1.211
      -1.225
      -1.201
      -1.149
      -1.082
      -0.997
      -0.882
      -0.734
      -0.567
      -0.401
      -0.246
      -0.092
       0.071
       0.236
       0.382
       0.497
       0.587
       0.676
       0.777
       0.878
       0.959
       1.009
       1.041
       1.077
       1.120
       1.152
       1.146
       1.097
       1.021
       0.939
       0.859
       0.777
       0.692
       0.620
       0.576
       0.560
       0.561
       0.563
       0.565
       0.571
       0.582
       0.586
       0.568
       0.528
       0.479
       0.432
       0.385
       0.323
       0.238
       0.142
       0.065
       0.028
       0.032
       0.052
       0.066
       0.072
       0.088
       0.130
       0.193
