Origin Time       04/04/2011 11:31:40
Lat.              29.6 N	
Long.             80.8 E	
Depth (Km)         10.0
Magnitude         5.7
 Region           NEPAL-INDIA-BORDER-REGION                                        
 Above details taken from IMD 
   
Station Code      LDR
Station Lat.       28.590
Station Long.      77.220
Station Height(m)  228.0
Site Class        C   Vs30 between 200 m/sec to 375 m/sec *  
Record Time       04.04.2011 11:32:44.285
Sampling Rate     200. Hz
 Record Duration  130.090 Sec.
 Direction         Vert. (Up positive)
Max. Acceleration      1.279 cm/sec**2
     
  * For reference see Site Classification link of website 
     
 Base Line Corrected and Low Pass Filtered (Cut Off at 35 Hz) Time History
 Acceleration data in cm/sec**2
    
[...]
       0.094
       0.092
       0.101
       0.114
       0.118
       0.101
       0.065
       0.022
      -0.012
      -0.028
      -0.026
      -0.010
       0.017
       0.049
       0.081
       0.104
       0.115
       0.110
       0.092
       0.063
       0.029
      -0.015
      -0.074
      -0.151
      -0.233
      -0.295
      -0.313
      -0.281
      -0.218
      -0.155
      -0.118
      -0.116
      -0.140
      -0.176
      -0.207
      -0.228
      -0.246
      -0.273
      -0.315
      -0.364
      -0.404
      -0.421
      -0.409
      -0.367
      -0.301
      -0.224
      -0.152
      -0.100
      -0.076
      -0.077
      -0.095
      -0.117
      -0.138
      -0.155
      -0.167
      -0.172
      -0.163
      -0.136
      -0.094
      -0.040
       0.022
       0.088
       0.159
       0.226
       0.279
       0.308
       0.314
       0.302
       0.280
       0.256
       0.234
       0.216
       0.207
       0.206
       0.210
       0.217
       0.223
       0.227
       0.223
       0.205
       0.166
       0.106
       0.029
      -0.050
      -0.112
      -0.145
      -0.149
      -0.139
      -0.131
      -0.132
      -0.142
      -0.151
      -0.153
      -0.143
      -0.130
      -0.121
      -0.122
      -0.133
      -0.145
      -0.145
      -0.123
      -0.073
      -0.005
       0.061
       0.103
       0.112
       0.100
       0.096
       0.126
       0.198
       0.297
       0.392
       0.456
       0.481
       0.475
       0.450
       0.414
       0.369
       0.317
       0.257
       0.189
       0.116
       0.050
       0.002
      -0.021
      -0.024
      -0.020
      -0.018
      -0.019
      -0.018
      -0.013
      -0.011
      -0.022
      -0.052
      -0.096
      -0.145
      -0.189
      -0.230
      -0.270
      -0.311
      -0.347
      -0.376
      -0.401
      -0.421
      -0.429
      -0.412
      -0.365
      -0.297
      -0.229
      -0.178
      -0.146
      -0.124
      -0.097
      -0.065
      -0.039
      -0.035
      -0.056
      -0.093
      -0.125
      -0.141
      -0.141
      -0.136
      -0.136
      -0.146
      -0.168
      -0.196
      -0.215
      -0.209
      -0.161
      -0.073
       0.041
       0.162
       0.275
       0.376
       0.463
       0.531
       0.573
       0.589
       0.592
       0.591
       0.589
       0.576
       0.543
       0.490
       0.430
       0.377
       0.345
       0.337
       0.349
       0.369
       0.379
       0.369
       0.338
       0.298
       0.264
       0.244
       0.237
       0.234
       0.219
       0.181
       0.116
       0.033
      -0.052
      -0.124
      -0.179
      -0.219
      -0.247
      -0.263
      -0.269
      -0.274
      -0.288
      -0.312
      -0.332
      -0.331
      -0.312
      -0.298
      -0.315
      -0.368
      -0.435
      -0.490
      -0.516
      -0.513
      -0.491
      -0.458
      -0.427
      -0.409
      -0.406
      -0.415
      -0.427
      -0.433
      -0.435
      -0.437
      -0.449
      -0.469
      -0.489
      -0.492
      -0.470
      -0.421
      -0.350
      -0.267
      -0.180
      -0.097
      -0.025
       0.029
       0.063
       0.086
       0.109
       0.143
       0.187
       0.229
       0.257
       0.264
       0.255
       0.242
       0.234
       0.233
       0.233
       0.229
       0.219
       0.211
       0.214
       0.233
       0.266
       0.303
       0.334
       0.353
       0.359
       0.352
       0.332
       0.294
       0.240
       0.172
       0.095
       0.018
      -0.044
      -0.078
      -0.081
      -0.068
      -0.060
      -0.073
      -0.106
      -0.141
      -0.161
      -0.152
      -0.118
      -0.075
      -0.047
      -0.049
      -0.077
      -0.118
      -0.164
      -0.214
      -0.270
      -0.326
      -0.369
      -0.391
      -0.395
      -0.387
      -0.369
      -0.335
      -0.279
      -0.198
      -0.094
       0.025
       0.151
       0.279
       0.408
       0.536
       0.656
       0.754
       0.818
       0.841
       0.825
       0.778
       0.714
       0.646
       0.584
       0.533
       0.495
       0.468
       0.456
       0.457
       0.466
       0.471
       0.464
       0.439
       0.401
       0.359
       0.318
       0.273
       0.212
       0.128
       0.023
      -0.095
      -0.212
      -0.321
      -0.416
      -0.494
      -0.550
      -0.588
      -0.611
      -0.624
      -0.628
      -0.614
      -0.575
      -0.510
      -0.428
      -0.347
      -0.281
      -0.234
      -0.201
      -0.172
      -0.141
      -0.112
      -0.094
      -0.093
      -0.107
      -0.125
      -0.143
      -0.160
      -0.179
      -0.193
      -0.192
      -0.164
      -0.109
      -0.039
       0.036
       0.105
       0.165
       0.207
       0.218
       0.190
       0.126
       0.050
      -0.009
      -0.033
      -0.027
      -0.009
       0.002
      -0.002
      -0.017
      -0.029
      -0.023
       0.005
       0.049
       0.090
       0.113
       0.106
       0.071
       0.015
      -0.053
      -0.124
      -0.192
      -0.254
      -0.308
      -0.350
      -0.375
      -0.379
      -0.361
      -0.326
      -0.285
      -0.245
      -0.205
      -0.166
      -0.123
      -0.080
      -0.041
      -0.019
      -0.023
      -0.048
      -0.079
      -0.101
      -0.114
      -0.124
      -0.138
      -0.150
      -0.150
      -0.135
      -0.112
      -0.088
      -0.062
      -0.029
       0.016
       0.063
       0.096
       0.109
       0.112
       0.118
       0.133
       0.144
       0.137
       0.114
       0.093
       0.095
       0.135
       0.209
       0.307
       0.408
       0.494
       0.556
       0.595
       0.618
       0.630
       0.628
       0.606
       0.563
       0.508
       0.450
       0.402
       0.373
       0.366
       0.373
       0.375
       0.359
       0.322
       0.276
       0.238
       0.221
       0.221
       0.219
       0.192
       0.128
       0.033
      -0.077
      -0.184
      -0.275
      -0.346
      -0.402
      -0.446
      -0.478
      -0.496
      -0.504
      -0.506
      -0.502
      -0.481
      -0.428
      -0.346
      -0.250
      -0.169
      -0.117
      -0.091
      -0.077
      -0.062
      -0.037
      -0.003
       0.035
       0.067
       0.084
       0.086
       0.080
       0.078
       0.091
       0.127
       0.186
       0.259
       0.327
       0.366
       0.352
       0.277
       0.154
       0.014
      -0.107
      -0.192
      -0.249
      -0.301
      -0.362
      -0.425
      -0.468
      -0.474
      -0.446
      -0.399
      -0.347
      -0.300
      -0.267
      -0.253
      -0.257
      -0.262
      -0.252
      -0.221
      -0.180
      -0.146
      -0.128
      -0.124
      -0.125
      -0.130
      -0.141
      -0.153
      -0.149
      -0.112
      -0.038
       0.059
       0.155
       0.232
       0.287
       0.324
       0.344
       0.345
       0.324
       0.286
       0.245
       0.218
       0.216
       0.235
       0.267
       0.302
       0.337
       0.377
       0.426
       0.477
       0.518
       0.535
       0.528
       0.500
       0.454
       0.394
       0.322
       0.246
       0.176
       0.112
       0.049
      -0.016
      -0.081
      -0.145
      -0.209
      -0.279
      -0.354
      -0.426
      -0.487
      -0.533
      -0.563
      -0.572
      -0.554
      -0.512
      -0.455
      -0.396
      -0.345
      -0.308
      -0.285
      -0.272
      -0.261
      -0.248
      -0.236
      -0.235
      -0.254
      -0.287
      -0.318
      -0.327
      -0.305
      -0.258
      -0.203
      -0.160
      -0.142
      -0.149
      -0.166
      -0.168
      -0.140
      -0.080
      -0.003
       0.064
       0.098
       0.094
       0.071
       0.059
       0.077
       0.125
       0.176
       0.202
       0.187
       0.134
       0.060
      -0.014
      -0.068
      -0.092
      -0.080
      -0.031
       0.048
       0.146
       0.248
       0.337
       0.400
       0.431
       0.435
       0.434
       0.451
       0.494
       0.547
       0.577
       0.559
       0.491
       0.401
       0.319
       0.267
       0.246
       0.240
       0.227
       0.183
       0.097
      -0.025
      -0.156
      -0.267
      -0.339
      -0.374
      -0.391
      -0.408
      -0.434
      -0.462
      -0.485
      -0.498
      -0.504
      -0.511
      -0.521
      -0.525
      -0.512
      -0.472
      -0.408
      -0.331
      -0.252
      -0.178
      -0.104
      -0.023
       0.064
       0.150
       0.223
       0.278
       0.320
       0.359
       0.401
       0.441
       0.471
       0.483
       0.472
       0.444
       0.407
       0.372
       0.339
       0.300
       0.248
       0.190
       0.139
       0.103
       0.080
       0.064
       0.058
       0.069
       0.106
       0.168
       0.243
       0.319
       0.389
       0.453
       0.511
       0.552
       0.560
       0.522
       0.444
       0.345
       0.250
       0.169
       0.096
       0.013
      -0.094
      -0.231
      -0.383
      -0.529
      -0.646
      -0.720
      -0.748
      -0.738
      -0.705
      -0.666
      -0.635
      -0.608
      -0.575
      -0.528
      -0.470
      -0.413
      -0.367
      -0.334
      -0.304
      -0.262
      -0.198
      -0.111
      -0.014
       0.075
       0.139
       0.165
       0.150
       0.093
       0.000
      -0.116
      -0.238
      -0.347
      -0.435
      -0.502
      -0.554
      -0.589
      -0.600
      -0.573
      -0.501
      -0.385
      -0.237
      -0.080
       0.067
       0.197
       0.316
       0.432
       0.542
       0.633
       0.691
       0.707
       0.682
       0.624
       0.546
       0.458
       0.372
       0.293
       0.222
       0.155
       0.092
       0.044
       0.023
       0.043
       0.111
       0.227
       0.373
       0.521
       0.641
       0.709
       0.721
       0.688
       0.628
       0.559
       0.493
       0.436
       0.391
       0.361
       0.344
       0.331
       0.314
       0.289
       0.255
       0.211
       0.159
       0.104
       0.048
      -0.004
      -0.056
      -0.115
      -0.182
      -0.255
      -0.327
      -0.392
      -0.447
      -0.490
      -0.518
      -0.531
      -0.528
      -0.505
      -0.459
      -0.390
      -0.309
      -0.230
      -0.174
      -0.160
      -0.194
      -0.267
      -0.361
      -0.460
      -0.558
      -0.655
      -0.752
      -0.843
      -0.916
      -0.958
      -0.963
      -0.932
      -0.870
      -0.783
      -0.683
      -0.590
      -0.525
      -0.499
      -0.498
      -0.488
      -0.435
      -0.324
      -0.163
       0.026
       0.221
       0.404
       0.564
       0.695
       0.797
       0.878
       0.949
       1.011
       1.053
       1.054
       1.003
       0.908
       0.797
       0.695
       0.614
       0.546
       0.478
       0.405
       0.329
       0.263
       0.216
       0.193
       0.194
       0.207
       0.222
       0.231
       0.231
       0.225
       0.218
       0.221
       0.248
       0.304
       0.378
       0.440
       0.459
       0.416
       0.322
       0.204
       0.089
      -0.012
      -0.106
      -0.203
      -0.304
      -0.394
      -0.460
      -0.496
      -0.506
      -0.498
      -0.476
      -0.441
      -0.395
      -0.348
      -0.308
      -0.281
      -0.267
      -0.263
      -0.263
      -0.266
      -0.270
      -0.271
      -0.264
      -0.241
      -0.198
      -0.138
      -0.069
       0.001
       0.060
       0.094
       0.095
       0.068
       0.030
      -0.006
      -0.039
      -0.076
      -0.114
      -0.140
      -0.140
      -0.111
      -0.068
      -0.030
      -0.008
      -0.005
      -0.016
      -0.032
      -0.044
      -0.043
      -0.019
       0.030
       0.097
       0.164
       0.212
       0.228
       0.211
       0.174
       0.135
       0.110
       0.099
       0.090
       0.072
       0.043
       0.010
      -0.018
      -0.035
      -0.035
      -0.014
       0.022
       0.052
       0.050
       0.006
      -0.063
      -0.126
      -0.155
      -0.142
      -0.100
      -0.055
      -0.028
      -0.024
      -0.025
      -0.008
       0.040
       0.113
       0.186
       0.235
       0.245
       0.219
       0.174
       0.134
       0.111
       0.102
       0.091
       0.064
       0.027
      -0.006
      -0.026
      -0.034
      -0.039
      -0.044
      -0.043
      -0.030
      -0.002
       0.037
       0.080
       0.125
       0.179
       0.248
       0.332
       0.423
       0.512
       0.590
       0.658
       0.717
       0.761
       0.781
       0.768
       0.725
       0.660
       0.577
       0.479
       0.370
       0.262
       0.167
       0.085
       0.006
      -0.087
      -0.209
      -0.357
      -0.514
      -0.657
      -0.770
      -0.855
      -0.927
      -0.999
      -1.072
      -1.138
      -1.185
      -1.210
      -1.220
      -1.226
      -1.229
      -1.219
      -1.179
      -1.105
      -1.003
      -0.890
      -0.780
      -0.681
      -0.595
      -0.518
      -0.445
      -0.376
      -0.311
      -0.248
      -0.179
      -0.093
       0.016
       0.148
       0.293
       0.438
       0.573
       0.696
       0.808
       0.915
       1.022
       1.126
       1.214
       1.269
       1.279
       1.250
       1.205
       1.173
       1.169
       1.185
       1.195
       1.172
       1.096
       0.967
       0.801
       0.628
       0.480
       0.371
       0.294
       0.222
       0.130
       0.013
      -0.117
      -0.231
      -0.304
      -0.324
      -0.306
      -0.279
      -0.271
      -0.292
      -0.331
      -0.371
      -0.402
      -0.425
      -0.446
      -0.473
      -0.510
      -0.557
      -0.601
      -0.627
      -0.618
      -0.576
      -0.512
      -0.447
      -0.399
      -0.372
      -0.365
      -0.373
      -0.396
      -0.433
      -0.475
      -0.503
      -0.495
      -0.437
      -0.329
      -0.189
      -0.046
       0.075
       0.162
       0.220
       0.263
       0.299
       0.327
       0.342
       0.339
       0.318
       0.287
       0.257
       0.230
       0.203
       0.167
       0.122
       0.069
       0.019
      -0.020
      -0.039
      -0.032
       0.000
       0.045
       0.084
       0.101
       0.095
       0.078
       0.069
       0.073
       0.081
       0.077
       0.056
       0.021
      -0.016
      -0.050
      -0.074
      -0.083
      -0.072
      -0.050
      -0.026
      -0.011
      -0.006
      -0.008
      -0.011
      -0.011
      -0.010
      -0.009
      -0.012
      -0.015
      -0.010
       0.019
       0.077
       0.158
       0.241
       0.303
       0.329
       0.319
       0.281
       0.227
       0.166
       0.101
       0.033
      -0.035
      -0.094
      -0.132
      -0.146
      -0.141
      -0.128
      -0.122
      -0.136
      -0.172
      -0.220
      -0.257
      -0.265
      -0.236
      -0.179
      -0.114
      -0.062
      -0.031
      -0.014
       0.004
       0.036
       0.083
       0.136
       0.183
       0.215
       0.226
       0.219
       0.202
       0.174
       0.131
       0.068
      -0.013
      -0.095
      -0.163
      -0.207
      -0.232
      -0.251
      -0.279
      -0.319
      -0.358
      -0.376
      -0.354
      -0.293
      -0.207
      -0.117
      -0.039
       0.021
       0.063
       0.080
       0.065
       0.014
      -0.057
      -0.123
      -0.162
      -0.170
      -0.158
      -0.135
      -0.104
      -0.064
      -0.013
       0.041
       0.086
       0.110
       0.105
       0.068
      -0.001
      -0.091
      -0.188
      -0.276
      -0.343
      -0.386
      -0.402
      -0.388
      -0.344
      -0.271
      -0.181
      -0.089
      -0.007
       0.063
       0.125
       0.188
       0.258
       0.330
       0.391
       0.422
       0.412
       0.373
       0.329
       0.304
       0.311
       0.348
       0.408
       0.485
       0.572
       0.662
       0.745
       0.810
       0.845
       0.844
       0.806
       0.741
       0.663
       0.584
       0.506
       0.428
       0.351
       0.283
       0.229
       0.186
       0.143
       0.086
       0.009
      -0.091
      -0.203
      -0.307
      -0.385
      -0.430
      -0.455
      -0.482
      -0.528
      -0.593
      -0.663
      -0.719
      -0.744
      -0.735
      -0.697
      -0.641
      -0.580
      -0.520
      -0.461
      -0.401
      -0.343
      -0.294
      -0.261
      -0.245
      -0.243
      -0.250
      -0.261
      -0.268
      -0.264
      -0.241
      -0.202
      -0.155
      -0.113
      -0.079
      -0.053
      -0.027
       0.006
       0.050
       0.104
       0.162
       0.208
       0.223
       0.194
       0.128
       0.044
      -0.029
      -0.065
      -0.050
       0.016
       0.118
       0.233
       0.337
       0.413
       0.454
       0.462
       0.443
       0.398
       0.327
       0.232
       0.123
       0.016
      -0.072
      -0.129
      -0.149
      -0.130
      -0.077
       0.000
       0.083
       0.154
       0.204
       0.233
       0.246
       0.243
       0.219
       0.170
       0.105
       0.043
       0.006
       0.007
       0.039
       0.090
       0.145
       0.191
       0.218
       0.216
       0.187
       0.142
       0.101
       0.078
       0.069
       0.064
       0.052
       0.030
       0.001
      -0.037
      -0.088
      -0.155
      -0.236
      -0.326
      -0.418
      -0.500
      -0.562
      -0.595
      -0.601
      -0.585
      -0.553
      -0.509
      -0.453
      -0.382
      -0.299
      -0.213
      -0.137
      -0.081
      -0.045
      -0.025
      -0.014
      -0.005
      -0.001
       0.000
      -0.002
       0.001
       0.017
       0.047
       0.082
       0.107
       0.114
       0.108
       0.108
       0.129
       0.177
       0.244
       0.316
       0.377
       0.411
       0.410
       0.376
       0.319
       0.251
       0.180
       0.109
       0.041
      -0.014
      -0.044
      -0.041
      -0.006
       0.048
       0.110
       0.167
       0.208
       0.228
       0.222
       0.191
       0.146
       0.094
       0.045
      -0.002
      -0.048
      -0.091
      -0.125
      -0.143
      -0.137
      -0.111
      -0.071
      -0.030
       0.001
       0.018
       0.022
       0.018
       0.012
       0.009
       0.009
       0.008
       0.000
      -0.020
      -0.049
      -0.082
      -0.114
      -0.144
      -0.165
      -0.171
      -0.163
      -0.150
      -0.146
      -0.149
      -0.146
      -0.122
      -0.080
      -0.039
      -0.017
      -0.011
      -0.002
       0.025
       0.061
       0.079
       0.063
       0.022
      -0.013
      -0.015
       0.021
       0.071
       0.110
       0.127
       0.128
       0.125
       0.124
       0.125
       0.124
       0.124
       0.120
       0.109
       0.084
       0.044
      -0.009
      -0.066
      -0.125
      -0.179
      -0.223
      -0.249
      -0.258
      -0.261
