Origin Time       04/04/2011 11:31:40 UTC
Lat.              29.6 N	
Long.             80.8 E	
Depth (Km)         10.0
Magnitude         5.7
 Region           NEPAL-INDIA-BORDER-REGION                                        
 Above details taken from IMD 
    
Station Code      LDR
Station Lat.       28.590  N
Station Long.      77.220  E
Station Height(m)  228.0
Site Class        C   Vs30 between 200 m/sec to 375 m/sec *  
Record Time       04.04.2011 11:32:44.285 UTC
Sampling Rate     200. Hz
 Record Duration  130.090 Sec.
 Direction         N-S (N positive)
Max. Acceleration     -1.848 cm/sec**2
     
  * For reference see Site Classification link of website 
     
 Base Line Corrected and Low Pass Filtered (Cut Off at 35 Hz) Time History
 Acceleration data in cm/sec**2
    
[...]
       0.285
       0.254
       0.219
       0.184
       0.153
       0.133
       0.124
       0.127
       0.138
       0.152
       0.170
       0.194
       0.227
       0.271
       0.326
       0.392
       0.470
       0.562
       0.665
       0.771
       0.874
       0.964
       1.033
       1.069
       1.066
       1.025
       0.962
       0.899
       0.860
       0.851
       0.861
       0.870
       0.854
       0.804
       0.725
       0.632
       0.541
       0.458
       0.380
       0.292
       0.183
       0.051
      -0.092
      -0.229
      -0.352
      -0.464
      -0.575
      -0.691
      -0.809
      -0.910
      -0.976
      -0.994
      -0.965
      -0.909
      -0.846
      -0.784
      -0.715
      -0.624
      -0.499
      -0.345
      -0.176
      -0.019
       0.103
       0.179
       0.212
       0.222
       0.228
       0.245
       0.275
       0.303
       0.314
       0.292
       0.232
       0.133
       0.002
      -0.158
      -0.335
      -0.513
      -0.671
      -0.792
      -0.867
      -0.899
      -0.897
      -0.871
      -0.826
      -0.770
      -0.713
      -0.666
      -0.638
      -0.625
      -0.614
      -0.595
      -0.559
      -0.505
      -0.429
      -0.328
      -0.202
      -0.060
       0.084
       0.216
       0.330
       0.420
       0.482
       0.513
       0.514
       0.497
       0.476
       0.463
       0.470
       0.500
       0.556
       0.637
       0.740
       0.859
       0.986
       1.111
       1.221
       1.303
       1.349
       1.353
       1.316
       1.247
       1.155
       1.050
       0.939
       0.827
       0.715
       0.602
       0.489
       0.372
       0.246
       0.108
      -0.044
      -0.205
      -0.365
      -0.510
      -0.630
      -0.717
      -0.773
      -0.806
      -0.822
      -0.824
      -0.809
      -0.771
      -0.713
      -0.637
      -0.556
      -0.482
      -0.420
      -0.371
      -0.332
      -0.297
      -0.263
      -0.227
      -0.190
      -0.154
      -0.121
      -0.092
      -0.064
      -0.033
       0.002
       0.037
       0.065
       0.081
       0.084
       0.078
       0.068
       0.053
       0.028
      -0.012
      -0.070
      -0.143
      -0.226
      -0.311
      -0.397
      -0.479
      -0.553
      -0.615
      -0.663
      -0.697
      -0.720
      -0.731
      -0.725
      -0.703
      -0.666
      -0.620
      -0.570
      -0.517
      -0.459
      -0.393
      -0.320
      -0.243
      -0.164
      -0.082
       0.003
       0.089
       0.167
       0.232
       0.278
       0.304
       0.316
       0.319
       0.326
       0.346
       0.385
       0.441
       0.504
       0.561
       0.603
       0.624
       0.628
       0.619
       0.605
       0.592
       0.585
       0.585
       0.592
       0.601
       0.604
       0.592
       0.559
       0.503
       0.425
       0.330
       0.224
       0.108
      -0.015
      -0.140
      -0.258
      -0.358
      -0.434
      -0.488
      -0.527
      -0.559
      -0.582
      -0.591
      -0.577
      -0.540
      -0.485
      -0.423
      -0.359
      -0.290
      -0.209
      -0.115
      -0.009
       0.103
       0.212
       0.314
       0.405
       0.487
       0.565
       0.644
       0.723
       0.797
       0.858
       0.898
       0.918
       0.922
       0.919
       0.916
       0.915
       0.914
       0.907
       0.892
       0.867
       0.829
       0.774
       0.697
       0.601
       0.494
       0.389
       0.292
       0.204
       0.118
       0.030
      -0.061
      -0.151
      -0.237
      -0.324
      -0.420
      -0.527
      -0.641
      -0.754
      -0.860
      -0.952
      -1.025
      -1.070
      -1.082
      -1.064
      -1.028
      -0.982
      -0.931
      -0.872
      -0.802
      -0.721
      -0.635
      -0.550
      -0.475
      -0.419
      -0.387
      -0.376
      -0.383
      -0.403
      -0.434
      -0.479
      -0.533
      -0.592
      -0.647
      -0.691
      -0.725
      -0.748
      -0.763
      -0.774
      -0.781
      -0.791
      -0.811
      -0.846
      -0.893
      -0.941
      -0.972
      -0.974
      -0.940
      -0.877
      -0.798
      -0.711
      -0.619
      -0.525
      -0.434
      -0.357
      -0.307
      -0.291
      -0.314
      -0.374
      -0.464
      -0.576
      -0.697
      -0.818
      -0.929
      -1.025
      -1.099
      -1.141
      -1.142
      -1.097
      -1.008
      -0.886
      -0.744
      -0.591
      -0.439
      -0.291
      -0.149
      -0.011
       0.124
       0.256
       0.383
       0.502
       0.612
       0.715
       0.814
       0.912
       1.016
       1.129
       1.251
       1.372
       1.480
       1.563
       1.617
       1.645
       1.650
       1.638
       1.610
       1.566
       1.507
       1.435
       1.355
       1.276
       1.205
       1.147
       1.104
       1.070
       1.041
       1.014
       0.993
       0.987
       1.006
       1.052
       1.118
       1.196
       1.276
       1.350
       1.413
       1.456
       1.473
       1.465
       1.439
       1.404
       1.363
       1.316
       1.257
       1.188
       1.113
       1.039
       0.968
       0.902
       0.837
       0.772
       0.705
       0.637
       0.566
       0.492
       0.413
       0.329
       0.237
       0.139
       0.035
      -0.071
      -0.172
      -0.258
      -0.319
      -0.349
      -0.349
      -0.330
      -0.307
      -0.293
      -0.295
      -0.312
      -0.334
      -0.355
      -0.370
      -0.376
      -0.372
      -0.360
      -0.347
      -0.337
      -0.336
      -0.340
      -0.348
      -0.360
      -0.379
      -0.412
      -0.463
      -0.531
      -0.615
      -0.706
      -0.796
      -0.875
      -0.938
      -0.985
      -1.022
      -1.058
      -1.103
      -1.162
      -1.238
      -1.328
      -1.424
      -1.514
      -1.589
      -1.648
      -1.697
      -1.740
      -1.778
      -1.805
      -1.816
      -1.808
      -1.776
      -1.722
      -1.649
      -1.565
      -1.472
      -1.371
      -1.258
      -1.131
      -0.994
      -0.852
      -0.713
      -0.582
      -0.464
      -0.369
      -0.301
      -0.260
      -0.238
      -0.223
      -0.204
      -0.182
      -0.164
      -0.153
      -0.146
      -0.136
      -0.114
      -0.079
      -0.039
      -0.002
       0.025
       0.045
       0.063
       0.079
       0.094
       0.109
       0.125
       0.146
       0.172
       0.202
       0.236
       0.278
       0.333
       0.405
       0.489
       0.580
       0.672
       0.762
       0.847
       0.923
       0.985
       1.027
       1.051
       1.060
       1.056
       1.040
       1.012
       0.974
       0.935
       0.904
       0.890
       0.888
       0.886
       0.870
       0.837
       0.792
       0.744
       0.704
       0.672
       0.649
       0.632
       0.622
       0.620
       0.631
       0.660
       0.709
       0.781
       0.874
       0.981
       1.095
       1.210
       1.317
       1.403
       1.459
       1.479
       1.463
       1.415
       1.341
       1.244
       1.128
       1.001
       0.871
       0.743
       0.616
       0.480
       0.329
       0.159
      -0.022
      -0.199
      -0.355
      -0.475
      -0.554
      -0.596
      -0.608
      -0.598
      -0.573
      -0.539
      -0.505
      -0.477
      -0.459
      -0.451
      -0.452
      -0.460
      -0.477
      -0.506
      -0.547
      -0.596
      -0.646
      -0.694
      -0.741
      -0.790
      -0.843
      -0.896
      -0.943
      -0.972
      -0.972
      -0.944
      -0.894
      -0.831
      -0.769
      -0.718
      -0.687
      -0.682
      -0.700
      -0.736
      -0.778
      -0.817
      -0.842
      -0.849
      -0.835
      -0.806
      -0.771
      -0.746
      -0.740
      -0.751
      -0.768
      -0.779
      -0.778
      -0.765
      -0.747
      -0.722
      -0.684
      -0.628
      -0.553
      -0.469
      -0.382
      -0.294
      -0.199
      -0.093
       0.022
       0.139
       0.255
       0.368
       0.473
       0.564
       0.634
       0.679
       0.700
       0.699
       0.680
       0.648
       0.602
       0.542
       0.471
       0.395
       0.322
       0.262
       0.218
       0.189
       0.172
       0.162
       0.157
       0.156
       0.158
       0.161
       0.162
       0.157
       0.142
       0.117
       0.089
       0.064
       0.047
       0.035
       0.021
      -0.007
      -0.053
      -0.110
      -0.164
      -0.199
      -0.209
      -0.194
      -0.158
      -0.106
      -0.035
       0.053
       0.154
       0.262
       0.369
       0.468
       0.557
       0.632
       0.692
       0.735
       0.762
       0.769
       0.750
       0.708
       0.649
       0.582
       0.518
       0.460
       0.414
       0.380
       0.359
       0.350
       0.343
       0.333
       0.314
       0.285
       0.253
       0.220
       0.184
       0.143
       0.095
       0.044
      -0.005
      -0.046
      -0.077
      -0.099
      -0.110
      -0.108
      -0.092
      -0.068
      -0.046
      -0.032
      -0.028
      -0.028
      -0.029
      -0.028
      -0.020
      -0.001
       0.034
       0.088
       0.159
       0.240
       0.328
       0.418
       0.507
       0.589
       0.662
       0.720
       0.761
       0.782
       0.783
       0.764
       0.726
       0.671
       0.598
       0.510
       0.411
       0.310
       0.216
       0.132
       0.056
      -0.021
      -0.105
      -0.204
      -0.317
      -0.444
      -0.579
      -0.715
      -0.843
      -0.958
      -1.057
      -1.138
      -1.204
      -1.259
      -1.309
      -1.356
      -1.400
      -1.441
      -1.476
      -1.501
      -1.510
      -1.499
      -1.464
      -1.407
      -1.329
      -1.236
      -1.133
      -1.028
      -0.929
      -0.837
      -0.748
      -0.655
      -0.548
      -0.425
      -0.287
      -0.136
       0.027
       0.202
       0.387
       0.572
       0.741
       0.878
       0.977
       1.039
       1.069
       1.073
       1.057
       1.025
       0.982
       0.934
       0.884
       0.832
       0.775
       0.711
       0.641
       0.571
       0.509
       0.457
       0.412
       0.365
       0.313
       0.258
       0.204
       0.156
       0.115
       0.075
       0.035
      -0.003
      -0.033
      -0.050
      -0.053
      -0.048
      -0.037
      -0.021
      -0.002
       0.021
       0.054
       0.104
       0.178
       0.272
       0.374
       0.469
       0.548
       0.610
       0.656
       0.682
       0.684
       0.660
       0.617
       0.568
       0.524
       0.493
       0.476
       0.471
       0.470
       0.460
       0.428
       0.361
       0.252
       0.106
      -0.063
      -0.238
      -0.403
      -0.553
      -0.687
      -0.808
      -0.918
      -1.015
      -1.096
      -1.166
      -1.228
      -1.287
      -1.343
      -1.392
      -1.433
      -1.463
      -1.479
      -1.481
      -1.472
      -1.458
      -1.445
      -1.436
      -1.423
      -1.397
      -1.354
      -1.296
      -1.229
      -1.155
      -1.071
      -0.975
      -0.863
      -0.736
      -0.599
      -0.458
      -0.321
      -0.192
      -0.075
       0.029
       0.117
       0.185
       0.229
       0.247
       0.246
       0.237
       0.233
       0.242
       0.264
       0.295
       0.328
       0.362
       0.394
       0.424
       0.448
       0.463
       0.471
       0.473
       0.471
       0.466
       0.466
       0.475
       0.497
       0.530
       0.567
       0.598
       0.617
       0.622
       0.619
       0.618
       0.631
       0.665
       0.720
       0.793
       0.877
       0.966
       1.057
       1.148
       1.236
       1.315
       1.377
       1.420
       1.442
       1.443
       1.420
       1.371
       1.300
       1.213
       1.113
       1.003
       0.886
       0.771
       0.666
       0.576
       0.501
       0.437
       0.383
       0.339
       0.309
       0.290
       0.275
       0.252
       0.212
       0.158
       0.097
       0.043
       0.006
      -0.009
      -0.001
       0.029
       0.073
       0.120
       0.159
       0.182
       0.186
       0.176
       0.161
       0.141
       0.115
       0.074
       0.017
      -0.057
      -0.139
      -0.221
      -0.295
      -0.360
      -0.414
      -0.455
      -0.477
      -0.472
      -0.442
      -0.396
      -0.348
      -0.315
      -0.305
      -0.317
      -0.348
      -0.389
      -0.435
      -0.482
      -0.530
      -0.579
      -0.633
      -0.697
      -0.775
      -0.864
      -0.957
      -1.039
      -1.101
      -1.140
      -1.155
      -1.144
      -1.108
      -1.049
      -0.973
      -0.888
      -0.798
      -0.703
      -0.599
      -0.483
      -0.365
      -0.255
      -0.161
      -0.087
      -0.032
       0.001
       0.005
      -0.020
      -0.065
      -0.116
      -0.154
      -0.171
      -0.167
      -0.148
      -0.117
      -0.076
      -0.023
       0.042
       0.117
       0.196
       0.273
       0.342
       0.397
       0.434
       0.451
       0.446
       0.416
       0.356
       0.257
       0.118
      -0.060
      -0.266
      -0.490
      -0.718
      -0.941
      -1.152
      -1.343
      -1.510
      -1.647
      -1.750
      -1.819
      -1.848
      -1.836
      -1.780
      -1.684
      -1.555
      -1.397
      -1.214
      -1.007
      -0.782
      -0.547
      -0.312
      -0.085
       0.132
       0.333
       0.514
       0.668
       0.794
       0.894
       0.970
       1.024
       1.059
       1.076
       1.079
       1.072
       1.059
       1.041
       1.019
       0.998
       0.981
       0.972
       0.972
       0.981
       0.999
       1.021
       1.045
       1.065
       1.078
       1.084
       1.078
       1.057
       1.015
       0.954
       0.878
       0.798
       0.718
       0.639
       0.559
       0.479
       0.407
       0.353
       0.322
       0.312
       0.315
       0.322
       0.333
       0.351
       0.381
       0.422
       0.471
       0.523
       0.576
       0.631
       0.693
       0.766
       0.846
       0.929
       1.008
       1.076
       1.134
       1.184
       1.231
       1.274
       1.313
       1.338
       1.341
       1.311
       1.247
       1.154
       1.042
       0.916
       0.778
       0.624
       0.455
       0.274
       0.087
      -0.105
      -0.306
      -0.518
      -0.736
      -0.943
      -1.122
      -1.262
      -1.361
      -1.422
      -1.453
      -1.457
      -1.442
      -1.411
      -1.370
      -1.319
      -1.261
      -1.195
      -1.127
      -1.060
      -0.995
      -0.927
      -0.852
      -0.770
      -0.687
      -0.612
      -0.555
      -0.521
      -0.509
      -0.516
      -0.538
      -0.570
      -0.608
      -0.646
      -0.675
      -0.683
      -0.664
      -0.620
      -0.560
      -0.492
      -0.418
      -0.335
      -0.243
      -0.150
      -0.067
      -0.008
       0.021
       0.020
      -0.006
      -0.049
      -0.102
      -0.160
      -0.220
      -0.279
      -0.330
      -0.369
      -0.391
      -0.398
      -0.396
      -0.392
      -0.392
      -0.395
      -0.397
      -0.391
      -0.373
      -0.340
      -0.296
      -0.243
      -0.184
      -0.123
      -0.060
       0.003
       0.061
       0.107
       0.133
       0.134
       0.110
       0.068
       0.020
      -0.028
      -0.073
      -0.115
      -0.158
      -0.203
      -0.247
      -0.289
      -0.327
      -0.361
      -0.390
      -0.408
      -0.412
      -0.401
      -0.377
      -0.345
      -0.311
      -0.282
      -0.262
      -0.254
      -0.252
      -0.246
      -0.227
      -0.193
      -0.144
      -0.084
      -0.016
       0.059
       0.145
       0.241
       0.345
       0.454
       0.561
       0.661
       0.751
       0.827
       0.886
       0.930
       0.962
       0.988
       1.010
       1.031
       1.054
       1.081
       1.113
       1.148
       1.183
       1.212
       1.231
       1.233
       1.216
       1.176
       1.112
       1.027
       0.929
       0.826
       0.726
       0.634
       0.554
       0.484
       0.418
       0.353
       0.286
       0.222
       0.169
       0.129
       0.096
       0.065
       0.032
       0.003
      -0.014
      -0.019
      -0.022
      -0.035
      -0.062
      -0.104
      -0.153
      -0.201
      -0.243
      -0.275
      -0.296
      -0.309
      -0.322
      -0.338
      -0.355
      -0.366
      -0.367
      -0.354
      -0.332
      -0.308
      -0.287
      -0.275
      -0.274
      -0.282
      -0.292
      -0.298
      -0.297
      -0.290
      -0.279
      -0.268
      -0.258
      -0.249
      -0.237
      -0.218
      -0.193
      -0.166
      -0.144
      -0.136
      -0.144
      -0.162
      -0.182
      -0.202
      -0.225
      -0.252
      -0.284
      -0.314
      -0.337
      -0.355
      -0.372
      -0.392
      -0.414
      -0.437
      -0.458
      -0.476
      -0.491
      -0.499
      -0.498
      -0.485
      -0.463
      -0.439
      -0.420
      -0.408
      -0.402
      -0.397
      -0.389
      -0.369
      -0.333
      -0.277
      -0.201
      -0.110
      -0.013
       0.086
       0.181
       0.267
       0.337
       0.385
       0.413
       0.426
       0.429
       0.424
       0.409
       0.386
       0.364
       0.348
       0.339
       0.325
       0.295
       0.243
       0.173
       0.091
       0.003
      -0.093
      -0.198
      -0.312
      -0.429
      -0.540
      -0.636
      -0.708
      -0.753
      -0.770
      -0.759
      -0.726
      -0.679
      -0.623
      -0.562
      -0.492
      -0.412
      -0.320
      -0.215
      -0.097
       0.035
       0.175
       0.319
       0.457
       0.584
       0.695
       0.793
       0.881
       0.960
       1.030
       1.089
       1.135
       1.169
       1.197
       1.225
       1.255
       1.282
       1.296
       1.290
       1.263
       1.219
       1.162
       1.094
       1.015
       0.926
       0.828
       0.721
       0.610
       0.501
       0.402
       0.318
       0.243
       0.163
       0.071
      -0.033
      -0.136
      -0.231
      -0.316
      -0.396
      -0.475
      -0.554
      -0.628
      -0.686
      -0.722
      -0.734
      -0.729
      -0.714
      -0.692
      -0.663
      -0.626
      -0.580
      -0.525
      -0.468
      -0.419
      -0.389
      -0.384
      -0.401
      -0.430
      -0.468
      -0.514
      -0.569
      -0.633
      -0.700
      -0.765
      -0.827
      -0.887
      -0.945
      -1.000
      -1.046
      -1.076
      -1.087
      -1.082
      -1.063
      -1.032
      -0.987
      -0.928
      -0.856
      -0.773
      -0.678
      -0.569
      -0.444
      -0.309
      -0.170
      -0.038
       0.078
       0.171
       0.237
       0.273
       0.284
       0.278
       0.262
       0.246
       0.236
       0.243
       0.271
       0.320
       0.384
       0.456
       0.530
       0.603
       0.674
       0.742
