Origin Time       05/3/2012 07:41:05	
Lat.              28.7 N	
Long.             76.6 E	
Depth (Km)         14.0
Magnitude         4.9
 Region           Haryana-Delhi-Border-Region                                      
 Above details taken from IMD 
   
Station Code       NSIT
Station Lat.       28.608
Station Long.      77.041
Station Height(m)  159.0
Site Class        C   Vs30 between 200 m/sec to 375 m/sec *  
Record Time        3/5/2012   7:40:59.000
Sampling Rate     200. Hz
 Record Duration   93.000 Sec.
 Direction         Vert. (Up positive)
Max. Acceleration   7.888 cm/sec**2
     
  * For reference see Site Classification link of website 
     
 Base Line Corrected and Low Pass Filtered (Cut Off at 35 Hz) Time History
 Acceleration data in cm/sec**2
    
[...]
    0.481
    0.426
    0.385
   -0.119
   -1.165
   -2.321
   -2.968
   -2.765
   -1.872
   -0.782
    0.063
    0.554
    0.882
    1.274
    1.752
    2.116
    2.128
    1.711
    0.993
    0.197
   -0.501
   -1.028
   -1.372
   -1.527
   -1.489
   -1.293
   -1.017
   -0.734
   -0.451
   -0.099
    0.395
    1.013
    1.603
    1.913
    1.730
    1.035
    0.084
   -0.707
   -1.003
   -0.786
   -0.358
   -0.118
   -0.238
   -0.518
   -0.556
   -0.106
    0.679
    1.347
    1.499
    1.062
    0.277
   -0.521
   -1.088
   -1.321
   -1.221
   -0.861
   -0.400
   -0.056
    0.013
   -0.142
   -0.270
   -0.130
    0.261
    0.607
    0.591
    0.175
   -0.348
   -0.586
   -0.344
    0.255
    0.881
    1.230
    1.187
    0.827
    0.309
   -0.212
   -0.619
   -0.865
   -1.008
   -1.186
   -1.488
   -1.829
   -1.980
   -1.755
   -1.167
   -0.400
    0.361
    1.070
    1.784
    2.476
    2.904
    2.729
    1.832
    0.531
   -0.566
   -0.987
   -0.735
   -0.231
    0.051
   -0.057
   -0.367
   -0.584
   -0.600
   -0.546
   -0.594
   -0.747
   -0.848
   -0.796
   -0.669
   -0.603
   -0.576
   -0.385
    0.127
    0.865
    1.536
    1.913
    2.035
    2.105
    2.221
    2.199
    1.721
    0.653
   -0.768
   -2.072
   -2.869
   -3.067
   -2.810
   -2.290
   -1.606
   -0.791
    0.107
    0.987
    1.729
    2.237
    2.455
    2.348
    1.899
    1.145
    0.218
   -0.683
   -1.372
   -1.757
   -1.839
   -1.646
   -1.198
   -0.543
    0.169
    0.703
    0.863
    0.657
    0.337
    0.211
    0.355
    0.502
    0.285
   -0.358
   -1.030
   -1.177
   -0.609
    0.282
    0.842
    0.734
    0.224
   -0.077
    0.227
    0.990
    1.708
    1.979
    1.758
    1.239
    0.576
   -0.214
   -1.134
   -2.062
   -2.749
   -2.956
   -2.596
   -1.799
   -0.836
    0.039
    0.726
    1.271
    1.747
    2.132
    2.294
    2.095
    1.540
    0.838
    0.290
    0.043
   -0.042
   -0.276
   -0.845
   -1.607
   -2.166
   -2.152
   -1.501
   -0.519
    0.318
    0.696
    0.655
    0.474
    0.361
    0.276
    0.057
   -0.336
   -0.719
   -0.847
   -0.652
   -0.322
   -0.118
   -0.091
   -0.021
    0.318
    0.833
    1.128
    0.889
    0.233
   -0.412
   -0.745
   -0.872
   -1.123
   -1.637
   -2.152
   -2.210
   -1.574
   -0.450
    0.668
    1.377
    1.626
    1.651
    1.706
    1.866
    2.021
    1.979
    1.585
    0.826
   -0.109
   -0.888
   -1.238
   -1.108
   -0.684
   -0.236
    0.052
    0.160
    0.170
    0.142
    0.022
   -0.293
   -0.798
   -1.301
   -1.539
   -1.398
   -1.004
   -0.611
   -0.386
   -0.315
   -0.259
   -0.103
    0.155
    0.446
    0.747
    1.138
    1.715
    2.416
    2.949
    2.947
    2.222
    0.924
   -0.538
   -1.738
   -2.443
   -2.629
   -2.346
   -1.634
   -0.583
    0.551
    1.401
    1.705
    1.494
    1.011
    0.479
   -0.048
   -0.599
   -1.132
   -1.499
   -1.569
   -1.351
   -0.974
   -0.557
   -0.132
    0.300
    0.655
    0.783
    0.630
    0.350
    0.204
    0.309
    0.502
    0.462
   -0.017
   -0.805
   -1.471
   -1.543
   -0.825
    0.458
    1.783
    2.604
    2.612
    1.847
    0.630
   -0.606
   -1.497
   -1.852
   -1.683
   -1.191
   -0.696
   -0.471
   -0.580
   -0.832
   -0.947
   -0.788
   -0.471
   -0.235
   -0.217
   -0.329
   -0.340
   -0.070
    0.447
    0.966
    1.188
    0.979
    0.449
   -0.136
   -0.561
   -0.784
   -0.889
   -0.906
   -0.713
   -0.124
    0.871
    1.965
    2.678
    2.696
    2.107
    1.313
    0.707
    0.397
    0.209
   -0.103
   -0.625
   -1.223
   -1.620
   -1.563
   -0.966
    0.025
    1.072
    1.781
    1.875
    1.329
    0.403
   -0.468
   -0.895
   -0.765
   -0.307
    0.040
   -0.107
   -0.805
   -1.690
   -2.152
   -1.740
   -0.529
    0.861
    1.697
    1.701
    1.257
    1.053
    1.409
    1.920
    1.782
    0.557
   -1.345
   -2.950
   -3.503
   -2.990
   -1.955
   -0.927
   -0.095
    0.549
    0.957
    1.045
    0.929
    0.959
    1.385
    1.997
    2.222
    1.647
    0.423
   -0.893
   -1.858
   -2.452
   -2.870
   -3.140
   -3.016
   -2.254
   -0.947
    0.434
    1.297
    1.313
    0.629
   -0.231
   -0.745
   -0.766
   -0.571
   -0.536
   -0.744
   -0.894
   -0.603
    0.205
    1.177
    1.789
    1.747
    1.195
    0.560
    0.213
    0.241
    0.475
    0.670
    0.671
    0.448
    0.072
   -0.343
   -0.671
   -0.802
   -0.678
   -0.321
    0.172
    0.701
    1.230
    1.773
    2.284
    2.587
    2.458
    1.805
    0.758
   -0.429
   -1.541
   -2.459
   -3.108
   -3.412
   -3.319
   -2.867
   -2.179
   -1.411
   -0.710
   -0.218
   -0.022
   -0.039
    0.030
    0.540
    1.586
    2.851
    3.789
    4.017
    3.536
    2.666
    1.800
    1.194
    0.872
    0.676
    0.400
   -0.050
   -0.584
   -0.979
   -1.042
   -0.764
   -0.356
   -0.099
   -0.125
   -0.327
   -0.469
   -0.354
    0.082
    0.742
    1.367
    1.596
    1.174
    0.171
   -1.020
   -1.941
   -2.315
   -2.114
   -1.472
   -0.630
    0.082
    0.359
    0.117
   -0.389
   -0.716
   -0.587
   -0.146
    0.159
    0.007
   -0.462
   -0.759
   -0.518
    0.163
    0.803
    0.958
    0.541
   -0.175
   -0.820
   -1.150
   -1.089
   -0.640
    0.141
    1.083
    1.893
    2.290
    2.154
    1.526
    0.501
   -0.793
   -2.120
   -3.123
   -3.501
   -3.237
   -2.638
   -2.101
   -1.774
   -1.441
   -0.777
    0.255
    1.290
    1.886
    1.951
    1.837
    1.997
    2.529
    3.030
    2.887
    1.767
   -0.058
   -1.861
   -2.984
   -3.280
   -3.064
   -2.680
   -2.175
   -1.399
   -0.315
    0.850
    1.722
    2.000
    1.652
    0.982
    0.496
    0.576
    1.182
    1.849
    2.030
    1.515
    0.572
   -0.302
   -0.805
   -1.021
   -1.205
   -1.446
   -1.585
   -1.437
   -1.004
   -0.430
    0.175
    0.782
    1.323
    1.641
    1.634
    1.410
    1.203
    1.096
    0.887
    0.304
   -0.607
   -1.388
   -1.531
   -0.980
   -0.213
    0.229
    0.284
    0.393
    0.953
    1.776
    2.171
    1.599
    0.261
   -1.017
   -1.479
   -1.019
   -0.142
    0.565
    0.863
    0.865
    0.739
    0.492
    0.017
   -0.652
   -1.212
   -1.273
   -0.752
   -0.053
    0.237
   -0.118
   -0.773
   -1.108
   -0.747
    0.179
    1.165
    1.663
    1.369
    0.353
   -1.003
   -2.177
   -2.724
   -2.506
   -1.806
   -1.182
   -1.026
   -1.200
   -1.158
   -0.510
    0.548
    1.417
    1.678
    1.476
    1.354
    1.727
    2.483
    3.061
    2.925
    2.023
    0.805
   -0.209
   -0.856
   -1.334
   -1.818
   -2.178
   -2.110
   -1.505
   -0.630
    0.041
    0.197
   -0.062
   -0.311
   -0.157
    0.407
    1.002
    1.217
    0.986
    0.613
    0.417
    0.346
   -0.005
   -0.965
   -2.359
   -3.530
   -3.819
   -3.053
   -1.630
   -0.159
    0.943
    1.591
    1.879
    1.895
    1.708
    1.464
    1.384
    1.578
    1.863
    1.848
    1.268
    0.260
   -0.750
   -1.415
   -1.738
   -1.953
   -2.177
   -2.179
   -1.554
   -0.169
    1.563
    2.890
    3.293
    2.865
    2.133
    1.539
    1.110
    0.590
   -0.193
   -1.138
   -1.935
   -2.272
   -2.000
   -1.224
   -0.301
    0.307
    0.326
   -0.080
   -0.355
    0.048
    1.179
    2.449
    3.029
    2.488
    1.114
   -0.374
   -1.414
   -1.922
   -2.119
   -2.170
   -2.028
   -1.590
   -0.865
    0.026
    0.952
    1.795
    2.380
    2.501
    2.103
    1.437
    0.949
    0.927
    1.226
    1.355
    0.881
   -0.215
   -1.514
   -2.441
   -2.590
   -1.920
   -0.758
    0.354
    0.933
    0.828
    0.293
   -0.224
   -0.423
   -0.329
   -0.180
   -0.168
   -0.260
   -0.253
    0.019
    0.504
    0.948
    1.095
    0.914
    0.626
    0.509
    0.663
    0.926
    1.001
    0.685
    0.012
   -0.758
   -1.310
   -1.494
   -1.419
   -1.342
   -1.426
   -1.570
   -1.485
   -0.964
   -0.122
    0.639
    0.929
    0.691
    0.249
    0.045
    0.296
    0.833
    1.211
    1.002
    0.102
   -1.145
   -2.095
   -2.204
   -1.365
    0.053
    1.462
    2.357
    2.453
    1.711
    0.373
   -1.033
   -1.878
   -1.821
   -1.120
   -0.460
   -0.362
   -0.717
   -0.945
   -0.616
    0.123
    0.753
    0.938
    0.816
    0.739
    0.829
    0.862
    0.601
    0.141
   -0.149
   -0.054
    0.166
   -0.031
   -0.893
   -2.028
   -2.699
   -2.512
   -1.791
   -1.258
   -1.340
   -1.797
   -1.998
   -1.547
   -0.684
   -0.134
   -0.516
   -1.809
   -3.291
   -3.977
   -3.239
   -1.175
    1.463
    3.725
    5.021
    5.416
    5.450
    5.616
    5.935
    5.986
    5.355
    4.067
    2.587
    1.377
    0.438
   -0.682
   -2.386
   -4.533
   -6.434
   -7.329
   -6.895
   -5.350
   -3.216
   -1.036
    0.742
    1.800
    2.012
    1.537
    0.810
    0.349
    0.423
    0.852
    1.127
    0.794
   -0.186
   -1.351
   -1.966
   -1.432
    0.292
    2.500
    4.047
    4.058
    2.572
    0.543
   -0.857
   -1.123
   -0.746
   -0.716
   -1.587
   -2.939
   -3.755
   -3.381
   -2.111
   -0.847
   -0.258
   -0.336
   -0.645
   -0.823
   -0.765
   -0.469
    0.096
    0.913
    1.779
    2.334
    2.335
    1.899
    1.442
    1.316
    1.477
    1.501
    0.919
   -0.418
   -2.227
   -3.947
   -5.019
   -5.141
   -4.364
   -2.993
   -1.391
    0.199
    1.700
    3.118
    4.381
    5.270
    5.542
    5.160
    4.370
    3.469
    2.507
    1.286
   -0.299
   -1.963
   -3.172
   -3.614
   -3.499
   -3.336
   -3.395
   -3.421
   -2.883
   -1.478
    0.602
    2.795
    4.453
    5.046
    4.339
    2.581
    0.543
   -0.843
   -1.115
   -0.598
   -0.069
   -0.048
   -0.383
   -0.478
    0.113
    1.287
    2.465
    3.005
    2.586
    1.336
   -0.266
   -1.625
   -2.277
   -2.053
   -1.109
    0.153
    1.213
    1.576
    0.955
   -0.531
   -2.299
   -3.532
   -3.611
   -2.471
   -0.600
    1.302
    2.738
    3.623
    4.148
    4.417
    4.167
    2.893
    0.378
   -2.812
   -5.407
   -6.226
   -5.064
   -2.877
   -1.016
   -0.228
   -0.328
   -0.720
   -1.071
   -1.405
   -1.672
   -1.491
   -0.494
    1.067
    2.251
    2.170
    0.918
   -0.340
   -0.356
    1.029
    2.717
    3.382
    2.666
    1.392
    0.667
    0.890
    1.551
    1.823
    1.232
   -0.085
   -1.575
   -2.627
   -2.911
   -2.528
   -1.895
   -1.431
   -1.291
   -1.358
   -1.460
   -1.602
   -1.934
   -2.495
   -2.993
   -2.943
   -2.042
   -0.424
    1.474
    3.228
    4.602
    5.474
    5.749
    5.396
    4.533
    3.363
    2.041
    0.634
   -0.790
   -2.112
   -3.224
   -4.102
   -4.727
   -4.942
   -4.469
   -3.155
   -1.228
    0.726
    2.095
    2.600
    2.386
    1.810
    1.148
    0.434
   -0.479
   -1.707
   -3.111
   -4.243
   -4.584
   -3.924
   -2.582
   -1.224
   -0.363
    0.038
    0.485
    1.433
    2.794
    3.952
    4.268
    3.600
    2.367
    1.178
    0.431
    0.198
    0.391
    0.920
    1.694
    2.509
    3.017
    2.875
    2.041
    0.925
    0.183
    0.219
    0.811
    1.227
    0.777
   -0.654
   -2.552
   -4.172
   -4.993
   -4.905
   -4.097
   -2.916
   -1.783
   -1.085
   -0.957
   -1.138
   -1.096
   -0.408
    0.897
    2.313
    3.189
    3.209
    2.652
    2.171
    2.207
    2.561
    2.580
    1.838
    0.609
   -0.363
   -0.576
   -0.223
    0.034
   -0.341
   -1.371
   -2.651
   -3.685
   -4.107
   -3.709
   -2.442
   -0.499
    1.640
    3.370
    4.286
    4.356
    3.790
    2.740
    1.188
   -0.848
   -3.035
   -4.733
   -5.341
   -4.732
   -3.387
   -2.097
   -1.434
   -1.338
   -1.190
   -0.358
    1.190
    2.786
    3.556
    3.086
    1.658
   -0.009
   -1.169
   -1.288
   -0.162
    1.942
    4.220
    5.600
    5.371
    3.725
    1.709
    0.482
    0.432
    0.911
    0.879
   -0.120
   -1.574
   -2.600
   -2.886
   -3.003
   -3.752
   -5.216
   -6.500
   -6.438
   -4.603
   -1.693
    1.029
    2.664
    3.164
    3.057
    2.845
    2.669
    2.428
    2.033
    1.527
    1.031
    0.685
    0.580
    0.635
    0.553
    0.047
   -0.792
   -1.412
   -1.215
   -0.128
    1.221
    1.932
    1.512
    0.241
   -1.081
   -1.760
   -1.642
   -1.034
   -0.337
    0.187
    0.379
    0.143
   -0.405
   -0.802
   -0.461
    0.791
    2.359
    3.167
    2.475
    0.540
   -1.526
   -2.656
   -2.677
   -2.321
   -2.355
   -2.742
   -2.709
   -1.634
    0.200
    1.774
    2.221
    1.550
    0.519
   -0.123
   -0.275
   -0.380
   -0.802
   -1.403
   -1.746
   -1.608
   -1.181
   -0.787
   -0.493
   -0.064
    0.725
    1.746
    2.483
    2.432
    1.600
    0.605
    0.140
    0.259
    0.241
   -0.701
   -2.493
   -4.025
   -4.019
   -2.191
    0.426
    2.321
    2.697
    1.909
    0.879
    0.254
    0.128
    0.312
    0.610
    0.804
    0.618
   -0.113
   -1.227
   -2.252
   -2.668
   -2.203
   -0.971
    0.578
    1.871
    2.495
    2.443
    2.137
    2.119
    2.575
    3.094
    2.961
    1.760
   -0.290
   -2.548
   -4.394
   -5.431
   -5.432
   -4.340
   -2.385
   -0.072
    2.075
    3.762
    4.924
    5.513
    5.369
    4.351
    2.582
    0.528
   -1.238
   -2.420
   -3.129
   -3.625
   -3.938
   -3.851
   -3.238
   -2.311
   -1.418
   -0.669
    0.136
    1.220
    2.509
    3.596
    3.985
    3.442
    2.198
    0.795
   -0.318
   -1.064
   -1.635
   -2.135
   -2.373
   -2.029
   -1.011
    0.368
    1.593
    2.371
    2.841
    3.309
    3.780
    3.818
    2.963
    1.282
   -0.579
   -1.893
   -2.387
   -2.347
   -2.306
   -2.636
   -3.298
   -3.854
   -3.730
   -2.613
   -0.696
    1.409
    3.019
    3.746
    3.624
    2.939
    1.892
    0.419
   -1.586
   -3.842
   -5.531
   -5.695
   -3.861
   -0.391
    3.615
    6.748
    7.888
    6.741
    3.989
    0.859
   -1.581
   -2.883
   -3.199
   -2.999
   -2.792
   -2.897
   -3.273
   -3.527
   -3.190
   -2.080
   -0.418
    1.380
    3.008
    4.351
    5.319
    5.659
    5.034
    3.333
    0.916
   -1.541
   -3.469
   -4.658
   -5.099
   -4.704
   -3.330
   -1.133
    1.242
    2.966
    3.599
    3.337
    2.687
    1.962
    1.107
   -0.018
   -1.262
   -2.112
   -2.034
   -0.967
    0.499
    1.489
    1.473
    0.573
   -0.712
   -1.952
   -2.920
   -3.401
   -3.089
   -1.832
    0.046
    1.778
    2.663
    2.612
    2.151
    1.863
    1.812
    1.578
    0.833
   -0.239
   -1.141
   -1.576
   -1.612
   -1.392
   -0.908
   -0.203
    0.313
    0.034
   -1.192
   -2.640
   -3.127
   -2.025
    0.078
    1.780
    2.021
    0.912
   -0.490
   -1.170
   -0.938
   -0.381
   -0.186
   -0.504
   -0.862
   -0.621
    0.460
    2.013
    3.340
    3.894
    3.537
    2.484
    1.101
   -0.245
   -1.275
   -1.878
   -2.124
   -2.199
   -2.314
   -2.641
   -3.205
   -3.741
   -3.735
   -2.781
   -1.034
    0.740
    1.677
    1.528
    0.900
    0.736
    1.478
    2.666
    3.352
    2.892
    1.410
   -0.337
   -1.449
   -1.383
   -0.228
    1.324
    2.337
    2.172
    0.858
   -0.932
   -2.312
   -2.697
   -2.058
   -0.821
    0.437
    1.294
    1.658
    1.755
    1.933
    2.383
    2.914
    2.980
    2.028
    0.002
   -2.444
   -4.279
   -4.751
   -3.868
   -2.361
   -1.185
   -0.836
   -0.978
   -0.719
    0.569
    2.603
    4.348
    4.864
    4.032
    2.540
    1.241
    0.544
    0.303
    0.078
   -0.530
   -1.653
   -3.041
   -4.103
   -4.233
   -3.294
   -1.862
   -0.838
   -0.638
   -0.734
   -0.129
    1.567
    3.551
    4.459
    3.673
    1.992
    0.929
    1.328
    2.598
    3.247
    2.128
   -0.649
   -3.792
   -5.741
   -5.715
   -4.171
   -2.374
   -1.426
   -1.560
   -2.164
   -2.371
   -1.625
    0.086
    2.247
    3.991
    4.494
    3.519
    1.664
   -0.023
   -0.840
   -0.930
   -1.016
   -1.606
   -2.453
   -2.774
   -2.009
   -0.371
    1.343
    2.463
    2.968
    3.307
    3.752
    3.998
    3.406
    1.625
   -0.946
   -3.251
   -4.155
   -3.168
   -0.814
    1.647
    2.977
    2.648
    1.006
   -1.066
   -2.587
   -2.832
   -1.619
    0.483
    2.314
    2.801
    1.748
    0.018
   -1.136
   -1.086
   -0.308
    0.084
   -0.634
   -2.063
   -2.910
   -2.039
    0.486
    3.268
    4.514
    3.376
    0.640
   -1.837
   -2.529
   -1.351
    0.430
    1.356
    0.942
   -0.129
   -0.768
   -0.381
    0.834
    2.195
    2.972
    2.653
    1.113
   -1.226
   -3.431
   -4.497
   -3.981
   -2.314
   -0.484
    0.627
    0.728
    0.103
   -0.723
   -1.293
   -1.321
   -0.734
    0.227
    1.005
    1.005
    0.067
   -1.274
   -2.070
   -1.660
   -0.208
    1.365
    2.064
    1.564
    0.433
   -0.347
   -0.172
    0.770
    1.791
    2.354
    2.382
    1.995
    1.151
   -0.265
   -2.016
   -3.391
   -3.672
   -2.772
   -1.384
   -0.424
   -0.257
   -0.423
   -0.155
    0.807
    1.969
    2.601
    2.385
    1.534
    0.458
   -0.485
   -0.994
   -0.878
   -0.275
    0.285
    0.194
   -0.779
   -2.288
   -3.587
   -3.913
   -2.906
   -0.857
    1.378
    2.834
    3.000
    2.127
    1.060
    0.684
    1.346
    2.688
    3.996
    4.700
    4.563
    3.601
    2.051
    0.417
   -0.724
   -1.202
   -1.482
   -2.191
   -3.327
   -4.089
   -3.646
   -2.084
   -0.470
    0.065
   -0.649
   -1.649
   -1.676
   -0.301
    1.626
    2.637
    1.891
   -0.065
   -1.720
   -1.859
   -0.537
    1.050
    1.633
    0.921
   -0.245
   -0.713
   -0.032
    1.242
    2.175
    2.318
    1.951
    1.546
    1.126
    0.254
   -1.338
   -3.193
   -4.328
   -4.025
   -2.429
   -0.362
    1.364
    2.406
    2.792
    2.595
    1.856
    0.777
   -0.195
   -0.622
   -0.438
   -0.009
    0.191
   -0.021
   -0.436
   -0.739
   -0.876
   -1.075
   -1.470
   -1.810
   -1.690
   -1.069
   -0.426
   -0.328
   -0.828
   -1.369
   -1.303
   -0.555
    0.209
    0.117
   -1.081
   -2.587
   -3.000
   -1.377
    1.932
    5.401
    7.369
    7.177
    5.485
    3.526
    2.043
    0.884
   -0.454
   -2.038
   -3.352
   -3.888
   -3.722
   -3.425
   -3.418
   -3.581
   -3.510
   -3.036
   -2.331
   -1.519
   -0.399
    1.280
    3.264
    4.678
    4.624
    2.951
    0.449
   -1.715
   -2.759
   -2.583
   -1.503
    0.097
    1.838
    3.232
    3.768
    3.228
    1.921
    0.486
   -0.570
   -1.197
   -1.700
   -2.319
   -2.856
   -2.741
   -1.552
    0.438
    2.259
    2.903
    2.151
    0.794
   -0.015
    0.248
    1.029
    1.233
    0.266
   -1.402
   -2.673
   -2.810
   -2.020
   -1.107
   -0.650
   -0.518
   -0.161
    0.686
    1.603
    1.818
    0.921
   -0.750
   -2.407
   -3.381
   -3.401
   -2.527
   -1.028
    0.642
    1.985
    2.757
    3.114
    3.385
    3.610
    3.371
    2.166
    0.071
   -2.015
   -2.947
   -2.309
   -0.798
    0.387
    0.538
   -0.162
   -1.028
   -1.502
   -1.431
   -0.964
   -0.337
    0.271
    0.760
    1.041
    1.018
    0.730
    0.459
    0.541
    0.943
    1.153
    0.632
   -0.577
   -1.796
   -2.288
   -1.871
   -1.000
   -0.264
    0.161
    0.576
    1.322
    2.309
    3.030
    3.020
    2.262
    1.142
    0.099
   -0.637
   -1.029
   -1.093
   -0.895
   -0.627
   -0.583
   -0.920
   -1.429
   -1.574
   -0.863
    0.718
    2.564
    3.791
    3.845
    2.854
    1.431
    0.104
   -1.032
   -2.132
   -3.170
   -3.832
   -3.872
   -3.460
   -3.034
   -2.822
   -2.628
   -2.085
   -1.015
    0.530
    2.379
    4.231
    5.559
    5.806
    4.839
    3.186
    1.690
    0.852
    0.480
   -0.003
   -0.888
   -1.805
   -2.058
   -1.396
   -0.407
   -0.078
   -0.940
   -2.616
   -4.142
   -4.667
   -3.970
   -2.468
   -0.799
    0.638
    1.821
