Origin Time       04/04/2011 11:31:40
Lat.              29.6 N	
Long.             80.8 E	
Depth (Km)         10.0
Magnitude         5.7
 Region           NEPAL-INDIA-BORDER-REGION                                        
 Above details taken from IMD 
     
Station Code      DNL
Station Lat.       30.427  N
Station Long.      78.244  E
Station Height(m) 2280.0
Site Class        B   Vs30 between 375 m/sec to 700 m/sec *  
Record Time       04.04.2011 11:32:22.909
Sampling Rate     200. Hz
 Record Duration   95.425 Sec.
 Direction         E-W (E positive)
Max. Acceleration     -7.454 cm/sec**2
     
  * For reference see Site Classification link of website 
     
 Base Line Corrected and Low Pass Filtered (Cut Off at 35 Hz) Time History
 Acceleration data in cm/sec**2
    
[...]
       0.350
       0.258
       0.162
       0.066
      -0.023
      -0.095
      -0.144
      -0.165
      -0.158
      -0.122
      -0.060
       0.024
       0.126
       0.245
       0.380
       0.529
       0.694
       0.876
       1.081
       1.309
       1.556
       1.817
       2.088
       2.360
       2.617
       2.842
       3.018
       3.136
       3.195
       3.193
       3.128
       2.998
       2.803
       2.546
       2.231
       1.860
       1.436
       0.969
       0.471
      -0.045
      -0.567
      -1.090
      -1.607
      -2.113
      -2.601
      -3.066
      -3.504
      -3.909
      -4.273
      -4.587
      -4.841
      -5.024
      -5.130
      -5.154
      -5.100
      -4.976
      -4.796
      -4.577
      -4.330
      -4.061
      -3.775
      -3.476
      -3.167
      -2.847
      -2.512
      -2.159
      -1.784
      -1.388
      -0.977
      -0.556
      -0.130
       0.299
       0.729
       1.153
       1.558
       1.927
       2.249
       2.518
       2.734
       2.900
       3.018
       3.087
       3.107
       3.078
       3.005
       2.897
       2.761
       2.605
       2.434
       2.254
       2.073
       1.897
       1.725
       1.557
       1.389
       1.220
       1.052
       0.887
       0.725
       0.561
       0.389
       0.204
       0.002
      -0.216
      -0.448
      -0.688
      -0.930
      -1.159
      -1.361
      -1.525
      -1.642
      -1.710
      -1.724
      -1.680
      -1.578
      -1.423
      -1.228
      -1.003
      -0.754
      -0.486
      -0.204
       0.082
       0.357
       0.613
       0.846
       1.058
       1.250
       1.423
       1.573
       1.699
       1.798
       1.868
       1.904
       1.900
       1.846
       1.741
       1.587
       1.394
       1.182
       0.967
       0.760
       0.563
       0.368
       0.171
      -0.029
      -0.228
      -0.423
      -0.614
      -0.804
      -0.996
      -1.193
      -1.395
      -1.601
      -1.805
      -1.999
      -2.177
      -2.331
      -2.454
      -2.533
      -2.556
      -2.513
      -2.399
      -2.215
      -1.961
      -1.643
      -1.267
      -0.841
      -0.374
       0.122
       0.630
       1.134
       1.616
       2.060
       2.451
       2.779
       3.038
       3.228
       3.353
       3.414
       3.409
       3.334
       3.187
       2.973
       2.703
       2.390
       2.042
       1.666
       1.262
       0.836
       0.397
      -0.048
      -0.494
      -0.935
      -1.365
      -1.770
      -2.134
      -2.444
      -2.686
      -2.855
      -2.950
      -2.971
      -2.922
      -2.805
      -2.624
      -2.388
      -2.109
      -1.802
      -1.484
      -1.171
      -0.879
      -0.615
      -0.382
      -0.176
       0.005
       0.165
       0.311
       0.450
       0.590
       0.737
       0.892
       1.048
       1.201
       1.344
       1.470
       1.572
       1.643
       1.678
       1.674
       1.629
       1.544
       1.422
       1.271
       1.099
       0.919
       0.739
       0.571
       0.427
       0.315
       0.237
       0.190
       0.169
       0.167
       0.176
       0.187
       0.190
       0.177
       0.140
       0.074
      -0.024
      -0.152
      -0.307
      -0.484
      -0.684
      -0.906
      -1.143
      -1.382
      -1.608
      -1.810
      -1.981
      -2.116
      -2.210
      -2.256
      -2.245
      -2.174
      -2.039
      -1.842
      -1.587
      -1.282
      -0.941
      -0.582
      -0.227
       0.110
       0.414
       0.677
       0.892
       1.058
       1.170
       1.226
       1.228
       1.180
       1.091
       0.972
       0.838
       0.705
       0.584
       0.486
       0.412
       0.360
       0.324
       0.302
       0.293
       0.295
       0.306
       0.319
       0.330
       0.335
       0.328
       0.303
       0.254
       0.184
       0.102
       0.018
      -0.059
      -0.125
      -0.182
      -0.230
      -0.266
      -0.280
      -0.263
      -0.210
      -0.118
       0.009
       0.164
       0.339
       0.523
       0.705
       0.869
       0.999
       1.085
       1.120
       1.104
       1.040
       0.934
       0.793
       0.619
       0.414
       0.172
      -0.109
      -0.428
      -0.772
      -1.125
      -1.470
      -1.787
      -2.060
      -2.270
      -2.402
      -2.446
      -2.404
      -2.286
      -2.106
      -1.878
      -1.617
      -1.336
      -1.048
      -0.764
      -0.488
      -0.222
       0.033
       0.268
       0.475
       0.646
       0.775
       0.863
       0.912
       0.927
       0.917
       0.889
       0.851
       0.805
       0.753
       0.699
       0.651
       0.617
       0.601
       0.608
       0.636
       0.686
       0.753
       0.833
       0.915
       0.989
       1.046
       1.077
       1.081
       1.057
       1.006
       0.923
       0.802
       0.640
       0.440
       0.209
      -0.041
      -0.295
      -0.542
      -0.769
      -0.968
      -1.131
      -1.250
      -1.321
      -1.346
      -1.328
      -1.276
      -1.200
      -1.108
      -1.004
      -0.889
      -0.762
      -0.619
      -0.461
      -0.288
      -0.104
       0.085
       0.275
       0.465
       0.652
       0.835
       1.008
       1.168
       1.314
       1.447
       1.565
       1.663
       1.733
       1.770
       1.775
       1.759
       1.732
       1.702
       1.666
       1.614
       1.532
       1.412
       1.252
       1.058
       0.844
       0.617
       0.383
       0.137
      -0.125
      -0.403
      -0.687
      -0.961
      -1.206
      -1.408
      -1.567
      -1.684
      -1.765
      -1.806
      -1.803
      -1.753
      -1.658
      -1.526
      -1.363
      -1.177
      -0.969
      -0.743
      -0.506
      -0.268
      -0.041
       0.162
       0.333
       0.463
       0.547
       0.576
       0.546
       0.461
       0.333
       0.179
       0.016
      -0.142
      -0.290
      -0.424
      -0.545
      -0.650
      -0.741
      -0.819
      -0.888
      -0.950
      -1.002
      -1.038
      -1.050
      -1.039
      -1.003
      -0.943
      -0.854
      -0.732
      -0.574
      -0.382
      -0.165
       0.067
       0.300
       0.523
       0.723
       0.893
       1.026
       1.120
       1.174
       1.188
       1.164
       1.108
       1.029
       0.935
       0.833
       0.728
       0.622
       0.518
       0.417
       0.317
       0.211
       0.096
      -0.027
      -0.147
      -0.248
      -0.320
      -0.362
      -0.380
      -0.385
      -0.382
      -0.372
      -0.357
      -0.336
      -0.311
      -0.287
      -0.263
      -0.242
      -0.222
      -0.201
      -0.177
      -0.151
      -0.129
      -0.115
      -0.112
      -0.117
      -0.120
      -0.111
      -0.087
      -0.051
      -0.011
       0.021
       0.043
       0.056
       0.068
       0.084
       0.105
       0.135
       0.177
       0.235
       0.309
       0.393
       0.479
       0.564
       0.651
       0.746
       0.851
       0.959
       1.061
       1.144
       1.200
       1.223
       1.204
       1.140
       1.032
       0.889
       0.720
       0.537
       0.354
       0.184
       0.035
      -0.093
      -0.205
      -0.310
      -0.414
      -0.515
      -0.611
      -0.695
      -0.768
      -0.833
      -0.888
      -0.924
      -0.931
      -0.899
      -0.825
      -0.713
      -0.574
      -0.420
      -0.265
      -0.119
       0.015
       0.130
       0.216
       0.265
       0.273
       0.241
       0.174
       0.074
      -0.060
      -0.226
      -0.417
      -0.619
      -0.817
      -1.003
      -1.174
      -1.328
      -1.461
      -1.564
      -1.631
      -1.659
      -1.653
      -1.617
      -1.555
      -1.465
      -1.346
      -1.196
      -1.018
      -0.811
      -0.575
      -0.316
      -0.040
       0.243
       0.527
       0.806
       1.073
       1.320
       1.535
       1.709
       1.840
       1.929
       1.981
       1.999
       1.985
       1.939
       1.859
       1.743
       1.588
       1.391
       1.155
       0.891
       0.614
       0.341
       0.083
      -0.153
      -0.357
      -0.524
      -0.649
      -0.732
      -0.775
      -0.780
      -0.750
      -0.689
      -0.606
      -0.513
      -0.415
      -0.310
      -0.187
      -0.041
       0.122
       0.289
       0.449
       0.597
       0.733
       0.859
       0.974
       1.072
       1.146
       1.188
       1.193
       1.157
       1.077
       0.957
       0.800
       0.616
       0.414
       0.202
      -0.015
      -0.232
      -0.441
      -0.634
      -0.800
      -0.926
      -1.007
      -1.045
      -1.048
      -1.020
      -0.962
      -0.864
      -0.719
      -0.526
      -0.298
      -0.048
       0.211
       0.474
       0.742
       1.009
       1.264
       1.489
       1.668
       1.796
       1.874
       1.909
       1.910
       1.882
       1.831
       1.764
       1.687
       1.602
       1.510
       1.405
       1.286
       1.149
       0.994
       0.819
       0.616
       0.381
       0.110
      -0.194
      -0.525
      -0.876
      -1.243
      -1.623
      -2.008
      -2.387
      -2.746
      -3.075
      -3.368
      -3.626
      -3.851
      -4.042
      -4.194
      -4.306
      -4.386
      -4.443
      -4.487
      -4.520
      -4.538
      -4.532
      -4.494
      -4.417
      -4.293
      -4.120
      -3.900
      -3.636
      -3.333
      -2.997
      -2.631
      -2.242
      -1.839
      -1.435
      -1.047
      -0.685
      -0.347
      -0.028
       0.285
       0.597
       0.914
       1.232
       1.549
       1.861
       2.165
       2.461
       2.750
       3.040
       3.337
       3.642
       3.946
       4.232
       4.483
       4.693
       4.863
       5.004
       5.124
       5.223
       5.300
       5.348
       5.361
       5.335
       5.264
       5.142
       4.967
       4.741
       4.472
       4.170
       3.842
       3.488
       3.111
       2.715
       2.311
       1.912
       1.528
       1.162
       0.812
       0.479
       0.163
      -0.131
      -0.398
      -0.633
      -0.833
      -0.991
      -1.101
      -1.161
      -1.177
      -1.161
      -1.121
      -1.066
      -0.999
      -0.925
      -0.850
      -0.780
      -0.723
      -0.685
      -0.673
      -0.691
      -0.743
      -0.831
      -0.954
      -1.112
      -1.305
      -1.531
      -1.787
      -2.065
      -2.356
      -2.645
      -2.916
      -3.159
      -3.367
      -3.542
      -3.689
      -3.813
      -3.915
      -3.993
      -4.044
      -4.063
      -4.048
      -3.997
      -3.906
      -3.776
      -3.617
      -3.442
      -3.259
      -3.067
      -2.856
      -2.618
      -2.355
      -2.073
      -1.776
      -1.468
      -1.147
      -0.813
      -0.466
      -0.105
       0.270
       0.657
       1.051
       1.442
       1.821
       2.176
       2.497
       2.767
       2.978
       3.127
       3.217
       3.257
       3.254
       3.215
       3.145
       3.049
       2.929
       2.784
       2.612
       2.411
       2.182
       1.929
       1.662
       1.395
       1.143
       0.917
       0.719
       0.547
       0.395
       0.260
       0.145
       0.054
      -0.011
      -0.049
      -0.061
      -0.052
      -0.028
       0.002
       0.033
       0.063
       0.091
       0.123
       0.161
       0.205
       0.252
       0.293
       0.325
       0.349
       0.370
       0.392
       0.415
       0.436
       0.457
       0.480
       0.505
       0.524
       0.533
       0.531
       0.532
       0.556
       0.613
       0.704
       0.818
       0.944
       1.071
       1.191
       1.298
       1.387
       1.456
       1.502
       1.526
       1.528
       1.510
       1.472
       1.406
       1.302
       1.151
       0.947
       0.690
       0.384
       0.033
      -0.356
      -0.776
      -1.213
      -1.650
      -2.072
      -2.471
      -2.841
      -3.183
      -3.498
      -3.786
      -4.043
      -4.269
      -4.465
      -4.634
      -4.778
      -4.897
      -4.987
      -5.047
      -5.070
      -5.050
      -4.975
      -4.831
      -4.609
      -4.306
      -3.923
      -3.466
      -2.945
      -2.371
      -1.764
      -1.141
      -0.516
       0.100
       0.700
       1.274
       1.814
       2.311
       2.763
       3.167
       3.519
       3.816
       4.056
       4.239
       4.373
       4.465
       4.524
       4.554
       4.559
       4.544
       4.507
       4.446
       4.357
       4.245
       4.120
       3.989
       3.861
       3.735
       3.614
       3.500
       3.401
       3.321
       3.258
       3.206
       3.151
       3.083
       2.993
       2.877
       2.736
       2.574
       2.396
       2.208
       2.013
       1.817
       1.628
       1.452
       1.288
       1.130
       0.968
       0.795
       0.610
       0.410
       0.197
      -0.029
      -0.265
      -0.509
      -0.758
      -1.009
      -1.262
      -1.517
      -1.768
      -2.010
      -2.236
      -2.444
      -2.636
      -2.821
      -3.014
      -3.229
      -3.475
      -3.755
      -4.058
      -4.373
      -4.685
      -4.993
      -5.297
      -5.599
      -5.895
      -6.174
      -6.430
      -6.659
      -6.867
      -7.056
      -7.224
      -7.357
      -7.438
      -7.454
      -7.395
      -7.258
      -7.041
      -6.745
      -6.374
      -5.934
      -5.429
      -4.859
      -4.228
      -3.543
      -2.819
      -2.074
      -1.333
      -0.616
       0.057
       0.679
       1.247
       1.761
       2.222
       2.633
       3.000
       3.329
       3.627
       3.902
       4.159
       4.405
       4.642
       4.868
       5.081
       5.282
       5.474
       5.658
       5.834
       6.002
       6.161
       6.310
       6.443
       6.551
       6.624
       6.651
       6.624
       6.531
       6.362
       6.114
       5.794
       5.409
       4.972
       4.493
       3.985
       3.468
       2.963
       2.487
       2.045
       1.637
       1.262
       0.923
       0.626
       0.376
       0.178
       0.037
      -0.050
      -0.086
      -0.081
      -0.046
       0.007
       0.063
       0.109
       0.130
       0.118
       0.070
      -0.011
      -0.122
      -0.260
      -0.426
      -0.618
      -0.829
      -1.050
      -1.272
      -1.495
      -1.719
      -1.945
      -2.170
      -2.391
      -2.604
      -2.811
      -3.016
      -3.223
      -3.429
      -3.637
      -3.844
      -4.053
      -4.265
      -4.477
      -4.686
      -4.886
      -5.070
      -5.233
      -5.371
      -5.481
      -5.559
      -5.600
      -5.598
      -5.540
      -5.419
      -5.226
      -4.959
      -4.621
      -4.219
      -3.760
      -3.250
      -2.695
      -2.104
      -1.491
      -0.872
      -0.261
       0.331
       0.895
       1.426
       1.921
       2.379
       2.801
       3.191
       3.552
       3.888
       4.199
       4.483
       4.739
       4.963
       5.157
       5.323
       5.466
       5.590
       5.694
       5.770
       5.808
       5.799
       5.739
       5.627
       5.464
       5.258
       5.019
       4.757
       4.473
       4.163
       3.825
       3.463
       3.088
       2.713
       2.344
       1.980
       1.615
       1.249
       0.883
       0.521
       0.171
      -0.168
      -0.496
      -0.814
      -1.119
      -1.408
      -1.680
      -1.937
      -2.176
      -2.393
      -2.584
      -2.746
      -2.879
      -2.990
      -3.083
      -3.164
      -3.232
      -3.285
      -3.317
      -3.321
      -3.292
      -3.224
      -3.117
      -2.973
      -2.799
      -2.600
      -2.379
      -2.142
      -1.896
      -1.653
      -1.426
      -1.220
      -1.039
      -0.879
      -0.741
      -0.625
      -0.540
      -0.491
      -0.485
      -0.524
      -0.606
      -0.729
      -0.886
      -1.067
      -1.263
      -1.457
      -1.631
      -1.763
      -1.832
      -1.826
      -1.740
      -1.577
      -1.345
      -1.057
      -0.726
      -0.361
       0.030
       0.443
       0.870
       1.299
       1.716
       2.108
       2.469
       2.794
       3.075
       3.301
       3.460
       3.544
       3.551
       3.484
       3.350
       3.159
       2.927
       2.671
       2.404
       2.136
       1.869
       1.604
       1.344
       1.091
       0.844
       0.601
       0.355
       0.097
      -0.183
      -0.494
      -0.845
      -1.240
      -1.673
      -2.133
      -2.604
      -3.071
      -3.520
      -3.941
      -4.324
      -4.657
      -4.926
      -5.116
      -5.210
      -5.195
      -5.065
      -4.820
      -4.469
      -4.026
      -3.512
      -2.950
      -2.357
      -1.744
      -1.117
      -0.486
       0.131
       0.714
       1.247
       1.719
       2.126
       2.465
       2.732
       2.920
       3.022
       3.037
       2.976
       2.859
       2.711
       2.554
       2.402
       2.263
       2.139
       2.032
       1.945
       1.880
       1.837
       1.812
       1.799
       1.790
       1.785
       1.784
       1.789
       1.800
       1.814
       1.833
       1.857
       1.893
       1.943
       2.008
       2.086
       2.173
       2.265
       2.360
       2.455
       2.549
       2.636
       2.710
       2.761
       2.781
       2.764
       2.709
       2.618
       2.487
       2.314
       2.094
       1.828
       1.521
       1.175
       0.793
       0.371
      -0.096
      -0.607
      -1.153
      -1.720
      -2.285
      -2.828
      -3.331
      -3.779
      -4.163
      -4.471
      -4.686
      -4.796
      -4.794
      -4.683
      -4.471
      -4.176
      -3.817
      -3.413
      -2.983
      -2.538
      -2.087
      -1.639
      -1.201
      -0.781
      -0.382
      -0.008
       0.339
       0.651
       0.925
       1.155
       1.338
       1.470
       1.542
       1.542
       1.469
       1.330
       1.145
       0.933
       0.706
       0.467
       0.218
      -0.037
      -0.291
      -0.534
      -0.757
      -0.958
      -1.140
      -1.304
      -1.445
      -1.552
      -1.613
      -1.620
      -1.569
      -1.457
      -1.283
      -1.049
      -0.765
      -0.440
      -0.087
       0.283
       0.657
       1.021
       1.361
       1.666
       1.926
       2.139
       2.304
       2.429
       2.516
       2.562
       2.560
       2.500
       2.376
       2.185
       1.920
       1.581
       1.175
       0.714
       0.214
      -0.316
      -0.863
      -1.414
      -1.949
      -2.453
      -2.916
      -3.334
      -3.703
      -4.016
      -4.264
      -4.435
      -4.522
      -4.521
      -4.435
      -4.269
      -4.030
      -3.719
      -3.339
      -2.889
      -2.368
      -1.780
      -1.134
      -0.447
       0.258
       0.960
       1.638
       2.273
       2.849
       3.354
       3.782
       4.131
       4.406
       4.612
       4.753
       4.829
       4.834
       4.757
       4.591
       4.335
       3.998
       3.595
       3.133
       2.618
       2.055
       1.456
