Origin Time       04/04/2011 11:31:40 UTC
Lat.              29.6 N	
Long.             80.8 E	
Depth (Km)         10.0
Magnitude         5.7
 Region           NEPAL-INDIA-BORDER-REGION                                        
 Above details taken from IMD 
    
Station Code      DNL
Station Lat.       30.427  N
Station Long.      78.244  E
Station Height(m) 2280.0
Site Class        B   Vs30 between 375 m/sec to 700 m/sec *  
Record Time       04.04.2011 11:32:22.909 UTC
Sampling Rate     200. Hz
 Record Duration   95.425 Sec.
 Direction         N-S (N positive)
Max. Acceleration     -7.209 cm/sec**2
     
  * For reference see Site Classification link of website 
     
 Base Line Corrected and Low Pass Filtered (Cut Off at 35 Hz) Time History
 Acceleration data in cm/sec**2
    
[...]
       0.536
       0.592
       0.615
       0.607
       0.576
       0.530
       0.476
       0.417
       0.354
       0.287
       0.217
       0.148
       0.082
       0.017
      -0.048
      -0.117
      -0.190
      -0.266
      -0.343
      -0.419
      -0.493
      -0.562
      -0.618
      -0.655
      -0.668
      -0.656
      -0.626
      -0.587
      -0.548
      -0.513
      -0.485
      -0.459
      -0.429
      -0.390
      -0.334
      -0.257
      -0.157
      -0.039
       0.091
       0.224
       0.352
       0.467
       0.563
       0.631
       0.668
       0.670
       0.632
       0.546
       0.407
       0.217
      -0.012
      -0.259
      -0.504
      -0.732
      -0.938
      -1.120
      -1.278
      -1.407
      -1.503
      -1.565
      -1.592
      -1.584
      -1.544
      -1.480
      -1.399
      -1.307
      -1.207
      -1.098
      -0.974
      -0.831
      -0.668
      -0.487
      -0.292
      -0.086
       0.131
       0.354
       0.578
       0.792
       0.989
       1.168
       1.336
       1.503
       1.671
       1.834
       1.984
       2.111
       2.210
       2.281
       2.324
       2.338
       2.325
       2.283
       2.216
       2.126
       2.012
       1.875
       1.717
       1.547
       1.376
       1.210
       1.051
       0.893
       0.729
       0.559
       0.388
       0.227
       0.082
      -0.043
      -0.150
      -0.243
      -0.328
      -0.408
      -0.483
      -0.556
      -0.629
      -0.707
      -0.792
      -0.883
      -0.980
      -1.081
      -1.188
      -1.307
      -1.440
      -1.587
      -1.740
      -1.889
      -2.024
      -2.136
      -2.223
      -2.284
      -2.322
      -2.336
      -2.327
      -2.297
      -2.247
      -2.184
      -2.110
      -2.025
      -1.928
      -1.821
      -1.712
      -1.609
      -1.519
      -1.441
      -1.370
      -1.300
      -1.229
      -1.152
      -1.067
      -0.967
      -0.844
      -0.694
      -0.515
      -0.313
      -0.093
       0.141
       0.383
       0.628
       0.872
       1.112
       1.346
       1.574
       1.797
       2.014
       2.219
       2.406
       2.567
       2.693
       2.778
       2.822
       2.832
       2.824
       2.811
       2.801
       2.794
       2.784
       2.767
       2.733
       2.674
       2.582
       2.453
       2.289
       2.099
       1.894
       1.681
       1.466
       1.252
       1.042
       0.839
       0.643
       0.447
       0.244
       0.025
      -0.217
      -0.480
      -0.758
      -1.043
      -1.326
      -1.600
      -1.861
      -2.100
      -2.312
      -2.490
      -2.630
      -2.726
      -2.774
      -2.769
      -2.715
      -2.622
      -2.501
      -2.363
      -2.212
      -2.045
      -1.862
      -1.671
      -1.481
      -1.304
      -1.143
      -0.994
      -0.851
      -0.711
      -0.581
      -0.469
      -0.378
      -0.306
      -0.249
      -0.207
      -0.183
      -0.184
      -0.209
      -0.252
      -0.303
      -0.350
      -0.387
      -0.407
      -0.405
      -0.377
      -0.319
      -0.225
      -0.096
       0.065
       0.252
       0.460
       0.679
       0.897
       1.100
       1.270
       1.390
       1.455
       1.463
       1.419
       1.330
       1.205
       1.055
       0.893
       0.729
       0.568
       0.414
       0.273
       0.152
       0.057
      -0.010
      -0.048
      -0.057
      -0.039
       0.001
       0.061
       0.136
       0.226
       0.328
       0.432
       0.526
       0.594
       0.622
       0.607
       0.548
       0.452
       0.325
       0.177
       0.018
      -0.140
      -0.286
      -0.410
      -0.503
      -0.560
      -0.579
      -0.559
      -0.504
      -0.421
      -0.318
      -0.202
      -0.077
       0.058
       0.203
       0.356
       0.509
       0.651
       0.777
       0.881
       0.963
       1.023
       1.062
       1.080
       1.076
       1.053
       1.013
       0.955
       0.879
       0.789
       0.692
       0.595
       0.503
       0.418
       0.335
       0.251
       0.164
       0.075
      -0.011
      -0.089
      -0.160
      -0.228
      -0.302
      -0.383
      -0.470
      -0.557
      -0.641
      -0.723
      -0.808
      -0.895
      -0.979
      -1.051
      -1.103
      -1.129
      -1.127
      -1.102
      -1.059
      -0.999
      -0.924
      -0.833
      -0.725
      -0.605
      -0.478
      -0.352
      -0.234
      -0.134
      -0.055
       0.003
       0.043
       0.066
       0.074
       0.067
       0.046
       0.020
      -0.004
      -0.021
      -0.029
      -0.024
      -0.002
       0.041
       0.108
       0.200
       0.318
       0.459
       0.616
       0.778
       0.928
       1.053
       1.150
       1.222
       1.278
       1.329
       1.379
       1.435
       1.497
       1.563
       1.625
       1.674
       1.696
       1.678
       1.612
       1.500
       1.345
       1.154
       0.935
       0.696
       0.451
       0.214
      -0.004
      -0.198
      -0.371
      -0.531
      -0.688
      -0.851
      -1.027
      -1.217
      -1.419
      -1.627
      -1.833
      -2.023
      -2.183
      -2.305
      -2.386
      -2.429
      -2.441
      -2.432
      -2.412
      -2.394
      -2.384
      -2.384
      -2.395
      -2.415
      -2.439
      -2.463
      -2.474
      -2.465
      -2.431
      -2.371
      -2.289
      -2.185
      -2.061
      -1.911
      -1.729
      -1.507
      -1.246
      -0.953
      -0.641
      -0.324
      -0.011
       0.295
       0.591
       0.879
       1.154
       1.415
       1.661
       1.891
       2.110
       2.318
       2.514
       2.697
       2.861
       2.998
       3.105
       3.184
       3.238
       3.267
       3.271
       3.247
       3.195
       3.117
       3.011
       2.876
       2.705
       2.495
       2.251
       1.982
       1.701
       1.424
       1.161
       0.918
       0.701
       0.514
       0.360
       0.239
       0.145
       0.070
       0.006
      -0.054
      -0.115
      -0.179
      -0.249
      -0.329
      -0.426
      -0.547
      -0.691
      -0.853
      -1.025
      -1.198
      -1.371
      -1.540
      -1.706
      -1.872
      -2.040
      -2.214
      -2.392
      -2.566
      -2.722
      -2.849
      -2.947
      -3.023
      -3.082
      -3.127
      -3.155
      -3.164
      -3.154
      -3.123
      -3.069
      -2.987
      -2.875
      -2.735
      -2.574
      -2.397
      -2.206
      -1.993
      -1.747
      -1.458
      -1.120
      -0.734
      -0.307
       0.150
       0.625
       1.108
       1.591
       2.068
       2.528
       2.963
       3.361
       3.715
       4.022
       4.282
       4.490
       4.641
       4.730
       4.756
       4.726
       4.648
       4.531
       4.373
       4.169
       3.914
       3.608
       3.258
       2.879
       2.490
       2.110
       1.751
       1.424
       1.130
       0.863
       0.612
       0.370
       0.133
      -0.097
      -0.317
      -0.525
      -0.720
      -0.905
      -1.086
      -1.274
      -1.481
      -1.711
      -1.965
      -2.237
      -2.521
      -2.804
      -3.071
      -3.303
      -3.483
      -3.599
      -3.645
      -3.620
      -3.527
      -3.371
      -3.156
      -2.888
      -2.568
      -2.201
      -1.794
      -1.365
      -0.935
      -0.526
      -0.148
       0.191
       0.487
       0.733
       0.923
       1.057
       1.141
       1.184
       1.195
       1.185
       1.161
       1.134
       1.113
       1.111
       1.132
       1.178
       1.244
       1.323
       1.412
       1.504
       1.590
       1.661
       1.706
       1.723
       1.716
       1.689
       1.644
       1.575
       1.474
       1.337
       1.163
       0.957
       0.727
       0.477
       0.215
      -0.053
      -0.318
      -0.577
      -0.828
      -1.069
      -1.293
      -1.496
      -1.669
      -1.811
      -1.923
      -2.009
      -2.070
      -2.108
      -2.120
      -2.106
      -2.069
      -2.015
      -1.949
      -1.873
      -1.783
      -1.677
      -1.549
      -1.401
      -1.242
      -1.084
      -0.939
      -0.810
      -0.699
      -0.603
      -0.516
      -0.431
      -0.341
      -0.243
      -0.137
      -0.027
       0.081
       0.184
       0.282
       0.372
       0.457
       0.542
       0.630
       0.724
       0.820
       0.909
       0.981
       1.030
       1.059
       1.072
       1.075
       1.069
       1.056
       1.034
       1.001
       0.955
       0.895
       0.825
       0.754
       0.700
       0.680
       0.705
       0.772
       0.861
       0.951
       1.027
       1.084
       1.126
       1.161
       1.195
       1.230
       1.266
       1.298
       1.318
       1.316
       1.287
       1.231
       1.152
       1.058
       0.953
       0.843
       0.731
       0.613
       0.487
       0.353
       0.217
       0.096
       0.007
      -0.039
      -0.043
      -0.009
       0.051
       0.125
       0.204
       0.280
       0.353
       0.418
       0.469
       0.503
       0.520
       0.524
       0.520
       0.512
       0.496
       0.466
       0.418
       0.349
       0.259
       0.149
       0.020
      -0.126
      -0.281
      -0.430
      -0.561
      -0.665
      -0.738
      -0.785
      -0.810
      -0.818
      -0.811
      -0.782
      -0.728
      -0.646
      -0.537
      -0.410
      -0.278
      -0.151
      -0.041
       0.044
       0.098
       0.118
       0.106
       0.068
       0.007
      -0.077
      -0.187
      -0.323
      -0.480
      -0.652
      -0.833
      -1.018
      -1.205
      -1.387
      -1.557
      -1.707
      -1.831
      -1.925
      -1.991
      -2.031
      -2.049
      -2.049
      -2.030
      -1.996
      -1.951
      -1.904
      -1.863
      -1.834
      -1.822
      -1.827
      -1.843
      -1.863
      -1.878
      -1.883
      -1.879
      -1.864
      -1.831
      -1.772
      -1.682
      -1.565
      -1.430
      -1.285
      -1.129
      -0.955
      -0.755
      -0.531
      -0.294
      -0.058
       0.163
       0.367
       0.553
       0.724
       0.878
       1.010
       1.120
       1.214
       1.302
       1.395
       1.494
       1.597
       1.698
       1.797
       1.891
       1.984
       2.079
       2.181
       2.294
       2.419
       2.553
       2.688
       2.818
       2.936
       3.034
       3.107
       3.155
       3.181
       3.194
       3.197
       3.188
       3.161
       3.111
       3.037
       2.945
       2.840
       2.723
       2.589
       2.430
       2.237
       2.000
       1.713
       1.373
       0.983
       0.559
       0.119
      -0.316
      -0.731
      -1.118
      -1.470
      -1.790
      -2.080
      -2.343
      -2.581
      -2.794
      -2.982
      -3.141
      -3.266
      -3.355
      -3.407
      -3.423
      -3.408
      -3.365
      -3.299
      -3.214
      -3.116
      -3.010
      -2.901
      -2.789
      -2.680
      -2.575
      -2.480
      -2.399
      -2.332
      -2.281
      -2.241
      -2.208
      -2.177
      -2.150
      -2.124
      -2.096
      -2.061
      -2.011
      -1.940
      -1.841
      -1.709
      -1.537
      -1.319
      -1.054
      -0.744
      -0.398
      -0.026
       0.359
       0.750
       1.143
       1.541
       1.942
       2.345
       2.739
       3.114
       3.463
       3.780
       4.064
       4.316
       4.536
       4.727
       4.890
       5.033
       5.160
       5.275
       5.372
       5.445
       5.489
       5.501
       5.487
       5.450
       5.391
       5.306
       5.187
       5.030
       4.837
       4.608
       4.344
       4.040
       3.686
       3.279
       2.823
       2.336
       1.838
       1.340
       0.845
       0.346
      -0.158
      -0.665
      -1.168
      -1.662
      -2.144
      -2.612
      -3.065
      -3.497
      -3.899
      -4.265
      -4.587
      -4.867
      -5.113
      -5.336
      -5.544
      -5.737
      -5.908
      -6.044
      -6.138
      -6.189
      -6.198
      -6.168
      -6.099
      -5.986
      -5.826
      -5.621
      -5.377
      -5.106
      -4.824
      -4.541
      -4.266
      -4.007
      -3.764
      -3.532
      -3.308
      -3.090
      -2.880
      -2.681
      -2.493
      -2.307
      -2.116
      -1.917
      -1.712
      -1.506
      -1.303
      -1.104
      -0.908
      -0.712
      -0.512
      -0.306
      -0.092
       0.127
       0.347
       0.565
       0.781
       0.996
       1.211
       1.423
       1.628
       1.827
       2.022
       2.215
       2.411
       2.615
       2.834
       3.076
       3.345
       3.636
       3.939
       4.245
       4.547
       4.841
       5.125
       5.391
       5.629
       5.830
       5.994
       6.123
       6.214
       6.261
       6.257
       6.199
       6.088
       5.927
       5.724
       5.487
       5.227
       4.954
       4.674
       4.385
       4.084
       3.771
       3.445
       3.107
       2.759
       2.401
       2.032
       1.652
       1.262
       0.861
       0.452
       0.035
      -0.388
      -0.821
      -1.268
      -1.731
      -2.203
      -2.677
      -3.147
      -3.614
      -4.087
      -4.566
      -5.045
      -5.507
      -5.935
      -6.313
      -6.630
      -6.881
      -7.062
      -7.171
      -7.209
      -7.179
      -7.090
      -6.955
      -6.786
      -6.597
      -6.395
      -6.183
      -5.957
      -5.715
      -5.453
      -5.174
      -4.884
      -4.588
      -4.287
      -3.970
      -3.625
      -3.241
      -2.817
      -2.358
      -1.869
      -1.357
      -0.829
      -0.292
       0.246
       0.775
       1.289
       1.785
       2.261
       2.710
       3.125
       3.497
       3.821
       4.095
       4.320
       4.501
       4.642
       4.746
       4.820
       4.873
       4.911
       4.939
       4.962
       4.982
       5.005
       5.031
       5.060
       5.089
       5.113
       5.124
       5.112
       5.074
       5.014
       4.937
       4.847
       4.740
       4.611
       4.458
       4.286
       4.101
       3.901
       3.681
       3.438
       3.173
       2.891
       2.594
       2.280
       1.941
       1.562
       1.134
       0.660
       0.153
      -0.364
      -0.873
      -1.357
      -1.802
      -2.203
      -2.557
      -2.864
      -3.127
      -3.346
      -3.522
      -3.658
      -3.763
      -3.843
      -3.901
      -3.935
      -3.936
      -3.900
      -3.829
      -3.732
      -3.619
      -3.499
      -3.375
      -3.245
      -3.113
      -2.983
      -2.859
      -2.749
      -2.654
      -2.576
      -2.507
      -2.438
      -2.356
      -2.253
      -2.125
      -1.973
      -1.798
      -1.603
      -1.391
      -1.155
      -0.891
      -0.599
      -0.289
       0.025
       0.331
       0.622
       0.899
       1.161
       1.405
       1.619
       1.792
       1.916
       1.993
       2.031
       2.035
       2.006
       1.937
       1.825
       1.674
       1.493
       1.293
       1.077
       0.847
       0.601
       0.337
       0.061
      -0.221
      -0.503
      -0.779
      -1.047
      -1.304
      -1.546
      -1.769
      -1.970
      -2.151
      -2.317
      -2.470
      -2.613
      -2.740
      -2.844
      -2.912
      -2.932
      -2.896
      -2.798
      -2.641
      -2.425
      -2.155
      -1.833
      -1.465
      -1.059
      -0.627
      -0.183
       0.254
       0.669
       1.050
       1.397
       1.713
       2.009
       2.293
       2.572
       2.846
       3.109
       3.351
       3.563
       3.740
       3.879
       3.981
       4.047
       4.082
       4.098
       4.107
       4.119
       4.138
       4.164
       4.187
       4.199
       4.184
       4.134
       4.041
       3.905
       3.729
       3.514
       3.262
       2.971
       2.642
       2.280
       1.894
       1.489
       1.074
       0.655
       0.240
      -0.157
      -0.526
      -0.860
      -1.154
      -1.408
      -1.627
      -1.813
      -1.974
      -2.118
      -2.253
      -2.386
      -2.520
      -2.653
      -2.786
      -2.922
      -3.066
      -3.221
      -3.390
      -3.571
      -3.758
      -3.947
      -4.137
      -4.332
      -4.538
      -4.758
      -4.989
      -5.219
      -5.431
      -5.611
      -5.747
      -5.834
      -5.868
      -5.844
      -5.759
      -5.606
      -5.381
      -5.075
      -4.681
      -4.199
      -3.638
      -3.013
      -2.344
      -1.647
      -0.934
      -0.212
       0.510
       1.221
       1.905
       2.547
       3.136
       3.667
       4.144
       4.573
       4.952
       5.273
       5.528
       5.710
       5.823
       5.874
       5.870
       5.814
       5.708
       5.552
       5.352
       5.112
       4.838
       4.536
       4.208
       3.859
       3.491
       3.108
       2.712
       2.309
       1.909
       1.523
       1.159
       0.823
       0.514
       0.231
      -0.025
      -0.250
      -0.442
      -0.605
      -0.746
      -0.877
      -1.012
      -1.163
      -1.343
      -1.557
      -1.806
      -2.080
      -2.366
      -2.646
      -2.904
      -3.133
      -3.332
      -3.504
      -3.649
      -3.766
      -3.850
      -3.896
      -3.903
      -3.870
      -3.801
      -3.697
      -3.553
      -3.366
      -3.135
      -2.863
      -2.564
      -2.256
      -1.949
      -1.647
      -1.343
      -1.025
      -0.687
      -0.326
       0.053
       0.444
       0.842
       1.247
       1.657
       2.066
       2.458
       2.811
       3.106
       3.331
       3.488
       3.583
       3.623
       3.610
       3.546
       3.438
       3.296
       3.129
       2.938
       2.719
       2.466
       2.178
       1.867
       1.548
       1.236
       0.940
       0.664
       0.407
       0.168
      -0.049
      -0.241
      -0.405
      -0.538
      -0.644
      -0.730
      -0.806
      -0.880
      -0.956
      -1.026
      -1.077
      -1.095
      -1.072
      -1.006
      -0.899
      -0.756
      -0.573
      -0.349
      -0.087
       0.199
       0.490
       0.770
       1.033
       1.282
       1.517
       1.731
       1.907
       2.034
       2.113
       2.150
       2.155
       2.133
       2.083
       1.999
       1.875
       1.706
       1.495
       1.252
       0.992
       0.731
       0.479
       0.245
       0.032
      -0.157
      -0.315
      -0.441
      -0.530
      -0.584
      -0.604
      -0.589
      -0.538
      -0.453
      -0.344
      -0.226
      -0.111
      -0.005
       0.096
       0.195
       0.289
       0.366
       0.413
       0.423
       0.397
       0.339
       0.251
       0.128
      -0.035
      -0.233
      -0.455
      -0.689
      -0.931
      -1.186
      -1.466
      -1.777
      -2.122
      -2.494
      -2.887
      -3.289
      -3.685
      -4.056
      -4.382
      -4.642
      -4.826
      -4.935
      -4.973
      -4.942
      -4.841
      -4.671
      -4.437
      -4.147
      -3.808
      -3.422
      -2.996
      -2.541
      -2.072
      -1.599
