Origin Time       04/04/2011 11:31:40
Lat.              29.6 N	
Long.             80.8 E	
Depth (Km)         10.0
Magnitude         5.7
 Region           NEPAL-INDIA-BORDER-REGION                                        
 Above details taken from IMD 
   
Station Code      DNL
Station Lat.       30.427
Station Long.      78.244
Station Height(m) 2280.0
Site Class        B   Vs30 between 375 m/sec to 700 m/sec *  
Record Time       04.04.2011 11:32:22.909
Sampling Rate     200. Hz
 Record Duration   95.425 Sec.
 Direction         Vert. (Up positive)
Max. Acceleration     -2.138 cm/sec**2
     
  * For reference see Site Classification link of website 
     
 Base Line Corrected and Low Pass Filtered (Cut Off at 35 Hz) Time History
 Acceleration data in cm/sec**2
    
[...]
      -0.157
       0.004
       0.179
       0.342
       0.474
       0.563
       0.603
       0.594
       0.534
       0.421
       0.263
       0.074
      -0.123
      -0.306
      -0.459
      -0.573
      -0.646
      -0.679
      -0.677
      -0.645
      -0.589
      -0.512
      -0.420
      -0.320
      -0.215
      -0.110
      -0.008
       0.090
       0.187
       0.280
       0.365
       0.440
       0.505
       0.557
       0.590
       0.597
       0.577
       0.535
       0.480
       0.426
       0.388
       0.371
       0.378
       0.407
       0.463
       0.539
       0.615
       0.660
       0.647
       0.566
       0.432
       0.273
       0.117
      -0.016
      -0.124
      -0.218
      -0.310
      -0.404
      -0.490
      -0.554
      -0.580
      -0.564
      -0.512
      -0.442
      -0.368
      -0.306
      -0.263
      -0.247
      -0.259
      -0.287
      -0.314
      -0.318
      -0.292
      -0.242
      -0.178
      -0.109
      -0.032
       0.065
       0.188
       0.333
       0.481
       0.607
       0.690
       0.719
       0.689
       0.607
       0.486
       0.350
       0.224
       0.122
       0.039
      -0.038
      -0.126
      -0.231
      -0.344
      -0.446
      -0.516
      -0.547
      -0.544
      -0.529
      -0.528
      -0.555
      -0.604
      -0.657
      -0.697
      -0.710
      -0.685
      -0.605
      -0.453
      -0.225
       0.065
       0.380
       0.678
       0.922
       1.089
       1.170
       1.165
       1.083
       0.943
       0.774
       0.605
       0.458
       0.338
       0.237
       0.137
       0.024
      -0.107
      -0.250
      -0.396
      -0.541
      -0.680
      -0.809
      -0.919
      -0.999
      -1.037
      -1.033
      -0.999
      -0.951
      -0.895
      -0.824
      -0.724
      -0.589
      -0.420
      -0.226
      -0.017
       0.197
       0.412
       0.621
       0.811
       0.962
       1.057
       1.083
       1.039
       0.925
       0.745
       0.513
       0.253
      -0.001
      -0.220
      -0.381
      -0.478
      -0.514
      -0.500
      -0.451
      -0.384
      -0.315
      -0.260
      -0.227
      -0.222
      -0.239
      -0.264
      -0.270
      -0.229
      -0.129
       0.025
       0.206
       0.374
       0.492
       0.539
       0.516
       0.443
       0.347
       0.256
       0.190
       0.157
       0.154
       0.168
       0.187
       0.205
       0.215
       0.213
       0.207
       0.210
       0.240
       0.302
       0.380
       0.445
       0.466
       0.425
       0.324
       0.179
       0.013
      -0.152
      -0.300
      -0.420
      -0.506
      -0.557
      -0.581
      -0.589
      -0.589
      -0.580
      -0.545
      -0.461
      -0.314
      -0.113
       0.117
       0.331
       0.490
       0.569
       0.566
       0.504
       0.412
       0.322
       0.256
       0.225
       0.225
       0.243
       0.264
       0.282
       0.294
       0.297
       0.278
       0.216
       0.091
      -0.100
      -0.340
      -0.597
      -0.834
      -1.020
      -1.133
      -1.160
      -1.099
      -0.959
      -0.757
      -0.511
      -0.243
       0.017
       0.243
       0.409
       0.503
       0.523
       0.476
       0.377
       0.250
       0.121
       0.015
      -0.052
      -0.074
      -0.056
      -0.008
       0.060
       0.136
       0.211
       0.280
       0.337
       0.375
       0.392
       0.382
       0.343
       0.275
       0.177
       0.059
      -0.066
      -0.173
      -0.236
      -0.236
      -0.178
      -0.086
       0.007
       0.079
       0.124
       0.145
       0.139
       0.097
       0.009
      -0.119
      -0.264
      -0.392
      -0.477
      -0.511
      -0.499
      -0.454
      -0.388
      -0.318
      -0.260
      -0.229
      -0.231
      -0.262
      -0.301
      -0.327
      -0.324
      -0.295
      -0.256
      -0.220
      -0.193
      -0.167
      -0.128
      -0.061
       0.037
       0.158
       0.280
       0.388
       0.473
       0.539
       0.598
       0.657
       0.718
       0.779
       0.838
       0.901
       0.970
       1.037
       1.084
       1.096
       1.064
       0.987
       0.874
       0.740
       0.592
       0.436
       0.275
       0.121
      -0.012
      -0.115
      -0.190
      -0.247
      -0.292
      -0.323
      -0.332
      -0.309
      -0.253
      -0.177
      -0.108
      -0.065
      -0.051
      -0.051
      -0.041
      -0.004
       0.060
       0.137
       0.206
       0.250
       0.256
       0.217
       0.124
      -0.025
      -0.222
      -0.453
      -0.695
      -0.922
      -1.111
      -1.251
      -1.340
      -1.377
      -1.362
      -1.295
      -1.181
      -1.027
      -0.844
      -0.647
      -0.451
      -0.268
      -0.099
       0.055
       0.189
       0.295
       0.371
       0.424
       0.470
       0.523
       0.589
       0.661
       0.730
       0.794
       0.849
       0.888
       0.892
       0.843
       0.728
       0.558
       0.362
       0.186
       0.070
       0.036
       0.072
       0.146
       0.221
       0.271
       0.287
       0.276
       0.247
       0.206
       0.155
       0.092
       0.020
      -0.056
      -0.128
      -0.194
      -0.256
      -0.323
      -0.401
      -0.495
      -0.601
      -0.713
      -0.816
      -0.894
      -0.933
      -0.930
      -0.892
      -0.833
      -0.772
      -0.722
      -0.684
      -0.646
      -0.591
      -0.513
      -0.419
      -0.320
      -0.225
      -0.139
      -0.061
       0.010
       0.072
       0.122
       0.158
       0.182
       0.198
       0.210
       0.219
       0.221
       0.204
       0.162
       0.094
       0.010
      -0.074
      -0.144
      -0.183
      -0.175
      -0.110
       0.005
       0.151
       0.303
       0.442
       0.559
       0.648
       0.705
       0.738
       0.761
       0.785
       0.813
       0.832
       0.824
       0.777
       0.702
       0.632
       0.603
       0.626
       0.681
       0.724
       0.709
       0.609
       0.426
       0.186
      -0.072
      -0.316
      -0.526
      -0.692
      -0.806
      -0.862
      -0.864
      -0.820
      -0.748
      -0.662
      -0.570
      -0.472
      -0.367
      -0.254
      -0.140
      -0.037
       0.042
       0.084
       0.092
       0.077
       0.057
       0.046
       0.052
       0.080
       0.122
       0.159
       0.164
       0.120
       0.024
      -0.108
      -0.253
      -0.386
      -0.490
      -0.553
      -0.579
      -0.579
      -0.574
      -0.583
      -0.614
      -0.657
      -0.692
      -0.698
      -0.665
      -0.594
      -0.491
      -0.368
      -0.237
      -0.115
      -0.023
       0.025
       0.027
       0.009
       0.008
       0.056
       0.162
       0.312
       0.472
       0.607
       0.689
       0.711
       0.690
       0.653
       0.622
       0.606
       0.604
       0.611
       0.619
       0.623
       0.624
       0.627
       0.637
       0.652
       0.659
       0.638
       0.574
       0.464
       0.327
       0.189
       0.073
      -0.009
      -0.056
      -0.075
      -0.077
      -0.066
      -0.040
       0.000
       0.043
       0.067
       0.052
      -0.013
      -0.132
      -0.289
      -0.460
      -0.614
      -0.731
      -0.799
      -0.819
      -0.797
      -0.745
      -0.668
      -0.577
      -0.490
      -0.429
      -0.406
      -0.420
      -0.464
      -0.532
      -0.623
      -0.726
      -0.813
      -0.851
      -0.815
      -0.699
      -0.520
      -0.306
      -0.093
       0.096
       0.248
       0.359
       0.434
       0.478
       0.497
       0.491
       0.466
       0.431
       0.404
       0.400
       0.425
       0.471
       0.521
       0.548
       0.530
       0.468
       0.381
       0.296
       0.235
       0.209
       0.210
       0.219
       0.213
       0.177
       0.107
       0.024
      -0.041
      -0.059
      -0.020
       0.058
       0.139
       0.189
       0.199
       0.182
       0.159
       0.147
       0.152
       0.169
       0.191
       0.204
       0.183
       0.107
      -0.026
      -0.184
      -0.318
      -0.378
      -0.340
      -0.210
      -0.021
       0.190
       0.393
       0.571
       0.711
       0.801
       0.824
       0.765
       0.623
       0.421
       0.198
      -0.001
      -0.146
      -0.218
      -0.208
      -0.112
       0.060
       0.280
       0.501
       0.679
       0.777
       0.787
       0.718
       0.592
       0.429
       0.253
       0.090
      -0.031
      -0.099
      -0.123
      -0.125
      -0.126
      -0.142
      -0.181
      -0.247
      -0.342
      -0.462
      -0.594
      -0.716
      -0.808
      -0.858
      -0.867
      -0.840
      -0.791
      -0.726
      -0.652
      -0.571
      -0.485
      -0.396
      -0.315
      -0.257
      -0.231
      -0.241
      -0.286
      -0.356
      -0.435
      -0.501
      -0.537
      -0.532
      -0.484
      -0.398
      -0.297
      -0.208
      -0.153
      -0.144
      -0.177
      -0.236
      -0.303
      -0.357
      -0.388
      -0.395
      -0.383
      -0.355
      -0.318
      -0.275
      -0.227
      -0.171
      -0.107
      -0.040
       0.025
       0.082
       0.125
       0.148
       0.151
       0.143
       0.133
       0.131
       0.143
       0.176
       0.236
       0.326
       0.442
       0.575
       0.708
       0.826
       0.919
       0.984
       1.026
       1.053
       1.079
       1.121
       1.192
       1.291
       1.405
       1.510
       1.583
       1.608
       1.584
       1.526
       1.455
       1.382
       1.307
       1.228
       1.140
       1.044
       0.941
       0.830
       0.706
       0.557
       0.371
       0.149
      -0.097
      -0.344
      -0.568
      -0.754
      -0.898
      -1.009
      -1.102
      -1.191
      -1.280
      -1.362
      -1.424
      -1.459
      -1.460
      -1.430
      -1.373
      -1.293
      -1.196
      -1.089
      -0.972
      -0.840
      -0.679
      -0.484
      -0.264
      -0.049
       0.132
       0.256
       0.319
       0.335
       0.324
       0.309
       0.296
       0.273
       0.218
       0.114
      -0.045
      -0.250
      -0.486
      -0.738
      -0.993
      -1.231
      -1.419
      -1.520
      -1.517
      -1.424
      -1.273
      -1.098
      -0.913
      -0.719
      -0.509
      -0.289
      -0.079
       0.099
       0.243
       0.370
       0.503
       0.656
       0.822
       0.992
       1.160
       1.330
       1.508
       1.693
       1.865
       1.996
       2.059
       2.046
       1.965
       1.829
       1.655
       1.457
       1.251
       1.054
       0.884
       0.754
       0.666
       0.609
       0.557
       0.480
       0.355
       0.182
      -0.019
      -0.220
      -0.403
      -0.574
      -0.748
      -0.934
      -1.117
      -1.274
      -1.384
      -1.444
      -1.463
      -1.453
      -1.418
      -1.365
      -1.304
      -1.252
      -1.218
      -1.197
      -1.175
      -1.146
      -1.114
      -1.085
      -1.066
      -1.059
      -1.062
      -1.069
      -1.072
      -1.060
      -1.017
      -0.928
      -0.787
      -0.610
      -0.429
      -0.278
      -0.183
      -0.159
      -0.210
      -0.320
      -0.462
      -0.599
      -0.701
      -0.743
      -0.719
      -0.641
      -0.532
      -0.413
      -0.297
      -0.195
      -0.115
      -0.065
      -0.051
      -0.064
      -0.088
      -0.104
      -0.103
      -0.093
      -0.092
      -0.116
      -0.167
      -0.232
      -0.282
      -0.284
      -0.217
      -0.084
       0.090
       0.271
       0.430
       0.549
       0.625
       0.667
       0.691
       0.717
       0.764
       0.843
       0.958
       1.103
       1.267
       1.430
       1.572
       1.672
       1.709
       1.674
       1.571
       1.412
       1.215
       1.011
       0.827
       0.682
       0.574
       0.486
       0.402
       0.310
       0.212
       0.121
       0.049
       0.002
      -0.029
      -0.059
      -0.098
      -0.144
      -0.181
      -0.191
      -0.165
      -0.103
      -0.010
       0.105
       0.230
       0.341
       0.409
       0.418
       0.375
       0.305
       0.237
       0.182
       0.127
       0.047
      -0.084
      -0.269
      -0.492
      -0.722
      -0.929
      -1.095
      -1.209
      -1.263
      -1.254
      -1.184
      -1.075
      -0.955
      -0.846
      -0.753
      -0.669
      -0.581
      -0.484
      -0.378
      -0.269
      -0.161
      -0.056
       0.048
       0.152
       0.254
       0.345
       0.421
       0.481
       0.525
       0.549
       0.544
       0.510
       0.459
       0.412
       0.387
       0.388
       0.411
       0.447
       0.491
       0.540
       0.591
       0.637
       0.672
       0.690
       0.694
       0.690
       0.689
       0.706
       0.755
       0.834
       0.927
       1.010
       1.063
       1.080
       1.068
       1.038
       1.002
       0.972
       0.956
       0.951
       0.950
       0.941
       0.913
       0.851
       0.743
       0.588
       0.405
       0.219
       0.051
      -0.101
      -0.256
      -0.442
      -0.673
      -0.937
      -1.208
      -1.458
      -1.674
      -1.852
      -1.993
      -2.092
      -2.138
      -2.127
      -2.060
      -1.951
      -1.820
      -1.676
      -1.519
      -1.337
      -1.127
      -0.893
      -0.654
      -0.434
      -0.254
      -0.123
      -0.034
       0.025
       0.062
       0.081
       0.085
       0.074
       0.049
       0.014
      -0.027
      -0.071
      -0.116
      -0.164
      -0.215
      -0.263
      -0.296
      -0.302
      -0.275
      -0.220
      -0.136
      -0.021
       0.128
       0.303
       0.489
       0.668
       0.815
       0.912
       0.952
       0.940
       0.892
       0.826
       0.756
       0.695
       0.652
       0.633
       0.635
       0.644
       0.649
       0.642
       0.626
       0.608
       0.600
       0.614
       0.653
       0.712
       0.777
       0.819
       0.813
       0.747
       0.636
       0.512
       0.404
       0.318
       0.245
       0.174
       0.107
       0.054
       0.016
      -0.023
      -0.087
      -0.196
      -0.345
      -0.507
      -0.642
      -0.724
      -0.747
      -0.720
      -0.657
      -0.574
      -0.483
      -0.385
      -0.274
      -0.150
      -0.019
       0.107
       0.217
       0.308
       0.380
       0.435
       0.476
       0.500
       0.502
       0.471
       0.398
       0.282
       0.126
      -0.055
      -0.237
      -0.387
      -0.491
      -0.552
      -0.583
      -0.597
      -0.600
      -0.596
      -0.584
      -0.559
      -0.515
      -0.444
      -0.340
      -0.207
      -0.059
       0.079
       0.186
       0.245
       0.259
       0.245
       0.217
       0.180
       0.132
       0.077
       0.031
       0.011
       0.023
       0.059
       0.107
       0.159
       0.224
       0.308
       0.408
       0.505
       0.578
       0.621
       0.644
       0.658
       0.668
       0.670
       0.656
       0.621
       0.567
       0.502
       0.427
       0.336
       0.215
       0.052
      -0.157
      -0.406
      -0.676
      -0.946
      -1.200
      -1.425
      -1.611
      -1.750
      -1.833
      -1.850
      -1.788
      -1.641
      -1.429
      -1.187
      -0.956
      -0.764
      -0.625
      -0.535
      -0.480
      -0.435
      -0.381
      -0.304
      -0.197
      -0.063
       0.088
       0.247
       0.412
       0.583
       0.760
       0.941
       1.128
       1.318
       1.493
       1.621
       1.678
       1.654
       1.560
       1.420
       1.263
       1.106
       0.945
       0.772
       0.592
       0.420
       0.259
       0.094
      -0.097
      -0.327
      -0.586
      -0.843
      -1.049
      -1.164
      -1.175
      -1.095
      -0.955
      -0.791
      -0.626
      -0.471
      -0.328
      -0.199
      -0.088
       0.002
       0.075
       0.128
       0.153
       0.140
       0.084
      -0.017
      -0.160
      -0.339
      -0.540
      -0.741
      -0.916
      -1.048
      -1.136
      -1.197
      -1.253
      -1.318
      -1.386
      -1.439
      -1.457
      -1.430
      -1.356
      -1.239
      -1.088
      -0.912
      -0.720
      -0.520
      -0.319
      -0.120
       0.083
       0.299
       0.533
       0.777
       1.018
       1.240
       1.436
       1.600
       1.728
       1.807
       1.817
       1.744
       1.592
       1.390
       1.181
       1.004
       0.878
       0.796
       0.737
       0.671
       0.575
       0.445
       0.290
       0.128
      -0.032
      -0.188
      -0.339
      -0.482
      -0.613
      -0.726
      -0.816
      -0.878
      -0.905
      -0.890
      -0.833
      -0.739
      -0.615
      -0.466
      -0.293
      -0.100
       0.100
       0.290
       0.451
       0.577
       0.679
       0.773
       0.868
       0.955
       1.012
       1.021
       0.969
       0.863
       0.719
       0.561
       0.413
       0.286
       0.179
       0.091
       0.021
      -0.032
      -0.085
      -0.165
      -0.306
      -0.528
      -0.821
      -1.141
      -1.431
      -1.652
      -1.791
      -1.853
      -1.839
      -1.746
      -1.569
      -1.321
      -1.035
      -0.757
      -0.521
      -0.332
      -0.171
      -0.013
       0.161
       0.362
       0.593
       0.848
       1.116
       1.377
       1.607
       1.781
       1.877
       1.891
       1.838
       1.745
       1.635
       1.523
       1.415
       1.309
       1.203
       1.095
       0.992
       0.913
       0.882
       0.902
       0.937
       0.924
       0.814
       0.600
       0.318
       0.020
      -0.249
      -0.457
      -0.594
      -0.665
      -0.684
      -0.670
      -0.641
      -0.621
      -0.628
      -0.674
      -0.757
      -0.870
      -0.998
      -1.126
      -1.233
      -1.289
      -1.265
      -1.155
      -0.985
      -0.803
      -0.652
      -0.553
      -0.503
      -0.481
      -0.469
      -0.456
      -0.441
      -0.423
      -0.401
      -0.371
      -0.333
      -0.286
      -0.235
      -0.187
      -0.156
      -0.154
      -0.192
      -0.276
      -0.402
      -0.550
      -0.689
      -0.792
      -0.846
      -0.851
      -0.817
      -0.756
      -0.686
      -0.621
      -0.576
      -0.557
      -0.557
      -0.560
      -0.542
      -0.478
      -0.354
      -0.175
       0.038
       0.258
       0.471
       0.671
       0.852
       1.005
       1.120
       1.192
       1.223
       1.224
       1.214
       1.203
       1.196
       1.189
       1.180
       1.163
       1.134
       1.090
       1.021
       0.914
       0.767
       0.594
       0.420
       0.265
       0.125
      -0.016
      -0.174
      -0.355
      -0.552
      -0.756
      -0.958
      -1.151
      -1.325
      -1.464
      -1.549
      -1.555
      -1.469
      -1.293
      -1.055
      -0.792
      -0.541
      -0.332
