Origin Time       22/02/2010 17:23:43
Lat.              30.0 N	
Long.             80.1 E	
Depth (Km)          2.0
Magnitude         4.7
 Region           BAGESHWER-UTTARAKHAND                                            
 Above details taken from IMD 
     
Station Code      DHA
Station Lat.       29.847  N
Station Long.      80.546  E
Station Height(m)  909.0
Site Class        A   Vs30 between 700 m/sec to 1400 m/sec * 
Record Time       22.02.2010 17:23:46.019
Sampling Rate     200. Hz
 Record Duration   67.480 Sec.
 Direction         E-W (E positive)
Max. Acceleration      2.643 cm/sec**2
     
  * For reference see Site Classification link of website 
     
 Base Line Corrected and Low Pass Filtered (Cut Off at 35 Hz) Time History
 Acceleration data in cm/sec**2
    
[...]
       0.345
       0.246
       0.188
       0.175
       0.186
       0.195
       0.184
       0.140
       0.062
      -0.034
      -0.113
      -0.149
      -0.136
      -0.088
      -0.012
       0.098
       0.232
       0.351
       0.406
       0.384
       0.324
       0.282
       0.281
       0.304
       0.325
       0.335
       0.338
       0.333
       0.311
       0.277
       0.246
       0.221
       0.182
       0.104
      -0.002
      -0.087
      -0.102
      -0.037
       0.081
       0.211
       0.328
       0.418
       0.465
       0.454
       0.387
       0.295
       0.214
       0.159
       0.127
       0.109
       0.103
       0.106
       0.105
       0.094
       0.081
       0.086
       0.117
       0.160
       0.192
       0.203
       0.207
       0.222
       0.252
       0.286
       0.313
       0.331
       0.340
       0.334
       0.299
       0.229
       0.139
       0.060
       0.024
       0.044
       0.109
       0.186
       0.243
       0.268
       0.274
       0.287
       0.316
       0.352
       0.381
       0.399
       0.410
       0.413
       0.394
       0.335
       0.241
       0.140
       0.063
       0.018
      -0.012
      -0.039
      -0.066
      -0.080
      -0.076
      -0.055
      -0.015
       0.051
       0.143
       0.245
       0.334
       0.395
       0.434
       0.460
       0.474
       0.466
       0.427
       0.359
       0.272
       0.176
       0.082
       0.004
      -0.039
      -0.035
       0.013
       0.086
       0.158
       0.207
       0.222
       0.210
       0.192
       0.197
       0.243
       0.321
       0.397
       0.436
       0.432
       0.406
       0.379
       0.351
       0.302
       0.219
       0.116
       0.030
      -0.008
       0.003
       0.038
       0.065
       0.076
       0.087
       0.122
       0.190
       0.275
       0.347
       0.380
       0.363
       0.300
       0.213
       0.128
       0.070
       0.051
       0.067
       0.111
       0.171
       0.231
       0.270
       0.275
       0.254
       0.227
       0.211
       0.208
       0.204
       0.191
       0.172
       0.156
       0.154
       0.169
       0.200
       0.235
       0.261
       0.264
       0.236
       0.185
       0.132
       0.101
       0.100
       0.122
       0.155
       0.197
       0.251
       0.312
       0.356
       0.357
       0.314
       0.259
       0.229
       0.235
       0.253
       0.254
       0.231
       0.194
       0.148
       0.095
       0.039
      -0.003
      -0.006
       0.031
       0.090
       0.143
       0.173
       0.184
       0.187
       0.193
       0.210
       0.241
       0.283
       0.323
       0.347
       0.348
       0.332
       0.305
       0.272
       0.238
       0.208
       0.183
       0.160
       0.139
       0.130
       0.147
       0.192
       0.246
       0.280
       0.279
       0.251
       0.217
       0.196
       0.196
       0.210
       0.218
       0.202
       0.159
       0.105
       0.070
       0.073
       0.115
       0.177
       0.242
       0.301
       0.345
       0.367
       0.367
       0.353
       0.336
       0.316
       0.284
       0.237
       0.189
       0.153
       0.130
       0.105
       0.074
       0.052
       0.062
       0.101
       0.141
       0.155
       0.148
       0.148
       0.176
       0.216
       0.234
       0.211
       0.160
       0.113
       0.095
       0.109
       0.145
       0.188
       0.224
       0.239
       0.222
       0.173
       0.106
       0.046
       0.018
       0.038
       0.103
       0.196
       0.289
       0.357
       0.388
       0.394
       0.394
       0.396
       0.392
       0.368
       0.319
       0.255
       0.192
       0.141
       0.105
       0.085
       0.089
       0.122
       0.169
       0.198
       0.180
       0.114
       0.031
      -0.025
      -0.026
       0.028
       0.125
       0.246
       0.372
       0.470
       0.510
       0.474
       0.383
       0.283
       0.218
       0.202
       0.220
       0.244
       0.256
       0.253
       0.236
       0.208
       0.179
       0.162
       0.163
       0.175
       0.180
       0.164
       0.133
       0.104
       0.092
       0.097
       0.113
       0.133
       0.151
       0.161
       0.158
       0.147
       0.145
       0.166
       0.206
       0.246
       0.268
       0.272
       0.270
       0.262
       0.233
       0.170
       0.087
       0.029
       0.034
       0.099
       0.182
       0.235
       0.240
       0.211
       0.166
       0.121
       0.089
       0.084
       0.115
       0.173
       0.234
       0.281
       0.312
       0.337
       0.355
       0.352
       0.320
       0.267
       0.207
       0.153
       0.104
       0.064
       0.039
       0.036
       0.050
       0.073
       0.113
       0.187
       0.300
       0.422
       0.501
       0.506
       0.449
       0.377
       0.334
       0.331
       0.353
       0.383
       0.415
       0.441
       0.445
       0.404
       0.311
       0.179
       0.035
      -0.095
      -0.192
      -0.244
      -0.247
      -0.206
      -0.141
      -0.072
      -0.005
       0.067
       0.148
       0.219
       0.258
       0.260
       0.251
       0.265
       0.313
       0.374
       0.420
       0.445
       0.461
       0.476
       0.473
       0.425
       0.322
       0.189
       0.061
      -0.032
      -0.085
      -0.102
      -0.085
      -0.041
       0.017
       0.069
       0.101
       0.116
       0.123
       0.129
       0.133
       0.139
       0.158
       0.202
       0.268
       0.341
       0.399
       0.431
       0.437
       0.422
       0.390
       0.343
       0.289
       0.236
       0.193
       0.162
       0.145
       0.145
       0.162
       0.186
       0.202
       0.199
       0.181
       0.162
       0.152
       0.151
       0.154
       0.161
       0.182
       0.222
       0.270
       0.305
       0.305
       0.265
       0.192
       0.103
       0.020
      -0.040
      -0.063
      -0.043
       0.006
       0.065
       0.117
       0.161
       0.203
       0.242
       0.265
       0.259
       0.225
       0.182
       0.149
       0.142
       0.167
       0.224
       0.305
       0.389
       0.447
       0.456
       0.420
       0.363
       0.312
       0.274
       0.243
       0.214
       0.197
       0.205
       0.239
       0.281
       0.301
       0.285
       0.237
       0.175
       0.116
       0.067
       0.027
      -0.002
      -0.012
       0.006
       0.050
       0.101
       0.133
       0.135
       0.119
       0.108
       0.115
       0.134
       0.154
       0.175
       0.205
       0.249
       0.296
       0.333
       0.354
       0.362
       0.352
       0.306
       0.218
       0.107
       0.009
      -0.043
      -0.049
      -0.030
      -0.008
       0.006
       0.014
       0.019
       0.021
       0.024
       0.041
       0.079
       0.138
       0.212
       0.300
       0.404
       0.518
       0.622
       0.689
       0.699
       0.653
       0.567
       0.466
       0.377
       0.318
       0.293
       0.295
       0.302
       0.294
       0.261
       0.203
       0.128
       0.043
      -0.044
      -0.121
      -0.172
      -0.182
      -0.152
      -0.095
      -0.024
       0.060
       0.163
       0.294
       0.447
       0.602
       0.727
       0.788
       0.764
       0.650
       0.469
       0.267
       0.093
      -0.028
      -0.106
      -0.177
      -0.271
      -0.384
      -0.472
      -0.491
      -0.422
      -0.294
      -0.153
      -0.026
       0.093
       0.229
       0.393
       0.566
       0.718
       0.826
       0.882
       0.888
       0.841
       0.735
       0.572
       0.371
       0.158
      -0.039
      -0.206
      -0.338
      -0.432
      -0.492
      -0.525
      -0.527
      -0.481
      -0.361
      -0.159
       0.093
       0.337
       0.526
       0.654
       0.746
       0.821
       0.867
       0.856
       0.775
       0.645
       0.502
       0.376
       0.281
       0.218
       0.183
       0.160
       0.124
       0.054
      -0.044
      -0.132
      -0.164
      -0.114
       0.001
       0.145
       0.285
       0.415
       0.540
       0.654
       0.728
       0.724
       0.626
       0.446
       0.227
       0.011
      -0.175
      -0.324
      -0.448
      -0.557
      -0.656
      -0.739
      -0.798
      -0.824
      -0.806
      -0.723
      -0.546
      -0.255
       0.135
       0.576
       0.998
       1.328
       1.510
       1.520
       1.383
       1.177
       0.996
       0.901
       0.881
       0.879
       0.834
       0.730
       0.584
       0.412
       0.213
      -0.017
      -0.259
      -0.467
      -0.604
      -0.667
      -0.677
      -0.650
      -0.578
      -0.435
      -0.220
       0.025
       0.224
       0.306
       0.254
       0.115
      -0.030
      -0.109
      -0.090
       0.015
       0.171
       0.335
       0.471
       0.556
       0.586
       0.566
       0.504
       0.401
       0.262
       0.107
      -0.029
      -0.114
      -0.140
      -0.128
      -0.113
      -0.123
      -0.168
      -0.237
      -0.304
      -0.340
      -0.318
      -0.224
      -0.069
       0.115
       0.286
       0.429
       0.562
       0.719
       0.914
       1.123
       1.303
       1.410
       1.414
       1.299
       1.069
       0.763
       0.448
       0.188
       0.005
      -0.124
      -0.228
      -0.302
      -0.308
      -0.210
      -0.003
       0.276
       0.567
       0.807
       0.944
       0.949
       0.823
       0.595
       0.303
      -0.028
      -0.394
      -0.782
      -1.154
      -1.446
      -1.600
      -1.595
      -1.450
      -1.207
      -0.915
      -0.623
      -0.365
      -0.146
       0.063
       0.312
       0.630
       1.011
       1.416
       1.801
       2.122
       2.337
       2.401
       2.281
       1.976
       1.515
       0.957
       0.372
      -0.168
      -0.607
      -0.922
      -1.126
      -1.245
      -1.289
      -1.245
      -1.108
      -0.903
      -0.675
      -0.456
      -0.247
      -0.027
       0.224
       0.519
       0.859
       1.227
       1.585
       1.865
       1.994
       1.913
       1.608
       1.115
       0.520
      -0.076
      -0.584
      -0.953
      -1.176
      -1.271
      -1.269
      -1.201
      -1.101
      -0.990
      -0.859
      -0.676
      -0.411
      -0.071
       0.292
       0.623
       0.897
       1.127
       1.329
       1.495
       1.584
       1.544
       1.345
       1.002
       0.574
       0.143
      -0.218
      -0.470
      -0.615
      -0.680
      -0.701
      -0.697
      -0.668
      -0.595
      -0.453
      -0.218
       0.111
       0.496
       0.874
       1.184
       1.403
       1.541
       1.609
       1.590
       1.446
       1.157
       0.755
       0.318
      -0.073
      -0.371
      -0.570
      -0.689
      -0.756
      -0.802
      -0.849
      -0.899
      -0.928
      -0.906
      -0.816
      -0.656
      -0.431
      -0.144
       0.195
       0.566
       0.937
       1.268
       1.506
       1.590
       1.476
       1.166
       0.730
       0.283
      -0.059
      -0.237
      -0.271
      -0.239
      -0.233
      -0.305
      -0.442
      -0.578
      -0.644
      -0.606
      -0.481
      -0.310
      -0.128
       0.065
       0.295
       0.577
       0.882
       1.130
       1.232
       1.147
       0.920
       0.659
       0.466
       0.386
       0.400
       0.473
       0.591
       0.761
       0.975
       1.179
       1.299
       1.273
       1.087
       0.764
       0.346
      -0.128
      -0.608
      -1.036
      -1.356
      -1.534
      -1.573
      -1.506
      -1.368
      -1.182
      -0.960
      -0.722
      -0.490
      -0.276
      -0.064
       0.163
       0.391
       0.580
       0.702
       0.783
       0.894
       1.081
       1.315
       1.503
       1.548
       1.427
       1.197
       0.955
       0.782
       0.694
       0.653
       0.585
       0.420
       0.124
      -0.279
      -0.715
      -1.096
      -1.362
      -1.509
      -1.576
      -1.598
      -1.564
      -1.411
      -1.066
      -0.500
       0.231
       0.996
       1.650
       2.088
       2.283
       2.272
       2.117
       1.872
       1.570
       1.239
       0.911
       0.616
       0.359
       0.123
      -0.126
      -0.405
      -0.707
      -1.012
      -1.294
      -1.527
      -1.663
      -1.648
      -1.449
      -1.092
      -0.644
      -0.173
       0.294
       0.757
       1.213
       1.623
       1.920
       2.041
       1.956
       1.685
       1.293
       0.872
       0.506
       0.237
       0.045
      -0.134
      -0.357
      -0.620
      -0.855
      -0.974
      -0.926
      -0.720
      -0.407
      -0.040
       0.349
       0.745
       1.127
       1.452
       1.669
       1.737
       1.655
       1.464
       1.215
       0.937
       0.625
       0.269
      -0.108
      -0.451
      -0.705
      -0.858
      -0.953
      -1.047
      -1.180
      -1.353
      -1.544
      -1.715
      -1.824
      -1.823
      -1.674
      -1.354
      -0.864
      -0.229
       0.497
       1.233
       1.883
       2.361
       2.616
       2.643
       2.472
       2.151
       1.727
       1.245
       0.744
       0.257
      -0.188
      -0.579
      -0.915
      -1.192
      -1.388
      -1.463
      -1.380
      -1.131
      -0.750
      -0.286
       0.221
       0.749
       1.264
       1.686
       1.910
       1.862
       1.556
       1.092
       0.596
       0.155
      -0.205
      -0.485
      -0.683
      -0.776
      -0.744
      -0.586
      -0.336
      -0.056
       0.183
       0.338
       0.416
       0.466
       0.532
       0.622
       0.712
       0.768
       0.782
       0.763
       0.722
       0.642
       0.495
       0.278
       0.032
      -0.181
      -0.316
      -0.372
      -0.376
      -0.351
      -0.301
      -0.227
      -0.128
      -0.001
       0.162
       0.359
       0.558
       0.705
       0.759
       0.724
       0.641
       0.540
       0.412
       0.226
      -0.029
      -0.319
      -0.588
      -0.803
      -0.965
      -1.085
      -1.159
      -1.165
      -1.089
      -0.936
      -0.719
      -0.443
      -0.110
       0.272
       0.679
       1.085
       1.478
       1.847
       2.167
       2.396
       2.495
       2.440
       2.229
       1.866
       1.360
       0.753
       0.125
      -0.422
      -0.825
      -1.083
      -1.244
      -1.345
      -1.378
      -1.323
      -1.183
      -1.000
      -0.810
      -0.615
      -0.391
      -0.129
       0.144
       0.385
       0.570
       0.715
       0.851
       0.995
       1.132
       1.227
       1.250
       1.193
       1.066
       0.889
       0.680
       0.459
       0.241
       0.036
      -0.151
      -0.321
      -0.475
      -0.609
      -0.710
      -0.754
      -0.711
      -0.560
      -0.307
      -0.002
       0.286
       0.490
       0.579
       0.556
       0.443
       0.272
       0.078
      -0.100
      -0.227
      -0.268
      -0.210
      -0.061
       0.132
       0.303
       0.388
       0.361
       0.242
       0.081
      -0.066
      -0.159
      -0.173
      -0.094
       0.075
       0.303
       0.536
       0.714
       0.800
       0.783
       0.680
       0.516
       0.326
       0.151
       0.034
       0.013
       0.101
       0.278
       0.491
       0.674
       0.776
       0.780
       0.700
       0.563
       0.400
       0.239
       0.119
       0.073
       0.124
       0.258
       0.426
       0.562
       0.614
       0.568
       0.440
       0.257
       0.044
      -0.180
      -0.385
      -0.528
      -0.575
      -0.514
      -0.368
      -0.185
      -0.019
       0.091
       0.122
       0.077
      -0.019
      -0.128
      -0.219
      -0.271
      -0.273
      -0.219
      -0.106
       0.054
       0.227
       0.376
       0.471
       0.507
       0.488
       0.426
       0.335
       0.229
       0.125
       0.042
      -0.001
       0.015
       0.101
       0.249
       0.425
       0.584
       0.685
       0.712
       0.671
       0.584
       0.478
       0.378
       0.308
       0.277
       0.282
       0.310
       0.347
       0.385
       0.411
       0.404
       0.349
       0.251
       0.149
       0.087
       0.092
       0.151
       0.227
       0.282
       0.302
       0.300
       0.297
       0.297
       0.272
       0.190
       0.045
      -0.136
      -0.308
      -0.440
      -0.521
      -0.553
      -0.533
      -0.464
      -0.357
      -0.237
      -0.126
      -0.031
       0.053
       0.129
       0.197
       0.255
       0.306
       0.356
       0.405
       0.443
       0.463
       0.463
       0.450
       0.424
       0.381
       0.312
       0.217
       0.111
       0.015
      -0.049
      -0.067
      -0.032
       0.046
       0.143
       0.225
       0.270
       0.275
       0.251
       0.213
       0.171
       0.140
       0.141
       0.191
       0.286
       0.394
       0.474
       0.506
       0.504
       0.503
       0.525
       0.558
       0.568
       0.535
       0.470
       0.404
       0.365
       0.351
       0.342
       0.317
       0.269
       0.205
       0.140
       0.083
       0.042
       0.014
      -0.007
      -0.030
      -0.058
      -0.083
      -0.097
      -0.095
      -0.075
      -0.038
       0.017
       0.086
       0.149
       0.178
       0.153
       0.088
       0.022
      -0.011
      -0.002
       0.028
       0.062
       0.098
       0.145
       0.197
       0.219
       0.172
       0.050
      -0.105
      -0.220
      -0.238
      -0.156
      -0.019
       0.111
       0.195
       0.229
       0.234
       0.231
       0.228
       0.224
       0.222
       0.231
       0.260
       0.317
       0.398
       0.494
       0.589
       0.662
       0.693
       0.662
       0.566
       0.419
       0.259
       0.130
       0.060
       0.052
       0.088
       0.141
       0.184
       0.197
       0.171
       0.110
       0.030
      -0.043
      -0.086
      -0.087
      -0.044
       0.036
       0.141
       0.245
       0.324
       0.361
       0.359
       0.334
       0.302
       0.269
       0.229
       0.179
       0.129
       0.099
       0.107
       0.153
       0.219
       0.277
       0.314
       0.330
       0.336
       0.335
       0.322
       0.290
       0.239
       0.181
       0.128
       0.085
       0.045
      -0.001
      -0.051
      -0.088
      -0.090
      -0.045
       0.034
       0.124
       0.197
       0.238
       0.248
       0.248
       0.264
       0.306
       0.359
       0.388
       0.369
       0.306
       0.228
       0.161
       0.112
       0.067
       0.015
      -0.047
      -0.109
      -0.161
      -0.201
      -0.222
      -0.215
      -0.170
      -0.090
       0.005
       0.096
       0.175
       0.253
