Origin Time       22/02/2010 17:23:43
Lat.              30.0 N	
Long.             80.1 E	
Depth (Km)          2.0
Magnitude         4.7
 Region           BAGESHWER-UTTARAKHAND                                            
 Above details taken from IMD 
   
Station Code      DHA
Station Lat.       29.847
Station Long.      80.546
Station Height(m)  909.0
Site Class        A   Vs30 between 700 m/sec to 1400 m/sec * 
Record Time       22.02.2010 17:23:46.019
Sampling Rate     200. Hz
 Record Duration   67.480 Sec.
 Direction         Vert. (Up positive)
Max. Acceleration      7.827 cm/sec**2
     
  * For reference see Site Classification link of website 
     
 Base Line Corrected and Low Pass Filtered (Cut Off at 35 Hz) Time History
 Acceleration data in cm/sec**2
    
[...]
       1.210
       0.716
       0.315
      -0.031
      -0.377
      -0.654
      -0.718
      -0.550
      -0.330
      -0.252
      -0.272
      -0.154
       0.205
       0.549
       0.475
      -0.118
      -0.851
      -1.205
      -1.001
      -0.503
      -0.047
       0.315
       0.754
       1.303
       1.695
       1.590
       0.917
      -0.068
      -1.014
      -1.679
      -1.918
      -1.619
      -0.816
       0.165
       0.835
       0.934
       0.667
       0.482
       0.596
       0.800
       0.730
       0.281
      -0.306
      -0.718
      -0.845
      -0.749
      -0.475
      -0.031
       0.440
       0.615
       0.262
      -0.447
      -1.013
      -1.079
      -0.758
      -0.426
      -0.245
      -0.009
       0.504
       1.159
       1.547
       1.433
       0.996
       0.601
       0.421
       0.378
       0.379
       0.452
       0.583
       0.524
      -0.047
      -1.140
      -2.278
      -2.833
      -2.544
      -1.710
      -0.880
      -0.401
      -0.242
      -0.154
       0.090
       0.595
       1.329
       2.119
       2.684
       2.778
       2.355
       1.591
       0.747
       0.007
      -0.579
      -1.057
      -1.497
      -1.896
      -2.130
      -2.019
      -1.520
      -0.861
      -0.447
      -0.522
      -0.922
      -1.196
      -0.993
      -0.345
       0.443
       1.123
       1.686
       2.238
       2.746
       2.988
       2.735
       1.967
       0.894
      -0.184
      -1.017
      -1.455
      -1.479
      -1.252
      -1.082
      -1.214
      -1.585
      -1.827
      -1.560
      -0.729
       0.338
       1.188
       1.549
       1.421
       0.975
       0.435
       0.032
      -0.060
       0.159
       0.473
       0.620
       0.532
       0.385
       0.349
       0.323
      -0.007
      -0.817
      -1.855
      -2.560
      -2.484
      -1.627
      -0.420
       0.599
       1.122
       1.199
       1.104
       1.084
       1.173
       1.208
       1.019
       0.593
       0.067
      -0.429
      -0.873
      -1.268
      -1.509
      -1.406
      -0.891
      -0.212
       0.204
       0.145
      -0.107
       0.003
       0.748
       1.768
       2.345
       2.034
       1.056
       0.081
      -0.358
      -0.277
      -0.116
      -0.282
      -0.822
      -1.481
      -1.968
      -2.125
      -1.918
      -1.414
      -0.801
      -0.345
      -0.201
      -0.212
       0.017
       0.769
       1.866
       2.724
       2.813
       2.103
       1.076
       0.310
       0.057
       0.139
       0.193
      -0.023
      -0.459
      -0.845
      -0.890
      -0.524
       0.014
       0.317
       0.137
      -0.375
      -0.782
      -0.755
      -0.375
      -0.019
       0.059
      -0.020
       0.074
       0.476
       0.956
       1.164
       0.985
       0.608
       0.235
      -0.167
      -0.766
      -1.534
      -2.132
      -2.180
      -1.609
      -0.707
       0.142
       0.717
       0.960
       0.879
       0.551
       0.209
       0.155
       0.484
       0.911
       0.994
       0.578
      -0.030
      -0.362
      -0.260
       0.002
       0.021
      -0.339
      -0.854
      -1.179
      -1.128
      -0.762
      -0.263
       0.222
       0.621
       0.882
       0.921
       0.664
       0.147
      -0.428
      -0.782
      -0.736
      -0.345
       0.135
       0.431
       0.416
       0.166
      -0.126
      -0.269
      -0.184
       0.054
       0.268
       0.335
       0.317
       0.419
       0.765
       1.218
       1.461
       1.252
       0.611
      -0.252
      -1.090
      -1.684
      -1.836
      -1.455
      -0.703
       0.012
       0.316
       0.172
      -0.114
      -0.224
      -0.121
      -0.003
      -0.024
      -0.121
      -0.134
      -0.010
       0.163
       0.298
       0.399
       0.491
       0.520
       0.423
       0.296
       0.384
       0.806
       1.290
       1.319
       0.624
      -0.466
      -1.269
      -1.347
      -0.872
      -0.384
      -0.258
      -0.417
      -0.525
      -0.347
       0.078
       0.544
       0.854
       0.870
       0.531
      -0.083
      -0.687
      -0.925
      -0.659
      -0.130
       0.233
       0.198
      -0.091
      -0.325
      -0.382
      -0.399
      -0.510
      -0.608
      -0.445
       0.023
       0.517
       0.705
       0.570
       0.406
       0.444
       0.576
       0.522
       0.227
      -0.024
       0.061
       0.416
       0.661
       0.496
       0.004
      -0.480
      -0.716
      -0.728
      -0.666
      -0.607
      -0.540
      -0.477
      -0.475
      -0.496
      -0.350
       0.138
       0.852
       1.355
       1.220
       0.446
      -0.499
      -1.062
      -1.037
      -0.612
      -0.063
       0.483
       0.983
       1.302
       1.272
       0.915
       0.481
       0.174
      -0.093
      -0.522
      -1.042
      -1.245
      -0.836
      -0.080
       0.376
       0.187
      -0.310
      -0.468
      -0.060
       0.483
       0.585
       0.160
      -0.338
      -0.453
      -0.170
       0.184
       0.353
       0.328
       0.170
      -0.164
      -0.677
      -1.120
      -1.087
      -0.450
       0.395
       0.821
       0.552
      -0.097
      -0.585
      -0.643
      -0.389
      -0.013
       0.448
       0.975
       1.358
       1.298
       0.767
       0.133
      -0.184
      -0.166
      -0.201
      -0.577
      -1.081
      -1.199
      -0.713
       0.014
       0.402
       0.246
      -0.130
      -0.288
      -0.113
       0.195
       0.469
       0.754
       1.122
       1.430
       1.403
       0.942
       0.254
      -0.354
      -0.756
      -1.019
      -1.211
      -1.279
      -1.168
      -0.948
      -0.733
      -0.487
      -0.034
       0.655
       1.244
       1.251
       0.553
      -0.391
      -0.896
      -0.662
       0.008
       0.573
       0.781
       0.767
       0.708
       0.542
       0.124
      -0.463
      -0.909
      -1.015
      -0.914
      -0.854
      -0.820
      -0.497
       0.325
       1.396
       2.150
       2.195
       1.617
       0.785
      -0.036
      -0.795
      -1.458
      -1.838
      -1.736
      -1.188
      -0.478
       0.115
       0.542
       0.903
       1.198
       1.252
       0.940
       0.420
       0.041
       0.008
       0.178
       0.231
      -0.002
      -0.418
      -0.812
      -1.072
      -1.187
      -1.145
      -0.929
      -0.603
      -0.328
      -0.204
      -0.109
       0.213
       0.852
       1.548
       1.856
       1.524
       0.696
      -0.230
      -0.931
      -1.334
      -1.488
      -1.381
      -0.952
      -0.264
       0.448
       0.946
       1.182
       1.252
       1.194
       0.921
       0.374
      -0.275
      -0.670
      -0.565
      -0.059
       0.481
       0.752
       0.728
       0.567
       0.372
       0.112
      -0.247
      -0.607
      -0.796
      -0.770
      -0.685
      -0.719
      -0.831
      -0.763
      -0.331
       0.297
       0.709
       0.655
       0.322
       0.162
       0.429
       0.906
       1.114
       0.789
       0.143
      -0.382
      -0.575
      -0.627
      -0.844
      -1.239
      -1.492
      -1.314
      -0.788
      -0.289
      -0.076
      -0.042
       0.082
       0.351
       0.515
       0.347
      -0.020
      -0.168
       0.179
       0.833
       1.300
       1.228
       0.707
       0.138
      -0.131
      -0.044
       0.229
       0.484
       0.592
       0.505
       0.240
      -0.115
      -0.447
      -0.702
      -0.880
      -0.924
      -0.674
      -0.001
       0.955
       1.744
       1.879
       1.220
       0.105
      -0.907
      -1.445
      -1.518
      -1.373
      -1.223
      -1.103
      -0.943
      -0.694
      -0.363
       0.026
       0.449
       0.815
       0.927
       0.589
      -0.191
      -1.089
      -1.617
      -1.469
      -0.769
       0.021
       0.488
       0.586
       0.591
       0.760
       1.091
       1.379
       1.444
       1.219
       0.682
      -0.159
      -1.139
      -1.861
      -1.903
      -1.191
      -0.137
       0.652
       0.884
       0.785
       0.810
       1.116
       1.366
       1.047
      -0.004
      -1.381
      -2.391
      -2.540
      -1.818
      -0.604
       0.632
       1.569
       2.097
       2.263
       2.196
       2.025
       1.811
       1.548
       1.207
       0.780
       0.241
      -0.484
      -1.447
      -2.519
      -3.339
      -3.499
      -2.867
      -1.731
      -0.589
       0.196
       0.525
       0.444
       0.053
      -0.393
      -0.416
       0.395
       1.919
       3.382
       3.901
       3.215
       1.897
       0.809
       0.359
       0.281
       0.083
      -0.424
      -1.061
      -1.604
      -2.016
      -2.361
      -2.598
      -2.540
      -2.007
      -0.981
       0.363
       1.726
       2.752
       3.075
       2.444
       0.958
      -0.801
      -2.003
      -2.112
      -1.267
      -0.106
       0.775
       1.188
       1.258
       1.105
       0.750
       0.264
      -0.134
      -0.272
      -0.291
      -0.569
      -1.287
      -2.098
      -2.345
      -1.657
      -0.320
       0.965
       1.658
       1.716
       1.443
       1.119
       0.802
       0.415
      -0.103
      -0.745
      -1.456
      -2.089
      -2.371
      -2.016
      -0.965
       0.431
       1.514
       1.678
       0.820
      -0.495
      -1.377
      -1.258
      -0.303
       0.809
       1.489
       1.633
       1.530
       1.519
       1.737
       2.090
       2.305
       2.054
       1.150
      -0.219
      -1.502
      -2.143
      -2.045
      -1.665
      -1.605
      -2.070
      -2.693
      -2.855
      -2.164
      -0.717
       0.994
       2.376
       3.020
       2.854
       2.116
       1.222
       0.562
       0.322
       0.410
       0.550
       0.482
       0.114
      -0.474
      -1.122
      -1.652
      -1.833
      -1.435
      -0.465
       0.598
       0.964
       0.142
      -1.526
      -3.030
      -3.480
      -2.764
      -1.457
      -0.163
       0.974
       2.125
       3.301
       4.140
       4.172
       3.236
       1.632
      -0.099
      -1.475
      -2.221
      -2.264
      -1.732
      -0.987
      -0.505
      -0.562
      -0.997
      -1.329
      -1.194
      -0.642
      -0.019
       0.399
       0.595
       0.684
       0.709
       0.644
       0.559
       0.647
       1.028
       1.577
       2.018
       2.159
       1.971
       1.458
       0.587
      -0.590
      -1.807
      -2.685
      -2.992
      -2.734
      -1.985
      -0.740
       0.963
       2.799
       4.192
       4.669
       4.135
       2.799
       0.939
      -1.164
      -3.129
      -4.492
      -4.920
      -4.426
      -3.337
      -2.051
      -0.818
       0.288
       1.241
       1.971
       2.376
       2.398
       2.086
       1.587
       1.069
       0.584
       0.029
      -0.738
      -1.719
      -2.735
      -3.548
      -3.993
      -3.987
      -3.493
      -2.528
      -1.222
       0.180
       1.409
       2.289
       2.814
       3.136
       3.491
       4.026
       4.592
       4.736
       3.999
       2.356
       0.335
      -1.348
      -2.308
      -2.648
      -2.650
      -2.388
      -1.737
      -0.730
       0.212
       0.531
       0.054
      -0.791
      -1.312
      -1.123
      -0.399
       0.399
       0.983
       1.402
       1.844
       2.359
       2.844
       3.186
       3.285
       2.933
       1.852
       0.034
      -1.979
      -3.343
      -3.593
      -3.043
      -2.437
      -2.198
      -2.113
      -1.753
      -1.056
      -0.367
       0.046
       0.346
       0.935
       1.969
       3.118
       3.812
       3.662
       2.678
       1.136
      -0.652
      -2.440
      -4.000
      -5.056
      -5.354
      -4.815
      -3.645
      -2.292
      -1.260
      -0.875
      -1.106
      -1.522
      -1.488
      -0.560
       1.137
       2.902
       3.909
       3.817
       3.023
       2.309
       2.192
       2.533
       2.776
       2.517
       1.834
       1.057
       0.365
      -0.314
      -0.993
      -1.384
      -1.097
      -0.105
       1.052
       1.598
       1.137
      -0.043
      -1.236
      -1.872
      -1.833
      -1.338
      -0.650
       0.049
       0.600
       0.840
       0.711
       0.367
       0.043
      -0.232
      -0.702
      -1.581
      -2.659
      -3.332
      -3.105
      -2.070
      -0.824
       0.122
       0.803
       1.634
       2.826
       4.028
       4.567
       3.987
       2.353
       0.142
      -2.038
      -3.655
      -4.373
      -4.157
      -3.329
      -2.416
      -1.784
      -1.335
      -0.608
       0.721
       2.420
       3.829
       4.414
       4.153
       3.374
       2.335
       1.090
      -0.248
      -1.299
      -1.664
      -1.401
      -1.164
      -1.704
      -3.166
      -4.914
      -6.086
      -6.309
      -5.842
      -5.081
      -4.065
      -2.544
      -0.435
       1.939
       4.072
       5.625
       6.523
       6.825
       6.639
       6.150
       5.575
       4.966
       4.110
       2.758
       0.987
      -0.743
      -1.948
      -2.525
      -2.767
      -3.004
      -3.297
      -3.475
      -3.386
      -2.993
      -2.236
      -0.901
       1.213
       3.920
       6.468
       7.827
       7.314
       5.088
       2.117
      -0.402
      -1.765
      -2.084
      -2.026
      -2.214
      -2.782
      -3.373
      -3.544
      -3.201
      -2.703
      -2.524
      -2.774
      -3.051
      -2.781
      -1.745
      -0.295
       0.948
       1.586
       1.631
       1.290
       0.670
      -0.208
      -1.189
      -1.908
      -2.044
      -1.627
      -1.026
      -0.591
      -0.348
      -0.064
       0.430
       1.022
       1.421
       1.439
       1.148
       0.825
       0.762
       1.111
       1.834
       2.744
       3.570
       4.069
       4.131
       3.787
       3.114
       2.115
       0.734
      -1.004
      -2.837
      -4.304
      -5.022
      -4.995
      -4.623
      -4.303
      -3.998
      -3.241
      -1.627
       0.687
       3.012
       4.656
       5.399
       5.441
       4.982
       3.980
       2.356
       0.283
      -1.856
      -3.738
      -5.222
      -6.179
      -6.372
      -5.611
      -4.013
      -2.009
      -0.046
       1.734
       3.484
       5.286
       6.845
       7.630
       7.316
       6.029
       4.131
       1.921
      -0.372
      -2.389
      -3.665
      -3.993
      -3.698
      -3.385
      -3.359
      -3.372
      -2.995
      -2.166
      -1.247
      -0.550
       0.031
       0.791
       1.696
       2.274
       2.129
       1.488
       1.046
       1.205
       1.583
       1.402
       0.337
      -1.151
      -2.367
      -3.108
      -3.712
      -4.420
      -4.917
      -4.679
      -3.686
      -2.583
      -2.025
      -1.945
      -1.614
      -0.411
       1.566
       3.674
       5.367
       6.505
       7.097
       6.984
       5.989
       4.321
       2.610
       1.401
       0.690
       0.080
      -0.654
      -1.295
      -1.524
      -1.365
      -1.153
      -1.107
      -1.098
      -0.916
      -0.657
      -0.670
      -1.121
      -1.716
      -1.960
      -1.657
      -1.070
      -0.599
      -0.357
      -0.122
       0.355
       1.061
       1.744
       2.157
       2.231
       2.009
       1.508
       0.690
      -0.405
      -1.585
      -2.592
      -3.250
      -3.506
      -3.351
      -2.808
      -2.019
      -1.260
      -0.776
      -0.568
      -0.427
      -0.181
       0.126
       0.320
       0.338
       0.293
       0.324
       0.445
       0.607
       0.837
       1.228
       1.760
       2.220
       2.388
       2.294
       2.228
       2.437
       2.805
       2.881
       2.281
       1.067
      -0.268
      -1.216
      -1.641
      -1.787
      -1.956
      -2.181
      -2.204
      -1.750
      -0.813
       0.301
       1.190
       1.599
       1.497
       1.001
       0.301
      -0.367
      -0.766
      -0.786
      -0.550
      -0.356
      -0.463
      -0.908
      -1.521
      -2.102
      -2.558
      -2.852
      -2.861
      -2.354
      -1.210
       0.346
       1.778
       2.597
       2.699
       2.361
       1.907
       1.447
       0.928
       0.342
      -0.203
      -0.612
      -0.915
      -1.174
      -1.282
      -0.980
      -0.139
       0.961
       1.750
       1.823
       1.278
       0.579
       0.098
      -0.163
      -0.421
      -0.756
      -0.984
      -0.874
      -0.414
       0.185
       0.716
       1.142
       1.503
       1.750
       1.721
       1.302
       0.560
      -0.294
      -1.023
      -1.437
      -1.416
      -0.966
      -0.292
       0.256
       0.410
       0.177
      -0.206
      -0.522
      -0.744
      -0.948
      -1.132
      -1.171
      -0.965
      -0.559
      -0.092
       0.339
       0.728
       1.055
       1.203
       1.019
       0.486
      -0.195
      -0.754
      -1.072
      -1.252
      -1.411
      -1.448
      -1.079
      -0.171
       0.992
       1.861
       2.093
       1.849
       1.566
       1.460
       1.335
       0.901
       0.203
      -0.369
      -0.495
      -0.265
      -0.060
      -0.122
      -0.327
      -0.404
      -0.309
      -0.294
      -0.578
      -1.038
      -1.270
      -0.972
      -0.241
       0.500
       0.844
       0.685
       0.237
      -0.160
      -0.260
      -0.037
       0.292
       0.369
      -0.077
      -0.980
      -1.907
      -2.348
      -2.099
      -1.398
      -0.689
      -0.263
      -0.111
      -0.065
      -0.024
       0.007
       0.049
       0.217
       0.597
       1.064
       1.334
       1.235
       0.939
       0.830
       1.129
       1.649
       1.946
       1.724
       1.059
       0.272
      -0.360
      -0.728
      -0.826
      -0.685
      -0.400
      -0.161
      -0.160
      -0.439
      -0.821
      -1.034
      -0.906
      -0.484
       0.038
       0.463
       0.706
       0.792
       0.810
       0.833
       0.849
       0.734
       0.351
      -0.263
      -0.829
      -0.999
      -0.705
      -0.291
      -0.242
      -0.696
      -1.255
      -1.339
      -0.754
       0.124
       0.709
       0.742
       0.439
       0.169
       0.051
      -0.077
      -0.353
      -0.623
      -0.568
      -0.069
       0.578
       0.878
       0.563
      -0.183
      -0.904
      -1.245
      -1.153
      -0.790
      -0.341
       0.084
       0.407
       0.553
       0.490
       0.300
       0.141
       0.129
       0.236
       0.329
       0.316
       0.244
       0.254
       0.449
       0.780
       1.057
       1.044
       0.592
      -0.235
      -1.134
      -1.703
      -1.704
      -1.238
      -0.681
      -0.384
      -0.410
      -0.533
      -0.483
      -0.211
       0.111
       0.323
       0.490
       0.824
       1.401
       1.991
       2.228
       1.945
       1.308
       0.629
       0.077
      -0.378
      -0.781
      -1.031
      -0.957
      -0.553
