Origin Time       31/1/2009 03:07:15 
Lat.              32.5 N 
Long.             75.9 E 
Depth (Km)         10.0
Magnitude         3.7
 Region           HIMACHAL-PRADESH                                                 
 Above details taken from IMD 
   
Station Code      DHA
Station Lat.       32.207
Station Long.      76.324
Station Height(m) 1256.0
Site Class        B   Vs30 between 375 m/sec to 700 m/sec *  
Record Time       31.01.2009 03:07:07.519
Sampling Rate     200. Hz
 Record Duration   70.230 Sec.
 Direction         Vert. (Up positive)
Max. Acceleration     -8.022 cm/sec**2
     
  * For reference see Site Classification link of website 
     
 Base Line Corrected and Low Pass Filtered (Cut Off at 35 Hz) Time History
 Acceleration data in cm/sec**2
    
[...]
       0.006
       0.000
      -0.005
      -0.007
      -0.006
      -0.005
      -0.005
      -0.005
      -0.003
       0.001
       0.004
       0.002
      -0.006
      -0.014
      -0.014
      -0.007
       0.003
       0.009
       0.008
       0.003
      -0.005
      -0.012
      -0.019
      -0.021
      -0.016
      -0.004
       0.008
       0.011
       0.004
      -0.009
      -0.020
      -0.023
      -0.019
      -0.012
      -0.005
       0.000
       0.002
       0.002
      -0.004
      -0.012
      -0.017
      -0.014
      -0.006
       0.002
       0.003
      -0.001
      -0.004
      -0.002
       0.003
       0.005
       0.001
      -0.007
      -0.014
      -0.014
      -0.008
       0.000
       0.007
       0.007
      -0.001
      -0.010
      -0.016
      -0.014
      -0.006
       0.003
       0.006
       0.003
      -0.003
      -0.003
       0.004
       0.010
       0.010
       0.003
      -0.006
      -0.010
      -0.009
      -0.005
      -0.002
      -0.004
      -0.009
      -0.012
      -0.010
      -0.001
       0.010
       0.020
       0.021
       0.012
      -0.002
      -0.011
      -0.010
      -0.001
       0.009
       0.014
       0.017
       0.018
       0.016
       0.011
       0.004
      -0.002
      -0.002
       0.004
       0.011
       0.014
       0.010
       0.004
       0.001
       0.003
       0.006
       0.009
       0.010
       0.010
       0.012
       0.015
       0.017
       0.016
       0.011
       0.005
       0.004
       0.008
       0.015
       0.017
       0.013
       0.003
      -0.006
      -0.010
      -0.008
      -0.005
      -0.003
      -0.001
       0.002
       0.004
       0.005
       0.001
      -0.005
      -0.010
      -0.013
      -0.012
      -0.008
      -0.002
       0.004
       0.008
       0.011
       0.010
       0.004
      -0.003
      -0.008
      -0.007
      -0.004
      -0.002
      -0.003
      -0.005
      -0.006
      -0.008
      -0.009
      -0.009
      -0.007
      -0.005
      -0.003
       0.001
       0.005
       0.005
      -0.003
      -0.015
      -0.026
      -0.028
      -0.020
      -0.008
      -0.002
      -0.001
      -0.003
      -0.004
      -0.005
      -0.007
      -0.008
      -0.004
       0.000
       0.000
      -0.003
      -0.003
       0.001
       0.005
       0.000
      -0.013
      -0.024
      -0.023
      -0.009
       0.007
       0.015
       0.009
      -0.002
      -0.011
      -0.017
      -0.018
      -0.016
      -0.015
      -0.016
      -0.018
      -0.018
      -0.014
      -0.009
      -0.004
      -0.003
      -0.005
      -0.008
      -0.010
      -0.010
      -0.009
      -0.007
      -0.007
      -0.008
      -0.010
      -0.013
      -0.017
      -0.017
      -0.012
      -0.006
      -0.002
      -0.003
      -0.007
      -0.010
      -0.010
      -0.010
      -0.008
      -0.007
      -0.004
       0.000
       0.004
       0.003
      -0.003
      -0.012
      -0.019
      -0.022
      -0.022
      -0.018
      -0.012
      -0.003
       0.005
       0.010
       0.008
       0.000
      -0.011
      -0.018
      -0.018
      -0.012
      -0.004
       0.004
       0.010
       0.012
       0.009
       0.004
      -0.002
      -0.005
      -0.007
      -0.013
      -0.020
      -0.026
      -0.025
      -0.018
      -0.008
       0.000
       0.006
       0.010
       0.013
       0.011
       0.005
      -0.004
      -0.009
      -0.007
       0.003
       0.015
       0.022
       0.023
       0.017
       0.010
       0.003
      -0.003
      -0.007
      -0.010
      -0.009
      -0.006
      -0.003
      -0.002
      -0.004
      -0.005
      -0.003
       0.002
       0.005
       0.006
       0.002
      -0.002
      -0.006
      -0.009
      -0.014
      -0.018
      -0.018
      -0.011
      -0.002
       0.001
      -0.001
      -0.003
       0.003
       0.014
       0.021
       0.013
      -0.010
      -0.033
      -0.044
      -0.036
      -0.016
       0.003
       0.015
       0.017
       0.011
       0.002
      -0.006
      -0.009
      -0.008
      -0.008
      -0.010
      -0.011
      -0.008
      -0.002
       0.001
       0.000
      -0.003
      -0.007
      -0.008
      -0.007
      -0.004
       0.002
       0.009
       0.010
       0.004
      -0.008
      -0.017
      -0.018
      -0.015
      -0.011
      -0.007
      -0.001
       0.010
       0.021
       0.025
       0.017
       0.003
      -0.009
      -0.013
      -0.007
       0.001
       0.005
       0.004
       0.002
       0.000
      -0.002
      -0.003
      -0.002
       0.000
       0.000
      -0.003
      -0.008
      -0.011
      -0.012
      -0.011
      -0.010
      -0.007
      -0.003
       0.003
       0.007
       0.006
       0.002
      -0.001
      -0.003
      -0.002
      -0.003
      -0.006
      -0.006
      -0.003
       0.002
       0.007
       0.008
       0.004
      -0.004
      -0.011
      -0.014
      -0.014
      -0.011
      -0.007
      -0.004
      -0.007
      -0.015
      -0.025
      -0.030
      -0.028
      -0.020
      -0.010
      -0.004
      -0.003
      -0.006
      -0.008
      -0.006
       0.001
       0.008
       0.010
       0.004
      -0.004
      -0.007
      -0.001
       0.005
       0.005
      -0.004
      -0.014
      -0.017
      -0.012
      -0.005
       0.001
       0.001
      -0.002
      -0.005
      -0.004
      -0.002
       0.002
       0.001
      -0.006
      -0.016
      -0.021
      -0.021
      -0.018
      -0.015
      -0.011
      -0.004
       0.005
       0.012
       0.010
      -0.003
      -0.020
      -0.031
      -0.032
      -0.023
      -0.011
      -0.001
       0.006
       0.011
       0.013
       0.009
       0.000
      -0.007
      -0.008
      -0.002
       0.004
       0.006
       0.004
       0.000
      -0.003
      -0.007
      -0.010
      -0.013
      -0.016
      -0.018
      -0.020
      -0.020
      -0.018
      -0.013
      -0.005
       0.000
       0.001
      -0.002
      -0.004
      -0.005
      -0.003
       0.000
       0.001
      -0.001
      -0.003
      -0.006
      -0.010
      -0.012
      -0.009
      -0.004
      -0.004
      -0.011
      -0.019
      -0.019
      -0.008
       0.006
       0.014
       0.013
       0.008
       0.002
      -0.004
      -0.013
      -0.026
      -0.035
      -0.030
      -0.011
       0.010
       0.021
       0.017
       0.008
       0.003
       0.003
       0.003
      -0.002
      -0.010
      -0.015
      -0.014
      -0.010
      -0.008
      -0.007
      -0.003
       0.003
       0.007
       0.007
       0.005
       0.003
       0.002
      -0.001
      -0.005
      -0.006
      -0.003
       0.002
       0.004
       0.000
      -0.008
      -0.014
      -0.016
      -0.015
      -0.016
      -0.019
      -0.018
      -0.011
      -0.001
       0.007
       0.011
       0.012
       0.015
       0.016
       0.012
       0.003
      -0.001
       0.005
       0.020
       0.030
       0.024
       0.005
      -0.010
      -0.011
       0.000
       0.009
       0.003
      -0.011
      -0.021
      -0.019
      -0.011
      -0.003
       0.000
      -0.001
      -0.004
      -0.009
      -0.015
      -0.020
      -0.020
      -0.013
       0.000
       0.011
       0.013
       0.006
      -0.003
      -0.006
       0.000
       0.007
       0.005
      -0.006
      -0.021
      -0.029
      -0.026
      -0.015
      -0.001
       0.010
       0.015
       0.016
       0.012
       0.006
       0.002
       0.001
       0.000
       0.001
       0.003
       0.008
       0.010
       0.007
      -0.002
      -0.010
      -0.012
      -0.008
      -0.007
      -0.012
      -0.014
      -0.007
       0.005
       0.012
       0.008
      -0.003
      -0.009
      -0.004
       0.005
       0.006
      -0.002
      -0.014
      -0.018
      -0.012
      -0.003
       0.001
      -0.004
      -0.012
      -0.019
      -0.025
      -0.026
      -0.020
      -0.005
       0.009
       0.017
       0.018
       0.018
       0.018
       0.015
       0.003
      -0.014
      -0.027
      -0.028
      -0.020
      -0.010
      -0.004
      -0.004
      -0.006
      -0.005
      -0.003
      -0.004
      -0.007
      -0.006
       0.001
       0.010
       0.012
       0.007
       0.001
       0.000
       0.002
       0.001
      -0.008
      -0.018
      -0.021
      -0.013
       0.000
       0.009
       0.006
      -0.002
      -0.010
      -0.014
      -0.013
      -0.009
      -0.005
      -0.002
      -0.006
      -0.017
      -0.028
      -0.030
      -0.016
       0.006
       0.023
       0.026
       0.017
       0.001
      -0.014
      -0.023
      -0.023
      -0.013
      -0.001
       0.006
       0.004
       0.000
       0.001
       0.008
       0.016
       0.019
       0.016
       0.011
       0.009
       0.011
       0.009
      -0.003
      -0.018
      -0.024
      -0.014
       0.006
       0.021
       0.018
       0.002
      -0.013
      -0.016
      -0.008
       0.004
       0.016
       0.023
       0.024
       0.017
       0.003
      -0.010
      -0.014
      -0.006
       0.007
       0.017
       0.022
       0.020
       0.014
       0.005
      -0.007
      -0.019
      -0.028
      -0.029
      -0.022
      -0.006
       0.014
       0.031
       0.035
       0.023
       0.003
      -0.013
      -0.014
       0.000
       0.014
       0.015
       0.000
      -0.017
      -0.024
      -0.014
       0.005
       0.021
       0.026
       0.018
       0.003
      -0.013
      -0.022
      -0.023
      -0.018
      -0.012
      -0.009
      -0.008
      -0.010
      -0.012
      -0.014
      -0.014
      -0.012
      -0.009
      -0.005
      -0.001
       0.006
       0.013
       0.018
       0.016
       0.004
      -0.017
      -0.036
      -0.041
      -0.028
      -0.005
       0.011
       0.013
       0.004
      -0.005
      -0.007
      -0.003
       0.002
       0.006
       0.006
       0.003
       0.002
       0.004
       0.007
       0.008
       0.011
       0.016
       0.020
       0.020
       0.013
      -0.001
      -0.016
      -0.026
      -0.033
      -0.036
      -0.036
      -0.032
      -0.021
      -0.004
       0.011
       0.013
      -0.001
      -0.021
      -0.031
      -0.026
      -0.009
       0.006
       0.011
       0.008
       0.014
       0.047
       0.104
       0.159
       0.174
       0.136
       0.069
       0.023
       0.034
       0.100
       0.184
       0.228
       0.178
       0.014
      -0.229
      -0.475
      -0.630
      -0.632
      -0.481
      -0.229
       0.040
       0.253
       0.375
       0.413
       0.393
       0.324
       0.178
      -0.074
      -0.411
      -0.735
      -0.902
      -0.808
      -0.450
       0.064
       0.572
       0.932
       1.078
       1.023
       0.825
       0.546
       0.224
      -0.113
      -0.422
      -0.641
      -0.721
      -0.656
      -0.487
      -0.275
      -0.082
       0.042
       0.075
       0.049
       0.040
       0.113
       0.251
       0.356
       0.321
       0.121
      -0.163
      -0.395
      -0.463
      -0.327
      -0.035
       0.305
       0.563
       0.642
       0.519
       0.251
      -0.058
      -0.314
      -0.484
      -0.591
      -0.667
      -0.709
      -0.654
      -0.423
      -0.002
       0.496
       0.856
       0.872
       0.485
      -0.152
      -0.722
      -0.877
      -0.414
       0.583
       1.709
       2.377
       2.106
       0.822
      -1.027
      -2.646
      -3.281
      -2.609
      -0.917
       1.029
       2.362
       2.548
       1.622
       0.130
      -1.192
      -1.809
      -1.620
      -0.938
      -0.238
       0.143
       0.189
       0.157
       0.331
       0.765
       1.207
       1.263
       0.694
      -0.363
      -1.422
      -1.896
      -1.442
      -0.181
       1.333
       2.377
       2.425
       1.424
      -0.175
      -1.639
      -2.328
      -2.020
      -1.002
       0.122
       0.791
       0.783
       0.282
      -0.292
      -0.544
      -0.322
       0.236
       0.794
       1.020
       0.772
       0.179
      -0.427
      -0.705
      -0.502
       0.049
       0.588
       0.737
       0.338
      -0.429
      -1.135
      -1.354
      -0.922
      -0.030
       0.889
       1.402
       1.307
       0.706
      -0.084
      -0.706
      -0.948
      -0.821
      -0.524
      -0.300
      -0.258
      -0.295
      -0.192
       0.167
       0.614
       0.751
       0.227
      -0.929
      -2.187
      -2.739
      -1.963
       0.149
       2.883
       5.096
       5.773
       4.541
       1.866
      -1.173
      -3.380
      -3.997
      -3.042
      -1.298
       0.100
       0.304
      -0.726
      -2.153
      -2.758
      -1.722
       0.805
       3.741
       5.687
       5.699
       3.733
       0.590
      -2.531
      -4.577
      -5.045
      -4.115
      -2.498
      -1.079
      -0.487
      -0.776
      -1.410
      -1.587
      -0.751
       1.025
       3.031
       4.327
       4.278
       2.903
       0.838
      -0.995
      -1.808
      -1.278
       0.319
       2.217
       3.487
       3.458
       2.027
      -0.285
      -2.556
      -3.839
      -3.536
      -1.646
       1.192
       3.896
       5.343
       4.834
       2.409
      -1.164
      -4.729
      -7.218
      -8.022
      -7.088
      -4.822
      -1.925
       0.785
       2.633
       3.351
       3.185
       2.693
       2.365
       2.357
       2.505
       2.552
       2.344
       1.857
       1.102
       0.076
      -1.174
      -2.445
      -3.376
      -3.597
      -2.944
      -1.586
       0.036
       1.402
       2.145
       2.200
       1.806
       1.319
       0.950
       0.600
      -0.021
      -1.075
      -2.327
      -3.198
      -3.141
      -2.048
      -0.360
       1.212
       2.112
       2.191
       1.644
       0.794
      -0.058
      -0.660
      -0.847
      -0.615
      -0.148
       0.282
       0.499
       0.488
       0.291
      -0.130
      -0.866
      -1.847
      -2.690
      -2.819
      -1.842
       0.093
       2.276
       3.791
       4.004
       2.894
       1.044
      -0.657
      -1.457
      -1.128
      -0.074
       0.921
       1.175
       0.507
      -0.694
      -1.751
      -2.119
      -1.676
      -0.747
       0.143
       0.582
       0.478
       0.058
      -0.283
      -0.204
       0.399
       1.307
       2.061
       2.198
       1.531
       0.266
      -1.112
      -2.112
      -2.477
      -2.234
      -1.590
      -0.792
      -0.036
       0.581
       1.074
       1.505
       1.877
       2.052
       1.798
       0.943
      -0.438
      -1.946
      -2.971
      -2.987
      -1.849
       0.090
       2.102
       3.379
       3.351
       1.952
      -0.302
      -2.486
      -3.668
      -3.345
      -1.708
       0.461
       2.211
       2.908
       2.507
       1.474
       0.468
      -0.050
      -0.057
       0.083
      -0.057
      -0.613
      -1.307
      -1.661
      -1.389
      -0.670
      -0.039
       0.016
      -0.537
      -1.222
      -1.402
      -0.734
       0.585
       1.950
       2.701
       2.473
       1.338
      -0.264
      -1.716
      -2.491
      -2.365
      -1.482
      -0.236
       0.944
       1.765
       2.107
       1.962
       1.374
       0.456
      -0.568
      -1.377
      -1.672
      -1.328
      -0.486
       0.480
       1.121
       1.141
       0.554
      -0.339
      -1.121
      -1.468
      -1.271
      -0.654
       0.120
       0.769
       1.107
       1.097
       0.816
       0.379
      -0.130
      -0.640
      -1.044
      -1.187
      -0.936
      -0.286
       0.579
       1.331
       1.650
       1.400
       0.712
      -0.095
      -0.681
      -0.853
      -0.649
      -0.284
      -0.009
       0.021
      -0.193
      -0.513
      -0.740
      -0.715
      -0.405
       0.081
       0.564
       0.899
       1.027
       0.971
       0.767
       0.427
      -0.044
      -0.589
      -1.059
      -1.259
      -1.056
      -0.490
       0.211
       0.746
       0.915
       0.722
       0.337
      -0.029
      -0.246
      -0.308
      -0.309
      -0.375
      -0.558
      -0.768
      -0.792
      -0.439
       0.301
       1.182
       1.819
       1.909
       1.408
       0.549
      -0.320
      -0.920
      -1.144
      -1.034
      -0.706
      -0.304
       0.037
       0.218
       0.211
       0.065
      -0.121
      -0.263
      -0.316
      -0.265
      -0.098
       0.181
       0.508
       0.743
       0.715
       0.342
      -0.262
      -0.823
      -1.072
      -0.922
      -0.495
       0.008
       0.443
       0.759
       0.940
       0.951
       0.773
       0.450
       0.090
      -0.200
      -0.371
      -0.448
      -0.487
      -0.520
      -0.542
      -0.519
      -0.406
      -0.159
       0.227
       0.682
       1.061
       1.207
       1.057
       0.691
       0.286
       0.005
      -0.086
      -0.022
       0.114
       0.226
       0.221
       0.040
      -0.307
      -0.741
      -1.156
      -1.472
      -1.636
      -1.594
      -1.281
      -0.672
       0.126
       0.858
       1.225
       1.062
       0.462
      -0.249
      -0.705
      -0.708
      -0.325
       0.192
       0.575
       0.686
       0.559
       0.348
       0.217
       0.244
       0.370
       0.450
       0.349
       0.043
      -0.350
      -0.641
      -0.680
      -0.440
      -0.034
       0.343
       0.509
       0.390
       0.059
      -0.301
      -0.488
      -0.380
      -0.010
       0.458
       0.820
       0.935
       0.773
       0.396
      -0.080
      -0.519
      -0.781
      -0.773
      -0.507
      -0.126
       0.168
       0.234
       0.068
      -0.217
      -0.491
      -0.678
      -0.765
      -0.757
      -0.650
      -0.431
      -0.099
       0.312
       0.731
       1.051
       1.151
       0.942
       0.436
      -0.213
      -0.743
      -0.903
      -0.598
       0.030
       0.671
       1.017
       0.927
       0.482
      -0.094
      -0.550
      -0.728
      -0.612
      -0.312
       0.018
       0.255
       0.343
       0.284
       0.118
      -0.097
      -0.292
      -0.410
      -0.422
      -0.332
      -0.185
      -0.046
       0.023
      -0.006
      -0.112
      -0.237
      -0.313
      -0.291
      -0.159
       0.059
       0.314
       0.551
       0.708
       0.726
       0.577
       0.292
      -0.032
      -0.278
      -0.352
      -0.224
       0.069
       0.429
       0.724
       0.832
       0.691
       0.350
      -0.050
      -0.357
      -0.498
      -0.503
      -0.446
      -0.376
      -0.288
      -0.160
       0.001
       0.140
       0.178
       0.064
      -0.168
      -0.401
      -0.491
      -0.346
       0.004
       0.410
       0.683
       0.688
       0.411
      -0.054
      -0.563
      -0.969
      -1.166
      -1.103
      -0.807
      -0.370
       0.080
       0.414
       0.545
       0.451
       0.182
      -0.147
      -0.382
      -0.380
      -0.080
       0.447
