Origin Time       22/02/2010 17:23:43 UTC
Lat.              30.0 N	
Long.             80.1 E	
Depth (Km)          2.0
Magnitude         4.7
 Region           BAGESHWER-UTTARAKHAND                                            
 Above details taken from IMD 
    
Station Code      DHA
Station Lat.       29.847  N
Station Long.      80.546  E
Station Height(m)  909.0
Site Class        A   Vs30 between 700 m/sec to 1400 m/sec * 
Record Time       22.02.2010 17:23:46.019 UTC
Sampling Rate     200. Hz
 Record Duration   67.480 Sec.
 Direction         N-S (N positive)
Max. Acceleration     13.931 cm/sec**2
     
  * For reference see Site Classification link of website 
     
 Base Line Corrected and Low Pass Filtered (Cut Off at 35 Hz) Time History
 Acceleration data in cm/sec**2
    
[...]
       0.790
       0.234
      -0.096
      -0.172
      -0.110
      -0.056
      -0.119
      -0.369
      -0.813
      -1.353
      -1.804
      -2.007
      -1.937
      -1.665
      -1.229
      -0.607
       0.152
       0.826
       1.138
       1.015
       0.678
       0.438
       0.431
       0.561
       0.679
       0.737
       0.757
       0.727
       0.605
       0.410
       0.233
       0.093
      -0.129
      -0.570
      -1.171
      -1.655
      -1.741
      -1.367
      -0.701
       0.035
       0.698
       1.210
       1.478
       1.413
       1.037
       0.516
       0.053
      -0.256
      -0.437
      -0.538
      -0.573
      -0.560
      -0.562
      -0.624
      -0.698
      -0.670
      -0.493
      -0.249
      -0.072
      -0.008
       0.016
       0.101
       0.271
       0.465
       0.619
       0.719
       0.771
       0.735
       0.537
       0.141
      -0.369
      -0.816
      -1.020
      -0.905
      -0.540
      -0.104
       0.219
       0.361
       0.400
       0.469
       0.634
       0.842
       1.008
       1.106
       1.168
       1.189
       1.081
       0.747
       0.212
      -0.359
      -0.796
      -1.055
      -1.220
      -1.378
      -1.527
      -1.608
      -1.587
      -1.467
      -1.238
      -0.866
      -0.344
       0.237
       0.741
       1.090
       1.309
       1.457
       1.536
       1.487
       1.266
       0.883
       0.392
      -0.153
      -0.690
      -1.131
      -1.375
      -1.351
      -1.077
      -0.662
      -0.254
       0.023
       0.110
       0.040
      -0.063
      -0.035
       0.229
       0.672
       1.099
       1.321
       1.301
       1.153
       1.001
       0.840
       0.560
       0.089
      -0.493
      -0.981
      -1.197
      -1.130
      -0.933
      -0.780
      -0.721
      -0.658
      -0.456
      -0.070
       0.410
       0.817
       1.004
       0.907
       0.554
       0.057
      -0.424
      -0.751
      -0.861
      -0.768
      -0.519
      -0.178
       0.161
       0.381
       0.412
       0.291
       0.138
       0.050
       0.030
       0.011
      -0.062
      -0.174
      -0.263
      -0.274
      -0.186
      -0.015
       0.185
       0.334
       0.349
       0.189
      -0.099
      -0.396
      -0.573
      -0.578
      -0.453
      -0.265
      -0.028
       0.279
       0.625
       0.873
       0.877
       0.635
       0.324
       0.155
       0.186
       0.287
       0.297
       0.168
      -0.047
      -0.303
      -0.603
      -0.924
      -1.159
      -1.180
      -0.967
      -0.632
      -0.335
      -0.163
      -0.101
      -0.084
      -0.049
       0.046
       0.224
       0.464
       0.692
       0.824
       0.831
       0.738
       0.586
       0.401
       0.209
       0.038
      -0.102
      -0.233
      -0.354
      -0.406
      -0.306
      -0.050
       0.252
       0.445
       0.442
       0.283
       0.088
      -0.029
      -0.028
       0.048
       0.094
       0.007
      -0.238
      -0.544
      -0.744
      -0.723
      -0.489
      -0.137
       0.234
       0.567
       0.818
       0.945
       0.943
       0.864
       0.768
       0.653
       0.470
       0.207
      -0.067
      -0.269
      -0.403
      -0.543
      -0.720
      -0.841
      -0.786
      -0.564
      -0.338
      -0.258
      -0.299
      -0.297
      -0.141
       0.086
       0.190
       0.059
      -0.229
      -0.495
      -0.599
      -0.519
      -0.315
      -0.069
       0.136
       0.221
       0.125
      -0.153
      -0.533
      -0.875
      -1.032
      -0.922
      -0.553
      -0.024
       0.506
       0.888
       1.066
       1.100
       1.098
       1.110
       1.088
       0.950
       0.672
       0.309
      -0.045
      -0.333
      -0.540
      -0.653
      -0.627
      -0.440
      -0.173
      -0.008
      -0.112
      -0.489
      -0.959
      -1.275
      -1.282
      -0.973
      -0.425
       0.265
       0.975
       1.535
       1.758
       1.556
       1.040
       0.472
       0.102
       0.014
       0.115
       0.251
       0.322
       0.305
       0.207
       0.049
      -0.116
      -0.215
      -0.207
      -0.137
      -0.111
      -0.201
      -0.378
      -0.541
      -0.610
      -0.579
      -0.489
      -0.378
      -0.275
      -0.217
      -0.233
      -0.294
      -0.305
      -0.188
       0.038
       0.263
       0.389
       0.414
       0.401
       0.357
       0.195
      -0.163
      -0.634
      -0.966
      -0.938
      -0.566
      -0.096
       0.204
       0.234
       0.066
      -0.186
      -0.439
      -0.623
      -0.650
      -0.473
      -0.145
       0.202
       0.465
       0.644
       0.786
       0.884
       0.870
       0.690
       0.385
       0.049
      -0.258
      -0.534
      -0.765
      -0.906
      -0.924
      -0.845
      -0.711
      -0.483
      -0.062
       0.576
       1.265
       1.717
       1.744
       1.420
       1.015
       0.772
       0.755
       0.879
       1.050
       1.227
       1.375
       1.398
       1.170
       0.640
      -0.110
      -0.926
      -1.660
      -2.210
      -2.508
      -2.522
      -2.290
      -1.921
      -1.530
      -1.150
      -0.740
      -0.286
       0.120
       0.341
       0.352
       0.300
       0.381
       0.655
       1.000
       1.262
       1.403
       1.495
       1.579
       1.561
       1.286
       0.706
      -0.052
      -0.773
      -1.303
      -1.605
      -1.699
      -1.604
      -1.351
      -1.023
      -0.731
      -0.548
      -0.463
      -0.423
      -0.391
      -0.366
      -0.331
      -0.222
       0.024
       0.401
       0.813
       1.143
       1.324
       1.359
       1.277
       1.095
       0.829
       0.519
       0.221
      -0.023
      -0.199
      -0.296
      -0.295
      -0.199
      -0.062
       0.026
       0.008
      -0.093
      -0.199
      -0.254
      -0.260
      -0.246
      -0.204
      -0.085
       0.140
       0.413
       0.611
       0.614
       0.385
      -0.030
      -0.531
      -1.004
      -1.345
      -1.471
      -1.362
      -1.081
      -0.746
      -0.450
      -0.202
       0.036
       0.257
       0.388
       0.354
       0.163
      -0.084
      -0.269
      -0.308
      -0.168
       0.153
       0.613
       1.092
       1.420
       1.472
       1.267
       0.947
       0.657
       0.442
       0.264
       0.100
       0.001
       0.048
       0.244
       0.479
       0.595
       0.503
       0.230
      -0.120
      -0.453
      -0.732
      -0.959
      -1.124
      -1.182
      -1.080
      -0.830
      -0.541
      -0.359
      -0.348
      -0.439
      -0.501
      -0.461
      -0.351
      -0.237
      -0.120
       0.051
       0.301
       0.569
       0.775
       0.897
       0.945
       0.886
       0.628
       0.129
      -0.505
      -1.057
      -1.355
      -1.389
      -1.280
      -1.158
      -1.076
      -1.027
      -1.001
      -0.992
      -0.972
      -0.877
      -0.661
      -0.328
       0.094
       0.595
       1.185
       1.830
       2.419
       2.798
       2.859
       2.596
       2.106
       1.536
       1.032
       0.696
       0.557
       0.564
       0.605
       0.563
       0.374
       0.045
      -0.380
      -0.860
      -1.354
      -1.794
      -2.080
      -2.137
      -1.966
      -1.642
      -1.239
      -0.768
      -0.182
       0.560
       1.430
       2.309
       3.016
       3.364
       3.225
       2.580
       1.557
       0.412
      -0.578
      -1.262
      -1.703
      -2.108
      -2.644
      -3.280
      -3.782
      -3.886
      -3.500
      -2.774
      -1.971
      -1.252
      -0.577
       0.195
       1.123
       2.108
       2.971
       3.582
       3.901
       3.935
       3.667
       3.066
       2.144
       1.000
      -0.204
      -1.323
      -2.272
      -3.017
      -3.551
      -3.895
      -4.079
      -4.092
      -3.831
      -3.149
      -2.005
      -0.575
       0.810
       1.885
       2.611
       3.132
       3.556
       3.817
       3.752
       3.294
       2.556
       1.747
       1.035
       0.494
       0.138
      -0.061
      -0.191
      -0.397
      -0.794
      -1.348
      -1.849
      -2.027
      -1.746
      -1.091
      -0.279
       0.516
       1.253
       1.964
       2.611
       3.029
       3.010
       2.450
       1.433
       0.188
      -1.038
      -2.089
      -2.937
      -3.638
      -4.258
      -4.818
      -5.289
      -5.621
      -5.767
      -5.667
      -5.197
      -4.191
      -2.545
      -0.333
       2.169
       4.561
       6.434
       7.468
       7.524
       6.750
       5.581
       4.555
       4.013
       3.903
       3.888
       3.636
       3.047
       2.217
       1.243
       0.114
      -1.192
      -2.562
      -3.742
      -4.520
      -4.875
      -4.932
      -4.783
      -4.370
      -3.561
      -2.341
      -0.950
       0.176
       0.643
       0.350
      -0.441
      -1.262
      -1.709
      -1.605
      -1.009
      -0.125
       0.806
       1.576
       2.059
       2.229
       2.119
       1.767
       1.184
       0.395
      -0.486
      -1.258
      -1.739
      -1.885
      -1.816
      -1.730
      -1.790
      -2.046
      -2.435
      -2.815
      -3.018
      -2.893
      -2.361
      -1.479
      -0.440
       0.531
       1.341
       2.097
       2.989
       4.094
       5.281
       6.300
       6.908
       6.932
       6.278
       4.973
       3.235
       1.451
      -0.023
      -1.063
      -1.795
      -2.380
      -2.799
      -2.836
      -2.279
      -1.106
       0.475
       2.125
       3.488
       4.268
       4.294
       3.577
       2.285
       0.632
      -1.249
      -3.321
      -5.521
      -7.631
      -9.288
     -10.163
     -10.134
      -9.308
      -7.929
      -6.278
      -4.622
      -3.158
      -1.917
      -0.727
       0.682
       2.486
       4.646
       6.948
       9.131
      10.951
      12.166
      12.529
      11.854
      10.121
       7.508
       4.343
       1.027
      -2.036
      -4.527
      -6.314
      -7.471
      -8.146
      -8.393
      -8.144
      -7.368
      -6.204
      -4.911
      -3.671
      -2.486
      -1.239
       0.188
       1.861
       3.786
       5.877
       7.904
       9.495
      10.226
       9.769
       8.035
       5.243
       1.867
      -1.512
      -4.392
      -6.488
      -7.751
      -8.292
      -8.278
      -7.894
      -7.326
      -6.693
      -5.953
      -4.915
      -3.410
      -1.486
       0.574
       2.450
       4.007
       5.309
       6.458
       7.401
       7.906
       7.679
       6.550
       4.603
       2.175
      -0.269
      -2.316
      -3.746
      -4.565
      -4.938
      -5.056
      -5.032
      -4.865
      -4.454
      -3.647
      -2.312
      -0.448
       1.737
       3.877
       5.636
       6.880
       7.663
       8.049
       7.942
       7.126
       5.486
       3.205
       0.725
      -1.491
      -3.179
      -4.307
      -4.983
      -5.364
      -5.623
      -5.892
      -6.177
      -6.342
      -6.216
      -5.703
      -4.797
      -3.520
      -1.894
       0.030
       2.134
       4.240
       6.116
       7.463
       7.941
       7.295
       5.538
       3.064
       0.533
      -1.408
      -2.422
      -2.613
      -2.432
      -2.397
      -2.806
      -3.580
      -4.352
      -4.724
      -4.509
      -3.799
      -2.833
      -1.800
      -0.702
       0.600
       2.197
       3.927
       5.337
       5.914
       5.431
       4.146
       2.664
       1.572
       1.116
       1.197
       1.608
       2.278
       3.245
       4.456
       5.617
       6.294
       6.146
       5.091
       3.263
       0.888
      -1.796
      -4.516
      -6.946
      -8.760
      -9.770
      -9.994
      -9.613
      -8.831
      -7.774
      -6.516
      -5.163
      -3.852
      -2.637
      -1.434
      -0.148
       1.150
       2.222
       2.911
       3.372
       3.999
       5.059
       6.390
       7.453
       7.713
       7.024
       5.717
       4.350
       3.364
       2.870
       2.637
       2.251
       1.313
      -0.365
      -2.650
      -5.126
      -7.286
      -8.793
      -9.627
     -10.006
     -10.130
      -9.937
      -9.072
      -7.112
      -3.901
       0.240
       4.582
       8.290
      10.775
      11.882
      11.820
      10.942
       9.550
       7.836
       5.960
       4.102
       2.425
       0.973
      -0.369
      -1.779
      -3.360
      -5.075
      -6.802
      -8.406
      -9.725
     -10.497
     -10.408
      -9.283
      -7.257
      -4.718
      -2.043
       0.603
       3.232
       5.818
       8.140
       9.823
      10.509
      10.029
       8.493
       6.271
       3.883
       1.807
       0.281
      -0.807
      -1.825
      -3.089
      -4.581
      -5.914
      -6.587
      -6.311
      -5.143
      -3.368
      -1.287
       0.920
       3.165
       5.328
       7.175
       8.404
       8.790
       8.327
       7.241
       5.828
       4.251
       2.483
       0.467
      -1.675
      -3.621
      -5.057
      -5.927
      -6.463
      -6.999
      -7.751
      -8.734
      -9.816
     -10.789
     -11.404
     -11.399
     -10.552
      -8.739
      -5.961
      -2.361
       1.760
       5.936
       9.620
      12.328
      13.776
      13.931
      12.963
      11.139
       8.736
       6.003
       3.159
       0.400
      -2.125
      -4.343
      -6.247
      -7.816
      -8.928
      -9.356
      -8.884
      -7.473
      -5.309
      -2.680
       0.196
       3.193
       6.111
       8.506
       9.777
       9.506
       7.770
       5.137
       2.323
      -0.179
      -2.217
      -3.808
      -4.928
      -5.457
      -5.274
      -4.380
      -2.961
      -1.375
      -0.019
       0.859
       1.306
       1.587
       1.961
       2.475
       2.982
       3.302
       3.378
       3.275
       3.040
       2.585
       1.754
       0.525
      -0.874
      -2.080
      -2.845
      -3.163
      -3.186
      -3.041
      -2.763
      -2.342
      -1.779
      -1.058
      -0.133
       0.983
       2.111
       2.944
       3.250
       3.054
       2.581
       2.008
       1.287
       0.232
      -1.216
      -2.858
      -4.384
      -5.604
      -6.524
      -7.207
      -7.624
      -7.658
      -7.227
      -6.359
      -5.126
      -3.564
      -1.674
       0.491
       2.798
       5.106
       7.334
       9.424
      11.237
      12.539
      13.098
      12.788
      11.593
       9.531
       6.665
       3.221
      -0.337
      -3.444
      -5.725
      -7.190
      -8.105
      -8.674
      -8.865
      -8.551
      -7.760
      -6.719
      -5.641
      -4.535
      -3.267
      -1.781
      -0.230
       1.136
       2.188
       3.007
       3.777
       4.594
       5.372
       5.911
       6.044
       5.720
       5.001
       3.994
       2.812
       1.557
       0.320
      -0.840
      -1.900
      -2.864
      -3.737
      -4.498
      -5.071
      -5.321
      -5.078
      -4.219
      -2.789
      -1.054
       0.577
       1.736
       2.241
       2.107
       1.466
       0.498
      -0.599
      -1.613
      -2.329
      -2.567
      -2.233
      -1.390
      -0.293
       0.674
       1.157
       1.006
       0.331
      -0.581
      -1.417
      -1.946
      -2.023
      -1.575
      -0.619
       0.675
       1.997
       3.010
       3.493
       3.401
       2.816
       1.887
       0.808
      -0.187
      -0.847
      -0.968
      -0.469
       0.534
       1.742
       2.781
       3.361
       3.385
       2.931
       2.154
       1.225
       0.317
      -0.367
      -0.625
      -0.338
       0.422
       1.376
       2.148
       2.444
       2.181
       1.454
       0.421
      -0.791
      -2.063
      -3.220
      -4.033
      -4.299
      -3.953
      -3.127
      -2.090
      -1.145
      -0.525
      -0.349
      -0.601
      -1.143
      -1.765
      -2.279
      -2.573
      -2.589
      -2.281
      -1.637
      -0.731
       0.252
       1.093
       1.637
       1.838
       1.731
       1.382
       0.864
       0.262
      -0.326
      -0.798
      -1.042
      -0.951
      -0.463
       0.374
       1.374
       2.273
       2.848
       3.002
       2.772
       2.279
       1.674
       1.109
       0.710
       0.537
       0.566
       0.723
       0.935
       1.151
       1.298
       1.260
       0.943
       0.391
      -0.190
      -0.539
      -0.513
      -0.177
       0.254
       0.566
       0.678
       0.667
       0.654
       0.650
       0.509
       0.047
      -0.777
      -1.802
      -2.780
      -3.528
      -3.989
      -4.167
      -4.057
      -3.663
      -3.058
      -2.379
      -1.748
      -1.208
      -0.733
      -0.299
       0.087
       0.413
       0.702
       0.987
       1.264
       1.483
       1.595
       1.596
       1.520
       1.376
       1.130
       0.737
       0.201
      -0.400
      -0.943
      -1.308
      -1.408
      -1.212
      -0.768
      -0.219
       0.248
       0.503
       0.529
       0.395
       0.179
      -0.059
      -0.236
      -0.231
       0.054
       0.593
       1.206
       1.660
       1.840
       1.830
       1.827
       1.952
       2.136
       2.195
       2.008
       1.637
       1.266
       1.041
       0.962
       0.911
       0.769
       0.497
       0.138
      -0.235
      -0.555
      -0.789
      -0.946
      -1.067
      -1.198
      -1.352
      -1.496
      -1.578
      -1.563
      -1.451
      -1.241
      -0.929
      -0.538
      -0.179
      -0.018
      -0.157
      -0.525
      -0.902
      -1.086
      -1.038
      -0.864
      -0.674
      -0.471
      -0.200
       0.095
       0.220
      -0.046
      -0.740
      -1.618
      -2.269
      -2.375
      -1.910
      -1.132
      -0.392
       0.082
       0.275
       0.305
       0.287
       0.268
       0.248
       0.238
       0.287
       0.453
       0.773
       1.235
       1.780
       2.317
       2.732
       2.906
       2.736
       2.188
       1.355
       0.450
      -0.283
      -0.681
      -0.726
      -0.520
      -0.221
       0.021
       0.097
      -0.050
      -0.398
      -0.851
      -1.263
      -1.508
      -1.515
      -1.272
      -0.814
      -0.221
       0.373
       0.820
       1.029
       1.016
       0.873
       0.694
       0.505
       0.279
      -0.002
      -0.286
      -0.457
      -0.411
      -0.148
       0.222
       0.553
       0.761
       0.856
       0.889
       0.883
       0.810
       0.628
       0.341
       0.009
      -0.290
      -0.533
      -0.759
      -1.022
      -1.308
      -1.517
      -1.525
      -1.273
      -0.821
      -0.311
       0.104
       0.334
       0.393
       0.393
       0.480
       0.719
       1.019
       1.187
       1.078
       0.720
       0.276
      -0.101
      -0.380
      -0.633
      -0.932
      -1.282
      -1.632
      -1.929
      -2.152
      -2.272
      -2.233
      -1.978
      -1.527
      -0.986
      -0.472
      -0.019
       0.423
