Origin Time       17/7/2009 11:07:47 
Lat.              32.3 N 
Long.             76.1 E 
Depth (Km)         39.3
Magnitude         3.7
 Region           CHAMBA-(H.P.)                                                    
 Above details taken from IMD 
     
Station Code      DHA
Station Lat.       32.207  N
Station Long.      76.324  E
Station Height(m) 1256.0
Site Class        B   Vs30 between 375 m/sec to 700 m/sec *  
Record Time       17.07.2009 11:07:36.679
Sampling Rate     200. Hz
 Record Duration   69.120 Sec.
 Direction         E-W (E positive)
Max. Acceleration     -5.150 cm/sec**2
     
  * For reference see Site Classification link of website 
     
 Base Line Corrected and Low Pass Filtered (Cut Off at 35 Hz) Time History
 Acceleration data in cm/sec**2
    
[...]
      -0.009
       0.001
       0.008
       0.008
       0.005
       0.002
       0.001
       0.003
       0.007
       0.014
       0.018
       0.012
      -0.001
      -0.014
      -0.017
      -0.010
       0.000
       0.005
       0.004
       0.004
       0.011
       0.022
       0.029
       0.028
       0.019
       0.008
       0.001
       0.001
       0.006
       0.012
       0.010
      -0.004
      -0.023
      -0.033
      -0.024
       0.000
       0.023
       0.030
       0.019
       0.004
      -0.003
       0.002
       0.010
       0.010
       0.001
      -0.009
      -0.010
      -0.006
      -0.001
      -0.001
      -0.003
      -0.002
       0.004
       0.008
       0.007
       0.002
       0.001
       0.004
       0.008
       0.004
      -0.007
      -0.016
      -0.012
       0.004
       0.021
       0.027
       0.017
       0.001
      -0.011
      -0.011
      -0.006
      -0.002
      -0.003
      -0.005
      -0.003
       0.004
       0.009
       0.010
       0.006
       0.001
      -0.001
      -0.001
      -0.001
      -0.002
      -0.004
      -0.004
      -0.005
      -0.009
      -0.017
      -0.025
      -0.027
      -0.019
      -0.004
       0.009
       0.012
       0.005
      -0.004
      -0.007
       0.001
       0.014
       0.021
       0.019
       0.008
      -0.005
      -0.010
      -0.007
       0.002
       0.008
       0.008
       0.004
       0.002
       0.007
       0.016
       0.022
       0.021
       0.013
       0.003
      -0.005
      -0.010
      -0.013
      -0.014
      -0.016
      -0.017
      -0.016
      -0.009
       0.002
       0.010
       0.011
       0.004
      -0.005
      -0.009
      -0.006
       0.001
       0.007
       0.006
       0.000
      -0.005
      -0.010
      -0.015
      -0.020
      -0.022
      -0.019
      -0.011
       0.002
       0.015
       0.020
       0.010
      -0.012
      -0.033
      -0.040
      -0.028
      -0.007
       0.011
       0.017
       0.011
      -0.001
      -0.010
      -0.010
      -0.002
       0.007
       0.009
       0.000
      -0.015
      -0.025
      -0.019
       0.002
       0.024
       0.031
       0.018
      -0.007
      -0.027
      -0.030
      -0.016
       0.003
       0.016
       0.017
       0.011
       0.003
      -0.006
      -0.013
      -0.020
      -0.025
      -0.026
      -0.020
      -0.007
       0.010
       0.021
       0.017
      -0.009
      -0.052
      -0.098
      -0.126
      -0.121
      -0.084
      -0.028
       0.028
       0.062
       0.062
       0.027
      -0.032
      -0.094
      -0.135
      -0.136
      -0.086
       0.006
       0.115
       0.206
       0.245
       0.212
       0.107
      -0.043
      -0.186
      -0.251
      -0.188
      -0.005
       0.224
       0.376
       0.346
       0.116
      -0.219
      -0.496
      -0.580
      -0.435
      -0.135
       0.197
       0.459
       0.597
       0.579
       0.386
       0.035
      -0.382
      -0.714
      -0.826
      -0.673
      -0.317
       0.105
       0.444
       0.589
       0.512
       0.277
       0.009
      -0.182
      -0.244
      -0.191
      -0.069
       0.068
       0.169
       0.200
       0.164
       0.100
       0.048
       0.019
      -0.010
      -0.066
      -0.144
      -0.212
      -0.237
      -0.210
      -0.139
      -0.033
       0.103
       0.236
       0.305
       0.254
       0.086
      -0.128
      -0.282
      -0.301
      -0.176
       0.033
       0.232
       0.334
       0.294
       0.128
      -0.095
      -0.283
      -0.353
      -0.268
      -0.052
       0.221
       0.452
       0.547
       0.459
       0.212
      -0.090
      -0.315
      -0.369
      -0.252
      -0.047
       0.138
       0.234
       0.236
       0.171
       0.057
      -0.096
      -0.265
      -0.393
      -0.410
      -0.277
      -0.022
       0.262
       0.461
       0.492
       0.337
       0.048
      -0.276
      -0.513
      -0.564
      -0.396
      -0.066
       0.298
       0.554
       0.609
       0.456
       0.168
      -0.137
      -0.338
      -0.355
      -0.183
       0.105
       0.382
       0.529
       0.496
       0.313
       0.061
      -0.171
      -0.327
      -0.379
      -0.333
      -0.219
      -0.084
       0.022
       0.068
       0.062
       0.042
       0.055
       0.121
       0.211
       0.260
       0.201
       0.020
      -0.223
      -0.414
      -0.455
      -0.320
      -0.069
       0.197
       0.378
       0.413
       0.292
       0.062
      -0.191
      -0.377
      -0.428
      -0.319
      -0.083
       0.188
       0.375
       0.400
       0.276
       0.098
      -0.028
      -0.054
      -0.001
       0.068
       0.090
       0.035
      -0.080
      -0.190
      -0.218
      -0.128
       0.043
       0.196
       0.240
       0.150
      -0.015
      -0.168
      -0.252
      -0.264
      -0.228
      -0.158
      -0.057
       0.061
       0.160
       0.197
       0.159
       0.075
      -0.003
      -0.039
      -0.040
      -0.036
      -0.044
      -0.060
      -0.072
      -0.076
      -0.068
      -0.036
       0.034
       0.136
       0.232
       0.280
       0.264
       0.191
       0.073
      -0.085
      -0.267
      -0.429
      -0.510
      -0.466
      -0.300
      -0.062
       0.178
       0.360
       0.454
       0.471
       0.433
       0.357
       0.246
       0.110
      -0.010
      -0.050
       0.031
       0.206
       0.367
       0.377
       0.168
      -0.188
      -0.510
      -0.629
      -0.513
      -0.283
      -0.105
      -0.062
      -0.109
      -0.142
      -0.113
      -0.066
      -0.084
      -0.199
      -0.354
      -0.445
      -0.395
      -0.207
       0.049
       0.274
       0.399
       0.408
       0.343
       0.271
       0.258
       0.332
       0.457
       0.549
       0.537
       0.410
       0.217
       0.019
      -0.156
      -0.321
      -0.502
      -0.692
      -0.825
      -0.778
      -0.462
       0.067
       0.583
       0.817
       0.667
       0.279
      -0.063
      -0.174
      -0.083
       0.027
       0.011
      -0.122
      -0.237
      -0.225
      -0.129
      -0.120
      -0.338
      -0.721
      -1.007
      -0.905
      -0.312
       0.598
       1.476
       1.979
       1.924
       1.350
       0.482
      -0.364
      -0.914
      -1.060
      -0.892
      -0.633
      -0.479
      -0.488
      -0.572
      -0.602
      -0.508
      -0.309
      -0.068
       0.176
       0.419
       0.664
       0.874
       0.981
       0.926
       0.712
       0.423
       0.190
       0.120
       0.232
       0.428
       0.536
       0.405
       0.004
      -0.546
      -1.039
      -1.303
      -1.296
      -1.096
      -0.832
      -0.595
      -0.420
      -0.292
      -0.181
      -0.062
       0.069
       0.199
       0.300
       0.353
       0.357
       0.325
       0.274
       0.231
       0.241
       0.344
       0.530
       0.709
       0.752
       0.587
       0.262
      -0.088
      -0.331
      -0.406
      -0.334
      -0.176
      -0.005
       0.123
       0.177
       0.149
       0.049
      -0.100
      -0.266
      -0.409
      -0.491
      -0.492
      -0.424
      -0.326
      -0.231
      -0.135
      -0.005
       0.172
       0.361
       0.510
       0.594
       0.620
       0.583
       0.455
       0.226
      -0.047
      -0.258
      -0.316
      -0.216
      -0.039
       0.089
       0.054
      -0.181
      -0.551
      -0.892
      -1.014
      -0.805
      -0.313
       0.263
       0.688
       0.826
       0.693
       0.411
       0.114
      -0.116
      -0.239
      -0.229
      -0.066
       0.238
       0.590
       0.814
       0.738
       0.328
      -0.236
      -0.646
      -0.669
      -0.320
       0.137
       0.378
       0.241
      -0.166
      -0.557
      -0.669
      -0.432
       0.006
       0.391
       0.539
       0.434
       0.193
      -0.050
      -0.224
      -0.321
      -0.335
      -0.235
      -0.023
       0.202
       0.246
      -0.032
      -0.561
      -1.024
      -1.056
      -0.524
       0.321
       1.001
       1.145
       0.753
       0.181
      -0.147
      -0.060
       0.274
       0.533
       0.521
       0.300
       0.060
      -0.088
      -0.190
      -0.333
      -0.490
      -0.506
      -0.254
       0.198
       0.591
       0.646
       0.274
      -0.345
      -0.887
      -1.082
      -0.877
      -0.442
      -0.039
       0.157
       0.156
       0.094
       0.084
       0.119
       0.112
       0.020
      -0.087
      -0.074
       0.128
       0.448
       0.717
       0.780
       0.586
       0.211
      -0.195
      -0.483
      -0.572
      -0.481
      -0.308
      -0.163
      -0.100
      -0.090
      -0.071
      -0.011
       0.058
       0.064
      -0.043
      -0.242
      -0.440
      -0.520
      -0.412
      -0.130
       0.224
       0.515
       0.644
       0.585
       0.391
       0.160
      -0.007
      -0.056
       0.004
       0.105
       0.166
       0.153
       0.095
       0.050
       0.042
       0.042
      -0.003
      -0.099
      -0.185
      -0.176
      -0.039
       0.158
       0.297
       0.294
       0.160
      -0.021
      -0.159
      -0.217
      -0.212
      -0.183
      -0.159
      -0.153
      -0.166
      -0.187
      -0.205
      -0.211
      -0.200
      -0.163
      -0.080
       0.074
       0.308
       0.593
       0.854
       0.996
       0.959
       0.748
       0.433
       0.101
      -0.188
      -0.406
      -0.537
      -0.561
      -0.469
      -0.295
      -0.120
      -0.037
      -0.086
      -0.224
      -0.349
      -0.378
      -0.312
      -0.223
      -0.190
      -0.231
      -0.295
      -0.307
      -0.235
      -0.095
       0.076
       0.251
       0.417
       0.545
       0.572
       0.433
       0.129
      -0.234
      -0.483
      -0.476
      -0.202
       0.217
       0.596
       0.794
       0.784
       0.638
       0.469
       0.347
       0.270
       0.181
       0.030
      -0.189
      -0.423
      -0.606
      -0.699
      -0.710
      -0.678
      -0.635
      -0.582
      -0.504
      -0.389
      -0.237
      -0.061
       0.108
       0.229
       0.270
       0.247
       0.219
       0.251
       0.369
       0.535
       0.677
       0.722
       0.631
       0.420
       0.159
      -0.059
      -0.168
      -0.168
      -0.126
      -0.122
      -0.191
      -0.300
      -0.378
      -0.379
      -0.308
      -0.220
      -0.174
      -0.190
      -0.231
      -0.212
      -0.057
       0.237
       0.580
       0.830
       0.879
       0.713
       0.408
       0.072
      -0.204
      -0.378
      -0.430
      -0.347
      -0.127
       0.182
       0.470
       0.615
       0.564
       0.370
       0.147
      -0.021
      -0.124
      -0.208
      -0.313
      -0.437
      -0.555
      -0.642
      -0.689
      -0.701
      -0.686
      -0.646
      -0.583
      -0.495
      -0.384
      -0.250
      -0.091
       0.110
       0.372
       0.698
       1.050
       1.353
       1.532
       1.542
       1.386
       1.101
       0.744
       0.380
       0.063
      -0.175
      -0.331
      -0.433
      -0.520
      -0.624
      -0.743
      -0.835
      -0.838
      -0.704
      -0.443
      -0.121
       0.176
       0.384
       0.467
       0.415
       0.233
      -0.045
      -0.345
      -0.575
      -0.664
      -0.618
      -0.521
      -0.480
      -0.556
      -0.710
      -0.831
      -0.792
      -0.523
      -0.049
       0.515
       1.001
       1.257
       1.209
       0.891
       0.421
      -0.066
      -0.480
      -0.795
      -1.027
      -1.194
      -1.296
      -1.331
      -1.309
      -1.251
      -1.157
      -0.990
      -0.698
      -0.264
       0.255
       0.741
       1.079
       1.231
       1.254
       1.258
       1.329
       1.486
       1.700
       1.930
       2.152
       2.367
       2.583
       2.799
       2.989
       3.093
       3.025
       2.704
       2.106
       1.287
       0.380
      -0.453
      -1.084
      -1.465
      -1.638
      -1.691
      -1.710
      -1.735
      -1.760
      -1.745
      -1.652
      -1.468
      -1.224
      -0.999
      -0.887
      -0.952
      -1.177
      -1.471
      -1.716
      -1.829
      -1.783
      -1.582
      -1.220
      -0.681
       0.019
       0.797
       1.499
       1.975
       2.140
       2.019
       1.720
       1.373
       1.064
       0.814
       0.585
       0.325
       0.009
      -0.345
      -0.695
      -0.992
      -1.198
      -1.285
      -1.236
      -1.060
      -0.795
      -0.500
      -0.227
      -0.001
       0.180
       0.329
       0.452
       0.534
       0.542
       0.437
       0.199
      -0.149
      -0.555
      -0.977
      -1.406
      -1.852
      -2.298
      -2.673
      -2.866
      -2.776
      -2.371
      -1.696
      -0.859
       0.022
       0.850
       1.581
       2.218
       2.797
       3.330
       3.777
       4.059
       4.114
       3.944
       3.600
       3.134
       2.579
       1.959
       1.320
       0.741
       0.297
       0.025
      -0.106
      -0.180
      -0.287
      -0.483
      -0.761
      -1.070
      -1.353
      -1.590
      -1.816
      -2.102
      -2.514
      -3.075
      -3.740
      -4.396
      -4.903
      -5.150
      -5.104
      -4.802
      -4.294
      -3.594
      -2.675
      -1.511
      -0.133
       1.339
       2.711
       3.769
       4.353
       4.417
       4.041
       3.379
       2.591
       1.788
       1.032
       0.366
      -0.159
      -0.487
      -0.580
      -0.444
      -0.123
       0.333
       0.896
       1.543
       2.225
       2.839
       3.251
       3.343
       3.072
       2.480
       1.662
       0.724
      -0.251
      -1.201
      -2.062
      -2.772
      -3.279
      -3.563
      -3.632
      -3.501
      -3.176
      -2.670
      -2.012
      -1.243
      -0.404
       0.467
       1.313
       2.030
       2.473
       2.515
       2.127
       1.435
       0.677
       0.107
      -0.122
      -0.012
       0.307
       0.661
       0.929
       1.091
       1.215
       1.391
       1.676
       2.057
       2.464
       2.783
       2.887
       2.679
       2.134
       1.305
       0.301
      -0.761
      -1.785
      -2.703
      -3.457
      -3.985
      -4.231
      -4.173
      -3.835
      -3.278
      -2.574
      -1.787
      -0.982
      -0.244
       0.328
       0.651
       0.701
       0.527
       0.224
      -0.120
      -0.461
      -0.786
      -1.074
      -1.276
      -1.333
      -1.213
      -0.926
      -0.505
       0.012
       0.590
       1.183
       1.736
       2.203
       2.570
       2.835
       2.984
       2.972
       2.754
       2.338
       1.803
       1.258
       0.776
       0.370
       0.004
      -0.354
      -0.703
      -0.995
      -1.170
      -1.189
      -1.053
      -0.793
      -0.456
      -0.095
       0.234
       0.482
       0.604
       0.565
       0.355
       0.001
      -0.432
      -0.868
      -1.231
      -1.464
      -1.521
      -1.383
      -1.066
      -0.627
      -0.143
       0.309
       0.682
       0.957
       1.129
       1.185
       1.102
       0.857
       0.462
      -0.020
      -0.497
      -0.886
      -1.149
      -1.299
      -1.358
      -1.339
      -1.230
      -1.028
      -0.761
      -0.496
      -0.311
      -0.252
      -0.301
      -0.384
      -0.423
      -0.388
      -0.314
      -0.270
      -0.315
      -0.462
      -0.669
      -0.866
      -0.983
      -0.989
      -0.887
      -0.700
      -0.443
      -0.116
       0.279
       0.731
       1.208
       1.669
       2.077
       2.404
       2.644
       2.809
       2.932
       3.032
       3.096
       3.070
       2.894
       2.543
       2.046
       1.470
       0.888
       0.346
      -0.133
      -0.534
      -0.831
      -0.997
      -1.031
      -0.971
      -0.893
      -0.880
      -0.983
      -1.205
      -1.495
      -1.775
      -1.984
      -2.097
      -2.128
      -2.095
      -2.003
      -1.836
      -1.587
      -1.280
      -0.975
      -0.736
      -0.583
      -0.464
      -0.296
      -0.029
       0.316
       0.661
       0.923
       1.066
       1.103
       1.075
       1.015
       0.936
       0.842
       0.742
       0.643
       0.537
       0.402
       0.211
      -0.041
      -0.329
      -0.591
      -0.750
      -0.738
      -0.536
      -0.193
       0.178
       0.457
       0.575
       0.551
       0.469
       0.410
       0.386
       0.338
       0.199
      -0.042
      -0.323
      -0.562
      -0.723
      -0.827
      -0.919
      -1.000
      -1.009
      -0.851
      -0.462
       0.142
       0.857
       1.528
       2.017
       2.260
       2.281
       2.167
       2.012
       1.875
       1.766
       1.656
       1.515
       1.324
       1.080
       0.781
       0.433
       0.055
      -0.319
      -0.636
      -0.852
      -0.941
      -0.924
      -0.859
      -0.815
      -0.827
      -0.876
      -0.905
      -0.863
      -0.752
      -0.633
      -0.596
      -0.695
      -0.910
      -1.150
      -1.310
      -1.330
      -1.232
      -1.101
      -1.034
      -1.079
      -1.202
      -1.311
      -1.316
      -1.180
      -0.929
      -0.623
      -0.318
      -0.055
       0.149
       0.293
       0.384
       0.425
       0.408
       0.338
       0.247
       0.189
       0.208
       0.297
       0.393
       0.422
       0.365
       0.283
       0.275
       0.411
       0.688
       1.039
       1.378
       1.631
       1.751
       1.716
       1.521
       1.188
       0.770
       0.342
      -0.025
      -0.293
      -0.469
      -0.581
      -0.656
      -0.706
      -0.723
      -0.688
      -0.576
      -0.375
      -0.100
       0.204
       0.468
       0.627
       0.652
       0.563
       0.412
       0.247
       0.078
      -0.118
      -0.379
      -0.714
      -1.082
      -1.405
      -1.615
      -1.684
      -1.630
      -1.497
      -1.312
      -1.083
      -0.804
      -0.483
      -0.142
       0.194
       0.524
       0.856
       1.177
       1.435
       1.556
       1.484
       1.217
       0.799
       0.301
      -0.203
      -0.644
      -0.962
      -1.114
      -1.089
      -0.921
      -0.683
      -0.452
      -0.280
      -0.159
      -0.029
       0.175
       0.472
       0.819
       1.132
       1.338
       1.409
       1.358
       1.219
       1.020
       0.779
       0.509
       0.236
      -0.005
      -0.180
      -0.270
      -0.278
      -0.227
      -0.147
      -0.067
       0.006
       0.079
       0.160
       0.238
       0.276
       0.236
       0.109
      -0.082
      -0.284
      -0.449
      -0.550
      -0.587
      -0.572
      -0.519
      -0.432
      -0.314
      -0.171
      -0.021
       0.103
       0.170
       0.157
       0.063
      -0.099
      -0.312
      -0.557
      -0.816
      -1.071
      -1.312
      -1.528
      -1.692
      -1.756
      -1.669
      -1.408
      -0.993
      -0.484
