Origin Time       04/09/2008 12:53:21
Lat.              30.1°N 
Long.             80.4°E 
Depth (Km)         10.0
Magnitude         5.1
 Region           INDIA(UTTARAKHAND)-TIBET-BORDER-REGION                           
 Above details taken from IMD 
     
Station Code      DHA
Station Lat.       29.847  N
Station Long.      80.546  E
Station Height(m)  909.0
Site Class        A   Vs30 between 700 m/sec to 1400 m/sec * 
Record Time       04.09.2008 12:53:11.884
Sampling Rate     200. Hz
 Record Duration   65.005 Sec.
 Direction         E-W (E positive)
Max. Acceleration     -4.702 cm/sec**2
     
  * For reference see Site Classification link of website 
     
 Base Line Corrected and Low Pass Filtered (Cut Off at 35 Hz) Time History
 Acceleration data in cm/sec**2
    
[...]
       0.385
       0.721
       0.872
       0.879
       0.820
       0.774
       0.772
       0.778
       0.747
       0.670
       0.574
       0.470
       0.320
       0.076
      -0.266
      -0.652
      -1.004
      -1.252
      -1.343
      -1.236
      -0.916
      -0.431
       0.090
       0.496
       0.700
       0.732
       0.700
       0.687
       0.693
       0.654
       0.513
       0.271
       0.000
      -0.187
      -0.196
      -0.023
       0.211
       0.314
       0.162
      -0.185
      -0.516
      -0.642
      -0.558
      -0.426
      -0.392
      -0.443
      -0.454
      -0.349
      -0.186
      -0.072
      -0.028
       0.030
       0.181
       0.395
       0.567
       0.628
       0.614
       0.615
       0.676
       0.752
       0.744
       0.582
       0.270
      -0.126
      -0.502
      -0.759
      -0.831
      -0.713
      -0.473
      -0.244
      -0.173
      -0.322
      -0.593
      -0.761
      -0.635
      -0.206
       0.342
       0.789
       1.034
       1.130
       1.187
       1.252
       1.274
       1.160
       0.858
       0.379
      -0.205
      -0.781
      -1.219
      -1.427
      -1.394
      -1.190
      -0.925
      -0.697
      -0.562
      -0.520
      -0.537
      -0.582
      -0.631
      -0.637
      -0.519
      -0.204
       0.283
       0.800
       1.166
       1.287
       1.200
       1.018
       0.833
       0.659
       0.454
       0.165
      -0.223
      -0.656
      -1.005
      -1.129
      -0.986
      -0.682
      -0.395
      -0.226
      -0.133
      -0.017
       0.144
       0.268
       0.268
       0.165
       0.067
       0.068
       0.181
       0.376
       0.631
       0.934
       1.235
       1.441
       1.466
       1.306
       1.044
       0.776
       0.524
       0.225
      -0.197
      -0.720
      -1.203
      -1.487
      -1.525
      -1.410
      -1.276
      -1.158
      -0.992
      -0.732
      -0.446
      -0.262
      -0.201
      -0.142
       0.055
       0.390
       0.721
       0.902
       0.895
       0.763
       0.580
       0.372
       0.134
      -0.128
      -0.388
      -0.632
      -0.859
      -1.052
      -1.122
      -0.947
      -0.475
       0.166
       0.696
       0.861
       0.636
       0.267
       0.053
       0.082
       0.173
       0.090
      -0.201
      -0.504
      -0.605
      -0.475
      -0.265
      -0.138
      -0.119
      -0.111
       0.003
       0.252
       0.574
       0.877
       1.107
       1.261
       1.347
       1.341
       1.199
       0.908
       0.520
       0.121
      -0.225
      -0.498
      -0.687
      -0.764
      -0.709
      -0.557
      -0.390
      -0.273
      -0.194
      -0.079
       0.139
       0.452
       0.770
       0.977
       0.984
       0.757
       0.325
      -0.215
      -0.714
      -1.015
      -1.025
      -0.776
      -0.427
      -0.175
      -0.131
      -0.254
      -0.416
      -0.521
      -0.568
      -0.616
      -0.701
      -0.796
      -0.833
      -0.741
      -0.475
      -0.013
       0.621
       1.327
       1.921
       2.201
       2.060
       1.534
       0.766
      -0.067
      -0.799
      -1.286
      -1.443
      -1.285
      -0.945
      -0.621
      -0.464
      -0.484
      -0.572
      -0.609
      -0.564
      -0.475
      -0.367
      -0.203
       0.082
       0.507
       1.003
       1.451
       1.744
       1.834
       1.720
       1.432
       1.023
       0.565
       0.129
      -0.237
      -0.528
      -0.764
      -0.956
      -1.090
      -1.155
      -1.182
      -1.235
      -1.321
      -1.345
      -1.161
      -0.715
      -0.110
       0.468
       0.892
       1.163
       1.364
       1.537
       1.625
       1.525
       1.202
       0.745
       0.314
       0.024
      -0.149
      -0.337
      -0.657
      -1.095
      -1.499
      -1.709
      -1.692
      -1.554
      -1.430
      -1.360
      -1.268
      -1.028
      -0.555
       0.132
       0.889
       1.488
       1.734
       1.594
       1.221
       0.847
       0.628
       0.564
       0.560
       0.529
       0.444
       0.322
       0.170
      -0.032
      -0.295
      -0.584
      -0.807
      -0.867
      -0.715
      -0.394
      -0.005
       0.339
       0.567
       0.644
       0.558
       0.325
       0.019
      -0.222
      -0.257
      -0.032
       0.373
       0.782
       1.010
       0.964
       0.682
       0.304
      -0.017
      -0.220
      -0.361
      -0.547
      -0.819
      -1.091
      -1.204
      -1.046
      -0.643
      -0.141
       0.292
       0.556
       0.643
       0.612
       0.539
       0.479
       0.436
       0.368
       0.237
       0.081
       0.007
       0.096
       0.299
       0.451
       0.389
       0.066
      -0.420
      -0.909
      -1.273
      -1.483
      -1.583
      -1.604
      -1.502
      -1.189
      -0.634
       0.058
       0.688
       1.094
       1.251
       1.259
       1.216
       1.126
       0.924
       0.580
       0.163
      -0.197
      -0.400
      -0.422
      -0.315
      -0.185
      -0.143
      -0.252
      -0.484
      -0.720
      -0.812
      -0.682
      -0.384
      -0.073
       0.122
       0.205
       0.294
       0.472
       0.682
       0.771
       0.659
       0.433
       0.273
       0.280
       0.409
       0.525
       0.538
       0.451
       0.316
       0.176
       0.049
      -0.033
      -0.029
       0.078
       0.237
       0.352
       0.339
       0.189
      -0.033
      -0.236
      -0.347
      -0.335
      -0.202
       0.014
       0.221
       0.299
       0.168
      -0.140
      -0.486
      -0.728
      -0.822
      -0.828
      -0.834
      -0.862
      -0.874
      -0.828
      -0.715
      -0.545
      -0.319
      -0.042
       0.249
       0.502
       0.696
       0.846
       0.954
       0.962
       0.786
       0.402
      -0.098
      -0.549
      -0.816
      -0.864
      -0.766
      -0.639
      -0.564
      -0.527
      -0.442
      -0.227
       0.089
       0.370
       0.481
       0.422
       0.334
       0.370
       0.572
       0.864
       1.146
       1.361
       1.480
       1.456
       1.238
       0.832
       0.320
      -0.190
      -0.629
      -0.961
      -1.134
      -1.068
      -0.727
      -0.195
       0.338
       0.684
       0.747
       0.542
       0.139
      -0.369
      -0.878
      -1.270
      -1.452
      -1.399
      -1.155
      -0.793
      -0.385
      -0.005
       0.286
       0.474
       0.602
       0.708
       0.764
       0.716
       0.577
       0.460
       0.476
       0.597
       0.649
       0.470
       0.065
      -0.398
      -0.760
      -0.991
      -1.147
      -1.232
      -1.160
      -0.854
      -0.350
       0.209
       0.677
       0.993
       1.164
       1.212
       1.156
       1.034
       0.908
       0.818
       0.735
       0.584
       0.304
      -0.094
      -0.540
      -0.956
      -1.279
      -1.455
      -1.430
      -1.186
      -0.775
      -0.298
       0.155
       0.549
       0.883
       1.125
       1.195
       1.030
       0.679
       0.302
       0.048
      -0.060
      -0.125
      -0.257
      -0.459
      -0.643
      -0.732
      -0.758
      -0.819
      -0.963
      -1.116
      -1.139
      -0.958
      -0.637
      -0.311
      -0.073
       0.090
       0.253
       0.454
       0.656
       0.787
       0.821
       0.787
       0.724
       0.627
       0.462
       0.219
      -0.056
      -0.293
      -0.456
      -0.588
      -0.758
      -0.977
      -1.160
      -1.192
      -1.026
      -0.707
      -0.325
       0.035
       0.304
       0.438
       0.446
       0.415
       0.478
       0.719
       1.091
       1.429
       1.568
       1.448
       1.125
       0.702
       0.263
      -0.125
      -0.405
      -0.542
      -0.557
      -0.505
      -0.426
      -0.304
      -0.097
       0.212
       0.585
       0.940
       1.186
       1.259
       1.146
       0.895
       0.593
       0.309
       0.050
      -0.238
      -0.600
      -0.984
      -1.255
      -1.303
      -1.156
      -0.963
      -0.862
      -0.871
      -0.898
      -0.851
      -0.711
      -0.519
      -0.307
      -0.070
       0.198
       0.458
       0.642
       0.699
       0.632
       0.476
       0.260
       0.012
      -0.200
      -0.274
      -0.154
       0.103
       0.364
       0.528
       0.574
       0.527
       0.392
       0.167
      -0.107
      -0.345
      -0.477
      -0.494
      -0.443
      -0.373
      -0.303
      -0.239
      -0.195
      -0.175
      -0.150
      -0.059
       0.135
       0.396
       0.621
       0.720
       0.690
       0.618
       0.596
       0.625
       0.623
       0.518
       0.330
       0.132
      -0.046
      -0.256
      -0.553
      -0.896
      -1.139
      -1.146
      -0.897
      -0.507
      -0.132
       0.122
       0.223
       0.200
       0.126
       0.098
       0.178
       0.331
       0.438
       0.399
       0.236
       0.076
       0.017
       0.029
      -0.008
      -0.164
      -0.367
      -0.471
      -0.402
      -0.224
      -0.072
      -0.027
      -0.054
      -0.052
       0.051
       0.249
       0.479
       0.668
       0.772
       0.777
       0.703
       0.611
       0.569
       0.600
       0.633
       0.544
       0.273
      -0.096
      -0.365
      -0.373
      -0.130
       0.208
       0.493
       0.712
       0.955
       1.270
       1.576
       1.734
       1.665
       1.392
       1.001
       0.586
       0.231
       0.005
      -0.071
      -0.038
       0.029
       0.081
       0.111
       0.116
       0.049
      -0.151
      -0.464
      -0.743
      -0.787
      -0.508
      -0.009
       0.483
       0.787
       0.885
       0.869
       0.822
       0.750
       0.609
       0.383
       0.097
      -0.209
      -0.518
      -0.836
      -1.161
      -1.454
      -1.650
      -1.693
      -1.585
      -1.391
      -1.198
      -1.058
      -0.982
      -0.977
      -1.069
      -1.294
      -1.650
      -2.074
      -2.449
      -2.653
      -2.622
      -2.384
      -2.036
      -1.689
      -1.423
      -1.271
      -1.212
      -1.178
      -1.074
      -0.829
      -0.449
      -0.023
       0.326
       0.525
       0.610
       0.691
       0.851
       1.067
       1.226
       1.221
       1.031
       0.704
       0.295
      -0.167
      -0.643
      -1.033
      -1.182
      -0.966
      -0.390
       0.389
       1.151
       1.741
       2.108
       2.267
       2.230
       2.008
       1.654
       1.275
       0.972
       0.777
       0.631
       0.450
       0.196
      -0.096
      -0.354
      -0.502
      -0.481
      -0.252
       0.186
       0.774
       1.401
       1.936
       2.279
       2.388
       2.283
       2.011
       1.601
       1.056
       0.389
      -0.335
      -1.001
      -1.494
      -1.744
      -1.743
      -1.534
      -1.180
      -0.730
      -0.199
       0.419
       1.095
       1.728
       2.171
       2.329
       2.239
       2.038
       1.831
       1.604
       1.265
       0.779
       0.246
      -0.162
      -0.350
      -0.371
      -0.356
      -0.370
      -0.357
      -0.220
       0.063
       0.427
       0.805
       1.198
       1.624
       2.026
       2.247
       2.124
       1.605
       0.773
      -0.215
      -1.199
      -2.039
      -2.623
      -2.881
      -2.814
      -2.492
      -2.018
      -1.491
      -0.986
      -0.552
      -0.211
       0.047
       0.253
       0.422
       0.524
       0.480
       0.212
      -0.286
      -0.927
      -1.564
      -2.075
      -2.430
      -2.690
      -2.948
      -3.263
      -3.616
      -3.910
      -3.999
      -3.723
      -2.976
      -1.776
      -0.324
       1.018
       1.872
       2.052
       1.668
       1.012
       0.305
      -0.449
      -1.352
      -2.354
      -3.150
      -3.385
      -2.975
      -2.218
      -1.567
      -1.272
      -1.224
      -1.115
      -0.729
      -0.096
       0.624
       1.336
       2.060
       2.766
       3.232
       3.173
       2.567
       1.805
       1.443
       1.741
       2.458
       3.106
       3.389
       3.359
       3.197
       2.928
       2.428
       1.686
       0.964
       0.628
       0.822
       1.344
       1.840
       2.078
       2.041
       1.803
       1.392
       0.783
      -0.032
      -0.994
      -1.986
      -2.865
      -3.474
      -3.673
      -3.395
      -2.688
      -1.706
      -0.651
       0.287
       0.951
       1.242
       1.164
       0.846
       0.503
       0.334
       0.424
       0.693
       0.941
       0.945
       0.555
      -0.241
      -1.322
      -2.458
      -3.367
      -3.809
      -3.691
      -3.089
      -2.190
      -1.175
      -0.162
       0.769
       1.521
       1.973
       2.048
       1.788
       1.376
       1.081
       1.112
       1.479
       1.956
       2.237
       2.150
       1.760
       1.265
       0.811
       0.411
       0.014
      -0.398
      -0.769
      -1.010
      -1.054
      -0.880
      -0.536
      -0.133
       0.190
       0.361
       0.434
       0.566
       0.887
       1.391
       1.940
       2.366
       2.555
       2.451
       2.015
       1.226
       0.140
      -1.064
      -2.158
      -3.011
      -3.649
      -4.161
      -4.550
      -4.702
      -4.521
      -4.078
      -3.573
      -3.151
      -2.760
      -2.224
      -1.444
      -0.494
       0.475
       1.386
       2.257
       3.051
       3.578
       3.581
       2.980
       2.007
       1.079
       0.501
       0.277
       0.194
       0.072
      -0.104
      -0.255
      -0.323
      -0.274
      -0.012
       0.592
       1.523
       2.512
       3.173
       3.304
       3.006
       2.508
       1.913
       1.146
       0.138
      -1.012
      -2.096
      -2.956
      -3.526
      -3.741
      -3.495
      -2.754
      -1.674
      -0.543
       0.416
       1.153
       1.705
       2.045
       2.072
       1.754
       1.249
       0.853
       0.787
       1.049
       1.440
       1.752
       1.888
       1.841
       1.585
       1.064
       0.300
      -0.530
      -1.175
      -1.517
      -1.662
      -1.799
      -1.969
      -2.012
      -1.764
      -1.288
      -0.867
      -0.759
      -0.964
      -1.238
      -1.347
      -1.273
      -1.199
      -1.286
      -1.489
      -1.591
      -1.416
      -0.985
      -0.472
      -0.022
       0.346
       0.686
       1.016
       1.294
       1.484
       1.605
       1.696
       1.744
       1.686
       1.483
       1.188
       0.928
       0.801
       0.800
       0.842
       0.851
       0.806
       0.730
       0.651
       0.562
       0.417
       0.153
      -0.245
      -0.688
      -1.019
      -1.145
      -1.132
      -1.144
      -1.266
      -1.382
      -1.286
      -0.904
      -0.399
      -0.017
       0.167
       0.295
       0.520
       0.789
       0.877
       0.616
       0.083
      -0.469
      -0.848
      -1.073
      -1.296
      -1.611
      -1.949
      -2.159
      -2.166
      -2.030
      -1.888
      -1.831
      -1.838
      -1.816
      -1.690
      -1.470
      -1.234
      -1.037
      -0.843
      -0.546
      -0.076
       0.532
       1.165
       1.727
       2.180
       2.509
       2.662
       2.564
       2.198
       1.664
       1.120
       0.655
       0.246
      -0.132
      -0.398
      -0.395
      -0.049
       0.520
       1.084
       1.482
       1.721
       1.883
       1.961
       1.810
       1.313
       0.572
      -0.095
      -0.402
      -0.336
      -0.148
      -0.103
      -0.257
      -0.487
      -0.673
      -0.818
      -0.994
      -1.219
      -1.439
      -1.590
      -1.640
      -1.560
      -1.309
      -0.897
      -0.444
      -0.139
      -0.108
      -0.312
      -0.598
      -0.837
      -0.996
      -1.088
      -1.096
      -0.977
      -0.729
      -0.418
      -0.120
       0.152
       0.443
       0.794
       1.185
       1.539
       1.778
       1.869
       1.818
       1.657
       1.443
       1.258
       1.180
       1.230
       1.350
       1.434
       1.385
       1.155
       0.757
       0.266
      -0.197
      -0.511
      -0.606
      -0.510
      -0.341
      -0.242
      -0.297
      -0.494
      -0.755
      -1.009
      -1.220
      -1.363
      -1.387
      -1.230
      -0.888
      -0.461
      -0.106
       0.085
       0.145
       0.183
       0.286
       0.482
       0.774
       1.143
       1.505
       1.703
       1.610
       1.240
       0.765
       0.377
       0.158
       0.061
       0.015
      -0.003
       0.008
       0.002
      -0.124
      -0.433
      -0.881
      -1.327
      -1.619
      -1.674
      -1.494
      -1.141
      -0.701
      -0.245
       0.180
       0.535
       0.763
       0.798
       0.600
       0.206
      -0.263
      -0.653
      -0.859
      -0.876
      -0.770
      -0.589
      -0.320
       0.080
       0.570
       0.988
       1.131
       0.920
       0.474
       0.020
      -0.266
      -0.368
      -0.400
      -0.497
      -0.711
      -0.983
      -1.198
      -1.266
      -1.159
      -0.882
      -0.432
       0.190
       0.915
       1.571
       1.946
       1.927
       1.593
       1.174
       0.887
       0.792
       0.798
       0.792
       0.748
       0.715
       0.729
       0.763
       0.777
       0.756
       0.717
       0.673
       0.632
       0.590
       0.550
       0.521
       0.519
       0.548
       0.567
       0.498
       0.281
      -0.062
      -0.433
      -0.731
      -0.916
      -1.014
      -1.059
      -1.048
      -0.947
      -0.741
      -0.462
      -0.179
       0.047
       0.181
       0.205
       0.106
      -0.101
      -0.353
      -0.561
      -0.672
      -0.723
      -0.815
      -1.025
      -1.334
      -1.649
      -1.888
      -2.035
      -2.088
      -1.983
      -1.613
      -0.942
      -0.099
       0.676
       1.195
       1.438
       1.500
       1.440
       1.215
       0.759
       0.118
      -0.523
      -0.971
      -1.162
      -1.178
      -1.148
      -1.152
      -1.185
      -1.186
      -1.070
      -0.739
      -0.127
       0.725
       1.618
       2.275
       2.498
       2.292
       1.807
       1.201
       0.534
      -0.199
      -0.986
      -1.754
      -2.398
      -2.817
      -2.939
      -2.743
      -2.289
      -1.710
      -1.152
      -0.701
      -0.365
      -0.123
       0.045
       0.168
       0.323
       0.610
       1.077
       1.634
       2.074
       2.208
       1.994
       1.558
       1.098
       0.759
       0.577
       0.504
       0.465
       0.395
       0.249
       0.020
      -0.251
      -0.467
      -0.527
      -0.387
      -0.087
       0.268
       0.547
       0.631
       0.457
       0.052
      -0.485
      -1.041
      -1.557
      -2.024
      -2.409
      -2.625
      -2.580
      -2.272
      -1.820
      -1.381
      -1.046
      -0.807
      -0.622
      -0.473
      -0.351
      -0.207
       0.053
       0.477
       0.994
