Origin Time       17/7/2009 11:07:47  UTC
Lat.              32.3 N 
Long.             76.1 E 
Depth (Km)         39.3
Magnitude         3.7
 Region           CHAMBA-(H.P.)                                                    
 Above details taken from IMD 
    
Station Code      DHA
Station Lat.       32.207  N
Station Long.      76.324  E
Station Height(m) 1256.0
Site Class        B   Vs30 between 375 m/sec to 700 m/sec *  
Record Time       17.07.2009 11:07:36.679 UTC
Sampling Rate     200. Hz
 Record Duration   69.120 Sec.
 Direction         N-S (N positive)
Max. Acceleration     -3.329 cm/sec**2
     
  * For reference see Site Classification link of website 
     
 Base Line Corrected and Low Pass Filtered (Cut Off at 35 Hz) Time History
 Acceleration data in cm/sec**2
    
[...]
      -0.296
      -0.279
      -0.133
       0.027
       0.091
       0.036
      -0.066
      -0.121
      -0.088
      -0.005
       0.047
       0.014
      -0.082
      -0.174
      -0.203
      -0.161
      -0.083
      -0.008
       0.050
       0.097
       0.146
       0.193
       0.224
       0.227
       0.195
       0.122
       0.007
      -0.128
      -0.242
      -0.290
      -0.263
      -0.190
      -0.099
       0.010
       0.154
       0.315
       0.421
       0.386
       0.186
      -0.105
      -0.348
      -0.425
      -0.308
      -0.078
       0.132
       0.214
       0.146
      -0.007
      -0.139
      -0.176
      -0.118
      -0.021
       0.060
       0.113
       0.160
       0.225
       0.306
       0.372
       0.382
       0.309
       0.149
      -0.063
      -0.260
      -0.373
      -0.365
      -0.256
      -0.103
       0.043
       0.154
       0.225
       0.249
       0.208
       0.091
      -0.092
      -0.301
      -0.475
      -0.542
      -0.458
      -0.224
       0.089
       0.359
       0.464
       0.353
       0.081
      -0.212
      -0.382
      -0.358
      -0.168
       0.101
       0.360
       0.550
       0.639
       0.598
       0.411
       0.099
      -0.245
      -0.488
      -0.528
      -0.361
      -0.078
       0.192
       0.360
       0.403
       0.341
       0.199
      -0.004
      -0.233
      -0.421
      -0.490
      -0.402
      -0.204
      -0.001
       0.106
       0.094
       0.015
      -0.049
      -0.049
       0.006
       0.070
       0.096
       0.070
       0.011
      -0.050
      -0.083
      -0.074
      -0.027
       0.043
       0.118
       0.186
       0.237
       0.258
       0.233
       0.154
       0.037
      -0.073
      -0.119
      -0.078
       0.015
       0.081
       0.051
      -0.084
      -0.267
      -0.407
      -0.428
      -0.315
      -0.117
       0.071
       0.165
       0.133
       0.007
      -0.141
      -0.237
      -0.239
      -0.152
      -0.024
       0.079
       0.114
       0.077
       0.006
      -0.049
      -0.057
      -0.014
       0.060
       0.142
       0.217
       0.284
       0.339
       0.368
       0.345
       0.252
       0.099
      -0.074
      -0.216
      -0.297
      -0.316
      -0.295
      -0.246
      -0.170
      -0.065
       0.053
       0.150
       0.187
       0.142
       0.023
      -0.131
      -0.259
      -0.310
      -0.262
      -0.133
       0.044
       0.243
       0.439
       0.593
       0.658
       0.612
       0.479
       0.315
       0.158
       0.010
      -0.139
      -0.271
      -0.337
      -0.296
      -0.173
      -0.062
      -0.071
      -0.235
      -0.481
      -0.667
      -0.689
      -0.550
      -0.352
      -0.212
      -0.182
      -0.217
      -0.231
      -0.173
      -0.061
       0.051
       0.131
       0.193
       0.267
       0.358
       0.432
       0.446
       0.387
       0.276
       0.141
      -0.003
      -0.143
      -0.242
      -0.243
      -0.107
       0.150
       0.460
       0.754
       0.986
       1.117
       1.096
       0.865
       0.421
      -0.136
      -0.631
      -0.910
      -0.947
      -0.852
      -0.774
      -0.762
      -0.734
      -0.589
      -0.339
      -0.130
      -0.106
      -0.260
      -0.417
      -0.381
      -0.109
       0.242
       0.437
       0.368
       0.138
      -0.030
       0.014
       0.232
       0.450
       0.515
       0.403
       0.192
      -0.035
      -0.255
      -0.477
      -0.677
      -0.784
      -0.729
      -0.511
      -0.213
       0.062
       0.252
       0.363
       0.434
       0.497
       0.546
       0.541
       0.442
       0.248
       0.011
      -0.180
      -0.259
      -0.230
      -0.169
      -0.167
      -0.254
      -0.369
      -0.385
      -0.201
       0.170
       0.579
       0.814
       0.756
       0.475
       0.186
       0.093
       0.228
       0.430
       0.471
       0.222
      -0.267
      -0.821
      -1.264
      -1.501
      -1.508
      -1.289
      -0.852
      -0.238
       0.441
       1.009
       1.296
       1.236
       0.920
       0.535
       0.239
       0.063
      -0.066
      -0.224
      -0.388
      -0.446
      -0.289
       0.082
       0.515
       0.791
       0.758
       0.435
       0.007
      -0.299
      -0.360
      -0.235
      -0.108
      -0.158
      -0.417
      -0.737
      -0.880
      -0.664
      -0.094
       0.628
       1.204
       1.406
       1.191
       0.685
       0.074
      -0.501
      -0.956
      -1.237
      -1.289
      -1.096
      -0.707
      -0.236
       0.173
       0.396
       0.388
       0.216
       0.046
       0.053
       0.299
       0.671
       0.948
       0.946
       0.650
       0.214
      -0.146
      -0.302
      -0.273
      -0.176
      -0.122
      -0.147
      -0.195
      -0.181
      -0.076
       0.059
       0.112
       0.009
      -0.221
      -0.469
      -0.617
      -0.603
      -0.426
      -0.128
       0.224
       0.528
       0.677
       0.613
       0.382
       0.114
      -0.064
      -0.108
      -0.073
      -0.043
      -0.062
      -0.116
      -0.180
      -0.254
      -0.354
      -0.476
      -0.579
      -0.611
      -0.555
      -0.441
      -0.310
      -0.163
       0.043
       0.361
       0.777
       1.182
       1.413
       1.340
       0.954
       0.384
      -0.170
      -0.532
      -0.639
      -0.555
      -0.421
      -0.355
      -0.382
      -0.417
      -0.343
      -0.112
       0.190
       0.385
       0.320
      -0.018
      -0.471
      -0.800
      -0.833
      -0.567
      -0.152
       0.219
       0.432
       0.486
       0.453
       0.408
       0.378
       0.354
       0.314
       0.247
       0.158
       0.066
      -0.003
      -0.034
      -0.043
      -0.073
      -0.158
      -0.286
      -0.394
      -0.406
      -0.280
      -0.040
       0.236
       0.454
       0.543
       0.484
       0.311
       0.087
      -0.118
      -0.265
      -0.366
      -0.471
      -0.619
      -0.770
      -0.804
      -0.606
      -0.178
       0.315
       0.633
       0.618
       0.307
      -0.090
      -0.333
      -0.308
      -0.090
       0.139
       0.238
       0.205
       0.151
       0.195
       0.360
       0.558
       0.651
       0.545
       0.239
      -0.184
      -0.599
      -0.890
      -0.995
      -0.918
      -0.725
      -0.495
      -0.284
      -0.104
       0.053
       0.188
       0.273
       0.276
       0.192
       0.062
      -0.040
      -0.043
       0.084
       0.315
       0.582
       0.794
       0.870
       0.762
       0.482
       0.113
      -0.208
      -0.347
      -0.258
      -0.027
       0.189
       0.271
       0.224
       0.162
       0.191
       0.294
       0.340
       0.194
      -0.155
      -0.571
      -0.873
      -0.972
      -0.928
      -0.883
      -0.924
      -1.016
      -1.047
      -0.930
      -0.680
      -0.367
      -0.047
       0.274
       0.591
       0.849
       0.955
       0.864
       0.633
       0.391
       0.250
       0.223
       0.239
       0.215
       0.123
      -0.012
      -0.143
      -0.233
      -0.255
      -0.195
      -0.059
       0.109
       0.242
       0.279
       0.212
       0.091
       0.005
       0.008
       0.083
       0.145
       0.118
       0.004
      -0.113
      -0.134
      -0.030
       0.132
       0.241
       0.225
       0.085
      -0.116
      -0.301
      -0.399
      -0.365
      -0.205
       0.006
       0.156
       0.165
       0.049
      -0.090
      -0.136
      -0.053
       0.098
       0.201
       0.170
       0.013
      -0.176
      -0.275
      -0.214
      -0.024
       0.184
       0.303
       0.300
       0.234
       0.195
       0.229
       0.305
       0.350
       0.310
       0.177
      -0.001
      -0.141
      -0.165
      -0.043
       0.178
       0.396
       0.510
       0.471
       0.307
       0.094
      -0.092
      -0.216
      -0.295
      -0.374
      -0.475
      -0.566
      -0.585
      -0.491
      -0.311
      -0.120
       0.015
       0.082
       0.115
       0.148
       0.181
       0.183
       0.135
       0.048
      -0.047
      -0.122
      -0.172
      -0.196
      -0.183
      -0.117
      -0.006
       0.092
       0.099
      -0.015
      -0.185
      -0.281
      -0.198
       0.049
       0.326
       0.471
       0.409
       0.189
      -0.064
      -0.244
      -0.325
      -0.356
      -0.400
      -0.476
      -0.547
      -0.554
      -0.481
      -0.374
      -0.306
      -0.306
      -0.343
      -0.353
      -0.301
      -0.204
      -0.103
      -0.033
       0.005
       0.030
       0.063
       0.119
       0.203
       0.317
       0.457
       0.601
       0.710
       0.743
       0.681
       0.540
       0.366
       0.203
       0.074
      -0.029
      -0.117
      -0.180
      -0.192
      -0.129
       0.003
       0.173
       0.348
       0.508
       0.649
       0.771
       0.864
       0.911
       0.901
       0.847
       0.787
       0.773
       0.850
       1.037
       1.320
       1.644
       1.936
       2.127
       2.166
       2.023
       1.687
       1.177
       0.553
      -0.084
      -0.610
      -0.917
      -0.955
      -0.760
      -0.441
      -0.141
       0.026
       0.001
      -0.219
      -0.603
      -1.103
      -1.651
      -2.170
      -2.583
      -2.854
      -2.983
      -2.997
      -2.906
      -2.698
      -2.364
      -1.925
      -1.447
      -1.018
      -0.702
      -0.517
      -0.437
      -0.420
      -0.425
      -0.416
      -0.353
      -0.206
       0.043
       0.379
       0.746
       1.068
       1.275
       1.334
       1.259
       1.103
       0.931
       0.793
       0.715
       0.693
       0.713
       0.760
       0.829
       0.910
       0.982
       1.008
       0.953
       0.812
       0.611
       0.385
       0.153
      -0.092
      -0.362
      -0.650
      -0.936
      -1.198
      -1.422
      -1.596
      -1.700
      -1.710
      -1.605
      -1.376
      -1.033
      -0.609
      -0.152
       0.283
       0.646
       0.902
       1.032
       1.040
       0.950
       0.812
       0.682
       0.601
       0.577
       0.596
       0.659
       0.795
       1.045
       1.393
       1.744
       1.944
       1.870
       1.502
       0.929
       0.292
      -0.304
      -0.819
      -1.258
      -1.617
      -1.867
      -1.973
      -1.934
      -1.800
      -1.653
      -1.562
      -1.564
      -1.649
      -1.785
      -1.933
      -2.065
      -2.173
      -2.253
      -2.294
      -2.256
      -2.080
      -1.716
      -1.160
      -0.464
       0.279
       0.968
       1.525
       1.909
       2.114
       2.158
       2.093
       1.991
       1.926
       1.939
       2.016
       2.102
       2.142
       2.124
       2.077
       2.028
       1.962
       1.823
       1.559
       1.180
       0.773
       0.457
       0.316
       0.340
       0.441
       0.507
       0.460
       0.280
      -0.004
      -0.341
      -0.680
      -0.981
      -1.231
      -1.436
      -1.616
      -1.765
      -1.841
      -1.782
      -1.563
      -1.222
      -0.856
      -0.566
      -0.404
      -0.345
      -0.315
      -0.234
      -0.057
       0.217
       0.557
       0.921
       1.261
       1.532
       1.703
       1.766
       1.736
       1.635
       1.470
       1.226
       0.883
       0.450
      -0.011
      -0.401
      -0.632
      -0.674
      -0.566
      -0.384
      -0.205
      -0.086
      -0.057
      -0.141
      -0.362
      -0.728
      -1.207
      -1.716
      -2.149
      -2.428
      -2.524
      -2.457
      -2.275
      -2.024
      -1.741
      -1.445
      -1.144
      -0.833
      -0.502
      -0.146
       0.226
       0.590
       0.922
       1.220
       1.493
       1.745
       1.958
       2.103
       2.153
       2.101
       1.960
       1.759
       1.540
       1.348
       1.220
       1.168
       1.176
       1.210
       1.234
       1.223
       1.171
       1.078
       0.929
       0.689
       0.326
      -0.147
      -0.660
      -1.124
      -1.486
      -1.746
      -1.937
      -2.088
      -2.213
      -2.317
      -2.402
      -2.459
      -2.460
      -2.369
      -2.163
      -1.844
      -1.445
      -1.017
      -0.613
      -0.271
      -0.002
       0.212
       0.400
       0.582
       0.762
       0.932
       1.081
       1.207
       1.317
       1.428
       1.548
       1.659
       1.711
       1.653
       1.460
       1.156
       0.804
       0.487
       0.272
       0.204
       0.293
       0.516
       0.815
       1.106
       1.303
       1.353
       1.250
       1.015
       0.669
       0.213
      -0.357
      -1.022
      -1.721
      -2.348
      -2.781
      -2.936
      -2.808
      -2.474
      -2.051
      -1.642
      -1.302
      -1.034
      -0.808
      -0.592
      -0.374
      -0.162
       0.025
       0.184
       0.330
       0.489
       0.684
       0.933
       1.234
       1.569
       1.902
       2.185
       2.372
       2.432
       2.366
       2.202
       1.992
       1.787
       1.619
       1.478
       1.316
       1.079
       0.748
       0.356
      -0.035
      -0.389
      -0.722
      -1.088
      -1.527
      -2.026
      -2.517
      -2.923
      -3.193
      -3.322
      -3.329
      -3.235
      -3.054
      -2.801
      -2.496
      -2.167
      -1.843
      -1.539
      -1.253
      -0.967
      -0.653
      -0.286
       0.144
       0.625
       1.116
       1.555
       1.881
       2.054
       2.072
       1.976
       1.830
       1.697
       1.613
       1.584
       1.594
       1.624
       1.648
       1.637
       1.563
       1.425
       1.248
       1.069
       0.905
       0.732
       0.506
       0.199
      -0.179
      -0.581
      -0.950
      -1.248
      -1.469
      -1.636
      -1.778
      -1.908
      -2.013
      -2.054
      -1.979
      -1.742
      -1.322
      -0.749
      -0.098
       0.531
       1.063
       1.473
       1.775
       1.980
       2.068
       1.995
       1.748
       1.380
       1.003
       0.729
       0.611
       0.627
       0.709
       0.789
       0.824
       0.808
       0.762
       0.704
       0.641
       0.560
       0.441
       0.274
       0.069
      -0.135
      -0.295
      -0.391
      -0.446
      -0.514
      -0.656
      -0.907
      -1.260
      -1.668
      -2.069
      -2.396
      -2.589
      -2.601
      -2.420
      -2.076
      -1.637
      -1.174
      -0.741
      -0.362
      -0.052
       0.187
       0.359
       0.478
       0.556
       0.595
       0.594
       0.564
       0.529
       0.519
       0.552
       0.619
       0.683
       0.706
       0.675
       0.608
       0.528
       0.452
       0.380
       0.311
       0.256
       0.242
       0.286
       0.383
       0.495
       0.568
       0.561
       0.466
       0.306
       0.125
      -0.032
      -0.132
      -0.149
      -0.070
       0.099
       0.324
       0.551
       0.729
       0.835
       0.877
       0.870
       0.821
       0.719
       0.557
       0.342
       0.101
      -0.134
      -0.333
      -0.475
      -0.554
      -0.591
      -0.628
      -0.705
      -0.836
      -0.999
      -1.152
      -1.258
      -1.298
      -1.273
      -1.200
      -1.099
      -0.973
      -0.817
      -0.622
      -0.397
      -0.173
       0.003
       0.090
       0.079
       0.006
      -0.070
      -0.108
      -0.109
      -0.107
      -0.132
      -0.179
      -0.209
      -0.169
      -0.025
       0.218
       0.524
       0.840
       1.123
       1.342
       1.481
       1.539
       1.525
       1.449
       1.319
       1.140
       0.913
       0.647
       0.362
       0.091
      -0.132
      -0.279
      -0.349
      -0.367
      -0.375
      -0.413
      -0.487
      -0.568
      -0.611
      -0.600
      -0.550
      -0.492
      -0.441
      -0.386
      -0.310
      -0.205
      -0.086
       0.016
       0.065
       0.033
      -0.092
      -0.299
      -0.551
      -0.792
      -0.963
      -1.028
      -0.988
      -0.872
      -0.720
      -0.568
      -0.432
      -0.306
      -0.174
      -0.032
       0.108
       0.218
       0.278
       0.285
       0.251
       0.205
       0.171
       0.173
       0.215
       0.284
       0.355
       0.409
       0.447
       0.484
       0.527
       0.560
       0.543
       0.439
       0.241
      -0.025
      -0.305
      -0.542
      -0.691
      -0.736
      -0.681
      -0.551
      -0.380
      -0.202
      -0.039
       0.099
       0.218
       0.322
       0.404
       0.451
       0.447
       0.394
       0.322
       0.283
       0.322
       0.450
       0.629
       0.783
       0.842
       0.774
       0.601
       0.377
       0.155
      -0.035
      -0.190
      -0.320
      -0.436
      -0.538
      -0.615
      -0.659
      -0.670
      -0.664
      -0.659
      -0.658
      -0.658
      -0.646
      -0.620
      -0.585
      -0.552
      -0.538
      -0.545
      -0.555
      -0.538
      -0.465
      -0.321
      -0.106
       0.161
       0.446
       0.710
       0.926
       1.090
       1.214
       1.309
       1.368
       1.360
       1.257
       1.058
       0.793
       0.510
       0.248
       0.027
      -0.150
      -0.284
      -0.375
      -0.422
      -0.431
      -0.416
      -0.390
      -0.362
      -0.342
      -0.339
      -0.357
      -0.388
      -0.409
      -0.398
      -0.347
      -0.265
      -0.176
      -0.100
      -0.040
       0.021
       0.099
       0.196
       0.286
       0.328
       0.291
       0.170
      -0.007
      -0.193
      -0.340
      -0.421
      -0.436
      -0.402
      -0.346
      -0.295
      -0.262
      -0.254
      -0.264
      -0.283
      -0.302
      -0.315
      -0.314
      -0.292
      -0.251
      -0.197
      -0.139
      -0.080
      -0.019
       0.046
       0.120
       0.200
       0.281
       0.354
       0.408
       0.436
       0.433
       0.391
       0.302
       0.172
       0.025
      -0.094
      -0.143
      -0.103
       0.011
       0.157
       0.300
       0.424
       0.539
       0.651
       0.743
       0.776
       0.719
       0.578
       0.401
       0.248
       0.153
       0.109
       0.082
       0.040
      -0.032
      -0.132
      -0.258
      -0.411
      -0.586
      -0.765
      -0.912
      -0.996
      -1.014
      -0.989
      -0.952
      -0.920
      -0.879
      -0.799
      -0.655
      -0.450
      -0.204
       0.060
       0.324
       0.570
       0.762
       0.858
       0.833
       0.702
       0.503
       0.283
       0.072
      -0.116
      -0.269
      -0.371
      -0.405
      -0.365
      -0.261
      -0.120
       0.029
       0.158
       0.241
       0.258
       0.195
       0.052
      -0.154
      -0.379
      -0.570
      -0.687
      -0.728
      -0.729
      -0.720
      -0.703
      -0.646
      -0.520
      -0.327
      -0.103
       0.110
       0.296
       0.462
       0.622
       0.776
       0.905
       0.990
