Origin Time       31/1/2009 03:07:15  UTC
Lat.              32.5 N 
Long.             75.9 E 
Depth (Km)         10.0
Magnitude         3.7
 Region           HIMACHAL-PRADESH                                                 
 Above details taken from IMD 
    
Station Code      DHA
Station Lat.       32.207  N
Station Long.      76.324  E
Station Height(m) 1256.0
Site Class        B   Vs30 between 375 m/sec to 700 m/sec *  
Record Time       31.01.2009 03:07:07.519 UTC
Sampling Rate     200. Hz
 Record Duration   70.230 Sec.
 Direction         N-S (N positive)
Max. Acceleration     -4.157 cm/sec**2
     
  * For reference see Site Classification link of website 
     
 Base Line Corrected and Low Pass Filtered (Cut Off at 35 Hz) Time History
 Acceleration data in cm/sec**2
    
[...]
       0.711
       0.979
       1.041
       0.828
       0.324
      -0.339
      -0.887
      -1.064
      -0.821
      -0.378
      -0.055
      -0.011
      -0.119
      -0.099
       0.213
       0.714
       1.125
       1.232
       1.043
       0.728
       0.452
       0.258
       0.118
       0.038
       0.087
       0.286
       0.493
       0.441
      -0.044
      -0.839
      -1.549
      -1.794
      -1.521
      -1.048
      -0.806
      -0.972
      -1.337
      -1.485
      -1.137
      -0.367
       0.458
       0.951
       0.956
       0.626
       0.275
       0.161
       0.345
       0.705
       1.068
       1.306
       1.360
       1.203
       0.837
       0.327
      -0.175
      -0.480
      -0.475
      -0.219
       0.072
       0.161
      -0.049
      -0.450
      -0.797
      -0.861
      -0.564
      -0.022
       0.522
       0.813
       0.714
       0.258
      -0.394
      -1.052
      -1.567
      -1.842
      -1.801
      -1.384
      -0.612
       0.360
       1.238
       1.716
       1.638
       1.095
       0.350
      -0.328
      -0.793
      -0.996
      -0.906
      -0.486
       0.222
       1.033
       1.688
       2.009
       2.008
       1.812
       1.490
       0.954
       0.074
      -1.095
      -2.211
      -2.817
      -2.664
      -1.912
      -1.021
      -0.437
      -0.314
      -0.475
      -0.589
      -0.404
       0.112
       0.774
       1.308
       1.502
       1.327
       0.940
       0.585
       0.438
       0.514
       0.694
       0.814
       0.762
       0.501
       0.059
      -0.482
      -0.969
      -1.191
      -0.970
      -0.280
       0.684
       1.565
       2.009
       1.832
       1.093
       0.027
      -1.088
      -2.055
      -2.769
      -3.169
      -3.181
      -2.726
      -1.797
      -0.527
       0.811
       1.901
       2.510
       2.568
       2.156
       1.438
       0.603
      -0.144
      -0.597
      -0.623
      -0.259
       0.256
       0.594
       0.551
       0.190
      -0.197
      -0.289
       0.031
       0.588
       1.023
       1.028
       0.545
      -0.193
      -0.807
      -1.012
      -0.795
      -0.424
      -0.267
      -0.530
      -1.105
      -1.632
      -1.738
      -1.296
      -0.508
       0.229
       0.580
       0.458
       0.045
      -0.349
      -0.463
      -0.201
       0.344
       0.959
       1.412
       1.557
       1.387
       1.035
       0.690
       0.482
       0.404
       0.325
       0.084
      -0.370
      -0.905
      -1.264
      -1.239
      -0.825
      -0.232
       0.280
       0.575
       0.695
       0.737
       0.700
       0.467
      -0.064
      -0.824
      -1.549
      -1.933
      -1.837
      -1.366
      -0.773
      -0.282
       0.026
       0.193
       0.282
       0.308
       0.255
       0.143
       0.068
       0.151
       0.445
       0.886
       1.328
       1.635
       1.742
       1.669
       1.463
       1.160
       0.770
       0.301
      -0.215
      -0.724
      -1.175
      -1.530
      -1.772
      -1.878
      -1.808
      -1.516
      -0.995
      -0.317
       0.364
       0.866
       1.069
       0.966
       0.656
       0.276
      -0.068
      -0.326
      -0.480
      -0.512
      -0.393
      -0.111
       0.293
       0.711
       1.004
       1.066
       0.874
       0.499
       0.069
      -0.292
      -0.526
      -0.641
      -0.670
      -0.629
      -0.506
      -0.304
      -0.068
       0.121
       0.195
       0.140
       0.004
      -0.133
      -0.196
      -0.150
       0.002
       0.225
       0.471
       0.691
       0.842
       0.907
       0.880
       0.759
       0.525
       0.160
      -0.308
      -0.766
      -1.042
      -1.009
      -0.680
      -0.226
       0.141
       0.300
       0.282
       0.206
       0.161
       0.142
       0.085
      -0.040
      -0.178
      -0.238
      -0.183
      -0.083
      -0.062
      -0.198
      -0.454
      -0.703
      -0.823
      -0.766
      -0.572
      -0.316
      -0.058
       0.171
       0.355
       0.481
       0.553
       0.589
       0.612
       0.624
       0.597
       0.494
       0.318
       0.133
       0.032
       0.068
       0.195
       0.288
       0.227
      -0.004
      -0.303
      -0.524
      -0.588
      -0.528
      -0.453
      -0.437
      -0.458
      -0.420
      -0.256
      -0.007
       0.197
       0.226
       0.044
      -0.276
      -0.610
      -0.845
      -0.911
      -0.769
      -0.422
       0.073
       0.597
       1.019
       1.260
       1.314
       1.222
       1.012
       0.682
       0.230
      -0.297
      -0.779
      -1.065
      -1.052
      -0.752
      -0.296
       0.142
       0.445
       0.602
       0.684
       0.750
       0.779
       0.683
       0.384
      -0.093
      -0.599
      -0.947
      -1.027
      -0.880
      -0.645
      -0.450
      -0.326
      -0.224
      -0.089
       0.076
       0.216
       0.266
       0.205
       0.064
      -0.097
      -0.219
      -0.266
      -0.231
      -0.129
       0.018
       0.188
       0.356
       0.490
       0.548
       0.500
       0.350
       0.151
      -0.019
      -0.084
      -0.014
       0.164
       0.372
       0.525
       0.566
       0.494
       0.356
       0.212
       0.101
       0.030
      -0.028
      -0.100
      -0.202
      -0.319
      -0.412
      -0.439
      -0.378
      -0.243
      -0.088
       0.020
       0.039
      -0.033
      -0.163
      -0.310
      -0.444
      -0.539
      -0.566
      -0.489
      -0.293
      -0.018
       0.247
       0.407
       0.427
       0.348
       0.252
       0.197
       0.188
       0.185
       0.150
       0.089
       0.050
       0.086
       0.208
       0.369
       0.491
       0.518
       0.453
       0.337
       0.220
       0.115
       0.008
      -0.115
      -0.249
      -0.375
      -0.495
      -0.628
      -0.781
      -0.912
      -0.954
      -0.870
      -0.691
      -0.492
      -0.325
      -0.182
      -0.011
       0.209
       0.430
       0.562
       0.541
       0.389
       0.205
       0.101
       0.131
       0.268
       0.431
       0.547
       0.584
       0.537
       0.407
       0.201
      -0.048
      -0.279
      -0.420
      -0.433
      -0.334
      -0.181
      -0.034
       0.080
       0.176
       0.275
       0.373
       0.430
       0.390
       0.231
      -0.018
      -0.288
      -0.518
      -0.670
      -0.733
      -0.699
      -0.563
      -0.342
      -0.095
       0.097
       0.172
       0.132
       0.037
      -0.048
      -0.098
      -0.127
      -0.151
      -0.166
      -0.148
      -0.088
      -0.002
       0.085
       0.167
       0.266
       0.407
       0.576
       0.711
       0.737
       0.622
       0.397
       0.147
      -0.050
      -0.157
      -0.194
      -0.201
      -0.209
      -0.224
      -0.236
      -0.223
      -0.171
      -0.090
      -0.025
      -0.037
      -0.152
      -0.337
      -0.507
      -0.581
      -0.529
      -0.386
      -0.223
      -0.095
      -0.011
       0.060
       0.160
       0.305
       0.465
       0.575
       0.565
       0.414
       0.172
      -0.063
      -0.197
      -0.199
      -0.111
      -0.008
       0.050
       0.062
       0.070
       0.119
       0.204
       0.274
       0.267
       0.166
       0.017
      -0.095
      -0.105
      -0.009
       0.129
       0.218
       0.200
       0.078
      -0.089
      -0.225
      -0.287
      -0.281
      -0.252
      -0.249
      -0.288
      -0.342
      -0.370
      -0.353
      -0.305
      -0.260
      -0.232
      -0.201
      -0.124
       0.019
       0.193
       0.326
       0.355
       0.278
       0.152
       0.059
       0.048
       0.103
       0.162
       0.172
       0.132
       0.088
       0.086
       0.128
       0.176
       0.183
       0.131
       0.036
      -0.071
      -0.162
      -0.227
      -0.259
      -0.257
      -0.226
      -0.190
      -0.178
      -0.201
      -0.239
      -0.247
      -0.200
      -0.115
      -0.046
      -0.045
      -0.120
      -0.229
      -0.303
      -0.291
      -0.188
      -0.031
       0.130
       0.259
       0.352
       0.429
       0.513
       0.602
       0.670
       0.685
       0.638
       0.550
       0.447
       0.344
       0.235
       0.114
      -0.011
      -0.116
      -0.178
      -0.199
      -0.203
      -0.220
      -0.262
      -0.316
      -0.355
      -0.359
      -0.323
      -0.254
      -0.163
      -0.060
       0.053
       0.167
       0.266
       0.325
       0.318
       0.229
       0.061
      -0.157
      -0.378
      -0.540
      -0.586
      -0.495
      -0.295
      -0.053
       0.157
       0.295
       0.363
       0.398
       0.431
       0.470
       0.485
       0.435
       0.304
       0.121
      -0.044
      -0.127
      -0.111
      -0.036
       0.038
       0.067
       0.048
       0.000
      -0.064
      -0.146
      -0.253
      -0.371
      -0.458
      -0.470
      -0.404
      -0.297
      -0.202
      -0.143
      -0.100
      -0.038
       0.054
       0.146
       0.187
       0.148
       0.053
      -0.038
      -0.076
      -0.051
       0.007
       0.054
       0.067
       0.054
       0.040
       0.052
       0.092
       0.138
       0.157
       0.127
       0.048
      -0.057
      -0.152
      -0.207
      -0.215
      -0.188
      -0.150
      -0.120
      -0.107
      -0.111
      -0.124
      -0.131
      -0.116
      -0.075
      -0.018
       0.033
       0.062
       0.069
       0.080
       0.120
       0.193
       0.270
       0.313
       0.310
       0.285
       0.277
       0.297
       0.317
       0.288
       0.185
       0.030
      -0.114
      -0.187
      -0.168
      -0.080
       0.033
       0.142
       0.247
       0.366
       0.509
       0.666
       0.804
       0.891
       0.912
       0.870
       0.781
       0.663
       0.533
       0.401
       0.272
       0.143
       0.015
      -0.105
      -0.204
      -0.275
      -0.320
      -0.358
      -0.416
      -0.506
      -0.617
      -0.718
      -0.786
      -0.821
      -0.852
      -0.909
      -1.008
      -1.141
      -1.280
      -1.381
      -1.406
      -1.342
      -1.211
      -1.061
      -0.939
      -0.856
      -0.782
      -0.670
      -0.488
      -0.246
       0.013
       0.227
       0.357
       0.399
       0.390
       0.379
       0.400
       0.458
       0.537
       0.622
       0.714
       0.822
       0.945
       1.059
       1.131
       1.137
       1.080
       0.981
       0.862
       0.739
       0.622
       0.526
       0.467
       0.453
       0.477
       0.515
       0.535
       0.506
       0.403
       0.223
      -0.015
      -0.271
      -0.500
      -0.673
      -0.784
      -0.842
      -0.855
      -0.824
      -0.745
      -0.620
      -0.462
      -0.291
      -0.139
      -0.034
       0.006
      -0.014
      -0.068
      -0.128
      -0.177
      -0.208
      -0.217
      -0.195
      -0.136
      -0.053
       0.019
       0.037
      -0.018
      -0.133
      -0.270
      -0.392
      -0.475
      -0.515
      -0.509
      -0.459
      -0.373
      -0.264
      -0.147
      -0.032
       0.076
       0.178
       0.268
       0.341
       0.398
       0.437
       0.452
       0.427
       0.348
       0.210
       0.031
      -0.155
      -0.309
      -0.397
      -0.399
      -0.315
      -0.169
       0.001
       0.153
       0.262
       0.323
       0.349
       0.363
       0.384
       0.420
       0.474
       0.545
       0.621
       0.692
       0.754
       0.802
       0.833
       0.841
       0.815
       0.737
       0.589
       0.351
       0.021
      -0.372
      -0.757
      -1.046
      -1.171
      -1.126
      -0.967
      -0.777
      -0.617
      -0.505
      -0.430
      -0.389
      -0.394
      -0.456
      -0.563
      -0.667
      -0.718
      -0.686
      -0.583
      -0.443
      -0.293
      -0.134
       0.039
       0.220
       0.376
       0.465
       0.459
       0.369
       0.240
       0.131
       0.092
       0.146
       0.292
       0.503
       0.730
       0.909
       0.987
       0.956
       0.864
       0.785
       0.778
       0.843
       0.932
       0.986
       0.978
       0.925
       0.851
       0.759
       0.627
       0.436
       0.192
      -0.066
      -0.287
      -0.433
      -0.503
      -0.523
      -0.530
      -0.545
      -0.566
      -0.581
      -0.580
      -0.574
      -0.585
      -0.634
      -0.716
      -0.794
      -0.810
      -0.713
      -0.479
      -0.114
       0.347
       0.856
       1.350
       1.765
       2.038
       2.120
       1.986
       1.631
       1.081
       0.380
      -0.406
      -1.190
      -1.875
      -2.381
      -2.671
      -2.764
      -2.726
      -2.636
      -2.557
      -2.520
      -2.532
      -2.593
      -2.705
      -2.851
      -2.988
      -3.042
      -2.935
      -2.607
      -2.040
      -1.254
      -0.297
       0.753
       1.793
       2.708
       3.395
       3.807
       3.967
       3.955
       3.860
       3.751
       3.655
       3.572
       3.497
       3.427
       3.357
       3.271
       3.133
       2.899
       2.520
       1.962
       1.220
       0.323
      -0.663
      -1.658
      -2.575
      -3.332
      -3.863
      -4.135
      -4.157
      -3.973
      -3.641
      -3.214
      -2.730
      -2.222
      -1.728
      -1.286
      -0.924
      -0.632
      -0.358
      -0.026
       0.419
       0.979
       1.589
       2.154
       2.584
       2.831
       2.892
       2.786
       2.535
       2.151
       1.646
       1.042
       0.383
      -0.268
      -0.846
      -1.303
      -1.607
      -1.751
      -1.744
      -1.617
      -1.424
      -1.228
      -1.079
      -1.002
      -0.989
      -1.016
      -1.058
      -1.092
      -1.095
      -1.033
      -0.870
      -0.587
      -0.206
       0.219
       0.637
       1.021
       1.374
       1.704
       1.998
       2.213
       2.297
       2.220
       1.991
       1.655
       1.272
       0.900
       0.590
       0.380
       0.281
       0.266
       0.278
       0.246
       0.128
      -0.074
      -0.321
      -0.572
      -0.824
      -1.100
      -1.420
      -1.757
      -2.047
      -2.220
      -2.238
      -2.113
      -1.892
      -1.627
      -1.356
      -1.092
      -0.836
      -0.589
      -0.355
      -0.141
       0.058
       0.256
       0.465
       0.690
       0.922
       1.148
       1.357
       1.539
       1.680
       1.757
       1.743
       1.619
       1.385
       1.064
       0.703
       0.350
       0.044
      -0.201
      -0.390
      -0.531
      -0.626
      -0.666
      -0.640
      -0.549
      -0.413
      -0.280
      -0.199
      -0.201
      -0.281
      -0.402
      -0.528
      -0.640
      -0.727
      -0.771
      -0.731
      -0.570
      -0.286
       0.077
       0.458
       0.812
       1.117
       1.354
       1.488
       1.474
       1.284
       0.926
       0.452
      -0.070
      -0.574
      -1.014
      -1.361
      -1.594
      -1.695
      -1.660
      -1.505
      -1.268
      -0.996
      -0.741
      -0.536
      -0.387
      -0.262
      -0.112
       0.111
       0.426
       0.809
       1.208
       1.573
       1.876
       2.114
       2.291
       2.395
       2.393
       2.247
       1.937
       1.488
       0.960
       0.424
      -0.067
      -0.485
      -0.812
      -1.038
      -1.163
      -1.207
      -1.205
      -1.199
      -1.217
      -1.267
      -1.333
      -1.393
      -1.428
      -1.426
      -1.380
      -1.286
      -1.146
      -0.971
      -0.773
      -0.566
      -0.361
      -0.171
      -0.011
       0.106
       0.179
       0.221
       0.260
       0.327
       0.442
       0.607
       0.802
       0.996
       1.162
       1.285
       1.361
       1.384
       1.349
       1.250
       1.093
       0.891
       0.662
       0.421
       0.180
      -0.042
      -0.224
      -0.351
      -0.427
      -0.483
      -0.556
      -0.667
      -0.807
      -0.932
      -0.987
      -0.940
      -0.805
      -0.636
      -0.488
      -0.384
      -0.303
      -0.204
      -0.064
       0.107
       0.270
       0.385
       0.429
       0.399
       0.301
       0.147
      -0.045
      -0.247
      -0.424
      -0.546
      -0.604
      -0.615
      -0.601
      -0.576
      -0.539
      -0.481
      -0.397
      -0.292
      -0.169
      -0.027
       0.139
       0.323
       0.499
       0.632
       0.700
       0.713
       0.702
       0.702
       0.719
       0.729
       0.689
       0.582
       0.432
       0.288
       0.201
       0.192
       0.252
       0.356
       0.471
       0.562
       0.596
       0.545
       0.390
       0.141
      -0.169
      -0.483
      -0.746
      -0.913
      -0.961
      -0.897
      -0.754
      -0.579
      -0.413
      -0.281
      -0.191
      -0.146
      -0.144
      -0.171
      -0.208
      -0.239
      -0.262
      -0.277
      -0.278
      -0.262
      -0.231
      -0.196
      -0.168
      -0.156
      -0.161
      -0.182
      -0.211
      -0.232
      -0.222
      -0.164
      -0.047
       0.116
       0.294
       0.443
       0.532
       0.552
       0.518
       0.447
       0.345
       0.204
       0.021
      -0.186
      -0.380
      -0.520
      -0.583
      -0.570
      -0.507
      -0.429
      -0.364
      -0.317
      -0.276
      -0.217
      -0.126
      -0.001
       0.143
       0.289
       0.428
       0.556
       0.667
       0.743
       0.764
       0.721
       0.624
       0.498
       0.373
       0.278
       0.226
       0.209
       0.201
       0.172
       0.097
      -0.024
      -0.164
      -0.279
      -0.332
      -0.317
      -0.262
      -0.202
      -0.153
      -0.100
      -0.017
       0.110
       0.270
       0.431
       0.554
       0.610
       0.588
       0.493
       0.337
       0.144
      -0.060
      -0.245
      -0.386
      -0.469
      -0.495
      -0.481
      -0.451
      -0.416
      -0.371
      -0.308
      -0.224
      -0.132
      -0.049
       0.021
       0.083
       0.144
       0.195
       0.211
       0.168
       0.063
      -0.079
      -0.219
      -0.324
      -0.387
      -0.415
      -0.424
      -0.416
      -0.383
      -0.318
      -0.226
      -0.120
      -0.010
       0.099
       0.212
       0.333
       0.457
       0.576
       0.680
       0.762
       0.809
       0.802
       0.722
       0.560
       0.333
       0.080
      -0.156
      -0.353
      -0.509
      -0.629
      -0.702
      -0.701
      -0.607
      -0.423
      -0.188
       0.048
       0.243
       0.377
       0.450
       0.469
       0.438
       0.371
       0.285
       0.199
       0.127
       0.070
       0.028
      -0.006
      -0.036
      -0.068
      -0.107
      -0.161
      -0.237
      -0.337
      -0.453
      -0.565
      -0.649
      -0.682
      -0.658
      -0.584
      -0.480
      -0.363
      -0.249
      -0.149
      -0.072
      -0.027
      -0.018
      -0.042
