Origin Time       04/09/2008 12:53:21
Lat.              30.1°N 
Long.             80.4°E 
Depth (Km)         10.0
Magnitude         5.1
 Region           INDIA(UTTARAKHAND)-TIBET-BORDER-REGION                           
 Above details taken from IMD 
   
Station Code      DHA
Station Lat.       29.847
Station Long.      80.546
Station Height(m)  909.0
Site Class        A   Vs30 between 700 m/sec to 1400 m/sec * 
Record Time       04.09.2008 12:53:11.884
Sampling Rate     200. Hz
 Record Duration   65.005 Sec.
 Direction         Vert. (Up positive)
Max. Acceleration     -4.355 cm/sec**2
     
  * For reference see Site Classification link of website 
     
 Base Line Corrected and Low Pass Filtered (Cut Off at 35 Hz) Time History
 Acceleration data in cm/sec**2
    
[...]
      -0.856
      -0.600
      -0.399
      -0.125
       0.344
       0.977
       1.564
       1.847
       1.699
       1.205
       0.576
       0.026
      -0.288
      -0.276
       0.070
       0.624
       1.103
       1.173
       0.662
      -0.275
      -1.215
      -1.763
      -1.856
      -1.772
      -1.829
      -2.063
      -2.207
      -1.985
      -1.394
      -0.685
      -0.109
       0.258
       0.436
       0.395
       0.096
      -0.321
      -0.521
      -0.238
       0.434
       1.075
       1.295
       1.051
       0.614
       0.274
       0.086
      -0.113
      -0.475
      -0.930
      -1.189
      -0.974
      -0.277
       0.578
       1.157
       1.248
       0.996
       0.717
       0.589
       0.550
       0.465
       0.323
       0.238
       0.297
       0.454
       0.561
       0.466
       0.096
      -0.475
      -1.001
      -1.157
      -0.766
       0.015
       0.760
       1.108
       1.043
       0.855
       0.833
       1.013
       1.200
       1.157
       0.773
       0.122
      -0.562
      -0.997
      -1.026
      -0.751
      -0.495
      -0.552
      -0.962
      -1.475
      -1.775
      -1.714
      -1.374
      -0.919
      -0.438
       0.068
       0.597
       1.081
       1.409
       1.508
       1.395
       1.165
       0.919
       0.668
       0.307
      -0.280
      -1.060
      -1.778
      -2.079
      -1.751
      -0.910
       0.027
       0.596
       0.590
       0.193
      -0.194
      -0.277
      -0.063
       0.214
       0.373
       0.464
       0.679
       1.096
       1.513
       1.571
       1.050
       0.067
      -0.999
      -1.746
      -1.962
      -1.681
      -1.100
      -0.449
       0.151
       0.725
       1.381
       2.153
       2.891
       3.285
       3.025
       2.017
       0.489
      -1.106
      -2.344
      -3.020
      -3.160
      -2.890
      -2.326
      -1.564
      -0.729
       0.041
       0.656
       1.118
       1.455
       1.624
       1.529
       1.149
       0.610
       0.081
      -0.351
      -0.661
      -0.771
      -0.558
      -0.030
       0.587
       0.973
       0.945
       0.557
       0.008
      -0.494
      -0.800
      -0.849
      -0.708
      -0.579
      -0.684
      -1.069
      -1.518
      -1.693
      -1.405
      -0.767
      -0.107
       0.285
       0.382
       0.435
       0.758
       1.440
       2.208
       2.615
       2.371
       1.561
       0.553
      -0.269
      -0.733
      -0.903
      -0.980
      -1.145
      -1.430
      -1.644
      -1.468
      -0.756
       0.203
       0.796
       0.614
      -0.117
      -0.678
      -0.515
       0.238
       0.879
       0.794
       0.006
      -0.873
      -1.221
      -0.935
      -0.443
      -0.241
      -0.426
      -0.666
      -0.576
      -0.124
       0.358
       0.560
       0.570
       0.792
       1.473
       2.367
       2.927
       2.798
       2.076
       1.113
       0.199
      -0.532
      -0.999
      -1.159
      -1.135
      -1.252
      -1.790
      -2.632
      -3.212
      -2.896
      -1.510
       0.469
       2.221
       3.126
       3.107
       2.552
       1.913
       1.358
       0.769
       0.061
      -0.590
      -0.888
      -0.782
      -0.579
      -0.631
      -0.942
      -1.175
      -1.067
      -0.757
      -0.637
      -0.899
      -1.308
      -1.455
      -1.173
      -0.640
      -0.109
       0.389
       0.999
       1.748
       2.341
       2.349
       1.614
       0.452
      -0.598
      -1.228
      -1.521
      -1.692
      -1.758
      -1.545
      -0.991
      -0.309
       0.202
       0.485
       0.774
       1.289
       1.912
       2.228
       1.925
       1.137
       0.392
       0.181
       0.564
       1.150
       1.442
       1.235
       0.703
       0.148
      -0.305
      -0.742
      -1.236
      -1.640
      -1.684
      -1.273
      -0.663
      -0.278
      -0.328
      -0.604
      -0.688
      -0.362
       0.215
       0.718
       0.970
       0.980
       0.771
       0.301
      -0.367
      -0.913
      -0.947
      -0.397
       0.307
       0.545
       0.034
      -0.930
      -1.726
      -1.896
      -1.434
      -0.691
      -0.081
       0.166
       0.065
      -0.223
      -0.514
      -0.669
      -0.591
      -0.234
       0.331
       0.878
       1.134
       0.999
       0.684
       0.557
       0.788
       1.144
       1.180
       0.669
      -0.163
      -0.838
      -1.035
      -0.811
      -0.462
      -0.230
      -0.152
      -0.125
      -0.050
       0.096
       0.298
       0.539
       0.802
       1.035
       1.148
       1.066
       0.785
       0.403
       0.037
      -0.293
      -0.686
      -1.189
      -1.628
      -1.666
      -1.111
      -0.159
       0.712
       1.098
       0.945
       0.503
       0.080
      -0.160
      -0.234
      -0.272
      -0.416
      -0.717
      -1.059
      -1.204
      -0.973
      -0.411
       0.233
       0.699
       0.868
       0.764
       0.453
       0.002
      -0.488
      -0.833
      -0.815
      -0.324
       0.501
       1.278
       1.602
       1.329
       0.710
       0.198
       0.075
       0.230
       0.310
       0.110
      -0.191
      -0.216
       0.218
       0.914
       1.483
       1.657
       1.434
       0.998
       0.563
       0.253
       0.058
      -0.149
      -0.517
      -1.071
      -1.633
      -1.891
      -1.626
      -0.931
      -0.212
       0.079
      -0.216
      -0.820
      -1.221
      -1.066
      -0.462
       0.076
       0.053
      -0.547
      -1.198
      -1.287
      -0.662
       0.262
       0.906
       1.016
       0.762
       0.468
       0.303
       0.248
       0.249
       0.312
       0.424
       0.447
       0.193
      -0.366
      -0.980
      -1.271
      -1.025
      -0.354
       0.394
       0.900
       1.084
       1.092
       1.098
       1.140
       1.140
       1.058
       0.955
       0.891
       0.810
       0.584
       0.173
      -0.282
      -0.567
      -0.597
      -0.509
      -0.551
      -0.848
      -1.268
      -1.531
      -1.456
      -1.107
      -0.681
      -0.288
       0.122
       0.606
       1.058
       1.260
       1.092
       0.658
       0.188
      -0.168
      -0.415
      -0.614
      -0.762
      -0.795
      -0.686
      -0.490
      -0.301
      -0.183
      -0.165
      -0.280
      -0.571
      -1.034
      -1.541
      -1.853
      -1.740
      -1.127
      -0.166
       0.850
       1.657
       2.145
       2.345
       2.319
       2.065
       1.521
       0.686
      -0.292
      -1.143
      -1.621
      -1.621
      -1.207
      -0.556
       0.113
       0.612
       0.841
       0.819
       0.643
       0.417
       0.193
      -0.010
      -0.163
      -0.203
      -0.063
       0.294
       0.847
       1.475
       1.944
       1.989
       1.519
       0.743
       0.051
      -0.291
      -0.328
      -0.320
      -0.477
      -0.805
      -1.138
      -1.282
      -1.135
      -0.761
      -0.374
      -0.220
      -0.395
      -0.758
      -1.036
      -1.050
      -0.831
      -0.533
      -0.273
      -0.079
       0.032
       0.033
      -0.036
      -0.019
       0.236
       0.680
       1.034
       1.008
       0.583
       0.050
      -0.224
      -0.097
       0.273
       0.593
       0.660
       0.448
       0.083
      -0.235
      -0.315
      -0.078
       0.357
       0.715
       0.758
       0.475
       0.099
      -0.089
       0.007
       0.237
       0.354
       0.203
      -0.199
      -0.691
      -1.040
      -1.039
      -0.632
       0.005
       0.537
       0.684
       0.415
      -0.043
      -0.385
      -0.440
      -0.252
      -0.005
       0.147
       0.165
       0.106
       0.028
      -0.056
      -0.145
      -0.200
      -0.168
      -0.063
      -0.004
      -0.128
      -0.440
      -0.772
      -0.898
      -0.700
      -0.233
       0.337
       0.808
       0.998
       0.821
       0.368
      -0.108
      -0.366
      -0.383
      -0.361
      -0.478
      -0.674
      -0.710
      -0.456
      -0.054
       0.237
       0.324
       0.328
       0.384
       0.444
       0.355
       0.073
      -0.254
      -0.426
      -0.392
      -0.269
      -0.190
      -0.164
      -0.093
       0.086
       0.298
       0.385
       0.248
      -0.048
      -0.286
      -0.220
       0.253
       0.980
       1.611
       1.806
       1.439
       0.642
      -0.307
      -1.114
      -1.550
      -1.500
      -1.041
      -0.441
      -0.025
       0.052
      -0.084
      -0.141
       0.101
       0.621
       1.200
       1.593
       1.666
       1.409
       0.893
       0.249
      -0.351
      -0.741
      -0.858
      -0.792
      -0.709
      -0.714
      -0.764
      -0.730
      -0.534
      -0.232
       0.047
       0.220
       0.316
       0.414
       0.552
       0.688
       0.745
       0.648
       0.338
      -0.210
      -0.932
      -1.621
      -2.007
      -1.936
      -1.494
      -0.908
      -0.322
       0.304
       1.036
       1.741
       2.092
       1.845
       1.117
       0.341
      -0.089
      -0.131
      -0.065
      -0.179
      -0.491
      -0.744
      -0.659
      -0.181
       0.439
       0.800
       0.614
      -0.061
      -0.829
      -1.231
      -1.081
      -0.584
      -0.126
       0.059
       0.042
       0.081
       0.371
       0.878
       1.379
       1.609
       1.430
       0.889
       0.168
      -0.511
      -0.962
      -1.110
      -1.035
      -0.946
      -1.010
      -1.190
      -1.265
      -1.061
      -0.639
      -0.222
       0.061
       0.300
       0.631
       0.989
       1.130
       0.919
       0.552
       0.394
       0.617
       1.015
       1.213
       1.003
       0.482
      -0.092
      -0.511
      -0.695
      -0.678
      -0.587
      -0.606
      -0.852
      -1.239
      -1.486
      -1.357
      -0.899
      -0.418
      -0.190
      -0.206
      -0.214
       0.004
       0.409
       0.754
       0.798
       0.482
      -0.067
      -0.632
      -1.009
      -1.058
      -0.735
      -0.118
       0.602
       1.182
       1.434
       1.317
       0.948
       0.523
       0.204
       0.030
      -0.081
      -0.236
      -0.464
      -0.695
      -0.816
      -0.749
      -0.488
      -0.093
       0.310
       0.569
       0.589
       0.406
       0.155
      -0.036
      -0.140
      -0.203
      -0.269
      -0.330
      -0.341
      -0.263
      -0.065
       0.255
       0.631
       0.916
       0.976
       0.820
       0.626
       0.583
       0.713
       0.834
       0.728
       0.349
      -0.107
      -0.349
      -0.226
       0.170
       0.607
       0.890
       0.965
       0.861
       0.600
       0.186
      -0.348
      -0.880
      -1.236
      -1.291
      -1.076
      -0.772
      -0.585
      -0.581
      -0.640
      -0.559
      -0.230
       0.280
       0.775
       1.056
       1.023
       0.708
       0.243
      -0.200
      -0.459
      -0.428
      -0.122
       0.287
       0.533
       0.415
      -0.041
      -0.589
      -0.944
      -0.986
      -0.811
      -0.599
      -0.449
      -0.332
      -0.193
      -0.063
      -0.022
      -0.075
      -0.098
       0.054
       0.365
       0.627
       0.590
       0.191
      -0.384
      -0.837
      -1.002
      -0.963
      -0.944
      -1.069
      -1.225
      -1.160
      -0.717
       0.004
       0.724
       1.197
       1.368
       1.323
       1.143
       0.813
       0.306
      -0.299
      -0.822
      -1.115
      -1.189
      -1.179
      -1.194
      -1.206
      -1.101
      -0.824
      -0.467
      -0.194
      -0.086
      -0.070
      -0.017
       0.102
       0.170
       0.032
      -0.355
      -0.870
      -1.304
      -1.505
      -1.442
      -1.172
      -0.750
      -0.199
       0.429
       0.994
       1.316
       1.337
       1.205
       1.184
       1.410
       1.738
       1.840
       1.501
       0.848
       0.277
       0.122
       0.366
       0.659
       0.644
       0.272
      -0.171
      -0.351
      -0.188
       0.104
       0.259
       0.224
       0.175
       0.295
       0.584
       0.878
       1.041
       1.095
       1.132
       1.146
       0.988
       0.513
      -0.221
      -0.925
      -1.260
      -1.087
      -0.584
      -0.116
       0.031
      -0.181
      -0.584
      -0.979
      -1.234
      -1.261
      -0.969
      -0.327
       0.543
       1.369
       1.891
       2.030
       1.899
       1.654
       1.324
       0.802
       0.002
      -0.992
      -1.927
      -2.529
      -2.642
      -2.253
      -1.445
      -0.357
       0.811
       1.845
       2.614
       3.117
       3.384
       3.321
       2.713
       1.442
      -0.287
      -1.986
      -3.197
      -3.780
      -3.909
      -3.808
      -3.523
      -2.937
      -1.963
      -0.708
       0.561
       1.591
       2.309
       2.807
       3.171
       3.334
       3.131
       2.499
       1.599
       0.699
      -0.030
      -0.592
      -1.050
      -1.399
      -1.594
      -1.666
      -1.743
      -1.891
      -1.962
      -1.684
      -0.926
       0.142
       1.193
       2.026
       2.670
       3.214
       3.616
       3.710
       3.363
       2.577
       1.455
       0.118
      -1.304
      -2.634
      -3.672
      -4.265
      -4.355
      -3.955
      -3.141
      -2.084
      -1.047
      -0.270
       0.190
       0.494
       0.872
       1.423
       2.034
       2.463
       2.505
       2.124
       1.450
       0.658
      -0.149
      -0.966
      -1.797
      -2.578
      -3.201
      -3.581
      -3.662
      -3.375
      -2.657
      -1.568
      -0.379
       0.541
       0.993
       1.115
       1.242
       1.584
       2.023
       2.233
       1.996
       1.417
       0.847
       0.597
       0.704
       0.938
       1.006
       0.770
       0.309
      -0.180
      -0.547
      -0.765
      -0.883
      -0.907
      -0.749
      -0.319
       0.317
       0.904
       1.127
       0.807
      -0.008
      -1.071
      -2.037
      -2.597
      -2.617
      -2.227
      -1.745
      -1.449
      -1.376
      -1.350
      -1.204
      -0.942
      -0.639
      -0.273
       0.270
       1.002
       1.717
       2.142
       2.178
       1.932
       1.538
       0.995
       0.238
      -0.676
      -1.507
      -1.984
      -2.006
      -1.680
      -1.200
      -0.690
      -0.158
       0.432
       1.061
       1.620
       2.007
       2.222
       2.335
       2.331
       2.063
       1.440
       0.623
      -0.059
      -0.437
      -0.669
      -1.029
      -1.576
      -2.116
      -2.454
      -2.584
      -2.559
      -2.264
      -1.481
      -0.211
       1.178
       2.223
       2.760
       2.973
       3.058
       2.976
       2.574
       1.862
       1.075
       0.470
       0.165
       0.146
       0.343
       0.621
       0.754
       0.519
      -0.092
      -0.788
      -1.172
      -1.090
      -0.781
      -0.652
      -0.899
      -1.337
      -1.584
      -1.411
      -0.919
      -0.415
      -0.117
       0.021
       0.193
       0.493
       0.793
       0.887
       0.717
       0.454
       0.373
       0.659
       1.302
       2.110
       2.813
       3.173
       3.080
       2.590
       1.887
       1.180
       0.589
       0.083
      -0.437
      -1.008
      -1.551
      -1.950
      -2.185
      -2.365
      -2.605
      -2.861
      -2.873
      -2.329
      -1.153
       0.347
       1.639
       2.331
       2.399
       2.120
       1.781
       1.461
       1.036
       0.377
      -0.440
      -1.121
      -1.336
      -0.994
      -0.354
       0.132
       0.161
      -0.167
      -0.438
      -0.303
       0.179
       0.599
       0.593
       0.190
      -0.257
      -0.442
      -0.382
      -0.320
      -0.423
      -0.635
      -0.807
      -0.909
      -1.046
      -1.294
      -1.583
      -1.770
      -1.782
      -1.652
      -1.427
      -1.094
      -0.621
      -0.035
       0.562
       1.073
       1.454
       1.684
       1.692
       1.379
       0.720
      -0.137
      -0.926
      -1.426
      -1.600
      -1.570
      -1.457
      -1.245
      -0.804
      -0.070
       0.795
       1.426
       1.476
       0.887
      -0.013
      -0.702
      -0.834
      -0.503
      -0.154
      -0.205
      -0.670
      -1.143
      -1.137
      -0.522
       0.371
       1.034
       1.208
       1.011
       0.711
       0.423
       0.094
      -0.295
      -0.603
      -0.663
      -0.458
      -0.123
       0.213
       0.490
       0.633
       0.519
       0.111
      -0.406
      -0.715
      -0.634
      -0.261
       0.168
       0.516
       0.788
       0.979
       0.979
       0.690
       0.196
      -0.275
      -0.568
      -0.724
      -0.874
      -1.058
      -1.202
      -1.234
      -1.160
      -1.026
      -0.851
      -0.649
      -0.476
      -0.418
      -0.486
      -0.556
      -0.430
       0.024
       0.778
       1.659
       2.441
       2.946
       3.089
       2.870
       2.319
       1.476
       0.443
      -0.567
      -1.284
      -1.554
      -1.457
      -1.222
      -1.004
      -0.762
      -0.347
       0.286
       0.995
       1.554
       1.806
       1.713
       1.337
       0.813
       0.344
       0.114
       0.155
       0.316
       0.397
       0.333
       0.202
       0.094
       0.023
      -0.036
      -0.080
      -0.105
      -0.158
      -0.299
      -0.486
      -0.553
      -0.359
       0.045
       0.432
       0.607
       0.570
       0.447
       0.298
       0.041
      -0.402
      -0.926
      -1.268
      -1.234
      -0.878
      -0.457
      -0.210
      -0.179
      -0.227
      -0.201
      -0.062
       0.120
       0.257
       0.307
       0.261
       0.140
       0.015
      -0.001
       0.169
       0.455
       0.634
       0.499
       0.049
      -0.486
      -0.808
      -0.761
      -0.387
       0.152
       0.673
       0.998
       0.976
       0.564
      -0.095
      -0.710
      -1.021
      -0.959
      -0.636
      -0.205
       0.245
       0.670
       0.996
       1.118
       0.978
       0.605
       0.083
      -0.488
      -0.991
      -1.298
      -1.328
      -1.115
      -0.785
      -0.447
      -0.125
       0.225
       0.627
       1.028
       1.296
       1.271
       0.872
       0.173
      -0.600
      -1.168
      -1.350
      -1.138
      -0.687
      -0.207
       0.159
       0.397
       0.590
       0.817
       1.063
       1.214
       1.138
       0.805
       0.329
      -0.090
      -0.312
      -0.353
      -0.373
      -0.535
      -0.859
      -1.179
      -1.261
      -0.998
      -0.505
      -0.030
       0.262
       0.406
       0.580
       0.926
       1.436
       1.974
       2.375
       2.521
       2.359
       1.926
       1.359
       0.844
       0.481
       0.182
      -0.258
      -0.950
      -1.768
      -2.407
      -2.608
      -2.326
      -1.742
      -1.127
      -0.706
      -0.560
      -0.588
      -0.557
      -0.245
       0.378
