Origin Time       11/1/2010 5:15:18	 
Lat.              29.7 N	
Long.             80.0 E	
Depth (Km)         15.0
Magnitude         3.9
 Region           PITHORAGARH-UTTRAKHAND                                           
 Above details taken from IMD 
     
Station Code      DHA
Station Lat.       29.847  N
Station Long.      80.546  E
Station Height(m)    0.0
Site Class        A   Vs30 between 700 m/sec to 1400 m/sec * 
Record Time       11.01.2010 05:15:06.169
Sampling Rate     200. Hz
 Record Duration   66.045 Sec.
 Direction         E-W (E positive)
Max. Acceleration     -3.208 cm/sec**2
     
  * For reference see Site Classification link of website 
     
 Base Line Corrected and Low Pass Filtered (Cut Off at 35 Hz) Time History
 Acceleration data in cm/sec**2
    
[...]
       0.217
       0.216
       0.216
       0.217
       0.218
       0.218
       0.217
       0.216
       0.216
       0.216
       0.216
       0.214
       0.213
       0.214
       0.217
       0.220
       0.222
       0.222
       0.220
       0.218
       0.218
       0.218
       0.217
       0.216
       0.215
       0.215
       0.216
       0.217
       0.217
       0.216
       0.216
       0.216
       0.216
       0.216
       0.215
       0.215
       0.214
       0.214
       0.215
       0.216
       0.217
       0.216
       0.215
       0.215
       0.215
       0.214
       0.213
       0.213
       0.213
       0.215
       0.216
       0.217
       0.216
       0.215
       0.215
       0.216
       0.216
       0.216
       0.216
       0.216
       0.216
       0.216
       0.215
       0.215
       0.215
       0.215
       0.214
       0.214
       0.213
       0.213
       0.212
       0.213
       0.214
       0.215
       0.214
       0.214
       0.215
       0.217
       0.219
       0.219
       0.218
       0.216
       0.215
       0.214
       0.212
       0.211
       0.211
       0.214
       0.218
       0.220
       0.220
       0.217
       0.214
       0.212
       0.211
       0.211
       0.211
       0.213
       0.214
       0.215
       0.214
       0.213
       0.213
       0.214
       0.214
       0.214
       0.214
       0.214
       0.215
       0.216
       0.216
       0.215
       0.214
       0.214
       0.214
       0.214
       0.213
       0.211
       0.210
       0.210
       0.210
       0.213
       0.215
       0.217
       0.216
       0.215
       0.214
       0.215
       0.217
       0.217
       0.216
       0.214
       0.213
       0.213
       0.213
       0.213
       0.213
       0.213
       0.213
       0.214
       0.214
       0.213
       0.212
       0.212
       0.213
       0.214
       0.214
       0.213
       0.211
       0.211
       0.212
       0.213
       0.213
       0.213
       0.213
       0.213
       0.213
       0.214
       0.214
       0.215
       0.215
       0.215
       0.215
       0.214
       0.213
       0.213
       0.214
       0.215
       0.216
       0.216
       0.215
       0.213
       0.210
       0.209
       0.210
       0.213
       0.215
       0.214
       0.212
       0.210
       0.210
       0.212
       0.215
       0.216
       0.215
       0.212
       0.211
       0.211
       0.212
       0.213
       0.212
       0.211
       0.210
       0.211
       0.212
       0.213
       0.214
       0.214
       0.214
       0.214
       0.214
       0.214
       0.214
       0.213
       0.212
       0.212
       0.212
       0.213
       0.212
       0.212
       0.212
       0.211
       0.211
       0.211
       0.211
       0.211
       0.211
       0.211
       0.210
       0.210
       0.212
       0.213
       0.215
       0.216
       0.215
       0.212
       0.211
       0.209
       0.209
       0.209
       0.210
       0.210
       0.211
       0.211
       0.211
       0.211
       0.211
       0.211
       0.211
       0.212
       0.212
       0.212
       0.212
       0.212
       0.211
       0.210
       0.209
       0.209
       0.210
       0.210
       0.210
       0.211
       0.212
       0.212
       0.211
       0.210
       0.209
       0.209
       0.209
       0.210
       0.210
       0.210
       0.210
       0.210
       0.211
       0.212
       0.212
       0.211
       0.210
       0.209
       0.210
       0.211
       0.212
       0.211
       0.210
       0.209
       0.210
       0.212
       0.213
       0.214
       0.213
       0.212
       0.212
       0.211
       0.210
       0.210
       0.210
       0.212
       0.212
       0.211
       0.209
       0.206
       0.205
       0.207
       0.210
       0.213
       0.213
       0.213
       0.211
       0.210
       0.210
       0.210
       0.210
       0.210
       0.211
       0.212
       0.213
       0.214
       0.213
       0.211
       0.209
       0.208
       0.208
       0.209
       0.209
       0.208
       0.207
       0.208
       0.209
       0.212
       0.213
       0.212
       0.211
       0.210
       0.210
       0.209
       0.209
       0.209
       0.210
       0.211
       0.211
       0.210
       0.209
       0.209
       0.210
       0.211
       0.212
       0.211
       0.209
       0.208
       0.209
       0.211
       0.212
       0.211
       0.209
       0.209
       0.209
       0.209
       0.209
       0.208
       0.208
       0.208
       0.209
       0.210
       0.210
       0.209
       0.208
       0.209
       0.211
       0.214
       0.216
       0.214
       0.210
       0.207
       0.206
       0.208
       0.212
       0.214
       0.214
       0.212
       0.210
       0.208
       0.207
       0.205
       0.206
       0.208
       0.212
       0.214
       0.214
       0.210
       0.207
       0.206
       0.206
       0.208
       0.210
       0.211
       0.212
       0.212
       0.210
       0.209
       0.210
       0.212
       0.213
       0.212
       0.210
       0.209
       0.209
       0.210
       0.208
       0.206
       0.205
       0.207
       0.209
       0.210
       0.210
       0.209
       0.209
       0.209
       0.210
       0.210
       0.210
       0.211
       0.213
       0.213
       0.212
       0.210
       0.209
       0.209
       0.210
       0.209
       0.208
       0.207
       0.207
       0.208
       0.208
       0.208
       0.208
       0.208
       0.208
       0.209
       0.210
       0.210
       0.210
       0.209
       0.208
       0.207
       0.207
       0.208
       0.209
       0.208
       0.207
       0.207
       0.208
       0.208
       0.208
       0.207
       0.206
       0.208
       0.210
       0.210
       0.209
       0.207
       0.205
       0.202
       0.198
       0.194
       0.189
       0.182
       0.168
       0.149
       0.133
       0.129
       0.142
       0.165
       0.185
       0.196
       0.201
       0.217
       0.252
       0.294
       0.326
       0.336
       0.335
       0.342
       0.371
       0.410
       0.431
       0.416
       0.363
       0.280
       0.174
       0.047
      -0.081
      -0.172
      -0.182
      -0.106
       0.015
       0.109
       0.128
       0.080
       0.023
       0.022
       0.110
       0.269
       0.441
       0.555
       0.562
       0.470
       0.347
       0.279
       0.315
       0.432
       0.551
       0.584
       0.485
       0.276
       0.045
      -0.104
      -0.106
       0.019
       0.172
       0.249
       0.209
       0.102
       0.014
      -0.009
       0.016
       0.044
       0.061
       0.092
       0.160
       0.252
       0.321
       0.332
       0.291
       0.238
       0.216
       0.248
       0.322
       0.390
       0.382
       0.253
       0.043
      -0.128
      -0.139
       0.027
       0.270
       0.461
       0.541
       0.535
       0.486
       0.404
       0.288
       0.169
       0.112
       0.146
       0.226
       0.262
       0.208
       0.097
       0.005
      -0.029
      -0.020
       0.006
       0.042
       0.085
       0.112
       0.096
       0.051
       0.046
       0.138
       0.308
       0.465
       0.538
       0.535
       0.509
       0.488
       0.448
       0.374
       0.299
       0.274
       0.297
       0.300
       0.228
       0.103
       0.003
      -0.020
      -0.002
      -0.022
      -0.107
      -0.200
      -0.214
      -0.129
      -0.009
       0.073
       0.105
       0.140
       0.222
       0.338
       0.431
       0.465
       0.462
       0.461
       0.474
       0.474
       0.439
       0.386
       0.352
       0.343
       0.319
       0.244
       0.143
       0.086
       0.115
       0.188
       0.219
       0.165
       0.067
      -0.001
      -0.001
       0.055
       0.138
       0.231
       0.313
       0.346
       0.305
       0.218
       0.154
       0.168
       0.246
       0.326
       0.352
       0.306
       0.214
       0.119
       0.061
       0.057
       0.092
       0.127
       0.136
       0.139
       0.182
       0.281
       0.377
       0.381
       0.262
       0.094
       0.000
       0.047
       0.187
       0.313
       0.355
       0.324
       0.277
       0.253
       0.246
       0.232
       0.204
       0.171
       0.143
       0.119
       0.088
       0.054
       0.038
       0.054
       0.090
       0.119
       0.125
       0.123
       0.142
       0.199
       0.289
       0.376
       0.416
       0.384
       0.306
       0.242
       0.244
       0.308
       0.374
       0.389
       0.346
       0.286
       0.257
       0.272
       0.304
       0.304
       0.239
       0.111
      -0.035
      -0.138
      -0.161
      -0.112
      -0.032
       0.047
       0.123
       0.206
       0.283
       0.319
       0.298
       0.251
       0.239
       0.290
       0.367
       0.408
       0.389
       0.345
       0.330
       0.352
       0.360
       0.291
       0.139
      -0.028
      -0.116
      -0.083
       0.022
       0.108
       0.118
       0.083
       0.083
       0.171
       0.320
       0.445
       0.477
       0.415
       0.320
       0.253
       0.232
       0.236
       0.242
       0.239
       0.231
       0.225
       0.221
       0.218
       0.209
       0.197
       0.191
       0.193
       0.185
       0.146
       0.077
       0.011
      -0.025
      -0.028
      -0.013
       0.011
       0.055
       0.127
       0.205
       0.256
       0.269
       0.269
       0.285
       0.322
       0.353
       0.358
       0.346
       0.338
       0.333
       0.302
       0.224
       0.123
       0.053
       0.060
       0.131
       0.214
       0.261
       0.258
       0.221
       0.175
       0.139
       0.131
       0.156
       0.200
       0.232
       0.229
       0.202
       0.191
       0.226
       0.292
       0.342
       0.338
       0.278
       0.200
       0.147
       0.141
       0.177
       0.236
       0.295
       0.335
       0.349
       0.337
       0.304
       0.255
       0.199
       0.156
       0.144
       0.167
       0.197
       0.190
       0.119
      -0.001
      -0.116
      -0.160
      -0.099
       0.041
       0.190
       0.284
       0.299
       0.261
       0.211
       0.180
       0.182
       0.222
       0.294
       0.374
       0.424
       0.416
       0.355
       0.283
       0.241
       0.233
       0.224
       0.181
       0.103
       0.027
      -0.002
       0.033
       0.109
       0.180
       0.204
       0.176
       0.126
       0.103
       0.133
       0.205
       0.279
       0.309
       0.275
       0.202
       0.136
       0.116
       0.147
       0.204
       0.258
       0.294
       0.316
       0.330
       0.333
       0.314
       0.271
       0.216
       0.172
       0.159
       0.178
       0.210
       0.233
       0.233
       0.219
       0.205
       0.194
       0.177
       0.146
       0.107
       0.073
       0.049
       0.030
       0.019
       0.036
       0.103
       0.224
       0.363
       0.466
       0.495
       0.460
       0.406
       0.370
       0.349
       0.307
       0.226
       0.132
       0.078
       0.095
       0.164
       0.227
       0.234
       0.176
       0.092
       0.039
       0.051
       0.113
       0.176
       0.202
       0.196
       0.190
       0.201
       0.204
       0.178
       0.136
       0.125
       0.170
       0.240
       0.280
       0.267
       0.228
       0.197
       0.172
       0.131
       0.072
       0.032
       0.047
       0.109
       0.166
       0.173
       0.130
       0.084
       0.098
       0.208
       0.398
       0.594
       0.692
       0.625
       0.413
       0.168
       0.014
       0.002
       0.075
       0.133
       0.114
       0.035
      -0.041
      -0.061
      -0.016
       0.060
       0.127
       0.157
       0.156
       0.160
       0.205
       0.302
       0.417
       0.495
       0.503
       0.456
       0.398
       0.360
       0.333
       0.283
       0.189
       0.077
       0.006
       0.022
       0.114
       0.230
       0.306
       0.318
       0.296
       0.300
       0.368
       0.478
       0.554
       0.527
       0.388
       0.198
       0.033
      -0.064
      -0.100
      -0.105
      -0.105
      -0.114
      -0.137
      -0.177
      -0.216
      -0.212
      -0.126
       0.038
       0.216
       0.335
       0.359
       0.317
       0.261
       0.214
       0.165
       0.106
       0.057
       0.054
       0.099
       0.164
       0.219
       0.260
       0.299
       0.338
       0.364
       0.361
       0.319
       0.251
       0.193
       0.183
       0.228
       0.294
       0.339
       0.344
       0.312
       0.263
       0.222
       0.214
       0.245
       0.271
       0.221
       0.058
      -0.157
      -0.292
      -0.265
      -0.127
      -0.013
       0.001
      -0.029
       0.018
       0.208
       0.502
       0.812
       1.080
       1.313
       1.545
       1.768
       1.916
       1.926
       1.822
       1.705
       1.652
       1.619
       1.460
       1.050
       0.409
      -0.298
      -0.879
      -1.253
      -1.490
      -1.727
      -2.060
      -2.493
      -2.932
      -3.208
      -3.144
      -2.657
      -1.830
      -0.863
       0.070
       0.916
       1.700
       2.405
       2.894
       2.995
       2.653
       2.009
       1.302
       0.714
       0.289
       0.009
      -0.109
      -0.031
       0.197
       0.406
       0.408
       0.153
      -0.222
      -0.510
      -0.611
      -0.593
      -0.595
      -0.679
      -0.784
      -0.820
      -0.762
      -0.644
      -0.486
      -0.277
      -0.025
       0.204
       0.356
       0.481
       0.706
       1.098
       1.541
       1.790
       1.649
       1.116
       0.377
      -0.322
      -0.789
      -0.919
      -0.707
      -0.271
       0.174
       0.447
       0.546
       0.653
       0.948
       1.406
       1.800
       1.905
       1.703
       1.376
       1.108
       0.925
       0.709
       0.355
      -0.114
      -0.564
      -0.856
      -0.934
      -0.838
      -0.661
      -0.500
      -0.409
      -0.384
      -0.370
      -0.300
      -0.155
       0.004
       0.061
      -0.055
      -0.280
      -0.426
      -0.315
       0.078
       0.607
       1.067
       1.330
       1.392
       1.331
       1.227
       1.111
       0.960
       0.743
       0.471
       0.202
      -0.010
      -0.175
      -0.361
      -0.620
      -0.920
      -1.169
      -1.293
      -1.309
      -1.300
      -1.315
      -1.312
      -1.191
      -0.889
      -0.443
       0.035
       0.447
       0.771
       1.054
       1.333
       1.580
       1.718
       1.709
       1.615
       1.548
       1.551
       1.541
       1.379
       1.011
       0.513
       0.021
      -0.375
      -0.658
      -0.844
      -0.960
      -1.049
      -1.153
      -1.259
      -1.280
      -1.111
      -0.726
      -0.214
       0.285
       0.676
       0.961
       1.205
       1.452
       1.685
       1.848
       1.890
       1.793
       1.580
       1.298
       1.003
       0.723
       0.438
       0.100
      -0.297
      -0.682
      -0.941
      -1.025
      -1.005
      -1.000
      -1.047
      -1.054
      -0.906
      -0.586
      -0.195
       0.148
       0.401
       0.599
       0.782
       0.945
       1.052
       1.086
       1.073
       1.062
       1.084
       1.117
       1.098
       0.972
       0.729
       0.413
       0.088
      -0.196
      -0.424
      -0.612
      -0.794
      -0.990
      -1.187
      -1.332
      -1.359
      -1.234
      -0.983
      -0.671
      -0.367
      -0.110
       0.091
       0.246
       0.371
       0.487
       0.614
       0.758
       0.898
       0.993
       1.008
       0.947
       0.848
       0.755
       0.682
       0.619
       0.552
       0.472
       0.377
       0.262
       0.132
       0.005
      -0.089
      -0.116
      -0.062
       0.062
       0.223
       0.380
       0.504
       0.588
       0.645
       0.694
       0.743
       0.775
       0.758
       0.673
       0.537
       0.395
       0.291
       0.233
       0.192
       0.126
       0.027
      -0.077
      -0.155
      -0.209
      -0.263
      -0.324
      -0.366
      -0.360
      -0.309
      -0.240
      -0.178
      -0.116
      -0.040
       0.047
       0.122
       0.174
       0.221
       0.287
       0.362
       0.405
       0.390
       0.346
       0.327
       0.357
       0.404
       0.428
       0.415
       0.373
       0.291
       0.142
      -0.074
      -0.299
      -0.445
      -0.465
      -0.390
      -0.292
      -0.215
      -0.152
      -0.072
       0.039
       0.165
       0.271
       0.338
       0.373
       0.403
       0.451
       0.514
       0.566
       0.573
       0.516
       0.402
       0.276
       0.204
       0.231
       0.342
       0.462
       0.506
       0.451
       0.345
       0.262
       0.237
       0.244
       0.238
       0.201
       0.158
       0.144
       0.174
       0.228
       0.276
       0.301
       0.302
       0.304
       0.337
       0.415
       0.516
       0.586
       0.579
       0.499
       0.392
       0.314
       0.280
       0.258
       0.209
       0.116
      -0.001
      -0.107
      -0.177
      -0.216
      -0.244
      -0.282
      -0.337
      -0.400
      -0.453
      -0.483
      -0.481
      -0.442
      -0.363
      -0.243
      -0.083
       0.115
       0.346
       0.594
       0.824
       1.003
       1.109
       1.131
       1.054
       0.866
       0.587
       0.289
       0.059
      -0.064
      -0.113
      -0.163
      -0.252
      -0.349
      -0.394
      -0.355
      -0.262
      -0.168
      -0.098
      -0.028
       0.082
       0.240
       0.410
       0.532
       0.568
       0.522
       0.433
       0.341
       0.265
       0.194
       0.110
       0.009
      -0.085
      -0.128
      -0.090
       0.017
       0.146
       0.253
       0.337
       0.437
       0.579
       0.747
       0.890
       0.973
       1.004
       1.015
       1.016
       0.974
       0.850
       0.635
       0.371
       0.119
      -0.078
      -0.216
      -0.315
      -0.391
      -0.451
      -0.500
      -0.548
      -0.599
      -0.628
      -0.588
      -0.430
      -0.160
       0.157
       0.437
       0.630
       0.747
       0.822
       0.869
       0.871
       0.812
       0.695
       0.554
       0.432
       0.352
       0.295
       0.217
       0.086
      -0.083
      -0.248
      -0.375
      -0.463
      -0.523
      -0.548
      -0.510
      -0.397
      -0.235
      -0.084
       0.012
       0.050
       0.064
       0.085
       0.122
       0.166
       0.210
       0.247
       0.268
       0.260
       0.222
       0.175
       0.158
       0.207
       0.330
       0.500
       0.671
       0.805
       0.881
       0.896
       0.853
       0.765
