Origin Time       17/7/2009 11:07:47 
Lat.              32.3 N 
Long.             76.1 E 
Depth (Km)         39.3
Magnitude         3.7
 Region           CHAMBA-(H.P.)                                                    
 Above details taken from IMD 
   
Station Code      DHA
Station Lat.       32.207
Station Long.      76.324
Station Height(m) 1256.0
Site Class        B   Vs30 between 375 m/sec to 700 m/sec *  
Record Time       17.07.2009 11:07:36.679
Sampling Rate     200. Hz
 Record Duration   69.120 Sec.
 Direction         Vert. (Up positive)
Max. Acceleration      5.503 cm/sec**2
     
  * For reference see Site Classification link of website 
     
 Base Line Corrected and Low Pass Filtered (Cut Off at 35 Hz) Time History
 Acceleration data in cm/sec**2
    
[...]
      -0.014
      -0.035
      -0.033
      -0.011
       0.007
       0.011
       0.010
       0.011
       0.010
       0.000
      -0.016
      -0.026
      -0.024
      -0.013
       0.001
       0.018
       0.032
       0.032
       0.012
      -0.017
      -0.034
      -0.026
       0.000
       0.022
       0.023
       0.001
      -0.030
      -0.046
      -0.037
      -0.007
       0.026
       0.048
       0.048
       0.028
       0.002
      -0.014
      -0.015
      -0.005
       0.008
       0.018
       0.019
       0.009
      -0.009
      -0.025
      -0.028
      -0.015
       0.007
       0.027
       0.036
       0.033
       0.022
       0.007
      -0.009
      -0.023
      -0.029
      -0.022
      -0.004
       0.012
       0.019
       0.016
       0.010
       0.003
       0.000
       0.001
       0.006
       0.014
       0.023
       0.029
       0.023
       0.004
      -0.017
      -0.025
      -0.014
       0.009
       0.027
       0.030
       0.019
       0.003
      -0.005
      -0.002
       0.011
       0.024
       0.027
       0.018
       0.004
      -0.010
      -0.016
      -0.014
      -0.002
       0.015
       0.025
       0.020
       0.002
      -0.018
      -0.024
      -0.016
      -0.002
       0.005
       0.000
      -0.011
      -0.017
      -0.015
      -0.008
      -0.003
      -0.003
      -0.007
      -0.011
      -0.011
      -0.004
       0.008
       0.016
       0.013
      -0.001
      -0.014
      -0.017
      -0.011
      -0.003
       0.005
       0.012
       0.018
       0.021
       0.017
       0.008
      -0.004
      -0.015
      -0.023
      -0.027
      -0.029
      -0.029
      -0.021
      -0.002
       0.020
       0.027
       0.012
      -0.014
      -0.024
      -0.006
       0.019
       0.024
       0.005
      -0.011
       0.000
       0.026
       0.030
       0.002
      -0.032
      -0.039
      -0.020
       0.005
       0.017
       0.024
       0.032
       0.037
       0.030
       0.012
      -0.009
      -0.021
      -0.021
      -0.009
       0.006
       0.012
       0.006
      -0.003
      -0.003
       0.005
       0.012
       0.009
       0.001
      -0.005
      -0.003
       0.007
       0.025
       0.040
       0.043
       0.026
       0.000
      -0.019
      -0.022
      -0.008
       0.011
       0.025
       0.028
       0.023
       0.013
       0.002
      -0.009
      -0.018
      -0.022
      -0.017
      -0.004
       0.010
       0.020
       0.023
       0.015
      -0.001
      -0.016
      -0.021
      -0.011
       0.004
       0.015
       0.018
       0.018
       0.016
       0.010
      -0.001
      -0.010
      -0.012
      -0.010
      -0.006
      -0.003
       0.000
       0.002
       0.005
       0.008
       0.009
       0.006
       0.000
      -0.007
      -0.011
      -0.011
      -0.008
      -0.003
       0.004
       0.013
       0.022
       0.025
       0.017
      -0.001
      -0.018
      -0.025
      -0.019
      -0.005
       0.008
       0.017
       0.021
       0.021
       0.017
       0.011
       0.005
      -0.001
      -0.003
      -0.002
       0.003
       0.005
      -0.001
      -0.014
      -0.025
      -0.028
      -0.021
      -0.014
      -0.012
      -0.011
      -0.007
       0.002
       0.011
       0.015
       0.009
      -0.002
      -0.010
      -0.008
       0.001
       0.015
       0.025
       0.025
       0.012
      -0.013
      -0.033
      -0.029
       0.004
       0.045
       0.057
       0.026
      -0.029
      -0.062
      -0.042
       0.018
       0.070
       0.072
       0.029
      -0.023
      -0.043
      -0.023
       0.014
       0.039
       0.038
       0.016
      -0.008
      -0.022
      -0.019
      -0.004
       0.013
       0.023
       0.023
       0.015
       0.009
       0.008
       0.008
       0.006
       0.000
      -0.009
      -0.015
      -0.016
      -0.012
      -0.007
      -0.003
      -0.005
      -0.009
      -0.011
      -0.007
       0.004
       0.018
       0.028
       0.029
       0.021
       0.009
      -0.001
      -0.005
      -0.004
       0.000
       0.002
       0.001
      -0.004
      -0.012
      -0.016
      -0.011
       0.001
       0.011
       0.011
       0.002
      -0.007
      -0.012
      -0.014
      -0.016
      -0.017
      -0.015
      -0.007
       0.004
       0.011
       0.010
       0.004
       0.000
       0.003
       0.014
       0.025
       0.028
       0.021
       0.006
      -0.009
      -0.018
      -0.014
       0.000
       0.018
       0.028
       0.023
       0.009
      -0.004
      -0.009
      -0.004
       0.004
       0.011
       0.014
       0.010
       0.003
      -0.005
      -0.007
      -0.003
       0.005
       0.009
       0.005
      -0.004
      -0.010
      -0.010
      -0.008
      -0.008
      -0.008
      -0.007
      -0.004
      -0.005
      -0.012
      -0.016
      -0.007
       0.017
       0.040
       0.039
       0.011
      -0.021
      -0.031
      -0.013
       0.012
       0.022
       0.012
      -0.004
      -0.013
      -0.013
      -0.008
      -0.001
       0.011
       0.023
       0.025
       0.013
      -0.005
      -0.010
       0.003
       0.019
       0.019
       0.002
      -0.014
      -0.009
       0.013
       0.034
       0.035
       0.017
       0.000
      -0.001
       0.010
       0.019
       0.012
      -0.005
      -0.014
      -0.007
       0.008
       0.021
       0.025
       0.017
       0.000
      -0.020
      -0.031
      -0.025
      -0.006
       0.013
       0.021
       0.017
       0.011
       0.006
       0.004
       0.003
       0.002
       0.005
       0.009
       0.013
       0.011
       0.000
      -0.013
      -0.020
      -0.018
      -0.006
       0.009
       0.018
       0.016
       0.003
      -0.011
      -0.018
      -0.012
      -0.001
       0.005
       0.001
      -0.007
      -0.014
      -0.015
      -0.011
      -0.007
      -0.005
      -0.005
      -0.001
       0.007
       0.016
       0.018
       0.013
       0.005
       0.001
       0.003
       0.009
       0.013
       0.014
       0.011
       0.005
      -0.003
      -0.010
      -0.012
      -0.009
      -0.005
      -0.004
      -0.005
       0.001
       0.015
       0.030
       0.030
       0.015
      -0.007
      -0.019
      -0.016
      -0.005
       0.004
       0.006
       0.004
       0.001
       0.005
       0.014
       0.020
       0.014
      -0.002
      -0.015
      -0.011
       0.007
       0.027
       0.035
       0.025
       0.001
      -0.024
      -0.038
      -0.031
      -0.008
       0.019
       0.034
       0.030
       0.015
       0.000
      -0.006
      -0.006
      -0.010
      -0.019
      -0.025
      -0.021
      -0.006
       0.009
       0.016
       0.013
       0.008
       0.001
      -0.006
      -0.012
      -0.013
      -0.007
       0.000
      -0.001
      -0.012
      -0.025
      -0.027
      -0.013
       0.009
       0.026
       0.027
       0.014
      -0.004
      -0.012
      -0.005
       0.011
       0.020
       0.013
      -0.009
      -0.031
      -0.041
      -0.032
      -0.008
       0.017
       0.029
       0.023
       0.005
      -0.011
      -0.017
      -0.015
      -0.011
      -0.012
      -0.015
      -0.012
      -0.001
       0.012
       0.017
       0.011
      -0.001
      -0.012
      -0.015
      -0.008
       0.004
       0.012
       0.010
       0.002
      -0.004
      -0.005
      -0.005
      -0.010
      -0.015
      -0.017
      -0.011
       0.000
       0.010
       0.016
       0.017
       0.014
       0.010
       0.004
      -0.005
      -0.013
      -0.012
      -0.002
       0.008
       0.008
      -0.005
      -0.020
      -0.021
      -0.005
       0.018
       0.029
       0.017
      -0.011
      -0.035
      -0.035
      -0.013
       0.015
       0.027
       0.015
      -0.009
      -0.025
      -0.022
      -0.004
       0.013
       0.017
       0.007
      -0.006
      -0.011
      -0.005
       0.004
       0.007
       0.001
      -0.012
      -0.023
      -0.026
      -0.019
      -0.006
       0.005
       0.004
      -0.006
      -0.017
      -0.016
      -0.003
       0.015
       0.024
       0.020
       0.006
      -0.010
      -0.020
      -0.022
      -0.021
      -0.018
      -0.013
      -0.005
       0.005
       0.013
       0.016
       0.014
       0.009
       0.003
      -0.003
      -0.007
      -0.007
       0.001
       0.013
       0.023
       0.022
       0.009
      -0.006
      -0.010
      -0.002
       0.008
       0.008
      -0.006
      -0.019
      -0.019
      -0.003
       0.012
       0.016
       0.009
       0.001
      -0.002
      -0.001
       0.000
       0.004
       0.009
       0.012
       0.008
       0.000
      -0.003
       0.002
       0.010
       0.014
       0.011
       0.005
       0.000
       0.002
       0.006
       0.006
      -0.002
      -0.017
      -0.027
      -0.026
      -0.015
      -0.002
       0.005
       0.006
       0.006
       0.010
       0.018
       0.024
       0.022
       0.014
       0.005
      -0.001
      -0.005
      -0.009
      -0.009
      -0.002
       0.011
       0.019
       0.014
      -0.001
      -0.015
      -0.018
      -0.009
       0.007
       0.018
       0.018
       0.008
      -0.004
      -0.008
      -0.003
       0.004
       0.007
       0.006
       0.004
       0.006
       0.009
       0.007
      -0.003
      -0.019
      -0.030
      -0.029
      -0.013
       0.007
       0.018
       0.014
       0.003
      -0.003
       0.003
       0.013
       0.018
       0.013
       0.007
       0.006
       0.009
       0.010
       0.005
       0.005
       0.023
       0.071
       0.144
       0.218
       0.267
       0.272
       0.236
       0.188
       0.171
       0.216
       0.304
       0.350
       0.241
      -0.097
      -0.621
      -1.148
      -1.416
      -1.209
      -0.489
       0.545
       1.520
       2.053
       1.924
       1.164
       0.024
      -1.143
      -2.016
      -2.383
      -2.155
      -1.361
      -0.153
       1.167
       2.172
       2.451
       1.824
       0.497
      -0.985
      -1.981
      -2.068
      -1.233
       0.132
       1.423
       2.094
       1.885
       0.919
      -0.369
      -1.445
      -1.909
      -1.649
      -0.848
       0.131
       0.922
       1.300
       1.244
       0.880
       0.370
      -0.166
      -0.644
      -0.967
      -1.038
      -0.822
      -0.400
       0.069
       0.434
       0.627
       0.659
       0.564
       0.363
       0.082
      -0.226
      -0.468
      -0.546
      -0.418
      -0.122
       0.237
       0.531
       0.652
       0.547
       0.245
      -0.157
      -0.522
      -0.723
      -0.688
      -0.418
       0.006
       0.446
       0.746
       0.783
       0.510
      -0.016
      -0.624
      -1.073
      -1.154
      -0.803
      -0.150
       0.552
       1.044
       1.165
       0.893
       0.331
      -0.336
      -0.893
      -1.161
      -1.053
      -0.615
      -0.009
       0.544
       0.851
       0.815
       0.461
      -0.068
      -0.552
      -0.761
      -0.555
       0.029
       0.754
       1.280
       1.329
       0.837
      -0.012
      -0.878
      -1.427
      -1.483
      -1.080
      -0.421
       0.236
       0.675
       0.787
       0.573
       0.133
      -0.365
      -0.718
      -0.759
      -0.443
       0.101
       0.622
       0.871
       0.735
       0.292
      -0.239
      -0.607
      -0.645
      -0.348
       0.136
       0.579
       0.789
       0.692
       0.355
      -0.060
      -0.380
      -0.501
      -0.419
      -0.219
      -0.016
       0.098
       0.098
       0.020
      -0.074
      -0.132
      -0.137
      -0.105
      -0.073
      -0.074
      -0.105
      -0.113
      -0.034
       0.139
       0.324
       0.407
       0.326
       0.109
      -0.160
      -0.393
      -0.519
      -0.487
      -0.282
       0.051
       0.406
       0.654
       0.706
       0.558
       0.286
      -0.001
      -0.221
      -0.350
      -0.398
      -0.379
      -0.299
      -0.164
       0.000
       0.156
       0.266
       0.303
       0.269
       0.195
       0.124
       0.087
       0.078
       0.053
      -0.041
      -0.222
      -0.449
      -0.636
      -0.707
      -0.639
      -0.462
      -0.221
       0.054
       0.331
       0.551
       0.646
       0.576
       0.372
       0.132
      -0.020
      -0.001
       0.171
       0.366
       0.405
       0.193
      -0.206
      -0.605
      -0.821
      -0.772
      -0.497
      -0.110
       0.248
       0.438
       0.358
      -0.002
      -0.528
      -1.014
      -1.270
      -1.236
      -1.012
      -0.772
      -0.610
      -0.477
      -0.245
       0.139
       0.583
       0.934
       1.114
       1.194
       1.337
       1.654
       2.111
       2.519
       2.628
       2.269
       1.444
       0.322
      -0.828
      -1.726
      -2.157
      -2.044
      -1.478
      -0.697
       0.007
       0.407
       0.416
       0.084
      -0.438
      -0.942
      -1.199
      -1.040
      -0.440
       0.432
       1.267
       1.733
       1.609
       0.867
      -0.320
      -1.650
      -2.793
      -3.458
      -3.409
      -2.486
      -0.700
       1.644
       3.928
       5.402
       5.503
       4.136
       1.758
      -0.799
      -2.702
      -3.484
      -3.194
      -2.250
      -1.146
      -0.231
       0.326
       0.489
       0.330
       0.041
      -0.119
       0.056
       0.602
       1.339
       1.928
       2.000
       1.331
      -0.038
      -1.763
      -3.298
      -4.079
      -3.734
      -2.265
      -0.093
       2.077
       3.543
       3.874
       3.075
       1.572
       0.037
      -0.917
      -1.037
      -0.543
       0.050
       0.273
      -0.034
      -0.690
      -1.349
      -1.709
      -1.654
      -1.257
      -0.685
      -0.088
       0.462
       0.943
       1.328
       1.545
       1.493
       1.117
       0.467
      -0.289
      -0.936
      -1.313
      -1.369
      -1.136
      -0.688
      -0.110
       0.496
       1.015
       1.352
       1.462
       1.359
       1.069
       0.601
      -0.033
      -0.756
      -1.396
      -1.745
      -1.671
      -1.214
      -0.571
      -0.002
       0.293
       0.268
       0.061
      -0.072
       0.105
       0.658
       1.425
       2.084
       2.287
       1.827
       0.724
      -0.765
      -2.225
      -3.221
      -3.448
      -2.853
      -1.674
      -0.318
       0.829
       1.568
       1.913
       2.002
       1.965
       1.841
       1.562
       1.036
       0.262
      -0.595
      -1.280
      -1.587
      -1.466
      -1.019
      -0.426
       0.117
       0.437
       0.440
       0.169
      -0.182
      -0.337
      -0.087
       0.552
       1.291
       1.679
       1.360
       0.294
      -1.173
      -2.447
      -2.962
      -2.456
      -1.118
       0.503
       1.783
       2.325
       2.097
       1.371
       0.541
      -0.060
      -0.288
      -0.231
      -0.138
      -0.245
      -0.606
      -1.046
      -1.279
      -1.122
      -0.647
      -0.154
       0.046
      -0.132
      -0.478
      -0.649
      -0.418
       0.197
       0.967
       1.586
       1.792
       1.447
       0.613
      -0.434
      -1.303
      -1.676
      -1.468
      -0.838
      -0.064
       0.630
       1.141
       1.435
       1.468
       1.189
       0.627
      -0.070
      -0.690
      -1.079
      -1.180
      -0.999
      -0.572
      -0.004
       0.487
       0.648
       0.368
      -0.198
      -0.702
      -0.828
      -0.503
       0.084
       0.628
       0.894
       0.817
       0.500
       0.136
      -0.099
      -0.124
       0.013
       0.194
       0.308
       0.317
       0.233
       0.072
      -0.177
      -0.533
      -0.964
      -1.346
      -1.502
      -1.281
      -0.659
       0.218
       1.073
       1.592
       1.565
       0.990
       0.113
      -0.677
      -1.034
      -0.843
      -0.262
       0.383
       0.804
       0.880
       0.673
       0.325
      -0.038
      -0.342
      -0.538
      -0.571
      -0.392
      -0.004
       0.488
       0.896
       1.022
       0.749
       0.108
      -0.707
      -1.385
      -1.616
      -1.241
      -0.354
       0.715
       1.544
       1.823
       1.492
       0.740
      -0.119
      -0.815
      -1.214
      -1.303
      -1.136
      -0.785
      -0.327
       0.174
       0.666
       1.075
       1.277
       1.127
       0.575
      -0.252
      -1.067
      -1.577
      -1.626
      -1.252
      -0.616
       0.097
       0.739
       1.184
       1.320
       1.091
       0.562
      -0.061
      -0.523
      -0.664
      -0.499
      -0.173
       0.155
       0.400
       0.552
       0.626
       0.617
       0.488
       0.206
      -0.214
      -0.692
      -1.108
      -1.351
      -1.347
      -1.069
      -0.552
       0.092
       0.697
       1.110
       1.263
       1.203
       1.043
       0.875
       0.712
       0.496
       0.170
      -0.251
      -0.660
      -0.927
      -0.988
      -0.880
      -0.701
      -0.540
      -0.427
      -0.333
      -0.199
       0.016
       0.284
       0.499
       0.534
       0.336
      -0.008
      -0.291
      -0.308
       0.013
       0.556
       1.066
       1.286
       1.079
       0.483
      -0.301
      -0.983
      -1.299
      -1.140
      -0.616
      -0.016
       0.353
       0.329
      -0.036
      -0.524
      -0.889
      -0.987
      -0.831
      -0.549
      -0.277
      -0.076
       0.078
       0.228
       0.388
       0.523
       0.582
       0.531
       0.364
       0.109
      -0.169
      -0.378
      -0.436
      -0.320
      -0.094
       0.143
       0.324
       0.443
       0.516
       0.525
       0.422
       0.196
      -0.084
      -0.297
      -0.360
      -0.288
      -0.173
      -0.112
      -0.142
      -0.224
      -0.283
      -0.249
      -0.071
       0.275
       0.756
       1.238
       1.503
       1.357
       0.781
      -0.034
      -0.793
      -1.258
      -1.353
      -1.141
      -0.744
      -0.291
       0.106
       0.354
       0.388
       0.196
      -0.157
      -0.555
      -0.869
      -1.008
      -0.934
      -0.653
      -0.207
       0.333
       0.869
       1.297
       1.523
       1.488
       1.173
       0.601
      -0.152
      -0.950
      -1.610
      -1.944
      -1.828
      -1.263
      -0.394
       0.518
       1.169
       1.339
       1.008
       0.395
      -0.129
      -0.236
       0.162
       0.853
       1.439
       1.561
       1.087
       0.166
      -0.863
      -1.638
      -1.916
      -1.628
      -0.888
       0.052
       0.871
       1.295
       1.215
       0.733
       0.111
      -0.362
      -0.506
      -0.306
       0.116
       0.583
       0.935
       1.058
       0.903
       0.502
      -0.026
      -0.509
      -0.795
      -0.824
      -0.651
      -0.407
      -0.219
      -0.159
      -0.222
      -0.346
      -0.448
