Origin Time       31/1/2009 03:07:15 
Lat.              32.5 N 
Long.             75.9 E 
Depth (Km)         10.0
Magnitude         3.7
 Region           HIMACHAL-PRADESH                                                 
 Above details taken from IMD 
     
Station Code      DHA
Station Lat.       32.207  N
Station Long.      76.324  E
Station Height(m) 1256.0
Site Class        B   Vs30 between 375 m/sec to 700 m/sec *  
Record Time       31.01.2009 03:07:07.519
Sampling Rate     200. Hz
 Record Duration   70.230 Sec.
 Direction         E-W (E positive)
Max. Acceleration      4.747 cm/sec**2
     
  * For reference see Site Classification link of website 
     
 Base Line Corrected and Low Pass Filtered (Cut Off at 35 Hz) Time History
 Acceleration data in cm/sec**2
    
[...]
       0.318
       0.637
       0.687
       0.431
       0.000
      -0.364
      -0.446
      -0.196
       0.233
       0.593
       0.693
       0.500
       0.127
      -0.260
      -0.526
      -0.607
      -0.496
      -0.236
       0.062
       0.219
       0.073
      -0.389
      -0.954
      -1.264
      -1.048
      -0.330
       0.570
       1.247
       1.476
       1.311
       0.959
       0.591
       0.260
      -0.045
      -0.293
      -0.411
      -0.375
      -0.285
      -0.317
      -0.561
      -0.882
      -0.982
      -0.616
       0.184
       1.085
       1.659
       1.647
       1.090
       0.260
      -0.527
      -1.054
      -1.239
      -1.113
      -0.779
      -0.397
      -0.144
      -0.159
      -0.476
      -0.967
      -1.360
      -1.344
      -0.769
       0.212
       1.184
       1.696
       1.545
       0.901
       0.196
      -0.142
       0.061
       0.674
       1.374
       1.833
       1.823
       1.251
       0.192
      -1.086
      -2.161
      -2.615
      -2.235
      -1.146
       0.227
       1.337
       1.748
       1.342
       0.371
      -0.671
      -1.317
      -1.374
      -0.997
      -0.538
      -0.285
      -0.270
      -0.308
      -0.187
       0.153
       0.613
       1.039
       1.309
       1.320
       0.979
       0.271
      -0.616
      -1.305
      -1.427
      -0.893
       0.017
       0.842
       1.246
       1.185
       0.824
       0.334
      -0.205
      -0.729
      -1.088
      -1.087
      -0.659
       0.026
       0.646
       0.938
       0.840
       0.470
       0.012
      -0.383
      -0.619
      -0.657
      -0.521
      -0.292
      -0.053
       0.173
       0.418
       0.681
       0.869
       0.845
       0.575
       0.198
      -0.065
      -0.107
      -0.044
      -0.121
      -0.481
      -1.002
      -1.354
      -1.249
      -0.676
       0.085
       0.676
       0.907
       0.841
       0.656
       0.468
       0.254
      -0.052
      -0.420
      -0.693
      -0.690
      -0.364
       0.133
       0.533
       0.636
       0.444
       0.152
      -0.027
      -0.033
       0.018
      -0.007
      -0.103
      -0.129
       0.036
       0.353
       0.611
       0.588
       0.223
      -0.314
      -0.730
      -0.822
      -0.611
      -0.305
      -0.137
      -0.187
      -0.339
      -0.367
      -0.112
       0.390
       0.916
       1.201
       1.135
       0.837
       0.550
       0.425
       0.400
       0.283
      -0.044
      -0.490
      -0.834
      -0.911
      -0.767
      -0.616
      -0.680
      -1.014
      -1.461
      -1.752
      -1.677
      -1.213
      -0.520
       0.178
       0.748
       1.203
       1.627
       2.046
       2.362
       2.405
       2.056
       1.327
       0.371
      -0.581
      -1.299
      -1.627
      -1.535
      -1.118
      -0.565
      -0.080
       0.198
       0.235
       0.097
      -0.109
      -0.290
      -0.387
      -0.373
      -0.251
      -0.061
       0.112
       0.157
      -0.009
      -0.382
      -0.855
      -1.253
      -1.405
      -1.224
      -0.759
      -0.174
       0.357
       0.752
       1.053
       1.344
       1.655
       1.918
       2.023
       1.882
       1.459
       0.768
      -0.130
      -1.091
      -1.884
      -2.265
      -2.117
      -1.529
      -0.760
      -0.085
       0.359
       0.608
       0.788
       0.971
       1.103
       1.061
       0.776
       0.311
      -0.168
      -0.499
      -0.615
      -0.570
      -0.483
      -0.460
      -0.524
      -0.609
      -0.616
      -0.499
      -0.307
      -0.149
      -0.097
      -0.121
      -0.106
       0.069
       0.430
       0.876
       1.221
       1.303
       1.087
       0.682
       0.255
      -0.074
      -0.298
      -0.485
      -0.693
      -0.909
      -1.060
      -1.065
      -0.880
      -0.514
      -0.035
       0.440
       0.788
       0.941
       0.934
       0.879
       0.871
       0.906
       0.879
       0.685
       0.309
      -0.159
      -0.600
      -0.945
      -1.177
      -1.275
      -1.186
      -0.860
      -0.333
       0.247
       0.701
       0.932
       0.983
       0.978
       0.993
       0.977
       0.799
       0.366
      -0.291
      -1.023
      -1.650
      -2.027
      -2.069
      -1.746
      -1.092
      -0.222
       0.678
       1.403
       1.804
       1.851
       1.630
       1.293
       0.972
       0.713
       0.474
       0.164
      -0.274
      -0.809
      -1.323
      -1.683
      -1.816
      -1.733
      -1.482
      -1.088
      -0.554
       0.080
       0.696
       1.129
       1.255
       1.075
       0.708
       0.311
      -0.003
      -0.189
      -0.252
      -0.213
      -0.105
       0.023
       0.111
       0.117
       0.047
      -0.054
      -0.131
      -0.163
      -0.165
      -0.157
      -0.139
      -0.085
       0.028
       0.200
       0.412
       0.629
       0.804
       0.890
       0.854
       0.700
       0.472
       0.230
       0.020
      -0.147
      -0.291
      -0.446
      -0.625
      -0.810
      -0.947
      -0.974
      -0.846
      -0.574
      -0.240
       0.027
       0.118
       0.015
      -0.194
      -0.370
      -0.424
      -0.374
      -0.312
      -0.317
      -0.388
      -0.438
      -0.361
      -0.107
       0.270
       0.646
       0.901
       0.992
       0.975
       0.956
       1.016
       1.155
       1.300
       1.346
       1.208
       0.853
       0.320
      -0.292
      -0.854
      -1.252
      -1.419
      -1.356
      -1.119
      -0.798
      -0.473
      -0.189
       0.042
       0.210
       0.292
       0.255
       0.081
      -0.203
      -0.519
      -0.761
      -0.847
      -0.759
      -0.558
      -0.339
      -0.174
      -0.073
       0.007
       0.129
       0.324
       0.569
       0.801
       0.954
       0.993
       0.929
       0.810
       0.696
       0.628
       0.603
       0.580
       0.500
       0.313
       0.001
      -0.396
      -0.786
      -1.054
      -1.124
      -1.001
      -0.758
      -0.477
      -0.200
       0.072
       0.338
       0.557
       0.660
       0.596
       0.366
       0.015
      -0.376
      -0.719
      -0.924
      -0.931
      -0.740
      -0.427
      -0.106
       0.129
       0.254
       0.318
       0.393
       0.514
       0.661
       0.777
       0.813
       0.746
       0.585
       0.360
       0.107
      -0.131
      -0.312
      -0.400
      -0.384
      -0.285
      -0.153
      -0.038
       0.025
       0.027
      -0.026
      -0.122
      -0.238
      -0.330
      -0.348
      -0.268
      -0.121
       0.007
       0.026
      -0.102
      -0.321
      -0.510
      -0.557
      -0.436
      -0.220
      -0.019
       0.104
       0.163
       0.217
       0.303
       0.414
       0.517
       0.597
       0.666
       0.740
       0.799
       0.794
       0.674
       0.422
       0.072
      -0.305
      -0.632
      -0.867
      -1.016
      -1.113
      -1.180
      -1.208
      -1.167
      -1.021
      -0.755
      -0.380
       0.050
       0.455
       0.752
       0.892
       0.882
       0.776
       0.642
       0.522
       0.425
       0.335
       0.231
       0.100
      -0.051
      -0.186
      -0.250
      -0.202
      -0.051
       0.141
       0.296
       0.364
       0.353
       0.297
       0.218
       0.115
      -0.027
      -0.205
      -0.398
      -0.578
      -0.723
      -0.812
      -0.821
      -0.727
      -0.527
      -0.253
       0.034
       0.271
       0.415
       0.465
       0.456
       0.441
       0.454
       0.498
       0.548
       0.569
       0.538
       0.448
       0.316
       0.170
       0.041
      -0.049
      -0.086
      -0.077
      -0.049
      -0.043
      -0.085
      -0.167
      -0.240
      -0.239
      -0.134
       0.044
       0.206
       0.249
       0.123
      -0.145
      -0.466
      -0.742
      -0.911
      -0.963
      -0.918
      -0.796
      -0.603
      -0.337
      -0.024
       0.276
       0.487
       0.569
       0.544
       0.489
       0.483
       0.548
       0.632
       0.649
       0.539
       0.323
       0.081
      -0.100
      -0.182
      -0.192
      -0.182
      -0.182
      -0.181
      -0.147
      -0.069
       0.024
       0.078
       0.054
      -0.039
      -0.143
      -0.189
      -0.149
      -0.059
       0.006
      -0.008
      -0.093
      -0.191
      -0.247
      -0.247
      -0.225
      -0.213
      -0.206
      -0.163
      -0.050
       0.112
       0.256
       0.315
       0.275
       0.187
       0.120
       0.113
       0.147
       0.175
       0.151
       0.069
      -0.040
      -0.131
      -0.165
      -0.134
      -0.059
       0.024
       0.083
       0.106
       0.102
       0.084
       0.060
       0.023
      -0.034
      -0.109
      -0.184
      -0.238
      -0.262
      -0.263
      -0.257
      -0.249
      -0.232
      -0.199
      -0.147
      -0.082
      -0.009
       0.072
       0.164
       0.264
       0.357
       0.421
       0.433
       0.382
       0.285
       0.175
       0.085
       0.037
       0.024
       0.019
      -0.015
      -0.097
      -0.204
      -0.281
      -0.272
      -0.158
       0.030
       0.222
       0.343
       0.349
       0.250
       0.099
      -0.044
      -0.142
      -0.187
      -0.191
      -0.176
      -0.165
      -0.179
      -0.224
      -0.290
      -0.344
      -0.345
      -0.277
      -0.156
      -0.030
       0.054
       0.076
       0.040
      -0.027
      -0.091
      -0.117
      -0.081
       0.023
       0.179
       0.357
       0.514
       0.607
       0.616
       0.559
       0.478
       0.424
       0.434
       0.513
       0.625
       0.697
       0.642
       0.409
       0.020
      -0.435
      -0.841
      -1.117
      -1.244
      -1.259
      -1.210
      -1.131
      -1.033
      -0.915
      -0.770
      -0.585
      -0.346
      -0.049
       0.287
       0.611
       0.864
       1.011
       1.063
       1.072
       1.097
       1.163
       1.261
       1.363
       1.436
       1.450
       1.380
       1.218
       0.984
       0.727
       0.504
       0.350
       0.258
       0.177
       0.051
      -0.137
      -0.355
      -0.548
      -0.681
      -0.756
      -0.801
      -0.852
      -0.940
      -1.075
      -1.238
      -1.376
      -1.424
      -1.342
      -1.142
      -0.875
      -0.600
      -0.356
      -0.163
      -0.040
       0.000
      -0.042
      -0.140
      -0.253
      -0.348
      -0.409
      -0.436
      -0.435
      -0.408
      -0.350
      -0.258
      -0.135
       0.004
       0.133
       0.222
       0.257
       0.247
       0.228
       0.236
       0.285
       0.358
       0.419
       0.441
       0.415
       0.353
       0.276
       0.216
       0.206
       0.271
       0.415
       0.607
       0.789
       0.892
       0.867
       0.709
       0.461
       0.195
      -0.019
      -0.143
      -0.188
      -0.194
      -0.202
      -0.229
      -0.272
      -0.326
      -0.394
      -0.480
      -0.570
      -0.633
      -0.634
      -0.560
      -0.438
      -0.322
      -0.261
      -0.277
      -0.348
      -0.427
      -0.457
      -0.400
      -0.259
      -0.078
       0.076
       0.158
       0.174
       0.176
       0.218
       0.323
       0.473
       0.629
       0.761
       0.857
       0.910
       0.912
       0.852
       0.723
       0.527
       0.280
       0.012
      -0.236
      -0.422
      -0.520
      -0.537
      -0.500
      -0.434
      -0.349
      -0.230
      -0.063
       0.146
       0.352
       0.495
       0.528
       0.448
       0.294
       0.126
       0.000
      -0.060
      -0.064
      -0.044
      -0.038
      -0.077
      -0.173
      -0.322
      -0.500
      -0.671
      -0.797
      -0.854
      -0.836
      -0.754
      -0.625
      -0.467
      -0.296
      -0.129
       0.022
       0.156
       0.286
       0.436
       0.606
       0.775
       0.906
       0.981
       1.013
       1.035
       1.067
       1.099
       1.104
       1.063
       0.974
       0.844
       0.666
       0.423
       0.098
      -0.297
      -0.722
      -1.125
      -1.472
      -1.753
      -1.966
      -2.101
      -2.128
      -2.014
      -1.746
      -1.348
      -0.874
      -0.386
       0.064
       0.447
       0.743
       0.934
       1.008
       0.970
       0.847
       0.671
       0.475
       0.287
       0.142
       0.070
       0.090
       0.186
       0.320
       0.458
       0.590
       0.723
       0.868
       1.017
       1.150
       1.248
       1.300
       1.299
       1.238
       1.122
       0.975
       0.836
       0.732
       0.657
       0.584
       0.496
       0.399
       0.323
       0.295
       0.312
       0.347
       0.366
       0.338
       0.241
       0.053
      -0.245
      -0.658
      -1.159
      -1.689
      -2.187
      -2.609
      -2.943
      -3.204
      -3.412
      -3.574
      -3.684
      -3.733
      -3.710
      -3.604
      -3.401
      -3.091
      -2.686
      -2.225
      -1.758
      -1.324
      -0.932
      -0.568
      -0.212
       0.137
       0.466
       0.756
       1.003
       1.231
       1.473
       1.759
       2.102
       2.493
       2.915
       3.341
       3.747
       4.113
       4.420
       4.642
       4.747
       4.702
       4.477
       4.051
       3.418
       2.597
       1.640
       0.619
      -0.377
      -1.259
      -1.949
      -2.389
      -2.555
      -2.467
      -2.184
      -1.787
      -1.350
      -0.918
      -0.510
      -0.134
       0.195
       0.445
       0.584
       0.601
       0.516
       0.378
       0.237
       0.126
       0.048
      -0.010
      -0.064
      -0.108
      -0.118
      -0.067
       0.051
       0.207
       0.352
       0.443
       0.452
       0.373
       0.216
      -0.010
      -0.298
      -0.634
      -0.993
      -1.338
      -1.631
      -1.847
      -1.978
      -2.032
      -2.018
      -1.939
      -1.791
      -1.567
      -1.265
      -0.901
      -0.507
      -0.131
       0.172
       0.362
       0.422
       0.362
       0.210
       0.004
      -0.211
      -0.388
      -0.492
      -0.499
      -0.397
      -0.170
       0.190
       0.675
       1.255
       1.879
       2.487
       3.010
       3.379
       3.530
       3.422
       3.050
       2.453
       1.697
       0.853
      -0.022
      -0.882
      -1.687
      -2.403
      -3.005
      -3.471
      -3.771
      -3.865
      -3.715
      -3.305
      -2.669
      -1.878
      -1.034
      -0.244
       0.407
       0.869
       1.142
       1.259
       1.282
       1.274
       1.290
       1.356
       1.478
       1.645
       1.835
       2.025
       2.197
       2.332
       2.413
       2.417
       2.317
       2.094
       1.741
       1.268
       0.697
       0.055
      -0.626
      -1.315
      -1.983
      -2.602
      -3.139
      -3.551
      -3.796
      -3.836
      -3.661
      -3.292
      -2.786
      -2.213
      -1.622
      -1.023
      -0.396
       0.269
       0.938
       1.533
       1.970
       2.205
       2.246
       2.141
       1.932
       1.646
       1.290
       0.882
       0.459
       0.077
      -0.208
      -0.366
      -0.400
      -0.343
      -0.248
      -0.170
      -0.148
      -0.190
      -0.282
      -0.405
      -0.545
      -0.690
      -0.819
      -0.895
      -0.872
      -0.723
      -0.463
      -0.139
       0.196
       0.515
       0.830
       1.169
       1.546
       1.933
       2.267
       2.477
       2.518
       2.385
       2.095
       1.678
       1.167
       0.599
       0.026
      -0.488
      -0.892
      -1.171
      -1.356
      -1.498
      -1.626
      -1.717
      -1.715
      -1.577
      -1.316
      -1.001
      -0.715
      -0.517
      -0.421
      -0.407
      -0.449
      -0.534
      -0.665
      -0.842
      -1.044
      -1.226
      -1.332
      -1.324
      -1.197
      -0.972
      -0.679
      -0.333
       0.071
       0.536
       1.049
       1.570
       2.039
       2.397
       2.599
       2.629
       2.503
       2.257
       1.939
       1.590
       1.249
       0.946
       0.695
       0.493
       0.320
       0.149
      -0.039
      -0.242
      -0.435
      -0.593
      -0.708
      -0.796
      -0.889
      -1.020
      -1.204
      -1.422
      -1.625
      -1.756
      -1.772
      -1.657
      -1.426
      -1.112
      -0.744
      -0.340
       0.085
       0.503
       0.864
       1.118
       1.241
       1.239
       1.140
       0.969
       0.735
       0.440
       0.088
      -0.296
      -0.667
      -0.970
      -1.161
      -1.215
      -1.135
      -0.948
      -0.695
      -0.414
      -0.130
       0.149
       0.419
       0.672
       0.891
       1.054
       1.147
       1.171
       1.136
       1.054
       0.928
       0.758
       0.548
       0.317
       0.104
      -0.051
      -0.122
      -0.111
      -0.051
       0.014
       0.048
       0.047
       0.029
       0.012
       0.001
      -0.026
      -0.097
      -0.232
      -0.425
      -0.644
      -0.857
      -1.038
      -1.176
      -1.263
      -1.292
      -1.251
      -1.129
      -0.928
      -0.667
      -0.376
      -0.082
       0.199
       0.457
       0.670
       0.804
       0.826
       0.732
       0.562
       0.383
       0.250
       0.186
       0.177
       0.200
       0.239
       0.294
       0.369
       0.464
       0.565
       0.644
       0.665
       0.599
       0.437
       0.198
      -0.080
      -0.348
      -0.568
      -0.724
      -0.822
      -0.877
      -0.898
      -0.881
      -0.813
      -0.681
      -0.489
      -0.260
      -0.029
       0.175
       0.339
       0.462
       0.546
       0.591
       0.594
       0.553
       0.473
       0.372
       0.269
       0.176
       0.091
       0.007
      -0.075
      -0.130
      -0.124
      -0.033
       0.140
       0.366
       0.600
       0.800
       0.938
       1.004
       0.999
       0.930
       0.800
       0.615
       0.389
       0.146
      -0.087
      -0.290
      -0.457
      -0.587
      -0.667
      -0.674
      -0.583
      -0.397
      -0.148
       0.101
       0.281
       0.348
       0.297
       0.158
      -0.027
      -0.222
      -0.405
      -0.567
      -0.703
      -0.807
      -0.872
      -0.889
      -0.857
      -0.775
      -0.652
      -0.505
      -0.353
      -0.213
      -0.091
       0.013
       0.108
       0.196
       0.281
       0.358
       0.418
       0.444
       0.421
       0.348
       0.239
       0.121
       0.019
      -0.045
      -0.062
      -0.035
       0.036
       0.147
       0.286
       0.427
       0.535
       0.583
       0.554
       0.449
       0.286
       0.100
      -0.072
      -0.201
      -0.276
      -0.310
      -0.326
      -0.341
      -0.363
      -0.391
      -0.419
      -0.435
      -0.423
      -0.373
      -0.281
      -0.155
      -0.009
       0.140
       0.271
       0.359
       0.389
       0.364
       0.310
       0.263
