Origin Time       11/1/2010 5:15:18	  UTC
Lat.              29.7 N	
Long.             80.0 E	
Depth (Km)         15.0
Magnitude         3.9
 Region           PITHORAGARH-UTTRAKHAND                                           
 Above details taken from IMD 
    
Station Code      DHA
Station Lat.       29.847  N
Station Long.      80.546  E
Station Height(m)    0.0
Site Class        A   Vs30 between 700 m/sec to 1400 m/sec * 
Record Time       11.01.2010 05:15:06.169 UTC
Sampling Rate     200. Hz
 Record Duration   66.045 Sec.
 Direction         N-S (N positive)
Max. Acceleration    -19.318 cm/sec**2
     
  * For reference see Site Classification link of website 
     
 Base Line Corrected and Low Pass Filtered (Cut Off at 35 Hz) Time History
 Acceleration data in cm/sec**2
    
[...]
      -0.004
      -0.009
      -0.010
      -0.004
       0.003
       0.003
      -0.004
      -0.011
      -0.012
      -0.010
      -0.012
      -0.019
      -0.024
      -0.020
      -0.005
       0.014
       0.026
       0.025
       0.015
       0.005
       0.001
       0.001
      -0.001
      -0.008
      -0.014
      -0.014
      -0.009
      -0.005
      -0.004
      -0.006
      -0.008
      -0.007
      -0.007
      -0.008
      -0.011
      -0.014
      -0.016
      -0.016
      -0.011
      -0.004
      -0.001
      -0.005
      -0.010
      -0.013
      -0.013
      -0.015
      -0.021
      -0.025
      -0.022
      -0.012
      -0.003
       0.000
      -0.004
      -0.009
      -0.010
      -0.006
      -0.002
      -0.002
      -0.004
      -0.006
      -0.006
      -0.005
      -0.007
      -0.009
      -0.011
      -0.012
      -0.012
      -0.014
      -0.018
      -0.022
      -0.024
      -0.020
      -0.013
      -0.009
      -0.012
      -0.015
      -0.009
       0.005
       0.017
       0.018
       0.009
      -0.001
      -0.008
      -0.013
      -0.022
      -0.031
      -0.030
      -0.015
       0.008
       0.023
       0.021
       0.007
      -0.010
      -0.021
      -0.028
      -0.030
      -0.026
      -0.018
      -0.009
      -0.008
      -0.013
      -0.018
      -0.017
      -0.012
      -0.008
      -0.008
      -0.010
      -0.007
      -0.001
       0.003
       0.001
      -0.005
      -0.010
      -0.010
      -0.008
      -0.009
      -0.016
      -0.024
      -0.031
      -0.033
      -0.028
      -0.017
      -0.002
       0.006
       0.005
      -0.003
      -0.007
      -0.002
       0.008
       0.012
       0.005
      -0.006
      -0.014
      -0.014
      -0.012
      -0.012
      -0.013
      -0.013
      -0.010
      -0.007
      -0.008
      -0.013
      -0.017
      -0.016
      -0.010
      -0.004
      -0.006
      -0.014
      -0.022
      -0.023
      -0.018
      -0.012
      -0.009
      -0.010
      -0.011
      -0.010
      -0.008
      -0.006
      -0.004
      -0.001
       0.002
       0.002
      -0.001
      -0.005
      -0.008
      -0.007
      -0.004
       0.000
       0.006
       0.009
       0.004
      -0.011
      -0.026
      -0.033
      -0.025
      -0.010
       0.001
       0.000
      -0.011
      -0.022
      -0.023
      -0.010
       0.005
       0.011
       0.004
      -0.011
      -0.021
      -0.021
      -0.014
      -0.009
      -0.011
      -0.017
      -0.021
      -0.020
      -0.014
      -0.006
       0.000
       0.001
       0.001
       0.001
       0.002
       0.002
      -0.001
      -0.007
      -0.011
      -0.012
      -0.010
      -0.008
      -0.008
      -0.010
      -0.012
      -0.014
      -0.016
      -0.018
      -0.018
      -0.016
      -0.015
      -0.016
      -0.018
      -0.018
      -0.012
      -0.001
       0.010
       0.012
       0.006
      -0.006
      -0.017
      -0.023
      -0.025
      -0.024
      -0.021
      -0.018
      -0.016
      -0.014
      -0.013
      -0.012
      -0.014
      -0.014
      -0.013
      -0.010
      -0.006
      -0.004
      -0.004
      -0.007
      -0.012
      -0.018
      -0.021
      -0.021
      -0.019
      -0.017
      -0.015
      -0.009
      -0.004
      -0.003
      -0.009
      -0.018
      -0.024
      -0.025
      -0.021
      -0.018
      -0.018
      -0.019
      -0.018
      -0.016
      -0.011
      -0.007
      -0.006
      -0.010
      -0.017
      -0.020
      -0.017
      -0.009
      -0.005
      -0.008
      -0.016
      -0.021
      -0.016
      -0.006
       0.004
       0.006
       0.003
      -0.001
      -0.005
      -0.009
      -0.014
      -0.015
      -0.011
      -0.004
       0.000
      -0.006
      -0.020
      -0.035
      -0.039
      -0.029
      -0.012
       0.002
       0.007
       0.003
      -0.005
      -0.011
      -0.013
      -0.013
      -0.013
      -0.012
      -0.007
       0.001
       0.007
       0.009
       0.004
      -0.007
      -0.017
      -0.023
      -0.023
      -0.019
      -0.018
      -0.021
      -0.026
      -0.023
      -0.013
      -0.001
       0.005
       0.003
      -0.004
      -0.008
      -0.011
      -0.012
      -0.013
      -0.013
      -0.009
      -0.006
      -0.005
      -0.010
      -0.014
      -0.014
      -0.008
       0.000
       0.002
      -0.004
      -0.015
      -0.020
      -0.014
      -0.002
       0.003
      -0.002
      -0.010
      -0.014
      -0.012
      -0.010
      -0.013
      -0.017
      -0.018
      -0.015
      -0.011
      -0.008
      -0.008
      -0.013
      -0.016
      -0.012
       0.002
       0.020
       0.029
       0.020
      -0.003
      -0.024
      -0.028
      -0.014
       0.007
       0.021
       0.020
       0.009
      -0.003
      -0.013
      -0.023
      -0.030
      -0.029
      -0.015
       0.007
       0.021
       0.017
      -0.002
      -0.021
      -0.028
      -0.024
      -0.014
      -0.005
       0.004
       0.010
       0.008
      -0.001
      -0.008
      -0.003
       0.008
       0.014
       0.007
      -0.004
      -0.008
      -0.005
      -0.003
      -0.011
      -0.023
      -0.027
      -0.019
      -0.006
       0.000
      -0.003
      -0.007
      -0.007
      -0.003
       0.000
       0.000
       0.001
       0.007
       0.015
       0.017
       0.010
      -0.001
      -0.007
      -0.005
      -0.001
      -0.003
      -0.011
      -0.017
      -0.015
      -0.009
      -0.007
      -0.009
      -0.012
      -0.011
      -0.007
      -0.003
       0.000
       0.003
       0.003
      -0.002
      -0.011
      -0.016
      -0.015
      -0.009
      -0.005
      -0.008
      -0.013
      -0.013
      -0.009
      -0.005
      -0.009
      -0.016
      -0.016
      -0.008
       0.002
       0.004
      -0.002
      -0.013
      -0.025
      -0.041
      -0.062
      -0.085
      -0.112
      -0.156
      -0.234
      -0.340
      -0.432
      -0.454
      -0.382
      -0.250
      -0.134
      -0.076
      -0.043
       0.049
       0.242
       0.485
       0.666
       0.724
       0.714
       0.758
       0.921
       1.139
       1.262
       1.176
       0.873
       0.404
      -0.199
      -0.914
      -1.643
      -2.158
      -2.218
      -1.781
      -1.095
      -0.562
      -0.456
      -0.728
      -1.052
      -1.057
      -0.559
       0.345
       1.322
       1.965
       2.005
       1.486
       0.788
       0.403
       0.607
       1.271
       1.947
       2.133
       1.568
       0.386
      -0.927
      -1.772
      -1.781
      -1.074
      -0.202
       0.231
       0.005
      -0.601
      -1.102
      -1.229
      -1.087
      -0.928
      -0.834
      -0.660
      -0.270
       0.249
       0.640
       0.704
       0.473
       0.173
       0.049
       0.228
       0.648
       1.036
       0.990
       0.260
      -0.935
      -1.904
      -1.967
      -1.025
       0.354
       1.436
       1.890
       1.857
       1.580
       1.117
       0.457
      -0.215
      -0.542
      -0.349
       0.104
       0.312
       0.002
      -0.626
      -1.148
      -1.341
      -1.288
      -1.142
      -0.939
      -0.692
      -0.538
      -0.633
      -0.886
      -0.914
      -0.389
       0.571
       1.462
       1.879
       1.860
       1.714
       1.591
       1.366
       0.947
       0.523
       0.382
       0.509
       0.529
       0.122
      -0.590
      -1.153
      -1.285
      -1.186
      -1.298
      -1.782
      -2.305
      -2.385
      -1.906
      -1.222
      -0.757
      -0.575
      -0.380
       0.088
       0.744
       1.270
       1.468
       1.449
       1.444
       1.516
       1.515
       1.318
       1.019
       0.828
       0.776
       0.639
       0.215
      -0.359
      -0.680
      -0.517
      -0.104
       0.071
      -0.233
      -0.788
      -1.174
      -1.173
      -0.860
      -0.388
       0.142
       0.607
       0.792
       0.559
       0.066
      -0.292
      -0.217
       0.225
       0.684
       0.828
       0.567
       0.045
      -0.492
      -0.823
      -0.845
      -0.646
      -0.447
      -0.395
      -0.379
      -0.132
       0.426
       0.971
       0.995
       0.319
      -0.636
      -1.164
      -0.900
      -0.107
       0.609
       0.847
       0.673
       0.408
       0.269
       0.228
       0.152
      -0.009
      -0.196
      -0.351
      -0.492
      -0.668
      -0.859
      -0.950
      -0.860
      -0.655
      -0.492
      -0.455
      -0.466
      -0.361
      -0.033
       0.474
       0.968
       1.194
       1.017
       0.571
       0.209
       0.223
       0.582
       0.959
       1.043
       0.798
       0.460
       0.295
       0.381
       0.560
       0.563
       0.193
      -0.534
      -1.361
      -1.946
      -2.075
      -1.797
      -1.342
      -0.894
      -0.464
       0.005
       0.443
       0.651
       0.529
       0.263
       0.195
       0.483
       0.922
       1.156
       1.047
       0.798
       0.710
       0.835
       0.880
       0.491
      -0.371
      -1.316
      -1.815
      -1.632
      -1.033
      -0.547
      -0.489
      -0.690
      -0.688
      -0.186
       0.658
       1.366
       1.545
       1.195
       0.657
       0.277
       0.157
       0.184
       0.216
       0.200
       0.156
       0.118
       0.099
       0.077
       0.026
      -0.040
      -0.072
      -0.062
      -0.107
      -0.329
      -0.716
      -1.096
      -1.299
      -1.313
      -1.231
      -1.095
      -0.843
      -0.438
       0.007
       0.299
       0.374
       0.368
       0.463
       0.672
       0.848
       0.877
       0.811
       0.766
       0.735
       0.559
       0.118
      -0.459
      -0.850
      -0.815
      -0.413
       0.061
       0.329
       0.313
       0.102
      -0.163
      -0.362
      -0.407
      -0.265
      -0.016
       0.164
       0.145
      -0.007
      -0.068
       0.128
       0.504
       0.791
       0.764
       0.426
      -0.015
      -0.316
      -0.353
      -0.149
       0.186
       0.521
       0.752
       0.828
       0.758
       0.571
       0.295
      -0.020
      -0.268
      -0.331
      -0.200
      -0.033
      -0.073
      -0.472
      -1.153
      -1.808
      -2.057
      -1.711
      -0.916
      -0.069
       0.461
       0.548
       0.332
       0.047
      -0.130
      -0.117
       0.109
       0.517
       0.971
       1.256
       1.209
       0.866
       0.461
       0.222
       0.173
       0.125
      -0.119
      -0.561
      -0.992
      -1.158
      -0.961
      -0.529
      -0.127
       0.013
      -0.148
      -0.429
      -0.563
      -0.393
       0.020
       0.439
       0.606
       0.416
      -0.001
      -0.375
      -0.487
      -0.310
       0.014
       0.317
       0.521
       0.647
       0.729
       0.743
       0.636
       0.392
       0.081
      -0.166
      -0.240
      -0.135
       0.050
       0.177
       0.179
       0.098
       0.019
      -0.041
      -0.139
      -0.315
      -0.534
      -0.727
      -0.866
      -0.971
      -1.032
      -0.940
      -0.558
       0.127
       0.918
       1.501
       1.668
       1.469
       1.161
       0.957
       0.837
       0.603
       0.143
      -0.391
      -0.697
      -0.599
      -0.212
       0.145
       0.185
      -0.141
      -0.617
      -0.919
      -0.853
      -0.499
      -0.140
       0.006
      -0.030
      -0.060
      -0.002
       0.021
      -0.131
      -0.370
      -0.432
      -0.177
       0.222
       0.447
       0.374
       0.155
      -0.021
      -0.160
      -0.396
      -0.731
      -0.957
      -0.870
      -0.519
      -0.194
      -0.155
      -0.399
      -0.659
      -0.582
       0.042
       1.122
       2.232
       2.790
       2.407
       1.206
      -0.185
      -1.055
      -1.125
      -0.709
      -0.381
      -0.487
      -0.936
      -1.367
      -1.479
      -1.227
      -0.792
      -0.416
      -0.246
      -0.248
      -0.228
       0.029
       0.579
       1.229
       1.671
       1.720
       1.454
       1.124
       0.908
       0.757
       0.472
      -0.060
      -0.695
      -1.096
      -1.011
      -0.484
       0.169
       0.600
       0.672
       0.549
       0.569
       0.955
       1.580
       2.012
       1.855
       1.071
      -0.006
      -0.942
      -1.495
      -1.698
      -1.727
      -1.729
      -1.776
      -1.907
      -2.134
      -2.358
      -2.335
      -1.843
      -0.916
       0.097
       0.768
       0.907
       0.671
       0.351
       0.085
      -0.191
      -0.530
      -0.805
      -0.825
      -0.566
      -0.197
       0.112
       0.346
       0.568
       0.788
       0.938
       0.918
       0.680
       0.293
      -0.036
      -0.088
       0.168
       0.543
       0.797
       0.821
       0.643
       0.365
       0.130
       0.087
       0.261
       0.412
       0.128
      -0.798
      -2.016
      -2.782
      -2.629
      -1.848
      -1.200
      -1.118
      -1.288
      -1.022
       0.054
       1.723
       3.480
       4.998
       6.319
       7.635
       8.902
       9.739
       9.797
       9.207
       8.546
       8.246
       8.058
       7.155
       4.831
       1.195
      -2.813
      -6.107
      -8.231
      -9.576
     -10.916
     -12.804
     -15.262
     -17.752
     -19.318
     -18.953
     -16.192
     -11.504
      -6.018
      -0.725
       4.071
       8.521
      12.515
      15.289
      15.862
      13.926
      10.270
       6.265
       2.929
       0.517
      -1.070
      -1.741
      -1.297
      -0.004
       1.182
       1.194
      -0.253
      -2.380
      -4.014
      -4.585
      -4.483
      -4.496
      -4.968
      -5.565
      -5.771
      -5.442
      -4.770
      -3.876
      -2.688
      -1.260
       0.037
       0.901
       1.607
       2.885
       5.107
       7.622
       9.035
       8.232
       5.210
       1.021
      -2.944
      -5.590
      -6.327
      -5.128
      -2.657
      -0.129
       1.419
       1.979
       2.585
       4.257
       6.858
       9.093
       9.688
       8.544
       6.686
       5.168
       4.130
       2.905
       0.897
      -1.763
      -4.314
      -5.972
      -6.414
      -5.867
      -4.865
      -3.950
      -3.435
      -3.294
      -3.214
      -2.817
      -1.992
      -1.090
      -0.766
      -1.426
      -2.703
      -3.529
      -2.900
      -0.673
       2.327
       4.940
       6.431
       6.781
       6.433
       5.846
       5.188
       4.331
       3.100
       1.557
       0.033
      -1.169
      -2.106
      -3.160
      -4.625
      -6.332
      -7.741
      -8.443
      -8.537
      -8.485
      -8.571
      -8.555
      -7.867
      -6.153
      -3.626
      -0.914
       1.423
       3.263
       4.864
       6.446
       7.848
       8.633
       8.584
       8.050
       7.667
       7.687
       7.630
       6.713
       4.622
       1.799
      -0.988
      -3.236
      -4.840
      -5.895
      -6.553
      -7.060
      -7.650
      -8.251
      -8.366
      -7.408
      -5.228
      -2.322
       0.509
       2.725
       4.344
       5.726
       7.124
       8.449
       9.375
       9.612
       9.063
       7.851
       6.253
       4.579
       2.993
       1.375
      -0.538
      -2.793
      -4.975
      -6.442
      -6.919
      -6.807
      -6.780
      -7.041
      -7.084
      -6.244
      -4.428
      -2.211
      -0.268
       1.168
       2.292
       3.330
       4.252
       4.860
       5.054
       4.979
       4.921
       5.046
       5.230
       5.122
       4.406
       3.031
       1.237
      -0.606
      -2.215
      -3.505
      -4.575
      -5.606
      -6.717
      -7.833
      -8.656
      -8.809
      -8.103
      -6.676
      -4.907
      -3.182
      -1.724
      -0.584
       0.292
       1.000
       1.659
       2.381
       3.197
       3.992
       4.530
       4.618
       4.270
       3.711
       3.182
       2.768
       2.410
       2.027
       1.577
       1.036
       0.384
      -0.354
      -1.074
      -1.603
      -1.761
      -1.454
      -0.746
       0.167
       1.057
       1.760
       2.236
       2.556
       2.834
       3.114
       3.297
       3.200
       2.718
       1.945
       1.139
       0.550
       0.226
      -0.010
      -0.383
      -0.945
      -1.532
      -1.975
      -2.283
      -2.590
      -2.935
      -3.173
      -3.140
      -2.847
      -2.460
      -2.106
      -1.756
      -1.323
      -0.828
      -0.402
      -0.109
       0.159
       0.535
       0.960
       1.199
       1.114
       0.864
       0.760
       0.928
       1.198
       1.333
       1.261
       1.021
       0.557
      -0.288
      -1.517
      -2.792
      -3.618
      -3.732
      -3.308
      -2.748
      -2.311
      -1.957
      -1.504
      -0.870
      -0.159
       0.443
       0.823
       1.022
       1.192
       1.462
       1.821
       2.117
       2.159
       1.833
       1.188
       0.475
       0.065
       0.218
       0.849
       1.527
       1.780
       1.467
       0.866
       0.396
       0.252
       0.295
       0.260
       0.051
      -0.195
      -0.272
      -0.106
       0.200
       0.477
       0.614
       0.622
       0.633
       0.821
       1.266
       1.836
       2.232
       2.197
       1.738
       1.133
       0.691
       0.496
       0.377
       0.096
      -0.434
      -1.097
      -1.695
      -2.095
      -2.314
      -2.471
      -2.687
      -3.001
      -3.356
      -3.657
      -3.825
      -3.814
      -3.593
      -3.144
      -2.463
      -1.559
      -0.436
       0.877
       2.281
       3.588
       4.602
       5.202
       5.328
       4.894
       3.826
       2.245
       0.553
      -0.754
      -1.446
      -1.728
      -2.013
      -2.515
      -3.067
      -3.318
      -3.098
      -2.570
      -2.039
      -1.643
      -1.245
      -0.621
       0.278
       1.239
       1.931
       2.135
       1.875
       1.369
       0.851
       0.419
       0.017
      -0.461
      -1.034
      -1.564
      -1.807
      -1.593
      -0.985
      -0.256
       0.349
       0.829
       1.393
       2.202
       3.155
       3.966
       4.434
       4.610
       4.676
       4.680
       4.445
       3.739
       2.522
       1.024
      -0.406
      -1.525
      -2.309
      -2.866
      -3.296
      -3.638
      -3.917
      -4.189
      -4.475
      -4.644
      -4.412
      -3.520
      -1.990
      -0.189
       1.397
       2.495
       3.159
       3.584
       3.847
       3.862
       3.525
       2.863
       2.064
       1.372
       0.916
       0.595
       0.152
      -0.588
      -1.549
      -2.484
      -3.205
      -3.704
      -4.044
      -4.184
      -3.970
      -3.327
      -2.410
      -1.551
      -1.009
      -0.792
      -0.712
      -0.592
      -0.386
      -0.135
       0.114
       0.325
       0.441
       0.397
       0.184
      -0.081
      -0.177
       0.100
       0.798
       1.762
       2.733
       3.489
       3.921
       4.005
       3.765
       3.262
