Origin Time       04/09/2008 12:53:21 UTC
Lat.              30.1°N 
Long.             80.4°E 
Depth (Km)         10.0
Magnitude         5.1
 Region           INDIA(UTTARAKHAND)-TIBET-BORDER-REGION                           
 Above details taken from IMD 
    
Station Code      DHA
Station Lat.       29.847  N
Station Long.      80.546  E
Station Height(m)  909.0
Site Class        A   Vs30 between 700 m/sec to 1400 m/sec * 
Record Time       04.09.2008 12:53:11.884 UTC
Sampling Rate     200. Hz
 Record Duration   65.005 Sec.
 Direction         N-S (N positive)
Max. Acceleration      5.767 cm/sec**2
     
  * For reference see Site Classification link of website 
     
 Base Line Corrected and Low Pass Filtered (Cut Off at 35 Hz) Time History
 Acceleration data in cm/sec**2
    
[...]
      -0.311
      -0.226
      -0.032
       0.390
       0.986
       1.565
       1.934
       1.996
       1.770
       1.338
       0.793
       0.216
      -0.321
      -0.725
      -0.906
      -0.834
      -0.595
      -0.370
      -0.320
      -0.478
      -0.731
      -0.894
      -0.825
      -0.494
       0.017
       0.576
       1.065
       1.417
       1.615
       1.662
       1.566
       1.327
       0.952
       0.472
      -0.047
      -0.513
      -0.831
      -0.958
      -0.949
      -0.942
      -1.053
      -1.265
      -1.430
      -1.394
      -1.121
      -0.708
      -0.288
       0.061
       0.341
       0.608
       0.925
       1.306
       1.679
       1.904
       1.840
       1.443
       0.779
      -0.011
      -0.772
      -1.367
      -1.693
      -1.725
      -1.545
      -1.310
      -1.157
      -1.106
      -1.049
      -0.841
      -0.412
       0.178
       0.772
       1.210
       1.413
       1.433
       1.408
       1.447
       1.526
       1.478
       1.125
       0.430
      -0.446
      -1.233
      -1.694
      -1.721
      -1.367
      -0.797
      -0.215
       0.226
       0.471
       0.540
       0.471
       0.301
       0.095
      -0.054
      -0.084
      -0.039
      -0.060
      -0.275
      -0.682
      -1.106
      -1.286
      -1.043
      -0.412
       0.346
       0.905
       1.065
       0.866
       0.537
       0.331
       0.369
       0.601
       0.871
       1.011
       0.912
       0.572
       0.088
      -0.394
      -0.772
      -1.015
      -1.124
      -1.090
      -0.918
      -0.666
      -0.438
      -0.310
      -0.271
      -0.243
      -0.149
       0.035
       0.281
       0.529
       0.712
       0.770
       0.684
       0.506
       0.335
       0.243
       0.226
       0.218
       0.158
       0.029
      -0.150
      -0.368
      -0.623
      -0.906
      -1.173
      -1.349
      -1.342
      -1.082
      -0.568
       0.094
       0.714
       1.107
       1.201
       1.073
       0.912
       0.910
       1.149
       1.522
       1.769
       1.654
       1.150
       0.470
      -0.089
      -0.364
      -0.426
      -0.464
      -0.602
      -0.795
      -0.901
      -0.833
      -0.639
      -0.448
      -0.348
      -0.321
      -0.276
      -0.160
      -0.019
       0.024
      -0.113
      -0.396
      -0.718
      -0.997
      -1.227
      -1.408
      -1.492
      -1.416
      -1.177
      -0.841
      -0.486
      -0.147
       0.156
       0.398
       0.562
       0.694
       0.882
       1.168
       1.481
       1.669
       1.614
       1.298
       0.801
       0.247
      -0.225
      -0.495
      -0.532
      -0.420
      -0.310
      -0.310
      -0.420
      -0.565
      -0.665
      -0.659
      -0.507
      -0.190
       0.243
       0.685
       1.028
       1.229
       1.300
       1.270
       1.168
       1.055
       1.006
       1.035
       1.037
       0.826
       0.277
      -0.559
      -1.447
      -2.096
      -2.311
      -2.093
      -1.599
      -1.031
      -0.519
      -0.088
       0.314
       0.757
       1.277
       1.830
       2.281
       2.452
       2.216
       1.597
       0.770
      -0.048
      -0.721
      -1.238
      -1.656
      -2.018
      -2.318
      -2.487
      -2.437
      -2.128
      -1.631
      -1.106
      -0.692
      -0.401
      -0.133
       0.205
       0.610
       1.017
       1.383
       1.714
       1.997
       2.134
       1.994
       1.531
       0.827
       0.038
      -0.702
      -1.309
      -1.746
      -1.998
      -2.073
      -1.987
      -1.742
      -1.302
      -0.632
       0.239
       1.156
       1.887
       2.238
       2.173
       1.824
       1.422
       1.183
       1.203
       1.400
       1.558
       1.466
       1.041
       0.357
      -0.430
      -1.191
      -1.860
      -2.395
      -2.740
      -2.854
      -2.750
      -2.484
      -2.106
      -1.628
      -1.045
      -0.374
       0.354
       1.105
       1.847
       2.526
       3.063
       3.365
       3.351
       2.996
       2.353
       1.552
       0.740
       0.008
      -0.642
      -1.255
      -1.823
      -2.252
      -2.429
      -2.310
      -1.947
      -1.419
      -0.789
      -0.120
       0.488
       0.922
       1.137
       1.198
       1.226
       1.300
       1.396
       1.414
       1.259
       0.905
       0.417
      -0.098
      -0.558
      -0.958
      -1.343
      -1.724
      -2.017
      -2.098
      -1.902
      -1.496
      -1.032
      -0.651
      -0.411
      -0.283
      -0.182
      -0.019
       0.260
       0.656
       1.114
       1.545
       1.854
       1.958
       1.818
       1.467
       1.007
       0.569
       0.225
      -0.045
      -0.312
      -0.610
      -0.888
      -1.057
      -1.069
      -0.960
      -0.812
      -0.683
      -0.559
      -0.375
      -0.067
       0.379
       0.901
       1.385
       1.723
       1.852
       1.779
       1.545
       1.195
       0.759
       0.253
      -0.317
      -0.934
      -1.528
      -1.966
      -2.116
      -1.956
      -1.605
      -1.239
      -0.944
      -0.668
      -0.306
       0.162
       0.626
       0.920
       0.952
       0.774
       0.530
       0.357
       0.312
       0.374
       0.475
       0.543
       0.517
       0.372
       0.115
      -0.215
      -0.568
      -0.900
      -1.185
      -1.407
      -1.540
      -1.550
      -1.424
      -1.200
      -0.946
      -0.711
      -0.486
      -0.210
       0.166
       0.630
       1.104
       1.496
       1.760
       1.912
       1.985
       1.979
       1.844
       1.528
       1.025
       0.385
      -0.318
      -1.001
      -1.559
      -1.875
      -1.866
      -1.564
      -1.119
      -0.706
      -0.411
      -0.196
       0.036
       0.349
       0.754
       1.230
       1.728
       2.148
       2.360
       2.277
       1.924
       1.423
       0.905
       0.416
      -0.099
      -0.734
      -1.527
      -2.403
      -3.196
      -3.732
      -3.907
      -3.724
      -3.254
      -2.573
      -1.735
      -0.796
       0.138
       0.928
       1.476
       1.788
       1.969
       2.136
       2.337
       2.527
       2.611
       2.506
       2.178
       1.653
       0.992
       0.259
      -0.494
      -1.209
      -1.817
      -2.238
      -2.411
      -2.301
      -1.907
      -1.266
      -0.482
       0.292
       0.907
       1.299
       1.507
       1.633
       1.769
       1.937
       2.071
       2.056
       1.808
       1.345
       0.778
       0.220
      -0.295
      -0.818
      -1.403
      -2.020
      -2.545
      -2.840
      -2.827
      -2.515
      -1.959
      -1.236
      -0.440
       0.316
       0.923
       1.323
       1.537
       1.652
       1.753
       1.861
       1.914
       1.813
       1.497
       0.974
       0.310
      -0.415
      -1.136
      -1.813
      -2.413
      -2.895
      -3.193
      -3.245
      -3.027
      -2.569
      -1.944
      -1.227
      -0.470
       0.291
       1.002
       1.595
       2.022
       2.285
       2.420
       2.466
       2.435
       2.317
       2.111
       1.837
       1.528
       1.197
       0.828
       0.392
      -0.098
      -0.581
      -0.977
      -1.243
      -1.397
      -1.472
      -1.474
      -1.361
      -1.091
      -0.670
      -0.153
       0.387
       0.895
       1.323
       1.616
       1.712
       1.585
       1.256
       0.798
       0.314
      -0.103
      -0.410
      -0.643
      -0.890
      -1.202
      -1.546
      -1.831
      -1.992
      -2.025
      -1.946
      -1.739
      -1.355
      -0.797
      -0.163
       0.392
       0.777
       1.024
       1.245
       1.519
       1.833
       2.099
       2.213
       2.105
       1.740
       1.120
       0.300
      -0.596
      -1.399
      -1.969
      -2.276
      -2.396
      -2.441
      -2.470
      -2.452
      -2.287
      -1.877
      -1.188
      -0.292
       0.654
       1.474
       2.052
       2.357
       2.430
       2.325
       2.082
       1.736
       1.335
       0.925
       0.520
       0.104
      -0.323
      -0.717
      -0.999
      -1.108
      -1.033
      -0.809
      -0.497
      -0.164
       0.134
       0.372
       0.568
       0.763
       0.995
       1.269
       1.546
       1.763
       1.846
       1.727
       1.363
       0.746
      -0.068
      -0.953
      -1.740
      -2.283
      -2.518
      -2.473
      -2.233
      -1.899
      -1.562
      -1.278
      -1.042
      -0.781
      -0.397
       0.141
       0.733
       1.187
       1.353
       1.226
       0.936
       0.642
       0.424
       0.272
       0.122
      -0.097
      -0.430
      -0.861
      -1.291
      -1.591
      -1.676
      -1.548
      -1.240
      -0.762
      -0.113
       0.644
       1.346
       1.796
       1.884
       1.659
       1.305
       1.029
       0.935
       0.976
       1.001
       0.869
       0.530
       0.025
      -0.562
      -1.145
      -1.638
      -1.947
      -1.999
      -1.760
      -1.246
      -0.516
       0.321
       1.118
       1.723
       2.042
       2.070
       1.868
       1.531
       1.152
       0.809
       0.543
       0.337
       0.125
      -0.154
      -0.503
      -0.854
      -1.124
      -1.266
      -1.275
      -1.162
      -0.957
      -0.724
      -0.543
      -0.439
      -0.348
      -0.171
       0.112
       0.400
       0.550
       0.490
       0.261
      -0.047
      -0.378
      -0.721
      -1.048
      -1.275
      -1.305
      -1.099
      -0.712
      -0.262
       0.139
       0.422
       0.576
       0.629
       0.630
       0.631
       0.667
       0.741
       0.827
       0.880
       0.840
       0.656
       0.320
      -0.103
      -0.499
      -0.764
      -0.852
      -0.770
      -0.550
      -0.234
       0.133
       0.498
       0.818
       1.070
       1.270
       1.439
       1.566
       1.588
       1.443
       1.129
       0.730
       0.358
       0.075
      -0.140
      -0.348
      -0.588
      -0.846
      -1.079
      -1.267
      -1.429
      -1.576
      -1.659
      -1.579
      -1.253
      -0.708
      -0.082
       0.446
       0.769
       0.899
       0.925
       0.939
       0.982
       1.051
       1.129
       1.215
       1.300
       1.339
       1.256
       1.002
       0.608
       0.181
      -0.165
      -0.392
      -0.541
      -0.677
      -0.824
      -0.937
      -0.945
      -0.813
      -0.585
      -0.348
      -0.160
       0.011
       0.250
       0.594
       0.968
       1.228
       1.278
       1.137
       0.898
       0.645
       0.396
       0.131
      -0.165
      -0.474
      -0.766
      -1.019
      -1.223
      -1.369
      -1.466
      -1.541
      -1.632
      -1.766
      -1.935
      -2.091
      -2.156
      -2.046
      -1.710
      -1.178
      -0.573
      -0.062
       0.218
       0.222
      -0.008
      -0.385
      -0.811
      -1.195
      -1.465
      -1.596
      -1.606
      -1.538
      -1.410
      -1.204
      -0.897
      -0.509
      -0.116
       0.190
       0.361
       0.427
       0.480
       0.610
       0.846
       1.146
       1.432
       1.625
       1.668
       1.543
       1.293
       1.034
       0.918
       1.051
       1.402
       1.792
       1.977
       1.811
       1.342
       0.784
       0.358
       0.149
       0.101
       0.116
       0.166
       0.300
       0.561
       0.915
       1.274
       1.583
       1.863
       2.164
       2.483
       2.742
       2.840
       2.718
       2.380
       1.881
       1.284
       0.641
      -0.005
      -0.612
      -1.132
      -1.544
      -1.880
      -2.215
      -2.598
      -2.975
      -3.200
      -3.129
      -2.728
      -2.107
      -1.458
      -0.933
      -0.573
      -0.321
      -0.109
       0.074
       0.192
       0.239
       0.290
       0.447
       0.732
       1.018
       1.095
       0.834
       0.292
      -0.320
      -0.778
      -0.963
      -0.887
      -0.633
      -0.295
       0.058
       0.387
       0.685
       0.974
       1.284
       1.613
       1.892
       1.994
       1.799
       1.279
       0.525
      -0.289
      -0.993
      -1.485
      -1.758
      -1.874
      -1.900
      -1.854
      -1.695
      -1.366
      -0.858
      -0.229
       0.414
       0.963
       1.346
       1.537
       1.545
       1.381
       1.037
       0.522
      -0.106
      -0.719
      -1.182
      -1.421
      -1.475
      -1.457
      -1.485
      -1.620
      -1.834
      -2.052
      -2.192
      -2.219
      -2.160
      -2.101
      -2.135
      -2.282
      -2.449
      -2.485
      -2.292
      -1.894
      -1.395
      -0.890
      -0.396
       0.149
       0.839
       1.728
       2.760
       3.763
       4.522
       4.892
       4.860
       4.527
       4.029
       3.483
       2.957
       2.454
       1.906
       1.195
       0.246
      -0.884
      -1.984
      -2.788
      -3.116
      -2.942
      -2.377
      -1.576
      -0.673
       0.246
       1.119
       1.878
       2.448
       2.776
       2.859
       2.734
       2.439
       1.991
       1.416
       0.764
       0.078
      -0.660
      -1.516
      -2.508
      -3.527
      -4.349
      -4.743
      -4.581
      -3.871
      -2.702
      -1.174
       0.609
       2.487
       4.190
       5.375
       5.767
       5.311
       4.201
       2.766
       1.288
      -0.123
      -1.488
      -2.811
      -3.967
      -4.738
      -4.970
      -4.683
      -4.056
      -3.298
      -2.543
      -1.828
      -1.131
      -0.430
       0.271
       0.941
       1.561
       2.148
       2.749
       3.386
       4.020
       4.545
       4.831
       4.758
       4.245
       3.291
       2.039
       0.781
      -0.145
      -0.523
      -0.397
      -0.059
       0.137
      -0.005
      -0.434
      -0.951
      -1.380
      -1.669
      -1.889
      -2.160
      -2.565
      -3.110
      -3.732
      -4.340
      -4.835
      -5.111
      -5.074
      -4.698
      -4.053
      -3.259
      -2.398
      -1.494
      -0.592
       0.178
       0.674
       0.882
       0.968
       1.145
       1.494
       1.921
       2.272
       2.464
       2.499
       2.400
       2.177
       1.854
       1.464
       1.009
       0.452
      -0.201
      -0.846
      -1.333
      -1.582
      -1.623
      -1.508
      -1.212
      -0.647
       0.216
       1.250
       2.212
       2.902
       3.270
       3.395
       3.370
       3.238
       3.019
       2.766
       2.570
       2.496
       2.517
       2.529
       2.440
       2.251
       2.048
       1.916
       1.849
       1.757
       1.540
       1.156
       0.648
       0.084
      -0.494
      -1.087
      -1.695
      -2.265
      -2.692
      -2.880
      -2.822
      -2.619
      -2.431
      -2.393
      -2.531
      -2.749
      -2.886
      -2.811
      -2.496
      -2.001
      -1.416
      -0.787
      -0.105
       0.648
       1.418
       2.043
       2.309
       2.083
       1.422
       0.559
      -0.216
      -0.690
      -0.793
      -0.578
      -0.164
       0.316
       0.762
       1.132
       1.435
       1.689
       1.861
       1.865
       1.628
       1.159
       0.552
      -0.084
      -0.688
      -1.251
      -1.769
      -2.199
      -2.444
      -2.389
      -1.978
      -1.282
      -0.504
       0.106
       0.395
       0.400
       0.318
       0.358
       0.603
       0.987
       1.384
       1.691
       1.850
       1.803
       1.494
       0.922
       0.179
      -0.602
      -1.331
      -1.980
      -2.523
      -2.864
      -2.875
      -2.508
      -1.877
      -1.226
      -0.798
      -0.715
      -0.933
      -1.287
      -1.566
      -1.616
      -1.424
      -1.134
      -0.936
      -0.921
      -1.017
      -1.064
      -0.954
      -0.725
      -0.515
      -0.450
      -0.540
      -0.689
      -0.793
      -0.823
      -0.826
      -0.858
      -0.912
      -0.925
      -0.824
      -0.578
      -0.211
       0.218
       0.670
       1.152
       1.714
       2.383
       3.107
       3.768
       4.244
       4.460
       4.392
       4.031
       3.385
       2.519
       1.565
       0.662
      -0.137
      -0.862
      -1.523
      -2.017
      -2.175
      -1.915
      -1.329
      -0.620
       0.027
       0.524
       0.859
       1.044
       1.086
       0.995
       0.781
       0.460
       0.064
      -0.342
      -0.658
      -0.797
      -0.736
      -0.553
      -0.380
      -0.326
      -0.414
      -0.571
      -0.689
      -0.697
      -0.597
      -0.440
      -0.265
      -0.085
       0.086
       0.215
       0.280
       0.296
       0.308
       0.325
       0.304
       0.201
       0.052
      -0.012
       0.136
       0.488
       0.884
       1.151
       1.245
       1.250
       1.243
       1.195
       1.012
       0.656
       0.196
      -0.240
      -0.562
      -0.771
      -0.933
      -1.097
      -1.233
      -1.236
      -1.002
      -0.511
       0.131
       0.739
       1.166
       1.378
       1.444
       1.433
       1.349
       1.152
       0.833
       0.451
       0.105
      -0.134
      -0.262
      -0.339
      -0.460
      -0.709
      -1.130
      -1.714
      -2.384
      -2.987
      -3.338
      -3.307
      -2.917
      -2.336
      -1.771
      -1.328
      -0.975
      -0.619
      -0.203
       0.262
       0.710
       1.054
       1.211
       1.139
       0.871
       0.517
       0.209
       0.037
       0.014
       0.094
       0.217
       0.352
       0.502
       0.690
       0.940
       1.252
       1.577
       1.830
       1.936
       1.882
       1.700
       1.399
       0.944
       0.314
      -0.409
      -1.064
      -1.515
      -1.747
      -1.862
      -1.989
      -2.201
      -2.471
      -2.685
      -2.694
      -2.391
      -1.768
      -0.921
      -0.007
       0.844
       1.585
       2.234
       2.799
       3.215
       3.368
       3.178
       2.667
       1.959
       1.216
       0.555
       0.016
      -0.417
      -0.754
      -0.954
      -0.942
      -0.674
      -0.208
       0.299
       0.670
       0.813
       0.773
       0.695
       0.714
       0.878
       1.137
       1.407
       1.612
       1.684
       1.571
       1.275
       0.880
       0.511
       0.243
       0.047
      -0.171
      -0.463
      -0.775
      -0.978
      -0.967
      -0.750
      -0.450
      -0.246
      -0.274
      -0.546
      -0.941
      -1.278
      -1.437
      -1.427
      -1.342
      -1.274
      -1.260
      -1.301
      -1.410
      -1.599
      -1.837
      -2.035
      -2.096
      -1.986
      -1.750
      -1.464
      -1.167
      -0.863
      -0.559
      -0.291
      -0.088
       0.068
       0.219
       0.364
       0.443
       0.415
       0.338
       0.343
       0.522
       0.848
       1.189
       1.418
       1.494
       1.470
       1.436
       1.457
       1.548
       1.678
       1.793
       1.840
       1.791
       1.648
       1.417
       1.092
       0.669
       0.191
      -0.245
      -0.533
