Origin Time       11/1/2010 5:15:18	 
Lat.              29.7 N	
Long.             80.0 E	
Depth (Km)         15.0
Magnitude         3.9
 Region           PITHORAGARH-UTTRAKHAND                                           
 Above details taken from IMD 
   
Station Code      DHA
Station Lat.       29.847
Station Long.      80.546
Station Height(m)    0.0
Site Class        A   Vs30 between 700 m/sec to 1400 m/sec * 
Record Time       11.01.2010 05:15:06.169
Sampling Rate     200. Hz
 Record Duration   66.045 Sec.
 Direction         Vert. (Up positive)
Max. Acceleration     11.336 cm/sec**2
     
  * For reference see Site Classification link of website 
     
 Base Line Corrected and Low Pass Filtered (Cut Off at 35 Hz) Time History
 Acceleration data in cm/sec**2
    
[...]
       0.000
      -0.008
      -0.024
      -0.036
      -0.031
      -0.006
       0.023
       0.032
       0.017
      -0.006
      -0.017
      -0.011
       0.002
       0.008
       0.001
      -0.010
      -0.014
      -0.007
       0.005
       0.013
       0.011
      -0.002
      -0.015
      -0.017
      -0.005
       0.011
       0.015
       0.001
      -0.020
      -0.027
      -0.012
       0.013
       0.028
       0.020
      -0.002
      -0.016
      -0.011
       0.010
       0.030
       0.037
       0.025
      -0.002
      -0.031
      -0.046
      -0.038
      -0.009
       0.020
       0.030
       0.014
      -0.011
      -0.021
      -0.006
       0.020
       0.033
       0.019
      -0.013
      -0.037
      -0.032
      -0.004
       0.021
       0.022
       0.008
       0.003
       0.011
       0.015
       0.000
      -0.021
      -0.020
       0.008
       0.036
       0.034
       0.007
      -0.015
      -0.013
       0.001
       0.005
      -0.003
      -0.004
       0.009
       0.022
       0.019
       0.003
      -0.004
       0.013
       0.041
       0.051
       0.028
      -0.010
      -0.029
      -0.018
       0.008
       0.020
       0.010
      -0.008
      -0.013
       0.000
       0.018
       0.026
       0.017
      -0.003
      -0.024
      -0.033
      -0.022
       0.006
       0.032
       0.034
       0.011
      -0.012
      -0.012
       0.006
       0.019
       0.008
      -0.015
      -0.025
      -0.011
       0.011
       0.021
       0.010
      -0.009
      -0.019
      -0.017
      -0.012
      -0.007
      -0.002
       0.009
       0.018
       0.016
      -0.001
      -0.019
      -0.022
      -0.002
       0.023
       0.030
       0.014
      -0.010
      -0.025
      -0.026
      -0.024
      -0.021
      -0.013
       0.002
       0.016
       0.017
       0.005
      -0.008
      -0.011
      -0.006
      -0.003
      -0.007
      -0.016
      -0.021
      -0.017
      -0.006
       0.005
       0.010
       0.009
       0.008
       0.007
       0.003
      -0.006
      -0.017
      -0.023
      -0.015
       0.005
       0.024
       0.030
       0.021
       0.003
      -0.008
      -0.007
       0.002
       0.005
      -0.003
      -0.015
      -0.019
      -0.008
       0.011
       0.022
       0.019
       0.008
      -0.002
      -0.005
      -0.002
       0.000
      -0.001
      -0.002
      -0.005
      -0.007
      -0.010
      -0.008
      -0.002
       0.007
       0.010
       0.003
      -0.007
      -0.007
       0.009
       0.027
       0.031
       0.012
      -0.014
      -0.024
      -0.010
       0.015
       0.028
       0.021
       0.000
      -0.015
      -0.015
      -0.001
       0.013
       0.017
       0.008
      -0.004
      -0.010
      -0.006
       0.005
       0.018
       0.030
       0.032
       0.020
      -0.003
      -0.024
      -0.028
      -0.012
       0.012
       0.028
       0.026
       0.011
      -0.007
      -0.016
      -0.011
       0.003
       0.014
       0.015
       0.005
      -0.005
      -0.008
      -0.005
      -0.004
      -0.008
      -0.012
      -0.010
      -0.001
       0.010
       0.015
       0.015
       0.012
       0.009
       0.007
       0.006
       0.009
       0.011
       0.005
      -0.011
      -0.028
      -0.028
      -0.006
       0.022
       0.034
       0.021
      -0.004
      -0.020
      -0.018
      -0.004
       0.009
       0.014
       0.013
       0.005
      -0.007
      -0.020
      -0.025
      -0.018
      -0.002
       0.010
       0.009
      -0.001
      -0.008
      -0.004
       0.007
       0.013
       0.008
      -0.001
      -0.002
       0.007
       0.018
       0.020
       0.012
       0.001
      -0.007
      -0.010
      -0.010
      -0.006
       0.004
       0.014
       0.013
       0.002
      -0.009
      -0.003
       0.019
       0.038
       0.032
       0.007
      -0.016
      -0.020
      -0.012
      -0.007
      -0.013
      -0.020
      -0.013
       0.009
       0.030
       0.031
       0.006
      -0.025
      -0.040
      -0.026
       0.002
       0.022
       0.022
       0.007
      -0.011
      -0.020
      -0.017
       0.002
       0.025
       0.036
       0.018
      -0.018
      -0.043
      -0.031
       0.011
       0.046
       0.047
       0.017
      -0.014
      -0.024
      -0.014
       0.004
       0.022
       0.037
       0.038
       0.020
      -0.009
      -0.030
      -0.030
      -0.013
       0.005
       0.015
       0.013
       0.007
       0.001
      -0.005
      -0.015
      -0.025
      -0.024
      -0.010
       0.005
       0.003
      -0.012
      -0.013
       0.010
       0.037
       0.034
      -0.002
      -0.033
      -0.022
       0.017
       0.039
       0.021
      -0.007
      -0.006
       0.024
       0.042
       0.023
      -0.013
      -0.023
       0.002
       0.030
       0.025
      -0.007
      -0.028
      -0.014
       0.017
       0.030
       0.012
      -0.009
      -0.005
       0.020
       0.031
       0.010
      -0.024
      -0.031
      -0.004
       0.029
       0.034
       0.017
       0.004
       0.009
       0.016
       0.010
      -0.006
      -0.012
      -0.004
       0.004
       0.001
      -0.004
       0.003
       0.022
       0.030
       0.014
      -0.009
      -0.012
       0.011
       0.035
       0.031
       0.002
      -0.022
      -0.017
       0.007
       0.021
       0.010
      -0.013
      -0.020
      -0.002
       0.029
       0.050
       0.047
       0.039
       0.082
       0.244
       0.552
       0.935
       1.241
       1.343
       1.250
       1.110
       1.054
       1.029
       0.819
       0.271
      -0.489
      -1.101
      -1.290
      -1.132
      -1.005
      -1.262
      -1.946
      -2.800
      -3.512
      -3.902
      -3.888
      -3.316
      -1.980
       0.089
       2.362
       3.977
       4.327
       3.542
       2.387
       1.667
       1.675
       2.090
       2.291
       1.774
       0.471
      -1.163
      -2.327
      -2.344
      -1.210
       0.222
       0.746
      -0.249
      -2.220
      -3.878
      -4.218
      -3.191
      -1.496
       0.056
       0.968
       1.131
       0.803
       0.576
       1.094
       2.504
       4.069
       4.574
       3.384
       1.184
      -0.501
      -0.701
       0.076
       0.428
      -0.442
      -1.915
      -2.675
      -2.054
      -0.570
       0.725
       1.149
       0.685
      -0.279
      -1.210
      -1.534
      -0.843
       0.703
       2.217
       2.617
       1.567
      -0.143
      -1.299
      -1.376
      -0.834
      -0.391
      -0.298
      -0.414
      -0.701
      -1.258
      -1.832
      -1.683
      -0.328
       1.613
       2.661
       1.861
      -0.124
      -1.564
      -1.366
      -0.043
       1.085
       1.344
       1.083
       0.799
       0.418
      -0.311
      -1.057
      -1.053
      -0.142
       0.698
       0.315
      -1.176
      -2.316
      -1.887
      -0.311
       0.891
       0.899
       0.433
       0.650
       1.581
       2.077
       1.334
       0.058
      -0.292
       0.661
       1.589
       0.964
      -1.064
      -2.712
      -2.534
      -0.986
       0.219
       0.096
      -0.679
      -0.854
      -0.188
       0.430
       0.334
       0.037
       0.491
       1.626
       2.160
       1.121
      -0.768
      -1.670
      -0.666
       1.118
       1.678
       0.290
      -1.749
      -2.565
      -1.654
      -0.181
       0.481
       0.126
      -0.490
      -0.798
      -0.873
      -0.814
      -0.244
       1.184
       2.922
       3.679
       2.724
       0.867
      -0.251
       0.081
       0.865
       0.562
      -1.180
      -3.171
      -3.924
      -3.011
      -1.256
       0.189
       0.793
       0.775
       0.564
       0.413
       0.536
       1.161
       2.116
       2.603
       1.863
       0.133
      -1.344
      -1.459
      -0.341
       0.735
       0.607
      -0.593
      -1.570
      -1.275
      -0.075
       0.682
       0.190
      -0.995
      -1.724
      -1.514
      -0.842
      -0.346
      -0.095
       0.254
       0.779
       1.062
       0.711
      -0.057
      -0.509
      -0.147
       0.745
       1.337
       1.041
       0.085
      -0.643
      -0.343
       0.978
       2.426
       2.878
       1.862
      -0.093
      -1.892
      -2.673
      -2.339
      -1.464
      -0.781
      -0.684
      -1.043
      -1.341
      -1.006
       0.151
       1.677
       2.697
       2.581
       1.466
       0.127
      -0.673
      -0.707
      -0.281
       0.156
       0.312
       0.085
      -0.464
      -1.036
      -1.153
      -0.525
       0.545
       1.246
       0.905
      -0.355
      -1.606
      -1.837
      -0.820
       0.666
       1.472
       1.036
      -0.168
      -1.047
      -0.781
       0.527
       1.938
       2.412
       1.608
       0.117
      -1.042
      -1.206
      -0.520
       0.284
       0.520
       0.066
      -0.649
      -1.097
      -1.062
      -0.638
      -0.005
       0.694
       1.250
       1.339
       0.761
      -0.191
      -0.763
      -0.378
       0.661
       1.290
       0.717
      -0.697
      -1.716
      -1.419
      -0.045
       1.305
       1.657
       0.857
      -0.557
      -1.919
      -2.778
      -2.862
      -2.043
      -0.560
       0.857
       1.405
       0.909
       0.065
      -0.147
       0.653
       1.894
       2.528
       1.892
       0.215
      -1.554
      -2.411
      -1.898
      -0.345
       1.293
       1.971
       1.273
      -0.186
      -1.181
      -0.923
       0.231
       1.134
       0.922
      -0.232
      -1.366
      -1.663
      -1.129
      -0.414
      -0.053
       0.019
       0.215
       0.733
       1.317
       1.545
       1.221
       0.485
      -0.364
      -1.041
      -1.298
      -0.924
       0.086
       1.327
       2.096
       1.888
       0.869
      -0.205
      -0.615
      -0.305
       0.084
      -0.152
      -1.065
      -2.011
      -2.291
      -1.731
      -0.631
       0.632
       1.752
       2.367
       2.103
       0.953
      -0.440
      -1.121
      -0.640
       0.421
       0.880
       0.057
      -1.536
      -2.659
      -2.453
      -1.089
       0.558
       1.683
       2.018
       1.734
       1.111
       0.363
      -0.323
      -0.779
      -0.981
      -1.082
      -1.162
      -1.008
      -0.287
       1.004
       2.341
       2.974
       2.493
       1.132
      -0.424
      -1.541
      -1.997
      -1.920
      -1.492
      -0.837
      -0.156
       0.235
       0.156
      -0.191
      -0.334
       0.047
       0.741
       1.108
       0.665
      -0.347
      -1.058
      -0.782
       0.257
       1.054
       0.754
      -0.517
      -1.723
      -1.847
      -0.794
       0.596
       1.413
       1.492
       1.382
       1.626
       2.144
       2.312
       1.593
       0.101
      -1.439
      -2.259
      -2.113
      -1.356
      -0.573
      -0.166
      -0.196
      -0.476
      -0.740
      -0.793
      -0.594
      -0.247
       0.131
       0.495
       0.824
       1.023
       0.985
       0.758
       0.531
       0.422
       0.347
       0.191
       0.048
       0.181
       0.652
       1.070
       0.843
      -0.189
      -1.431
      -1.992
      -1.492
      -0.337
       0.758
       1.371
       1.459
       1.088
       0.341
      -0.552
      -1.222
      -1.486
      -1.612
      -2.033
      -2.694
      -2.859
      -1.824
       0.209
       2.202
       3.229
       3.180
       2.534
       1.733
       0.962
       0.376
       0.196
       0.426
       0.609
       0.154
      -0.933
      -1.856
      -1.812
      -0.909
      -0.032
       0.203
       0.082
       0.290
       0.985
       1.583
       1.418
       0.536
      -0.248
      -0.169
       0.587
       0.959
       0.080
      -1.793
      -3.469
      -3.867
      -2.888
      -1.428
      -0.602
      -0.779
      -1.291
      -1.140
      -0.031
       1.380
       2.182
       2.062
       1.517
       1.330
       1.787
       2.322
       2.044
       0.732
      -0.774
      -1.384
      -0.887
      -0.146
      -0.106
      -0.774
      -1.278
      -0.931
      -0.076
       0.281
      -0.360
      -1.346
      -1.549
      -0.567
       0.903
       1.804
       1.658
       0.809
       0.027
       0.023
       1.052
       2.665
       3.858
       3.757
       2.275
       0.083
      -1.986
      -3.411
      -4.007
      -3.760
      -2.773
      -1.327
       0.101
       1.008
       1.123
       0.579
      -0.142
      -0.459
      -0.068
       0.749
       1.199
       0.631
      -0.708
      -1.703
      -1.362
       0.192
       1.738
       1.950
       0.462
      -1.849
      -3.581
      -3.926
      -3.189
      -2.182
      -1.166
       0.390
       2.909
       5.731
       7.294
       6.462
       3.696
       0.825
      -0.481
      -0.059
       0.915
       1.238
       0.617
      -0.531
      -1.681
      -2.356
      -2.083
      -0.780
       0.721
       0.976
      -0.817
      -3.779
      -5.825
      -5.453
      -3.088
      -0.560
       0.721
       0.857
       0.738
       0.684
       0.233
      -0.834
      -1.806
      -1.739
      -0.639
       0.494
       0.992
       1.616
       3.851
       7.850
      11.336
      11.122
       6.101
      -1.354
      -7.242
      -9.219
      -8.033
      -5.965
      -4.377
      -3.026
      -1.348
       0.361
       1.364
       1.655
       2.018
       2.783
       3.056
       1.752
      -0.783
      -2.783
      -2.954
      -1.891
      -1.174
      -1.311
      -1.252
      -0.090
       1.422
       1.689
       0.424
      -0.712
       0.000
       2.162
       3.515
       2.470
      -0.008
      -1.377
      -0.283
       2.021
       3.118
       2.005
      -0.025
      -0.954
      -0.126
       1.359
       2.036
       1.464
       0.176
      -1.289
      -2.866
      -4.451
      -5.346
      -4.677
      -2.479
      -0.083
       0.930
       0.243
      -0.895
      -0.977
       0.327
       2.135
       3.458
       3.952
       3.709
       2.838
       1.575
       0.525
       0.298
       0.762
       0.940
      -0.023
      -1.822
      -3.157
      -3.010
      -1.591
       0.066
       1.221
       1.911
       2.454
       2.819
       2.682
       1.951
       0.955
       0.012
      -1.026
      -2.559
      -4.489
      -5.865
      -5.542
      -3.333
      -0.467
       1.285
       1.089
      -0.305
      -1.409
      -1.452
      -0.886
      -0.474
      -0.204
       0.588
       2.084
       3.436
       3.598
       2.501
       1.086
       0.208
      -0.165
      -0.563
      -1.151
      -1.589
      -1.676
      -1.716
      -2.027
      -2.252
      -1.559
       0.378
       2.798
       4.443
       4.707
       4.056
       3.347
       2.927
       2.529
       1.881
       1.109
       0.458
      -0.135
      -0.905
      -1.766
      -2.239
      -2.062
      -1.699
      -1.991
      -3.198
      -4.557
      -4.952
      -4.036
      -2.565
      -1.594
      -1.436
      -1.481
      -0.931
       0.451
       2.242
       3.794
       4.657
       4.717
       4.156
       3.350
       2.736
       2.572
       2.758
       2.926
       2.786
       2.371
       1.879
       1.327
       0.471
      -0.849
      -2.360
      -3.491
      -3.962
      -4.151
      -4.704
      -5.744
      -6.603
      -6.463
      -5.178
      -3.325
      -1.485
       0.321
       2.339
       4.356
       5.545
       5.201
       3.589
       1.883
       1.134
       1.324
       1.538
       1.032
      -0.023
      -0.883
      -1.101
      -0.857
      -0.523
      -0.177
       0.330
       0.935
       1.250
       0.977
       0.337
      -0.067
       0.135
       0.718
       1.156
       1.181
       0.931
       0.601
       0.126
      -0.672
      -1.678
      -2.414
      -2.492
      -2.120
      -1.997
      -2.541
      -3.268
      -3.102
      -1.458
       1.051
       3.092
       3.796
       3.375
       2.618
       1.988
       1.383
       0.622
      -0.122
      -0.561
      -0.788
      -1.282
      -2.281
      -3.321
      -3.588
      -2.741
      -1.242
       0.178
       1.184
       1.864
       2.270
       2.252
       1.807
       1.346
       1.361
       1.840
       2.198
       1.900
       1.038
       0.184
      -0.311
      -0.703
      -1.465
      -2.597
      -3.454
      -3.316
      -2.071
      -0.300
       1.258
       2.261
       2.797
       3.031
       2.936
       2.424
       1.608
       0.807
       0.254
      -0.117
      -0.505
      -0.908
      -1.120
      -1.104
      -1.220
      -1.869
      -2.928
      -3.689
      -3.474
      -2.309
      -0.919
      -0.099
      -0.112
      -0.636
      -1.131
      -1.177
      -0.622
       0.376
       1.358
       1.796
       1.533
       1.011
       0.924
       1.531
       2.336
       2.554
       1.926
       0.996
       0.536
       0.765
       1.239
       1.462
       1.427
       1.424
       1.469
       1.152
       0.158
      -1.222
      -2.271
      -2.600
      -2.579
      -2.903
      -3.687
      -4.156
      -3.371
      -1.272
       1.127
       2.617
       2.825
       2.354
       1.988
       1.907
       1.732
       1.155
       0.320
      -0.434
      -0.944
      -1.190
      -1.029
      -0.274
       0.897
       1.808
       1.779
       0.798
      -0.379
      -0.887
      -0.522
       0.136
       0.325
      -0.222
      -1.175
      -2.034
      -2.514
      -2.582
      -2.315
      -1.859
      -1.421
      -1.136
      -0.899
      -0.400
       0.546
       1.697
       2.482
       2.513
       1.976
       1.434
       1.222
       1.128
       0.752
       0.065
      -0.512
      -0.584
      -0.234
       0.083
       0.069
      -0.086
       0.026
       0.476
       0.854
       0.717
       0.102
      -0.498
      -0.645
      -0.346
       0.048
       0.243
       0.264
       0.323
       0.507
       0.654
       0.565
       0.256
      -0.082
      -0.362
      -0.731
      -1.340
      -2.060
      -2.489
      -2.273
      -1.395
      -0.170
       1.031
       1.990
       2.603
       2.746
       2.318
       1.449
       0.532
      -0.037
      -0.143
       0.016
       0.125
      -0.063
      -0.637
      -1.498
      -2.364
      -2.875
      -2.771
      -2.066
      -1.050
      -0.085
       0.648
       1.190
       1.617
       1.856
       1.773
       1.409
       1.039
       0.968
       1.258
       1.675
       1.875
       1.643
       0.971
      -0.006
      -1.067
      -1.929
      -2.339
      -2.264
      -1.965
      -1.794
      -1.869
      -1.972
      -1.789
      -1.233
      -0.528
      -0.003
       0.174
       0.120
       0.148
       0.549
       1.369
       2.347
       3.074
       3.245
       2.803
       1.889
       0.738
      -0.388
      -1.265
      -1.810
      -2.092
      -2.185
      -2.044
      -1.614
      -1.087
      -0.857
