Origin Time       04/04/2011 11:31:40
Lat.              29.6 N	
Long.             80.8 E	
Depth (Km)         10.0
Magnitude         5.7
 Region           NEPAL-INDIA-BORDER-REGION                                        
 Above details taken from IMD 
     
Station Code      DRC
Station Lat.       29.847  N
Station Long.      80.546  E
Station Height(m)  909.0
Site Class        A   Vs30 between 700 m/sec to 1400 m/sec * 
Record Time       04.04.2011 11:31:32.549
Sampling Rate     200. Hz
 Record Duration   82.625 Sec.
 Direction         E-W (E positive)
Max. Acceleration   -131.811 cm/sec**2
     
  * For reference see Site Classification link of website 
     
 Base Line Corrected and Low Pass Filtered (Cut Off at 35 Hz) Time History
 Acceleration data in cm/sec**2
    
[...]
       0.002
      -0.003
      -0.009
      -0.012
      -0.008
       0.001
       0.008
       0.010
       0.005
      -0.001
      -0.005
      -0.005
      -0.003
      -0.002
      -0.003
      -0.005
      -0.004
      -0.001
       0.004
       0.007
       0.010
       0.011
       0.010
       0.005
       0.000
      -0.001
       0.005
       0.016
       0.023
       0.021
       0.013
       0.003
      -0.005
      -0.009
      -0.012
      -0.013
      -0.014
      -0.013
      -0.008
       0.002
       0.014
       0.020
       0.019
       0.011
       0.004
       0.005
       0.014
       0.024
       0.030
       0.028
       0.021
       0.015
       0.012
       0.013
       0.017
       0.023
       0.026
       0.026
       0.023
       0.019
       0.020
       0.025
       0.030
       0.033
       0.033
       0.035
       0.044
       0.063
       0.089
       0.118
       0.140
       0.153
       0.156
       0.158
       0.164
       0.176
       0.189
       0.195
       0.193
       0.190
       0.199
       0.231
       0.287
       0.360
       0.436
       0.502
       0.557
       0.609
       0.675
       0.763
       0.862
       0.939
       0.963
       0.925
       0.855
       0.796
       0.779
       0.805
       0.841
       0.849
       0.813
       0.756
       0.722
       0.732
       0.762
       0.751
       0.643
       0.419
       0.115
      -0.201
      -0.472
      -0.680
      -0.858
      -1.058
      -1.311
      -1.600
      -1.858
      -2.016
      -2.055
      -2.033
      -2.060
      -2.210
      -2.445
      -2.630
      -2.640
      -2.479
      -2.295
      -2.262
      -2.438
      -2.691
      -2.767
      -2.455
      -1.745
      -0.847
      -0.017
       0.656
       1.307
       2.127
       3.140
       4.138
       4.836
       5.091
       5.001
       4.783
       4.559
       4.236
       3.593
       2.483
       0.982
      -0.628
      -2.006
      -2.932
      -3.410
      -3.598
      -3.640
      -3.552
      -3.255
      -2.662
      -1.724
      -0.464
       0.980
       2.353
       3.370
       3.839
       3.742
       3.259
       2.705
       2.349
       2.208
       2.029
       1.519
       0.598
      -0.575
      -1.745
      -2.687
      -3.262
      -3.495
      -3.621
      -3.892
      -4.250
      -4.265
      -3.470
      -1.787
       0.340
       2.179
       3.146
       3.154
       2.581
       1.884
       1.303
       0.920
       0.824
       1.010
       1.187
       0.870
      -0.258
      -2.100
      -4.188
      -5.857
      -6.528
      -6.053
      -4.792
      -3.185
      -1.289
       1.125
       4.115
       7.383
      10.410
      12.575
      13.297
      12.394
      10.363
       8.070
       6.098
       4.449
       2.727
       0.418
      -2.805
      -6.679
     -10.251
     -12.472
     -12.990
     -12.309
     -11.214
     -10.134
      -9.028
      -7.644
      -5.760
      -3.278
      -0.361
       2.413
       4.208
       4.487
       3.499
       2.146
       1.355
       1.509
       2.308
       3.031
       3.091
       2.486
       1.722
       1.253
       0.998
       0.381
      -1.104
      -3.213
      -4.897
      -5.182
      -4.228
      -3.203
      -2.906
      -2.721
      -1.357
       1.364
       3.831
       4.079
       1.883
      -0.805
      -1.614
       0.098
       2.894
       4.889
       5.457
       5.247
       4.883
       4.065
       2.036
      -1.264
      -4.681
      -6.524
      -5.852
      -3.205
      -0.127
       2.037
       2.994
       3.388
       3.923
       4.529
       4.391
       2.974
       1.017
       0.254
       1.870
       5.241
       8.341
       9.455
       8.426
       6.346
       4.279
       2.455
       0.560
      -1.497
      -3.257
      -4.132
      -4.027
      -3.451
      -3.017
      -2.959
      -3.206
      -3.808
      -5.020
      -6.875
      -8.817
      -9.901
      -9.435
      -7.456
      -4.669
      -1.949
       0.109
       1.302
       1.667
       1.293
       0.323
      -0.890
      -1.730
      -1.584
      -0.240
       1.957
       4.287
       5.986
       6.541
       5.895
       4.412
       2.602
       0.869
      -0.506
      -1.306
      -1.461
      -1.185
      -0.861
      -0.668
      -0.356
       0.425
       1.567
       2.399
       2.326
       1.569
       1.091
       1.647
       2.928
       3.736
       2.998
       0.591
      -2.759
      -6.209
      -9.290
     -11.722
     -13.001
     -12.475
      -9.953
      -6.136
      -2.327
       0.402
       1.882
       2.768
       3.785
       4.983
       5.729
       5.417
       4.171
       2.836
       2.235
       2.390
       2.477
       1.565
      -0.534
      -3.025
      -4.624
      -4.342
      -2.082
       1.283
       4.416
       6.361
       7.063
       7.110
       7.009
       6.770
       6.106
       4.858
       3.208
       1.558
       0.272
      -0.472
      -0.614
      -0.093
       1.119
       2.800
       4.370
       5.111
       4.607
       2.992
       0.784
      -1.509
      -3.662
      -5.668
      -7.463
      -8.764
      -9.271
      -8.949
      -7.892
      -5.946
      -2.819
       1.126
       4.449
       5.504
       3.988
       1.480
       0.198
       1.132
       3.321
       4.839
       4.497
       2.711
       0.851
      -0.169
      -0.613
      -1.373
      -2.918
      -4.866
      -6.471
      -7.308
      -7.415
      -6.941
      -5.869
      -4.189
      -2.174
      -0.325
       0.988
       1.736
       2.130
       2.400
       2.746
       3.391
       4.464
       5.644
       6.028
       4.702
       1.696
      -1.707
      -3.780
      -3.623
      -1.749
       0.500
       2.081
       2.834
       3.092
       2.979
       2.280
       0.914
      -0.753
      -2.204
      -3.196
      -3.737
      -3.707
      -2.768
      -0.785
       1.757
       3.869
       4.653
       3.843
       1.872
      -0.523
      -2.784
      -4.698
      -6.209
      -7.191
      -7.417
      -6.687
      -4.960
      -2.474
       0.260
       2.636
       4.185
       4.732
       4.483
       3.988
       3.853
       4.344
       5.266
       6.199
       6.725
       6.416
       4.884
       2.140
      -1.128
      -3.896
      -5.539
      -6.121
      -5.974
      -5.163
      -3.526
      -1.212
       1.011
       2.171
       1.930
       0.894
       0.012
      -0.313
      -0.438
      -0.873
      -1.660
      -2.460
      -3.094
      -3.805
      -4.903
      -6.201
      -6.911
      -6.206
      -3.980
      -1.054
       1.415
       2.795
       3.304
       3.588
       4.051
       4.566
       4.774
       4.608
       4.527
       5.140
       6.514
       7.826
       7.814
       5.713
       1.880
      -2.395
      -5.671
      -7.161
      -7.088
      -6.362
      -5.750
      -5.184
      -3.932
      -1.534
       1.492
       3.974
       5.048
       4.711
       3.482
       1.788
      -0.177
      -2.113
      -3.420
      -3.580
      -2.723
      -1.687
      -1.288
      -1.461
      -1.222
       0.434
       3.613
       7.415
      10.490
      11.669
      10.457
       7.306
       3.411
      -0.032
      -2.525
      -4.288
      -5.719
      -6.933
      -7.688
      -7.551
      -6.156
      -3.516
      -0.201
       2.823
       4.622
       4.739
       3.412
       1.457
      -0.159
      -0.856
      -0.737
      -0.422
      -0.522
      -1.173
      -1.936
      -2.145
      -1.460
      -0.143
       1.196
       2.106
       2.488
       2.388
       1.770
       0.645
      -0.657
      -1.453
      -1.082
       0.608
       3.091
       5.456
       6.897
       6.992
       5.722
       3.371
       0.394
      -2.774
      -5.843
      -8.619
     -10.843
     -12.118
     -12.041
     -10.485
      -7.838
      -4.970
      -2.832
      -1.902
      -1.898
      -2.000
      -1.467
      -0.205
       1.181
       1.947
       1.887
       1.467
       1.282
       1.406
       1.268
       0.195
      -1.850
      -4.026
      -5.166
      -4.699
      -3.073
      -1.333
      -0.282
      -0.015
      -0.106
      -0.125
       0.065
       0.399
       0.854
       1.546
       2.645
       4.244
       6.320
       8.739
      11.164
      12.971
      13.513
      12.655
      10.972
       9.212
       7.518
       5.260
       1.753
      -2.773
      -6.970
      -9.317
      -9.453
      -8.545
      -8.215
      -9.048
     -10.095
      -9.782
      -7.330
      -3.380
       0.717
       4.133
       6.999
       9.666
      11.846
      12.699
      11.722
       9.312
       6.427
       3.813
       1.597
      -0.420
      -2.176
      -3.177
      -2.984
      -1.742
      -0.079
       1.359
       2.066
       1.604
      -0.158
      -2.609
      -4.521
      -4.927
      -3.967
      -2.799
      -2.639
      -3.847
      -5.772
      -7.322
      -7.661
      -6.548
      -4.256
      -1.355
       1.433
       3.348
       3.845
       2.959
       1.435
       0.321
       0.196
       0.743
       1.139
       0.884
       0.184
      -0.425
      -0.704
      -0.953
      -1.740
      -3.344
      -5.371
      -6.915
      -7.192
      -6.075
      -4.024
      -1.551
       1.156
       4.086
       6.948
       8.992
       9.369
       7.768
       4.763
       1.575
      -0.570
      -1.073
      -0.227
       0.950
       1.204
      -0.329
      -3.618
      -7.680
     -11.129
     -12.980
     -13.074
     -11.855
      -9.889
      -7.628
      -5.462
      -3.657
      -2.104
      -0.326
       1.989
       4.439
       6.044
       6.021
       4.435
       2.146
       0.222
      -0.609
      -0.138
       1.381
       3.352
       5.032
       5.921
       6.181
       6.580
       7.790
       9.623
      11.106
      11.392
      10.482
       9.012
       7.498
       6.000
       4.430
       2.956
       1.942
       1.475
       1.031
      -0.212
      -2.522
      -5.039
      -6.261
      -5.358
      -3.012
      -0.849
      -0.001
      -0.204
      -0.261
       0.722
       2.484
       3.825
       3.641
       1.873
      -0.463
      -2.175
      -2.840
      -2.912
      -3.057
      -3.525
      -4.082
      -4.289
      -3.764
      -2.378
      -0.420
       1.415
       2.303
       1.707
      -0.226
      -2.611
      -4.364
      -5.040
      -5.201
      -5.833
      -7.320
      -8.982
      -9.624
      -8.533
      -5.997
      -2.928
      -0.053
       2.574
       5.382
       8.672
      12.087
      14.584
      15.055
      13.185
       9.795
       6.250
       3.382
       0.925
      -2.032
      -6.007
     -10.491
     -14.226
     -16.087
     -15.786
     -13.928
     -11.509
      -9.279
      -7.371
      -5.408
      -2.975
      -0.057
       2.899
       5.311
       6.858
       7.617
       7.842
       7.635
       6.864
       5.482
       3.875
       2.701
       2.291
       2.309
       2.176
       1.806
       1.746
       2.485
       3.738
       4.535
       4.035
       2.206
      -0.233
      -2.387
      -3.680
      -3.991
      -3.591
      -3.071
      -3.160
      -4.285
      -6.131
      -7.665
      -7.788
      -6.082
      -3.020
       0.497
       3.720
       6.244
       7.917
       8.823
       9.348
       9.977
      10.847
      11.540
      11.443
      10.324
       8.535
       6.645
       4.915
       3.143
       1.031
      -1.301
      -3.278
      -4.423
      -4.959
      -5.733
      -7.419
      -9.856
     -12.245
     -14.000
     -15.268
     -16.541
     -17.874
     -18.597
     -17.840
     -15.308
     -11.612
      -7.868
      -4.927
      -2.813
      -0.822
       1.825
       5.285
       8.945
      11.900
      13.580
      13.948
      13.232
      11.581
       8.999
       5.536
       1.503
      -2.538
      -6.007
      -8.566
     -10.160
     -10.899
     -11.018
     -10.877
     -10.769
     -10.615
      -9.980
      -8.521
      -6.355
      -3.839
      -1.012
       2.580
       7.323
      12.791
      17.694
      20.698
      21.310
      20.010
      17.611
      14.589
      10.945
       6.517
       1.313
      -4.368
     -10.002
     -15.015
     -18.956
     -21.610
     -23.026
     -23.471
     -23.243
     -22.463
     -21.047
     -18.912
     -16.166
     -13.132
     -10.236
      -7.935
      -6.624
      -6.481
      -7.323
      -8.633
      -9.741
     -10.154
      -9.892
      -9.507
      -9.559
      -9.984
     -10.092
      -9.305
      -7.801
      -6.270
      -5.092
      -3.931
      -2.210
       0.083
       2.059
       2.368
       0.121
      -4.360
      -9.549
     -13.513
     -14.909
     -13.455
      -9.681
      -4.408
       1.502
       7.041
      11.032
      12.532
      11.483
       9.009
       6.939
       6.862
       9.446
      14.518
      21.582
      30.052
      39.044
      47.262
      53.435
      56.997
      58.371
      58.651
      58.965
      60.015
      61.923
      64.324
      66.540
      67.863
      67.946
      67.082
      66.114
      65.898
      66.644
      67.722
      68.257
      68.125
      68.354
      70.136
      72.961
      73.550
      67.150
      50.799
      25.964
      -2.102
     -28.013
     -49.692
     -68.590
     -86.953
    -105.022
    -120.484
    -130.092
    -131.811
    -126.057
    -115.487
    -103.616
     -93.110
     -84.741
     -77.480
     -69.526
     -59.595
     -47.812
     -35.799
     -25.967
     -20.306
     -19.160
     -20.691
     -21.668
     -19.424
     -13.635
      -6.362
      -0.229
       3.579
       5.760
       7.600
       9.341
       9.777
       7.414
       2.039
      -4.726
     -10.304
     -12.704
     -11.604
      -8.319
      -4.855
      -2.760
      -2.397
      -2.895
      -2.673
      -0.256
       4.989
      12.625
      21.447
      29.971
      36.795
      40.844
      41.577
      39.121
      34.224
      27.915
      21.012
      13.869
       6.590
      -0.579
      -7.253
     -13.370
     -19.480
     -26.214
     -33.346
     -39.655
     -43.995
     -46.518
     -48.646
     -51.724
     -55.627
     -58.535
     -57.918
     -52.001
     -40.903
     -26.688
     -12.047
       1.616
      15.018
      29.837
      46.531
      63.152
      76.283
      83.267
      83.847
      80.112
      75.165
      71.579
      70.464
      71.467
      73.440
      74.967
      74.440
      70.307
      61.849
      49.879
      36.507
      23.860
      12.659
       1.977
      -9.533
     -22.052
     -34.012
     -42.916
     -47.009
     -46.752
     -44.854
     -44.543
     -47.399
     -52.595
     -57.965
     -61.629
     -62.828
     -61.763
     -59.043
     -55.173
     -50.232
     -43.948
     -36.170
     -27.258
     -17.912
      -8.648
       0.467
       9.522
      18.216
      25.546
      30.025
      30.471
      26.879
      20.582
      13.479
       7.079
       2.119
      -1.309
      -3.510
      -4.846
      -5.262
      -4.079
      -0.560
       4.924
      10.233
      12.416
       9.977
       4.429
      -0.664
      -2.539
      -1.247
       1.023
       2.330
       2.606
       3.284
       5.775
      10.389
      16.382
      22.581
      27.798
      31.030
      31.791
      30.480
      28.297
      26.482
      25.323
      23.710
      19.827
      12.766
       3.826
      -3.770
      -6.934
      -5.092
      -0.855
       1.809
       0.516
      -3.818
      -7.832
      -8.397
      -4.986
       0.145
       4.005
       5.204
       4.549
       3.632
       3.029
       1.826
      -1.185
      -5.903
     -10.534
     -12.943
     -12.668
     -11.673
     -12.973
     -18.276
     -26.862
     -36.562
     -45.563
     -53.106
     -58.657
     -60.962
     -58.488
     -50.969
     -40.214
     -28.979
     -18.924
      -9.742
      -0.278
       9.660
      18.621
      24.517
      26.261
      24.563
      21.382
      18.710
      17.651
      18.164
      19.277
      19.598
      18.039
      14.546
      10.257
       6.755
       4.953
       4.549
       4.469
       3.815
       2.458
       0.828
      -0.675
      -1.967
      -3.021
      -3.531
      -2.931
      -0.769
       2.943
       7.698
      12.743
      17.353
      20.955
      23.152
      23.771
      22.965
      21.234
      19.280
      17.785
      17.305
      18.197
      20.373
      22.960
      24.337
      22.872
      18.039
      11.057
       4.422
       0.496
       0.044
       1.690
       2.741
       0.845
      -4.606
     -12.175
     -19.236
     -23.409
     -23.801
     -21.448
     -18.671
     -17.657
     -19.216
     -22.601
     -26.389
     -29.473
     -31.341
     -31.682
     -29.986
     -25.675
     -18.650
      -9.704
      -0.349
       7.863
      14.048
      18.239
      21.121
      23.534
      26.019
      28.585
      30.772
      31.995
      31.856
      30.206
      27.030
      22.429
      16.735
      10.555
       4.579
      -0.722
      -5.196
      -8.839
     -11.589
     -13.369
     -14.365
     -15.131
     -16.243
     -17.770
     -19.108
     -19.397
     -18.177
     -15.744
     -13.001
     -10.926
     -10.011
     -10.033
     -10.327
     -10.331
      -9.957
      -9.454
      -8.974
      -8.344
      -7.325
      -6.037
      -5.016
      -4.811
      -5.535
      -6.727
      -7.547
      -7.182
      -5.309
      -2.368
       0.573
       2.361
       2.363
       0.798
      -1.379
      -2.991
      -3.259
      -2.209
      -0.553
       0.872
       1.711
       2.213
       2.758
       3.225
       2.828
       0.683
      -3.287
      -7.910
     -11.377
     -12.506
     -11.588
     -10.052
      -9.305
      -9.771
     -10.807
     -11.352
     -10.652
      -8.532
      -5.217
      -1.031
       3.749
       8.891
      14.181
      19.429
      24.382
      28.560
      31.223
      31.697
      29.876
      26.474
      22.747
      19.802
      17.968
      16.725
      15.269
      13.205
      10.780
       8.562
       7.032
       6.491
       7.163
       9.167
      12.270
      15.702
      18.281
      18.871
      16.959
      12.899
       7.597
       1.923
      -3.543
      -8.321
     -11.821
     -13.408
     -12.648
      -9.609
      -5.084
      -0.499
       2.651
       3.593
       2.705
       1.262
       0.636
       1.518
       3.651
       6.180
       8.239
       9.309
       9.256
       8.199
       6.382
       4.023
       1.182
      -2.180
      -5.886
      -9.279
     -11.442
     -11.888
     -11.119
     -10.444
     -11.143
     -13.690
     -17.597
     -21.807
     -25.185
     -26.843
     -26.336
     -23.838
     -20.174
     -16.542
     -13.957
     -12.821
     -12.984
     -14.115
     -15.918
     -17.972
     -19.563
     -19.893
     -18.626
     -16.256
     -13.889
     -12.511
     -12.323
     -12.666
     -12.565
     -11.452
      -9.465
      -7.204
      -5.208
      -3.598
      -2.099
      -0.330
       1.874
       4.314
       6.526
       8.049
       8.710
       8.714
