Origin Time       04/04/2011 11:31:40
Lat.              29.6 N	
Long.             80.8 E	
Depth (Km)         10.0
Magnitude         5.7
 Region           NEPAL-INDIA-BORDER-REGION                                        
 Above details taken from IMD 
   
Station Code      DRC
Station Lat.       29.847
Station Long.      80.546
Station Height(m)  909.0
Site Class        A   Vs30 between 700 m/sec to 1400 m/sec * 
Record Time       04.04.2011 11:31:32.549
Sampling Rate     200. Hz
 Record Duration   82.625 Sec.
 Direction         Vert. (Up positive)
Max. Acceleration    -56.222 cm/sec**2
     
  * For reference see Site Classification link of website 
     
 Base Line Corrected and Low Pass Filtered (Cut Off at 35 Hz) Time History
 Acceleration data in cm/sec**2
    
[...]
       0.025
       0.029
       0.023
       0.013
       0.008
       0.009
       0.012
       0.010
       0.000
      -0.015
      -0.030
      -0.039
      -0.035
      -0.019
       0.005
       0.030
       0.046
       0.046
       0.030
       0.005
      -0.014
      -0.015
      -0.001
       0.016
       0.023
       0.018
       0.007
      -0.004
      -0.010
      -0.013
      -0.010
      -0.003
       0.006
       0.015
       0.020
       0.020
       0.019
       0.022
       0.027
       0.027
       0.015
      -0.006
      -0.023
      -0.019
       0.004
       0.030
       0.039
       0.026
       0.005
      -0.009
      -0.011
      -0.007
      -0.001
       0.006
       0.011
       0.014
       0.012
       0.010
       0.008
       0.000
      -0.019
      -0.041
      -0.056
      -0.059
      -0.057
      -0.058
      -0.062
      -0.065
      -0.061
      -0.055
      -0.052
      -0.052
      -0.041
      -0.006
       0.048
       0.094
       0.101
       0.055
      -0.016
      -0.062
      -0.050
       0.002
       0.032
      -0.020
      -0.168
      -0.371
      -0.552
      -0.637
      -0.591
      -0.441
      -0.271
      -0.187
      -0.261
      -0.487
      -0.777
      -1.006
      -1.087
      -1.041
      -0.985
      -1.053
      -1.283
      -1.581
      -1.794
      -1.818
      -1.665
      -1.438
      -1.230
      -1.022
      -0.677
      -0.064
       0.788
       1.643
       2.175
       2.180
       1.726
       1.142
       0.826
       0.998
       1.544
       2.100
       2.337
       2.245
       2.169
       2.556
       3.568
       4.821
       5.490
       4.792
       2.558
      -0.503
      -3.122
      -4.219
      -3.603
      -2.104
      -1.022
      -1.240
      -2.620
      -4.144
      -4.724
      -4.064
      -2.809
      -1.806
      -1.184
      -0.170
       2.114
       5.589
       8.870
      10.041
       8.048
       3.663
      -0.830
      -3.188
      -2.882
      -1.485
      -1.363
      -3.689
      -7.435
     -10.124
      -9.696
      -6.053
      -1.187
       2.177
       2.477
       0.411
      -1.578
      -1.142
       2.097
       6.106
       7.955
       6.172
       1.969
      -1.722
      -2.549
      -0.492
       2.192
       2.645
      -0.435
      -5.610
      -9.402
      -8.599
      -2.623
       5.765
      12.036
      12.730
       7.648
      -0.081
      -6.079
      -7.490
      -4.474
       0.587
       5.217
       8.332
      10.117
      11.034
      11.073
       9.625
       5.899
      -0.208
      -7.406
     -13.349
     -16.004
     -14.891
     -11.318
      -7.656
      -6.090
      -7.358
     -10.313
     -12.741
     -12.741
      -9.508
      -3.297
       4.844
      13.370
      20.702
      25.477
      26.361
      22.234
      13.363
       2.319
      -7.120
     -12.435
     -13.798
     -13.341
     -13.276
     -14.205
     -14.520
     -11.605
      -4.423
       4.916
      12.518
      15.735
      14.756
      11.661
       8.508
       6.244
       4.680
       2.927
      -0.057
      -4.711
     -10.037
     -13.619
     -13.082
      -7.996
      -0.310
       7.101
      12.160
      14.110
      13.148
      10.213
       6.773
       4.002
       1.818
      -0.924
      -4.895
      -9.034
     -11.242
     -10.464
      -7.684
      -4.634
      -2.074
       0.214
       2.223
       3.318
       3.035
       1.804
       0.693
       0.578
       1.485
       2.508
       2.353
       0.303
      -3.086
      -6.230
      -7.638
      -6.901
      -4.744
      -2.265
      -0.224
       1.032
       1.303
       0.470
      -1.240
      -3.174
      -4.594
      -5.114
      -4.791
      -3.914
      -2.753
      -1.395
       0.207
       1.990
       3.678
       4.935
       5.487
       5.112
       3.870
       2.513
       2.237
       3.568
       5.631
       6.833
       6.270
       4.262
       1.754
      -0.369
      -1.435
      -1.137
      -0.005
       0.667
       0.011
      -1.323
      -1.815
      -0.978
      -0.161
      -1.049
      -3.487
      -5.210
      -3.910
       0.449
       5.370
       7.787
       6.414
       2.535
      -1.204
      -2.831
      -2.276
      -1.023
      -0.795
      -2.356
      -5.078
      -7.391
      -7.899
      -6.458
      -4.341
      -3.266
      -3.996
      -5.473
      -5.177
      -0.830
       7.511
      16.713
      22.139
      20.548
      12.227
       0.973
      -8.055
     -11.395
      -9.297
      -5.229
      -3.168
      -4.787
      -8.619
     -11.525
     -11.024
      -6.753
      -0.301
       6.179
      11.338
      14.901
      16.892
      16.994
      14.907
      11.113
       6.747
       2.484
      -2.057
      -7.409
     -12.949
     -16.857
     -17.401
     -14.205
      -8.558
      -2.744
       1.221
       2.778
       3.119
       4.191
       7.000
      10.555
      12.429
      10.550
       4.711
      -3.246
     -10.348
     -13.891
     -13.040
      -9.803
      -7.955
      -9.782
     -13.390
     -13.770
      -7.245
       4.795
      16.413
      21.441
      17.870
       8.898
       0.184
      -4.213
      -4.110
      -2.395
      -2.236
      -4.598
      -7.765
      -8.917
      -6.397
      -0.923
       5.049
       9.089
      10.107
       8.417
       5.199
       2.090
       0.661
       1.478
       3.551
       4.995
       4.454
       2.157
      -0.111
      -0.283
       2.041
       4.578
       3.832
      -1.637
      -9.209
     -13.749
     -11.520
      -3.059
       7.215
      14.018
      14.427
       9.164
       1.438
      -5.440
      -9.870
     -12.174
     -13.380
     -13.795
     -12.680
      -9.263
      -3.867
       2.117
       7.204
      10.550
      11.950
      11.615
      10.068
       7.899
       5.213
       1.357
      -4.355
     -11.325
     -17.288
     -19.682
     -17.464
     -11.489
      -3.459
       4.959
      12.089
      16.148
      16.027
      12.490
       8.344
       6.722
       8.515
      11.296
      11.142
       5.968
      -2.623
     -10.672
     -15.095
     -15.840
     -15.147
     -14.902
     -14.749
     -12.595
      -6.716
       2.643
      13.285
      22.063
      25.860
      22.619
      12.770
      -0.038
     -10.472
     -14.816
     -13.276
      -9.288
      -6.636
      -6.798
      -8.308
      -8.241
      -4.553
       2.418
      10.226
      15.903
      17.707
      15.975
      12.629
       9.590
       7.217
       4.182
      -0.918
      -7.706
     -13.949
     -17.361
     -17.320
     -14.794
     -10.964
      -6.296
      -0.986
       4.186
       7.956
       9.616
       9.547
       8.340
       5.687
       0.880
      -5.272
      -9.622
      -8.572
      -1.084
      10.128
      20.200
      24.947
      22.768
      14.728
       3.354
      -8.641
     -18.911
     -25.521
     -27.145
     -23.493
     -15.549
      -5.519
       3.435
       8.089
       7.026
       2.280
      -1.365
       0.276
       7.348
      15.482
      18.790
      13.926
       2.188
     -11.558
     -22.001
     -26.220
     -24.487
     -18.972
     -11.732
      -3.615
       5.380
      14.976
      23.774
      29.213
      28.563
      20.766
       8.064
      -4.375
     -11.301
     -10.814
      -5.684
      -1.388
      -2.111
      -7.708
     -14.108
     -16.686
     -13.431
      -5.458
       4.475
      13.400
      18.884
      19.630
      15.883
       9.078
       1.054
      -6.301
     -11.044
     -11.674
      -8.229
      -2.834
       1.306
       2.041
      -0.152
      -2.608
      -2.713
      -0.054
       3.306
       4.497
       1.931
      -3.597
      -9.247
     -11.760
      -9.663
      -4.538
      -0.016
       0.996
      -1.416
      -4.287
      -4.154
       0.182
       6.625
      11.230
      10.963
       5.795
      -1.215
      -5.862
      -5.643
      -1.575
       2.669
       3.819
       1.524
      -1.900
      -3.848
      -3.296
      -0.743
       2.913
       7.018
      11.042
      14.322
      16.035
      15.320
      11.651
       5.549
      -0.968
      -5.202
      -5.864
      -4.543
      -4.580
      -7.890
     -12.805
     -15.323
     -12.676
      -5.874
       1.071
       4.429
       3.556
       0.889
      -0.568
       0.129
       1.397
       0.973
      -1.797
      -5.238
      -6.620
      -4.240
       1.285
       7.376
      11.177
      11.201
       7.868
       2.966
      -1.343
      -3.653
      -4.165
      -4.472
      -6.050
      -8.765
     -10.898
     -10.634
      -7.514
      -2.634
       2.226
       5.529
       6.341
       4.486
       0.997
      -1.717
      -1.087
       3.443
       9.447
      13.024
      11.581
       5.534
      -2.324
      -8.979
     -12.903
     -13.940
     -12.148
      -7.463
      -0.495
       7.124
      13.627
      17.989
      19.771
      18.768
      15.285
      10.299
       4.818
      -0.775
      -6.567
     -12.562
     -18.369
     -23.109
     -25.537
     -24.639
     -20.365
     -13.596
      -5.354
       3.601
      12.241
      18.792
      21.438
      19.696
      14.963
       9.577
       5.274
       2.401
       0.357
      -1.440
      -3.074
      -4.455
      -5.784
      -7.460
      -9.535
     -11.468
     -12.581
     -12.751
     -12.409
     -11.694
      -9.745
      -5.214
       2.163
      10.485
      16.460
      17.725
      14.671
       9.998
       6.422
       4.744
       3.854
       2.160
      -1.067
      -5.236
      -8.790
     -10.055
      -8.158
      -3.526
       2.310
       7.524
      10.965
      12.686
      13.558
      14.157
      13.946
      11.661
       6.611
      -0.447
      -7.716
     -13.554
     -17.278
     -18.992
     -18.831
     -16.587
     -12.228
      -6.684
      -1.619
       1.929
       4.503
       7.445
      11.114
      14.166
      14.641
      11.570
       5.612
      -1.441
      -7.504
     -10.861
     -10.667
      -7.402
      -2.893
       0.597
       1.858
       1.433
       0.635
      -0.050
      -1.298
      -3.750
      -6.904
      -9.364
      -9.872
      -7.854
      -3.272
       3.470
      11.276
      18.234
      22.044
      20.883
      14.385
       4.334
      -5.583
     -11.345
     -10.769
      -4.757
       3.218
       8.936
       9.512
       4.834
      -2.377
      -8.192
      -9.957
      -7.854
      -4.362
      -2.176
      -2.294
      -3.630
      -4.212
      -2.933
      -0.413
       1.638
       1.794
      -0.253
      -3.749
      -7.302
      -9.311
      -8.595
      -5.105
      -0.113
       4.560
       7.700
       9.186
       9.457
       8.823
       7.472
       5.887
       4.690
       3.874
       2.445
      -0.828
      -6.115
     -11.830
     -15.220
     -14.054
      -8.463
      -1.415
       3.042
       2.791
      -0.659
      -3.526
      -2.995
       0.627
       4.583
       6.155
       4.674
       1.778
       0.191
       1.914
       6.750
      12.123
      14.671
      12.631
       6.972
       0.338
      -4.918
      -7.661
      -7.639
      -5.134
      -1.222
       2.212
       3.490
       2.516
       0.979
       0.931
       2.933
       5.441
       5.939
       2.864
      -3.182
      -9.814
     -14.412
     -15.562
     -13.417
      -9.098
      -4.018
       0.452
       3.310
       4.488
       5.065
       6.448
       9.011
      11.481
      11.744
       8.419
       2.045
      -4.891
      -9.207
      -8.955
      -4.866
      -0.061
       2.164
       0.908
      -1.716
      -2.592
      -0.432
       3.204
       5.305
       3.648
      -1.871
      -9.256
     -15.430
     -17.831
     -15.788
     -10.723
      -4.983
      -0.303
       2.964
       5.577
       8.587
      12.542
      16.975
      20.380
      20.906
      17.542
      10.932
       3.109
      -3.577
      -7.417
      -7.761
      -5.134
      -1.195
       1.846
       2.375
       0.215
      -3.585
      -7.563
     -10.381
     -11.031
      -9.258
      -6.000
      -3.066
      -1.950
      -2.821
      -4.621
      -6.038
      -6.323
      -5.291
      -2.780
       1.588
       7.841
      14.786
      19.964
      20.824
      16.296
       7.570
      -2.478
     -10.663
     -14.677
     -13.582
      -8.038
      -0.501
       5.330
       6.396
       2.413
      -3.777
      -8.192
      -8.250
      -3.879
       3.099
      10.140
      14.846
      15.535
      11.829
       5.034
      -2.343
      -7.989
     -10.998
     -11.844
     -11.449
     -10.478
      -9.283
      -7.989
      -6.541
      -4.995
      -3.842
      -3.628
      -4.051
      -3.758
      -1.405
       3.046
       8.046
      11.306
      11.043
       6.987
       0.618
      -5.731
     -10.349
     -12.757
     -12.822
      -9.781
      -2.915
       6.711
      15.807
      20.786
      20.317
      16.053
      11.070
       7.681
       6.398
       6.270
       5.872
       4.252
       1.525
      -1.157
      -2.315
      -0.982
       2.985
       9.111
      16.478
      23.665
      28.845
      30.385
      27.699
      21.769
      14.814
       9.230
       6.472
       6.545
       8.222
       9.732
       9.573
       7.163
       3.156
      -0.765
      -2.727
      -1.989
       0.011
      -0.170
      -6.119
     -18.870
     -35.346
     -49.574
     -56.222
     -53.907
     -45.750
     -36.804
     -30.459
     -26.606
     -22.636
     -15.961
      -5.873
       6.227
      17.506
      24.503
      24.318
      16.293
       2.964
     -11.151
     -22.203
     -28.643
     -30.696
     -29.084
     -24.601
     -18.289
     -11.168
      -3.637
       4.439
      12.799
      20.129
      24.652
      25.394
      22.725
      17.744
      11.651
       6.006
       3.067
       4.857
      11.263
      19.211
      24.184
      23.140
      16.543
       7.991
       1.769
       0.176
       2.382
       5.328
       5.920
       3.091
      -1.571
      -5.069
      -5.237
      -2.320
       1.290
       2.807
       0.771
      -4.522
     -11.754
     -19.415
     -26.045
     -30.252
     -31.180
     -29.220
     -26.020
     -23.380
     -21.991
     -21.187
     -19.856
     -17.598
     -15.070
     -13.064
     -11.313
      -8.615
      -4.338
       0.671
       5.228
       9.628
      15.502
      23.455
      31.325
      35.533
      34.344
      29.545
      25.000
      24.032
      27.874
      35.186
      42.091
      43.611
      36.856
      23.472
       8.380
      -4.219
     -13.191
     -19.081
     -21.804
     -20.849
     -16.980
     -12.123
      -7.415
      -2.537
       2.723
       7.304
       9.868
      10.160
       8.548
       4.913
      -0.695
      -6.405
      -9.032
      -7.135
      -2.997
      -0.771
      -2.769
      -7.860
     -13.071
     -16.076
     -16.190
     -13.818
      -9.942
      -6.507
      -6.622
     -12.806
     -23.887
     -34.152
     -37.085
     -30.549
     -17.966
      -4.762
       5.350
      10.965
      12.186
      10.864
      10.512
      13.663
      18.752
      20.912
      16.782
       8.083
       0.158
      -2.416
       1.533
      10.466
      21.976
      33.385
      41.174
      41.256
      31.290
      13.396
      -5.914
     -19.440
     -23.677
     -20.137
     -13.129
      -6.616
      -2.523
      -0.699
       0.338
       2.260
       5.540
       8.663
       9.056
       5.410
      -0.758
      -6.181
      -8.722
      -9.141
      -9.854
     -12.148
     -15.214
     -17.988
     -20.845
     -24.393
     -27.193
     -26.250
     -20.193
     -11.199
      -3.384
       0.303
      -0.241
      -2.530
      -2.897
       1.193
       8.757
      15.393
      17.125
      14.486
      11.758
      11.967
      13.893
      14.697
      14.064
      14.084
      15.479
      15.738
      11.722
       3.368
      -5.765
     -11.327
     -11.441
      -7.807
      -4.139
      -3.224
      -4.866
      -6.442
      -5.548
      -2.045
       2.424
       6.419
       9.568
      11.656
      11.792
       9.152
       4.269
      -0.935
      -4.432
      -5.158
      -2.962
       1.834
       8.263
      14.299
      17.382
      16.048
      11.229
       5.788
       2.450
       1.865
       2.376
       1.574
      -1.760
      -6.832
     -11.584
     -14.212
     -14.184
     -12.108
      -8.881
      -5.101
      -1.223
       1.981
       3.511
       2.939
       1.039
      -0.760
      -1.764
      -2.684
      -4.702
      -7.953
     -11.090
     -12.236
     -10.286
      -5.658
      -0.286
       3.210
       3.082
      -0.202
      -4.091
      -5.709
      -3.848
       0.452
       4.969
       7.956
       9.210
       9.993
      11.873
      15.208
      18.575
      19.850
      18.036
      13.994
       9.442
       5.514
       2.419
       0.101
      -1.328
      -1.921
      -2.266
      -3.234
      -5.276
      -7.966
     -10.222
     -11.068
     -10.285
      -8.390
      -6.010
      -3.340
      -0.304
       2.860
       5.449
       6.750
       6.486
       4.742
       1.732
      -2.075
      -5.578
      -7.116
      -5.395
      -0.691
       4.856
       8.376
       8.135
       4.698
       0.402
      -2.479
      -3.454
      -4.098
      -6.730
     -12.423
     -19.681
     -24.804
     -24.059
     -16.474
      -5.141
       4.362
       7.536
       3.733
      -3.914
     -10.973
     -14.461
     -14.063
     -11.471
      -8.672
      -6.567
      -4.949
      -3.497
      -2.408
      -1.957
      -1.742
      -0.742
       1.783
       5.485
       9.061
      11.208
      11.490
      10.384
       8.766
       7.550
       7.648
       9.657
      13.140
      16.356
      17.142
      14.406
       8.907
       2.737
      -1.901
      -3.717
      -2.706
       0.147
       3.596
       6.766
       9.222
      10.699
      11.097
      10.760
      10.365
      10.156
       9.367
       6.692
       1.493
      -5.437
     -12.220
     -16.933
     -18.592
     -17.564
     -15.219
     -13.013
     -11.607
     -10.678
      -9.523
      -7.782
      -5.519
      -2.718
       1.028
       5.963
      11.228
      14.778
      14.707
      10.965
       5.735
       2.033
       1.757
       4.647
       8.624
      11.008
       9.953
       5.438
      -0.730
      -5.968
      -8.417
      -7.862
      -5.547
      -3.191
      -1.870
      -1.420
      -0.804
       0.694
       2.519
       3.129
       1.417
      -2.102
      -5.588
      -7.407
      -7.299
      -6.114
      -4.843
      -4.249
      -5.106
      -8.027
     -12.658
     -17.286
     -19.657
     -18.455
     -14.234
      -9.167
      -5.783
      -5.364
      -7.024
      -8.259
      -6.762
      -2.149
       3.766
       8.294
       9.622
       7.685
       3.813
      -0.204
      -2.899
      -3.549
      -2.395
      -0.500
       0.957
       1.599
       2.112
       3.470
       5.865
       8.484
      10.227
      10.450
       8.971
       5.750
       0.930
      -4.803
     -10.167
     -13.791
     -14.896
     -13.652
