Origin Time       04/04/2011 11:31:40 UTC
Lat.              29.6 N	
Long.             80.8 E	
Depth (Km)         10.0
Magnitude         5.7
 Region           NEPAL-INDIA-BORDER-REGION                                        
 Above details taken from IMD 
    
Station Code      DRC
Station Lat.       29.847  N
Station Long.      80.546  E
Station Height(m)  909.0
Site Class        A   Vs30 between 700 m/sec to 1400 m/sec * 
Record Time       04.04.2011 11:31:32.549 UTC
Sampling Rate     200. Hz
 Record Duration   82.625 Sec.
 Direction         N-S (N positive)
Max. Acceleration    131.634 cm/sec**2
     
  * For reference see Site Classification link of website 
     
 Base Line Corrected and Low Pass Filtered (Cut Off at 35 Hz) Time History
 Acceleration data in cm/sec**2
    
[...]
      -0.006
      -0.014
      -0.021
      -0.021
      -0.015
      -0.005
       0.003
       0.009
       0.011
       0.009
       0.007
       0.006
       0.006
       0.007
       0.008
       0.009
       0.009
       0.010
       0.013
       0.016
       0.014
       0.008
      -0.001
      -0.007
      -0.009
      -0.006
       0.003
       0.013
       0.023
       0.029
       0.027
       0.017
       0.004
      -0.007
      -0.010
      -0.004
       0.005
       0.010
       0.009
       0.004
      -0.002
      -0.005
      -0.005
      -0.002
      -0.001
      -0.002
      -0.007
      -0.013
      -0.012
       0.000
       0.019
       0.031
       0.026
       0.005
      -0.016
      -0.022
      -0.015
      -0.001
       0.009
       0.012
       0.008
       0.000
      -0.006
      -0.009
      -0.005
       0.001
       0.004
       0.002
      -0.004
      -0.008
      -0.005
       0.006
       0.018
       0.024
       0.022
       0.013
       0.000
      -0.013
      -0.022
      -0.028
      -0.028
      -0.022
      -0.010
       0.000
       0.003
      -0.006
      -0.018
      -0.024
      -0.016
      -0.002
       0.006
      -0.004
      -0.026
      -0.045
      -0.046
      -0.025
       0.007
       0.033
       0.041
       0.025
      -0.016
      -0.072
      -0.119
      -0.134
      -0.102
      -0.037
       0.022
       0.029
      -0.042
      -0.169
      -0.297
      -0.370
      -0.367
      -0.316
      -0.278
      -0.311
      -0.434
      -0.612
      -0.790
      -0.924
      -0.999
      -1.021
      -1.003
      -0.957
      -0.891
      -0.815
      -0.742
      -0.690
      -0.678
      -0.706
      -0.751
      -0.763
      -0.694
      -0.525
      -0.291
      -0.070
       0.085
       0.197
       0.377
       0.739
       1.293
       1.891
       2.287
       2.284
       1.877
       1.291
       0.858
       0.809
       1.125
       1.555
       1.801
       1.696
       1.262
       0.632
      -0.041
      -0.622
      -0.966
      -0.932
      -0.464
       0.297
       1.003
       1.261
       0.914
       0.197
      -0.386
      -0.411
       0.169
       1.001
       1.606
       1.678
       1.225
       0.493
      -0.208
      -0.629
      -0.647
      -0.289
       0.255
       0.686
       0.726
       0.259
      -0.591
      -1.516
      -2.196
      -2.485
      -2.472
      -2.359
      -2.304
      -2.347
      -2.418
      -2.399
      -2.192
      -1.819
      -1.456
      -1.291
      -1.263
      -0.960
       0.084
       1.879
       3.766
       4.765
       4.244
       2.404
       0.214
      -1.157
      -1.022
       0.494
       2.638
       4.441
       5.079
       4.178
       2.053
      -0.345
      -1.958
      -2.264
      -1.529
      -0.487
       0.227
       0.425
       0.245
      -0.223
      -1.081
      -2.326
      -3.494
      -3.825
      -2.890
      -0.992
       1.104
       2.719
       3.558
       3.634
       3.055
       1.870
       0.147
      -1.774
      -3.199
      -3.501
      -2.743
      -1.737
      -1.380
      -1.929
      -2.930
      -3.719
      -3.880
      -3.265
      -1.764
       0.700
       3.798
       6.543
       7.712
       6.708
       4.043
       0.965
      -1.424
      -2.776
      -3.423
      -3.818
      -4.065
      -3.937
      -3.276
      -2.265
      -1.244
      -0.339
       0.603
       1.664
       2.512
       2.628
       2.014
       1.569
       2.416
       4.727
       7.344
       8.705
       8.153
       6.365
       4.629
       3.729
       3.445
       2.931
       1.525
      -0.723
      -3.161
      -5.103
      -6.314
      -7.059
      -7.757
      -8.551
      -9.123
      -8.900
      -7.513
      -5.112
      -2.226
       0.645
       3.285
       5.622
       7.400
       8.114
       7.434
       5.708
       3.900
       2.909
       2.890
       3.186
       2.806
       1.065
      -2.025
      -5.725
      -8.934
     -10.799
     -11.189
     -10.671
      -9.958
      -9.253
      -8.099
      -5.944
      -2.897
       0.090
       1.957
       2.525
       2.701
       3.606
       5.477
       7.470
       8.553
       8.508
       8.021
       7.820
       7.778
       6.882
       4.171
      -0.171
      -4.574
      -7.035
      -6.560
      -3.908
      -0.963
       0.696
       0.806
       0.268
       0.185
       1.007
       2.421
       3.843
       4.875
       5.368
       5.262
       4.601
       3.635
       2.678
       1.776
       0.614
      -1.120
      -3.271
      -5.139
      -5.928
      -5.346
      -3.850
      -2.328
      -1.495
      -1.510
      -2.028
      -2.515
      -2.514
      -1.767
      -0.286
       1.589
       3.235
       3.966
       3.351
       1.519
      -0.768
      -2.391
      -2.416
      -0.671
       2.022
       4.213
       4.646
       2.991
      -0.007
      -3.037
      -5.028
      -5.720
      -5.568
      -5.138
      -4.569
      -3.584
      -1.927
       0.228
       2.295
       3.693
       4.240
       4.208
       4.108
       4.433
       5.403
       6.711
       7.465
       6.654
       3.945
       0.095
      -3.531
      -5.919
      -6.981
      -7.290
      -7.330
      -7.030
      -5.993
      -4.073
      -1.712
       0.296
       1.376
       1.604
       1.634
       2.132
       3.179
       4.230
       4.685
       4.492
       4.050
       3.487
       2.263
      -0.160
      -3.272
      -5.504
      -5.545
      -3.699
      -1.833
      -1.871
      -4.210
      -7.451
      -9.572
      -9.394
      -7.133
      -3.854
      -0.591
       2.050
       3.792
       4.566
       4.622
       4.521
       4.803
       5.549
       6.342
       6.698
       6.555
       6.285
       6.211
       6.185
       5.664
       4.201
       1.811
      -1.095
      -4.048
      -6.699
      -8.722
      -9.665
      -9.101
      -7.019
      -3.994
      -0.846
       1.927
       4.380
       6.779
       9.020
      10.477
      10.536
       9.233
       7.230
       5.144
       2.983
       0.340
      -2.893
      -6.021
      -7.822
      -7.467
      -5.339
      -2.967
      -2.002
      -3.010
      -5.081
      -6.574
      -6.353
      -4.522
      -2.189
      -0.585
      -0.244
      -0.752
      -1.175
      -0.748
       0.675
       2.591
       4.120
       4.414
       3.095
       0.500
      -2.436
      -4.607
      -5.271
      -4.416
      -2.742
      -1.190
      -0.358
      -0.271
      -0.619
      -1.094
      -1.490
      -1.633
      -1.407
      -0.872
      -0.217
       0.499
       1.505
       3.135
       5.395
       7.682
       8.972
       8.403
       5.835
       1.913
      -2.311
      -5.824
      -7.906
      -8.233
      -6.932
      -4.572
      -1.979
       0.100
       1.362
       2.057
       2.664
       3.346
       3.733
       3.382
       2.419
       1.602
       1.693
       2.764
       4.137
       5.025
       5.241
       5.286
       5.726
       6.525
       7.008
       6.426
       4.542
       1.803
      -0.839
      -2.355
      -2.258
      -1.082
      -0.163
      -0.663
      -2.637
      -5.012
      -6.461
      -6.319
      -4.787
      -2.562
      -0.445
       0.815
       0.616
      -1.327
      -4.780
      -8.875
     -12.227
     -13.426
     -11.796
      -7.879
      -3.155
       0.821
       3.169
       3.840
       3.271
       1.927
       0.135
      -1.679
      -2.759
      -2.274
       0.058
       3.591
       7.024
       9.119
       9.328
       7.963
       5.885
       3.960
       2.664
       2.065
       2.029
       2.332
       2.575
       2.186
       0.681
      -1.950
      -5.070
      -7.608
      -8.589
      -7.651
      -5.217
      -2.248
       0.238
       1.578
       1.672
       0.972
       0.244
       0.169
       0.958
       2.184
       3.017
       2.751
       1.260
      -0.948
      -3.061
      -4.341
      -4.391
      -3.345
      -1.901
      -1.003
      -1.237
      -2.412
      -3.691
      -4.148
      -3.341
      -1.556
       0.369
       1.531
       1.477
       0.486
      -0.575
      -0.786
       0.256
       2.207
       4.260
       5.753
       6.607
       7.225
       7.943
       8.556
       8.371
       6.823
       4.179
       1.609
       0.462
       1.308
       3.497
       5.511
       5.870
       4.021
       0.720
      -2.360
      -3.662
      -2.789
      -0.775
       0.699
       0.518
      -1.238
      -3.644
      -5.785
      -7.225
      -7.843
      -7.556
      -6.456
      -5.087
      -4.263
      -4.406
      -5.061
      -5.128
      -3.673
      -0.670
       2.884
       5.592
       6.587
       6.010
       4.697
       3.449
       2.531
       1.676
       0.443
      -1.363
      -3.444
      -5.089
      -5.529
      -4.425
      -2.299
      -0.500
      -0.420
      -2.421
      -5.406
      -7.533
      -7.550
      -5.678
      -3.314
      -1.767
      -1.130
      -0.392
       1.350
       3.912
       6.333
       7.916
       8.731
       9.227
       9.652
       9.941
      10.007
      10.007
      10.260
      10.873
      11.453
      11.238
       9.483
       5.777
       0.160
      -6.762
     -13.695
     -18.888
     -20.897
     -19.403
     -15.370
     -10.336
      -5.469
      -1.213
       2.263
       4.516
       4.969
       3.638
       1.499
      -0.099
      -0.494
      -0.179
      -0.219
      -1.131
      -2.322
      -2.664
      -1.686
      -0.165
       0.467
      -0.662
      -3.194
      -5.881
      -7.466
      -7.312
      -5.516
      -2.750
       0.005
       1.849
       2.446
       2.248
       2.195
       3.032
       4.727
       6.485
       7.333
       6.797
       5.124
       2.992
       1.061
      -0.273
      -0.917
      -1.096
      -1.265
      -1.802
      -2.637
      -3.238
      -3.001
      -1.647
       0.692
       3.588
       6.430
       8.524
       9.269
       8.399
       6.132
       3.139
       0.296
      -1.671
      -2.418
      -1.996
      -0.750
       0.779
       1.992
       2.468
       2.120
       1.158
      -0.080
      -1.282
      -2.201
      -2.642
      -2.423
      -1.414
       0.318
       2.312
       3.681
       3.432
       1.027
      -3.167
      -7.893
     -11.503
     -12.706
     -11.211
      -7.879
      -4.212
      -1.457
      -0.026
       0.337
      -0.081
      -1.332
      -3.553
      -6.394
      -8.788
      -9.366
      -7.293
      -2.885
       2.447
       6.883
       9.004
       8.330
       5.453
       1.845
      -0.703
      -0.905
       1.343
       4.938
       8.209
       9.774
       9.156
       6.848
       3.907
       1.350
      -0.317
      -1.254
      -2.095
      -3.482
      -5.548
      -7.678
      -8.768
      -7.893
      -4.965
      -0.903
       2.858
       5.209
       5.965
       5.832
       5.836
       6.650
       8.179
       9.615
       9.895
       8.378
       5.332
       1.901
      -0.552
      -1.288
      -0.583
       0.640
       1.541
       1.754
       1.204
      -0.226
      -2.642
      -5.769
      -8.770
     -10.604
     -10.771
      -9.772
      -8.741
      -8.441
      -8.539
      -7.957
      -6.027
      -3.277
      -1.017
      -0.103
      -0.129
       0.177
       1.783
       4.532
       7.326
       9.026
       9.221
       8.317
       7.032
       5.863
       4.972
       4.370
       4.005
       3.606
       2.603
       0.457
      -2.787
      -6.304
      -8.895
      -9.699
      -8.654
      -6.462
      -4.078
      -2.078
      -0.350
       1.622
       4.091
       6.553
       7.922
       7.300
       4.724
       1.243
      -1.736
      -3.238
      -3.050
      -1.558
       0.563
       2.597
       3.984
       4.466
       4.093
       3.063
       1.486
      -0.702
      -3.562
      -6.820
      -9.685
     -11.087
     -10.318
      -7.594
      -3.998
      -0.747
       1.566
       3.055
       3.981
       4.301
       3.867
       2.918
       2.158
       2.222
       3.158
       4.485
       5.697
       6.648
       7.515
       8.462
       9.382
       9.966
      10.003
       9.569
       8.883
       8.023
       6.915
       5.587
       4.289
       3.232
       2.253
       0.823
      -1.525
      -4.708
      -7.953
     -10.171
     -10.567
      -9.126
      -6.671
      -4.457
      -3.452
      -3.774
      -4.762
      -5.599
      -5.890
      -5.726
      -5.324
      -4.716
      -3.802
      -2.669
      -1.839
      -2.139
      -4.221
      -8.071
     -12.882
     -17.389
     -20.487
     -21.816
     -21.940
     -21.991
     -23.012
     -25.459
     -29.073
     -33.029
     -36.168
     -37.353
     -35.959
     -32.247
     -27.247
     -22.182
     -17.897
     -14.670
     -12.347
     -10.563
      -8.879
      -6.873
      -4.274
      -1.211
       1.603
       3.107
       2.621
       0.556
      -1.672
      -2.664
      -2.147
      -1.126
      -0.960
      -2.217
      -4.383
      -6.579
      -8.508
     -10.729
     -14.134
     -19.217
     -25.701
     -32.599
     -38.398
     -41.224
     -39.207
     -31.248
     -17.866
      -1.296
      15.530
      30.408
      42.658
      52.901
      62.254
      71.605
      81.365
      91.584
     102.055
     112.212
     121.084
     127.572
     131.014
     131.634
     130.440
     128.569
     126.544
     124.011
     120.106
     114.095
     105.846
      95.886
      85.073
      74.079
      62.938
      50.939
      36.984
      20.314
       1.179
     -19.043
     -38.423
     -55.411
     -69.490
     -81.158
     -91.251
    -100.072
    -107.045
    -111.318
    -112.925
    -113.295
    -114.377
    -117.054
    -120.393
    -122.396
    -121.479
    -117.386
    -110.975
    -103.233
     -94.383
     -83.758
     -70.532
     -54.730
     -37.737
     -21.880
      -9.319
      -1.019
       3.514
       5.709
       7.259
       9.754
      14.527
      22.477
      33.842
      48.076
      63.867
      79.290
      92.076
     100.048
     101.689
      96.585
      85.411
      69.451
      50.046
      28.428
       5.959
     -15.655
     -34.576
     -49.485
     -60.199
     -67.624
     -72.856
     -76.126
     -76.578
     -73.135
     -65.592
     -54.921
     -42.502
     -29.088
     -14.536
       1.434
      18.192
      33.759
      45.302
      50.350
      48.233
      40.840
      31.937
      25.210
      22.267
      21.887
      21.061
      17.201
       9.792
       0.083
     -10.583
     -21.766
     -33.319
     -44.205
     -52.182
     -54.563
     -49.391
     -36.292
     -16.691
       6.647
      30.402
      51.363
      66.696
      74.118
      72.365
      61.796
      44.461
      23.439
       2.064
     -16.506
     -29.628
     -35.817
     -35.473
     -30.904
     -25.228
     -20.982
     -19.481
     -20.862
     -24.113
     -27.135
     -27.386
     -22.817
     -12.337
       4.248
      26.103
      50.700
      73.517
      89.149
      93.762
      87.224
      73.107
      56.242
      39.706
      23.865
       8.064
      -7.390
     -21.290
     -32.958
     -42.502
     -49.431
     -51.852
     -47.928
     -38.168
     -25.908
     -15.334
      -8.771
      -5.308
      -1.487
       6.548
      20.625
      39.087
      57.190
      69.354
      72.091
      65.688
      53.302
      38.203
      21.753
       4.078
     -13.684
     -28.532
     -37.447
     -40.016
     -39.104
     -38.873
     -41.993
     -48.327
     -55.712
     -61.621
     -64.363
     -63.299
     -58.442
     -50.069
     -38.802
     -26.010
     -13.977
      -5.390
      -2.241
      -4.774
     -11.279
     -19.087
     -26.046
     -31.287
     -34.838
     -36.805
     -37.052
     -35.433
     -31.944
     -26.557
     -19.190
     -10.066
       0.057
      10.156
      19.341
      27.026
      33.109
      38.290
      43.892
      50.799
      58.332
      64.346
      66.575
      63.956
      56.913
      46.853
      35.656
      25.253
      17.054
      11.338
       7.170
       3.051
      -2.068
      -8.054
     -13.567
     -16.780
     -16.469
     -12.862
      -7.561
      -2.496
       1.313
       4.131
       6.837
       9.942
      13.194
      15.882
      17.272
      16.733
      13.702
       7.847
      -0.552
     -10.326
     -19.603
     -26.514
     -30.023
     -30.322
     -28.473
     -25.550
     -21.983
     -17.659
     -12.595
      -7.405
      -3.026
      -0.048
       1.578
       2.243
       2.263
       1.846
       1.299
       0.995
       0.951
       0.505
      -1.321
      -4.892
      -9.278
     -12.591
     -13.199
     -10.895
      -7.132
      -4.103
      -3.278
      -4.416
      -5.826
      -5.657
      -3.219
       0.629
       4.126
       5.655
       4.521
       1.153
      -3.260
      -7.460
     -10.718
     -12.923
     -14.247
     -14.781
     -14.465
     -13.231
     -11.085
      -8.074
      -4.192
       0.664
       6.661
      13.891
      22.189
      31.023
      39.604
      47.147
      53.085
      57.067
      58.837
      58.212
      55.275
      50.590
      45.145
      39.976
      35.701
      32.274
      29.121
      25.563
      21.196
      15.973
       9.993
       3.238
      -4.476
     -13.269
     -22.835
     -32.271
     -40.254
     -45.578
     -47.763
     -47.375
     -45.820
     -44.696
     -44.993
     -46.565
     -48.207
     -48.379
     -46.139
     -41.616
     -35.736
     -29.473
     -23.277
     -17.069
     -10.718
      -4.498
       0.919
       4.931
       7.508
       9.226
      10.774
      12.407
      13.784
      14.220
      13.104
      10.317
       6.453
       2.609
      -0.229
      -1.782
      -2.558
      -3.320
      -4.387
      -5.413
      -5.817
      -5.443
      -4.743
      -4.331
      -4.370
      -4.402
      -3.717
      -1.903
       0.827
       3.669
       5.574
       5.786
       4.290
       1.834
      -0.552
      -2.155
      -2.790
      -2.582
      -1.672
      -0.154
       1.816
       3.922
       5.741
       6.989
       7.787
       8.676
      10.263
      12.739
      15.687
      18.372
      20.209
      21.007
      20.872
      20.014
      18.647
      16.954
      14.995
      12.566
       9.213
       4.533
      -1.402
      -7.897
     -13.912
     -18.472
     -20.911
     -20.955
     -18.739
     -14.777
      -9.779
      -4.391
       0.916
       5.763
       9.752
      12.527
      13.914
      13.951
      12.828
      10.909
       8.772
       7.105
       6.411
       6.694
       7.372
       7.538
       6.465
       4.062
       0.929
      -2.064
      -4.388
      -6.114
      -7.612
      -9.025
     -10.106
     -10.515
     -10.192
      -9.454
      -8.792
      -8.570
      -8.789
      -9.047
      -8.785
      -7.684
      -5.944
      -4.182
      -3.017
      -2.700
      -3.043
      -3.680
      -4.366
      -5.022
      -5.548
      -5.705
      -5.313
      -4.541
      -3.931
      -4.008
      -4.826
      -5.905
      -6.622
      -6.684
