Origin Time       18/01/2011 20:23:27
Lat.              28.9 N	
Long.             64.0 E	
Depth (Km)          5.0
Magnitude         7.4
 Region           Southwestern-Pakistan                                            
 Above details taken from IMD 
     
Station Code      DHR
Station Lat.       32.406  N
Station Long.      75.797  E
Station Height(m)  445.0
Site Class        C   Vs30 between 200 m/sec to 375 m/sec *  
Record Time       18.01.2011 20:27:31.554
Sampling Rate     200. Hz
 Record Duration   80.030 Sec.
 Direction         E-W (E positive)
Max. Acceleration      2.266 cm/sec**2
     
  * For reference see Site Classification link of website 
     
 Base Line Corrected and Low Pass Filtered (Cut Off at 35 Hz) Time History
 Acceleration data in cm/sec**2
    
[...]
      -0.027
      -0.055
      -0.076
      -0.094
      -0.108
      -0.122
      -0.139
      -0.160
      -0.182
      -0.200
      -0.208
      -0.205
      -0.193
      -0.178
      -0.162
      -0.143
      -0.120
      -0.092
      -0.063
      -0.037
      -0.018
      -0.008
      -0.007
      -0.017
      -0.035
      -0.055
      -0.072
      -0.083
      -0.090
      -0.092
      -0.084
      -0.061
      -0.022
       0.028
       0.081
       0.129
       0.174
       0.219
       0.266
       0.308
       0.338
       0.353
       0.355
       0.351
       0.347
       0.342
       0.335
       0.327
       0.320
       0.319
       0.323
       0.327
       0.324
       0.312
       0.294
       0.274
       0.253
       0.230
       0.202
       0.171
       0.139
       0.110
       0.086
       0.069
       0.057
       0.045
       0.031
       0.013
      -0.011
      -0.040
      -0.074
      -0.113
      -0.159
      -0.211
      -0.263
      -0.310
      -0.347
      -0.372
      -0.388
      -0.395
      -0.397
      -0.392
      -0.380
      -0.365
      -0.350
      -0.341
      -0.339
      -0.343
      -0.351
      -0.360
      -0.370
      -0.382
      -0.392
      -0.394
      -0.383
      -0.359
      -0.326
      -0.291
      -0.254
      -0.214
      -0.173
      -0.133
      -0.098
      -0.071
      -0.054
      -0.043
      -0.033
      -0.021
      -0.002
       0.024
       0.056
       0.095
       0.141
       0.192
       0.244
       0.289
       0.322
       0.339
       0.341
       0.332
       0.314
       0.287
       0.252
       0.215
       0.181
       0.153
       0.132
       0.115
       0.103
       0.094
       0.087
       0.078
       0.063
       0.040
       0.007
      -0.036
      -0.085
      -0.133
      -0.172
      -0.197
      -0.204
      -0.195
      -0.170
      -0.130
      -0.076
      -0.010
       0.061
       0.130
       0.192
       0.242
       0.278
       0.299
       0.306
       0.304
       0.297
       0.290
       0.283
       0.279
       0.281
       0.288
       0.299
       0.313
       0.329
       0.351
       0.378
       0.405
       0.428
       0.442
       0.452
       0.462
       0.473
       0.483
       0.486
       0.484
       0.479
       0.472
       0.465
       0.453
       0.433
       0.400
       0.353
       0.291
       0.219
       0.139
       0.055
      -0.029
      -0.109
      -0.182
      -0.246
      -0.303
      -0.350
      -0.384
      -0.401
      -0.404
      -0.401
      -0.398
      -0.403
      -0.412
      -0.420
      -0.424
      -0.422
      -0.416
      -0.407
      -0.395
      -0.378
      -0.355
      -0.323
      -0.281
      -0.232
      -0.182
      -0.135
      -0.092
      -0.051
      -0.007
       0.036
       0.077
       0.109
       0.130
       0.141
       0.147
       0.151
       0.154
       0.156
       0.154
       0.145
       0.130
       0.112
       0.094
       0.077
       0.058
       0.035
       0.006
      -0.024
      -0.055
      -0.084
      -0.114
      -0.145
      -0.176
      -0.204
      -0.226
      -0.242
      -0.254
      -0.264
      -0.274
      -0.283
      -0.289
      -0.292
      -0.293
      -0.290
      -0.284
      -0.276
      -0.268
      -0.262
      -0.253
      -0.237
      -0.210
      -0.174
      -0.133
      -0.089
      -0.040
       0.015
       0.074
       0.131
       0.179
       0.217
       0.244
       0.262
       0.275
       0.284
       0.290
       0.294
       0.298
       0.301
       0.306
       0.313
       0.321
       0.328
       0.334
       0.336
       0.329
       0.314
       0.293
       0.270
       0.248
       0.228
       0.208
       0.187
       0.168
       0.153
       0.144
       0.137
       0.128
       0.114
       0.093
       0.063
       0.022
      -0.030
      -0.089
      -0.150
      -0.207
      -0.258
      -0.304
      -0.347
      -0.382
      -0.405
      -0.416
      -0.416
      -0.409
      -0.400
      -0.389
      -0.371
      -0.344
      -0.309
      -0.270
      -0.229
      -0.189
      -0.145
      -0.093
      -0.031
       0.036
       0.103
       0.161
       0.210
       0.251
       0.290
       0.326
       0.356
       0.379
       0.394
       0.407
       0.421
       0.440
       0.463
       0.489
       0.519
       0.555
       0.594
       0.631
       0.660
       0.678
       0.682
       0.672
       0.644
       0.597
       0.535
       0.465
       0.393
       0.320
       0.244
       0.165
       0.089
       0.023
      -0.027
      -0.062
      -0.088
      -0.110
      -0.135
      -0.164
      -0.193
      -0.219
      -0.240
      -0.258
      -0.279
      -0.305
      -0.334
      -0.366
      -0.394
      -0.417
      -0.435
      -0.451
      -0.465
      -0.473
      -0.470
      -0.450
      -0.411
      -0.361
      -0.304
      -0.246
      -0.186
      -0.127
      -0.072
      -0.028
       0.001
       0.016
       0.018
       0.007
      -0.018
      -0.055
      -0.104
      -0.164
      -0.231
      -0.301
      -0.363
      -0.406
      -0.427
      -0.430
      -0.421
      -0.405
      -0.383
      -0.355
      -0.322
      -0.290
      -0.268
      -0.260
      -0.265
      -0.278
      -0.291
      -0.299
      -0.303
      -0.304
      -0.303
      -0.295
      -0.280
      -0.256
      -0.224
      -0.186
      -0.145
      -0.103
      -0.063
      -0.031
      -0.010
       0.001
       0.007
       0.015
       0.026
       0.041
       0.060
       0.085
       0.117
       0.155
       0.195
       0.233
       0.263
       0.282
       0.293
       0.300
       0.306
       0.313
       0.322
       0.330
       0.340
       0.354
       0.370
       0.391
       0.414
       0.441
       0.471
       0.503
       0.531
       0.551
       0.563
       0.571
       0.582
       0.601
       0.626
       0.653
       0.679
       0.703
       0.723
       0.739
       0.749
       0.749
       0.736
       0.708
       0.664
       0.606
       0.537
       0.462
       0.387
       0.311
       0.234
       0.156
       0.079
       0.006
      -0.061
      -0.122
      -0.179
      -0.233
      -0.286
      -0.339
      -0.391
      -0.440
      -0.487
      -0.533
      -0.578
      -0.621
      -0.663
      -0.702
      -0.740
      -0.776
      -0.809
      -0.833
      -0.847
      -0.849
      -0.842
      -0.831
      -0.818
      -0.804
      -0.788
      -0.769
      -0.747
      -0.722
      -0.691
      -0.652
      -0.605
      -0.551
      -0.494
      -0.431
      -0.361
      -0.279
      -0.190
      -0.100
      -0.016
       0.059
       0.125
       0.181
       0.225
       0.253
       0.266
       0.268
       0.264
       0.259
       0.255
       0.253
       0.253
       0.255
       0.258
       0.262
       0.269
       0.277
       0.286
       0.294
       0.301
       0.306
       0.309
       0.312
       0.309
       0.298
       0.276
       0.243
       0.203
       0.162
       0.121
       0.084
       0.048
       0.016
      -0.013
      -0.038
      -0.056
      -0.066
      -0.069
      -0.062
      -0.049
      -0.033
      -0.019
      -0.013
      -0.015
      -0.021
      -0.028
      -0.032
      -0.037
      -0.048
      -0.069
      -0.095
      -0.119
      -0.134
      -0.143
      -0.150
      -0.158
      -0.163
      -0.162
      -0.156
      -0.150
      -0.149
      -0.158
      -0.181
      -0.215
      -0.262
      -0.318
      -0.384
      -0.457
      -0.533
      -0.610
      -0.682
      -0.745
      -0.794
      -0.825
      -0.838
      -0.838
      -0.830
      -0.815
      -0.793
      -0.762
      -0.721
      -0.671
      -0.614
      -0.554
      -0.497
      -0.448
      -0.408
      -0.377
      -0.349
      -0.325
      -0.305
      -0.291
      -0.279
      -0.265
      -0.243
      -0.211
      -0.174
      -0.130
      -0.081
      -0.022
       0.044
       0.110
       0.169
       0.215
       0.250
       0.274
       0.290
       0.296
       0.290
       0.274
       0.254
       0.238
       0.234
       0.244
       0.267
       0.298
       0.332
       0.367
       0.402
       0.437
       0.468
       0.491
       0.503
       0.502
       0.493
       0.478
       0.459
       0.438
       0.414
       0.390
       0.368
       0.352
       0.341
       0.330
       0.310
       0.276
       0.227
       0.169
       0.104
       0.035
      -0.038
      -0.116
      -0.192
      -0.261
      -0.313
      -0.344
      -0.348
      -0.323
      -0.271
      -0.198
      -0.112
      -0.019
       0.075
       0.165
       0.245
       0.307
       0.347
       0.366
       0.366
       0.349
       0.318
       0.272
       0.209
       0.131
       0.043
      -0.050
      -0.143
      -0.232
      -0.313
      -0.382
      -0.434
      -0.465
      -0.473
      -0.455
      -0.408
      -0.329
      -0.224
      -0.109
      -0.001
       0.092
       0.165
       0.218
       0.250
       0.257
       0.235
       0.187
       0.119
       0.044
      -0.028
      -0.093
      -0.149
      -0.197
      -0.238
      -0.270
      -0.293
      -0.306
      -0.312
      -0.313
      -0.310
      -0.300
      -0.278
      -0.239
      -0.182
      -0.109
      -0.022
       0.072
       0.169
       0.263
       0.347
       0.413
       0.455
       0.473
       0.470
       0.452
       0.426
       0.400
       0.381
       0.378
       0.396
       0.438
       0.503
       0.584
       0.672
       0.760
       0.844
       0.917
       0.972
       1.003
       1.009
       0.994
       0.964
       0.925
       0.881
       0.834
       0.788
       0.746
       0.713
       0.690
       0.677
       0.668
       0.657
       0.635
       0.598
       0.549
       0.492
       0.433
       0.371
       0.309
       0.245
       0.182
       0.122
       0.063
       0.005
      -0.050
      -0.102
      -0.147
      -0.184
      -0.218
      -0.253
      -0.293
      -0.334
      -0.369
      -0.388
      -0.386
      -0.363
      -0.320
      -0.264
      -0.197
      -0.124
      -0.050
       0.021
       0.083
       0.131
       0.158
       0.158
       0.128
       0.071
      -0.010
      -0.110
      -0.222
      -0.338
      -0.449
      -0.552
      -0.646
      -0.730
      -0.801
      -0.855
      -0.890
      -0.910
      -0.920
      -0.923
      -0.918
      -0.903
      -0.881
      -0.854
      -0.826
      -0.797
      -0.763
      -0.720
      -0.667
      -0.605
      -0.539
      -0.472
      -0.405
      -0.337
      -0.265
      -0.188
      -0.107
      -0.027
       0.046
       0.108
       0.161
       0.205
       0.242
       0.271
       0.290
       0.301
       0.307
       0.311
       0.315
       0.316
       0.316
       0.315
       0.321
       0.337
       0.365
       0.402
       0.446
       0.495
       0.552
       0.615
       0.683
       0.757
       0.833
       0.911
       0.986
       1.055
       1.113
       1.155
       1.179
       1.181
       1.162
       1.124
       1.069
       1.002
       0.921
       0.827
       0.714
       0.583
       0.438
       0.282
       0.119
      -0.050
      -0.223
      -0.400
      -0.573
      -0.737
      -0.882
      -1.003
      -1.096
      -1.163
      -1.209
      -1.243
      -1.272
      -1.298
      -1.318
      -1.329
      -1.332
      -1.331
      -1.327
      -1.319
      -1.306
      -1.288
      -1.265
      -1.240
      -1.214
      -1.190
      -1.172
      -1.161
      -1.156
      -1.154
      -1.156
      -1.164
      -1.177
      -1.192
      -1.200
      -1.194
      -1.172
      -1.136
      -1.090
      -1.035
      -0.974
      -0.908
      -0.843
      -0.782
      -0.727
      -0.680
      -0.640
      -0.612
      -0.597
      -0.594
      -0.599
      -0.607
      -0.616
      -0.621
      -0.619
      -0.604
      -0.571
      -0.519
      -0.452
      -0.379
      -0.303
      -0.228
      -0.154
      -0.085
      -0.023
       0.028
       0.070
       0.104
       0.129
       0.144
       0.148
       0.136
       0.103
       0.049
      -0.022
      -0.103
      -0.186
      -0.266
      -0.339
      -0.397
      -0.433
      -0.440
      -0.417
      -0.370
      -0.304
      -0.225
      -0.135
      -0.038
       0.057
       0.141
       0.209
       0.262
       0.304
       0.341
       0.373
       0.404
       0.437
       0.475
       0.519
       0.566
       0.611
       0.648
       0.673
       0.686
       0.690
       0.690
       0.688
       0.680
       0.664
       0.637
       0.602
       0.561
       0.514
       0.460
       0.401
       0.334
       0.258
       0.171
       0.075
      -0.028
      -0.131
      -0.230
      -0.325
      -0.411
      -0.485
      -0.543
      -0.586
      -0.614
      -0.627
      -0.622
      -0.594
      -0.543
      -0.473
      -0.392
      -0.307
      -0.224
      -0.147
      -0.078
      -0.019
       0.029
       0.062
       0.081
       0.088
       0.088
       0.092
       0.107
       0.134
       0.172
       0.219
       0.273
       0.331
       0.390
       0.445
       0.497
       0.548
       0.607
       0.682
       0.778
       0.897
       1.035
       1.184
       1.342
       1.508
       1.678
       1.846
       1.999
       2.124
       2.213
       2.260
       2.266
       2.237
       2.181
       2.106
       2.020
       1.926
       1.826
       1.721
       1.616
       1.511
       1.408
       1.304
       1.200
       1.094
       0.987
       0.881
       0.775
       0.670
       0.568
       0.469
       0.376
       0.291
       0.221
       0.168
       0.135
       0.120
       0.120
       0.128
       0.140
       0.151
       0.162
       0.171
       0.173
       0.164
       0.135
       0.083
       0.010
      -0.072
      -0.152
      -0.223
      -0.283
      -0.333
      -0.372
      -0.400
      -0.415
      -0.419
      -0.415
      -0.408
      -0.404
      -0.405
      -0.411
      -0.418
      -0.421
      -0.419
      -0.408
      -0.388
      -0.360
      -0.323
      -0.280
      -0.236
      -0.194
      -0.159
      -0.132
      -0.114
      -0.100
      -0.084
      -0.063
      -0.037
      -0.009
       0.019
       0.043
       0.064
       0.082
       0.095
       0.104
       0.108
       0.112
       0.120
       0.133
       0.151
       0.171
       0.193
       0.220
       0.252
       0.285
       0.313
       0.334
       0.349
       0.363
       0.382
       0.404
       0.427
       0.449
       0.469
       0.493
       0.526
       0.567
       0.616
       0.669
       0.724
       0.777
       0.825
       0.864
       0.893
       0.912
       0.922
       0.919
       0.901
       0.866
       0.818
       0.764
       0.708
       0.653
       0.603
       0.557
       0.518
       0.486
       0.461
       0.437
       0.412
       0.384
       0.357
       0.332
       0.306
       0.273
       0.229
       0.178
       0.124
       0.073
       0.028
      -0.013
      -0.051
      -0.088
      -0.127
      -0.170
      -0.223
      -0.291
      -0.373
      -0.466
      -0.567
      -0.670
      -0.770
      -0.858
      -0.926
      -0.967
      -0.978
      -0.960
      -0.916
      -0.849
      -0.765
      -0.670
      -0.573
      -0.481
      -0.402
      -0.335
      -0.283
      -0.247
      -0.228
      -0.221
      -0.221
      -0.223
      -0.224
      -0.226
      -0.230
      -0.235
      -0.239
      -0.242
      -0.243
      -0.243
      -0.241
      -0.236
      -0.231
      -0.232
      -0.241
      -0.258
      -0.278
      -0.296
      -0.314
      -0.331
      -0.348
      -0.360
      -0.364
      -0.358
      -0.343
      -0.317
      -0.282
      -0.241
      -0.202
      -0.172
      -0.156
      -0.151
      -0.151
      -0.152
      -0.152
      -0.154
      -0.158
      -0.166
      -0.175
      -0.183
      -0.187
      -0.188
      -0.184
      -0.175
      -0.166
      -0.164
      -0.177
      -0.207
      -0.248
      -0.296
      -0.348
      -0.404
      -0.467
      -0.536
      -0.601
      -0.652
      -0.683
      -0.693
      -0.686
      -0.662
      -0.622
      -0.567
      -0.500
      -0.426
      -0.350
      -0.275
      -0.205
      -0.139
      -0.081
      -0.032
       0.008
       0.041
       0.070
       0.096
       0.124
       0.154
       0.186
       0.218
       0.250
       0.279
       0.305
       0.326
       0.342
       0.355
       0.364
       0.369
       0.368
       0.365
       0.363
       0.368
       0.384
       0.412
       0.447
       0.480
       0.505
       0.519
       0.523
       0.519
       0.504
       0.476
       0.430
       0.366
       0.287
       0.196
       0.097
      -0.011
      -0.124
      -0.239
      -0.349
      -0.449
      -0.535
      -0.604
      -0.657
      -0.692
      -0.710
      -0.713
      -0.706
      -0.697
      -0.691
      -0.691
      -0.698
      -0.712
      -0.734
      -0.762
      -0.793
      -0.821
      -0.839
      -0.844
      -0.839
      -0.824
      -0.803
      -0.774
      -0.735
      -0.686
      -0.626
      -0.560
      -0.490
      -0.416
      -0.335
      -0.242
      -0.136
      -0.017
       0.111
       0.244
       0.377
       0.506
       0.626
       0.730
       0.807
       0.851
       0.859
       0.833
       0.779
       0.701
       0.604
       0.499
       0.395
       0.304
       0.231
       0.178
       0.140
       0.117
       0.108
       0.114
       0.130
       0.146
       0.152
       0.140
       0.113
       0.075
       0.031
      -0.019
      -0.075
      -0.132
      -0.184
      -0.220
      -0.240
      -0.246
      -0.247
      -0.250
      -0.258
      -0.269
      -0.284
      -0.303
      -0.331
      -0.371
      -0.420
      -0.469
      -0.509
      -0.538
      -0.557
      -0.569
      -0.575
      -0.575
      -0.568
      -0.555
      -0.539
      -0.522
      -0.508
      -0.498
      -0.490
      -0.479
      -0.458
      -0.425
      -0.377
      -0.317
      -0.248
      -0.170
      -0.086
      -0.003
       0.072
       0.134
       0.183
       0.217
       0.234
       0.228
       0.198
       0.148
       0.085
       0.016
      -0.056
      -0.129
      -0.202
      -0.271
      -0.330
      -0.375
      -0.404
      -0.416
      -0.416
      -0.409
      -0.397
      -0.381
      -0.360
      -0.336
      -0.311
      -0.286
      -0.258
      -0.227
      -0.194
      -0.161
      -0.132
      -0.109
      -0.094
      -0.088
      -0.090
      -0.102
      -0.123
      -0.152
      -0.183
      -0.209
      -0.226
      -0.229
      -0.217
      -0.190
      -0.146
      -0.089
      -0.021
       0.050
       0.119
       0.180
       0.230
       0.267
       0.294
       0.313
       0.331
       0.352
       0.376
       0.405
       0.438
       0.478
       0.524
       0.574
       0.623
       0.669
       0.709
       0.746
       0.779
       0.809
       0.837
       0.865
       0.892
       0.916
       0.934
       0.945
       0.950
