Origin Time       18/01/2011 20:23:27
Lat.              28.9 N	
Long.             64.0 E	
Depth (Km)          5.0
Magnitude         7.4
 Region           Southwestern-Pakistan                                            
 Above details taken from IMD 
   
Station Code      DHR
Station Lat.       32.406
Station Long.      75.797
Station Height(m)  445.0
Site Class        C   Vs30 between 200 m/sec to 375 m/sec *  
Record Time       18.01.2011 20:27:31.554
Sampling Rate     200. Hz
 Record Duration   80.030 Sec.
 Direction         Vert. (Up positive)
Max. Acceleration      0.632 cm/sec**2
     
  * For reference see Site Classification link of website 
     
 Base Line Corrected and Low Pass Filtered (Cut Off at 35 Hz) Time History
 Acceleration data in cm/sec**2
    
[...]
       0.094
       0.100
       0.098
       0.084
       0.057
       0.023
      -0.011
      -0.035
      -0.047
      -0.047
      -0.039
      -0.028
      -0.016
      -0.005
       0.002
      -0.002
      -0.019
      -0.048
      -0.080
      -0.106
      -0.123
      -0.135
      -0.145
      -0.151
      -0.146
      -0.126
      -0.092
      -0.054
      -0.022
       0.001
       0.019
       0.038
       0.059
       0.078
       0.088
       0.087
       0.080
       0.075
       0.078
       0.089
       0.106
       0.125
       0.148
       0.175
       0.207
       0.240
       0.266
       0.278
       0.274
       0.254
       0.228
       0.205
       0.192
       0.190
       0.198
       0.212
       0.231
       0.255
       0.285
       0.318
       0.349
       0.370
       0.374
       0.361
       0.333
       0.298
       0.261
       0.222
       0.183
       0.144
       0.108
       0.076
       0.044
       0.015
      -0.010
      -0.028
      -0.042
      -0.058
      -0.082
      -0.111
      -0.139
      -0.155
      -0.150
      -0.126
      -0.089
      -0.052
      -0.022
      -0.001
       0.014
       0.026
       0.034
       0.040
       0.045
       0.054
       0.070
       0.090
       0.110
       0.124
       0.134
       0.144
       0.157
       0.168
       0.169
       0.152
       0.120
       0.086
       0.063
       0.058
       0.063
       0.068
       0.065
       0.057
       0.047
       0.041
       0.042
       0.046
       0.047
       0.040
       0.028
       0.012
      -0.004
      -0.020
      -0.037
      -0.052
      -0.065
      -0.073
      -0.072
      -0.065
      -0.055
      -0.050
      -0.055
      -0.067
      -0.081
      -0.091
      -0.093
      -0.086
      -0.071
      -0.050
      -0.026
      -0.001
       0.021
       0.040
       0.056
       0.073
       0.090
       0.109
       0.126
       0.137
       0.139
       0.129
       0.109
       0.080
       0.049
       0.019
      -0.003
      -0.012
      -0.005
       0.011
       0.029
       0.043
       0.056
       0.068
       0.080
       0.089
       0.091
       0.085
       0.079
       0.081
       0.090
       0.099
       0.099
       0.085
       0.056
       0.017
      -0.028
      -0.076
      -0.126
      -0.180
      -0.238
      -0.297
      -0.348
      -0.387
      -0.409
      -0.413
      -0.402
      -0.379
      -0.350
      -0.322
      -0.299
      -0.282
      -0.267
      -0.248
      -0.227
      -0.210
      -0.203
      -0.204
      -0.206
      -0.201
      -0.191
      -0.185
      -0.189
      -0.205
      -0.227
      -0.249
      -0.264
      -0.268
      -0.259
      -0.237
      -0.205
      -0.168
      -0.131
      -0.095
      -0.060
      -0.026
       0.007
       0.042
       0.080
       0.117
       0.150
       0.174
       0.185
       0.186
       0.184
       0.190
       0.204
       0.224
       0.241
       0.249
       0.245
       0.233
       0.215
       0.196
       0.177
       0.156
       0.130
       0.101
       0.071
       0.044
       0.022
       0.007
      -0.005
      -0.021
      -0.045
      -0.077
      -0.113
      -0.144
      -0.166
      -0.178
      -0.184
      -0.189
      -0.195
      -0.201
      -0.209
      -0.220
      -0.232
      -0.242
      -0.249
      -0.252
      -0.254
      -0.260
      -0.268
      -0.273
      -0.270
      -0.254
      -0.230
      -0.201
      -0.176
      -0.158
      -0.149
      -0.147
      -0.148
      -0.150
      -0.150
      -0.149
      -0.147
      -0.143
      -0.135
      -0.124
      -0.116
      -0.119
      -0.139
      -0.174
      -0.214
      -0.248
      -0.271
      -0.284
      -0.291
      -0.298
      -0.311
      -0.334
      -0.366
      -0.400
      -0.427
      -0.443
      -0.448
      -0.443
      -0.434
      -0.424
      -0.415
      -0.403
      -0.384
      -0.357
      -0.329
      -0.306
      -0.293
      -0.290
      -0.293
      -0.299
      -0.306
      -0.313
      -0.317
      -0.319
      -0.315
      -0.305
      -0.286
      -0.257
      -0.221
      -0.188
      -0.165
      -0.157
      -0.156
      -0.152
      -0.135
      -0.108
      -0.075
      -0.044
      -0.017
       0.008
       0.032
       0.055
       0.075
       0.089
       0.102
       0.119
       0.146
       0.185
       0.228
       0.268
       0.300
       0.323
       0.335
       0.335
       0.318
       0.287
       0.245
       0.201
       0.160
       0.123
       0.093
       0.068
       0.050
       0.041
       0.042
       0.050
       0.059
       0.064
       0.062
       0.050
       0.030
       0.006
      -0.017
      -0.035
      -0.049
      -0.060
      -0.072
      -0.086
      -0.102
      -0.118
      -0.133
      -0.144
      -0.149
      -0.143
      -0.124
      -0.097
      -0.067
      -0.044
      -0.033
      -0.033
      -0.038
      -0.040
      -0.038
      -0.032
      -0.026
      -0.021
      -0.010
       0.012
       0.048
       0.094
       0.142
       0.187
       0.224
       0.255
       0.284
       0.312
       0.337
       0.354
       0.360
       0.352
       0.335
       0.317
       0.301
       0.288
       0.272
       0.248
       0.217
       0.184
       0.156
       0.139
       0.132
       0.128
       0.125
       0.122
       0.122
       0.121
       0.113
       0.093
       0.062
       0.029
       0.006
      -0.002
       0.002
       0.007
       0.006
      -0.001
      -0.008
      -0.008
      -0.003
       0.002
       0.002
      -0.002
      -0.007
      -0.008
      -0.008
      -0.011
      -0.020
      -0.033
      -0.044
      -0.050
      -0.050
      -0.043
      -0.029
      -0.009
       0.014
       0.037
       0.054
       0.064
       0.066
       0.062
       0.053
       0.038
       0.015
      -0.013
      -0.042
      -0.064
      -0.074
      -0.071
      -0.061
      -0.051
      -0.046
      -0.048
      -0.055
      -0.065
      -0.075
      -0.086
      -0.099
      -0.111
      -0.118
      -0.113
      -0.093
      -0.066
      -0.040
      -0.017
       0.006
       0.038
       0.079
       0.125
       0.165
       0.196
       0.224
       0.257
       0.298
       0.344
       0.385
       0.414
       0.427
       0.423
       0.401
       0.365
       0.324
       0.288
       0.265
       0.257
       0.259
       0.265
       0.273
       0.286
       0.308
       0.338
       0.365
       0.378
       0.373
       0.359
       0.347
       0.344
       0.344
       0.339
       0.323
       0.303
       0.286
       0.275
       0.267
       0.252
       0.228
       0.202
       0.182
       0.169
       0.160
       0.146
       0.126
       0.106
       0.095
       0.100
       0.117
       0.141
       0.161
       0.174
       0.178
       0.173
       0.159
       0.133
       0.096
       0.047
      -0.010
      -0.072
      -0.136
      -0.197
      -0.252
      -0.298
      -0.332
      -0.351
      -0.355
      -0.349
      -0.340
      -0.335
      -0.336
      -0.341
      -0.348
      -0.352
      -0.352
      -0.347
      -0.337
      -0.321
      -0.302
      -0.283
      -0.268
      -0.257
      -0.246
      -0.233
      -0.211
      -0.180
      -0.141
      -0.102
      -0.069
      -0.043
      -0.023
      -0.005
       0.010
       0.020
       0.026
       0.030
       0.039
       0.054
       0.071
       0.086
       0.094
       0.099
       0.108
       0.124
       0.146
       0.170
       0.193
       0.218
       0.245
       0.269
       0.284
       0.283
       0.266
       0.242
       0.219
       0.203
       0.193
       0.181
       0.161
       0.130
       0.095
       0.064
       0.042
       0.034
       0.038
       0.051
       0.073
       0.101
       0.131
       0.158
       0.174
       0.177
       0.171
       0.162
       0.155
       0.153
       0.154
       0.156
       0.152
       0.137
       0.112
       0.081
       0.057
       0.046
       0.047
       0.048
       0.041
       0.021
      -0.011
      -0.048
      -0.082
      -0.109
      -0.126
      -0.132
      -0.132
      -0.129
      -0.127
      -0.127
      -0.129
      -0.135
      -0.149
      -0.173
      -0.207
      -0.246
      -0.282
      -0.308
      -0.321
      -0.323
      -0.318
      -0.308
      -0.291
      -0.263
      -0.224
      -0.179
      -0.137
      -0.108
      -0.095
      -0.095
      -0.104
      -0.115
      -0.126
      -0.135
      -0.137
      -0.128
      -0.104
      -0.065
      -0.013
       0.042
       0.094
       0.135
       0.158
       0.164
       0.152
       0.129
       0.103
       0.082
       0.073
       0.073
       0.080
       0.088
       0.092
       0.092
       0.088
       0.081
       0.069
       0.050
       0.028
       0.004
      -0.017
      -0.034
      -0.049
      -0.065
      -0.083
      -0.105
      -0.127
      -0.145
      -0.155
      -0.157
      -0.157
      -0.158
      -0.165
      -0.178
      -0.195
      -0.212
      -0.224
      -0.226
      -0.217
      -0.198
      -0.176
      -0.152
      -0.125
      -0.094
      -0.057
      -0.017
       0.021
       0.059
       0.097
       0.136
       0.175
       0.209
       0.233
       0.240
       0.230
       0.205
       0.171
       0.136
       0.109
       0.092
       0.085
       0.078
       0.064
       0.036
      -0.005
      -0.050
      -0.092
      -0.126
      -0.151
      -0.167
      -0.171
      -0.161
      -0.141
      -0.120
      -0.102
      -0.087
      -0.074
      -0.059
      -0.046
      -0.038
      -0.036
      -0.040
      -0.044
      -0.043
      -0.036
      -0.024
      -0.010
       0.002
       0.010
       0.012
       0.007
      -0.003
      -0.012
      -0.012
      -0.003
       0.016
       0.042
       0.070
       0.100
       0.130
       0.162
       0.192
       0.218
       0.236
       0.243
       0.241
       0.233
       0.225
       0.218
       0.214
       0.213
       0.216
       0.219
       0.219
       0.211
       0.195
       0.175
       0.156
       0.139
       0.124
       0.113
       0.107
       0.109
       0.120
       0.133
       0.139
       0.134
       0.119
       0.097
       0.071
       0.043
       0.010
      -0.028
      -0.068
      -0.103
      -0.128
      -0.142
      -0.150
      -0.158
      -0.170
      -0.188
      -0.208
      -0.228
      -0.245
      -0.257
      -0.265
      -0.270
      -0.272
      -0.268
      -0.257
      -0.241
      -0.218
      -0.191
      -0.159
      -0.126
      -0.098
      -0.083
      -0.086
      -0.100
      -0.116
      -0.125
      -0.124
      -0.120
      -0.119
      -0.125
      -0.137
      -0.149
      -0.156
      -0.157
      -0.151
      -0.142
      -0.132
      -0.122
      -0.114
      -0.109
      -0.108
      -0.106
      -0.097
      -0.079
      -0.051
      -0.016
       0.017
       0.047
       0.074
       0.102
       0.133
       0.169
       0.209
       0.254
       0.303
       0.351
       0.390
       0.416
       0.428
       0.427
       0.415
       0.391
       0.360
       0.326
       0.296
       0.274
       0.260
       0.251
       0.243
       0.236
       0.229
       0.221
       0.208
       0.186
       0.155
       0.118
       0.086
       0.069
       0.075
       0.101
       0.136
       0.165
       0.183
       0.193
       0.201
       0.212
       0.224
       0.232
       0.228
       0.207
       0.172
       0.129
       0.086
       0.054
       0.034
       0.023
       0.013
       0.000
      -0.015
      -0.028
      -0.032
      -0.031
      -0.033
      -0.043
      -0.063
      -0.086
      -0.106
      -0.122
      -0.137
      -0.158
      -0.185
      -0.215
      -0.234
      -0.234
      -0.209
      -0.162
      -0.103
      -0.042
       0.009
       0.044
       0.064
       0.068
       0.062
       0.048
       0.027
      -0.002
      -0.036
      -0.071
      -0.100
      -0.117
      -0.118
      -0.103
      -0.078
      -0.049
      -0.025
      -0.014
      -0.022
      -0.045
      -0.078
      -0.111
      -0.138
      -0.158
      -0.173
      -0.188
      -0.204
      -0.220
      -0.232
      -0.241
      -0.246
      -0.246
      -0.239
      -0.224
      -0.201
      -0.173
      -0.146
      -0.124
      -0.110
      -0.099
      -0.093
      -0.091
      -0.093
      -0.097
      -0.103
      -0.111
      -0.119
      -0.128
      -0.134
      -0.134
      -0.129
      -0.121
      -0.117
      -0.121
      -0.132
      -0.150
      -0.171
      -0.193
      -0.215
      -0.231
      -0.240
      -0.242
      -0.240
      -0.234
      -0.226
      -0.216
      -0.206
      -0.199
      -0.198
      -0.203
      -0.211
      -0.218
      -0.225
      -0.231
      -0.237
      -0.245
      -0.256
      -0.269
      -0.282
      -0.293
      -0.304
      -0.317
      -0.331
      -0.342
      -0.344
      -0.334
      -0.313
      -0.286
      -0.257
      -0.226
      -0.192
      -0.154
      -0.117
      -0.089
      -0.069
      -0.052
      -0.024
       0.020
       0.074
       0.128
       0.168
       0.190
       0.201
       0.212
       0.228
       0.246
       0.257
       0.257
       0.250
       0.249
       0.267
       0.307
       0.362
       0.419
       0.473
       0.520
       0.564
       0.601
       0.625
       0.632
       0.619
       0.592
       0.556
       0.516
       0.478
       0.446
       0.420
       0.400
       0.383
       0.366
       0.349
       0.332
       0.315
       0.298
       0.283
       0.270
       0.257
       0.242
       0.219
       0.191
       0.161
       0.138
       0.120
       0.103
       0.077
       0.039
      -0.010
      -0.059
      -0.101
      -0.133
      -0.155
      -0.169
      -0.178
      -0.180
      -0.175
      -0.161
      -0.140
      -0.113
      -0.083
      -0.050
      -0.021
       0.000
       0.010
       0.013
       0.015
       0.017
       0.020
       0.022
       0.022
       0.022
       0.027
       0.037
       0.053
       0.070
       0.086
       0.101
       0.118
       0.140
       0.165
       0.188
       0.202
       0.201
       0.179
       0.138
       0.087
       0.037
      -0.002
      -0.026
      -0.036
      -0.040
      -0.045
      -0.054
      -0.064
      -0.069
      -0.064
      -0.046
      -0.022
       0.001
       0.018
       0.029
       0.033
       0.032
       0.025
       0.016
       0.009
       0.008
       0.014
       0.023
       0.031
       0.033
       0.030
       0.026
       0.028
       0.037
       0.053
       0.072
       0.089
       0.102
       0.115
       0.129
       0.142
       0.147
       0.138
       0.118
       0.097
       0.089
       0.100
       0.128
       0.162
       0.190
       0.205
       0.211
       0.214
       0.219
       0.223
       0.219
       0.203
       0.177
       0.148
       0.124
       0.106
       0.089
       0.071
       0.049
       0.028
       0.013
       0.004
      -0.002
      -0.010
      -0.022
      -0.035
      -0.044
      -0.047
      -0.045
      -0.041
      -0.035
      -0.027
      -0.018
      -0.011
      -0.011
      -0.023
      -0.050
      -0.087
      -0.122
      -0.145
      -0.152
      -0.145
      -0.130
      -0.114
      -0.097
      -0.082
      -0.070
      -0.062
      -0.062
      -0.066
      -0.071
      -0.070
      -0.062
      -0.050
      -0.039
      -0.035
      -0.038
      -0.043
      -0.044
      -0.038
      -0.024
      -0.006
       0.012
       0.030
       0.046
       0.060
       0.070
       0.074
       0.074
       0.072
       0.069
       0.066
       0.061
       0.055
       0.047
       0.038
       0.026
       0.010
      -0.005
      -0.017
      -0.022
      -0.022
      -0.019
      -0.017
      -0.014
      -0.012
      -0.007
       0.001
       0.010
       0.020
       0.027
       0.030
       0.023
       0.005
      -0.021
      -0.050
      -0.077
      -0.101
      -0.125
      -0.153
      -0.185
      -0.217
      -0.240
      -0.248
      -0.240
      -0.223
      -0.207
      -0.203
      -0.212
      -0.228
      -0.239
      -0.239
      -0.231
      -0.223
      -0.223
      -0.233
      -0.247
      -0.261
      -0.272
      -0.280
      -0.286
      -0.292
      -0.297
      -0.297
      -0.294
      -0.287
      -0.278
      -0.267
      -0.252
      -0.235
      -0.219
      -0.210
      -0.211
      -0.219
      -0.226
      -0.224
      -0.209
      -0.189
      -0.172
      -0.161
      -0.147
      -0.122
      -0.085
      -0.045
      -0.016
      -0.004
      -0.003
       0.003
       0.023
       0.055
       0.083
       0.093
       0.086
       0.070
       0.061
       0.065
       0.076
       0.082
       0.076
       0.057
       0.035
       0.021
       0.018
       0.025
       0.035
       0.043
       0.047
       0.043
       0.029
      -0.001
      -0.048
      -0.105
      -0.162
      -0.207
      -0.230
      -0.236
      -0.235
      -0.242
      -0.260
      -0.284
      -0.299
      -0.301
      -0.292
      -0.284
      -0.286
      -0.300
      -0.320
      -0.333
      -0.333
      -0.319
      -0.297
      -0.268
      -0.237
      -0.205
      -0.175
      -0.147
      -0.120
      -0.089
      -0.055
      -0.019
       0.017
       0.049
       0.081
       0.116
       0.154
       0.186
       0.202
       0.200
       0.184
       0.165
       0.150
       0.141
       0.137
       0.136
       0.140
       0.149
       0.163
       0.176
       0.185
       0.189
       0.187
       0.179
       0.165
       0.145
       0.124
       0.107
       0.098
       0.098
       0.104
       0.111
       0.118
       0.128
       0.139
       0.149
       0.150
       0.140
       0.121
       0.097
       0.074
       0.052
       0.033
       0.017
       0.004
      -0.005
      -0.007
      -0.002
       0.011
       0.029
       0.049
       0.064
       0.073
       0.071
       0.061
       0.041
       0.014
      -0.018
      -0.048
      -0.071
      -0.081
      -0.078
      -0.065
      -0.045
      -0.021
       0.006
       0.036
       0.062
       0.077
       0.073
       0.049
       0.009
      -0.038
      -0.083
      -0.122
      -0.153
      -0.172
      -0.178
      -0.170
      -0.152
      -0.131
      -0.110
      -0.088
      -0.065
      -0.044
      -0.029
      -0.023
      -0.029
      -0.047
      -0.067
      -0.082
      -0.084
      -0.076
      -0.062
      -0.047
      -0.030
      -0.007
       0.024
       0.060
       0.090
       0.106
       0.109
       0.107
       0.110
       0.120
       0.133
       0.143
       0.144
       0.135
       0.124
       0.117
       0.120
       0.133
       0.148
       0.157
       0.155
       0.142
       0.122
       0.102
       0.086
       0.073
       0.062
       0.051
       0.039
       0.028
       0.020
       0.017
       0.019
       0.019
       0.013
      -0.004
      -0.029
      -0.057
      -0.078
      -0.087
      -0.081
      -0.063
      -0.040
      -0.016
       0.008
