Origin Time       18/01/2011 20:23:27 UTC
Lat.              28.9 N	
Long.             64.0 E	
Depth (Km)          5.0
Magnitude         7.4
 Region           Southwestern-Pakistan                                            
 Above details taken from IMD 
    
Station Code      DHR
Station Lat.       32.406  N
Station Long.      75.797  E
Station Height(m)  445.0
Site Class        C   Vs30 between 200 m/sec to 375 m/sec *  
Record Time       18.01.2011 20:27:31.554 UTC
Sampling Rate     200. Hz
 Record Duration   80.030 Sec.
 Direction         N-S (N positive)
Max. Acceleration     -1.533 cm/sec**2
     
  * For reference see Site Classification link of website 
     
 Base Line Corrected and Low Pass Filtered (Cut Off at 35 Hz) Time History
 Acceleration data in cm/sec**2
    
[...]
      -0.087
      -0.092
      -0.098
      -0.099
      -0.096
      -0.093
      -0.099
      -0.116
      -0.139
      -0.156
      -0.162
      -0.157
      -0.148
      -0.141
      -0.137
      -0.130
      -0.112
      -0.082
      -0.047
      -0.017
       0.002
       0.009
       0.007
       0.000
      -0.013
      -0.034
      -0.064
      -0.099
      -0.136
      -0.167
      -0.192
      -0.208
      -0.213
      -0.203
      -0.177
      -0.140
      -0.099
      -0.064
      -0.038
      -0.019
      -0.003
       0.010
       0.015
       0.011
      -0.005
      -0.029
      -0.058
      -0.086
      -0.111
      -0.132
      -0.151
      -0.165
      -0.172
      -0.170
      -0.161
      -0.150
      -0.141
      -0.137
      -0.135
      -0.136
      -0.139
      -0.147
      -0.161
      -0.178
      -0.192
      -0.199
      -0.197
      -0.190
      -0.178
      -0.163
      -0.145
      -0.124
      -0.101
      -0.080
      -0.064
      -0.056
      -0.059
      -0.069
      -0.082
      -0.096
      -0.111
      -0.126
      -0.142
      -0.157
      -0.167
      -0.168
      -0.160
      -0.146
      -0.129
      -0.113
      -0.104
      -0.103
      -0.110
      -0.121
      -0.130
      -0.138
      -0.145
      -0.155
      -0.168
      -0.179
      -0.185
      -0.179
      -0.164
      -0.140
      -0.115
      -0.092
      -0.073
      -0.060
      -0.051
      -0.046
      -0.048
      -0.059
      -0.078
      -0.103
      -0.126
      -0.145
      -0.161
      -0.174
      -0.184
      -0.186
      -0.177
      -0.157
      -0.126
      -0.088
      -0.046
      -0.005
       0.032
       0.062
       0.084
       0.096
       0.101
       0.100
       0.096
       0.092
       0.089
       0.088
       0.089
       0.094
       0.103
       0.116
       0.134
       0.156
       0.181
       0.207
       0.232
       0.255
       0.277
       0.294
       0.307
       0.312
       0.311
       0.306
       0.298
       0.288
       0.274
       0.253
       0.226
       0.197
       0.171
       0.150
       0.130
       0.107
       0.079
       0.048
       0.018
      -0.006
      -0.021
      -0.028
      -0.026
      -0.017
      -0.002
       0.018
       0.040
       0.063
       0.083
       0.098
       0.108
       0.114
       0.116
       0.112
       0.102
       0.087
       0.067
       0.046
       0.026
       0.007
      -0.008
      -0.022
      -0.036
      -0.051
      -0.065
      -0.077
      -0.088
      -0.099
      -0.111
      -0.123
      -0.133
      -0.137
      -0.135
      -0.130
      -0.124
      -0.117
      -0.105
      -0.085
      -0.059
      -0.032
      -0.009
       0.006
       0.014
       0.015
       0.008
      -0.003
      -0.013
      -0.018
      -0.018
      -0.020
      -0.026
      -0.038
      -0.050
      -0.059
      -0.068
      -0.082
      -0.100
      -0.122
      -0.143
      -0.159
      -0.172
      -0.185
      -0.196
      -0.203
      -0.200
      -0.188
      -0.165
      -0.134
      -0.096
      -0.053
      -0.008
       0.037
       0.081
       0.124
       0.167
       0.208
       0.246
       0.278
       0.299
       0.313
       0.320
       0.326
       0.332
       0.336
       0.336
       0.329
       0.312
       0.287
       0.258
       0.230
       0.205
       0.184
       0.170
       0.163
       0.161
       0.164
       0.164
       0.158
       0.148
       0.139
       0.134
       0.133
       0.129
       0.120
       0.109
       0.105
       0.112
       0.131
       0.158
       0.186
       0.212
       0.232
       0.247
       0.256
       0.254
       0.235
       0.194
       0.132
       0.058
      -0.014
      -0.076
      -0.124
      -0.158
      -0.179
      -0.186
      -0.178
      -0.154
      -0.116
      -0.068
      -0.018
       0.030
       0.072
       0.107
       0.135
       0.151
       0.155
       0.146
       0.129
       0.111
       0.094
       0.080
       0.063
       0.041
       0.014
      -0.013
      -0.038
      -0.061
      -0.086
      -0.116
      -0.152
      -0.192
      -0.231
      -0.264
      -0.285
      -0.291
      -0.283
      -0.261
      -0.226
      -0.178
      -0.119
      -0.054
       0.009
       0.063
       0.105
       0.135
       0.152
       0.157
       0.149
       0.129
       0.100
       0.067
       0.039
       0.020
       0.015
       0.023
       0.044
       0.075
       0.113
       0.151
       0.186
       0.214
       0.232
       0.238
       0.228
       0.204
       0.168
       0.129
       0.096
       0.074
       0.064
       0.063
       0.070
       0.084
       0.103
       0.127
       0.152
       0.177
       0.198
       0.212
       0.219
       0.223
       0.226
       0.230
       0.229
       0.223
       0.210
       0.196
       0.185
       0.179
       0.176
       0.171
       0.163
       0.156
       0.154
       0.158
       0.163
       0.166
       0.163
       0.160
       0.164
       0.176
       0.191
       0.199
       0.194
       0.179
       0.160
       0.141
       0.121
       0.095
       0.063
       0.028
      -0.005
      -0.031
      -0.047
      -0.052
      -0.046
      -0.030
      -0.010
       0.012
       0.031
       0.051
       0.072
       0.092
       0.108
       0.117
       0.119
       0.117
       0.113
       0.109
       0.107
       0.107
       0.105
       0.102
       0.096
       0.088
       0.081
       0.078
       0.078
       0.083
       0.088
       0.091
       0.090
       0.086
       0.083
       0.086
       0.096
       0.112
       0.132
       0.154
       0.177
       0.197
       0.213
       0.221
       0.219
       0.209
       0.190
       0.165
       0.129
       0.079
       0.016
      -0.055
      -0.127
      -0.194
      -0.258
      -0.317
      -0.371
      -0.416
      -0.444
      -0.452
      -0.440
      -0.413
      -0.377
      -0.336
      -0.295
      -0.258
      -0.229
      -0.209
      -0.197
      -0.189
      -0.184
      -0.178
      -0.169
      -0.155
      -0.136
      -0.112
      -0.080
      -0.040
       0.007
       0.054
       0.092
       0.114
       0.121
       0.120
       0.116
       0.109
       0.098
       0.078
       0.051
       0.023
       0.000
      -0.015
      -0.023
      -0.025
      -0.026
      -0.024
      -0.021
      -0.017
      -0.016
      -0.022
      -0.038
      -0.059
      -0.083
      -0.103
      -0.119
      -0.133
      -0.147
      -0.158
      -0.164
      -0.161
      -0.154
      -0.149
      -0.150
      -0.162
      -0.181
      -0.204
      -0.227
      -0.250
      -0.269
      -0.283
      -0.290
      -0.291
      -0.284
      -0.272
      -0.256
      -0.240
      -0.224
      -0.208
      -0.193
      -0.184
      -0.185
      -0.198
      -0.220
      -0.243
      -0.260
      -0.267
      -0.268
      -0.266
      -0.260
      -0.245
      -0.217
      -0.178
      -0.132
      -0.086
      -0.043
      -0.007
       0.019
       0.034
       0.036
       0.028
       0.011
      -0.014
      -0.044
      -0.081
      -0.124
      -0.171
      -0.215
      -0.251
      -0.275
      -0.287
      -0.289
      -0.286
      -0.282
      -0.276
      -0.262
      -0.240
      -0.217
      -0.199
      -0.188
      -0.180
      -0.170
      -0.153
      -0.133
      -0.118
      -0.112
      -0.111
      -0.108
      -0.101
      -0.090
      -0.082
      -0.079
      -0.080
      -0.079
      -0.074
      -0.065
      -0.058
      -0.056
      -0.056
      -0.054
      -0.048
      -0.036
      -0.022
      -0.007
       0.005
       0.016
       0.028
       0.042
       0.056
       0.061
       0.048
       0.014
      -0.041
      -0.112
      -0.194
      -0.281
      -0.369
      -0.451
      -0.525
      -0.585
      -0.630
      -0.661
      -0.678
      -0.679
      -0.663
      -0.629
      -0.577
      -0.512
      -0.445
      -0.385
      -0.337
      -0.299
      -0.268
      -0.242
      -0.225
      -0.222
      -0.231
      -0.247
      -0.261
      -0.270
      -0.277
      -0.288
      -0.303
      -0.314
      -0.316
      -0.307
      -0.294
      -0.281
      -0.271
      -0.258
      -0.238
      -0.206
      -0.164
      -0.114
      -0.057
       0.005
       0.069
       0.134
       0.198
       0.258
       0.312
       0.357
       0.394
       0.422
       0.439
       0.445
       0.441
       0.432
       0.424
       0.419
       0.415
       0.407
       0.393
       0.376
       0.361
       0.357
       0.365
       0.384
       0.408
       0.431
       0.453
       0.477
       0.506
       0.542
       0.580
       0.617
       0.651
       0.685
       0.719
       0.747
       0.763
       0.763
       0.750
       0.726
       0.694
       0.656
       0.614
       0.568
       0.521
       0.479
       0.447
       0.426
       0.414
       0.403
       0.387
       0.361
       0.326
       0.286
       0.246
       0.207
       0.163
       0.109
       0.042
      -0.034
      -0.111
      -0.184
      -0.248
      -0.304
      -0.351
      -0.383
      -0.394
      -0.380
      -0.343
      -0.290
      -0.226
      -0.158
      -0.088
      -0.021
       0.041
       0.093
       0.137
       0.171
       0.193
       0.202
       0.201
       0.197
       0.194
       0.197
       0.204
       0.216
       0.234
       0.259
       0.286
       0.310
       0.326
       0.330
       0.325
       0.313
       0.294
       0.269
       0.236
       0.196
       0.153
       0.110
       0.071
       0.038
       0.011
      -0.011
      -0.028
      -0.042
      -0.056
      -0.074
      -0.097
      -0.124
      -0.153
      -0.185
      -0.221
      -0.258
      -0.295
      -0.329
      -0.355
      -0.369
      -0.366
      -0.343
      -0.303
      -0.251
      -0.189
      -0.121
      -0.051
       0.019
       0.088
       0.152
       0.209
       0.253
       0.283
       0.297
       0.300
       0.296
       0.292
       0.296
       0.310
       0.336
       0.372
       0.416
       0.471
       0.541
       0.627
       0.721
       0.812
       0.891
       0.955
       1.002
       1.034
       1.051
       1.049
       1.030
       0.993
       0.944
       0.886
       0.824
       0.755
       0.683
       0.611
       0.545
       0.486
       0.434
       0.387
       0.344
       0.306
       0.270
       0.236
       0.203
       0.172
       0.146
       0.127
       0.116
       0.116
       0.128
       0.152
       0.178
       0.201
       0.216
       0.227
       0.235
       0.238
       0.233
       0.216
       0.191
       0.165
       0.144
       0.128
       0.115
       0.101
       0.090
       0.084
       0.082
       0.082
       0.076
       0.060
       0.035
       0.004
      -0.031
      -0.068
      -0.108
      -0.151
      -0.193
      -0.228
      -0.250
      -0.255
      -0.247
      -0.234
      -0.222
      -0.215
      -0.215
      -0.219
      -0.229
      -0.246
      -0.276
      -0.320
      -0.377
      -0.443
      -0.510
      -0.576
      -0.640
      -0.703
      -0.764
      -0.821
      -0.873
      -0.919
      -0.957
      -0.985
      -0.998
      -0.993
      -0.968
      -0.924
      -0.864
      -0.790
      -0.704
      -0.605
      -0.498
      -0.389
      -0.286
      -0.193
      -0.110
      -0.037
       0.026
       0.076
       0.110
       0.127
       0.132
       0.130
       0.127
       0.128
       0.138
       0.159
       0.189
       0.222
       0.259
       0.300
       0.346
       0.396
       0.449
       0.502
       0.555
       0.609
       0.665
       0.719
       0.766
       0.804
       0.826
       0.832
       0.816
       0.777
       0.713
       0.629
       0.532
       0.431
       0.332
       0.240
       0.156
       0.082
       0.024
      -0.011
      -0.018
      -0.002
       0.026
       0.054
       0.073
       0.082
       0.081
       0.073
       0.057
       0.032
      -0.003
      -0.043
      -0.079
      -0.105
      -0.121
      -0.133
      -0.152
      -0.184
      -0.227
      -0.277
      -0.332
      -0.390
      -0.455
      -0.524
      -0.593
      -0.651
      -0.692
      -0.714
      -0.718
      -0.709
      -0.688
      -0.656
      -0.617
      -0.582
      -0.562
      -0.561
      -0.576
      -0.599
      -0.628
      -0.664
      -0.711
      -0.762
      -0.811
      -0.848
      -0.871
      -0.886
      -0.899
      -0.915
      -0.933
      -0.948
      -0.959
      -0.969
      -0.979
      -0.991
      -1.001
      -1.001
      -0.986
      -0.953
      -0.904
      -0.841
      -0.765
      -0.677
      -0.578
      -0.472
      -0.362
      -0.254
      -0.155
      -0.066
       0.013
       0.081
       0.133
       0.164
       0.173
       0.166
       0.150
       0.129
       0.100
       0.062
       0.016
      -0.030
      -0.067
      -0.092
      -0.106
      -0.115
      -0.118
      -0.111
      -0.086
      -0.041
       0.021
       0.089
       0.160
       0.234
       0.318
       0.413
       0.518
       0.623
       0.721
       0.805
       0.872
       0.921
       0.947
       0.942
       0.899
       0.816
       0.692
       0.530
       0.336
       0.116
      -0.123
      -0.376
      -0.633
      -0.881
      -1.102
      -1.281
      -1.410
      -1.493
      -1.533
      -1.532
      -1.488
      -1.402
      -1.283
      -1.144
      -0.998
      -0.854
      -0.717
      -0.595
      -0.493
      -0.413
      -0.351
      -0.304
      -0.265
      -0.236
      -0.219
      -0.218
      -0.233
      -0.258
      -0.289
      -0.327
      -0.376
      -0.436
      -0.504
      -0.576
      -0.645
      -0.708
      -0.760
      -0.798
      -0.822
      -0.834
      -0.836
      -0.833
      -0.828
      -0.818
      -0.802
      -0.779
      -0.750
      -0.716
      -0.679
      -0.642
      -0.605
      -0.566
      -0.521
      -0.467
      -0.405
      -0.331
      -0.245
      -0.147
      -0.035
       0.092
       0.234
       0.386
       0.540
       0.686
       0.814
       0.918
       0.990
       1.025
       1.018
       0.967
       0.876
       0.752
       0.608
       0.451
       0.286
       0.119
      -0.042
      -0.187
      -0.303
      -0.383
      -0.423
      -0.428
      -0.405
      -0.359
      -0.293
      -0.207
      -0.105
       0.009
       0.130
       0.254
       0.375
       0.490
       0.596
       0.688
       0.764
       0.821
       0.858
       0.875
       0.872
       0.847
       0.799
       0.731
       0.648
       0.560
       0.471
       0.385
       0.301
       0.218
       0.137
       0.060
      -0.011
      -0.079
      -0.142
      -0.202
      -0.262
      -0.320
      -0.378
      -0.436
      -0.496
      -0.556
      -0.614
      -0.661
      -0.693
      -0.706
      -0.702
      -0.683
      -0.654
      -0.613
      -0.556
      -0.480
      -0.389
      -0.289
      -0.185
      -0.081
       0.025
       0.131
       0.234
       0.326
       0.399
       0.450
       0.476
       0.477
       0.454
       0.412
       0.357
       0.300
       0.249
       0.212
       0.194
       0.197
       0.219
       0.258
       0.312
       0.377
       0.448
       0.517
       0.578
       0.625
       0.654
       0.666
       0.666
       0.659
       0.648
       0.634
       0.615
       0.591
       0.563
       0.534
       0.506
       0.483
       0.464
       0.449
       0.441
       0.442
       0.457
       0.491
       0.543
       0.611
       0.688
       0.768
       0.847
       0.921
       0.983
       1.024
       1.035
       1.013
       0.961
       0.887
       0.801
       0.709
       0.618
       0.532
       0.459
       0.409
       0.389
       0.398
       0.426
       0.463
       0.500
       0.536
       0.570
       0.600
       0.621
       0.626
       0.613
       0.584
       0.541
       0.488
       0.432
       0.375
       0.326
       0.288
       0.263
       0.248
       0.237
       0.225
       0.213
       0.198
       0.177
       0.145
       0.093
       0.019
      -0.071
      -0.168
      -0.258
      -0.332
      -0.385
      -0.414
      -0.416
      -0.389
      -0.333
      -0.254
      -0.161
      -0.065
       0.025
       0.102
       0.163
       0.207
       0.234
       0.246
       0.245
       0.235
       0.220
       0.203
       0.186
       0.165
       0.139
       0.110
       0.082
       0.058
       0.035
       0.008
      -0.027
      -0.067
      -0.107
      -0.145
      -0.181
      -0.217
      -0.254
      -0.290
      -0.320
      -0.336
      -0.336
      -0.322
      -0.299
      -0.272
      -0.242
      -0.212
      -0.182
      -0.153
      -0.125
      -0.105
      -0.096
      -0.101
      -0.115
      -0.133
      -0.149
      -0.155
      -0.148
      -0.127
      -0.089
      -0.034
       0.036
       0.114
       0.196
       0.276
       0.353
       0.424
       0.488
       0.541
       0.579
       0.601
       0.607
       0.599
       0.577
       0.543
       0.499
       0.448
       0.394
       0.341
       0.290
       0.244
       0.209
       0.188
       0.185
       0.194
       0.210
       0.228
       0.243
       0.257
       0.268
       0.278
       0.284
       0.289
       0.294
       0.300
       0.309
       0.319
       0.330
       0.340
       0.348
       0.355
       0.355
       0.343
       0.313
       0.258
       0.178
       0.075
      -0.045
      -0.175
      -0.309
      -0.437
      -0.549
      -0.635
      -0.690
      -0.717
      -0.720
      -0.705
      -0.673
      -0.627
      -0.569
      -0.503
      -0.437
      -0.374
      -0.318
      -0.264
      -0.210
      -0.156
      -0.104
      -0.058
      -0.024
      -0.007
      -0.008
      -0.026
      -0.062
      -0.120
      -0.202
      -0.305
      -0.422
      -0.545
      -0.668
      -0.786
      -0.890
      -0.975
      -1.032
      -1.056
      -1.046
      -1.000
      -0.918
      -0.800
      -0.653
      -0.487
      -0.316
      -0.149
       0.004
       0.136
       0.241
       0.318
       0.369
       0.398
       0.409
       0.402
       0.379
       0.343
       0.303
       0.267
       0.242
       0.231
       0.239
       0.265
       0.308
       0.366
       0.437
       0.522
       0.619
       0.724
       0.827
       0.917
       0.985
       1.026
       1.041
       1.032
       0.998
       0.937
       0.846
       0.730
       0.600
       0.467
       0.336
       0.214
       0.101
      -0.005
      -0.103
      -0.189
      -0.257
      -0.301
      -0.318
      -0.313
      -0.289
      -0.250
      -0.199
      -0.138
      -0.070
      -0.003
       0.058
       0.105
       0.135
       0.141
       0.118
       0.065
      -0.010
      -0.098
      -0.191
      -0.280
      -0.361
      -0.429
      -0.473
      -0.489
      -0.475
      -0.437
      -0.384
      -0.317
      -0.237
      -0.147
      -0.055
       0.029
       0.097
       0.145
       0.177
       0.194
       0.194
       0.175
