Origin Time       15/2/2009 07:35:55 
Lat.              26.0 N 
Long.             90.2 E 
Depth (Km)         39.3
Magnitude         4.4
 Region           Assam-Meghalaya-Border                                           
 Above details taken from IMD 
     
Station Code      DHU
Station Lat.       26.020  N
Station Long.      89.995  E
Station Height(m)   51.0
Site Class        C   Vs30 between 200 m/sec to 375 m/sec *  
Record Time       15.02.2009 19:35:52.874
Sampling Rate     200. Hz
 Record Duration   69.745 Sec.
 Direction         E-W (E positive)
Max. Acceleration    -21.116 cm/sec**2
     
  * For reference see Site Classification link of website 
     
 Base Line Corrected and Low Pass Filtered (Cut Off at 35 Hz) Time History
 Acceleration data in cm/sec**2
    
[...]
      -0.010
      -0.003
      -0.001
      -0.001
      -0.001
       0.003
       0.008
       0.009
       0.007
       0.003
       0.002
       0.004
       0.009
       0.013
       0.017
       0.018
       0.017
       0.014
       0.012
       0.011
       0.012
       0.013
       0.014
       0.015
       0.014
       0.010
       0.003
      -0.002
      -0.002
       0.001
       0.005
       0.005
       0.000
      -0.007
      -0.014
      -0.019
      -0.023
      -0.023
      -0.018
      -0.011
      -0.004
      -0.001
      -0.003
      -0.006
      -0.008
      -0.008
      -0.010
      -0.015
      -0.021
      -0.023
      -0.018
      -0.007
       0.004
       0.008
       0.001
      -0.013
      -0.027
      -0.034
      -0.032
      -0.027
      -0.025
      -0.028
      -0.032
      -0.030
      -0.020
      -0.010
      -0.006
      -0.012
      -0.021
      -0.028
      -0.031
      -0.031
      -0.031
      -0.030
      -0.028
      -0.024
      -0.015
      -0.003
       0.008
       0.012
       0.005
      -0.005
      -0.010
      -0.006
       0.001
       0.002
      -0.007
      -0.019
      -0.025
      -0.020
      -0.007
       0.004
       0.008
       0.007
       0.005
       0.005
       0.004
       0.001
      -0.001
       0.003
       0.015
       0.026
       0.029
       0.021
       0.010
       0.004
       0.005
       0.003
      -0.008
      -0.032
      -0.060
      -0.082
      -0.095
      -0.100
      -0.104
      -0.114
      -0.128
      -0.144
      -0.156
      -0.167
      -0.175
      -0.181
      -0.179
      -0.165
      -0.136
      -0.098
      -0.065
      -0.050
      -0.060
      -0.085
      -0.102
      -0.092
      -0.055
      -0.013
       0.010
       0.007
      -0.003
       0.005
       0.039
       0.087
       0.129
       0.147
       0.136
       0.104
       0.077
       0.089
       0.154
       0.239
       0.277
       0.216
       0.073
      -0.045
      -0.019
       0.192
       0.489
       0.680
       0.608
       0.278
      -0.122
      -0.329
      -0.174
       0.287
       0.786
       1.002
       0.778
       0.234
      -0.307
      -0.543
      -0.402
      -0.071
       0.173
       0.170
      -0.037
      -0.283
      -0.425
      -0.432
      -0.374
      -0.342
      -0.386
      -0.494
      -0.610
      -0.675
      -0.655
      -0.567
      -0.466
      -0.409
      -0.413
      -0.441
      -0.421
      -0.299
      -0.087
       0.135
       0.267
       0.257
       0.141
       0.009
      -0.065
      -0.067
      -0.031
       0.019
       0.092
       0.203
       0.327
       0.397
       0.354
       0.215
       0.082
       0.078
       0.235
       0.447
       0.531
       0.367
       0.012
      -0.313
      -0.388
      -0.168
       0.167
       0.352
       0.234
      -0.100
      -0.381
      -0.351
       0.039
       0.579
       0.944
       0.900
       0.432
      -0.271
      -0.925
      -1.276
      -1.194
      -0.728
      -0.104
       0.372
       0.474
       0.192
      -0.253
      -0.544
      -0.456
       0.005
       0.612
       1.042
       1.065
       0.668
       0.053
      -0.488
      -0.735
      -0.641
      -0.340
      -0.049
       0.060
      -0.045
      -0.249
      -0.381
      -0.326
      -0.093
       0.211
       0.466
       0.616
       0.667
       0.649
       0.582
       0.487
       0.403
       0.374
       0.400
       0.416
       0.335
       0.132
      -0.111
      -0.256
      -0.227
      -0.080
       0.033
      -0.012
      -0.230
      -0.518
      -0.745
      -0.832
      -0.788
      -0.678
      -0.581
      -0.555
      -0.618
      -0.741
      -0.842
      -0.806
      -0.548
      -0.072
       0.493
       0.951
       1.144
       1.048
       0.785
       0.540
       0.440
       0.471
       0.516
       0.457
       0.274
       0.048
      -0.101
      -0.093
       0.070
       0.306
       0.466
       0.398
       0.032
      -0.550
      -1.123
      -1.439
      -1.366
      -0.971
      -0.473
      -0.108
       0.011
      -0.050
      -0.107
       0.010
       0.346
       0.799
       1.180
       1.326
       1.184
       0.844
       0.477
       0.234
       0.155
       0.164
       0.148
       0.060
      -0.060
      -0.140
      -0.161
      -0.188
      -0.313
      -0.565
      -0.871
      -1.098
      -1.148
      -1.022
      -0.793
      -0.545
      -0.324
      -0.137
       0.024
       0.149
       0.224
       0.236
       0.197
       0.130
       0.061
       0.013
       0.007
       0.072
       0.215
       0.390
       0.501
       0.461
       0.259
      -0.016
      -0.233
      -0.309
      -0.250
      -0.123
       0.017
       0.180
       0.415
       0.724
       1.009
       1.122
       0.977
       0.639
       0.283
       0.073
       0.035
       0.052
      -0.032
      -0.281
      -0.605
      -0.837
      -0.858
      -0.693
      -0.474
      -0.345
      -0.369
      -0.503
      -0.641
      -0.680
      -0.581
      -0.387
      -0.194
      -0.078
      -0.049
      -0.048
       0.005
       0.160
       0.404
       0.670
       0.878
       0.979
       0.977
       0.917
       0.848
       0.788
       0.705
       0.536
       0.245
      -0.123
      -0.441
      -0.569
      -0.466
      -0.239
      -0.084
      -0.154
      -0.454
      -0.840
      -1.120
      -1.172
      -1.004
      -0.719
      -0.436
      -0.228
      -0.100
      -0.021
       0.041
       0.097
       0.154
       0.224
       0.316
       0.421
       0.510
       0.558
       0.573
       0.587
       0.626
       0.675
       0.682
       0.602
       0.438
       0.237
       0.051
      -0.100
      -0.226
      -0.342
      -0.457
      -0.568
      -0.668
      -0.749
      -0.801
      -0.814
      -0.789
      -0.733
      -0.655
      -0.551
      -0.406
      -0.213
       0.004
       0.200
       0.338
       0.428
       0.520
       0.658
       0.823
       0.935
       0.902
       0.697
       0.375
       0.047
      -0.198
      -0.321
      -0.332
      -0.246
      -0.070
       0.167
       0.387
       0.483
       0.384
       0.122
      -0.186
      -0.409
      -0.490
      -0.468
      -0.431
      -0.436
      -0.468
      -0.471
      -0.402
      -0.276
      -0.139
      -0.025
       0.063
       0.134
       0.178
       0.164
       0.084
      -0.021
      -0.079
      -0.051
       0.022
       0.042
      -0.057
      -0.231
      -0.339
      -0.256
       0.027
       0.391
       0.671
       0.764
       0.671
       0.474
       0.271
       0.128
       0.057
       0.034
       0.032
       0.044
       0.089
       0.177
       0.290
       0.377
       0.389
       0.310
       0.172
       0.037
      -0.044
      -0.052
      -0.001
       0.078
       0.151
       0.184
       0.145
       0.021
      -0.167
      -0.371
      -0.545
      -0.664
      -0.722
      -0.719
      -0.655
      -0.539
      -0.401
      -0.286
      -0.234
      -0.262
      -0.355
      -0.474
      -0.574
      -0.618
      -0.578
      -0.440
      -0.204
       0.097
       0.399
       0.633
       0.774
       0.858
       0.949
       1.077
       1.197
       1.218
       1.080
       0.811
       0.514
       0.302
       0.233
       0.287
       0.389
       0.448
       0.396
       0.218
      -0.038
      -0.278
      -0.407
      -0.378
      -0.226
      -0.047
       0.059
       0.046
      -0.061
      -0.189
      -0.278
      -0.317
      -0.359
      -0.477
      -0.708
      -1.007
      -1.259
      -1.349
      -1.232
      -0.953
      -0.611
      -0.301
      -0.092
      -0.020
      -0.075
      -0.187
      -0.243
      -0.147
       0.109
       0.433
       0.704
       0.850
       0.879
       0.842
       0.780
       0.706
       0.636
       0.600
       0.635
       0.742
       0.872
       0.951
       0.929
       0.813
       0.638
       0.429
       0.188
      -0.093
      -0.391
      -0.647
      -0.789
      -0.783
      -0.658
      -0.493
      -0.376
      -0.351
      -0.416
      -0.540
      -0.689
      -0.813
      -0.850
      -0.748
      -0.528
      -0.304
      -0.222
      -0.335
      -0.540
      -0.647
      -0.521
      -0.183
       0.227
       0.560
       0.747
       0.809
       0.802
       0.770
       0.742
       0.733
       0.749
       0.764
       0.729
       0.604
       0.406
       0.217
       0.130
       0.169
       0.266
       0.313
       0.237
       0.045
      -0.203
      -0.441
      -0.621
      -0.718
      -0.735
      -0.705
      -0.676
      -0.679
      -0.691
      -0.656
      -0.544
      -0.394
      -0.288
      -0.283
      -0.349
      -0.395
      -0.329
      -0.127
       0.167
       0.479
       0.741
       0.914
       0.988
       0.984
       0.948
       0.919
       0.896
       0.836
       0.684
       0.417
       0.061
      -0.322
      -0.665
      -0.918
      -1.062
      -1.109
      -1.081
      -0.985
      -0.806
      -0.549
      -0.279
      -0.118
      -0.166
      -0.406
      -0.678
      -0.772
      -0.566
      -0.094
       0.489
       1.008
       1.336
       1.418
       1.265
       0.954
       0.615
       0.379
       0.312
       0.379
       0.480
       0.518
       0.453
       0.304
       0.123
      -0.028
      -0.082
       0.001
       0.185
       0.337
       0.287
      -0.038
      -0.521
      -0.916
      -1.025
      -0.846
      -0.566
      -0.393
      -0.405
      -0.521
      -0.615
      -0.623
      -0.558
      -0.441
      -0.252
       0.015
       0.284
       0.427
       0.378
       0.225
       0.139
       0.216
       0.379
       0.454
       0.335
       0.081
      -0.146
      -0.225
      -0.157
      -0.023
       0.114
       0.247
       0.385
       0.498
       0.539
       0.502
       0.452
       0.466
       0.559
       0.671
       0.723
       0.677
       0.553
       0.393
       0.216
       0.023
      -0.175
      -0.341
      -0.425
      -0.408
      -0.326
      -0.274
      -0.360
      -0.637
      -1.040
      -1.400
      -1.521
      -1.316
      -0.878
      -0.420
      -0.125
      -0.027
      -0.022
       0.021
       0.174
       0.441
       0.804
       1.223
       1.588
       1.720
       1.473
       0.879
       0.199
      -0.215
      -0.163
       0.258
       0.729
       0.944
       0.808
       0.441
       0.024
      -0.354
      -0.695
      -1.000
      -1.198
      -1.205
      -1.041
      -0.857
      -0.827
      -1.002
      -1.274
      -1.471
      -1.482
      -1.304
      -0.996
      -0.625
      -0.253
       0.062
       0.286
       0.433
       0.545
       0.637
       0.670
       0.597
       0.436
       0.295
       0.299
       0.486
       0.781
       1.083
       1.363
       1.663
       1.979
       2.163
       1.970
       1.240
       0.057
      -1.270
      -2.388
      -3.069
      -3.255
      -3.010
      -2.453
      -1.743
      -1.057
      -0.537
      -0.218
      -0.017
       0.198
       0.504
       0.859
       1.136
       1.224
       1.111
       0.902
       0.747
       0.740
       0.852
       0.960
       0.945
       0.783
       0.557
       0.386
       0.342
       0.452
       0.733
       1.211
       1.827
       2.368
       2.522
       2.094
       1.185
       0.148
      -0.656
      -1.081
      -1.190
      -1.082
      -0.773
      -0.254
       0.370
       0.858
       0.976
       0.669
       0.094
      -0.484
      -0.855
      -0.954
      -0.854
      -0.698
      -0.630
      -0.755
      -1.130
      -1.758
      -2.573
      -3.417
      -4.049
      -4.211
      -3.748
      -2.721
      -1.421
      -0.253
       0.448
       0.569
       0.234
      -0.315
      -0.873
      -1.344
      -1.670
      -1.726
      -1.297
      -0.214
       1.474
       3.420
       5.111
       6.121
       6.308
       5.825
       4.954
       3.938
       2.922
       2.000
       1.245
       0.682
       0.245
      -0.180
      -0.656
      -1.143
      -1.550
      -1.819
      -1.951
      -1.961
      -1.860
      -1.703
      -1.653
      -1.950
      -2.774
      -4.104
      -5.680
      -7.133
      -8.177
      -8.730
      -8.885
      -8.787
      -8.515
      -8.049
      -7.303
      -6.166
      -4.533
      -2.364
       0.242
       3.011
       5.581
       7.690
       9.313
      10.630
      11.852
      13.062
      14.218
      15.228
      16.005
      16.405
      16.182
      15.051
      12.862
       9.745
       6.110
       2.520
      -0.448
      -2.305
      -2.755
      -1.830
       0.021
       1.997
       3.209
       3.005
       1.200
      -1.919
      -5.749
      -9.606
     -12.909
     -15.311
     -16.747
     -17.367
     -17.369
     -16.844
     -15.767
     -14.122
     -12.003
      -9.577
      -6.978
      -4.293
      -1.689
       0.513
       1.943
       2.427
       2.151
       1.569
       1.150
       1.164
       1.678
       2.694
       4.262
       6.438
       9.180
      12.256
      15.273
      17.774
      19.350
      19.743
      18.906
      16.993
      14.276
      11.012
       7.359
       3.380
      -0.850
      -5.128
      -9.109
     -12.457
     -15.022
     -16.909
     -18.364
     -19.580
     -20.557
     -21.116
     -21.032
     -20.147
     -18.374
     -15.675
     -12.104
      -7.902
      -3.473
       0.764
       4.537
       7.738
      10.329
      12.266
      13.524
      14.155
      14.293
      14.084
      13.621
      12.943
      12.085
      11.122
      10.158
       9.272
       8.451
       7.578
       6.497
       5.113
       3.450
       1.631
      -0.171
      -1.803
      -3.158
      -4.202
      -4.970
      -5.545
      -5.997
      -6.339
      -6.555
      -6.660
      -6.707
      -6.729
      -6.669
      -6.419
      -5.939
      -5.346
      -4.868
      -4.680
      -4.778
      -5.007
      -5.226
      -5.404
      -5.547
      -5.538
      -5.128
      -4.118
      -2.553
      -0.699
       1.182
       3.048
       5.059
       7.368
       9.914
      12.402
      14.449
      15.771
      16.273
      16.032
      15.234
      14.098
      12.787
      11.335
       9.626
       7.492
       4.860
       1.823
      -1.440
      -4.807
      -8.247
     -11.684
     -14.842
     -17.278
     -18.620
     -18.801
     -18.058
     -16.725
     -15.030
     -13.054
     -10.843
      -8.519
      -6.283
      -4.313
      -2.658
      -1.229
       0.123
       1.514
       2.993
       4.568
       6.231
       7.944
       9.616
      11.119
      12.322
      13.095
      13.273
      12.681
      11.238
       9.080
       6.564
       4.110
       1.979
       0.176
      -1.450
      -3.021
      -4.520
      -5.849
      -6.937
      -7.794
      -8.467
      -8.977
      -9.275
      -9.276
      -8.918
      -8.208
      -7.192
      -5.931
      -4.481
      -2.926
      -1.362
       0.147
       1.589
       2.965
       4.244
       5.374
       6.347
       7.213
       8.014
       8.691
       9.083
       9.021
       8.438
       7.409
       6.089
       4.621
       3.101
       1.602
       0.225
      -0.895
      -1.638
      -1.977
      -2.008
      -1.908
      -1.850
      -1.935
      -2.161
      -2.446
      -2.667
      -2.724
      -2.577
      -2.260
      -1.848
      -1.438
      -1.108
      -0.876
      -0.692
      -0.486
      -0.248
      -0.052
      -0.001
      -0.145
      -0.455
      -0.873
      -1.355
      -1.868
      -2.364
      -2.781
      -3.076
      -3.262
      -3.412
      -3.600
      -3.803
      -3.868
      -3.581
      -2.823
      -1.667
      -0.347
       0.866
       1.772
       2.297
       2.499
       2.545
       2.628
       2.852
       3.151
       3.331
       3.211
       2.744
       2.028
       1.253
       0.619
       0.276
       0.270
       0.509
       0.800
       0.939
       0.843
       0.615
       0.503
       0.744
       1.413
       2.367
       3.328
       4.032
       4.334
       4.222
       3.786
       3.172
       2.520
       1.898
       1.278
       0.594
      -0.156
      -0.864
      -1.382
      -1.638
      -1.709
      -1.744
      -1.842
      -1.978
      -2.045
      -1.964
      -1.747
      -1.487
      -1.303
      -1.280
      -1.437
      -1.730
      -2.093
      -2.500
      -3.002
      -3.694
      -4.625
      -5.718
      -6.775
      -7.556
      -7.892
      -7.736
      -7.139
      -6.189
      -4.966
      -3.532
      -1.955
      -0.326
       1.269
       2.792
       4.259
       5.695
       7.076
       8.319
       9.337
      10.079
      10.535
      10.699
      10.539
      10.010
       9.094
       7.833
       6.327
       4.697
       3.037
       1.384
      -0.269
      -1.936
      -3.584
      -5.144
      -6.539
      -7.726
      -8.683
      -9.369
      -9.700
      -9.582
      -8.976
      -7.940
      -6.615
      -5.167
      -3.726
      -2.343
      -1.023
       0.227
       1.382
       2.426
       3.373
       4.239
       4.981
       5.495
       5.675
       5.519
       5.153
       4.749
       4.381
       3.944
       3.235
       2.131
       0.729
      -0.676
      -1.760
      -2.356
      -2.509
      -2.410
      -2.255
      -2.151
      -2.078
      -1.932
      -1.615
      -1.125
      -0.592
      -0.210
      -0.112
      -0.252
      -0.417
      -0.372
      -0.033
       0.476
       0.927
       1.134
       1.039
       0.695
       0.199
      -0.349
      -0.851
      -1.216
      -1.397
      -1.429
      -1.415
      -1.452
      -1.556
      -1.650
      -1.642
      -1.504
      -1.260
      -0.931
      -0.493
       0.071
       0.705
       1.288
       1.730
       2.057
       2.393
       2.832
       3.337
       3.735
       3.845
       3.595
       3.059
       2.385
       1.705
       1.080
       0.491
      -0.123
      -0.823
      -1.619
      -2.452
      -3.206
      -3.756
      -4.019
      -3.984
      -3.701
      -3.266
      -2.775
      -2.304
      -1.877
      -1.475
      -1.052
      -0.581
      -0.074
       0.412
       0.825
       1.162
       1.478
       1.852
       2.322
       2.846
       3.318
       3.614
       3.635
       3.339
       2.766
       2.038
       1.322
       0.756
       0.376
       0.111
      -0.165
      -0.553
      -1.085
      -1.725
      -2.373
      -2.882
      -3.089
      -2.886
      -2.284
      -1.421
      -0.504
       0.298
       0.904
       1.330
       1.654
       1.971
       2.359
       2.829
       3.310
       3.663
       3.750
       3.518
       3.034
       2.439
       1.847
       1.266
       0.597
      -0.276
      -1.393
      -2.677
      -3.974
      -5.119
      -5.993
      -6.540
      -6.772
      -6.762
      -6.616
      -6.432
      -6.253
      -6.025
      -5.616
      -4.881
      -3.744
      -2.242
      -0.509
       1.279
       2.949
       4.371
       5.478
       6.278
       6.827
       7.174
       7.330
