Origin Time       15/2/2009 07:35:55 
Lat.              26.0 N 
Long.             90.2 E 
Depth (Km)         39.3
Magnitude         4.4
 Region           Assam-Meghalaya-Border                                           
 Above details taken from IMD 
   
Station Code      DHU
Station Lat.       26.020
Station Long.      89.995
Station Height(m)   51.0
Site Class        C   Vs30 between 200 m/sec to 375 m/sec *  
Record Time       15.02.2009 19:35:52.874
Sampling Rate     200. Hz
 Record Duration   69.745 Sec.
 Direction         Vert. (Up positive)
Max. Acceleration     17.093 cm/sec**2
     
  * For reference see Site Classification link of website 
     
 Base Line Corrected and Low Pass Filtered (Cut Off at 35 Hz) Time History
 Acceleration data in cm/sec**2
    
[...]
       0.007
       0.003
      -0.002
      -0.008
      -0.012
      -0.014
      -0.011
      -0.006
       0.000
       0.001
      -0.003
      -0.008
      -0.011
      -0.009
      -0.003
       0.000
      -0.001
      -0.006
      -0.007
      -0.002
       0.005
       0.008
       0.005
      -0.001
      -0.003
       0.000
       0.004
       0.004
       0.001
      -0.001
       0.000
       0.005
       0.010
       0.011
       0.011
       0.009
       0.007
       0.006
       0.003
      -0.001
      -0.004
      -0.004
      -0.001
       0.003
       0.005
       0.002
      -0.006
      -0.013
      -0.017
      -0.016
      -0.012
      -0.005
       0.001
       0.004
       0.004
       0.001
      -0.002
      -0.004
      -0.003
       0.001
       0.008
       0.013
       0.012
       0.005
      -0.003
      -0.006
       0.000
       0.008
       0.013
       0.011
       0.004
      -0.003
      -0.005
      -0.003
       0.000
       0.001
       0.001
       0.000
       0.000
       0.000
       0.002
       0.003
       0.001
      -0.003
      -0.006
      -0.001
       0.016
       0.046
       0.088
       0.140
       0.196
       0.248
       0.288
       0.311
       0.320
       0.318
       0.305
       0.282
       0.247
       0.206
       0.166
       0.136
       0.117
       0.098
       0.050
      -0.056
      -0.223
      -0.404
      -0.510
      -0.460
      -0.235
       0.083
       0.347
       0.423
       0.276
      -0.018
      -0.332
      -0.569
      -0.711
      -0.793
      -0.858
      -0.911
      -0.902
      -0.753
      -0.426
       0.008
       0.354
       0.402
       0.107
      -0.307
      -0.467
      -0.118
       0.644
       1.389
       1.600
       1.011
      -0.188
      -1.429
      -2.096
      -1.929
      -1.189
      -0.451
      -0.148
      -0.235
      -0.244
       0.274
       1.305
       2.312
       2.648
       2.075
       0.952
      -0.077
      -0.590
      -0.670
      -0.731
      -1.089
      -1.648
      -1.959
      -1.574
      -0.417
       1.117
       2.408
       2.991
       2.786
       2.040
       1.102
       0.211
      -0.559
      -1.227
      -1.772
      -2.083
      -2.024
      -1.556
      -0.791
       0.064
       0.806
       1.295
       1.486
       1.446
       1.319
       1.215
       1.074
       0.693
      -0.058
      -1.014
      -1.765
      -1.977
      -1.672
      -1.211
      -0.969
      -1.006
      -0.993
      -0.479
       0.689
       2.150
       3.213
       3.320
       2.415
       0.938
      -0.489
      -1.424
      -1.754
      -1.650
      -1.389
      -1.182
      -1.065
      -0.922
      -0.620
      -0.141
       0.393
       0.801
       0.946
       0.810
       0.523
       0.317
       0.396
       0.781
       1.269
       1.552
       1.397
       0.756
      -0.243
      -1.390
      -2.460
      -3.239
      -3.502
      -3.050
      -1.816
       0.017
       2.001
       3.558
       4.213
       3.798
       2.515
       0.827
      -0.777
      -1.992
      -2.761
      -3.160
      -3.221
      -2.837
      -1.862
      -0.318
       1.450
       2.865
       3.415
       2.957
       1.786
       0.432
      -0.653
      -1.268
      -1.451
      -1.350
      -1.103
      -0.768
      -0.338
       0.194
       0.780
       1.310
       1.654
       1.721
       1.479
       0.933
       0.110
      -0.870
      -1.737
      -2.138
      -1.884
      -1.137
      -0.302
       0.290
       0.622
       0.900
       1.274
       1.651
       1.773
       1.445
       0.711
      -0.173
      -0.902
      -1.296
      -1.336
      -1.100
      -0.698
      -0.263
       0.045
       0.092
      -0.126
      -0.452
      -0.652
      -0.575
      -0.259
       0.100
       0.303
       0.303
       0.228
       0.249
       0.413
       0.595
       0.602
       0.336
      -0.146
      -0.682
      -1.091
      -1.217
      -0.976
      -0.413
       0.294
       0.932
       1.384
       1.657
       1.758
       1.587
       0.984
      -0.059
      -1.235
      -2.014
      -1.983
      -1.172
      -0.069
       0.715
       0.878
       0.572
       0.180
      -0.030
      -0.058
      -0.065
      -0.179
      -0.370
      -0.489
      -0.413
      -0.168
       0.085
       0.183
       0.100
      -0.049
      -0.120
      -0.035
       0.220
       0.620
       1.091
       1.470
       1.520
       1.066
       0.155
      -0.927
      -1.806
      -2.251
      -2.280
      -2.040
      -1.615
      -0.956
      -0.015
       1.076
       1.982
       2.345
       2.017
       1.168
       0.202
      -0.481
      -0.703
      -0.570
      -0.325
      -0.143
      -0.023
       0.138
       0.400
       0.719
       0.959
       0.966
       0.638
       0.013
      -0.720
      -1.310
      -1.596
      -1.579
      -1.355
      -0.997
      -0.520
       0.052
       0.633
       1.109
       1.392
       1.446
       1.260
       0.824
       0.174
      -0.549
      -1.097
      -1.227
      -0.870
      -0.208
       0.410
       0.664
       0.462
      -0.016
      -0.449
      -0.605
      -0.481
      -0.240
      -0.027
       0.169
       0.440
       0.795
       1.074
       1.059
       0.649
      -0.054
      -0.812
      -1.371
      -1.540
      -1.240
      -0.539
       0.348
       1.134
       1.586
       1.626
       1.322
       0.802
       0.173
      -0.478
      -1.047
      -1.395
      -1.407
      -1.070
      -0.498
       0.121
       0.616
       0.888
       0.908
       0.705
       0.366
       0.019
      -0.200
      -0.231
      -0.142
      -0.099
      -0.242
      -0.566
      -0.904
      -1.049
      -0.919
      -0.609
      -0.294
      -0.059
       0.171
       0.535
       1.078
       1.645
       1.956
       1.816
       1.274
       0.596
       0.053
      -0.270
      -0.467
      -0.640
      -0.766
      -0.738
      -0.532
      -0.294
      -0.239
      -0.470
      -0.880
      -1.226
      -1.294
      -1.028
      -0.524
       0.063
       0.602
       1.017
       1.233
       1.158
       0.731
       0.036
      -0.678
      -1.102
      -1.072
      -0.665
      -0.134
       0.295
       0.556
       0.709
       0.786
       0.697
       0.299
      -0.421
      -1.239
      -1.787
      -1.762
      -1.098
       0.006
       1.199
       2.135
       2.605
       2.552
       2.026
       1.111
      -0.068
      -1.305
      -2.303
      -2.773
      -2.568
      -1.769
      -0.635
       0.506
       1.376
       1.806
       1.767
       1.366
       0.802
       0.285
      -0.046
      -0.142
      -0.029
       0.230
       0.547
       0.820
       0.947
       0.841
       0.455
      -0.180
      -0.943
      -1.655
      -2.159
      -2.386
      -2.342
      -2.036
      -1.421
      -0.454
       0.779
       1.985
       2.742
       2.751
       2.049
       1.011
       0.103
      -0.418
      -0.614
      -0.722
      -0.907
      -1.130
      -1.223
      -1.069
      -0.706
      -0.273
       0.104
       0.386
       0.590
       0.743
       0.859
       0.937
       0.963
       0.912
       0.751
       0.446
      -0.013
      -0.582
      -1.144
      -1.533
      -1.626
      -1.414
      -0.987
      -0.449
       0.142
       0.741
       1.242
       1.491
       1.387
       0.979
       0.453
      -0.012
      -0.363
      -0.642
      -0.842
      -0.846
      -0.538
       0.018
       0.558
       0.799
       0.644
       0.222
      -0.258
      -0.670
      -0.999
      -1.251
      -1.349
      -1.143
      -0.519
       0.444
       1.430
       2.025
       1.980
       1.386
       0.603
      -0.034
      -0.447
      -0.778
      -1.128
      -1.375
      -1.282
      -0.766
      -0.031
       0.578
       0.851
       0.811
       0.596
       0.312
       0.013
      -0.207
      -0.197
       0.134
       0.682
       1.159
       1.259
       0.863
       0.097
      -0.761
      -1.448
      -1.827
      -1.881
      -1.623
      -1.068
      -0.293
       0.511
       1.100
       1.338
       1.287
       1.123
       0.952
       0.719
       0.314
      -0.224
      -0.653
      -0.706
      -0.340
       0.204
       0.598
       0.671
       0.479
       0.178
      -0.113
      -0.372
      -0.640
      -0.955
      -1.300
      -1.564
      -1.558
      -1.103
      -0.148
       1.144
       2.427
       3.293
       3.447
       2.810
       1.534
      -0.077
      -1.681
      -3.009
      -3.907
      -4.271
      -3.983
      -2.954
      -1.298
       0.575
       2.102
       2.882
       2.875
       2.332
       1.565
       0.802
       0.210
      -0.076
      -0.028
       0.200
       0.346
       0.262
       0.035
      -0.135
      -0.177
      -0.212
      -0.381
      -0.660
      -0.878
      -0.897
      -0.735
      -0.513
      -0.334
      -0.222
      -0.158
      -0.137
      -0.174
      -0.260
      -0.326
      -0.266
       0.004
       0.481
       1.054
       1.523
       1.685
       1.434
       0.833
       0.088
      -0.537
      -0.819
      -0.647
      -0.088
       0.588
       0.992
       0.842
       0.188
      -0.596
      -1.091
      -1.142
      -0.904
      -0.634
      -0.452
      -0.315
      -0.153
       0.016
       0.131
       0.211
       0.361
       0.633
       0.906
       0.969
       0.731
       0.336
       0.028
      -0.082
      -0.110
      -0.235
      -0.480
      -0.663
      -0.583
      -0.257
       0.037
      -0.009
      -0.429
      -0.912
      -1.048
      -0.678
      -0.011
       0.587
       0.887
       0.921
       0.858
       0.798
       0.679
       0.388
      -0.075
      -0.563
      -0.914
      -1.096
      -1.191
      -1.229
      -1.078
      -0.575
       0.223
       0.945
       1.135
       0.612
      -0.351
      -1.192
      -1.441
      -0.999
      -0.154
       0.626
       0.958
       0.711
       0.032
      -0.776
      -1.400
      -1.606
      -1.252
      -0.309
       1.071
       2.543
       3.689
       4.246
       4.211
       3.713
       2.794
       1.366
      -0.570
      -2.686
      -4.377
      -5.121
      -4.839
      -3.889
      -2.690
      -1.346
       0.355
       2.554
       4.902
       6.569
       6.757
       5.302
       2.815
       0.207
      -1.949
      -3.633
      -5.041
      -6.116
      -6.477
      -5.802
      -4.222
      -2.297
      -0.568
       0.823
       2.104
       3.491
       4.873
       5.813
       5.837
       4.732
       2.678
       0.167
      -2.201
      -3.917
      -4.696
      -4.492
      -3.434
      -1.739
       0.334
       2.496
       4.432
       5.803
       6.248
       5.467
       3.395
       0.363
      -2.917
      -5.624
      -7.211
      -7.615
      -7.128
      -6.110
      -4.850
      -3.640
      -2.804
      -2.509
      -2.530
      -2.298
      -1.277
       0.664
       3.243
       6.030
       8.611
      10.489
      11.003
       9.580
       6.190
       1.578
      -3.011
      -6.395
      -7.899
      -7.438
      -5.364
      -2.306
       0.955
       3.596
       4.906
       4.473
       2.331
      -0.965
      -4.430
      -6.967
      -7.814
      -6.840
      -4.452
      -1.251
       2.226
       5.468
       7.857
       8.747
       7.829
       5.433
       2.419
      -0.290
      -2.102
      -2.789
      -2.298
      -0.682
       1.742
       4.283
       6.067
       6.443
       5.250
       2.794
      -0.336
      -3.417
      -5.722
      -6.722
      -6.320
      -4.887
      -2.995
      -1.059
       0.769
       2.409
       3.643
       4.168
       3.827
       2.780
       1.408
       0.017
      -1.359
      -2.866
      -4.563
      -6.258
      -7.603
      -8.329
      -8.400
      -7.981
      -7.265
      -6.334
      -5.136
      -3.591
      -1.731
       0.212
       1.860
       2.868
       3.114
       2.790
       2.334
       2.250
       2.906
       4.379
       6.393
       8.408
       9.841
      10.323
       9.811
       8.526
       6.776
       4.802
       2.760
       0.809
      -0.853
      -2.071
      -2.863
      -3.418
      -3.962
      -4.611
      -5.342
      -6.061
      -6.656
      -6.957
      -6.715
      -5.706
      -3.902
      -1.570
       0.848
       2.980
       4.695
       6.065
       7.154
       7.855
       7.900
       7.014
       5.075
       2.193
      -1.316
      -4.991
      -8.342
     -10.954
     -12.550
     -12.966
     -12.085
      -9.827
      -6.265
      -1.753
       3.100
       7.623
      11.286
      13.768
      14.915
      14.680
      13.124
      10.451
       7.027
       3.330
      -0.146
      -3.006
      -5.016
      -6.143
      -6.515
      -6.340
      -5.820
      -5.124
      -4.399
      -3.764
      -3.261
      -2.847
      -2.483
      -2.243
      -2.284
      -2.630
      -2.998
      -2.887
      -1.927
      -0.172
       1.935
       3.896
       5.461
       6.669
       7.642
       8.399
       8.848
       8.899
       8.518
       7.653
       6.139
       3.794
       0.657
      -2.874
      -6.190
      -8.793
     -10.542
     -11.653
     -12.464
     -13.165
     -13.683
     -13.775
     -13.199
     -11.809
      -9.548
      -6.408
      -2.438
       2.182
       7.051
      11.556
      15.024
      16.940
      17.093
      15.572
      12.649
       8.668
       4.038
      -0.707
      -4.932
      -8.073
      -9.820
     -10.192
      -9.422
      -7.807
      -5.617
      -3.101
      -0.491
       2.037
       4.341
       6.233
       7.482
       7.954
       7.724
       6.989
       5.850
       4.226
       2.022
      -0.609
      -3.198
      -5.169
      -6.161
      -6.149
      -5.350
      -4.068
      -2.618
      -1.332
      -0.526
      -0.356
      -0.680
      -1.094
      -1.178
      -0.786
      -0.121
       0.422
       0.532
       0.193
      -0.294
      -0.462
       0.054
       1.292
       2.939
       4.545
       5.779
       6.536
       6.839
       6.683
       5.985
       4.673
       2.831
       0.743
      -1.176
      -2.539
      -3.154
      -3.111
      -2.738
      -2.429
      -2.469
      -2.962
      -3.879
      -5.102
      -6.402
      -7.399
      -7.624
      -6.750
      -4.829
      -2.329
       0.125
       2.086
       3.429
       4.213
       4.454
       4.070
       3.051
       1.653
       0.351
      -0.428
      -0.536
      -0.104
       0.631
       1.464
       2.268
       2.984
       3.608
       4.169
       4.647
       4.876
       4.577
       3.544
       1.858
      -0.093
      -1.838
      -3.139
      -4.108
      -5.016
      -5.989
      -6.871
      -7.338
      -7.140
      -6.249
      -4.833
      -3.126
      -1.332
       0.387
       1.882
       3.031
       3.767
       4.100
       4.106
       3.875
       3.492
       3.045
       2.657
       2.450
       2.451
       2.539
       2.520
       2.272
       1.813
       1.225
       0.546
      -0.261
      -1.227
      -2.285
      -3.266
      -3.985
      -4.329
      -4.263
      -3.791
      -2.950
      -1.849
      -0.676
       0.374
       1.221
       1.944
       2.664
       3.366
       3.863
       3.934
       3.474
       2.523
       1.171
      -0.494
      -2.355
      -4.196
      -5.722
      -6.675
      -6.930
      -6.510
      -5.516
      -4.063
      -2.255
      -0.212
       1.895
       3.861
       5.495
       6.672
       7.315
       7.360
       6.745
       5.479
       3.747
       1.901
       0.314
      -0.832
      -1.643
      -2.380
      -3.191
      -3.913
      -4.171
      -3.696
      -2.595
      -1.333
      -0.414
      -0.047
      -0.050
      -0.070
       0.125
       0.508
       0.871
       1.037
       1.004
       0.944
       1.049
       1.353
       1.683
       1.765
       1.427
       0.747
       0.049
      -0.280
      -0.028
       0.733
       1.713
       2.555
       2.969
       2.774
       1.923
       0.531
      -1.156
      -2.862
      -4.382
      -5.588
      -6.351
      -6.500
      -5.889
      -4.521
      -2.617
      -0.566
       1.226
       2.493
       3.202
       3.533
       3.715
       3.835
       3.761
       3.291
       2.398
       1.331
       0.467
       0.029
      -0.076
      -0.170
      -0.547
      -1.270
      -2.145
      -2.879
      -3.284
      -3.380
      -3.333
      -3.279
      -3.189
      -2.909
      -2.323
      -1.476
      -0.526
       0.404
       1.313
       2.253
       3.195
       3.980
       4.403
       4.347
       3.850
       3.051
       2.097
       1.101
       0.181
      -0.510
      -0.810
      -0.608
       0.103
       1.189
       2.361
       3.238
       3.484
       2.954
       1.749
       0.151
      -1.511
      -2.951
      -3.971
      -4.473
      -4.467
      -4.026
      -3.216
      -2.063
      -0.611
       0.967
       2.323
       3.034
       2.833
       1.812
       0.415
      -0.791
      -1.418
      -1.426
      -1.070
      -0.707
      -0.614
      -0.891
      -1.460
      -2.100
      -2.533
      -2.555
      -2.166
      -1.571
      -0.998
      -0.499
       0.082
       0.929
       2.013
       3.036
       3.615
       3.546
       2.920
       2.025
       1.165
       0.553
       0.294
       0.387
       0.711
       1.063
       1.232
       1.107
       0.693
       0.047
      -0.789
      -1.765
      -2.753
      -3.526
      -3.858
      -3.664
      -3.075
      -2.347
      -1.690
      -1.121
      -0.505
       0.276
       1.150
       1.855
       2.118
       1.845
       1.204
       0.530
       0.151
       0.223
       0.681
       1.306
       1.856
       2.200
       2.361
       2.449
       2.545
       2.637
       2.643
       2.446
       1.895
       0.864
      -0.636
      -2.372
      -3.963
      -5.082
      -5.613
      -5.632
      -5.263
      -4.562
      -3.550
      -2.308
      -1.008
       0.155
       1.058
       1.689
       2.120
       2.455
       2.779
       3.095
       3.306
       3.273
       2.937
       2.387
       1.802
       1.298
       0.840
       0.294
      -0.410
      -1.155
      -1.660
      -1.641
      -1.005
       0.063
       1.179
       1.934
       2.045
       1.451
       0.321
      -1.014
      -2.196
      -2.976
      -3.262
      -3.082
      -2.508
      -1.636
      -0.603
       0.429
       1.318
       1.999
       2.471
       2.745
       2.804
       2.631
       2.239
       1.665
       0.933
       0.065
      -0.854
      -1.650
      -2.129
      -2.202
      -1.925
      -1.414
      -0.744
       0.054
       0.901
       1.606
       1.925
       1.681
       0.840
      -0.472
      -2.015
      -3.469
      -4.511
      -4.925
      -4.691
      -3.982
      -3.030
      -1.989
      -0.885
       0.303
       1.539
       2.701
       3.637
       4.225
       4.422
       4.276
       3.921
       3.519
       3.157
       2.776
       2.227
       1.417
       0.423
      -0.548
      -1.318
      -1.866
      -2.286
      -2.646
