Origin Time       15/2/2009 07:35:55  UTC
Lat.              26.0 N 
Long.             90.2 E 
Depth (Km)         39.3
Magnitude         4.4
 Region           Assam-Meghalaya-Border                                           
 Above details taken from IMD 
    
Station Code      DHU
Station Lat.       26.020  N
Station Long.      89.995  E
Station Height(m)   51.0
Site Class        C   Vs30 between 200 m/sec to 375 m/sec *  
Record Time       15.02.2009 19:35:52.874 UTC
Sampling Rate     200. Hz
 Record Duration   69.745 Sec.
 Direction         N-S (N positive)
Max. Acceleration    -20.673 cm/sec**2
     
  * For reference see Site Classification link of website 
     
 Base Line Corrected and Low Pass Filtered (Cut Off at 35 Hz) Time History
 Acceleration data in cm/sec**2
    
[...]
       0.091
       0.087
       0.076
       0.070
       0.070
       0.066
       0.052
       0.033
       0.019
       0.021
       0.036
       0.051
       0.056
       0.044
       0.020
      -0.004
      -0.014
      -0.007
       0.014
       0.037
       0.051
       0.053
       0.045
       0.033
       0.024
       0.020
       0.022
       0.025
       0.026
       0.027
       0.033
       0.043
       0.052
       0.051
       0.041
       0.020
      -0.008
      -0.040
      -0.063
      -0.070
      -0.061
      -0.051
      -0.056
      -0.073
      -0.095
      -0.110
      -0.117
      -0.111
      -0.090
      -0.058
      -0.030
      -0.019
      -0.027
      -0.044
      -0.054
      -0.047
      -0.025
       0.005
       0.033
       0.056
       0.074
       0.081
       0.068
       0.037
       0.002
      -0.013
       0.005
       0.045
       0.079
       0.084
       0.062
       0.034
       0.023
       0.034
       0.058
       0.081
       0.091
       0.085
       0.077
       0.082
       0.102
       0.125
       0.128
       0.102
       0.058
       0.023
       0.014
       0.027
       0.046
       0.057
       0.056
       0.051
       0.046
       0.044
       0.040
       0.033
       0.024
       0.017
       0.015
       0.021
       0.035
       0.051
       0.056
       0.041
       0.010
      -0.024
      -0.049
      -0.061
      -0.060
      -0.046
      -0.020
       0.004
       0.010
      -0.009
      -0.042
      -0.065
      -0.065
      -0.046
      -0.024
      -0.013
      -0.009
      -0.002
       0.010
       0.022
       0.027
       0.025
       0.020
       0.014
       0.011
       0.012
       0.023
       0.039
       0.056
       0.065
       0.061
       0.047
       0.034
       0.029
       0.032
       0.039
       0.044
       0.042
       0.032
       0.020
       0.013
       0.014
       0.018
       0.019
       0.012
      -0.002
      -0.018
      -0.027
      -0.026
      -0.018
      -0.010
      -0.006
      -0.004
      -0.002
       0.001
       0.003
       0.003
      -0.001
      -0.010
      -0.026
      -0.044
      -0.055
      -0.049
      -0.025
       0.004
       0.023
       0.018
      -0.011
      -0.049
      -0.083
      -0.104
      -0.110
      -0.111
      -0.109
      -0.107
      -0.097
      -0.076
      -0.051
      -0.033
      -0.031
      -0.047
      -0.069
      -0.085
      -0.086
      -0.077
      -0.070
      -0.072
      -0.079
      -0.076
      -0.053
      -0.011
       0.030
       0.048
       0.036
       0.007
      -0.020
      -0.036
      -0.041
      -0.043
      -0.045
      -0.045
      -0.042
      -0.035
      -0.028
      -0.024
      -0.023
      -0.024
      -0.025
      -0.026
      -0.028
      -0.031
      -0.027
      -0.009
       0.023
       0.056
       0.072
       0.063
       0.042
       0.026
       0.026
       0.033
       0.029
       0.005
      -0.034
      -0.071
      -0.092
      -0.094
      -0.087
      -0.087
      -0.096
      -0.107
      -0.112
      -0.108
      -0.103
      -0.096
      -0.087
      -0.074
      -0.059
      -0.050
      -0.054
      -0.075
      -0.107
      -0.140
      -0.157
      -0.145
      -0.099
      -0.033
       0.032
       0.070
       0.063
       0.008
      -0.080
      -0.161
      -0.183
      -0.112
       0.035
       0.194
       0.289
       0.283
       0.204
       0.112
       0.051
       0.019
      -0.018
      -0.094
      -0.201
      -0.286
      -0.286
      -0.175
      -0.002
       0.136
       0.151
       0.014
      -0.224
      -0.461
      -0.588
      -0.545
      -0.356
      -0.130
       0.005
      -0.015
      -0.140
      -0.236
      -0.190
      -0.005
       0.200
       0.290
       0.216
       0.041
      -0.127
      -0.224
      -0.257
      -0.265
      -0.256
      -0.198
      -0.046
       0.188
       0.408
       0.475
       0.296
      -0.088
      -0.505
      -0.745
      -0.696
      -0.403
      -0.028
       0.260
       0.381
       0.364
       0.299
       0.250
       0.229
       0.211
       0.176
       0.139
       0.128
       0.149
       0.156
       0.069
      -0.158
      -0.472
      -0.715
      -0.713
      -0.428
      -0.022
       0.240
       0.190
      -0.104
      -0.400
      -0.466
      -0.239
       0.160
       0.520
       0.674
       0.583
       0.341
       0.102
      -0.021
      -0.020
       0.021
       0.011
      -0.067
      -0.146
      -0.139
      -0.018
       0.150
       0.262
       0.272
       0.234
       0.255
       0.380
       0.543
       0.613
       0.516
       0.287
       0.028
      -0.191
      -0.382
      -0.605
      -0.869
      -1.068
      -1.036
      -0.674
      -0.055
       0.604
       1.060
       1.172
       0.958
       0.561
       0.162
      -0.105
      -0.202
      -0.179
      -0.127
      -0.112
      -0.146
      -0.196
      -0.214
      -0.158
      -0.014
       0.192
       0.383
       0.457
       0.347
       0.080
      -0.225
      -0.427
      -0.453
      -0.340
      -0.193
      -0.106
      -0.093
      -0.097
      -0.052
       0.046
       0.123
       0.089
      -0.078
      -0.285
      -0.378
      -0.263
       0.015
       0.308
       0.478
       0.475
       0.335
       0.120
      -0.102
      -0.252
      -0.249
      -0.049
       0.310
       0.717
       1.035
       1.160
       1.044
       0.707
       0.235
      -0.248
      -0.622
      -0.832
      -0.914
      -0.962
      -1.050
      -1.160
      -1.188
      -1.030
      -0.673
      -0.211
       0.221
       0.533
       0.712
       0.787
       0.786
       0.724
       0.609
       0.452
       0.265
       0.055
      -0.166
      -0.370
      -0.501
      -0.492
      -0.312
      -0.014
       0.273
       0.418
       0.368
       0.173
      -0.070
      -0.286
      -0.446
      -0.540
      -0.548
      -0.457
      -0.296
      -0.144
      -0.083
      -0.133
      -0.230
      -0.269
      -0.166
       0.094
       0.460
       0.827
       1.067
       1.078
       0.834
       0.412
      -0.051
      -0.435
      -0.686
      -0.801
      -0.793
      -0.670
      -0.458
      -0.213
      -0.014
       0.079
       0.057
      -0.041
      -0.145
      -0.197
      -0.178
      -0.119
      -0.079
      -0.098
      -0.160
      -0.195
      -0.134
       0.045
       0.293
       0.529
       0.677
       0.694
       0.579
       0.364
       0.109
      -0.126
      -0.298
      -0.386
      -0.386
      -0.298
      -0.134
       0.065
       0.219
       0.232
       0.057
      -0.253
      -0.548
      -0.649
      -0.463
      -0.045
       0.423
       0.739
       0.784
       0.567
       0.195
      -0.182
      -0.438
      -0.518
      -0.449
      -0.314
      -0.193
      -0.113
      -0.043
       0.050
       0.146
       0.167
       0.032
      -0.264
      -0.621
      -0.886
      -0.941
      -0.776
      -0.479
      -0.169
       0.075
       0.246
       0.379
       0.513
       0.647
       0.744
       0.768
       0.708
       0.584
       0.434
       0.295
       0.196
       0.139
       0.095
       0.022
      -0.082
      -0.163
      -0.147
      -0.014
       0.165
       0.257
       0.160
      -0.128
      -0.507
      -0.839
      -1.029
      -1.059
      -0.955
      -0.747
      -0.457
      -0.120
       0.208
       0.474
       0.659
       0.777
       0.829
       0.787
       0.617
       0.340
       0.043
      -0.164
      -0.234
      -0.206
      -0.160
      -0.143
      -0.150
      -0.145
      -0.118
      -0.092
      -0.107
      -0.191
      -0.343
      -0.531
      -0.701
      -0.794
      -0.779
      -0.664
      -0.491
      -0.303
      -0.134
      -0.005
       0.074
       0.106
       0.115
       0.151
       0.268
       0.499
       0.814
       1.124
       1.308
       1.290
       1.083
       0.776
       0.466
       0.207
      -0.002
      -0.175
      -0.307
      -0.376
      -0.372
      -0.316
      -0.238
      -0.152
      -0.048
       0.073
       0.167
       0.167
       0.035
      -0.196
      -0.439
      -0.605
      -0.658
      -0.624
      -0.550
      -0.471
      -0.391
      -0.299
      -0.194
      -0.087
       0.001
       0.059
       0.094
       0.130
       0.196
       0.308
       0.460
       0.618
       0.740
       0.801
       0.807
       0.795
       0.799
       0.823
       0.834
       0.778
       0.615
       0.340
      -0.005
      -0.346
      -0.607
      -0.733
      -0.707
      -0.548
      -0.306
      -0.037
       0.208
       0.394
       0.508
       0.554
       0.555
       0.533
       0.480
       0.359
       0.130
      -0.186
      -0.492
      -0.661
      -0.631
      -0.454
      -0.256
      -0.155
      -0.191
      -0.323
      -0.468
      -0.542
      -0.487
      -0.287
       0.017
       0.337
       0.569
       0.643
       0.557
       0.366
       0.156
       0.003
      -0.047
      -0.002
       0.087
       0.154
       0.151
       0.077
      -0.029
      -0.107
      -0.112
      -0.031
       0.114
       0.270
       0.377
       0.373
       0.230
      -0.030
      -0.325
      -0.556
      -0.654
      -0.600
      -0.412
      -0.116
       0.234
       0.535
       0.659
       0.541
       0.239
      -0.087
      -0.271
      -0.229
       0.019
       0.380
       0.733
       0.967
       1.012
       0.851
       0.524
       0.108
      -0.298
      -0.591
      -0.689
      -0.575
      -0.319
      -0.065
       0.040
      -0.076
      -0.373
      -0.735
      -1.033
      -1.187
      -1.173
      -1.008
      -0.725
      -0.360
       0.051
       0.476
       0.873
       1.191
       1.366
       1.358
       1.184
       0.926
       0.694
       0.561
       0.520
       0.497
       0.417
       0.257
       0.052
      -0.143
      -0.298
      -0.409
      -0.495
      -0.577
      -0.676
      -0.794
      -0.908
      -0.980
      -0.977
      -0.902
      -0.800
      -0.725
      -0.700
      -0.700
      -0.672
      -0.573
      -0.386
      -0.125
       0.168
       0.423
       0.566
       0.568
       0.485
       0.440
       0.530
       0.742
       0.940
       0.963
       0.750
       0.386
       0.043
      -0.145
      -0.143
      -0.003
       0.196
       0.392
       0.541
       0.609
       0.571
       0.423
       0.175
      -0.141
      -0.473
      -0.735
      -0.841
      -0.755
      -0.520
      -0.244
      -0.047
      -0.004
      -0.112
      -0.293
      -0.418
      -0.381
      -0.173
       0.102
       0.293
       0.303
       0.146
      -0.085
      -0.292
      -0.408
      -0.405
      -0.282
      -0.078
       0.135
       0.288
       0.361
       0.389
       0.410
       0.418
       0.365
       0.219
       0.014
      -0.170
      -0.271
      -0.280
      -0.229
      -0.130
       0.048
       0.344
       0.734
       1.101
       1.283
       1.174
       0.800
       0.304
      -0.141
      -0.424
      -0.532
      -0.508
      -0.393
      -0.218
      -0.014
       0.176
       0.325
       0.439
       0.532
       0.577
       0.500
       0.245
      -0.153
      -0.554
      -0.799
      -0.812
      -0.626
      -0.332
      -0.001
       0.310
       0.534
       0.587
       0.413
       0.040
      -0.409
      -0.768
      -0.912
      -0.812
      -0.540
      -0.228
       0.003
       0.088
       0.059
       0.035
       0.164
       0.518
       1.024
       1.485
       1.711
       1.632
       1.320
       0.891
       0.415
      -0.103
      -0.653
      -1.167
      -1.537
      -1.677
      -1.573
      -1.284
      -0.892
      -0.465
      -0.058
       0.268
       0.454
       0.481
       0.401
       0.317
       0.307
       0.368
       0.433
       0.434
       0.351
       0.195
      -0.019
      -0.265
      -0.469
      -0.505
      -0.296
       0.089
       0.436
       0.525
       0.299
      -0.106
      -0.474
      -0.677
      -0.735
      -0.736
      -0.706
      -0.572
      -0.256
       0.188
       0.564
       0.673
       0.487
       0.186
       0.031
       0.175
       0.571
       1.028
       1.329
       1.338
       1.030
       0.486
      -0.128
      -0.621
      -0.848
      -0.765
      -0.420
       0.079
       0.591
       0.940
       0.955
       0.563
      -0.117
      -0.810
      -1.256
      -1.376
      -1.297
      -1.196
      -1.136
      -1.040
      -0.792
      -0.358
       0.205
       0.795
       1.306
       1.633
       1.694
       1.478
       1.070
       0.588
       0.094
      -0.426
      -0.981
      -1.503
      -1.868
      -1.984
      -1.848
      -1.510
      -0.999
      -0.327
       0.472
       1.295
       1.986
       2.383
       2.372
       1.927
       1.146
       0.249
      -0.492
      -0.874
      -0.836
      -0.444
       0.185
       0.963
       1.829
       2.715
       3.535
       4.216
       4.739
       5.123
       5.392
       5.565
       5.710
       5.969
       6.498
       7.353
       8.407
       9.379
       9.961
       9.932
       9.197
       7.768
       5.735
       3.248
       0.493
      -2.322
      -5.003
      -7.387
      -9.383
     -11.024
     -12.468
     -13.930
     -15.569
     -17.361
     -19.068
     -20.301
     -20.673
     -19.976
     -18.288
     -15.941
     -13.368
     -10.907
      -8.701
      -6.720
      -4.877
      -3.118
      -1.434
       0.176
       1.748
       3.339
       4.975
       6.598
       8.079
       9.296
      10.204
      10.822
      11.157
      11.176
      10.858
      10.271
       9.573
       8.940
       8.481
       8.203
       8.026
       7.798
       7.329
       6.448
       5.100
       3.408
       1.651
       0.158
      -0.839
      -1.312
      -1.434
      -1.469
      -1.630
      -1.986
      -2.464
      -2.920
      -3.239
      -3.402
      -3.504
      -3.708
      -4.154
      -4.865
      -5.737
      -6.630
      -7.456
      -8.202
      -8.835
      -9.203
      -9.026
      -8.011
      -6.024
      -3.183
       0.168
       3.556
       6.481
       8.514
       9.395
       9.100
       7.848
       6.003
       3.961
       2.059
       0.559
      -0.351
      -0.579
      -0.181
       0.616
       1.461
       1.995
       1.975
       1.338
       0.203
      -1.180
      -2.510
      -3.515
      -4.015
      -3.932
      -3.281
      -2.157
      -0.721
       0.838
       2.368
       3.806
       5.146
       6.380
       7.460
       8.326
       8.938
       9.262
       9.227
       8.705
       7.546
       5.666
       3.124
       0.156
      -2.845
      -5.409
      -7.120
      -7.768
      -7.453
      -6.587
      -5.744
      -5.407
      -5.751
      -6.607
      -7.617
      -8.451
      -8.902
      -8.850
      -8.211
      -6.958
      -5.198
      -3.200
      -1.314
       0.165
       1.106
       1.543
       1.626
       1.546
       1.501
       1.671
       2.184
       3.076
       4.294
       5.756
       7.425
       9.299
      11.304
      13.193
      14.558
      14.962
      14.114
      11.971
       8.756
       4.896
       0.909
      -2.697
      -5.534
      -7.416
      -8.403
      -8.753
      -8.785
      -8.709
      -8.537
      -8.127
      -7.342
      -6.177
      -4.781
      -3.370
      -2.127
      -1.146
      -0.428
       0.103
       0.563
       1.043
       1.539
       1.939
       2.098
       1.958
       1.610
       1.255
       1.089
       1.205
       1.567
       2.051
       2.489
       2.708
       2.564
       1.996
       1.075
       0.000
      -0.960
      -1.588
      -1.800
      -1.676
      -1.410
      -1.205
      -1.182
      -1.341
      -1.576
      -1.733
      -1.691
      -1.422
      -1.007
      -0.571
      -0.188
       0.155
       0.486
       0.730
       0.692
       0.173
      -0.886
      -2.351
      -3.970
      -5.494
      -6.745
      -7.601
      -7.948
      -7.674
      -6.719
      -5.134
      -3.073
      -0.738
       1.675
       3.968
       5.923
       7.329
       8.070
       8.208
       7.971
       7.650
       7.473
       7.543
       7.842
       8.261
       8.645
       8.831
       8.697
       8.196
       7.380
       6.371
       5.281
       4.146
       2.916
       1.527
      -0.052
      -1.842
      -3.883
      -6.196
      -8.693
     -11.142
     -13.242
     -14.754
     -15.581
     -15.747
     -15.332
     -14.430
     -13.135
     -11.542
      -9.735
      -7.796
      -5.811
      -3.883
      -2.103
      -0.505
       0.971
       2.449
       4.040
       5.760
       7.500
       9.077
      10.316
      11.115
      11.461
      11.397
      10.986
      10.306
       9.470
       8.632
       7.928
       7.388
       6.873
       6.135
       4.945
       3.242
       1.174
      -0.964
      -2.868
      -4.348
      -5.358
      -5.944
      -6.172
      -6.090
      -5.746
      -5.207
      -4.548
      -3.817
      -3.019
      -2.135
      -1.165
      -0.163
       0.744
       1.386
       1.624
       1.431
       0.934
       0.356
      -0.097
      -0.329
      -0.361
      -0.262
      -0.087
       0.136
       0.373
       0.555
       0.590
       0.401
      -0.042
      -0.713
      -1.527
      -2.349
      -3.020
      -3.402
      -3.432
      -3.139
      -2.606
      -1.923
      -1.163
      -0.396
       0.298
       0.862
       1.289
       1.614
       1.858
       1.991
       1.960
       1.763
       1.481
       1.226
       1.061
       0.957
       0.837
       0.652
       0.443
       0.308
       0.321
       0.465
       0.648
       0.783
       0.837
       0.824
       0.755
       0.613
       0.364
      -0.014
      -0.518
      -1.122
      -1.775
      -2.406
      -2.937
      -3.311
      -3.510
      -3.558
      -3.507
      -3.424
      -3.380
      -3.434
      -3.602
      -3.841
      -4.060
      -4.164
      -4.104
      -3.894
      -3.577
      -3.171
      -2.656
      -2.000
      -1.197
      -0.273
       0.736
       1.813
       2.944
       4.084
       5.157
       6.075
       6.786
       7.299
       7.679
       7.996
       8.284
       8.514
       8.615
       8.521
       8.193
       7.624
       6.824
       5.814
       4.636
       3.351
       2.020
       0.683
      -0.653
      -2.008
      -3.389
      -4.758
      -6.028
      -7.094
      -7.883
      -8.364
      -8.527
      -8.356
      -7.837
      -6.991
      -5.903
      -4.728
      -3.634
      -2.735
      -2.046
      -1.478
      -0.895
      -0.185
       0.667
       1.570
       2.362
       2.893
       3.088
       2.967
       2.629
       2.211
       1.847
       1.606
       1.468
       1.344
       1.138
       0.826
       0.470
       0.170
      -0.025
      -0.179
      -0.433
      -0.890
      -1.510
      -2.112
      -2.487
      -2.518
      -2.210
      -1.638
      -0.881
       0.008
       1.000
       2.070
       3.160
       4.150
       4.847
       5.047
       4.647
