Origin Time       16/4/2013 01:23:19	
Lat.              26.3 N	
Long.             92.0 E	
Depth (Km)         16.0
Magnitude         4.6
 Region           Assam-Darrang                                                    
 Above details taken from IMD 
   
Station Code      DIB
Station Lat.       27.467
Station Long.      94.912
Station Height(m)  129.0
Site Class        C   Vs30 between 200 m/sec to 375 m/sec *  
Record Time       16.04.2013 08:33:27.664
Sampling Rate     200. Hz
 Record Duration   80.030 Sec.
 Direction         Vert. (Up positive)
Max. Acceleration      2.262 cm/sec**2
     
  * For reference see Site Classification link of website 
     
 Base Line Corrected and Low Pass Filtered (Cut Off at 35 Hz) Time History
 Acceleration data in cm/sec**2
    
[...]
       0.336
       0.158
       0.018
      -0.083
      -0.173
      -0.277
      -0.398
      -0.500
      -0.531
      -0.460
      -0.310
      -0.146
      -0.032
       0.018
       0.033
       0.057
       0.100
       0.137
       0.138
       0.097
       0.034
      -0.025
      -0.072
      -0.121
      -0.180
      -0.239
      -0.261
      -0.205
      -0.051
       0.176
       0.412
       0.580
       0.623
       0.534
       0.344
       0.111
      -0.102
      -0.244
      -0.283
      -0.216
      -0.072
       0.092
       0.212
       0.241
       0.166
       0.007
      -0.182
      -0.333
      -0.388
      -0.323
      -0.164
       0.029
       0.190
       0.275
       0.271
       0.188
       0.049
      -0.113
      -0.261
      -0.359
      -0.383
      -0.330
      -0.217
      -0.074
       0.067
       0.179
       0.255
       0.301
       0.328
       0.336
       0.315
       0.253
       0.157
       0.047
      -0.046
      -0.098
      -0.099
      -0.058
       0.002
       0.057
       0.087
       0.081
       0.035
      -0.044
      -0.135
      -0.214
      -0.265
      -0.290
      -0.298
      -0.288
      -0.247
      -0.169
      -0.075
      -0.009
      -0.003
      -0.049
      -0.093
      -0.078
       0.019
       0.160
       0.271
       0.285
       0.191
       0.037
      -0.098
      -0.160
      -0.143
      -0.083
      -0.027
      -0.001
       0.000
       0.000
       0.023
       0.076
       0.143
       0.187
       0.172
       0.081
      -0.071
      -0.240
      -0.371
      -0.414
      -0.343
      -0.159
       0.105
       0.392
       0.629
       0.754
       0.728
       0.552
       0.270
      -0.038
      -0.287
      -0.418
      -0.415
      -0.307
      -0.144
       0.023
       0.157
       0.242
       0.283
       0.296
       0.292
       0.273
       0.235
       0.180
       0.113
       0.044
      -0.025
      -0.094
      -0.164
      -0.227
      -0.269
      -0.272
      -0.222
      -0.114
       0.034
       0.181
       0.275
       0.283
       0.213
       0.104
      -0.002
      -0.088
      -0.161
      -0.231
      -0.295
      -0.328
      -0.297
      -0.179
       0.022
       0.259
       0.453
       0.518
       0.397
       0.091
      -0.335
      -0.771
      -1.090
      -1.197
      -1.060
      -0.727
      -0.305
       0.083
       0.344
       0.433
       0.354
       0.149
      -0.106
      -0.330
      -0.465
      -0.505
      -0.494
      -0.480
      -0.471
      -0.425
      -0.292
      -0.073
       0.167
       0.341
       0.394
       0.338
       0.228
       0.121
       0.038
      -0.036
      -0.131
      -0.264
      -0.418
      -0.540
      -0.577
      -0.511
      -0.371
      -0.213
      -0.083
       0.006
       0.070
       0.134
       0.220
       0.333
       0.466
       0.599
       0.708
       0.784
       0.835
       0.865
       0.855
       0.764
       0.561
       0.251
      -0.113
      -0.464
      -0.746
      -0.932
      -1.023
      -1.028
      -0.946
      -0.761
      -0.462
      -0.065
       0.377
       0.797
       1.136
       1.351
       1.402
       1.259
       0.910
       0.395
      -0.190
      -0.704
      -1.011
      -1.030
      -0.778
      -0.376
       0.009
       0.239
       0.271
       0.157
       0.003
      -0.099
      -0.104
      -0.017
       0.124
       0.265
       0.350
       0.340
       0.223
       0.017
      -0.232
      -0.470
      -0.647
      -0.729
      -0.710
      -0.620
      -0.517
      -0.451
      -0.434
      -0.419
      -0.338
      -0.145
       0.146
       0.471
       0.745
       0.904
       0.917
       0.792
       0.567
       0.297
       0.038
      -0.171
      -0.305
      -0.352
      -0.312
      -0.207
      -0.094
      -0.041
      -0.091
      -0.226
      -0.378
      -0.469
      -0.452
      -0.330
      -0.141
       0.060
       0.221
       0.313
       0.346
       0.370
       0.447
       0.604
       0.790
       0.897
       0.819
       0.521
       0.063
      -0.418
      -0.773
      -0.898
      -0.769
      -0.442
      -0.017
       0.398
       0.712
       0.874
       0.877
       0.762
       0.596
       0.434
       0.297
       0.162
      -0.012
      -0.247
      -0.528
      -0.797
      -0.975
      -0.995
      -0.826
      -0.484
      -0.026
       0.456
       0.852
       1.049
       0.967
       0.600
       0.041
      -0.538
      -0.942
      -1.035
      -0.793
      -0.309
       0.249
       0.706
       0.938
       0.896
       0.607
       0.159
      -0.322
      -0.707
      -0.896
      -0.858
      -0.633
      -0.309
       0.019
       0.280
       0.441
       0.501
       0.484
       0.422
       0.344
       0.276
       0.232
       0.207
       0.177
       0.110
      -0.015
      -0.178
      -0.329
      -0.411
      -0.408
      -0.355
      -0.316
      -0.338
      -0.414
      -0.479
      -0.454
      -0.298
      -0.034
       0.254
       0.469
       0.543
       0.464
       0.278
       0.065
      -0.090
      -0.127
      -0.037
       0.129
       0.289
       0.362
       0.308
       0.146
      -0.052
      -0.195
      -0.214
      -0.090
       0.142
       0.411
       0.633
       0.725
       0.636
       0.363
      -0.029
      -0.429
      -0.725
      -0.855
      -0.829
      -0.719
      -0.606
      -0.539
      -0.502
      -0.426
      -0.233
       0.104
       0.534
       0.951
       1.248
       1.358
       1.260
       0.962
       0.496
      -0.071
      -0.629
      -1.045
      -1.219
      -1.134
      -0.867
      -0.549
      -0.292
      -0.141
      -0.062
       0.019
       0.161
       0.377
       0.639
       0.892
       1.065
       1.079
       0.878
       0.478
      -0.018
      -0.459
      -0.727
      -0.796
      -0.728
      -0.620
      -0.542
      -0.501
      -0.457
      -0.357
      -0.171
       0.090
       0.380
       0.645
       0.823
       0.854
       0.691
       0.332
      -0.148
      -0.611
      -0.908
      -0.954
      -0.773
      -0.479
      -0.213
      -0.064
      -0.032
      -0.046
      -0.016
       0.099
       0.267
       0.410
       0.460
       0.404
       0.291
       0.200
       0.184
       0.247
       0.339
       0.383
       0.321
       0.142
      -0.117
      -0.390
      -0.612
      -0.739
      -0.752
      -0.655
      -0.475
      -0.253
      -0.037
       0.126
       0.199
       0.161
       0.031
      -0.135
      -0.252
      -0.239
      -0.059
       0.260
       0.624
       0.899
       0.963
       0.755
       0.317
      -0.210
      -0.637
      -0.814
      -0.694
      -0.354
       0.056
       0.385
       0.548
       0.538
       0.406
       0.222
       0.047
      -0.093
      -0.208
      -0.334
      -0.500
      -0.694
      -0.851
      -0.877
      -0.710
      -0.358
       0.090
       0.503
       0.768
       0.830
       0.711
       0.483
       0.227
       0.009
      -0.133
      -0.176
      -0.117
       0.019
       0.175
       0.278
       0.279
       0.180
       0.031
      -0.108
      -0.200
      -0.248
      -0.275
      -0.296
      -0.293
      -0.228
      -0.074
       0.150
       0.376
       0.519
       0.516
       0.355
       0.074
      -0.258
      -0.559
      -0.749
      -0.768
      -0.589
      -0.238
       0.203
       0.616
       0.887
       0.950
       0.804
       0.512
       0.172
      -0.114
      -0.269
      -0.265
      -0.131
       0.053
       0.181
       0.163
      -0.027
      -0.319
      -0.577
      -0.669
      -0.546
      -0.274
       0.001
       0.135
       0.060
      -0.182
      -0.473
      -0.675
      -0.698
      -0.526
      -0.201
       0.203
       0.608
       0.939
       1.133
       1.146
       0.971
       0.643
       0.239
      -0.150
      -0.441
      -0.592
      -0.605
      -0.501
      -0.299
      -0.018
       0.305
       0.599
       0.774
       0.767
       0.574
       0.257
      -0.087
      -0.359
      -0.503
      -0.516
      -0.440
      -0.323
      -0.197
      -0.067
       0.059
       0.153
       0.179
       0.120
       0.002
      -0.121
      -0.204
      -0.235
      -0.230
      -0.214
      -0.195
      -0.166
      -0.107
      -0.014
       0.102
       0.215
       0.300
       0.344
       0.343
       0.293
       0.190
       0.030
      -0.164
      -0.342
      -0.446
      -0.439
      -0.325
      -0.144
       0.054
       0.233
       0.378
       0.487
       0.551
       0.539
       0.413
       0.170
      -0.141
      -0.427
      -0.606
      -0.642
      -0.551
      -0.386
      -0.216
      -0.115
      -0.147
      -0.338
      -0.661
      -1.042
      -1.375
      -1.547
      -1.466
      -1.106
      -0.531
       0.121
       0.697
       1.101
       1.320
       1.402
       1.383
       1.255
       0.983
       0.569
       0.095
      -0.299
      -0.486
      -0.422
      -0.167
       0.149
       0.395
       0.489
       0.419
       0.224
      -0.036
      -0.304
      -0.531
      -0.686
      -0.768
      -0.800
      -0.813
      -0.827
      -0.837
      -0.833
      -0.813
      -0.780
      -0.719
      -0.589
      -0.342
       0.029
       0.473
       0.887
       1.164
       1.242
       1.129
       0.904
       0.673
       0.526
       0.498
       0.570
       0.691
       0.807
       0.878
       0.876
       0.785
       0.608
       0.371
       0.129
      -0.052
      -0.133
      -0.126
      -0.090
      -0.081
      -0.104
      -0.114
      -0.064
       0.047
       0.165
       0.225
       0.198
       0.106
       0.005
      -0.051
      -0.035
       0.038
       0.122
       0.164
       0.132
       0.013
      -0.194
      -0.483
      -0.830
      -1.175
      -1.425
      -1.496
      -1.355
      -1.047
      -0.683
      -0.395
      -0.266
      -0.286
      -0.361
      -0.369
      -0.237
       0.017
       0.313
       0.560
       0.711
       0.762
       0.733
       0.650
       0.536
       0.410
       0.283
       0.153
       0.008
      -0.164
      -0.355
      -0.533
      -0.647
      -0.659
      -0.570
      -0.434
      -0.317
      -0.268
      -0.302
      -0.406
      -0.553
      -0.709
      -0.829
      -0.878
      -0.840
      -0.730
      -0.586
      -0.445
      -0.323
      -0.212
      -0.077
       0.120
       0.405
       0.779
       1.206
       1.605
       1.871
       1.913
       1.709
       1.334
       0.928
       0.629
       0.503
       0.528
       0.623
       0.694
       0.668
       0.497
       0.164
      -0.302
      -0.829
      -1.311
      -1.640
      -1.743
      -1.602
      -1.272
      -0.857
      -0.470
      -0.176
       0.039
       0.253
       0.538
       0.901
       1.269
       1.528
       1.585
       1.408
       1.043
       0.590
       0.182
      -0.057
      -0.039
       0.238
       0.675
       1.089
       1.287
       1.152
       0.705
       0.101
      -0.448
      -0.776
      -0.831
      -0.681
      -0.450
      -0.249
      -0.134
      -0.112
      -0.165
      -0.272
      -0.403
      -0.514
      -0.553
      -0.499
      -0.385
      -0.286
      -0.267
      -0.330
      -0.406
      -0.404
      -0.267
      -0.002
       0.322
       0.604
       0.746
       0.689
       0.436
       0.059
      -0.324
      -0.594
      -0.693
      -0.645
      -0.540
      -0.473
      -0.485
      -0.548
      -0.592
      -0.552
      -0.397
      -0.147
       0.131
       0.346
       0.428
       0.361
       0.204
       0.063
       0.040
       0.179
       0.447
       0.750
       0.976
       1.032
       0.869
       0.495
      -0.025
      -0.571
      -1.007
      -1.231
      -1.222
      -1.037
      -0.770
      -0.506
      -0.289
      -0.130
      -0.017
       0.068
       0.140
       0.201
       0.246
       0.271
       0.278
       0.264
       0.218
       0.132
       0.025
      -0.063
      -0.096
      -0.065
       0.010
       0.104
       0.203
       0.305
       0.402
       0.468
       0.469
       0.389
       0.249
       0.115
       0.057
       0.104
       0.210
       0.286
       0.261
       0.133
      -0.036
      -0.178
      -0.259
      -0.295
      -0.322
      -0.364
      -0.424
      -0.500
      -0.588
      -0.674
      -0.724
      -0.696
      -0.567
      -0.362
      -0.134
       0.071
       0.239
       0.389
       0.543
       0.701
       0.838
       0.926
       0.954
       0.926
       0.845
       0.696
       0.460
       0.132
      -0.252
      -0.630
      -0.929
      -1.091
      -1.090
      -0.935
      -0.674
      -0.386
      -0.150
      -0.014
       0.029
       0.026
       0.036
       0.097
       0.206
       0.318
       0.372
       0.332
       0.229
       0.164
       0.257
       0.565
       1.022
       1.438
       1.584
       1.313
       0.638
      -0.263
      -1.136
      -1.759
      -2.016
      -1.915
      -1.555
      -1.069
      -0.578
      -0.169
       0.118
       0.285
       0.362
       0.390
       0.413
       0.467
       0.565
       0.678
       0.740
       0.678
       0.459
       0.113
      -0.281
      -0.631
      -0.860
      -0.905
      -0.725
      -0.309
       0.301
       1.007
       1.666
       2.123
       2.262
       2.040
       1.510
       0.808
       0.110
      -0.431
      -0.739
      -0.839
      -0.822
      -0.780
      -0.757
      -0.748
      -0.731
      -0.704
      -0.683
      -0.675
      -0.648
      -0.549
      -0.352
      -0.101
       0.101
       0.153
       0.017
      -0.263
      -0.578
      -0.806
      -0.852
      -0.679
      -0.317
       0.145
       0.585
       0.884
       0.965
       0.817
       0.514
       0.192
       0.009
       0.071
       0.372
       0.784
       1.115
       1.207
       1.005
       0.570
       0.037
      -0.449
      -0.779
      -0.907
      -0.854
      -0.693
      -0.527
      -0.442
      -0.477
      -0.609
      -0.767
      -0.868
      -0.852
      -0.698
      -0.424
      -0.090
       0.205
       0.360
       0.320
       0.115
      -0.147
      -0.340
      -0.384
      -0.272
      -0.058
       0.174
       0.340
       0.396
       0.359
       0.299
       0.293
       0.370
       0.486
       0.563
       0.540
       0.402
       0.171
      -0.111
      -0.383
      -0.567
      -0.587
      -0.406
      -0.065
       0.322
       0.615
       0.706
       0.571
       0.267
      -0.089
      -0.366
      -0.471
      -0.381
      -0.161
       0.071
       0.190
       0.116
      -0.158
      -0.576
      -1.039
      -1.432
      -1.654
      -1.645
      -1.411
      -1.025
      -0.596
      -0.230
       0.010
       0.115
       0.135
       0.152
       0.251
       0.472
       0.781
       1.087
       1.280
       1.293
       1.133
       0.875
       0.618
       0.451
       0.416
       0.500
       0.634
       0.725
       0.692
       0.506
       0.209
      -0.106
      -0.333
      -0.400
      -0.297
      -0.099
       0.059
       0.044
      -0.204
      -0.631
      -1.084
      -1.387
      -1.419
      -1.169
      -0.737
      -0.281
       0.064
       0.245
       0.299
       0.299
       0.301
       0.316
       0.328
       0.327
       0.309
       0.260
       0.153
      -0.020
      -0.219
      -0.348
      -0.317
      -0.101
       0.232
       0.554
       0.746
       0.754
       0.601
       0.363
       0.127
      -0.043
      -0.114
      -0.085
       0.020
       0.144
       0.211
       0.160
      -0.020
      -0.269
      -0.484
      -0.573
      -0.512
      -0.349
      -0.178
      -0.083
      -0.108
      -0.237
      -0.408
      -0.530
      -0.525
      -0.362
      -0.075
       0.239
       0.475
       0.573
       0.559
       0.521
       0.546
       0.665
       0.831
       0.948
       0.932
       0.755
       0.452
       0.104
      -0.204
      -0.417
      -0.523
      -0.541
      -0.505
      -0.452
      -0.415
      -0.415
      -0.451
      -0.495
      -0.495
      -0.405
      -0.217
       0.027
       0.250
       0.381
       0.392
       0.306
       0.179
       0.077
       0.059
       0.160
       0.381
       0.683
       0.986
       1.198
       1.239
       1.083
       0.773
       0.420
       0.156
       0.062
       0.123
       0.238
       0.287
       0.204
      -0.002
      -0.255
      -0.465
      -0.565
      -0.542
      -0.426
      -0.281
      -0.171
      -0.139
      -0.193
      -0.317
      -0.481
      -0.659
      -0.830
      -0.970
      -1.044
      -1.011
      -0.847
      -0.578
      -0.283
      -0.064
       0.011
      -0.053
      -0.176
      -0.252
      -0.206
      -0.029
       0.225
       0.473
       0.644
       0.710
       0.686
       0.610
       0.513
       0.413
       0.319
       0.237
       0.171
       0.111
       0.037
      -0.074
      -0.214
      -0.334
      -0.367
      -0.270
      -0.067
       0.160
       0.318
       0.361
       0.302
       0.193
       0.078
      -0.024
      -0.112
      -0.183
      -0.218
      -0.190
      -0.073
       0.134
       0.390
       0.624
       0.772
       0.806
       0.750
       0.657
       0.577
       0.530
       0.501
       0.451
       0.341
       0.152
      -0.094
      -0.337
      -0.504
      -0.559
      -0.524
      -0.474
      -0.485
      -0.580
      -0.722
      -0.843
      -0.900
      -0.888
      -0.827
      -0.742
      -0.646
      -0.545
      -0.433
      -0.301
      -0.143
       0.037
       0.232
       0.440
       0.670
       0.923
       1.177
       1.388
       1.506
       1.493
       1.328
       1.009
       0.571
       0.095
      -0.309
      -0.540
      -0.560
      -0.412
      -0.200
      -0.035
       0.017
      -0.032
      -0.117
      -0.175
      -0.198
      -0.233
      -0.347
      -0.565
      -0.843
      -1.087
      -1.200
      -1.126
      -0.870
      -0.490
      -0.068
       0.319
       0.604
       0.741
       0.709
       0.532
       0.286
       0.078
      -0.001
       0.067
       0.219
       0.350
       0.375
       0.275
       0.093
      -0.092
      -0.215
      -0.247
      -0.198
      -0.097
       0.034
       0.183
       0.327
       0.425
       0.417
       0.269
       0.002
      -0.302
      -0.540
      -0.647
      -0.623
      -0.518
      -0.393
      -0.293
      -0.241
      -0.249
      -0.320
      -0.452
      -0.619
      -0.765
      -0.820
      -0.735
      -0.516
      -0.228
       0.043
       0.242
       0.372
       0.471
       0.573
       0.675
       0.753
       0.784
       0.764
       0.704
       0.610
       0.473
       0.266
      -0.024
      -0.370
      -0.702
      -0.932
      -1.003
      -0.920
      -0.731
      -0.489
      -0.229
       0.020
       0.211
       0.278
       0.187
      -0.021
      -0.241
      -0.364
      -0.345
      -0.223
      -0.086
      -0.022
      -0.068
      -0.200
      -0.344
      -0.406
