Origin Time       16/4/2013 01:23:19	 UTC
Lat.              26.3 N	
Long.             92.0 E	
Depth (Km)         16.0
Magnitude         4.6
 Region           Assam-Darrang                                                    
 Above details taken from IMD 
    
Station Code      DIB
Station Lat.       27.467  N
Station Long.      94.912  E
Station Height(m)  129.0
Site Class        C   Vs30 between 200 m/sec to 375 m/sec *  
Record Time       16.04.2013 08:33:27.664 UTC
Sampling Rate     200. Hz
 Record Duration   80.030 Sec.
 Direction         N-S (N positive)
Max. Acceleration     -2.918 cm/sec**2
     
  * For reference see Site Classification link of website 
     
 Base Line Corrected and Low Pass Filtered (Cut Off at 35 Hz) Time History
 Acceleration data in cm/sec**2
    
[...]
      -0.161
      -0.114
      -0.061
      -0.013
       0.017
       0.017
      -0.008
      -0.041
      -0.066
      -0.072
      -0.060
      -0.031
       0.011
       0.062
       0.115
       0.166
       0.216
       0.266
       0.314
       0.351
       0.370
       0.365
       0.339
       0.300
       0.256
       0.216
       0.182
       0.155
       0.127
       0.093
       0.054
       0.016
      -0.014
      -0.032
      -0.041
      -0.045
      -0.050
      -0.058
      -0.072
      -0.089
      -0.107
      -0.126
      -0.145
      -0.164
      -0.178
      -0.180
      -0.169
      -0.148
      -0.126
      -0.114
      -0.117
      -0.134
      -0.158
      -0.180
      -0.189
      -0.179
      -0.150
      -0.106
      -0.053
       0.004
       0.061
       0.109
       0.137
       0.136
       0.107
       0.063
       0.031
       0.025
       0.043
       0.067
       0.079
       0.076
       0.066
       0.058
       0.054
       0.049
       0.038
       0.025
       0.015
       0.014
       0.018
       0.020
       0.009
      -0.016
      -0.049
      -0.077
      -0.093
      -0.095
      -0.089
      -0.081
      -0.075
      -0.071
      -0.067
      -0.064
      -0.065
      -0.070
      -0.078
      -0.084
      -0.087
      -0.093
      -0.105
      -0.122
      -0.136
      -0.131
      -0.101
      -0.047
       0.019
       0.086
       0.143
       0.191
       0.233
       0.267
       0.289
       0.297
       0.292
       0.281
       0.275
       0.279
       0.290
       0.297
       0.285
       0.246
       0.186
       0.122
       0.073
       0.046
       0.034
       0.026
       0.020
       0.018
       0.025
       0.039
       0.052
       0.049
       0.023
      -0.024
      -0.080
      -0.132
      -0.173
      -0.206
      -0.242
      -0.285
      -0.330
      -0.361
      -0.366
      -0.340
      -0.285
      -0.208
      -0.116
      -0.021
       0.061
       0.116
       0.135
       0.120
       0.077
       0.020
      -0.038
      -0.085
      -0.108
      -0.109
      -0.095
      -0.081
      -0.078
      -0.087
      -0.097
      -0.094
      -0.067
      -0.014
       0.056
       0.124
       0.170
       0.191
       0.189
       0.174
       0.144
       0.096
       0.035
      -0.024
      -0.066
      -0.084
      -0.084
      -0.073
      -0.050
      -0.015
       0.027
       0.064
       0.090
       0.103
       0.106
       0.099
       0.081
       0.051
       0.011
      -0.036
      -0.087
      -0.138
      -0.179
      -0.199
      -0.193
      -0.162
      -0.112
      -0.051
       0.011
       0.062
       0.089
       0.089
       0.072
       0.058
       0.065
       0.098
       0.144
       0.184
       0.203
       0.200
       0.181
       0.159
       0.139
       0.119
       0.098
       0.077
       0.063
       0.063
       0.075
       0.090
       0.094
       0.083
       0.059
       0.034
       0.018
       0.016
       0.017
       0.006
      -0.032
      -0.097
      -0.170
      -0.228
      -0.250
      -0.229
      -0.172
      -0.096
      -0.025
       0.015
       0.012
      -0.025
      -0.070
      -0.097
      -0.093
      -0.062
      -0.013
       0.044
       0.100
       0.152
       0.193
       0.219
       0.225
       0.208
       0.171
       0.122
       0.070
       0.022
      -0.015
      -0.035
      -0.026
       0.019
       0.093
       0.174
       0.237
       0.261
       0.240
       0.177
       0.087
      -0.013
      -0.104
      -0.164
      -0.183
      -0.166
      -0.132
      -0.102
      -0.089
      -0.095
      -0.115
      -0.142
      -0.164
      -0.169
      -0.148
      -0.105
      -0.055
      -0.018
      -0.004
      -0.011
      -0.029
      -0.049
      -0.065
      -0.074
      -0.075
      -0.065
      -0.043
      -0.003
       0.054
       0.121
       0.178
       0.206
       0.198
       0.162
       0.116
       0.074
       0.046
       0.034
       0.041
       0.067
       0.111
       0.168
       0.221
       0.250
       0.241
       0.194
       0.129
       0.070
       0.030
       0.007
      -0.013
      -0.038
      -0.063
      -0.073
      -0.067
      -0.055
      -0.060
      -0.090
      -0.136
      -0.176
      -0.188
      -0.166
      -0.119
      -0.066
      -0.025
      -0.007
      -0.019
      -0.060
      -0.121
      -0.185
      -0.236
      -0.263
      -0.266
      -0.251
      -0.225
      -0.193
      -0.158
      -0.127
      -0.101
      -0.082
      -0.063
      -0.038
      -0.006
       0.030
       0.059
       0.072
       0.067
       0.050
       0.027
       0.004
      -0.018
      -0.038
      -0.052
      -0.056
      -0.049
      -0.039
      -0.033
      -0.035
      -0.041
      -0.045
      -0.042
      -0.032
      -0.014
       0.008
       0.029
       0.046
       0.057
       0.062
       0.067
       0.073
       0.078
       0.074
       0.055
       0.017
      -0.038
      -0.103
      -0.165
      -0.207
      -0.215
      -0.184
      -0.126
      -0.062
      -0.007
       0.034
       0.063
       0.083
       0.091
       0.083
       0.062
       0.044
       0.043
       0.069
       0.116
       0.167
       0.207
       0.231
       0.240
       0.241
       0.236
       0.220
       0.186
       0.134
       0.073
       0.018
      -0.018
      -0.030
      -0.032
      -0.043
      -0.077
      -0.135
      -0.200
      -0.255
      -0.285
      -0.287
      -0.265
      -0.224
      -0.172
      -0.114
      -0.062
      -0.025
      -0.016
      -0.039
      -0.090
      -0.154
      -0.205
      -0.221
      -0.194
      -0.136
      -0.067
      -0.005
       0.038
       0.052
       0.038
      -0.001
      -0.051
      -0.100
      -0.136
      -0.151
      -0.143
      -0.109
      -0.057
       0.002
       0.046
       0.058
       0.031
      -0.031
      -0.112
      -0.198
      -0.270
      -0.318
      -0.337
      -0.327
      -0.296
      -0.251
      -0.200
      -0.150
      -0.116
      -0.106
      -0.121
      -0.152
      -0.181
      -0.196
      -0.189
      -0.161
      -0.119
      -0.072
      -0.030
      -0.007
      -0.013
      -0.050
      -0.104
      -0.148
      -0.153
      -0.098
       0.013
       0.154
       0.286
       0.374
       0.398
       0.365
       0.303
       0.247
       0.225
       0.242
       0.283
       0.322
       0.340
       0.329
       0.298
       0.261
       0.227
       0.193
       0.146
       0.083
       0.014
      -0.036
      -0.044
      -0.004
       0.075
       0.170
       0.257
       0.321
       0.353
       0.357
       0.336
       0.302
       0.264
       0.234
       0.219
       0.227
       0.256
       0.303
       0.357
       0.406
       0.443
       0.466
       0.478
       0.477
       0.459
       0.416
       0.343
       0.251
       0.161
       0.095
       0.065
       0.056
       0.041
      -0.001
      -0.076
      -0.166
      -0.240
      -0.278
      -0.275
      -0.238
      -0.182
      -0.118
      -0.059
      -0.017
      -0.005
      -0.028
      -0.079
      -0.136
      -0.176
      -0.176
      -0.130
      -0.051
       0.033
       0.089
       0.101
       0.075
       0.031
      -0.009
      -0.030
      -0.030
      -0.009
       0.033
       0.097
       0.181
       0.270
       0.344
       0.383
       0.378
       0.332
       0.260
       0.183
       0.119
       0.077
       0.055
       0.042
       0.028
       0.005
      -0.021
      -0.046
      -0.068
      -0.092
      -0.126
      -0.169
      -0.217
      -0.267
      -0.320
      -0.376
      -0.432
      -0.477
      -0.500
      -0.494
      -0.459
      -0.410
      -0.366
      -0.349
      -0.365
      -0.403
      -0.434
      -0.427
      -0.367
      -0.262
      -0.136
      -0.018
       0.074
       0.129
       0.150
       0.146
       0.134
       0.128
       0.127
       0.124
       0.110
       0.087
       0.066
       0.058
       0.062
       0.068
       0.063
       0.045
       0.018
      -0.014
      -0.051
      -0.094
      -0.144
      -0.193
      -0.230
      -0.242
      -0.227
      -0.191
      -0.151
      -0.123
      -0.117
      -0.129
      -0.147
      -0.159
      -0.160
      -0.155
      -0.148
      -0.145
      -0.149
      -0.168
      -0.208
      -0.270
      -0.337
      -0.381
      -0.370
      -0.288
      -0.140
       0.045
       0.223
       0.351
       0.398
       0.358
       0.253
       0.126
       0.023
      -0.018
       0.014
       0.108
       0.233
       0.349
       0.422
       0.433
       0.380
       0.278
       0.146
       0.007
      -0.116
      -0.200
      -0.229
      -0.198
      -0.125
      -0.035
       0.043
       0.094
       0.115
       0.116
       0.104
       0.084
       0.057
       0.030
       0.017
       0.036
       0.094
       0.178
       0.256
       0.297
       0.292
       0.254
       0.208
       0.175
       0.158
       0.156
       0.170
       0.202
       0.254
       0.313
       0.361
       0.376
       0.340
       0.252
       0.122
      -0.024
      -0.157
      -0.258
      -0.325
      -0.372
      -0.416
      -0.470
      -0.533
      -0.590
      -0.622
      -0.616
      -0.567
      -0.482
      -0.378
      -0.274
      -0.183
      -0.106
      -0.031
       0.055
       0.154
       0.250
       0.316
       0.331
       0.294
       0.224
       0.146
       0.078
       0.033
       0.020
       0.044
       0.106
       0.191
       0.271
       0.320
       0.326
       0.302
       0.274
       0.261
       0.267
       0.274
       0.267
       0.244
       0.213
       0.180
       0.141
       0.086
       0.010
      -0.076
      -0.152
      -0.200
      -0.210
      -0.185
      -0.135
      -0.070
       0.002
       0.070
       0.122
       0.142
       0.122
       0.070
       0.001
      -0.066
      -0.121
      -0.155
      -0.164
      -0.140
      -0.078
       0.015
       0.120
       0.210
       0.260
       0.260
       0.218
       0.156
       0.095
       0.052
       0.033
       0.034
       0.046
       0.064
       0.085
       0.112
       0.144
       0.169
       0.170
       0.135
       0.066
      -0.020
      -0.101
      -0.161
      -0.199
      -0.216
      -0.214
      -0.195
      -0.169
      -0.154
      -0.168
      -0.221
      -0.304
      -0.395
      -0.461
      -0.478
      -0.437
      -0.347
      -0.232
      -0.118
      -0.025
       0.034
       0.051
       0.027
      -0.032
      -0.105
      -0.162
      -0.175
      -0.132
      -0.041
       0.070
       0.170
       0.234
       0.249
       0.209
       0.118
      -0.002
      -0.114
      -0.183
      -0.189
      -0.142
      -0.063
       0.020
       0.094
       0.149
       0.178
       0.169
       0.108
      -0.008
      -0.164
      -0.325
      -0.455
      -0.531
      -0.546
      -0.509
      -0.435
      -0.341
      -0.250
      -0.188
      -0.178
      -0.231
      -0.330
      -0.438
      -0.512
      -0.521
      -0.460
      -0.347
      -0.211
      -0.078
       0.029
       0.100
       0.128
       0.110
       0.044
      -0.067
      -0.213
      -0.369
      -0.503
      -0.587
      -0.604
      -0.554
      -0.450
      -0.321
      -0.198
      -0.109
      -0.070
      -0.081
      -0.126
      -0.177
      -0.209
      -0.203
      -0.160
      -0.099
      -0.046
      -0.030
      -0.072
      -0.185
      -0.360
      -0.569
      -0.766
      -0.901
      -0.940
      -0.874
      -0.725
      -0.534
      -0.344
      -0.187
      -0.078
      -0.020
      -0.007
      -0.033
      -0.086
      -0.148
      -0.201
      -0.229
      -0.230
      -0.209
      -0.178
      -0.144
      -0.103
      -0.047
       0.032
       0.132
       0.241
       0.346
       0.443
       0.534
       0.622
       0.701
       0.752
       0.758
       0.721
       0.664
       0.624
       0.632
       0.690
       0.777
       0.856
       0.902
       0.906
       0.874
       0.822
       0.761
       0.701
       0.645
       0.605
       0.592
       0.617
       0.681
       0.769
       0.862
       0.942
       1.001
       1.037
       1.045
       1.020
       0.957
       0.861
       0.747
       0.643
       0.579
       0.574
       0.637
       0.758
       0.919
       1.097
       1.273
       1.426
       1.544
       1.615
       1.637
       1.619
       1.571
       1.503
       1.413
       1.300
       1.171
       1.046
       0.948
       0.881
       0.830
       0.765
       0.665
       0.520
       0.336
       0.119
      -0.124
      -0.386
      -0.645
      -0.870
      -1.020
      -1.066
      -0.997
      -0.835
      -0.623
      -0.413
      -0.236
      -0.103
      -0.006
       0.063
       0.104
       0.119
       0.126
       0.160
       0.258
       0.434
       0.672
       0.930
       1.164
       1.343
       1.452
       1.486
       1.448
       1.348
       1.203
       1.033
       0.853
       0.667
       0.465
       0.233
      -0.039
      -0.341
      -0.646
      -0.918
      -1.131
      -1.273
      -1.350
      -1.375
      -1.368
      -1.354
      -1.369
      -1.443
      -1.591
      -1.805
      -2.056
      -2.307
      -2.528
      -2.701
      -2.820
      -2.889
      -2.917
      -2.918
      -2.902
      -2.881
      -2.860
      -2.835
      -2.794
      -2.714
      -2.574
      -2.365
      -2.091
      -1.766
      -1.402
      -1.009
      -0.603
      -0.205
       0.156
       0.458
       0.696
       0.883
       1.044
       1.202
       1.365
       1.525
       1.660
       1.752
       1.790
       1.771
       1.692
       1.550
       1.342
       1.077
       0.781
       0.490
       0.236
       0.030
      -0.132
      -0.263
      -0.370
      -0.449
      -0.488
      -0.480
      -0.439
      -0.394
      -0.378
      -0.413
      -0.507
      -0.649
      -0.819
      -0.984
      -1.111
      -1.164
      -1.120
      -0.971
      -0.730
      -0.423
      -0.079
       0.285
       0.661
       1.039
       1.400
       1.716
       1.954
       2.091
       2.112
       2.011
       1.792
       1.476
       1.097
       0.691
       0.288
      -0.097
      -0.449
      -0.757
      -1.001
      -1.158
      -1.214
      -1.162
      -1.012
      -0.781
      -0.491
      -0.172
       0.135
       0.384
       0.538
       0.584
       0.529
       0.390
       0.175
      -0.109
      -0.445
      -0.797
      -1.114
      -1.344
      -1.454
      -1.431
      -1.279
      -1.013
      -0.659
      -0.260
       0.132
       0.463
       0.697
       0.836
       0.919
       0.994
       1.096
       1.219
       1.333
       1.402
       1.403
       1.330
       1.186
       0.979
       0.718
       0.419
       0.108
      -0.186
      -0.439
      -0.639
      -0.797
      -0.932
      -1.065
      -1.198
      -1.311
      -1.375
      -1.370
      -1.300
      -1.194
      -1.089
      -1.017
      -0.992
      -1.003
      -1.022
      -1.009
      -0.920
      -0.717
      -0.382
       0.071
       0.592
       1.104
       1.533
       1.831
       1.989
       2.030
       1.989
       1.899
       1.785
       1.660
       1.532
       1.399
       1.261
       1.125
       1.004
       0.902
       0.810
       0.699
       0.537
       0.306
       0.014
      -0.306
      -0.613
      -0.869
      -1.051
      -1.149
      -1.166
      -1.112
      -1.007
      -0.872
      -0.729
      -0.597
      -0.491
      -0.430
      -0.431
      -0.502
      -0.634
      -0.801
      -0.964
      -1.079
      -1.100
      -0.989
      -0.730
      -0.342
       0.121
       0.587
       0.994
       1.306
       1.516
       1.635
       1.677
       1.647
       1.539
       1.344
       1.064
       0.719
       0.355
       0.024
      -0.228
      -0.375
      -0.419
      -0.377
      -0.282
      -0.172
      -0.086
      -0.057
      -0.100
      -0.213
      -0.386
      -0.605
      -0.860
      -1.141
      -1.422
      -1.658
      -1.795
      -1.788
      -1.619
      -1.311
      -0.918
      -0.507
      -0.132
       0.185
       0.445
       0.669
       0.873
       1.061
       1.218
       1.310
       1.302
       1.177
       0.961
       0.714
       0.513
       0.416
       0.450
       0.606
       0.855
       1.159
       1.477
       1.768
       1.993
       2.123
       2.137
       2.019
       1.750
       1.318
       0.728
       0.024
      -0.715
      -1.394
      -1.927
      -2.261
      -2.393
      -2.358
      -2.212
      -2.007
      -1.773
      -1.522
      -1.248
      -0.951
      -0.648
      -0.376
      -0.180
      -0.093
      -0.122
      -0.247
      -0.434
      -0.640
      -0.830
      -0.978
      -1.080
      -1.141
      -1.167
      -1.149
      -1.068
      -0.896
      -0.624
      -0.266
       0.139
       0.542
       0.896
       1.170
       1.348
       1.423
       1.397
       1.277
       1.079
       0.827
       0.556
       0.303
       0.095
      -0.066
      -0.199
      -0.337
      -0.501
      -0.692
      -0.882
      -1.034
      -1.113
      -1.096
      -0.981
      -0.780
      -0.521
      -0.242
       0.015
       0.212
       0.325
       0.354
       0.323
       0.273
       0.253
       0.302
       0.433
       0.632
       0.865
       1.094
       1.295
       1.456
       1.567
       1.613
       1.583
       1.479
       1.332
       1.187
       1.076
       1.004
       0.946
       0.871
       0.764
       0.630
       0.496
       0.395
       0.354
       0.385
       0.478
       0.602
       0.715
       0.783
       0.785
       0.720
       0.599
       0.444
       0.278
       0.130
       0.017
      -0.065
      -0.143
      -0.253
      -0.419
      -0.633
      -0.860
      -1.050
      -1.161
      -1.173
      -1.096
      -0.962
      -0.822
      -0.720
      -0.680
      -0.694
      -0.730
      -0.748
      -0.724
      -0.657
      -0.563
      -0.468
      -0.401
      -0.379
      -0.406
      -0.461
      -0.502
      -0.483
      -0.373
      -0.168
       0.106
       0.397
       0.638
       0.769
       0.762
       0.624
       0.386
       0.088
      -0.238
      -0.558
      -0.836
      -1.042
      -1.162
      -1.212
      -1.221
      -1.211
      -1.186
      -1.139
      -1.060
      -0.952
      -0.822
      -0.677
      -0.519
      -0.348
      -0.165
       0.028
       0.230
       0.431
       0.607
       0.723
       0.746
       0.664
       0.491
       0.260
       0.011
      -0.215
      -0.378
      -0.448
      -0.415
      -0.300
      -0.144
       0.003
       0.110
       0.168
       0.193
       0.212
       0.255
       0.334
       0.442
       0.548
       0.620
       0.642
       0.615
       0.555
       0.477
       0.390
       0.301
       0.211
       0.116
       0.016
      -0.087
      -0.178
      -0.241
      -0.262
      -0.240
      -0.177
      -0.073
       0.068
       0.229
       0.377
       0.481
       0.527
