Origin Time       16/4/2013 01:23:19	
Lat.              26.3 N	
Long.             92.0 E	
Depth (Km)         16.0
Magnitude         4.6
 Region           Assam-Darrang                                                    
 Above details taken from IMD 
     
Station Code      DIB
Station Lat.       27.467  N
Station Long.      94.912  E
Station Height(m)  129.0
Site Class        C   Vs30 between 200 m/sec to 375 m/sec *  
Record Time       16.04.2013 08:33:27.664
Sampling Rate     200. Hz
 Record Duration   80.030 Sec.
 Direction         E-W (E positive)
Max. Acceleration      2.950 cm/sec**2
     
  * For reference see Site Classification link of website 
     
 Base Line Corrected and Low Pass Filtered (Cut Off at 35 Hz) Time History
 Acceleration data in cm/sec**2
    
[...]
      -0.189
      -0.172
      -0.127
      -0.068
      -0.020
       0.003
       0.001
      -0.015
      -0.038
      -0.064
      -0.094
      -0.126
      -0.158
      -0.186
      -0.208
      -0.223
      -0.230
      -0.230
      -0.227
      -0.223
      -0.223
      -0.228
      -0.239
      -0.252
      -0.255
      -0.238
      -0.194
      -0.128
      -0.052
       0.020
       0.081
       0.126
       0.157
       0.178
       0.197
       0.221
       0.248
       0.264
       0.254
       0.212
       0.148
       0.087
       0.050
       0.051
       0.086
       0.141
       0.195
       0.230
       0.235
       0.213
       0.175
       0.132
       0.085
       0.031
      -0.033
      -0.102
      -0.167
      -0.214
      -0.232
      -0.209
      -0.147
      -0.058
       0.033
       0.102
       0.134
       0.132
       0.108
       0.075
       0.045
       0.026
       0.019
       0.018
       0.017
       0.017
       0.021
       0.033
       0.045
       0.048
       0.036
       0.017
       0.007
       0.013
       0.037
       0.074
       0.118
       0.161
       0.194
       0.203
       0.184
       0.139
       0.082
       0.025
      -0.021
      -0.054
      -0.077
      -0.094
      -0.106
      -0.109
      -0.098
      -0.077
      -0.059
      -0.064
      -0.102
      -0.166
      -0.232
      -0.276
      -0.281
      -0.241
      -0.163
      -0.064
       0.035
       0.113
       0.156
       0.165
       0.149
       0.117
       0.077
       0.034
      -0.008
      -0.043
      -0.068
      -0.079
      -0.070
      -0.036
       0.019
       0.078
       0.120
       0.131
       0.112
       0.081
       0.055
       0.044
       0.046
       0.051
       0.048
       0.031
       0.002
      -0.031
      -0.054
      -0.059
      -0.045
      -0.020
       0.007
       0.029
       0.041
       0.045
       0.046
       0.048
       0.052
       0.058
       0.065
       0.074
       0.088
       0.107
       0.130
       0.154
       0.181
       0.216
       0.258
       0.299
       0.322
       0.314
       0.272
       0.207
       0.137
       0.084
       0.062
       0.069
       0.091
       0.106
       0.099
       0.066
       0.017
      -0.034
      -0.075
      -0.101
      -0.114
      -0.115
      -0.111
      -0.103
      -0.094
      -0.086
      -0.085
      -0.097
      -0.126
      -0.171
      -0.220
      -0.260
      -0.279
      -0.275
      -0.249
      -0.208
      -0.162
      -0.123
      -0.091
      -0.066
      -0.042
      -0.014
       0.016
       0.047
       0.077
       0.109
       0.143
       0.177
       0.208
       0.232
       0.247
       0.249
       0.233
       0.197
       0.149
       0.095
       0.043
      -0.001
      -0.035
      -0.054
      -0.058
      -0.052
      -0.043
      -0.041
      -0.048
      -0.064
      -0.080
      -0.085
      -0.069
      -0.030
       0.021
       0.062
       0.078
       0.062
       0.028
      -0.011
      -0.043
      -0.061
      -0.064
      -0.050
      -0.024
       0.007
       0.036
       0.061
       0.082
       0.094
       0.090
       0.061
       0.015
      -0.030
      -0.048
      -0.026
       0.035
       0.116
       0.193
       0.243
       0.253
       0.224
       0.168
       0.102
       0.033
      -0.037
      -0.109
      -0.180
      -0.241
      -0.285
      -0.306
      -0.305
      -0.285
      -0.258
      -0.233
      -0.220
      -0.215
      -0.211
      -0.194
      -0.163
      -0.127
      -0.104
      -0.110
      -0.149
      -0.217
      -0.300
      -0.384
      -0.457
      -0.508
      -0.532
      -0.519
      -0.466
      -0.372
      -0.251
      -0.122
      -0.010
       0.069
       0.108
       0.110
       0.080
       0.027
      -0.036
      -0.090
      -0.124
      -0.135
      -0.128
      -0.111
      -0.089
      -0.065
      -0.047
      -0.038
      -0.035
      -0.029
      -0.010
       0.020
       0.054
       0.078
       0.084
       0.075
       0.057
       0.038
       0.022
       0.010
      -0.003
      -0.021
      -0.045
      -0.068
      -0.081
      -0.078
      -0.058
      -0.029
       0.001
       0.019
       0.027
       0.032
       0.048
       0.079
       0.119
       0.152
       0.167
       0.160
       0.136
       0.106
       0.076
       0.051
       0.033
       0.022
       0.014
       0.008
       0.004
       0.011
       0.037
       0.085
       0.150
       0.218
       0.265
       0.272
       0.229
       0.147
       0.058
      -0.002
      -0.009
       0.032
       0.100
       0.164
       0.204
       0.221
       0.227
       0.240
       0.264
       0.286
       0.284
       0.245
       0.172
       0.087
       0.014
      -0.029
      -0.041
      -0.031
      -0.014
      -0.006
      -0.015
      -0.036
      -0.056
      -0.057
      -0.033
       0.007
       0.046
       0.066
       0.056
       0.014
      -0.052
      -0.128
      -0.197
      -0.245
      -0.266
      -0.261
      -0.235
      -0.194
      -0.147
      -0.099
      -0.056
      -0.019
       0.008
       0.018
       0.000
      -0.052
      -0.128
      -0.206
      -0.260
      -0.279
      -0.269
      -0.240
      -0.201
      -0.154
      -0.101
      -0.041
       0.025
       0.096
       0.169
       0.239
       0.298
       0.339
       0.355
       0.346
       0.311
       0.254
       0.179
       0.090
      -0.007
      -0.102
      -0.190
      -0.266
      -0.328
      -0.369
      -0.385
      -0.376
      -0.349
      -0.321
      -0.308
      -0.310
      -0.315
      -0.298
      -0.239
      -0.135
      -0.001
       0.133
       0.235
       0.279
       0.262
       0.198
       0.110
       0.020
      -0.054
      -0.104
      -0.121
      -0.095
      -0.024
       0.091
       0.236
       0.389
       0.529
       0.638
       0.697
       0.692
       0.618
       0.490
       0.333
       0.175
       0.035
      -0.077
      -0.158
      -0.210
      -0.241
      -0.261
      -0.276
      -0.281
      -0.265
      -0.218
      -0.137
      -0.037
       0.064
       0.150
       0.211
       0.246
       0.258
       0.249
       0.221
       0.173
       0.109
       0.037
      -0.027
      -0.065
      -0.068
      -0.040
       0.006
       0.053
       0.096
       0.136
       0.179
       0.228
       0.283
       0.343
       0.405
       0.466
       0.516
       0.540
       0.525
       0.464
       0.363
       0.244
       0.128
       0.034
      -0.031
      -0.072
      -0.092
      -0.098
      -0.093
      -0.080
      -0.067
      -0.060
      -0.068
      -0.097
      -0.146
      -0.209
      -0.273
      -0.324
      -0.349
      -0.345
      -0.314
      -0.268
      -0.221
      -0.184
      -0.159
      -0.142
      -0.128
      -0.118
      -0.120
      -0.140
      -0.169
      -0.190
      -0.177
      -0.114
      -0.006
       0.126
       0.248
       0.332
       0.362
       0.341
       0.285
       0.212
       0.137
       0.069
       0.005
      -0.062
      -0.138
      -0.225
      -0.311
      -0.383
      -0.430
      -0.453
      -0.462
      -0.471
      -0.483
      -0.490
      -0.473
      -0.411
      -0.299
      -0.152
       0.000
       0.121
       0.188
       0.191
       0.139
       0.048
      -0.057
      -0.154
      -0.222
      -0.255
      -0.257
      -0.244
      -0.234
      -0.232
      -0.227
      -0.197
      -0.125
      -0.010
       0.130
       0.265
       0.372
       0.437
       0.459
       0.443
       0.389
       0.293
       0.155
      -0.019
      -0.210
      -0.382
      -0.496
      -0.524
      -0.458
      -0.321
      -0.149
       0.017
       0.147
       0.233
       0.284
       0.318
       0.352
       0.392
       0.430
       0.455
       0.458
       0.437
       0.400
       0.360
       0.327
       0.301
       0.274
       0.234
       0.175
       0.101
       0.029
      -0.020
      -0.027
       0.017
       0.107
       0.220
       0.324
       0.388
       0.398
       0.358
       0.290
       0.219
       0.159
       0.112
       0.068
       0.018
      -0.038
      -0.088
      -0.113
      -0.097
      -0.041
       0.038
       0.107
       0.134
       0.109
       0.050
      -0.006
      -0.021
       0.024
       0.112
       0.202
       0.245
       0.212
       0.107
      -0.036
      -0.175
      -0.275
      -0.326
      -0.338
      -0.327
      -0.303
      -0.266
      -0.206
      -0.117
      -0.004
       0.114
       0.211
       0.261
       0.251
       0.183
       0.079
      -0.033
      -0.131
      -0.202
      -0.244
      -0.260
      -0.260
      -0.260
      -0.270
      -0.290
      -0.312
      -0.324
      -0.321
      -0.309
      -0.295
      -0.288
      -0.291
      -0.303
      -0.325
      -0.359
      -0.406
      -0.467
      -0.533
      -0.588
      -0.609
      -0.576
      -0.483
      -0.348
      -0.202
      -0.078
      -0.002
       0.021
      -0.002
      -0.058
      -0.134
      -0.221
      -0.313
      -0.399
      -0.465
      -0.497
      -0.482
      -0.413
      -0.296
      -0.153
      -0.019
       0.069
       0.082
       0.015
      -0.110
      -0.254
      -0.370
      -0.429
      -0.422
      -0.367
      -0.292
      -0.227
      -0.190
      -0.184
      -0.197
      -0.212
      -0.211
      -0.181
      -0.118
      -0.027
       0.085
       0.210
       0.345
       0.487
       0.624
       0.740
       0.815
       0.841
       0.829
       0.801
       0.780
       0.780
       0.803
       0.843
       0.895
       0.952
       1.016
       1.086
       1.159
       1.224
       1.271
       1.294
       1.299
       1.293
       1.280
       1.258
       1.220
       1.164
       1.090
       1.004
       0.916
       0.832
       0.759
       0.696
       0.639
       0.583
       0.526
       0.476
       0.447
       0.448
       0.474
       0.508
       0.527
       0.522
       0.498
       0.471
       0.460
       0.475
       0.512
       0.564
       0.614
       0.649
       0.658
       0.633
       0.574
       0.492
       0.404
       0.333
       0.293
       0.287
       0.307
       0.336
       0.352
       0.334
       0.261
       0.116
      -0.102
      -0.386
      -0.720
      -1.084
      -1.452
      -1.789
      -2.060
      -2.233
      -2.291
      -2.235
      -2.087
      -1.889
      -1.687
      -1.523
      -1.422
      -1.392
      -1.429
      -1.524
      -1.667
      -1.851
      -2.065
      -2.294
      -2.511
      -2.680
      -2.772
      -2.776
      -2.699
      -2.558
      -2.371
      -2.150
      -1.910
      -1.665
      -1.427
      -1.201
      -0.984
      -0.774
      -0.575
      -0.401
      -0.269
      -0.189
      -0.157
      -0.162
      -0.191
      -0.239
      -0.303
      -0.378
      -0.445
      -0.477
      -0.440
      -0.313
      -0.091
       0.211
       0.559
       0.911
       1.227
       1.484
       1.680
       1.829
       1.949
       2.048
       2.121
       2.158
       2.149
       2.093
       1.995
       1.872
       1.739
       1.610
       1.491
       1.384
       1.298
       1.248
       1.252
       1.325
       1.467
       1.660
       1.866
       2.037
       2.128
       2.103
       1.945
       1.661
       1.281
       0.840
       0.373
      -0.099
      -0.566
      -1.018
      -1.433
      -1.777
      -2.004
      -2.076
      -1.974
      -1.714
      -1.336
      -0.893
      -0.436
       0.000
       0.397
       0.740
       1.019
       1.218
       1.324
       1.332
       1.255
       1.124
       0.974
       0.832
       0.699
       0.561
       0.403
       0.225
       0.044
      -0.124
      -0.272
      -0.400
      -0.503
      -0.568
      -0.590
      -0.578
      -0.556
      -0.551
      -0.578
      -0.636
      -0.716
      -0.809
      -0.909
      -1.014
      -1.113
      -1.185
      -1.205
      -1.152
      -1.023
      -0.833
      -0.621
      -0.432
      -0.309
      -0.275
      -0.321
      -0.414
      -0.503
      -0.555
      -0.557
      -0.520
      -0.453
      -0.347
      -0.176
       0.087
       0.450
       0.891
       1.360
       1.789
       2.105
       2.254
       2.214
       1.999
       1.659
       1.258
       0.863
       0.516
       0.236
       0.014
      -0.168
      -0.322
      -0.447
      -0.524
      -0.533
      -0.462
      -0.317
      -0.119
       0.098
       0.296
       0.452
       0.554
       0.601
       0.597
       0.540
       0.427
       0.253
       0.015
      -0.285
      -0.630
      -0.979
      -1.268
      -1.427
      -1.405
      -1.195
      -0.833
      -0.382
       0.084
       0.504
       0.830
       1.030
       1.088
       1.007
       0.803
       0.506
       0.154
      -0.216
      -0.571
      -0.888
      -1.153
      -1.367
      -1.545
      -1.708
      -1.861
      -1.983
      -2.034
      -1.975
      -1.791
      -1.497
      -1.124
      -0.715
      -0.308
       0.063
       0.375
       0.616
       0.773
       0.830
       0.770
       0.581
       0.273
      -0.121
      -0.548
      -0.945
      -1.255
      -1.437
      -1.477
      -1.386
      -1.189
      -0.905
      -0.537
      -0.074
       0.485
       1.116
       1.759
       2.330
       2.748
       2.950
       2.914
       2.653
       2.214
       1.660
       1.056
       0.462
      -0.080
      -0.542
      -0.908
      -1.161
      -1.277
      -1.238
      -1.043
      -0.728
      -0.359
      -0.023
       0.204
       0.277
       0.195
      -0.010
      -0.284
      -0.570
      -0.824
      -1.023
      -1.163
      -1.252
      -1.294
      -1.277
      -1.180
      -0.986
      -0.697
      -0.336
       0.053
       0.424
       0.733
       0.957
       1.096
       1.164
       1.180
       1.153
       1.082
       0.965
       0.806
       0.621
       0.430
       0.255
       0.112
       0.005
      -0.075
      -0.146
      -0.223
      -0.305
      -0.377
      -0.415
      -0.396
      -0.313
      -0.174
      -0.008
       0.143
       0.236
       0.244
       0.166
       0.036
      -0.092
      -0.160
      -0.130
       0.003
       0.212
       0.452
       0.673
       0.829
       0.889
       0.835
       0.667
       0.408
       0.093
      -0.240
      -0.554
      -0.806
      -0.952
      -0.952
      -0.793
      -0.507
      -0.162
       0.158
       0.389
       0.507
       0.532
       0.509
       0.485
       0.480
       0.491
       0.496
       0.469
       0.395
       0.279
       0.135
      -0.015
      -0.164
      -0.320
      -0.494
      -0.685
      -0.868
      -0.997
      -1.026
      -0.932
      -0.723
      -0.439
      -0.148
       0.081
       0.202
       0.205
       0.114
      -0.036
      -0.214
      -0.396
      -0.558
      -0.669
      -0.692
      -0.602
      -0.398
      -0.109
       0.210
       0.495
       0.694
       0.784
       0.783
       0.733
       0.673
       0.626
       0.592
       0.566
       0.545
       0.530
       0.517
       0.492
       0.437
       0.332
       0.173
      -0.024
      -0.227
      -0.402
      -0.530
      -0.606
      -0.635
      -0.628
      -0.599
      -0.558
      -0.512
      -0.448
      -0.347
      -0.188
       0.037
       0.315
       0.619
       0.908
       1.135
       1.249
       1.221
       1.056
       0.798
       0.510
       0.244
       0.030
      -0.133
      -0.257
      -0.353
      -0.432
      -0.501
      -0.568
      -0.630
      -0.675
      -0.685
      -0.643
      -0.546
      -0.402
      -0.224
      -0.027
       0.169
       0.345
       0.482
       0.571
       0.607
       0.592
       0.535
       0.442
       0.321
       0.180
       0.032
      -0.109
      -0.226
      -0.302
      -0.322
      -0.283
      -0.195
      -0.084
       0.021
       0.093
       0.118
       0.099
       0.050
      -0.008
      -0.062
      -0.107
      -0.149
      -0.196
      -0.249
      -0.304
      -0.351
      -0.382
      -0.391
      -0.376
      -0.339
      -0.275
      -0.179
      -0.043
       0.137
       0.348
       0.569
       0.769
       0.918
       0.993
       0.981
       0.885
       0.720
       0.515
       0.300
       0.102
      -0.064
      -0.189
      -0.262
      -0.274
      -0.218
      -0.092
       0.085
       0.278
       0.442
       0.537
       0.540
       0.455
       0.310
       0.137
      -0.031
      -0.176
      -0.293
      -0.385
      -0.456
      -0.508
      -0.538
      -0.539
      -0.503
      -0.431
      -0.336
      -0.242
      -0.180
      -0.163
      -0.187
      -0.234
      -0.284
      -0.326
      -0.363
      -0.404
      -0.461
      -0.540
      -0.634
      -0.724
      -0.784
      -0.783
      -0.706
      -0.550
      -0.335
      -0.088
       0.164
       0.403
       0.618
       0.796
       0.924
       0.984
       0.958
       0.834
       0.616
       0.326
       0.000
      -0.323
      -0.601
      -0.802
      -0.909
      -0.922
      -0.851
      -0.712
      -0.511
      -0.251
       0.052
       0.370
       0.657
       0.871
       0.979
       0.968
       0.844
       0.627
       0.349
       0.045
      -0.252
      -0.514
      -0.719
      -0.847
      -0.884
      -0.820
      -0.655
      -0.406
      -0.103
       0.215
       0.511
       0.760
       0.952
       1.091
       1.178
       1.209
       1.167
       1.041
       0.833
       0.567
       0.281
       0.018
      -0.186
      -0.317
      -0.378
      -0.388
      -0.369
      -0.338
      -0.300
      -0.249
      -0.177
      -0.077
       0.047
       0.181
       0.307
       0.405
       0.457
       0.452
       0.390
       0.281
       0.144
       0.000
      -0.135
      -0.253
      -0.357
      -0.450
      -0.533
      -0.601
      -0.644
      -0.649
      -0.609
      -0.521
      -0.397
      -0.260
      -0.132
      -0.029
       0.045
       0.095
       0.124
       0.133
       0.118
       0.080
       0.029
      -0.013
      -0.027
      -0.003
       0.058
       0.139
       0.217
       0.269
       0.281
       0.246
       0.170
       0.065
      -0.054
      -0.173
      -0.286
      -0.387
      -0.476
      -0.542
      -0.572
      -0.552
      -0.476
      -0.355
      -0.212
      -0.073
       0.044
       0.133
       0.197
       0.243
       0.278
       0.302
       0.321
       0.339
       0.360
       0.383
       0.406
       0.427
       0.445
       0.454
       0.441
       0.383
       0.259
       0.064
      -0.185
      -0.453
      -0.700
      -0.893
      -1.013
      -1.051
      -1.011
      -0.905
      -0.757
      -0.591
      -0.432
      -0.293
      -0.180
      -0.087
      -0.010
       0.060
       0.125
       0.185
       0.239
       0.282
       0.313
       0.343
       0.384
       0.450
       0.545
       0.658
       0.770
       0.861
       0.909
       0.904
       0.838
       0.712
       0.539
       0.335
       0.127
      -0.060
      -0.206
