Origin Time       04/04/2011 11:31:40
Lat.              29.6 N	
Long.             80.8 E	
Depth (Km)         10.0
Magnitude         5.7
 Region           NEPAL-INDIA-BORDER-REGION                                        
 Above details taken from IMD 
   
Station Code      DDH
Station Lat.       29.770
Station Long.      80.300
Station Height(m) 1720.0
Site Class        A   Vs30 between 700 m/sec to 1400 m/sec * 
Record Time       04.04.2011 11:31:42.524
Sampling Rate     200. Hz
 Record Duration   81.010 Sec.
 Direction         Vert. (Up positive)
Max. Acceleration     12.680 cm/sec**2
     
  * For reference see Site Classification link of website 
     
 Base Line Corrected and Low Pass Filtered (Cut Off at 35 Hz) Time History
 Acceleration data in cm/sec**2
    
[...]
       0.976
       1.705
       2.456
       2.795
       2.417
       1.507
       0.699
       0.575
       1.117
       1.654
       1.424
       0.268
      -1.181
      -2.045
      -1.983
      -1.455
      -1.231
      -1.619
      -2.151
      -2.010
      -0.821
       0.933
       2.280
       2.582
       2.046
       1.445
       1.322
       1.495
       1.303
       0.354
      -0.997
      -1.911
      -1.803
      -0.865
       0.101
       0.342
      -0.283
      -1.278
      -1.962
      -1.947
      -1.319
      -0.446
       0.345
       0.936
       1.345
       1.567
       1.550
       1.328
       1.090
       1.082
       1.390
       1.819
       1.995
       1.622
       0.682
      -0.551
      -1.646
      -2.197
      -1.994
      -1.131
       0.023
       0.994
       1.443
       1.329
       0.845
       0.202
      -0.515
      -1.264
      -1.873
      -2.036
      -1.534
      -0.512
       0.502
       0.926
       0.565
      -0.229
      -0.824
      -0.806
      -0.290
       0.209
       0.246
      -0.195
      -0.758
      -1.079
      -1.080
      -0.940
      -0.823
      -0.676
      -0.298
       0.391
       1.190
       1.728
       1.757
       1.360
       0.901
       0.727
       0.880
       1.091
       1.075
       0.828
       0.595
       0.559
       0.606
       0.429
      -0.169
      -1.068
      -1.922
      -2.426
      -2.530
      -2.404
      -2.255
      -2.171
      -2.114
      -1.995
      -1.748
      -1.367
      -0.888
      -0.342
       0.260
       0.873
       1.368
       1.576
       1.420
       1.046
       0.791
       0.952
       1.531
       2.196
       2.529
       2.371
       1.981
       1.806
       2.029
       2.333
       2.134
       1.108
      -0.469
      -1.857
      -2.373
      -1.903
      -0.987
      -0.415
      -0.647
      -1.469
      -2.168
      -2.099
      -1.182
       0.059
       0.943
       1.138
       0.851
       0.595
       0.758
       1.332
       1.994
       2.398
       2.412
       2.143
       1.784
       1.441
       1.107
       0.743
       0.348
      -0.037
      -0.342
      -0.503
      -0.532
      -0.586
      -0.916
      -1.686
      -2.804
      -3.925
      -4.651
      -4.752
      -4.263
      -3.420
      -2.512
      -1.759
      -1.278
      -1.098
      -1.149
      -1.236
      -1.111
      -0.672
      -0.078
       0.382
       0.572
       0.672
       1.052
       1.981
       3.382
       4.812
       5.659
       5.472
       4.223
       2.354
       0.537
      -0.683
      -1.131
      -1.015
      -0.723
      -0.529
      -0.430
      -0.258
       0.050
       0.333
       0.352
       0.027
      -0.493
      -0.951
      -1.151
      -1.052
      -0.746
      -0.354
       0.050
       0.444
       0.780
       0.942
       0.764
       0.154
      -0.773
      -1.679
      -2.178
      -2.081
      -1.478
      -0.603
       0.356
       1.291
       2.084
       2.580
       2.675
       2.396
       1.877
       1.264
       0.647
       0.065
      -0.451
      -0.858
      -1.150
      -1.393
      -1.664
      -1.946
      -2.122
      -2.100
      -1.949
      -1.866
      -1.978
      -2.191
      -2.228
      -1.843
      -1.041
      -0.106
       0.618
       1.019
       1.287
       1.669
       2.161
       2.470
       2.284
       1.589
       0.749
       0.259
       0.366
       0.905
       1.503
       1.924
       2.238
       2.693
       3.421
       4.206
       4.559
       4.074
       2.774
       1.109
      -0.375
      -1.371
      -1.906
      -2.163
      -2.246
      -2.107
      -1.700
      -1.180
      -0.922
      -1.269
      -2.239
      -3.445
      -4.306
      -4.394
      -3.692
      -2.624
      -1.781
      -1.479
      -1.494
      -1.230
      -0.209
       1.494
       3.238
       4.248
       4.171
       3.333
       2.455
       2.064
       2.099
       2.082
       1.656
       0.942
       0.372
       0.202
       0.189
      -0.232
      -1.445
      -3.256
      -4.966
      -5.826
      -5.484
      -4.150
      -2.453
      -1.101
      -0.513
      -0.634
      -1.040
      -1.239
      -0.932
      -0.112
       1.019
       2.165
       2.999
       3.187
       2.517
       1.135
      -0.355
      -1.146
      -0.751
       0.597
       2.048
       2.681
       2.094
       0.646
      -0.778
      -1.324
      -0.680
       0.786
       2.298
       3.135
       2.980
       2.019
       0.751
      -0.345
      -1.035
      -1.305
      -1.199
      -0.748
      -0.037
       0.735
       1.303
       1.448
       1.107
       0.428
      -0.254
      -0.589
      -0.435
       0.015
       0.314
       0.048
      -0.843
      -1.976
      -2.815
      -3.053
      -2.736
      -2.077
      -1.270
      -0.494
       0.004
      -0.003
      -0.518
      -1.230
      -1.702
      -1.668
      -1.161
      -0.401
       0.416
       1.194
       1.844
       2.145
       1.820
       0.820
      -0.443
      -1.263
      -1.179
      -0.378
       0.462
       0.761
       0.464
      -0.039
      -0.338
      -0.331
      -0.225
      -0.264
      -0.482
      -0.702
      -0.750
      -0.618
      -0.416
      -0.216
       0.006
       0.287
       0.615
       0.913
       1.063
       0.945
       0.505
      -0.155
      -0.773
      -1.044
      -0.793
      -0.085
       0.803
       1.563
       2.041
       2.285
       2.423
       2.486
       2.363
       1.941
       1.275
       0.556
      -0.091
      -0.734
      -1.510
      -2.366
      -2.960
      -2.842
      -1.841
      -0.325
       0.923
       1.184
       0.262
      -1.384
      -2.941
      -3.716
      -3.482
      -2.488
      -1.224
      -0.119
       0.630
       1.042
       1.235
       1.321
       1.361
       1.309
       1.049
       0.534
      -0.103
      -0.623
      -0.856
      -0.806
      -0.593
      -0.324
      -0.008
       0.400
       0.909
       1.435
       1.786
       1.708
       1.036
      -0.104
      -1.242
      -1.813
      -1.549
      -0.683
       0.227
       0.733
       0.805
       0.748
       0.830
       1.002
       0.933
       0.361
      -0.559
      -1.261
      -1.173
      -0.185
       1.221
       2.277
       2.433
       1.661
       0.395
      -0.809
      -1.583
      -1.829
      -1.643
      -1.215
      -0.765
      -0.466
      -0.349
      -0.267
      -0.014
       0.501
       1.174
       1.789
       2.113
       1.951
       1.200
      -0.061
      -1.520
      -2.728
      -3.280
      -2.993
      -2.013
      -0.773
       0.202
       0.588
       0.425
       0.029
      -0.253
      -0.261
      -0.066
       0.142
       0.212
       0.136
       0.055
       0.181
       0.667
       1.467
       2.302
       2.784
       2.649
       1.894
       0.755
      -0.442
      -1.390
      -1.880
      -1.865
      -1.502
      -1.059
      -0.747
      -0.588
      -0.449
      -0.203
       0.136
       0.413
       0.469
       0.294
       0.043
      -0.105
      -0.098
      -0.060
      -0.198
      -0.635
      -1.296
      -1.921
      -2.195
      -1.939
      -1.236
      -0.437
       0.024
      -0.096
      -0.655
      -1.197
      -1.238
      -0.597
       0.487
       1.523
       2.059
       1.910
       1.229
       0.411
      -0.155
      -0.306
      -0.170
      -0.032
      -0.125
      -0.470
      -0.874
      -1.077
      -0.961
      -0.652
      -0.418
      -0.406
      -0.481
      -0.379
      -0.020
       0.411
       0.726
       1.005
       1.520
       2.374
       3.293
       3.807
       3.643
       2.946
       2.174
       1.771
       1.849
       2.103
       2.019
       1.230
      -0.230
      -1.939
      -3.327
      -3.978
      -3.817
      -3.122
      -2.330
      -1.758
      -1.430
      -1.177
      -0.861
      -0.501
      -0.177
       0.106
       0.435
       0.878
       1.372
       1.770
       2.001
       2.125
       2.237
       2.322
       2.244
       1.876
       1.250
       0.526
      -0.202
      -1.014
      -1.988
      -2.965
      -3.556
      -3.431
      -2.612
      -1.508
      -0.660
      -0.397
      -0.667
      -1.102
      -1.246
      -0.832
       0.047
       1.013
       1.662
       1.809
       1.528
       1.033
       0.565
       0.349
       0.565
       1.234
       2.128
       2.853
       3.076
       2.712
       1.931
       1.024
       0.222
      -0.426
      -1.018
      -1.629
      -2.152
      -2.345
      -2.065
      -1.465
      -0.949
      -0.862
      -1.192
      -1.538
      -1.414
      -0.612
       0.639
       1.804
       2.325
       1.878
       0.524
      -1.288
      -2.867
      -3.519
      -2.858
      -1.065
       1.078
       2.534
       2.583
       1.248
      -0.755
      -2.500
      -3.413
      -3.505
      -3.165
      -2.806
      -2.624
      -2.598
      -2.631
      -2.677
      -2.763
      -2.915
      -3.088
      -3.154
      -2.965
      -2.445
      -1.650
      -0.737
       0.098
       0.707
       1.091
       1.439
       2.033
       3.026
       4.285
       5.449
       6.134
       6.146
       5.552
       4.607
       3.597
       2.709
       1.979
       1.351
       0.761
       0.193
      -0.330
      -0.797
      -1.239
      -1.716
      -2.262
      -2.824
      -3.275
      -3.480
      -3.336
      -2.769
      -1.740
      -0.312
       1.338
       2.993
       4.495
       5.769
       6.801
       7.644
       8.404
       9.126
       9.652
       9.649
       8.857
       7.328
       5.408
       3.525
       1.971
       0.827
       0.014
      -0.640
      -1.336
      -2.237
      -3.358
      -4.513
      -5.427
      -5.929
      -6.050
      -5.970
      -5.896
      -5.926
      -5.924
      -5.544
      -4.472
      -2.739
      -0.820
       0.631
       1.200
       0.945
       0.260
      -0.453
      -1.033
      -1.586
      -2.298
      -3.155
      -3.827
      -3.880
      -3.177
      -2.073
      -1.179
      -0.903
      -1.157
      -1.486
      -1.471
      -1.038
      -0.442
      -0.010
       0.098
      -0.038
      -0.181
      -0.150
       0.011
       0.033
      -0.371
      -1.270
      -2.478
      -3.718
      -4.803
      -5.649
      -6.184
      -6.296
      -5.921
      -5.161
      -4.254
      -3.379
      -2.509
      -1.488
      -0.269
       0.969
       1.930
       2.473
       2.762
       3.138
       3.788
       4.526
       4.929
       4.732
       4.104
       3.534
       3.407
       3.654
       3.796
       3.361
       2.330
       1.222
       0.753
       1.343
       2.819
       4.506
       5.623
       5.748
       5.084
       4.347
       4.281
       5.125
       6.431
       7.416
       7.556
       6.966
       6.228
       5.806
       5.580
       4.960
       3.504
       1.447
      -0.412
      -1.371
      -1.420
      -1.234
      -1.606
      -2.809
      -4.427
      -5.717
      -6.197
      -5.989
      -5.656
      -5.701
      -6.197
      -6.820
      -7.156
      -6.944
      -6.133
      -4.863
      -3.433
      -2.219
      -1.521
      -1.418
      -1.743
      -2.203
      -2.550
      -2.670
      -2.550
      -2.192
      -1.580
      -0.755
       0.113
       0.771
       1.062
       1.080
       1.113
       1.362
       1.677
       1.594
       0.730
      -0.800
      -2.308
      -2.916
      -2.119
      -0.155
       2.087
       3.604
       3.886
       3.169
       2.172
       1.584
       1.698
       2.400
       3.425
       4.608
       5.906
       7.222
       8.275
       8.689
       8.239
       7.039
       5.484
       3.961
       2.568
       1.156
      -0.362
      -1.775
      -2.658
      -2.690
      -1.888
      -0.572
       0.834
       1.958
       2.501
       2.283
       1.374
       0.122
      -1.047
      -1.920
      -2.641
      -3.539
      -4.763
      -6.086
      -7.074
      -7.431
      -7.166
      -6.492
      -5.635
      -4.717
      -3.843
      -3.260
      -3.348
      -4.294
      -5.737
      -6.774
      -6.456
      -4.449
      -1.313
       1.868
       4.232
       5.608
       6.381
       6.988
       7.542
       7.819
       7.524
       6.542
       5.024
       3.308
       1.774
       0.706
       0.228
       0.326
       0.926
       1.929
       3.175
       4.405
       5.286
       5.538
       5.070
       4.001
       2.558
       0.945
      -0.686
      -2.212
      -3.510
      -4.464
      -4.967
      -4.918
      -4.274
      -3.135
      -1.780
      -0.578
       0.193
       0.473
       0.438
       0.405
       0.635
       1.168
       1.836
       2.417
       2.808
       3.023
       3.036
       2.637
       1.537
      -0.293
      -2.381
      -3.953
      -4.459
      -3.965
      -3.067
      -2.459
      -2.480
      -2.974
      -3.502
      -3.723
      -3.652
      -3.571
      -3.707
      -3.971
      -4.052
      -3.788
      -3.454
      -3.629
      -4.742
      -6.664
      -8.727
     -10.153
     -10.534
      -9.968
      -8.820
      -7.413
      -5.944
      -4.585
      -3.531
      -2.857
      -2.349
      -1.550
      -0.082
       2.013
       4.239
       5.991
       6.946
       7.154
       6.828
       6.166
       5.392
       4.868
       5.054
       6.250
       8.298
      10.533
      12.141
      12.680
      12.301
      11.495
      10.679
       9.982
       9.304
       8.469
       7.335
       5.835
       4.001
       1.982
       0.046
      -1.519
      -2.586
      -3.310
      -4.006
      -4.795
      -5.367
      -5.178
      -3.948
      -2.008
      -0.148
       0.904
       0.947
       0.348
      -0.295
      -0.557
      -0.357
       0.105
       0.515
       0.594
       0.190
      -0.655
      -1.689
      -2.560
      -3.037
      -3.170
      -3.226
      -3.424
      -3.724
      -3.877
      -3.677
      -3.161
      -2.578
      -2.173
      -1.992
      -1.886
      -1.730
      -1.627
      -1.820
      -2.392
      -3.081
      -3.462
      -3.320
      -2.845
      -2.448
      -2.336
      -2.269
      -1.769
      -0.651
       0.625
       1.174
       0.311
      -1.909
      -4.676
      -6.930
      -7.957
      -7.650
      -6.317
      -4.335
      -1.987
       0.432
       2.510
       3.850
       4.353
       4.335
       4.326
       4.684
       5.328
       5.787
       5.542
       4.422
       2.736
       1.055
      -0.171
      -0.854
      -1.216
      -1.539
      -1.967
      -2.474
      -2.940
      -3.180
      -2.951
      -2.029
      -0.403
       1.567
       3.259
       4.139
       4.117
       3.610
       3.225
       3.305
       3.678
       3.796
       3.165
       1.721
      -0.110
      -1.666
      -2.409
      -2.172
      -1.199
       0.021
       1.000
       1.427
       1.176
       0.272
      -1.057
      -2.319
      -2.889
      -2.382
      -0.999
       0.482
       1.183
       0.740
      -0.402
      -1.299
      -1.218
      -0.209
       0.962
       1.483
       1.151
       0.474
       0.205
       0.772
       1.999
       3.282
       4.053
       4.191
       4.062
       4.165
       4.684
       5.302
       5.468
       4.889
       3.800
       2.736
       2.073
       1.768
       1.492
       0.927
      -0.025
      -1.214
      -2.341
      -3.088
      -3.236
      -2.807
      -2.137
      -1.762
      -2.078
      -3.022
      -4.045
      -4.446
      -3.883
      -2.653
      -1.507
      -1.091
      -1.477
      -2.137
      -2.337
      -1.622
      -0.031
       2.023
       4.005
       5.427
       5.921
       5.354
       3.956
       2.300
       1.011
       0.431
       0.489
       0.793
       0.850
       0.326
      -0.705
      -1.718
      -2.050
      -1.386
      -0.010
       1.379
       2.090
       1.758
       0.473
      -1.254
      -2.700
      -3.316
      -3.033
      -2.252
      -1.510
      -1.122
      -1.035
      -0.954
      -0.655
      -0.218
       0.008
      -0.336
      -1.383
      -2.986
      -4.778
      -6.247
      -6.875
      -6.351
      -4.774
      -2.656
      -0.729
       0.313
       0.048
      -1.490
      -3.756
      -5.887
      -7.108
      -7.114
      -6.179
      -4.912
      -3.827
      -3.034
      -2.269
      -1.245
       0.015
       1.160
       1.817
       1.902
       1.635
       1.345
       1.272
       1.473
       1.838
       2.200
       2.465
       2.675
       2.936
       3.323
       3.794
       4.179
       4.242
       3.823
       2.990
       2.067
       1.479
       1.487
       2.001
       2.617
       2.854
       2.445
       1.481
       0.303
      -0.752
      -1.512
      -1.947
      -2.089
      -2.006
      -1.800
      -1.562
      -1.318
      -1.020
      -0.602
      -0.054
       0.530
       0.961
       1.048
       0.770
       0.374
       0.266
       0.735
       1.714
       2.773
       3.367
       3.196
       2.389
       1.376
       0.559
       0.107
      -0.014
       0.050
       0.108
      -0.019
      -0.373
      -0.797
      -1.014
      -0.828
      -0.270
       0.452
       1.152
       1.844
       2.637
       3.426
       3.713
       2.870
       0.727
      -2.045
      -4.165
      -4.528
      -2.979
      -0.463
       1.587
       2.166
       1.229
      -0.513
      -2.253
      -3.576
      -4.425
      -4.773
      -4.497
      -3.604
      -2.499
      -1.899
      -2.358
      -3.727
      -5.071
      -5.253
      -3.826
      -1.452
       0.529
       1.052
       0.013
      -1.762
      -3.108
      -3.175
      -1.777
       0.617
       3.181
       5.177
       6.302
       6.710
       6.776
       6.805
       6.896
       6.999
       7.057
       7.114
       7.257
       7.459
       7.469
       6.899
       5.479
       3.271
       0.690
      -1.704
      -3.512
      -4.660
      -5.312
      -5.611
      -5.544
      -5.073
      -4.354
      -3.747
      -3.540
      -3.682
      -3.821
      -3.613
      -2.962
      -2.028
      -1.041
      -0.141
       0.698
       1.630
       2.768
       3.996
       4.911
       5.015
       4.089
       2.449
       0.831
      -0.103
      -0.213
       0.102
       0.291
       0.083
      -0.357
      -0.605
      -0.323
       0.452
       1.281
       1.631
       1.297
       0.590
       0.089
       0.200
       0.921
       1.973
       3.047
       3.897
       4.280
       3.936
       2.759
       1.012
      -0.682
      -1.698
      -1.868
      -1.604
      -1.576
      -2.203
      -3.386
      -4.673
      -5.646
      -6.161
      -6.256
      -5.922
      -5.047
      -3.587
      -1.771
      -0.094
       0.920
       1.040
       0.464
      -0.300
      -0.788
      -0.935
      -1.146
      -1.947
      -3.488
      -5.332
      -6.732
      -7.131
      -6.504
      -5.287
      -4.027
      -3.058
      -2.418
      -1.931
      -1.327
      -0.326
       1.239
       3.291
       5.433
       7.071
       7.699
       7.169
       5.765
       4.055
       2.598
       1.654
       1.096
       0.591
