Origin Time       04/04/2011 11:31:40 UTC
Lat.              29.6 N	
Long.             80.8 E	
Depth (Km)         10.0
Magnitude         5.7
 Region           NEPAL-INDIA-BORDER-REGION                                        
 Above details taken from IMD 
    
Station Code      DDH
Station Lat.       29.770  N
Station Long.      80.300  E
Station Height(m) 1720.0
Site Class        A   Vs30 between 700 m/sec to 1400 m/sec * 
Record Time       04.04.2011 11:31:42.524 UTC
Sampling Rate     200. Hz
 Record Duration   81.010 Sec.
 Direction         N-S (N positive)
Max. Acceleration     18.821 cm/sec**2
     
  * For reference see Site Classification link of website 
     
 Base Line Corrected and Low Pass Filtered (Cut Off at 35 Hz) Time History
 Acceleration data in cm/sec**2
    
[...]
       1.809
       1.167
      -0.025
      -1.275
      -2.033
      -2.054
      -1.476
      -0.631
       0.174
       0.757
       1.066
       1.180
       1.240
       1.325
       1.371
       1.214
       0.746
       0.006
      -0.808
      -1.415
      -1.549
      -1.113
      -0.302
       0.437
       0.670
       0.311
      -0.302
      -0.683
      -0.605
      -0.287
      -0.212
      -0.722
      -1.725
      -2.731
      -3.168
      -2.739
      -1.583
      -0.175
       0.960
       1.509
       1.478
       1.105
       0.688
       0.476
       0.618
       1.125
       1.819
       2.367
       2.465
       2.048
       1.334
       0.652
       0.188
      -0.121
      -0.471
      -0.989
      -1.605
      -2.084
      -2.188
      -1.842
      -1.191
      -0.488
       0.095
       0.546
       0.899
       1.090
       0.957
       0.427
      -0.339
      -1.030
      -1.424
      -1.538
      -1.512
      -1.411
      -1.150
      -0.614
       0.189
       1.110
       1.944
       2.537
       2.824
       2.805
       2.491
       1.895
       1.056
       0.101
      -0.741
      -1.238
      -1.306
      -1.060
      -0.703
      -0.359
       0.003
       0.473
       1.055
       1.604
       1.910
       1.841
       1.430
       0.860
       0.360
       0.087
       0.045
       0.076
      -0.058
      -0.525
      -1.273
      -2.017
      -2.425
      -2.371
      -2.041
      -1.761
      -1.701
      -1.741
      -1.614
      -1.192
      -0.608
      -0.111
       0.193
       0.419
       0.761
       1.257
       1.729
       1.928
       1.767
       1.391
       1.044
       0.867
       0.820
       0.766
       0.606
       0.338
       0.018
      -0.303
      -0.598
      -0.833
      -0.926
      -0.765
      -0.323
       0.213
       0.466
       0.133
      -0.726
      -1.633
      -2.020
      -1.648
      -0.773
       0.097
       0.598
       0.702
       0.616
       0.551
       0.604
       0.774
       1.019
       1.275
       1.451
       1.454
       1.229
       0.790
       0.223
      -0.335
      -0.761
      -1.044
      -1.317
      -1.748
      -2.348
      -2.904
      -3.124
      -2.865
      -2.213
      -1.362
      -0.471
       0.361
       1.046
       1.498
       1.697
       1.697
       1.565
       1.312
       0.925
       0.450
       0.003
      -0.336
      -0.604
      -0.887
      -1.173
      -1.303
      -1.083
      -0.443
       0.494
       1.472
       2.213
       2.521
       2.366
       1.891
       1.319
       0.823
       0.463
       0.243
       0.178
       0.264
       0.412
       0.446
       0.235
      -0.189
      -0.682
      -1.140
      -1.558
      -1.943
      -2.211
      -2.213
      -1.868
      -1.236
      -0.471
       0.280
       0.906
       1.328
       1.529
       1.614
       1.759
       2.046
       2.319
       2.262
       1.682
       0.725
      -0.197
      -0.706
      -0.724
      -0.485
      -0.322
      -0.431
      -0.765
      -1.086
      -1.131
      -0.796
      -0.240
       0.213
       0.345
       0.227
       0.132
       0.255
       0.560
       0.876
       1.098
       1.250
       1.358
       1.368
       1.220
       0.977
       0.789
       0.725
       0.651
       0.338
      -0.322
      -1.189
      -1.968
      -2.443
      -2.614
      -2.648
      -2.702
      -2.779
      -2.730
      -2.414
      -1.870
      -1.317
      -0.996
      -0.976
      -1.113
      -1.170
      -0.986
      -0.559
       0.000
       0.558
       1.021
       1.372
       1.679
       2.055
       2.544
       3.034
       3.276
       3.043
       2.314
       1.335
       0.496
       0.106
       0.239
       0.716
       1.238
       1.551
       1.565
       1.363
       1.103
       0.911
       0.813
       0.748
       0.621
       0.359
      -0.037
      -0.454
      -0.692
      -0.573
      -0.080
       0.602
       1.226
       1.668
       1.968
       2.195
       2.317
       2.192
       1.698
       0.835
      -0.286
      -1.531
      -2.794
      -3.954
      -4.842
      -5.285
      -5.201
      -4.642
      -3.730
      -2.569
      -1.257
       0.060
       1.172
       1.905
       2.226
       2.236
       2.045
       1.658
       0.974
      -0.087
      -1.448
      -2.830
      -3.841
      -4.160
      -3.703
      -2.654
      -1.338
      -0.041
       1.089
       2.018
       2.743
       3.218
       3.346
       3.012
       2.149
       0.821
      -0.738
      -2.183
      -3.203
      -3.628
      -3.456
      -2.810
      -1.875
      -0.845
       0.126
       0.945
       1.579
       2.017
       2.230
       2.172
       1.853
       1.394
       0.983
       0.760
       0.719
       0.717
       0.573
       0.176
      -0.451
      -1.155
      -1.708
      -1.883
      -1.547
      -0.742
       0.297
       1.231
       1.794
       1.915
       1.709
       1.357
       0.982
       0.594
       0.124
      -0.490
      -1.223
      -1.932
      -2.404
      -2.435
      -1.925
      -0.946
       0.275
       1.451
       2.370
       2.941
       3.129
       2.892
       2.230
       1.296
       0.381
      -0.270
      -0.632
      -0.883
      -1.195
      -1.538
      -1.719
      -1.587
      -1.174
      -0.617
      -0.003
       0.647
       1.266
       1.661
       1.610
       1.050
       0.187
      -0.584
      -0.903
      -0.628
       0.093
       0.900
       1.387
       1.324
       0.803
       0.210
      -0.014
       0.344
       1.153
       2.038
       2.589
       2.525
       1.782
       0.557
      -0.729
      -1.581
      -1.676
      -1.044
      -0.053
       0.834
       1.322
       1.395
       1.236
       1.078
       1.097
       1.335
       1.642
       1.709
       1.268
       0.335
      -0.715
      -1.391
      -1.465
      -1.132
      -0.797
      -0.712
      -0.818
      -0.922
      -0.963
      -1.071
      -1.389
      -1.902
      -2.449
      -2.845
      -2.999
      -2.915
      -2.658
      -2.321
      -1.989
      -1.704
      -1.452
      -1.205
      -0.949
      -0.668
      -0.307
       0.187
       0.768
       1.244
       1.357
       0.943
       0.062
      -0.963
      -1.671
      -1.737
      -1.218
      -0.557
      -0.263
      -0.522
      -1.068
      -1.413
      -1.228
      -0.546
       0.341
       1.116
       1.559
       1.536
       0.989
       0.031
      -0.961
      -1.470
      -1.146
      -0.074
       1.261
       2.294
       2.727
       2.640
       2.329
       2.042
       1.832
       1.585
       1.163
       0.517
      -0.272
      -1.062
      -1.744
      -2.250
      -2.494
      -2.336
      -1.657
      -0.498
       0.857
       1.984
       2.534
       2.395
       1.720
       0.841
       0.142
      -0.078
       0.262
       0.971
       1.673
       2.018
       1.887
       1.449
       1.034
       0.913
       1.124
       1.446
       1.545
       1.193
       0.427
      -0.457
      -1.082
      -1.220
      -0.917
      -0.408
       0.075
       0.421
       0.612
       0.663
       0.620
       0.598
       0.744
       1.114
       1.569
       1.826
       1.652
       1.015
       0.073
      -0.966
      -1.966
      -2.894
      -3.765
      -4.565
      -5.215
      -5.572
      -5.468
      -4.818
      -3.702
      -2.348
      -1.011
       0.135
       0.987
       1.452
       1.431
       0.909
       0.034
      -0.932
      -1.776
      -2.423
      -2.869
      -3.071
      -2.951
      -2.483
      -1.733
      -0.790
       0.298
       1.457
       2.473
       3.024
       2.909
       2.274
       1.565
       1.222
       1.370
       1.764
       2.032
       1.983
       1.728
       1.536
       1.571
       1.761
       1.886
       1.778
       1.428
       0.944
       0.448
       0.040
      -0.169
      -0.046
       0.496
       1.395
       2.395
       3.117
       3.227
       2.625
       1.535
       0.406
      -0.350
      -0.600
      -0.502
      -0.325
      -0.235
      -0.266
      -0.412
      -0.721
      -1.239
      -1.925
      -2.621
      -3.151
      -3.421
      -3.445
      -3.274
      -2.929
      -2.396
      -1.677
      -0.821
       0.073
       0.884
       1.503
       1.870
       1.973
       1.829
       1.464
       0.931
       0.337
      -0.153
      -0.357
      -0.170
       0.356
       0.996
       1.446
       1.510
       1.222
       0.817
       0.543
       0.476
       0.482
       0.348
      -0.019
      -0.498
      -0.841
      -0.861
      -0.543
       0.004
       0.645
       1.251
       1.651
       1.664
       1.268
       0.738
       0.521
       0.902
       1.759
       2.683
       3.305
       3.498
       3.312
       2.829
       2.175
       1.575
       1.276
       1.346
       1.590
       1.723
       1.623
       1.432
       1.408
       1.695
       2.188
       2.569
       2.459
       1.614
       0.063
      -1.881
      -3.731
      -5.033
      -5.566
      -5.445
      -5.016
      -4.594
      -4.209
      -3.602
      -2.490
      -0.889
       0.827
       2.159
       2.788
       2.683
       2.013
       1.027
      -0.023
      -0.922
      -1.538
      -1.865
      -1.991
      -1.988
      -1.843
      -1.495
      -0.922
      -0.183
       0.630
       1.438
       2.157
       2.652
       2.751
       2.354
       1.528
       0.493
      -0.496
      -1.253
      -1.671
      -1.680
      -1.228
      -0.346
       0.805
       1.950
       2.796
       3.151
       2.981
       2.376
       1.442
       0.227
      -1.244
      -2.891
      -4.528
      -5.910
      -6.822
      -7.131
      -6.819
      -5.997
      -4.903
      -3.792
      -2.786
      -1.813
      -0.764
       0.260
       0.883
       0.711
      -0.308
      -1.771
      -3.072
      -3.780
      -3.840
      -3.478
      -2.980
      -2.560
      -2.351
      -2.419
      -2.691
      -2.890
      -2.651
      -1.810
      -0.639
       0.271
       0.435
      -0.135
      -0.959
      -1.483
      -1.465
      -1.043
      -0.512
      -0.101
       0.108
       0.154
       0.181
       0.411
       1.023
       1.993
       3.034
       3.725
       3.747
       3.055
       1.893
       0.647
      -0.347
      -0.947
      -1.205
      -1.260
      -1.205
      -1.024
      -0.622
       0.083
       1.063
       2.156
       3.129
       3.797
       4.113
       4.141
       3.950
       3.546
       2.920
       2.142
       1.405
       0.953
       0.953
       1.423
       2.246
       3.225
       4.138
       4.801
       5.141
       5.234
       5.244
       5.288
       5.323
       5.177
       4.671
       3.744
       2.511
       1.230
       0.193
      -0.438
      -0.731
      -0.937
      -1.302
      -1.908
      -2.660
      -3.396
      -4.004
      -4.452
      -4.750
      -4.944
      -5.093
      -5.218
      -5.241
      -5.042
      -4.586
      -4.002
      -3.531
      -3.399
      -3.723
      -4.466
      -5.432
      -6.295
      -6.718
      -6.541
      -5.895
      -5.115
      -4.504
      -4.151
      -3.941
      -3.748
      -3.606
      -3.686
      -4.106
      -4.764
      -5.390
      -5.757
      -5.809
      -5.582
      -5.021
      -3.937
      -2.199
       0.047
       2.391
       4.422
       5.966
       7.081
       7.876
       8.381
       8.581
       8.495
       8.187
       7.710
       7.091
       6.357
       5.554
       4.740
       4.005
       3.496
       3.385
       3.732
       4.345
       4.848
       4.945
       4.671
       4.371
       4.415
       4.910
       5.668
       6.422
       7.093
       7.847
       8.876
      10.115
      11.186
      11.674
      11.498
      11.004
      10.664
      10.659
      10.758
      10.580
       9.953
       9.027
       8.074
       7.242
       6.502
       5.753
       4.941
       4.058
       3.116
       2.145
       1.226
       0.467
      -0.073
      -0.451
      -0.845
      -1.464
      -2.447
      -3.779
      -5.289
      -6.730
      -7.895
      -8.718
      -9.296
      -9.815
     -10.422
     -11.099
     -11.641
     -11.782
     -11.378
     -10.508
      -9.409
      -8.330
      -7.416
      -6.687
      -6.086
      -5.528
      -4.927
      -4.198
      -3.276
      -2.161
      -0.984
      -0.022
       0.392
       0.042
      -1.034
      -2.563
      -4.194
      -5.669
      -6.881
      -7.788
      -8.300
      -8.274
      -7.606
      -6.348
      -4.727
      -3.032
      -1.445
       0.022
       1.394
       2.535
       3.131
       2.919
       1.978
       0.771
      -0.122
      -0.370
      -0.054
       0.458
       0.798
       0.776
       0.376
      -0.333
      -1.271
      -2.360
      -3.548
      -4.855
      -6.399
      -8.318
     -10.587
     -12.882
     -14.649
     -15.357
     -14.774
     -13.117
     -10.986
      -9.111
      -8.003
      -7.695
      -7.758
      -7.624
      -6.994
      -5.982
      -4.917
      -4.050
      -3.447
      -3.064
      -2.809
      -2.503
      -1.841
      -0.517
       1.506
       3.834
       5.813
       6.911
       7.009
       6.407
       5.622
       5.118
       5.181
       5.918
       7.307
       9.185
      11.233
      13.081
      14.516
      15.618
      16.641
      17.705
      18.578
      18.821
      18.136
      16.633
      14.763
      13.042
      11.829
      11.295
      11.461
      12.177
      13.056
      13.585
      13.382
      12.404
      10.902
       9.182
       7.416
       5.626
       3.795
       1.957
       0.227
      -1.230
      -2.224
      -2.625
      -2.468
      -2.032
      -1.771
      -2.122
      -3.295
      -5.186
      -7.454
      -9.680
     -11.512
     -12.708
     -13.131
     -12.736
     -11.586
      -9.848
      -7.727
      -5.412
      -3.088
      -0.991
       0.592
       1.421
       1.432
       0.761
      -0.361
      -1.755
      -3.334
      -4.983
      -6.459
      -7.448
      -7.746
      -7.364
      -6.482
      -5.343
      -4.208
      -3.340
      -2.926
      -2.970
      -3.288
      -3.681
      -4.120
      -4.721
      -5.512
      -6.255
      -6.553
      -6.158
      -5.153
      -3.834
      -2.466
      -1.143
       0.138
       1.369
       2.518
       3.590
       4.614
       5.531
       6.113
       6.055
       5.201
       3.711
       2.022
       0.604
      -0.280
      -0.656
      -0.735
      -0.726
      -0.703
      -0.583
      -0.229
       0.423
       1.327
       2.359
       3.372
       4.207
       4.711
       4.816
       4.626
       4.415
       4.485
       4.964
       5.696
       6.339
       6.583
       6.315
       5.621
       4.682
       3.694
       2.833
       2.201
       1.723
       1.145
       0.226
      -0.962
      -1.920
      -1.990
      -0.851
       1.196
       3.431
       5.204
       6.236
       6.538
       6.166
       5.132
       3.514
       1.534
      -0.548
      -2.582
      -4.503
      -6.127
      -7.051
      -6.857
      -5.489
      -3.419
      -1.400
      -0.002
       0.667
       0.873
       0.954
       1.081
       1.221
       1.218
       0.880
       0.053
      -1.292
      -2.943
      -4.411
      -5.092
      -4.581
      -2.960
      -0.831
       0.986
       1.928
       2.025
       1.805
       1.840
       2.292
       2.827
       2.914
       2.191
       0.610
      -1.623
      -4.136
      -6.419
      -7.900
      -8.163
      -7.225
      -5.607
      -4.070
      -3.172
      -2.993
      -3.215
      -3.454
      -3.560
      -3.712
      -4.271
      -5.479
      -7.218
      -9.010
     -10.275
     -10.652
     -10.123
      -8.872
      -7.082
      -4.898
      -2.572
      -0.538
       0.754
       1.137
       0.843
       0.312
      -0.152
      -0.536
      -1.004
      -1.656
      -2.409
      -3.037
      -3.302
      -3.045
      -2.239
      -1.017
       0.332
       1.450
       2.064
       2.138
       1.898
       1.680
       1.720
       1.996
       2.246
       2.150
       1.591
       0.817
       0.333
       0.570
       1.562
       2.888
       3.943
       4.311
       3.986
       3.316
       2.791
       2.762
       3.243
       3.886
       4.212
       3.975
       3.384
       2.966
       3.168
       4.012
       5.112
       5.970
       6.290
       6.059
       5.430
       4.572
       3.611
       2.671
       1.914
       1.489
       1.394
       1.406
       1.209
       0.663
      -0.023
      -0.409
      -0.135
       0.846
       2.319
       4.012
       5.703
       7.141
       7.944
       7.686
       6.169
       3.653
       0.836
      -1.437
      -2.572
      -2.460
      -1.438
      -0.038
       1.289
       2.335
       3.115
       3.721
       4.181
       4.407
       4.251
       3.601
       2.468
       1.037
      -0.353
      -1.314
      -1.571
      -1.105
      -0.225
       0.533
       0.681
       0.111
      -0.798
      -1.457
      -1.512
      -1.092
      -0.634
      -0.524
      -0.904
      -1.752
      -2.986
      -4.417
      -5.704
      -6.524
      -6.862
      -7.084
      -7.635
      -8.607
      -9.618
     -10.104
      -9.715
      -8.471
      -6.669
      -4.730
      -3.143
      -2.375
      -2.652
      -3.745
      -5.022
      -5.821
      -5.860
      -5.328
      -4.614
      -3.948
      -3.256
      -2.286
      -0.836
       1.121
       3.421
       5.747
       7.719
       9.029
       9.586
       9.536
       9.133
       8.555
       7.813
       6.828
       5.530
       3.912
       2.022
      -0.010
      -1.936
      -3.413
      -4.153
      -4.090
      -3.423
      -2.472
      -1.470
      -0.477
       0.554
       1.666
       2.841
       4.012
       5.078
       5.895
       6.293
       6.125
       5.319
       3.915
       2.089
       0.176
      -1.400
      -2.278
      -2.325
      -1.698
      -0.764
       0.062
       0.490
       0.427
      -0.038
      -0.730
      -1.461
      -2.052
      -2.353
      -2.287
      -1.930
      -1.504
      -1.232
      -1.138
      -0.976
      -0.429
       0.558
       1.619
       2.205
       2.011
       1.183
       0.136
      -0.784
      -1.457
      -1.882
      -2.047
      -1.918
      -1.523
      -0.974
      -0.392
       0.148
       0.614
       1.004
       1.388
       1.970
       3.000
       4.536
       6.255
       7.552
       7.893
       7.153
       5.685
       4.062
       2.703
       1.631
       0.538
      -0.914
      -2.778
      -4.736
      -6.327
      -7.257
      -7.534
      -7.363
      -6.994
      -6.692
      -6.791
      -7.641
      -9.384
     -11.698
     -13.797
     -14.779
     -14.124
     -12.007
      -9.185
      -6.555
      -4.682
      -3.619
      -3.060
      -2.620
      -2.054
      -1.334
      -0.617
      -0.159
      -0.164
      -0.616
      -1.197
      -1.372
      -0.657
       1.095
       3.580
       6.203
       8.395
       9.866
      10.635
      10.866
      10.681
      10.101
       9.089
       7.624
