Origin Time       04/04/2011 11:31:40
Lat.              29.6 N	
Long.             80.8 E	
Depth (Km)         10.0
Magnitude         5.7
 Region           NEPAL-INDIA-BORDER-REGION                                        
 Above details taken from IMD 
     
Station Code      DDH
Station Lat.       29.770  N
Station Long.      80.300  E
Station Height(m) 1720.0
Site Class        A   Vs30 between 700 m/sec to 1400 m/sec * 
Record Time       04.04.2011 11:31:42.524
Sampling Rate     200. Hz
 Record Duration   81.010 Sec.
 Direction         E-W (E positive)
Max. Acceleration     16.350 cm/sec**2
     
  * For reference see Site Classification link of website 
     
 Base Line Corrected and Low Pass Filtered (Cut Off at 35 Hz) Time History
 Acceleration data in cm/sec**2
    
[...]
       1.746
       1.395
       0.862
       0.138
      -0.783
      -1.791
      -2.645
      -3.084
      -2.986
      -2.423
      -1.601
      -0.740
      -0.004
       0.501
       0.723
       0.676
       0.458
       0.215
       0.046
      -0.076
      -0.270
      -0.611
      -1.009
      -1.229
      -1.053
      -0.440
       0.453
       1.386
       2.159
       2.667
       2.860
       2.703
       2.156
       1.219
      -0.008
      -1.288
      -2.300
      -2.781
      -2.687
      -2.230
      -1.748
      -1.489
      -1.470
      -1.524
      -1.469
      -1.252
      -0.959
      -0.705
      -0.521
      -0.335
      -0.029
       0.477
       1.163
       1.896
       2.471
       2.720
       2.618
       2.296
       1.924
       1.567
       1.150
       0.573
      -0.128
      -0.720
      -0.931
      -0.683
      -0.214
       0.077
      -0.052
      -0.491
      -0.874
      -0.895
      -0.553
      -0.100
       0.203
       0.291
       0.272
       0.265
       0.282
       0.270
       0.218
       0.189
       0.257
       0.444
       0.713
       1.005
       1.270
       1.461
       1.527
       1.440
       1.218
       0.904
       0.498
      -0.067
      -0.855
      -1.823
      -2.768
      -3.389
      -3.456
      -2.958
      -2.140
      -1.366
      -0.889
      -0.682
      -0.490
      -0.063
       0.613
       1.301
       1.714
       1.747
       1.531
       1.303
       1.203
       1.192
       1.127
       0.896
       0.512
       0.102
      -0.169
      -0.193
       0.028
       0.386
       0.732
       0.975
       1.130
       1.270
       1.403
       1.414
       1.138
       0.518
      -0.305
      -1.060
      -1.528
      -1.679
      -1.653
      -1.607
      -1.565
      -1.402
      -0.969
      -0.238
       0.669
       1.550
       2.234
       2.640
       2.769
       2.647
       2.280
       1.637
       0.687
      -0.543
      -1.906
      -3.136
      -3.920
      -4.039
      -3.495
      -2.530
      -1.530
      -0.853
      -0.670
      -0.900
      -1.282
      -1.547
      -1.599
      -1.556
      -1.620
      -1.878
      -2.186
      -2.251
      -1.846
      -0.977
       0.133
       1.195
       2.025
       2.595
       2.977
       3.244
       3.400
       3.359
       3.008
       2.318
       1.428
       0.608
       0.092
      -0.053
       0.064
       0.281
       0.472
       0.526
       0.325
      -0.201
      -0.945
      -1.617
      -1.895
      -1.637
      -0.940
      -0.013
       0.977
       1.942
       2.781
       3.319
       3.394
       3.017
       2.444
       2.014
       1.884
       1.892
       1.709
       1.133
       0.262
      -0.606
      -1.203
      -1.448
      -1.420
      -1.251
      -1.060
      -0.954
      -1.043
      -1.404
      -2.015
      -2.744
      -3.407
      -3.867
      -4.066
      -3.951
      -3.418
      -2.357
      -0.826
       0.846
       2.138
       2.600
       2.103
       0.920
      -0.423
      -1.435
      -1.906
      -1.939
      -1.776
      -1.562
      -1.248
      -0.697
       0.123
       1.053
       1.843
       2.323
       2.471
       2.354
       2.022
       1.491
       0.824
       0.174
      -0.263
      -0.369
      -0.167
       0.248
       0.834
       1.607
       2.501
       3.201
       3.212
       2.176
       0.226
      -1.950
      -3.458
      -3.742
      -2.911
      -1.623
      -0.592
      -0.131
      -0.060
      -0.019
       0.169
       0.419
       0.604
       0.788
       1.194
       1.960
       2.952
       3.809
       4.199
       4.031
       3.458
       2.705
       1.902
       1.074
       0.261
      -0.398
      -0.741
      -0.759
      -0.664
      -0.755
      -1.191
      -1.859
      -2.477
      -2.810
      -2.816
      -2.619
      -2.367
      -2.149
      -2.015
      -2.041
      -2.323
      -2.883
      -3.581
      -4.124
      -4.196
      -3.632
      -2.504
      -1.069
       0.384
       1.676
       2.763
       3.653
       4.299
       4.565
       4.297
       3.443
       2.144
       0.721
      -0.464
      -1.189
      -1.477
      -1.532
      -1.551
      -1.566
      -1.467
      -1.158
      -0.706
      -0.318
      -0.170
      -0.235
      -0.280
      -0.048
       0.520
       1.225
       1.754
       1.917
       1.767
       1.528
       1.389
       1.339
       1.193
       0.789
       0.173
      -0.402
      -0.689
      -0.673
      -0.583
      -0.671
      -0.969
      -1.270
      -1.348
      -1.208
      -1.100
      -1.276
      -1.707
      -2.054
      -1.917
      -1.142
       0.076
       1.353
       2.366
       2.983
       3.231
       3.194
       2.956
       2.586
       2.131
       1.603
       0.991
       0.307
      -0.383
      -0.988
      -1.458
      -1.825
      -2.171
      -2.535
      -2.843
      -2.932
      -2.658
      -1.999
      -1.097
      -0.187
       0.512
       0.908
       1.057
       1.104
       1.182
       1.342
       1.550
       1.713
       1.720
       1.483
       0.988
       0.330
      -0.324
      -0.840
      -1.199
      -1.470
      -1.690
      -1.785
      -1.630
      -1.184
      -0.566
       0.016
       0.413
       0.634
       0.800
       1.020
       1.291
       1.514
       1.591
       1.526
       1.439
       1.455
       1.585
       1.700
       1.655
       1.456
       1.278
       1.296
       1.492
       1.647
       1.508
       0.991
       0.218
      -0.587
      -1.246
      -1.685
      -1.905
      -1.931
      -1.777
      -1.456
      -1.018
      -0.587
      -0.347
      -0.465
      -0.968
      -1.693
      -2.364
      -2.749
      -2.772
      -2.503
      -2.073
      -1.600
      -1.179
      -0.881
      -0.727
      -0.666
      -0.590
      -0.409
      -0.138
       0.071
      -0.002
      -0.485
      -1.266
      -2.009
      -2.362
      -2.216
      -1.788
      -1.432
      -1.327
      -1.327
      -1.106
      -0.466
       0.466
       1.334
       1.841
       1.984
       2.053
       2.405
       3.177
       4.155
       4.904
       5.067
       4.606
       3.815
       3.107
       2.739
       2.680
       2.692
       2.524
       2.081
       1.462
       0.871
       0.461
       0.229
       0.037
      -0.246
      -0.608
      -0.889
      -0.916
      -0.661
      -0.288
      -0.062
      -0.193
      -0.714
      -1.478
      -2.261
      -2.885
      -3.292
      -3.501
      -3.542
      -3.409
      -3.089
      -2.604
      -2.026
      -1.465
      -1.032
      -0.800
      -0.790
      -0.966
      -1.252
      -1.540
      -1.692
      -1.576
      -1.141
      -0.476
       0.216
       0.724
       0.952
       0.958
       0.889
       0.830
       0.741
       0.523
       0.167
      -0.183
      -0.350
      -0.309
      -0.238
      -0.377
      -0.816
      -1.394
      -1.791
      -1.744
      -1.202
      -0.340
       0.564
       1.274
       1.672
       1.748
       1.545
       1.124
       0.567
      -0.011
      -0.479
      -0.748
      -0.795
      -0.636
      -0.277
       0.286
       1.031
       1.875
       2.692
       3.360
       3.802
       3.966
       3.805
       3.273
       2.380
       1.245
       0.080
      -0.896
      -1.560
      -1.922
      -2.061
      -2.062
      -1.964
      -1.763
      -1.431
      -0.951
      -0.352
       0.286
       0.841
       1.179
       1.192
       0.851
       0.235
      -0.482
      -1.102
      -1.478
      -1.545
      -1.283
      -0.659
       0.368
       1.761
       3.291
       4.524
       4.990
       4.461
       3.137
       1.575
       0.380
      -0.120
       0.010
       0.442
       0.820
       0.896
       0.559
      -0.198
      -1.289
      -2.532
      -3.648
      -4.338
      -4.405
      -3.864
      -2.955
      -2.039
      -1.435
      -1.256
      -1.356
      -1.427
      -1.207
      -0.665
      -0.003
       0.520
       0.787
       0.896
       1.019
       1.220
       1.372
       1.290
       0.919
       0.407
      -0.007
      -0.193
      -0.221
      -0.283
      -0.535
      -0.975
      -1.439
      -1.713
      -1.678
      -1.402
      -1.097
      -0.970
      -1.055
      -1.162
      -1.000
      -0.395
       0.573
       1.616
       2.427
       2.839
       2.859
       2.595
       2.168
       1.676
       1.205
       0.827
       0.569
       0.371
       0.118
      -0.266
      -0.717
      -1.024
      -0.949
      -0.421
       0.362
       1.013
       1.201
       0.856
       0.179
      -0.534
      -1.099
      -1.505
      -1.828
      -2.092
      -2.230
      -2.138
      -1.773
      -1.212
      -0.638
      -0.283
      -0.306
      -0.677
      -1.140
      -1.330
      -1.018
      -0.281
       0.532
       1.039
       1.062
       0.707
       0.261
       0.016
       0.137
       0.610
       1.244
       1.733
       1.781
       1.276
       0.390
      -0.482
      -0.962
      -0.926
      -0.545
      -0.122
       0.139
       0.211
       0.159
       0.001
      -0.296
      -0.711
      -1.099
      -1.263
      -1.139
      -0.873
      -0.693
      -0.668
      -0.629
      -0.331
       0.300
       1.084
       1.731
       2.049
       2.048
       1.893
       1.784
       1.842
       2.057
       2.304
       2.416
       2.280
       1.908
       1.437
       1.038
       0.794
       0.650
       0.477
       0.194
      -0.157
      -0.434
      -0.500
      -0.317
       0.013
       0.298
       0.373
       0.201
      -0.105
      -0.370
      -0.464
      -0.366
      -0.149
       0.066
       0.170
       0.139
       0.070
       0.125
       0.394
       0.784
       1.038
       0.904
       0.303
      -0.615
      -1.568
      -2.298
      -2.661
      -2.636
      -2.283
      -1.712
      -1.057
      -0.447
       0.019
       0.266
       0.217
      -0.191
      -0.927
      -1.779
      -2.401
      -2.498
      -2.035
      -1.282
      -0.617
      -0.264
      -0.161
      -0.065
       0.233
       0.757
       1.386
       1.979
       2.454
       2.775
       2.897
       2.776
       2.431
       1.954
       1.440
       0.903
       0.275
      -0.511
      -1.429
      -2.354
      -3.134
      -3.667
      -3.908
      -3.812
      -3.300
      -2.317
      -0.958
       0.489
       1.664
       2.331
       2.468
       2.199
       1.652
       0.918
       0.100
      -0.642
      -1.136
      -1.292
      -1.136
      -0.762
      -0.250
       0.355
       1.007
       1.633
       2.174
       2.626
       3.010
       3.291
       3.340
       3.009
       2.264
       1.256
       0.270
      -0.413
      -0.660
      -0.541
      -0.263
      -0.046
      -0.005
      -0.115
      -0.279
      -0.422
      -0.558
      -0.748
      -1.003
      -1.207
      -1.165
      -0.745
      -0.014
       0.775
       1.332
       1.503
       1.318
       0.900
       0.359
      -0.236
      -0.811
      -1.253
      -1.453
      -1.379
      -1.116
      -0.832
      -0.698
      -0.810
      -1.158
      -1.647
      -2.145
      -2.528
      -2.710
      -2.655
      -2.386
      -1.965
      -1.466
      -0.920
      -0.303
       0.436
       1.302
       2.196
       2.922
       3.272
       3.123
       2.506
       1.602
       0.678
       0.000
      -0.261
      -0.090
       0.382
       0.947
       1.412
       1.667
       1.689
       1.504
       1.132
       0.573
      -0.147
      -0.900
      -1.435
      -1.484
      -0.964
      -0.097
       0.669
       0.938
       0.649
       0.127
      -0.167
       0.024
       0.597
       1.260
       1.799
       2.181
       2.401
       2.323
       1.735
       0.556
      -1.019
      -2.594
      -3.788
      -4.420
      -4.563
      -4.437
      -4.218
      -3.896
      -3.302
      -2.279
      -0.878
       0.606
       1.772
       2.346
       2.341
       2.014
       1.638
       1.275
       0.767
      -0.036
      -1.023
      -1.789
      -1.868
      -1.018
       0.644
       2.705
       4.632
       5.952
       6.409
       6.052
       5.198
       4.257
       3.521
       3.036
       2.679
       2.368
       2.204
       2.396
       3.024
       3.883
       4.583
       4.817
       4.548
       3.988
       3.423
       3.050
       2.896
       2.810
       2.536
       1.848
       0.715
      -0.634
      -1.806
      -2.438
      -2.349
      -1.571
      -0.291
       1.213
       2.614
       3.603
       3.961
       3.640
       2.757
       1.529
       0.178
      -1.112
      -2.172
      -2.838
      -3.007
      -2.761
      -2.413
      -2.356
      -2.808
      -3.660
      -4.574
      -5.248
      -5.638
      -5.962
      -6.524
      -7.512
      -8.884
     -10.380
     -11.618
     -12.235
     -12.031
     -11.065
      -9.657
      -8.247
      -7.183
      -6.545
      -6.139
      -5.680
      -5.017
      -4.234
      -3.548
      -3.131
      -3.003
      -3.069
      -3.236
      -3.497
      -3.926
      -4.600
      -5.494
      -6.413
      -7.003
      -6.889
      -5.885
      -4.147
      -2.130
      -0.360
       0.845
       1.508
       1.916
       2.398
       3.144
       4.149
       5.317
       6.580
       7.953
       9.481
      11.159
      12.877
      14.438
      15.621
      16.268
      16.350
      15.959
      15.235
      14.267
      13.062
      11.592
       9.860
       7.946
       5.990
       4.153
       2.581
       1.382
       0.629
       0.335
       0.436
       0.793
       1.250
       1.703
       2.110
       2.450
       2.676
       2.721
       2.529
       2.093
       1.475
       0.788
       0.122
      -0.512
      -1.186
      -2.002
      -3.033
      -4.309
      -5.808
      -7.441
      -9.036
     -10.378
     -11.313
     -11.836
     -12.085
     -12.226
     -12.311
     -12.222
     -11.744
     -10.736
      -9.282
      -7.714
      -6.476
      -5.868
      -5.852
      -6.048
      -5.952
      -5.220
      -3.825
      -2.003
      -0.073
       1.729
       3.290
       4.541
       5.366
       5.601
       5.151
       4.136
       2.924
       1.971
       1.575
       1.718
       2.118
       2.436
       2.468
       2.212
       1.795
       1.350
       0.934
       0.535
       0.136
      -0.255
      -0.625
      -1.031
      -1.604
      -2.452
      -3.545
      -4.691
      -5.645
      -6.223
      -6.341
      -5.961
      -5.066
      -3.714
      -2.106
      -0.531
       0.811
       1.947
       3.087
       4.386
       5.745
       6.840
       7.390
       7.432
       7.335
       7.525
       8.129
       8.863
       9.264
       9.055
       8.350
       7.532
       6.944
       6.638
       6.360
       5.751
       4.610
       3.054
       1.483
       0.380
       0.044
       0.402
       1.057
       1.560
       1.717
       1.699
       1.837
       2.282
       2.826
       3.050
       2.689
       1.886
       1.112
       0.796
       0.984
       1.324
       1.350
       0.846
      -0.010
      -0.793
      -1.123
      -0.909
      -0.379
       0.107
       0.318
       0.257
       0.059
      -0.207
      -0.654
      -1.498
      -2.859
      -4.580
      -6.202
      -7.160
      -7.100
      -6.108
      -4.669
      -3.387
      -2.651
      -2.511
      -2.773
      -3.232
      -3.815
      -4.534
      -5.321
      -5.921
      -5.990
      -5.338
      -4.134
      -2.874
      -2.104
      -2.091
      -2.689
      -3.468
      -3.988
      -4.023
      -3.593
      -2.831
      -1.826
      -0.558
       1.006
       2.764
       4.433
       5.678
       6.333
       6.534
       6.625
       6.913
       7.476
       8.161
       8.743
       9.085
       9.180
       9.078
       8.811
       8.378
       7.776
       7.011
       6.044
       4.778
       3.139
       1.199
      -0.795
      -2.558
      -3.947
      -5.008
      -5.839
      -6.450
      -6.759
      -6.742
      -6.548
      -6.445
      -6.637
      -7.122
      -7.726
      -8.277
      -8.746
      -9.221
      -9.758
     -10.275
     -10.587
     -10.564
     -10.248
      -9.810
      -9.387
      -8.923
      -8.197
      -7.026
      -5.482
      -3.900
      -2.672
      -1.976
      -1.693
      -1.547
      -1.326
      -0.980
      -0.537
       0.054
       0.946
       2.253
       3.881
       5.495
       6.683
       7.190
       7.061
       6.593
       6.117
       5.800
       5.577
       5.239
       4.591
       3.573
       2.305
       1.036
       0.041
      -0.488
      -0.491
      -0.039
       0.727
       1.656
       2.622
       3.495
       4.100
       4.234
       3.775
       2.795
       1.591
       0.561
       0.039
       0.205
       1.105
       2.701
       4.856
       7.280
       9.516
      11.055
      11.530
      10.876
       9.353
       7.416
       5.492
       3.811
       2.365
       1.026
      -0.268
      -1.404
      -2.146
      -2.306
      -1.877
      -1.029
       0.034
       1.176
       2.289
       3.151
       3.368
       2.538
       0.520
      -2.401
      -5.624
      -8.513
     -10.661
     -11.955
     -12.481
     -12.402
     -11.883
     -11.086
     -10.182
      -9.323
      -8.592
      -7.984
      -7.452
      -6.991
      -6.647
      -6.440
      -6.282
      -5.970
      -5.307
      -4.215
      -2.743
      -0.996
       0.941
       2.984
       4.975
       6.668
       7.816
       8.331
       8.345
       8.120
       7.871
       7.689
       7.574
       7.529
       7.568
       7.674
       7.772
       7.753
       7.516
       6.983
       6.104
       4.875
       3.412
       1.992
       0.968
       0.560
       0.663
       0.886
       0.820
       0.332
      -0.381
      -1.012
      -1.410
      -1.661
      -1.942
      -2.312
      -2.620
      -2.598
      -2.047
      -0.963
       0.458
       1.926
       3.183
       4.090
       4.675
       5.113
       5.625
       6.314
       7.022
       7.347
       6.862
       5.413
       3.292
       1.127
      -0.441
      -1.104
      -1.007
      -0.596
      -0.334
      -0.503
      -1.176
      -2.302
      -3.778
      -5.460
      -7.139
      -8.571
      -9.586
     -10.184
     -10.505
     -10.660
     -10.574
      -9.999
      -8.711
      -6.754
      -4.506
      -2.498
      -1.114
      -0.397
      -0.116
       0.008
       0.133
       0.298
       0.532
       0.894
       1.431
       2.132
       2.949
       3.846
       4.777
       5.592
       5.983
       5.585
       4.209
       2.033
      -0.451
      -2.713
      -4.467
      -5.722
      -6.591
      -7.087
      -7.082
      -6.459
      -5.278
      -3.798
      -2.315
      -0.982
       0.220
       1.337
       2.279
       2.815
       2.745
       2.091
       1.143
       0.300
      -0.160
      -0.208
      -0.030
       0.134
       0.140
       0.005
      -0.129
      -0.084
       0.248
       0.853
       1.597
       2.278
       2.663
       2.530
       1.730
       0.268
      -1.642
      -3.627
