Origin Time       30/8/2009 19:27:44	 UTC
Lat.              25.4 N	
Long.             94.8 E	
Depth (Km)         85.0
Magnitude         5.3
 Region           MYANMAR-India-Manipuir-Border                                    
 Above details taken from IMD 
    
Station Code      DIP
Station Lat.       25.839  N
Station Long.      93.435  E
Station Height(m)  260.0
Site Class        B   Vs30 between 375 m/sec to 700 m/sec *  
Record Time       30.08.2009 19:28:18.584 UTC
Sampling Rate     200. Hz
 Record Duration   79.515 Sec.
 Direction         N-S (N positive)
Max. Acceleration    -22.160 cm/sec**2
     
  * For reference see Site Classification link of website 
     
 Base Line Corrected and Low Pass Filtered (Cut Off at 35 Hz) Time History
 Acceleration data in cm/sec**2
    
[...]
       0.678
       0.590
       0.459
       0.251
      -0.046
      -0.406
      -0.770
      -1.074
      -1.273
      -1.366
      -1.387
      -1.380
      -1.366
      -1.321
      -1.186
      -0.902
      -0.448
       0.132
       0.712
       1.117
       1.208
       0.979
       0.601
       0.327
       0.321
       0.551
       0.828
       0.978
       0.964
       0.864
       0.752
       0.625
       0.438
       0.179
      -0.091
      -0.281
      -0.334
      -0.251
      -0.058
       0.229
       0.584
       0.935
       1.156
       1.140
       0.874
       0.462
       0.051
      -0.246
      -0.387
      -0.402
      -0.374
      -0.404
      -0.560
      -0.836
      -1.170
      -1.483
      -1.712
      -1.816
      -1.770
      -1.583
      -1.294
      -0.955
      -0.589
      -0.190
       0.251
       0.704
       1.103
       1.376
       1.491
       1.466
       1.348
       1.184
       1.000
       0.810
       0.636
       0.509
       0.438
       0.382
       0.271
       0.075
      -0.125
      -0.181
      -0.003
       0.328
       0.595
       0.603
       0.331
      -0.072
      -0.417
      -0.603
      -0.634
      -0.550
      -0.383
      -0.167
       0.044
       0.186
       0.217
       0.124
      -0.084
      -0.380
      -0.705
      -0.981
      -1.148
      -1.205
      -1.199
      -1.161
      -1.058
      -0.812
      -0.373
       0.202
       0.751
       1.087
       1.103
       0.832
       0.432
       0.095
      -0.043
       0.032
       0.220
       0.356
       0.304
       0.045
      -0.285
      -0.467
      -0.362
      -0.042
       0.227
       0.182
      -0.219
      -0.753
      -1.098
      -1.065
      -0.696
      -0.182
       0.297
       0.661
       0.914
       1.073
       1.145
       1.143
       1.108
       1.087
       1.092
       1.078
       0.970
       0.719
       0.346
      -0.057
      -0.387
      -0.607
      -0.761
      -0.922
      -1.106
      -1.248
      -1.256
      -1.097
      -0.830
      -0.562
      -0.392
      -0.354
      -0.415
      -0.485
      -0.468
      -0.322
      -0.096
       0.112
       0.232
       0.267
       0.269
       0.271
       0.279
       0.308
       0.391
       0.541
       0.695
       0.736
       0.586
       0.284
      -0.040
      -0.267
      -0.366
      -0.376
      -0.338
      -0.237
      -0.038
       0.248
       0.537
       0.726
       0.767
       0.707
       0.639
       0.628
       0.668
       0.689
       0.619
       0.419
       0.099
      -0.291
      -0.676
      -0.962
      -1.075
      -0.996
      -0.789
      -0.571
      -0.434
      -0.387
      -0.358
      -0.263
      -0.078
       0.149
       0.342
       0.461
       0.517
       0.564
       0.666
       0.881
       1.215
       1.594
       1.862
       1.870
       1.578
       1.097
       0.620
       0.311
       0.211
       0.219
       0.149
      -0.150
      -0.677
      -1.259
      -1.671
      -1.804
      -1.737
      -1.648
      -1.654
      -1.732
      -1.760
      -1.620
      -1.270
      -0.762
      -0.234
       0.132
       0.191
      -0.052
      -0.401
      -0.576
      -0.408
       0.027
       0.467
       0.674
       0.595
       0.346
       0.079
      -0.119
      -0.219
      -0.198
      -0.042
       0.217
       0.485
       0.671
       0.756
       0.795
       0.854
       0.933
       0.961
       0.869
       0.652
       0.371
       0.110
      -0.075
      -0.167
      -0.178
      -0.151
      -0.154
      -0.239
      -0.391
      -0.508
      -0.468
      -0.236
       0.094
       0.365
       0.479
       0.459
       0.396
       0.352
       0.301
       0.172
      -0.060
      -0.315
      -0.436
      -0.308
       0.047
       0.462
       0.732
       0.740
       0.494
       0.096
      -0.327
      -0.646
      -0.755
      -0.606
      -0.280
       0.018
       0.072
      -0.173
      -0.530
      -0.702
      -0.538
      -0.178
       0.068
      -0.005
      -0.320
      -0.614
      -0.674
      -0.503
      -0.278
      -0.180
      -0.259
      -0.437
      -0.584
      -0.601
      -0.460
      -0.202
       0.063
       0.206
       0.160
      -0.034
      -0.254
      -0.394
      -0.419
      -0.343
      -0.174
       0.103
       0.495
       0.968
       1.433
       1.774
       1.888
       1.726
       1.325
       0.827
       0.421
       0.249
       0.312
       0.486
       0.625
       0.669
       0.649
       0.615
       0.561
       0.437
       0.214
      -0.073
      -0.343
      -0.526
      -0.585
      -0.524
      -0.375
      -0.206
      -0.108
      -0.139
      -0.268
      -0.385
      -0.410
      -0.380
      -0.418
      -0.601
      -0.868
      -1.079
      -1.148
      -1.101
      -1.032
      -1.004
      -1.004
      -0.952
      -0.765
      -0.429
      -0.019
       0.332
       0.532
       0.594
       0.621
       0.706
       0.841
       0.925
       0.852
       0.619
       0.331
       0.129
       0.084
       0.164
       0.279
       0.351
       0.349
       0.271
       0.122
      -0.094
      -0.360
      -0.635
      -0.849
      -0.936
      -0.875
      -0.705
      -0.514
      -0.387
      -0.367
      -0.442
      -0.546
      -0.584
      -0.469
      -0.184
       0.196
       0.538
       0.740
       0.787
       0.733
       0.628
       0.484
       0.304
       0.107
      -0.080
      -0.261
      -0.466
      -0.695
      -0.873
      -0.885
      -0.684
      -0.353
      -0.042
       0.146
       0.225
       0.281
       0.367
       0.452
       0.473
       0.419
       0.357
       0.367
       0.444
       0.481
       0.358
       0.066
      -0.263
      -0.464
      -0.476
      -0.380
      -0.298
      -0.269
      -0.218
      -0.038
       0.298
       0.707
       1.056
       1.246
       1.246
       1.076
       0.805
       0.534
       0.355
       0.289
       0.272
       0.218
       0.115
       0.040
       0.076
       0.216
       0.342
       0.308
       0.062
      -0.301
      -0.581
      -0.611
      -0.370
      -0.014
       0.227
       0.197
      -0.078
      -0.422
      -0.655
      -0.741
      -0.808
      -1.011
      -1.363
      -1.701
      -1.802
      -1.543
      -0.956
      -0.173
       0.646
       1.329
       1.713
       1.712
       1.408
       1.034
       0.819
       0.816
       0.866
       0.757
       0.426
      -0.003
      -0.365
      -0.612
      -0.812
      -0.999
      -1.088
      -0.940
      -0.522
       0.027
       0.489
       0.702
       0.627
       0.304
      -0.198
      -0.785
      -1.312
      -1.616
      -1.591
      -1.254
      -0.722
      -0.140
       0.369
       0.717
       0.853
       0.783
       0.570
       0.305
       0.062
      -0.127
      -0.251
      -0.289
      -0.229
      -0.095
       0.035
       0.078
      -0.007
      -0.180
      -0.329
      -0.329
      -0.133
       0.170
       0.388
       0.370
       0.133
      -0.134
      -0.228
      -0.113
       0.046
       0.047
      -0.137
      -0.323
      -0.289
       0.023
       0.472
       0.852
       1.039
       1.012
       0.813
       0.511
       0.199
      -0.035
      -0.161
      -0.233
      -0.332
      -0.490
      -0.655
      -0.756
      -0.767
      -0.712
      -0.611
      -0.443
      -0.166
       0.225
       0.676
       1.102
       1.425
       1.597
       1.596
       1.424
       1.104
       0.690
       0.252
      -0.135
      -0.389
      -0.439
      -0.253
       0.114
       0.517
       0.773
       0.761
       0.480
       0.038
      -0.434
      -0.858
      -1.222
      -1.529
      -1.736
      -1.746
      -1.467
      -0.893
      -0.166
       0.475
       0.810
       0.775
       0.489
       0.155
      -0.077
      -0.197
      -0.288
      -0.429
      -0.620
      -0.786
      -0.833
      -0.711
      -0.449
      -0.134
       0.155
       0.413
       0.706
       1.074
       1.448
       1.663
       1.579
       1.192
       0.637
       0.063
      -0.456
      -0.915
      -1.284
      -1.464
      -1.358
      -0.978
      -0.464
      -0.001
       0.303
       0.450
       0.513
       0.555
       0.586
       0.580
       0.517
       0.405
       0.269
       0.135
       0.029
      -0.018
       0.025
       0.153
       0.318
       0.437
       0.453
       0.376
       0.287
       0.271
       0.348
       0.439
       0.422
       0.215
      -0.167
      -0.612
      -0.971
      -1.138
      -1.114
      -1.011
      -0.971
      -1.045
      -1.135
      -1.072
      -0.785
      -0.389
      -0.112
      -0.103
      -0.322
      -0.598
      -0.770
      -0.781
      -0.651
      -0.419
      -0.126
       0.153
       0.320
       0.343
       0.323
       0.462
       0.891
       1.514
       2.030
       2.158
       1.870
       1.409
       1.069
       0.944
       0.881
       0.666
       0.244
      -0.229
      -0.530
      -0.556
      -0.378
      -0.138
       0.086
       0.297
       0.488
       0.563
       0.393
      -0.050
      -0.626
      -1.117
      -1.379
      -1.413
      -1.302
      -1.116
      -0.875
      -0.580
      -0.261
       0.025
       0.221
       0.277
       0.160
      -0.137
      -0.553
      -0.940
      -1.127
      -1.025
      -0.697
      -0.314
      -0.035
       0.089
       0.110
       0.113
       0.155
       0.249
       0.381
       0.525
       0.650
       0.726
       0.729
       0.666
       0.576
       0.500
       0.433
       0.327
       0.156
      -0.019
      -0.084
       0.017
       0.216
       0.372
       0.418
       0.414
       0.473
       0.617
       0.752
       0.755
       0.580
       0.269
      -0.097
      -0.439
      -0.682
      -0.757
      -0.642
      -0.403
      -0.172
      -0.065
      -0.084
      -0.111
      -0.017
       0.214
       0.447
       0.491
       0.235
      -0.278
      -0.886
      -1.401
      -1.684
      -1.699
      -1.518
      -1.290
      -1.167
      -1.209
      -1.362
      -1.502
      -1.527
      -1.401
      -1.145
      -0.819
      -0.509
      -0.309
      -0.265
      -0.313
      -0.279
       0.017
       0.614
       1.359
       1.997
       2.347
       2.409
       2.336
       2.294
       2.357
       2.501
       2.669
       2.821
       2.929
       2.949
       2.840
       2.633
       2.452
       2.431
       2.583
       2.772
       2.807
       2.583
       2.125
       1.519
       0.841
       0.165
      -0.394
      -0.697
      -0.695
      -0.509
      -0.387
      -0.568
      -1.191
      -2.283
      -3.790
      -5.559
      -7.322
      -8.751
      -9.584
      -9.729
      -9.239
      -8.213
      -6.700
      -4.718
      -2.335
       0.247
       2.704
       4.701
       6.001
       6.523
       6.314
       5.504
       4.299
       2.988
       1.881
       1.199
       0.976
       1.089
       1.399
       1.896
       2.737
       4.124
       6.096
       8.382
      10.418
      11.572
      11.422
       9.940
       7.467
       4.534
       1.629
      -0.946
      -3.112
      -4.939
      -6.540
      -8.002
      -9.359
     -10.565
     -11.465
     -11.796
     -11.258
      -9.673
      -7.142
      -4.122
      -1.321
       0.552
       1.067
       0.219
      -1.629
      -3.937
      -6.175
      -7.936
      -8.966
      -9.168
      -8.560
      -7.200
      -5.133
      -2.446
       0.600
       3.518
       5.767
       7.053
       7.493
       7.448
       7.167
       6.600
       5.557
       4.059
       2.501
       1.438
       1.205
       1.709
       2.574
       3.433
       4.105
       4.548
       4.731
       4.554
       3.869
       2.541
       0.512
      -2.083
      -4.808
      -6.938
      -7.727
      -6.809
      -4.462
      -1.496
       1.170
       2.917
       3.539
       3.036
       1.396
      -1.383
      -5.019
      -8.780
     -11.667
     -12.855
     -12.046
      -9.463
      -5.576
      -0.866
       4.207
       9.112
      13.229
      15.983
      17.031
      16.353
      14.205
      10.992
       7.169
       3.168
      -0.624
      -3.875
      -6.270
      -7.482
      -7.206
      -5.317
      -2.053
       1.944
       5.787
       8.601
       9.716
       8.800
       5.951
       1.764
      -2.768
      -6.579
      -8.959
      -9.775
      -9.323
      -7.961
      -5.882
      -3.161
       0.065
       3.507
       6.766
       9.406
      10.954
      10.906
       8.860
       4.827
      -0.523
      -5.964
     -10.267
     -12.805
     -13.729
     -13.565
     -12.608
     -10.696
      -7.541
      -3.251
       1.480
       5.684
       8.639
      10.174
      10.589
      10.311
       9.589
       8.415
       6.678
       4.376
       1.735
      -0.831
      -2.899
      -4.266
      -5.114
      -5.945
      -7.266
      -9.217
     -11.385
     -12.973
     -13.211
     -11.712
      -8.540
      -4.016
       1.456
       7.398
      13.146
      17.893
      20.961
      22.118
      21.638
      20.013
      17.550
      14.191
       9.717
       4.203
      -1.632
      -6.531
      -9.264
      -9.316
      -7.186
      -4.082
      -1.247
       0.557
       1.102
       0.364
      -1.777
      -5.462
     -10.454
     -15.827
     -20.154
     -22.160
     -21.381
     -18.332
     -14.105
      -9.709
      -5.646
      -1.934
       1.538
       4.706
       7.273
       8.884
       9.342
       8.699
       7.185
       5.056
       2.527
      -0.184
      -2.751
      -4.737
      -5.745
      -5.614
      -4.481
      -2.658
      -0.497
       1.633
       3.321
       4.207
       4.197
       3.578
       2.894
       2.655
       3.135
       4.373
       6.266
       8.592
      10.949
      12.788
      13.643
      13.398
      12.304
      10.692
       8.633
       5.905
       2.317
      -1.963
      -6.381
     -10.268
     -13.166
     -14.941
     -15.672
     -15.483
     -14.456
     -12.672
     -10.257
      -7.384
      -4.209
      -0.845
       2.572
       5.756
       8.212
       9.362
       8.833
       6.702
       3.491
      -0.061
      -3.236
      -5.440
      -6.234
      -5.413
      -3.113
       0.152
       3.660
       6.775
       9.166
      10.791
      11.676
      11.735
      10.812
       8.881
       6.203
       3.313
       0.825
      -0.823
      -1.581
      -1.800
      -2.013
      -2.569
      -3.389
      -4.051
      -4.212
      -4.006
      -4.072
      -5.154
      -7.598
     -11.104
     -14.823
     -17.672
     -18.728
     -17.606
     -14.669
     -10.890
      -7.354
      -4.671
      -2.739
      -1.030
       0.832
       2.756
       4.374
       5.471
       6.195
       6.874
       7.703
       8.647
       9.608
      10.599
      11.699
      12.815
      13.525
      13.210
      11.450
       8.388
       4.762
       1.518
      -0.707
      -1.817
      -2.088
      -1.868
      -1.454
      -1.139
      -1.193
      -1.646
      -2.134
      -2.084
      -1.216
       0.110
       1.046
       0.846
      -0.658
      -3.052
      -5.686
      -7.959
      -9.348
      -9.389
      -7.821
      -4.826
      -1.059
       2.644
       5.647
       7.652
       8.546
       8.211
       6.559
       3.758
       0.396
      -2.657
      -4.640
      -5.228
      -4.589
      -3.180
      -1.533
      -0.170
       0.462
       0.182
      -0.728
      -1.593
      -1.779
      -1.154
      -0.145
       0.689
       1.161
       1.526
       2.074
       2.694
       2.901
       2.359
       1.349
       0.668
       0.964
       2.132
       3.315
       3.507
       2.246
      -0.132
      -2.743
      -4.614
      -5.064
      -3.900
      -1.455
       1.552
       4.314
       6.234
       7.039
       6.655
       5.054
       2.294
      -1.300
      -5.082
      -8.304
     -10.456
     -11.440
     -11.459
     -10.778
      -9.544
      -7.734
      -5.251
      -2.126
       1.278
       4.262
       6.081
       6.412
       5.657
       4.777
       4.706
       5.757
       7.449
       8.888
       9.335
       8.541
       6.666
       4.004
       0.812
      -2.637
      -5.907
      -8.394
      -9.554
      -9.220
      -7.725
      -5.704
      -3.736
      -2.114
      -0.861
       0.127
       0.966
       1.729
       2.390
       2.786
       2.670
       1.906
       0.646
      -0.645
      -1.386
      -1.212
      -0.232
       0.963
       1.619
       1.254
      -0.054
      -1.745
      -3.138
      -3.775
      -3.519
      -2.414
      -0.572
       1.745
       3.994
       5.431
       5.467
       4.067
       1.829
      -0.362
      -1.838
      -2.445
      -2.446
      -2.217
      -2.043
      -2.095
      -2.428
      -2.931
      -3.306
      -3.196
      -2.399
      -0.980
       0.797
       2.595
       4.055
       4.813
       4.624
       3.583
       2.204
       1.178
       0.937
       1.371
       1.969
       2.293
       2.385
       2.719
       3.695
       5.112
       6.152
       5.970
       4.397
       2.128
       0.186
      -0.847
      -1.142
      -1.224
      -1.329
      -1.189
      -0.448
       0.790
       1.882
       2.154
       1.468
       0.305
      -0.696
      -1.281
      -1.715
      -2.427
      -3.556
      -4.823
      -5.805
      -6.298
      -6.425
      -6.444
      -6.488
      -6.467
      -6.139
      -5.256
      -3.697
      -1.560
       0.810
       2.930
       4.393
       5.029
       4.911
       4.244
       3.290
       2.387
       1.935
       2.223
       3.179
       4.254
       4.667
       3.906
       2.142
       0.144
      -1.290
      -1.943
      -2.261
      -2.861
      -3.947
      -5.200
      -6.161
      -6.656
      -6.806
      -6.688
      -6.081
      -4.627
      -2.211
       0.863
       4.052
       6.921
       9.276
      11.024
      11.941
      11.668
       9.959
       6.992
       3.428
       0.137
      -2.226
      -3.482
      -3.879
      -3.789
      -3.433
      -2.821
      -1.900
      -0.740
       0.442
       1.401
       1.998
       2.236
       2.208
       2.036
       1.832
       1.655
       1.482
       1.214
       0.734
      -0.011
      -0.969
      -1.995
      -2.882
      -3.423
      -3.467
      -2.993
      -2.180
      -1.413
      -1.188
      -1.876
      -3.471
      -5.500
      -7.220
      -7.986
      -7.566
      -6.247
      -4.687
      -3.596
      -3.357
      -3.796
      -4.290
      -4.148
      -3.038
      -1.138
       1.042
       2.992
       4.448
       5.449
       6.213
       6.925
       7.520
       7.634
       6.843
       5.072
       2.807
       0.859
      -0.188
      -0.363
      -0.211
      -0.305
      -0.827
      -1.532
      -2.061
      -2.233
      -2.070
      -1.578
      -0.597
       1.077
       3.409
       5.968
       8.080
       9.181
       9.073
       7.918
       6.029
       3.684
       1.100
      -1.486
      -3.782
      -5.494
      -6.446
      -6.657
      -6.327
      -5.747
