Origin Time       24/2/2009 17:46:13  UTC
Lat.              25.9 N 
Long.             94.3 E 
Depth (Km)         10.0
Magnitude         4.8
 Region           INDIA(NAGALAND)-MYANMAR-BORD-REG                                 
 Above details taken from IMD 
    
Station Code      DIP
Station Lat.       25.839  N
Station Long.      93.435  E
Station Height(m)  260.0
Site Class        B   Vs30 between 375 m/sec to 700 m/sec *  
Record Time       24.02.2009 17:46:33.634 UTC
Sampling Rate     200. Hz
 Record Duration   72.065 Sec.
 Direction         N-S (N positive)
Max. Acceleration    -11.869 cm/sec**2
     
  * For reference see Site Classification link of website 
     
 Base Line Corrected and Low Pass Filtered (Cut Off at 35 Hz) Time History
 Acceleration data in cm/sec**2
    
[...]
       0.451
       0.436
       0.443
       0.421
       0.326
       0.151
      -0.061
      -0.232
      -0.294
      -0.230
      -0.082
       0.070
       0.158
       0.162
       0.108
       0.039
      -0.004
      -0.002
       0.052
       0.148
       0.249
       0.290
       0.207
      -0.022
      -0.350
      -0.677
      -0.909
      -1.004
      -0.996
      -0.948
      -0.904
      -0.850
      -0.734
      -0.514
      -0.198
       0.148
       0.451
       0.675
       0.836
       0.956
       1.019
       0.963
       0.736
       0.361
      -0.045
      -0.338
      -0.429
      -0.332
      -0.134
       0.070
       0.225
       0.316
       0.348
       0.327
       0.266
       0.194
       0.136
       0.089
       0.018
      -0.117
      -0.321
      -0.543
      -0.702
      -0.727
      -0.591
      -0.324
      -0.003
       0.274
       0.422
       0.394
       0.200
      -0.089
      -0.368
      -0.527
      -0.497
      -0.287
       0.014
       0.262
       0.339
       0.213
      -0.044
      -0.300
      -0.453
      -0.478
      -0.421
      -0.340
      -0.266
      -0.196
      -0.135
      -0.116
      -0.179
      -0.322
      -0.484
      -0.577
      -0.549
      -0.413
      -0.234
      -0.069
       0.075
       0.234
       0.436
       0.651
       0.796
       0.795
       0.639
       0.402
       0.183
       0.045
      -0.012
      -0.014
       0.033
       0.141
       0.296
       0.436
       0.468
       0.342
       0.094
      -0.162
      -0.304
      -0.280
      -0.138
       0.020
       0.113
       0.135
       0.130
       0.130
       0.119
       0.061
      -0.040
      -0.115
      -0.077
       0.104
       0.375
       0.638
       0.812
       0.868
       0.802
       0.612
       0.309
      -0.059
      -0.388
      -0.567
      -0.547
      -0.382
      -0.186
      -0.048
       0.030
       0.101
       0.192
       0.248
       0.178
      -0.044
      -0.330
      -0.527
      -0.534
      -0.370
      -0.146
       0.030
       0.125
       0.183
       0.251
       0.314
       0.297
       0.131
      -0.183
      -0.564
      -0.903
      -1.124
      -1.190
      -1.097
      -0.864
      -0.549
      -0.239
      -0.020
       0.083
       0.103
       0.093
       0.072
       0.015
      -0.104
      -0.273
      -0.432
      -0.513
      -0.477
      -0.336
      -0.130
       0.098
       0.313
       0.489
       0.593
       0.596
       0.484
       0.287
       0.075
      -0.067
      -0.087
       0.008
       0.152
       0.268
       0.325
       0.354
       0.408
       0.500
       0.588
       0.599
       0.498
       0.309
       0.097
      -0.074
      -0.169
      -0.181
      -0.111
       0.035
       0.235
       0.436
       0.566
       0.558
       0.400
       0.156
      -0.054
      -0.123
      -0.022
       0.185
       0.384
       0.480
       0.447
       0.325
       0.179
       0.057
      -0.036
      -0.126
      -0.241
      -0.385
      -0.535
      -0.644
      -0.674
      -0.605
      -0.448
      -0.233
       0.003
       0.229
       0.409
       0.505
       0.476
       0.294
      -0.039
      -0.472
      -0.909
      -1.228
      -1.331
      -1.179
      -0.816
      -0.338
       0.145
       0.546
       0.808
       0.903
       0.829
       0.617
       0.328
       0.034
      -0.202
      -0.341
      -0.374
      -0.307
      -0.165
       0.009
       0.161
       0.243
       0.233
       0.144
       0.015
      -0.106
      -0.186
      -0.217
      -0.208
      -0.166
      -0.079
       0.064
       0.249
       0.415
       0.476
       0.371
       0.104
      -0.254
      -0.610
      -0.904
      -1.116
      -1.244
      -1.268
      -1.151
      -0.872
      -0.458
       0.014
       0.446
       0.753
       0.891
       0.852
       0.660
       0.365
       0.034
      -0.255
      -0.436
      -0.485
      -0.421
      -0.286
      -0.105
       0.124
       0.398
       0.672
       0.862
       0.898
       0.790
       0.632
       0.541
       0.569
       0.664
       0.721
       0.667
       0.515
       0.339
       0.208
       0.130
       0.071
       0.011
      -0.032
      -0.030
       0.005
       0.010
      -0.069
      -0.216
      -0.342
      -0.356
      -0.236
      -0.031
       0.193
       0.404
       0.598
       0.742
       0.744
       0.502
       0.007
      -0.599
      -1.071
      -1.213
      -1.000
      -0.597
      -0.239
      -0.071
      -0.074
      -0.118
      -0.097
      -0.008
       0.068
       0.059
      -0.033
      -0.153
      -0.262
      -0.377
      -0.520
      -0.655
      -0.671
      -0.481
      -0.122
       0.225
       0.359
       0.203
      -0.140
      -0.486
      -0.708
      -0.799
      -0.803
      -0.721
      -0.499
      -0.117
       0.332
       0.668
       0.743
       0.557
       0.249
      -0.012
      -0.145
      -0.179
      -0.172
      -0.137
      -0.044
       0.118
       0.303
       0.444
       0.525
       0.589
       0.686
       0.803
       0.870
       0.828
       0.696
       0.554
       0.471
       0.443
       0.402
       0.288
       0.107
      -0.073
      -0.177
      -0.169
      -0.076
       0.032
       0.083
       0.047
      -0.055
      -0.166
      -0.244
      -0.285
      -0.319
      -0.385
      -0.505
      -0.674
      -0.858
      -1.005
      -1.066
      -1.014
      -0.854
      -0.612
      -0.312
       0.017
       0.325
       0.540
       0.603
       0.523
       0.392
       0.339
       0.443
       0.678
       0.920
       1.023
       0.910
       0.607
       0.219
      -0.134
      -0.371
      -0.463
      -0.412
      -0.232
       0.053
       0.384
       0.651
       0.731
       0.550
       0.133
      -0.389
      -0.843
      -1.086
      -1.073
      -0.856
      -0.557
      -0.311
      -0.206
      -0.258
      -0.413
      -0.582
      -0.688
      -0.688
      -0.574
      -0.355
      -0.056
       0.277
       0.571
       0.760
       0.833
       0.839
       0.848
       0.886
       0.913
       0.865
       0.718
       0.507
       0.287
       0.088
      -0.104
      -0.316
      -0.540
      -0.725
      -0.797
      -0.720
      -0.520
      -0.275
      -0.068
       0.049
       0.070
       0.015
      -0.087
      -0.212
      -0.342
      -0.469
      -0.594
      -0.708
      -0.783
      -0.778
      -0.669
      -0.477
      -0.266
      -0.103
      -0.020
       0.003
       0.003
      -0.004
      -0.035
      -0.103
      -0.178
      -0.192
      -0.091
       0.109
       0.326
       0.465
       0.486
       0.428
       0.371
       0.383
       0.478
       0.632
       0.812
       1.001
       1.194
       1.371
       1.499
       1.545
       1.502
       1.397
       1.268
       1.152
       1.071
       1.035
       1.042
       1.076
       1.103
       1.076
       0.943
       0.671
       0.282
      -0.141
      -0.472
      -0.609
      -0.528
      -0.290
       0.003
       0.255
       0.391
       0.359
       0.139
      -0.221
      -0.598
      -0.838
      -0.843
      -0.631
      -0.321
      -0.039
       0.158
       0.299
       0.435
       0.572
       0.655
       0.625
       0.472
       0.249
       0.022
      -0.162
      -0.273
      -0.270
      -0.095
       0.273
       0.761
       1.195
       1.395
       1.291
       0.969
       0.606
       0.338
       0.183
       0.072
      -0.055
      -0.184
      -0.256
      -0.246
      -0.203
      -0.225
      -0.401
      -0.767
      -1.300
      -1.935
      -2.578
      -3.138
      -3.550
      -3.801
      -3.928
      -3.996
      -4.075
      -4.213
      -4.424
      -4.685
      -4.948
      -5.158
      -5.266
      -5.240
      -5.081
      -4.822
      -4.517
      -4.222
      -3.964
      -3.724
      -3.444
      -3.048
      -2.464
      -1.651
      -0.627
       0.513
       1.624
       2.582
       3.370
       4.075
       4.816
       5.633
       6.441
       7.084
       7.440
       7.502
       7.376
       7.204
       7.082
       7.032
       7.032
       7.069
       7.143
       7.235
       7.266
       7.110
       6.661
       5.894
       4.878
       3.730
       2.560
       1.439
       0.413
      -0.485
      -1.248
      -1.897
      -2.487
      -3.064
      -3.647
      -4.225
      -4.792
      -5.366
      -5.977
      -6.619
      -7.230
      -7.715
      -8.005
      -8.104
      -8.078
      -7.990
      -7.845
      -7.582
      -7.118
      -6.415
      -5.504
      -4.466
      -3.375
      -2.269
      -1.169
      -0.112
       0.837
       1.623
       2.247
       2.763
       3.242
       3.724
       4.219
       4.734
       5.292
       5.909
       6.554
       7.134
       7.526
       7.645
       7.480
       7.083
       6.512
       5.771
       4.829
       3.679
       2.385
       1.058
      -0.199
      -1.324
      -2.259
      -2.911
      -3.178
      -3.039
      -2.630
      -2.204
      -2.004
      -2.138
      -2.561
      -3.170
      -3.887
      -4.672
      -5.438
      -6.013
      -6.195
      -5.882
      -5.141
      -4.141
      -3.003
      -1.722
      -0.241
       1.396
       2.950
       4.074
       4.514
       4.268
       3.566
       2.713
       1.921
       1.264
       0.755
       0.436
       0.364
       0.526
       0.796
       1.001
       1.074
       1.136
       1.407
       2.013
       2.856
       3.671
       4.212
       4.399
       4.312
       4.059
       3.664
       3.069
       2.232
       1.206
       0.120
      -0.915
      -1.887
      -2.850
      -3.805
      -4.602
      -4.970
      -4.677
      -3.702
      -2.277
      -0.778
       0.450
       1.203
       1.424
       1.133
       0.365
      -0.829
      -2.349
      -4.002
      -5.518
      -6.621
      -7.116
      -6.959
      -6.238
      -5.099
      -3.663
      -1.990
      -0.124
       1.847
       3.770
       5.468
       6.819
       7.793
       8.411
       8.652
       8.422
       7.616
       6.251
       4.538
       2.810
       1.353
       0.260
      -0.570
      -1.302
      -2.024
      -2.717
      -3.314
      -3.770
      -4.057
      -4.111
      -3.817
      -3.081
      -1.938
      -0.608
       0.569
       1.265
       1.300
       0.697
      -0.339
      -1.499
      -2.464
      -2.979
      -2.908
      -2.267
      -1.224
      -0.052
       0.955
       1.581
       1.758
       1.565
       1.185
       0.820
       0.616
       0.630
       0.846
       1.217
       1.676
       2.123
       2.424
       2.465
       2.213
       1.731
       1.110
       0.401
      -0.385
      -1.200
      -1.917
      -2.386
      -2.548
      -2.512
      -2.476
      -2.584
      -2.811
      -2.981
      -2.885
      -2.389
      -1.479
      -0.228
       1.240
       2.771
       4.183
       5.267
       5.821
       5.698
       4.877
       3.492
       1.811
       0.139
      -1.287
      -2.359
      -3.061
      -3.398
      -3.332
      -2.812
      -1.861
      -0.656
       0.472
       1.157
       1.170
       0.538
      -0.465
      -1.455
      -2.103
      -2.238
      -1.859
      -1.077
      -0.073
       0.922
       1.657
       1.929
       1.672
       1.013
       0.233
      -0.361
      -0.571
      -0.381
       0.092
       0.687
       1.279
       1.797
       2.209
       2.501
       2.668
       2.697
       2.557
       2.187
       1.505
       0.454
      -0.937
      -2.514
      -4.031
      -5.233
      -5.946
      -6.113
      -5.772
      -4.998
      -3.877
      -2.515
      -1.076
       0.216
       1.113
       1.432
       1.124
       0.291
      -0.870
      -2.147
      -3.360
      -4.362
      -5.008
      -5.150
      -4.679
      -3.589
      -2.022
      -0.238
       1.462
       2.851
       3.839
       4.465
       4.825
       4.997
       5.014
       4.894
       4.672
       4.406
       4.128
       3.799
       3.314
       2.578
       1.598
       0.534
      -0.333
      -0.715
      -0.436
       0.484
       1.822
       3.220
       4.301
       4.780
       4.527
       3.575
       2.087
       0.311
      -1.470
      -2.993
      -4.082
      -4.708
      -4.984
      -5.106
      -5.236
      -5.426
      -5.611
      -5.675
      -5.538
      -5.195
      -4.696
      -4.120
      -3.565
      -3.148
      -2.974
      -3.064
      -3.312
      -3.518
      -3.502
      -3.200
      -2.673
      -2.028
      -1.332
      -0.587
       0.219
       1.056
       1.842
       2.486
       2.941
       3.224
       3.408
       3.587
       3.838
       4.186
       4.575
       4.875
       4.928
       4.626
       3.952
       2.990
       1.887
       0.825
      -0.009
      -0.446
      -0.388
       0.140
       0.976
       1.879
       2.651
       3.232
       3.713
       4.247
       4.936
       5.761
       6.602
       7.304
       7.724
       7.740
       7.248
       6.192
       4.616
       2.700
       0.752
      -0.872
      -1.880
      -2.156
      -1.803
      -1.074
      -0.257
       0.417
       0.777
       0.685
       0.047
      -1.114
      -2.608
      -4.130
      -5.390
      -6.242
      -6.725
      -7.001
      -7.270
      -7.705
      -8.410
      -9.372
     -10.438
     -11.358
     -11.869
     -11.783
     -11.002
      -9.510
      -7.375
      -4.787
      -2.068
       0.411
       2.367
       3.703
       4.480
       4.801
       4.702
       4.171
       3.253
       2.144
       1.162
       0.606
       0.605
       1.075
       1.816
       2.647
       3.489
       4.327
       5.140
       5.863
       6.436
       6.884
       7.314
       7.821
       8.362
       8.725
       8.640
       7.956
       6.727
       5.171
       3.559
       2.117
       1.013
       0.345
       0.126
       0.250
       0.522
       0.748
       0.827
       0.771
       0.644
       0.490
       0.322
       0.152
       0.026
      -0.011
       0.024
       0.013
      -0.230
      -0.868
      -1.944
      -3.334
      -4.785
      -6.018
      -6.837
      -7.166
      -7.024
      -6.474
      -5.588
      -4.453
      -3.184
      -1.927
      -0.844
      -0.077
       0.298
       0.314
       0.095
      -0.229
      -0.624
      -1.192
      -2.080
      -3.330
      -4.769
      -6.043
      -6.786
      -6.792
      -6.077
      -4.786
      -3.055
      -0.971
       1.342
       3.616
       5.462
       6.538
       6.733
       6.209
       5.276
       4.228
       3.258
       2.474
       1.933
       1.621
       1.427
       1.163
       0.669
      -0.082
      -0.955
      -1.727
      -2.207
      -2.321
      -2.124
      -1.757
      -1.377
      -1.117
      -1.043
      -1.141
      -1.316
      -1.423
      -1.339
      -1.030
      -0.578
      -0.148
       0.067
      -0.073
      -0.590
      -1.366
      -2.193
      -2.879
      -3.345
      -3.632
      -3.823
      -3.922
      -3.780
      -3.155
      -1.887
      -0.060
       1.987
       3.824
       5.154
       5.928
       6.275
       6.346
       6.203
       5.833
       5.241
       4.512
       3.792
       3.208
       2.820
       2.639
       2.685
       2.987
       3.505
       4.037
       4.256
       3.892
       2.936
       1.681
       0.543
      -0.204
      -0.566
      -0.754
      -0.983
      -1.326
      -1.713
      -2.033
      -2.233
      -2.316
      -2.293
      -2.137
      -1.809
      -1.342
      -0.895
      -0.694
      -0.893
      -1.441
      -2.080
      -2.489
      -2.482
      -2.111
      -1.643
      -1.409
      -1.633
      -2.328
      -3.296
      -4.245
      -4.934
      -5.260
      -5.249
      -4.976
      -4.505
      -3.877
      -3.145
      -2.396
      -1.732
      -1.238
      -0.941
      -0.814
      -0.823
      -0.966
      -1.268
      -1.733
      -2.269
      -2.682
      -2.725
      -2.169
      -0.879
       1.137
       3.690
       6.423
       8.889
      10.689
      11.597
      11.612
      10.902
       9.693
       8.162
       6.409
       4.492
       2.492
       0.553
      -1.126
      -2.343
      -2.965
      -2.964
      -2.404
      -1.410
      -0.133
       1.236
       2.460
       3.294
       3.578
       3.328
       2.720
       1.964
       1.173
       0.320
      -0.678
      -1.839
      -3.053
      -4.118
      -4.857
      -5.213
      -5.262
      -5.133
      -4.904
      -4.556
      -4.027
      -3.302
      -2.469
      -1.698
      -1.151
      -0.894
      -0.868
      -0.927
      -0.932
      -0.823
      -0.654
      -0.544
      -0.572
      -0.699
      -0.752
      -0.509
       0.189
       1.360
       2.873
       4.495
       5.971
       7.073
       7.626
       7.508
       6.677
       5.218
       3.372
       1.468
      -0.204
      -1.521
      -2.527
      -3.334
      -4.020
      -4.582
      -4.961
      -5.071
      -4.839
      -4.242
      -3.347
      -2.317
      -1.345
      -0.584
      -0.107
       0.054
      -0.132
      -0.685
      -1.554
      -2.606
      -3.689
      -4.713
      -5.657
      -6.481
      -7.024
      -7.036
      -6.308
      -4.832
      -2.820
      -0.598
       1.536
       3.375
       4.762
       5.545
       5.620
       5.043
       4.082
       3.139
       2.574
       2.538
       2.940
       3.528
       4.028
       4.256
       4.159
       3.798
       3.284
       2.730
       2.222
       1.829
       1.621
       1.658
       1.953
       2.440
       2.960
       3.319
       3.383
       3.153
       2.746
       2.287
       1.798
       1.202
       0.438
      -0.413
      -1.146
      -1.584
      -1.747
      -1.859
      -2.182
      -2.798
      -3.513
      -3.983
      -3.952
      -3.414
      -2.582
      -1.702
      -0.905
      -0.227
       0.248
       0.323
      -0.207
      -1.336
      -2.751
      -3.947
      -4.491
      -4.229
      -3.316
      -2.089
      -0.909
      -0.062
       0.262
      -0.021
      -0.854
      -2.031
      -3.236
      -4.149
      -4.563
      -4.431
      -3.824
      -2.866
      -1.711
      -0.582
       0.251
       0.604
       0.544
       0.417
       0.646
       1.450
       2.692
       3.995
       5.004
       5.591
       5.835
       5.843
       5.596
       4.964
       3.874
       2.447
       0.980
      -0.227
      -1.005
      -1.320
      -1.155
      -0.471
       0.706
       2.150
       3.455
       4.223
       4.297
       3.816
       3.070
       2.291
       1.554
       0.840
       0.167
      -0.363
      -0.624
      -0.584
      -0.346
      -0.105
      -0.039
      -0.239
      -0.697
      -1.354
      -2.173
      -3.132
      -4.150
      -5.008
      -5.376
      -4.985
      -3.859
      -2.398
      -1.225
      -0.849
      -1.376
      -2.474
      -3.624
      -4.426
      -4.740
      -4.598
      -4.057
      -3.162
      -2.016
      -0.826
       0.173
       0.861
       1.281
       1.558
       1.773
       1.912
       1.932
       1.851
       1.769
