Origin Time       30/8/2009 19:27:44	
Lat.              25.4 N	
Long.             94.8 E	
Depth (Km)         85.0
Magnitude         5.3
 Region           MYANMAR-India-Manipuir-Border                                    
 Above details taken from IMD 
     
Station Code      DIP
Station Lat.       25.839  N
Station Long.      93.435  E
Station Height(m)  260.0
Site Class        B   Vs30 between 375 m/sec to 700 m/sec *  
Record Time       30.08.2009 19:28:18.584
Sampling Rate     200. Hz
 Record Duration   79.515 Sec.
 Direction         E-W (E positive)
Max. Acceleration     24.811 cm/sec**2
     
  * For reference see Site Classification link of website 
     
 Base Line Corrected and Low Pass Filtered (Cut Off at 35 Hz) Time History
 Acceleration data in cm/sec**2
    
[...]
      -0.459
      -0.673
      -0.773
      -0.775
      -0.721
      -0.623
      -0.476
      -0.298
      -0.140
      -0.050
      -0.036
      -0.067
      -0.102
      -0.116
      -0.095
      -0.042
       0.003
      -0.021
      -0.151
      -0.317
      -0.351
      -0.084
       0.508
       1.248
       1.843
       2.069
       1.897
       1.479
       1.027
       0.685
       0.474
       0.326
       0.160
      -0.055
      -0.274
      -0.396
      -0.340
      -0.124
       0.106
       0.164
      -0.024
      -0.343
      -0.567
      -0.541
      -0.292
       0.009
       0.184
       0.153
      -0.052
      -0.335
      -0.575
      -0.662
      -0.542
      -0.268
       0.021
       0.178
       0.144
      -0.044
      -0.310
      -0.599
      -0.877
      -1.102
      -1.220
      -1.205
      -1.102
      -0.998
      -0.944
      -0.890
      -0.721
      -0.361
       0.144
       0.653
       1.007
       1.096
       0.885
       0.410
      -0.209
      -0.775
      -1.075
      -0.983
      -0.538
       0.074
       0.652
       1.096
       1.410
       1.611
       1.651
       1.462
       1.060
       0.593
       0.265
       0.203
       0.378
       0.633
       0.806
       0.828
       0.744
       0.649
       0.590
       0.528
       0.375
       0.081
      -0.318
      -0.723
      -1.031
      -1.182
      -1.172
      -1.052
      -0.911
      -0.832
      -0.840
      -0.884
      -0.870
      -0.735
      -0.497
      -0.250
      -0.091
      -0.060
      -0.114
      -0.183
      -0.232
      -0.288
      -0.393
      -0.516
      -0.547
      -0.388
      -0.048
       0.367
       0.769
       1.175
       1.651
       2.187
       2.631
       2.769
       2.480
       1.823
       0.997
       0.218
      -0.372
      -0.730
      -0.871
      -0.845
      -0.738
      -0.660
      -0.695
      -0.840
      -0.998
      -1.043
      -0.906
      -0.621
      -0.316
      -0.143
      -0.188
      -0.416
      -0.696
      -0.888
      -0.937
      -0.886
      -0.814
      -0.743
      -0.634
      -0.451
      -0.224
      -0.041
       0.031
       0.012
      -0.013
       0.019
       0.095
       0.155
       0.163
       0.155
       0.203
       0.366
       0.624
       0.879
       0.986
       0.850
       0.494
       0.070
      -0.225
      -0.273
      -0.102
       0.144
       0.327
       0.406
       0.446
       0.535
       0.687
       0.812
       0.787
       0.557
       0.192
      -0.152
      -0.346
      -0.381
      -0.379
      -0.482
      -0.739
      -1.058
      -1.280
      -1.292
      -1.097
      -0.779
      -0.431
      -0.106
       0.182
       0.431
       0.631
       0.765
       0.816
       0.769
       0.620
       0.389
       0.143
      -0.022
      -0.027
       0.135
       0.384
       0.600
       0.693
       0.636
       0.466
       0.242
       0.005
      -0.229
      -0.455
      -0.644
      -0.761
      -0.803
      -0.824
      -0.877
      -0.955
      -0.978
      -0.873
      -0.645
      -0.375
      -0.150
      -0.001
       0.085
       0.138
       0.178
       0.233
       0.343
       0.533
       0.778
       0.992
       1.086
       1.018
       0.812
       0.531
       0.237
      -0.021
      -0.222
      -0.380
      -0.533
      -0.703
      -0.850
      -0.895
      -0.795
      -0.593
      -0.389
      -0.258
      -0.190
      -0.124
      -0.029
       0.057
       0.068
      -0.015
      -0.122
      -0.145
      -0.011
       0.282
       0.678
       1.101
       1.465
       1.694
       1.730
       1.558
       1.218
       0.802
       0.413
       0.119
      -0.073
      -0.189
      -0.243
      -0.223
      -0.127
       0.006
       0.115
       0.179
       0.231
       0.316
       0.428
       0.494
       0.421
       0.159
      -0.282
      -0.854
      -1.489
      -2.098
      -2.565
      -2.781
      -2.695
      -2.347
      -1.843
      -1.294
      -0.763
      -0.272
       0.158
       0.470
       0.611
       0.587
       0.484
       0.425
       0.493
       0.691
       0.951
       1.184
       1.326
       1.347
       1.248
       1.058
       0.839
       0.666
       0.573
       0.507
       0.343
      -0.008
      -0.509
      -0.997
      -1.296
      -1.342
      -1.201
      -0.981
      -0.737
      -0.444
      -0.066
       0.380
       0.804
       1.077
       1.087
       0.807
       0.323
      -0.192
      -0.560
      -0.695
      -0.618
      -0.410
      -0.154
       0.087
       0.254
       0.303
       0.243
       0.141
       0.091
       0.137
       0.241
       0.309
       0.270
       0.120
      -0.091
      -0.298
      -0.449
      -0.519
      -0.516
      -0.473
      -0.420
      -0.349
      -0.221
      -0.028
       0.163
       0.247
       0.190
       0.083
       0.078
       0.247
       0.505
       0.680
       0.658
       0.470
       0.256
       0.137
       0.132
       0.165
       0.145
       0.029
      -0.155
      -0.329
      -0.406
      -0.331
      -0.119
       0.143
       0.346
       0.435
       0.445
       0.464
       0.521
       0.540
       0.387
       0.010
      -0.475
      -0.834
      -0.888
      -0.663
      -0.393
      -0.337
      -0.564
      -0.873
      -0.941
      -0.574
       0.144
       0.918
       1.435
       1.528
       1.215
       0.636
      -0.022
      -0.562
      -0.825
      -0.753
      -0.437
      -0.088
       0.097
       0.067
      -0.047
      -0.056
       0.118
       0.372
       0.519
       0.457
       0.259
       0.098
       0.105
       0.265
       0.447
       0.509
       0.396
       0.144
      -0.156
      -0.411
      -0.554
      -0.568
      -0.494
      -0.391
      -0.279
      -0.125
       0.112
       0.399
       0.614
       0.621
       0.381
      -0.012
      -0.385
      -0.606
      -0.646
      -0.562
      -0.431
      -0.304
      -0.210
      -0.173
      -0.198
      -0.257
      -0.289
      -0.237
      -0.079
       0.157
       0.405
       0.592
       0.656
       0.546
       0.244
      -0.193
      -0.616
      -0.832
      -0.721
      -0.342
       0.083
       0.321
       0.294
       0.129
       0.028
       0.082
       0.184
       0.142
      -0.136
      -0.533
      -0.823
      -0.852
      -0.646
      -0.354
      -0.106
       0.059
       0.166
       0.254
       0.356
       0.503
       0.716
       0.958
       1.120
       1.050
       0.664
       0.039
      -0.586
      -0.946
      -0.913
      -0.577
      -0.168
       0.106
       0.173
       0.088
      -0.057
      -0.206
      -0.357
      -0.522
      -0.691
      -0.837
      -0.942
      -1.001
      -1.005
      -0.908
      -0.641
      -0.174
       0.435
       1.032
       1.435
       1.527
       1.318
       0.942
       0.569
       0.311
       0.174
       0.090
      -0.007
      -0.128
      -0.214
      -0.169
       0.081
       0.528
       1.055
       1.475
       1.627
       1.482
       1.156
       0.831
       0.623
       0.517
       0.410
       0.217
      -0.059
      -0.346
      -0.578
      -0.742
      -0.857
      -0.926
      -0.927
      -0.859
      -0.785
      -0.790
      -0.889
      -0.979
      -0.925
      -0.699
      -0.419
      -0.228
      -0.141
      -0.032
       0.200
       0.492
       0.650
       0.550
       0.272
       0.029
      -0.043
      -0.007
      -0.049
      -0.276
      -0.604
      -0.823
      -0.783
      -0.511
      -0.171
       0.075
       0.192
       0.250
       0.320
       0.385
       0.361
       0.195
      -0.062
      -0.274
      -0.336
      -0.256
      -0.132
      -0.041
       0.050
       0.253
       0.627
       1.088
       1.447
       1.544
       1.349
       0.948
       0.464
      -0.018
      -0.453
      -0.800
      -0.999
      -1.006
      -0.846
      -0.624
      -0.455
      -0.394
      -0.417
      -0.463
      -0.500
      -0.544
      -0.633
      -0.772
      -0.905
      -0.951
      -0.864
      -0.659
      -0.378
      -0.044
       0.319
       0.660
       0.900
       0.999
       0.996
       0.980
       0.993
       0.988
       0.875
       0.631
       0.332
       0.098
      -0.006
      -0.009
       0.022
       0.054
       0.095
       0.150
       0.194
       0.193
       0.148
       0.093
       0.064
       0.071
       0.111
       0.183
       0.278
       0.347
       0.320
       0.158
      -0.096
      -0.331
      -0.440
      -0.389
      -0.238
      -0.084
       0.011
       0.041
       0.022
      -0.040
      -0.153
      -0.313
      -0.492
      -0.639
      -0.714
      -0.694
      -0.584
      -0.406
      -0.209
      -0.063
      -0.029
      -0.109
      -0.229
      -0.282
      -0.203
      -0.006
       0.244
       0.500
       0.748
       0.957
       1.029
       0.841
       0.375
      -0.206
      -0.642
      -0.766
      -0.617
      -0.376
      -0.215
      -0.194
      -0.267
      -0.350
      -0.377
      -0.316
      -0.160
       0.074
       0.338
       0.559
       0.677
       0.698
       0.701
       0.793
       1.009
       1.257
       1.367
       1.209
       0.790
       0.254
      -0.202
      -0.426
      -0.366
      -0.078
       0.293
       0.562
       0.577
       0.290
      -0.225
      -0.812
      -1.316
      -1.638
      -1.734
      -1.604
      -1.281
      -0.835
      -0.363
       0.045
       0.323
       0.423
       0.295
      -0.070
      -0.586
      -1.063
      -1.330
      -1.354
      -1.242
      -1.082
      -0.839
      -0.416
       0.164
       0.685
       0.889
       0.714
       0.377
       0.206
       0.357
       0.688
       0.898
       0.801
       0.480
       0.215
       0.247
       0.588
       1.031
       1.324
       1.371
       1.269
       1.192
       1.216
       1.234
       1.043
       0.508
      -0.296
      -1.112
      -1.662
      -1.838
      -1.754
      -1.628
      -1.591
      -1.593
      -1.457
      -1.043
      -0.387
       0.304
       0.792
       0.952
       0.824
       0.528
       0.169
      -0.191
      -0.487
      -0.628
      -0.541
      -0.231
       0.217
       0.699
       1.153
       1.548
       1.834
       1.932
       1.778
       1.396
       0.900
       0.425
       0.038
      -0.277
      -0.547
      -0.760
      -0.865
      -0.841
      -0.724
      -0.580
      -0.450
      -0.332
      -0.212
      -0.086
       0.036
       0.136
       0.194
       0.174
       0.021
      -0.287
      -0.693
      -1.055
      -1.230
      -1.170
      -0.941
      -0.653
      -0.379
      -0.133
       0.077
       0.219
       0.277
       0.291
       0.339
       0.464
       0.596
       0.589
       0.345
      -0.076
      -0.470
      -0.641
      -0.540
      -0.272
       0.023
       0.273
       0.469
       0.606
       0.663
       0.650
       0.643
       0.744
       0.989
       1.282
       1.438
       1.287
       0.789
       0.072
      -0.627
      -1.083
      -1.197
      -1.035
      -0.772
      -0.567
      -0.476
      -0.469
      -0.499
      -0.559
      -0.653
      -0.748
      -0.772
      -0.693
      -0.575
      -0.550
      -0.699
      -0.962
      -1.161
      -1.118
      -0.764
      -0.157
       0.559
       1.218
       1.668
       1.817
       1.685
       1.399
       1.107
       0.834
       0.460
      -0.147
      -0.931
      -1.606
      -1.835
      -1.486
      -0.756
      -0.038
       0.327
       0.224
      -0.238
      -0.851
      -1.419
      -1.806
      -1.937
      -1.780
      -1.353
      -0.746
      -0.113
       0.382
       0.643
       0.706
       0.731
       0.900
       1.292
       1.818
       2.261
       2.424
       2.252
       1.858
       1.420
       1.065
       0.818
       0.626
       0.380
      -0.054
      -0.761
      -1.679
      -2.570
      -3.141
      -3.241
      -2.941
      -2.449
      -1.915
      -1.349
      -0.688
       0.076
       0.865
       1.572
       2.126
       2.497
       2.680
       2.690
       2.583
       2.463
       2.450
       2.617
       2.937
       3.289
       3.509
       3.460
       3.079
       2.380
       1.416
       0.252
      -1.032
      -2.327
      -3.498
      -4.428
      -5.039
      -5.298
      -5.195
      -4.756
      -4.050
      -3.175
      -2.206
      -1.180
      -0.135
       0.827
       1.543
       1.860
       1.730
       1.225
       0.462
      -0.489
      -1.627
      -2.949
      -4.344
      -5.531
      -6.100
      -5.682
      -4.153
      -1.740
       1.072
       3.749
       5.897
       7.319
       7.968
       7.888
       7.204
       6.133
       4.939
       3.847
       2.947
       2.181
       1.426
       0.586
      -0.389
      -1.564
      -3.051
      -4.917
      -7.025
      -8.915
      -9.899
      -9.352
      -7.041
      -3.250
       1.376
       6.122
      10.413
      13.837
      16.056
      16.740
      15.596
      12.482
       7.562
       1.418
      -4.984
     -10.538
     -14.375
     -16.176
     -16.204
     -15.065
     -13.389
     -11.613
      -9.973
      -8.589
      -7.546
      -6.860
      -6.419
      -5.986
      -5.305
      -4.194
      -2.528
      -0.138
       3.203
       7.595
      12.736
      17.844
      21.937
      24.308
      24.811
      23.736
      21.424
      17.997
      13.433
       7.879
       1.876
      -3.733
      -8.148
     -10.964
     -12.274
     -12.472
     -11.980
     -11.075
      -9.905
      -8.624
      -7.474
      -6.720
      -6.427
      -6.307
      -5.817
      -4.485
      -2.171
       0.945
       4.547
       8.283
      11.737
      14.428
      15.963
      16.234
      15.417
      13.746
      11.248
       7.678
       2.739
      -3.521
     -10.441
     -16.850
     -21.552
     -23.840
     -23.668
     -21.427
     -17.593
     -12.544
      -6.618
      -0.277
       5.806
      10.811
      14.021
      15.104
      14.283
      12.287
      10.060
       8.333
       7.294
       6.559
       5.510
       3.737
       1.289
      -1.432
      -3.974
      -6.064
      -7.605
      -8.527
      -8.699
      -8.005
      -6.526
      -4.625
      -2.816
      -1.480
      -0.624
       0.073
       0.903
       1.770
       2.178
       1.655
       0.233
      -1.453
      -2.590
      -2.725
      -1.960
      -0.697
       0.723
       2.128
       3.378
       4.225
       4.353
       3.547
       1.871
      -0.280
      -2.267
      -3.494
      -3.743
      -3.338
      -2.953
      -3.132
      -3.904
      -4.790
      -5.181
      -4.724
      -3.452
      -1.658
       0.280
       1.993
       3.195
       3.808
       4.082
       4.520
       5.537
       7.062
       8.441
       8.823
       7.734
       5.377
       2.443
      -0.348
      -2.578
      -4.137
      -5.054
      -5.378
      -5.167
      -4.472
      -3.305
      -1.671
       0.255
       1.967
       2.725
       1.974
      -0.184
      -2.905
      -5.072
      -5.985
      -5.721
      -4.844
      -3.780
      -2.442
      -0.472
       2.135
       4.681
       6.081
       5.617
       3.485
       0.664
      -1.742
      -3.105
      -3.400
      -2.901
      -1.862
      -0.424
       1.303
       3.159
       4.923
       6.321
       7.053
       6.871
       5.703
       3.731
       1.321
      -1.115
      -3.198
      -4.571
      -4.900
      -3.968
      -1.851
       0.968
       3.631
       5.189
       5.041
       3.273
       0.622
      -1.992
      -3.998
      -5.360
      -6.335
      -7.107
      -7.654
      -7.875
      -7.754
      -7.376
      -6.844
      -6.230
      -5.589
      -4.972
      -4.411
      -3.896
      -3.407
      -2.979
      -2.731
      -2.804
      -3.239
      -3.906
      -4.547
      -4.888
      -4.697
      -3.776
      -1.969
       0.722
       3.999
       7.247
       9.743
      10.999
      11.013
      10.197
       9.053
       7.848
       6.572
       5.151
       3.680
       2.462
       1.833
       1.954
       2.752
       3.984
       5.325
       6.414
       6.925
       6.683
       5.755
       4.402
       2.926
       1.507
       0.134
      -1.316
      -2.911
      -4.518
      -5.779
      -6.249
      -5.645
      -4.076
      -2.061
      -0.274
       0.876
       1.458
       1.803
       2.036
       1.813
       0.588
      -1.807
      -4.815
      -7.382
      -8.591
      -8.162
      -6.460
      -4.076
      -1.419
       1.364
       4.137
       6.526
       7.983
       8.151
       7.167
       5.578
       3.916
       2.322
       0.594
      -1.416
      -3.488
      -5.104
      -5.819
      -5.554
      -4.588
      -3.366
      -2.343
      -1.928
      -2.382
      -3.636
      -5.183
      -6.199
      -5.910
      -3.989
      -0.722
       3.133
       6.702
       9.330
      10.720
      10.901
      10.107
       8.699
       7.114
       5.781
       4.987
       4.750
       4.771
       4.531
       3.512
       1.455
      -1.462
      -4.677
      -7.540
      -9.684
     -11.147
     -12.123
     -12.574
     -12.132
     -10.424
      -7.534
      -4.110
      -0.976
       1.434
       3.279
       4.956
       6.536
       7.581
       7.540
       6.283
       4.247
       2.062
       0.087
      -1.690
      -3.331
      -4.603
      -4.973
      -3.954
      -1.489
       1.928
       5.435
       8.197
       9.797
      10.390
      10.457
      10.317
       9.796
       8.408
       5.899
       2.648
      -0.482
      -2.721
      -3.904
      -4.501
      -5.176
      -6.243
      -7.429
      -8.106
      -7.826
      -6.737
      -5.523
      -4.890
      -5.030
      -5.523
      -5.735
      -5.350
      -4.545
      -3.685
      -2.887
      -1.869
      -0.255
       1.969
       4.265
       5.801
       5.965
       4.736
       2.656
       0.418
      -1.597
      -3.447
      -5.325
      -7.068
      -7.988
      -7.260
      -4.613
      -0.739
       3.003
       5.388
       5.997
       5.267
       3.978
       2.669
       1.483
       0.461
      -0.120
       0.215
       1.701
       3.934
       5.995
       7.097
       7.200
       6.969
       7.064
       7.421
       7.233
       5.657
       2.642
      -0.856
      -3.455
      -4.297
      -3.602
      -2.428
      -1.843
      -2.243
      -3.305
      -4.482
      -5.445
      -6.131
      -6.532
      -6.631
      -6.546
      -6.570
      -6.881
      -7.179
      -6.726
      -4.939
      -2.039
       0.894
       2.614
       2.597
       1.341
      -0.148
      -1.150
      -1.611
      -1.862
      -2.123
      -2.302
      -2.189
      -1.720
      -1.011
      -0.161
       0.893
       2.293
       4.002
       5.637
       6.567
       6.284
       4.773
       2.587
       0.534
      -0.800
      -1.316
      -1.231
      -0.673
       0.530
       2.606
       5.363
       7.997
       9.461
       9.138
       7.241
       4.605
       2.084
       0.083
      -1.426
      -2.522
      -3.031
      -2.633
      -1.235
