Origin Time       3/9/2009 19:51:08	 
Lat.              24.3 N	
Long.             94.6 E	
Depth (Km)        100.0
Magnitude         5.9
 Region           MYANMAR-India-Manipuir-Border                                    
 Above details taken from IMD 
   
Station Code      DIP
Station Lat.       25.839
Station Long.      93.435
Station Height(m)  260.0
Site Class        B   Vs30 between 375 m/sec to 700 m/sec *  
Record Time       03.09.2009 19:51:24.349
Sampling Rate     200. Hz
 Record Duration  108.025 Sec.
 Direction         Vert. (Up positive)
Max. Acceleration    -20.912 cm/sec**2
     
  * For reference see Site Classification link of website 
     
 Base Line Corrected and Low Pass Filtered (Cut Off at 35 Hz) Time History
 Acceleration data in cm/sec**2
    
[...]
      -1.502
      -2.771
      -3.233
      -2.812
      -1.858
      -0.927
      -0.458
      -0.537
      -0.862
      -0.937
      -0.423
       0.591
       1.607
       2.073
       1.809
       1.155
       0.674
       0.662
       0.934
       1.100
       1.005
       0.865
       0.973
       1.336
       1.630
       1.483
       0.808
      -0.107
      -0.837
      -1.191
      -1.380
      -1.789
      -2.532
      -3.229
      -3.287
      -2.417
      -0.882
       0.738
       1.953
       2.548
       2.496
       1.852
       0.812
      -0.233
      -0.849
      -0.858
      -0.475
      -0.072
       0.205
       0.534
       1.118
       1.816
       2.146
       1.690
       0.505
      -0.876
      -1.859
      -2.234
      -2.256
      -2.292
      -2.406
      -2.310
      -1.734
      -0.812
      -0.005
       0.347
       0.357
       0.373
       0.479
       0.334
      -0.418
      -1.631
      -2.640
      -2.795
      -2.031
      -0.927
      -0.200
      -0.092
      -0.194
       0.139
       1.157
       2.438
       3.192
       2.894
       1.688
       0.258
      -0.693
      -0.908
      -0.641
      -0.321
      -0.164
      -0.066
       0.183
       0.612
       1.009
       1.140
       0.986
       0.737
       0.548
       0.340
      -0.119
      -0.931
      -1.889
      -2.550
      -2.482
      -1.486
       0.280
       2.339
       4.083
       5.027
       4.991
       4.095
       2.660
       1.065
      -0.376
      -1.475
      -2.159
      -2.397
      -2.174
      -1.532
      -0.566
       0.625
       1.936
       3.169
       3.974
       3.990
       3.052
       1.312
      -0.829
      -2.834
      -4.153
      -4.370
      -3.409
      -1.678
       0.049
       1.042
       1.091
       0.624
       0.317
       0.491
       0.841
       0.757
      -0.046
      -1.197
      -1.935
      -1.730
      -0.744
       0.289
       0.648
       0.208
      -0.529
      -0.956
      -0.977
      -1.091
      -1.855
      -3.217
      -4.411
      -4.520
      -3.197
      -0.908
       1.451
       3.117
       3.779
       3.542
       2.766
       1.895
       1.254
       0.860
       0.451
      -0.227
      -1.114
      -1.820
      -1.909
      -1.230
       0.018
       1.452
       2.707
       3.496
       3.631
       3.074
       1.979
       0.640
      -0.656
      -1.734
      -2.545
      -3.095
      -3.351
      -3.198
      -2.508
      -1.278
       0.295
       1.895
       3.220
       4.047
       4.215
       3.626
       2.308
       0.448
      -1.701
      -3.883
      -5.770
      -6.870
      -6.641
      -4.865
      -1.960
       1.081
       3.159
       3.624
       2.534
       0.499
      -1.713
      -3.481
      -4.406
      -4.287
      -3.181
      -1.493
       0.152
       1.294
       1.952
       2.534
       3.385
       4.384
       4.957
       4.515
       2.958
       0.804
      -1.189
      -2.574
      -3.421
      -4.016
      -4.410
      -4.288
      -3.289
      -1.426
       0.769
       2.526
       3.312
       3.142
       2.501
       1.960
       1.805
       1.944
       2.101
       2.065
       1.802
       1.422
       1.087
       0.915
       0.898
       0.839
       0.368
      -0.856
      -2.792
      -4.805
      -5.893
      -5.344
      -3.282
      -0.608
       1.654
       3.029
       3.717
       4.160
       4.506
       4.496
       3.829
       2.584
       1.214
       0.115
      -0.728
      -1.612
      -2.652
      -3.533
      -3.742
      -3.015
      -1.514
       0.364
       2.268
       3.957
       5.191
       5.688
       5.290
       4.147
       2.653
       1.114
      -0.471
      -2.199
      -3.838
      -4.732
      -4.308
      -2.716
      -0.885
       0.178
       0.219
      -0.127
      -0.045
       0.638
       1.303
       1.168
      -0.013
      -1.789
      -3.393
      -4.148
      -3.619
      -1.664
       1.397
       4.610
       6.644
       6.517
       4.306
       1.157
      -1.499
      -2.870
      -3.088
      -2.729
      -2.157
      -1.330
      -0.172
       0.981
       1.405
       0.518
      -1.549
      -3.930
      -5.629
      -6.230
      -6.052
      -5.627
      -5.099
      -4.175
      -2.593
      -0.544
       1.428
       2.838
       3.509
       3.504
       2.947
       1.958
       0.710
      -0.522
      -1.384
      -1.576
      -1.021
       0.089
       1.468
       2.908
       4.236
       5.158
       5.332
       4.695
       3.684
       3.029
       3.191
       3.961
       4.627
       4.591
       3.824
       2.746
       1.711
       0.708
      -0.417
      -1.580
      -2.445
      -2.839
      -3.074
      -3.693
      -4.804
      -5.749
      -5.603
      -4.092
      -2.025
      -0.716
      -0.870
      -2.016
      -3.019
      -3.148
      -2.609
      -2.096
      -1.929
      -1.693
      -0.703
       1.255
       3.621
       5.443
       6.037
       5.354
       3.863
       2.188
       0.834
       0.103
       0.068
       0.582
       1.354
       2.116
       2.788
       3.485
       4.289
       4.932
       4.732
       3.025
      -0.163
      -3.815
      -6.431
      -6.981
      -5.524
      -3.001
      -0.486
       1.457
       2.894
       4.112
       5.109
       5.382
       4.231
       1.378
      -2.627
      -6.582
      -9.324
     -10.346
      -9.866
      -8.359
      -6.102
      -3.202
      -0.053
       2.433
       3.267
       2.179
      -0.024
      -1.974
      -2.687
      -2.126
      -0.940
       0.261
       1.444
       3.087
       5.587
       8.640
      11.142
      11.830
      10.249
       7.169
       4.005
       1.748
       0.398
      -0.675
      -1.979
      -3.518
      -4.975
      -6.048
      -6.603
      -6.638
      -6.214
      -5.439
      -4.525
      -3.792
      -3.504
      -3.592
      -3.578
      -2.889
      -1.349
       0.610
       2.245
       3.101
       3.426
       3.959
       5.172
       6.628
       7.169
       5.883
       2.931
      -0.514
      -3.083
      -4.028
      -3.452
      -1.949
      -0.054
       1.995
       3.983
       5.325
       5.186
       3.212
       0.116
      -2.650
      -3.968
      -3.843
      -3.176
      -2.837
      -2.978
      -3.174
      -3.065
      -2.739
      -2.489
      -2.306
      -1.800
      -0.719
       0.559
       1.180
       0.507
      -1.279
      -3.228
      -4.299
      -4.145
      -3.319
      -2.713
      -2.739
      -3.013
      -2.773
      -1.543
       0.582
       3.119
       5.502
       7.251
       8.031
       7.723
       6.473
       4.695
       3.005
       2.021
       2.046
       2.814
       3.557
       3.453
       2.191
       0.244
      -1.398
      -1.889
      -1.119
       0.212
       1.098
       0.895
      -0.381
      -2.265
      -4.232
      -5.873
      -6.842
      -6.808
      -5.586
      -3.361
      -0.830
       0.960
       1.136
      -0.381
      -2.684
      -4.440
      -4.825
      -4.080
      -3.207
      -3.071
      -3.633
      -3.970
      -3.094
      -0.899
       1.611
       3.035
       2.691
       1.180
      -0.095
      -0.077
       1.098
       2.281
       2.363
       1.246
      -0.133
      -0.708
      -0.250
       0.534
       0.823
       0.605
       0.688
       1.752
       3.487
       4.826
       4.941
       3.941
       2.713
       2.176
       2.584
       3.414
       3.932
       3.929
       3.823
       3.972
       3.994
       3.008
       0.663
      -2.165
      -3.892
      -3.565
      -1.681
       0.325
       1.328
       1.267
       0.839
       0.613
       0.432
      -0.403
      -2.352
      -4.946
      -6.893
      -6.955
      -4.896
      -1.683
       1.204
       2.770
       3.041
       2.814
       2.925
       3.654
       4.667
       5.392
       5.448
       4.813
       3.793
       2.886
       2.594
       3.135
       4.203
       4.999
       4.613
       2.531
      -1.083
      -5.421
      -9.338
     -11.800
     -12.367
     -11.410
      -9.801
      -8.258
      -6.894
      -5.374
      -3.457
      -1.344
       0.477
       1.620
       2.032
       1.903
       1.468
       0.949
       0.668
       1.053
       2.335
       4.129
       5.460
       5.429
       3.979
       1.994
       0.569
       0.091
      -0.046
      -0.849
      -2.721
      -4.896
      -5.923
      -4.908
      -2.423
      -0.111
       0.764
       0.504
       0.738
       2.904
       6.818
      10.640
      12.283
      11.004
       7.797
       4.308
       1.428
      -1.128
      -3.976
      -7.012
      -9.249
      -9.667
      -8.184
      -5.823
      -3.912
      -3.065
      -2.886
      -2.654
      -2.172
      -1.809
      -1.744
      -1.471
      -0.288
       1.756
       3.636
       4.177
       3.049
       0.885
      -1.504
      -3.913
      -6.688
      -9.937
     -12.842
     -13.864
     -11.809
      -6.878
      -0.758
       4.410
       7.355
       8.285
       8.400
       8.834
       9.865
      10.901
      11.068
       9.871
       7.432
       4.275
       0.969
      -2.078
      -4.647
      -6.645
      -8.024
      -8.719
      -8.663
      -7.874
      -6.540
      -5.060
      -3.926
      -3.375
      -3.054
      -2.080
       0.386
       4.487
       9.448
      13.966
      16.854
      17.585
      16.502
      14.596
      12.803
      11.252
       9.185
       5.769
       1.084
      -3.646
      -6.823
      -7.599
      -6.480
      -5.002
      -4.695
      -6.118
      -8.623
     -10.894
     -11.727
     -10.536
      -7.463
      -3.226
       1.189
       4.846
       7.039
       7.349
       5.755
       2.839
      -0.264
      -2.421
      -3.273
      -3.472
      -4.026
      -5.250
      -6.362
      -6.154
      -4.163
      -1.237
       1.062
       1.694
       0.870
      -0.355
      -1.145
      -1.449
      -1.538
      -1.206
       0.263
       3.188
       6.664
       8.906
       8.610
       6.049
       2.860
       0.825
       0.669
       1.705
       2.489
       2.005
       0.499
      -0.715
      -0.305
       2.118
       5.784
       9.225
      10.952
      10.099
       6.840
       2.369
      -1.672
      -4.057
      -4.608
      -4.165
      -3.911
      -4.553
      -5.909
      -7.111
      -7.200
      -5.754
      -3.261
      -1.046
      -0.643
      -2.790
      -6.725
     -10.480
     -12.163
     -11.271
      -8.896
      -6.693
      -5.592
      -5.321
      -4.932
      -3.711
      -1.704
       0.456
       2.171
       3.337
       4.228
       5.016
       5.553
       5.728
       5.898
       6.695
       8.277
       9.891
      10.400
       9.296
       7.155
       5.090
       3.798
       3.139
       2.555
       1.764
       0.961
       0.402
      -0.031
      -0.737
      -1.888
      -3.105
      -3.731
      -3.483
      -2.851
      -2.762
      -3.727
      -5.267
      -6.241
      -5.818
      -4.137
      -2.053
      -0.314
       0.911
       1.772
       2.241
       2.028
       0.997
      -0.416
      -1.344
      -1.219
      -0.426
      -0.090
      -1.001
      -2.780
      -4.237
      -4.534
      -3.896
      -3.197
      -2.952
      -2.755
      -1.628
       1.069
       4.966
       8.792
      11.127
      11.227
       9.395
       6.732
       4.508
       3.571
       4.042
       5.402
       6.843
       7.675
       7.559
       6.476
       4.561
       2.002
      -0.960
      -4.073
      -7.178
     -10.226
     -13.088
     -15.397
     -16.623
     -16.322
     -14.351
     -10.992
      -6.984
      -3.289
      -0.578
       1.202
       2.714
       4.595
       6.821
       8.640
       9.127
       7.952
       5.806
       4.077
       3.946
       5.571
       8.075
      10.259
      11.340
      11.133
       9.762
       7.376
       4.134
       0.401
      -3.170
      -5.897
      -7.519
      -8.382
      -9.101
     -10.002
     -10.920
     -11.466
     -11.419
     -10.892
     -10.196
      -9.561
      -8.883
      -7.738
      -5.748
      -3.019
      -0.201
       1.954
       3.105
       3.480
       3.602
       3.875
       4.344
       4.735
       4.679
       3.946
       2.597
       1.047
      -0.072
      -0.306
       0.232
       0.931
       1.251
       1.244
       1.460
       2.364
       3.862
       5.334
       6.074
       5.779
       4.754
       3.672
       3.052
       2.883
       2.722
       2.141
       1.123
       0.069
      -0.518
      -0.391
       0.301
       1.128
       1.597
       1.348
       0.276
      -1.431
      -3.367
      -5.085
      -6.324
      -7.132
      -7.769
      -8.469
      -9.274
     -10.033
     -10.459
     -10.166
      -8.795
      -6.324
      -3.364
      -1.042
      -0.333
      -1.262
      -2.741
      -3.315
      -2.275
      -0.191
       1.570
       1.967
       1.142
       0.360
       1.047
       3.637
       7.116
       9.647
       9.915
       8.129
       5.891
       4.955
       5.876
       7.661
       8.728
       8.304
       6.971
       5.921
       5.736
       5.903
       5.459
       4.040
       2.328
       1.519
       2.360
       4.560
       7.022
       8.603
       8.729
       7.470
       5.212
       2.323
      -0.958
      -4.504
      -8.285
     -12.284
     -16.249
     -19.466
     -20.912
     -19.888
     -16.654
     -12.430
      -8.650
      -6.113
      -4.720
      -3.939
      -3.440
      -3.287
      -3.581
      -4.000
      -3.784
      -2.306
       0.304
       3.174
       5.423
       6.843
       7.795
       8.517
       8.748
       8.148
       6.953
       6.025
       6.104
       7.047
       7.913
       7.835
       6.823
       5.692
       5.226
       5.433
       5.624
       5.119
       3.827
       2.187
       0.685
      -0.475
      -1.311
      -1.815
      -1.928
      -1.770
      -1.775
      -2.444
      -3.864
      -5.538
      -6.735
      -7.077
      -6.823
      -6.573
      -6.674
      -6.851
      -6.429
      -4.967
      -2.722
      -0.504
       0.882
       1.081
       0.186
      -1.481
      -3.477
      -5.152
      -5.665
      -4.324
      -1.147
       2.767
       5.585
       5.869
       3.728
       0.863
      -0.664
       0.112
       2.587
       5.237
       6.602
       5.954
       3.466
       0.007
      -3.301
      -5.542
      -6.284
      -5.613
      -3.992
      -2.060
      -0.410
       0.592
       0.916
       0.857
       0.864
       1.248
       1.912
       2.398
       2.287
       1.570
       0.650
       0.006
      -0.157
       0.018
       0.248
       0.392
       0.541
       0.874
       1.426
       2.061
       2.664
       3.256
       3.778
       3.838
       2.901
       0.897
      -1.402
      -2.813
      -2.683
      -1.527
      -0.747
      -1.577
      -3.983
      -6.474
      -7.160
      -5.272
      -1.803
       1.350
       2.903
       2.924
       2.322
       1.846
       1.573
       1.114
       0.131
      -1.302
      -2.679
      -3.366
      -3.002
      -1.730
      -0.080
       1.383
       2.388
       3.057
       3.703
       4.466
       5.104
       5.178
       4.504
       3.411
       2.511
       2.162
       2.150
       1.888
       0.969
      -0.485
      -1.950
      -2.929
      -3.212
      -2.798
      -1.761
      -0.332
       0.951
       1.396
       0.670
      -0.781
      -1.914
      -1.886
      -0.835
       0.145
      -0.034
      -1.407
      -2.905
      -3.372
      -2.607
      -1.396
      -0.656
      -0.673
      -1.117
      -1.593
      -2.059
      -2.712
      -3.528
      -4.005
      -3.466
      -1.734
       0.512
       2.191
       2.750
       2.628
       2.727
       3.416
       4.126
       3.951
       2.627
       0.863
      -0.264
      -0.262
       0.415
       0.860
       0.515
      -0.502
      -1.694
      -2.682
      -3.391
      -3.890
      -4.190
      -4.238
      -3.984
      -3.417
      -2.580
      -1.611
      -0.742
      -0.175
       0.043
       0.052
       0.111
       0.512
       1.453
       2.846
       4.223
       4.957
       4.751
       3.967
       3.409
       3.666
       4.593
       5.405
       5.293
       4.019
       1.987
      -0.142
      -1.850
      -2.860
      -3.059
      -2.473
      -1.359
      -0.243
       0.266
      -0.134
      -1.143
      -1.963
      -1.847
      -0.636
       1.176
       2.843
       3.782
       3.692
       2.556
       0.740
      -0.992
      -1.835
      -1.527
      -0.627
      -0.137
      -0.671
      -1.862
      -2.658
      -2.341
      -1.295
      -0.661
      -1.174
      -2.418
      -3.293
      -3.141
      -2.314
      -1.668
      -1.617
      -1.736
      -1.243
       0.148
       1.811
       2.642
       2.021
       0.450
      -0.766
      -0.573
       1.027
       3.112
       4.689
       5.388
       5.434
       5.142
       4.533
       3.414
       1.731
      -0.226
      -1.956
      -3.073
      -3.488
      -3.359
      -2.930
      -2.460
      -2.230
      -2.456
      -3.108
      -3.844
      -4.246
      -4.187
      -3.924
      -3.815
      -3.989
      -4.311
      -4.608
      -4.771
      -4.632
      -3.889
      -2.312
      -0.081
       2.178
       3.795
       4.541
       4.745
       4.961
       5.485
       6.125
       6.384
       5.907
       4.830
       3.701
       3.021
       2.834
       2.789
       2.554
       2.148
       1.853
       1.907
       2.286
       2.739
       2.979
       2.857
       2.412
       1.782
       1.120
       0.541
       0.111
      -0.187
      -0.481
      -0.953
      -1.690
      -2.587
      -3.423
      -4.043
      -4.442
      -4.662
      -4.715
      -4.703
      -4.938
      -5.746
      -7.032
      -8.119
      -8.179
      -6.914
      -4.846
      -2.952
      -1.952
      -1.876
      -2.191
      -2.295
      -1.878
      -0.873
       0.764
       3.023
       5.587
       7.772
       8.936
       9.026
       8.696
       8.821
       9.768
      10.992
      11.328
       9.862
       6.719
       3.042
       0.125
      -1.495
      -2.201
      -2.723
      -3.519
      -4.570
      -5.551
      -6.099
      -6.014
      -5.299
      -4.098
      -2.662
      -1.426
      -0.979
      -1.759
      -3.632
      -5.811
      -7.267
      -7.315
      -5.987
      -3.983
      -2.208
      -1.142
      -0.492
       0.524
       2.432
       4.923
       6.927
       7.353
       5.975
       3.742
       2.127
       1.963
       2.795
       3.378
       2.843
       1.418
       0.088
      -0.370
      -0.049
       0.276
      -0.076
      -1.055
      -1.937
      -2.022
      -1.317
      -0.529
      -0.332
      -0.704
      -1.032
      -0.880
      -0.514
      -0.586
      -1.338
      -2.234
      -2.421
      -1.558
      -0.164
       0.827
       0.916
       0.489
       0.435
       1.270
       2.553
       3.175
       2.281
       0.039
      -2.451
      -3.981
      -4.061
      -3.030
      -1.522
       0.066
       1.618
       3.030
