Origin Time       21/9/2009 8:53:04	 
Lat.              27.3 N	
Long.             91.5 E	
Depth (Km)          8.0
Magnitude         6.2
 Region           BHUTAN                                                           
 Above details taken from IMD 
   
Station Code      DIP
Station Lat.       25.839
Station Long.      93.435
Station Height(m)  260.0
Site Class        B   Vs30 between 375 m/sec to 700 m/sec *  
Record Time       21.09.2009 08:54:02.904
Sampling Rate     200. Hz
 Record Duration   85.150 Sec.
 Direction         Vert. (Up positive)
Max. Acceleration      7.470 cm/sec**2
     
  * For reference see Site Classification link of website 
     
 Base Line Corrected and Low Pass Filtered (Cut Off at 35 Hz) Time History
 Acceleration data in cm/sec**2
    
[...]
       1.032
       1.195
       1.267
       1.234
       1.098
       0.889
       0.657
       0.453
       0.306
       0.222
       0.186
       0.187
       0.215
       0.272
       0.357
       0.466
       0.573
       0.631
       0.596
       0.456
       0.248
       0.037
      -0.129
      -0.254
      -0.375
      -0.514
      -0.653
      -0.750
      -0.799
      -0.838
      -0.916
      -1.030
      -1.131
      -1.162
      -1.108
      -0.997
      -0.862
      -0.708
      -0.514
      -0.255
       0.070
       0.433
       0.797
       1.133
       1.425
       1.645
       1.734
       1.626
       1.299
       0.816
       0.303
      -0.119
      -0.398
      -0.543
      -0.587
      -0.552
      -0.459
      -0.351
      -0.276
      -0.267
      -0.318
      -0.417
      -0.567
      -0.788
      -1.079
      -1.379
      -1.589
      -1.642
      -1.550
      -1.393
      -1.246
      -1.124
      -0.983
      -0.775
      -0.499
      -0.201
       0.068
       0.290
       0.488
       0.709
       0.985
       1.326
       1.706
       2.070
       2.339
       2.433
       2.308
       1.989
       1.564
       1.147
       0.817
       0.584
       0.405
       0.227
       0.028
      -0.188
      -0.427
      -0.711
      -1.053
      -1.424
      -1.750
      -1.953
      -2.002
      -1.927
      -1.791
      -1.647
      -1.505
      -1.343
      -1.136
      -0.878
      -0.597
      -0.339
      -0.163
      -0.115
      -0.201
      -0.367
      -0.515
      -0.547
      -0.425
      -0.191
       0.057
       0.237
       0.341
       0.443
       0.627
       0.913
       1.236
       1.489
       1.604
       1.596
       1.540
       1.509
       1.523
       1.554
       1.554
       1.499
       1.404
       1.310
       1.249
       1.212
       1.160
       1.039
       0.812
       0.466
       0.015
      -0.486
      -0.951
      -1.290
      -1.449
      -1.428
      -1.261
      -0.986
      -0.629
      -0.212
       0.223
       0.605
       0.852
       0.909
       0.779
       0.513
       0.174
      -0.192
      -0.550
      -0.856
      -1.036
      -1.023
      -0.812
      -0.497
      -0.220
      -0.080
      -0.078
      -0.152
      -0.254
      -0.397
      -0.636
      -0.995
      -1.429
      -1.834
      -2.115
      -2.221
      -2.160
      -1.978
      -1.744
      -1.539
      -1.422
      -1.403
      -1.439
      -1.470
      -1.467
      -1.453
      -1.467
      -1.497
      -1.465
      -1.274
      -0.899
      -0.420
       0.033
       0.370
       0.587
       0.754
       0.946
       1.189
       1.459
       1.710
       1.909
       2.047
       2.127
       2.142
       2.079
       1.940
       1.771
       1.649
       1.634
       1.735
       1.902
       2.066
       2.183
       2.249
       2.284
       2.305
       2.305
       2.249
       2.086
       1.789
       1.377
       0.917
       0.478
       0.092
      -0.241
      -0.520
      -0.729
      -0.850
      -0.900
      -0.936
      -1.018
      -1.169
      -1.349
      -1.476
      -1.478
      -1.340
      -1.106
      -0.854
      -0.647
      -0.500
      -0.390
      -0.287
      -0.200
      -0.172
      -0.239
      -0.389
      -0.549
      -0.641
      -0.635
      -0.572
      -0.521
      -0.522
      -0.568
      -0.628
      -0.680
      -0.717
      -0.736
      -0.729
      -0.704
      -0.701
      -0.771
      -0.928
      -1.106
      -1.166
      -0.970
      -0.485
       0.177
       0.810
       1.232
       1.369
       1.253
       0.955
       0.525
      -0.017
      -0.659
      -1.368
      -2.074
      -2.683
      -3.090
      -3.201
      -2.966
      -2.406
      -1.626
      -0.786
      -0.020
       0.622
       1.164
       1.656
       2.105
       2.474
       2.708
       2.786
       2.728
       2.568
       2.328
       2.014
       1.633
       1.217
       0.812
       0.457
       0.167
      -0.058
      -0.209
      -0.267
      -0.237
      -0.170
      -0.135
      -0.172
      -0.262
      -0.346
      -0.378
      -0.354
      -0.303
      -0.261
      -0.233
      -0.205
      -0.171
      -0.168
      -0.244
      -0.385
      -0.510
      -0.539
      -0.490
      -0.476
      -0.605
      -0.870
      -1.143
      -1.286
      -1.277
      -1.224
      -1.249
      -1.369
      -1.486
      -1.480
      -1.309
      -1.025
      -0.720
      -0.477
      -0.352
      -0.376
      -0.550
      -0.831
      -1.129
      -1.337
      -1.381
      -1.251
      -0.969
      -0.553
      -0.017
       0.603
       1.235
       1.804
       2.269
       2.628
       2.892
       3.060
       3.126
       3.101
       3.009
       2.873
       2.697
       2.478
       2.242
       2.044
       1.938
       1.919
       1.905
       1.784
       1.487
       1.043
       0.557
       0.130
      -0.212
      -0.519
      -0.853
      -1.229
      -1.616
      -1.972
      -2.278
      -2.534
      -2.738
      -2.877
      -2.929
      -2.891
      -2.799
      -2.717
      -2.696
      -2.723
      -2.710
      -2.559
      -2.232
      -1.775
      -1.279
      -0.831
      -0.474
      -0.201
       0.034
       0.273
       0.524
       0.758
       0.942
       1.068
       1.170
       1.307
       1.505
       1.728
       1.916
       2.051
       2.170
       2.304
       2.416
       2.410
       2.206
       1.800
       1.264
       0.692
       0.155
      -0.304
      -0.647
      -0.838
      -0.868
      -0.782
      -0.658
      -0.544
      -0.406
      -0.163
       0.240
       0.753
       1.244
       1.570
       1.678
       1.639
       1.594
       1.648
       1.815
       2.033
       2.224
       2.346
       2.405
       2.442
       2.489
       2.538
       2.539
       2.426
       2.160
       1.745
       1.216
       0.603
      -0.094
      -0.884
      -1.770
      -2.716
      -3.643
      -4.428
      -4.932
      -5.057
      -4.786
      -4.203
      -3.460
      -2.708
      -2.041
      -1.481
      -1.014
      -0.637
      -0.377
      -0.271
      -0.328
      -0.517
      -0.777
      -1.031
      -1.197
      -1.192
      -0.961
      -0.511
       0.084
       0.717
       1.305
       1.800
       2.171
       2.391
       2.448
       2.364
       2.191
       1.986
       1.799
       1.660
       1.577
       1.529
       1.465
       1.316
       1.028
       0.585
       0.020
      -0.588
      -1.147
      -1.598
      -1.930
      -2.164
      -2.313
      -2.351
      -2.230
      -1.915
      -1.417
      -0.792
      -0.117
       0.535
       1.109
       1.566
       1.879
       2.031
       2.014
       1.826
       1.477
       1.001
       0.466
      -0.049
      -0.488
      -0.840
      -1.129
      -1.361
      -1.495
      -1.459
      -1.208
      -0.776
      -0.276
       0.151
       0.416
       0.518
       0.506
       0.404
       0.194
      -0.151
      -0.602
      -1.072
      -1.459
      -1.699
      -1.782
      -1.735
      -1.611
      -1.463
      -1.322
      -1.172
      -0.954
      -0.612
      -0.160
       0.299
       0.636
       0.804
       0.872
       0.961
       1.134
       1.361
       1.559
       1.657
       1.627
       1.482
       1.260
       1.012
       0.796
       0.672
       0.668
       0.749
       0.833
       0.862
       0.854
       0.888
       1.026
       1.251
       1.471
       1.569
       1.475
       1.193
       0.783
       0.317
      -0.160
      -0.619
      -1.032
      -1.368
      -1.594
      -1.688
      -1.622
      -1.361
      -0.887
      -0.224
       0.556
       1.369
       2.148
       2.855
       3.443
       3.840
       3.955
       3.707
       3.058
       2.030
       0.716
      -0.736
      -2.152
      -3.385
      -4.346
      -5.012
      -5.384
      -5.460
      -5.224
      -4.670
      -3.823
      -2.762
      -1.619
      -0.570
       0.211
       0.614
       0.640
       0.386
      -0.009
      -0.434
      -0.824
      -1.145
      -1.368
      -1.465
      -1.421
      -1.233
      -0.913
      -0.508
      -0.100
       0.219
       0.398
       0.472
       0.541
       0.688
       0.908
       1.110
       1.204
       1.179
       1.107
       1.060
       1.036
       0.972
       0.814
       0.583
       0.363
       0.227
       0.178
       0.158
       0.120
       0.085
       0.119
       0.244
       0.385
       0.408
       0.238
      -0.067
      -0.354
      -0.486
      -0.428
      -0.230
       0.042
       0.361
       0.732
       1.157
       1.606
       2.011
       2.304
       2.443
       2.442
       2.359
       2.270
       2.216
       2.173
       2.066
       1.834
       1.479
       1.083
       0.742
       0.494
       0.294
       0.049
      -0.299
      -0.721
      -1.135
      -1.475
      -1.752
      -2.025
      -2.333
      -2.649
      -2.905
      -3.051
      -3.095
      -3.065
      -2.949
      -2.678
      -2.189
      -1.494
      -0.700
       0.047
       0.620
       0.959
       1.074
       1.022
       0.879
       0.702
       0.525
       0.354
       0.179
      -0.008
      -0.188
      -0.312
      -0.332
      -0.232
      -0.046
       0.166
       0.349
       0.488
       0.606
       0.732
       0.868
       0.979
       1.018
       0.957
       0.820
       0.681
       0.621
       0.680
       0.839
       1.054
       1.291
       1.541
       1.800
       2.046
       2.234
       2.315
       2.252
       2.045
       1.728
       1.345
       0.938
       0.539
       0.176
      -0.130
      -0.384
      -0.609
      -0.834
      -1.079
      -1.348
      -1.631
      -1.923
      -2.228
      -2.552
      -2.880
      -3.151
      -3.262
      -3.115
      -2.683
      -2.044
      -1.343
      -0.707
      -0.187
       0.235
       0.590
       0.883
       1.101
       1.237
       1.313
       1.351
       1.346
       1.275
       1.136
       0.987
       0.909
       0.939
       1.021
       1.052
       0.958
       0.750
       0.494
       0.248
       0.030
      -0.174
      -0.380
      -0.607
      -0.903
      -1.331
      -1.904
      -2.545
      -3.113
      -3.497
      -3.690
      -3.782
      -3.872
      -3.968
      -3.974
      -3.768
      -3.306
      -2.654
      -1.938
      -1.250
      -0.621
      -0.052
       0.433
       0.788
       0.986
       1.056
       1.074
       1.110
       1.193
       1.333
       1.553
       1.900
       2.396
       2.983
       3.522
       3.875
       3.983
       3.893
       3.697
       3.465
       3.207
       2.893
       2.488
       1.974
       1.360
       0.680
       0.000
      -0.603
      -1.082
      -1.442
      -1.734
      -2.015
      -2.302
      -2.560
      -2.732
      -2.779
      -2.709
      -2.549
      -2.305
      -1.954
      -1.489
      -0.968
      -0.511
      -0.227
      -0.139
      -0.181
      -0.273
      -0.389
      -0.561
      -0.832
      -1.205
      -1.634
      -2.043
      -2.357
      -2.519
      -2.493
      -2.271
      -1.883
      -1.399
      -0.891
      -0.398
       0.073
       0.509
       0.860
       1.057
       1.064
       0.928
       0.766
       0.714
       0.872
       1.263
       1.840
       2.506
       3.135
       3.617
       3.897
       3.992
       3.963
       3.854
       3.666
       3.373
       2.953
       2.428
       1.868
       1.368
       1.012
       0.830
       0.801
       0.879
       1.021
       1.186
       1.324
       1.375
       1.288
       1.029
       0.586
      -0.034
      -0.818
      -1.736
      -2.732
      -3.716
      -4.581
      -5.245
      -5.681
      -5.911
      -5.970
      -5.873
      -5.602
      -5.148
      -4.534
      -3.823
      -3.070
      -2.291
      -1.466
      -0.576
       0.362
       1.306
       2.206
       3.019
       3.698
       4.190
       4.459
       4.521
       4.451
       4.351
       4.292
       4.285
       4.281
       4.213
       4.045
       3.782
       3.461
       3.112
       2.739
       2.319
       1.813
       1.199
       0.478
      -0.325
      -1.175
      -2.031
      -2.855
      -3.601
      -4.222
      -4.672
      -4.924
      -4.982
      -4.877
      -4.643
      -4.299
      -3.840
      -3.275
      -2.650
      -2.042
      -1.512
      -1.062
      -0.645
      -0.223
       0.195
       0.566
       0.859
       1.085
       1.273
       1.446
       1.608
       1.760
       1.893
       1.980
       1.983
       1.892
       1.743
       1.619
       1.600
       1.706
       1.871
       1.973
       1.925
       1.756
       1.598
       1.573
       1.689
       1.833
       1.876
       1.780
       1.603
       1.412
       1.216
       0.977
       0.675
       0.370
       0.180
       0.200
       0.415
       0.714
       0.961
       1.067
       0.985
       0.680
       0.132
      -0.656
      -1.644
      -2.758
      -3.889
      -4.899
      -5.658
      -6.079
      -6.136
      -5.865
      -5.342
      -4.665
      -3.933
      -3.234
      -2.630
      -2.172
      -1.913
      -1.897
      -2.110
      -2.465
      -2.825
      -3.077
      -3.178
      -3.149
      -3.020
      -2.788
      -2.416
      -1.870
      -1.143
      -0.238
       0.836
       2.044
       3.296
       4.464
       5.446
       6.221
       6.825
       7.264
       7.470
       7.334
       6.812
       5.991
       5.056
       4.197
       3.518
       3.035
       2.738
       2.625
       2.688
       2.878
       3.102
       3.255
       3.241
       2.995
       2.490
       1.753
       0.849
      -0.129
      -1.073
      -1.880
      -2.492
      -2.920
      -3.218
      -3.435
      -3.579
      -3.623
      -3.530
      -3.274
      -2.852
      -2.289
      -1.638
      -0.953
      -0.258
       0.462
       1.235
       2.049
       2.828
       3.457
       3.849
       3.982
       3.886
       3.587
       3.077
       2.329
       1.350
       0.204
      -0.994
      -2.129
      -3.127
      -3.961
      -4.635
      -5.155
      -5.521
      -5.721
      -5.756
      -5.653
      -5.461
      -5.241
      -5.040
      -4.864
      -4.673
      -4.397
      -3.967
      -3.333
      -2.485
      -1.476
      -0.423
       0.533
       1.278
       1.765
       2.018
       2.117
       2.163
       2.221
       2.296
       2.341
       2.318
       2.255
       2.252
       2.420
       2.785
       3.245
       3.613
       3.707
       3.427
       2.779
       1.856
       0.790
      -0.289
      -1.261
      -2.018
      -2.460
      -2.537
      -2.283
      -1.798
      -1.178
      -0.449
       0.408
       1.362
       2.279
       2.966
       3.296
       3.285
       3.070
       2.787
       2.488
       2.141
       1.713
       1.224
       0.732
       0.296
      -0.051
      -0.293
      -0.421
      -0.443
      -0.403
      -0.383
      -0.435
      -0.520
      -0.520
      -0.354
      -0.089
       0.070
      -0.068
      -0.541
      -1.215
      -1.911
      -2.521
      -3.029
      -3.456
      -3.819
      -4.103
      -4.259
      -4.223
      -3.960
      -3.487
      -2.852
      -2.096
      -1.254
      -0.386
       0.428
       1.131
       1.710
       2.171
       2.491
       2.609
       2.471
       2.081
       1.525
       0.940
       0.447
       0.110
      -0.066
      -0.081
       0.104
       0.536
       1.202
       1.983
       2.701
       3.220
       3.505
       3.577
       3.417
       2.932
       2.031
       0.741
      -0.762
      -2.204
      -3.316
      -3.927
      -4.011
      -3.672
      -3.060
      -2.283
      -1.376
      -0.361
       0.672
       1.565
       2.169
       2.423
       2.377
       2.131
       1.772
       1.360
       0.944
       0.554
       0.183
      -0.188
      -0.535
      -0.768
      -0.789
      -0.574
      -0.206
       0.173
       0.454
       0.616
       0.718
       0.832
       0.970
       1.080
       1.080
       0.907
       0.545
       0.032
      -0.573
      -1.205
      -1.818
      -2.383
      -2.876
      -3.269
      -3.510
      -3.532
      -3.284
      -2.764
      -2.025
      -1.146
      -0.212
       0.693
       1.491
       2.115
       2.520
       2.673
       2.549
       2.136
       1.463
       0.622
      -0.250
      -1.017
      -1.607
      -2.020
      -2.288
      -2.419
      -2.386
      -2.153
      -1.720
      -1.163
      -0.612
      -0.194
       0.038
       0.110
       0.083
       0.007
      -0.096
      -0.204
      -0.279
      -0.283
      -0.206
      -0.063
       0.148
       0.467
       0.945
       1.593
       2.361
       3.152
       3.847
       4.335
       4.561
       4.556
       4.400
       4.153
       3.808
       3.325
       2.687
       1.944
       1.198
       0.537
      -0.014
      -0.496
      -0.971
      -1.470
      -1.980
      -2.468
      -2.917
      -3.330
      -3.709
      -4.021
      -4.202
      -4.203
      -4.029
      -3.747
      -3.436
      -3.158
      -2.941
      -2.797
      -2.724
      -2.695
      -2.659
      -2.565
      -2.400
      -2.191
      -1.970
      -1.727
      -1.406
      -0.958
      -0.398
       0.180
       0.667
       1.017
       1.278
       1.536
       1.831
       2.130
       2.374
       2.545
       2.671
       2.773
       2.812
       2.705
       2.399
       1.928
       1.397
       0.903
       0.487
       0.149
      -0.098
      -0.229
      -0.247
      -0.222
      -0.262
      -0.434
      -0.712
      -1.024
      -1.329
      -1.648
      -2.005
      -2.341
      -2.513
      -2.396
      -1.981
      -1.372
      -0.692
       0.014
       0.778
       1.630
       2.539
       3.411
       4.133
       4.611
       4.789
       4.651
       4.235
       3.641
       2.986
       2.346
       1.735
       1.150
       0.625
       0.223
      -0.012
      -0.102
      -0.122
      -0.136
      -0.147
      -0.126
      -0.079
      -0.078
      -0.216
      -0.523
      -0.941
      -1.360
      -1.698
      -1.947
      -2.155
      -2.376
      -2.636
      -2.919
      -3.169
      -3.304
      -3.245
      -2.949
      -2.410
      -1.666
      -0.793
       0.109
       0.951
       1.666
       2.214
       2.566
       2.705
       2.622
       2.341
       1.929
       1.466
       0.997
       0.510
      -0.018
      -0.569
      -1.058
      -1.386
      -1.500
      -1.442
      -1.321
      -1.245
      -1.252
      -1.295
      -1.294
      -1.193
      -0.970
      -0.619
      -0.142
       0.429
       1.013
       1.505
       1.835
       2.004
       2.047
       1.989
       1.838
       1.617
       1.371
       1.139
       0.919
       0.689
       0.447
       0.228
       0.065
      -0.073
      -0.276
      -0.619
      -1.070
      -1.470
      -1.631
      -1.460
      -1.023
      -0.492
      -0.035
       0.274
       0.457
       0.563
       0.591
       0.476
       0.166
      -0.304
      -0.800
      -1.176
      -1.354
      -1.349
      -1.228
      -1.047
      -0.829
      -0.576
      -0.296
