Origin Time       3/9/2009 19:51:08	  UTC
Lat.              24.3 N	
Long.             94.6 E	
Depth (Km)        100.0
Magnitude         5.9
 Region           MYANMAR-India-Manipuir-Border                                    
 Above details taken from IMD 
    
Station Code      DIP
Station Lat.       25.839  N
Station Long.      93.435  E
Station Height(m)  260.0
Site Class        B   Vs30 between 375 m/sec to 700 m/sec *  
Record Time       03.09.2009 19:51:24.349 UTC
Sampling Rate     200. Hz
 Record Duration  108.025 Sec.
 Direction         N-S (N positive)
Max. Acceleration     27.982 cm/sec**2
     
  * For reference see Site Classification link of website 
     
 Base Line Corrected and Low Pass Filtered (Cut Off at 35 Hz) Time History
 Acceleration data in cm/sec**2
    
[...]
      -2.056
      -2.453
      -2.280
      -1.702
      -1.020
      -0.509
      -0.299
      -0.359
      -0.552
      -0.717
      -0.730
      -0.526
      -0.093
       0.528
       1.229
       1.862
       2.291
       2.437
       2.288
       1.884
       1.314
       0.712
       0.230
      -0.038
      -0.130
      -0.230
      -0.553
      -1.180
      -1.962
      -2.613
      -2.913
      -2.842
      -2.516
      -2.017
      -1.307
      -0.337
       0.778
       1.716
       2.150
       1.994
       1.482
       0.996
       0.781
       0.794
       0.793
       0.565
       0.111
      -0.379
      -0.697
      -0.748
      -0.532
      -0.043
       0.724
       1.652
       2.417
       2.614
       2.041
       0.870
      -0.450
      -1.495
      -2.111
      -2.406
      -2.548
      -2.580
      -2.408
      -1.945
      -1.253
      -0.538
      -0.007
       0.292
       0.509
       0.860
       1.435
       2.103
       2.606
       2.752
       2.556
       2.233
       2.033
       2.072
       2.285
       2.523
       2.689
       2.766
       2.743
       2.540
       2.052
       1.276
       0.379
      -0.369
      -0.763
      -0.793
      -0.639
      -0.530
      -0.587
      -0.787
      -1.067
      -1.430
      -1.916
      -2.445
      -2.755
      -2.564
      -1.851
      -0.969
      -0.410
      -0.411
      -0.757
      -0.968
      -0.712
      -0.055
       0.626
       0.951
       0.797
       0.341
      -0.096
      -0.274
      -0.181
       0.005
       0.084
       0.001
      -0.143
      -0.217
      -0.197
      -0.181
      -0.278
      -0.484
      -0.681
      -0.758
      -0.727
      -0.710
      -0.806
      -0.983
      -1.136
      -1.253
      -1.462
      -1.862
      -2.327
      -2.544
      -2.275
      -1.581
      -0.763
      -0.105
       0.315
       0.569
       0.715
       0.728
       0.620
       0.541
       0.700
       1.133
       1.592
       1.726
       1.424
       0.952
       0.708
       0.810
       0.975
       0.831
       0.340
      -0.132
      -0.199
       0.139
       0.514
       0.612
       0.515
       0.593
       1.070
       1.776
       2.334
       2.539
       2.492
       2.388
       2.257
       1.963
       1.437
       0.817
       0.353
       0.182
       0.248
       0.393
       0.491
       0.463
       0.254
      -0.127
      -0.545
      -0.775
      -0.687
      -0.402
      -0.224
      -0.379
      -0.796
      -1.156
      -1.154
      -0.729
      -0.088
       0.447
       0.615
       0.306
      -0.431
      -1.381
      -2.218
      -2.632
      -2.529
      -2.096
      -1.661
      -1.412
      -1.262
      -0.956
      -0.344
       0.456
       1.135
       1.432
       1.334
       1.067
       0.892
       0.890
       0.919
       0.780
       0.434
       0.032
      -0.252
      -0.433
      -0.730
      -1.357
      -2.268
      -3.106
      -3.444
      -3.098
      -2.260
      -1.324
      -0.583
      -0.087
       0.267
       0.538
       0.677
       0.617
       0.394
       0.153
       0.050
       0.160
       0.468
       0.899
       1.341
       1.662
       1.757
       1.609
       1.315
       1.013
       0.774
       0.580
       0.393
       0.224
       0.119
       0.098
       0.135
       0.208
       0.336
       0.564
       0.889
       1.214
       1.386
       1.300
       0.961
       0.458
      -0.095
      -0.588
      -0.913
      -0.998
      -0.884
      -0.756
      -0.843
      -1.232
      -1.769
      -2.156
      -2.154
      -1.751
      -1.144
      -0.572
      -0.160
       0.124
       0.357
       0.541
       0.587
       0.423
       0.088
      -0.280
      -0.533
      -0.592
      -0.443
      -0.099
       0.381
       0.851
       1.118
       1.063
       0.768
       0.466
       0.350
       0.404
       0.429
       0.241
      -0.142
      -0.508
      -0.627
      -0.455
      -0.174
      -0.045
      -0.177
      -0.438
      -0.554
      -0.347
       0.112
       0.560
       0.764
       0.713
       0.608
       0.668
       0.938
       1.270
       1.452
       1.358
       1.029
       0.656
       0.487
       0.670
       1.126
       1.568
       1.713
       1.496
       1.094
       0.739
       0.530
       0.417
       0.327
       0.237
       0.116
      -0.136
      -0.629
      -1.326
      -1.958
      -2.166
      -1.776
      -0.965
      -0.163
       0.264
       0.260
       0.062
      -0.059
      -0.028
       0.027
      -0.049
      -0.295
      -0.655
      -1.055
      -1.427
      -1.675
      -1.692
      -1.456
      -1.090
      -0.800
      -0.732
      -0.884
      -1.126
      -1.290
      -1.259
      -0.997
      -0.536
       0.065
       0.741
       1.408
       1.952
       2.239
       2.175
       1.779
       1.210
       0.675
       0.291
       0.033
      -0.171
      -0.331
      -0.403
      -0.377
      -0.310
      -0.267
      -0.230
      -0.110
       0.156
       0.515
       0.804
       0.849
       0.593
       0.160
      -0.200
      -0.256
       0.045
       0.546
       0.986
       1.178
       1.109
       0.906
       0.718
       0.621
       0.606
       0.618
       0.569
       0.351
      -0.113
      -0.792
      -1.510
      -2.021
      -2.138
      -1.848
      -1.294
      -0.663
      -0.083
       0.370
       0.620
       0.581
       0.258
      -0.186
      -0.505
      -0.555
      -0.407
      -0.267
      -0.279
      -0.420
      -0.549
      -0.541
      -0.368
      -0.102
       0.157
       0.350
       0.493
       0.646
       0.828
       0.991
       1.075
       1.093
       1.141
       1.291
       1.488
       1.570
       1.447
       1.225
       1.106
       1.151
       1.160
       0.837
       0.105
      -0.746
      -1.235
      -1.057
      -0.336
       0.431
       0.698
       0.195
      -0.903
      -2.079
      -2.776
      -2.728
      -2.092
      -1.296
      -0.702
      -0.390
      -0.204
       0.018
       0.270
       0.411
       0.341
       0.113
      -0.117
      -0.241
      -0.289
      -0.356
      -0.430
      -0.366
      -0.063
       0.353
       0.594
       0.524
       0.340
       0.366
       0.647
       0.828
       0.491
      -0.372
      -1.299
      -1.773
      -1.697
      -1.412
      -1.291
      -1.348
      -1.287
      -0.870
      -0.195
       0.394
       0.644
       0.587
       0.423
       0.261
       0.028
      -0.382
      -0.901
      -1.279
      -1.278
      -0.879
      -0.302
       0.163
       0.374
       0.415
       0.489
       0.723
       1.058
       1.301
       1.298
       1.055
       0.732
       0.518
       0.499
       0.621
       0.746
       0.729
       0.492
       0.047
      -0.509
      -1.032
      -1.378
      -1.454
      -1.240
      -0.782
      -0.184
       0.394
       0.766
       0.785
       0.426
      -0.175
      -0.778
      -1.170
      -1.285
      -1.220
      -1.123
      -1.042
      -0.883
      -0.519
       0.031
       0.565
       0.868
       0.929
       0.968
       1.214
       1.666
       2.088
       2.252
       2.168
       2.059
       2.126
       2.360
       2.593
       2.695
       2.697
       2.708
       2.748
       2.702
       2.442
       1.971
       1.417
       0.885
       0.338
      -0.328
      -1.113
      -1.845
      -2.324
      -2.499
      -2.494
      -2.439
      -2.335
      -2.086
      -1.655
      -1.153
      -0.761
      -0.591
      -0.626
      -0.782
      -0.995
      -1.244
      -1.489
      -1.627
      -1.534
      -1.187
      -0.739
      -0.449
      -0.475
      -0.725
      -0.937
      -0.924
      -0.756
      -0.677
      -0.843
      -1.175
      -1.445
      -1.495
      -1.349
      -1.119
      -0.846
      -0.443
       0.209
       1.086
       1.936
       2.364
       2.084
       1.160
       0.034
      -0.746
      -0.897
      -0.577
      -0.220
      -0.172
      -0.440
      -0.745
      -0.792
      -0.499
      -0.033
       0.347
       0.489
       0.443
       0.371
       0.363
       0.335
       0.136
      -0.246
      -0.617
      -0.725
      -0.463
       0.091
       0.795
       1.565
       2.355
       3.066
       3.519
       3.555
       3.170
       2.557
       2.028
       1.852
       2.114
       2.671
       3.221
       3.463
       3.239
       2.590
       1.688
       0.713
      -0.224
      -1.083
      -1.837
      -2.431
      -2.805
      -2.943
      -2.904
      -2.782
      -2.636
      -2.432
      -2.050
      -1.369
      -0.392
       0.671
       1.468
       1.690
       1.268
       0.410
      -0.559
      -1.413
      -2.118
      -2.736
      -3.271
      -3.632
      -3.743
      -3.661
      -3.533
      -3.391
      -3.013
      -2.036
      -0.292
       1.939
       4.048
       5.491
       6.122
       6.161
       5.889
       5.381
       4.509
       3.149
       1.360
      -0.601
      -2.379
      -3.649
      -4.205
      -4.061
      -3.492
      -2.910
      -2.599
      -2.497
      -2.253
      -1.563
      -0.468
       0.664
       1.445
       1.737
       1.611
       1.116
       0.171
      -1.256
      -2.931
      -4.416
      -5.408
      -5.946
      -6.229
      -6.218
      -5.539
      -3.883
      -1.527
       0.617
       1.607
       1.222
       0.160
      -0.512
      -0.172
       1.001
       2.339
       3.287
       3.729
       3.839
       3.735
       3.341
       2.535
       1.342
      -0.049
      -1.377
      -2.332
      -2.496
      -1.423
       1.034
       4.411
       7.718
       9.970
      10.728
      10.200
       8.889
       7.205
       5.340
       3.405
       1.567
       0.041
      -0.984
      -1.411
      -1.259
      -0.669
       0.119
       0.831
       1.222
       1.149
       0.634
      -0.097
      -0.689
      -0.856
      -0.583
      -0.147
       0.058
      -0.286
      -1.336
      -3.088
      -5.344
      -7.660
      -9.428
     -10.141
      -9.676
      -8.328
      -6.561
      -4.683
      -2.737
      -0.658
       1.493
       3.468
       4.974
       5.843
       6.062
       5.684
       4.746
       3.277
       1.386
      -0.668
      -2.480
      -3.644
      -3.912
      -3.244
      -1.719
       0.527
       3.197
       5.689
       7.200
       7.139
       5.544
       3.126
       0.847
      -0.631
      -1.187
      -1.047
      -0.432
       0.562
       1.800
       2.960
       3.651
       3.694
       3.226
       2.507
       1.651
       0.598
      -0.661
      -1.881
      -2.628
      -2.575
      -1.711
      -0.290
       1.359
       2.941
       4.140
       4.601
       4.062
       2.575
       0.588
      -1.230
      -2.287
      -2.312
      -1.449
      -0.181
       0.904
       1.411
       1.283
       0.692
      -0.218
      -1.445
      -2.996
      -4.663
      -5.977
      -6.443
      -5.880
      -4.569
      -3.048
      -1.736
      -0.704
       0.185
       0.941
       1.297
       0.905
      -0.294
      -1.890
      -3.212
      -3.747
      -3.435
      -2.613
      -1.695
      -0.884
      -0.120
       0.711
       1.533
       2.041
       1.933
       1.192
       0.166
      -0.642
      -0.896
      -0.597
       0.003
       0.657
       1.339
       2.220
       3.435
       4.860
       6.106
       6.727
       6.457
       5.282
       3.382
       1.082
      -1.126
      -2.623
      -2.893
      -1.853
      -0.024
       1.614
       2.058
       0.757
      -2.116
      -5.736
      -8.994
     -10.936
     -11.086
      -9.529
      -6.798
      -3.684
      -1.036
       0.472
       0.615
      -0.206
      -1.114
      -1.230
      -0.190
       1.720
       3.894
       5.912
       7.758
       9.576
      11.277
      12.427
      12.543
      11.441
       9.301
       6.449
       3.206
      -0.009
      -2.550
      -3.716
      -3.212
      -1.473
       0.542
       1.963
       2.528
       2.580
       2.629
       2.904
       3.245
       3.286
       2.668
       1.138
      -1.405
      -4.839
      -8.787
     -12.723
     -16.153
     -18.776
     -20.504
     -21.352
     -21.299
     -20.251
     -18.185
     -15.303
     -12.018
      -8.740
      -5.662
      -2.747
       0.109
       2.960
       5.817
       8.683
      11.494
      14.030
      15.924
      16.803
      16.396
      14.536
      11.202
       6.705
       1.868
      -2.132
      -4.318
      -4.458
      -3.107
      -1.080
       1.098
       3.264
       5.221
       6.439
       6.262
       4.476
       1.660
      -1.060
      -2.699
      -2.998
      -2.496
      -2.044
      -2.189
      -2.864
      -3.530
      -3.552
      -2.507
      -0.311
       2.789
       6.275
       9.483
      11.770
      12.712
      12.217
      10.509
       8.003
       5.154
       2.310
      -0.426
      -3.240
      -6.441
     -10.076
     -13.604
     -15.954
     -16.066
     -13.570
      -9.089
      -3.874
       0.905
       4.606
       7.007
       7.918
       7.023
       4.100
      -0.633
      -6.386
     -12.048
     -16.675
     -19.878
     -21.807
     -22.799
     -23.057
     -22.651
     -21.697
     -20.403
     -18.835
     -16.691
     -13.438
      -8.760
      -2.897
       3.471
       9.648
      15.227
      20.053
      23.978
      26.719
      27.982
      27.727
      26.316
      24.357
      22.349
      20.419
      18.411
      16.251
      14.225
      12.870
      12.568
      13.205
      14.227
      14.980
      15.017
      14.158
      12.393
       9.809
       6.545
       2.694
      -1.760
      -6.760
     -11.804
     -15.843
     -17.782
     -17.303
     -15.240
     -13.060
     -11.867
     -11.789
     -12.240
     -12.672
     -13.046
     -13.656
     -14.632
     -15.693
     -16.308
     -16.049
     -14.775
     -12.599
      -9.733
      -6.366
      -2.650
       1.257
       5.144
       8.764
      11.889
      14.325
      15.845
      16.106
      14.759
      11.782
       7.801
       4.005
       1.544
       0.835
       1.347
       2.110
       2.450
       2.328
       2.048
       1.813
       1.659
       1.744
       2.463
       4.087
       6.216
       7.714
       7.322
       4.485
      -0.265
      -5.643
     -10.339
     -13.645
     -15.609
     -16.705
     -17.288
     -17.232
     -16.010
     -13.104
      -8.455
      -2.693
       2.947
       7.035
       8.587
       7.650
       5.383
       3.477
       3.280
       5.251
       9.024
      13.809
      18.705
      22.763
      25.023
      24.754
      21.839
      16.958
      11.365
       6.283
       2.345
      -0.563
      -2.963
      -5.256
      -7.419
      -9.110
      -9.985
      -9.965
      -9.260
      -8.226
      -7.219
      -6.509
      -6.233
      -6.359
      -6.710
      -7.094
      -7.463
      -7.930
      -8.602
      -9.351
      -9.729
      -9.115
      -6.999
      -3.240
       1.796
       7.215
      11.770
      14.285
      14.183
      11.758
       7.980
       3.952
       0.445
      -2.213
      -3.948
      -4.718
      -4.466
      -3.246
      -1.363
       0.636
       2.169
       2.886
       2.748
       1.852
       0.224
      -2.098
      -4.717
      -6.671
      -6.751
      -4.286
       0.168
       4.866
       7.782
       7.819
       5.422
       2.099
      -0.760
      -2.831
      -4.878
      -7.931
     -12.350
     -17.484
     -22.036
     -24.749
     -24.892
     -22.391
     -17.732
     -11.820
      -5.742
      -0.396
       3.887
       7.369
      10.432
      12.996
      14.433
      14.113
      12.097
       9.311
       7.055
       6.256
       7.053
       8.890
      10.943
      12.540
      13.360
      13.399
      12.773
      11.549
       9.761
       7.549
       5.192
       2.928
       0.757
      -1.516
      -3.963
      -6.262
      -7.757
      -7.851
      -6.449
      -4.144
      -1.972
      -0.879
      -1.221
      -2.680
      -4.642
      -6.682
      -8.717
     -10.748
     -12.531
     -13.576
     -13.476
     -12.244
     -10.351
      -8.397
      -6.746
      -5.429
      -4.351
      -3.489
      -2.853
      -2.307
      -1.566
      -0.444
       0.924
       2.147
       2.898
       3.155
       3.183
       3.337
       3.917
       5.109
       6.914
       9.050
      10.970
      12.109
      12.251
      11.683
      10.989
      10.652
      10.778
      11.052
      10.890
       9.698
       7.219
       3.806
       0.340
      -2.273
      -3.724
      -4.537
      -5.706
      -7.994
     -11.409
     -15.185
     -18.196
     -19.489
     -18.700
     -16.168
     -12.702
      -9.040
      -5.356
      -1.263
       3.566
       8.668
      12.736
      14.434
      13.385
      10.424
       6.927
       3.869
       1.424
      -0.729
      -2.875
      -5.042
      -7.112
      -8.927
     -10.202
     -10.496
      -9.445
      -7.145
      -4.251
      -1.625
       0.190
       1.215
       1.822
       2.311
       2.718
       2.955
       3.057
       3.228
       3.675
       4.461
       5.529
       6.837
       8.378
      10.017
      11.328
      11.692
      10.698
       8.571
       6.169
       4.431
       3.675
       3.328
       2.389
       0.242
      -2.851
      -5.972
      -8.293
      -9.653
     -10.440
     -10.901
     -10.591
      -8.616
      -4.525
       0.990
       6.314
       9.926
      11.315
      11.066
      10.143
       9.123
       8.015
       6.687
       5.331
       4.468
       4.479
       5.177
       5.837
       5.698
       4.473
       2.491
       0.415
      -1.181
      -2.111
      -2.621
      -3.207
      -4.305
      -5.978
      -7.837
      -9.278
      -9.902
      -9.807
      -9.526
      -9.665
     -10.496
     -11.811
     -13.124
     -14.015
     -14.287
     -13.849
     -12.595
     -10.549
      -8.155
      -6.236
      -5.438
      -5.601
      -5.725
      -4.692
      -2.120
       1.445
       5.101
       8.261
      10.732
      12.254
      12.211
      10.021
       5.920
       1.285
      -1.966
      -2.555
      -0.656
       2.300
       4.687
       5.759
       5.905
       6.000
       6.514
       7.226
       7.689
       7.851
       8.128
       8.878
       9.936
      10.755
      10.993
      10.845
      10.709
      10.577
       9.900
       8.139
       5.437
       2.691
       0.905
       0.435
       0.804
       1.176
       1.019
       0.383
      -0.357
      -0.969
      -1.611
      -2.726
      -4.708
      -7.554
     -10.698
     -13.163
     -14.060
     -13.155
     -11.042
      -8.698
      -6.790
      -5.400
      -4.400
      -4.007
      -4.821
      -7.217
     -10.691
     -13.889
     -15.447
     -14.950
     -13.174
     -11.409
     -10.487
     -10.302
     -10.040
      -8.796
      -6.113
      -2.213
       2.139
       6.050
       9.003
      11.114
      12.897
      14.655
      16.056
      16.360
      15.172
      13.015
      11.068
      10.233
      10.389
      10.619
      10.235
       9.563
       9.681
