Origin Time       24/2/2009 17:46:13 
Lat.              25.9 N 
Long.             94.3 E 
Depth (Km)         10.0
Magnitude         4.8
 Region           INDIA(NAGALAND)-MYANMAR-BORD-REG                                 
 Above details taken from IMD 
   
Station Code      DIP
Station Lat.       25.839
Station Long.      93.435
Station Height(m)  260.0
Site Class        B   Vs30 between 375 m/sec to 700 m/sec *  
Record Time       24.02.2009 17:46:33.634
Sampling Rate     200. Hz
 Record Duration   72.065 Sec.
 Direction         Vert. (Up positive)
Max. Acceleration      7.954 cm/sec**2
     
  * For reference see Site Classification link of website 
     
 Base Line Corrected and Low Pass Filtered (Cut Off at 35 Hz) Time History
 Acceleration data in cm/sec**2
    
[...]
      -0.101
      -0.285
      -0.356
      -0.193
       0.180
       0.601
       0.866
       0.868
       0.638
       0.300
      -0.034
      -0.313
      -0.532
      -0.687
      -0.743
      -0.655
      -0.410
      -0.051
       0.347
       0.708
       0.991
       1.186
       1.288
       1.289
       1.183
       0.988
       0.744
       0.503
       0.290
       0.085
      -0.165
      -0.497
      -0.871
      -1.171
      -1.250
      -1.019
      -0.507
       0.117
       0.604
       0.750
       0.518
       0.073
      -0.319
      -0.467
      -0.380
      -0.237
      -0.233
      -0.414
      -0.650
      -0.762
      -0.673
      -0.469
      -0.308
      -0.284
      -0.348
      -0.366
      -0.255
      -0.063
       0.077
       0.092
       0.072
       0.198
       0.547
       0.955
       1.106
       0.789
       0.112
      -0.539
      -0.787
      -0.559
      -0.133
       0.106
      -0.006
      -0.273
      -0.319
       0.072
       0.748
       1.311
       1.457
       1.232
       0.953
       0.885
       0.973
       0.900
       0.413
      -0.395
      -1.122
      -1.387
      -1.151
      -0.729
      -0.474
      -0.456
      -0.426
      -0.123
       0.411
       0.812
       0.718
       0.123
      -0.577
      -0.887
      -0.621
      -0.036
       0.397
       0.395
       0.074
      -0.201
      -0.174
       0.074
       0.234
       0.097
      -0.237
      -0.461
      -0.366
      -0.052
       0.171
       0.078
      -0.248
      -0.490
      -0.375
       0.083
       0.588
       0.803
       0.607
       0.169
      -0.212
      -0.341
      -0.262
      -0.181
      -0.262
      -0.477
      -0.616
      -0.470
      -0.021
       0.515
       0.822
       0.704
       0.227
      -0.339
      -0.711
      -0.783
      -0.664
      -0.545
      -0.502
      -0.438
      -0.190
       0.287
       0.843
       1.225
       1.251
       0.926
       0.406
      -0.127
      -0.571
      -0.905
      -1.124
      -1.181
      -1.020
      -0.652
      -0.178
       0.272
       0.644
       0.970
       1.270
       1.448
       1.317
       0.756
      -0.119
      -0.952
      -1.352
      -1.159
      -0.571
       0.001
       0.240
       0.150
       0.017
       0.123
       0.473
       0.782
       0.719
       0.210
      -0.481
      -0.945
      -0.937
      -0.540
      -0.072
       0.165
       0.083
      -0.173
      -0.357
      -0.295
       0.029
       0.487
       0.899
       1.110
       1.024
       0.622
      -0.014
      -0.698
      -1.185
      -1.289
      -0.989
      -0.447
       0.105
       0.509
       0.761
       0.938
       1.076
       1.102
       0.891
       0.409
      -0.207
      -0.715
      -0.933
      -0.862
      -0.659
      -0.489
      -0.399
      -0.315
      -0.152
       0.080
       0.268
       0.289
       0.118
      -0.143
      -0.337
      -0.345
      -0.141
       0.236
       0.730
       1.278
       1.752
       1.953
       1.698
       0.975
       0.016
      -0.819
      -1.265
      -1.318
      -1.178
      -1.058
      -1.002
      -0.881
      -0.544
       0.014
       0.627
       1.077
       1.253
       1.200
       1.030
       0.785
       0.423
      -0.092
      -0.686
      -1.187
      -1.441
      -1.424
      -1.221
      -0.918
      -0.520
       0.011
       0.620
       1.113
       1.254
       0.959
       0.374
      -0.234
      -0.671
      -0.919
      -1.056
      -1.103
      -0.981
      -0.621
      -0.104
       0.326
       0.432
       0.192
      -0.166
      -0.344
      -0.229
       0.019
       0.132
      -0.005
      -0.235
      -0.271
       0.031
       0.518
       0.855
       0.796
       0.381
      -0.117
      -0.427
      -0.478
      -0.404
      -0.371
      -0.418
      -0.443
      -0.317
       0.000
       0.430
       0.840
       1.121
       1.238
       1.213
       1.070
       0.802
       0.395
      -0.120
      -0.637
      -1.006
      -1.108
      -0.914
      -0.488
       0.038
       0.510
       0.801
       0.848
       0.682
       0.413
       0.160
      -0.015
      -0.128
      -0.219
      -0.280
      -0.237
      -0.021
       0.328
       0.644
       0.728
       0.507
       0.099
      -0.272
      -0.450
      -0.465
      -0.480
      -0.621
      -0.828
      -0.882
      -0.594
      -0.019
       0.520
       0.640
       0.203
      -0.545
      -1.143
      -1.256
      -0.907
      -0.411
      -0.070
       0.085
       0.287
       0.763
       1.470
       2.056
       2.101
       1.437
       0.288
      -0.872
      -1.621
      -1.820
      -1.613
      -1.232
      -0.813
      -0.355
       0.179
       0.748
       1.229
       1.489
       1.461
       1.161
       0.663
       0.072
      -0.495
      -0.928
      -1.153
      -1.149
      -0.949
      -0.626
      -0.267
       0.040
       0.228
       0.259
       0.147
      -0.036
      -0.184
      -0.206
      -0.079
       0.145
       0.377
       0.560
       0.689
       0.789
       0.850
       0.812
       0.603
       0.222
      -0.215
      -0.515
      -0.529
      -0.252
       0.173
       0.554
       0.772
       0.815
       0.738
       0.584
       0.357
       0.059
      -0.276
      -0.581
      -0.798
      -0.914
      -0.958
      -0.961
      -0.926
      -0.829
      -0.652
      -0.408
      -0.120
       0.195
       0.524
       0.821
       0.990
       0.922
       0.576
       0.033
      -0.532
      -0.950
      -1.157
      -1.190
      -1.109
      -0.897
      -0.470
       0.211
       1.026
       1.695
       1.927
       1.610
       0.903
       0.142
      -0.350
      -0.455
      -0.290
      -0.101
      -0.093
      -0.322
      -0.689
      -1.009
      -1.099
      -0.854
      -0.306
       0.367
       0.907
       1.130
       1.048
       0.850
       0.734
       0.721
       0.646
       0.343
      -0.156
      -0.605
      -0.750
      -0.565
      -0.294
      -0.231
      -0.447
      -0.725
      -0.767
      -0.496
      -0.137
       0.010
      -0.102
      -0.183
       0.114
       0.823
       1.539
       1.716
       1.126
       0.082
      -0.809
      -1.136
      -1.002
      -0.876
      -1.120
      -1.632
      -1.931
      -1.613
      -0.735
       0.218
       0.752
       0.762
       0.554
       0.493
       0.650
       0.763
       0.540
      -0.030
      -0.646
      -0.963
      -0.872
      -0.549
      -0.242
      -0.048
       0.125
       0.393
       0.737
       1.009
       1.086
       0.996
       0.877
       0.833
       0.812
       0.666
       0.305
      -0.190
      -0.617
      -0.822
      -0.806
      -0.673
      -0.492
      -0.229
       0.178
       0.692
       1.157
       1.405
       1.391
       1.202
       0.947
       0.632
       0.156
      -0.567
      -1.453
      -2.230
      -2.573
      -2.325
      -1.611
      -0.760
      -0.084
       0.293
       0.448
       0.523
       0.581
       0.567
       0.380
      -0.005
      -0.480
      -0.845
      -0.925
      -0.679
      -0.227
       0.217
       0.472
       0.470
       0.255
      -0.063
      -0.369
      -0.562
      -0.564
      -0.327
       0.150
       0.798
       1.467
       1.947
       2.056
       1.742
       1.147
       0.553
       0.212
       0.195
       0.354
       0.447
       0.323
       0.023
      -0.268
      -0.365
      -0.220
       0.053
       0.256
       0.250
       0.051
      -0.162
      -0.171
       0.122
       0.602
       1.006
       1.104
       0.858
       0.436
       0.078
      -0.091
      -0.128
      -0.176
      -0.303
      -0.424
      -0.391
      -0.151
       0.162
       0.324
       0.207
      -0.100
      -0.350
      -0.338
      -0.064
       0.259
       0.374
       0.173
      -0.250
      -0.691
      -1.004
      -1.167
      -1.233
      -1.229
      -1.107
      -0.795
      -0.295
       0.274
       0.701
       0.795
       0.485
      -0.127
      -0.806
      -1.291
      -1.425
      -1.213
      -0.791
      -0.304
       0.176
       0.633
       1.020
       1.196
       0.994
       0.379
      -0.465
      -1.200
      -1.546
      -1.446
      -1.060
      -0.610
      -0.205
       0.180
       0.588
       0.964
       1.165
       1.083
       0.757
       0.349
      -0.001
      -0.296
      -0.642
      -1.078
      -1.454
      -1.501
      -1.071
      -0.324
       0.331
       0.520
       0.191
      -0.350
      -0.689
      -0.632
      -0.341
      -0.155
      -0.278
      -0.587
      -0.758
      -0.568
      -0.111
       0.292
       0.385
       0.211
       0.060
       0.202
       0.639
       1.099
       1.267
       1.022
       0.523
       0.058
      -0.159
      -0.112
       0.062
       0.203
       0.224
       0.141
       0.039
       0.032
       0.207
       0.565
       0.998
       1.321
       1.384
       1.169
       0.797
       0.430
       0.159
      -0.040
      -0.237
      -0.458
      -0.645
      -0.705
      -0.593
      -0.344
      -0.034
       0.285
       0.600
       0.885
       1.060
       1.024
       0.764
       0.423
       0.220
       0.281
       0.521
       0.692
       0.564
       0.085
      -0.593
      -1.236
      -1.665
      -1.823
      -1.734
      -1.420
      -0.887
      -0.186
       0.525
       1.012
       1.109
       0.830
       0.355
      -0.100
      -0.409
      -0.566
      -0.614
      -0.569
      -0.395
      -0.055
       0.418
       0.888
       1.164
       1.124
       0.814
       0.443
       0.251
       0.333
       0.572
       0.734
       0.654
       0.358
       0.019
      -0.205
      -0.303
      -0.390
      -0.566
      -0.780
      -0.850
      -0.637
      -0.204
       0.206
       0.351
       0.194
      -0.084
      -0.259
      -0.269
      -0.263
      -0.448
      -0.890
      -1.444
      -1.874
      -2.041
      -2.000
      -1.911
      -1.875
      -1.849
      -1.710
      -1.388
      -0.925
      -0.438
      -0.022
       0.276
       0.417
       0.350
       0.062
      -0.324
      -0.546
      -0.360
       0.237
       0.936
       1.305
       1.107
       0.495
      -0.096
      -0.246
       0.175
       0.997
       1.930
       2.776
       3.480
       4.024
       4.312
       4.190
       3.590
       2.639
       1.611
       0.747
       0.122
      -0.337
      -0.702
      -0.930
      -0.905
      -0.589
      -0.135
       0.167
       0.070
      -0.470
      -1.276
      -2.059
      -2.566
      -2.669
      -2.386
      -1.866
      -1.346
      -1.067
      -1.146
      -1.506
      -1.926
      -2.203
      -2.278
      -2.234
      -2.150
      -1.981
      -1.588
      -0.925
      -0.186
       0.281
       0.251
      -0.150
      -0.511
      -0.460
       0.037
       0.699
       1.246
       1.688
       2.282
       3.199
       4.217
       4.771
       4.356
       2.949
       1.071
      -0.578
      -1.599
      -2.076
      -2.316
      -2.438
      -2.227
      -1.404
      -0.024
       1.416
       2.311
       2.425
       2.068
       1.793
       1.889
       2.139
       2.027
       1.225
      -0.094
      -1.376
      -2.147
      -2.380
      -2.448
      -2.704
      -3.077
      -3.091
      -2.283
      -0.644
       1.307
       2.855
       3.526
       3.286
       2.421
       1.264
       0.014
      -1.243
      -2.387
      -3.173
      -3.315
      -2.713
      -1.622
      -0.571
      -0.034
      -0.071
      -0.259
      -0.019
       0.908
       2.225
       3.318
       3.739
       3.544
       3.169
       3.010
       3.061
       2.932
       2.209
       0.839
      -0.778
      -2.081
      -2.747
      -2.876
      -2.807
      -2.753
      -2.604
      -2.069
      -1.022
       0.287
       1.370
       1.863
       1.776
       1.414
       1.052
       0.687
       0.091
      -0.909
      -2.203
      -3.412
      -4.142
      -4.245
      -3.861
      -3.246
      -2.547
      -1.735
      -0.726
       0.439
       1.540
       2.306
       2.600
       2.495
       2.183
       1.846
       1.591
       1.470
       1.498
       1.651
       1.834
       1.892
       1.659
       1.030
       0.018
      -1.232
      -2.473
      -3.411
      -3.777
      -3.425
      -2.410
      -1.006
       0.398
       1.466
       2.049
       2.193
       2.025
       1.619
       0.952
      -0.017
      -1.203
      -2.317
      -2.937
      -2.747
      -1.777
      -0.452
       0.618
       0.993
       0.655
      -0.039
      -0.644
      -0.945
      -1.047
      -1.167
      -1.349
      -1.365
      -0.887
       0.210
       1.693
       3.076
       3.927
       4.143
       3.967
       3.745
       3.595
       3.305
       2.549
       1.235
      -0.327
      -1.585
      -2.105
      -1.852
      -1.165
      -0.478
       0.005
       0.373
       0.774
       1.112
       1.002
       0.090
      -1.554
      -3.344
      -4.524
      -4.685
      -4.032
      -3.175
      -2.623
      -2.419
      -2.211
      -1.673
      -0.882
      -0.305
      -0.411
      -1.248
      -2.360
      -3.104
      -3.084
      -2.346
      -1.238
      -0.133
       0.741
       1.299
       1.531
       1.488
       1.326
       1.322
       1.786
       2.892
       4.523
       6.258
       7.542
       7.954
       7.412
       6.168
       4.623
       3.108
       1.774
       0.644
      -0.265
      -0.870
      -1.084
      -0.935
      -0.641
      -0.538
      -0.865
      -1.572
      -2.306
      -2.624
      -2.288
      -1.408
      -0.331
       0.613
       1.314
       1.862
       2.331
       2.578
       2.249
       1.053
      -0.922
      -3.122
      -4.797
      -5.448
      -5.094
      -4.167
      -3.138
      -2.215
      -1.331
      -0.387
       0.504
       1.010
       0.822
      -0.071
      -1.297
      -2.275
      -2.529
      -1.938
      -0.744
       0.648
       1.922
       2.940
       3.639
       3.870
       3.378
       1.993
      -0.130
      -2.445
      -4.223
      -4.923
      -4.443
      -3.096
      -1.353
       0.445
       2.181
       3.803
       5.104
       5.682
       5.173
       3.563
       1.286
      -1.008
      -2.811
      -3.958
      -4.545
      -4.705
      -4.449
      -3.689
      -2.391
      -0.722
       0.945
       2.212
       2.896
       3.119
       3.156
       3.157
       3.025
       2.538
       1.619
       0.471
      -0.543
      -1.172
      -1.446
      -1.569
      -1.654
      -1.559
      -1.001
       0.125
       1.516
       2.577
       2.828
       2.254
       1.307
       0.553
       0.261
       0.288
       0.308
       0.157
      -0.014
       0.071
       0.464
       0.829
       0.637
      -0.401
      -2.052
      -3.658
      -4.554
      -4.489
      -3.725
      -2.757
      -1.924
      -1.213
      -0.397
       0.636
       1.681
       2.318
       2.237
       1.516
       0.607
       0.038
       0.046
       0.432
       0.750
       0.672
       0.226
      -0.277
      -0.537
      -0.512
      -0.412
      -0.459
      -0.638
      -0.650
      -0.154
       0.895
       2.119
       2.937
       2.993
       2.425
       1.723
       1.298
       1.139
       0.862
       0.115
      -1.047
      -2.157
      -2.705
      -2.543
      -1.954
      -1.350
      -0.905
      -0.491
       0.065
       0.693
       1.058
       0.837
       0.020
      -1.047
      -1.927
      -2.416
      -2.660
      -2.964
      -3.474
      -4.039
      -4.334
      -4.140
      -3.499
      -2.647
      -1.815
      -1.074
      -0.345
       0.482
       1.431
       2.405
       3.229
       3.694
       3.613
       2.911
       1.748
       0.537
      -0.226
      -0.240
       0.437
       1.468
       2.470
       3.209
       3.634
       3.791
       3.744
       3.530
       3.173
       2.709
       2.214
       1.774
       1.417
       1.097
       0.739
       0.313
      -0.140
      -0.547
      -0.848
      -1.005
      -0.983
      -0.758
      -0.363
       0.091
       0.468
       0.681
       0.714
       0.600
       0.402
       0.219
       0.166
       0.303
       0.553
       0.708
       0.561
       0.036
      -0.755
      -1.588
      -2.232
      -2.540
      -2.462
      -2.023
      -1.296
      -0.406
       0.463
       1.090
       1.260
       0.853
      -0.070
      -1.251
      -2.314
      -2.942
      -3.007
      -2.614
      -2.004
      -1.396
      -0.861
      -0.318
       0.327
       1.013
       1.493
       1.483
       0.888
      -0.094
      -1.092
      -1.834
      -2.301
      -2.633
      -2.869
      -2.812
      -2.197
      -1.035
       0.213
       0.893
       0.650
      -0.268
      -1.192
      -1.537
      -1.200
      -0.537
       0.010
       0.274
       0.419
       0.693
       1.151
       1.596
       1.773
       1.627
       1.372
       1.297
       1.490
       1.741
       1.742
       1.385
       0.886
       0.614
       0.788
       1.300
       1.814
       2.016
       1.820
       1.357
       0.843
       0.435
       0.194
       0.127
       0.241
       0.547
       1.023
       1.593
       2.161
       2.649
       3.005
       3.136
       2.872
       2.030
       0.565
      -1.316
      -3.172
      -4.493
      -4.935
      -4.502
      -3.568
      -2.697
      -2.320
      -2.482
      -2.833
      -2.883
      -2.339
      -1.283
      -0.085
       0.847
       1.308
       1.357
       1.212
       1.085
       1.062
       1.108
       1.145
       1.128
       1.061
       0.952
       0.794
       0.556
       0.211
      -0.247
      -0.784
      -1.320
      -1.731
      -1.887
      -1.705
      -1.190
      -0.451
       0.334
       0.990
       1.430
       1.703
       1.940
       2.233
       2.548
       2.733
       2.614
       2.108
       1.280
       0.314
      -0.580
      -1.259
      -1.689
      -1.892
      -1.870
      -1.599
      -1.125
      -0.640
      -0.437
      -0.735
      -1.519
      -2.534
      -3.438
      -3.993
      -4.165
      -4.060
      -3.792
      -3.388
      -2.804
      -2.026
      -1.128
      -0.238
       0.549
       1.232
       1.868
       2.492
       3.024
       3.260
       2.962
       2.009
       0.532
      -1.072
      -2.296
      -2.749
      -2.345
      -1.316
      -0.057
       1.077
       1.920
       2.513
       3.002
       3.473
       3.848
       3.919
       3.513
       2.646
       1.543
       0.521
      -0.175
      -0.470
      -0.449
      -0.277
      -0.087
       0.062
       0.148
       0.107
      -0.167
      -0.717
      -1.401
      -1.926
      -2.018
      -1.612
      -0.890
      -0.169
       0.280
       0.386
       0.298
       0.270
       0.474
       0.853
       1.158
       1.137
       0.744
       0.176
      -0.280
      -0.456
      -0.391
      -0.254
      -0.190
      -0.221
      -0.264
      -0.233
      -0.148
      -0.145
      -0.378
      -0.877
      -1.468
      -1.852
      -1.792
      -1.272
      -0.497
