Origin Time       3/9/2009 19:51:08	 
Lat.              24.3 N	
Long.             94.6 E	
Depth (Km)        100.0
Magnitude         5.9
 Region           MYANMAR-India-Manipuir-Border                                    
 Above details taken from IMD 
     
Station Code      DIP
Station Lat.       25.839  N
Station Long.      93.435  E
Station Height(m)  260.0
Site Class        B   Vs30 between 375 m/sec to 700 m/sec *  
Record Time       03.09.2009 19:51:24.349
Sampling Rate     200. Hz
 Record Duration  108.025 Sec.
 Direction         E-W (E positive)
Max. Acceleration    -30.411 cm/sec**2
     
  * For reference see Site Classification link of website 
     
 Base Line Corrected and Low Pass Filtered (Cut Off at 35 Hz) Time History
 Acceleration data in cm/sec**2
    
[...]
      -0.657
      -1.077
      -1.535
      -1.770
      -1.588
      -1.002
      -0.218
       0.515
       1.061
       1.429
       1.668
       1.777
       1.708
       1.438
       1.019
       0.551
       0.128
      -0.191
      -0.365
      -0.374
      -0.255
      -0.129
      -0.137
      -0.311
      -0.514
      -0.516
      -0.192
       0.332
       0.734
       0.734
       0.328
      -0.182
      -0.428
      -0.288
       0.017
       0.132
      -0.124
      -0.628
      -1.086
      -1.267
      -1.143
      -0.874
      -0.712
      -0.855
      -1.323
      -1.917
      -2.336
      -2.388
      -2.107
      -1.686
      -1.299
      -0.974
      -0.628
      -0.176
       0.408
       1.097
       1.825
       2.478
       2.903
       2.993
       2.755
       2.292
       1.731
       1.175
       0.705
       0.377
       0.173
      -0.014
      -0.316
      -0.761
      -1.216
      -1.472
      -1.427
      -1.193
      -1.007
      -1.015
      -1.131
      -1.113
      -0.776
      -0.164
       0.492
       0.953
       1.136
       1.137
       1.110
       1.137
       1.188
       1.195
       1.143
       1.077
       1.024
       0.941
       0.777
       0.568
       0.446
       0.507
       0.671
       0.719
       0.512
       0.170
      -0.003
       0.186
       0.592
       0.823
       0.581
      -0.074
      -0.788
      -1.215
      -1.269
      -1.123
      -0.990
      -0.910
      -0.737
      -0.312
       0.358
       1.093
       1.675
       1.976
       1.962
       1.635
       1.012
       0.175
      -0.685
      -1.332
      -1.623
      -1.600
      -1.428
      -1.221
      -0.935
      -0.431
       0.344
       1.233
       1.901
       2.024
       1.504
       0.555
      -0.414
      -1.043
      -1.194
      -0.954
      -0.497
       0.046
       0.617
       1.148
       1.501
       1.509
       1.107
       0.414
      -0.337
      -0.978
      -1.514
      -2.057
      -2.643
      -3.132
      -3.297
      -3.022
      -2.428
      -1.783
      -1.281
      -0.893
      -0.419
       0.279
       1.097
       1.723
       1.860
       1.457
       0.755
       0.127
      -0.148
       0.012
       0.526
       1.235
       1.938
       2.413
       2.486
       2.141
       1.573
       1.088
       0.890
       0.919
       0.909
       0.626
       0.094
      -0.411
      -0.609
      -0.459
      -0.185
      -0.033
      -0.043
      -0.048
       0.099
       0.343
       0.487
       0.406
       0.158
      -0.116
      -0.374
      -0.714
      -1.221
      -1.825
      -2.337
      -2.623
      -2.695
      -2.631
      -2.436
      -2.029
      -1.360
      -0.522
       0.268
       0.794
       0.959
       0.803
       0.432
      -0.032
      -0.473
      -0.773
      -0.834
      -0.611
      -0.159
       0.341
       0.639
       0.575
       0.229
      -0.104
      -0.146
       0.109
       0.382
       0.352
      -0.059
      -0.611
      -0.938
      -0.808
      -0.254
       0.500
       1.201
       1.675
       1.806
       1.502
       0.751
      -0.252
      -1.102
      -1.419
      -1.156
      -0.638
      -0.264
      -0.157
      -0.110
       0.118
       0.494
       0.735
       0.628
       0.276
       0.016
       0.098
       0.476
       0.903
       1.199
       1.415
       1.738
       2.272
       2.893
       3.283
       3.111
       2.260
       0.962
      -0.287
      -1.052
      -1.259
      -1.217
      -1.317
      -1.687
      -2.123
      -2.312
      -2.113
      -1.635
      -1.131
      -0.832
      -0.851
      -1.152
      -1.549
      -1.772
      -1.607
      -1.057
      -0.360
       0.173
       0.385
       0.362
       0.322
       0.415
       0.639
       0.912
       1.183
       1.449
       1.669
       1.726
       1.499
       0.972
       0.274
      -0.392
      -0.860
      -1.071
      -1.067
      -0.927
      -0.705
      -0.411
      -0.067
       0.264
       0.492
       0.559
       0.438
       0.117
      -0.393
      -0.991
      -1.475
      -1.630
      -1.346
      -0.675
       0.202
       1.046
       1.643
       1.894
       1.845
       1.637
       1.387
       1.122
       0.837
       0.581
       0.460
       0.552
       0.812
       1.066
       1.093
       0.750
       0.064
      -0.759
      -1.448
      -1.847
      -2.007
      -2.113
      -2.276
      -2.399
      -2.255
      -1.715
      -0.898
      -0.107
       0.399
       0.571
       0.540
       0.471
       0.435
       0.406
       0.336
       0.237
       0.181
       0.227
       0.345
       0.400
       0.251
      -0.112
      -0.510
      -0.683
      -0.496
      -0.059
       0.387
       0.706
       0.994
       1.440
       2.074
       2.696
       3.055
       3.071
       2.844
       2.496
       2.058
       1.530
       0.981
       0.513
       0.119
      -0.357
      -1.083
      -2.042
      -2.995
      -3.648
      -3.857
      -3.692
      -3.344
      -2.989
      -2.714
      -2.498
      -2.253
      -1.891
      -1.419
      -0.980
      -0.781
      -0.952
      -1.440
      -2.027
      -2.446
      -2.531
      -2.284
      -1.845
      -1.364
      -0.874
      -0.277
       0.526
       1.472
       2.342
       2.949
       3.328
       3.684
       4.139
       4.553
       4.635
       4.246
       3.599
       3.150
       3.279
       4.010
       4.985
       5.684
       5.699
       4.902
       3.464
       1.796
       0.407
      -0.300
      -0.244
       0.273
       0.793
       1.060
       1.219
       1.668
       2.654
       3.977
       5.030
       5.158
       4.039
       1.847
      -0.864
      -3.421
      -5.278
      -6.174
      -6.153
      -5.477
      -4.460
      -3.347
      -2.297
      -1.467
      -1.030
      -1.073
      -1.445
      -1.768
      -1.667
      -1.043
      -0.126
       0.723
       1.259
       1.415
       1.204
       0.646
      -0.198
      -1.163
      -2.018
      -2.595
      -2.879
      -2.978
      -2.980
      -2.849
      -2.481
      -1.903
      -1.405
      -1.442
      -2.324
      -3.963
      -5.864
      -7.347
      -7.840
      -7.084
      -5.209
      -2.654
       0.027
       2.359
       4.041
       4.903
       4.853
       3.926
       2.407
       0.870
      -0.033
       0.059
       0.930
       1.868
       2.139
       1.515
       0.432
      -0.386
      -0.504
      -0.064
       0.461
       0.737
       0.828
       1.053
       1.648
       2.578
       3.605
       4.480
       5.038
       5.146
       4.638
       3.378
       1.450
      -0.715
      -2.445
      -3.183
      -2.824
      -1.771
      -0.642
       0.122
       0.449
       0.518
       0.513
       0.471
       0.327
       0.034
      -0.337
      -0.572
      -0.357
       0.610
       2.446
       4.921
       7.463
       9.423
      10.480
      10.870
      11.168
      11.792
      12.642
      13.195
      12.954
      11.838
      10.159
       8.282
       6.316
       4.148
       1.708
      -0.834
      -3.191
      -5.242
      -7.165
      -9.226
     -11.415
     -13.295
     -14.238
     -13.850
     -12.209
      -9.777
      -7.140
      -4.809
      -3.116
      -2.162
      -1.834
      -1.919
      -2.298
      -3.008
      -4.105
      -5.437
      -6.594
      -7.132
      -6.903
      -6.182
      -5.436
      -4.944
      -4.607
      -4.112
      -3.254
      -2.111
      -0.955
      -0.038
       0.558
       0.923
       1.223
       1.587
       2.018
       2.396
       2.560
       2.449
       2.195
       2.087
       2.409
       3.246
       4.413
       5.570
       6.441
       6.958
       7.209
       7.281
       7.160
       6.746
       5.922
       4.613
       2.849
       0.852
      -0.949
      -2.075
      -2.274
      -1.699
      -0.818
      -0.100
       0.263
       0.402
       0.605
       1.147
       2.204
       3.820
       5.840
       7.880
       9.465
      10.273
      10.302
       9.833
       9.244
       8.837
       8.720
       8.749
       8.512
       7.462
       5.198
       1.727
      -2.475
      -6.637
      -9.963
     -11.890
     -12.276
     -11.491
     -10.265
      -9.335
      -9.077
      -9.388
      -9.869
     -10.113
      -9.917
      -9.356
      -8.718
      -8.289
      -8.090
      -7.732
      -6.577
      -4.142
      -0.500
       3.619
       7.098
       8.970
       8.894
       7.296
       5.121
       3.385
       2.807
       3.691
       5.961
       9.177
      12.492
      14.729
      14.778
      12.186
       7.510
       2.096
      -2.575
      -5.539
      -6.613
      -6.224
      -5.009
      -3.431
      -1.630
       0.428
       2.654
       4.628
       5.689
       5.248
       3.132
      -0.273
      -4.173
      -7.683
     -10.123
     -11.112
     -10.526
      -8.463
      -5.281
      -1.609
       1.828
       4.529
       6.477
       8.048
       9.641
      11.324
      12.782
      13.540
      13.224
      11.672
       8.976
       5.509
       1.883
      -1.293
      -3.742
      -5.692
      -7.711
     -10.301
     -13.506
     -16.804
     -19.341
     -20.349
     -19.434
     -16.610
     -12.176
      -6.644
      -0.765
       4.512
       8.268
       9.972
       9.715
       8.115
       5.951
       3.734
       1.494
      -1.073
      -4.179
      -7.566
     -10.494
     -12.139
     -12.113
     -10.717
      -8.745
      -7.020
      -5.977
      -5.550
      -5.380
      -5.155
      -4.816
      -4.515
      -4.397
      -4.407
      -4.287
      -3.709
      -2.415
      -0.312
       2.443
       5.380
       7.821
       9.234
       9.645
       9.716
      10.320
      11.897
      14.164
      16.396
      18.001
      18.832
      19.052
      18.803
      18.066
      16.759
      14.860
      12.372
       9.276
       5.640
       1.812
      -1.485
      -3.399
      -3.456
      -1.963
       0.048
       1.411
       1.537
       0.731
      -0.124
      -0.273
       0.363
       1.180
       1.415
       0.751
      -0.502
      -1.812
      -3.067
      -4.794
      -7.711
     -11.991
     -16.931
     -21.306
     -24.092
     -24.951
     -24.183
     -22.330
     -19.791
     -16.750
     -13.363
      -9.949
      -6.919
      -4.491
      -2.511
      -0.618
       1.392
       3.328
       4.682
       4.860
       3.422
       0.274
      -4.141
      -8.756
     -12.107
     -12.925
     -10.805
      -6.469
      -1.369
       3.096
       6.200
       7.970
       8.857
       9.384
       9.962
      10.823
      11.954
      13.087
      13.802
      13.730
      12.688
      10.704
       8.014
       5.086
       2.557
       0.992
       0.579
       1.038
       1.852
       2.601
       3.124
       3.434
       3.497
       3.084
       1.834
      -0.409
      -3.231
      -5.613
      -6.434
      -5.171
      -2.247
       1.313
       4.595
       7.279
       9.515
      11.378
      12.482
      12.141
       9.970
       6.375
       2.445
      -0.662
      -2.270
      -2.237
      -0.673
       2.137
       5.440
       7.806
       7.563
       3.802
      -2.882
     -10.644
     -17.526
     -22.506
     -25.665
     -27.524
     -28.319
     -27.874
     -26.010
     -22.923
     -19.118
     -15.012
     -10.651
      -5.861
      -0.659
       4.502
       8.916
      12.074
      13.968
      14.992
      15.588
      15.998
      16.279
      16.403
      16.241
      15.433
      13.392
       9.610
       4.109
      -2.373
      -8.678
     -13.833
     -17.482
     -19.853
     -21.390
     -22.402
     -22.919
     -22.741
     -21.570
     -19.155
     -15.386
     -10.340
      -4.336
       2.036
       7.975
      12.704
      15.787
      17.368
      18.146
      19.018
      20.524
      22.424
      23.717
      23.186
      20.163
      15.024
       9.081
       3.934
       0.667
      -0.627
      -0.717
      -0.584
      -0.714
      -0.862
      -0.426
       0.920
       2.923
       4.969
       6.489
       7.137
       6.733
       5.294
       3.237
       1.454
       0.904
       1.938
       3.980
       5.918
       6.858
       6.575
       5.343
       3.457
       0.983
      -2.059
      -5.336
      -8.099
      -9.546
      -9.430
      -8.421
      -7.830
      -8.777
     -11.406
     -14.809
     -17.753
     -19.564
     -20.463
     -21.095
     -21.774
     -22.150
     -21.603
     -19.919
     -17.519
     -14.999
     -12.503
      -9.658
      -6.168
      -2.415
       0.592
       1.922
       1.433
      -0.086
      -1.396
      -1.494
      -0.042
       2.644
       5.911
       9.112
      11.773
      13.559
      14.229
      13.718
      12.290
      10.554
       9.244
       8.866
       9.440
      10.500
      11.332
      11.331
      10.300
       8.517
       6.564
       5.049
       4.357
       4.470
       4.919
       4.993
       4.231
       2.863
       1.758
       1.823
       3.296
       5.504
       7.243
       7.479
       5.898
       3.045
       0.047
      -1.908
      -2.093
      -0.553
       1.934
       4.259
       5.578
       5.785
       5.488
       5.438
       5.837
       6.140
       5.552
       3.790
       1.397
      -0.714
      -2.120
      -3.380
      -5.703
      -9.999
     -16.085
     -22.625
     -27.838
     -30.411
     -30.031
     -27.286
     -23.130
     -18.380
     -13.553
      -9.018
      -5.189
      -2.513
      -1.252
      -1.269
      -2.020
      -2.734
      -2.657
      -1.246
       1.670
       5.754
      10.166
      13.876
      16.178
      17.003
      16.745
      15.805
      14.347
      12.479
      10.572
       9.272
       9.164
      10.410
      12.682
      15.347
      17.699
      19.102
      19.107
      17.565
      14.660
      10.791
       6.392
       1.844
      -2.487
      -6.195
      -8.911
     -10.479
     -11.032
     -10.869
     -10.229
      -9.196
      -7.836
      -6.399
      -5.357
      -5.154
      -5.860
      -7.009
      -7.830
      -7.820
      -7.242
      -7.025
      -7.960
      -9.781
     -11.041
     -10.116
      -6.601
      -1.881
       1.687
       2.333
      -0.094
      -4.344
      -8.865
     -12.765
     -15.911
     -18.352
     -19.781
     -19.623
     -17.579
     -14.011
      -9.730
      -5.414
      -1.235
       2.965
       7.168
      10.862
      13.202
      13.537
      11.859
       8.847
       5.523
       2.771
       1.054
       0.417
       0.715
       1.831
       3.722
       6.273
       9.143
      11.782
      13.620
      14.304
      13.810
      12.419
      10.578
       8.728
       7.099
       5.606
       3.971
       2.084
       0.309
      -0.663
      -0.377
       0.886
       2.187
       2.540
       1.550
      -0.439
      -2.673
      -4.454
      -5.401
      -5.471
      -4.865
      -3.920
      -2.962
      -2.164
      -1.498
      -0.816
       0.024
       1.088
       2.365
       3.767
       5.089
       5.990
       6.104
       5.283
       3.795
       2.274
       1.347
       1.193
       1.396
       1.286
       0.501
      -0.734
      -1.921
      -2.898
      -4.095
      -6.088
      -8.833
     -11.329
     -12.155
     -10.517
      -6.938
      -3.027
      -0.507
      -0.257
      -1.953
      -4.424
      -6.407
      -7.265
      -7.244
      -7.099
      -7.352
      -7.773
      -7.541
      -5.928
      -2.919
       0.757
       4.142
       6.619
       8.109
       8.880
       9.287
       9.632
      10.073
      10.460
      10.218
       8.575
       5.147
       0.470
      -4.057
      -6.918
      -7.430
      -6.187
      -4.640
      -4.110
      -4.952
      -6.493
      -7.713
      -8.021
      -7.514
      -6.624
      -5.594
      -4.239
      -2.094
       1.172
       5.371
       9.695
      13.061
      14.731
      14.799
      14.122
      13.713
      14.041
      14.756
      15.006
      14.050
      11.739
       8.538
       5.152
       2.077
      -0.579
      -2.973
      -5.325
      -7.824
     -10.570
     -13.445
     -16.004
     -17.560
     -17.490
     -15.589
     -12.245
      -8.352
      -4.934
      -2.649
      -1.462
      -0.792
      -0.070
       0.739
       1.105
       0.411
      -1.452
      -3.833
      -5.608
      -5.843
      -4.366
      -1.804
       0.928
       3.248
       5.122
       6.795
       8.406
       9.842
      10.842
      11.127
      10.412
       8.490
       5.516
       2.271
      -0.027
      -0.445
       0.982
       3.243
       5.100
       5.901
       5.786
       5.213
       4.395
       3.166
       1.313
      -1.022
      -3.227
      -4.504
      -4.359
      -2.936
      -0.951
       0.741
       1.662
       1.918
       1.957
       2.077
       2.121
       1.690
       0.641
      -0.669
      -1.709
      -2.319
      -2.857
      -3.781
      -5.110
      -6.306
      -6.676
      -5.906
      -4.332
      -2.775
      -2.115
      -2.880
      -5.068
      -8.199
     -11.438
     -13.736
     -14.117
     -12.129
      -8.182
      -3.396
       1.014
       4.322
       6.368
       7.255
       7.140
       6.373
       5.694
       6.036
       7.909
      10.894
      13.735
      15.054
      14.179
      11.543
       8.366
       5.864
       4.498
       3.770
       2.607
       0.030
      -4.283
      -9.742
     -14.967
     -18.301
     -18.602
     -15.911
     -11.492
      -7.107
      -4.034
      -2.560
      -2.201
      -2.275
      -2.333
      -2.294
      -2.400
      -3.071
      -4.585
      -6.710
      -8.571
      -9.043
      -7.497
      -4.350
      -0.903
       1.507
       2.416
       2.445
       2.689
       3.831
       5.706
       7.538
       8.509
       8.221
       6.871
       5.188
       4.127
       4.357
       5.806
       7.656
       8.903
       9.049
       8.338
       7.355
       6.423
       5.379
       3.889
       1.964
       0.121
      -0.972
      -1.063
      -0.585
      -0.395
      -1.192
      -3.034
      -5.255
      -6.823
      -6.912
      -5.383
      -2.841
      -0.248
       1.642
       2.583
       2.705
       2.226
       1.347
       0.331
      -0.540
      -1.191
      -1.861
      -2.838
      -4.058
      -5.029
      -5.199
      -4.387
      -2.890
      -1.271
      -0.125
       0.041
      -1.107
      -3.566
      -6.819
      -9.863
     -11.583
     -11.353
      -9.438
      -6.794
      -4.375
      -2.511
      -0.912
       0.803
       2.619
       4.168
       5.173
       5.758
       6.256
       6.732
       6.787
       5.943
       4.271
       2.584
       1.870
       2.446
       3.627
       4.315
       3.962
       3.017
       2.451
       2.868
       4.046
       5.277
       6.021
       6.210
       6.016
       5.506
       4.621
       3.419
       2.176
       1.126
       0.137
      -1.220
      -3.179
      -5.350
      -6.862
      -7.004
      -5.812
      -4.010
      -2.375
      -1.165
      -0.169
       0.743
       1.227
       0.741
      -0.769
      -2.509
      -3.272
