Origin Time       11/8/2009 21:43:39 
Lat.              24.4 N 
Long.             94.8 E 
Depth (Km)         22.0
Magnitude         5.6
 Region           MYANMAR-INDIA(MANIPUR)BORDER                                     
 Above details taken from IMD 
     
Station Code      DIP
Station Lat.       25.839  N
Station Long.      93.435  E
Station Height(m)  260.0
Site Class        B   Vs30 between 375 m/sec to 700 m/sec *  
Record Time       11.08.2009 21:44:04.809
Sampling Rate     200. Hz
 Record Duration  102.585 Sec.
 Direction         E-W (E positive)
Max. Acceleration    -28.536 cm/sec**2
     
  * For reference see Site Classification link of website 
     
 Base Line Corrected and Low Pass Filtered (Cut Off at 35 Hz) Time History
 Acceleration data in cm/sec**2
    
[...]
      -1.628
      -1.357
      -0.776
      -0.002
       0.718
       1.153
       1.211
       0.970
       0.605
       0.287
       0.137
       0.220
       0.517
       0.878
       1.074
       0.963
       0.649
       0.440
       0.588
       1.061
       1.558
       1.768
       1.603
       1.206
       0.772
       0.389
       0.031
      -0.323
      -0.608
      -0.708
      -0.578
      -0.327
      -0.156
      -0.196
      -0.396
      -0.559
      -0.513
      -0.239
       0.132
       0.436
       0.569
       0.512
       0.291
      -0.037
      -0.371
      -0.584
      -0.599
      -0.460
      -0.304
      -0.255
      -0.325
      -0.434
      -0.492
      -0.459
      -0.352
      -0.228
      -0.150
      -0.140
      -0.132
      -0.003
       0.300
       0.667
       0.877
       0.776
       0.400
      -0.092
      -0.566
      -0.991
      -1.373
      -1.662
      -1.746
      -1.550
      -1.117
      -0.593
      -0.134
       0.183
       0.381
       0.537
       0.695
       0.827
       0.874
       0.840
       0.832
       0.983
       1.304
       1.632
       1.752
       1.600
       1.343
       1.211
       1.253
       1.277
       1.035
       0.453
      -0.316
      -1.038
      -1.552
      -1.801
      -1.774
      -1.497
      -1.081
      -0.741
      -0.702
      -1.019
      -1.500
      -1.810
      -1.709
      -1.223
      -0.609
      -0.155
       0.019
       0.005
       0.014
       0.219
       0.663
       1.247
       1.786
       2.099
       2.084
       1.767
       1.283
       0.816
       0.527
       0.465
       0.532
       0.514
       0.207
      -0.433
      -1.241
      -1.919
      -2.212
      -2.041
      -1.516
      -0.838
      -0.177
       0.362
       0.703
       0.772
       0.540
       0.095
      -0.370
      -0.659
      -0.684
      -0.465
      -0.061
       0.488
       1.127
       1.731
       2.120
       2.146
       1.799
       1.207
       0.554
      -0.036
      -0.539
      -0.977
      -1.338
      -1.564
      -1.614
      -1.508
      -1.288
      -0.944
      -0.421
       0.253
       0.886
       1.197
       1.049
       0.603
       0.239
       0.275
       0.718
       1.258
       1.507
       1.278
       0.692
       0.050
      -0.394
      -0.576
      -0.602
      -0.598
      -0.595
      -0.541
      -0.409
      -0.276
      -0.272
      -0.464
      -0.794
      -1.117
      -1.296
      -1.267
      -1.057
      -0.764
      -0.503
      -0.336
      -0.226
      -0.077
       0.172
       0.468
       0.684
       0.720
       0.596
       0.420
       0.291
       0.230
       0.202
       0.173
       0.119
       0.002
      -0.208
      -0.455
      -0.566
      -0.367
       0.149
       0.779
       1.248
       1.405
       1.274
       0.964
       0.574
       0.182
      -0.119
      -0.236
      -0.140
       0.099
       0.357
       0.521
       0.535
       0.405
       0.172
      -0.118
      -0.444
      -0.792
      -1.116
      -1.326
      -1.339
      -1.147
      -0.834
      -0.522
      -0.309
      -0.254
      -0.377
      -0.647
      -0.952
      -1.117
      -0.998
      -0.576
       0.010
       0.540
       0.830
       0.835
       0.664
       0.516
       0.551
       0.774
       1.019
       1.062
       0.787
       0.282
      -0.219
      -0.501
      -0.523
      -0.424
      -0.402
      -0.547
      -0.785
      -0.944
      -0.902
      -0.674
      -0.379
      -0.147
      -0.016
       0.085
       0.286
       0.684
       1.250
       1.802
       2.100
       2.008
       1.586
       1.045
       0.575
       0.239
      -0.012
      -0.220
      -0.357
      -0.366
      -0.253
      -0.114
      -0.066
      -0.137
      -0.247
      -0.311
      -0.347
      -0.479
      -0.801
      -1.243
      -1.599
      -1.681
      -1.459
      -1.050
      -0.610
      -0.232
       0.058
       0.267
       0.406
       0.491
       0.551
       0.606
       0.643
       0.618
       0.490
       0.265
       0.009
      -0.179
      -0.212
      -0.074
       0.148
       0.309
       0.315
       0.202
       0.117
       0.202
       0.478
       0.833
       1.097
       1.165
       1.046
       0.831
       0.605
       0.389
       0.165
      -0.072
      -0.302
      -0.508
      -0.696
      -0.866
      -0.981
      -0.981
      -0.830
      -0.535
      -0.134
       0.334
       0.815
       1.230
       1.493
       1.547
       1.376
       0.968
       0.313
      -0.533
      -1.372
      -1.889
      -1.830
      -1.212
      -0.369
       0.266
       0.460
       0.310
       0.098
       0.034
       0.115
       0.187
       0.102
      -0.167
      -0.518
      -0.786
      -0.825
      -0.580
      -0.120
       0.368
       0.661
       0.635
       0.353
       0.034
      -0.106
      -0.005
       0.218
       0.367
       0.294
      -0.027
      -0.505
      -0.963
      -1.189
      -1.023
      -0.456
       0.328
       1.033
       1.428
       1.465
       1.254
       0.944
       0.627
       0.334
       0.075
      -0.167
      -0.442
      -0.803
      -1.242
      -1.671
      -1.964
      -2.035
      -1.874
      -1.523
      -1.040
      -0.492
       0.042
       0.481
       0.777
       0.930
       0.962
       0.886
       0.726
       0.548
       0.462
       0.545
       0.765
       0.994
       1.116
       1.135
       1.157
       1.272
       1.427
       1.450
       1.201
       0.709
       0.157
      -0.275
      -0.549
      -0.763
      -1.013
      -1.266
      -1.378
      -1.253
      -0.981
      -0.786
      -0.826
      -1.035
      -1.167
      -1.017
      -0.595
      -0.105
       0.217
       0.265
       0.083
      -0.216
      -0.522
      -0.750
      -0.818
      -0.641
      -0.173
       0.518
       1.221
       1.652
       1.634
       1.220
       0.654
       0.159
      -0.220
      -0.578
      -0.947
      -1.189
      -1.104
      -0.648
      -0.002
       0.577
       0.952
       1.145
       1.223
       1.189
       1.010
       0.714
       0.395
       0.124
      -0.114
      -0.371
      -0.622
      -0.728
      -0.539
      -0.047
       0.552
       0.954
       0.936
       0.512
      -0.083
      -0.561
      -0.787
      -0.841
      -0.897
      -1.037
      -1.169
      -1.116
      -0.773
      -0.204
       0.394
       0.803
       0.875
       0.595
       0.101
      -0.365
      -0.562
      -0.395
       0.029
       0.482
       0.782
       0.911
       0.985
       1.147
       1.462
       1.881
       2.244
       2.335
       1.982
       1.183
       0.169
      -0.688
      -1.087
      -0.985
      -0.616
      -0.315
      -0.305
      -0.581
      -0.959
      -1.221
      -1.244
      -1.043
      -0.741
      -0.481
      -0.356
      -0.393
      -0.569
      -0.827
      -1.061
      -1.125
      -0.911
      -0.455
       0.025
       0.231
       0.003
      -0.546
      -1.076
      -1.240
      -0.896
      -0.170
       0.646
       1.272
       1.562
       1.518
       1.238
       0.844
       0.458
       0.202
       0.160
       0.292
       0.391
       0.172
      -0.520
      -1.527
      -2.408
      -2.703
      -2.246
      -1.280
      -0.274
       0.405
       0.685
       0.733
       0.732
       0.723
       0.612
       0.310
      -0.134
      -0.529
      -0.657
      -0.435
       0.036
       0.564
       1.028
       1.425
       1.750
       1.853
       1.488
       0.545
      -0.774
      -2.062
      -3.004
      -3.553
      -3.839
      -3.932
      -3.751
      -3.184
      -2.261
      -1.191
      -0.237
       0.424
       0.747
       0.797
       0.705
       0.634
       0.698
       0.876
       1.022
       0.991
       0.783
       0.546
       0.440
       0.506
       0.681
       0.908
       1.201
       1.578
       1.974
       2.242
       2.252
       1.981
       1.493
       0.857
       0.104
      -0.736
      -1.568
      -2.239
      -2.631
      -2.735
      -2.635
      -2.407
      -2.049
      -1.520
      -0.830
      -0.103
       0.476
       0.769
       0.769
       0.595
       0.416
       0.343
       0.394
       0.539
       0.757
       1.032
       1.286
       1.385
       1.249
       0.967
       0.772
       0.862
       1.248
       1.745
       2.093
       2.105
       1.772
       1.265
       0.834
       0.644
       0.693
       0.861
       1.052
       1.262
       1.536
       1.853
       2.099
       2.130
       1.872
       1.355
       0.675
      -0.047
      -0.693
      -1.174
      -1.479
      -1.709
      -2.019
      -2.513
      -3.145
      -3.734
      -4.056
      -3.949
      -3.373
      -2.439
      -1.395
      -0.539
      -0.061
       0.091
       0.174
       0.426
       0.839
       1.148
       1.073
       0.563
      -0.181
      -0.904
      -1.485
      -1.954
      -2.355
      -2.640
      -2.702
      -2.476
      -1.998
      -1.359
      -0.632
       0.140
       0.875
       1.414
       1.567
       1.258
       0.643
       0.082
      -0.054
       0.406
       1.332
       2.402
       3.296
       3.869
       4.170
       4.300
       4.247
       3.862
       3.027
       1.850
       0.703
       0.010
      -0.033
       0.421
       1.015
       1.448
       1.630
       1.619
       1.456
       1.085
       0.433
      -0.423
      -1.233
      -1.729
      -1.867
      -1.886
      -2.111
      -2.659
      -3.319
      -3.721
      -3.613
      -3.017
      -2.151
      -1.254
      -0.468
       0.144
       0.535
       0.662
       0.546
       0.324
       0.205
       0.330
       0.667
       1.056
       1.361
       1.582
       1.797
       2.008
       2.054
       1.710
       0.883
      -0.269
      -1.406
      -2.186
      -2.414
      -2.072
      -1.264
      -0.156
       1.073
       2.250
       3.226
       3.877
       4.121
       3.946
       3.428
       2.706
       1.928
       1.215
       0.675
       0.410
       0.482
       0.844
       1.320
       1.682
       1.774
       1.602
       1.307
       1.051
       0.903
       0.806
       0.621
       0.197
      -0.554
      -1.586
      -2.679
      -3.503
      -3.809
      -3.593
      -3.087
      -2.592
      -2.317
      -2.309
      -2.464
      -2.548
      -2.290
      -1.537
      -0.401
       0.770
       1.616
       1.993
       1.988
       1.751
       1.338
       0.758
       0.121
      -0.317
      -0.290
       0.258
       1.068
       1.669
       1.628
       0.822
      -0.471
      -1.710
      -2.388
      -2.281
      -1.505
      -0.396
       0.662
       1.365
       1.580
       1.415
       1.209
       1.328
       1.880
       2.595
       3.045
       3.000
       2.586
       2.083
       1.595
       0.976
       0.049
      -1.107
      -2.148
      -2.704
      -2.636
      -2.076
      -1.266
      -0.374
       0.591
       1.711
       3.023
       4.369
       5.367
       5.563
       4.729
       3.081
       1.207
      -0.278
      -1.081
      -1.328
      -1.348
      -1.370
      -1.357
      -1.066
      -0.250
       1.138
       2.843
       4.375
       5.246
       5.205
       4.309
       2.791
       0.887
      -1.177
      -3.114
      -4.587
      -5.385
      -5.587
      -5.506
      -5.442
      -5.470
      -5.494
      -5.458
      -5.465
      -5.671
      -6.060
      -6.374
      -6.265
      -5.518
      -4.172
      -2.457
      -0.675
       0.875
       1.911
       2.227
       1.778
       0.700
      -0.791
      -2.518
      -4.367
      -6.201
      -7.827
      -9.074
      -9.905
     -10.407
     -10.635
     -10.451
      -9.520
      -7.545
      -4.582
      -1.195
       1.743
       3.491
       3.850
       3.218
       2.296
       1.673
       1.645
       2.297
       3.637
       5.573
       7.816
       9.934
      11.598
      12.789
      13.744
      14.668
      15.474
      15.766
      15.077
      13.193
      10.305
       6.924
       3.649
       0.949
      -0.923
      -1.913
      -2.090
      -1.578
      -0.563
       0.674
       1.781
       2.424
       2.386
       1.585
       0.063
      -2.042
      -4.530
      -7.187
      -9.789
     -12.047
     -13.580
     -14.000
     -13.101
     -11.012
      -8.209
      -5.389
      -3.241
      -2.131
      -1.853
      -1.662
      -0.745
       1.145
       3.391
       4.863
       4.694
       2.847
       0.084
      -2.564
      -4.367
      -5.132
      -5.063
      -4.446
      -3.419
      -1.976
      -0.157
       1.743
       3.192
       3.712
       3.220
       2.124
       1.043
       0.400
       0.255
       0.506
       1.231
       2.759
       5.370
       8.899
      12.620
      15.545
      16.908
      16.481
      14.552
      11.643
       8.218
       4.541
       0.741
      -3.039
      -6.544
      -9.428
     -11.357
     -12.103
     -11.583
      -9.879
      -7.296
      -4.407
      -1.992
      -0.782
      -1.099
      -2.617
      -4.450
      -5.567
      -5.274
      -3.460
      -0.513
       2.919
       6.183
       8.836
      10.790
      12.300
      13.739
      15.280
      16.692
      17.400
      16.776
      14.473
      10.609
       5.665
       0.194
      -5.432
     -11.029
     -16.420
     -21.271
     -25.114
     -27.567
     -28.536
     -28.229
     -26.939
     -24.816
     -21.828
     -17.926
     -13.250
      -8.177
      -3.187
       1.291
       4.950
       7.612
       9.255
      10.037
      10.253
      10.199
      10.041
       9.794
       9.433
       9.062
       8.947
       9.332
      10.141
      10.868
      10.870
       9.858
       8.141
       6.349
       4.891
       3.662
       2.223
       0.224
      -2.361
      -5.320
      -8.361
     -11.104
     -13.018
     -13.537
     -12.378
      -9.728
      -6.130
      -2.211
       1.451
       4.282
       5.711
       5.405
       3.618
       1.298
      -0.302
      -0.299
       1.376
       4.096
       7.035
       9.545
      11.178
      11.538
      10.306
       7.517
       3.790
       0.191
      -2.278
      -3.204
      -2.905
      -2.110
      -1.428
      -1.026
      -0.662
       0.004
       1.136
       2.633
       4.209
       5.496
       6.122
       5.839
       4.716
       3.238
       2.087
       1.614
       1.451
       0.702
      -1.326
      -4.439
      -7.579
      -9.598
     -10.115
      -9.707
      -9.275
      -9.192
      -9.013
      -8.000
      -5.937
      -3.475
      -1.676
      -1.232
      -2.037
      -3.378
      -4.446
      -4.764
      -4.312
      -3.409
      -2.445
      -1.588
      -0.641
       0.818
       3.061
       5.879
       8.548
      10.186
      10.216
       8.643
       5.985
       2.977
       0.296
      -1.603
      -2.553
      -2.697
      -2.424
      -2.134
      -1.948
      -1.615
      -0.722
       0.931
       3.070
       4.987
       5.868
       5.237
       3.245
       0.622
      -1.699
      -3.038
      -3.211
      -2.496
      -1.413
      -0.486
      -0.040
      -0.101
      -0.460
      -0.846
      -1.107
      -1.200
      -1.021
      -0.247
       1.567
       4.582
       8.234
      11.221
      12.124
      10.325
       6.475
       2.057
      -1.659
      -4.373
      -6.617
      -8.911
     -11.099
     -12.502
     -12.670
     -11.880
     -10.820
      -9.807
      -8.420
      -5.956
      -2.258
       1.914
       5.330
       7.126
       7.323
       6.647
       5.883
       5.310
       4.572
       3.016
       0.219
      -3.597
      -7.525
     -10.381
     -11.352
     -10.453
      -8.430
      -6.161
      -4.044
      -1.914
       0.523
       3.215
       5.739
       7.695
       9.015
       9.861
      10.249
       9.883
       8.437
       6.020
       3.327
       1.261
       0.327
       0.332
       0.612
       0.523
      -0.227
      -1.575
      -3.235
      -4.746
      -5.451
      -4.666
      -2.093
       1.782
       5.724
       8.348
       8.927
       7.812
       6.129
       4.975
       4.733
       5.029
       5.259
       5.116
       4.635
       3.854
       2.570
       0.488
      -2.455
      -5.935
      -9.399
     -12.292
     -14.169
     -14.696
     -13.713
     -11.385
      -8.298
      -5.301
      -3.115
      -1.998
      -1.720
      -1.856
      -2.146
      -2.618
      -3.356
      -4.146
      -4.324
      -3.102
      -0.156
       4.022
       8.365
      11.913
      14.338
      15.906
      16.984
      17.591
      17.422
      16.253
      14.253
      11.877
       9.427
       6.742
       3.318
      -1.232
      -6.725
     -12.323
     -16.877
     -19.493
     -19.945
     -18.675
     -16.397
     -13.654
     -10.661
      -7.503
      -4.401
      -1.727
       0.267
       1.700
       2.972
       4.352
       5.643
       6.302
       5.981
       5.018
       4.363
       4.902
       6.684
       8.742
       9.671
       8.502
       5.201
       0.532
      -4.434
      -8.764
     -11.828
     -13.279
     -13.056
     -11.476
      -9.296
      -7.492
      -6.717
      -6.786
      -6.652
      -5.063
      -1.439
       3.684
       8.966
      12.997
      14.953
      14.800
      13.093
      10.589
       7.929
       5.535
       3.650
       2.357
       1.540
       0.882
       0.017
      -1.237
      -2.760
      -4.217
      -5.273
      -5.771
      -5.767
      -5.497
      -5.313
      -5.559
      -6.357
      -7.442
      -8.263
      -8.368
      -7.785
      -7.027
      -6.690
      -6.942
      -7.330
      -7.043
      -5.415
      -2.295
       1.928
       6.568
      10.933
      14.506
      16.984
      18.273
      18.503
      17.996
      17.099
      15.976
      14.560
      12.743
      10.615
       8.465
       6.517
       4.673
       2.590
       0.081
      -2.558
      -4.682
      -5.836
      -6.167
      -6.280
      -6.694
      -7.472
      -8.378
      -9.284
     -10.327
     -11.606
     -12.802
     -13.196
     -12.163
      -9.706
      -6.551
      -3.700
      -1.788
      -0.768
      -0.116
       0.639
       1.553
       2.309
       2.549
       2.165
       1.387
       0.684
       0.547
       1.182
       2.286
       3.089
       2.785
       1.106
      -1.424
      -3.816
      -5.293
      -5.760
      -5.653
      -5.367
      -4.822
      -3.585
      -1.378
       1.536
       4.424
       6.547
       7.602
       7.832
       7.772
       7.859
       8.208
       8.673
       9.099
       9.487
       9.935
      10.433
      10.790
      10.778
      10.326
       9.509
       8.307
       6.431
       3.518
      -0.369
      -4.423
      -7.415
      -8.560
      -8.205
      -7.666
      -8.238
     -10.196
     -12.619
     -14.145
     -13.977
     -12.338
     -10.143
      -8.296
      -7.146
      -6.394
      -5.412
      -3.720
      -1.337
       1.159
       2.889
       3.076
       1.459
      -1.485
      -4.602
      -6.495
      -6.186
      -3.688
      -0.059
       3.160
       4.813
       4.688
