Origin Time       30/8/2009 19:27:44	
Lat.              25.4 N	
Long.             94.8 E	
Depth (Km)         85.0
Magnitude         5.3
 Region           MYANMAR-India-Manipuir-Border                                    
 Above details taken from IMD 
   
Station Code      DIP
Station Lat.       25.839
Station Long.      93.435
Station Height(m)  260.0
Site Class        B   Vs30 between 375 m/sec to 700 m/sec *  
Record Time       30.08.2009 19:28:18.584
Sampling Rate     200. Hz
 Record Duration   79.515 Sec.
 Direction         Vert. (Up positive)
Max. Acceleration     10.896 cm/sec**2
     
  * For reference see Site Classification link of website 
     
 Base Line Corrected and Low Pass Filtered (Cut Off at 35 Hz) Time History
 Acceleration data in cm/sec**2
    
[...]
      -0.231
      -1.067
      -1.571
      -1.346
      -0.402
       0.818
       1.724
       1.967
       1.616
       1.021
       0.503
       0.148
      -0.163
      -0.580
      -1.130
      -1.690
      -2.054
      -2.015
      -1.467
      -0.496
       0.601
       1.432
       1.724
       1.481
       0.971
       0.548
       0.410
       0.476
       0.496
       0.287
      -0.113
      -0.518
      -0.772
      -0.846
      -0.783
      -0.602
      -0.274
       0.210
       0.775
       1.291
       1.661
       1.863
       1.889
       1.649
       1.003
      -0.068
      -1.297
      -2.177
      -2.240
      -1.385
       0.008
       1.280
       1.886
       1.697
       1.019
       0.311
      -0.158
      -0.436
      -0.707
      -1.004
      -1.138
      -0.885
      -0.255
       0.453
       0.854
       0.774
       0.355
      -0.099
      -0.387
      -0.539
      -0.719
      -1.023
      -1.355
      -1.469
      -1.163
      -0.502
       0.153
       0.406
       0.188
      -0.136
      -0.067
       0.595
       1.556
       2.244
       2.238
       1.551
       0.586
      -0.195
      -0.585
      -0.710
      -0.815
      -0.998
      -1.129
      -1.022
      -0.657
      -0.214
       0.118
       0.324
       0.537
       0.816
       1.013
       0.876
       0.326
      -0.403
      -0.905
      -0.917
      -0.519
      -0.054
       0.149
       0.017
      -0.253
      -0.373
      -0.184
       0.251
       0.696
       0.879
       0.626
      -0.035
      -0.863
      -1.505
      -1.702
      -1.451
      -0.996
      -0.615
      -0.374
      -0.086
       0.443
       1.118
       1.521
       1.255
       0.370
      -0.577
      -0.924
      -0.441
       0.509
       1.299
       1.540
       1.306
       0.927
       0.618
       0.317
      -0.143
      -0.770
      -1.358
      -1.681
      -1.687
      -1.481
      -1.160
      -0.709
      -0.077
       0.682
       1.366
       1.724
       1.611
       1.076
       0.342
      -0.307
      -0.648
      -0.614
      -0.320
      -0.008
       0.064
      -0.213
      -0.682
      -0.965
      -0.709
       0.114
       1.132
       1.820
       1.899
       1.525
       1.124
       0.991
       1.007
       0.738
      -0.124
      -1.376
      -2.344
      -2.365
      -1.305
       0.305
       1.648
       2.178
       1.918
       1.287
       0.686
       0.228
      -0.214
      -0.785
      -1.470
      -2.075
      -2.350
      -2.148
      -1.543
      -0.806
      -0.234
       0.039
       0.111
       0.205
       0.464
       0.845
       1.196
       1.425
       1.558
       1.640
       1.609
       1.323
       0.736
       0.016
      -0.534
      -0.704
      -0.551
      -0.348
      -0.359
      -0.638
      -1.006
      -1.221
      -1.174
      -0.952
      -0.729
      -0.599
      -0.516
      -0.366
      -0.094
       0.229
       0.460
       0.487
       0.303
       0.008
      -0.265
      -0.414
      -0.393
      -0.210
       0.096
       0.445
       0.727
       0.824
       0.680
       0.357
       0.011
      -0.213
      -0.282
      -0.287
      -0.348
      -0.511
      -0.710
      -0.819
      -0.750
      -0.510
      -0.188
       0.130
       0.409
       0.628
       0.714
       0.579
       0.248
      -0.104
      -0.293
      -0.297
      -0.242
      -0.217
      -0.149
       0.106
       0.583
       1.133
       1.538
       1.686
       1.605
       1.355
       0.919
       0.237
      -0.633
      -1.437
      -1.845
      -1.686
      -1.087
      -0.369
       0.197
       0.559
       0.817
       1.022
       1.073
       0.843
       0.393
       0.009
      -0.040
       0.186
       0.290
      -0.111
      -0.991
      -1.896
      -2.322
      -2.119
      -1.552
      -1.004
      -0.625
      -0.245
       0.394
       1.335
       2.280
       2.769
       2.482
       1.442
      -0.024
      -1.460
      -2.482
      -2.884
      -2.672
      -2.030
      -1.225
      -0.466
       0.178
       0.772
       1.388
       1.961
       2.262
       2.056
       1.364
       0.570
       0.199
       0.480
       1.115
       1.492
       1.201
       0.364
      -0.498
      -0.907
      -0.760
      -0.280
       0.261
       0.720
       1.029
       1.102
       0.879
       0.454
       0.064
      -0.092
      -0.044
      -0.043
      -0.339
      -0.955
      -1.649
      -2.081
      -2.051
      -1.603
      -0.962
      -0.374
       0.029
       0.258
       0.407
       0.569
       0.781
       0.995
       1.097
       0.970
       0.575
      -0.021
      -0.694
      -1.308
      -1.735
      -1.874
      -1.703
      -1.281
      -0.670
       0.102
       0.955
       1.665
       1.943
       1.657
       0.942
       0.091
      -0.649
      -1.185
      -1.517
      -1.631
      -1.465
      -0.965
      -0.167
       0.767
       1.607
       2.147
       2.282
       2.048
       1.584
       1.064
       0.617
       0.285
       0.042
      -0.152
      -0.299
      -0.394
      -0.479
      -0.642
      -0.907
      -1.141
      -1.147
      -0.868
      -0.490
      -0.328
      -0.563
      -1.078
      -1.495
      -1.409
      -0.682
       0.428
       1.415
       1.867
       1.754
       1.414
       1.264
       1.437
       1.648
       1.412
       0.467
      -0.945
      -2.191
      -2.679
      -2.257
      -1.256
      -0.189
       0.620
       1.139
       1.463
       1.596
       1.430
       0.898
       0.113
      -0.666
      -1.201
      -1.429
      -1.464
      -1.441
      -1.360
      -1.106
      -0.633
      -0.117
       0.147
       0.054
      -0.127
       0.070
       0.878
       2.019
       2.872
       2.952
       2.278
       1.318
       0.563
       0.114
      -0.349
      -1.189
      -2.348
      -3.279
      -3.342
      -2.322
      -0.620
       1.012
       1.932
       1.959
       1.402
       0.768
       0.385
       0.215
       0.003
      -0.419
      -0.956
      -1.343
      -1.387
      -1.121
      -0.746
      -0.446
      -0.277
      -0.172
      -0.020
       0.277
       0.745
       1.276
       1.647
       1.659
       1.311
       0.821
       0.458
       0.306
       0.169
      -0.268
      -1.112
      -2.037
      -2.428
      -1.869
      -0.563
       0.750
       1.361
       1.132
       0.539
       0.200
       0.368
       0.776
       0.911
       0.436
      -0.545
      -1.560
      -2.089
      -1.898
      -1.145
      -0.219
       0.499
       0.830
       0.841
       0.774
       0.855
       1.095
       1.283
       1.182
       0.755
       0.191
      -0.261
      -0.470
      -0.434
      -0.184
       0.258
       0.769
       1.045
       0.731
      -0.230
      -1.376
      -1.954
      -1.504
      -0.278
       0.924
       1.392
       1.025
       0.314
      -0.152
      -0.183
      -0.082
      -0.314
      -1.080
      -2.144
      -2.996
      -3.194
      -2.591
      -1.371
       0.060
       1.225
       1.755
       1.578
       0.969
       0.368
       0.059
      -0.008
      -0.070
      -0.252
      -0.419
      -0.344
      -0.006
       0.327
       0.366
       0.167
       0.172
       0.795
       1.937
       2.946
       3.135
       2.367
       1.163
       0.262
       0.072
       0.453
       0.967
       1.277
       1.364
       1.418
       1.580
       1.777
       1.793
       1.465
       0.826
       0.080
      -0.545
      -0.946
      -1.194
      -1.467
      -1.896
      -2.424
      -2.797
      -2.749
      -2.268
      -1.665
      -1.348
      -1.466
      -1.764
      -1.780
      -1.183
       0.035
       1.595
       3.083
       4.122
       4.489
       4.197
       3.494
       2.722
       2.101
       1.573
       0.851
      -0.293
      -1.746
      -3.031
      -3.637
      -3.403
      -2.591
      -1.631
      -0.806
      -0.184
       0.235
       0.395
       0.218
      -0.275
      -0.906
      -1.429
      -1.671
      -1.596
      -1.263
      -0.745
      -0.082
       0.735
       1.739
       2.918
       4.100
       4.912
       4.890
       3.741
       1.597
      -0.975
      -3.277
      -4.883
      -5.790
      -6.169
      -6.021
      -5.110
      -3.276
      -0.774
       1.733
       3.556
       4.398
       4.424
       3.968
       3.177
       1.974
       0.346
      -1.402
      -2.751
      -3.366
      -3.331
      -2.979
      -2.488
      -1.694
      -0.320
       1.597
       3.505
       4.569
       4.201
       2.484
       0.181
      -1.734
      -2.701
      -2.874
      -2.840
      -3.023
      -3.291
      -3.116
      -2.092
      -0.334
       1.593
       3.070
       3.777
       3.759
       3.240
       2.414
       1.346
       0.005
      -1.601
      -3.275
      -4.560
      -4.867
      -3.771
      -1.313
       1.922
       5.018
       7.132
       7.837
       7.225
       5.677
       3.490
       0.685
      -2.772
      -6.510
      -9.584
     -10.893
      -9.918
      -7.136
      -3.705
      -0.668
       1.619
       3.355
       4.727
       5.559
       5.500
       4.458
       2.788
       1.107
      -0.088
      -0.682
      -0.900
      -1.006
      -1.067
      -0.983
      -0.701
      -0.343
      -0.130
      -0.228
      -0.638
      -1.191
      -1.564
      -1.372
      -0.380
       1.238
       2.868
       3.808
       3.775
       3.094
       2.367
       1.925
       1.590
       0.959
      -0.101
      -1.214
      -1.765
      -1.429
      -0.515
       0.206
       0.059
      -1.014
      -2.395
      -3.254
      -3.168
      -2.409
      -1.696
      -1.620
      -2.223
      -3.018
      -3.359
      -2.838
      -1.472
       0.347
       2.114
       3.569
       4.824
       6.077
       7.191
       7.649
       6.976
       5.163
       2.685
       0.141
      -2.130
      -4.071
      -5.579
      -6.213
      -5.410
      -3.121
      -0.141
       2.336
       3.552
       3.569
       2.894
       1.850
       0.389
      -1.562
      -3.698
      -5.386
      -6.085
      -5.719
      -4.687
      -3.585
      -2.835
      -2.458
      -2.135
      -1.476
      -0.272
       1.468
       3.533
       5.447
       6.505
       6.095
       4.156
       1.384
      -1.062
      -2.239
      -2.054
      -1.281
      -0.894
      -1.280
      -2.045
      -2.505
      -2.314
      -1.638
      -0.876
      -0.288
       0.156
       0.682
       1.509
       2.643
       3.809
       4.611
       4.858
       4.773
       4.784
       5.083
       5.409
       5.300
       4.502
       3.060
       1.077
      -1.406
      -4.160
      -6.531
      -7.700
      -7.349
      -6.044
      -4.808
      -4.233
      -4.035
      -3.475
      -2.153
      -0.351
       1.306
       2.391
       2.885
       2.987
       2.797
       2.183
       0.929
      -0.939
      -2.975
      -4.468
      -4.834
      -3.944
      -2.160
      -0.119
       1.565
       2.522
       2.704
       2.284
       1.472
       0.405
      -0.806
      -1.939
      -2.669
      -2.726
      -2.049
      -0.819
       0.643
       2.011
       3.078
       3.797
       4.171
       4.088
       3.377
       2.103
       0.759
      -0.018
      -0.026
       0.269
       0.197
      -0.427
      -1.139
      -1.267
      -0.492
       0.939
       2.419
       3.407
       3.753
       3.661
       3.342
       2.733
       1.610
      -0.028
      -1.763
      -2.991
      -3.375
      -3.090
      -2.626
      -2.345
      -2.203
      -1.928
      -1.426
      -0.976
      -0.965
      -1.463
      -2.158
      -2.742
      -3.226
      -3.730
      -3.997
      -3.353
      -1.329
       1.701
       4.602
       6.266
       6.328
       5.198
       3.543
       1.817
       0.204
      -1.187
      -2.206
      -2.760
      -2.939
      -2.975
      -3.024
      -2.998
      -2.636
      -1.774
      -0.548
       0.703
       1.744
       2.652
       3.639
       4.649
       5.220
       4.884
       3.709
       2.341
       1.441
       1.078
       0.691
      -0.332
      -1.967
      -3.418
      -3.699
      -2.475
      -0.391
       1.409
       2.111
       1.683
       0.643
      -0.476
      -1.450
      -2.282
      -2.983
      -3.488
      -3.740
      -3.768
      -3.667
      -3.529
      -3.366
      -3.065
      -2.404
      -1.187
       0.578
       2.592
       4.349
       5.363
       5.450
       4.829
       3.891
       2.802
       1.391
      -0.490
      -2.524
      -3.949
      -4.059
      -2.722
      -0.480
       1.835
       3.609
       4.663
       5.097
       5.014
       4.434
       3.358
       1.859
       0.143
      -1.442
      -2.577
      -3.226
      -3.680
      -4.220
      -4.727
      -4.696
      -3.735
      -2.136
      -0.927
      -1.225
      -3.289
      -6.109
      -7.991
      -7.748
      -5.510
      -2.463
       0.191
       2.065
       3.549
       5.095
       6.652
       7.755
       8.023
       7.478
       6.427
       5.126
       3.673
       2.180
       0.922
       0.177
      -0.079
      -0.189
      -0.473
      -0.927
      -1.330
      -1.639
      -2.172
      -3.326
      -5.084
      -6.787
      -7.472
      -6.571
      -4.377
      -1.829
       0.222
       1.626
       2.905
       4.663
       6.982
       9.303
      10.796
      10.896
       9.585
       7.278
       4.543
       1.907
      -0.192
      -1.509
      -2.174
      -2.720
      -3.731
      -5.310
      -6.883
      -7.591
      -6.969
      -5.324
      -3.500
      -2.225
      -1.599
      -1.163
      -0.482
       0.331
       0.690
       0.167
      -0.979
      -1.899
      -1.802
      -0.552
       1.221
       2.541
       2.675
       1.532
      -0.320
      -1.993
      -2.776
      -2.463
      -1.353
       0.000
       1.075
       1.599
       1.624
       1.452
       1.394
       1.530
       1.707
       1.756
       1.706
       1.739
       1.927
       2.047
       1.694
       0.607
      -1.055
      -2.693
      -3.555
      -3.163
      -1.635
       0.346
       1.936
       2.660
       2.667
       2.504
       2.589
       2.834
       2.729
       1.813
       0.098
      -1.856
      -3.265
      -3.609
      -2.958
      -1.901
      -1.085
      -0.754
      -0.697
      -0.631
      -0.574
      -0.828
      -1.629
      -2.830
      -3.911
      -4.310
      -3.776
      -2.477
      -0.829
       0.776
       2.098
       3.041
       3.625
       3.966
       4.214
       4.421
       4.492
       4.279
       3.703
       2.795
       1.683
       0.614
      -0.076
      -0.125
       0.429
       1.209
       1.739
       1.779
       1.443
       0.999
       0.588
       0.152
      -0.414
      -1.099
      -1.780
      -2.377
      -2.994
      -3.876
      -5.135
      -6.465
      -7.177
      -6.653
      -4.861
      -2.464
      -0.396
       0.806
       1.343
       1.863
       2.756
       3.710
       3.952
       2.983
       1.076
      -0.903
      -2.169
      -2.537
      -2.374
      -2.136
      -1.948
      -1.583
      -0.778
       0.462
       1.813
       2.838
       3.249
       3.067
       2.601
       2.267
       2.312
       2.612
       2.755
       2.377
       1.461
       0.310
      -0.713
      -1.411
      -1.758
      -1.782
      -1.501
      -1.009
      -0.555
      -0.453
      -0.820
      -1.411
      -1.770
      -1.611
      -1.056
      -0.496
      -0.192
      -0.040
       0.266
       0.855
       1.478
       1.702
       1.267
       0.250
      -1.074
      -2.419
      -3.498
      -3.993
      -3.661
      -2.556
      -1.093
       0.213
       1.121
       1.802
       2.563
       3.447
       4.106
       4.118
       3.414
       2.379
       1.494
       0.893
       0.288
      -0.651
      -1.888
      -2.953
      -3.288
      -2.685
      -1.504
      -0.464
      -0.133
      -0.506
      -1.014
      -0.987
      -0.165
       1.119
       2.215
       2.600
       2.161
       1.180
       0.119
      -0.606
      -0.779
      -0.472
      -0.042
       0.008
      -0.659
      -1.905
      -3.122
      -3.611
      -3.073
      -1.759
      -0.191
       1.242
       2.417
       3.298
       3.731
       3.480
       2.443
       0.811
      -0.960
      -2.335
      -2.925
      -2.649
      -1.725
      -0.499
       0.759
       1.912
       2.830
       3.264
       2.930
       1.791
       0.252
      -1.020
      -1.512
      -1.122
      -0.071
       1.292
       2.562
       3.258
       2.959
       1.580
      -0.467
      -2.453
      -3.735
      -4.097
      -3.792
      -3.322
      -3.116
      -3.283
      -3.544
      -3.437
      -2.679
      -1.429
      -0.179
       0.660
       1.092
       1.485
       2.198
       3.214
       4.077
       4.150
       3.065
       1.056
      -1.063
      -2.337
      -2.283
      -1.237
      -0.110
       0.315
      -0.011
      -0.441
      -0.291
       0.531
       1.522
       2.143
       2.310
       2.347
       2.549
       2.866
       3.008
       2.751
       2.123
       1.337
       0.590
      -0.082
      -0.821
      -1.800
      -2.997
      -4.088
      -4.612
      -4.321
      -3.373
      -2.150
      -0.964
       0.041
       0.760
       1.077
       0.994
       0.736
       0.607
       0.742
       1.015
       1.200
       1.169
       0.973
       0.774
       0.714
       0.794
       0.851
       0.653
       0.068
      -0.774
      -1.489
      -1.664
      -1.205
      -0.459
       0.058
       0.107
      -0.105
      -0.188
       0.021
       0.323
       0.361
      -0.066
      -0.847
      -1.610
      -1.924
      -1.518
      -0.436
       0.901
       1.836
       1.841
       0.918
      -0.344
      -1.187
      -1.247
      -0.760
      -0.284
      -0.222
      -0.547
      -0.877
      -0.793
      -0.144
       0.871
       1.844
       2.420
       2.508
       2.311
       2.112
       2.013
       1.870
       1.491
       0.852
       0.092
      -0.627
      -1.208
      -1.582
      -1.693
      -1.548
      -1.264
      -0.984
      -0.735
      -0.416
       0.024
       0.400
       0.390
      -0.105
      -0.760
      -1.082
      -0.917
      -0.641
      -0.757
      -1.299
      -1.690
      -1.306
      -0.167
       1.011
       1.486
       1.172
       0.612
       0.357
       0.472
       0.642
       0.600
       0.388
       0.215
       0.156
       0.040
      -0.378
      -1.134
      -1.945
      -2.391
      -2.275
      -1.792
      -1.314
      -0.983
      -0.592
       0.102
       0.972
       1.564
       1.590
       1.328
       1.389
       2.066
       2.990
       3.505
       3.355
       2.910
       2.697
       2.820
       2.897
       2.521
       1.706
       0.827
       0.189
      -0.313
      -1.054
      -2.227
      -3.516
      -4.253
      -3.960
      -2.795
      -1.499
      -0.838
      -1.019
      -1.621
      -2.065
      -2.109
      -1.911
      -1.686
      -1.421
      -0.959
      -0.311
       0.173
       0.031
      -0.879
