Origin Time       24/2/2009 17:46:13 
Lat.              25.9 N 
Long.             94.3 E 
Depth (Km)         10.0
Magnitude         4.8
 Region           INDIA(NAGALAND)-MYANMAR-BORD-REG                                 
 Above details taken from IMD 
     
Station Code      DIP
Station Lat.       25.839  N
Station Long.      93.435  E
Station Height(m)  260.0
Site Class        B   Vs30 between 375 m/sec to 700 m/sec *  
Record Time       24.02.2009 17:46:33.634
Sampling Rate     200. Hz
 Record Duration   72.065 Sec.
 Direction         E-W (E positive)
Max. Acceleration      9.898 cm/sec**2
     
  * For reference see Site Classification link of website 
     
 Base Line Corrected and Low Pass Filtered (Cut Off at 35 Hz) Time History
 Acceleration data in cm/sec**2
    
[...]
      -0.680
      -0.798
      -0.756
      -0.489
      -0.048
       0.415
       0.722
       0.780
       0.624
       0.386
       0.197
       0.112
       0.102
       0.108
       0.100
       0.093
       0.103
       0.113
       0.075
      -0.047
      -0.244
      -0.462
      -0.637
      -0.734
      -0.738
      -0.656
      -0.497
      -0.280
      -0.031
       0.226
       0.466
       0.657
       0.758
       0.727
       0.551
       0.264
      -0.048
      -0.278
      -0.352
      -0.273
      -0.122
      -0.005
       0.032
       0.037
       0.114
       0.334
       0.657
       0.953
       1.086
       1.012
       0.802
       0.579
       0.426
       0.349
       0.301
       0.236
       0.147
       0.057
      -0.005
      -0.020
       0.008
       0.053
       0.070
       0.012
      -0.148
      -0.399
      -0.690
      -0.949
      -1.106
      -1.121
      -0.998
      -0.777
      -0.510
      -0.238
       0.012
       0.215
       0.338
       0.355
       0.266
       0.112
      -0.050
      -0.187
      -0.309
      -0.437
      -0.566
      -0.650
      -0.646
      -0.560
      -0.454
      -0.398
      -0.406
      -0.417
      -0.339
      -0.127
       0.173
       0.445
       0.585
       0.565
       0.430
       0.251
       0.072
      -0.101
      -0.263
      -0.374
      -0.368
      -0.196
       0.112
       0.450
       0.693
       0.784
       0.769
       0.745
       0.770
       0.808
       0.768
       0.591
       0.305
       0.010
      -0.194
      -0.268
      -0.245
      -0.198
      -0.188
      -0.241
      -0.335
      -0.431
      -0.484
      -0.464
      -0.351
      -0.138
       0.151
       0.463
       0.717
       0.851
       0.845
       0.737
       0.586
       0.446
       0.335
       0.242
       0.146
       0.026
      -0.125
      -0.305
      -0.498
      -0.669
      -0.769
      -0.760
      -0.646
      -0.478
      -0.321
      -0.207
      -0.126
      -0.050
       0.025
       0.068
       0.053
      -0.005
      -0.050
      -0.034
       0.041
       0.125
       0.146
       0.065
      -0.100
      -0.278
      -0.376
      -0.323
      -0.114
       0.182
       0.451
       0.587
       0.547
       0.354
       0.072
      -0.235
      -0.520
      -0.755
      -0.912
      -0.948
      -0.813
      -0.490
      -0.033
       0.423
       0.714
       0.746
       0.559
       0.309
       0.149
       0.120
       0.125
       0.027
      -0.230
      -0.566
      -0.823
      -0.879
      -0.730
      -0.479
      -0.256
      -0.119
      -0.024
       0.123
       0.372
       0.678
       0.934
       1.063
       1.080
       1.072
       1.105
       1.146
       1.084
       0.821
       0.368
      -0.147
      -0.566
      -0.805
      -0.899
      -0.949
      -1.036
      -1.152
      -1.219
      -1.153
      -0.938
      -0.647
      -0.392
      -0.247
      -0.212
      -0.227
      -0.241
      -0.238
      -0.222
      -0.174
      -0.044
       0.207
       0.553
       0.893
       1.097
       1.087
       0.879
       0.571
       0.284
       0.092
      -0.004
      -0.055
      -0.111
      -0.176
      -0.212
      -0.181
      -0.081
       0.044
       0.148
       0.217
       0.273
       0.332
       0.379
       0.377
       0.299
       0.150
      -0.043
      -0.253
      -0.460
      -0.638
      -0.743
      -0.725
      -0.558
      -0.264
       0.072
       0.332
       0.417
       0.292
       0.006
      -0.348
      -0.675
      -0.915
      -1.031
      -1.001
      -0.813
      -0.502
      -0.154
       0.131
       0.293
       0.348
       0.361
       0.397
       0.481
       0.598
       0.711
       0.790
       0.830
       0.851
       0.862
       0.841
       0.739
       0.533
       0.260
       0.017
      -0.105
      -0.077
       0.057
       0.222
       0.355
       0.429
       0.441
       0.400
       0.325
       0.245
       0.187
       0.154
       0.124
       0.065
      -0.036
      -0.176
      -0.343
      -0.531
      -0.739
      -0.944
      -1.092
      -1.110
      -0.943
      -0.599
      -0.159
       0.250
       0.512
       0.568
       0.422
       0.125
      -0.255
      -0.641
      -0.944
      -1.075
      -0.982
      -0.695
      -0.342
      -0.091
      -0.051
      -0.203
      -0.426
      -0.588
      -0.641
      -0.621
      -0.585
      -0.528
      -0.381
      -0.078
       0.355
       0.781
       1.025
       0.984
       0.697
       0.315
       0.006
      -0.137
      -0.131
      -0.051
       0.033
       0.108
       0.209
       0.374
       0.603
       0.837
       0.993
       1.010
       0.895
       0.722
       0.580
       0.517
       0.505
       0.460
       0.310
       0.044
      -0.275
      -0.558
      -0.743
      -0.814
      -0.780
      -0.638
      -0.376
      -0.013
       0.378
       0.684
       0.813
       0.752
       0.567
       0.355
       0.185
       0.067
      -0.022
      -0.111
      -0.200
      -0.265
      -0.282
      -0.257
      -0.242
      -0.310
      -0.494
      -0.752
      -0.981
      -1.083
      -1.029
      -0.866
      -0.659
      -0.441
      -0.205
       0.059
       0.329
       0.556
       0.694
       0.731
       0.693
       0.626
       0.563
       0.507
       0.423
       0.265
       0.011
      -0.308
      -0.617
      -0.823
      -0.864
      -0.728
      -0.458
      -0.121
       0.223
       0.536
       0.790
       0.958
       1.018
       0.962
       0.802
       0.563
       0.281
      -0.010
      -0.287
      -0.542
      -0.774
      -0.953
      -1.016
      -0.883
      -0.522
       0.011
       0.569
       0.966
       1.067
       0.845
       0.388
      -0.156
      -0.655
      -1.036
      -1.271
      -1.356
      -1.293
      -1.105
      -0.849
      -0.608
      -0.451
      -0.393
      -0.398
      -0.409
      -0.387
      -0.313
      -0.186
      -0.026
       0.129
       0.234
       0.268
       0.258
       0.257
       0.296
       0.349
       0.364
       0.307
       0.209
       0.148
       0.187
       0.320
       0.462
       0.518
       0.455
       0.337
       0.276
       0.342
       0.511
       0.692
       0.794
       0.785
       0.698
       0.587
       0.481
       0.372
       0.233
       0.052
      -0.161
      -0.369
      -0.535
      -0.622
      -0.607
      -0.495
      -0.326
      -0.170
      -0.093
      -0.117
      -0.206
      -0.284
      -0.290
      -0.226
      -0.156
      -0.163
      -0.269
      -0.409
      -0.470
      -0.382
      -0.170
       0.067
       0.237
       0.319
       0.363
       0.423
       0.504
       0.571
       0.594
       0.603
       0.664
       0.820
       1.023
       1.148
       1.092
       0.858
       0.563
       0.343
       0.251
       0.228
       0.173
       0.037
      -0.131
      -0.228
      -0.172
       0.028
       0.266
       0.400
       0.330
       0.060
      -0.310
      -0.647
      -0.865
      -0.953
      -0.959
      -0.941
      -0.921
      -0.883
      -0.798
      -0.662
      -0.506
      -0.383
      -0.325
      -0.322
      -0.336
      -0.328
      -0.291
      -0.243
      -0.215
      -0.226
      -0.281
      -0.383
      -0.523
      -0.679
      -0.794
      -0.803
      -0.680
      -0.469
      -0.274
      -0.187
      -0.229
      -0.345
      -0.462
      -0.541
      -0.588
      -0.610
      -0.585
      -0.462
      -0.212
       0.136
       0.493
       0.750
       0.825
       0.708
       0.479
       0.282
       0.264
       0.494
       0.916
       1.383
       1.743
       1.933
       1.999
       2.040
       2.121
       2.246
       2.385
       2.531
       2.715
       2.963
       3.245
       3.468
       3.530
       3.387
       3.062
       2.607
       2.048
       1.387
       0.638
      -0.138
      -0.856
      -1.449
      -1.918
      -2.321
      -2.725
      -3.153
      -3.564
      -3.888
      -4.075
      -4.122
      -4.055
      -3.885
      -3.596
      -3.174
      -2.659
      -2.150
      -1.760
      -1.539
      -1.444
      -1.367
      -1.201
      -0.880
      -0.390
       0.251
       1.008
       1.823
       2.615
       3.292
       3.776
       4.024
       4.042
       3.873
       3.574
       3.183
       2.697
       2.087
       1.323
       0.422
      -0.548
      -1.473
      -2.234
      -2.744
      -2.983
      -3.000
      -2.893
      -2.764
      -2.675
      -2.620
      -2.541
      -2.376
      -2.120
      -1.843
      -1.660
      -1.663
      -1.873
      -2.225
      -2.588
      -2.814
      -2.792
      -2.508
      -2.040
      -1.518
      -1.035
      -0.606
      -0.182
       0.277
       0.750
       1.158
       1.422
       1.518
       1.478
       1.352
       1.165
       0.913
       0.609
       0.309
       0.101
       0.049
       0.134
       0.272
       0.364
       0.355
       0.253
       0.086
      -0.115
      -0.305
      -0.382
      -0.178
       0.467
       1.597
       3.066
       4.572
       5.802
       6.586
       6.950
       7.032
       6.919
       6.560
       5.830
       4.696
       3.314
       1.963
       0.853
       0.002
      -0.735
      -1.494
      -2.274
      -2.944
      -3.377
      -3.573
      -3.658
      -3.780
      -3.996
      -4.247
      -4.416
      -4.419
      -4.254
      -3.974
      -3.626
      -3.207
      -2.673
      -2.010
      -1.292
      -0.669
      -0.272
      -0.114
      -0.073
      -0.005
       0.118
       0.165
      -0.052
      -0.588
      -1.264
      -1.742
      -1.724
      -1.136
      -0.139
       1.001
       2.071
       2.968
       3.635
       3.983
       3.888
       3.283
       2.262
       1.095
       0.112
      -0.467
      -0.639
      -0.568
      -0.426
      -0.257
       0.023
       0.500
       1.125
       1.684
       1.918
       1.687
       1.047
       0.196
      -0.654
      -1.375
      -1.924
      -2.287
      -2.429
      -2.308
      -1.916
      -1.323
      -0.664
      -0.090
       0.286
       0.428
       0.372
       0.203
       0.007
      -0.159
      -0.276
      -0.351
      -0.379
      -0.343
      -0.231
      -0.069
       0.084
       0.191
       0.272
       0.395
       0.629
       0.995
       1.473
       2.032
       2.643
       3.269
       3.845
       4.277
       4.460
       4.292
       3.702
       2.689
       1.369
      -0.014
      -1.149
      -1.779
      -1.816
      -1.381
      -0.726
      -0.112
       0.273
       0.326
       0.004
      -0.679
      -1.628
      -2.657
      -3.525
      -4.025
      -4.064
      -3.694
      -3.046
      -2.240
      -1.320
      -0.286
       0.826
       1.880
       2.673
       3.042
       2.981
       2.656
       2.290
       1.995
       1.703
       1.252
       0.564
      -0.251
      -0.934
      -1.255
      -1.179
      -0.909
      -0.750
      -0.891
      -1.280
      -1.684
      -1.889
      -1.870
      -1.781
      -1.793
      -1.934
      -2.080
      -2.084
      -1.917
      -1.685
      -1.518
      -1.438
      -1.335
      -1.070
      -0.596
      -0.005
       0.546
       0.939
       1.144
       1.186
       1.089
       0.840
       0.428
      -0.105
      -0.616
      -0.884
      -0.706
      -0.034
       0.961
       1.951
       2.625
       2.830
       2.601
       2.051
       1.261
       0.255
      -0.919
      -2.094
      -2.999
      -3.374
      -3.107
      -2.292
      -1.157
       0.064
       1.225
       2.277
       3.196
       3.917
       4.322
       4.294
       3.788
       2.861
       1.655
       0.362
      -0.808
      -1.647
      -1.984
      -1.744
      -0.996
       0.042
       1.073
       1.828
       2.171
       2.128
       1.831
       1.427
       1.015
       0.630
       0.277
      -0.036
      -0.292
      -0.466
      -0.536
      -0.517
      -0.470
      -0.492
      -0.661
      -0.987
      -1.412
      -1.853
      -2.245
      -2.529
      -2.603
      -2.326
      -1.601
      -0.519
       0.599
       1.306
       1.278
       0.510
      -0.677
      -1.829
      -2.612
      -2.939
      -2.914
      -2.692
      -2.383
      -2.063
      -1.800
      -1.652
      -1.603
      -1.541
      -1.307
      -0.785
       0.023
       0.983
       1.874
       2.460
       2.581
       2.221
       1.517
       0.675
      -0.147
      -0.899
      -1.593
      -2.224
      -2.719
      -2.971
      -2.881
      -2.386
      -1.445
      -0.065
       1.654
       3.472
       5.051
       6.074
       6.384
       6.051
       5.305
       4.388
       3.414
       2.338
       1.048
      -0.494
      -2.155
      -3.655
      -4.685
      -5.047
      -4.735
      -3.924
      -2.882
      -1.872
      -1.076
      -0.567
      -0.334
      -0.322
      -0.457
      -0.677
      -0.966
      -1.374
      -1.984
      -2.839
      -3.868
      -4.885
      -5.669
      -6.067
      -6.046
      -5.660
      -4.981
      -4.038
      -2.835
      -1.410
       0.098
       1.449
       2.376
       2.711
       2.491
       1.968
       1.475
       1.217
       1.150
       1.064
       0.824
       0.556
       0.599
       1.243
       2.490
       4.044
       5.536
       6.768
       7.777
       8.674
       9.445
       9.898
       9.815
       9.160
       8.161
       7.177
       6.447
       5.912
       5.262
       4.162
       2.482
       0.382
      -1.802
      -3.744
      -5.247
      -6.243
      -6.727
      -6.702
      -6.201
      -5.334
      -4.285
      -3.241
      -2.303
      -1.453
      -0.611
       0.283
       1.199
       1.996
       2.470
       2.452
       1.908
       0.981
      -0.088
      -1.087
      -1.911
      -2.545
      -3.000
      -3.274
      -3.398
      -3.474
      -3.635
      -3.930
      -4.239
      -4.301
      -3.866
      -2.844
      -1.351
       0.343
       1.919
       3.090
       3.654
       3.537
       2.832
       1.790
       0.765
       0.101
       0.013
       0.529
       1.529
       2.826
       4.246
       5.633
       6.813
       7.580
       7.726
       7.127
       5.792
       3.853
       1.521
      -0.955
      -3.305
      -5.254
      -6.577
      -7.177
      -7.129
      -6.648
      -5.992
      -5.370
      -4.886
      -4.541
      -4.252
      -3.901
      -3.408
      -2.776
      -2.081
      -1.388
      -0.680
       0.127
       1.096
       2.178
       3.216
       4.031
       4.525
       4.692
       4.578
       4.231
       3.700
       3.046
       2.322
       1.508
       0.474
      -0.961
      -2.861
      -5.011
      -6.916
      -8.026
      -8.037
      -7.073
      -5.580
      -4.050
      -2.763
      -1.748
      -0.922
      -0.255
       0.187
       0.324
       0.158
      -0.187
      -0.520
      -0.662
      -0.508
      -0.039
       0.699
       1.624
       2.640
       3.626
       4.428
       4.893
       4.946
       4.653
       4.203
       3.780
       3.431
       3.059
       2.556
       1.948
       1.420
       1.203
       1.434
       2.095
       3.053
       4.129
       5.131
       5.856
       6.103
       5.719
       4.659
       3.029
       1.092
      -0.785
      -2.216
      -2.911
      -2.749
      -1.797
      -0.270
       1.534
       3.293
       4.700
       5.496
       5.483
       4.572
       2.837
       0.550
      -1.853
      -3.889
      -5.192
      -5.631
      -5.345
      -4.684
      -4.065
      -3.826
      -4.120
      -4.901
      -5.992
      -7.176
      -8.256
      -9.075
      -9.513
      -9.505
      -9.081
      -8.391
      -7.664
      -7.090
      -6.690
      -6.276
      -5.559
      -4.325
      -2.585
      -0.583
       1.322
       2.810
       3.697
       3.961
       3.715
       3.178
       2.629
       2.334
       2.453
       2.964
       3.677
       4.322
       4.679
       4.674
       4.392
       4.020
       3.735
       3.600
       3.527
       3.337
       2.887
       2.178
       1.359
       0.634
       0.152
      -0.042
       0.026
       0.301
       0.708
       1.135
       1.441
       1.515
       1.341
       1.020
       0.712
       0.559
       0.620
       0.866
       1.233
       1.675
       2.190
       2.782
       3.397
       3.888
       4.051
       3.736
       2.966
       1.964
       1.070
       0.575
       0.582
       0.981
       1.536
       2.010
       2.255
       2.224
       1.929
       1.392
       0.622
      -0.369
      -1.518
      -2.670
      -3.605
      -4.139
      -4.230
      -4.018
      -3.744
      -3.606
      -3.654
      -3.775
      -3.790
      -3.577
      -3.157
      -2.678
      -2.331
      -2.234
      -2.372
      -2.615
      -2.817
      -2.925
      -3.023
      -3.258
      -3.695
      -4.230
      -4.651
      -4.814
      -4.753
      -4.606
      -4.432
      -4.107
      -3.423
      -2.289
      -0.841
       0.645
       1.954
       3.038
       3.967
       4.797
       5.490
       5.924
       5.967
       5.553
       4.710
       3.565
       2.292
       1.070
       0.047
      -0.652
      -0.890
      -0.533
       0.473
       1.999
       3.680
       5.016
       5.576
       5.202
       4.057
       2.502
       0.889
      -0.573
      -1.793
      -2.697
      -3.180
      -3.162
      -2.686
      -1.931
      -1.106
      -0.315
       0.486
       1.387
       2.370
       3.233
       3.650
       3.343
       2.249
       0.571
      -1.294
      -2.912
      -3.936
      -4.174
      -3.599
      -2.350
      -0.714
       0.926
       2.208
       2.938
       3.143
       3.003
       2.699
       2.315
       1.859
       1.367
       0.965
       0.821
       1.027
       1.514
       2.063
       2.413
       2.368
       1.870
       0.988
      -0.145
      -1.398
      -2.665
      -3.840
      -4.778
      -5.294
      -5.253
      -4.670
      -3.769
      -2.922
      -2.491
      -2.654
      -3.303
      -4.065
      -4.471
      -4.211
      -3.318
      -2.154
      -1.180
      -0.663
      -0.555
      -0.623
      -0.702
      -0.839
      -1.199
      -1.830
      -2.505
      -2.804
      -2.394
      -1.266
       0.254
       1.721
       2.826
       3.496
       3.807
       3.845
       3.652
       3.277
       2.849
       2.572
       2.612
       2.970
       3.459
       3.829
       3.956
       3.932
       3.979
       4.257
       4.735
       5.212
       5.438
       5.233
       4.522
       3.323
       1.745
       0.017
      -1.524
      -2.530
      -2.814
      -2.473
      -1.858
      -1.382
      -1.286
      -1.528
      -1.873
      -2.094
      -2.094
      -1.890
      -1.515
      -0.993
      -0.411
       0.033
       0.116
      -0.242
      -0.889
      -1.531
      -1.905
      -1.905
      -1.583
      -1.096
      -0.643
      -0.399
      -0.431
      -0.632
      -0.781
      -0.683
      -0.296
       0.290
       0.974
       1.723
       2.518
       3.234
       3.603
       3.353
       2.403
