Origin Time       21/9/2009 8:53:04	 
Lat.              27.3 N	
Long.             91.5 E	
Depth (Km)          8.0
Magnitude         6.2
 Region           BHUTAN                                                           
 Above details taken from IMD 
     
Station Code      DIP
Station Lat.       25.839  N
Station Long.      93.435  E
Station Height(m)  260.0
Site Class        B   Vs30 between 375 m/sec to 700 m/sec *  
Record Time       21.09.2009 08:54:02.904
Sampling Rate     200. Hz
 Record Duration   85.150 Sec.
 Direction         E-W (E positive)
Max. Acceleration    -11.070 cm/sec**2
     
  * For reference see Site Classification link of website 
     
 Base Line Corrected and Low Pass Filtered (Cut Off at 35 Hz) Time History
 Acceleration data in cm/sec**2
    
[...]
      -0.544
      -0.285
      -0.116
      -0.076
      -0.180
      -0.408
      -0.700
      -0.971
      -1.128
      -1.104
      -0.869
      -0.441
       0.117
       0.724
       1.298
       1.778
       2.136
       2.364
       2.463
       2.441
       2.314
       2.103
       1.827
       1.490
       1.092
       0.639
       0.161
      -0.299
      -0.703
      -1.039
      -1.318
      -1.555
      -1.754
      -1.919
      -2.050
      -2.155
      -2.227
      -2.245
      -2.179
      -2.011
      -1.744
      -1.390
      -0.958
      -0.455
       0.101
       0.651
       1.113
       1.413
       1.532
       1.508
       1.407
       1.283
       1.156
       1.020
       0.864
       0.688
       0.499
       0.300
       0.083
      -0.161
      -0.434
      -0.716
      -0.963
      -1.118
      -1.135
      -1.002
      -0.754
      -0.461
      -0.201
      -0.037
       0.004
      -0.071
      -0.221
      -0.387
      -0.504
      -0.515
      -0.395
      -0.165
       0.118
       0.379
       0.562
       0.641
       0.616
       0.503
       0.323
       0.107
      -0.108
      -0.287
      -0.410
      -0.483
      -0.530
      -0.576
      -0.632
      -0.689
      -0.719
      -0.694
      -0.603
      -0.457
      -0.285
      -0.123
       0.003
       0.083
       0.123
       0.139
       0.154
       0.187
       0.259
       0.386
       0.580
       0.845
       1.173
       1.538
       1.888
       2.163
       2.303
       2.272
       2.079
       1.769
       1.412
       1.082
       0.832
       0.685
       0.637
       0.667
       0.748
       0.865
       1.018
       1.214
       1.443
       1.666
       1.834
       1.912
       1.908
       1.858
       1.797
       1.732
       1.637
       1.472
       1.203
       0.813
       0.303
      -0.303
      -0.950
      -1.563
      -2.071
      -2.443
      -2.698
      -2.887
      -3.059
      -3.230
      -3.373
      -3.437
      -3.371
      -3.148
      -2.783
      -2.321
      -1.819
      -1.324
      -0.868
      -0.477
      -0.182
      -0.014
       0.014
      -0.074
      -0.216
      -0.340
      -0.396
      -0.372
      -0.281
      -0.138
       0.041
       0.236
       0.401
       0.475
       0.407
       0.196
      -0.098
      -0.372
      -0.526
      -0.510
      -0.326
      -0.018
       0.355
       0.738
       1.073
       1.305
       1.391
       1.312
       1.087
       0.765
       0.414
       0.103
      -0.112
      -0.195
      -0.142
       0.016
       0.220
       0.410
       0.539
       0.581
       0.529
       0.393
       0.202
       0.004
      -0.146
      -0.205
      -0.164
      -0.050
       0.084
       0.187
       0.220
       0.174
       0.065
      -0.071
      -0.187
      -0.244
      -0.220
      -0.116
       0.036
       0.183
       0.266
       0.253
       0.156
       0.027
      -0.068
      -0.089
      -0.032
       0.072
       0.185
       0.274
       0.321
       0.312
       0.244
       0.124
      -0.028
      -0.188
      -0.333
      -0.444
      -0.496
      -0.467
      -0.358
      -0.199
      -0.044
       0.052
       0.057
      -0.024
      -0.154
      -0.278
      -0.345
      -0.328
      -0.235
      -0.102
       0.018
       0.079
       0.056
      -0.055
      -0.240
      -0.473
      -0.721
      -0.949
      -1.128
      -1.247
      -1.314
      -1.340
      -1.332
      -1.291
      -1.210
      -1.081
      -0.896
      -0.642
      -0.299
       0.155
       0.723
       1.369
       2.013
       2.557
       2.920
       3.069
       3.016
       2.799
       2.455
       2.015
       1.508
       0.971
       0.461
       0.031
      -0.285
      -0.490
      -0.619
      -0.715
      -0.812
      -0.911
      -0.993
      -1.039
      -1.050
      -1.057
      -1.105
      -1.218
      -1.370
      -1.480
      -1.447
      -1.213
      -0.806
      -0.349
       0.005
       0.150
       0.075
      -0.140
      -0.383
      -0.565
      -0.653
      -0.663
      -0.621
      -0.534
      -0.385
      -0.150
       0.173
       0.553
       0.939
       1.288
       1.581
       1.820
       2.003
       2.117
       2.152
       2.116
       2.025
       1.887
       1.684
       1.389
       0.996
       0.545
       0.117
      -0.206
      -0.378
      -0.415
      -0.385
      -0.363
      -0.389
      -0.445
      -0.480
      -0.463
      -0.407
      -0.354
      -0.333
      -0.342
      -0.358
      -0.369
      -0.385
      -0.421
      -0.477
      -0.542
      -0.608
      -0.676
      -0.746
      -0.811
      -0.858
      -0.889
      -0.925
      -0.992
      -1.095
      -1.203
      -1.254
      -1.187
      -0.980
      -0.659
      -0.295
       0.033
       0.260
       0.344
       0.281
       0.104
      -0.123
      -0.332
      -0.478
      -0.560
      -0.602
      -0.626
      -0.632
      -0.609
      -0.563
      -0.537
      -0.594
      -0.788
      -1.132
      -1.588
      -2.079
      -2.522
      -2.841
      -2.985
      -2.930
      -2.669
      -2.207
      -1.561
      -0.761
       0.139
       1.064
       1.932
       2.671
       3.236
       3.621
       3.854
       3.984
       4.053
       4.086
       4.084
       4.037
       3.939
       3.785
       3.580
       3.325
       3.036
       2.743
       2.486
       2.289
       2.128
       1.943
       1.669
       1.276
       0.774
       0.193
      -0.453
      -1.169
      -1.974
      -2.865
      -3.794
      -4.657
      -5.332
      -5.726
      -5.822
      -5.681
      -5.401
      -5.067
      -4.721
      -4.372
      -4.004
      -3.595
      -3.123
      -2.566
      -1.915
      -1.197
      -0.470
       0.197
       0.760
       1.223
       1.619
       1.965
       2.229
       2.351
       2.279
       2.021
       1.646
       1.256
       0.938
       0.736
       0.649
       0.641
       0.665
       0.689
       0.706
       0.745
       0.850
       1.046
       1.317
       1.613
       1.890
       2.128
       2.330
       2.507
       2.675
       2.850
       3.049
       3.274
       3.495
       3.667
       3.745
       3.700
       3.510
       3.160
       2.648
       1.987
       1.208
       0.343
      -0.573
      -1.502
      -2.394
      -3.195
      -3.859
      -4.358
      -4.691
      -4.884
      -4.986
      -5.060
      -5.160
      -5.311
      -5.500
      -5.678
      -5.765
      -5.668
      -5.307
      -4.647
      -3.707
      -2.547
      -1.238
       0.155
       1.562
       2.905
       4.101
       5.079
       5.797
       6.248
       6.450
       6.420
       6.162
       5.674
       4.979
       4.145
       3.278
       2.487
       1.843
       1.372
       1.068
       0.919
       0.905
       0.993
       1.133
       1.273
       1.387
       1.483
       1.581
       1.681
       1.758
       1.787
       1.769
       1.727
       1.664
       1.536
       1.266
       0.793
       0.115
      -0.709
      -1.604
      -2.503
      -3.349
      -4.072
      -4.590
      -4.836
      -4.788
      -4.479
      -3.975
      -3.350
      -2.677
      -2.020
      -1.428
      -0.929
      -0.528
      -0.225
      -0.030
       0.035
      -0.048
      -0.272
      -0.593
      -0.941
      -1.240
      -1.440
      -1.531
      -1.534
      -1.492
      -1.447
      -1.429
      -1.438
      -1.447
      -1.408
      -1.278
      -1.036
      -0.703
      -0.330
       0.030
       0.355
       0.666
       0.996
       1.357
       1.704
       1.945
       1.979
       1.752
       1.286
       0.669
       0.025
      -0.545
      -0.983
      -1.282
      -1.458
      -1.526
      -1.487
      -1.344
      -1.112
      -0.807
      -0.426
       0.059
       0.681
       1.445
       2.315
       3.234
       4.139
       4.965
       5.649
       6.139
       6.414
       6.477
       6.348
       6.054
       5.635
       5.146
       4.627
       4.064
       3.382
       2.515
       1.474
       0.352
      -0.740
      -1.747
      -2.683
      -3.569
      -4.372
      -4.991
      -5.321
      -5.336
      -5.118
      -4.813
      -4.549
      -4.383
      -4.304
      -4.284
      -4.310
      -4.384
      -4.499
      -4.621
      -4.695
      -4.664
      -4.471
      -4.079
      -3.489
      -2.765
      -2.002
      -1.281
      -0.636
      -0.063
       0.445
       0.896
       1.311
       1.748
       2.277
       2.939
       3.705
       4.481
       5.148
       5.601
       5.775
       5.643
       5.215
       4.529
       3.641
       2.614
       1.498
       0.332
      -0.851
      -1.989
      -2.982
      -3.701
      -4.038
      -3.954
      -3.504
      -2.800
      -1.951
      -1.022
      -0.046
       0.944
       1.888
       2.711
       3.361
       3.824
       4.118
       4.255
       4.219
       3.977
       3.528
       2.930
       2.299
       1.754
       1.365
       1.125
       0.975
       0.841
       0.677
       0.474
       0.245
      -0.005
      -0.295
      -0.665
      -1.148
      -1.735
      -2.368
      -2.982
      -3.562
      -4.143
      -4.781
      -5.489
      -6.224
      -6.894
      -7.395
      -7.640
      -7.579
      -7.217
      -6.612
      -5.851
      -5.009
      -4.131
      -3.235
      -2.335
      -1.445
      -0.569
       0.312
       1.232
       2.203
       3.184
       4.082
       4.785
       5.221
       5.390
       5.355
       5.203
       4.995
       4.741
       4.399
       3.911
       3.241
       2.417
       1.535
       0.735
       0.147
      -0.141
      -0.095
       0.267
       0.867
       1.569
       2.218
       2.708
       3.028
       3.242
       3.423
       3.593
       3.725
       3.782
       3.748
       3.634
       3.453
       3.202
       2.862
       2.417
       1.882
       1.293
       0.684
       0.057
      -0.607
      -1.318
      -2.054
      -2.769
      -3.419
      -3.987
      -4.483
      -4.932
      -5.344
      -5.702
      -5.968
      -6.115
      -6.147
      -6.094
      -5.984
      -5.822
      -5.592
      -5.283
      -4.903
      -4.483
      -4.066
      -3.688
      -3.361
      -3.063
      -2.749
      -2.373
      -1.902
      -1.312
      -0.579
       0.304
       1.300
       2.320
       3.249
       4.002
       4.555
       4.924
       5.126
       5.156
       5.019
       4.761
       4.465
       4.196
       3.956
       3.696
       3.361
       2.942
       2.480
       2.037
       1.666
       1.389
       1.204
       1.096
       1.047
       1.041
       1.059
       1.071
       1.037
       0.916
       0.666
       0.267
      -0.264
      -0.864
      -1.447
      -1.932
      -2.279
      -2.503
      -2.650
      -2.759
      -2.836
      -2.867
      -2.846
      -2.780
      -2.665
      -2.457
      -2.087
      -1.505
      -0.704
       0.277
       1.364
       2.452
       3.412
       4.117
       4.472
       4.430
       3.991
       3.181
       2.039
       0.626
      -0.964
      -2.595
      -4.107
      -5.346
      -6.193
      -6.593
      -6.554
      -6.133
      -5.408
      -4.454
      -3.334
      -2.105
      -0.827
       0.432
       1.594
       2.571
       3.277
       3.660
       3.729
       3.552
       3.214
       2.790
       2.339
       1.918
       1.584
       1.370
       1.271
       1.247
       1.241
       1.196
       1.063
       0.826
       0.514
       0.204
      -0.014
      -0.090
      -0.044
       0.059
       0.154
       0.216
       0.260
       0.316
       0.414
       0.577
       0.840
       1.238
       1.803
       2.550
       3.467
       4.512
       5.606
       6.637
       7.484
       8.041
       8.231
       8.014
       7.389
       6.381
       5.027
       3.388
       1.564
      -0.293
      -2.006
      -3.420
      -4.434
      -5.017
      -5.212
      -5.123
      -4.902
      -4.703
      -4.633
      -4.727
      -4.957
      -5.253
      -5.542
      -5.759
      -5.857
      -5.802
      -5.568
      -5.149
      -4.564
      -3.868
      -3.132
      -2.434
      -1.844
      -1.410
      -1.150
      -1.033
      -0.983
      -0.898
      -0.702
      -0.382
       0.007
       0.390
       0.713
       0.966
       1.155
       1.265
       1.240
       1.013
       0.562
      -0.048
      -0.663
      -1.103
      -1.251
      -1.104
      -0.766
      -0.387
      -0.086
       0.084
       0.121
       0.040
      -0.151
      -0.445
      -0.795
      -1.095
      -1.193
      -0.944
      -0.282
       0.742
       1.980
       3.250
       4.407
       5.367
       6.097
       6.593
       6.865
       6.951
       6.905
       6.789
       6.637
       6.441
       6.161
       5.751
       5.190
       4.492
       3.698
       2.849
       1.963
       1.022
      -0.008
      -1.147
      -2.379
      -3.644
      -4.855
      -5.924
      -6.782
      -7.392
      -7.745
      -7.833
      -7.630
      -7.088
      -6.157
      -4.827
      -3.151
      -1.247
       0.723
       2.583
       4.178
       5.402
       6.207
       6.602
       6.639
       6.396
       5.951
       5.367
       4.687
       3.939
       3.134
       2.260
       1.284
       0.176
      -1.078
      -2.474
      -3.988
      -5.573
      -7.143
      -8.580
      -9.767
     -10.615
     -11.066
     -11.070
     -10.591
      -9.642
      -8.327
      -6.826
      -5.336
      -3.999
      -2.860
      -1.892
      -1.037
      -0.257
       0.444
       1.040
       1.505
       1.842
       2.078
       2.241
       2.352
       2.426
       2.489
       2.569
       2.676
       2.786
       2.853
       2.833
       2.692
       2.407
       1.973
       1.418
       0.816
       0.279
      -0.072
      -0.140
       0.120
       0.693
       1.511
       2.484
       3.515
       4.496
       5.306
       5.824
       5.962
       5.689
       5.038
       4.098
       2.995
       1.865
       0.820
      -0.088
      -0.867
      -1.555
      -2.187
      -2.769
      -3.278
      -3.681
      -3.949
      -4.071
      -4.053
      -3.911
      -3.665
      -3.336
      -2.942
      -2.500
      -2.036
      -1.588
      -1.211
      -0.959
      -0.870
      -0.947
      -1.146
      -1.388
      -1.582
      -1.651
      -1.552
      -1.275
      -0.849
      -0.330
       0.210
       0.710
       1.136
       1.489
       1.800
       2.095
       2.373
       2.601
       2.742
       2.794
       2.806
       2.852
       2.989
       3.221
       3.502
       3.759
       3.921
       3.946
       3.844
       3.667
       3.476
       3.305
       3.146
       2.959
       2.695
       2.325
       1.853
       1.322
       0.794
       0.323
      -0.066
      -0.371
      -0.593
      -0.723
      -0.748
      -0.672
      -0.513
      -0.285
       0.009
       0.374
       0.790
       1.194
       1.492
       1.604
       1.496
       1.200
       0.787
       0.339
      -0.074
      -0.393
      -0.581
      -0.623
      -0.540
      -0.384
      -0.227
      -0.137
      -0.156
      -0.292
      -0.523
      -0.809
      -1.109
      -1.383
      -1.594
      -1.732
      -1.827
      -1.942
      -2.133
      -2.409
      -2.727
      -3.033
      -3.312
      -3.609
      -3.978
      -4.431
      -4.899
      -5.263
      -5.412
      -5.287
      -4.888
      -4.258
      -3.454
      -2.527
      -1.520
      -0.472
       0.572
       1.557
       2.423
       3.111
       3.566
       3.726
       3.540
       2.994
       2.135
       1.074
      -0.030
      -1.005
      -1.697
      -2.004
      -1.898
      -1.435
      -0.742
       0.023
       0.722
       1.278
       1.676
       1.928
       2.037
       1.991
       1.796
       1.512
       1.264
       1.197
       1.411
       1.918
       2.645
       3.473
       4.294
       5.029
       5.626
       6.044
       6.253
       6.238
       5.991
       5.491
       4.706
       3.612
       2.248
       0.725
      -0.807
      -2.219
      -3.432
      -4.400
      -5.090
      -5.465
      -5.502
      -5.221
      -4.692
      -4.022
      -3.324
      -2.685
      -2.162
      -1.778
      -1.541
      -1.453
      -1.526
      -1.772
      -2.171
      -2.653
      -3.117
      -3.478
      -3.697
      -3.768
      -3.680
      -3.401
      -2.907
      -2.228
      -1.462
      -0.740
      -0.158
       0.280
       0.643
       1.016
       1.425
       1.828
       2.154
       2.348
       2.383
       2.254
       1.980
       1.616
       1.259
       1.025
       1.005
       1.220
       1.614
       2.088
       2.555
       2.966
       3.299
       3.542
       3.689
       3.741
       3.699
       3.549
       3.265
       2.833
       2.266
       1.602
       0.886
       0.170
      -0.491
      -1.041
      -1.435
      -1.638
      -1.652
      -1.530
      -1.383
      -1.332
      -1.447
      -1.702
      -1.985
      -2.160
      -2.135
      -1.891
      -1.476
      -0.975
      -0.486
      -0.091
       0.148
       0.195
       0.040
      -0.301
      -0.806
      -1.464
      -2.259
      -3.139
      -3.992
      -4.664
      -5.010
      -4.950
      -4.515
      -3.828
      -3.059
      -2.357
      -1.811
      -1.451
      -1.281
      -1.316
      -1.578
      -2.075
      -2.763
      -3.528
      -4.210
      -4.654
      -4.765
      -4.534
      -4.013
      -3.259
      -2.299
      -1.138
       0.219
       1.743
       3.366
       4.980
       6.442
       7.603
       8.343
       8.600
       8.364
       7.657
       6.526
       5.044
       3.316
       1.488
      -0.264
      -1.761
      -2.861
      -3.482
      -3.596
      -3.206
      -2.342
      -1.079
       0.430
       1.970
       3.333
       4.394
       5.157
       5.725
       6.215
       6.674
       7.028
       7.129
       6.849
       6.168
       5.199
       4.139
       3.176
       2.399
       1.774
       1.189
       0.554
      -0.135
      -0.810
      -1.395
      -1.863
      -2.243
      -2.601
      -3.010
      -3.529
      -4.179
      -4.939
      -5.747
      -6.528
      -7.205
      -7.706
      -7.972
      -7.961
      -7.661
      -7.081
      -6.242
      -5.161
      -3.870
      -2.431
      -0.958
       0.408
       1.553
       2.435
       3.088
       3.543
       3.773
       3.697
       3.271
       2.577
       1.810
       1.182
       0.825
       0.751
       0.892
       1.167
       1.519
       1.930
       2.404
       2.946
       3.544
       4.155
       4.699
       5.072
       5.170
       4.943
       4.419
       3.702
       2.918
       2.170
       1.513
       0.960
       0.506
       0.141
      -0.140
      -0.343
      -0.479
      -0.568
      -0.641
      -0.741
      -0.900
      -1.119
      -1.366
      -1.596
      -1.780
      -1.912
      -1.996
      -2.044
      -2.068
      -2.081
      -2.093
      -2.099
      -2.090
      -2.059
      -2.019
      -2.004
      -2.045
      -2.148
      -2.278
      -2.370
      -2.358
      -2.209
      -1.938
      -1.599
