Origin Time       21/9/2009 8:53:04	  UTC
Lat.              27.3 N	
Long.             91.5 E	
Depth (Km)          8.0
Magnitude         6.2
 Region           BHUTAN                                                           
 Above details taken from IMD 
    
Station Code      DIP
Station Lat.       25.839  N
Station Long.      93.435  E
Station Height(m)  260.0
Site Class        B   Vs30 between 375 m/sec to 700 m/sec *  
Record Time       21.09.2009 08:54:02.904 UTC
Sampling Rate     200. Hz
 Record Duration   85.150 Sec.
 Direction         N-S (N positive)
Max. Acceleration     15.555 cm/sec**2
     
  * For reference see Site Classification link of website 
     
 Base Line Corrected and Low Pass Filtered (Cut Off at 35 Hz) Time History
 Acceleration data in cm/sec**2
    
[...]
       1.595
       2.021
       2.379
       2.649
       2.805
       2.835
       2.758
       2.602
       2.397
       2.158
       1.892
       1.596
       1.253
       0.828
       0.297
      -0.329
      -0.980
      -1.556
      -1.962
      -2.147
      -2.111
      -1.888
      -1.527
      -1.077
      -0.583
      -0.081
       0.401
       0.836
       1.195
       1.448
       1.578
       1.586
       1.488
       1.299
       1.033
       0.705
       0.357
       0.057
      -0.127
      -0.172
      -0.124
      -0.079
      -0.126
      -0.285
      -0.495
      -0.640
      -0.619
      -0.400
      -0.035
       0.362
       0.675
       0.838
       0.861
       0.800
       0.722
       0.661
       0.620
       0.581
       0.529
       0.461
       0.385
       0.305
       0.221
       0.124
       0.001
      -0.164
      -0.388
      -0.672
      -0.997
      -1.326
      -1.626
      -1.891
      -2.144
      -2.431
      -2.796
      -3.254
      -3.789
      -4.356
      -4.905
      -5.392
      -5.783
      -6.043
      -6.120
      -5.951
      -5.495
      -4.744
      -3.737
      -2.534
      -1.199
       0.208
       1.630
       3.004
       4.265
       5.348
       6.198
       6.773
       7.061
       7.073
       6.846
       6.436
       5.908
       5.314
       4.689
       4.044
       3.391
       2.759
       2.189
       1.713
       1.327
       0.986
       0.619
       0.166
      -0.400
      -1.059
      -1.761
      -2.441
      -3.039
      -3.521
      -3.881
      -4.132
      -4.274
      -4.290
      -4.148
      -3.828
      -3.330
      -2.678
      -1.907
      -1.067
      -0.217
       0.596
       1.360
       2.101
       2.847
       3.593
       4.286
       4.859
       5.260
       5.479
       5.532
       5.441
       5.219
       4.867
       4.388
       3.804
       3.167
       2.548
       2.013
       1.591
       1.253
       0.923
       0.511
      -0.042
      -0.752
      -1.587
      -2.496
      -3.421
      -4.306
      -5.099
      -5.751
      -6.220
      -6.480
      -6.537
      -6.433
      -6.234
      -6.008
      -5.795
      -5.595
      -5.391
      -5.164
      -4.910
      -4.623
      -4.282
      -3.846
      -3.268
      -2.514
      -1.587
      -0.539
       0.533
       1.524
       2.355
       3.000
       3.477
       3.820
       4.042
       4.143
       4.125
       4.020
       3.886
       3.775
       3.700
       3.630
       3.510
       3.306
       3.030
       2.738
       2.510
       2.420
       2.518
       2.817
       3.278
       3.810
       4.287
       4.588
       4.640
       4.440
       4.050
       3.548
       2.988
       2.381
       1.721
       1.011
       0.290
      -0.381
      -0.940
      -1.357
      -1.640
      -1.839
      -2.010
      -2.192
      -2.385
      -2.569
      -2.727
      -2.854
      -2.946
      -2.995
      -2.999
      -2.967
      -2.921
      -2.867
      -2.775
      -2.596
      -2.302
      -1.925
      -1.542
      -1.243
      -1.085
      -1.074
      -1.190
      -1.414
      -1.740
      -2.173
      -2.711
      -3.313
      -3.899
      -4.361
      -4.601
      -4.574
      -4.296
      -3.818
      -3.183
      -2.397
      -1.460
      -0.400
       0.705
       1.754
       2.656
       3.355
       3.835
       4.110
       4.211
       4.165
       3.986
       3.678
       3.256
       2.765
       2.263
       1.786
       1.347
       0.971
       0.727
       0.703
       0.934
       1.367
       1.901
       2.461
       3.039
       3.652
       4.275
       4.822
       5.199
       5.359
       5.313
       5.084
       4.666
       4.040
       3.221
       2.280
       1.316
       0.396
      -0.462
      -1.276
      -2.059
      -2.814
      -3.530
      -4.187
      -4.733
      -5.083
      -5.167
      -4.986
      -4.636
      -4.261
      -3.976
      -3.819
      -3.770
      -3.792
      -3.871
      -4.003
      -4.174
      -4.344
      -4.470
      -4.509
      -4.417
      -4.146
      -3.661
      -2.956
      -2.068
      -1.063
      -0.016
       1.005
       1.945
       2.763
       3.426
       3.901
       4.159
       4.191
       4.026
       3.722
       3.354
       3.002
       2.734
       2.597
       2.593
       2.683
       2.814
       2.958
       3.137
       3.395
       3.760
       4.216
       4.716
       5.206
       5.637
       5.951
       6.072
       5.909
       5.395
       4.517
       3.319
       1.895
       0.371
      -1.115
      -2.440
      -3.514
      -4.291
      -4.762
      -4.932
      -4.810
      -4.409
      -3.749
      -2.875
      -1.862
      -0.821
       0.114
       0.812
       1.189
       1.224
       0.961
       0.470
      -0.198
      -1.031
      -2.026
      -3.141
      -4.280
      -5.314
      -6.143
      -6.724
      -7.050
      -7.115
      -6.885
      -6.328
      -5.448
      -4.318
      -3.067
      -1.843
      -0.761
       0.112
       0.761
       1.216
       1.515
       1.681
       1.694
       1.516
       1.137
       0.612
       0.056
      -0.408
      -0.706
      -0.825
      -0.790
      -0.620
      -0.308
       0.168
       0.827
       1.659
       2.626
       3.654
       4.643
       5.497
       6.161
       6.639
       6.968
       7.163
       7.195
       7.012
       6.589
       5.956
       5.176
       4.312
       3.409
       2.511
       1.677
       0.980
       0.491
       0.261
       0.314
       0.639
       1.196
       1.925
       2.751
       3.598
       4.383
       5.009
       5.357
       5.307
       4.767
       3.715
       2.214
       0.393
      -1.588
      -3.581
      -5.470
      -7.163
      -8.597
      -9.739
     -10.602
     -11.238
     -11.711
     -12.064
     -12.303
     -12.412
     -12.388
     -12.266
     -12.114
     -12.005
     -11.973
     -12.001
     -12.023
     -11.947
     -11.675
     -11.126
     -10.249
      -9.026
      -7.481
      -5.682
      -3.732
      -1.759
       0.110
       1.772
       3.167
       4.285
       5.151
       5.812
       6.309
       6.672
       6.921
       7.079
       7.189
       7.302
       7.459
       7.660
       7.867
       8.033
       8.136
       8.182
       8.188
       8.167
       8.118
       8.021
       7.834
       7.498
       6.968
       6.247
       5.378
       4.411
       3.366
       2.242
       1.063
      -0.102
      -1.146
      -1.981
      -2.565
      -2.897
      -2.985
      -2.847
      -2.523
      -2.078
      -1.575
      -1.041
      -0.457
       0.202
       0.933
       1.694
       2.435
       3.123
       3.744
       4.276
       4.669
       4.856
       4.784
       4.447
       3.887
       3.176
       2.397
       1.626
       0.920
       0.310
      -0.197
      -0.608
      -0.941
      -1.221
      -1.484
      -1.777
      -2.157
      -2.680
      -3.377
      -4.217
      -5.102
      -5.897
      -6.488
      -6.832
      -6.958
      -6.946
      -6.871
      -6.769
      -6.609
      -6.311
      -5.796
      -5.051
      -4.152
      -3.224
      -2.361
      -1.588
      -0.871
      -0.176
       0.496
       1.106
       1.612
       1.990
       2.240
       2.381
       2.440
       2.446
       2.423
       2.392
       2.375
       2.395
       2.459
       2.540
       2.591
       2.572
       2.495
       2.415
       2.386
       2.418
       2.475
       2.512
       2.509
       2.467
       2.386
       2.260
       2.091
       1.910
       1.766
       1.694
       1.697
       1.751
       1.829
       1.907
       1.964
       1.991
       2.010
       2.076
       2.249
       2.551
       2.956
       3.420
       3.923
       4.482
       5.124
       5.845
       6.589
       7.268
       7.802
       8.148
       8.303
       8.263
       7.998
       7.445
       6.546
       5.297
       3.783
       2.170
       0.653
      -0.611
      -1.556
      -2.223
      -2.726
      -3.193
      -3.701
      -4.257
      -4.825
      -5.370
      -5.885
      -6.385
      -6.875
      -7.338
      -7.733
      -8.018
      -8.143
      -8.050
      -7.691
      -7.064
      -6.248
      -5.386
      -4.626
      -4.057
      -3.679
      -3.436
      -3.253
      -3.076
      -2.880
      -2.673
      -2.477
      -2.318
      -2.208
      -2.134
      -2.065
      -1.950
      -1.743
      -1.414
      -0.964
      -0.409
       0.239
       0.981
       1.818
       2.717
       3.601
       4.359
       4.883
       5.087
       4.919
       4.361
       3.436
       2.221
       0.842
      -0.544
      -1.780
      -2.744
      -3.380
      -3.709
      -3.811
      -3.786
      -3.710
      -3.611
      -3.484
      -3.324
      -3.157
      -3.035
      -2.995
      -3.027
      -3.070
      -3.031
      -2.834
      -2.447
      -1.887
      -1.206
      -0.466
       0.276
       0.977
       1.602
       2.122
       2.508
       2.743
       2.829
       2.789
       2.665
       2.498
       2.324
       2.166
       2.028
       1.893
       1.730
       1.505
       1.195
       0.785
       0.270
      -0.342
      -1.009
      -1.650
      -2.164
      -2.474
      -2.558
      -2.438
      -2.139
      -1.660
      -0.973
      -0.085
       0.918
       1.859
       2.544
       2.847
       2.763
       2.390
       1.872
       1.338
       0.871
       0.490
       0.166
      -0.146
      -0.460
      -0.727
      -0.866
      -0.826
      -0.632
      -0.366
      -0.106
       0.125
       0.342
       0.554
       0.730
       0.817
       0.785
       0.653
       0.470
       0.271
       0.062
      -0.158
      -0.360
      -0.478
      -0.445
      -0.244
       0.089
       0.489
       0.912
       1.364
       1.883
       2.496
       3.186
       3.885
       4.498
       4.929
       5.088
       4.907
       4.347
       3.433
       2.264
       0.983
      -0.296
      -1.536
      -2.763
      -3.992
      -5.176
      -6.193
      -6.898
      -7.191
      -7.073
      -6.641
      -6.043
      -5.412
      -4.823
      -4.295
      -3.817
      -3.382
      -2.988
      -2.630
      -2.287
      -1.919
      -1.476
      -0.908
      -0.188
       0.683
       1.674
       2.727
       3.776
       4.741
       5.545
       6.111
       6.381
       6.329
       5.967
       5.334
       4.499
       3.555
       2.626
       1.842
       1.300
       1.022
       0.964
       1.047
       1.196
       1.354
       1.466
       1.480
       1.361
       1.104
       0.724
       0.235
      -0.352
      -0.996
      -1.593
      -1.998
      -2.088
      -1.828
      -1.275
      -0.525
       0.342
       1.266
       2.177
       2.974
       3.551
       3.843
       3.865
       3.703
       3.471
       3.254
       3.083
       2.950
       2.841
       2.752
       2.685
       2.629
       2.551
       2.418
       2.217
       1.967
       1.702
       1.441
       1.174
       0.875
       0.531
       0.175
      -0.125
      -0.309
      -0.375
      -0.392
      -0.464
      -0.693
      -1.154
      -1.897
      -2.948
      -4.282
      -5.799
      -7.333
      -8.706
      -9.796
     -10.559
     -10.998
     -11.104
     -10.833
     -10.131
      -8.989
      -7.477
      -5.729
      -3.895
      -2.094
      -0.405
       1.100
       2.332
       3.193
       3.625
       3.652
       3.383
       2.952
       2.478
       2.048
       1.733
       1.593
       1.648
       1.859
       2.145
       2.442
       2.762
       3.195
       3.841
       4.734
       5.806
       6.937
       8.028
       9.030
       9.914
      10.623
      11.054
      11.109
      10.753
      10.046
       9.107
       8.051
       6.936
       5.766
       4.517
       3.178
       1.771
       0.329
      -1.126
      -2.594
      -4.072
      -5.536
      -6.939
      -8.227
      -9.345
     -10.248
     -10.899
     -11.277
     -11.399
     -11.332
     -11.166
     -10.983
     -10.819
     -10.662
     -10.468
     -10.175
      -9.716
      -9.031
      -8.095
      -6.947
      -5.682
      -4.413
      -3.219
      -2.128
      -1.134
      -0.236
       0.552
       1.214
       1.764
       2.248
       2.710
       3.162
       3.572
       3.895
       4.095
       4.160
       4.096
       3.919
       3.638
       3.253
       2.775
       2.254
       1.796
       1.530
       1.541
       1.828
       2.312
       2.877
       3.404
       3.781
       3.912
       3.735
       3.233
       2.436
       1.401
       0.207
      -1.055
      -2.279
      -3.351
      -4.141
      -4.527
      -4.432
      -3.860
      -2.903
      -1.704
      -0.413
       0.847
       1.979
       2.910
       3.577
       3.952
       4.057
       3.962
       3.759
       3.497
       3.167
       2.730
       2.185
       1.601
       1.062
       0.597
       0.160
      -0.315
      -0.849
      -1.411
      -1.954
      -2.467
      -2.975
      -3.512
      -4.102
      -4.754
      -5.481
      -6.301
      -7.215
      -8.193
      -9.166
     -10.034
     -10.680
     -10.991
     -10.883
     -10.321
      -9.315
      -7.890
      -6.060
      -3.840
      -1.269
       1.544
       4.415
       7.106
       9.395
      11.151
      12.386
      13.228
      13.848
      14.373
      14.845
      15.237
      15.488
      15.555
      15.415
      15.046
      14.414
      13.479
      12.218
      10.624
       8.709
       6.512
       4.119
       1.671
      -0.661
      -2.732
      -4.476
      -5.924
      -7.158
      -8.240
      -9.163
      -9.873
     -10.325
     -10.539
     -10.584
     -10.527
     -10.382
     -10.105
      -9.635
      -8.946
      -8.059
      -7.018
      -5.850
      -4.560
      -3.160
      -1.694
      -0.241
       1.109
       2.280
       3.234
       3.973
       4.527
       4.910
       5.096
       5.032
       4.697
       4.156
       3.555
       3.043
       2.687
       2.449
       2.245
       2.022
       1.777
       1.529
       1.270
       0.976
       0.636
       0.281
      -0.043
      -0.302
      -0.495
      -0.641
      -0.761
      -0.881
      -1.032
      -1.233
      -1.472
      -1.686
      -1.777
      -1.655
      -1.289
      -0.724
      -0.060
       0.591
       1.143
       1.548
       1.796
       1.909
       1.929
       1.900
       1.845
       1.756
       1.606
       1.375
       1.050
       0.617
       0.050
      -0.670
      -1.515
      -2.386
      -3.130
      -3.600
      -3.707
      -3.427
      -2.785
      -1.835
      -0.660
       0.618
       1.866
       2.963
       3.830
       4.417
       4.700
       4.664
       4.290
       3.561
       2.473
       1.068
      -0.531
      -2.132
      -3.509
      -4.469
      -4.913
      -4.858
      -4.407
      -3.687
      -2.802
      -1.826
      -0.836
       0.071
       0.789
       1.249
       1.440
       1.410
       1.245
       1.041
       0.870
       0.761
       0.711
       0.705
       0.753
       0.890
       1.159
       1.571
       2.081
       2.593
       2.996
       3.198
       3.166
       2.916
       2.481
       1.874
       1.094
       0.164
      -0.844
      -1.830
      -2.714
      -3.470
      -4.109
      -4.624
      -4.973
      -5.108
      -5.015
      -4.718
      -4.259
      -3.678
      -3.015
      -2.318
      -1.633
      -1.001
      -0.456
      -0.046
       0.171
       0.135
      -0.200
      -0.843
      -1.727
      -2.701
      -3.549
      -4.064
      -4.119
      -3.693
      -2.820
      -1.537
       0.119
       2.057
       4.092
       5.979
       7.486
       8.473
       8.927
       8.937
       8.626
       8.076
       7.304
       6.301
       5.089
       3.738
       2.334
       0.933
      -0.450
      -1.803
      -3.083
      -4.209
      -5.103
      -5.732
      -6.119
      -6.315
      -6.355
      -6.233
      -5.927
      -5.431
      -4.772
      -3.999
      -3.168
      -2.337
      -1.570
      -0.920
      -0.418
      -0.060
       0.180
       0.321
       0.355
       0.268
       0.075
      -0.158
      -0.353
      -0.468
      -0.525
      -0.583
      -0.692
      -0.862
      -1.056
      -1.208
      -1.238
      -1.068
      -0.648
       0.022
       0.873
       1.784
       2.618
       3.259
       3.628
       3.691
       3.464
       3.014
       2.444
       1.854
       1.300
       0.790
       0.303
      -0.183
      -0.673
      -1.155
      -1.601
      -1.987
      -2.303
      -2.561
      -2.778
      -2.947
      -3.022
      -2.933
      -2.629
      -2.103
      -1.392
      -0.560
       0.318
       1.168
       1.913
       2.483
       2.812
       2.840
       2.514
       1.820
       0.802
      -0.428
      -1.721
      -2.928
      -3.903
      -4.501
      -4.607
      -4.201
      -3.399
      -2.414
      -1.454
      -0.619
       0.108
       0.799
       1.494
       2.169
       2.756
       3.189
       3.428
       3.480
       3.399
       3.286
       3.260
       3.408
       3.747
       4.221
       4.743
       5.240
       5.675
       6.048
       6.384
       6.723
       7.094
       7.500
       7.909
       8.261
       8.492
       8.551
       8.402
       8.019
       7.365
       6.405
       5.142
       3.631
       1.962
       0.223
      -1.526
      -3.242
      -4.869
      -6.334
      -7.562
      -8.510
      -9.182
      -9.621
      -9.880
      -9.994
      -9.964
      -9.766
      -9.369
      -8.754
      -7.933
      -6.953
      -5.891
      -4.831
      -3.843
      -2.966
      -2.215
      -1.584
      -1.056
      -0.605
      -0.222
       0.085
       0.294
       0.392
       0.396
       0.355
       0.326
       0.349
       0.435
       0.566
       0.715
       0.861
       0.983
       1.053
       1.042
       0.927
       0.691
       0.325
      -0.173
      -0.790
      -1.484
      -2.187
      -2.818
      -3.312
      -3.630
      -3.751
      -3.668
      -3.386
      -2.936
      -2.371
      -1.763
      -1.174
      -0.640
      -0.159
       0.307
       0.818
       1.425
       2.126
       2.860
       3.535
       4.079
       4.469
       4.712
       4.825
       4.826
       4.746
       4.623
       4.497
       4.390
       4.302
       4.209
       4.070
       3.847
       3.520
       3.102
       2.626
       2.130
       1.642
       1.157
       0.644
       0.061
      -0.604
      -1.320
      -2.029
      -2.681
      -3.253
      -3.733
      -4.101
      -4.329
      -4.401
      -4.323
      -4.123
      -3.842
      -3.535
      -3.277
      -3.145
      -3.180
      -3.370
      -3.649
      -3.939
      -4.181
      -4.349
      -4.433
      -4.418
      -4.277
      -3.982
      -3.519
      -2.907
      -2.202
      -1.491
      -0.872
      -0.430
      -0.209
      -0.196
      -0.337
      -0.579
      -0.914
      -1.367
      -1.950
      -2.615
      -3.254
      -3.746
      -4.020
      -4.067
      -3.920
      -3.600
      -3.096
      -2.384
      -1.460
      -0.359
       0.855
       2.111
