Origin Time       11/8/2009 21:43:39  UTC
Lat.              24.4 N 
Long.             94.8 E 
Depth (Km)         22.0
Magnitude         5.6
 Region           MYANMAR-INDIA(MANIPUR)BORDER                                     
 Above details taken from IMD 
    
Station Code      DIP
Station Lat.       25.839  N
Station Long.      93.435  E
Station Height(m)  260.0
Site Class        B   Vs30 between 375 m/sec to 700 m/sec *  
Record Time       11.08.2009 21:44:04.809 UTC
Sampling Rate     200. Hz
 Record Duration  102.585 Sec.
 Direction         N-S (N positive)
Max. Acceleration    -17.176 cm/sec**2
     
  * For reference see Site Classification link of website 
     
 Base Line Corrected and Low Pass Filtered (Cut Off at 35 Hz) Time History
 Acceleration data in cm/sec**2
    
[...]
      -0.916
      -1.264
      -1.518
      -1.689
      -1.775
      -1.744
      -1.558
      -1.203
      -0.692
      -0.069
       0.581
       1.127
       1.431
       1.411
       1.095
       0.616
       0.164
      -0.089
      -0.062
       0.193
       0.501
       0.651
       0.518
       0.154
      -0.225
      -0.362
      -0.106
       0.503
       1.255
       1.876
       2.151
       2.014
       1.569
       1.046
       0.681
       0.588
       0.688
       0.784
       0.715
       0.464
       0.133
      -0.175
      -0.431
      -0.659
      -0.854
      -0.946
      -0.863
      -0.604
      -0.268
       0.002
       0.114
       0.069
      -0.061
      -0.185
      -0.242
      -0.238
      -0.270
      -0.487
      -0.962
      -1.578
      -2.071
      -2.245
      -2.139
      -1.975
      -1.919
      -1.930
      -1.832
      -1.510
      -1.025
      -0.526
      -0.107
       0.263
       0.669
       1.152
       1.673
       2.162
       2.561
       2.807
       2.817
       2.531
       2.003
       1.414
       0.945
       0.629
       0.351
       0.013
      -0.324
      -0.500
      -0.444
      -0.270
      -0.168
      -0.225
      -0.382
      -0.545
      -0.693
      -0.853
      -1.006
      -1.062
      -0.945
      -0.674
      -0.338
      -0.022
       0.235
       0.411
       0.472
       0.379
       0.135
      -0.204
      -0.550
      -0.823
      -0.982
      -1.030
      -0.985
      -0.842
      -0.548
      -0.069
       0.528
       1.056
       1.340
       1.358
       1.264
       1.244
       1.350
       1.478
       1.487
       1.320
       1.015
       0.634
       0.199
      -0.300
      -0.835
      -1.306
      -1.580
      -1.566
      -1.282
      -0.834
      -0.352
       0.089
       0.498
       0.936
       1.422
       1.852
       2.019
       1.760
       1.115
       0.332
      -0.288
      -0.581
      -0.589
      -0.480
      -0.413
      -0.463
      -0.613
      -0.803
      -0.975
      -1.115
      -1.255
      -1.435
      -1.661
      -1.881
      -2.001
      -1.907
      -1.507
      -0.785
       0.131
       0.973
       1.443
       1.399
       0.973
       0.487
       0.226
       0.257
       0.440
       0.613
       0.737
       0.883
       1.097
       1.322
       1.431
       1.336
       1.046
       0.660
       0.305
       0.059
      -0.098
      -0.275
      -0.571
      -0.945
      -1.194
      -1.079
      -0.526
       0.276
       0.963
       1.201
       0.883
       0.200
      -0.463
      -0.766
      -0.627
      -0.249
       0.054
       0.090
      -0.121
      -0.445
      -0.782
      -1.088
      -1.280
      -1.208
      -0.771
      -0.077
       0.567
       0.858
       0.709
       0.273
      -0.210
      -0.571
      -0.742
      -0.715
      -0.523
      -0.252
      -0.017
       0.119
       0.202
       0.329
       0.542
       0.772
       0.890
       0.789
       0.454
      -0.030
      -0.496
      -0.760
      -0.735
      -0.484
      -0.185
       0.012
       0.097
       0.181
       0.362
       0.617
       0.822
       0.873
       0.780
       0.644
       0.547
       0.477
       0.339
       0.036
      -0.450
      -1.026
      -1.510
      -1.712
      -1.527
      -1.007
      -0.362
       0.153
       0.376
       0.316
       0.115
      -0.066
      -0.126
      -0.037
       0.175
       0.436
       0.623
       0.592
       0.246
      -0.382
      -1.101
      -1.628
      -1.750
      -1.457
      -0.950
      -0.488
      -0.188
       0.029
       0.321
       0.725
       1.088
       1.186
       0.921
       0.412
      -0.087
      -0.357
      -0.332
      -0.115
       0.113
       0.187
       0.058
      -0.183
      -0.366
      -0.388
      -0.319
      -0.346
      -0.612
      -1.087
      -1.574
      -1.822
      -1.652
      -1.043
      -0.166
       0.668
       1.169
       1.236
       1.004
       0.692
       0.415
       0.123
      -0.279
      -0.797
      -1.321
      -1.706
      -1.833
      -1.638
      -1.120
      -0.382
       0.378
       0.949
       1.226
       1.266
       1.216
       1.179
       1.146
       1.070
       0.990
       1.058
       1.393
       1.905
       2.280
       2.204
       1.613
       0.747
      -0.030
      -0.463
      -0.522
      -0.370
      -0.239
      -0.281
      -0.481
      -0.698
      -0.800
      -0.767
      -0.664
      -0.549
      -0.420
      -0.254
      -0.035
       0.255
       0.615
       0.969
       1.146
       0.985
       0.478
      -0.204
      -0.824
      -1.214
      -1.315
      -1.144
      -0.761
      -0.268
       0.212
       0.589
       0.849
       1.044
       1.226
       1.384
       1.457
       1.407
       1.281
       1.181
       1.162
       1.154
       1.004
       0.622
       0.071
      -0.476
      -0.876
      -1.106
      -1.218
      -1.217
      -1.023
      -0.565
       0.087
       0.693
       0.966
       0.758
       0.157
      -0.586
      -1.226
      -1.653
      -1.898
      -2.043
      -2.115
      -2.065
      -1.817
      -1.328
      -0.596
       0.331
       1.325
       2.144
       2.521
       2.346
       1.774
       1.120
       0.604
       0.200
      -0.257
      -0.815
      -1.300
      -1.466
      -1.230
      -0.743
      -0.249
       0.087
       0.208
       0.086
      -0.308
      -0.945
      -1.674
      -2.258
      -2.488
      -2.286
      -1.728
      -0.990
      -0.251
       0.405
       1.004
       1.597
       2.166
       2.627
       2.950
       3.240
       3.648
       4.181
       4.599
       4.557
       3.888
       2.758
       1.574
       0.724
       0.386
       0.497
       0.844
       1.169
       1.248
       0.969
       0.399
      -0.241
      -0.723
      -0.978
      -1.131
      -1.346
      -1.653
      -1.916
      -1.951
      -1.648
      -0.967
       0.094
       1.434
       2.742
       3.529
       3.410
       2.406
       0.968
      -0.365
      -1.352
      -2.135
      -2.970
      -3.919
      -4.783
      -5.282
      -5.257
      -4.733
      -3.856
      -2.770
      -1.556
      -0.242
       1.136
       2.470
       3.532
       4.015
       3.662
       2.458
       0.740
      -0.911
      -1.958
      -2.187
      -1.766
      -1.058
      -0.384
       0.101
       0.394
       0.570
       0.714
       0.861
       0.982
       1.041
       1.056
       1.088
       1.164
       1.235
       1.229
       1.145
       1.042
       0.963
       0.879
       0.731
       0.481
       0.106
      -0.446
      -1.216
      -2.148
      -3.057
      -3.758
      -4.220
      -4.578
      -4.965
      -5.341
      -5.485
      -5.149
      -4.220
      -2.775
      -1.049
       0.637
       1.987
       2.860
       3.317
       3.521
       3.568
       3.434
       3.090
       2.622
       2.185
       1.855
       1.578
       1.280
       0.972
       0.735
       0.651
       0.806
       1.315
       2.247
       3.424
       4.354
       4.472
       3.556
       1.931
       0.234
      -1.048
      -1.862
      -2.457
      -3.031
      -3.522
      -3.726
      -3.558
      -3.170
      -2.812
      -2.618
      -2.534
      -2.418
      -2.160
      -1.719
      -1.115
      -0.432
       0.169
       0.491
       0.405
      -0.065
      -0.716
      -1.221
      -1.270
      -0.782
      -0.049
       0.371
       0.020
      -1.098
      -2.474
      -3.433
      -3.566
      -2.903
      -1.776
      -0.579
       0.357
       0.795
       0.649
       0.063
      -0.651
      -1.243
      -1.702
      -2.153
      -2.555
      -2.569
      -1.797
      -0.182
       1.860
       3.741
       5.133
       6.120
       6.962
       7.754
       8.321
       8.395
       7.853
       6.763
       5.243
       3.328
       1.036
      -1.420
      -3.565
      -4.888
      -5.202
      -4.790
      -4.169
      -3.708
      -3.476
      -3.415
      -3.620
      -4.341
      -5.685
      -7.320
      -8.509
      -8.488
      -6.886
      -3.884
      -0.097
       3.683
       6.729
       8.546
       8.995
       8.346
       7.214
       6.284
       5.937
       6.033
       6.031
       5.382
       3.912
       1.948
       0.120
      -1.043
      -1.432
      -1.413
      -1.568
      -2.362
      -3.917
      -5.997
      -8.094
      -9.588
      -9.968
      -9.066
      -7.126
      -4.652
      -2.152
      -0.007
       1.518
       2.292
       2.445
       2.446
       2.887
       4.045
       5.607
       6.858
       7.211
       6.617
       5.529
       4.522
       3.927
       3.775
       3.971
       4.450
       5.151
       5.866
       6.187
       5.670
       4.134
       1.838
      -0.657
      -2.849
      -4.594
      -6.059
      -7.384
      -8.426
      -8.848
      -8.470
      -7.494
      -6.364
      -5.421
      -4.647
      -3.696
      -2.144
       0.228
       3.260
       6.444
       9.137
      10.827
      11.315
      10.716
       9.331
       7.503
       5.526
       3.613
       1.876
       0.314
      -1.172
      -2.690
      -4.223
      -5.575
      -6.466
      -6.703
      -6.278
      -5.308
      -3.909
      -2.175
      -0.301
       1.289
       2.047
       1.603
       0.021
      -2.266
      -4.781
      -7.264
      -9.606
     -11.559
     -12.543
     -11.833
      -9.035
      -4.506
       0.649
       5.017
       7.544
       8.001
       6.977
       5.403
       3.968
       2.850
       1.903
       1.061
       0.546
       0.739
       1.868
       3.807
       6.082
       8.079
       9.305
       9.538
       8.791
       7.139
       4.610
       1.263
      -2.627
      -6.448
      -9.372
     -10.649
      -9.941
      -7.492
      -4.018
      -0.365
       2.811
       5.142
       6.470
       6.768
       6.156
       4.904
       3.306
       1.501
      -0.565
      -2.947
      -5.447
      -7.585
      -8.858
      -9.057
      -8.336
      -6.990
      -5.224
      -3.148
      -0.976
       0.851
       1.802
       1.555
       0.209
      -1.696
      -3.351
      -3.924
      -2.866
      -0.211
       3.314
       6.516
       8.271
       8.059
       6.138
       3.252
       0.139
      -2.806
      -5.505
      -7.910
      -9.747
     -10.531
      -9.837
      -7.593
      -4.136
      -0.051
       4.024
       7.494
       9.874
      10.918
      10.713
       9.640
       8.215
       6.922
       6.113
       5.912
       6.108
       6.133
       5.258
       2.975
      -0.672
      -5.034
      -9.150
     -12.217
     -13.912
     -14.381
     -13.950
     -12.817
     -10.956
      -8.259
      -4.771
      -0.814
       3.118
       6.599
       9.393
      11.349
      12.236
      11.777
       9.928
       7.114
       4.122
       1.639
      -0.169
      -1.671
      -3.350
      -5.330
      -7.208
      -8.300
      -8.053
      -6.344
      -3.510
      -0.162
       3.064
       5.680
       7.437
       8.328
       8.503
       8.092
       7.057
       5.224
       2.491
      -0.925
      -4.446
      -7.366
      -9.215
      -9.967
      -9.901
      -9.254
      -7.993
      -5.953
      -3.154
       0.092
       3.432
       6.737
      10.022
      13.083
      15.333
      16.134
      15.308
      13.316
      10.884
       8.501
       6.226
       3.884
       1.313
      -1.579
      -4.819
      -8.214
     -11.150
     -12.738
     -12.385
     -10.347
      -7.660
      -5.437
      -4.161
      -3.586
      -3.247
      -3.002
      -3.103
      -3.809
      -5.022
      -6.304
      -7.224
      -7.639
      -7.623
      -7.210
      -6.281
      -4.757
      -2.870
      -1.130
       0.052
       0.739
       1.447
       2.731
       4.781
       7.371
      10.093
      12.569
      14.439
      15.290
      14.768
      12.837
       9.911
       6.658
       3.593
       0.850
      -1.678
      -3.999
      -5.865
      -6.959
      -7.228
      -6.955
      -6.435
      -5.607
      -4.053
      -1.438
       2.044
       5.651
       8.527
      10.172
      10.592
      10.116
       9.088
       7.657
       5.737
       3.154
      -0.129
      -3.834
      -7.370
     -10.063
     -11.519
     -11.890
     -11.816
     -12.005
     -12.742
     -13.696
     -14.189
     -13.671
     -12.026
      -9.538
      -6.665
      -3.875
      -1.591
      -0.092
       0.652
       1.069
       1.792
       3.249
       5.317
       7.354
       8.605
       8.695
       7.779
       6.279
       4.524
       2.688
       1.072
       0.329
       1.220
       4.021
       8.062
      11.885
      13.992
      13.674
      11.326
       8.083
       5.099
       2.994
       1.739
       0.887
      -0.063
      -1.377
      -2.956
      -4.427
      -5.407
      -5.783
      -5.782
      -5.758
      -5.826
      -5.711
      -5.005
      -3.638
      -2.083
      -1.012
      -0.698
      -0.764
      -0.541
       0.253
       1.160
       1.273
      -0.049
      -2.641
      -5.560
      -7.626
      -8.036
      -6.666
      -3.975
      -0.679
       2.562
       5.343
       7.580
       9.430
      11.067
      12.418
      13.117
      12.790
      11.465
       9.662
       7.987
       6.533
       4.721
       1.799
      -2.406
      -7.201
     -11.473
     -14.444
     -16.074
     -16.843
     -17.176
     -17.061
     -16.119
     -13.993
     -10.697
      -6.658
      -2.527
       1.080
       3.754
       5.365
       6.070
       6.231
       6.242
       6.347
       6.596
       6.961
       7.415
       7.841
       7.899
       7.130
       5.322
       2.816
       0.385
      -1.273
      -1.974
      -2.066
      -2.044
      -2.148
      -2.263
      -2.123
      -1.557
      -0.558
       0.802
       2.448
       4.246
       5.911
       7.033
       7.250
       6.451
       4.855
       2.898
       1.020
      -0.513
      -1.631
      -2.355
      -2.664
      -2.523
      -2.001
      -1.307
      -0.636
       0.030
       0.859
       1.849
       2.572
       2.324
       0.634
      -2.310
      -5.716
      -8.632
     -10.393
     -10.755
      -9.801
      -7.844
      -5.419
      -3.207
      -1.763
      -1.161
      -0.883
      -0.190
       1.254
       3.037
       4.313
       4.513
       3.810
       2.902
       2.331
       2.022
       1.409
       0.000
      -2.137
      -4.288
      -5.418
      -4.706
      -2.019
       1.902
       5.700
       8.011
       8.126
       6.315
       3.607
       1.156
      -0.419
      -1.280
      -2.048
      -3.220
      -4.791
      -6.368
      -7.585
      -8.317
      -8.489
      -7.771
      -5.639
      -1.881
       2.919
       7.429
      10.219
      10.585
       8.950
       6.526
       4.494
       3.310
       2.650
       1.959
       1.032
       0.117
      -0.418
      -0.414
       0.040
       0.718
       1.278
       1.236
       0.133
      -2.124
      -5.090
      -8.006
     -10.214
     -11.407
     -11.542
     -10.638
      -8.700
      -5.816
      -2.299
       1.293
       4.301
       6.201
       6.810
       6.327
       5.213
       3.991
       3.076
       2.612
       2.417
       2.097
       1.326
       0.071
      -1.441
      -2.918
      -4.116
      -4.772
      -4.541
      -3.173
      -0.837
       1.772
       3.783
       4.724
       4.817
       4.747
       5.103
       6.005
       7.135
       8.038
       8.413
       8.218
       7.615
       6.785
       5.760
       4.398
       2.538
       0.196
      -2.352
      -4.685
      -6.443
      -7.490
      -7.918
      -7.913
      -7.575
      -6.865
      -5.696
      -4.065
      -2.114
      -0.117
       1.541
       2.437
       2.327
       1.400
       0.340
       0.047
       1.142
       3.570
       6.535
       8.800
       9.211
       7.239
       3.291
      -1.450
      -5.625
      -8.406
      -9.781
     -10.247
     -10.233
      -9.754
      -8.558
      -6.501
      -3.756
      -0.734
       2.023
       3.872
       4.188
       2.783
       0.307
      -1.928
      -2.786
      -2.133
      -0.850
       0.025
       0.210
       0.301
       1.041
       2.527
       4.150
       5.226
       5.554
       5.349
       4.766
       3.672
       1.923
      -0.236
      -2.167
      -3.263
      -3.381
      -2.859
      -2.200
      -1.759
      -1.670
      -1.924
      -2.435
      -3.044
      -3.551
      -3.755
      -3.433
      -2.288
      -0.040
       3.271
       7.029
      10.172
      11.766
      11.598
      10.300
       8.876
       8.039
       7.837
       7.790
       7.342
       6.246
       4.619
       2.704
       0.603
      -1.738
      -4.293
      -6.697
      -8.297
      -8.558
      -7.520
      -5.847
      -4.384
      -3.561
      -3.192
      -2.812
      -2.238
      -1.804
      -2.091
      -3.424
      -5.618
      -8.142
     -10.440
     -12.108
     -12.839
     -12.363
     -10.520
      -7.447
      -3.712
      -0.230
       2.067
       2.667
       1.802
       0.404
      -0.348
       0.343
       2.481
       5.355
       7.990
       9.642
      10.053
       9.441
       8.301
       7.137
       6.207
       5.447
       4.601
       3.480
       2.148
       0.904
       0.100
      -0.066
       0.341
       1.024
       1.642
       2.056
       2.413
       2.916
       3.465
       3.563
       2.663
       0.656
      -1.977
      -4.469
      -6.204
      -6.921
      -6.665
      -5.665
      -4.245
      -2.742
      -1.398
      -0.302
       0.578
       1.302
       1.915
       2.456
       2.969
       3.422
       3.614
       3.216
       1.979
      -0.027
      -2.366
      -4.414
      -5.662
      -5.929
      -5.413
      -4.565
      -3.879
      -3.662
      -3.903
      -4.333
      -4.655
      -4.757
      -4.705
      -4.524
      -4.041
      -3.000
      -1.339
       0.723
       2.891
       5.021
       7.067
       8.832
       9.867
       9.732
       8.392
       6.365
       4.451
       3.219
       2.649
       2.181
       1.161
      -0.624
      -2.726
      -4.330
      -4.856
      -4.370
      -3.469
      -2.762
      -2.436
      -2.236
      -1.811
      -1.075
      -0.257
       0.375
       0.845
       1.511
       2.732
       4.407
       5.820
       5.980
       4.275
       0.976
      -2.805
      -5.719
      -6.959
      -6.665
      -5.657
      -4.729
      -4.088
      -3.345
      -1.974
       0.219
       2.952
       5.604
       7.472
       8.041
       7.270
       5.730
       4.336
       3.703
       3.606
       3.075
       1.166
      -2.226
      -6.182
      -9.370
     -10.870
     -10.614
      -9.226
      -7.522
      -6.043
      -4.845
      -3.604
      -1.936
       0.255
       2.627
       4.567
       5.548
       5.414
       4.420
       3.055
       1.832
       1.134
       1.119
       1.691
       2.552
       3.347
       3.784
       3.700
       3.077
       2.046
       0.853
      -0.232
      -1.040
      -1.590
      -2.106
      -2.895
      -4.106
      -5.473
      -6.308
