Origin Time       11/8/2009 21:43:39 
Lat.              24.4 N 
Long.             94.8 E 
Depth (Km)         22.0
Magnitude         5.6
 Region           MYANMAR-INDIA(MANIPUR)BORDER                                     
 Above details taken from IMD 
   
Station Code      DIP
Station Lat.       25.839
Station Long.      93.435
Station Height(m)  260.0
Site Class        B   Vs30 between 375 m/sec to 700 m/sec *  
Record Time       11.08.2009 21:44:04.809
Sampling Rate     200. Hz
 Record Duration  102.585 Sec.
 Direction         Vert. (Up positive)
Max. Acceleration    -14.970 cm/sec**2
     
  * For reference see Site Classification link of website 
     
 Base Line Corrected and Low Pass Filtered (Cut Off at 35 Hz) Time History
 Acceleration data in cm/sec**2
    
[...]
      -0.280
      -1.203
      -1.854
      -2.155
      -2.239
      -2.200
      -1.891
      -1.046
       0.338
       1.770
       2.529
       2.259
       1.316
       0.449
       0.106
       0.051
      -0.278
      -1.077
      -1.886
      -2.048
      -1.381
      -0.355
       0.404
       0.690
       0.761
       0.896
       1.035
       0.913
       0.450
      -0.085
      -0.322
      -0.142
       0.262
       0.616
       0.799
       0.840
       0.766
       0.541
       0.169
      -0.204
      -0.351
      -0.170
       0.199
       0.483
       0.511
       0.326
       0.087
      -0.109
      -0.249
      -0.298
      -0.138
       0.297
       0.835
       1.084
       0.712
      -0.244
      -1.378
      -2.202
      -2.469
      -2.236
      -1.685
      -0.926
       0.011
       1.048
       1.983
       2.592
       2.776
       2.593
       2.126
       1.348
       0.171
      -1.359
      -2.917
      -3.982
      -4.119
      -3.258
      -1.750
      -0.161
       1.043
       1.716
       2.001
       2.116
       2.137
       1.968
       1.499
       0.781
       0.052
      -0.423
      -0.532
      -0.361
      -0.103
       0.060
       0.006
      -0.317
      -0.850
      -1.397
      -1.675
      -1.481
      -0.858
      -0.094
       0.499
       0.833
       1.090
       1.469
       1.892
       2.000
       1.474
       0.382
      -0.820
      -1.644
      -1.937
      -1.925
      -1.926
      -2.037
      -2.073
      -1.771
      -1.036
      -0.011
       1.060
       1.989
       2.676
       3.045
       3.008
       2.524
       1.656
       0.541
      -0.681
      -1.899
      -2.964
      -3.637
      -3.651
      -2.892
      -1.548
      -0.073
       1.056
       1.612
       1.699
       1.596
       1.495
       1.368
       1.067
       0.540
      -0.058
      -0.455
      -0.477
      -0.190
       0.179
       0.437
       0.540
       0.546
       0.505
       0.453
       0.476
       0.683
       1.029
       1.183
       0.716
      -0.461
      -1.860
      -2.693
      -2.484
      -1.432
      -0.205
       0.609
       0.860
       0.738
       0.452
       0.085
      -0.306
      -0.591
      -0.642
      -0.463
      -0.176
       0.119
       0.390
       0.565
       0.458
      -0.085
      -0.913
      -1.548
      -1.543
      -0.908
      -0.135
       0.280
       0.333
       0.474
       1.029
       1.726
       1.878
       1.114
      -0.126
      -0.896
      -0.594
       0.474
       1.368
       1.343
       0.437
      -0.677
      -1.329
      -1.331
      -0.932
      -0.454
      -0.027
       0.384
       0.780
       1.010
       0.853
       0.222
      -0.670
      -1.376
      -1.495
      -0.970
      -0.128
       0.595
       0.996
       1.202
       1.421
       1.644
       1.601
       1.046
       0.057
      -0.938
      -1.452
      -1.247
      -0.460
       0.513
       1.229
       1.402
       1.030
       0.404
      -0.055
      -0.060
       0.340
       0.795
       0.913
       0.564
      -0.052
      -0.589
      -0.844
      -0.889
      -0.959
      -1.194
      -1.451
      -1.385
      -0.752
       0.310
       1.293
       1.687
       1.369
       0.663
      -0.017
      -0.564
      -1.188
      -2.037
      -2.848
      -3.049
      -2.240
      -0.633
       1.010
       1.890
       1.732
       0.927
       0.173
      -0.041
       0.280
       0.772
       1.092
       1.161
       1.092
       0.940
       0.618
       0.073
      -0.535
      -0.924
      -0.990
      -0.956
      -1.135
      -1.525
      -1.710
      -1.241
      -0.136
       1.040
       1.626
       1.412
       0.774
       0.299
       0.329
       0.804
       1.424
       1.860
       1.829
       1.125
      -0.252
      -1.931
      -3.240
      -3.566
      -2.780
      -1.317
       0.164
       1.228
       1.801
       1.936
       1.565
       0.569
      -0.887
      -2.217
      -2.717
      -2.121
      -0.854
       0.314
       0.877
       0.907
       0.810
       0.830
       0.831
       0.544
      -0.077
      -0.806
      -1.400
      -1.795
      -1.997
      -1.868
      -1.138
       0.283
       2.041
       3.461
       3.978
       3.493
       2.343
       0.984
      -0.283
      -1.318
      -2.023
      -2.293
      -2.110
      -1.614
      -1.023
      -0.449
       0.183
       0.998
       1.919
       2.560
       2.433
       1.348
      -0.338
      -1.866
      -2.520
      -2.055
      -0.778
       0.719
       1.949
       2.705
       2.985
       2.817
       2.199
       1.159
      -0.172
      -1.571
      -2.784
      -3.548
      -3.602
      -2.783
      -1.222
       0.572
       1.912
       2.351
       1.980
       1.322
       0.901
       0.840
       0.834
       0.511
      -0.174
      -0.882
      -1.196
      -0.988
      -0.503
      -0.086
       0.121
       0.218
       0.288
       0.167
      -0.423
      -1.502
      -2.643
      -3.231
      -2.948
      -1.965
      -0.667
       0.704
       2.073
       3.250
       3.799
       3.293
       1.721
      -0.416
      -2.439
      -3.915
      -4.754
      -4.994
      -4.593
      -3.477
      -1.734
       0.301
       2.193
       3.631
       4.502
       4.789
       4.450
       3.430
       1.785
      -0.192
      -1.986
      -3.051
      -3.084
      -2.210
      -0.905
       0.311
       1.184
       1.774
       2.238
       2.568
       2.574
       2.092
       1.171
       0.060
      -0.978
      -1.798
      -2.356
      -2.631
      -2.606
      -2.280
      -1.672
      -0.772
       0.418
       1.763
       2.898
       3.346
       2.833
       1.557
       0.148
      -0.726
      -0.795
      -0.353
      -0.018
      -0.274
      -1.132
      -2.134
      -2.685
      -2.462
      -1.590
      -0.488
       0.460
       1.114
       1.548
       1.862
       2.057
       2.036
       1.712
       1.112
       0.391
      -0.257
      -0.730
      -1.062
      -1.347
      -1.606
      -1.727
      -1.564
      -1.092
      -0.456
       0.156
       0.692
       1.261
       1.939
       2.581
       2.857
       2.519
       1.636
       0.540
      -0.439
      -1.153
      -1.589
      -1.695
      -1.353
      -0.538
       0.507
       1.310
       1.447
       0.850
      -0.135
      -0.991
      -1.397
      -1.430
      -1.420
      -1.589
      -1.792
      -1.597
      -0.668
       0.926
       2.733
       4.253
       5.235
       5.671
       5.582
       4.896
       3.559
       1.720
      -0.290
      -2.147
      -3.650
      -4.629
      -4.865
      -4.224
      -2.911
      -1.508
      -0.609
      -0.358
      -0.381
      -0.231
       0.112
       0.247
      -0.160
      -0.909
      -1.366
      -1.029
      -0.024
       0.959
       1.242
       0.702
      -0.195
      -0.865
      -1.092
      -1.105
      -1.217
      -1.435
      -1.433
      -0.898
       0.113
       1.169
       1.815
       1.918
       1.655
       1.209
       0.542
      -0.475
      -1.743
      -2.804
      -3.122
      -2.512
      -1.318
      -0.182
       0.411
       0.422
       0.215
       0.255
       0.787
       1.671
       2.431
       2.500
       1.593
      -0.020
      -1.583
      -2.323
      -1.980
      -0.950
       0.121
       0.872
       1.383
       1.836
       2.143
       2.004
       1.327
       0.488
       0.059
       0.249
       0.687
       0.804
       0.439
       0.005
       0.074
       0.825
       1.903
       2.748
       2.970
       2.482
       1.418
       0.050
      -1.292
      -2.340
      -3.026
      -3.488
      -3.859
      -4.018
      -3.596
      -2.307
      -0.324
       1.681
       2.937
       3.094
       2.409
       1.447
       0.584
      -0.218
      -1.187
      -2.331
      -3.304
      -3.702
      -3.471
      -2.951
      -2.468
      -1.925
      -0.898
       0.786
       2.602
       3.570
       3.032
       1.245
      -0.805
      -2.131
      -2.315
      -1.499
      -0.039
       1.693
       3.253
       4.111
       3.917
       2.825
       1.488
       0.592
       0.326
       0.282
      -0.096
      -0.926
      -1.711
      -1.745
      -0.757
       0.789
       2.018
       2.360
       2.001
       1.641
       1.750
       2.065
       1.817
       0.512
      -1.520
      -3.340
      -4.149
      -3.866
      -3.019
      -2.181
      -1.514
      -0.796
       0.215
       1.486
       2.677
       3.324
       3.040
       1.678
      -0.559
      -3.106
      -5.240
      -6.415
      -6.490
      -5.648
      -4.124
      -2.043
       0.461
       3.059
       5.229
       6.498
       6.687
       5.929
       4.456
       2.415
      -0.100
      -2.820
      -5.136
      -6.238
      -5.561
      -3.238
      -0.148
       2.588
       4.301
       5.082
       5.418
       5.513
       5.016
       3.458
       0.944
      -1.692
      -3.445
      -3.875
      -3.308
      -2.372
      -1.423
      -0.412
       0.799
       2.110
       3.158
       3.518
       2.887
       1.175
      -1.338
      -3.865
      -5.297
      -4.856
      -2.779
      -0.278
       1.356
       1.765
       1.646
       1.845
       2.347
       2.214
       0.565
      -2.403
      -5.388
      -6.993
      -6.770
      -5.368
      -3.741
      -2.293
      -0.761
       1.148
       3.132
       4.381
       4.271
       2.939
       1.157
      -0.281
      -1.037
      -1.197
      -0.951
      -0.387
       0.478
       1.576
       2.779
       3.949
       4.931
       5.492
       5.372
       4.485
       3.083
       1.641
       0.494
      -0.425
      -1.408
      -2.525
      -3.398
      -3.513
      -2.796
      -1.841
      -1.487
      -2.069
      -3.058
      -3.456
      -2.635
      -0.901
       0.725
       1.331
       0.786
      -0.343
      -1.422
      -2.221
      -2.828
      -3.303
      -3.595
      -3.757
      -4.030
      -4.525
      -4.822
      -4.084
      -1.746
       1.815
       5.341
       7.502
       7.797
       6.784
       5.484
       4.524
       3.802
       2.884
       1.709
       0.821
       0.868
       1.864
       2.991
       3.258
       2.440
       1.361
       1.176
       2.276
       3.849
       4.560
       3.703
       1.766
      -0.043
      -0.788
      -0.424
       0.373
       0.792
       0.318
      -1.213
      -3.723
      -6.933
     -10.307
     -13.081
     -14.457
     -13.888
     -11.308
      -7.223
      -2.634
       1.284
       3.681
       4.434
       4.109
       3.462
       2.835
       2.017
       0.661
      -1.168
      -2.863
      -3.639
      -3.040
      -1.183
       1.375
       3.988
       6.204
       7.828
       8.792
       9.023
       8.432
       7.025
       4.938
       2.383
      -0.328
      -2.658
      -3.897
      -3.523
      -1.617
       1.024
       3.261
       4.230
       3.738
       2.160
       0.044
      -2.181
      -4.216
      -5.797
      -6.685
      -6.801
      -6.360
      -5.744
      -5.182
      -4.653
      -4.158
      -3.925
      -4.147
      -4.498
      -4.106
      -2.249
       0.813
       3.768
       5.254
       5.111
       4.608
       5.215
       7.021
       8.444
       7.645
       4.334
       0.206
      -2.426
      -2.535
      -1.056
       0.168
       0.047
      -1.003
      -1.692
      -1.077
       0.750
       2.840
       4.052
       3.665
       1.666
      -1.294
      -4.203
      -6.152
      -6.728
      -6.092
      -4.679
      -2.782
      -0.467
       2.089
       4.278
       5.255
       4.559
       2.587
       0.401
      -1.004
      -1.325
      -0.932
      -0.341
       0.210
       0.732
       1.229
       1.609
       1.823
       1.959
       2.094
       2.055
       1.434
      -0.054
      -2.154
      -4.056
      -4.879
      -4.273
      -2.632
      -0.721
       0.975
       2.594
       4.639
       7.315
      10.101
      11.979
      12.153
      10.575
       7.817
       4.508
       0.967
      -2.623
      -5.820
      -7.906
      -8.378
      -7.498
      -6.230
      -5.552
      -5.758
      -6.425
      -6.988
      -7.272
      -7.433
      -7.465
      -6.908
      -5.146
      -2.011
       1.942
       5.742
       8.525
       9.852
       9.709
       8.375
       6.302
       3.967
       1.716
      -0.310
      -2.024
      -3.113
      -2.957
      -1.030
       2.460
       6.314
       8.919
       9.329
       7.956
       6.189
       5.149
       4.683
       3.552
       0.698
      -3.625
      -7.970
     -10.918
     -12.161
     -12.433
     -12.476
     -12.201
     -10.946
      -8.464
      -5.458
      -3.025
      -1.623
      -0.729
       0.450
       2.058
       3.538
       4.458
       5.152
       6.298
       7.871
       8.746
       7.624
       4.433
       0.691
      -1.740
      -2.342
      -2.312
      -3.192
      -5.180
      -6.903
      -6.832
      -4.774
      -1.954
       0.215
       1.254
       1.593
       1.733
       1.700
       1.342
       0.911
       1.042
       2.058
       3.446
       4.260
       4.082
       3.459
       3.260
       3.686
       4.058
       3.622
       2.469
       1.518
       1.574
       2.498
       3.396
       3.530
       2.886
       1.816
       0.301
      -2.155
      -5.840
     -10.132
     -13.620
     -14.970
     -13.718
     -10.390
      -6.083
      -1.961
       1.084
       2.667
       3.028
       2.872
       2.830
       2.903
       2.432
       0.788
      -1.817
      -4.230
      -5.194
      -4.374
      -2.592
      -1.011
      -0.080
       0.758
       2.303
       4.574
       6.540
       6.934
       5.386
       2.811
       0.697
      -0.013
       0.582
       1.782
       3.056
       4.357
       5.821
       7.324
       8.481
       9.078
       9.348
       9.616
       9.609
       8.300
       4.672
      -1.204
      -7.791
     -12.852
     -14.793
     -13.565
     -10.472
      -7.135
      -4.516
      -2.703
      -1.417
      -0.568
      -0.325
      -0.746
      -1.496
      -2.015
      -1.948
      -1.377
      -0.620
       0.128
       0.933
       1.890
       2.852
       3.477
       3.540
       3.136
       2.535
       1.885
       1.127
       0.182
      -0.875
      -1.877
      -2.761
      -3.605
      -4.423
      -4.966
      -4.830
      -3.839
      -2.273
      -0.673
       0.619
       1.668
       2.690
       3.648
       4.192
       4.045
       3.379
       2.708
       2.381
       2.249
       1.932
       1.369
       0.953
       1.053
       1.432
       1.298
       0.022
      -2.132
      -4.028
      -4.460
      -3.021
      -0.305
       2.615
       4.888
       6.187
       6.515
       5.908
       4.419
       2.329
       0.203
      -1.413
      -2.375
      -3.005
      -3.754
      -4.760
      -5.702
      -6.085
      -5.718
      -4.941
      -4.370
      -4.372
      -4.744
      -4.894
      -4.383
      -3.305
      -2.134
      -1.205
      -0.385
       0.721
       2.248
       3.819
       4.797
       4.765
       3.784
       2.278
       0.734
      -0.504
      -1.247
      -1.394
      -0.920
       0.077
       1.360
       2.573
       3.322
       3.330
       2.648
       1.706
       1.059
       0.947
       1.090
       0.932
       0.168
      -0.936
      -1.723
      -1.688
      -0.891
       0.095
       0.627
       0.415
      -0.374
      -1.274
      -1.721
      -1.234
       0.376
       2.826
       5.407
       7.325
       8.160
       8.029
       7.295
       6.084
       4.148
       1.276
      -2.196
      -5.348
      -7.257
      -7.680
      -7.186
      -6.603
      -6.316
      -6.125
      -5.691
      -5.023
      -4.492
      -4.443
      -4.876
      -5.490
      -5.930
      -5.915
      -5.187
      -3.523
      -0.962
       2.027
       4.729
       6.673
       7.920
       8.812
       9.468
       9.627
       9.045
       7.942
       6.918
       6.364
       6.014
       5.144
       3.258
       0.616
      -1.917
      -3.588
      -4.330
      -4.679
      -5.167
      -5.829
      -6.309
      -6.337
      -5.998
      -5.509
      -4.852
      -3.752
      -2.087
      -0.276
       0.835
       0.604
      -0.747
      -2.109
      -2.287
      -1.017
       0.774
       1.784
       1.478
       0.492
      -0.015
       0.600
       2.001
       3.299
       3.832
       3.591
       3.044
       2.650
       2.525
       2.462
       2.182
       1.559
       0.643
      -0.489
      -1.814
      -3.266
      -4.567
      -5.208
      -4.712
      -2.997
      -0.540
       1.860
       3.546
       4.354
       4.601
       4.710
       4.796
       4.538
       3.479
       1.465
      -1.109
      -3.467
      -4.873
      -5.028
      -4.142
      -2.742
      -1.417
      -0.619
      -0.511
      -0.856
      -1.066
      -0.528
       0.922
       2.731
       3.896
       3.671
       2.172
       0.350
      -0.711
      -0.614
       0.099
       0.456
      -0.092
      -1.212
      -1.977
      -1.691
      -0.563
       0.353
      -0.047
      -2.018
      -4.734
      -6.907
      -7.724
      -7.293
      -6.310
      -5.324
      -4.300
      -2.773
      -0.370
       2.793
       6.078
       8.620
       9.753
       9.332
       7.793
       5.883
       4.200
       2.838
       1.470
      -0.137
      -1.647
      -2.270
      -1.534
       0.057
       1.277
       1.262
       0.386
      -0.043
       0.926
       2.871
       4.323
       4.135
       2.497
       0.569
      -0.776
      -1.689
      -2.859
      -4.505
      -6.003
      -6.517
      -5.843
      -4.559
      -3.363
      -2.377
      -1.174
       0.520
       2.276
       3.204
       2.751
       1.233
      -0.418
      -1.334
      -1.161
       0.003
       1.844
       3.892
       5.509
       6.091
       5.442
       3.953
       2.325
       1.005
      -0.120
      -1.455
      -3.115
      -4.673
      -5.533
      -5.553
      -5.229
      -5.215
      -5.628
      -5.835
      -4.987
      -2.860
      -0.206
       1.770
       2.362
       1.834
       1.019
       0.476
       0.093
      -0.532
      -1.425
      -2.043
      -1.751
      -0.383
       1.648
       3.714
       5.333
       6.251
       6.360
       5.744
       4.850
       4.418
       4.986
       6.330
       7.470
       7.390
       5.833
       3.437
       1.116
      -0.636
      -1.866
      -2.746
      -3.235
      -3.223
      -2.925
      -2.949
      -3.831
      -5.489
      -7.168
      -8.025
      -7.820
      -7.055
      -6.420
      -6.135
      -5.807
      -4.885
      -3.190
      -1.030
       1.084
       2.754
       3.796
       4.242
       4.328
       4.417
       4.798
       5.476
       6.192
       6.664
       6.776
       6.513
       5.792
       4.488
       2.670
       0.746
      -0.748
      -1.613
      -2.232
      -3.239
      -4.877
      -6.631
      -7.499
      -6.718
      -4.403
      -1.569
       0.523
       1.233
       0.958
       0.736
       1.361
       2.717
