Origin Time       05/3/2012 07:41:05	
Lat.              28.7 N	
Long.             76.6 E	
Depth (Km)         14.0
Magnitude         4.9
 Region           Haryana-Delhi-Border-Region                                      
 Above details taken from IMD 
   
Station Code      DJB
Station Lat.       28.652
Station Long.      77.188
Station Height(m)  235.0
Site Class        A   Vs30 between 700 m/sec to 1400 m/sec * 
Record Time       05.03.2012 06:16:02.819
Sampling Rate     200. Hz
 Record Duration   94.340 Sec.
 Direction         Vert. (Up positive)
Max. Acceleration      1.754 cm/sec**2
     
  * For reference see Site Classification link of website 
     
 Base Line Corrected and Low Pass Filtered (Cut Off at 35 Hz) Time History
 Acceleration data in cm/sec**2
    
[...]
       0.468
       0.327
       0.121
      -0.094
      -0.245
      -0.292
      -0.249
      -0.163
      -0.074
      -0.001
       0.048
       0.061
       0.033
      -0.016
      -0.052
      -0.050
      -0.026
      -0.028
      -0.097
      -0.223
      -0.346
      -0.390
      -0.324
      -0.183
      -0.047
       0.015
      -0.009
      -0.070
      -0.102
      -0.074
      -0.017
       0.001
      -0.067
      -0.203
      -0.338
      -0.399
      -0.361
      -0.246
      -0.101
       0.031
       0.118
       0.139
       0.090
      -0.013
      -0.143
      -0.274
      -0.379
      -0.431
      -0.403
      -0.286
      -0.103
       0.095
       0.260
       0.365
       0.415
       0.431
       0.432
       0.419
       0.387
       0.336
       0.277
       0.216
       0.139
       0.029
      -0.110
      -0.241
      -0.322
      -0.346
      -0.340
      -0.333
      -0.322
      -0.278
      -0.176
      -0.022
       0.155
       0.313
       0.416
       0.440
       0.388
       0.287
       0.164
       0.027
      -0.125
      -0.276
      -0.389
      -0.425
      -0.379
      -0.282
      -0.171
      -0.065
       0.043
       0.165
       0.293
       0.394
       0.425
       0.368
       0.253
       0.138
       0.068
       0.047
       0.044
       0.028
      -0.003
      -0.032
      -0.030
       0.018
       0.105
       0.203
       0.274
       0.282
       0.203
       0.033
      -0.191
      -0.387
      -0.471
      -0.404
      -0.232
      -0.047
       0.072
       0.105
       0.092
       0.091
       0.139
       0.218
       0.273
       0.258
       0.173
       0.064
      -0.024
      -0.076
      -0.100
      -0.102
      -0.085
      -0.056
      -0.033
      -0.017
       0.010
       0.073
       0.179
       0.312
       0.440
       0.516
       0.496
       0.358
       0.129
      -0.114
      -0.281
      -0.324
      -0.265
      -0.176
      -0.124
      -0.132
      -0.175
      -0.208
      -0.195
      -0.133
      -0.047
       0.023
       0.046
       0.027
       0.005
       0.019
       0.068
       0.093
       0.028
      -0.136
      -0.319
      -0.407
      -0.336
      -0.143
       0.063
       0.185
       0.188
       0.103
      -0.013
      -0.112
      -0.171
      -0.189
      -0.181
      -0.174
      -0.204
      -0.286
      -0.396
      -0.468
      -0.434
      -0.276
      -0.037
       0.200
       0.361
       0.409
       0.359
       0.269
       0.196
       0.167
       0.160
       0.128
       0.039
      -0.092
      -0.209
      -0.254
      -0.204
      -0.088
       0.028
       0.096
       0.108
       0.097
       0.089
       0.077
       0.033
      -0.051
      -0.146
      -0.206
      -0.204
      -0.145
      -0.043
       0.093
       0.252
       0.391
       0.441
       0.341
       0.092
      -0.222
      -0.473
      -0.550
      -0.421
      -0.149
       0.138
       0.312
       0.324
       0.220
       0.103
       0.058
       0.103
       0.189
       0.246
       0.235
       0.169
       0.093
       0.055
       0.062
       0.080
       0.055
      -0.045
      -0.194
      -0.319
      -0.342
      -0.234
      -0.038
       0.164
       0.306
       0.372
       0.395
       0.417
       0.453
       0.478
       0.451
       0.352
       0.209
       0.080
       0.020
       0.038
       0.089
       0.098
       0.017
      -0.133
      -0.278
      -0.339
      -0.279
      -0.124
       0.059
       0.186
       0.206
       0.119
      -0.021
      -0.154
      -0.242
      -0.286
      -0.294
      -0.262
      -0.186
      -0.074
       0.044
       0.132
       0.159
       0.110
       0.011
      -0.080
      -0.110
      -0.088
      -0.076
      -0.125
      -0.218
      -0.287
      -0.284
      -0.218
      -0.128
      -0.043
       0.034
       0.106
       0.166
       0.208
       0.243
       0.285
       0.319
       0.305
       0.206
       0.029
      -0.182
      -0.381
      -0.543
      -0.658
      -0.716
      -0.702
      -0.608
      -0.452
      -0.271
      -0.113
      -0.003
       0.067
       0.126
       0.208
       0.328
       0.482
       0.646
       0.773
       0.802
       0.686
       0.435
       0.121
      -0.151
      -0.319
      -0.388
      -0.411
      -0.441
      -0.487
      -0.510
      -0.455
      -0.298
      -0.081
       0.107
       0.188
       0.154
       0.064
      -0.004
      -0.004
       0.051
       0.113
       0.132
       0.090
       0.005
      -0.081
      -0.134
      -0.145
      -0.136
      -0.134
      -0.151
      -0.156
      -0.096
       0.054
       0.258
       0.429
       0.496
       0.449
       0.333
       0.202
       0.089
       0.016
       0.013
       0.098
       0.239
       0.340
       0.306
       0.133
      -0.062
      -0.127
      -0.006
       0.196
       0.290
       0.163
      -0.129
      -0.429
      -0.603
      -0.617
      -0.502
      -0.300
      -0.046
       0.212
       0.398
       0.448
       0.352
       0.170
      -0.007
      -0.105
      -0.095
       0.001
       0.132
       0.227
       0.224
       0.113
      -0.047
      -0.164
      -0.180
      -0.129
      -0.109
      -0.202
      -0.391
      -0.561
      -0.577
      -0.387
      -0.066
       0.232
       0.377
       0.335
       0.174
      -0.002
      -0.119
      -0.165
      -0.178
      -0.211
      -0.288
      -0.377
      -0.393
      -0.263
       0.008
       0.307
       0.479
       0.435
       0.212
      -0.057
      -0.238
      -0.270
      -0.183
      -0.056
       0.044
       0.095
       0.103
       0.070
      -0.007
      -0.104
      -0.154
      -0.086
       0.108
       0.345
       0.505
       0.517
       0.387
       0.178
      -0.030
      -0.173
      -0.226
      -0.213
      -0.183
      -0.166
      -0.157
      -0.139
      -0.118
      -0.122
      -0.170
      -0.247
      -0.307
      -0.307
      -0.229
      -0.097
       0.026
       0.064
      -0.015
      -0.158
      -0.240
      -0.161
       0.060
       0.283
       0.360
       0.251
       0.047
      -0.111
      -0.126
       0.014
       0.240
       0.434
       0.477
       0.320
       0.022
      -0.272
      -0.425
      -0.384
      -0.201
       0.015
       0.164
       0.198
       0.134
       0.033
      -0.032
      -0.017
       0.068
       0.169
       0.231
       0.231
       0.193
       0.170
       0.210
       0.326
       0.483
       0.606
       0.628
       0.544
       0.423
       0.359
       0.394
       0.484
       0.544
       0.518
       0.428
       0.350
       0.347
       0.414
       0.468
       0.415
       0.222
      -0.042
      -0.245
      -0.278
      -0.136
       0.088
       0.271
       0.351
       0.360
       0.375
       0.436
       0.516
       0.558
       0.536
       0.464
       0.357
       0.193
      -0.051
      -0.337
      -0.548
      -0.560
      -0.343
      -0.006
       0.270
       0.341
       0.180
      -0.112
      -0.373
      -0.474
      -0.391
      -0.201
      -0.022
       0.049
      -0.040
      -0.283
      -0.607
      -0.882
      -0.979
      -0.859
      -0.601
      -0.347
      -0.207
      -0.211
      -0.327
      -0.493
      -0.636
      -0.712
      -0.741
      -0.797
      -0.940
      -1.138
      -1.274
      -1.245
      -1.044
      -0.759
      -0.513
      -0.389
      -0.386
      -0.427
      -0.413
      -0.300
      -0.138
      -0.029
      -0.040
      -0.125
      -0.145
       0.021
       0.366
       0.752
       1.011
       1.066
       0.965
       0.811
       0.680
       0.602
       0.577
       0.586
       0.590
       0.545
       0.438
       0.323
       0.283
       0.356
       0.495
       0.599
       0.593
       0.477
       0.304
       0.120
      -0.059
      -0.222
      -0.338
      -0.368
      -0.286
      -0.093
       0.187
       0.482
       0.680
       0.683
       0.499
       0.265
       0.139
       0.162
       0.226
       0.180
      -0.015
      -0.246
      -0.355
      -0.276
      -0.083
       0.074
       0.076
      -0.094
      -0.360
      -0.616
      -0.793
      -0.881
      -0.898
      -0.849
      -0.719
      -0.504
      -0.243
      -0.017
       0.110
       0.135
       0.106
       0.061
      -0.018
      -0.157
      -0.332
      -0.460
      -0.464
      -0.339
      -0.150
       0.016
       0.109
       0.123
       0.090
       0.048
       0.024
       0.008
      -0.037
      -0.122
      -0.200
      -0.193
      -0.069
       0.116
       0.268
       0.328
       0.291
       0.176
       0.007
      -0.169
      -0.277
      -0.269
      -0.172
      -0.075
      -0.041
      -0.058
      -0.064
      -0.002
       0.146
       0.365
       0.619
       0.848
       0.978
       0.950
       0.756
       0.443
       0.079
      -0.267
      -0.525
      -0.633
      -0.572
      -0.400
      -0.231
      -0.154
      -0.161
      -0.165
      -0.081
       0.098
       0.322
       0.545
       0.751
       0.921
       1.005
       0.968
       0.847
       0.744
       0.730
       0.760
       0.706
       0.476
       0.101
      -0.297
      -0.583
      -0.684
      -0.598
      -0.386
      -0.154
      -0.012
      -0.022
      -0.155
      -0.309
      -0.391
      -0.393
      -0.383
      -0.416
      -0.469
      -0.456
      -0.318
      -0.084
       0.145
       0.270
       0.257
       0.171
       0.136
       0.250
       0.494
       0.713
       0.711
       0.402
      -0.106
      -0.560
      -0.714
      -0.494
      -0.037
       0.391
       0.576
       0.482
       0.264
       0.140
       0.225
       0.444
       0.597
       0.528
       0.251
      -0.088
      -0.342
      -0.461
      -0.461
      -0.358
      -0.161
       0.079
       0.249
       0.247
       0.071
      -0.166
      -0.336
      -0.405
      -0.429
      -0.461
      -0.472
      -0.398
      -0.231
      -0.041
       0.111
       0.239
       0.395
       0.560
       0.620
       0.466
       0.125
      -0.260
      -0.553
      -0.737
      -0.877
      -1.014
      -1.103
      -1.068
      -0.884
      -0.603
      -0.298
      -0.007
       0.263
       0.486
       0.603
       0.566
       0.399
       0.197
       0.059
       0.014
       0.027
       0.056
       0.082
       0.095
       0.071
      -0.004
      -0.101
      -0.170
      -0.187
      -0.177
      -0.172
      -0.167
      -0.124
      -0.021
       0.126
       0.282
       0.432
       0.566
       0.645
       0.610
       0.431
       0.158
      -0.105
      -0.269
      -0.308
      -0.257
      -0.172
      -0.107
      -0.088
      -0.112
      -0.149
      -0.176
      -0.193
      -0.230
      -0.304
      -0.390
      -0.408
      -0.279
       0.017
       0.412
       0.785
       1.015
       1.030
       0.841
       0.547
       0.274
       0.099
       0.006
      -0.089
      -0.258
      -0.482
      -0.647
      -0.615
      -0.338
       0.099
       0.508
       0.712
       0.628
       0.303
      -0.137
      -0.553
      -0.848
      -0.988
      -0.988
      -0.900
      -0.773
      -0.638
      -0.506
      -0.385
      -0.280
      -0.177
      -0.052
       0.109
       0.297
       0.509
       0.755
       1.010
       1.175
       1.122
       0.800
       0.311
      -0.144
      -0.400
      -0.421
      -0.287
      -0.101
       0.092
       0.318
       0.610
       0.931
       1.152
       1.131
       0.831
       0.384
       0.020
      -0.090
       0.049
       0.264
       0.346
       0.187
      -0.142
      -0.430
      -0.464
      -0.209
       0.117
       0.192
      -0.125
      -0.637
      -0.946
      -0.797
      -0.274
       0.313
       0.695
       0.814
       0.768
       0.661
       0.518
       0.316
       0.035
      -0.294
      -0.578
      -0.692
      -0.563
      -0.253
       0.036
       0.087
      -0.179
      -0.640
      -1.058
      -1.222
      -1.047
      -0.596
      -0.040
       0.415
       0.625
       0.573
       0.353
       0.092
      -0.114
      -0.218
      -0.214
      -0.132
      -0.041
      -0.013
      -0.086
      -0.239
      -0.392
      -0.454
      -0.396
      -0.278
      -0.206
      -0.209
      -0.191
      -0.016
       0.350
       0.751
       0.934
       0.732
       0.225
      -0.300
      -0.547
      -0.434
      -0.128
       0.130
       0.217
       0.185
       0.148
       0.153
       0.139
       0.011
      -0.261
      -0.603
      -0.872
      -0.961
      -0.865
      -0.683
      -0.535
      -0.476
      -0.466
      -0.430
      -0.339
      -0.225
      -0.137
      -0.079
      -0.011
       0.085
       0.165
       0.168
       0.098
       0.042
       0.083
       0.206
       0.293
       0.223
      -0.011
      -0.278
      -0.395
      -0.265
       0.041
       0.351
       0.536
       0.614
       0.674
       0.737
       0.719
       0.560
       0.330
       0.188
       0.235
       0.445
       0.718
       0.943
       1.009
       0.822
       0.372
      -0.197
      -0.640
      -0.768
      -0.577
      -0.250
      -0.018
      -0.009
      -0.178
      -0.381
      -0.505
      -0.549
      -0.596
      -0.711
      -0.867
      -0.951
      -0.834
      -0.444
       0.190
       0.922
       1.516
       1.754
       1.577
       1.134
       0.671
       0.341
       0.122
      -0.076
      -0.252
      -0.307
      -0.198
      -0.041
      -0.005
      -0.128
      -0.276
      -0.295
      -0.145
       0.086
       0.279
       0.355
       0.306
       0.194
       0.125
       0.170
       0.294
       0.361
       0.240
      -0.089
      -0.506
      -0.831
      -0.943
      -0.839
      -0.607
      -0.352
      -0.135
       0.035
       0.158
       0.201
       0.127
      -0.038
      -0.172
      -0.118
       0.171
       0.559
       0.798
       0.705
       0.311
      -0.137
      -0.337
      -0.166
       0.193
       0.384
       0.179
      -0.317
      -0.773
      -0.922
      -0.751
      -0.443
      -0.208
      -0.151
      -0.256
      -0.416
      -0.491
      -0.399
      -0.194
      -0.035
      -0.063
      -0.270
      -0.499
      -0.572
      -0.433
      -0.176
       0.051
       0.177
       0.258
       0.402
       0.643
       0.891
       0.996
       0.869
       0.551
       0.178
      -0.116
      -0.272
      -0.317
      -0.322
      -0.328
      -0.313
      -0.225
      -0.059
       0.107
       0.158
       0.047
      -0.156
      -0.299
      -0.256
      -0.021
       0.269
       0.443
       0.416
       0.231
      -0.008
      -0.202
      -0.257
      -0.103
       0.249
       0.664
       0.938
       0.930
       0.657
       0.260
      -0.087
      -0.267
      -0.256
      -0.104
       0.111
       0.329
       0.516
       0.628
       0.599
       0.377
      -0.002
      -0.397
      -0.648
      -0.699
      -0.619
      -0.509
      -0.406
      -0.314
      -0.273
      -0.338
      -0.454
      -0.439
      -0.153
       0.300
       0.619
       0.588
       0.285
      -0.005
      -0.084
      -0.004
       0.036
      -0.084
      -0.310
      -0.503
      -0.583
      -0.566
      -0.521
      -0.484
      -0.428
      -0.262
       0.083
       0.554
       0.948
       1.038
       0.743
       0.206
      -0.315
      -0.615
      -0.640
      -0.454
      -0.163
       0.133
       0.344
       0.394
       0.263
       0.013
      -0.234
      -0.378
      -0.408
      -0.379
      -0.337
      -0.270
      -0.129
       0.100
       0.362
       0.550
       0.580
       0.456
       0.271
       0.127
       0.040
      -0.061
      -0.231
      -0.413
      -0.481
      -0.380
      -0.218
      -0.172
      -0.305
      -0.467
      -0.405
       0.009
       0.633
       1.127
       1.196
       0.790
       0.126
      -0.484
      -0.825
      -0.859
      -0.682
      -0.429
      -0.201
      -0.044
       0.040
       0.085
       0.138
       0.234
       0.348
       0.395
       0.291
       0.037
      -0.252
      -0.416
      -0.378
      -0.204
      -0.042
       0.014
      -0.022
      -0.083
      -0.129
      -0.150
      -0.137
      -0.075
       0.038
       0.184
       0.341
       0.484
       0.560
       0.496
       0.265
      -0.051
      -0.290
      -0.336
      -0.205
      -0.034
       0.046
       0.004
      -0.082
      -0.116
      -0.060
       0.069
       0.234
       0.406
       0.533
       0.535
       0.369
       0.090
      -0.170
      -0.317
      -0.363
      -0.382
      -0.419
      -0.457
      -0.448
      -0.342
      -0.114
       0.209
       0.511
       0.636
       0.507
       0.221
       0.003
       0.031
       0.312
       0.691
       0.963
       0.975
       0.699
       0.253
      -0.155
      -0.360
      -0.356
      -0.310
      -0.426
      -0.769
      -1.190
      -1.413
      -1.232
      -0.669
       0.033
       0.590
       0.870
       0.944
       0.940
       0.881
       0.665
       0.235
      -0.291
      -0.678
      -0.767
      -0.593
      -0.310
      -0.041
       0.161
       0.254
       0.182
      -0.044
      -0.286
      -0.382
      -0.300
      -0.162
      -0.090
      -0.072
      -0.013
       0.132
       0.303
       0.404
       0.403
       0.345
       0.301
       0.317
       0.384
       0.445
       0.431
       0.306
       0.099
      -0.108
      -0.241
      -0.274
      -0.232
      -0.153
      -0.061
       0.015
       0.019
      -0.113
      -0.377
      -0.657
      -0.774
      -0.631
      -0.305
       0.022
       0.218
       0.296
       0.342
       0.389
       0.372
       0.225
       0.008
      -0.116
      -0.050
       0.107
       0.131
      -0.108
      -0.497
      -0.770
      -0.724
      -0.375
       0.083
       0.435
       0.593
       0.611
       0.574
       0.469
       0.189
      -0.313
      -0.870
      -1.150
      -0.920
      -0.286
       0.356
       0.637
       0.501
       0.189
      -0.037
      -0.121
      -0.194
      -0.393
      -0.716
      -1.026
      -1.145
      -0.954
      -0.456
       0.211
       0.822
       1.174
       1.221
       1.105
       1.035
       1.066
       1.041
       0.756
       0.211
      -0.342
      -0.605
      -0.495
      -0.210
      -0.042
      -0.135
      -0.379
      -0.535
      -0.457
      -0.205
       0.038
       0.141
       0.119
       0.059
       0.012
      -0.016
      -0.014
       0.050
       0.176
       0.305
       0.384
       0.429
       0.494
       0.577
       0.596
       0.469
       0.200
      -0.130
      -0.434
      -0.657
      -0.764
      -0.725
      -0.534
      -0.233
       0.069
       0.230
       0.158
      -0.106
      -0.382
      -0.466
      -0.279
       0.082
       0.418
       0.556
       0.449
       0.191
      -0.044
      -0.117
      -0.006
       0.187
       0.317
       0.286
       0.123
      -0.032
      -0.034
       0.127
       0.308
       0.352
       0.241
       0.085
      -0.031
