Origin Time       11/11/2013 20:11:30
Lat.              28.4 N	
Long.             77.2 E	
Depth (Km)         10.0
Magnitude         3.3
 Region           DELHI                                                            
 Above details taken from IMD 
     
Station Code      DJB
Station Lat.       28.652  N
Station Long.      77.188  E
Station Height(m)  235.0
Site Class        A   Vs30 between 700 m/sec to 1400 m/sec * 
Record Time       11.11.2013 15:20:17.174
Sampling Rate     200. Hz
 Record Duration   84.015 Sec.
 Direction         E-W (E positive)
Max. Acceleration      5.424 cm/sec**2
     
  * For reference see Site Classification link of website 
     
 Base Line Corrected and Low Pass Filtered (Cut Off at 35 Hz) Time History
 Acceleration data in cm/sec**2
    
[...]
       0.001
       0.001
      -0.006
      -0.013
      -0.014
      -0.005
       0.007
       0.011
       0.004
      -0.010
      -0.020
      -0.019
      -0.006
       0.008
       0.014
       0.010
       0.003
      -0.001
      -0.004
      -0.007
      -0.008
      -0.006
      -0.001
       0.006
       0.011
       0.010
       0.006
       0.003
       0.006
       0.014
       0.021
       0.021
       0.014
       0.006
       0.001
       0.001
       0.001
      -0.001
      -0.006
      -0.006
       0.000
       0.009
       0.011
       0.006
      -0.003
      -0.006
      -0.001
       0.008
       0.011
       0.006
      -0.002
      -0.005
       0.000
       0.006
       0.005
      -0.002
      -0.008
      -0.008
      -0.003
       0.000
      -0.002
      -0.005
      -0.003
       0.007
       0.017
       0.019
       0.007
      -0.011
      -0.023
      -0.022
      -0.013
      -0.006
      -0.005
      -0.010
      -0.012
      -0.006
       0.004
       0.010
       0.006
      -0.003
      -0.008
      -0.005
       0.002
       0.006
       0.005
       0.000
      -0.002
       0.002
       0.010
       0.015
       0.014
       0.008
       0.004
       0.003
       0.003
       0.003
       0.005
       0.008
       0.010
       0.010
       0.007
       0.002
      -0.002
       0.000
       0.007
       0.013
       0.013
       0.006
      -0.001
      -0.004
       0.000
       0.008
       0.017
       0.017
       0.008
      -0.007
      -0.017
      -0.019
      -0.016
      -0.013
      -0.009
      -0.004
       0.004
       0.010
       0.009
       0.000
      -0.012
      -0.016
      -0.006
       0.010
       0.020
       0.015
       0.003
      -0.007
      -0.006
       0.004
       0.013
       0.013
       0.007
       0.002
       0.003
       0.008
       0.008
       0.002
      -0.005
      -0.004
       0.004
       0.016
       0.022
       0.019
       0.010
       0.002
      -0.001
       0.000
       0.001
       0.001
       0.004
       0.010
       0.014
       0.012
       0.004
      -0.004
      -0.007
      -0.002
       0.006
       0.008
       0.003
      -0.006
      -0.009
      -0.002
       0.010
       0.018
       0.015
       0.006
      -0.004
      -0.005
      -0.001
       0.002
      -0.002
      -0.010
      -0.014
      -0.010
      -0.004
       0.001
       0.000
      -0.003
      -0.005
      -0.005
      -0.003
      -0.004
      -0.008
      -0.013
      -0.013
      -0.007
      -0.001
       0.002
       0.001
      -0.002
      -0.004
      -0.005
      -0.005
      -0.007
      -0.009
      -0.007
       0.000
       0.008
       0.008
       0.000
      -0.012
      -0.020
      -0.020
      -0.012
      -0.004
      -0.001
      -0.003
      -0.006
      -0.003
       0.003
       0.007
       0.005
      -0.001
      -0.005
      -0.002
       0.003
       0.004
       0.000
      -0.007
      -0.010
      -0.006
       0.000
       0.002
      -0.002
      -0.007
      -0.008
      -0.002
       0.006
       0.011
       0.008
       0.000
      -0.007
      -0.008
      -0.005
      -0.005
      -0.008
      -0.010
      -0.011
      -0.011
      -0.011
      -0.010
      -0.008
      -0.004
       0.002
       0.007
       0.009
       0.008
       0.004
       0.001
       0.002
       0.004
       0.002
      -0.002
      -0.008
      -0.013
      -0.013
      -0.009
      -0.005
      -0.005
      -0.006
      -0.005
       0.002
       0.008
       0.009
       0.002
      -0.008
      -0.014
      -0.014
      -0.010
      -0.008
      -0.011
      -0.015
      -0.014
      -0.007
       0.002
       0.006
       0.005
       0.000
      -0.001
       0.002
       0.006
       0.004
      -0.004
      -0.014
      -0.017
      -0.012
      -0.005
      -0.003
      -0.006
      -0.011
      -0.012
      -0.008
      -0.002
       0.002
       0.002
       0.001
       0.001
       0.003
       0.001
      -0.005
      -0.014
      -0.020
      -0.020
      -0.015
      -0.010
      -0.009
      -0.011
      -0.012
      -0.008
      -0.004
      -0.003
      -0.007
      -0.010
      -0.007
      -0.002
       0.002
       0.000
      -0.006
      -0.010
      -0.008
       0.000
       0.006
       0.002
      -0.009
      -0.019
      -0.019
      -0.008
       0.003
       0.007
       0.002
      -0.005
      -0.006
       0.001
       0.008
       0.007
      -0.001
      -0.008
      -0.008
      -0.002
       0.003
       0.002
      -0.003
      -0.004
       0.001
       0.011
       0.017
       0.013
       0.000
      -0.010
      -0.012
      -0.007
      -0.002
      -0.002
      -0.008
      -0.014
      -0.012
      -0.002
       0.010
       0.015
       0.011
       0.005
       0.001
       0.001
      -0.001
      -0.006
      -0.009
      -0.008
      -0.003
       0.003
       0.002
      -0.004
      -0.010
      -0.010
      -0.003
       0.005
       0.007
       0.001
      -0.009
      -0.016
      -0.016
      -0.012
      -0.008
      -0.008
      -0.007
      -0.001
       0.006
       0.007
      -0.003
      -0.018
      -0.027
      -0.021
      -0.007
       0.004
       0.002
      -0.011
      -0.021
      -0.018
      -0.005
       0.004
       0.000
      -0.010
      -0.016
      -0.010
       0.000
       0.005
      -0.002
      -0.015
      -0.023
      -0.019
      -0.009
      -0.003
      -0.006
      -0.010
      -0.010
      -0.005
       0.000
       0.000
      -0.005
      -0.009
      -0.009
      -0.004
       0.002
       0.003
      -0.001
      -0.006
      -0.005
      -0.001
       0.003
       0.002
      -0.003
      -0.008
      -0.007
       0.000
       0.007
       0.007
       0.002
      -0.003
      -0.003
       0.001
       0.005
       0.005
      -0.001
      -0.007
      -0.008
      -0.002
       0.004
       0.005
       0.002
       0.000
       0.004
       0.011
       0.015
       0.013
       0.007
       0.002
       0.004
       0.010
       0.012
       0.006
      -0.003
      -0.006
      -0.001
       0.005
       0.004
      -0.003
      -0.009
      -0.009
      -0.001
       0.008
       0.009
       0.003
      -0.003
      -0.002
       0.003
       0.006
       0.001
      -0.008
      -0.014
      -0.015
      -0.010
      -0.005
      -0.004
      -0.008
      -0.010
      -0.006
       0.002
       0.007
       0.003
      -0.008
      -0.019
      -0.023
      -0.020
      -0.013
      -0.010
      -0.011
      -0.011
      -0.005
       0.006
       0.013
       0.011
       0.002
      -0.005
      -0.005
       0.000
       0.005
       0.003
      -0.004
      -0.009
      -0.007
       0.000
       0.006
       0.005
      -0.001
      -0.005
      -0.004
       0.000
       0.001
      -0.002
      -0.008
      -0.011
      -0.009
      -0.006
      -0.008
      -0.016
      -0.022
      -0.021
      -0.013
      -0.003
       0.001
      -0.003
      -0.010
      -0.012
      -0.007
       0.000
       0.000
      -0.007
      -0.015
      -0.018
      -0.015
      -0.011
      -0.010
      -0.011
      -0.012
      -0.010
      -0.005
      -0.002
      -0.005
      -0.011
      -0.014
      -0.011
      -0.004
      -0.001
      -0.002
      -0.007
      -0.010
      -0.010
      -0.007
      -0.005
      -0.007
      -0.011
      -0.010
      -0.004
       0.002
       0.002
      -0.003
      -0.007
      -0.006
      -0.001
       0.004
       0.002
      -0.006
      -0.014
      -0.014
      -0.008
      -0.003
      -0.004
      -0.009
      -0.011
      -0.007
       0.000
       0.004
       0.001
      -0.007
      -0.013
      -0.011
      -0.003
       0.003
       0.000
      -0.010
      -0.018
      -0.016
      -0.005
       0.006
       0.008
      -0.001
      -0.012
      -0.015
      -0.010
      -0.005
      -0.004
      -0.005
      -0.004
      -0.001
       0.003
       0.002
      -0.003
      -0.009
      -0.010
      -0.002
       0.009
       0.014
       0.010
       0.002
      -0.005
      -0.006
      -0.003
      -0.001
       0.000
      -0.002
      -0.002
       0.001
       0.002
       0.000
      -0.006
      -0.009
      -0.006
      -0.001
       0.003
       0.005
       0.008
       0.010
       0.005
      -0.008
      -0.020
      -0.019
      -0.022
      -0.083
      -0.244
      -0.462
      -0.575
      -0.410
       0.024
       0.463
       0.573
       0.278
      -0.118
      -0.203
       0.146
       0.648
       0.877
       0.617
       0.021
      -0.521
      -0.692
      -0.464
      -0.036
       0.377
       0.645
       0.674
       0.395
      -0.162
      -0.815
      -1.245
      -1.134
      -0.408
       0.595
       1.287
       1.269
       0.623
      -0.167
      -0.541
      -0.231
       0.500
       0.963
       0.560
      -0.614
      -1.707
      -1.803
      -0.815
       0.377
       0.808
       0.348
      -0.372
      -0.745
      -0.655
      -0.266
       0.269
       0.813
       1.163
       1.117
       0.654
       0.009
      -0.472
      -0.586
      -0.330
       0.215
       0.825
       0.977
       0.168
      -1.356
      -2.492
      -2.186
      -0.477
       1.453
       2.255
       1.519
       0.032
      -0.946
      -0.775
       0.100
       0.717
       0.577
      -0.039
      -0.591
      -0.804
      -0.651
      -0.147
       0.567
       1.099
       1.030
       0.313
      -0.685
      -1.428
      -1.449
      -0.584
       0.783
       1.820
       1.836
       0.854
      -0.377
      -1.004
      -0.801
      -0.315
      -0.211
      -0.501
      -0.577
      -0.001
       0.920
       1.408
       0.954
      -0.277
      -1.601
      -2.172
      -1.397
       0.559
       2.558
       3.147
       1.756
      -0.757
      -2.822
      -3.335
      -2.242
      -0.375
       1.135
       1.584
       1.111
       0.404
      -0.011
      -0.092
      -0.046
       0.012
       0.104
       0.273
       0.513
       0.793
       1.016
       0.924
       0.249
      -0.845
      -1.666
      -1.631
      -0.859
       0.085
       0.840
       1.307
       1.272
       0.484
      -0.816
      -1.835
      -1.887
      -0.988
       0.263
       1.240
       1.658
       1.557
       1.114
       0.491
      -0.203
      -0.858
      -1.299
      -1.370
      -1.051
      -0.471
       0.166
       0.639
       0.767
       0.508
       0.032
      -0.349
      -0.371
      -0.014
       0.442
       0.612
       0.320
      -0.218
      -0.556
      -0.391
       0.149
       0.595
       0.556
       0.080
      -0.434
      -0.645
      -0.520
      -0.222
       0.099
       0.355
       0.430
       0.230
      -0.182
      -0.578
      -0.696
      -0.356
       0.383
       1.091
       1.170
       0.437
      -0.550
      -0.963
      -0.570
       0.042
       0.169
      -0.212
      -0.470
      -0.086
       0.730
       1.256
       1.009
       0.153
      -0.779
      -1.361
      -1.413
      -0.874
       0.172
       1.310
       1.861
       1.381
       0.139
      -0.994
      -1.299
      -0.882
      -0.455
      -0.438
      -0.477
      -0.020
       0.826
       1.290
       0.821
      -0.232
      -0.925
      -0.636
       0.330
       1.017
       0.739
      -0.250
      -1.027
      -0.933
      -0.151
       0.591
       0.716
       0.229
      -0.354
      -0.482
      -0.085
       0.346
       0.319
      -0.111
      -0.509
      -0.597
      -0.415
      -0.076
       0.334
       0.666
       0.736
       0.512
       0.153
      -0.137
      -0.255
      -0.252
      -0.277
      -0.383
      -0.412
      -0.187
       0.209
       0.489
       0.467
       0.213
      -0.091
      -0.332
      -0.484
      -0.503
      -0.295
       0.165
       0.655
       0.783
       0.327
      -0.461
      -0.955
      -0.674
       0.220
       0.994
       1.003
       0.288
      -0.536
      -0.935
      -0.888
      -0.644
      -0.277
       0.316
       1.012
       1.364
       1.028
       0.166
      -0.698
      -1.121
      -0.980
      -0.410
       0.292
       0.753
       0.695
       0.160
      -0.456
      -0.695
      -0.436
      -0.009
       0.143
      -0.071
      -0.325
      -0.254
       0.170
       0.648
       0.826
       0.548
      -0.032
      -0.543
      -0.644
      -0.304
       0.170
       0.415
       0.315
       0.044
      -0.158
      -0.227
      -0.272
      -0.340
      -0.295
      -0.003
       0.421
       0.643
       0.426
      -0.121
      -0.605
      -0.689
      -0.330
       0.269
       0.825
       1.010
       0.549
      -0.432
      -1.216
      -1.039
       0.026
       0.947
       0.732
      -0.486
      -1.506
      -1.256
       0.122
       1.425
       1.576
       0.573
      -0.651
      -1.179
      -0.798
       0.040
       0.690
       0.808
       0.586
       0.454
       0.466
       0.175
      -0.730
      -1.778
      -1.968
      -0.832
       0.890
       1.804
       1.167
      -0.394
      -1.484
      -1.238
      -0.011
       1.170
       1.626
       1.428
       1.013
       0.712
       0.536
       0.184
      -0.668
      -1.836
      -2.505
      -1.924
      -0.258
       1.487
       2.379
       2.199
       1.278
      -0.040
      -1.637
      -3.223
      -3.857
      -2.412
       1.023
       4.469
       5.424
       3.152
      -0.573
      -3.152
      -3.416
      -2.151
      -0.760
       0.104
       0.573
       0.793
       0.656
       0.292
       0.298
       1.042
       1.841
       1.381
      -0.712
      -3.009
      -3.433
      -1.394
       1.458
       2.675
       1.252
      -1.458
      -3.004
      -2.127
       0.228
       2.172
       2.734
       2.238
       1.252
      -0.082
      -1.609
      -2.645
      -2.370
      -0.729
       1.277
       2.336
       1.886
       0.459
      -0.862
      -1.232
      -0.497
       0.820
       1.888
       2.014
       0.998
      -0.767
      -2.446
      -3.164
      -2.538
      -1.065
       0.070
      -0.049
      -1.072
      -1.633
      -0.851
       0.639
       1.499
       1.200
       0.313
      -0.388
      -0.554
      -0.077
       1.166
       2.997
       4.521
       4.566
       2.813
       0.341
      -1.225
      -1.192
      -0.400
      -0.325
      -1.536
      -3.100
      -3.515
      -2.204
      -0.048
       1.495
       1.705
       1.034
       0.369
       0.058
      -0.277
      -1.048
      -1.978
      -2.226
      -1.229
       0.684
       2.484
       3.152
       2.270
       0.261
      -1.732
      -2.439
      -1.390
       0.571
       1.863
       1.476
      -0.136
      -1.407
      -1.079
       0.499
       1.604
       0.951
      -0.818
      -1.746
      -0.679
       1.456
       2.578
       1.456
      -1.246
      -3.647
      -4.166
      -2.616
      -0.193
       1.480
       1.584
       0.670
       0.023
       0.372
       1.295
       1.870
       1.641
       0.788
      -0.330
      -1.372
      -1.755
      -0.778
       1.487
       3.559
       3.466
       0.734
      -2.751
      -4.317
      -3.001
      -0.280
       1.618
       1.771
       0.883
       0.000
      -0.618
      -1.272
      -1.847
      -1.562
       0.066
       2.206
       3.131
       1.896
      -0.626
      -2.576
      -2.754
      -1.349
       0.598
       2.023
       2.302
       1.407
      -0.108
      -1.381
      -1.757
      -1.243
      -0.469
      -0.042
       0.083
       0.414
       1.079
       1.450
       0.807
      -0.687
      -1.888
      -1.662
      -0.009
       1.805
       2.308
       1.148
      -0.601
      -1.469
      -0.935
       0.243
       0.908
       0.551
      -0.424
      -1.198
      -1.198
      -0.410
       0.710
       1.497
       1.369
       0.208
      -1.349
      -2.157
      -1.455
       0.358
       1.922
       2.035
       0.660
      -1.059
      -1.729
      -0.844
       0.787
       1.718
       1.145
      -0.414
      -1.674
      -1.760
      -0.828
       0.298
       0.931
       0.953
       0.667
       0.431
       0.397
       0.431
       0.267
      -0.179
      -0.670
      -0.876
      -0.731
      -0.464
      -0.277
      -0.131
       0.064
       0.230
       0.273
       0.315
       0.537
       0.814
       0.789
       0.357
      -0.140
      -0.289
      -0.057
       0.213
       0.191
      -0.143
      -0.561
      -0.822
      -0.806
      -0.491
       0.096
       0.807
       1.290
       1.095
       0.009
      -1.542
      -2.514
      -1.970
      -0.027
       1.986
       2.552
       1.300
      -0.651
      -1.683
      -1.064
       0.511
       1.610
       1.275
      -0.258
      -1.790
      -2.090
      -0.858
       1.010
       2.109
       1.647
       0.084
      -1.259
      -1.319
      -0.167
       1.115
       1.415
       0.557
      -0.588
      -0.937
      -0.208
       0.833
       1.133
       0.355
      -0.855
      -1.569
      -1.408
      -0.698
       0.017
       0.452
       0.624
       0.601
       0.353
      -0.123
      -0.611
      -0.733
      -0.269
       0.569
       1.200
       1.065
       0.078
      -1.179
      -1.798
      -1.293
      -0.074
       0.907
       1.051
       0.608
       0.233
       0.190
       0.115
      -0.377
      -1.046
      -1.133
      -0.166
       1.412
       2.486
       2.180
       0.594
      -1.252
      -2.216
      -1.877
      -0.695
       0.543
       1.273
       1.241
       0.436
      -0.758
      -1.532
      -1.214
       0.018
       1.180
       1.346
       0.442
      -0.767
      -1.366
      -0.996
      -0.035
       0.796
       1.002
       0.579
      -0.118
      -0.639
      -0.656
      -0.152
       0.493
       0.699
       0.147
      -0.853
      -1.517
      -1.220
      -0.072
       1.100
       1.435
       0.801
      -0.127
      -0.573
      -0.379
       0.015
       0.158
       0.004
      -0.163
      -0.066
       0.336
       0.762
       0.753
       0.071
      -0.933
      -1.462
      -0.968
       0.253
       1.207
       1.085
       0.069
      -0.827
      -0.804
      -0.069
       0.524
       0.490
       0.124
      -0.026
       0.206
       0.597
       0.888
       0.966
       0.801
       0.417
      -0.093
      -0.630
      -1.122
      -1.414
      -1.265
      -0.598
       0.291
       0.901
       0.899
       0.370
      -0.275
      -0.624
      -0.524
      -0.137
       0.197
       0.241
       0.069
      -0.012
       0.182
       0.452
       0.399
      -0.106
      -0.716
      -0.942
      -0.643
      -0.121
       0.226
       0.254
       0.063
      -0.227
      -0.557
      -0.814
      -0.758
      -0.171
       0.873
       1.875
       2.160
       1.405
      -0.039
      -1.365
      -1.870
      -1.380
      -0.307
       0.641
       0.921
       0.542
       0.024
      -0.107
       0.204
       0.536
       0.430
      -0.161
      -0.763
      -0.764
      -0.025
       0.854
       1.001
       0.127
      -1.160
      -1.881
      -1.487
      -0.195
       1.217
