Origin Time       07/09/2011 17:58:18 UTC
Lat.              28.6 N	
Long.             77.0 E	
Depth (Km)          8.0
Magnitude         4.2
 Region           DELHI-HARYANA(SONIPAT)                                           
 Above details taken from IMD 
    
Station Code      DJB
Station Lat.       28.652  N
Station Long.      77.188  E
Station Height(m)  235.0
Site Class        C   Vs30 between 200 m/sec to 375 m/sec *  
Record Time       07.09.2011 17:40:27.834 UTC
Sampling Rate     200. Hz
 Record Duration   89.820 Sec.
 Direction         N-S (N positive)
Max. Acceleration    -18.195 cm/sec**2
     
  * For reference see Site Classification link of website 
     
 Base Line Corrected and Low Pass Filtered (Cut Off at 35 Hz) Time History
 Acceleration data in cm/sec**2
    
[...]
       0.002
       0.000
       0.003
       0.010
       0.018
       0.021
       0.018
       0.012
       0.007
       0.006
       0.008
       0.011
       0.012
       0.008
       0.002
      -0.003
      -0.002
       0.004
       0.012
       0.015
       0.010
       0.002
      -0.005
      -0.006
      -0.001
       0.007
       0.012
       0.011
       0.006
       0.002
       0.000
      -0.001
      -0.002
      -0.003
      -0.001
       0.004
       0.009
       0.011
       0.006
      -0.001
      -0.005
      -0.005
       0.000
       0.006
       0.009
       0.007
       0.002
      -0.002
      -0.001
       0.003
       0.008
       0.009
       0.005
       0.001
      -0.001
       0.004
       0.012
       0.019
       0.022
       0.018
       0.010
       0.001
      -0.005
      -0.008
      -0.008
      -0.006
      -0.003
       0.000
       0.003
       0.005
       0.007
       0.010
       0.014
       0.014
       0.011
       0.007
       0.007
       0.014
       0.022
       0.024
       0.017
       0.005
      -0.003
      -0.003
       0.004
       0.012
       0.014
       0.012
       0.005
      -0.002
      -0.007
      -0.008
      -0.006
      -0.003
      -0.001
       0.000
      -0.002
      -0.003
      -0.003
       0.001
       0.007
       0.010
       0.009
       0.004
      -0.002
      -0.004
      -0.004
      -0.001
       0.003
       0.007
       0.009
       0.006
       0.000
      -0.006
      -0.008
      -0.005
       0.000
       0.006
       0.010
       0.012
       0.008
       0.001
      -0.007
      -0.008
      -0.001
       0.009
       0.016
       0.015
       0.010
       0.005
       0.003
       0.007
       0.013
       0.018
       0.018
       0.014
       0.009
       0.003
       0.000
      -0.002
      -0.001
       0.005
       0.013
       0.017
       0.014
       0.004
      -0.006
      -0.008
       0.000
       0.011
       0.019
       0.018
       0.009
      -0.001
      -0.009
      -0.012
      -0.011
      -0.007
      -0.001
       0.007
       0.014
       0.015
       0.011
       0.004
       0.000
       0.001
       0.006
       0.011
       0.012
       0.008
       0.002
       0.001
       0.006
       0.013
       0.013
       0.007
      -0.003
      -0.010
      -0.010
      -0.003
       0.005
       0.009
       0.009
       0.005
       0.002
      -0.001
      -0.003
      -0.006
      -0.008
      -0.007
      -0.003
       0.004
       0.010
       0.013
       0.010
       0.003
      -0.003
      -0.006
      -0.003
       0.003
       0.007
       0.005
      -0.001
      -0.007
      -0.009
      -0.006
       0.000
       0.005
       0.006
       0.002
      -0.005
      -0.010
      -0.011
      -0.008
      -0.002
       0.004
       0.008
       0.006
      -0.003
      -0.014
      -0.022
      -0.020
      -0.009
       0.005
       0.013
       0.009
      -0.003
      -0.014
      -0.018
      -0.015
      -0.007
       0.001
       0.005
       0.006
       0.003
       0.001
       0.000
       0.000
       0.003
       0.008
       0.014
       0.018
       0.016
       0.009
       0.000
      -0.008
      -0.010
      -0.008
      -0.005
      -0.004
      -0.005
      -0.005
      -0.003
       0.000
       0.004
       0.006
       0.006
       0.004
      -0.002
      -0.009
      -0.015
      -0.016
      -0.010
       0.001
       0.011
       0.014
       0.009
      -0.001
      -0.012
      -0.017
      -0.015
      -0.007
       0.000
       0.003
       0.001
      -0.003
      -0.006
      -0.007
      -0.003
       0.002
       0.006
       0.009
       0.007
       0.001
      -0.007
      -0.012
      -0.011
      -0.003
       0.005
       0.009
       0.005
      -0.002
      -0.008
      -0.012
      -0.012
      -0.008
      -0.001
       0.006
       0.008
       0.004
      -0.003
      -0.007
      -0.007
      -0.002
       0.005
       0.011
       0.014
       0.014
       0.011
       0.004
      -0.003
      -0.006
      -0.003
       0.003
       0.011
       0.014
       0.013
       0.009
       0.003
      -0.002
      -0.004
      -0.002
       0.004
       0.009
       0.012
       0.010
       0.006
       0.005
       0.009
       0.015
       0.018
       0.016
       0.011
       0.005
       0.003
       0.005
       0.010
       0.013
       0.011
       0.005
      -0.002
      -0.006
      -0.008
      -0.007
      -0.003
       0.002
       0.007
       0.011
       0.011
       0.008
       0.003
       0.000
       0.001
       0.006
       0.012
       0.017
       0.019
       0.016
       0.009
      -0.001
      -0.008
      -0.008
      -0.003
       0.003
       0.007
       0.007
       0.008
       0.010
       0.014
       0.016
       0.017
       0.015
       0.011
       0.006
       0.002
       0.000
       0.000
      -0.001
      -0.001
       0.001
       0.003
       0.004
       0.002
      -0.002
      -0.005
      -0.003
       0.003
       0.009
       0.010
       0.006
       0.001
      -0.003
      -0.004
      -0.005
      -0.004
       0.001
       0.006
       0.007
       0.000
      -0.010
      -0.019
      -0.021
      -0.016
      -0.009
      -0.005
      -0.004
      -0.005
      -0.005
      -0.003
       0.001
       0.004
       0.007
       0.009
       0.010
       0.009
       0.005
      -0.001
      -0.004
      -0.002
       0.005
       0.012
       0.014
       0.010
       0.003
      -0.002
      -0.003
      -0.002
      -0.002
      -0.003
      -0.002
       0.000
       0.003
       0.003
      -0.001
      -0.004
      -0.003
       0.001
       0.007
       0.008
       0.003
      -0.003
      -0.005
       0.000
       0.011
       0.022
       0.025
       0.021
       0.014
       0.008
       0.007
       0.007
       0.009
       0.012
       0.017
       0.022
       0.022
       0.016
       0.007
       0.003
       0.007
       0.016
       0.023
       0.024
       0.017
       0.008
       0.002
       0.000
       0.001
       0.002
       0.002
       0.002
       0.004
       0.006
       0.005
       0.001
      -0.003
      -0.003
       0.001
       0.006
       0.004
      -0.006
      -0.018
      -0.024
      -0.017
      -0.005
       0.004
       0.001
      -0.010
      -0.020
      -0.021
      -0.010
       0.005
       0.015
       0.016
       0.009
       0.002
       0.002
       0.007
       0.011
       0.010
       0.004
      -0.002
      -0.001
       0.007
       0.015
       0.019
       0.017
       0.012
       0.008
       0.006
       0.007
       0.009
       0.010
       0.007
       0.003
       0.000
      -0.001
       0.002
       0.008
       0.014
       0.014
       0.005
      -0.008
      -0.018
      -0.017
      -0.008
       0.005
       0.014
       0.016
       0.012
       0.006
       0.002
       0.003
       0.008
       0.012
       0.010
       0.003
      -0.004
      -0.006
      -0.003
       0.000
       0.000
      -0.002
      -0.003
      -0.003
      -0.002
      -0.002
      -0.002
       0.000
       0.002
       0.004
       0.002
      -0.004
      -0.011
      -0.014
      -0.010
      -0.001
       0.007
       0.009
       0.007
       0.003
       0.000
       0.001
       0.003
       0.004
       0.003
      -0.001
      -0.004
      -0.007
      -0.010
      -0.012
      -0.012
      -0.010
      -0.004
       0.003
       0.010
       0.012
       0.007
      -0.003
      -0.012
      -0.016
      -0.013
      -0.007
      -0.004
      -0.003
      -0.004
      -0.002
       0.002
       0.006
       0.010
       0.013
       0.013
       0.011
       0.006
       0.000
      -0.002
      -0.001
       0.004
       0.010
       0.013
       0.010
       0.002
      -0.007
      -0.010
      -0.006
       0.001
       0.008
       0.009
       0.006
       0.001
      -0.003
      -0.006
      -0.006
      -0.004
       0.000
       0.004
       0.004
       0.001
      -0.003
      -0.006
      -0.008
      -0.008
      -0.008
      -0.006
      -0.005
      -0.005
      -0.008
      -0.009
      -0.007
      -0.003
       0.001
      -0.002
      -0.009
      -0.015
      -0.013
      -0.005
       0.005
       0.008
       0.003
      -0.005
      -0.010
      -0.008
      -0.003
       0.002
       0.004
       0.005
       0.008
       0.012
       0.014
       0.010
       0.003
      -0.006
      -0.012
      -0.012
      -0.006
       0.002
       0.010
       0.015
       0.014
       0.008
      -0.001
      -0.008
      -0.009
      -0.005
       0.000
       0.003
       0.002
       0.000
      -0.003
      -0.003
       0.001
       0.008
       0.013
       0.011
       0.004
      -0.005
      -0.010
      -0.008
      -0.001
       0.005
       0.006
       0.004
       0.001
       0.001
       0.004
       0.007
       0.008
       0.007
       0.006
       0.005
       0.003
      -0.001
      -0.005
      -0.008
      -0.007
      -0.003
      -0.001
       0.000
       0.001
       0.002
       0.004
       0.007
       0.009
       0.010
       0.007
      -0.005
      -0.022
      -0.037
      -0.039
      -0.019
       0.020
       0.063
       0.083
       0.060
       0.000
      -0.065
      -0.093
      -0.057
       0.036
       0.140
       0.201
       0.186
       0.097
      -0.061
      -0.297
      -0.584
      -0.758
      -0.536
       0.264
       1.396
       2.136
       1.796
       0.462
      -0.885
      -1.254
      -0.669
      -0.098
      -0.299
      -0.953
      -1.115
      -0.425
       0.371
       0.247
      -0.782
      -1.419
      -0.441
       1.751
       3.321
       2.911
       1.102
      -0.352
      -0.609
      -0.598
      -1.649
      -3.596
      -4.676
      -3.459
      -0.588
       1.756
       2.075
       0.977
       0.348
       1.296
       3.003
       3.652
       2.423
       0.370
      -0.809
      -0.626
      -0.110
      -0.361
      -1.258
      -1.820
      -1.571
      -1.146
      -1.423
      -2.242
      -2.347
      -0.801
       1.766
       3.619
       3.603
       2.163
       0.682
       0.048
       0.036
      -0.048
      -0.441
      -0.779
      -0.672
      -0.210
       0.143
       0.081
      -0.272
      -0.644
      -0.957
      -1.218
      -1.223
      -0.710
       0.172
       0.832
       0.859
       0.498
       0.301
       0.417
       0.491
       0.252
      -0.119
      -0.282
      -0.227
      -0.361
      -1.052
      -1.973
      -2.029
      -0.370
       2.377
       4.260
       3.742
       1.231
      -1.314
      -2.218
      -1.429
      -0.167
       0.433
       0.259
      -0.050
      -0.091
      -0.202
      -0.839
      -1.652
      -1.662
      -0.565
       0.614
       0.622
      -0.432
      -1.062
      -0.081
       2.018
       3.492
       2.955
       0.569
      -2.013
      -2.828
      -1.245
       1.223
       2.062
       0.211
      -2.738
      -4.091
      -2.698
       0.144
       2.211
       2.387
       1.289
       0.346
       0.442
       1.212
       1.522
       0.702
      -0.729
      -1.626
      -1.418
      -0.540
       0.233
       0.564
       0.561
       0.337
      -0.139
      -0.850
      -1.529
      -1.666
      -0.832
       0.811
       2.327
       2.596
       1.353
      -0.404
      -1.314
      -1.002
      -0.286
      -0.005
      -0.037
       0.249
       0.826
       0.862
      -0.110
      -1.344
      -1.607
      -0.640
       0.471
       0.453
      -0.778
      -2.037
      -2.113
      -0.902
       0.701
       1.799
       2.193
       2.190
       1.971
       1.349
       0.206
      -1.041
      -1.659
      -1.248
      -0.091
       1.164
       1.982
       2.021
       1.038
      -0.838
      -2.802
      -3.712
      -2.939
      -0.869
       1.368
       2.628
       2.406
       1.079
      -0.451
      -1.451
      -1.713
      -1.327
      -0.406
       0.831
       1.868
       2.039
       1.021
      -0.727
      -2.117
      -2.212
      -1.026
       0.435
       0.990
       0.290
      -0.896
      -1.352
      -0.518
       0.989
       2.012
       1.954
       1.107
       0.102
      -0.604
      -0.773
      -0.369
       0.323
       0.832
       0.932
       0.778
       0.520
       0.046
      -0.744
      -1.538
      -1.692
      -0.829
       0.595
       1.483
       1.039
      -0.361
      -1.343
      -0.805
       0.809
       1.657
       0.304
      -2.463
      -4.052
      -2.795
      -0.041
       1.196
      -0.262
      -2.308
      -1.943
       1.382
       5.187
       6.459
       4.406
       0.949
      -1.250
      -1.296
      -0.632
      -0.987
      -2.152
      -2.336
      -0.617
       1.531
       1.504
      -1.588
      -5.474
      -6.443
      -2.787
       3.408
       7.865
       7.544
       2.773
      -3.565
      -8.631
     -11.476
     -12.711
     -12.743
     -10.598
      -4.913
       3.820
      12.569
      17.736
      17.615
      12.991
       6.058
      -0.749
      -5.370
      -6.656
      -5.093
      -2.926
      -2.832
      -5.728
      -9.628
     -10.978
      -7.556
      -0.315
       7.441
      12.478
      13.520
      11.355
       7.547
       3.290
      -0.279
      -1.180
       2.484
       9.621
      14.947
      12.547
       1.662
     -11.462
     -18.195
     -14.297
      -2.719
       9.266
      15.254
      13.125
       5.054
      -4.851
     -12.846
     -16.287
     -13.826
      -6.445
       2.045
       7.130
       6.907
       3.158
      -0.724
      -2.520
      -2.191
      -0.894
       0.367
       1.058
       0.748
      -0.857
      -3.214
      -4.610
      -3.322
       0.345
       3.595
       3.463
      -0.257
      -4.655
      -6.316
      -4.347
      -0.972
       0.743
      -0.336
      -2.771
      -4.101
      -2.726
       1.158
       5.853
       9.312
      10.252
       8.579
       5.248
       1.687
      -1.012
      -2.562
      -3.230
      -3.248
      -2.684
      -1.886
      -1.642
      -2.416
      -3.612
      -4.054
      -3.230
      -1.782
      -0.673
      -0.123
       0.439
       1.626
       3.557
       5.755
       7.158
       6.453
       3.107
      -1.645
      -5.176
      -5.246
      -1.741
       2.997
       5.573
       3.960
      -0.736
      -4.983
      -5.792
      -3.266
      -0.198
       0.867
       0.016
      -0.763
      -0.345
       0.243
      -0.517
      -2.368
      -3.244
      -1.476
       2.237
       5.215
       5.133
       1.986
      -2.101
      -4.771
      -5.083
      -3.633
      -1.577
       0.111
       0.698
      -0.200
      -2.071
      -3.387
      -2.681
       0.071
       3.342
       5.379
       5.579
       4.699
       3.886
       3.444
       2.507
       0.163
      -3.024
      -5.045
      -4.397
      -1.746
       0.695
       1.353
       0.584
      -0.134
       0.062
       0.624
       0.385
      -1.076
      -2.822
      -3.301
      -1.806
       0.798
       2.932
       3.809
       3.842
       3.687
       3.374
       2.480
       0.808
      -1.199
      -2.524
      -2.240
      -0.538
       0.998
       0.625
      -1.778
      -4.250
      -4.331
      -1.339
       2.862
       5.405
       4.803
       1.866
      -1.415
      -3.499
      -3.992
      -3.440
      -2.848
      -3.066
      -4.108
      -4.974
      -4.350
      -1.684
       2.223
       5.550
       6.533
       4.631
       1.006
      -2.028
      -2.471
      -0.131
       3.125
       4.878
       4.192
       2.257
       0.930
       0.715
       0.506
      -0.629
      -2.049
      -2.357
      -1.214
       0.265
       0.859
       0.421
      -0.424
      -1.207
      -1.775
      -1.844
      -0.990
       0.717
       2.339
       2.661
       1.314
      -0.736
      -1.920
      -1.391
       0.244
       1.409
       0.904
      -1.062
      -3.145
      -4.138
      -3.868
      -2.957
      -1.997
      -1.092
      -0.058
       1.127
       2.162
       2.664
       2.534
       2.099
       1.902
       2.194
       2.570
       2.198
       0.595
      -1.761
      -3.560
      -3.506
      -1.340
       1.739
       3.738
       3.267
       0.628
      -2.324
      -3.567
      -2.475
      -0.246
       1.207
       0.891
      -0.568
      -1.637
      -1.283
       0.155
       1.373
       1.411
       0.517
      -0.310
      -0.497
      -0.351
      -0.320
      -0.180
       0.704
       2.343
       3.629
       3.128
       0.524
      -2.733
      -4.370
      -3.141
       0.051
       2.868
       3.502
       1.965
      -0.411
      -2.308
      -3.080
      -2.625
      -1.268
       0.216
       0.916
       0.451
      -0.652
      -1.310
      -0.663
       1.217
       3.190
       3.780
       2.369
      -0.222
      -2.383
      -2.962
      -2.046
      -0.688
       0.080
      -0.011
      -0.534
      -0.867
      -0.577
       0.355
       1.455
       1.985
       1.573
       0.642
       0.024
       0.063
       0.237
      -0.196
      -1.177
      -1.660
      -0.685
       1.287
       2.411
       1.294
      -1.223
      -2.674
      -1.611
       0.766
       1.967
       0.930
      -1.007
      -1.758
      -0.733
       0.759
       1.112
       0.064
      -1.315
      -1.910
      -1.543
      -0.746
       0.049
       0.897
       1.982
       3.096
       3.560
       2.739
       0.753
      -1.402
      -2.639
      -2.772
      -2.505
      -2.425
      -2.272
      -1.382
       0.335
       2.121
       3.021
       2.706
       1.683
       0.757
       0.298
       0.026
      -0.476
      -1.139
      -1.463
      -1.132
      -0.390
       0.209
       0.328
       0.104
      -0.068
       0.007
       0.091
      -0.189
      -0.726
      -0.836
      -0.026
       1.237
       1.872
       1.350
       0.258
      -0.400
      -0.183
       0.630
       1.554
       2.173
       2.027
       0.721
      -1.580
      -3.909
      -5.003
      -4.207
      -1.996
       0.335
       1.555
       1.290
       0.172
      -0.687
      -0.508
       0.693
       2.266
       3.384
       3.452
       2.410
       0.806
      -0.558
      -1.227
      -1.344
      -1.297
      -1.241
      -1.016
      -0.439
       0.398
       1.107
       1.315
       1.004
       0.455
      -0.122
      -0.742
      -1.383
      -1.766
      -1.533
      -0.663
       0.387
       0.966
       0.674
      -0.333
      -1.392
      -1.790
      -1.283
      -0.236
       0.691
       1.032
       0.828
       0.539
       0.613
       1.037
       1.275
       0.752
      -0.457
      -1.421
      -1.050
       0.765
       2.729
       3.127
       1.413
      -1.157
      -2.533
      -1.596
       0.863
       2.750
       2.422
       0.095
      -2.359
      -3.044
      -1.616
       0.555
       1.711
       1.197
      -0.183
      -1.086
      -0.845
       0.098
       0.746
       0.438
      -0.627
      -1.532
      -1.381
      -0.136
       1.191
       1.366
       0.097
      -1.639
      -2.452
      -1.757
