Origin Time       11/11/2013 19:11:18 UTC
Lat.              28.5 N	
Long.             77.2 E	
Depth (Km)         10.0
Magnitude         3.1
 Region           DELHI                                                            
 Above details taken from IMD 
    
Station Code      DJB
Station Lat.       28.652  N
Station Long.      77.188  E
Station Height(m)  235.0
Site Class        A   Vs30 between 700 m/sec to 1400 m/sec * 
Record Time       11.11.2013 14:22:16.829 UTC
Sampling Rate     200. Hz
 Record Duration   80.550 Sec.
 Direction         N-S (N positive)
Max. Acceleration      2.877 cm/sec**2
     
  * For reference see Site Classification link of website 
     
 Base Line Corrected and Low Pass Filtered (Cut Off at 35 Hz) Time History
 Acceleration data in cm/sec**2
    
[...]
      -0.005
      -0.015
      -0.019
      -0.013
      -0.004
       0.001
       0.000
      -0.005
      -0.008
      -0.007
      -0.008
      -0.012
      -0.018
      -0.022
      -0.018
      -0.009
      -0.001
      -0.003
      -0.013
      -0.024
      -0.025
      -0.014
       0.000
       0.004
      -0.005
      -0.018
      -0.026
      -0.022
      -0.012
      -0.005
      -0.006
      -0.011
      -0.016
      -0.019
      -0.019
      -0.018
      -0.017
      -0.015
      -0.011
      -0.007
      -0.005
      -0.007
      -0.011
      -0.012
      -0.006
       0.001
       0.005
       0.002
      -0.004
      -0.011
      -0.014
      -0.016
      -0.015
      -0.013
      -0.008
      -0.004
      -0.002
      -0.004
      -0.007
      -0.007
      -0.005
      -0.001
       0.001
      -0.002
      -0.008
      -0.013
      -0.013
      -0.010
      -0.004
       0.001
       0.004
       0.006
       0.007
       0.004
      -0.002
      -0.013
      -0.022
      -0.023
      -0.015
      -0.002
       0.005
       0.004
      -0.002
      -0.006
      -0.006
      -0.003
      -0.003
      -0.005
      -0.005
      -0.003
       0.001
       0.002
      -0.004
      -0.012
      -0.016
      -0.013
      -0.006
      -0.001
      -0.003
      -0.007
      -0.008
      -0.002
       0.007
       0.013
       0.010
      -0.001
      -0.012
      -0.017
      -0.013
      -0.005
       0.000
       0.002
       0.003
       0.007
       0.012
       0.012
       0.006
      -0.003
      -0.004
       0.003
       0.011
       0.011
       0.003
      -0.008
      -0.012
      -0.009
      -0.004
      -0.002
      -0.004
      -0.006
      -0.007
      -0.004
      -0.001
      -0.001
      -0.002
      -0.004
      -0.005
      -0.006
      -0.009
      -0.014
      -0.016
      -0.013
      -0.006
       0.001
       0.002
      -0.001
      -0.005
      -0.006
      -0.004
      -0.002
      -0.004
      -0.008
      -0.011
      -0.010
      -0.005
       0.000
       0.000
      -0.002
      -0.004
      -0.002
       0.001
       0.004
       0.002
      -0.002
      -0.004
      -0.003
       0.000
      -0.001
      -0.003
      -0.004
       0.001
       0.008
       0.012
       0.008
      -0.002
      -0.008
      -0.005
       0.004
       0.009
       0.004
      -0.009
      -0.021
      -0.026
      -0.020
      -0.009
       0.001
       0.006
       0.006
       0.002
      -0.003
      -0.005
      -0.003
       0.003
       0.007
       0.008
       0.004
      -0.002
      -0.007
      -0.010
      -0.011
      -0.011
      -0.011
      -0.010
      -0.010
      -0.011
      -0.012
      -0.011
      -0.008
      -0.006
      -0.007
      -0.010
      -0.012
      -0.012
      -0.011
      -0.011
      -0.010
      -0.007
      -0.002
       0.002
      -0.001
      -0.009
      -0.016
      -0.016
      -0.011
      -0.005
      -0.006
      -0.012
      -0.017
      -0.015
      -0.007
       0.000
      -0.001
      -0.008
      -0.015
      -0.014
      -0.007
      -0.002
      -0.003
      -0.009
      -0.015
      -0.016
      -0.014
      -0.010
      -0.009
      -0.009
      -0.010
      -0.009
      -0.007
      -0.007
      -0.011
      -0.016
      -0.018
      -0.012
      -0.002
       0.005
       0.003
      -0.003
      -0.009
      -0.010
      -0.008
      -0.007
      -0.011
      -0.015
      -0.014
      -0.008
      -0.004
      -0.007
      -0.015
      -0.020
      -0.017
      -0.010
      -0.006
      -0.008
      -0.015
      -0.018
      -0.014
      -0.006
      -0.001
      -0.006
      -0.016
      -0.023
      -0.022
      -0.015
      -0.010
      -0.009
      -0.009
      -0.007
      -0.001
       0.002
      -0.002
      -0.011
      -0.016
      -0.012
      -0.002
       0.006
       0.006
      -0.001
      -0.010
      -0.014
      -0.013
      -0.007
      -0.001
       0.000
      -0.003
      -0.010
      -0.017
      -0.020
      -0.019
      -0.014
      -0.007
       0.000
       0.003
       0.001
      -0.007
      -0.014
      -0.015
      -0.011
      -0.006
      -0.006
      -0.011
      -0.017
      -0.018
      -0.015
      -0.010
      -0.008
      -0.010
      -0.011
      -0.009
      -0.003
       0.000
      -0.003
      -0.010
      -0.013
      -0.009
       0.002
       0.012
       0.015
       0.010
       0.001
      -0.004
      -0.005
      -0.004
      -0.005
      -0.009
      -0.013
      -0.014
      -0.008
       0.001
       0.008
       0.009
       0.006
       0.001
      -0.004
      -0.007
      -0.007
      -0.005
       0.000
       0.008
       0.014
       0.014
       0.007
      -0.002
      -0.004
       0.000
       0.006
       0.007
       0.003
      -0.001
      -0.003
      -0.003
      -0.004
      -0.008
      -0.010
      -0.006
       0.004
       0.011
       0.011
       0.002
      -0.008
      -0.013
      -0.010
      -0.005
      -0.002
      -0.003
      -0.003
       0.000
       0.004
       0.006
       0.002
      -0.005
      -0.009
      -0.009
      -0.006
      -0.007
      -0.010
      -0.013
      -0.012
      -0.008
      -0.003
      -0.002
      -0.004
      -0.008
      -0.011
      -0.011
      -0.008
      -0.006
      -0.007
      -0.008
      -0.008
      -0.007
      -0.006
      -0.008
      -0.012
      -0.014
      -0.009
      -0.001
       0.006
       0.006
       0.000
      -0.005
      -0.003
       0.003
       0.007
       0.006
       0.000
      -0.006
      -0.010
      -0.011
      -0.010
      -0.010
      -0.007
      -0.002
       0.001
       0.001
      -0.006
      -0.013
      -0.016
      -0.012
      -0.004
       0.004
       0.006
       0.001
      -0.008
      -0.014
      -0.014
      -0.010
      -0.008
      -0.009
      -0.010
      -0.011
      -0.010
      -0.011
      -0.016
      -0.022
      -0.023
      -0.015
      -0.005
       0.000
      -0.005
      -0.017
      -0.028
      -0.029
      -0.022
      -0.010
      -0.001
       0.002
      -0.001
      -0.006
      -0.008
      -0.006
      -0.004
      -0.003
      -0.004
      -0.005
      -0.005
      -0.005
      -0.005
      -0.005
      -0.003
      -0.001
       0.002
       0.002
      -0.002
      -0.007
      -0.010
      -0.011
      -0.010
      -0.011
      -0.015
      -0.017
      -0.014
      -0.007
      -0.002
      -0.003
      -0.007
      -0.011
      -0.011
      -0.010
      -0.010
      -0.011
      -0.012
      -0.011
      -0.007
      -0.004
      -0.003
      -0.005
      -0.009
      -0.012
      -0.013
      -0.012
      -0.012
      -0.012
      -0.013
      -0.012
      -0.011
      -0.010
      -0.011
      -0.015
      -0.019
      -0.018
      -0.014
      -0.008
      -0.005
      -0.005
      -0.006
      -0.005
      -0.004
      -0.005
      -0.006
      -0.007
      -0.005
      -0.002
      -0.001
      -0.003
      -0.005
      -0.005
      -0.001
       0.004
       0.006
       0.003
      -0.002
      -0.006
      -0.006
       0.003
       0.022
       0.051
       0.076
       0.079
       0.046
      -0.010
      -0.050
      -0.043
      -0.001
       0.031
       0.025
      -0.014
      -0.059
      -0.092
      -0.110
      -0.106
      -0.071
      -0.009
       0.045
       0.048
      -0.012
      -0.096
      -0.149
      -0.137
      -0.067
       0.026
       0.092
       0.096
       0.037
      -0.051
      -0.117
      -0.117
      -0.032
       0.102
       0.187
       0.126
      -0.069
      -0.248
      -0.238
      -0.012
       0.258
       0.343
       0.187
      -0.042
      -0.133
      -0.032
       0.125
       0.157
       0.033
      -0.090
      -0.070
       0.037
       0.054
      -0.074
      -0.207
      -0.181
      -0.013
       0.119
       0.089
      -0.034
      -0.096
      -0.066
      -0.067
      -0.180
      -0.282
      -0.166
       0.183
       0.505
       0.505
       0.156
      -0.266
      -0.434
      -0.249
       0.109
       0.362
       0.351
       0.111
      -0.216
      -0.447
      -0.408
      -0.064
       0.365
       0.538
       0.315
      -0.110
      -0.421
      -0.481
      -0.379
      -0.245
      -0.099
       0.084
       0.251
       0.308
       0.247
       0.174
       0.168
       0.154
      -0.003
      -0.290
      -0.488
      -0.389
      -0.040
       0.285
       0.360
       0.208
       0.012
      -0.096
      -0.116
      -0.106
      -0.095
      -0.072
      -0.022
       0.035
       0.059
       0.025
      -0.027
      -0.024
       0.058
       0.153
       0.167
       0.065
      -0.092
      -0.196
      -0.180
      -0.074
       0.033
       0.095
       0.137
       0.174
       0.135
      -0.059
      -0.347
      -0.500
      -0.324
       0.105
       0.442
       0.396
       0.034
      -0.283
      -0.272
      -0.005
       0.197
       0.104
      -0.189
      -0.369
      -0.211
       0.202
       0.550
       0.565
       0.262
      -0.109
      -0.316
      -0.314
      -0.222
      -0.171
      -0.186
      -0.164
      -0.003
       0.238
       0.346
       0.183
      -0.125
      -0.281
      -0.116
       0.240
       0.470
       0.366
       0.001
      -0.354
      -0.465
      -0.307
      -0.028
       0.185
       0.220
       0.080
      -0.114
      -0.203
      -0.134
      -0.011
       0.028
      -0.029
      -0.069
       0.002
       0.152
       0.268
       0.288
       0.241
       0.175
       0.059
      -0.167
      -0.467
      -0.655
      -0.531
      -0.111
       0.323
       0.439
       0.177
      -0.179
      -0.271
      -0.020
       0.312
       0.409
       0.220
      -0.034
      -0.142
      -0.107
      -0.058
      -0.052
      -0.044
      -0.012
      -0.009
      -0.078
      -0.181
      -0.238
      -0.211
      -0.090
       0.119
       0.334
       0.403
       0.250
      -0.009
      -0.179
      -0.185
      -0.094
       0.016
       0.113
       0.135
      -0.007
      -0.285
      -0.488
      -0.373
       0.049
       0.450
       0.497
       0.204
      -0.130
      -0.268
      -0.217
      -0.083
       0.080
       0.236
       0.293
       0.174
      -0.050
      -0.177
      -0.091
       0.090
       0.140
      -0.020
      -0.238
      -0.310
      -0.196
      -0.033
       0.044
       0.024
      -0.016
      -0.007
       0.056
       0.116
       0.092
      -0.017
      -0.097
      -0.023
       0.176
       0.319
       0.245
      -0.017
      -0.273
      -0.332
      -0.176
       0.046
       0.178
       0.178
       0.096
      -0.008
      -0.100
      -0.141
      -0.096
       0.019
       0.120
       0.112
      -0.018
      -0.173
      -0.215
      -0.083
       0.140
       0.278
       0.213
      -0.015
      -0.258
      -0.390
      -0.367
      -0.203
       0.052
       0.309
       0.449
       0.374
       0.102
      -0.212
      -0.366
      -0.273
      -0.011
       0.246
       0.360
       0.301
       0.149
       0.009
      -0.080
      -0.164
      -0.298
      -0.432
      -0.412
      -0.139
       0.281
       0.564
       0.491
       0.109
      -0.304
      -0.459
      -0.285
       0.027
       0.210
       0.175
       0.051
      -0.008
       0.002
      -0.004
      -0.039
      -0.028
       0.053
       0.114
       0.070
      -0.039
      -0.116
      -0.135
      -0.132
      -0.107
      -0.018
       0.116
       0.181
       0.093
      -0.067
      -0.117
       0.009
       0.145
       0.068
      -0.216
      -0.424
      -0.300
       0.089
       0.414
       0.416
       0.130
      -0.183
      -0.254
      -0.031
       0.217
       0.117
      -0.393
      -0.862
      -0.677
       0.281
       1.347
       1.588
       0.724
      -0.510
      -1.052
      -0.582
       0.189
       0.320
      -0.336
      -0.968
      -0.654
       0.625
       1.833
       1.798
       0.315
      -1.588
      -2.452
      -1.575
       0.365
       1.810
       1.650
       0.181
      -1.227
      -1.436
      -0.516
       0.465
       0.571
      -0.114
      -0.687
      -0.430
       0.525
       1.408
       1.529
       0.790
      -0.328
      -1.193
      -1.458
      -1.189
      -0.663
      -0.113
       0.341
       0.644
       0.742
       0.543
      -0.029
      -0.834
      -1.408
      -1.246
      -0.303
       0.868
       1.562
       1.497
       0.915
       0.264
      -0.115
      -0.080
       0.301
       0.762
       0.953
       0.637
      -0.150
      -1.056
      -1.534
      -1.205
      -0.218
       0.743
       0.963
       0.317
      -0.575
      -0.833
      -0.081
       1.140
       1.725
       0.950
      -0.818
      -2.340
      -2.524
      -1.316
       0.313
       1.203
       0.899
      -0.144
      -1.078
      -1.313
      -0.766
       0.294
       1.452
       2.208
       2.078
       0.883
      -0.909
      -2.261
      -2.252
      -0.877
       0.837
       1.647
       1.160
       0.082
      -0.581
      -0.463
       0.021
       0.287
       0.136
      -0.219
      -0.438
      -0.337
       0.004
       0.351
       0.535
       0.545
       0.407
       0.089
      -0.369
      -0.720
      -0.668
      -0.246
       0.136
       0.143
      -0.068
      -0.060
       0.251
       0.380
      -0.154
      -1.074
      -1.373
      -0.292
       1.664
       2.877
       2.047
      -0.398
      -2.493
      -2.489
      -0.467
       1.801
       2.461
       1.103
      -1.082
      -2.417
      -2.066
      -0.510
       1.035
       1.557
       0.838
      -0.493
      -1.420
      -1.280
      -0.275
       0.787
       1.259
       1.127
       0.753
       0.351
      -0.103
      -0.570
      -0.819
      -0.678
      -0.248
       0.190
       0.391
       0.311
       0.156
       0.203
       0.471
       0.634
       0.367
      -0.264
      -0.830
      -0.932
      -0.541
       0.037
       0.465
       0.598
       0.473
       0.188
      -0.138
      -0.357
      -0.388
      -0.306
      -0.261
      -0.295
      -0.293
      -0.107
       0.248
       0.525
       0.440
      -0.016
      -0.510
      -0.627
      -0.225
       0.442
       0.916
       0.856
       0.262
      -0.526
      -1.025
      -0.897
      -0.161
       0.773
       1.301
       1.010
       0.022
      -1.020
      -1.388
      -0.803
       0.350
       1.246
       1.194
       0.212
      -0.905
      -1.242
      -0.574
       0.468
       1.024
       0.732
      -0.091
      -0.813
      -0.962
      -0.489
       0.235
       0.690
       0.607
       0.163
      -0.206
      -0.207
       0.063
       0.216
      -0.053
      -0.605
      -0.927
      -0.626
       0.157
       0.910
       1.228
       1.053
       0.540
      -0.115
      -0.709
      -1.034
      -0.951
      -0.483
       0.163
       0.671
       0.749
       0.290
      -0.478
      -1.039
      -0.922
      -0.105
       0.909
       1.457
       1.202
       0.353
      -0.532
      -0.983
      -0.903
      -0.497
      -0.008
       0.428
       0.720
       0.752
       0.457
      -0.073
      -0.578
      -0.781
      -0.555
      -0.038
       0.407
       0.424
      -0.051
      -0.655
      -0.826
      -0.277
       0.682
       1.330
       1.118
       0.148
      -0.887
      -1.249
      -0.738
       0.192
       0.846
       0.820
       0.229
      -0.498
      -0.936
      -0.873
      -0.349
       0.360
       0.855
       0.832
       0.315
      -0.316
      -0.601
      -0.376
       0.095
       0.353
       0.144
      -0.345
      -0.615
      -0.316
       0.372
       0.862
       0.741
       0.169
      -0.341
      -0.475
      -0.348
      -0.223
      -0.166
      -0.051
       0.157
       0.266
       0.080
      -0.295
      -0.479
      -0.192
       0.434
       0.941
       0.939
       0.418
      -0.270
      -0.700
      -0.680
      -0.356
      -0.057
       0.004
      -0.096
      -0.113
       0.090
       0.382
       0.469
       0.190
      -0.286
      -0.574
      -0.418
       0.056
       0.443
       0.405
      -0.053
      -0.601
      -0.842
      -0.564
       0.106
       0.742
       0.896
       0.477
      -0.139
      -0.447
      -0.271
       0.116
       0.325
       0.222
      -0.006
      -0.099
       0.026
       0.248
       0.402
       0.421
       0.305
       0.031
      -0.396
      -0.821
      -0.984
      -0.755
      -0.283
       0.144
       0.364
       0.425
       0.447
       0.459
       0.364
       0.069
      -0.350
      -0.619
      -0.458
       0.100
       0.634
       0.651
       0.057
      -0.684
      -0.917
      -0.392
       0.470
       0.945
       0.688
       0.009
      -0.504
      -0.521
      -0.149
       0.301
       0.569
       0.532
       0.182
      -0.359
      -0.834
      -0.989
      -0.753
      -0.263
       0.298
       0.790
       1.063
       0.951
       0.437
      -0.218
      -0.639
      -0.646
      -0.357
      -0.024
       0.180
       0.220
       0.135
      -0.035
      -0.234
      -0.363
      -0.335
      -0.170
       0.027
       0.184
       0.299
       0.365
       0.349
       0.235
       0.070
      -0.080
      -0.178
      -0.225
      -0.211
      -0.130
      -0.026
       0.019
      -0.025
      -0.085
      -0.052
       0.101
       0.269
       0.286
       0.082
      -0.218
      -0.390
      -0.323
      -0.129
      -0.026
      -0.109
      -0.247
      -0.203
       0.118
       0.528
       0.683
       0.404
      -0.129
      -0.510
      -0.450
      -0.010
       0.463
       0.618
       0.368
      -0.069
      -0.359
      -0.310
      -0.022
       0.175
      -0.014
      -0.523
      -0.901
      -0.687
       0.097
       0.874
       0.991
       0.348
      -0.477
      -0.775
      -0.376
       0.252
       0.525
       0.303
      -0.059
      -0.147
       0.072
       0.271
       0.176
      -0.137
      -0.364
      -0.333
      -0.147
      -0.002
       0.054
       0.113
       0.228
       0.301
       0.196
      -0.075
      -0.320
      -0.352
      -0.181
      -0.002
       0.035
       0.000
       0.071
       0.251
       0.311
       0.049
      -0.420
      -0.717
      -0.532
       0.077
       0.700
       0.908
       0.615
       0.128
      -0.176
      -0.190
      -0.106
      -0.136
      -0.270
      -0.315
      -0.133
       0.162
       0.292
       0.113
      -0.202
      -0.334
      -0.155
       0.154
       0.329
       0.273
       0.080
      -0.112
      -0.221
      -0.216
      -0.088
       0.108
       0.231
       0.155
      -0.082
      -0.307
      -0.395
      -0.346
      -0.189
       0.091
       0.443
       0.653
       0.491
      -0.018
      -0.532
      -0.656
      -0.289
       0.293
       0.656
       0.533
       0.024
      -0.482
      -0.626
      -0.368
       0.004
       0.151
      -0.007
      -0.224
      -0.194
       0.116
       0.421
       0.425
       0.158
      -0.071
      -0.031
       0.180
       0.263
       0.051
      -0.324
      -0.568
      -0.491
      -0.159
