Origin Time       11/11/2013 20:11:30 UTC
Lat.              28.4 N	
Long.             77.2 E	
Depth (Km)         10.0
Magnitude         3.3
 Region           DELHI                                                            
 Above details taken from IMD 
    
Station Code      DJB
Station Lat.       28.652  N
Station Long.      77.188  E
Station Height(m)  235.0
Site Class        A   Vs30 between 700 m/sec to 1400 m/sec * 
Record Time       11.11.2013 15:20:17.174 UTC
Sampling Rate     200. Hz
 Record Duration   84.015 Sec.
 Direction         N-S (N positive)
Max. Acceleration      6.467 cm/sec**2
     
  * For reference see Site Classification link of website 
     
 Base Line Corrected and Low Pass Filtered (Cut Off at 35 Hz) Time History
 Acceleration data in cm/sec**2
    
[...]
       0.017
       0.016
       0.012
       0.010
       0.007
       0.001
      -0.006
      -0.010
      -0.005
       0.004
       0.010
       0.008
      -0.001
      -0.007
      -0.006
       0.002
       0.012
       0.015
       0.009
      -0.003
      -0.014
      -0.017
      -0.010
       0.001
       0.011
       0.014
       0.009
       0.001
      -0.003
      -0.004
      -0.001
       0.002
       0.007
       0.011
       0.014
       0.014
       0.009
       0.002
      -0.003
      -0.002
       0.004
       0.008
       0.007
       0.000
      -0.008
      -0.012
      -0.011
      -0.006
      -0.001
       0.005
       0.011
       0.016
       0.018
       0.012
       0.003
      -0.005
      -0.006
      -0.004
      -0.003
      -0.007
      -0.011
      -0.010
       0.001
       0.015
       0.023
       0.019
       0.009
       0.000
       0.000
       0.004
       0.008
       0.008
       0.005
       0.004
       0.005
       0.006
       0.003
      -0.002
      -0.005
      -0.002
       0.005
       0.011
       0.010
       0.003
      -0.003
      -0.004
       0.002
       0.008
       0.008
       0.002
      -0.004
      -0.005
       0.002
       0.009
       0.011
       0.008
       0.007
       0.010
       0.016
       0.020
       0.016
       0.008
       0.000
      -0.003
       0.000
       0.005
       0.009
       0.009
       0.005
       0.002
       0.001
       0.001
       0.001
       0.001
       0.004
       0.010
       0.015
       0.015
       0.009
       0.002
       0.001
       0.008
       0.017
       0.021
       0.017
       0.010
       0.006
       0.008
       0.013
       0.014
       0.010
       0.005
       0.002
       0.003
       0.005
       0.005
       0.002
      -0.002
      -0.003
       0.001
       0.008
       0.014
       0.016
       0.013
       0.009
       0.006
       0.006
       0.007
       0.007
       0.005
       0.004
       0.006
       0.009
       0.011
       0.008
       0.003
      -0.001
      -0.002
       0.000
       0.002
       0.002
       0.002
       0.005
       0.009
       0.011
       0.011
       0.009
       0.010
       0.013
       0.014
       0.010
       0.002
      -0.003
      -0.001
       0.005
       0.008
       0.003
      -0.008
      -0.014
      -0.010
       0.002
       0.011
       0.011
       0.002
      -0.008
      -0.010
      -0.003
       0.006
       0.008
       0.002
      -0.005
      -0.006
      -0.001
       0.003
      -0.001
      -0.010
      -0.016
      -0.014
      -0.005
       0.004
       0.005
       0.000
      -0.004
      -0.002
       0.004
       0.007
       0.005
       0.000
      -0.005
      -0.005
      -0.002
       0.003
       0.007
       0.010
       0.011
       0.011
       0.008
       0.002
      -0.001
       0.002
       0.010
       0.017
       0.017
       0.009
      -0.001
      -0.006
      -0.005
      -0.001
       0.001
       0.002
       0.003
       0.008
       0.014
       0.018
       0.016
       0.009
       0.001
      -0.001
       0.006
       0.014
       0.017
       0.010
      -0.002
      -0.008
      -0.004
       0.006
       0.014
       0.015
       0.011
       0.005
       0.003
       0.005
       0.007
       0.008
       0.008
       0.010
       0.015
       0.019
       0.017
       0.011
       0.005
       0.003
       0.006
       0.009
       0.011
       0.010
       0.008
       0.009
       0.012
       0.013
       0.012
       0.011
       0.012
       0.016
       0.020
       0.019
       0.013
       0.007
       0.007
       0.013
       0.021
       0.023
       0.019
       0.011
       0.005
       0.002
       0.003
       0.004
       0.004
       0.003
       0.002
       0.003
       0.002
       0.001
       0.001
       0.003
       0.009
       0.015
       0.016
       0.010
       0.000
      -0.007
      -0.006
       0.004
       0.015
       0.017
       0.009
      -0.002
      -0.009
      -0.006
       0.002
       0.008
       0.007
       0.004
       0.004
       0.010
       0.017
       0.018
       0.010
       0.002
       0.000
       0.006
       0.012
       0.011
       0.003
      -0.008
      -0.012
      -0.009
      -0.002
       0.004
       0.005
       0.003
       0.001
       0.000
       0.002
       0.004
       0.005
       0.004
       0.003
       0.003
       0.004
       0.005
       0.006
       0.006
       0.007
       0.008
       0.008
       0.004
       0.000
      -0.001
       0.005
       0.014
       0.019
       0.016
       0.006
      -0.004
      -0.007
      -0.006
      -0.003
       0.001
       0.004
       0.009
       0.011
       0.006
      -0.005
      -0.015
      -0.018
      -0.010
       0.004
       0.012
       0.011
       0.002
      -0.006
      -0.007
      -0.003
       0.002
       0.004
       0.004
       0.005
       0.007
       0.006
       0.002
      -0.005
      -0.012
      -0.016
      -0.015
      -0.010
      -0.004
       0.001
       0.003
       0.004
       0.002
       0.000
      -0.004
      -0.008
      -0.009
      -0.006
      -0.001
       0.002
      -0.002
      -0.010
      -0.017
      -0.015
      -0.005
       0.006
       0.009
       0.004
      -0.002
      -0.004
       0.000
       0.004
       0.003
      -0.003
      -0.009
      -0.009
      -0.001
       0.006
       0.008
       0.004
      -0.001
      -0.001
       0.004
       0.007
       0.004
      -0.002
      -0.007
      -0.003
       0.006
       0.012
       0.010
       0.000
      -0.010
      -0.013
      -0.007
       0.001
       0.004
       0.002
       0.000
       0.002
       0.007
       0.010
       0.008
       0.002
      -0.004
      -0.006
      -0.005
      -0.005
      -0.007
      -0.010
      -0.010
      -0.005
       0.002
       0.007
       0.006
       0.002
       0.000
       0.002
       0.004
       0.002
      -0.004
      -0.011
      -0.013
      -0.009
      -0.004
      -0.001
      -0.001
       0.000
       0.003
       0.007
       0.011
       0.009
       0.004
      -0.003
      -0.008
      -0.008
      -0.005
      -0.002
       0.001
       0.005
       0.009
       0.011
       0.007
      -0.002
      -0.009
      -0.007
       0.001
       0.009
       0.007
      -0.002
      -0.013
      -0.018
      -0.016
      -0.010
      -0.005
      -0.003
      -0.003
      -0.002
      -0.001
      -0.002
      -0.003
      -0.005
      -0.005
      -0.003
       0.001
       0.002
       0.000
      -0.003
      -0.004
      -0.001
       0.004
       0.007
       0.004
      -0.003
      -0.006
      -0.003
       0.004
       0.008
       0.004
      -0.004
      -0.010
      -0.009
      -0.005
      -0.003
      -0.007
      -0.012
      -0.012
      -0.007
       0.000
       0.002
      -0.002
      -0.009
      -0.013
      -0.011
      -0.006
      -0.002
      -0.001
      -0.004
      -0.010
      -0.016
      -0.018
      -0.016
      -0.010
      -0.002
       0.005
       0.007
       0.003
      -0.004
      -0.008
      -0.008
      -0.002
       0.003
       0.005
       0.002
      -0.002
      -0.004
      -0.001
       0.002
       0.003
       0.001
       0.001
       0.005
       0.011
       0.015
       0.013
       0.003
      -0.007
      -0.013
      -0.009
      -0.003
       0.000
      -0.005
      -0.012
      -0.013
      -0.006
       0.006
       0.013
       0.010
      -0.001
      -0.012
      -0.014
      -0.007
       0.002
       0.005
       0.001
      -0.005
      -0.005
      -0.001
       0.002
      -0.002
      -0.011
      -0.013
      -0.003
       0.012
       0.020
       0.014
       0.000
      -0.009
      -0.005
       0.007
       0.015
       0.015
       0.010
       0.007
       0.008
       0.008
       0.004
      -0.002
      -0.006
       0.000
       0.012
       0.022
       0.023
       0.014
       0.002
      -0.003
       0.000
       0.005
       0.007
       0.005
       0.001
      -0.001
      -0.002
      -0.002
      -0.002
      -0.003
      -0.002
       0.000
       0.002
       0.001
      -0.004
      -0.009
      -0.009
      -0.002
       0.009
       0.015
       0.011
      -0.002
      -0.014
      -0.013
       0.005
       0.022
       0.020
      -0.003
       0.002
       0.102
       0.311
       0.514
       0.508
       0.173
      -0.345
      -0.680
      -0.558
      -0.077
       0.368
       0.450
       0.151
      -0.323
      -0.726
      -0.827
      -0.472
       0.242
       0.886
       0.961
       0.326
      -0.647
      -1.328
      -1.282
      -0.533
       0.498
       1.247
       1.306
       0.651
      -0.311
      -0.971
      -0.916
      -0.175
       0.798
       1.319
       0.833
      -0.583
      -1.997
      -2.172
      -0.643
       1.684
       3.132
       2.638
       0.653
      -1.321
      -2.069
      -1.530
      -0.497
       0.262
       0.531
       0.525
       0.472
       0.329
      -0.090
      -0.696
      -0.998
      -0.565
       0.382
       1.007
       0.564
      -0.821
      -2.030
      -1.757
       0.248
       2.673
       3.626
       2.318
      -0.212
      -2.122
      -2.412
      -1.509
      -0.425
       0.311
       0.815
       1.234
       1.299
       0.621
      -0.655
      -1.689
      -1.625
      -0.432
       1.015
       1.680
       1.145
      -0.204
      -1.492
      -1.881
      -1.139
       0.140
       1.026
       1.093
       0.664
       0.263
       0.037
      -0.187
      -0.447
      -0.494
      -0.132
       0.444
       0.758
       0.506
      -0.133
      -0.633
      -0.590
      -0.071
       0.503
       0.745
       0.493
      -0.181
      -0.928
      -1.169
      -0.526
       0.673
       1.512
       1.288
       0.164
      -0.990
      -1.372
      -0.848
       0.087
       0.798
       0.933
       0.531
      -0.083
      -0.482
      -0.467
      -0.278
      -0.323
      -0.640
      -0.807
      -0.423
       0.462
       1.363
       1.701
       1.204
       0.128
      -0.952
      -1.587
      -1.615
      -0.972
       0.306
       1.781
       2.573
       1.958
       0.058
      -2.069
      -3.103
      -2.372
      -0.363
       1.569
       2.165
       1.226
      -0.279
      -1.124
      -0.884
      -0.129
       0.345
       0.337
       0.284
       0.583
       1.039
       1.047
       0.262
      -0.982
      -1.875
      -1.779
      -0.753
       0.503
       1.242
       1.235
       0.794
       0.330
       0.003
      -0.233
      -0.398
      -0.447
      -0.405
      -0.393
      -0.451
      -0.407
      -0.053
       0.588
       1.192
       1.327
       0.758
      -0.341
      -1.392
      -1.712
      -1.008
       0.291
       1.280
       1.308
       0.500
      -0.443
      -0.885
      -0.675
      -0.106
       0.394
       0.573
       0.487
       0.298
       0.024
      -0.401
      -0.818
      -0.847
      -0.343
       0.317
       0.574
       0.297
      -0.103
      -0.158
       0.153
       0.442
       0.402
       0.152
       0.012
       0.013
      -0.145
      -0.580
      -0.885
      -0.528
       0.439
       1.276
       1.250
       0.346
      -0.770
      -1.346
      -1.080
      -0.250
       0.528
       0.771
       0.474
       0.001
      -0.319
      -0.378
      -0.208
       0.085
       0.304
       0.278
       0.055
      -0.150
      -0.209
      -0.186
      -0.167
      -0.085
       0.205
       0.675
       0.979
       0.673
      -0.307
      -1.366
      -1.646
      -0.836
       0.475
       1.325
       1.249
       0.542
      -0.208
      -0.651
      -0.717
      -0.412
       0.130
       0.514
       0.345
      -0.288
      -0.800
      -0.667
       0.080
       0.906
       1.224
       0.825
      -0.007
      -0.735
      -0.939
      -0.585
      -0.011
       0.358
       0.366
       0.192
       0.081
       0.063
      -0.042
      -0.350
      -0.649
      -0.530
       0.089
       0.690
       0.633
      -0.079
      -0.732
      -0.670
       0.018
       0.668
       0.749
       0.309
      -0.190
      -0.340
      -0.111
       0.200
       0.264
      -0.013
      -0.425
      -0.584
      -0.223
       0.479
       0.919
       0.611
      -0.273
      -0.998
      -0.985
      -0.372
       0.230
       0.440
       0.424
       0.471
       0.505
       0.216
      -0.406
      -0.913
      -0.824
      -0.103
       0.788
       1.228
       0.891
       0.017
      -0.742
      -0.890
      -0.521
      -0.149
      -0.096
      -0.193
      -0.101
       0.195
       0.364
       0.180
      -0.117
      -0.035
       0.553
       1.110
       0.908
      -0.149
      -1.278
      -1.529
      -0.713
       0.434
       0.987
       0.673
      -0.009
      -0.365
      -0.157
       0.271
       0.398
       0.029
      -0.573
      -1.021
      -1.193
      -1.201
      -1.051
      -0.475
       0.733
       2.185
       2.867
       1.926
      -0.354
      -2.501
      -2.949
      -1.334
       1.221
       3.059
       3.261
       2.127
       0.585
      -0.678
      -1.517
      -2.003
      -2.057
      -1.511
      -0.471
       0.525
       0.899
       0.653
       0.369
       0.398
       0.249
      -0.807
      -2.513
      -3.322
      -1.688
       2.154
       5.813
       6.467
       3.338
      -1.464
      -4.709
      -4.758
      -2.557
      -0.214
       0.929
       0.843
       0.200
      -0.224
       0.123
       1.219
       2.314
       2.377
       0.901
      -1.606
      -3.756
      -4.027
      -1.861
       1.612
       4.071
       3.695
       0.660
      -2.956
      -4.822
      -3.994
      -1.216
       1.915
       3.863
       3.759
       1.787
      -0.861
      -2.711
      -2.837
      -1.215
       1.313
       3.322
       3.585
       1.969
      -0.476
      -2.326
      -2.642
      -1.339
       0.851
       2.687
       3.069
       1.706
      -0.597
      -2.308
      -2.190
      -0.427
       1.323
       1.395
      -0.237
      -1.955
      -2.085
      -0.360
       2.004
       3.314
       2.537
      -0.048
      -2.983
      -4.587
      -4.054
      -1.845
       0.731
       2.242
       1.887
       0.076
      -1.682
      -1.836
      -0.080
       2.300
       3.466
       2.549
       0.233
      -1.988
      -2.948
      -2.357
      -0.666
       1.281
       2.520
       2.340
       0.819
      -1.013
      -1.893
      -1.434
      -0.389
       0.236
       0.132
      -0.229
      -0.170
       0.585
       1.596
       1.897
       0.796
      -1.253
      -2.671
      -2.019
       0.503
       2.944
       3.251
       1.083
      -2.032
      -4.066
      -3.915
      -1.920
       0.591
       2.342
       2.927
       2.719
       2.150
       1.342
       0.283
      -0.951
      -2.079
      -2.478
      -1.467
       0.749
       2.625
       2.438
       0.096
      -2.589
      -3.627
      -2.603
      -0.657
       0.854
       1.340
       1.046
       0.675
       0.725
       0.855
       0.196
      -1.280
      -2.143
      -0.910
       1.990
       4.210
       3.661
       0.526
      -2.940
      -4.426
      -3.270
      -0.488
       2.288
       3.731
       3.258
       1.266
      -0.931
      -1.900
      -1.324
      -0.358
      -0.383
      -1.359
      -1.797
      -0.534
       1.797
       3.303
       2.684
       0.350
      -2.104
      -3.236
      -2.662
      -1.048
       0.509
       1.217
       0.999
       0.389
       0.034
       0.174
       0.519
       0.608
       0.234
      -0.405
      -0.836
      -0.595
       0.308
       1.093
       0.692
      -1.080
      -2.896
      -2.877
      -0.465
       2.755
       4.342
       3.218
       0.566
      -1.489
      -1.894
      -1.236
      -0.581
      -0.247
       0.132
       0.682
       0.864
       0.116
      -1.272
      -2.139
      -1.449
       0.660
       2.746
       3.077
       1.089
      -1.910
      -3.636
      -2.758
      -0.097
       2.179
       2.575
       1.432
       0.222
      -0.080
       0.180
       0.012
      -0.923
      -1.842
      -1.663
      -0.179
       1.615
       2.324
       1.327
      -0.637
      -1.997
      -1.676
      -0.039
       1.473
       1.644
       0.447
      -1.096
      -1.799
      -1.150
       0.357
       1.530
       1.404
       0.138
      -1.104
      -1.304
      -0.512
       0.439
       0.891
       0.809
       0.463
       0.000
      -0.541
      -0.937
      -0.768
       0.113
       1.168
       1.487
       0.666
      -0.671
      -1.358
      -0.810
       0.366
       0.957
       0.373
      -0.768
      -1.314
      -0.766
       0.288
       0.855
       0.548
      -0.109
      -0.304
       0.184
       0.760
       0.685
      -0.113
      -0.942
      -1.073
      -0.438
       0.396
       0.812
       0.633
       0.169
      -0.134
      -0.128
      -0.049
      -0.169
      -0.408
      -0.428
      -0.076
       0.373
       0.478
       0.123
      -0.332
      -0.425
      -0.099
       0.258
       0.281
       0.018
      -0.209
      -0.226
      -0.157
      -0.149
      -0.130
       0.078
       0.496
       0.903
       0.974
       0.551
      -0.163
      -0.712
      -0.800
      -0.561
      -0.324
      -0.173
       0.120
       0.668
       1.120
       0.917
      -0.074
      -1.270
      -1.798
      -1.210
       0.139
       1.327
       1.578
       0.881
      -0.023
      -0.364
      -0.080
       0.206
      -0.062
      -0.747
      -1.193
      -0.933
      -0.146
       0.544
       0.643
       0.199
      -0.284
      -0.363
      -0.084
       0.145
       0.092
       0.001
       0.273
       0.906
       1.343
       0.976
      -0.171
      -1.326
      -1.651
      -1.027
      -0.079
       0.493
       0.513
       0.364
       0.529
       1.030
       1.256
       0.524
      -1.060
      -2.428
      -2.430
      -0.891
       1.195
       2.455
       2.139
       0.616
      -0.947
      -1.495
      -0.878
       0.176
       0.819
       0.773
       0.330
      -0.094
      -0.269
      -0.159
       0.133
       0.351
       0.214
      -0.304
      -0.874
      -1.081
      -0.794
      -0.270
       0.096
       0.110
      -0.047
       0.016
       0.521
       1.252
       1.662
       1.334
       0.356
      -0.750
      -1.438
      -1.477
      -1.041
      -0.532
      -0.215
       0.031
       0.462
       0.995
       1.177
       0.770
       0.144
      -0.097
       0.171
       0.424
       0.101
      -0.683
      -1.190
      -0.844
       0.137
       0.973
       1.075
       0.443
      -0.546
      -1.433
      -1.769
      -1.272
      -0.112
       1.075
       1.669
       1.530
       0.957
       0.297
      -0.270
      -0.645
      -0.701
      -0.417
      -0.020
       0.178
       0.138
       0.112
       0.225
       0.217
      -0.192
      -0.801
      -1.020
      -0.470
       0.600
       1.447
       1.379
       0.317
      -1.039
      -1.681
      -1.104
       0.259
