Origin Time       05/3/2012 07:41:05	 UTC
Lat.              28.7 N	
Long.             76.6 E	
Depth (Km)         14.0
Magnitude         4.9
 Region           Haryana-Delhi-Border-Region                                      
 Above details taken from IMD 
    
Station Code      DJB
Station Lat.       28.652  N
Station Long.      77.188  E
Station Height(m)  235.0
Site Class        A   Vs30 between 700 m/sec to 1400 m/sec * 
Record Time       05.03.2012 06:16:02.819 UTC
Sampling Rate     200. Hz
 Record Duration   94.340 Sec.
 Direction         N-S (N positive)
Max. Acceleration     -2.675 cm/sec**2
     
  * For reference see Site Classification link of website 
     
 Base Line Corrected and Low Pass Filtered (Cut Off at 35 Hz) Time History
 Acceleration data in cm/sec**2
    
[...]
       0.089
       0.256
       0.291
       0.232
       0.132
       0.030
      -0.050
      -0.080
      -0.027
       0.124
       0.334
       0.506
       0.532
       0.367
       0.068
      -0.230
      -0.403
      -0.422
      -0.356
      -0.305
      -0.301
      -0.281
      -0.159
       0.080
       0.342
       0.486
       0.428
       0.214
      -0.006
      -0.084
       0.030
       0.253
       0.445
       0.510
       0.449
       0.326
       0.196
       0.055
      -0.134
      -0.377
      -0.604
      -0.703
      -0.604
      -0.341
      -0.042
       0.154
       0.187
       0.090
      -0.048
      -0.157
      -0.214
      -0.228
      -0.203
      -0.128
      -0.001
       0.143
       0.238
       0.237
       0.155
       0.054
      -0.003
       0.009
       0.080
       0.185
       0.300
       0.401
       0.458
       0.440
       0.340
       0.173
      -0.020
      -0.188
      -0.282
      -0.273
      -0.178
      -0.064
      -0.019
      -0.095
      -0.262
      -0.418
      -0.451
      -0.318
      -0.072
       0.170
       0.299
       0.278
       0.146
      -0.014
      -0.136
      -0.197
      -0.220
      -0.239
      -0.267
      -0.284
      -0.256
      -0.162
      -0.015
       0.131
       0.195
       0.110
      -0.131
      -0.444
      -0.685
      -0.724
      -0.533
      -0.209
       0.085
       0.232
       0.226
       0.154
       0.117
       0.162
       0.267
       0.376
       0.438
       0.428
       0.356
       0.264
       0.205
       0.210
       0.260
       0.294
       0.249
       0.113
      -0.059
      -0.173
      -0.163
      -0.047
       0.077
       0.097
      -0.025
      -0.216
      -0.344
      -0.325
      -0.182
      -0.009
       0.118
       0.187
       0.222
       0.218
       0.143
      -0.011
      -0.189
      -0.298
      -0.284
      -0.175
      -0.051
       0.016
       0.000
      -0.085
      -0.204
      -0.305
      -0.333
      -0.255
      -0.087
       0.107
       0.248
       0.290
       0.245
       0.176
       0.147
       0.181
       0.245
       0.286
       0.269
       0.198
       0.101
       0.014
      -0.026
       0.016
       0.140
       0.290
       0.360
       0.259
      -0.013
      -0.352
      -0.603
      -0.661
      -0.529
      -0.305
      -0.106
       0.008
       0.056
       0.108
       0.213
       0.356
       0.466
       0.469
       0.347
       0.163
       0.019
      -0.019
       0.040
       0.118
       0.141
       0.090
       0.009
      -0.048
      -0.065
      -0.070
      -0.100
      -0.156
      -0.198
      -0.184
      -0.112
      -0.022
       0.029
       0.006
      -0.081
      -0.183
      -0.236
      -0.187
      -0.011
       0.279
       0.614
       0.880
       0.962
       0.815
       0.501
       0.149
      -0.127
      -0.298
      -0.411
      -0.520
      -0.626
      -0.679
      -0.628
      -0.479
      -0.290
      -0.119
       0.012
       0.125
       0.234
       0.315
       0.314
       0.203
       0.022
      -0.133
      -0.191
      -0.164
      -0.142
      -0.213
      -0.382
      -0.560
      -0.626
      -0.514
      -0.251
       0.060
       0.296
       0.377
       0.313
       0.196
       0.137
       0.176
       0.256
       0.266
       0.145
      -0.056
      -0.215
      -0.236
      -0.143
      -0.051
      -0.060
      -0.153
      -0.209
      -0.110
       0.139
       0.407
       0.544
       0.484
       0.273
       0.007
      -0.233
      -0.398
      -0.451
      -0.368
      -0.166
       0.070
       0.209
       0.149
      -0.106
      -0.429
      -0.638
      -0.595
      -0.290
       0.148
       0.519
       0.657
       0.515
       0.190
      -0.137
      -0.306
      -0.255
      -0.049
       0.183
       0.335
       0.381
       0.358
       0.310
       0.245
       0.143
      -0.002
      -0.156
      -0.269
      -0.309
      -0.274
      -0.179
      -0.045
       0.094
       0.174
       0.138
      -0.016
      -0.193
      -0.248
      -0.091
       0.226
       0.520
       0.597
       0.385
      -0.014
      -0.403
      -0.616
      -0.602
      -0.409
      -0.131
       0.141
       0.318
       0.330
       0.161
      -0.112
      -0.339
      -0.391
      -0.250
      -0.020
       0.151
       0.185
       0.116
       0.042
       0.036
       0.100
       0.179
       0.228
       0.233
       0.209
       0.169
       0.123
       0.079
       0.055
       0.059
       0.077
       0.084
       0.072
       0.066
       0.104
       0.197
       0.289
       0.287
       0.128
      -0.167
      -0.486
      -0.693
      -0.701
      -0.523
      -0.254
      -0.017
       0.109
       0.118
       0.064
       0.020
       0.032
       0.104
       0.202
       0.279
       0.285
       0.197
       0.022
      -0.198
      -0.406
      -0.541
      -0.554
      -0.430
      -0.203
       0.041
       0.201
       0.227
       0.143
       0.026
      -0.059
      -0.104
      -0.139
      -0.181
      -0.193
      -0.110
       0.097
       0.360
       0.532
       0.477
       0.189
      -0.189
      -0.453
      -0.491
      -0.354
      -0.200
      -0.158
      -0.229
      -0.304
      -0.271
      -0.106
       0.114
       0.286
       0.360
       0.359
       0.336
       0.326
       0.333
       0.339
       0.318
       0.253
       0.152
       0.069
       0.075
       0.190
       0.335
       0.371
       0.219
      -0.046
      -0.240
      -0.218
      -0.013
       0.183
       0.179
      -0.059
      -0.387
      -0.611
      -0.638
      -0.512
      -0.331
      -0.149
       0.037
       0.226
       0.365
       0.368
       0.206
      -0.041
      -0.219
      -0.210
      -0.024
       0.205
       0.316
       0.216
      -0.065
      -0.413
      -0.691
      -0.804
      -0.735
      -0.537
      -0.293
      -0.070
       0.095
       0.189
       0.201
       0.139
       0.062
       0.073
       0.244
       0.519
       0.721
       0.694
       0.456
       0.208
       0.161
       0.342
       0.560
       0.582
       0.341
      -0.009
      -0.234
      -0.217
      -0.047
       0.067
      -0.033
      -0.326
      -0.635
      -0.766
      -0.659
      -0.423
      -0.244
      -0.230
      -0.327
      -0.380
      -0.274
      -0.036
       0.188
       0.272
       0.223
       0.170
       0.233
       0.400
       0.532
       0.490
       0.266
      -0.016
      -0.215
      -0.293
      -0.326
      -0.412
      -0.557
      -0.664
      -0.615
      -0.385
      -0.080
       0.139
       0.187
       0.126
       0.118
       0.281
       0.584
       0.847
       0.880
       0.630
       0.232
      -0.097
      -0.225
      -0.201
      -0.192
      -0.326
      -0.590
      -0.836
      -0.891
      -0.668
      -0.213
       0.317
       0.734
       0.909
       0.840
       0.627
       0.398
       0.216
       0.068
      -0.077
      -0.213
      -0.299
      -0.313
      -0.285
      -0.260
      -0.253
      -0.226
      -0.140
       0.007
       0.171
       0.288
       0.317
       0.249
       0.126
       0.022
       0.007
       0.096
       0.233
       0.322
       0.296
       0.155
      -0.044
      -0.229
      -0.342
      -0.349
      -0.243
      -0.049
       0.178
       0.369
       0.474
       0.466
       0.329
       0.059
      -0.309
      -0.669
      -0.866
      -0.774
      -0.390
       0.147
       0.615
       0.831
       0.738
       0.419
       0.033
      -0.264
      -0.387
      -0.355
      -0.264
      -0.227
      -0.286
      -0.387
      -0.427
      -0.349
      -0.188
      -0.043
       0.004
      -0.042
      -0.098
      -0.069
       0.067
       0.231
       0.302
       0.225
       0.069
      -0.031
       0.014
       0.174
       0.336
       0.396
       0.330
       0.180
      -0.004
      -0.185
      -0.328
      -0.377
      -0.284
      -0.064
       0.189
       0.337
       0.287
       0.047
      -0.271
      -0.506
      -0.540
      -0.377
      -0.163
      -0.097
      -0.280
      -0.613
      -0.852
      -0.788
      -0.403
       0.119
       0.524
       0.656
       0.520
       0.232
      -0.069
      -0.270
      -0.309
      -0.182
       0.049
       0.283
       0.426
       0.431
       0.312
       0.130
      -0.027
      -0.087
      -0.026
       0.112
       0.251
       0.329
       0.333
       0.279
       0.192
       0.095
       0.030
       0.054
       0.188
       0.383
       0.530
       0.539
       0.410
       0.237
       0.140
       0.162
       0.235
       0.233
       0.081
      -0.179
      -0.408
      -0.488
      -0.417
      -0.310
      -0.284
      -0.349
      -0.415
      -0.397
      -0.308
      -0.244
      -0.275
      -0.367
      -0.420
      -0.365
      -0.234
      -0.140
      -0.190
      -0.411
      -0.728
      -0.999
      -1.095
      -0.966
      -0.667
      -0.313
      -0.019
       0.146
       0.160
       0.044
      -0.146
      -0.320
      -0.390
      -0.323
      -0.169
      -0.039
      -0.036
      -0.193
      -0.439
      -0.637
      -0.673
      -0.529
      -0.299
      -0.104
       0.008
       0.099
       0.268
       0.545
       0.845
       1.033
       1.030
       0.871
       0.683
       0.601
       0.702
       0.963
       1.273
       1.471
       1.439
       1.167
       0.768
       0.408
       0.203
       0.162
       0.214
       0.268
       0.272
       0.231
       0.190
       0.188
       0.218
       0.226
       0.161
       0.040
      -0.053
      -0.031
       0.110
       0.269
       0.310
       0.166
      -0.109
      -0.382
      -0.541
      -0.567
      -0.521
      -0.469
      -0.427
      -0.376
      -0.296
      -0.180
      -0.028
       0.160
       0.361
       0.519
       0.551
       0.385
       0.016
      -0.450
      -0.827
      -0.931
      -0.683
      -0.167
       0.416
       0.847
       0.997
       0.857
       0.508
       0.063
      -0.352
      -0.612
      -0.632
      -0.441
      -0.207
      -0.140
      -0.330
      -0.645
      -0.825
      -0.693
      -0.299
       0.134
       0.396
       0.435
       0.333
       0.195
       0.053
      -0.110
      -0.289
      -0.413
      -0.401
      -0.241
      -0.036
       0.039
      -0.140
      -0.532
      -0.915
      -0.998
      -0.602
       0.220
       1.202
       2.004
       2.376
       2.251
       1.738
       1.039
       0.358
      -0.163
      -0.462
      -0.571
      -0.601
      -0.683
      -0.879
      -1.124
      -1.252
      -1.119
      -0.706
      -0.138
       0.385
       0.692
       0.709
       0.466
       0.065
      -0.361
      -0.678
      -0.770
      -0.585
      -0.165
       0.362
       0.846
       1.186
       1.364
       1.423
       1.410
       1.324
       1.106
       0.683
       0.042
      -0.705
      -1.345
      -1.685
      -1.686
      -1.500
      -1.353
      -1.358
      -1.416
      -1.301
      -0.864
      -0.189
       0.451
       0.791
       0.760
       0.518
       0.322
       0.345
       0.570
       0.819
       0.887
       0.689
       0.335
       0.043
      -0.045
       0.003
      -0.033
      -0.323
      -0.824
      -1.312
      -1.550
      -1.464
      -1.173
      -0.887
      -0.761
      -0.808
      -0.912
      -0.915
      -0.728
      -0.373
       0.053
       0.455
       0.786
       1.037
       1.199
       1.235
       1.113
       0.836
       0.467
       0.099
      -0.179
      -0.308
      -0.267
      -0.080
       0.177
       0.387
       0.433
       0.273
       0.001
      -0.170
      -0.029
       0.455
       1.057
       1.404
       1.240
       0.632
      -0.059
      -0.421
      -0.291
       0.156
       0.559
       0.645
       0.387
      -0.036
      -0.403
      -0.587
      -0.587
      -0.481
      -0.345
      -0.208
      -0.063
       0.090
       0.216
       0.267
       0.219
       0.098
      -0.032
      -0.093
      -0.016
       0.210
       0.508
       0.726
       0.740
       0.563
       0.331
       0.175
       0.089
      -0.079
      -0.489
      -1.148
      -1.857
      -2.297
      -2.214
      -1.557
      -0.512
       0.597
       1.467
       1.927
       1.947
       1.589
       0.967
       0.247
      -0.372
      -0.722
      -0.749
      -0.547
      -0.295
      -0.139
      -0.115
      -0.177
      -0.290
      -0.478
      -0.758
      -1.047
      -1.170
      -0.987
      -0.535
      -0.018
       0.355
       0.529
       0.626
       0.788
       1.016
       1.143
       0.973
       0.472
      -0.168
      -0.636
      -0.714
      -0.401
       0.109
       0.582
       0.857
       0.881
       0.651
       0.175
      -0.507
      -1.263
      -1.857
      -2.035
      -1.688
      -0.945
      -0.104
       0.547
       0.895
       1.005
       1.005
       0.958
       0.841
       0.624
       0.364
       0.196
       0.227
       0.414
       0.546
       0.381
      -0.156
      -0.885
      -1.482
      -1.700
      -1.528
      -1.155
      -0.801
      -0.565
      -0.395
      -0.160
       0.252
       0.856
       1.540
       2.105
       2.373
       2.291
       1.940
       1.435
       0.810
       0.023
      -0.924
      -1.877
      -2.545
      -2.675
      -2.229
      -1.433
      -0.642
      -0.131
       0.055
       0.093
       0.222
       0.560
       1.015
       1.362
       1.416
       1.159
       0.745
       0.399
       0.283
       0.408
       0.621
       0.688
       0.445
      -0.093
      -0.736
      -1.233
      -1.398
      -1.178
      -0.675
      -0.124
       0.189
       0.065
      -0.463
      -1.113
      -1.504
      -1.384
      -0.792
      -0.018
       0.586
       0.820
       0.743
       0.606
       0.677
       1.046
       1.547
       1.862
       1.737
       1.154
       0.321
      -0.470
      -1.014
      -1.247
      -1.202
      -0.925
      -0.461
       0.110
       0.639
       0.962
       1.007
       0.856
       0.669
       0.537
       0.381
       0.016
      -0.674
      -1.581
      -2.372
      -2.670
      -2.291
      -1.364
      -0.237
       0.737
       1.359
       1.623
       1.650
       1.611
       1.632
       1.737
       1.834
       1.767
       1.422
       0.798
       0.014
      -0.759
      -1.353
      -1.624
      -1.470
      -0.901
      -0.104
       0.573
       0.794
       0.446
      -0.277
      -1.009
      -1.457
      -1.556
      -1.430
      -1.220
      -0.953
      -0.578
      -0.110
       0.289
       0.399
       0.153
      -0.241
      -0.403
      -0.075
       0.652
       1.365
       1.622
       1.268
       0.545
      -0.068
      -0.180
       0.244
       0.858
       1.167
       0.877
       0.085
      -0.789
      -1.280
      -1.161
      -0.561
       0.135
       0.540
       0.517
       0.239
       0.024
       0.055
       0.243
       0.354
       0.271
       0.123
       0.153
       0.435
       0.743
       0.717
       0.193
      -0.614
      -1.244
      -1.326
      -0.818
       0.009
       0.784
       1.241
       1.301
       1.050
       0.688
       0.427
       0.349
       0.324
       0.108
      -0.412
      -1.073
      -1.548
      -1.639
      -1.450
      -1.274
      -1.313
      -1.511
      -1.628
      -1.462
      -1.011
      -0.460
      -0.045
       0.099
      -0.004
      -0.224
      -0.421
      -0.510
      -0.461
      -0.291
      -0.060
       0.136
       0.209
       0.153
       0.061
       0.075
       0.283
       0.647
       1.005
       1.177
       1.109
       0.946
       0.939
       1.225
       1.659
       1.869
       1.528
       0.615
      -0.541
      -1.464
      -1.831
      -1.620
      -1.064
      -0.456
       0.024
       0.375
       0.699
       1.035
       1.260
       1.163
       0.645
      -0.140
      -0.852
      -1.202
      -1.159
      -0.937
      -0.797
      -0.809
      -0.788
      -0.466
       0.249
       1.142
       1.822
       1.997
       1.657
       1.029
       0.372
      -0.185
      -0.613
      -0.853
      -0.778
      -0.329
       0.317
       0.755
       0.609
      -0.155
      -1.170
      -1.918
      -2.100
      -1.795
      -1.300
      -0.843
      -0.425
       0.093
       0.774
       1.480
       1.924
       1.890
       1.431
       0.850
       0.454
       0.287
       0.112
      -0.330
      -1.025
      -1.657
      -1.839
      -1.416
      -0.571
       0.308
       0.869
       0.980
       0.739
       0.375
       0.106
       0.025
       0.056
       0.024
      -0.178
      -0.461
      -0.574
      -0.313
       0.276
       0.890
       1.178
       0.995
       0.483
      -0.070
      -0.456
      -0.670
      -0.835
      -1.041
      -1.252
      -1.348
      -1.242
      -0.971
      -0.665
      -0.422
      -0.184
       0.216
       0.859
       1.565
       1.970
       1.837
       1.295
       0.765
       0.584
       0.708
       0.774
       0.475
      -0.128
      -0.647
      -0.711
      -0.288
       0.294
       0.612
       0.454
      -0.083
      -0.727
      -1.247
      -1.551
      -1.631
      -1.494
      -1.173
      -0.776
      -0.450
      -0.269
      -0.161
       0.031
       0.399
       0.880
       1.294
       1.474
       1.379
       1.105
       0.805
       0.586
       0.459
       0.373
       0.286
       0.193
       0.098
      -0.033
      -0.268
      -0.650
      -1.117
      -1.475
      -1.468
      -0.945
       0.007
       1.054
       1.788
       1.967
       1.641
       1.087
       0.584
       0.226
      -0.084
      -0.472
      -0.927
      -1.282
      -1.335
      -0.998
      -0.376
       0.273
       0.668
       0.672
       0.393
       0.133
       0.170
       0.533
       0.950
       1.039
       0.602
      -0.218
      -1.033
      -1.488
      -1.470
      -1.119
      -0.677
      -0.336
      -0.142
      -0.007
       0.207
       0.558
       0.931
       1.086
       0.840
       0.245
      -0.415
      -0.827
      -0.892
      -0.774
      -0.737
      -0.888
      -1.079
      -1.048
      -0.674
      -0.131
       0.214
       0.102
      -0.397
      -0.924
      -1.093
      -0.750
      -0.037
       0.747
       1.323
       1.546
       1.428
       1.103
       0.760
       0.547
       0.482
       0.437
       0.234
      -0.202
      -0.765
      -1.216
      -1.340
      -1.069
      -0.517
       0.116
       0.645
       0.969
       1.059
       0.938
       0.677
       0.380
       0.141
      -0.020
      -0.171
      -0.408
      -0.756
      -1.121
      -1.355
      -1.366
      -1.175
      -0.863
      -0.468
       0.030
       0.628
       1.206
       1.563
       1.563
       1.246
       0.772
       0.279
      -0.186
      -0.595
      -0.857
      -0.850
      -0.563
      -0.172
       0.067
       0.026
      -0.167
      -0.220
       0.088
       0.731
       1.453
       1.933
       1.954
       1.475
       0.626
