Origin Time       11/11/2013 19:11:18
Lat.              28.5 N	
Long.             77.2 E	
Depth (Km)         10.0
Magnitude         3.1
 Region           DELHI                                                            
 Above details taken from IMD 
     
Station Code      DJB
Station Lat.       28.652  N
Station Long.      77.188  E
Station Height(m)  235.0
Site Class        A   Vs30 between 700 m/sec to 1400 m/sec * 
Record Time       11.11.2013 14:22:16.829
Sampling Rate     200. Hz
 Record Duration   80.550 Sec.
 Direction         E-W (E positive)
Max. Acceleration      3.270 cm/sec**2
     
  * For reference see Site Classification link of website 
     
 Base Line Corrected and Low Pass Filtered (Cut Off at 35 Hz) Time History
 Acceleration data in cm/sec**2
    
[...]
       0.003
       0.006
       0.008
       0.006
       0.002
       0.001
       0.004
       0.010
       0.014
       0.014
       0.012
       0.013
       0.017
       0.019
       0.016
       0.009
       0.002
       0.000
       0.002
       0.005
       0.008
       0.008
       0.004
       0.001
      -0.001
      -0.002
      -0.005
      -0.006
      -0.005
      -0.002
      -0.001
      -0.004
      -0.006
      -0.004
       0.004
       0.016
       0.024
       0.019
       0.004
      -0.011
      -0.015
      -0.005
       0.008
       0.014
       0.008
      -0.004
      -0.011
      -0.008
       0.001
       0.008
       0.009
       0.008
       0.008
       0.009
       0.007
       0.001
      -0.006
      -0.010
      -0.009
      -0.005
       0.000
       0.001
      -0.003
      -0.008
      -0.009
      -0.006
      -0.002
       0.000
      -0.001
      -0.001
       0.001
       0.004
       0.002
      -0.003
      -0.006
       0.000
       0.013
       0.023
       0.019
       0.005
      -0.008
      -0.010
      -0.003
       0.004
       0.003
      -0.005
      -0.012
      -0.013
      -0.009
      -0.005
      -0.004
      -0.004
       0.002
       0.011
       0.015
       0.010
      -0.002
      -0.011
      -0.010
       0.000
       0.011
       0.013
       0.008
       0.001
       0.000
       0.004
       0.007
       0.006
       0.005
       0.006
       0.009
       0.010
       0.009
       0.005
       0.003
       0.005
       0.013
       0.018
       0.016
       0.007
      -0.001
      -0.002
       0.004
       0.011
       0.013
       0.008
       0.000
      -0.004
      -0.005
      -0.007
      -0.014
      -0.019
      -0.017
      -0.003
       0.012
       0.018
       0.012
      -0.003
      -0.015
      -0.017
      -0.011
      -0.001
       0.004
       0.005
       0.006
       0.008
       0.009
       0.008
       0.008
       0.012
       0.021
       0.030
       0.031
       0.019
       0.003
      -0.006
      -0.001
       0.015
       0.028
       0.028
       0.019
       0.008
       0.002
       0.003
       0.005
       0.006
       0.004
       0.003
       0.007
       0.010
       0.008
       0.000
      -0.006
      -0.003
       0.007
       0.017
       0.022
       0.017
       0.008
       0.001
       0.000
       0.003
       0.006
       0.008
       0.009
       0.011
       0.011
       0.007
       0.002
      -0.002
       0.000
       0.005
       0.011
       0.012
       0.006
      -0.002
      -0.007
      -0.007
      -0.004
      -0.001
       0.002
       0.004
       0.008
       0.009
       0.005
      -0.004
      -0.013
      -0.015
      -0.007
       0.006
       0.014
       0.010
       0.000
      -0.007
      -0.004
       0.008
       0.017
       0.017
       0.007
      -0.002
      -0.002
       0.007
       0.015
       0.015
       0.010
       0.005
       0.005
       0.006
       0.006
       0.003
       0.001
       0.003
       0.008
       0.012
       0.010
       0.004
       0.001
       0.004
       0.010
       0.013
       0.011
       0.007
       0.004
       0.002
       0.001
       0.000
      -0.002
      -0.002
       0.004
       0.013
       0.019
       0.016
       0.007
      -0.003
      -0.006
      -0.002
       0.007
       0.012
       0.012
       0.007
       0.005
       0.006
       0.009
       0.009
       0.006
       0.004
       0.004
       0.006
       0.006
       0.001
      -0.007
      -0.014
      -0.014
      -0.007
       0.003
       0.008
       0.005
      -0.001
      -0.005
      -0.002
       0.004
       0.008
       0.006
       0.002
       0.000
       0.002
       0.006
       0.006
       0.005
       0.005
       0.009
       0.013
       0.010
       0.001
      -0.010
      -0.014
      -0.008
       0.003
       0.010
       0.008
       0.002
      -0.003
      -0.002
      -0.001
       0.001
       0.000
       0.000
       0.003
       0.007
       0.011
       0.010
       0.007
       0.006
       0.011
       0.018
       0.019
       0.010
      -0.003
      -0.010
      -0.005
       0.010
       0.024
       0.029
       0.023
       0.016
       0.012
       0.009
       0.002
      -0.005
      -0.006
       0.002
       0.015
       0.022
       0.018
       0.007
      -0.001
       0.001
       0.010
       0.016
       0.014
       0.006
       0.000
      -0.002
      -0.003
      -0.006
      -0.009
      -0.011
      -0.006
       0.004
       0.012
       0.009
      -0.005
      -0.019
      -0.022
      -0.011
       0.004
       0.012
       0.009
      -0.001
      -0.008
      -0.008
      -0.002
       0.001
       0.000
      -0.001
       0.001
       0.004
       0.004
       0.003
       0.004
       0.009
       0.016
       0.018
       0.013
       0.002
      -0.008
      -0.011
      -0.006
      -0.002
      -0.001
      -0.003
      -0.005
      -0.001
       0.004
       0.009
       0.010
       0.007
       0.005
       0.007
       0.012
       0.014
       0.010
       0.004
       0.001
       0.004
       0.008
       0.010
       0.007
       0.002
       0.001
       0.004
       0.007
       0.006
       0.000
      -0.004
      -0.001
       0.008
       0.013
       0.011
       0.003
      -0.003
      -0.002
       0.006
       0.012
       0.012
       0.004
      -0.002
      -0.003
       0.000
       0.003
       0.002
       0.000
       0.001
       0.006
       0.011
       0.011
       0.005
       0.000
       0.002
       0.012
       0.020
       0.018
       0.005
      -0.008
      -0.012
      -0.006
       0.004
       0.008
       0.005
      -0.002
      -0.003
       0.004
       0.013
       0.016
       0.013
       0.007
       0.004
       0.004
       0.004
       0.002
      -0.002
      -0.003
       0.000
       0.004
       0.004
      -0.001
      -0.006
      -0.006
      -0.002
       0.002
       0.002
       0.001
       0.002
       0.006
       0.011
       0.012
       0.005
      -0.005
      -0.010
      -0.006
       0.002
       0.004
      -0.002
      -0.009
      -0.010
      -0.002
       0.010
       0.016
       0.012
       0.002
      -0.004
      -0.001
       0.007
       0.011
       0.007
       0.002
       0.002
       0.008
       0.014
       0.014
       0.007
      -0.001
      -0.005
      -0.001
       0.003
       0.003
       0.000
       0.000
       0.006
       0.015
       0.020
       0.020
       0.017
       0.017
       0.023
       0.028
       0.028
       0.018
       0.004
      -0.005
      -0.002
       0.007
       0.014
       0.013
       0.004
      -0.001
       0.004
       0.017
       0.025
       0.022
       0.011
       0.005
       0.010
       0.021
       0.025
       0.020
       0.012
       0.009
       0.012
       0.014
       0.009
      -0.001
      -0.007
      -0.001
       0.012
       0.022
       0.021
       0.013
       0.006
       0.007
       0.015
       0.023
       0.025
       0.020
       0.014
       0.011
       0.011
       0.009
       0.004
      -0.001
      -0.001
       0.001
       0.002
       0.000
      -0.002
      -0.001
       0.005
       0.014
       0.018
       0.012
       0.003
      -0.001
       0.003
       0.011
       0.016
       0.013
       0.006
      -0.001
      -0.001
       0.005
       0.011
       0.011
       0.009
       0.008
       0.008
       0.008
       0.004
      -0.001
      -0.005
      -0.005
       0.000
       0.003
       0.004
       0.002
       0.001
       0.005
       0.010
       0.011
       0.006
      -0.001
      -0.003
      -0.003
      -0.009
      -0.031
      -0.067
      -0.095
      -0.089
      -0.042
       0.012
       0.030
       0.003
      -0.028
      -0.011
       0.057
       0.128
       0.146
       0.105
       0.051
       0.036
       0.059
       0.066
       0.032
      -0.007
       0.006
       0.078
       0.141
       0.107
      -0.038
      -0.201
      -0.256
      -0.154
       0.021
       0.138
       0.136
       0.066
       0.020
       0.039
       0.095
       0.132
       0.121
       0.070
      -0.002
      -0.074
      -0.113
      -0.091
      -0.030
       0.007
      -0.033
      -0.158
      -0.300
      -0.350
      -0.257
      -0.082
       0.069
       0.141
       0.145
       0.130
       0.124
       0.110
       0.058
      -0.013
      -0.045
      -0.007
       0.073
       0.168
       0.261
       0.289
       0.171
      -0.077
      -0.290
      -0.306
      -0.127
       0.061
       0.073
      -0.091
      -0.244
      -0.195
       0.045
       0.250
       0.219
       0.001
      -0.172
      -0.134
       0.058
       0.207
       0.167
      -0.009
      -0.117
      -0.027
       0.167
       0.267
       0.191
       0.019
      -0.148
      -0.278
      -0.357
      -0.331
      -0.178
       0.027
       0.178
       0.243
       0.262
       0.256
       0.201
       0.081
      -0.071
      -0.183
      -0.176
      -0.049
       0.065
       0.001
      -0.222
      -0.357
      -0.195
       0.175
       0.417
       0.294
      -0.095
      -0.419
      -0.438
      -0.208
       0.026
       0.104
       0.090
       0.125
       0.212
       0.212
       0.047
      -0.168
      -0.226
      -0.053
       0.223
       0.408
       0.390
       0.179
      -0.131
      -0.390
      -0.448
      -0.262
       0.054
       0.309
       0.368
       0.232
       0.020
      -0.112
      -0.096
      -0.003
       0.024
      -0.094
      -0.293
      -0.417
      -0.348
      -0.108
       0.163
       0.306
       0.251
       0.069
      -0.071
      -0.043
       0.111
       0.221
       0.166
      -0.008
      -0.162
      -0.198
      -0.138
      -0.091
      -0.134
      -0.223
      -0.230
      -0.090
       0.131
       0.303
       0.342
       0.240
       0.062
      -0.078
      -0.081
       0.044
       0.167
       0.144
      -0.043
      -0.264
      -0.352
      -0.251
      -0.047
       0.114
       0.138
       0.031
      -0.111
      -0.149
       0.021
       0.359
       0.625
       0.550
       0.101
      -0.434
      -0.673
      -0.459
       0.016
       0.380
       0.383
       0.084
      -0.227
      -0.304
      -0.171
      -0.049
      -0.078
      -0.168
      -0.134
       0.067
       0.287
       0.356
       0.277
       0.208
       0.244
       0.284
       0.158
      -0.144
      -0.426
      -0.479
      -0.296
      -0.083
      -0.044
      -0.158
      -0.218
      -0.077
       0.185
       0.357
       0.322
       0.156
       0.028
       0.010
       0.023
      -0.008
      -0.025
       0.061
       0.182
       0.170
      -0.036
      -0.314
      -0.476
      -0.420
      -0.191
       0.070
       0.216
       0.161
      -0.058
      -0.252
      -0.194
       0.155
       0.544
       0.650
       0.389
      -0.022
      -0.304
      -0.337
      -0.175
       0.056
       0.226
       0.242
       0.098
      -0.107
      -0.244
      -0.251
      -0.167
      -0.094
      -0.102
      -0.132
      -0.048
       0.166
       0.336
       0.294
       0.074
      -0.132
      -0.174
      -0.049
       0.119
       0.178
       0.059
      -0.138
      -0.220
      -0.085
       0.169
       0.316
       0.201
      -0.128
      -0.428
      -0.457
      -0.194
       0.135
       0.282
       0.221
       0.118
       0.120
       0.217
       0.275
       0.175
      -0.064
      -0.278
      -0.301
      -0.125
       0.092
       0.162
       0.047
      -0.124
      -0.197
      -0.143
      -0.068
      -0.068
      -0.115
      -0.090
       0.071
       0.291
       0.409
       0.306
       0.038
      -0.182
      -0.167
       0.072
       0.323
       0.348
       0.102
      -0.219
      -0.374
      -0.294
      -0.108
       0.006
      -0.018
      -0.093
      -0.100
      -0.014
       0.088
       0.127
       0.099
       0.045
      -0.005
      -0.038
      -0.038
      -0.002
       0.043
       0.053
       0.020
       0.017
       0.115
       0.252
       0.254
       0.041
      -0.261
      -0.455
      -0.433
      -0.178
       0.245
       0.613
       0.624
       0.198
      -0.342
      -0.528
      -0.216
       0.237
       0.310
      -0.106
      -0.502
      -0.274
       0.534
       1.165
       0.918
      -0.103
      -1.068
      -1.195
      -0.469
       0.357
       0.508
      -0.022
      -0.480
      -0.196
       0.695
       1.383
       1.149
       0.014
      -1.228
      -1.652
      -0.999
       0.120
       0.804
       0.640
      -0.018
      -0.457
      -0.268
       0.309
       0.643
       0.315
      -0.479
      -1.064
      -0.864
       0.070
       1.032
       1.237
       0.518
      -0.495
      -0.930
      -0.485
       0.310
       0.657
       0.283
      -0.369
      -0.672
      -0.440
      -0.016
       0.137
      -0.098
      -0.382
      -0.268
       0.312
       0.940
       1.079
       0.536
      -0.377
      -1.036
      -0.940
      -0.085
       1.000
       1.605
       1.334
       0.348
      -0.779
      -1.451
      -1.393
      -0.764
      -0.044
       0.278
       0.022
      -0.590
      -1.131
      -1.300
      -1.087
      -0.663
      -0.191
       0.252
       0.677
       1.196
       1.931
       2.778
       3.270
       2.848
       1.402
      -0.462
      -1.813
      -2.112
      -1.564
      -0.820
      -0.402
      -0.379
      -0.481
      -0.408
      -0.041
       0.502
       0.864
       0.609
      -0.363
      -1.474
      -1.775
      -0.831
       0.708
       1.595
       1.177
       0.063
      -0.502
       0.036
       0.923
       0.958
      -0.125
      -1.347
      -1.524
      -0.440
       1.003
       1.652
       1.070
      -0.174
      -1.064
      -0.995
      -0.185
       0.658
       0.972
       0.672
       0.038
      -0.563
      -0.880
      -0.876
      -0.703
      -0.552
      -0.472
      -0.340
      -0.026
       0.408
       0.713
       0.673
       0.293
      -0.205
      -0.504
      -0.319
       0.389
       1.208
       1.454
       0.793
      -0.325
      -1.017
      -0.778
       0.077
       0.764
       0.760
       0.154
      -0.600
      -1.116
      -1.234
      -0.931
      -0.287
       0.431
       0.827
       0.702
       0.290
      -0.005
      -0.071
      -0.119
      -0.255
      -0.277
       0.002
       0.367
       0.372
      -0.090
      -0.537
      -0.406
       0.252
       0.768
       0.585
      -0.179
      -0.911
      -1.079
      -0.565
       0.362
       1.190
       1.404
       0.856
      -0.058
      -0.687
      -0.704
      -0.367
      -0.177
      -0.288
      -0.375
      -0.103
       0.399
       0.630
       0.270
      -0.440
      -0.892
      -0.667
       0.104
       0.864
       1.093
       0.689
      -0.040
      -0.679
      -0.947
      -0.752
      -0.183
       0.452
       0.733
       0.438
      -0.165
      -0.494
      -0.228
       0.338
       0.593
       0.241
      -0.415
      -0.775
      -0.519
       0.098
       0.536
       0.525
       0.244
       0.018
      -0.028
       0.019
       0.036
      -0.028
      -0.174
      -0.362
      -0.480
      -0.366
       0.024
       0.463
       0.580
       0.261
      -0.173
      -0.318
      -0.143
       0.020
      -0.078
      -0.315
      -0.365
      -0.094
       0.304
       0.550
       0.568
       0.470
       0.358
       0.225
       0.050
      -0.108
      -0.168
      -0.138
      -0.109
      -0.142
      -0.210
      -0.267
      -0.305
      -0.302
      -0.164
       0.149
       0.458
       0.464
       0.066
      -0.473
      -0.732
      -0.498
       0.075
       0.616
       0.802
       0.536
      -0.035
      -0.616
      -0.901
      -0.717
      -0.109
       0.640
       1.089
       0.893
       0.109
      -0.751
      -1.071
      -0.620
       0.256
       0.907
       0.899
       0.332
      -0.316
      -0.624
      -0.497
      -0.113
       0.294
       0.538
       0.501
       0.192
      -0.193
      -0.402
      -0.365
      -0.243
      -0.207
      -0.228
      -0.152
       0.069
       0.281
       0.291
       0.099
      -0.079
      -0.043
       0.146
       0.205
      -0.031
      -0.373
      -0.442
      -0.070
       0.493
       0.763
       0.445
      -0.280
      -0.870
      -0.866
      -0.264
       0.506
       0.929
       0.758
       0.151
      -0.451
      -0.641
      -0.353
       0.119
       0.407
       0.364
       0.129
      -0.068
      -0.136
      -0.154
      -0.201
      -0.207
      -0.038
       0.282
       0.503
       0.368
      -0.098
      -0.571
      -0.717
      -0.477
      -0.054
       0.311
       0.528
       0.612
       0.557
       0.305
      -0.123
      -0.527
      -0.611
      -0.241
       0.354
       0.689
       0.424
      -0.292
      -0.913
      -0.970
      -0.458
       0.217
       0.627
       0.627
       0.351
       0.026
      -0.182
      -0.224
      -0.167
      -0.132
      -0.176
      -0.211
      -0.085
       0.232
       0.563
       0.661
       0.439
       0.044
      -0.294
      -0.477
      -0.546
      -0.515
      -0.290
       0.182
       0.712
       0.931
       0.609
      -0.096
      -0.741
      -0.919
      -0.555
       0.059
       0.504
       0.558
       0.323
       0.063
      -0.018
       0.104
       0.297
       0.391
       0.317
       0.148
      -0.012
      -0.152
      -0.330
      -0.520
      -0.567
      -0.357
       0.006
       0.257
       0.227
       0.002
      -0.195
      -0.221
      -0.091
       0.110
       0.314
       0.455
       0.465
       0.314
       0.048
      -0.242
      -0.458
      -0.537
      -0.470
      -0.297
      -0.078
       0.099
       0.144
       0.035
      -0.116
      -0.144
       0.000
       0.185
       0.212
       0.040
      -0.137
      -0.076
       0.224
       0.480
       0.434
       0.138
      -0.129
      -0.183
      -0.100
      -0.057
      -0.097
      -0.106
      -0.008
       0.125
       0.194
       0.204
       0.200
       0.155
       0.003
      -0.205
      -0.302
      -0.184
       0.059
       0.217
       0.167
      -0.006
      -0.129
      -0.146
      -0.162
      -0.260
      -0.357
      -0.272
       0.043
       0.408
       0.567
       0.435
       0.170
      -0.020
      -0.076
      -0.087
      -0.124
      -0.140
      -0.060
       0.082
       0.148
       0.066
      -0.076
      -0.122
      -0.026
       0.099
       0.111
      -0.007
      -0.144
      -0.181
      -0.098
       0.027
       0.113
       0.149
       0.162
       0.157
       0.124
       0.082
       0.065
       0.071
       0.059
      -0.012
      -0.144
      -0.282
      -0.322
      -0.195
       0.031
       0.156
       0.022
      -0.292
      -0.477
      -0.275
       0.242
       0.694
       0.723
       0.322
      -0.175
      -0.413
      -0.313
      -0.072
       0.071
       0.045
      -0.041
      -0.044
       0.064
       0.177
