Origin Time       07/09/2011 17:58:18
Lat.              28.6 N	
Long.             77.0 E	
Depth (Km)          8.0
Magnitude         4.2
 Region           DELHI-HARYANA(SONIPAT)                                           
 Above details taken from IMD 
   
Station Code      DJB
Station Lat.       28.652
Station Long.      77.188
Station Height(m)  235.0
Site Class        C   Vs30 between 200 m/sec to 375 m/sec *  
Record Time       07.09.2011 17:40:27.834
Sampling Rate     200. Hz
 Record Duration   89.820 Sec.
 Direction         Vert. (Up positive)
Max. Acceleration     10.756 cm/sec**2
     
  * For reference see Site Classification link of website 
     
 Base Line Corrected and Low Pass Filtered (Cut Off at 35 Hz) Time History
 Acceleration data in cm/sec**2
    
[...]
      -0.008
      -0.004
      -0.002
      -0.003
      -0.008
      -0.015
      -0.019
      -0.019
      -0.015
      -0.011
      -0.007
      -0.004
      -0.004
      -0.005
      -0.006
      -0.009
      -0.012
      -0.016
      -0.019
      -0.020
      -0.018
      -0.015
      -0.014
      -0.013
      -0.012
      -0.008
      -0.002
       0.000
      -0.002
      -0.009
      -0.017
      -0.022
      -0.023
      -0.019
      -0.012
      -0.006
      -0.003
      -0.004
      -0.008
      -0.011
      -0.011
      -0.010
      -0.010
      -0.013
      -0.018
      -0.022
      -0.024
      -0.023
      -0.020
      -0.016
      -0.010
      -0.005
      -0.002
      -0.003
      -0.007
      -0.012
      -0.016
      -0.016
      -0.014
      -0.011
      -0.009
      -0.012
      -0.016
      -0.017
      -0.014
      -0.007
       0.000
       0.003
       0.001
      -0.003
      -0.007
      -0.008
      -0.006
      -0.002
       0.001
       0.000
      -0.005
      -0.012
      -0.016
      -0.014
      -0.008
      -0.003
       0.000
       0.000
      -0.002
      -0.004
      -0.003
      -0.002
      -0.003
      -0.004
      -0.005
      -0.003
       0.000
       0.001
       0.000
      -0.004
      -0.007
      -0.007
      -0.005
      -0.002
       0.000
       0.001
       0.001
       0.000
       0.000
      -0.001
      -0.001
       0.001
       0.003
       0.005
       0.004
      -0.002
      -0.010
      -0.015
      -0.014
      -0.009
      -0.003
      -0.002
      -0.005
      -0.008
      -0.008
      -0.003
       0.004
       0.009
       0.008
       0.004
      -0.001
      -0.004
      -0.006
      -0.007
      -0.007
      -0.008
      -0.009
      -0.011
      -0.014
      -0.016
      -0.017
      -0.014
      -0.008
      -0.001
       0.005
       0.008
       0.006
       0.002
      -0.003
      -0.006
      -0.009
      -0.012
      -0.013
      -0.012
      -0.007
       0.000
       0.003
       0.003
       0.002
       0.003
       0.005
       0.007
       0.006
       0.001
      -0.007
      -0.013
      -0.016
      -0.013
      -0.006
       0.000
       0.002
      -0.001
      -0.008
      -0.011
      -0.009
      -0.004
       0.002
       0.005
       0.007
       0.006
       0.004
       0.000
      -0.004
      -0.006
      -0.005
      -0.002
       0.001
       0.003
       0.004
       0.002
      -0.001
      -0.005
      -0.005
      -0.004
      -0.001
      -0.001
      -0.002
      -0.004
      -0.005
      -0.004
      -0.004
      -0.008
      -0.012
      -0.013
      -0.010
      -0.008
      -0.009
      -0.012
      -0.015
      -0.013
      -0.009
      -0.005
      -0.004
      -0.005
      -0.008
      -0.011
      -0.012
      -0.012
      -0.012
      -0.011
      -0.010
      -0.007
      -0.004
      -0.001
       0.002
       0.004
       0.006
       0.007
       0.005
       0.003
       0.000
      -0.002
      -0.003
      -0.003
      -0.001
       0.002
       0.006
       0.008
       0.008
       0.005
       0.001
      -0.001
      -0.002
      -0.003
      -0.005
      -0.007
      -0.009
      -0.010
      -0.011
      -0.012
      -0.012
      -0.010
      -0.004
       0.001
       0.003
       0.002
      -0.001
       0.000
       0.006
       0.014
       0.019
       0.015
       0.006
      -0.002
      -0.003
       0.004
       0.012
       0.014
       0.007
      -0.005
      -0.014
      -0.014
      -0.006
       0.006
       0.014
       0.016
       0.011
       0.002
      -0.005
      -0.009
      -0.007
      -0.002
       0.002
       0.004
       0.005
       0.004
       0.003
       0.004
       0.005
       0.008
       0.012
       0.014
       0.014
       0.011
       0.006
       0.001
      -0.003
      -0.005
      -0.004
       0.000
       0.005
       0.009
       0.010
       0.007
       0.001
      -0.004
      -0.005
      -0.001
       0.005
       0.009
       0.009
       0.005
       0.000
       0.000
       0.003
       0.007
       0.009
       0.007
       0.004
       0.002
       0.002
       0.000
      -0.005
      -0.009
      -0.009
      -0.004
       0.004
       0.010
       0.011
       0.008
       0.003
       0.000
       0.000
       0.002
       0.001
      -0.004
      -0.011
      -0.014
      -0.010
      -0.002
       0.004
       0.004
       0.000
      -0.002
       0.000
       0.005
       0.008
       0.006
       0.002
       0.001
       0.004
       0.005
       0.003
      -0.003
      -0.006
      -0.005
       0.000
       0.006
       0.008
       0.007
       0.004
       0.000
      -0.002
      -0.002
      -0.001
       0.001
       0.001
       0.000
       0.000
       0.000
       0.002
       0.005
       0.006
       0.004
       0.000
      -0.004
      -0.004
      -0.001
       0.001
       0.002
       0.002
       0.003
       0.006
       0.007
       0.005
      -0.001
      -0.006
      -0.008
      -0.005
       0.002
       0.008
       0.010
       0.007
       0.000
      -0.005
      -0.007
      -0.005
      -0.002
      -0.001
      -0.003
      -0.006
      -0.007
      -0.005
      -0.001
       0.002
       0.003
       0.001
      -0.002
      -0.005
      -0.007
      -0.010
      -0.012
      -0.011
      -0.007
       0.000
       0.005
       0.006
       0.004
       0.001
      -0.001
      -0.003
      -0.003
       0.000
       0.004
       0.006
       0.005
       0.002
       0.000
       0.002
       0.006
       0.010
       0.011
       0.007
       0.001
      -0.003
      -0.003
       0.000
       0.003
       0.003
       0.000
      -0.002
      -0.006
      -0.011
      -0.017
      -0.020
      -0.016
      -0.010
      -0.007
      -0.008
      -0.012
      -0.013
      -0.012
      -0.009
      -0.009
      -0.011
      -0.011
      -0.007
       0.000
       0.004
       0.004
       0.001
      -0.003
      -0.006
      -0.008
      -0.008
      -0.008
      -0.010
      -0.012
      -0.015
      -0.014
      -0.011
      -0.007
      -0.004
      -0.003
      -0.001
       0.001
       0.002
       0.002
       0.002
       0.003
       0.005
       0.006
       0.005
       0.001
      -0.003
      -0.004
      -0.002
       0.003
       0.008
       0.011
       0.009
       0.003
      -0.004
      -0.008
      -0.008
      -0.003
       0.002
       0.002
      -0.002
      -0.009
      -0.013
      -0.012
      -0.008
      -0.004
      -0.002
      -0.002
      -0.003
      -0.006
      -0.009
      -0.013
      -0.015
      -0.012
      -0.006
       0.000
       0.003
       0.002
       0.000
       0.000
       0.001
       0.004
       0.006
       0.004
      -0.003
      -0.011
      -0.016
      -0.011
      -0.001
       0.007
       0.006
      -0.003
      -0.011
      -0.011
      -0.004
       0.004
       0.006
       0.000
      -0.008
      -0.014
      -0.013
      -0.006
       0.000
       0.002
      -0.002
      -0.007
      -0.010
      -0.010
      -0.009
      -0.009
      -0.009
      -0.008
      -0.004
      -0.001
      -0.002
      -0.005
      -0.010
      -0.011
      -0.009
      -0.007
      -0.006
      -0.007
      -0.006
      -0.002
       0.003
       0.004
      -0.002
      -0.010
      -0.015
      -0.014
      -0.008
      -0.002
       0.000
      -0.003
      -0.008
      -0.012
      -0.014
      -0.015
      -0.015
      -0.013
      -0.009
      -0.006
      -0.003
      -0.002
       0.000
       0.002
       0.004
       0.004
       0.002
      -0.001
      -0.006
      -0.009
      -0.011
      -0.010
      -0.007
      -0.004
      -0.004
      -0.007
      -0.010
      -0.012
      -0.011
      -0.009
      -0.006
      -0.005
      -0.005
      -0.006
      -0.007
      -0.008
      -0.009
      -0.008
      -0.005
      -0.001
       0.001
       0.000
      -0.004
      -0.010
      -0.015
      -0.016
      -0.012
      -0.006
      -0.001
      -0.001
      -0.004
      -0.006
      -0.006
      -0.004
      -0.003
      -0.005
      -0.009
      -0.013
      -0.015
      -0.013
      -0.010
      -0.007
      -0.004
      -0.004
      -0.005
      -0.009
      -0.013
      -0.014
      -0.012
      -0.007
      -0.001
       0.001
      -0.001
      -0.007
      -0.014
      -0.019
      -0.020
      -0.019
      -0.016
      -0.013
      -0.010
      -0.008
      -0.006
      -0.008
      -0.012
      -0.016
      -0.017
      -0.012
      -0.004
       0.001
      -0.002
      -0.010
      -0.017
      -0.017
      -0.009
       0.000
       0.002
      -0.004
      -0.014
      -0.019
      -0.017
      -0.009
       0.000
       0.006
       0.007
       0.003
      -0.001
      -0.005
      -0.008
      -0.008
      -0.007
      -0.006
      -0.006
      -0.007
      -0.009
      -0.010
      -0.010
      -0.010
      -0.011
      -0.012
      -0.011
      -0.008
      -0.004
      -0.003
      -0.004
      -0.006
      -0.007
      -0.008
      -0.010
      -0.014
      -0.015
      -0.011
      -0.002
       0.009
       0.020
       0.034
       0.053
       0.073
       0.081
       0.058
      -0.006
      -0.095
      -0.159
      -0.137
       0.000
       0.208
       0.366
       0.360
       0.168
      -0.096
      -0.243
      -0.133
       0.218
       0.621
       0.831
       0.694
       0.157
      -0.828
      -2.312
      -4.119
      -5.511
      -5.262
      -2.509
       2.109
       6.296
       7.648
       5.737
       2.504
       0.407
       0.287
       1.060
       1.200
       0.206
      -1.307
      -2.583
      -3.422
      -3.840
      -3.431
      -1.668
       0.984
       2.796
       2.202
      -0.433
      -2.789
      -2.608
       0.246
       3.703
       5.312
       4.105
       0.976
      -2.246
      -3.939
      -3.457
      -1.393
       0.830
       1.898
       1.343
      -0.322
      -1.862
      -1.977
      -0.386
       1.566
       1.848
      -0.242
      -3.045
      -3.856
      -1.487
       2.455
       4.958
       4.292
       1.348
      -1.542
      -2.701
      -2.000
      -0.344
       1.140
       1.617
       0.925
      -0.265
      -0.896
      -0.415
       0.749
       1.667
       1.758
       1.022
      -0.293
      -1.857
      -3.166
      -3.637
      -2.969
      -1.301
       0.897
       2.883
       3.665
       2.521
      -0.111
      -2.460
      -2.715
      -0.765
       1.536
       2.093
       0.645
      -0.979
      -0.852
       0.865
       2.116
       1.367
      -0.662
      -1.958
      -1.500
      -0.117
       0.746
       0.567
      -0.079
      -0.395
      -0.068
       0.617
       1.072
       0.895
       0.203
      -0.514
      -0.849
      -0.699
      -0.158
       0.557
       1.048
       0.848
      -0.194
      -1.601
      -2.474
      -2.130
      -0.622
       1.197
       2.105
       1.330
      -0.632
      -2.137
      -1.806
       0.104
       2.015
       2.608
       1.731
      -0.016
      -1.884
      -3.009
      -2.494
      -0.129
       2.951
       4.761
       3.960
       0.998
      -2.195
      -3.715
      -3.014
      -1.017
       0.761
       1.259
       0.464
      -0.705
      -1.155
      -0.468
       0.864
       1.920
       2.058
       1.283
       0.119
      -0.782
      -1.098
      -1.005
      -0.811
      -0.540
      -0.119
       0.261
       0.304
       0.066
      -0.104
      -0.130
      -0.402
      -1.136
      -1.717
      -1.147
       0.721
       2.701
       3.301
       2.187
       0.348
      -1.122
      -1.899
      -2.014
      -1.328
       0.092
       1.472
       1.758
       0.558
      -1.448
      -2.961
      -2.959
      -1.402
       0.733
       2.166
       2.281
       1.478
       0.641
       0.378
       0.653
       0.978
       0.890
       0.301
      -0.590
      -1.580
      -2.400
      -2.477
      -1.307
       0.734
       2.350
       2.412
       0.966
      -0.884
      -1.900
      -1.533
      -0.149
       1.344
       2.071
       1.590
       0.087
      -1.614
      -2.398
      -1.629
       0.188
       1.649
       1.504
      -0.384
      -2.822
      -3.915
      -2.416
       1.082
       4.459
       5.841
       5.023
       3.055
       0.884
      -1.162
      -2.818
      -3.558
      -3.111
      -1.965
      -0.977
      -0.449
       0.156
       1.357
       2.610
       2.469
       0.088
      -3.418
      -5.397
      -3.853
       0.460
       4.242
       4.479
       1.378
      -1.839
      -2.356
      -0.455
       1.448
       1.678
       0.567
      -0.662
      -1.409
      -1.895
      -2.324
      -2.198
      -0.605
       2.673
       6.337
       8.160
       6.610
       2.073
      -3.308
      -7.098
      -8.262
      -7.442
      -5.612
      -3.065
      -0.116
       2.016
       2.138
       0.820
       0.148
       1.218
       2.692
       2.666
       1.439
       1.333
       3.663
       6.579
       6.528
       2.012
      -4.482
      -8.684
      -8.431
      -4.988
      -0.968
       2.228
       4.704
       6.470
       6.526
       4.090
       0.323
      -1.973
      -0.777
       3.056
       6.315
       6.163
       2.396
      -2.814
      -7.089
      -9.482
     -10.054
      -8.485
      -4.214
       1.603
       5.344
       3.657
      -2.653
      -8.311
      -8.026
      -1.401
       6.733
      10.756
       8.871
       3.673
      -1.100
      -3.687
      -4.392
      -3.672
      -1.261
       2.729
       6.659
       8.093
       5.784
       0.716
      -4.670
      -7.956
      -7.788
      -4.381
       0.510
       4.388
       5.405
       3.515
       0.537
      -1.147
      -0.489
       1.281
       1.838
       0.247
      -2.028
      -3.016
      -2.697
      -2.756
      -3.957
      -4.736
      -3.035
       0.822
       3.889
       3.564
       0.433
      -2.181
      -1.458
       2.254
       5.771
       5.962
       2.549
      -1.705
      -3.498
      -1.807
       1.464
       3.421
       2.762
       0.573
      -1.173
      -1.515
      -0.931
      -0.351
      -0.193
      -0.393
      -0.916
      -1.828
      -2.847
      -3.129
      -1.867
       0.698
       3.007
       3.312
       1.357
      -1.105
      -1.820
      -0.255
       1.822
       2.141
       0.256
      -2.053
      -2.707
      -1.453
       0.114
       0.522
      -0.057
      -0.416
      -0.010
       0.470
       0.211
      -0.428
      -0.149
       1.693
       3.990
       4.616
       2.430
      -1.384
      -4.115
      -3.898
      -1.431
       0.726
       0.656
      -1.199
      -2.818
      -2.788
      -1.403
       0.213
       1.464
       2.418
       2.932
       2.371
       0.551
      -1.487
      -2.235
      -1.201
       0.723
       2.218
       2.475
       1.398
      -0.518
      -2.333
      -3.017
      -2.048
       0.154
       2.364
       3.216
       2.057
      -0.481
      -2.682
      -2.911
      -0.988
       1.642
       3.226
       3.094
       1.773
       0.069
      -1.589
      -2.914
      -3.319
      -2.269
      -0.184
       1.465
       1.482
       0.282
      -0.553
      -0.056
       1.240
       2.142
       2.032
       1.146
       0.079
      -0.675
      -0.797
      -0.170
       0.884
       1.495
       0.792
      -1.114
      -2.861
      -2.951
      -1.232
       0.943
       2.040
       1.617
       0.320
      -0.973
      -1.789
      -2.085
      -1.989
      -1.654
      -1.211
      -0.701
      -0.067
       0.702
       1.420
       1.745
       1.467
       0.788
       0.186
      -0.063
      -0.090
      -0.084
       0.000
       0.206
       0.302
       0.113
       0.001
       0.521
       1.439
       1.623
       0.356
      -1.477
      -2.081
      -0.736
       1.247
       1.856
       0.480
      -1.613
      -2.746
      -2.358
      -1.072
       0.215
       0.963
       0.950
       0.175
      -0.924
      -1.365
      -0.246
       2.300
       4.811
       5.408
       3.316
      -0.332
      -3.289
      -3.962
      -2.537
      -0.569
       0.408
      -0.021
      -1.106
      -1.766
      -1.500
      -0.609
       0.288
       0.834
       1.040
       1.015
       0.745
       0.173
      -0.576
      -1.126
      -1.112
      -0.524
       0.221
       0.578
       0.290
      -0.373
      -0.750
      -0.283
       0.991
       2.379
       2.990
       2.412
       1.024
      -0.331
      -0.955
      -0.676
       0.048
       0.389
      -0.168
      -1.170
      -1.469
      -0.439
       1.105
       1.527
       0.117
      -1.965
      -2.781
      -1.624
       0.334
       1.481
       1.423
       0.897
       0.448
      -0.126
      -0.984
      -1.571
      -1.229
      -0.226
       0.406
       0.094
      -0.657
      -0.998
      -0.758
      -0.454
      -0.403
      -0.201
       0.640
       1.778
       2.226
       1.465
       0.028
      -1.031
      -1.006
       0.001
       1.151
       1.436
       0.552
      -0.683
      -1.094
      -0.371
       0.700
       1.197
       0.954
       0.463
       0.171
       0.056
      -0.144
      -0.442
      -0.535
      -0.320
      -0.275
      -0.973
      -2.212
      -2.949
      -2.269
      -0.347
       1.665
       2.675
       2.469
       1.569
       0.515
      -0.507
      -1.371
      -1.722
      -1.342
      -0.649
      -0.402
      -0.753
      -0.932
      -0.128
       1.465
       2.709
       2.610
       1.261
      -0.313
      -1.095
      -0.838
      -0.072
       0.487
       0.529
       0.250
       0.007
       0.000
       0.246
       0.675
       1.123
       1.320
       1.030
       0.218
      -0.875
      -1.778
      -1.969
      -1.193
       0.271
       1.613
       1.932
       0.872
      -1.008
      -2.467
      -2.416
      -0.854
       1.003
       1.738
       0.955
      -0.509
      -1.455
      -1.338
      -0.508
       0.307
       0.644
       0.553
       0.384
       0.409
       0.549
       0.477
       0.027
      -0.591
      -1.025
      -1.114
      -0.919
      -0.523
       0.025
       0.549
       0.749
       0.502
       0.003
      -0.486
      -0.842
      -0.965
      -0.712
      -0.124
       0.442
       0.655
       0.607
       0.621
       0.733
       0.581
      -0.042
      -0.687
      -0.582
       0.420
       1.513
       1.764
       1.124
       0.329
      -0.039
      -0.068
      -0.075
      -0.043
       0.238
       0.640
       0.657
       0.007
      -0.934
      -1.425
      -1.064
      -0.141
       0.659
       0.803
       0.245
      -0.598
      -1.129
      -0.975
      -0.264
       0.479
       0.755
       0.420
      -0.286
      -0.922
      -1.052
      -0.492
       0.457
       1.053
       0.655
      -0.600
      -1.747
      -1.811
      -0.718
       0.657
       1.312
       0.999
       0.304
      -0.054
       0.081
       0.303
       0.198
      -0.156
      -0.220
       0.351
       1.131
       1.220
       0.261
      -1.033
      -1.584
      -1.077
      -0.195
       0.233
       0.086
      -0.129
      -0.058
       0.086
