Origin Time       11/11/2013 22:10:42
Lat.              28.4 N	
Long.             77.2 E	
Depth (Km)         11.0
Magnitude         2.8
 Region           DELHI                                                            
 Above details taken from IMD 
     
Station Code      DJB
Station Lat.       28.652  N
Station Long.      77.188  E
Station Height(m)  235.0
Site Class        A   Vs30 between 700 m/sec to 1400 m/sec * 
Record Time       11.11.2013 17:10:44.254
Sampling Rate     200. Hz
 Record Duration   80.115 Sec.
 Direction         E-W (E positive)
Max. Acceleration      1.696 cm/sec**2
     
  * For reference see Site Classification link of website 
     
 Base Line Corrected and Low Pass Filtered (Cut Off at 35 Hz) Time History
 Acceleration data in cm/sec**2
    
[...]
       0.005
      -0.009
      -0.014
      -0.007
       0.005
       0.014
       0.013
       0.005
      -0.005
      -0.010
      -0.010
      -0.011
      -0.013
      -0.014
      -0.011
      -0.006
      -0.005
      -0.012
      -0.021
      -0.023
      -0.014
       0.003
       0.015
       0.013
       0.001
      -0.010
      -0.012
      -0.004
       0.007
       0.014
       0.013
       0.009
       0.008
       0.011
       0.015
       0.014
       0.009
       0.005
       0.007
       0.011
       0.011
       0.004
      -0.007
      -0.015
      -0.013
      -0.003
       0.006
       0.005
      -0.004
      -0.013
      -0.013
      -0.005
       0.005
       0.009
       0.008
       0.005
       0.005
       0.010
       0.015
       0.014
       0.006
      -0.002
      -0.004
       0.002
       0.012
       0.018
       0.016
       0.006
      -0.003
      -0.005
      -0.002
       0.001
       0.000
      -0.004
      -0.007
      -0.007
      -0.005
      -0.004
      -0.004
      -0.005
      -0.004
       0.000
       0.002
      -0.001
      -0.007
      -0.009
      -0.003
       0.006
       0.012
       0.009
       0.000
      -0.008
      -0.006
       0.005
       0.017
       0.019
       0.010
      -0.001
      -0.004
       0.001
       0.008
       0.009
       0.003
      -0.005
      -0.006
      -0.001
       0.006
       0.005
       0.000
      -0.003
       0.003
       0.013
       0.018
       0.012
      -0.001
      -0.011
      -0.012
      -0.004
       0.003
       0.003
      -0.003
      -0.008
      -0.005
       0.002
       0.006
       0.001
      -0.007
      -0.011
      -0.005
       0.008
       0.016
       0.009
      -0.008
      -0.021
      -0.019
      -0.005
       0.009
       0.012
       0.005
      -0.006
      -0.011
      -0.010
      -0.008
      -0.009
      -0.011
      -0.008
       0.001
       0.012
       0.018
       0.014
       0.004
      -0.007
      -0.013
      -0.011
      -0.006
      -0.005
      -0.008
      -0.011
      -0.010
      -0.007
      -0.003
      -0.002
      -0.004
      -0.007
      -0.008
      -0.006
      -0.003
      -0.002
      -0.003
      -0.004
      -0.002
       0.001
       0.002
       0.000
      -0.005
      -0.008
      -0.006
       0.004
       0.014
       0.017
       0.012
       0.003
       0.000
       0.004
       0.011
       0.015
       0.013
       0.008
       0.005
       0.004
       0.001
      -0.007
      -0.015
      -0.014
      -0.004
       0.009
       0.016
       0.012
       0.001
      -0.007
      -0.006
       0.002
       0.010
       0.011
       0.006
       0.000
      -0.002
       0.002
       0.005
       0.006
       0.003
       0.000
       0.000
       0.003
       0.005
       0.002
      -0.004
      -0.006
       0.001
       0.012
       0.018
       0.014
       0.003
      -0.007
      -0.009
      -0.003
       0.003
       0.003
      -0.001
      -0.003
       0.002
       0.010
       0.014
       0.010
       0.002
      -0.003
      -0.001
       0.006
       0.008
       0.002
      -0.010
      -0.015
      -0.010
       0.001
       0.006
      -0.001
      -0.013
      -0.020
      -0.016
      -0.004
       0.007
       0.008
       0.003
       0.001
       0.009
       0.021
       0.025
       0.016
       0.002
      -0.007
      -0.004
       0.006
       0.013
       0.010
      -0.001
      -0.008
      -0.005
       0.006
       0.015
       0.015
       0.007
      -0.003
      -0.007
      -0.003
       0.005
       0.010
       0.010
       0.008
       0.009
       0.010
       0.009
       0.005
       0.000
      -0.002
       0.001
       0.006
       0.008
       0.005
       0.001
       0.000
       0.007
       0.016
       0.020
       0.017
       0.010
       0.003
       0.003
       0.009
       0.015
       0.013
       0.005
      -0.001
       0.001
       0.010
       0.018
       0.018
       0.010
       0.001
      -0.001
       0.005
       0.015
       0.019
       0.014
       0.004
      -0.004
      -0.006
      -0.004
      -0.002
      -0.002
      -0.001
       0.002
       0.006
       0.006
       0.000
      -0.007
      -0.008
      -0.001
       0.009
       0.012
       0.005
      -0.007
      -0.015
      -0.013
      -0.004
       0.004
       0.007
       0.003
       0.000
       0.003
       0.008
       0.009
       0.005
      -0.002
      -0.005
      -0.002
       0.004
       0.006
      -0.002
      -0.014
      -0.021
      -0.015
      -0.002
       0.007
       0.005
      -0.004
      -0.010
      -0.005
       0.009
       0.019
       0.018
       0.006
      -0.006
      -0.008
      -0.001
       0.004
       0.003
      -0.003
      -0.009
      -0.009
      -0.004
       0.000
       0.001
      -0.001
      -0.002
       0.000
       0.002
       0.001
      -0.005
      -0.013
      -0.017
      -0.014
      -0.006
       0.001
       0.002
      -0.003
      -0.009
      -0.009
      -0.006
      -0.003
      -0.005
      -0.010
      -0.013
      -0.011
      -0.004
       0.005
       0.009
       0.008
       0.004
       0.003
       0.006
       0.007
       0.004
      -0.002
      -0.003
       0.002
       0.013
       0.022
       0.020
       0.012
       0.003
       0.001
       0.002
       0.000
      -0.005
      -0.008
      -0.005
       0.002
       0.008
       0.008
       0.002
      -0.004
      -0.006
      -0.001
       0.007
       0.012
       0.013
       0.011
       0.007
       0.005
       0.003
       0.002
      -0.001
      -0.005
      -0.007
      -0.005
       0.000
       0.001
      -0.003
      -0.010
      -0.014
      -0.012
      -0.005
       0.001
       0.003
       0.004
       0.006
       0.011
       0.013
       0.008
      -0.003
      -0.012
      -0.014
      -0.008
       0.000
       0.003
      -0.002
      -0.010
      -0.014
      -0.008
       0.002
       0.007
       0.004
      -0.002
      -0.003
       0.005
       0.013
       0.013
       0.001
      -0.017
      -0.026
      -0.020
      -0.005
       0.004
       0.001
      -0.009
      -0.017
      -0.019
      -0.015
      -0.010
      -0.008
      -0.008
      -0.006
      -0.002
       0.000
      -0.004
      -0.013
      -0.019
      -0.014
      -0.003
       0.007
       0.004
      -0.009
      -0.023
      -0.026
      -0.015
       0.000
       0.006
      -0.001
      -0.011
      -0.014
      -0.008
       0.000
       0.002
      -0.005
      -0.013
      -0.013
      -0.003
       0.007
       0.006
      -0.005
      -0.016
      -0.017
      -0.006
       0.007
       0.011
       0.003
      -0.013
      -0.022
      -0.018
      -0.003
       0.009
       0.009
       0.000
      -0.010
      -0.013
      -0.010
      -0.007
      -0.009
      -0.014
      -0.016
      -0.010
       0.000
       0.005
       0.001
      -0.005
      -0.006
      -0.001
       0.006
       0.009
       0.005
      -0.004
      -0.009
      -0.006
       0.002
       0.008
       0.008
       0.005
       0.004
       0.006
       0.007
       0.002
      -0.007
      -0.016
      -0.018
      -0.012
      -0.004
      -0.002
      -0.008
      -0.017
      -0.019
      -0.013
      -0.005
      -0.006
      -0.017
      -0.027
      -0.022
      -0.005
       0.010
       0.008
      -0.005
      -0.011
       0.001
       0.021
       0.033
       0.028
       0.010
      -0.008
      -0.017
      -0.017
      -0.023
      -0.033
      -0.033
      -0.012
       0.019
       0.040
       0.033
      -0.003
      -0.048
      -0.067
      -0.042
       0.006
       0.044
       0.051
       0.031
       0.002
      -0.012
      -0.002
       0.018
       0.022
      -0.005
      -0.045
      -0.066
      -0.044
       0.003
       0.030
       0.011
      -0.029
      -0.046
      -0.032
      -0.015
      -0.011
      -0.013
      -0.006
       0.013
       0.046
       0.078
       0.085
       0.047
      -0.021
      -0.080
      -0.090
      -0.046
       0.019
       0.055
       0.040
       0.002
      -0.021
      -0.019
      -0.013
      -0.013
      -0.012
       0.002
       0.026
       0.049
       0.053
       0.027
      -0.021
      -0.060
      -0.055
       0.000
       0.068
       0.098
       0.070
       0.006
      -0.043
      -0.043
      -0.002
       0.034
       0.027
      -0.014
      -0.048
      -0.039
       0.002
       0.028
       0.001
      -0.071
      -0.144
      -0.166
      -0.117
      -0.020
       0.074
       0.124
       0.126
       0.106
       0.096
       0.112
       0.126
       0.086
      -0.002
      -0.061
      -0.037
       0.024
       0.040
      -0.005
      -0.067
      -0.099
      -0.087
      -0.045
      -0.013
      -0.023
      -0.055
      -0.059
      -0.017
       0.048
       0.101
       0.115
       0.085
       0.043
       0.038
       0.082
       0.114
       0.068
      -0.047
      -0.156
      -0.205
      -0.202
      -0.179
      -0.138
      -0.062
       0.016
       0.015
      -0.091
      -0.194
      -0.140
       0.081
       0.291
       0.313
       0.163
       0.020
       0.031
       0.162
       0.235
       0.124
      -0.101
      -0.242
      -0.187
      -0.018
       0.075
      -0.013
      -0.197
      -0.281
      -0.168
       0.017
       0.080
       0.005
      -0.044
       0.046
       0.189
       0.211
       0.069
      -0.108
      -0.170
      -0.087
       0.065
       0.189
       0.220
       0.134
      -0.028
      -0.156
      -0.152
      -0.013
       0.143
       0.166
       0.029
      -0.115
      -0.112
      -0.015
      -0.018
      -0.167
      -0.287
      -0.230
      -0.063
       0.071
       0.143
       0.201
       0.242
       0.207
       0.089
      -0.045
      -0.116
      -0.088
       0.009
       0.096
       0.094
      -0.012
      -0.150
      -0.228
      -0.217
      -0.174
      -0.182
      -0.251
      -0.270
      -0.099
       0.245
       0.525
       0.485
       0.132
      -0.224
      -0.262
       0.034
       0.379
       0.491
       0.345
       0.105
      -0.100
      -0.234
      -0.298
      -0.296
      -0.244
      -0.162
      -0.067
       0.004
       0.011
      -0.034
      -0.062
      -0.024
       0.060
       0.129
       0.137
       0.076
      -0.021
      -0.083
      -0.025
       0.144
       0.268
       0.181
      -0.066
      -0.220
      -0.118
       0.102
       0.159
      -0.028
      -0.264
      -0.326
      -0.192
      -0.007
       0.106
       0.136
       0.106
       0.012
      -0.118
      -0.189
      -0.109
       0.100
       0.292
       0.303
       0.112
      -0.115
      -0.186
      -0.070
       0.094
       0.153
       0.076
      -0.063
      -0.163
      -0.157
      -0.057
       0.044
       0.029
      -0.111
      -0.232
      -0.161
       0.101
       0.355
       0.388
       0.173
      -0.105
      -0.214
      -0.084
       0.125
       0.199
       0.082
      -0.110
      -0.238
      -0.235
      -0.109
       0.055
       0.119
       0.009
      -0.186
      -0.279
      -0.144
       0.156
       0.396
       0.363
       0.047
      -0.301
      -0.377
      -0.103
       0.277
       0.419
       0.197
      -0.184
      -0.384
      -0.249
       0.056
       0.222
       0.122
      -0.076
      -0.112
       0.061
       0.237
       0.207
      -0.008
      -0.196
      -0.198
      -0.046
       0.102
       0.110
      -0.033
      -0.197
      -0.231
      -0.106
       0.057
       0.128
       0.099
       0.047
       0.021
       0.011
       0.001
       0.002
       0.029
       0.054
       0.037
      -0.017
      -0.062
      -0.070
      -0.064
      -0.080
      -0.112
      -0.100
       0.005
       0.152
       0.219
       0.130
      -0.073
      -0.273
      -0.360
      -0.273
      -0.028
       0.265
       0.448
       0.413
       0.180
      -0.102
      -0.250
      -0.187
      -0.018
       0.070
       0.008
      -0.081
      -0.022
       0.192
       0.358
       0.277
      -0.028
      -0.329
      -0.420
      -0.284
      -0.065
       0.093
       0.151
       0.161
       0.175
       0.167
       0.061
      -0.148
      -0.326
      -0.318
      -0.131
       0.069
       0.151
       0.156
       0.190
       0.220
       0.114
      -0.128
      -0.292
      -0.193
       0.081
       0.271
       0.236
       0.057
      -0.111
      -0.172
      -0.115
      -0.004
       0.049
      -0.030
      -0.194
      -0.259
      -0.038
       0.401
       0.668
       0.413
      -0.232
      -0.719
      -0.642
      -0.105
       0.452
       0.648
       0.386
      -0.126
      -0.530
      -0.536
      -0.130
       0.404
       0.667
       0.453
      -0.068
      -0.464
      -0.421
      -0.049
       0.242
       0.176
      -0.128
      -0.350
      -0.328
      -0.154
       0.012
       0.106
       0.153
       0.168
       0.124
       0.024
      -0.038
       0.043
       0.244
       0.391
       0.308
      -0.039
      -0.478
      -0.701
      -0.468
       0.111
       0.546
       0.359
      -0.388
      -0.995
      -0.701
       0.499
       1.643
       1.616
       0.317
      -1.065
      -1.195
      -0.039
       1.042
       0.775
      -0.584
      -1.512
      -0.905
       0.697
       1.696
       1.137
      -0.337
      -1.251
      -0.859
       0.205
       0.755
       0.322
      -0.503
      -0.867
      -0.545
       0.018
       0.336
       0.327
       0.165
      -0.028
      -0.212
      -0.268
      -0.038
       0.437
       0.797
       0.628
      -0.092
      -0.855
      -1.037
      -0.508
       0.240
       0.599
       0.447
       0.146
       0.033
       0.044
      -0.107
      -0.462
      -0.654
      -0.291
       0.518
       1.150
       1.049
       0.260
      -0.610
      -0.910
      -0.483
       0.216
       0.547
       0.309
      -0.097
      -0.131
       0.276
       0.650
       0.476
      -0.285
      -1.139
      -1.488
      -1.107
      -0.256
       0.551
       0.825
       0.360
      -0.541
      -1.153
      -0.908
       0.054
       0.997
       1.332
       1.157
       1.014
       1.159
       1.242
       0.792
      -0.129
      -0.941
      -1.199
      -1.044
      -0.905
      -0.926
      -0.854
      -0.436
       0.249
       0.830
       0.957
       0.596
       0.077
      -0.157
       0.069
       0.464
       0.542
       0.121
      -0.485
      -0.802
      -0.656
      -0.262
       0.090
       0.293
       0.364
       0.282
       0.054
      -0.155
      -0.125
       0.142
       0.329
       0.100
      -0.488
      -0.896
      -0.557
       0.483
       1.429
       1.410
       0.372
      -0.815
      -1.237
      -0.830
      -0.273
      -0.119
      -0.266
      -0.293
      -0.066
       0.169
       0.190
       0.073
       0.009
       0.025
       0.029
       0.041
       0.173
       0.398
       0.502
       0.329
      -0.016
      -0.278
      -0.332
      -0.219
       0.017
       0.337
       0.534
       0.301
      -0.299
      -0.666
      -0.305
       0.450
       0.718
       0.136
      -0.666
      -0.839
      -0.325
       0.197
       0.260
       0.127
       0.259
       0.587
       0.590
       0.033
      -0.656
      -0.857
      -0.465
       0.076
       0.337
       0.278
       0.081
      -0.137
      -0.330
      -0.379
      -0.153
       0.273
       0.585
       0.506
       0.083
      -0.341
      -0.432
      -0.141
       0.264
       0.423
       0.218
      -0.103
      -0.177
       0.076
       0.351
       0.289
      -0.117
      -0.505
      -0.526
      -0.204
       0.135
       0.214
       0.041
      -0.187
      -0.266
      -0.107
       0.188
       0.361
       0.219
      -0.124
      -0.314
      -0.104
       0.382
       0.710
       0.497
      -0.209
      -0.885
      -0.959
      -0.339
       0.471
       0.812
       0.455
      -0.211
      -0.569
      -0.352
       0.134
       0.369
       0.144
      -0.272
      -0.454
      -0.223
       0.233
       0.560
       0.518
       0.142
      -0.292
      -0.459
      -0.225
       0.227
       0.506
       0.332
      -0.203
      -0.680
      -0.710
      -0.257
       0.360
       0.750
       0.723
       0.361
      -0.076
      -0.313
      -0.248
      -0.041
       0.029
      -0.152
      -0.389
      -0.373
      -0.024
       0.386
       0.499
       0.221
      -0.224
      -0.518
      -0.478
      -0.133
       0.303
       0.548
       0.446
       0.101
      -0.215
      -0.309
      -0.203
      -0.055
       0.031
       0.071
       0.098
       0.085
       0.018
      -0.030
       0.034
       0.184
       0.266
       0.157
      -0.090
      -0.290
      -0.306
      -0.161
       0.017
       0.120
       0.116
       0.017
      -0.125
      -0.217
      -0.171
       0.024
       0.274
       0.435
       0.402
       0.191
      -0.066
      -0.223
      -0.241
      -0.195
      -0.163
      -0.117
       0.023
       0.226
       0.279
       0.010
      -0.421
      -0.599
      -0.282
       0.306
       0.668
       0.511
       0.000
      -0.430
      -0.483
      -0.197
       0.182
       0.406
       0.353
       0.085
      -0.184
      -0.256
      -0.126
       0.027
       0.077
       0.084
       0.150
       0.205
       0.092
      -0.172
      -0.347
      -0.245
       0.026
       0.186
       0.091
      -0.102
      -0.103
       0.170
       0.437
       0.336
      -0.141
      -0.600
      -0.643
      -0.243
       0.273
       0.529
       0.396
       0.080
      -0.079
       0.054
       0.263
       0.219
      -0.155
      -0.591
      -0.714
      -0.385
       0.160
       0.493
       0.384
       0.015
      -0.237
      -0.186
       0.040
       0.212
       0.234
       0.156
       0.059
      -0.030
      -0.120
      -0.195
      -0.210
      -0.143
      -0.025
       0.079
       0.120
       0.103
       0.092
       0.142
       0.225
       0.245
       0.137
      -0.074
      -0.278
      -0.336
      -0.189
       0.051
       0.163
       0.038
      -0.183
      -0.231
       0.000
       0.319
       0.408
       0.155
      -0.222
      -0.406
      -0.313
      -0.104
       0.068
       0.188
       0.269
       0.276
       0.194
       0.069
      -0.050
      -0.141
      -0.159
      -0.053
       0.118
       0.152
      -0.091
      -0.454
      -0.572
      -0.255
       0.263
       0.526
       0.309
      -0.174
      -0.492
      -0.402
      -0.043
       0.240
       0.252
       0.098
       0.000
       0.013
       0.019
      -0.074
      -0.202
      -0.242
      -0.177
      -0.088
      -0.009
       0.119
       0.319
       0.455
       0.344
      -0.014
      -0.356
      -0.400
      -0.131
       0.187
       0.279
       0.112
      -0.126
      -0.247
      -0.210
      -0.084
       0.043
       0.121
       0.142
       0.121
       0.069
      -0.002
      -0.052
      -0.027
       0.060
       0.095
      -0.032
