Origin Time       05/3/2012 07:41:05	
Lat.              28.7 N	
Long.             76.6 E	
Depth (Km)         14.0
Magnitude         4.9
 Region           Haryana-Delhi-Border-Region                                      
 Above details taken from IMD 
     
Station Code      DJB
Station Lat.       28.652  N
Station Long.      77.188  E
Station Height(m)  235.0
Site Class        A   Vs30 between 700 m/sec to 1400 m/sec * 
Record Time       05.03.2012 06:16:02.819
Sampling Rate     200. Hz
 Record Duration   94.340 Sec.
 Direction         E-W (E positive)
Max. Acceleration      3.686 cm/sec**2
     
  * For reference see Site Classification link of website 
     
 Base Line Corrected and Low Pass Filtered (Cut Off at 35 Hz) Time History
 Acceleration data in cm/sec**2
    
[...]
      -0.004
       0.022
       0.058
       0.075
       0.045
      -0.032
      -0.121
      -0.179
      -0.188
      -0.168
      -0.149
      -0.137
      -0.110
      -0.039
       0.081
       0.221
       0.329
       0.359
       0.279
       0.104
      -0.105
      -0.251
      -0.256
      -0.119
       0.060
       0.137
       0.022
      -0.258
      -0.577
      -0.795
      -0.840
      -0.728
      -0.524
      -0.297
      -0.099
       0.030
       0.060
      -0.003
      -0.106
      -0.175
      -0.152
      -0.040
       0.111
       0.244
       0.340
       0.417
       0.494
       0.563
       0.589
       0.539
       0.407
       0.218
       0.004
      -0.210
      -0.408
      -0.561
      -0.637
      -0.616
      -0.518
      -0.397
      -0.312
      -0.284
      -0.286
      -0.271
      -0.212
      -0.113
       0.008
       0.138
       0.274
       0.404
       0.513
       0.586
       0.624
       0.636
       0.619
       0.559
       0.437
       0.249
       0.022
      -0.189
      -0.325
      -0.350
      -0.273
      -0.139
      -0.008
       0.083
       0.120
       0.111
       0.070
       0.012
      -0.048
      -0.098
      -0.134
      -0.171
      -0.221
      -0.272
      -0.290
      -0.244
      -0.129
       0.032
       0.197
       0.315
       0.337
       0.245
       0.071
      -0.115
      -0.246
      -0.299
      -0.293
      -0.251
      -0.173
      -0.046
       0.112
       0.244
       0.285
       0.223
       0.119
       0.058
       0.080
       0.146
       0.182
       0.142
       0.039
      -0.069
      -0.132
      -0.142
      -0.125
      -0.118
      -0.132
      -0.151
      -0.147
      -0.103
      -0.023
       0.074
       0.156
       0.187
       0.147
       0.044
      -0.073
      -0.136
      -0.086
       0.081
       0.297
       0.456
       0.467
       0.305
       0.027
      -0.253
      -0.414
      -0.393
      -0.222
      -0.033
       0.022
      -0.123
      -0.384
      -0.572
      -0.530
      -0.265
       0.066
       0.278
       0.303
       0.221
       0.174
       0.251
       0.433
       0.638
       0.784
       0.823
       0.734
       0.515
       0.206
      -0.093
      -0.257
      -0.216
      -0.022
       0.171
       0.226
       0.122
      -0.030
      -0.104
      -0.076
      -0.029
      -0.064
      -0.191
      -0.325
      -0.375
      -0.341
      -0.301
      -0.324
      -0.389
      -0.400
      -0.289
      -0.090
       0.077
       0.112
       0.005
      -0.165
      -0.312
      -0.401
      -0.438
      -0.418
      -0.314
      -0.114
       0.135
       0.337
       0.417
       0.370
       0.262
       0.164
       0.103
       0.061
       0.013
      -0.038
      -0.062
      -0.031
       0.057
       0.185
       0.327
       0.445
       0.487
       0.412
       0.215
      -0.058
      -0.331
      -0.536
      -0.636
      -0.612
      -0.460
      -0.201
       0.111
       0.393
       0.574
       0.627
       0.572
       0.445
       0.277
       0.085
      -0.113
      -0.298
      -0.451
      -0.558
      -0.608
      -0.595
      -0.525
      -0.413
      -0.278
      -0.127
       0.035
       0.197
       0.332
       0.401
       0.366
       0.217
      -0.008
      -0.225
      -0.343
      -0.317
      -0.175
       0.000
       0.117
       0.131
       0.060
      -0.043
      -0.133
      -0.198
      -0.255
      -0.316
      -0.367
      -0.371
      -0.308
      -0.194
      -0.070
       0.041
       0.147
       0.276
       0.433
       0.587
       0.682
       0.665
       0.515
       0.255
      -0.045
      -0.294
      -0.422
      -0.433
      -0.408
      -0.447
      -0.585
      -0.757
      -0.842
      -0.747
      -0.469
      -0.080
       0.325
       0.661
       0.868
       0.905
       0.770
       0.517
       0.253
       0.082
       0.046
       0.088
       0.097
      -0.003
      -0.201
      -0.408
      -0.527
      -0.515
      -0.393
      -0.200
       0.038
       0.307
       0.568
       0.735
       0.718
       0.506
       0.198
      -0.053
      -0.146
      -0.095
       0.005
       0.055
       0.021
      -0.073
      -0.172
      -0.229
      -0.230
      -0.187
      -0.123
      -0.062
      -0.019
      -0.008
      -0.031
      -0.070
      -0.081
      -0.019
       0.135
       0.344
       0.531
       0.618
       0.578
       0.440
       0.271
       0.119
      -0.017
      -0.172
      -0.363
      -0.537
      -0.590
      -0.445
      -0.129
       0.225
       0.475
       0.566
       0.538
       0.459
       0.355
       0.229
       0.106
       0.044
       0.077
       0.157
       0.162
      -0.003
      -0.318
      -0.632
      -0.769
      -0.658
      -0.388
      -0.145
      -0.076
      -0.185
      -0.343
      -0.401
      -0.300
      -0.096
       0.095
       0.199
       0.212
       0.173
       0.112
       0.031
      -0.063
      -0.140
      -0.158
      -0.109
      -0.032
       0.010
      -0.015
      -0.076
      -0.107
      -0.061
       0.048
       0.142
       0.132
      -0.028
      -0.297
      -0.558
      -0.684
      -0.612
      -0.386
      -0.130
       0.034
       0.070
       0.038
       0.040
       0.126
       0.251
       0.311
       0.238
       0.079
      -0.030
       0.027
       0.234
       0.438
       0.463
       0.258
      -0.052
      -0.267
      -0.275
      -0.134
       0.000
       0.022
      -0.034
      -0.043
       0.079
       0.291
       0.464
       0.493
       0.387
       0.252
       0.201
       0.263
       0.378
       0.446
       0.406
       0.259
       0.052
      -0.161
      -0.337
      -0.436
      -0.415
      -0.261
      -0.009
       0.252
       0.421
       0.453
       0.385
       0.301
       0.255
       0.243
       0.224
       0.176
       0.107
       0.039
      -0.015
      -0.050
      -0.067
      -0.069
      -0.060
      -0.049
      -0.046
      -0.070
      -0.128
      -0.208
      -0.266
      -0.246
      -0.113
       0.119
       0.390
       0.618
       0.744
       0.749
       0.658
       0.514
       0.364
       0.247
       0.187
       0.174
       0.156
       0.068
      -0.123
      -0.366
      -0.550
      -0.581
      -0.468
      -0.332
      -0.293
      -0.355
      -0.402
      -0.314
      -0.101
       0.090
       0.101
      -0.089
      -0.348
      -0.505
      -0.486
      -0.358
      -0.252
      -0.253
      -0.340
      -0.422
      -0.408
      -0.266
      -0.025
       0.256
       0.496
       0.609
       0.524
       0.249
      -0.105
      -0.365
      -0.402
      -0.226
       0.022
       0.194
       0.251
       0.274
       0.359
       0.505
       0.612
       0.576
       0.375
       0.072
      -0.251
      -0.550
      -0.798
      -0.950
      -0.952
      -0.796
      -0.569
      -0.393
      -0.326
      -0.311
      -0.234
      -0.039
       0.220
       0.428
       0.498
       0.441
       0.346
       0.314
       0.388
       0.526
       0.636
       0.632
       0.490
       0.261
       0.032
      -0.129
      -0.212
      -0.253
      -0.293
      -0.343
      -0.374
      -0.346
      -0.245
      -0.094
       0.075
       0.247
       0.410
       0.535
       0.572
       0.486
       0.306
       0.110
      -0.027
      -0.090
      -0.123
      -0.179
      -0.266
      -0.339
      -0.340
      -0.244
      -0.083
       0.083
       0.210
       0.302
       0.390
       0.493
       0.587
       0.628
       0.599
       0.538
       0.486
       0.442
       0.364
       0.213
      -0.001
      -0.231
      -0.434
      -0.586
      -0.654
      -0.594
      -0.392
      -0.121
       0.072
       0.071
      -0.116
      -0.344
      -0.426
      -0.256
       0.119
       0.525
       0.767
       0.735
       0.460
       0.065
      -0.303
      -0.536
      -0.587
      -0.473
      -0.269
      -0.075
       0.029
       0.031
      -0.021
      -0.074
      -0.115
      -0.158
      -0.197
      -0.192
      -0.115
      -0.009
       0.030
      -0.048
      -0.181
      -0.225
      -0.086
       0.200
       0.494
       0.646
       0.578
       0.291
      -0.148
      -0.609
      -0.915
      -0.921
      -0.618
      -0.172
       0.183
       0.325
       0.332
       0.394
       0.624
       0.928
       1.069
       0.867
       0.348
      -0.275
      -0.753
      -0.948
      -0.869
      -0.600
      -0.240
       0.118
       0.379
       0.472
       0.405
       0.276
       0.197
       0.204
       0.233
       0.210
       0.130
       0.058
       0.052
       0.093
       0.108
       0.044
      -0.083
      -0.205
      -0.273
      -0.294
      -0.315
      -0.384
      -0.504
      -0.621
      -0.644
      -0.500
      -0.205
       0.127
       0.353
       0.398
       0.307
       0.203
       0.195
       0.320
       0.534
       0.749
       0.880
       0.869
       0.714
       0.475
       0.249
       0.110
       0.070
       0.071
       0.034
      -0.084
      -0.269
      -0.461
      -0.584
      -0.560
      -0.338
       0.050
       0.464
       0.712
       0.671
       0.383
       0.026
      -0.209
      -0.243
      -0.135
       0.003
       0.098
       0.142
       0.156
       0.142
       0.095
       0.047
       0.057
       0.159
       0.313
       0.412
       0.361
       0.157
      -0.100
      -0.274
      -0.281
      -0.147
       0.022
       0.103
       0.026
      -0.207
      -0.528
      -0.828
      -0.983
      -0.918
      -0.651
      -0.292
       0.026
       0.205
       0.203
       0.017
      -0.308
      -0.657
      -0.869
      -0.828
      -0.567
      -0.286
      -0.217
      -0.460
      -0.898
      -1.275
      -1.372
      -1.139
      -0.694
      -0.211
       0.178
       0.423
       0.517
       0.460
       0.269
       0.014
      -0.190
      -0.249
      -0.151
       0.026
       0.172
       0.223
       0.185
       0.105
       0.032
       0.004
       0.043
       0.144
       0.254
       0.301
       0.245
       0.124
       0.036
       0.066
       0.218
       0.411
       0.539
       0.546
       0.447
       0.319
       0.250
       0.301
       0.464
       0.663
       0.798
       0.795
       0.655
       0.445
       0.263
       0.178
       0.186
       0.229
       0.248
       0.246
       0.277
       0.394
       0.579
       0.738
       0.769
       0.645
       0.423
       0.180
      -0.057
      -0.311
      -0.604
      -0.917
      -1.199
      -1.403
      -1.479
      -1.385
      -1.113
      -0.750
      -0.463
      -0.386
      -0.493
      -0.595
      -0.494
      -0.157
       0.258
       0.549
       0.649
       0.668
       0.761
       0.958
       1.131
       1.121
       0.886
       0.525
       0.171
      -0.129
      -0.421
      -0.746
      -1.039
      -1.158
      -1.001
      -0.627
      -0.232
      -0.010
      -0.009
      -0.112
      -0.154
      -0.068
       0.093
       0.252
       0.403
       0.593
       0.824
       0.999
       0.980
       0.698
       0.218
      -0.296
      -0.689
      -0.902
      -0.957
      -0.889
      -0.688
      -0.331
       0.145
       0.605
       0.860
       0.779
       0.393
      -0.091
      -0.390
      -0.319
       0.065
       0.472
       0.564
       0.196
      -0.462
      -1.028
      -1.165
      -0.780
      -0.061
       0.664
       1.101
       1.103
       0.698
       0.079
      -0.468
      -0.692
      -0.527
      -0.141
       0.176
       0.227
       0.052
      -0.135
      -0.143
       0.030
       0.224
       0.274
       0.136
      -0.125
      -0.426
      -0.704
      -0.899
      -0.938
      -0.777
      -0.443
      -0.007
       0.466
       0.946
       1.398
       1.743
       1.876
       1.741
       1.378
       0.917
       0.506
       0.241
       0.114
       0.022
      -0.172
      -0.530
      -0.985
      -1.374
      -1.573
      -1.591
      -1.547
      -1.527
      -1.477
      -1.234
      -0.688
       0.084
       0.842
       1.342
       1.489
       1.360
       1.093
       0.787
       0.472
       0.165
      -0.097
      -0.277
      -0.386
      -0.472
      -0.558
      -0.588
      -0.453
      -0.079
       0.491
       1.100
       1.564
       1.768
       1.689
       1.362
       0.837
       0.183
      -0.474
      -0.963
      -1.141
      -0.993
      -0.654
      -0.339
      -0.218
      -0.329
      -0.580
      -0.808
      -0.874
      -0.738
      -0.466
      -0.176
       0.048
       0.200
       0.316
       0.408
       0.453
       0.433
       0.389
       0.386
       0.434
       0.436
       0.265
      -0.094
      -0.484
      -0.688
      -0.607
      -0.332
      -0.035
       0.185
       0.340
       0.466
       0.532
       0.472
       0.291
       0.101
       0.016
       0.025
      -0.021
      -0.274
      -0.725
      -1.173
      -1.348
      -1.091
      -0.446
       0.381
       1.125
       1.552
       1.526
       1.059
       0.348
      -0.292
      -0.586
      -0.469
      -0.116
       0.195
       0.274
       0.110
      -0.198
      -0.559
      -0.951
      -1.370
      -1.762
      -2.012
      -1.995
      -1.639
      -0.938
       0.062
       1.253
       2.441
       3.343
       3.686
       3.344
       2.435
       1.276
       0.205
      -0.594
      -1.148
      -1.593
      -2.020
      -2.369
      -2.471
      -2.189
      -1.544
      -0.731
      -0.001
       0.467
       0.635
       0.569
       0.380
       0.176
       0.040
       0.027
       0.147
       0.372
       0.638
       0.859
       0.954
       0.859
       0.544
       0.032
      -0.573
      -1.111
      -1.436
      -1.493
      -1.342
      -1.109
      -0.897
      -0.727
      -0.544
      -0.272
       0.137
       0.678
       1.295
       1.883
       2.293
       2.379
       2.071
       1.431
       0.643
      -0.065
      -0.517
      -0.648
      -0.515
      -0.264
      -0.060
      -0.011
      -0.119
      -0.295
      -0.432
      -0.467
      -0.387
      -0.190
       0.124
       0.527
       0.915
       1.132
       1.049
       0.656
       0.091
      -0.427
      -0.725
      -0.774
      -0.683
      -0.612
      -0.648
      -0.737
      -0.732
      -0.526
      -0.164
       0.162
       0.266
       0.132
      -0.076
      -0.164
      -0.074
       0.107
       0.263
       0.377
       0.505
       0.662
       0.743
       0.597
       0.185
      -0.309
      -0.559
      -0.340
       0.236
       0.726
       0.657
      -0.089
      -1.128
      -1.807
      -1.682
      -0.849
       0.118
       0.589
       0.315
      -0.419
      -1.036
      -1.083
      -0.504
       0.404
       1.236
       1.716
       1.771
       1.487
       1.020
       0.545
       0.221
       0.164
       0.392
       0.793
       1.135
       1.168
       0.794
       0.155
      -0.461
      -0.839
      -0.996
      -1.113
      -1.332
      -1.614
      -1.776
      -1.654
      -1.224
      -0.607
       0.012
       0.468
       0.690
       0.720
       0.680
       0.666
       0.649
       0.474
      -0.012
      -0.797
      -1.641
      -2.207
      -2.294
      -1.973
      -1.495
      -1.066
      -0.688
      -0.209
       0.473
       1.264
       1.905
       2.167
       2.021
       1.626
       1.179
       0.776
       0.412
       0.078
      -0.163
      -0.223
      -0.081
       0.183
       0.444
       0.627
       0.727
       0.749
       0.650
       0.347
      -0.187
      -0.835
      -1.345
      -1.462
      -1.104
      -0.447
       0.170
       0.484
       0.501
       0.466
       0.627
       0.999
       1.348
       1.410
       1.122
       0.654
       0.218
      -0.124
      -0.460
      -0.855
      -1.213
      -1.331
      -1.102
      -0.643
      -0.224
      -0.039
      -0.041
       0.006
       0.316
       0.877
       1.437
       1.659
       1.337
       0.527
      -0.457
      -1.193
      -1.365
      -0.944
      -0.211
       0.400
       0.568
       0.283
      -0.167
      -0.399
      -0.189
       0.400
       1.075
       1.483
       1.395
       0.808
      -0.054
      -0.843
      -1.277
      -1.295
      -1.084
      -0.906
      -0.875
      -0.880
      -0.732
      -0.378
       0.021
       0.218
       0.075
      -0.339
      -0.825
      -1.190
      -1.310
      -1.111
      -0.557
       0.284
       1.158
       1.682
       1.559
       0.817
      -0.151
      -0.821
      -0.872
      -0.371
       0.338
       0.905
       1.168
       1.152
       0.941
       0.578
       0.094
      -0.424
      -0.804
      -0.881
      -0.626
      -0.200
       0.133
       0.184
      -0.041
      -0.359
      -0.543
      -0.464
      -0.160
       0.214
       0.485
       0.559
       0.448
       0.244
       0.079
       0.066
       0.262
       0.631
       1.042
       1.309
       1.252
       0.793
       0.027
      -0.780
      -1.313
      -1.384
      -1.037
      -0.495
       0.018
       0.425
       0.791
       1.169
       1.468
       1.481
       1.063
       0.293
      -0.548
      -1.164
      -1.424
      -1.390
      -1.204
      -0.969
      -0.713
      -0.429
      -0.118
       0.195
       0.461
       0.611
       0.576
       0.344
       0.003
      -0.274
      -0.316
      -0.043
       0.477
       1.029
       1.338
       1.223
       0.724
       0.092
      -0.405
      -0.665
      -0.791
      -0.940
      -1.152
      -1.317
      -1.299
      -1.076
      -0.739
      -0.373
       0.010
       0.395
       0.648
       0.572
       0.106
      -0.535
      -0.966
      -0.931
      -0.499
       0.030
       0.416
       0.666
       0.937
       1.279
       1.494
       1.304
       0.652
      -0.178
      -0.765
      -0.903
      -0.753
      -0.648
      -0.757
      -0.933
      -0.891
      -0.513
       0.025
       0.417
       0.510
       0.409
       0.358
       0.508
       0.809
       1.062
       1.059
       0.714
       0.131
      -0.411
      -0.593
      -0.251
       0.466
       1.147
       1.377
       1.024
       0.326
      -0.300
      -0.563
      -0.468
      -0.262
      -0.217
      -0.415
      -0.691
      -0.769
      -0.488
       0.050
       0.541
       0.704
       0.475
       0.035
      -0.333
      -0.429
      -0.237
       0.100
       0.370
       0.410
       0.186
      -0.173
      -0.437
      -0.416
      -0.127
       0.170
       0.140
      -0.334
      -1.000
      -1.395
      -1.212
      -0.577
       0.051
       0.270
       0.076
      -0.159
      -0.057
       0.397
       0.829
       0.834
       0.371
      -0.181
      -0.370
      -0.082
       0.369
       0.546
       0.289
      -0.162
      -0.400
      -0.207
       0.300
       0.806
       1.040
       0.910
       0.499
      -0.006
      -0.385
      -0.469
      -0.231
       0.164
       0.440
       0.398
       0.081
      -0.233
      -0.238
       0.161
       0.763
