Origin Time       11/11/2013 22:10:42
Lat.              28.4 N	
Long.             77.2 E	
Depth (Km)         11.0
Magnitude         2.8
 Region           DELHI                                                            
 Above details taken from IMD 
   
Station Code      DJB
Station Lat.       28.652
Station Long.      77.188
Station Height(m)  235.0
Site Class        A   Vs30 between 700 m/sec to 1400 m/sec * 
Record Time       11.11.2013 17:10:44.254
Sampling Rate     200. Hz
 Record Duration   80.115 Sec.
 Direction         Vert. (Up positive)
Max. Acceleration      0.821 cm/sec**2
     
  * For reference see Site Classification link of website 
     
 Base Line Corrected and Low Pass Filtered (Cut Off at 35 Hz) Time History
 Acceleration data in cm/sec**2
    
[...]
      -0.012
      -0.010
      -0.004
       0.005
       0.012
       0.017
       0.015
       0.007
      -0.004
      -0.011
      -0.009
       0.002
       0.014
       0.020
       0.017
       0.007
      -0.001
       0.000
       0.008
       0.016
       0.017
       0.008
      -0.004
      -0.010
      -0.006
       0.003
       0.009
       0.006
      -0.003
      -0.011
      -0.010
       0.000
       0.010
       0.013
       0.010
       0.005
       0.004
       0.007
       0.009
       0.006
       0.001
       0.000
       0.004
       0.009
       0.009
       0.003
      -0.004
      -0.005
       0.001
       0.008
       0.011
       0.009
       0.006
       0.007
       0.013
       0.020
       0.023
       0.018
       0.009
       0.002
       0.000
       0.002
       0.003
       0.002
      -0.001
      -0.003
      -0.002
       0.003
       0.009
       0.012
       0.013
       0.012
       0.014
       0.017
       0.015
       0.008
       0.000
       0.000
       0.009
       0.020
       0.023
       0.017
       0.006
       0.001
       0.003
       0.010
       0.015
       0.013
       0.007
       0.003
       0.005
       0.010
       0.013
       0.010
       0.003
      -0.004
      -0.006
      -0.002
       0.003
       0.006
       0.007
       0.009
       0.014
       0.019
       0.018
       0.011
       0.001
      -0.005
      -0.003
       0.005
       0.012
       0.012
       0.007
       0.002
      -0.001
       0.000
       0.001
       0.000
      -0.001
       0.002
       0.008
       0.014
       0.015
       0.008
      -0.001
      -0.005
      -0.001
       0.008
       0.011
       0.005
      -0.005
      -0.011
      -0.009
      -0.003
       0.000
      -0.002
      -0.006
      -0.004
       0.004
       0.013
       0.015
       0.012
       0.006
       0.002
       0.001
       0.002
       0.003
       0.004
       0.006
       0.007
       0.007
       0.005
       0.002
       0.000
       0.000
       0.002
       0.007
       0.013
       0.015
       0.012
       0.005
       0.001
       0.001
       0.007
       0.012
       0.013
       0.010
       0.006
       0.006
       0.011
       0.014
       0.010
       0.001
      -0.007
      -0.006
       0.002
       0.008
       0.008
       0.002
      -0.003
      -0.003
       0.001
       0.004
       0.002
      -0.002
      -0.004
      -0.001
       0.006
       0.011
       0.011
       0.009
       0.007
       0.010
       0.014
       0.016
       0.011
       0.004
      -0.001
       0.001
       0.005
       0.007
       0.004
      -0.001
      -0.003
       0.001
       0.006
       0.006
       0.001
      -0.005
      -0.006
      -0.001
       0.007
       0.010
       0.005
      -0.003
      -0.007
      -0.001
       0.011
       0.022
       0.025
       0.018
       0.008
      -0.001
      -0.005
      -0.002
       0.004
       0.010
       0.010
       0.004
      -0.006
      -0.014
      -0.015
      -0.010
      -0.002
       0.006
       0.011
       0.013
       0.011
       0.009
       0.008
       0.010
       0.013
       0.014
       0.012
       0.008
       0.004
       0.004
       0.006
       0.006
       0.001
      -0.008
      -0.012
      -0.009
      -0.002
       0.002
       0.001
      -0.001
       0.000
       0.004
       0.008
       0.006
      -0.001
      -0.005
      -0.004
       0.001
       0.005
       0.005
       0.001
      -0.002
       0.001
       0.008
       0.016
       0.019
       0.015
       0.008
       0.001
      -0.001
       0.001
       0.004
       0.004
       0.001
      -0.002
      -0.001
       0.003
       0.006
       0.004
       0.000
      -0.003
      -0.001
       0.005
       0.010
       0.010
       0.007
       0.002
      -0.003
      -0.006
      -0.007
      -0.003
       0.003
       0.008
       0.010
       0.007
       0.001
      -0.004
      -0.005
      -0.003
       0.001
       0.004
       0.004
       0.001
      -0.002
      -0.003
       0.001
       0.006
       0.005
      -0.002
      -0.012
      -0.017
      -0.012
      -0.001
       0.009
       0.010
       0.005
       0.000
      -0.002
      -0.002
      -0.002
      -0.003
      -0.004
      -0.004
      -0.001
       0.000
      -0.002
      -0.004
      -0.003
       0.002
       0.008
       0.011
       0.009
       0.001
      -0.005
      -0.005
       0.001
       0.007
       0.007
       0.003
      -0.001
       0.002
       0.009
       0.012
       0.007
      -0.003
      -0.011
      -0.011
      -0.004
       0.003
       0.005
      -0.001
      -0.009
      -0.011
      -0.006
       0.003
       0.009
       0.008
       0.001
      -0.006
      -0.007
      -0.004
      -0.001
       0.000
       0.000
       0.002
       0.007
       0.012
       0.014
       0.010
       0.006
       0.004
       0.006
       0.008
       0.007
       0.002
      -0.006
      -0.010
      -0.008
      -0.001
       0.005
       0.006
       0.005
       0.006
       0.008
       0.008
       0.001
      -0.012
      -0.020
      -0.018
      -0.008
       0.000
      -0.001
      -0.008
      -0.013
      -0.009
       0.001
       0.008
       0.006
      -0.001
      -0.008
      -0.009
      -0.004
       0.001
       0.002
      -0.003
      -0.010
      -0.011
      -0.006
       0.002
       0.006
       0.002
      -0.005
      -0.008
      -0.006
       0.000
       0.001
      -0.005
      -0.012
      -0.012
      -0.003
       0.006
       0.008
       0.001
      -0.009
      -0.011
      -0.002
       0.008
       0.011
       0.004
      -0.006
      -0.010
      -0.006
      -0.001
      -0.003
      -0.013
      -0.022
      -0.022
      -0.010
       0.005
       0.014
       0.010
       0.000
      -0.007
      -0.006
       0.000
       0.003
       0.002
      -0.003
      -0.006
      -0.004
      -0.001
      -0.001
      -0.005
      -0.008
      -0.005
       0.003
       0.010
       0.012
       0.006
      -0.002
      -0.008
      -0.008
      -0.006
      -0.007
      -0.013
      -0.018
      -0.015
      -0.005
       0.005
       0.007
       0.001
      -0.006
      -0.006
       0.000
       0.005
       0.006
       0.003
      -0.001
      -0.001
       0.000
       0.001
      -0.001
      -0.002
      -0.002
       0.001
       0.004
       0.006
       0.005
       0.003
       0.001
       0.002
       0.004
       0.007
       0.009
       0.009
       0.009
       0.006
       0.001
      -0.004
      -0.009
      -0.008
      -0.002
       0.007
       0.013
       0.011
       0.001
      -0.008
      -0.010
      -0.001
       0.011
       0.019
       0.018
       0.011
       0.003
       0.000
       0.006
       0.024
       0.051
       0.073
       0.069
       0.029
      -0.031
      -0.080
      -0.098
      -0.090
      -0.066
      -0.027
       0.029
       0.084
       0.104
       0.073
       0.010
      -0.048
      -0.068
      -0.039
       0.014
       0.051
       0.041
      -0.008
      -0.051
      -0.047
       0.003
       0.063
       0.094
       0.081
       0.033
      -0.028
      -0.076
      -0.085
      -0.050
       0.008
       0.059
       0.079
       0.053
      -0.009
      -0.069
      -0.079
      -0.030
       0.036
       0.069
       0.059
       0.039
       0.033
       0.035
       0.019
      -0.019
      -0.058
      -0.071
      -0.048
      -0.007
       0.035
       0.070
       0.095
       0.103
       0.086
       0.047
       0.001
      -0.038
      -0.060
      -0.062
      -0.044
      -0.019
      -0.002
      -0.005
      -0.016
      -0.014
       0.009
       0.035
       0.041
       0.032
       0.029
       0.043
       0.053
       0.032
      -0.019
      -0.067
      -0.075
      -0.035
       0.029
       0.077
       0.080
       0.044
       0.001
      -0.019
      -0.007
       0.026
       0.059
       0.081
       0.100
       0.136
       0.183
       0.192
       0.090
      -0.129
      -0.347
      -0.419
      -0.317
      -0.149
      -0.028
       0.023
       0.045
       0.075
       0.107
       0.110
       0.053
      -0.050
      -0.130
      -0.129
      -0.062
       0.004
       0.025
       0.014
       0.010
       0.032
       0.089
       0.182
       0.265
       0.243
       0.078
      -0.131
      -0.240
      -0.211
      -0.121
      -0.027
       0.094
       0.231
       0.255
       0.057
      -0.250
      -0.390
      -0.223
       0.093
       0.273
       0.201
       0.018
      -0.070
      -0.012
       0.061
       0.013
      -0.124
      -0.190
      -0.081
       0.131
       0.276
       0.271
       0.195
       0.162
       0.169
       0.115
      -0.047
      -0.240
      -0.348
      -0.310
      -0.166
      -0.033
      -0.027
      -0.142
      -0.232
      -0.145
       0.106
       0.335
       0.376
       0.243
       0.073
      -0.045
      -0.117
      -0.152
      -0.122
      -0.030
       0.073
       0.157
       0.217
       0.203
       0.063
      -0.136
      -0.224
      -0.129
       0.032
       0.097
       0.035
      -0.054
      -0.077
      -0.039
      -0.001
      -0.004
      -0.034
      -0.047
      -0.005
       0.073
       0.115
       0.065
      -0.037
      -0.079
       0.006
       0.150
       0.203
       0.086
      -0.110
      -0.202
      -0.126
      -0.029
      -0.084
      -0.250
      -0.282
      -0.056
       0.237
       0.314
       0.170
       0.056
       0.110
       0.180
       0.068
      -0.184
      -0.353
      -0.295
      -0.066
       0.172
       0.301
       0.282
       0.140
      -0.041
      -0.137
      -0.074
       0.087
       0.185
       0.099
      -0.138
      -0.349
      -0.369
      -0.187
       0.052
       0.185
       0.177
       0.100
       0.033
      -0.005
      -0.014
       0.012
       0.063
       0.109
       0.125
       0.112
       0.070
      -0.033
      -0.191
      -0.304
      -0.250
      -0.039
       0.166
       0.210
       0.100
      -0.026
      -0.048
       0.038
       0.125
       0.095
      -0.064
      -0.236
      -0.273
      -0.131
       0.091
       0.240
       0.248
       0.154
       0.018
      -0.130
      -0.243
      -0.233
      -0.062
       0.158
       0.243
       0.120
      -0.075
      -0.141
      -0.043
       0.067
       0.069
       0.016
       0.019
       0.062
       0.038
      -0.071
      -0.151
      -0.105
       0.011
       0.067
       0.045
       0.056
       0.145
       0.197
       0.082
      -0.150
      -0.302
      -0.241
      -0.033
       0.158
       0.221
       0.148
      -0.017
      -0.181
      -0.226
      -0.098
       0.104
       0.198
       0.097
      -0.087
      -0.172
      -0.098
       0.040
       0.139
       0.165
       0.113
      -0.018
      -0.182
      -0.278
      -0.223
      -0.047
       0.116
       0.148
       0.064
      -0.017
       0.011
       0.132
       0.212
       0.122
      -0.120
      -0.343
      -0.381
      -0.220
       0.009
       0.165
       0.207
       0.180
       0.130
       0.079
       0.039
       0.030
       0.041
       0.024
      -0.045
      -0.121
      -0.126
      -0.041
       0.080
       0.161
       0.154
       0.047
      -0.129
      -0.282
      -0.295
      -0.123
       0.130
       0.268
       0.172
      -0.085
      -0.287
      -0.262
      -0.032
       0.195
       0.218
       0.055
      -0.073
      -0.014
       0.129
       0.143
      -0.008
      -0.135
      -0.085
       0.052
       0.075
      -0.057
      -0.174
      -0.117
       0.069
       0.198
       0.155
       0.000
      -0.129
      -0.155
      -0.081
       0.047
       0.152
       0.156
       0.046
      -0.120
      -0.254
      -0.266
      -0.124
       0.095
       0.233
       0.198
       0.068
       0.013
       0.088
       0.151
       0.035
      -0.201
      -0.292
      -0.094
       0.211
       0.304
       0.083
      -0.251
      -0.397
      -0.218
       0.149
       0.398
       0.318
      -0.023
      -0.348
      -0.423
      -0.226
       0.087
       0.319
       0.374
       0.287
       0.139
      -0.035
      -0.233
      -0.388
      -0.353
      -0.059
       0.313
       0.432
       0.168
      -0.228
      -0.362
      -0.123
       0.212
       0.301
       0.102
      -0.141
      -0.226
      -0.196
      -0.175
      -0.154
      -0.038
       0.155
       0.257
       0.163
      -0.016
      -0.063
       0.071
       0.214
       0.193
       0.024
      -0.160
      -0.278
      -0.325
      -0.279
      -0.107
       0.106
       0.168
       0.015
      -0.134
      -0.007
       0.333
       0.481
       0.162
      -0.371
      -0.552
      -0.164
       0.365
       0.434
      -0.012
      -0.414
      -0.267
       0.264
       0.548
       0.226
      -0.385
      -0.662
      -0.370
       0.121
       0.289
       0.047
      -0.218
      -0.153
       0.156
       0.350
       0.255
       0.030
      -0.102
      -0.101
      -0.074
      -0.099
      -0.164
      -0.202
      -0.134
       0.093
       0.412
       0.613
       0.501
       0.104
      -0.315
      -0.500
      -0.407
      -0.165
       0.100
       0.307
       0.358
       0.148
      -0.282
      -0.629
      -0.525
       0.067
       0.702
       0.821
       0.304
      -0.396
      -0.699
      -0.463
      -0.047
       0.153
       0.114
       0.069
       0.121
       0.139
       0.007
      -0.172
      -0.203
      -0.064
       0.040
      -0.085
      -0.358
      -0.482
      -0.277
       0.110
       0.399
       0.473
       0.399
       0.265
       0.145
       0.151
       0.353
       0.615
       0.634
       0.257
      -0.312
      -0.708
      -0.781
      -0.678
      -0.598
      -0.547
      -0.369
       0.012
       0.473
       0.791
       0.801
       0.478
      -0.014
      -0.357
      -0.313
       0.007
       0.207
       0.048
      -0.271
      -0.345
      -0.043
       0.354
       0.477
       0.256
      -0.066
      -0.239
      -0.239
      -0.215
      -0.262
      -0.300
      -0.222
      -0.071
       0.013
       0.021
       0.106
       0.323
       0.468
       0.318
      -0.037
      -0.244
      -0.115
       0.133
       0.139
      -0.156
      -0.455
      -0.479
      -0.253
       0.009
       0.192
       0.327
       0.416
       0.349
       0.083
      -0.184
      -0.173
       0.123
       0.366
       0.253
      -0.109
      -0.347
      -0.293
      -0.133
      -0.070
      -0.062
       0.019
       0.108
       0.031
      -0.156
      -0.161
       0.111
       0.334
       0.170
      -0.233
      -0.390
      -0.111
       0.253
       0.295
       0.054
      -0.120
      -0.061
       0.049
      -0.001
      -0.159
      -0.209
      -0.078
       0.086
       0.131
       0.094
       0.096
       0.126
       0.049
      -0.156
      -0.299
      -0.194
       0.099
       0.323
       0.299
       0.092
      -0.091
      -0.114
       0.000
       0.131
       0.167
       0.097
      -0.001
      -0.070
      -0.151
      -0.293
      -0.415
      -0.343
      -0.029
       0.311
       0.382
       0.125
      -0.206
      -0.299
      -0.094
       0.200
       0.333
       0.231
       0.002
      -0.176
      -0.184
      -0.032
       0.139
       0.185
       0.097
      -0.018
      -0.081
      -0.105
      -0.118
      -0.095
      -0.022
       0.029
      -0.015
      -0.105
      -0.113
      -0.010
       0.081
       0.059
      -0.010
       0.003
       0.087
       0.105
       0.002
      -0.087
      -0.015
       0.171
       0.262
       0.123
      -0.167
      -0.399
      -0.412
      -0.195
       0.127
       0.366
       0.376
       0.156
      -0.142
      -0.329
      -0.317
      -0.143
       0.071
       0.176
       0.095
      -0.097
      -0.218
      -0.157
       0.008
       0.110
       0.072
      -0.039
      -0.099
      -0.054
       0.050
       0.140
       0.184
       0.191
       0.166
       0.101
       0.019
      -0.035
      -0.060
      -0.113
      -0.210
      -0.265
      -0.183
       0.004
       0.149
       0.160
       0.094
       0.059
       0.072
       0.063
      -0.010
      -0.104
      -0.154
      -0.154
      -0.121
      -0.043
       0.095
       0.218
       0.204
       0.034
      -0.149
      -0.185
      -0.074
       0.040
       0.066
       0.057
       0.099
       0.145
       0.073
      -0.114
      -0.231
      -0.130
       0.083
       0.153
      -0.008
      -0.217
      -0.254
      -0.105
       0.063
       0.118
       0.067
       0.014
       0.041
       0.130
       0.182
       0.123
       0.007
      -0.049
      -0.001
       0.069
       0.055
      -0.048
      -0.144
      -0.151
      -0.077
      -0.009
      -0.019
      -0.076
      -0.082
      -0.001
       0.091
       0.121
       0.100
       0.056
      -0.030
      -0.152
      -0.213
      -0.132
       0.037
       0.146
       0.115
       0.003
      -0.063
      -0.027
       0.056
       0.085
       0.025
      -0.064
      -0.089
      -0.021
       0.074
       0.092
      -0.016
      -0.187
      -0.268
      -0.148
       0.124
       0.349
       0.339
       0.091
      -0.189
      -0.275
      -0.133
       0.063
       0.143
       0.104
       0.048
       0.023
      -0.014
      -0.093
      -0.158
      -0.116
       0.044
       0.203
       0.210
       0.047
      -0.132
      -0.159
      -0.032
       0.099
       0.114
       0.035
      -0.034
      -0.056
      -0.067
      -0.061
       0.017
       0.121
       0.087
      -0.115
      -0.257
      -0.113
       0.193
       0.305
       0.075
      -0.250
      -0.329
      -0.111
       0.170
       0.290
       0.215
       0.035
      -0.147
      -0.219
      -0.097
       0.166
       0.370
       0.327
       0.049
      -0.274
      -0.439
      -0.388
      -0.196
       0.016
       0.159
       0.182
       0.090
      -0.041
      -0.096
      -0.020
       0.129
       0.228
       0.197
       0.067
      -0.055
      -0.090
      -0.066
      -0.080
      -0.162
      -0.221
      -0.147
       0.034
       0.158
       0.109
      -0.029
      -0.058
       0.095
       0.270
       0.249
       0.018
      -0.221
      -0.266
      -0.106
       0.089
       0.136
       0.001
      -0.178
      -0.230
      -0.112
       0.073
       0.203
       0.224
       0.141
      -0.006
      -0.131
      -0.137
      -0.011
       0.130
       0.150
       0.026
      -0.143
      -0.232
      -0.172
       0.005
       0.181
       0.235
       0.144
       0.000
      -0.103
      -0.147
      -0.149
      -0.088
       0.052
       0.192
       0.196
       0.026
      -0.179
      -0.231
      -0.073
       0.161
       0.271
       0.149
      -0.134
      -0.378
      -0.389
      -0.133
       0.201
       0.334
       0.168
      -0.100
      -0.169
       0.033
       0.263
       0.249
       0.002
      -0.219
      -0.213
      -0.036
       0.111
