Origin Time       11/11/2013 20:11:30
Lat.              28.4 N	
Long.             77.2 E	
Depth (Km)         10.0
Magnitude         3.3
 Region           DELHI                                                            
 Above details taken from IMD 
   
Station Code      DJB
Station Lat.       28.652
Station Long.      77.188
Station Height(m)  235.0
Site Class        A   Vs30 between 700 m/sec to 1400 m/sec * 
Record Time       11.11.2013 15:20:17.174
Sampling Rate     200. Hz
 Record Duration   84.015 Sec.
 Direction         Vert. (Up positive)
Max. Acceleration     -3.135 cm/sec**2
     
  * For reference see Site Classification link of website 
     
 Base Line Corrected and Low Pass Filtered (Cut Off at 35 Hz) Time History
 Acceleration data in cm/sec**2
    
[...]
       0.003
       0.006
       0.007
       0.004
       0.000
      -0.001
       0.001
       0.002
      -0.001
      -0.004
      -0.003
       0.003
       0.012
       0.016
       0.011
       0.003
      -0.001
       0.003
       0.011
       0.016
       0.013
       0.005
      -0.001
       0.000
       0.004
       0.005
      -0.001
      -0.008
      -0.010
      -0.003
       0.008
       0.017
       0.017
       0.011
       0.005
       0.005
       0.009
       0.013
       0.012
       0.008
       0.003
      -0.001
      -0.003
      -0.008
      -0.013
      -0.014
      -0.008
       0.003
       0.014
       0.017
       0.012
       0.005
       0.001
       0.003
       0.007
       0.010
       0.009
       0.008
       0.009
       0.010
       0.008
      -0.001
      -0.011
      -0.016
      -0.013
      -0.004
       0.003
       0.004
       0.002
       0.002
       0.005
       0.008
       0.007
       0.002
       0.000
       0.003
       0.008
       0.010
       0.004
      -0.007
      -0.016
      -0.015
      -0.004
       0.008
       0.013
       0.008
      -0.002
      -0.007
      -0.005
       0.001
       0.004
       0.002
      -0.005
      -0.010
      -0.011
      -0.008
      -0.004
      -0.001
       0.002
       0.007
       0.013
       0.015
       0.012
       0.005
       0.001
       0.001
       0.005
       0.006
       0.002
      -0.006
      -0.011
      -0.012
      -0.009
      -0.006
      -0.004
      -0.004
      -0.002
       0.000
       0.003
       0.002
      -0.003
      -0.007
      -0.007
      -0.002
       0.005
       0.009
       0.008
       0.003
      -0.002
      -0.002
       0.002
       0.005
       0.006
       0.004
       0.001
      -0.001
      -0.002
      -0.003
      -0.004
      -0.002
       0.001
       0.002
      -0.001
      -0.006
      -0.009
      -0.008
      -0.003
       0.002
       0.002
      -0.002
      -0.007
      -0.008
      -0.005
      -0.001
       0.002
       0.002
       0.001
      -0.001
      -0.002
      -0.001
       0.001
       0.002
       0.003
       0.004
       0.004
       0.003
      -0.001
      -0.006
      -0.010
      -0.009
      -0.003
       0.006
       0.011
       0.010
       0.005
      -0.001
      -0.003
      -0.003
      -0.001
       0.000
       0.000
       0.001
       0.002
       0.002
       0.001
      -0.003
      -0.010
      -0.013
      -0.011
      -0.004
       0.002
       0.001
      -0.005
      -0.008
      -0.003
       0.006
       0.011
       0.006
      -0.005
      -0.014
      -0.015
      -0.011
      -0.008
      -0.009
      -0.011
      -0.011
      -0.006
      -0.001
       0.000
      -0.004
      -0.011
      -0.015
      -0.012
      -0.005
      -0.001
      -0.002
      -0.007
      -0.009
      -0.006
       0.003
       0.009
       0.009
       0.004
      -0.004
      -0.009
      -0.011
      -0.009
      -0.007
      -0.006
      -0.006
      -0.008
      -0.012
      -0.015
      -0.015
      -0.011
      -0.005
      -0.003
      -0.004
      -0.005
      -0.004
      -0.002
      -0.001
      -0.004
      -0.008
      -0.010
      -0.008
      -0.004
      -0.003
      -0.005
      -0.010
      -0.012
      -0.008
       0.001
       0.008
       0.008
       0.002
      -0.003
      -0.004
      -0.001
       0.001
       0.001
      -0.001
      -0.002
      -0.001
       0.001
       0.001
      -0.003
      -0.009
      -0.014
      -0.015
      -0.012
      -0.009
      -0.010
      -0.014
      -0.016
      -0.013
      -0.005
       0.003
       0.006
       0.002
      -0.004
      -0.010
      -0.011
      -0.012
      -0.013
      -0.015
      -0.013
      -0.009
      -0.003
      -0.001
      -0.003
      -0.005
      -0.004
      -0.001
       0.001
       0.001
      -0.003
      -0.008
      -0.012
      -0.013
      -0.013
      -0.012
      -0.011
      -0.008
      -0.004
       0.001
       0.003
       0.000
      -0.004
      -0.006
      -0.003
       0.002
       0.007
       0.006
      -0.001
      -0.011
      -0.018
      -0.019
      -0.015
      -0.009
      -0.006
      -0.006
      -0.006
      -0.004
      -0.002
      -0.002
      -0.006
      -0.008
      -0.005
       0.004
       0.011
       0.011
       0.003
      -0.004
      -0.005
       0.000
       0.006
       0.005
       0.000
      -0.006
      -0.006
      -0.002
       0.001
      -0.001
      -0.007
      -0.011
      -0.010
      -0.003
       0.004
       0.006
       0.003
       0.000
      -0.001
       0.001
       0.001
      -0.002
      -0.005
      -0.007
      -0.003
       0.003
       0.008
       0.009
       0.006
       0.001
      -0.001
      -0.001
      -0.001
      -0.005
      -0.011
      -0.016
      -0.017
      -0.014
      -0.008
      -0.002
       0.002
       0.004
       0.003
      -0.002
      -0.008
      -0.013
      -0.015
      -0.011
      -0.005
      -0.001
       0.001
       0.000
       0.000
       0.003
       0.006
       0.006
       0.000
      -0.008
      -0.011
      -0.007
       0.000
       0.003
      -0.003
      -0.014
      -0.023
      -0.022
      -0.013
      -0.002
       0.004
       0.005
       0.004
       0.004
       0.003
      -0.002
      -0.010
      -0.015
      -0.014
      -0.007
       0.000
       0.000
      -0.007
      -0.014
      -0.015
      -0.008
       0.003
       0.012
       0.014
       0.009
       0.002
      -0.003
      -0.004
      -0.005
      -0.007
      -0.009
      -0.011
      -0.008
      -0.003
       0.002
       0.005
       0.007
       0.007
       0.005
      -0.001
      -0.011
      -0.018
      -0.017
      -0.007
       0.007
       0.016
       0.015
       0.008
       0.001
      -0.001
       0.000
       0.000
      -0.005
      -0.010
      -0.008
      -0.001
       0.007
       0.009
       0.004
      -0.004
      -0.007
      -0.004
       0.003
       0.006
       0.002
      -0.005
      -0.008
      -0.005
       0.003
       0.006
       0.003
      -0.004
      -0.008
      -0.006
      -0.002
       0.001
       0.000
      -0.001
       0.001
       0.004
       0.003
      -0.002
      -0.009
      -0.012
      -0.010
      -0.005
      -0.002
      -0.003
      -0.008
      -0.012
      -0.011
      -0.006
      -0.003
      -0.003
      -0.007
      -0.011
      -0.009
      -0.003
       0.003
       0.005
       0.002
      -0.001
      -0.002
      -0.001
       0.000
      -0.002
      -0.005
      -0.006
      -0.002
       0.003
       0.006
       0.001
      -0.007
      -0.015
      -0.017
      -0.013
      -0.009
      -0.008
      -0.008
      -0.007
      -0.003
      -0.001
      -0.005
      -0.013
      -0.018
      -0.014
      -0.002
       0.009
       0.010
       0.001
      -0.012
      -0.019
      -0.018
      -0.013
      -0.010
      -0.010
      -0.009
      -0.004
       0.002
       0.002
      -0.004
      -0.014
      -0.020
      -0.018
      -0.010
      -0.004
      -0.002
      -0.004
      -0.003
       0.003
       0.011
       0.013
       0.009
       0.002
      -0.002
      -0.001
       0.001
      -0.001
      -0.006
      -0.011
      -0.009
      -0.004
      -0.001
      -0.004
      -0.012
      -0.015
      -0.010
       0.000
       0.007
       0.005
      -0.004
      -0.013
      -0.016
      -0.014
      -0.010
      -0.008
      -0.007
      -0.006
      -0.002
       0.004
       0.008
       0.006
       0.001
      -0.005
      -0.007
      -0.008
      -0.008
      -0.010
      -0.013
      -0.014
      -0.014
      -0.013
      -0.013
      -0.013
      -0.012
      -0.007
      -0.001
       0.004
       0.006
       0.002
      -0.003
      -0.005
      -0.002
       0.003
       0.004
       0.001
      -0.005
      -0.008
      -0.005
       0.002
       0.006
       0.003
      -0.003
      -0.007
      -0.004
       0.002
       0.006
       0.006
       0.004
       0.003
       0.003
       0.003
       0.001
      -0.001
       0.000
       0.005
       0.012
       0.013
       0.007
      -0.005
      -0.012
      -0.012
      -0.003
       0.006
       0.009
       0.008
       0.005
       0.003
       0.004
       0.005
       0.005
       0.005
       0.007
       0.008
       0.007
       0.000
      -0.007
      -0.009
      -0.004
       0.006
       0.014
       0.014
       0.005
      -0.006
      -0.012
      -0.010
      -0.002
       0.005
       0.006
       0.001
      -0.003
      -0.004
       0.001
       0.005
       0.008
       0.006
       0.003
       0.000
      -0.002
      -0.003
      -0.002
       0.000
       0.003
       0.005
       0.004
       0.000
      -0.005
      -0.009
      -0.010
      -0.009
      -0.006
      -0.004
      -0.002
       0.000
       0.001
       0.003
       0.005
       0.006
       0.006
       0.005
       0.005
       0.007
       0.005
      -0.001
      -0.009
      -0.014
      -0.012
      -0.006
      -0.002
      -0.002
      -0.004
      -0.004
      -0.004
      -0.005
      -0.008
      -0.009
      -0.004
       0.007
       0.016
       0.017
       0.007
      -0.006
      -0.012
      -0.008
       0.002
       0.008
       0.006
      -0.001
      -0.005
      -0.004
       0.001
       0.003
      -0.001
      -0.006
      -0.009
      -0.009
      -0.005
       0.000
       0.002
       0.000
      -0.004
      -0.007
      -0.006
      -0.002
       0.000
      -0.002
      -0.004
      -0.005
      -0.004
      -0.001
      -0.001
      -0.004
      -0.007
      -0.008
      -0.007
      -0.005
      -0.005
      -0.007
      -0.008
      -0.007
      -0.004
      -0.002
      -0.001
      -0.002
      -0.003
      -0.003
      -0.004
      -0.008
      -0.014
      -0.018
      -0.018
      -0.012
      -0.007
      -0.005
      -0.007
      -0.008
      -0.005
       0.000
       0.004
       0.001
      -0.004
      -0.008
      -0.006
       0.000
       0.005
       0.004
      -0.002
      -0.009
      -0.012
      -0.007
       0.002
       0.008
       0.008
       0.002
      -0.005
      -0.007
      -0.006
      -0.005
      -0.006
      -0.005
       0.000
       0.007
       0.009
       0.004
      -0.002
      -0.005
      -0.003
       0.000
       0.000
      -0.005
      -0.010
      -0.012
      -0.006
       0.003
       0.011
       0.014
       0.011
       0.006
       0.002
      -0.003
      -0.010
      -0.018
      -0.024
      -0.021
      -0.010
       0.002
       0.009
       0.006
      -0.002
      -0.009
      -0.011
      -0.007
      -0.002
       0.001
       0.001
      -0.001
      -0.002
      -0.001
       0.000
      -0.001
      -0.005
      -0.010
      -0.015
      -0.016
      -0.016
      -0.011
      -0.004
       0.006
       0.012
       0.011
       0.004
      -0.005
      -0.008
      -0.006
      -0.003
      -0.004
      -0.008
      -0.010
      -0.007
      -0.001
       0.005
       0.007
       0.009
       0.010
       0.011
       0.010
       0.003
      -0.008
      -0.017
      -0.018
      -0.009
       0.004
       0.013
       0.011
       0.001
      -0.009
      -0.010
      -0.004
       0.001
       0.000
      -0.006
      -0.012
      -0.011
      -0.003
       0.005
       0.006
      -0.001
      -0.007
      -0.007
       0.003
       0.014
       0.019
       0.013
       0.002
      -0.006
      -0.008
      -0.005
      -0.004
      -0.006
      -0.008
      -0.005
       0.003
       0.010
       0.010
       0.004
      -0.004
      -0.006
      -0.002
       0.002
       0.004
       0.004
       0.006
       0.009
       0.012
       0.012
       0.007
       0.000
      -0.006
      -0.010
      -0.012
      -0.012
      -0.010
      -0.006
       0.001
       0.005
       0.004
      -0.002
      -0.010
      -0.012
      -0.007
       0.002
       0.008
       0.006
       0.000
      -0.006
      -0.007
      -0.004
      -0.001
      -0.002
      -0.003
      -0.002
       0.002
       0.006
       0.006
       0.001
      -0.002
      -0.001
       0.002
       0.004
       0.001
      -0.004
      -0.008
      -0.005
       0.001
       0.006
       0.006
       0.002
      -0.001
       0.001
       0.008
       0.013
       0.009
      -0.002
      -0.012
      -0.012
      -0.005
       0.003
       0.003
      -0.002
      -0.006
      -0.003
       0.003
       0.006
       0.003
      -0.004
      -0.008
      -0.006
       0.001
       0.006
       0.006
       0.002
      -0.002
      -0.001
       0.005
       0.008
       0.005
      -0.003
      -0.009
      -0.006
       0.005
       0.013
       0.013
       0.003
      -0.008
      -0.012
      -0.010
      -0.008
      -0.008
      -0.010
      -0.009
      -0.003
       0.004
       0.005
       0.000
      -0.006
      -0.010
      -0.008
      -0.003
       0.001
       0.001
      -0.001
      -0.002
       0.000
       0.000
      -0.002
      -0.005
      -0.005
      -0.001
       0.005
       0.007
       0.001
      -0.008
      -0.011
      -0.005
       0.007
       0.013
       0.008
      -0.005
      -0.013
      -0.008
       0.007
       0.012
      -0.004
      -0.029
      -0.032
       0.011
       0.073
       0.098
       0.075
       0.121
       0.427
       1.043
       1.651
       1.633
       0.547
      -1.312
      -2.894
      -3.135
      -1.850
       0.107
       1.584
       1.981
       1.423
       0.397
      -0.599
      -1.193
      -1.228
      -0.846
      -0.382
      -0.102
      -0.029
      -0.017
       0.103
       0.456
       1.058
       1.679
       1.835
       1.121
      -0.369
      -1.991
      -2.926
      -2.624
      -1.103
       0.953
       2.470
       2.678
       1.706
       0.372
      -0.619
      -1.171
      -1.474
      -1.448
      -0.803
       0.343
       1.281
       1.378
       0.742
      -0.011
      -0.508
      -0.800
      -0.908
      -0.642
       0.034
       0.708
       0.860
       0.450
       0.027
       0.168
       0.782
       1.084
       0.387
      -1.051
      -2.124
      -1.914
      -0.579
       0.870
       1.581
       1.427
       0.682
      -0.390
      -1.377
      -1.581
      -0.566
       1.107
       2.089
       1.418
      -0.536
      -2.337
      -2.671
      -1.323
       0.785
       2.330
       2.461
       1.287
      -0.269
      -1.141
      -0.916
      -0.089
       0.458
       0.252
      -0.429
      -0.881
      -0.600
       0.282
       1.071
       1.078
       0.249
      -0.751
      -1.137
      -0.725
       0.017
       0.581
       0.849
       0.850
       0.459
      -0.364
      -1.223
      -1.505
      -0.962
       0.081
       1.021
       1.348
       0.850
      -0.236
      -1.196
      -1.233
      -0.197
       1.107
       1.605
       1.008
      -0.013
      -0.693
      -0.869
      -0.753
      -0.459
      -0.040
       0.311
       0.436
       0.423
       0.416
       0.335
       0.008
      -0.499
      -0.818
      -0.644
      -0.071
       0.489
       0.682
       0.461
       0.041
      -0.285
      -0.335
      -0.143
       0.103
       0.208
       0.101
      -0.121
      -0.259
      -0.172
       0.082
       0.309
       0.340
       0.164
      -0.055
      -0.115
       0.029
       0.199
       0.153
      -0.192
      -0.635
      -0.776
      -0.352
       0.428
       0.954
       0.744
      -0.114
      -1.035
      -1.402
      -0.970
       0.031
       1.057
       1.553
       1.277
       0.439
      -0.467
      -0.998
      -0.946
      -0.353
       0.460
       0.925
       0.593
      -0.359
      -1.126
      -0.966
       0.047
       1.048
       1.192
       0.432
      -0.535
      -0.994
      -0.760
      -0.126
       0.516
       0.868
       0.735
       0.098
      -0.725
      -1.139
      -0.717
       0.316
       1.130
       0.996
       0.047
      -0.792
      -0.742
       0.015
       0.609
       0.480
      -0.111
      -0.525
      -0.476
      -0.202
      -0.027
       0.045
       0.207
       0.451
       0.501
       0.158
      -0.387
      -0.713
      -0.582
      -0.114
       0.407
       0.732
       0.677
       0.204
      -0.445
      -0.852
      -0.779
      -0.316
       0.265
       0.689
       0.742
       0.359
      -0.259
      -0.703
      -0.651
      -0.149
       0.414
       0.614
       0.330
      -0.195
      -0.587
      -0.633
      -0.367
       0.056
       0.458
       0.658
       0.540
       0.189
      -0.142
      -0.271
      -0.220
      -0.108
       0.008
       0.129
       0.203
       0.103
      -0.187
      -0.434
      -0.338
       0.094
       0.500
       0.546
       0.249
      -0.113
      -0.313
      -0.312
      -0.158
       0.078
       0.243
       0.174
      -0.085
      -0.265
      -0.195
      -0.016
       0.040
      -0.010
       0.054
       0.306
       0.501
       0.336
      -0.174
      -0.674
      -0.817
      -0.564
      -0.133
       0.275
       0.599
       0.803
       0.761
       0.363
      -0.294
      -0.883
      -1.074
      -0.778
      -0.178
       0.432
       0.816
       0.816
       0.364
      -0.390
      -1.003
      -0.971
      -0.203
       0.777
       1.227
       0.861
       0.059
      -0.557
      -0.678
      -0.427
      -0.097
       0.087
       0.046
      -0.136
      -0.244
      -0.114
       0.182
       0.414
       0.476
       0.455
       0.398
       0.191
      -0.223
      -0.653
      -0.800
      -0.566
      -0.124
       0.282
       0.532
       0.594
       0.433
       0.077
      -0.277
      -0.396
      -0.274
      -0.119
      -0.085
      -0.111
      -0.067
       0.038
       0.120
       0.215
       0.438
       0.705
       0.680
       0.138
      -0.665
      -1.131
      -0.906
      -0.209
       0.451
       0.737
       0.628
       0.260
      -0.208
      -0.591
      -0.705
      -0.490
      -0.059
       0.391
       0.649
       0.515
      -0.059
      -0.786
      -1.146
      -0.781
       0.195
       1.214
       1.609
       1.078
      -0.049
      -1.031
      -1.287
      -0.774
       0.099
       0.798
       0.924
       0.434
      -0.253
      -0.556
      -0.280
       0.166
       0.229
      -0.159
      -0.543
      -0.581
      -0.474
      -0.573
      -0.708
      -0.264
       0.964
       2.210
       2.330
       1.029
      -0.737
      -1.715
      -1.556
      -0.864
      -0.244
       0.269
       0.802
       1.095
       0.712
      -0.309
      -1.281
      -1.399
      -0.458
       0.921
       1.728
       1.316
      -0.060
      -1.322
      -1.406
      -0.273
       1.007
       1.339
       0.650
      -0.274
      -0.796
      -0.949
      -1.017
      -0.952
      -0.446
       0.496
       1.284
       1.256
       0.424
      -0.446
      -0.563
       0.108
       0.849
       0.909
       0.141
      -0.993
      -1.874
      -2.111
      -1.619
      -0.601
       0.475
       1.056
       0.876
       0.187
      -0.434
      -0.533
      -0.091
       0.552
       1.027
       1.192
       1.163
