Origin Time       11/11/2013 22:10:42 UTC
Lat.              28.4 N	
Long.             77.2 E	
Depth (Km)         11.0
Magnitude         2.8
 Region           DELHI                                                            
 Above details taken from IMD 
    
Station Code      DJB
Station Lat.       28.652  N
Station Long.      77.188  E
Station Height(m)  235.0
Site Class        A   Vs30 between 700 m/sec to 1400 m/sec * 
Record Time       11.11.2013 17:10:44.254 UTC
Sampling Rate     200. Hz
 Record Duration   80.115 Sec.
 Direction         N-S (N positive)
Max. Acceleration     -3.548 cm/sec**2
     
  * For reference see Site Classification link of website 
     
 Base Line Corrected and Low Pass Filtered (Cut Off at 35 Hz) Time History
 Acceleration data in cm/sec**2
    
[...]
       0.013
       0.011
       0.003
      -0.005
      -0.007
      -0.001
       0.007
       0.009
       0.003
      -0.007
      -0.011
      -0.008
      -0.002
       0.000
      -0.004
      -0.011
      -0.011
      -0.003
       0.009
       0.014
       0.010
       0.002
      -0.003
      -0.001
       0.005
       0.007
       0.003
      -0.002
      -0.004
      -0.001
       0.003
       0.004
       0.002
       0.001
       0.000
       0.000
       0.000
       0.000
       0.002
       0.005
       0.009
       0.011
       0.011
       0.007
       0.003
       0.000
       0.002
       0.008
       0.013
       0.013
       0.006
      -0.002
      -0.005
      -0.001
       0.006
       0.010
       0.008
       0.002
      -0.002
      -0.003
      -0.001
       0.002
       0.005
       0.007
       0.010
       0.013
       0.015
       0.017
       0.018
       0.018
       0.013
       0.004
      -0.004
      -0.009
      -0.008
      -0.002
       0.006
       0.013
       0.016
       0.015
       0.011
       0.007
       0.006
       0.006
       0.006
       0.001
      -0.005
      -0.006
       0.001
       0.011
       0.018
       0.020
       0.018
       0.017
       0.017
       0.018
       0.017
       0.014
       0.010
       0.007
       0.008
       0.010
       0.011
       0.010
       0.006
       0.004
       0.003
       0.006
       0.008
       0.007
       0.002
      -0.003
      -0.003
       0.003
       0.008
       0.008
       0.004
       0.000
       0.002
       0.009
       0.015
       0.012
       0.002
      -0.009
      -0.012
      -0.005
       0.005
       0.010
       0.005
      -0.002
      -0.004
       0.002
       0.009
       0.008
      -0.001
      -0.009
      -0.009
       0.000
       0.010
       0.013
       0.007
       0.001
       0.000
       0.005
       0.007
       0.003
      -0.007
      -0.013
      -0.012
      -0.005
       0.003
       0.004
      -0.001
      -0.008
      -0.011
      -0.007
      -0.002
      -0.001
      -0.007
      -0.013
      -0.015
      -0.013
      -0.010
      -0.009
      -0.009
      -0.007
      -0.004
      -0.003
      -0.006
      -0.011
      -0.014
      -0.011
      -0.005
      -0.001
      -0.004
      -0.010
      -0.014
      -0.011
      -0.001
       0.009
       0.012
       0.006
      -0.003
      -0.009
      -0.011
      -0.011
      -0.013
      -0.015
      -0.013
      -0.008
      -0.002
       0.001
      -0.001
      -0.006
      -0.009
      -0.008
      -0.002
       0.003
       0.004
      -0.001
      -0.009
      -0.014
      -0.015
      -0.011
      -0.007
      -0.006
      -0.007
      -0.009
      -0.006
      -0.001
       0.003
       0.003
       0.001
      -0.002
      -0.002
      -0.001
      -0.002
      -0.005
      -0.008
      -0.008
      -0.007
      -0.006
      -0.009
      -0.014
      -0.015
      -0.009
       0.001
       0.011
       0.015
       0.009
      -0.001
      -0.008
      -0.007
       0.000
       0.008
       0.010
       0.007
       0.001
       0.001
       0.006
       0.012
       0.011
       0.003
      -0.005
      -0.005
       0.002
       0.010
       0.012
       0.009
       0.006
       0.006
       0.008
       0.007
       0.001
      -0.006
      -0.007
      -0.002
       0.006
       0.010
       0.007
       0.002
       0.001
       0.006
       0.012
       0.012
       0.007
       0.002
       0.004
       0.014
       0.024
       0.025
       0.018
       0.009
       0.005
       0.007
       0.011
       0.013
       0.011
       0.007
       0.004
       0.001
      -0.003
      -0.008
      -0.012
      -0.011
      -0.004
       0.005
       0.012
       0.011
       0.005
      -0.001
      -0.002
       0.002
       0.006
       0.006
       0.002
      -0.002
      -0.001
       0.003
       0.008
       0.008
       0.003
      -0.002
      -0.004
       0.000
       0.006
       0.009
       0.007
       0.001
      -0.005
      -0.005
      -0.001
       0.004
       0.009
       0.009
       0.008
       0.006
       0.006
       0.007
       0.008
       0.009
       0.009
       0.011
       0.014
       0.016
       0.016
       0.013
       0.010
       0.008
       0.006
       0.004
       0.001
       0.000
       0.002
       0.009
       0.016
       0.019
       0.015
       0.007
       0.000
      -0.002
       0.001
       0.003
       0.003
       0.001
       0.000
       0.002
       0.006
       0.009
       0.008
       0.007
       0.007
       0.010
       0.014
       0.012
       0.007
       0.002
       0.003
       0.009
       0.013
       0.011
       0.003
      -0.003
       0.001
       0.012
       0.020
       0.018
       0.008
       0.001
       0.003
       0.013
       0.021
       0.019
       0.007
      -0.004
      -0.006
       0.003
       0.015
       0.018
       0.009
      -0.003
      -0.008
      -0.002
       0.009
       0.017
       0.015
       0.008
       0.003
       0.005
       0.012
       0.016
       0.014
       0.007
       0.002
       0.002
       0.006
       0.008
       0.005
       0.000
      -0.003
       0.002
       0.011
       0.018
       0.018
       0.011
       0.003
      -0.002
      -0.002
       0.001
       0.003
       0.004
       0.006
       0.009
       0.013
       0.013
       0.009
       0.005
       0.006
       0.011
       0.016
       0.016
       0.010
       0.001
      -0.003
       0.001
       0.011
       0.019
       0.020
       0.016
       0.012
       0.013
       0.018
       0.022
       0.022
       0.018
       0.013
       0.013
       0.017
       0.021
       0.022
       0.020
       0.017
       0.013
       0.009
       0.002
      -0.004
      -0.007
      -0.005
       0.001
       0.008
       0.011
       0.010
       0.006
       0.003
       0.003
       0.005
       0.006
       0.007
       0.009
       0.012
       0.014
       0.013
       0.012
       0.014
       0.017
       0.021
       0.021
       0.019
       0.013
       0.008
       0.003
       0.001
       0.002
       0.003
       0.002
       0.001
       0.001
       0.003
       0.005
       0.009
       0.014
       0.022
       0.027
       0.026
       0.015
       0.000
      -0.010
      -0.012
      -0.011
      -0.009
      -0.002
       0.011
       0.018
       0.009
      -0.006
      -0.013
      -0.002
       0.019
       0.037
       0.039
       0.023
      -0.004
      -0.028
      -0.037
      -0.025
       0.004
       0.035
       0.048
       0.032
      -0.005
      -0.040
      -0.043
      -0.004
       0.052
       0.074
       0.036
      -0.033
      -0.074
      -0.054
       0.006
       0.058
       0.064
       0.032
       0.002
       0.000
       0.010
       0.000
      -0.033
      -0.059
      -0.045
       0.008
       0.064
       0.073
       0.020
      -0.052
      -0.071
      -0.016
       0.062
       0.091
       0.050
      -0.016
      -0.047
      -0.031
      -0.002
       0.008
       0.005
       0.018
       0.049
       0.061
       0.021
      -0.053
      -0.098
      -0.067
       0.023
       0.101
       0.099
       0.019
      -0.080
      -0.124
      -0.093
      -0.017
       0.052
       0.085
       0.073
       0.023
      -0.041
      -0.080
      -0.068
      -0.011
       0.056
       0.095
       0.090
       0.054
       0.021
       0.023
       0.056
       0.073
       0.034
      -0.039
      -0.088
      -0.088
      -0.064
      -0.053
      -0.063
      -0.085
      -0.100
      -0.084
      -0.042
      -0.007
       0.006
       0.020
       0.051
       0.078
       0.071
       0.029
      -0.025
      -0.075
      -0.104
      -0.085
       0.000
       0.115
       0.169
       0.108
      -0.011
      -0.073
      -0.036
       0.033
       0.049
       0.003
      -0.053
      -0.072
      -0.035
       0.051
       0.156
       0.215
       0.166
       0.017
      -0.139
      -0.199
      -0.139
      -0.036
       0.001
      -0.051
      -0.106
      -0.075
       0.019
       0.079
       0.051
      -0.014
      -0.035
       0.002
       0.031
      -0.003
      -0.059
      -0.044
       0.064
       0.179
       0.198
       0.104
      -0.025
      -0.069
       0.030
       0.180
       0.194
      -0.010
      -0.278
      -0.354
      -0.158
       0.117
       0.226
       0.109
      -0.099
      -0.238
      -0.233
      -0.088
       0.106
       0.187
       0.057
      -0.172
      -0.259
      -0.105
       0.138
       0.247
       0.164
       0.017
      -0.037
       0.035
       0.141
       0.186
       0.160
       0.098
       0.010
      -0.104
      -0.204
      -0.227
      -0.159
      -0.058
      -0.002
      -0.015
      -0.057
      -0.074
      -0.030
       0.082
       0.208
       0.237
       0.105
      -0.091
      -0.162
      -0.047
       0.094
       0.073
      -0.093
      -0.213
      -0.142
       0.067
       0.238
       0.222
       0.018
      -0.230
      -0.331
      -0.209
       0.039
       0.219
       0.194
       0.003
      -0.152
      -0.102
       0.100
       0.222
       0.127
      -0.078
      -0.179
      -0.095
       0.067
       0.155
       0.122
       0.024
      -0.073
      -0.153
      -0.216
      -0.240
      -0.194
      -0.070
       0.106
       0.253
       0.264
       0.106
      -0.106
      -0.195
      -0.081
       0.146
       0.320
       0.348
       0.238
       0.040
      -0.185
      -0.330
      -0.277
      -0.043
       0.159
       0.104
      -0.187
      -0.427
      -0.334
       0.078
       0.476
       0.502
       0.103
      -0.407
      -0.600
      -0.296
       0.276
       0.663
       0.562
       0.070
      -0.403
      -0.475
      -0.116
       0.322
       0.419
       0.082
      -0.370
      -0.540
      -0.312
       0.099
       0.379
       0.353
       0.071
      -0.253
      -0.377
      -0.194
       0.186
       0.470
       0.399
       0.000
      -0.375
      -0.363
       0.040
       0.436
       0.416
      -0.031
      -0.512
      -0.620
      -0.291
       0.191
       0.463
       0.367
       0.041
      -0.219
      -0.216
      -0.016
       0.147
       0.121
      -0.024
      -0.123
      -0.102
      -0.005
       0.083
       0.090
      -0.015
      -0.175
      -0.246
      -0.125
       0.129
       0.305
       0.215
      -0.108
      -0.391
      -0.354
       0.010
       0.414
       0.542
       0.316
      -0.081
      -0.374
      -0.383
      -0.131
       0.167
       0.280
       0.157
      -0.047
      -0.157
      -0.140
      -0.082
      -0.062
      -0.080
      -0.095
      -0.071
       0.005
       0.099
       0.131
       0.066
      -0.029
      -0.047
       0.014
       0.037
      -0.068
      -0.231
      -0.257
      -0.024
       0.352
       0.571
       0.407
      -0.049
      -0.443
      -0.472
      -0.169
       0.152
       0.228
       0.100
       0.016
       0.115
       0.243
       0.137
      -0.218
      -0.513
      -0.453
      -0.100
       0.211
       0.238
       0.047
      -0.116
      -0.076
       0.125
       0.285
       0.239
       0.033
      -0.131
      -0.134
      -0.031
       0.064
       0.107
       0.096
       0.033
      -0.070
      -0.188
      -0.294
      -0.331
      -0.228
       0.008
       0.272
       0.443
       0.460
       0.316
       0.069
      -0.170
      -0.320
      -0.363
      -0.291
      -0.111
       0.083
       0.168
       0.128
       0.056
      -0.001
      -0.080
      -0.177
      -0.190
      -0.020
       0.280
       0.483
       0.358
      -0.069
      -0.447
      -0.391
       0.099
       0.562
       0.516
      -0.044
      -0.624
      -0.699
      -0.201
       0.417
       0.599
       0.214
      -0.326
      -0.518
      -0.267
       0.116
       0.311
       0.271
       0.148
       0.061
      -0.015
      -0.178
      -0.438
      -0.636
      -0.572
      -0.216
       0.206
       0.415
       0.380
       0.353
       0.518
       0.652
       0.314
      -0.535
      -1.208
      -0.865
       0.461
       1.609
       1.378
      -0.100
      -1.344
      -1.070
       0.364
       1.312
       0.673
      -0.856
      -1.555
      -0.617
       0.936
       1.371
       0.157
      -1.442
      -1.730
      -0.377
       1.285
       1.715
       0.694
      -0.624
      -1.018
      -0.357
       0.493
       0.692
       0.207
      -0.349
      -0.447
      -0.137
       0.123
       0.039
      -0.158
       0.009
       0.620
       1.086
       0.710
      -0.471
      -1.540
      -1.551
      -0.471
       0.798
       1.244
       0.558
      -0.703
      -1.565
      -1.367
      -0.265
       0.928
       1.385
       0.844
      -0.220
      -0.881
      -0.466
       0.770
       1.727
       1.459
       0.164
      -0.967
      -0.953
      -0.013
       0.729
       0.474
      -0.478
      -1.172
      -1.011
      -0.230
       0.483
       0.655
       0.354
      -0.020
      -0.140
       0.055
       0.424
       0.700
       0.579
      -0.038
      -0.810
      -1.174
      -0.902
      -0.363
      -0.118
      -0.285
      -0.434
      -0.170
       0.359
       0.671
       0.596
       0.506
       0.867
       1.575
       1.792
       0.647
      -1.654
      -3.548
      -3.345
      -0.930
       1.916
       3.055
       1.898
      -0.224
      -1.509
      -1.311
      -0.349
       0.370
       0.522
       0.444
       0.440
       0.356
      -0.127
      -0.869
      -1.196
      -0.613
       0.525
       1.270
       1.044
       0.192
      -0.497
      -0.639
      -0.467
      -0.332
      -0.255
      -0.038
       0.364
       0.738
       0.813
       0.489
      -0.092
      -0.593
      -0.652
      -0.182
       0.454
       0.718
       0.416
      -0.167
      -0.628
      -0.769
      -0.565
      -0.081
       0.453
       0.665
       0.335
      -0.322
      -0.794
      -0.696
      -0.084
       0.599
       0.858
       0.525
      -0.106
      -0.542
      -0.524
      -0.184
       0.202
       0.465
       0.519
       0.303
      -0.087
      -0.355
      -0.285
      -0.018
       0.080
      -0.141
      -0.398
      -0.291
       0.235
       0.775
       0.820
       0.248
      -0.501
      -0.762
      -0.265
       0.557
       0.962
       0.591
      -0.238
      -0.883
      -0.907
      -0.363
       0.286
       0.518
       0.171
      -0.402
      -0.664
      -0.443
      -0.067
       0.088
       0.049
       0.105
       0.322
       0.431
       0.230
      -0.094
      -0.157
       0.153
       0.514
       0.480
      -0.005
      -0.482
      -0.443
       0.065
       0.464
       0.302
      -0.241
      -0.587
      -0.411
       0.057
       0.345
       0.220
      -0.139
      -0.360
      -0.214
       0.200
       0.550
       0.526
       0.086
      -0.478
      -0.704
      -0.335
       0.373
       0.807
       0.559
      -0.166
      -0.769
      -0.818
      -0.346
       0.280
       0.668
       0.626
       0.242
      -0.188
      -0.354
      -0.164
       0.188
       0.401
       0.344
       0.138
      -0.031
      -0.115
      -0.182
      -0.262
      -0.301
      -0.269
      -0.201
      -0.136
      -0.053
       0.083
       0.250
       0.327
       0.178
      -0.132
      -0.275
       0.026
       0.586
       0.845
       0.464
      -0.286
      -0.799
      -0.724
      -0.243
       0.184
       0.279
       0.148
       0.050
       0.055
       0.017
      -0.133
      -0.206
       0.021
       0.435
       0.592
       0.171
      -0.591
      -1.036
      -0.736
       0.038
       0.588
       0.525
       0.135
      -0.029
       0.211
       0.500
       0.403
      -0.085
      -0.527
      -0.514
      -0.098
       0.285
       0.298
       0.021
      -0.218
      -0.241
      -0.161
      -0.165
      -0.259
      -0.256
       0.017
       0.480
       0.777
       0.582
      -0.011
      -0.488
      -0.417
       0.085
       0.474
       0.330
      -0.231
      -0.679
      -0.591
      -0.070
       0.375
       0.342
      -0.086
      -0.448
      -0.354
       0.149
       0.598
       0.560
       0.071
      -0.373
      -0.336
       0.086
       0.369
       0.179
      -0.232
      -0.354
      -0.037
       0.380
       0.522
       0.336
      -0.017
      -0.363
      -0.545
      -0.430
      -0.055
       0.331
       0.464
       0.299
      -0.006
      -0.267
      -0.397
      -0.404
      -0.331
      -0.203
      -0.015
       0.204
       0.334
       0.253
       0.019
      -0.127
      -0.018
       0.240
       0.382
       0.284
       0.061
      -0.093
      -0.097
      -0.010
       0.046
      -0.019
      -0.185
      -0.323
      -0.274
      -0.006
       0.319
       0.432
       0.184
      -0.269
      -0.532
      -0.339
       0.159
       0.518
       0.422
      -0.037
      -0.461
      -0.486
      -0.079
       0.407
       0.520
       0.143
      -0.357
      -0.468
      -0.064
       0.430
       0.472
       0.010
      -0.409
      -0.259
       0.314
       0.628
       0.282
      -0.350
      -0.581
      -0.214
       0.294
       0.390
       0.005
      -0.440
      -0.498
      -0.113
       0.371
       0.551
       0.312
      -0.120
      -0.403
      -0.361
      -0.093
       0.150
       0.193
       0.075
      -0.022
       0.025
       0.152
       0.199
       0.116
       0.008
      -0.031
      -0.052
      -0.174
      -0.386
      -0.481
      -0.231
       0.347
       0.878
       0.898
       0.304
      -0.475
      -0.812
      -0.470
       0.159
       0.442
       0.172
      -0.237
      -0.260
       0.116
       0.407
       0.225
      -0.273
      -0.592
      -0.447
      -0.010
       0.336
       0.396
       0.269
       0.145
       0.084
       0.028
      -0.064
      -0.151
      -0.157
      -0.056
       0.086
       0.130
      -0.003
      -0.213
      -0.272
      -0.061
       0.269
       0.419
       0.240
      -0.119
      -0.352
      -0.269
       0.045
       0.311
       0.316
       0.100
      -0.096
      -0.102
       0.002
      -0.003
      -0.181
      -0.315
      -0.143
       0.288
       0.591
       0.415
      -0.165
      -0.687
      -0.736
      -0.283
       0.342
       0.726
       0.633
       0.139
      -0.404
      -0.602
      -0.321
       0.195
       0.538
       0.484
       0.148
      -0.185
      -0.330
      -0.297
      -0.184
      -0.068
       0.014
       0.059
       0.105
       0.195
       0.278
       0.229
       0.002
      -0.261
      -0.349
      -0.206
       0.022
       0.170
       0.217
       0.229
       0.214
       0.127
      -0.013
      -0.122
      -0.147
      -0.131
      -0.129
      -0.105
       0.018
       0.204
       0.264
       0.041
      -0.345
      -0.544
      -0.319
       0.200
       0.621
       0.620
       0.192
      -0.356
      -0.617
      -0.410
       0.050
       0.347
       0.282
       0.046
      -0.046
