Origin Time       18/2/2011 14:44:14	
Lat.              28.6 N	
Long.             77.3 E	
Depth (Km)          5.0
Magnitude         2.3
 Region           Delhi                                                            
 Above details taken from IMD 
   
Station Code      DJB
Station Lat.       28.652
Station Long.      77.188
Station Height(m)  235.0
Site Class        A   Vs30 between 700 m/sec to 1400 m/sec * 
Record Time       18.02.2011 13:16:34.959
Sampling Rate     200. Hz
 Record Duration   80.000 Sec.
 Direction         Vert. (Up positive)
Max. Acceleration      0.686 cm/sec**2
     
  * For reference see Site Classification link of website 
     
 Base Line Corrected and Low Pass Filtered (Cut Off at 35 Hz) Time History
 Acceleration data in cm/sec**2
    
[...]
       0.000
      -0.008
      -0.010
      -0.006
      -0.002
       0.000
       0.000
      -0.002
      -0.005
      -0.008
      -0.010
      -0.007
       0.000
       0.007
       0.008
       0.003
      -0.003
      -0.005
      -0.003
       0.003
       0.008
       0.008
       0.004
      -0.002
      -0.006
      -0.006
      -0.003
       0.000
       0.000
      -0.001
       0.000
       0.004
       0.009
       0.012
       0.012
       0.010
       0.008
       0.005
       0.002
      -0.002
      -0.006
      -0.009
      -0.009
      -0.007
      -0.004
      -0.002
       0.000
       0.002
       0.003
       0.003
       0.001
      -0.002
      -0.004
      -0.004
      -0.001
       0.002
       0.001
      -0.002
      -0.005
      -0.002
       0.004
       0.009
       0.010
       0.008
       0.007
       0.006
       0.002
      -0.008
      -0.018
      -0.022
      -0.017
      -0.007
      -0.001
      -0.006
      -0.016
      -0.022
      -0.019
      -0.010
      -0.002
       0.001
      -0.001
      -0.004
      -0.007
      -0.008
      -0.005
       0.000
       0.004
       0.006
       0.004
      -0.002
      -0.007
      -0.009
      -0.008
      -0.007
      -0.007
      -0.007
      -0.006
      -0.004
      -0.001
       0.002
       0.004
       0.003
      -0.001
      -0.004
      -0.005
      -0.001
       0.002
       0.004
       0.003
       0.001
       0.000
       0.001
       0.003
       0.005
       0.005
       0.002
      -0.002
      -0.007
      -0.009
      -0.010
      -0.009
      -0.006
      -0.002
       0.002
       0.004
       0.000
      -0.006
      -0.010
      -0.007
       0.001
       0.009
       0.010
       0.006
      -0.002
      -0.007
      -0.007
      -0.003
       0.002
       0.004
       0.003
      -0.001
      -0.004
      -0.004
      -0.002
       0.001
       0.004
       0.004
       0.003
       0.000
      -0.003
      -0.003
       0.001
       0.008
       0.016
       0.018
       0.012
       0.002
      -0.007
      -0.011
      -0.010
      -0.004
       0.001
       0.004
       0.003
       0.002
       0.000
      -0.002
      -0.001
       0.000
       0.002
       0.004
       0.003
       0.001
      -0.001
      -0.004
      -0.005
      -0.004
      -0.002
      -0.001
      -0.004
      -0.007
      -0.007
      -0.004
       0.001
       0.002
       0.000
      -0.002
      -0.001
       0.002
       0.004
       0.005
       0.004
       0.005
       0.007
       0.008
       0.007
       0.003
      -0.001
      -0.001
      -0.001
      -0.002
      -0.005
      -0.006
      -0.005
      -0.002
      -0.001
      -0.002
      -0.004
      -0.004
      -0.001
       0.003
       0.006
       0.008
       0.008
       0.005
       0.000
      -0.005
      -0.006
      -0.001
       0.007
       0.014
       0.015
       0.012
       0.007
       0.003
       0.000
      -0.002
      -0.004
      -0.003
       0.001
       0.005
       0.005
       0.001
      -0.004
      -0.007
      -0.006
      -0.003
      -0.001
      -0.001
      -0.004
      -0.006
      -0.007
      -0.004
      -0.001
       0.004
       0.006
       0.006
       0.004
       0.002
       0.001
       0.003
       0.007
       0.009
       0.006
      -0.001
      -0.007
      -0.006
       0.002
       0.011
       0.017
       0.017
       0.012
       0.007
       0.005
       0.007
       0.008
       0.007
       0.005
       0.003
       0.002
       0.001
      -0.001
      -0.005
      -0.007
      -0.007
      -0.002
       0.003
       0.007
       0.008
       0.007
       0.007
       0.006
       0.006
       0.004
       0.001
      -0.004
      -0.007
      -0.006
      -0.004
      -0.001
       0.003
       0.006
       0.009
       0.010
       0.008
       0.004
       0.000
       0.000
       0.004
       0.011
       0.017
       0.019
       0.014
       0.005
      -0.004
      -0.009
      -0.011
      -0.008
      -0.003
       0.003
       0.007
       0.007
       0.005
       0.000
      -0.005
      -0.007
      -0.006
       0.000
       0.004
       0.004
       0.000
      -0.005
      -0.009
      -0.008
      -0.005
      -0.001
       0.002
       0.003
       0.003
       0.002
       0.001
       0.001
       0.000
      -0.001
      -0.002
      -0.002
       0.000
       0.003
       0.002
      -0.002
      -0.007
      -0.009
      -0.005
       0.000
       0.003
       0.001
      -0.005
      -0.010
      -0.012
      -0.009
      -0.006
      -0.005
      -0.004
      -0.002
       0.001
       0.004
       0.004
       0.003
       0.001
       0.002
       0.003
       0.002
      -0.004
      -0.012
      -0.018
      -0.019
      -0.014
      -0.007
      -0.003
      -0.002
      -0.006
      -0.011
      -0.014
      -0.013
      -0.009
      -0.007
      -0.008
      -0.012
      -0.015
      -0.016
      -0.014
      -0.011
      -0.009
      -0.009
      -0.008
      -0.007
      -0.005
      -0.004
      -0.005
      -0.008
      -0.010
      -0.009
      -0.006
      -0.005
      -0.008
      -0.014
      -0.017
      -0.017
      -0.013
      -0.008
      -0.006
      -0.008
      -0.012
      -0.014
      -0.014
      -0.011
      -0.008
      -0.006
      -0.004
      -0.003
      -0.003
      -0.003
      -0.004
      -0.005
      -0.004
       0.001
       0.007
       0.009
       0.005
      -0.003
      -0.009
      -0.012
      -0.009
      -0.005
      -0.002
      -0.002
      -0.004
      -0.004
      -0.002
       0.002
       0.006
       0.008
       0.008
       0.007
       0.005
       0.004
       0.003
       0.002
       0.002
       0.004
       0.008
       0.013
       0.013
       0.011
       0.007
       0.005
       0.008
       0.011
       0.013
       0.009
       0.003
      -0.001
      -0.002
       0.002
       0.006
       0.009
       0.008
       0.008
       0.009
       0.010
       0.009
       0.005
       0.001
       0.000
       0.002
       0.005
       0.004
      -0.001
      -0.008
      -0.011
      -0.010
      -0.004
       0.004
       0.010
       0.011
       0.006
      -0.004
      -0.013
      -0.015
      -0.008
       0.004
       0.014
       0.016
       0.011
       0.002
      -0.005
      -0.009
      -0.010
      -0.006
       0.000
       0.007
       0.009
       0.005
      -0.002
      -0.010
      -0.012
      -0.009
      -0.005
      -0.004
      -0.005
      -0.005
      -0.003
       0.002
       0.007
       0.007
       0.002
      -0.005
      -0.008
      -0.007
      -0.003
      -0.003
      -0.006
      -0.008
      -0.006
      -0.001
       0.003
       0.001
      -0.007
      -0.013
      -0.014
      -0.008
      -0.001
       0.005
       0.006
       0.005
       0.002
       0.000
      -0.001
       0.000
       0.002
       0.004
       0.005
       0.002
      -0.001
      -0.002
       0.001
       0.004
       0.006
       0.006
       0.003
       0.000
      -0.002
      -0.003
      -0.003
      -0.002
       0.000
       0.005
       0.010
       0.013
       0.012
       0.006
       0.000
      -0.003
      -0.002
       0.003
       0.006
       0.006
       0.004
       0.002
       0.002
       0.002
       0.001
      -0.003
      -0.006
      -0.005
       0.000
       0.007
       0.010
       0.005
      -0.004
      -0.009
      -0.006
       0.003
       0.010
       0.011
       0.005
      -0.002
      -0.005
      -0.003
       0.004
       0.011
       0.013
       0.011
       0.004
      -0.002
      -0.003
       0.002
       0.009
       0.013
       0.010
       0.002
      -0.006
      -0.009
      -0.007
      -0.002
       0.002
       0.001
      -0.003
      -0.007
      -0.007
      -0.002
       0.003
       0.006
       0.004
       0.001
       0.001
       0.004
       0.010
       0.012
       0.009
       0.004
      -0.001
      -0.001
       0.001
       0.002
      -0.001
      -0.004
      -0.004
      -0.001
       0.002
       0.003
       0.000
      -0.003
      -0.003
       0.001
       0.006
       0.008
       0.006
       0.003
       0.003
       0.006
       0.008
       0.007
       0.001
      -0.005
      -0.009
      -0.008
      -0.002
       0.004
       0.007
       0.006
       0.002
      -0.003
      -0.007
      -0.010
      -0.010
      -0.008
      -0.006
      -0.004
      -0.003
      -0.002
       0.001
       0.006
       0.012
       0.015
       0.013
       0.008
       0.002
      -0.002
      -0.002
       0.002
       0.006
       0.005
       0.000
      -0.008
      -0.011
      -0.007
       0.002
       0.009
       0.010
       0.005
      -0.001
      -0.005
      -0.005
      -0.003
      -0.002
      -0.005
      -0.007
      -0.008
      -0.005
      -0.001
       0.000
      -0.002
      -0.006
      -0.009
      -0.010
      -0.009
      -0.008
      -0.008
      -0.008
      -0.005
       0.001
       0.007
       0.010
       0.011
       0.008
       0.005
       0.005
       0.007
       0.011
       0.015
       0.018
       0.019
       0.016
       0.009
       0.000
      -0.008
      -0.011
      -0.007
       0.000
       0.006
       0.008
       0.007
       0.004
       0.003
       0.002
       0.001
      -0.001
      -0.003
      -0.003
      -0.001
       0.001
       0.001
      -0.002
      -0.003
      -0.001
       0.004
       0.008
       0.008
       0.005
       0.002
       0.003
       0.007
       0.012
       0.016
       0.018
       0.016
       0.012
       0.007
       0.005
       0.004
       0.004
       0.005
       0.006
       0.008
       0.013
       0.017
       0.016
       0.011
       0.003
      -0.003
      -0.006
      -0.004
      -0.001
       0.003
       0.005
       0.005
       0.003
       0.002
       0.002
       0.004
       0.007
       0.008
       0.008
       0.005
       0.002
       0.000
       0.002
       0.007
       0.011
       0.011
       0.008
       0.002
      -0.001
      -0.001
       0.003
       0.009
       0.010
       0.006
      -0.004
      -0.012
      -0.014
      -0.007
       0.002
       0.009
       0.010
       0.007
       0.003
       0.000
      -0.001
      -0.002
      -0.004
      -0.003
       0.002
       0.007
       0.010
       0.006
      -0.002
      -0.008
      -0.007
       0.000
       0.007
       0.009
       0.005
      -0.003
      -0.008
      -0.008
      -0.003
       0.001
       0.003
       0.004
       0.004
       0.006
       0.008
       0.008
       0.006
       0.005
       0.004
       0.006
       0.006
       0.005
       0.002
      -0.001
      -0.002
       0.001
       0.005
       0.009
       0.009
       0.005
       0.001
      -0.001
       0.001
       0.006
       0.010
       0.012
       0.011
       0.008
       0.006
       0.003
       0.001
       0.000
       0.001
       0.002
       0.000
      -0.004
      -0.009
      -0.009
      -0.003
       0.006
       0.013
       0.013
       0.007
       0.001
      -0.002
      -0.002
      -0.001
      -0.001
      -0.003
      -0.003
      -0.001
       0.002
       0.005
       0.008
       0.009
       0.007
       0.005
       0.005
       0.007
       0.005
      -0.001
      -0.009
      -0.012
      -0.010
      -0.005
       0.000
       0.001
      -0.001
      -0.004
      -0.005
      -0.003
       0.002
       0.005
       0.005
       0.004
       0.003
       0.001
       0.000
       0.000
      -0.001
      -0.002
      -0.004
      -0.007
      -0.008
      -0.005
       0.002
       0.009
       0.011
       0.008
       0.005
       0.003
       0.004
       0.009
       0.013
       0.013
       0.010
       0.003
      -0.005
      -0.010
      -0.011
      -0.007
      -0.002
       0.003
       0.006
       0.006
       0.004
       0.002
      -0.001
      -0.001
      -0.001
       0.000
      -0.002
      -0.005
      -0.007
      -0.007
      -0.006
      -0.003
       0.000
       0.001
       0.000
      -0.003
      -0.003
       0.001
       0.008
       0.013
       0.012
       0.007
       0.001
      -0.002
      -0.001
       0.002
       0.006
       0.007
       0.007
       0.007
       0.007
       0.009
       0.011
       0.012
       0.011
       0.008
       0.004
       0.002
       0.002
       0.005
       0.007
       0.008
       0.007
       0.004
       0.002
       0.002
       0.003
       0.003
       0.002
       0.000
      -0.002
      -0.004
      -0.003
       0.000
       0.006
       0.008
       0.004
      -0.006
      -0.015
      -0.017
      -0.011
       0.000
       0.007
       0.007
       0.002
      -0.003
      -0.006
      -0.006
      -0.007
      -0.011
      -0.015
      -0.016
      -0.013
      -0.008
      -0.006
      -0.008
      -0.011
      -0.013
      -0.011
      -0.006
      -0.003
      -0.002
      -0.003
      -0.003
      -0.001
       0.002
       0.003
       0.000
      -0.002
      -0.002
       0.002
       0.005
       0.005
       0.002
      -0.001
      -0.003
      -0.002
      -0.001
      -0.001
       0.000
       0.003
       0.006
       0.005
       0.000
      -0.006
      -0.006
       0.005
       0.020
       0.021
       0.003
      -0.018
      -0.013
       0.024
       0.041
      -0.036
      -0.217
      -0.384
      -0.352
      -0.043
       0.398
       0.686
       0.627
       0.276
      -0.117
      -0.320
      -0.297
      -0.172
      -0.062
       0.009
       0.058
       0.066
      -0.006
      -0.143
      -0.226
      -0.135
       0.093
       0.298
       0.360
       0.260
       0.030
      -0.253
      -0.448
      -0.426
      -0.187
       0.116
       0.286
       0.246
       0.105
       0.032
       0.051
       0.036
      -0.069
      -0.146
      -0.078
       0.081
       0.160
       0.051
      -0.157
      -0.250
      -0.129
       0.071
       0.157
       0.090
      -0.009
      -0.014
       0.059
       0.084
      -0.022
      -0.185
      -0.223
      -0.052
       0.169
       0.200
       0.006
      -0.197
      -0.205
      -0.037
       0.134
       0.183
       0.104
      -0.027
      -0.101
      -0.044
       0.075
       0.075
      -0.095
      -0.236
      -0.099
       0.272
       0.488
       0.243
      -0.242
      -0.441
      -0.211
       0.068
       0.063
      -0.095
      -0.078
       0.162
       0.311
       0.104
      -0.303
      -0.474
      -0.219
       0.198
       0.406
       0.319
       0.125
      -0.010
      -0.107
      -0.226
      -0.279
      -0.117
       0.213
       0.413
       0.239
      -0.179
      -0.417
      -0.217
       0.195
       0.339
       0.035
      -0.366
      -0.398
      -0.018
       0.366
       0.394
       0.132
      -0.099
      -0.154
      -0.156
      -0.200
      -0.200
      -0.077
       0.096
       0.200
       0.197
       0.109
      -0.025
      -0.158
      -0.213
      -0.119
       0.091
       0.240
       0.175
      -0.051
      -0.227
      -0.193
       0.013
       0.201
       0.216
       0.056
      -0.160
      -0.280
      -0.206
       0.028
       0.244
       0.275
       0.128
      -0.050
      -0.144
      -0.142
      -0.085
      -0.012
       0.051
       0.082
       0.045
      -0.062
      -0.150
      -0.108
       0.064
       0.230
       0.234
       0.053
      -0.169
      -0.258
      -0.179
      -0.033
       0.082
       0.159
       0.214
       0.205
       0.067
      -0.157
      -0.303
      -0.243
      -0.035
       0.119
       0.080
      -0.072
      -0.154
      -0.092
       0.042
       0.160
       0.229
       0.222
       0.106
      -0.083
      -0.230
      -0.252
      -0.167
      -0.057
       0.001
      -0.007
      -0.012
       0.047
       0.131
       0.146
       0.069
      -0.031
      -0.070
      -0.044
      -0.020
      -0.047
      -0.086
      -0.062
       0.017
       0.063
       0.028
      -0.030
      -0.047
      -0.042
      -0.052
      -0.033
       0.072
       0.210
       0.229
       0.059
      -0.173
      -0.248
      -0.119
       0.021
       0.007
      -0.059
       0.017
       0.190
       0.209
      -0.018
      -0.263
      -0.241
       0.062
       0.364
       0.373
       0.058
      -0.334
      -0.482
      -0.255
       0.152
       0.376
       0.245
      -0.049
      -0.198
      -0.122
       0.034
       0.132
       0.155
       0.107
      -0.041
      -0.242
      -0.325
      -0.161
       0.123
       0.238
       0.082
      -0.118
      -0.104
       0.072
       0.131
      -0.053
      -0.261
      -0.196
       0.105
       0.296
       0.194
       0.023
       0.053
       0.186
       0.101
      -0.249
      -0.512
      -0.344
       0.175
       0.600
       0.567
       0.117
      -0.384
      -0.587
      -0.405
      -0.017
       0.284
       0.300
       0.105
      -0.010
       0.102
       0.232
       0.104
      -0.198
      -0.321
      -0.125
       0.120
       0.085
      -0.179
      -0.288
      -0.024
       0.355
       0.430
       0.147
      -0.155
      -0.191
      -0.029
       0.066
      -0.041
      -0.242
      -0.314
      -0.132
       0.188
       0.366
       0.238
      -0.048
      -0.199
      -0.114
       0.014
      -0.054
      -0.280
      -0.372
      -0.134
       0.281
       0.525
       0.403
       0.039
      -0.272
      -0.332
      -0.178
      -0.002
       0.061
       0.034
      -0.003
      -0.030
      -0.028
       0.051
       0.210
       0.348
       0.330
       0.124
      -0.139
      -0.261
      -0.163
       0.066
       0.243
       0.180
      -0.184
      -0.605
      -0.661
      -0.218
       0.329
       0.484
       0.226
      -0.049
      -0.043
       0.162
       0.297
       0.199
      -0.073
      -0.315
      -0.342
      -0.146
       0.088
       0.164
       0.065
      -0.049
      -0.024
       0.111
       0.181
       0.091
      -0.051
      -0.097
      -0.072
      -0.110
      -0.202
      -0.181
       0.020
       0.226
       0.216
      -0.006
      -0.218
      -0.224
      -0.033
       0.189
       0.278
       0.171
      -0.053
      -0.217
      -0.179
       0.016
       0.141
       0.016
      -0.272
      -0.422
      -0.236
       0.182
       0.520
       0.532
       0.231
      -0.134
      -0.311
      -0.259
      -0.100
       0.071
       0.211
       0.226
       0.015
      -0.330
      -0.513
      -0.302
       0.162
       0.434
       0.244
      -0.150
      -0.262
       0.027
       0.339
       0.296
      -0.019
      -0.208
      -0.109
       0.019
      -0.090
      -0.306
      -0.298
       0.005
       0.331
       0.408
       0.233
      -0.015
      -0.194
      -0.272
      -0.248
      -0.093
       0.179
       0.413
       0.394
       0.086
      -0.283
      -0.412
      -0.198
       0.177
       0.407
       0.333
       0.047
      -0.231
      -0.354
      -0.315
      -0.180
      -0.037
       0.050
       0.063
       0.024
      -0.029
      -0.041
       0.048
       0.207
       0.290
       0.177
      -0.084
