Origin Time       18/2/2011 14:44:14	 UTC
Lat.              28.6 N	
Long.             77.3 E	
Depth (Km)          5.0
Magnitude         2.3
 Region           Delhi                                                            
 Above details taken from IMD 
    
Station Code      DJB
Station Lat.       28.652  N
Station Long.      77.188  E
Station Height(m)  235.0
Site Class        A   Vs30 between 700 m/sec to 1400 m/sec * 
Record Time       18.02.2011 13:16:34.959 UTC
Sampling Rate     200. Hz
 Record Duration   80.000 Sec.
 Direction         N-S (N positive)
Max. Acceleration      2.537 cm/sec**2
     
  * For reference see Site Classification link of website 
     
 Base Line Corrected and Low Pass Filtered (Cut Off at 35 Hz) Time History
 Acceleration data in cm/sec**2
    
[...]
      -0.009
      -0.008
      -0.006
      -0.006
      -0.008
      -0.012
      -0.012
      -0.008
      -0.003
      -0.001
      -0.003
      -0.007
      -0.008
      -0.005
       0.002
       0.005
       0.004
       0.000
      -0.004
      -0.006
      -0.007
      -0.008
      -0.009
      -0.008
      -0.003
       0.004
       0.010
       0.011
       0.009
       0.003
      -0.002
      -0.002
       0.001
       0.006
       0.008
       0.006
       0.005
       0.008
       0.013
       0.016
       0.016
       0.014
       0.013
       0.011
       0.009
       0.006
       0.004
       0.003
       0.007
       0.013
       0.017
       0.017
       0.012
       0.004
      -0.002
      -0.005
      -0.005
      -0.002
       0.001
       0.003
       0.003
       0.001
      -0.001
      -0.002
      -0.001
       0.001
       0.003
       0.001
      -0.005
      -0.013
      -0.017
      -0.015
      -0.007
       0.001
       0.005
       0.003
       0.001
       0.001
       0.004
       0.005
       0.002
      -0.004
      -0.007
      -0.005
       0.000
       0.003
       0.001
      -0.003
      -0.008
      -0.009
      -0.007
      -0.004
      -0.003
      -0.003
      -0.005
      -0.006
      -0.004
       0.001
       0.006
       0.009
       0.009
       0.006
       0.004
       0.003
       0.003
       0.004
       0.005
       0.006
       0.005
       0.002
      -0.002
      -0.004
      -0.002
       0.003
       0.008
       0.010
       0.008
       0.005
       0.002
       0.002
       0.005
       0.009
       0.013
       0.014
       0.011
       0.006
       0.002
       0.002
       0.004
       0.009
       0.011
       0.009
       0.003
      -0.004
      -0.007
      -0.004
       0.002
       0.009
       0.013
       0.012
       0.008
       0.003
      -0.001
      -0.003
      -0.004
      -0.002
       0.000
       0.000
      -0.001
      -0.002
      -0.002
      -0.002
      -0.001
       0.000
       0.000
      -0.001
      -0.001
      -0.001
      -0.001
      -0.003
      -0.007
      -0.006
      -0.001
       0.007
       0.011
       0.009
       0.003
      -0.004
      -0.008
      -0.010
      -0.011
      -0.008
      -0.003
       0.002
       0.000
      -0.010
      -0.022
      -0.028
      -0.022
      -0.010
      -0.001
       0.000
      -0.004
      -0.008
      -0.007
      -0.004
      -0.001
       0.002
       0.004
       0.006
       0.005
       0.000
      -0.008
      -0.014
      -0.015
      -0.011
      -0.006
      -0.003
      -0.002
      -0.001
      -0.001
      -0.003
      -0.006
      -0.006
      -0.003
       0.002
       0.004
      -0.001
      -0.005
      -0.004
       0.004
       0.011
       0.011
       0.003
      -0.008
      -0.014
      -0.015
      -0.012
      -0.010
      -0.009
      -0.008
      -0.003
       0.005
       0.011
       0.009
       0.001
      -0.010
      -0.017
      -0.016
      -0.010
      -0.004
      -0.001
      -0.002
      -0.003
      -0.002
      -0.003
      -0.007
      -0.013
      -0.015
      -0.011
      -0.001
       0.009
       0.013
       0.009
       0.001
      -0.003
      -0.003
       0.002
       0.006
       0.005
      -0.002
      -0.012
      -0.019
      -0.020
      -0.013
      -0.004
       0.003
       0.003
      -0.003
      -0.009
      -0.011
      -0.006
       0.003
       0.011
       0.013
       0.009
       0.002
      -0.004
      -0.008
      -0.008
      -0.007
      -0.007
      -0.007
      -0.008
      -0.007
      -0.004
      -0.001
       0.002
       0.004
       0.005
       0.006
       0.006
       0.004
       0.000
      -0.006
      -0.011
      -0.013
      -0.010
      -0.004
       0.005
       0.011
       0.011
       0.006
      -0.001
      -0.006
      -0.010
      -0.013
      -0.017
      -0.018
      -0.017
      -0.012
      -0.004
       0.002
       0.003
      -0.001
      -0.007
      -0.011
      -0.009
      -0.005
      -0.002
       0.000
       0.000
       0.000
      -0.002
      -0.004
      -0.007
      -0.009
      -0.008
      -0.004
       0.001
       0.005
       0.005
       0.002
      -0.002
      -0.005
      -0.006
      -0.005
      -0.002
       0.000
       0.001
       0.002
       0.002
       0.001
      -0.002
      -0.004
      -0.003
       0.000
       0.003
       0.003
       0.002
      -0.001
      -0.003
      -0.003
       0.000
       0.003
       0.006
       0.008
       0.007
       0.005
       0.003
       0.002
       0.002
       0.003
       0.006
       0.009
       0.012
       0.010
       0.005
       0.000
      -0.001
       0.000
       0.002
       0.001
      -0.003
      -0.006
      -0.005
       0.000
       0.006
       0.010
       0.009
       0.005
       0.000
      -0.001
       0.002
       0.007
       0.009
       0.006
      -0.001
      -0.005
      -0.002
       0.007
       0.016
       0.018
       0.011
      -0.001
      -0.010
      -0.011
      -0.006
       0.001
       0.004
       0.005
       0.006
       0.009
       0.012
       0.012
       0.006
      -0.003
      -0.010
      -0.012
      -0.007
      -0.001
       0.003
       0.001
      -0.007
      -0.014
      -0.016
      -0.011
      -0.004
       0.000
      -0.001
      -0.004
      -0.005
      -0.005
      -0.004
      -0.004
      -0.005
      -0.006
      -0.007
      -0.011
      -0.015
      -0.019
      -0.018
      -0.013
      -0.006
      -0.001
       0.000
      -0.003
      -0.005
      -0.005
      -0.003
      -0.002
      -0.003
      -0.004
      -0.004
      -0.003
      -0.002
      -0.001
       0.001
       0.005
       0.008
       0.008
       0.003
      -0.002
      -0.004
      -0.002
       0.003
       0.005
       0.002
      -0.006
      -0.013
      -0.015
      -0.011
      -0.004
       0.003
       0.006
       0.007
       0.005
       0.004
       0.004
       0.005
       0.005
       0.005
       0.001
      -0.006
      -0.013
      -0.016
      -0.012
      -0.004
       0.003
       0.005
       0.003
      -0.002
      -0.007
      -0.008
      -0.005
       0.000
       0.004
       0.006
       0.004
      -0.001
      -0.006
      -0.009
      -0.008
      -0.005
      -0.003
      -0.003
      -0.005
      -0.009
      -0.014
      -0.016
      -0.012
      -0.002
       0.007
       0.008
      -0.001
      -0.014
      -0.022
      -0.020
      -0.010
       0.000
       0.003
      -0.001
      -0.005
      -0.008
      -0.009
      -0.008
      -0.007
      -0.006
      -0.004
      -0.003
      -0.001
       0.000
       0.000
      -0.002
      -0.007
      -0.011
      -0.014
      -0.014
      -0.011
      -0.006
      -0.003
      -0.005
      -0.011
      -0.018
      -0.021
      -0.018
      -0.012
      -0.008
      -0.008
      -0.011
      -0.011
      -0.006
       0.001
       0.006
       0.006
       0.002
      -0.002
      -0.002
       0.001
       0.005
       0.005
       0.002
      -0.003
      -0.006
      -0.009
      -0.009
      -0.006
      -0.003
      -0.001
      -0.001
      -0.003
      -0.006
      -0.006
      -0.005
      -0.004
      -0.004
      -0.006
      -0.008
      -0.008
      -0.008
      -0.007
      -0.005
       0.000
       0.005
       0.006
       0.004
      -0.001
      -0.005
      -0.004
       0.000
       0.004
       0.003
      -0.003
      -0.009
      -0.011
      -0.006
       0.001
       0.005
       0.002
      -0.003
      -0.007
      -0.006
      -0.004
      -0.002
      -0.004
      -0.006
      -0.008
      -0.006
      -0.001
       0.007
       0.014
       0.016
       0.011
       0.000
      -0.010
      -0.015
      -0.014
      -0.008
      -0.002
       0.000
      -0.003
      -0.006
      -0.006
      -0.003
       0.000
       0.000
      -0.002
      -0.006
      -0.011
      -0.013
      -0.012
      -0.010
      -0.009
      -0.010
      -0.010
      -0.007
      -0.004
      -0.005
      -0.011
      -0.018
      -0.023
      -0.021
      -0.013
      -0.005
      -0.001
      -0.003
      -0.008
      -0.011
      -0.009
      -0.004
       0.002
       0.005
       0.004
       0.001
       0.000
       0.001
       0.004
       0.009
       0.013
       0.016
       0.015
       0.009
       0.002
      -0.005
      -0.009
      -0.008
      -0.006
      -0.003
      -0.001
       0.001
       0.001
      -0.002
      -0.007
      -0.011
      -0.011
      -0.007
      -0.001
       0.005
       0.007
       0.004
       0.000
      -0.003
      -0.003
       0.000
       0.004
       0.007
       0.007
       0.004
       0.000
      -0.004
      -0.007
      -0.007
      -0.006
      -0.004
      -0.001
       0.002
       0.004
       0.003
       0.002
       0.001
      -0.001
      -0.005
      -0.009
      -0.011
      -0.010
      -0.005
       0.001
       0.002
      -0.001
      -0.008
      -0.013
      -0.012
      -0.007
      -0.002
      -0.001
      -0.003
      -0.006
      -0.006
      -0.005
      -0.003
      -0.004
      -0.007
      -0.010
      -0.010
      -0.007
      -0.003
      -0.001
      -0.002
      -0.007
      -0.010
      -0.006
       0.001
       0.008
       0.008
       0.001
      -0.007
      -0.011
      -0.009
      -0.002
       0.001
       0.000
      -0.003
      -0.002
       0.005
       0.012
       0.013
       0.006
      -0.002
      -0.005
       0.000
       0.010
       0.018
       0.019
       0.013
       0.004
      -0.002
      -0.004
      -0.001
       0.002
       0.004
       0.001
      -0.003
      -0.007
      -0.009
      -0.010
      -0.011
      -0.010
      -0.008
      -0.006
      -0.006
      -0.009
      -0.012
      -0.011
      -0.005
       0.004
       0.008
       0.003
      -0.009
      -0.019
      -0.021
      -0.012
       0.002
       0.012
       0.012
       0.004
      -0.005
      -0.007
      -0.004
      -0.003
      -0.007
      -0.014
      -0.014
       0.001
       0.017
       0.011
      -0.028
      -0.075
      -0.074
       0.004
       0.112
       0.149
       0.060
      -0.096
      -0.177
      -0.087
       0.131
       0.300
       0.270
       0.057
      -0.175
      -0.268
      -0.203
      -0.082
      -0.009
       0.015
       0.062
       0.144
       0.188
       0.129
      -0.025
      -0.190
      -0.234
      -0.079
       0.184
       0.339
       0.248
      -0.027
      -0.283
      -0.318
      -0.082
       0.215
       0.256
      -0.017
      -0.319
      -0.340
      -0.069
       0.217
       0.228
      -0.036
      -0.253
      -0.136
       0.205
       0.394
       0.246
      -0.038
      -0.151
      -0.014
       0.180
       0.195
      -0.012
      -0.243
      -0.279
      -0.113
       0.082
       0.155
       0.086
      -0.042
      -0.121
      -0.099
      -0.031
      -0.027
      -0.090
      -0.080
       0.088
       0.281
       0.279
       0.051
      -0.191
      -0.199
       0.042
       0.265
       0.198
      -0.084
      -0.241
      -0.114
       0.092
       0.102
      -0.113
      -0.314
      -0.234
       0.124
       0.415
       0.310
      -0.080
      -0.311
      -0.143
       0.194
       0.297
       0.050
      -0.282
      -0.335
      -0.020
       0.356
       0.393
       0.030
      -0.398
      -0.505
      -0.200
       0.278
       0.542
       0.338
      -0.201
      -0.604
      -0.488
       0.028
       0.455
       0.442
       0.078
      -0.268
      -0.298
      -0.015
       0.289
       0.295
      -0.025
      -0.353
      -0.347
      -0.007
       0.317
       0.305
       0.002
      -0.263
      -0.250
      -0.013
       0.208
       0.239
       0.114
      -0.008
      -0.035
      -0.013
      -0.033
      -0.100
      -0.143
      -0.112
      -0.017
       0.091
       0.145
       0.091
      -0.055
      -0.181
      -0.169
      -0.015
       0.158
       0.216
       0.114
      -0.091
      -0.256
      -0.233
      -0.023
       0.192
       0.237
       0.107
      -0.077
      -0.191
      -0.159
       0.011
       0.191
       0.223
       0.069
      -0.138
      -0.215
      -0.090
       0.106
       0.141
      -0.051
      -0.253
      -0.198
       0.110
       0.377
       0.317
      -0.063
      -0.441
      -0.473
      -0.125
       0.289
       0.406
       0.163
      -0.156
      -0.220
       0.027
       0.316
       0.335
       0.044
      -0.312
      -0.467
      -0.345
      -0.050
       0.238
       0.349
       0.218
      -0.040
      -0.212
      -0.175
       0.019
       0.209
       0.256
       0.120
      -0.121
      -0.316
      -0.341
      -0.175
       0.068
       0.197
       0.106
      -0.089
      -0.155
       0.001
       0.235
       0.323
       0.176
      -0.093
      -0.268
      -0.242
      -0.095
       0.041
       0.117
       0.146
       0.116
       0.024
      -0.081
      -0.139
      -0.123
      -0.032
       0.070
       0.045
      -0.146
      -0.283
      -0.084
       0.375
       0.640
       0.365
      -0.264
      -0.700
      -0.580
      -0.056
       0.391
       0.400
       0.043
      -0.272
      -0.202
       0.167
       0.409
       0.216
      -0.286
      -0.647
      -0.480
       0.181
       0.792
       0.682
      -0.304
      -1.488
      -1.793
      -0.673
       1.249
       2.537
       2.193
       0.611
      -0.851
      -1.208
      -0.652
      -0.147
      -0.384
      -1.128
      -1.455
      -0.651
       1.041
       2.468
       2.462
       0.848
      -1.295
      -2.397
      -1.674
       0.150
       1.450
       1.193
      -0.163
      -1.253
      -1.129
      -0.002
       1.159
       1.544
       1.015
      -0.040
      -1.036
      -1.420
      -0.906
       0.202
       1.041
       0.839
      -0.306
      -1.377
      -1.290
       0.076
       1.643
       2.018
       0.776
      -1.062
      -1.935
      -1.163
       0.483
       1.553
       1.233
      -0.028
      -1.070
      -1.123
      -0.362
       0.472
       0.793
       0.526
      -0.017
      -0.423
      -0.392
       0.097
       0.691
       0.857
       0.369
      -0.382
      -0.743
      -0.484
       0.001
       0.168
      -0.101
      -0.398
      -0.263
       0.243
       0.493
      -0.031
      -1.048
      -1.587
      -0.899
       0.733
       2.100
       2.075
       0.647
      -1.041
      -1.740
      -1.128
       0.165
       1.252
       1.499
       0.693
      -0.785
      -1.982
      -1.989
      -0.734
       0.897
       1.787
       1.483
       0.500
      -0.220
      -0.188
       0.218
       0.243
      -0.369
      -1.048
      -0.995
      -0.065
       1.016
       1.316
       0.572
      -0.598
      -1.293
      -1.110
      -0.372
       0.278
       0.461
       0.283
       0.076
       0.022
       0.072
       0.140
       0.212
       0.270
       0.247
       0.171
       0.201
       0.357
       0.355
      -0.066
      -0.715
      -1.075
      -0.863
      -0.269
       0.300
       0.598
       0.639
       0.510
       0.164
      -0.441
      -0.998
      -0.937
      -0.058
       1.030
       1.357
       0.571
      -0.620
      -1.117
      -0.523
       0.490
       0.890
       0.315
      -0.604
      -0.912
      -0.289
       0.679
       1.109
       0.644
      -0.317
      -1.053
      -1.094
      -0.481
       0.342
       0.857
       0.826
       0.409
      -0.007
      -0.140
      -0.058
      -0.104
      -0.470
      -0.875
      -0.803
      -0.106
       0.738
       1.042
       0.604
      -0.088
      -0.400
      -0.221
       0.031
      -0.028
      -0.341
      -0.508
      -0.203
       0.455
       0.898
       0.626
      -0.221
      -0.911
      -0.837
      -0.074
       0.766
       1.072
       0.655
      -0.164
      -0.797
      -0.850
      -0.392
       0.167
       0.424
       0.245
      -0.154
      -0.379
      -0.221
       0.125
       0.277
       0.109
      -0.130
      -0.123
       0.142
       0.383
       0.354
       0.076
      -0.224
      -0.315
      -0.129
       0.180
       0.334
       0.177
      -0.148
      -0.324
      -0.201
       0.036
       0.087
      -0.120
      -0.349
      -0.302
       0.072
       0.503
       0.640
       0.357
      -0.158
      -0.577
      -0.680
      -0.445
      -0.009
       0.397
       0.542
       0.343
      -0.026
      -0.250
      -0.155
       0.133
       0.317
       0.196
      -0.143
      -0.383
      -0.262
       0.139
       0.434
       0.312
      -0.134
      -0.484
      -0.400
       0.036
       0.404
       0.333
      -0.121
      -0.513
      -0.445
       0.040
       0.520
       0.625
       0.340
      -0.063
      -0.308
      -0.318
      -0.181
      -0.007
       0.162
       0.302
       0.338
       0.186
      -0.133
      -0.444
      -0.534
      -0.336
      -0.006
       0.211
       0.197
       0.055
      -0.017
       0.059
       0.171
       0.154
      -0.015
      -0.186
      -0.191
      -0.015
       0.189
       0.255
       0.132
      -0.092
      -0.263
      -0.262
      -0.084
       0.154
       0.297
       0.259
       0.088
      -0.091
      -0.188
      -0.207
      -0.199
      -0.172
      -0.069
       0.128
       0.306
       0.318
       0.169
       0.028
       0.010
       0.024
      -0.085
      -0.314
      -0.472
      -0.359
       0.024
       0.423
       0.523
       0.255
      -0.121
      -0.293
      -0.199
       0.000
       0.144
       0.170
       0.068
      -0.102
      -0.208
      -0.151
       0.035
       0.214
       0.263
       0.157
       0.003
      -0.052
       0.016
       0.056
      -0.081
      -0.332
      -0.471
      -0.331
       0.035
       0.400
       0.529
       0.335
      -0.063
      -0.404
      -0.461
      -0.201
       0.194
       0.473
       0.488
       0.246
      -0.125
      -0.428
      -0.487
      -0.268
       0.068
       0.269
       0.195
      -0.062
      -0.246
      -0.167
       0.105
       0.313
       0.283
       0.092
      -0.060
      -0.095
      -0.115
      -0.209
      -0.300
      -0.230
       0.003
       0.204
       0.204
       0.052
      -0.058
      -0.008
       0.129
       0.182
       0.066
      -0.144
      -0.303
      -0.332
      -0.235
      -0.043
       0.198
       0.386
       0.398
       0.192
      -0.119
      -0.332
      -0.313
      -0.115
       0.078
       0.111
       0.001
      -0.089
      -0.039
       0.081
       0.105
      -0.010
      -0.109
      -0.021
       0.209
       0.331
       0.152
      -0.229
      -0.478
      -0.354
       0.037
       0.333
       0.269
      -0.056
      -0.287
      -0.177
       0.156
       0.377
       0.268
      -0.094
      -0.433
      -0.500
      -0.242
       0.180
       0.509
       0.576
       0.362
      -0.041
      -0.474
      -0.734
      -0.669
      -0.286
       0.230
       0.619
       0.688
       0.425
       0.008
      -0.312
      -0.385
      -0.240
      -0.029
       0.097
       0.074
      -0.036
      -0.081
