Origin Time       07/09/2011 17:58:18
Lat.              28.6 N	
Long.             77.0 E	
Depth (Km)          8.0
Magnitude         4.2
 Region           DELHI-HARYANA(SONIPAT)                                           
 Above details taken from IMD 
     
Station Code      DJB
Station Lat.       28.652  N
Station Long.      77.188  E
Station Height(m)  235.0
Site Class        C   Vs30 between 200 m/sec to 375 m/sec *  
Record Time       07.09.2011 17:40:27.834
Sampling Rate     200. Hz
 Record Duration   89.820 Sec.
 Direction         E-W (E positive)
Max. Acceleration    -34.474 cm/sec**2
     
  * For reference see Site Classification link of website 
     
 Base Line Corrected and Low Pass Filtered (Cut Off at 35 Hz) Time History
 Acceleration data in cm/sec**2
    
[...]
      -0.005
      -0.004
      -0.007
      -0.011
      -0.008
       0.000
       0.009
       0.012
       0.005
      -0.005
      -0.011
      -0.008
      -0.002
       0.003
       0.002
      -0.002
      -0.006
      -0.007
      -0.005
      -0.004
      -0.006
      -0.009
      -0.013
      -0.017
      -0.022
      -0.025
      -0.025
      -0.020
      -0.013
      -0.008
      -0.005
      -0.006
      -0.008
      -0.007
      -0.006
      -0.004
      -0.005
      -0.007
      -0.011
      -0.015
      -0.015
      -0.011
      -0.005
      -0.001
      -0.001
      -0.005
      -0.009
      -0.010
      -0.007
      -0.002
       0.000
      -0.003
      -0.010
      -0.017
      -0.020
      -0.018
      -0.011
      -0.006
      -0.003
      -0.004
      -0.006
      -0.007
      -0.009
      -0.013
      -0.020
      -0.026
      -0.028
      -0.022
      -0.014
      -0.008
      -0.006
      -0.010
      -0.015
      -0.018
      -0.015
      -0.008
       0.000
       0.004
       0.003
      -0.001
      -0.005
      -0.006
      -0.005
      -0.003
      -0.001
       0.000
      -0.001
      -0.006
      -0.015
      -0.023
      -0.026
      -0.020
      -0.009
       0.000
       0.000
      -0.005
      -0.011
      -0.010
      -0.005
       0.001
       0.001
      -0.006
      -0.016
      -0.024
      -0.027
      -0.024
      -0.017
      -0.009
      -0.002
       0.000
      -0.002
      -0.007
      -0.011
      -0.012
      -0.008
      -0.003
       0.000
       0.000
      -0.002
      -0.003
      -0.003
      -0.006
      -0.011
      -0.017
      -0.019
      -0.017
      -0.014
      -0.012
      -0.011
      -0.010
      -0.009
      -0.009
      -0.009
      -0.010
      -0.009
      -0.007
      -0.006
      -0.005
      -0.004
      -0.003
      -0.003
      -0.006
      -0.012
      -0.015
      -0.014
      -0.009
      -0.003
       0.001
       0.002
       0.001
       0.000
      -0.001
       0.000
       0.001
       0.001
      -0.003
      -0.007
      -0.010
      -0.009
      -0.005
      -0.001
       0.000
       0.000
      -0.001
       0.001
       0.005
       0.006
       0.004
      -0.003
      -0.011
      -0.018
      -0.021
      -0.018
      -0.010
       0.001
       0.010
       0.013
       0.006
      -0.007
      -0.017
      -0.018
      -0.011
      -0.002
       0.001
      -0.003
      -0.007
      -0.007
      -0.002
       0.002
       0.000
      -0.005
      -0.009
      -0.008
      -0.002
       0.002
       0.001
      -0.005
      -0.010
      -0.013
      -0.013
      -0.010
      -0.005
       0.001
       0.005
       0.004
      -0.001
      -0.006
      -0.009
      -0.011
      -0.013
      -0.016
      -0.018
      -0.017
      -0.013
      -0.007
      -0.003
      -0.004
      -0.009
      -0.015
      -0.021
      -0.027
      -0.030
      -0.028
      -0.022
      -0.017
      -0.015
      -0.016
      -0.018
      -0.020
      -0.019
      -0.013
      -0.004
       0.002
       0.001
      -0.006
      -0.015
      -0.019
      -0.017
      -0.012
      -0.009
      -0.008
      -0.006
      -0.002
       0.000
      -0.004
      -0.013
      -0.019
      -0.016
      -0.007
       0.001
       0.000
      -0.008
      -0.016
      -0.015
      -0.008
      -0.001
       0.003
       0.002
      -0.002
      -0.006
      -0.011
      -0.017
      -0.021
      -0.020
      -0.015
      -0.007
      -0.001
       0.000
      -0.001
      -0.004
      -0.008
      -0.012
      -0.014
      -0.014
      -0.012
      -0.008
      -0.006
      -0.007
      -0.010
      -0.011
      -0.006
       0.002
       0.007
       0.008
       0.003
      -0.004
      -0.008
      -0.010
      -0.010
      -0.009
      -0.008
      -0.007
      -0.009
      -0.011
      -0.013
      -0.013
      -0.010
      -0.007
      -0.006
      -0.008
      -0.013
      -0.018
      -0.018
      -0.016
      -0.013
      -0.012
      -0.012
      -0.014
      -0.014
      -0.014
      -0.013
      -0.010
      -0.006
      -0.005
      -0.006
      -0.011
      -0.015
      -0.016
      -0.013
      -0.008
      -0.003
      -0.002
      -0.006
      -0.012
      -0.017
      -0.018
      -0.016
      -0.010
      -0.004
      -0.001
      -0.001
      -0.001
      -0.001
      -0.001
      -0.002
      -0.007
      -0.013
      -0.015
      -0.012
      -0.006
      -0.001
      -0.002
      -0.006
      -0.011
      -0.012
      -0.010
      -0.004
       0.002
       0.005
       0.003
      -0.004
      -0.012
      -0.017
      -0.017
      -0.014
      -0.013
      -0.015
      -0.020
      -0.027
      -0.031
      -0.029
      -0.023
      -0.013
      -0.006
      -0.003
      -0.006
      -0.012
      -0.018
      -0.019
      -0.015
      -0.009
      -0.006
      -0.008
      -0.012
      -0.014
      -0.014
      -0.010
      -0.006
      -0.004
      -0.004
      -0.005
      -0.005
      -0.005
      -0.003
      -0.001
       0.002
       0.004
       0.005
       0.005
       0.004
       0.003
       0.000
      -0.004
      -0.007
      -0.008
      -0.007
      -0.005
      -0.005
      -0.008
      -0.011
      -0.013
      -0.011
      -0.007
      -0.004
      -0.003
      -0.006
      -0.010
      -0.013
      -0.013
      -0.011
      -0.008
      -0.008
      -0.008
      -0.009
      -0.008
      -0.006
      -0.003
      -0.003
      -0.005
      -0.008
      -0.009
      -0.007
      -0.005
      -0.006
      -0.008
      -0.011
      -0.014
      -0.015
      -0.017
      -0.017
      -0.014
      -0.011
      -0.007
      -0.007
      -0.007
      -0.007
      -0.004
      -0.001
       0.002
       0.002
       0.000
      -0.003
      -0.008
      -0.012
      -0.015
      -0.016
      -0.014
      -0.009
      -0.004
      -0.003
      -0.006
      -0.014
      -0.019
      -0.018
      -0.012
      -0.004
      -0.002
      -0.007
      -0.015
      -0.019
      -0.018
      -0.016
      -0.016
      -0.019
      -0.021
      -0.020
      -0.013
      -0.006
      -0.001
      -0.002
      -0.006
      -0.009
      -0.009
      -0.006
      -0.002
       0.000
       0.000
      -0.004
      -0.009
      -0.012
      -0.012
      -0.010
      -0.008
      -0.009
      -0.010
      -0.012
      -0.012
      -0.011
      -0.011
      -0.012
      -0.014
      -0.014
      -0.011
      -0.006
      -0.001
       0.003
       0.002
      -0.002
      -0.011
      -0.019
      -0.022
      -0.018
      -0.009
      -0.001
       0.002
      -0.001
      -0.004
      -0.004
       0.000
       0.004
       0.004
       0.001
      -0.004
      -0.009
      -0.010
      -0.009
      -0.008
      -0.005
      -0.002
       0.002
       0.004
       0.002
      -0.005
      -0.011
      -0.012
      -0.008
      -0.005
      -0.007
      -0.015
      -0.022
      -0.021
      -0.014
      -0.006
      -0.004
      -0.007
      -0.010
      -0.009
      -0.004
       0.001
       0.002
       0.000
      -0.002
      -0.002
       0.001
       0.005
       0.006
       0.003
      -0.001
      -0.006
      -0.010
      -0.011
      -0.009
      -0.003
       0.003
       0.007
       0.008
       0.004
      -0.003
      -0.009
      -0.011
      -0.008
      -0.004
      -0.001
      -0.003
      -0.008
      -0.013
      -0.014
      -0.009
      -0.001
       0.004
       0.004
       0.000
      -0.003
      -0.004
      -0.003
      -0.001
       0.001
       0.004
       0.007
       0.006
       0.001
      -0.005
      -0.010
      -0.008
      -0.001
       0.007
       0.012
       0.010
       0.004
      -0.001
      -0.003
      -0.003
      -0.001
       0.000
       0.003
       0.006
       0.009
       0.008
       0.002
      -0.005
      -0.007
      -0.002
       0.006
       0.012
       0.012
       0.010
       0.005
       0.000
      -0.004
      -0.005
      -0.002
       0.003
       0.007
       0.007
       0.004
       0.001
       0.000
       0.000
       0.000
       0.000
      -0.003
      -0.008
      -0.015
      -0.020
      -0.020
      -0.015
      -0.007
      -0.002
      -0.002
      -0.007
      -0.010
      -0.008
      -0.002
       0.006
       0.010
       0.008
       0.003
      -0.003
      -0.009
      -0.013
      -0.015
      -0.013
      -0.009
      -0.005
      -0.001
       0.000
       0.000
       0.000
       0.000
       0.002
       0.004
       0.004
       0.000
      -0.005
      -0.010
      -0.012
      -0.012
      -0.013
      -0.012
      -0.010
      -0.004
       0.002
       0.004
       0.001
      -0.007
      -0.016
      -0.022
      -0.021
      -0.012
      -0.003
       0.000
      -0.004
      -0.012
      -0.017
      -0.017
      -0.015
      -0.014
      -0.016
      -0.018
      -0.017
      -0.009
       0.001
       0.008
       0.006
      -0.005
      -0.018
      -0.024
      -0.021
      -0.012
      -0.003
       0.000
      -0.002
      -0.007
      -0.011
      -0.013
      -0.011
      -0.008
      -0.006
      -0.007
      -0.010
      -0.011
      -0.011
      -0.009
      -0.008
      -0.010
      -0.013
      -0.016
      -0.015
      -0.011
      -0.005
      -0.001
       0.002
       0.002
       0.001
      -0.003
      -0.007
      -0.012
      -0.017
      -0.021
      -0.021
      -0.019
      -0.016
      -0.012
      -0.007
      -0.001
       0.003
       0.004
       0.001
      -0.003
      -0.005
      -0.005
      -0.006
      -0.011
      -0.023
      -0.041
      -0.054
      -0.050
      -0.018
       0.036
       0.083
       0.085
       0.021
      -0.085
      -0.171
      -0.170
      -0.067
       0.087
       0.182
       0.131
      -0.066
      -0.334
      -0.595
      -0.818
      -0.961
      -0.868
      -0.291
       0.843
       2.107
       2.648
       1.853
       0.044
      -1.625
      -2.107
      -1.279
       0.151
       1.309
       1.663
       1.134
       0.006
      -1.198
      -1.884
      -1.635
      -0.542
       0.680
       1.140
       0.569
      -0.358
      -0.696
      -0.193
       0.528
       0.707
       0.165
      -0.721
      -1.514
      -1.963
      -1.825
      -0.829
       0.927
       2.647
       3.291
       2.468
       0.858
      -0.301
      -0.247
       0.596
       0.964
       0.000
      -1.787
      -2.941
      -2.482
      -0.824
       0.682
       0.973
       0.033
      -1.268
      -1.855
      -1.098
       0.796
       2.787
       3.577
       2.570
       0.447
      -1.295
      -1.546
      -0.454
       0.815
       1.176
       0.516
      -0.469
      -1.115
      -1.329
      -1.386
      -1.420
      -1.250
      -0.677
       0.106
       0.538
       0.217
      -0.533
      -0.753
       0.256
       2.015
       3.068
       2.332
       0.209
      -1.741
      -2.152
      -0.957
       0.641
       1.294
       0.682
      -0.408
      -1.075
      -1.052
      -0.548
       0.191
       0.849
       0.899
       0.047
      -1.084
      -1.252
       0.068
       1.907
       2.617
       1.411
      -0.921
      -2.660
      -2.571
      -0.939
       0.720
       1.094
       0.261
      -0.572
      -0.429
       0.519
       1.374
       1.475
       0.798
      -0.246
      -1.055
      -1.144
      -0.618
      -0.187
      -0.332
      -0.644
      -0.456
       0.089
       0.215
      -0.244
      -0.420
       0.493
       2.055
       2.852
       1.902
      -0.346
      -2.318
      -2.585
      -1.013
       1.101
       2.067
       1.191
      -0.723
      -2.209
      -2.442
      -1.682
      -0.644
       0.239
       0.905
       1.334
       1.438
       1.262
       1.038
       0.913
       0.790
       0.479
      -0.127
      -0.960
      -1.639
      -1.627
      -0.798
       0.202
       0.475
      -0.149
      -0.835
      -0.659
       0.297
       0.999
       0.615
      -0.566
      -1.436
      -1.230
      -0.222
       0.786
       1.350
       1.535
       1.471
       1.104
       0.370
      -0.533
      -1.140
      -1.095
      -0.523
       0.077
       0.338
       0.325
       0.252
       0.111
      -0.167
      -0.364
      -0.202
       0.105
      -0.060
      -0.930
      -1.862
      -1.815
      -0.378
       1.648
       2.795
       2.212
       0.426
      -1.231
      -1.824
      -1.300
      -0.076
       1.355
       2.385
       2.316
       0.829
      -1.473
      -3.176
      -3.009
      -0.968
       1.467
       2.450
       1.324
      -0.872
      -2.339
      -1.935
       0.034
       2.053
       2.604
       1.496
       0.008
      -0.482
       0.105
       0.721
       0.597
       0.028
      -0.239
       0.029
       0.355
       0.072
      -1.039
      -2.508
      -3.480
      -3.323
      -2.032
      -0.187
       1.416
       2.247
       2.250
       1.683
       0.906
       0.263
      -0.198
      -0.847
      -1.799
      -2.166
      -0.823
       1.797
       3.483
       2.458
      -0.527
      -2.814
      -2.442
       0.085
       2.472
       2.851
       1.448
       0.180
       0.489
       1.660
       1.612
      -0.658
      -3.672
      -4.640
      -2.159
       2.101
       4.594
       3.220
      -0.479
      -2.753
      -1.279
       3.087
       8.278
      13.682
      19.765
      25.376
      26.691
      19.753
       4.382
     -14.419
     -29.164
     -34.474
     -29.958
     -19.817
     -10.104
      -5.390
      -6.601
     -11.238
     -15.668
     -17.630
     -16.958
     -14.256
      -9.367
      -1.660
       8.159
      17.044
      21.022
      18.172
      10.829
       4.850
       5.576
      13.091
      21.141
      21.848
      12.760
      -0.452
      -8.737
      -7.520
      -0.228
       5.363
       3.896
      -3.663
     -11.394
     -13.120
      -6.745
       4.573
      14.779
      18.695
      14.507
       3.988
      -8.689
     -18.597
     -21.868
     -17.379
      -7.587
       2.275
       6.816
       3.866
      -3.732
      -9.959
     -10.253
      -5.097
       0.842
       3.214
       1.744
      -0.044
       1.666
       7.399
      13.546
      15.105
       9.988
       1.172
      -5.402
      -5.484
       0.211
       6.850
       9.492
       6.622
       0.589
      -4.574
      -6.084
      -4.387
      -2.585
      -3.294
      -5.803
      -6.760
      -3.886
       1.229
       4.321
       2.513
      -2.885
      -7.517
      -7.773
      -3.591
       1.956
       5.349
       5.033
       2.015
      -1.249
      -2.633
      -1.539
       1.149
       3.813
       4.820
       3.193
      -0.635
      -4.667
      -6.436
      -4.768
      -0.700
       3.323
       5.343
       5.296
       4.656
       4.615
       4.676
       3.361
       0.357
      -2.457
      -2.671
      -0.087
       2.597
       2.231
      -1.608
      -5.994
      -7.246
      -4.210
       0.841
       4.347
       4.380
       1.650
      -1.775
      -4.168
      -4.706
      -3.265
      -0.445
       2.244
       2.923
       0.689
      -3.322
      -6.291
      -5.540
      -0.627
       5.980
      10.319
       9.543
       4.007
      -2.749
      -6.548
      -5.741
      -1.955
       1.941
       4.002
       3.641
       1.135
      -2.525
      -5.647
      -6.523
      -4.645
      -1.287
       1.324
       1.580
      -0.517
      -3.467
      -5.188
      -4.197
      -0.454
       4.603
       8.804
      10.263
       8.239
       3.596
      -1.456
      -4.441
      -4.006
      -0.784
       2.839
       4.182
       2.203
      -1.642
      -4.533
      -4.453
      -1.547
       2.223
       4.544
       4.234
       1.876
      -0.762
      -2.129
      -1.972
      -1.119
      -0.411
      -0.115
      -0.257
      -0.928
      -1.956
      -2.597
      -2.015
      -0.175
       1.911
       2.884
       2.051
      -0.004
      -1.672
      -1.480
       0.592
       2.891
       3.321
       1.144
      -2.191
      -4.152
      -3.361
      -0.629
       2.075
       3.166
       2.034
      -0.969
      -4.541
      -6.779
      -6.300
      -3.465
      -0.273
       1.378
       1.391
       1.230
       2.098
       3.656
       4.581
       4.059
       2.472
       0.810
      -0.244
      -0.639
      -0.677
      -0.631
      -0.602
      -0.651
      -0.900
      -1.331
      -1.551
      -1.000
       0.422
       1.955
       2.387
       1.093
      -1.223
      -2.880
      -2.514
      -0.234
       2.348
       3.311
       2.013
      -0.231
      -1.126
       0.632
       4.061
       6.530
       5.879
       2.172
      -2.413
      -5.402
      -5.869
      -4.734
      -3.485
      -2.778
      -2.196
      -1.081
       0.617
       2.274
       3.132
       2.841
       1.692
       0.518
       0.099
       0.380
       0.499
      -0.096
      -0.836
      -0.757
       0.136
       0.749
       0.209
      -1.045
      -1.696
      -0.943
       0.658
       1.658
       0.865
      -1.791
      -5.096
      -7.085
      -6.195
      -2.512
       1.886
       4.209
       3.107
      -0.176
      -2.794
      -2.571
       0.412
       4.077
       5.987
       5.005
       1.963
      -0.963
      -1.851
      -0.514
       1.548
       2.656
       2.240
       0.820
      -0.674
      -1.418
      -1.121
      -0.310
       0.021
      -0.636
      -1.738
      -2.184
      -1.318
       0.600
       2.701
       4.074
       4.129
       2.770
       0.534
      -1.555
      -2.579
      -2.413
      -1.756
      -1.314
      -1.069
      -0.558
       0.291
       0.940
       0.891
       0.322
      -0.125
      -0.170
      -0.249
      -0.859
      -1.773
      -2.217
      -1.740
      -0.630
       0.544
       1.538
       2.362
       2.787
       2.311
       0.718
      -1.522
      -3.399
      -3.882
      -2.583
      -0.226
       1.694
       2.103
       1.262
       0.355
       0.112
       0.084
      -0.537
      -1.538
      -1.614
       0.171
       3.063
       4.979
       4.253
       1.124
      -2.373
      -4.016
      -3.087
      -0.746
       1.111
       1.434
       0.593
      -0.408
      -1.018
      -1.288
      -1.316
      -0.937
      -0.042
       0.968
       1.257
       0.335
      -1.211
      -1.951
      -0.835
       1.686
       3.742
       3.498
       0.806
      -2.497
      -4.058
      -2.945
      -0.302
       1.759
       1.938
       0.642
      -0.695
      -1.096
      -0.825
      -0.764
      -1.217
      -1.507
      -0.767
       1.012
       2.773
       3.254
       2.212
       0.803
       0.509
       1.561
       2.584
       1.961
      -0.451
      -3.014
      -3.756
      -2.212
       0.152
       1.367
       0.770
      -0.625
      -1.399
      -1.110
      -0.451
      -0.304
      -0.842
      -1.479
      -1.496
      -0.735
       0.248
       0.757
       0.727
       0.752
       1.268
       1.926
       1.967
       1.137
       0.009
      -0.591
      -0.301
       0.592
       1.411
       1.451
       0.396
      -1.352
      -2.784
      -2.951
      -1.628
       0.553
       2.483
       3.140
       2.123
