Origin Time       11/11/2013 19:11:18
Lat.              28.5 N	
Long.             77.2 E	
Depth (Km)         10.0
Magnitude         3.1
 Region           DELHI                                                            
 Above details taken from IMD 
   
Station Code      DJB
Station Lat.       28.652
Station Long.      77.188
Station Height(m)  235.0
Site Class        A   Vs30 between 700 m/sec to 1400 m/sec * 
Record Time       11.11.2013 14:22:16.829
Sampling Rate     200. Hz
 Record Duration   80.550 Sec.
 Direction         Vert. (Up positive)
Max. Acceleration      1.099 cm/sec**2
     
  * For reference see Site Classification link of website 
     
 Base Line Corrected and Low Pass Filtered (Cut Off at 35 Hz) Time History
 Acceleration data in cm/sec**2
    
[...]
      -0.014
      -0.008
      -0.002
      -0.003
      -0.011
      -0.018
      -0.018
      -0.013
      -0.008
      -0.007
      -0.009
      -0.010
      -0.008
      -0.006
      -0.006
      -0.007
      -0.009
      -0.009
      -0.010
      -0.010
      -0.011
      -0.011
      -0.010
      -0.008
      -0.006
      -0.005
      -0.006
      -0.007
      -0.006
      -0.003
       0.000
       0.000
      -0.006
      -0.013
      -0.014
      -0.008
       0.002
       0.008
       0.006
      -0.004
      -0.016
      -0.022
      -0.018
      -0.010
      -0.007
      -0.011
      -0.018
      -0.019
      -0.012
      -0.001
       0.002
      -0.004
      -0.013
      -0.016
      -0.011
      -0.004
      -0.003
      -0.007
      -0.008
      -0.003
       0.005
       0.010
       0.008
       0.004
       0.002
       0.003
       0.003
       0.001
      -0.003
      -0.007
      -0.008
      -0.008
      -0.006
      -0.006
      -0.005
      -0.004
      -0.002
       0.001
       0.003
       0.002
      -0.002
      -0.007
      -0.010
      -0.009
      -0.006
      -0.002
       0.000
       0.003
       0.004
       0.003
       0.001
      -0.001
      -0.002
       0.000
       0.001
      -0.002
      -0.009
      -0.018
      -0.022
      -0.019
      -0.010
       0.000
       0.003
       0.000
      -0.007
      -0.012
      -0.015
      -0.016
      -0.018
      -0.019
      -0.018
      -0.011
       0.000
       0.008
       0.007
      -0.001
      -0.007
      -0.006
      -0.001
       0.000
      -0.005
      -0.015
      -0.020
      -0.018
      -0.011
      -0.005
      -0.004
      -0.002
       0.004
       0.011
       0.013
       0.005
      -0.007
      -0.014
      -0.012
      -0.005
      -0.001
      -0.003
      -0.007
      -0.008
      -0.003
       0.003
       0.004
       0.001
      -0.001
       0.002
       0.009
       0.012
       0.007
      -0.002
      -0.006
      -0.002
       0.007
       0.012
       0.006
      -0.006
      -0.015
      -0.013
      -0.003
       0.008
       0.014
       0.015
       0.013
       0.012
       0.009
       0.004
      -0.004
      -0.012
      -0.013
      -0.008
      -0.001
       0.003
       0.002
       0.003
       0.009
       0.015
       0.017
       0.010
      -0.002
      -0.009
      -0.007
       0.003
       0.012
       0.012
       0.002
      -0.010
      -0.014
      -0.007
       0.005
       0.013
       0.011
       0.004
      -0.001
       0.000
       0.003
       0.002
      -0.002
      -0.007
      -0.008
      -0.005
       0.001
       0.005
       0.007
       0.008
       0.008
       0.006
       0.002
      -0.002
      -0.003
      -0.001
       0.002
       0.004
       0.003
      -0.001
      -0.004
      -0.003
       0.004
       0.012
       0.015
       0.013
       0.008
       0.006
       0.008
       0.009
       0.008
       0.005
       0.003
       0.005
       0.006
       0.004
       0.001
       0.000
       0.004
       0.010
       0.013
       0.009
       0.001
      -0.004
      -0.002
       0.004
       0.007
       0.004
      -0.002
      -0.005
       0.000
       0.007
       0.011
       0.009
       0.003
       0.000
       0.002
       0.008
       0.013
       0.012
       0.007
       0.003
       0.002
       0.001
      -0.003
      -0.010
      -0.015
      -0.011
       0.002
       0.012
       0.014
       0.008
       0.002
       0.001
       0.006
       0.009
       0.006
       0.000
      -0.004
      -0.003
       0.000
       0.002
      -0.002
      -0.007
      -0.010
      -0.007
      -0.003
       0.000
       0.000
       0.000
       0.004
       0.010
       0.012
       0.009
       0.002
      -0.001
       0.005
       0.015
       0.023
       0.023
       0.014
       0.005
       0.003
       0.007
       0.013
       0.012
       0.006
       0.000
      -0.001
       0.004
       0.010
       0.010
       0.006
       0.003
       0.006
       0.013
       0.016
       0.011
       0.000
      -0.009
      -0.010
      -0.007
      -0.003
      -0.002
      -0.002
      -0.001
       0.003
       0.008
       0.010
       0.008
       0.005
       0.005
       0.009
       0.013
       0.013
       0.009
       0.003
       0.002
       0.005
       0.008
       0.008
       0.004
      -0.001
      -0.003
       0.001
       0.009
       0.014
       0.014
       0.010
       0.006
       0.004
       0.004
       0.004
       0.004
       0.006
       0.012
       0.017
       0.018
       0.012
       0.004
       0.000
       0.001
       0.006
       0.009
       0.008
       0.002
      -0.005
      -0.011
      -0.012
      -0.010
      -0.005
       0.001
       0.007
       0.008
       0.005
      -0.001
      -0.004
      -0.001
       0.005
       0.010
       0.008
       0.003
      -0.001
      -0.001
       0.002
       0.002
      -0.004
      -0.012
      -0.014
      -0.005
       0.009
       0.020
       0.021
       0.014
       0.005
       0.001
       0.001
       0.000
      -0.004
      -0.008
      -0.009
      -0.003
       0.005
       0.008
       0.004
      -0.002
      -0.004
       0.003
       0.013
       0.018
       0.015
       0.008
       0.002
       0.000
       0.000
       0.000
      -0.003
      -0.006
      -0.008
      -0.007
      -0.005
      -0.005
      -0.005
      -0.006
      -0.004
      -0.001
      -0.001
      -0.003
      -0.004
       0.002
       0.010
       0.014
       0.009
       0.001
      -0.003
       0.002
       0.011
       0.015
       0.009
      -0.003
      -0.013
      -0.014
      -0.006
       0.004
       0.008
       0.004
      -0.001
      -0.001
       0.006
       0.012
       0.012
       0.007
       0.002
       0.003
       0.009
       0.013
       0.011
       0.005
       0.001
       0.001
       0.003
       0.001
      -0.006
      -0.014
      -0.016
      -0.011
      -0.001
       0.006
       0.008
       0.005
       0.002
       0.002
       0.004
       0.005
       0.006
       0.005
       0.004
       0.006
       0.009
       0.013
       0.014
       0.011
       0.007
       0.003
       0.002
       0.002
       0.002
       0.000
      -0.002
      -0.002
       0.000
       0.003
       0.005
       0.006
       0.006
       0.004
       0.003
       0.002
       0.003
       0.006
       0.011
       0.016
       0.018
       0.015
       0.008
       0.002
       0.002
       0.009
       0.016
       0.018
       0.012
       0.004
      -0.004
      -0.007
      -0.005
      -0.002
       0.001
       0.002
       0.001
      -0.002
      -0.003
       0.001
       0.010
       0.021
       0.025
       0.020
       0.010
       0.003
       0.005
       0.011
       0.015
       0.011
       0.002
      -0.005
      -0.004
       0.003
       0.010
       0.010
       0.003
      -0.006
      -0.010
      -0.005
       0.006
       0.015
       0.015
       0.009
       0.003
       0.002
       0.006
       0.010
       0.012
       0.011
       0.010
       0.009
       0.008
       0.006
       0.002
      -0.001
       0.000
       0.003
       0.004
       0.001
      -0.002
      -0.001
       0.003
       0.007
       0.007
       0.003
      -0.001
       0.001
       0.007
       0.012
       0.012
       0.008
       0.002
      -0.003
      -0.004
      -0.004
      -0.004
      -0.003
      -0.001
       0.001
       0.002
       0.001
      -0.002
      -0.002
       0.000
       0.005
       0.007
       0.003
      -0.005
      -0.011
      -0.012
      -0.007
      -0.002
      -0.003
      -0.008
      -0.012
      -0.009
       0.002
       0.015
       0.020
       0.014
       0.006
       0.015
       0.068
       0.168
       0.276
       0.312
       0.210
      -0.009
      -0.226
      -0.310
      -0.234
      -0.089
       0.014
       0.042
       0.034
       0.018
      -0.029
      -0.138
      -0.269
      -0.316
      -0.209
       0.003
       0.185
       0.218
       0.101
      -0.049
      -0.096
       0.000
       0.153
       0.232
       0.181
       0.048
      -0.082
      -0.170
      -0.214
      -0.200
      -0.109
       0.037
       0.157
       0.162
       0.051
      -0.071
      -0.089
       0.015
       0.149
       0.207
       0.168
       0.122
       0.136
       0.135
       0.005
      -0.213
      -0.332
      -0.242
      -0.036
       0.107
       0.124
       0.087
       0.048
      -0.025
      -0.137
      -0.185
      -0.076
       0.117
       0.193
       0.064
      -0.108
      -0.066
       0.216
       0.444
       0.296
      -0.203
      -0.660
      -0.681
      -0.267
       0.190
       0.331
       0.187
       0.041
       0.015
      -0.017
      -0.127
      -0.158
       0.034
       0.297
       0.317
       0.036
      -0.241
      -0.224
       0.021
       0.202
       0.189
       0.116
       0.130
       0.172
       0.073
      -0.178
      -0.362
      -0.271
       0.025
       0.221
       0.105
      -0.205
      -0.399
      -0.314
      -0.067
       0.134
       0.203
       0.182
       0.138
       0.113
       0.116
       0.117
       0.059
      -0.064
      -0.161
      -0.122
       0.028
       0.129
       0.057
      -0.119
      -0.199
      -0.054
       0.217
       0.360
       0.207
      -0.151
      -0.455
      -0.525
      -0.390
      -0.177
       0.055
       0.314
       0.550
       0.619
       0.429
       0.075
      -0.227
      -0.315
      -0.206
      -0.031
       0.087
       0.091
      -0.005
      -0.107
      -0.098
       0.031
       0.141
       0.082
      -0.113
      -0.246
      -0.163
       0.054
       0.136
      -0.070
      -0.397
      -0.506
      -0.237
       0.226
       0.556
       0.572
       0.359
       0.126
       0.021
       0.042
       0.086
       0.051
      -0.089
      -0.278
      -0.420
      -0.432
      -0.290
      -0.039
       0.222
       0.373
       0.319
       0.066
      -0.222
      -0.328
      -0.172
       0.103
       0.284
       0.287
       0.179
       0.043
      -0.093
      -0.190
      -0.171
       0.004
       0.245
       0.375
       0.256
      -0.083
      -0.425
      -0.500
      -0.221
       0.204
       0.417
       0.231
      -0.183
      -0.452
      -0.358
      -0.010
       0.306
       0.415
       0.346
       0.192
      -0.014
      -0.229
      -0.320
      -0.177
       0.100
       0.245
       0.110
      -0.153
      -0.268
      -0.143
       0.075
       0.213
       0.226
       0.139
      -0.017
      -0.163
      -0.199
      -0.128
      -0.071
      -0.091
      -0.098
       0.017
       0.191
       0.227
       0.037
      -0.205
      -0.241
      -0.027
       0.245
       0.374
       0.328
       0.194
       0.052
      -0.081
      -0.215
      -0.318
      -0.316
      -0.179
       0.003
       0.092
       0.047
      -0.019
       0.030
       0.198
       0.342
       0.306
       0.055
      -0.271
      -0.442
      -0.326
      -0.022
       0.228
       0.291
       0.230
       0.172
       0.138
       0.047
      -0.150
      -0.373
      -0.458
      -0.298
       0.041
       0.353
       0.466
       0.364
       0.175
       0.038
      -0.001
       0.001
      -0.032
      -0.104
      -0.137
      -0.083
      -0.004
      -0.005
      -0.103
      -0.202
      -0.204
      -0.105
       0.006
       0.046
       0.014
      -0.015
       0.034
       0.143
       0.197
       0.108
      -0.066
      -0.160
      -0.067
       0.131
       0.240
       0.153
      -0.052
      -0.217
      -0.257
      -0.199
      -0.103
       0.004
       0.111
       0.177
       0.181
       0.171
       0.202
       0.235
       0.159
      -0.055
      -0.269
      -0.309
      -0.158
       0.022
       0.060
      -0.059
      -0.186
      -0.166
      -0.001
       0.153
       0.164
       0.071
       0.033
       0.123
       0.248
       0.266
       0.149
      -0.029
      -0.209
      -0.355
      -0.380
      -0.219
       0.021
       0.143
       0.114
       0.105
       0.231
       0.356
       0.269
      -0.008
      -0.223
      -0.206
      -0.083
      -0.102
      -0.291
      -0.394
      -0.197
       0.186
       0.439
       0.402
       0.184
      -0.020
      -0.104
      -0.066
       0.032
       0.092
       0.023
      -0.181
      -0.374
      -0.341
      -0.035
       0.299
       0.356
       0.130
      -0.083
      -0.046
       0.139
       0.182
      -0.050
      -0.384
      -0.512
      -0.300
       0.085
       0.358
       0.373
       0.209
       0.063
       0.095
       0.302
       0.465
       0.310
      -0.182
      -0.671
      -0.746
      -0.365
       0.087
       0.211
       0.027
      -0.125
      -0.044
       0.145
       0.253
       0.284
       0.325
       0.322
       0.136
      -0.201
      -0.428
      -0.343
      -0.071
       0.076
      -0.028
      -0.181
      -0.136
       0.070
       0.177
       0.057
      -0.116
      -0.075
       0.191
       0.408
       0.337
       0.039
      -0.243
      -0.358
      -0.324
      -0.208
      -0.056
       0.047
      -0.009
      -0.214
      -0.372
      -0.293
      -0.014
       0.223
       0.211
      -0.058
      -0.415
      -0.649
      -0.606
      -0.245
       0.316
       0.836
       1.099
       1.068
       0.882
       0.696
       0.541
       0.351
       0.101
      -0.129
      -0.271
      -0.366
      -0.510
      -0.718
      -0.881
      -0.867
      -0.628
      -0.243
       0.140
       0.404
       0.522
       0.541
       0.499
       0.335
      -0.032
      -0.488
      -0.667
      -0.289
       0.440
       0.915
       0.731
       0.107
      -0.337
      -0.227
       0.190
       0.338
      -0.065
      -0.716
      -1.043
      -0.771
      -0.135
       0.406
       0.593
       0.492
       0.285
       0.064
      -0.156
      -0.316
      -0.299
      -0.070
       0.234
       0.414
       0.380
       0.179
      -0.103
      -0.379
      -0.552
      -0.528
      -0.285
       0.085
       0.400
       0.486
       0.321
       0.085
       0.015
       0.170
       0.376
       0.413
       0.233
      -0.039
      -0.262
      -0.383
      -0.395
      -0.290
      -0.105
       0.050
       0.073
      -0.038
      -0.167
      -0.188
      -0.100
      -0.018
      -0.008
      -0.003
       0.064
       0.131
       0.087
      -0.067
      -0.189
      -0.125
       0.126
       0.353
       0.304
      -0.034
      -0.354
      -0.314
       0.106
       0.546
       0.609
       0.258
      -0.174
      -0.364
      -0.293
      -0.145
      -0.029
       0.068
       0.145
       0.158
       0.123
       0.122
       0.188
       0.245
       0.193
       0.022
      -0.184
      -0.345
      -0.434
      -0.433
      -0.313
      -0.085
       0.137
       0.199
       0.054
      -0.163
      -0.236
      -0.062
       0.241
       0.427
       0.356
       0.135
      -0.007
       0.018
       0.085
       0.034
      -0.132
      -0.260
      -0.223
      -0.048
       0.138
       0.239
       0.243
       0.186
       0.101
      -0.001
      -0.102
      -0.139
      -0.023
       0.199
       0.300
       0.088
      -0.328
      -0.594
      -0.468
      -0.061
       0.309
       0.420
       0.294
       0.092
      -0.062
      -0.128
      -0.092
       0.064
       0.280
       0.369
       0.163
      -0.255
      -0.538
      -0.411
       0.006
       0.305
       0.244
      -0.011
      -0.142
      -0.065
       0.028
      -0.038
      -0.219
      -0.329
      -0.240
       0.013
       0.272
       0.347
       0.152
      -0.181
      -0.355
      -0.184
       0.207
       0.499
       0.493
       0.260
       0.005
      -0.128
      -0.146
      -0.124
      -0.095
      -0.026
       0.096
       0.195
       0.160
      -0.021
      -0.220
      -0.281
      -0.158
       0.041
       0.160
       0.136
       0.052
       0.033
       0.098
       0.135
       0.060
      -0.073
      -0.136
      -0.085
       0.014
       0.087
       0.117
       0.113
       0.063
      -0.042
      -0.165
      -0.215
      -0.134
       0.020
       0.096
       0.001
      -0.174
      -0.232
      -0.077
       0.164
       0.262
       0.116
      -0.124
      -0.217
      -0.097
       0.070
       0.122
       0.093
       0.121
       0.234
       0.301
       0.182
      -0.096
      -0.327
      -0.308
      -0.057
       0.196
       0.240
       0.088
      -0.068
      -0.081
       0.019
       0.095
       0.055
      -0.081
      -0.225
      -0.292
      -0.253
      -0.131
       0.022
       0.151
       0.220
       0.209
       0.103
      -0.082
      -0.260
      -0.289
      -0.098
       0.208
       0.405
       0.341
       0.063
      -0.230
      -0.359
      -0.296
      -0.142
      -0.005
       0.080
       0.134
       0.169
       0.163
       0.101
       0.003
      -0.079
      -0.118
      -0.120
      -0.094
      -0.026
       0.085
       0.181
       0.181
       0.067
      -0.074
      -0.128
      -0.074
      -0.001
      -0.010
      -0.093
      -0.127
      -0.011
       0.192
       0.296
       0.207
       0.032
      -0.061
      -0.045
      -0.043
      -0.143
      -0.256
      -0.201
       0.072
       0.368
       0.410
       0.135
      -0.222
      -0.369
      -0.249
      -0.050
       0.030
      -0.002
      -0.012
       0.063
       0.152
       0.174
       0.124
       0.040
      -0.061
      -0.151
      -0.161
      -0.058
       0.067
       0.090
       0.018
      -0.027
       0.014
       0.049
      -0.020
      -0.156
      -0.234
      -0.189
      -0.078
       0.025
       0.115
       0.210
       0.257
       0.183
       0.001
      -0.170
      -0.220
      -0.131
       0.015
       0.105
       0.078
      -0.020
      -0.082
      -0.039
       0.080
       0.177
       0.177
       0.089
      -0.019
      -0.102
      -0.157
      -0.177
      -0.151
      -0.086
      -0.011
       0.061
       0.121
       0.145
       0.102
      -0.004
      -0.113
      -0.137
      -0.041
       0.092
       0.127
       0.021
      -0.128
      -0.183
      -0.100
       0.055
       0.183
       0.223
       0.173
       0.079
      -0.003
      -0.039
      -0.024
       0.025
       0.063
       0.033
      -0.073
      -0.176
      -0.174
      -0.052
       0.091
       0.150
       0.126
       0.107
       0.130
       0.132
       0.033
      -0.149
      -0.292
      -0.285
      -0.138
       0.029
       0.111
       0.119
       0.136
       0.187
       0.180
       0.023
      -0.236
      -0.417
      -0.367
      -0.111
       0.171
       0.304
       0.260
       0.152
       0.089
       0.082
       0.080
       0.067
       0.077
       0.108
       0.083
      -0.066
      -0.269
      -0.356
      -0.236
      -0.003
       0.159
       0.160
       0.078
       0.043
       0.075
       0.067
      -0.068
      -0.263
      -0.344
      -0.201
       0.096
       0.342
