Origin Time       18/2/2011 14:44:14	
Lat.              28.6 N	
Long.             77.3 E	
Depth (Km)          5.0
Magnitude         2.3
 Region           Delhi                                                            
 Above details taken from IMD 
     
Station Code      DJB
Station Lat.       28.652  N
Station Long.      77.188  E
Station Height(m)  235.0
Site Class        A   Vs30 between 700 m/sec to 1400 m/sec * 
Record Time       18.02.2011 13:16:34.959
Sampling Rate     200. Hz
 Record Duration   80.000 Sec.
 Direction         E-W (E positive)
Max. Acceleration     -4.081 cm/sec**2
     
  * For reference see Site Classification link of website 
     
 Base Line Corrected and Low Pass Filtered (Cut Off at 35 Hz) Time History
 Acceleration data in cm/sec**2
    
[...]
      -0.003
       0.003
       0.006
       0.004
       0.002
      -0.001
      -0.003
      -0.005
      -0.007
      -0.006
      -0.002
       0.003
       0.006
       0.003
      -0.004
      -0.012
      -0.015
      -0.013
      -0.007
      -0.003
      -0.004
      -0.007
      -0.009
      -0.008
      -0.004
       0.000
       0.001
       0.000
      -0.003
      -0.005
      -0.006
      -0.006
      -0.007
      -0.007
      -0.006
      -0.002
       0.004
       0.012
       0.017
       0.016
       0.010
       0.005
       0.002
       0.005
       0.010
       0.013
       0.011
       0.006
       0.003
       0.006
       0.012
       0.017
       0.018
       0.013
       0.009
       0.010
       0.016
       0.021
       0.020
       0.012
       0.001
      -0.007
      -0.010
      -0.007
      -0.001
       0.004
       0.005
       0.003
       0.001
       0.002
       0.005
       0.008
       0.006
       0.000
      -0.007
      -0.009
      -0.005
       0.004
       0.011
       0.012
       0.009
       0.007
       0.008
       0.010
       0.011
       0.009
       0.006
       0.004
       0.003
       0.001
       0.000
       0.000
       0.002
       0.006
       0.010
       0.012
       0.011
       0.009
       0.005
       0.001
      -0.001
       0.001
       0.005
       0.009
       0.011
       0.012
       0.013
       0.014
       0.013
       0.011
       0.006
       0.001
      -0.001
       0.000
       0.003
       0.004
       0.002
       0.000
       0.001
       0.008
       0.016
       0.020
       0.018
       0.012
       0.009
       0.009
       0.011
       0.012
       0.011
       0.008
       0.004
       0.001
       0.000
       0.000
       0.002
       0.003
       0.004
       0.004
       0.004
       0.004
       0.005
       0.005
       0.006
       0.006
       0.008
       0.008
       0.005
       0.000
      -0.004
      -0.004
      -0.001
       0.002
       0.002
       0.000
      -0.002
      -0.001
       0.004
       0.008
       0.009
       0.007
       0.005
       0.005
       0.006
       0.004
       0.000
      -0.004
      -0.001
       0.008
       0.020
       0.025
       0.022
       0.013
       0.005
       0.005
       0.009
       0.012
       0.011
       0.006
       0.001
       0.002
       0.006
       0.009
       0.008
       0.003
       0.000
       0.000
       0.004
       0.006
       0.006
       0.004
       0.004
       0.007
       0.012
       0.013
       0.009
       0.004
       0.000
       0.002
       0.008
       0.016
       0.022
       0.022
       0.014
       0.002
      -0.005
      -0.005
       0.002
       0.008
       0.006
       0.000
      -0.006
      -0.004
       0.004
       0.012
       0.013
       0.009
       0.003
       0.000
       0.002
       0.005
       0.008
       0.009
       0.010
       0.011
       0.013
       0.012
       0.008
       0.004
       0.000
       0.000
       0.002
       0.005
       0.008
       0.009
       0.009
       0.006
       0.003
       0.001
       0.000
       0.001
       0.002
       0.003
       0.004
       0.005
       0.005
       0.003
       0.000
      -0.003
      -0.005
      -0.004
      -0.003
      -0.003
      -0.003
       0.000
       0.005
       0.010
       0.012
       0.010
       0.004
      -0.001
      -0.004
      -0.004
       0.001
       0.007
       0.010
       0.008
       0.000
      -0.007
      -0.010
      -0.005
       0.004
       0.010
       0.009
       0.002
      -0.006
      -0.008
      -0.003
       0.005
       0.010
       0.011
       0.007
       0.004
       0.005
       0.009
       0.013
       0.015
       0.013
       0.009
       0.006
       0.006
       0.009
       0.011
       0.012
       0.010
       0.006
       0.004
       0.004
       0.005
       0.007
       0.009
       0.010
       0.009
       0.008
       0.006
       0.003
       0.001
      -0.001
      -0.001
       0.000
       0.002
       0.002
       0.000
      -0.002
       0.000
       0.005
       0.008
       0.005
      -0.003
      -0.011
      -0.013
      -0.006
       0.003
       0.007
       0.007
       0.005
       0.006
       0.008
       0.007
       0.001
      -0.006
      -0.008
      -0.004
       0.002
       0.006
       0.006
       0.004
       0.002
       0.001
       0.004
       0.007
       0.011
       0.014
       0.015
       0.012
       0.006
       0.001
      -0.003
      -0.004
      -0.002
       0.002
       0.005
       0.008
       0.010
       0.009
       0.004
      -0.003
      -0.010
      -0.014
      -0.011
      -0.005
       0.000
      -0.001
      -0.006
      -0.011
      -0.009
      -0.001
       0.008
       0.011
       0.007
       0.001
      -0.002
       0.001
       0.007
       0.011
       0.010
       0.007
       0.006
       0.008
       0.010
       0.009
       0.005
       0.001
       0.001
       0.004
       0.007
       0.007
       0.003
      -0.004
      -0.010
      -0.010
      -0.003
       0.006
       0.011
       0.011
       0.008
       0.004
       0.003
       0.004
       0.005
       0.004
       0.004
       0.004
       0.004
       0.004
       0.003
       0.003
       0.004
       0.006
       0.008
       0.011
       0.015
       0.020
       0.020
       0.014
       0.004
      -0.005
      -0.007
      -0.002
       0.005
       0.007
       0.003
      -0.004
      -0.009
      -0.009
      -0.004
       0.003
       0.008
       0.011
       0.010
       0.005
       0.000
      -0.004
      -0.005
      -0.002
       0.000
      -0.001
      -0.007
      -0.013
      -0.014
      -0.009
      -0.001
       0.004
       0.003
       0.000
      -0.003
      -0.004
      -0.004
      -0.005
      -0.005
      -0.004
      -0.002
      -0.001
      -0.004
      -0.010
      -0.015
      -0.017
      -0.014
      -0.008
      -0.002
      -0.002
      -0.008
      -0.013
      -0.012
      -0.005
       0.005
       0.011
       0.009
       0.003
      -0.004
      -0.006
      -0.003
       0.001
       0.004
       0.002
      -0.001
      -0.006
      -0.011
      -0.014
      -0.014
      -0.009
      -0.001
       0.007
       0.011
       0.007
      -0.003
      -0.010
      -0.011
      -0.005
       0.003
       0.005
      -0.001
      -0.008
      -0.011
      -0.006
       0.006
       0.018
       0.023
       0.019
       0.006
      -0.009
      -0.020
      -0.023
      -0.017
      -0.005
       0.006
       0.009
       0.004
      -0.006
      -0.013
      -0.012
      -0.005
       0.003
       0.010
       0.014
       0.014
       0.009
       0.001
      -0.006
      -0.009
      -0.010
      -0.010
      -0.010
      -0.009
      -0.006
      -0.001
       0.003
       0.005
       0.003
       0.001
       0.002
       0.005
       0.006
       0.004
       0.000
      -0.003
      -0.002
       0.000
       0.005
       0.009
       0.011
       0.010
       0.005
      -0.001
      -0.008
      -0.013
      -0.015
      -0.012
      -0.006
       0.002
       0.007
       0.006
       0.001
      -0.004
      -0.006
      -0.002
       0.003
       0.005
       0.003
      -0.003
      -0.008
      -0.008
      -0.003
       0.002
       0.003
      -0.001
      -0.007
      -0.012
      -0.012
      -0.007
       0.000
       0.006
       0.007
       0.000
      -0.011
      -0.018
      -0.015
      -0.003
       0.011
       0.017
       0.013
       0.003
      -0.004
      -0.007
      -0.009
      -0.011
      -0.013
      -0.011
      -0.005
       0.002
       0.005
       0.006
       0.004
       0.002
       0.003
       0.005
       0.006
       0.003
      -0.002
      -0.007
      -0.010
      -0.009
      -0.007
      -0.006
      -0.010
      -0.015
      -0.019
      -0.018
      -0.012
      -0.003
       0.005
       0.008
       0.009
       0.008
       0.008
       0.008
       0.008
       0.008
       0.009
       0.012
       0.014
       0.012
       0.006
      -0.001
      -0.005
      -0.005
      -0.004
      -0.003
      -0.001
       0.003
       0.007
       0.010
       0.008
       0.004
       0.001
       0.000
      -0.001
      -0.002
      -0.004
      -0.004
      -0.001
       0.001
       0.003
       0.004
       0.006
       0.007
       0.006
       0.002
      -0.004
      -0.006
      -0.003
       0.003
       0.007
       0.008
       0.005
       0.002
      -0.002
      -0.004
      -0.005
      -0.003
       0.002
       0.007
       0.008
       0.004
       0.000
      -0.001
       0.000
      -0.001
      -0.004
      -0.005
      -0.003
       0.002
       0.005
       0.003
      -0.003
      -0.008
      -0.007
      -0.002
       0.002
       0.001
      -0.003
      -0.003
       0.002
       0.009
       0.013
       0.009
       0.000
      -0.007
      -0.007
      -0.003
      -0.001
      -0.002
      -0.002
       0.000
       0.004
       0.008
       0.008
       0.005
       0.002
       0.000
       0.000
       0.003
       0.007
       0.010
       0.012
       0.012
       0.014
       0.016
       0.018
       0.017
       0.012
       0.004
      -0.002
      -0.003
       0.001
       0.007
       0.012
       0.014
       0.013
       0.012
       0.013
       0.012
       0.009
       0.006
       0.005
       0.005
       0.007
       0.010
       0.012
       0.016
       0.017
       0.015
       0.010
       0.007
       0.009
       0.016
       0.019
       0.010
      -0.004
      -0.008
       0.005
       0.019
       0.000
      -0.065
      -0.138
      -0.147
      -0.055
       0.096
       0.210
       0.213
       0.112
      -0.011
      -0.068
      -0.031
       0.055
       0.122
       0.127
       0.060
      -0.048
      -0.141
      -0.159
      -0.081
       0.048
       0.133
       0.112
       0.030
      -0.037
      -0.084
      -0.139
      -0.154
      -0.046
       0.154
       0.277
       0.190
      -0.059
      -0.253
      -0.189
       0.085
       0.272
       0.160
      -0.129
      -0.298
      -0.210
       0.008
       0.135
       0.077
      -0.053
      -0.076
       0.047
       0.181
       0.185
       0.060
      -0.067
      -0.073
       0.054
       0.195
       0.185
      -0.025
      -0.288
      -0.381
      -0.204
       0.118
       0.310
       0.181
      -0.171
      -0.396
      -0.243
       0.148
       0.388
       0.283
       0.011
      -0.148
      -0.118
      -0.017
       0.039
       0.050
       0.066
       0.081
       0.042
      -0.028
      -0.032
       0.025
       0.018
      -0.088
      -0.159
      -0.092
       0.040
       0.107
       0.068
      -0.038
      -0.141
      -0.159
      -0.055
       0.123
       0.272
       0.275
       0.051
      -0.311
      -0.486
      -0.200
       0.381
       0.700
       0.373
      -0.369
      -0.863
      -0.633
       0.162
       0.839
       0.796
       0.095
      -0.580
      -0.615
      -0.087
       0.378
       0.318
      -0.110
      -0.374
      -0.154
       0.337
       0.585
       0.290
      -0.330
      -0.731
      -0.538
       0.086
       0.581
       0.520
       0.001
      -0.486
      -0.526
      -0.117
       0.399
       0.647
       0.474
       0.015
      -0.426
      -0.572
      -0.340
       0.106
       0.449
       0.440
       0.111
      -0.255
      -0.387
      -0.259
      -0.026
       0.158
       0.206
       0.091
      -0.105
      -0.203
      -0.116
       0.053
       0.161
       0.169
       0.115
       0.039
      -0.022
      -0.064
      -0.111
      -0.143
      -0.072
       0.120
       0.280
       0.218
      -0.065
      -0.341
      -0.354
      -0.072
       0.249
       0.305
       0.076
      -0.146
      -0.105
       0.127
       0.252
       0.085
      -0.260
      -0.489
      -0.387
       0.018
       0.460
       0.621
       0.380
      -0.091
      -0.443
      -0.416
      -0.055
       0.308
       0.343
       0.026
      -0.323
      -0.335
       0.021
       0.385
       0.354
      -0.074
      -0.472
      -0.423
       0.054
       0.535
       0.602
       0.209
      -0.307
      -0.556
      -0.417
      -0.055
       0.267
       0.362
       0.190
      -0.111
      -0.285
      -0.175
       0.107
       0.274
       0.154
      -0.125
      -0.263
      -0.101
       0.210
       0.366
       0.228
      -0.058
      -0.248
      -0.224
      -0.055
       0.086
       0.063
      -0.091
      -0.194
      -0.121
       0.053
       0.163
       0.166
       0.125
       0.061
      -0.056
      -0.173
      -0.155
       0.018
       0.181
       0.175
       0.041
      -0.071
      -0.094
      -0.068
      -0.023
       0.052
       0.133
       0.121
      -0.051
      -0.279
      -0.336
      -0.119
       0.240
       0.560
       0.800
       0.938
       0.750
      -0.041
      -1.261
      -2.130
      -1.899
      -0.656
       0.711
       1.361
       1.175
       0.637
       0.278
       0.240
       0.250
      -0.043
      -0.687
      -1.304
      -1.297
      -0.282
       1.426
       2.697
       2.315
       0.194
      -2.233
      -3.165
      -2.004
       0.232
       1.856
       1.787
       0.283
      -1.236
      -1.292
       0.356
       2.353
       2.811
       0.936
      -2.131
      -4.081
      -3.297
      -0.265
       2.785
       3.708
       2.081
      -0.657
      -2.441
      -2.124
      -0.249
       1.521
       1.841
       0.721
      -0.724
      -1.362
      -0.873
       0.254
       1.222
       1.416
       0.695
      -0.530
      -1.494
      -1.535
      -0.569
       0.743
       1.408
       0.926
      -0.196
      -0.915
      -0.697
       0.039
       0.488
       0.304
      -0.138
      -0.201
       0.301
       0.849
       0.747
      -0.119
      -1.135
      -1.508
      -0.944
       0.095
       0.778
       0.656
       0.069
      -0.282
      -0.079
       0.434
       0.821
       0.746
       0.089
      -0.859
      -1.374
      -0.884
       0.352
       1.362
       1.309
       0.218
      -1.016
      -1.304
      -0.319
       1.071
       1.496
       0.440
      -1.181
      -1.886
      -1.010
       0.744
       1.950
       1.659
       0.170
      -1.245
      -1.496
      -0.645
       0.309
       0.542
       0.127
      -0.300
      -0.308
       0.021
       0.367
       0.514
       0.445
       0.238
      -0.040
      -0.322
      -0.437
      -0.200
       0.334
       0.792
       0.771
       0.172
      -0.690
      -1.242
      -1.047
      -0.241
       0.493
       0.566
       0.104
      -0.204
       0.072
       0.583
       0.648
       0.105
      -0.506
      -0.601
      -0.171
       0.305
       0.411
       0.164
      -0.104
      -0.152
      -0.053
      -0.016
      -0.115
      -0.262
      -0.375
      -0.396
      -0.189
       0.365
       1.068
       1.380
       0.900
      -0.160
      -1.096
      -1.332
      -0.858
      -0.132
       0.338
       0.367
       0.173
       0.106
       0.258
       0.375
       0.168
      -0.346
      -0.804
      -0.757
      -0.079
       0.812
       1.190
       0.649
      -0.451
      -1.216
      -0.995
       0.030
       0.983
       1.073
       0.291
      -0.618
      -0.849
      -0.240
       0.641
       1.020
       0.566
      -0.334
      -0.920
      -0.736
      -0.020
       0.555
       0.498
      -0.130
      -0.804
      -0.964
      -0.456
       0.348
       0.887
       0.870
       0.447
      -0.026
      -0.298
      -0.315
      -0.149
       0.052
       0.125
       0.024
      -0.104
      -0.049
       0.206
       0.426
       0.360
       0.005
      -0.391
      -0.560
      -0.398
      -0.011
       0.348
       0.413
       0.120
      -0.292
      -0.484
      -0.351
      -0.080
       0.107
       0.173
       0.216
       0.292
       0.330
       0.207
      -0.098
      -0.397
      -0.422
      -0.106
       0.304
       0.480
       0.307
      -0.074
      -0.424
      -0.531
      -0.298
       0.182
       0.609
       0.658
       0.250
      -0.334
      -0.670
      -0.546
      -0.144
       0.162
       0.177
       0.042
       0.028
       0.229
       0.450
       0.402
       0.006
      -0.483
      -0.690
      -0.453
       0.050
       0.471
       0.563
       0.324
      -0.055
      -0.360
      -0.472
      -0.371
      -0.097
       0.239
       0.449
       0.382
       0.064
      -0.300
      -0.470
      -0.322
       0.065
       0.427
       0.483
       0.178
      -0.246
      -0.446
      -0.262
       0.141
       0.424
       0.366
       0.057
      -0.204
      -0.210
      -0.050
       0.015
      -0.125
      -0.281
      -0.193
       0.138
       0.412
       0.353
       0.013
      -0.277
      -0.260
       0.001
       0.216
       0.189
      -0.003
      -0.133
      -0.078
       0.078
       0.151
       0.041
      -0.188
      -0.361
      -0.350
      -0.170
       0.058
       0.224
       0.306
       0.342
       0.363
       0.323
       0.141
      -0.166
      -0.430
      -0.476
      -0.311
      -0.092
       0.056
       0.139
       0.213
       0.270
       0.242
       0.100
      -0.077
      -0.181
      -0.198
      -0.201
      -0.213
      -0.143
       0.082
       0.353
       0.436
       0.216
      -0.150
      -0.359
      -0.242
       0.073
       0.284
       0.195
      -0.098
      -0.313
      -0.247
       0.038
       0.267
       0.215
      -0.086
      -0.373
      -0.405
      -0.175
       0.117
       0.269
       0.254
       0.185
       0.157
       0.155
       0.091
      -0.093
      -0.349
      -0.528
      -0.471
      -0.136
       0.330
       0.652
       0.621
       0.261
      -0.192
      -0.472
      -0.464
      -0.234
       0.064
       0.290
       0.361
       0.253
       0.015
      -0.219
      -0.298
      -0.172
       0.067
       0.266
       0.317
       0.200
      -0.025
      -0.236
      -0.304
      -0.194
      -0.002
       0.133
       0.148
       0.078
       0.002
      -0.037
      -0.052
      -0.067
      -0.071
      -0.018
       0.093
       0.176
       0.136
       0.007
      -0.076
      -0.044
       0.003
      -0.065
      -0.216
      -0.257
      -0.050
       0.304
       0.512
       0.345
      -0.111
      -0.491
      -0.463
      -0.064
       0.339
       0.422
       0.207
      -0.040
      -0.127
      -0.082
      -0.038
      -0.057
      -0.092
      -0.070
       0.012
       0.083
       0.083
       0.025
      -0.039
      -0.076
      -0.084
      -0.071
      -0.048
      -0.017
       0.024
       0.076
       0.121
       0.124
       0.069
      -0.010
      -0.059
      -0.065
      -0.057
      -0.046
      -0.010
       0.055
       0.108
       0.091
      -0.008
      -0.138
      -0.203
      -0.114
       0.121
       0.356
       0.396
       0.157
      -0.234
      -0.508
      -0.459
      -0.113
       0.281
       0.468
       0.378
       0.138
      -0.075
      -0.165
      -0.148
