Origin Time       26/2/2010 4:42:33	  UTC
Lat.              28.5 N	
Long.             86.7 E	
Depth (Km)         28.0
Magnitude         5.4
 Region           Tibet                                                            
 Above details taken from IMD 
    
Station Code      DJL
Station Lat.       27.050  N
Station Long.      88.262  E
Station Height(m)  393.0
Site Class        A   Vs30 between 700 m/sec to 1400 m/sec * 
Record Time       26.02.2010 04:43:20.079 UTC
Sampling Rate     200. Hz
 Record Duration   71.075 Sec.
 Direction         N-S (N positive)
Max. Acceleration     -3.185 cm/sec**2
     
  * For reference see Site Classification link of website 
     
 Base Line Corrected and Low Pass Filtered (Cut Off at 35 Hz) Time History
 Acceleration data in cm/sec**2
    
[...]
       2.882
       2.795
       2.653
       2.507
       2.392
       2.304
       2.213
       2.092
       1.938
       1.768
       1.597
       1.430
       1.261
       1.087
       0.893
       0.652
       0.325
      -0.120
      -0.680
      -1.312
      -1.938
      -2.476
      -2.861
      -3.067
      -3.111
      -3.050
      -2.950
      -2.856
      -2.760
      -2.617
      -2.379
      -2.041
      -1.650
      -1.264
      -0.912
      -0.579
      -0.242
       0.094
       0.381
       0.555
       0.575
       0.446
       0.206
      -0.099
      -0.417
      -0.688
      -0.845
      -0.838
      -0.656
      -0.337
       0.058
       0.471
       0.856
       1.180
       1.419
       1.563
       1.622
       1.617
       1.556
       1.434
       1.251
       1.030
       0.808
       0.605
       0.384
       0.072
      -0.383
      -0.960
      -1.556
      -2.051
      -2.374
      -2.536
      -2.593
      -2.583
      -2.500
      -2.310
      -1.998
      -1.594
      -1.158
      -0.746
      -0.390
      -0.107
       0.086
       0.174
       0.161
       0.066
      -0.082
      -0.253
      -0.406
      -0.484
      -0.430
      -0.231
       0.059
       0.351
       0.594
       0.810
       1.067
       1.403
       1.784
       2.135
       2.408
       2.608
       2.758
       2.855
       2.856
       2.723
       2.464
       2.135
       1.805
       1.517
       1.292
       1.140
       1.063
       1.037
       1.014
       0.946
       0.818
       0.659
       0.514
       0.412
       0.336
       0.230
       0.033
      -0.292
      -0.726
      -1.202
      -1.643
      -2.005
      -2.291
      -2.517
      -2.669
      -2.697
      -2.560
      -2.280
      -1.947
      -1.671
      -1.505
      -1.419
      -1.349
      -1.258
      -1.168
      -1.117
      -1.098
      -1.042
      -0.873
      -0.582
      -0.248
       0.024
       0.190
       0.298
       0.438
       0.666
       0.952
       1.212
       1.358
       1.352
       1.213
       0.999
       0.781
       0.607
       0.480
       0.375
       0.276
       0.208
       0.213
       0.305
       0.428
       0.489
       0.429
       0.275
       0.101
      -0.039
      -0.155
      -0.279
      -0.390
      -0.400
      -0.223
       0.138
       0.560
       0.888
       1.044
       1.077
       1.098
       1.171
       1.252
       1.231
       1.032
       0.681
       0.288
      -0.042
      -0.277
      -0.456
      -0.637
      -0.841
      -1.046
      -1.216
      -1.316
      -1.311
      -1.171
      -0.894
      -0.521
      -0.134
       0.183
       0.380
       0.447
       0.410
       0.315
       0.227
       0.217
       0.328
       0.545
       0.776
       0.900
       0.843
       0.634
       0.391
       0.227
       0.162
       0.115
      -0.010
      -0.234
      -0.473
      -0.610
      -0.576
      -0.400
      -0.175
       0.000
       0.074
       0.055
      -0.014
      -0.087
      -0.149
      -0.206
      -0.271
      -0.342
      -0.401
      -0.433
      -0.433
      -0.419
      -0.408
      -0.405
      -0.392
      -0.337
      -0.225
      -0.079
       0.041
       0.077
       0.017
      -0.094
      -0.180
      -0.189
      -0.118
      -0.007
       0.090
       0.141
       0.143
       0.128
       0.150
       0.255
       0.462
       0.741
       1.020
       1.214
       1.268
       1.182
       1.004
       0.792
       0.588
       0.403
       0.240
       0.107
       0.009
      -0.063
      -0.144
      -0.273
      -0.466
      -0.695
      -0.893
      -1.003
      -1.012
      -0.964
      -0.922
      -0.920
      -0.944
      -0.945
      -0.883
      -0.755
      -0.601
      -0.473
      -0.405
      -0.403
      -0.456
      -0.554
      -0.707
      -0.940
      -1.253
      -1.583
      -1.799
      -1.774
      -1.472
      -0.985
      -0.471
      -0.060
       0.207
       0.357
       0.428
       0.442
       0.416
       0.380
       0.362
       0.369
       0.389
       0.419
       0.491
       0.646
       0.891
       1.183
       1.445
       1.614
       1.657
       1.569
       1.362
       1.062
       0.718
       0.392
       0.145
       0.014
       0.005
       0.098
       0.257
       0.437
       0.596
       0.711
       0.777
       0.817
       0.846
       0.840
       0.728
       0.437
      -0.037
      -0.585
      -1.034
      -1.258
      -1.254
      -1.126
      -0.982
      -0.850
      -0.684
      -0.442
      -0.155
       0.079
       0.168
       0.098
      -0.073
      -0.273
      -0.461
      -0.624
      -0.734
      -0.734
      -0.578
      -0.291
       0.033
       0.285
       0.414
       0.434
       0.383
       0.288
       0.163
       0.040
      -0.041
      -0.056
      -0.015
       0.052
       0.134
       0.257
       0.450
       0.713
       1.007
       1.276
       1.470
       1.561
       1.548
       1.460
       1.336
       1.201
       1.048
       0.859
       0.639
       0.432
       0.281
       0.191
       0.114
       0.000
      -0.165
      -0.353
      -0.522
      -0.638
      -0.675
      -0.610
      -0.448
      -0.244
      -0.102
      -0.122
      -0.331
      -0.675
      -1.057
      -1.402
      -1.670
      -1.842
      -1.898
      -1.825
      -1.658
      -1.493
      -1.432
      -1.514
      -1.669
      -1.766
      -1.708
      -1.499
      -1.228
      -0.990
      -0.813
      -0.648
      -0.440
      -0.188
       0.040
       0.161
       0.153
       0.075
       0.022
       0.064
       0.200
       0.382
       0.562
       0.731
       0.919
       1.147
       1.392
       1.581
       1.654
       1.632
       1.633
       1.795
       2.163
       2.621
       2.968
       3.055
       2.898
       2.650
       2.464
       2.376
       2.312
       2.182
       1.953
       1.636
       1.223
       0.661
      -0.086
      -0.960
      -1.808
      -2.468
      -2.867
      -3.043
      -3.094
      -3.095
      -3.060
      -2.958
      -2.758
      -2.461
      -2.099
      -1.709
      -1.319
      -0.943
      -0.591
      -0.273
       0.007
       0.251
       0.450
       0.575
       0.576
       0.429
       0.181
      -0.045
      -0.119
       0.004
       0.235
       0.413
       0.413
       0.234
      -0.027
      -0.271
      -0.479
      -0.706
      -1.000
      -1.333
      -1.607
      -1.726
      -1.668
      -1.479
      -1.217
      -0.893
      -0.482
       0.030
       0.596
       1.116
       1.491
       1.679
       1.718
       1.691
       1.662
       1.631
       1.548
       1.375
       1.144
       0.939
       0.824
       0.790
       0.759
       0.655
       0.453
       0.179
      -0.126
      -0.436
      -0.739
      -0.999
      -1.151
      -1.122
      -0.887
      -0.495
      -0.051
       0.341
       0.631
       0.829
       0.961
       1.024
       0.984
       0.818
       0.553
       0.275
       0.075
      -0.001
       0.033
       0.146
       0.323
       0.566
       0.865
       1.170
       1.400
       1.493
       1.438
       1.268
       1.022
       0.709
       0.315
      -0.149
      -0.611
      -0.961
      -1.118
      -1.084
      -0.934
      -0.745
      -0.543
      -0.308
      -0.042
       0.188
       0.266
       0.114
      -0.241
      -0.671
      -1.035
      -1.262
      -1.374
      -1.440
      -1.497
      -1.524
      -1.481
      -1.360
      -1.208
      -1.101
      -1.075
      -1.095
      -1.066
      -0.897
      -0.575
      -0.176
       0.182
       0.415
       0.516
       0.542
       0.555
       0.573
       0.575
       0.528
       0.422
       0.276
       0.125
       0.001
      -0.081
      -0.130
      -0.176
      -0.258
      -0.402
      -0.598
      -0.799
      -0.938
      -0.970
      -0.883
      -0.683
      -0.365
       0.084
       0.663
       1.321
       1.958
       2.458
       2.737
       2.771
       2.609
       2.346
       2.074
       1.831
       1.589
       1.295
       0.927
       0.521
       0.148
      -0.128
      -0.276
      -0.291
      -0.192
      -0.023
       0.153
       0.264
       0.260
       0.125
      -0.123
      -0.445
      -0.788
      -1.105
      -1.356
      -1.516
      -1.565
      -1.491
      -1.288
      -0.977
      -0.601
      -0.209
       0.164
       0.500
       0.774
       0.937
       0.921
       0.687
       0.257
      -0.290
      -0.861
      -1.388
      -1.827
      -2.139
      -2.270
      -2.183
      -1.898
      -1.494
      -1.057
      -0.617
      -0.143
       0.394
       0.944
       1.374
       1.536
       1.363
       0.909
       0.307
      -0.299
      -0.804
      -1.161
      -1.352
      -1.377
      -1.248
      -0.989
      -0.646
      -0.275
       0.083
       0.422
       0.770
       1.158
       1.567
       1.913
       2.078
       1.985
       1.669
       1.270
       0.958
       0.821
       0.825
       0.854
       0.809
       0.679
       0.522
       0.396
       0.301
       0.190
       0.014
      -0.229
      -0.483
      -0.671
      -0.755
      -0.762
      -0.764
      -0.811
      -0.879
      -0.889
      -0.784
      -0.585
      -0.373
      -0.206
      -0.065
       0.122
       0.406
       0.760
       1.096
       1.333
       1.447
       1.460
       1.388
       1.201
       0.838
       0.269
      -0.454
      -1.202
      -1.843
      -2.322
      -2.671
      -2.937
      -3.105
      -3.085
      -2.784
      -2.189
      -1.393
      -0.534
       0.280
       0.994
       1.581
       2.003
       2.219
       2.211
       1.998
       1.612
       1.078
       0.416
      -0.326
      -1.066
      -1.692
      -2.099
      -2.202
      -1.957
      -1.382
      -0.582
       0.249
       0.899
       1.241
       1.298
       1.215
       1.139
       1.131
       1.153
       1.147
       1.100
       1.057
       1.080
       1.204
       1.419
       1.674
       1.888
       1.979
       1.885
       1.598
       1.162
       0.660
       0.181
      -0.204
      -0.449
      -0.546
      -0.524
      -0.433
      -0.335
      -0.281
      -0.298
      -0.384
      -0.506
      -0.615
      -0.673
      -0.678
      -0.667
      -0.693
      -0.795
      -0.960
      -1.127
      -1.221
      -1.220
      -1.180
      -1.200
      -1.332
      -1.508
      -1.580
      -1.431
      -1.077
      -0.660
      -0.328
      -0.109
       0.088
       0.370
       0.745
       1.124
       1.404
       1.556
       1.616
       1.620
       1.551
       1.363
       1.040
       0.627
       0.214
      -0.130
      -0.396
      -0.616
      -0.829
      -1.037
      -1.209
      -1.312
      -1.332
      -1.271
      -1.138
      -0.948
      -0.724
      -0.493
      -0.265
      -0.016
       0.296
       0.679
       1.080
       1.405
       1.583
       1.612
       1.539
       1.398
       1.169
       0.812
       0.320
      -0.243
      -0.780
      -1.226
      -1.576
      -1.844
      -2.020
      -2.053
      -1.904
      -1.592
      -1.198
      -0.811
      -0.478
      -0.181
       0.123
       0.462
       0.814
       1.117
       1.306
       1.343
       1.242
       1.050
       0.823
       0.599
       0.391
       0.208
       0.077
       0.042
       0.128
       0.308
       0.512
       0.673
       0.775
       0.855
       0.964
       1.102
       1.212
       1.208
       1.042
       0.734
       0.363
       0.015
      -0.264
      -0.488
      -0.692
      -0.895
      -1.078
      -1.212
      -1.296
      -1.364
      -1.453
      -1.564
      -1.652
      -1.655
      -1.523
      -1.224
      -0.753
      -0.146
       0.522
       1.154
       1.678
       2.067
       2.324
       2.444
       2.397
       2.151
       1.708
       1.126
       0.500
      -0.070
      -0.517
      -0.826
      -1.029
      -1.163
      -1.245
      -1.264
      -1.216
      -1.131
      -1.068
      -1.071
      -1.124
      -1.154
      -1.087
      -0.906
      -0.658
      -0.400
      -0.142
       0.172
       0.596
       1.111
       1.594
       1.889
       1.913
       1.717
       1.438
       1.186
       0.962
       0.680
       0.281
      -0.179
      -0.553
      -0.718
      -0.684
      -0.573
      -0.509
      -0.513
      -0.507
      -0.421
      -0.273
      -0.162
      -0.175
      -0.309
      -0.477
      -0.595
      -0.641
      -0.644
      -0.620
      -0.537
      -0.355
      -0.078
       0.230
       0.502
       0.713
       0.872
       0.971
       0.956
       0.759
       0.369
      -0.145
      -0.667
      -1.091
      -1.362
      -1.464
      -1.403
      -1.208
      -0.930
      -0.637
      -0.391
      -0.210
      -0.070
       0.064
       0.194
       0.284
       0.289
       0.206
       0.074
      -0.049
      -0.128
      -0.150
      -0.112
      -0.011
       0.158
       0.394
       0.684
       1.008
       1.332
       1.604
       1.758
       1.742
       1.550
       1.233
       0.876
       0.539
       0.239
      -0.030
      -0.254
      -0.398
      -0.449
      -0.436
      -0.404
      -0.343
      -0.176
       0.163
       0.640
       1.112
       1.414
       1.464
       1.292
       0.977
       0.567
       0.053
      -0.582
      -1.311
      -2.037
      -2.635
      -3.021
      -3.185
      -3.177
      -3.042
      -2.773
      -2.325
      -1.683
      -0.918
      -0.166
       0.458
       0.922
       1.272
       1.559
       1.769
       1.827
       1.661
       1.267
       0.728
       0.175
      -0.264
      -0.507
      -0.525
      -0.346
      -0.049
       0.258
       0.477
       0.566
       0.538
       0.438
       0.298
       0.130
      -0.069
      -0.304
      -0.571
      -0.847
      -1.063
      -1.117
      -0.923
      -0.475
       0.135
       0.757
       1.256
       1.562
       1.674
       1.637
       1.512
       1.361
       1.228
       1.116
       0.993
       0.821
       0.597
       0.362
       0.171
       0.047
      -0.041
      -0.140
      -0.275
      -0.417
      -0.514
      -0.536
      -0.507
      -0.479
      -0.482
      -0.496
      -0.469
      -0.369
      -0.225
      -0.111
      -0.096
      -0.191
      -0.339
      -0.451
      -0.471
      -0.413
      -0.353
      -0.374
      -0.506
      -0.705
      -0.874
      -0.912
      -0.779
      -0.516
      -0.234
      -0.049
      -0.018
      -0.113
      -0.254
      -0.370
      -0.433
      -0.451
      -0.433
      -0.367
      -0.241
      -0.063
       0.126
       0.280
       0.383
       0.459
       0.557
       0.702
       0.861
       0.963
       0.944
       0.805
       0.606
       0.425
       0.299
       0.213
       0.135
       0.061
       0.019
       0.036
       0.096
       0.154
       0.178
       0.193
       0.267
       0.447
       0.700
       0.926
       1.025
       0.984
       0.879
       0.805
       0.802
       0.829
       0.819
       0.735
       0.575
       0.351
       0.074
      -0.236
      -0.532
      -0.771
      -0.948
      -1.117
      -1.333
      -1.597
      -1.843
      -1.984
      -1.973
      -1.814
      -1.541
      -1.187
      -0.773
      -0.310
       0.177
       0.634
       0.982
       1.166
       1.196
       1.152
       1.113
       1.072
       0.932
       0.610
       0.139
      -0.323
      -0.610
      -0.668
      -0.572
      -0.432
      -0.291
      -0.130
       0.062
       0.228
       0.278
       0.168
      -0.051
      -0.263
      -0.367
      -0.337
      -0.220
      -0.096
      -0.027
      -0.024
      -0.052
      -0.053
       0.005
       0.110
       0.218
       0.289
       0.311
       0.296
       0.258
       0.207
       0.160
       0.151
       0.215
       0.352
       0.519
       0.658
       0.729
       0.725
       0.644
       0.486
       0.252
      -0.029
      -0.303
      -0.529
      -0.718
      -0.920
      -1.180
      -1.482
      -1.754
      -1.907
      -1.899
      -1.738
      -1.450
      -1.049
      -0.544
       0.027
       0.582
       1.029
       1.309
       1.417
       1.386
       1.251
       1.030
       0.724
       0.345
      -0.070
      -0.452
      -0.721
      -0.822
      -0.748
      -0.535
      -0.238
       0.092
       0.413
       0.675
       0.828
       0.838
       0.712
       0.498
       0.257
       0.019
      -0.227
      -0.495
      -0.754
      -0.924
      -0.912
      -0.677
      -0.264
       0.217
       0.638
       0.902
       0.968
       0.856
       0.632
       0.367
       0.098
      -0.179
      -0.473
      -0.759
      -0.976
      -1.063
      -1.000
      -0.804
      -0.493
      -0.068
       0.456
       1.005
       1.440
       1.631
       1.546
       1.274
       0.964
       0.720
       0.547
       0.385
       0.177
      -0.072
      -0.311
      -0.477
      -0.547
      -0.535
      -0.461
      -0.328
      -0.120
       0.152
       0.431
       0.627
       0.683
       0.624
       0.546
       0.544
       0.623
       0.687
       0.609
       0.344
      -0.012
      -0.283
      -0.339
      -0.206
      -0.042
      -0.018
      -0.179
      -0.427
      -0.620
      -0.689
      -0.662
      -0.592
      -0.479
      -0.284
       0.001
       0.307
       0.522
       0.575
       0.480
       0.316
       0.153
       0.002
      -0.178
      -0.417
      -0.690
      -0.927
      -1.068
      -1.109
      -1.095
      -1.078
      -1.077
      -1.086
      -1.101
      -1.124
      -1.137
      -1.074
      -0.833
      -0.356
       0.305
       0.987
       1.513
       1.803
       1.897
       1.890
       1.829
       1.684
       1.403
       0.998
       0.568
       0.230
       0.040
      -0.031
      -0.044
      -0.022
       0.057
       0.212
       0.406
       0.562
       0.614
       0.560
       0.453
       0.339
       0.204
      -0.017
      -0.377
      -0.851
      -1.334
      -1.701
      -1.887
      -1.917
      -1.857
      -1.742
      -1.537
      -1.193
      -0.726
      -0.246
       0.104
       0.252
       0.230
       0.115
      -0.054
      -0.288
      -0.589
      -0.887
      -1.054
      -1.000
      -0.742
      -0.403
      -0.121
       0.041
       0.124
       0.216
       0.376
       0.593
       0.798
       0.920
       0.919
       0.794
       0.569
       0.296
       0.062
      -0.030
       0.093
       0.423
       0.866
       1.289
       1.583
       1.700
       1.644
       1.448
       1.162
       0.845
       0.555
       0.322
       0.128
      -0.073
      -0.293
      -0.474
      -0.507
      -0.323
       0.036
       0.434
       0.729
       0.871
       0.908
       0.913
       0.904
       0.831
       0.627
       0.274
      -0.187
      -0.692
      -1.200
      -1.684
      -2.100
      -2.365
      -2.398
      -2.177
      -1.776
      -1.335
      -0.979
      -0.739
      -0.541
      -0.273
       0.107
       0.524
       0.829
       0.912
       0.767
       0.488
       0.196
      -0.030
      -0.158
