Origin Time       03/06/2011 00:53:21 UTC
Lat.              27.5 N	
Long.             88.0 E	
Depth (Km)         26.0
Magnitude         4.9
Region            India(Sikkim)-Nepar-Border                                       
 Above details taken from IMD 
    
Station Code      DJL
Station Lat.       27.050  N
Station Long.      88.262  E
Station Height(m)  393.0
Site Class        A   Vs30 between 700 m/sec to 1620 m/sec * 
Record Time       03.06.2011 00:53:25.319 UTC
Sampling Rate     200. Hz
Record Duration    85.365 Sec.
Direction         N-S (N positive)
Max. Acceleration    -10.924 cm/sec**2
     
  * For reference see Site Classification link of website 
     
 Base Line Corrected and Low Pass Filtered (Cut Off at 35 Hz) Time History
 Acceleration data in cm/sec**2
    
[...]
       0.167
       0.235
       0.341
       0.422
       0.381
       0.159
      -0.200
      -0.568
      -0.808
      -0.861
      -0.764
      -0.604
      -0.445
      -0.302
      -0.162
      -0.028
       0.065
       0.064
      -0.062
      -0.290
      -0.539
      -0.706
      -0.729
      -0.633
      -0.516
      -0.474
      -0.530
      -0.606
      -0.588
      -0.413
      -0.111
       0.223
       0.512
       0.734
       0.916
       1.078
       1.212
       1.295
       1.331
       1.354
       1.396
       1.444
       1.431
       1.276
       0.941
       0.468
      -0.023
      -0.386
      -0.530
      -0.477
      -0.349
      -0.285
      -0.337
      -0.439
      -0.479
      -0.407
      -0.285
      -0.239
      -0.356
      -0.614
      -0.886
      -1.033
      -0.982
      -0.762
      -0.475
      -0.219
      -0.039
       0.079
       0.170
       0.248
       0.295
       0.283
       0.210
       0.100
      -0.008
      -0.082
      -0.117
      -0.138
      -0.181
      -0.260
      -0.352
      -0.407
      -0.395
      -0.325
      -0.235
      -0.155
      -0.087
      -0.019
       0.055
       0.129
       0.196
       0.249
       0.303
       0.397
       0.586
       0.903
       1.304
       1.659
       1.808
       1.656
       1.232
       0.667
       0.123
      -0.287
      -0.527
      -0.622
      -0.629
      -0.607
      -0.613
      -0.679
      -0.801
      -0.924
      -0.973
      -0.902
      -0.735
      -0.558
      -0.465
      -0.497
      -0.613
      -0.722
      -0.740
      -0.631
      -0.422
      -0.171
       0.068
       0.269
       0.434
       0.586
       0.747
       0.930
       1.117
       1.252
       1.248
       1.023
       0.567
      -0.031
      -0.605
      -1.000
      -1.156
      -1.117
      -0.986
      -0.841
      -0.690
      -0.498
      -0.240
       0.057
       0.327
       0.504
       0.563
       0.530
       0.458
       0.395
       0.352
       0.299
       0.192
       0.027
      -0.137
      -0.196
      -0.075
       0.220
       0.609
       0.988
       1.284
       1.471
       1.547
       1.508
       1.331
       0.991
       0.496
      -0.086
      -0.640
      -1.051
      -1.262
      -1.289
      -1.197
      -1.049
      -0.885
      -0.734
      -0.626
      -0.602
      -0.695
      -0.890
      -1.104
      -1.197
      -1.050
      -0.640
      -0.072
       0.482
       0.882
       1.092
       1.160
       1.160
       1.137
       1.105
       1.058
       0.971
       0.794
       0.476
       0.022
      -0.463
      -0.801
      -0.853
      -0.625
      -0.272
       0.008
       0.106
       0.051
      -0.051
      -0.105
      -0.080
      -0.006
       0.077
       0.143
       0.192
       0.233
       0.270
       0.301
       0.328
       0.362
       0.419
       0.495
       0.550
       0.526
       0.393
       0.181
      -0.028
      -0.165
      -0.229
      -0.284
      -0.398
      -0.572
      -0.728
      -0.762
      -0.625
      -0.356
      -0.060
       0.158
       0.245
       0.200
       0.042
      -0.234
      -0.642
      -1.162
      -1.690
      -2.052
      -2.085
      -1.733
      -1.085
      -0.327
       0.345
       0.807
       1.033
       1.093
       1.096
       1.126
       1.193
       1.229
       1.143
       0.887
       0.493
       0.049
      -0.339
      -0.577
      -0.613
      -0.468
      -0.247
      -0.082
      -0.040
      -0.062
      -0.007
       0.221
       0.576
       0.889
       0.980
       0.786
       0.388
      -0.037
      -0.323
      -0.380
      -0.220
       0.059
       0.311
       0.408
       0.307
       0.080
      -0.143
      -0.257
      -0.250
      -0.183
      -0.123
      -0.102
      -0.124
      -0.188
      -0.282
      -0.365
      -0.374
      -0.275
      -0.107
       0.047
       0.123
       0.134
       0.152
       0.229
       0.334
       0.360
       0.212
      -0.110
      -0.493
      -0.775
      -0.847
      -0.702
      -0.416
      -0.085
       0.220
       0.463
       0.625
       0.691
       0.649
       0.499
       0.261
      -0.032
      -0.339
      -0.616
      -0.810
      -0.882
      -0.823
      -0.658
      -0.428
      -0.161
       0.127
       0.416
       0.663
       0.803
       0.784
       0.593
       0.276
      -0.079
      -0.371
      -0.532
      -0.547
      -0.448
      -0.273
      -0.049
       0.203
       0.441
       0.603
       0.642
       0.571
       0.446
       0.328
       0.231
       0.129
       0.010
      -0.099
      -0.143
      -0.088
       0.063
       0.279
       0.514
       0.695
       0.717
       0.491
       0.017
      -0.578
      -1.100
      -1.404
      -1.474
      -1.400
      -1.282
      -1.135
      -0.900
      -0.506
       0.048
       0.689
       1.302
       1.776
       2.033
       2.038
       1.810
       1.414
       0.941
       0.466
       0.029
      -0.352
      -0.645
      -0.803
      -0.791
      -0.642
      -0.458
      -0.368
      -0.450
      -0.669
      -0.899
      -0.993
      -0.880
      -0.607
      -0.295
      -0.047
       0.112
       0.228
       0.354
       0.500
       0.634
       0.713
       0.701
       0.568
       0.295
      -0.103
      -0.557
      -0.941
      -1.122
      -1.012
      -0.622
      -0.063
       0.487
       0.852
       0.939
       0.779
       0.503
       0.263
       0.147
       0.141
       0.155
       0.092
      -0.079
      -0.315
      -0.522
      -0.605
      -0.505
      -0.228
       0.146
       0.476
       0.636
       0.598
       0.459
       0.354
       0.350
       0.420
       0.494
       0.529
       0.509
       0.422
       0.264
       0.083
      -0.033
      -0.040
      -0.010
      -0.099
      -0.414
      -0.923
      -1.486
      -1.973
      -2.329
      -2.523
      -2.468
      -2.034
      -1.156
       0.048
       1.293
       2.253
       2.726
       2.717
       2.397
       1.992
       1.659
       1.427
       1.219
       0.932
       0.516
       0.012
      -0.474
      -0.833
      -1.009
      -1.008
      -0.877
      -0.679
      -0.478
      -0.321
      -0.222
      -0.146
      -0.024
       0.185
       0.440
       0.615
       0.585
       0.325
      -0.052
      -0.362
      -0.458
      -0.303
       0.026
       0.383
       0.590
       0.481
      -0.017
      -0.808
      -1.625
      -2.146
      -2.173
      -1.747
      -1.107
      -0.542
      -0.219
      -0.121
      -0.109
      -0.034
       0.167
       0.449
       0.690
       0.756
       0.572
       0.182
      -0.246
      -0.508
      -0.478
      -0.189
       0.204
       0.531
       0.711
       0.776
       0.822
       0.935
       1.140
       1.393
       1.592
       1.613
       1.370
       0.867
       0.229
      -0.338
      -0.658
      -0.686
      -0.532
      -0.383
      -0.390
      -0.589
      -0.918
      -1.261
      -1.489
      -1.475
      -1.142
      -0.528
       0.187
       0.743
       0.954
       0.812
       0.467
       0.120
      -0.095
      -0.133
      -0.018
       0.175
       0.331
       0.335
       0.150
      -0.134
      -0.351
      -0.376
      -0.228
      -0.045
       0.033
      -0.026
      -0.135
      -0.173
      -0.071
       0.153
       0.429
       0.669
       0.789
       0.718
       0.422
      -0.062
      -0.625
      -1.131
      -1.478
      -1.631
      -1.601
      -1.419
      -1.132
      -0.801
      -0.486
      -0.199
       0.109
       0.501
       0.983
       1.476
       1.849
       2.002
       1.910
       1.638
       1.315
       1.081
       1.008
       1.039
       1.004
       0.731
       0.181
      -0.504
      -1.079
      -1.342
      -1.242
      -0.884
      -0.453
      -0.115
       0.053
       0.079
       0.048
       0.048
       0.114
       0.229
       0.362
       0.488
       0.586
       0.615
       0.519
       0.261
      -0.141
      -0.617
      -1.085
      -1.487
      -1.789
      -1.971
      -2.015
      -1.910
      -1.661
      -1.294
      -0.860
      -0.431
      -0.091
       0.100
       0.129
       0.046
      -0.059
      -0.095
      -0.011
       0.198
       0.506
       0.863
       1.205
       1.447
       1.500
       1.323
       0.961
       0.540
       0.200
       0.010
      -0.063
      -0.103
      -0.159
      -0.194
      -0.122
       0.118
       0.489
       0.850
       1.019
       0.888
       0.501
       0.047
      -0.265
      -0.347
      -0.280
      -0.226
      -0.286
      -0.445
      -0.610
      -0.706
      -0.714
      -0.646
      -0.518
      -0.341
      -0.138
       0.071
       0.277
       0.476
       0.631
       0.683
       0.614
       0.491
       0.429
       0.484
       0.592
       0.623
       0.486
       0.187
      -0.218
      -0.690
      -1.227
      -1.797
      -2.290
      -2.525
      -2.339
      -1.686
      -0.690
       0.394
       1.287
       1.813
       1.958
       1.854
       1.681
       1.575
       1.570
       1.598
       1.528
       1.240
       0.686
      -0.063
      -0.832
      -1.413
      -1.666
      -1.588
      -1.299
      -0.942
      -0.581
      -0.180
       0.323
       0.903
       1.417
       1.689
       1.648
       1.377
       1.035
       0.721
       0.415
       0.060
      -0.327
      -0.628
      -0.730
      -0.652
      -0.557
      -0.620
      -0.858
      -1.098
      -1.113
      -0.824
      -0.372
      -0.008
       0.097
      -0.044
      -0.280
      -0.443
      -0.439
      -0.264
       0.014
       0.282
       0.413
       0.310
      -0.063
      -0.655
      -1.335
      -1.912
      -2.190
      -2.066
      -1.592
      -0.945
      -0.306
       0.232
       0.672
       1.033
       1.301
       1.448
       1.477
       1.424
       1.318
       1.159
       0.956
       0.759
       0.641
       0.648
       0.764
       0.934
       1.105
       1.239
       1.285
       1.161
       0.785
       0.154
      -0.612
      -1.303
      -1.723
      -1.793
      -1.573
      -1.207
      -0.812
      -0.420
       0.000
       0.459
       0.900
       1.219
       1.329
       1.206
       0.881
       0.398
      -0.192
      -0.816
      -1.354
      -1.686
      -1.769
      -1.683
      -1.572
      -1.532
      -1.533
      -1.459
      -1.208
      -0.773
      -0.250
       0.233
       0.587
       0.799
       0.924
       1.028
       1.140
       1.237
       1.272
       1.230
       1.131
       0.996
       0.821
       0.595
       0.345
       0.154
       0.091
       0.151
       0.251
       0.307
       0.303
       0.285
       0.297
       0.339
       0.380
       0.401
       0.419
       0.462
       0.550
       0.681
       0.830
       0.938
       0.922
       0.720
       0.361
      -0.042
      -0.360
      -0.548
      -0.684
      -0.913
      -1.353
      -1.999
      -2.712
      -3.266
      -3.463
      -3.230
      -2.651
      -1.904
      -1.160
      -0.517
       0.000
       0.402
       0.699
       0.901
       1.011
       1.021
       0.922
       0.718
       0.457
       0.246
       0.206
       0.407
       0.809
       1.275
       1.652
       1.857
       1.900
       1.841
       1.733
       1.606
       1.492
       1.421
       1.382
       1.296
       1.038
       0.523
      -0.227
      -1.089
      -1.910
      -2.588
      -3.108
      -3.507
      -3.798
      -3.917
      -3.749
      -3.230
      -2.429
      -1.533
      -0.717
      -0.040
       0.558
       1.140
       1.673
       2.063
       2.280
       2.430
       2.676
       3.097
       3.632
       4.148
       4.541
       4.770
       4.811
       4.628
       4.209
       3.613
       2.951
       2.311
       1.695
       1.043
       0.305
      -0.510
      -1.350
      -2.153
      -2.845
      -3.318
      -3.454
      -3.196
      -2.608
      -1.843
      -1.055
      -0.335
       0.289
       0.806
       1.211
       1.504
       1.689
       1.746
       1.608
       1.197
       0.490
      -0.439
      -1.452
      -2.433
      -3.346
      -4.241
      -5.173
      -6.127
      -6.968
      -7.483
      -7.476
      -6.869
      -5.744
      -4.307
      -2.805
      -1.449
      -0.378
       0.348
       0.747
       0.908
       0.963
       1.043
       1.243
       1.613
       2.166
       2.870
       3.627
       4.270
       4.621
       4.586
       4.223
       3.701
       3.183
       2.720
       2.282
       1.847
       1.453
       1.140
       0.851
       0.423
      -0.277
      -1.200
      -2.094
      -2.642
      -2.660
      -2.179
      -1.393
      -0.519
       0.302
       1.020
       1.608
       1.996
       2.065
       1.709
       0.938
      -0.069
      -1.004
      -1.563
      -1.579
      -1.055
      -0.101
       1.137
       2.500
       3.795
       4.814
       5.413
       5.581
       5.429
       5.091
       4.635
       4.064
       3.365
       2.547
       1.629
       0.641
      -0.344
      -1.188
      -1.738
      -1.929
      -1.831
      -1.575
      -1.229
      -0.755
      -0.100
       0.679
       1.400
       1.851
       1.902
       1.532
       0.764
      -0.371
      -1.822
      -3.466
      -5.133
      -6.672
      -8.005
      -9.119
     -10.002
     -10.618
     -10.924
     -10.916
     -10.637
     -10.150
      -9.503
      -8.726
      -7.855
      -6.953
      -6.104
      -5.357
      -4.677
      -3.945
      -3.039
      -1.923
      -0.670
       0.599
       1.800
       2.907
       3.909
       4.783
       5.521
       6.152
       6.714
       7.181
       7.439
       7.355
       6.869
       6.021
       4.906
       3.632
       2.343
       1.246
       0.578
       0.491
       0.967
       1.834
       2.874
       3.928
       4.905
       5.703
       6.158
       6.088
       5.415
       4.247
       2.843
       1.468
       0.267
      -0.753
      -1.614
      -2.264
      -2.565
      -2.388
      -1.722
      -0.696
       0.488
       1.625
       2.524
       3.013
       2.957
       2.332
       1.248
      -0.095
      -1.512
      -2.896
      -4.194
      -5.350
      -6.278
      -6.861
      -6.961
      -6.441
      -5.225
      -3.396
      -1.217
       0.976
       2.951
       4.676
       6.235
       7.661
       8.833
       9.531
       9.580
       8.944
       7.733
       6.151
       4.433
       2.791
       1.366
       0.204
      -0.705
      -1.367
      -1.754
      -1.846
      -1.694
      -1.449
      -1.289
      -1.330
      -1.581
      -1.978
      -2.447
      -2.940
      -3.433
      -3.904
      -4.311
      -4.603
      -4.754
      -4.772
      -4.688
      -4.511
      -4.192
      -3.655
      -2.857
      -1.856
      -0.812
       0.076
       0.657
       0.866
       0.722
       0.290
      -0.348
      -1.106
      -1.894
      -2.619
      -3.183
      -3.491
      -3.478
      -3.133
      -2.507
      -1.709
      -0.855
      -0.018
       0.827
       1.783
       2.949
       4.307
       5.676
       6.789
       7.451
       7.647
       7.515
       7.199
       6.732
       6.054
       5.146
       4.128
       3.208
       2.527
       2.037
       1.540
       0.851
      -0.063
      -1.061
      -1.949
      -2.606
      -3.041
      -3.354
      -3.662
      -4.022
      -4.394
      -4.654
      -4.674
      -4.426
      -4.050
      -3.789
      -3.844
      -4.243
      -4.852
      -5.504
      -6.122
      -6.708
      -7.225
      -7.514
      -7.349
      -6.605
      -5.364
      -3.875
      -2.381
      -0.999
       0.289
       1.533
       2.744
       3.869
       4.809
       5.449
       5.697
       5.526
       5.010
       4.289
       3.487
       2.668
       1.859
       1.130
       0.623
       0.497
       0.819
       1.517
       2.427
       3.392
       4.329
       5.215
       6.021
       6.676
       7.066
       7.090
       6.714
       6.008
       5.147
       4.349
       3.765
       3.369
       2.956
       2.269
       1.182
      -0.219
      -1.689
      -2.984
      -3.965
      -4.618
      -4.993
      -5.161
      -5.210
      -5.251
      -5.379
      -5.598
      -5.778
      -5.716
      -5.276
      -4.512
      -3.654
      -2.969
      -2.593
      -2.478
      -2.458
      -2.372
      -2.135
      -1.744
      -1.250
      -0.717
      -0.203
       0.264
       0.693
       1.124
       1.599
       2.121
       2.633
       3.021
       3.143
       2.907
       2.346
       1.641
       1.054
       0.775
       0.809
       0.986
       1.090
       1.001
       0.727
       0.351
      -0.057
      -0.477
      -0.909
      -1.313
      -1.607
      -1.708
      -1.608
      -1.383
      -1.133
      -0.877
      -0.543
      -0.057
       0.531
       1.031
       1.242
       1.119
       0.800
       0.496
       0.330
       0.271
       0.204
       0.048
      -0.172
      -0.355
      -0.399
      -0.259
       0.040
       0.443
       0.893
       1.319
       1.621
       1.688
       1.468
       1.042
       0.616
       0.424
       0.590
       1.061
       1.659
       2.186
       2.512
       2.601
       2.490
       2.266
       2.010
       1.748
       1.426
       0.956
       0.310
      -0.424
      -1.070
      -1.461
      -1.517
      -1.281
      -0.902
      -0.577
      -0.482
      -0.692
      -1.124
      -1.571
      -1.813
      -1.749
      -1.461
      -1.135
      -0.934
      -0.907
      -1.003
      -1.143
      -1.272
      -1.366
      -1.415
      -1.410
      -1.352
      -1.244
      -1.095
      -0.905
      -0.671
      -0.381
      -0.023
       0.401
       0.856
       1.266
       1.537
       1.624
       1.570
       1.501
       1.533
       1.686
       1.856
       1.897
       1.733
       1.415
       1.073
       0.832
       0.722
       0.667
       0.531
       0.217
      -0.250
      -0.700
      -0.905
      -0.722
      -0.200
       0.440
       0.934
       1.126
       1.028
       0.789
       0.598
       0.589
       0.774
       1.035
       1.189
       1.083
       0.685
       0.085
      -0.573
      -1.159
      -1.592
      -1.838
      -1.901
      -1.835
      -1.737
      -1.718
      -1.858
      -2.169
      -2.587
      -3.009
      -3.344
      -3.561
      -3.676
      -3.716
      -3.669
      -3.480
      -3.101
      -2.537
      -1.857
      -1.152
      -0.485
       0.113
       0.603
       0.909
       0.964
       0.791
       0.528
       0.360
       0.392
       0.595
       0.850
       1.049
       1.156
       1.191
       1.170
       1.079
       0.894
       0.641
       0.418
       0.350
       0.499
       0.804
       1.123
       1.336
       1.436
       1.523
       1.719
       2.073
       2.506
       2.844
       2.920
       2.687
       2.271
       1.917
       1.832
       2.024
       2.280
       2.312
       1.981
       1.397
       0.812
       0.386
       0.058
      -0.384
      -1.093
      -2.017
      -2.935
      -3.619
      -3.971
