Origin Time       26/2/2010 4:42:33	 
Lat.              28.5 N	
Long.             86.7 E	
Depth (Km)         28.0
Magnitude         5.4
 Region           Tibet                                                            
 Above details taken from IMD 
     
Station Code      DJL
Station Lat.       27.050  N
Station Long.      88.262  E
Station Height(m)  393.0
Site Class        A   Vs30 between 700 m/sec to 1400 m/sec * 
Record Time       26.02.2010 04:43:20.079
Sampling Rate     200. Hz
 Record Duration   71.075 Sec.
 Direction         E-W (E positive)
Max. Acceleration     -3.587 cm/sec**2
     
  * For reference see Site Classification link of website 
     
 Base Line Corrected and Low Pass Filtered (Cut Off at 35 Hz) Time History
 Acceleration data in cm/sec**2
    
[...]
      -1.339
      -1.106
      -0.793
      -0.427
      -0.035
       0.336
       0.627
       0.796
       0.841
       0.793
       0.687
       0.532
       0.325
       0.068
      -0.210
      -0.462
      -0.646
      -0.747
      -0.774
      -0.739
      -0.636
      -0.439
      -0.134
       0.258
       0.669
       1.023
       1.266
       1.391
       1.416
       1.357
       1.212
       0.976
       0.664
       0.315
      -0.023
      -0.313
      -0.547
      -0.729
      -0.857
      -0.912
      -0.873
      -0.747
      -0.584
      -0.448
      -0.377
      -0.358
      -0.351
      -0.336
      -0.332
      -0.372
      -0.460
      -0.550
      -0.577
      -0.517
      -0.410
      -0.328
      -0.310
      -0.328
      -0.303
      -0.175
       0.044
       0.273
       0.434
       0.510
       0.558
       0.657
       0.839
       1.066
       1.260
       1.360
       1.356
       1.281
       1.188
       1.120
       1.094
       1.096
       1.086
       1.018
       0.859
       0.620
       0.347
       0.102
      -0.081
      -0.213
      -0.337
      -0.497
      -0.706
      -0.937
      -1.148
      -1.312
      -1.433
      -1.536
      -1.634
      -1.709
      -1.716
      -1.624
      -1.446
      -1.245
      -1.087
      -0.998
      -0.940
      -0.843
      -0.654
      -0.370
      -0.030
       0.327
       0.685
       1.055
       1.451
       1.863
       2.249
       2.553
       2.721
       2.725
       2.562
       2.248
       1.812
       1.300
       0.778
       0.314
      -0.056
      -0.351
      -0.620
      -0.902
      -1.177
      -1.377
      -1.429
      -1.319
      -1.113
      -0.921
      -0.821
      -0.810
      -0.820
      -0.784
      -0.693
      -0.597
      -0.550
      -0.559
      -0.570
      -0.527
      -0.425
      -0.329
      -0.320
      -0.432
      -0.618
      -0.787
      -0.867
      -0.852
      -0.787
      -0.725
      -0.681
      -0.629
      -0.537
      -0.393
      -0.210
      -0.010
       0.191
       0.377
       0.521
       0.593
       0.578
       0.499
       0.416
       0.383
       0.418
       0.485
       0.532
       0.541
       0.546
       0.609
       0.768
       0.999
       1.239
       1.431
       1.562
       1.646
       1.688
       1.658
       1.509
       1.217
       0.810
       0.356
      -0.074
      -0.443
      -0.742
      -0.971
      -1.124
      -1.192
      -1.191
      -1.167
      -1.181
      -1.267
      -1.402
      -1.528
      -1.594
      -1.599
      -1.581
      -1.577
      -1.590
      -1.589
      -1.554
      -1.497
      -1.454
      -1.438
      -1.419
      -1.330
      -1.127
      -0.831
      -0.520
      -0.268
      -0.086
       0.092
       0.363
       0.784
       1.325
       1.888
       2.375
       2.748
       3.027
       3.250
       3.417
       3.488
       3.423
       3.240
       3.011
       2.797
       2.591
       2.324
       1.932
       1.424
       0.885
       0.410
       0.039
      -0.259
      -0.541
      -0.828
      -1.088
      -1.263
      -1.325
      -1.290
      -1.203
      -1.093
      -0.961
      -0.798
      -0.604
      -0.403
      -0.230
      -0.108
      -0.042
      -0.027
      -0.060
      -0.141
      -0.260
      -0.395
      -0.523
      -0.640
      -0.762
      -0.901
      -1.037
      -1.110
      -1.054
      -0.853
      -0.578
      -0.358
      -0.298
      -0.414
      -0.627
      -0.833
      -0.973
      -1.071
      -1.188
      -1.362
      -1.566
      -1.733
      -1.819
      -1.848
      -1.880
      -1.949
      -2.021
      -2.010
      -1.832
      -1.459
      -0.919
      -0.280
       0.378
       0.980
       1.455
       1.751
       1.854
       1.801
       1.661
       1.497
       1.329
       1.135
       0.883
       0.564
       0.216
      -0.094
      -0.310
      -0.415
      -0.428
      -0.367
      -0.230
      -0.006
       0.293
       0.622
       0.918
       1.133
       1.262
       1.336
       1.391
       1.444
       1.495
       1.544
       1.596
       1.661
       1.720
       1.730
       1.639
       1.439
       1.174
       0.923
       0.735
       0.598
       0.450
       0.246
      -0.001
      -0.224
      -0.366
      -0.414
      -0.395
      -0.325
      -0.187
       0.043
       0.338
       0.596
       0.695
       0.566
       0.243
      -0.171
      -0.579
      -0.954
      -1.331
      -1.750
      -2.188
      -2.553
      -2.742
      -2.704
      -2.473
      -2.128
      -1.747
      -1.371
      -1.024
      -0.731
      -0.532
      -0.458
      -0.501
      -0.603
      -0.684
      -0.690
      -0.618
      -0.496
      -0.347
      -0.165
       0.077
       0.397
       0.787
       1.206
       1.601
       1.930
       2.176
       2.341
       2.426
       2.417
       2.291
       2.033
       1.653
       1.184
       0.674
       0.173
      -0.268
      -0.601
      -0.796
      -0.857
      -0.829
      -0.775
      -0.736
      -0.705
      -0.644
      -0.521
      -0.347
      -0.171
      -0.051
      -0.004
      -0.009
      -0.026
      -0.041
      -0.059
      -0.088
      -0.114
      -0.120
      -0.124
      -0.187
      -0.370
      -0.680
      -1.048
      -1.355
      -1.511
      -1.490
      -1.328
      -1.066
      -0.716
      -0.265
       0.284
       0.874
       1.409
       1.794
       1.993
       2.057
       2.090
       2.181
       2.350
       2.547
       2.691
       2.725
       2.645
       2.479
       2.257
       1.984
       1.649
       1.246
       0.787
       0.296
      -0.196
      -0.657
      -1.054
      -1.357
      -1.560
      -1.685
      -1.779
      -1.892
      -2.048
      -2.239
      -2.430
      -2.591
      -2.719
      -2.829
      -2.918
      -2.942
      -2.837
      -2.576
      -2.208
      -1.840
      -1.569
      -1.428
      -1.373
      -1.333
      -1.268
      -1.183
      -1.103
      -1.034
      -0.948
      -0.817
      -0.632
      -0.416
      -0.194
       0.028
       0.264
       0.531
       0.817
       1.077
       1.258
       1.329
       1.308
       1.245
       1.189
       1.166
       1.188
       1.265
       1.412
       1.624
       1.866
       2.089
       2.260
       2.385
       2.486
       2.560
       2.561
       2.423
       2.114
       1.675
       1.207
       0.807
       0.499
       0.229
      -0.069
      -0.390
      -0.643
      -0.714
      -0.576
      -0.335
      -0.164
      -0.182
      -0.366
      -0.582
      -0.701
      -0.684
      -0.586
      -0.484
      -0.403
      -0.318
      -0.193
      -0.027
       0.145
       0.295
       0.428
       0.562
       0.685
       0.748
       0.702
       0.541
       0.317
       0.099
      -0.069
      -0.180
      -0.246
      -0.272
      -0.248
      -0.165
      -0.046
       0.048
       0.038
      -0.113
      -0.372
      -0.642
      -0.834
      -0.926
      -0.979
      -1.073
      -1.240
      -1.437
      -1.591
      -1.654
      -1.637
      -1.580
      -1.510
      -1.425
      -1.313
      -1.178
      -1.038
      -0.918
      -0.829
      -0.766
      -0.725
      -0.716
      -0.750
      -0.812
      -0.848
      -0.779
      -0.552
      -0.185
       0.229
       0.571
       0.761
       0.802
       0.779
       0.792
       0.897
       1.076
       1.263
       1.404
       1.487
       1.526
       1.531
       1.483
       1.359
       1.170
       0.966
       0.811
       0.739
       0.742
       0.787
       0.847
       0.916
       0.989
       1.056
       1.096
       1.093
       1.048
       0.975
       0.879
       0.735
       0.502
       0.145
      -0.331
      -0.871
      -1.394
      -1.823
      -2.109
      -2.233
      -2.201
      -2.044
      -1.817
      -1.587
      -1.409
      -1.307
      -1.265
      -1.250
      -1.234
      -1.206
      -1.168
      -1.116
      -1.032
      -0.893
      -0.685
      -0.418
      -0.124
       0.168
       0.451
       0.739
       1.052
       1.391
       1.735
       2.057
       2.331
       2.534
       2.628
       2.566
       2.317
       1.903
       1.408
       0.950
       0.620
       0.437
       0.344
       0.264
       0.157
       0.042
      -0.037
      -0.066
      -0.089
      -0.169
      -0.334
      -0.544
      -0.718
      -0.805
      -0.836
      -0.906
      -1.107
      -1.447
      -1.827
      -2.102
      -2.170
      -2.025
      -1.743
      -1.414
      -1.094
      -0.811
      -0.591
      -0.468
      -0.465
      -0.548
      -0.633
      -0.625
      -0.474
      -0.203
       0.123
       0.446
       0.738
       0.990
       1.185
       1.295
       1.302
       1.230
       1.152
       1.146
       1.247
       1.431
       1.641
       1.837
       2.011
       2.174
       2.318
       2.410
       2.407
       2.281
       2.030
       1.669
       1.215
       0.691
       0.134
      -0.398
      -0.848
      -1.186
      -1.426
      -1.607
      -1.745
      -1.806
      -1.718
      -1.439
      -1.013
      -0.572
      -0.265
      -0.167
      -0.236
      -0.355
      -0.419
      -0.401
      -0.355
      -0.353
      -0.425
      -0.539
      -0.647
      -0.737
      -0.848
      -1.035
      -1.301
      -1.574
      -1.736
      -1.703
      -1.482
      -1.164
      -0.860
      -0.636
      -0.491
      -0.380
      -0.260
      -0.109
       0.073
       0.275
       0.478
       0.653
       0.775
       0.836
       0.846
       0.829
       0.799
       0.758
       0.703
       0.633
       0.554
       0.474
       0.393
       0.297
       0.176
       0.039
      -0.072
      -0.097
       0.001
       0.197
       0.398
       0.491
       0.419
       0.217
      -0.020
      -0.216
      -0.363
      -0.515
      -0.720
      -0.967
      -1.182
      -1.286
      -1.250
      -1.099
      -0.877
      -0.605
      -0.280
       0.083
       0.435
       0.721
       0.917
       1.046
       1.128
       1.147
       1.048
       0.802
       0.449
       0.101
      -0.126
      -0.175
      -0.078
       0.077
       0.209
       0.283
       0.305
       0.290
       0.231
       0.113
      -0.051
      -0.215
      -0.327
      -0.371
      -0.382
      -0.409
      -0.457
      -0.473
      -0.374
      -0.122
       0.238
       0.599
       0.857
       0.970
       0.961
       0.880
       0.756
       0.587
       0.365
       0.111
      -0.124
      -0.300
      -0.416
      -0.513
      -0.619
      -0.708
      -0.707
      -0.563
      -0.301
      -0.014
       0.205
       0.343
       0.476
       0.695
       1.019
       1.365
       1.618
       1.719
       1.704
       1.645
       1.583
       1.495
       1.337
       1.108
       0.858
       0.636
       0.437
       0.192
      -0.164
      -0.625
      -1.099
      -1.456
      -1.615
      -1.577
      -1.410
      -1.183
      -0.920
      -0.606
      -0.229
       0.168
       0.493
       0.651
       0.602
       0.388
       0.095
      -0.199
      -0.455
      -0.669
      -0.845
      -0.987
      -1.102
      -1.206
      -1.311
      -1.405
      -1.437
      -1.355
      -1.140
      -0.829
      -0.497
      -0.220
      -0.044
       0.021
      -0.018
      -0.153
      -0.376
      -0.668
      -0.970
      -1.196
      -1.269
      -1.171
      -0.954
      -0.707
      -0.496
      -0.332
      -0.196
      -0.079
      -0.007
      -0.027
      -0.164
      -0.407
      -0.704
      -0.994
      -1.216
      -1.323
      -1.277
      -1.065
      -0.703
      -0.243
       0.239
       0.675
       1.021
       1.260
       1.396
       1.437
       1.398
       1.311
       1.232
       1.224
       1.318
       1.481
       1.631
       1.688
       1.633
       1.525
       1.447
       1.435
       1.445
       1.397
       1.252
       1.058
       0.920
       0.908
       1.005
       1.114
       1.133
       1.022
       0.809
       0.548
       0.270
      -0.033
      -0.383
      -0.774
      -1.166
      -1.497
      -1.719
      -1.816
      -1.801
      -1.696
      -1.528
      -1.326
      -1.117
      -0.917
      -0.711
      -0.457
      -0.123
       0.278
       0.678
       0.993
       1.169
       1.210
       1.157
       1.054
       0.916
       0.733
       0.506
       0.272
       0.091
      -0.002
      -0.042
      -0.109
      -0.267
      -0.504
      -0.737
      -0.889
      -0.953
      -0.992
      -1.071
      -1.198
      -1.329
      -1.420
      -1.470
      -1.512
      -1.562
      -1.584
      -1.512
      -1.313
      -1.025
      -0.735
      -0.513
      -0.363
      -0.236
      -0.090
       0.069
       0.191
       0.242
       0.238
       0.233
       0.265
       0.324
       0.359
       0.332
       0.259
       0.202
       0.222
       0.334
       0.501
       0.664
       0.791
       0.891
       1.005
       1.164
       1.357
       1.537
       1.648
       1.670
       1.620
       1.525
       1.394
       1.208
       0.957
       0.667
       0.416
       0.291
       0.345
       0.554
       0.840
       1.125
       1.372
       1.576
       1.731
       1.798
       1.724
       1.483
       1.098
       0.631
       0.143
      -0.333
      -0.797
      -1.257
      -1.712
      -2.155
      -2.579
      -2.973
      -3.313
      -3.541
      -3.587
      -3.410
      -3.035
      -2.553
      -2.080
      -1.692
      -1.392
      -1.127
      -0.849
      -0.549
      -0.257
      -0.006
       0.196
       0.358
       0.486
       0.570
       0.603
       0.602
       0.609
       0.664
       0.771
       0.882
       0.941
       0.924
       0.860
       0.803
       0.793
       0.827
       0.874
       0.910
       0.951
       1.038
       1.192
       1.380
       1.527
       1.577
       1.543
       1.491
       1.481
       1.496
       1.445
       1.227
       0.814
       0.281
      -0.250
      -0.686
      -1.017
      -1.290
      -1.545
      -1.770
      -1.903
      -1.893
      -1.747
      -1.528
      -1.316
      -1.149
      -1.018
      -0.891
      -0.741
      -0.560
      -0.351
      -0.132
       0.071
       0.226
       0.311
       0.324
       0.291
       0.251
       0.233
       0.246
       0.285
       0.353
       0.463
       0.623
       0.815
       0.995
       1.111
       1.137
       1.094
       1.021
       0.940
       0.822
       0.603
       0.236
      -0.262
      -0.801
      -1.261
      -1.556
      -1.669
      -1.638
      -1.517
      -1.327
      -1.057
      -0.690
      -0.248
       0.213
       0.623
       0.941
       1.161
       1.283
       1.293
       1.150
       0.826
       0.341
      -0.227
      -0.776
      -1.228
      -1.557
      -1.764
      -1.850
      -1.794
      -1.585
      -1.255
      -0.882
      -0.552
      -0.307
      -0.127
       0.030
       0.182
       0.310
       0.385
       0.407
       0.406
       0.416
       0.445
       0.468
       0.460
       0.421
       0.380
       0.361
       0.346
       0.285
       0.141
      -0.055
      -0.209
      -0.228
      -0.086
       0.161
       0.412
       0.597
       0.717
       0.827
       0.966
       1.117
       1.221
       1.239
       1.184
       1.111
       1.052
       0.981
       0.836
       0.572
       0.215
      -0.157
      -0.463
      -0.666
      -0.772
      -0.795
      -0.729
      -0.554
      -0.259
       0.128
       0.545
       0.918
       1.203
       1.388
       1.486
       1.505
       1.441
       1.298
       1.095
       0.856
       0.595
       0.311
      -0.001
      -0.321
      -0.589
      -0.730
      -0.696
      -0.523
      -0.325
      -0.237
      -0.343
      -0.621
      -0.971
      -1.278
      -1.469
      -1.529
      -1.473
      -1.333
      -1.159
      -1.022
      -0.992
      -1.094
      -1.290
      -1.501
      -1.659
      -1.753
      -1.820
      -1.889
      -1.938
      -1.892
      -1.682
      -1.313
      -0.862
      -0.421
      -0.036
       0.313
       0.670
       1.052
       1.425
       1.729
       1.912
       1.965
       1.906
       1.757
       1.526
       1.213
       0.840
       0.455
       0.123
      -0.118
      -0.274
      -0.386
      -0.491
      -0.584
      -0.622
      -0.557
      -0.372
      -0.088
       0.252
       0.609
       0.950
       1.238
       1.434
       1.508
       1.458
       1.312
       1.112
       0.887
       0.648
       0.398
       0.162
      -0.018
      -0.105
      -0.106
      -0.067
      -0.039
      -0.035
      -0.021
       0.053
       0.204
       0.395
       0.552
       0.611
       0.557
       0.418
       0.228
       0.005
      -0.246
      -0.506
      -0.730
      -0.869
      -0.913
      -0.898
      -0.883
      -0.899
      -0.922
      -0.897
      -0.791
      -0.612
      -0.401
      -0.186
       0.032
       0.264
       0.494
       0.663
       0.705
       0.611
       0.449
       0.328
       0.321
       0.421
       0.562
       0.671
       0.710
       0.680
       0.588
       0.431
       0.200
      -0.096
      -0.423
      -0.729
      -0.972
      -1.140
      -1.240
      -1.292
      -1.308
      -1.289
      -1.235
      -1.156
      -1.073
      -1.013
      -0.987
      -0.987
      -0.992
      -0.988
      -0.969
      -0.933
      -0.873
      -0.774
      -0.618
      -0.395
      -0.113
       0.200
       0.499
       0.733
       0.870
       0.910
       0.887
       0.841
       0.799
       0.768
       0.745
       0.720
       0.683
       0.632
       0.584
       0.567
       0.601
       0.677
       0.754
       0.792
       0.783
       0.762
       0.764
       0.793
       0.804
       0.739
       0.576
       0.349
       0.130
      -0.020
      -0.088
      -0.106
      -0.125
      -0.173
      -0.242
      -0.303
      -0.337
      -0.349
      -0.354
      -0.361
      -0.361
      -0.340
      -0.299
      -0.261
      -0.253
      -0.280
      -0.310
      -0.294
      -0.209
      -0.081
       0.032
       0.085
       0.076
       0.037
       0.001
      -0.028
      -0.070
      -0.141
      -0.233
      -0.326
      -0.415
      -0.524
      -0.692
      -0.933
      -1.210
      -1.448
      -1.581
      -1.581
      -1.466
      -1.268
      -1.013
      -0.708
      -0.369
      -0.040
       0.209
       0.323
       0.300
       0.202
       0.110
       0.075
       0.093
       0.133
       0.177
       0.236
       0.330
       0.452
       0.564
       0.627
       0.640
       0.640
       0.671
       0.749
       0.862
       0.991
       1.134
       1.301
       1.488
       1.657
       1.747
       1.711
       1.548
       1.310
       1.073
       0.881
       0.727
       0.558
       0.330
       0.054
      -0.203
      -0.367
      -0.409
      -0.361
      -0.273
      -0.179
      -0.090
      -0.018
       0.006
      -0.039
      -0.144
      -0.264
      -0.357
      -0.427
      -0.525
      -0.697
      -0.930
      -1.151
      -1.274
      -1.263
      -1.142
      -0.961
      -0.750
