Origin Time       30/11/2012 19:39:29 UTC
Lat.              27.3 N 
Long.             88.3 E 
Depth (Km)         10.0
Magnitude         4.1
 Region           WEST-SIKKIM                                                      
 Above details taken from IMD 
    
Station Code      DJL
Station Lat.       27.050  N
Station Long.      88.262  E
Station Height(m) 2110.0
Site Class        A   Vs30 between 700 m/sec to 1400 m/sec * 
Record Time       30.11.2012 19:38:58.074 UTC
Sampling Rate     200. Hz
 Record Duration   86.645 Sec.
 Direction         N-S (N positive)
Max. Acceleration      9.737 cm/sec**2
     
  * For reference see Site Classification link of website 
     
 Base Line Corrected and Low Pass Filtered (Cut Off at 35 Hz) Time History
 Acceleration data in cm/sec**2
    
[...]
       0.004
       0.012
       0.010
       0.000
      -0.008
      -0.004
       0.008
       0.018
       0.017
       0.003
      -0.016
      -0.026
      -0.023
      -0.010
       0.005
       0.011
       0.005
      -0.007
      -0.013
      -0.009
       0.002
       0.013
       0.015
       0.008
      -0.001
      -0.005
      -0.001
       0.007
       0.013
       0.010
       0.001
      -0.007
      -0.008
       0.001
       0.011
       0.012
       0.001
      -0.013
      -0.016
      -0.004
       0.012
       0.019
       0.012
      -0.001
      -0.008
      -0.006
      -0.001
      -0.001
      -0.012
      -0.027
      -0.036
      -0.034
      -0.026
      -0.018
      -0.021
      -0.037
      -0.058
      -0.076
      -0.084
      -0.080
      -0.072
      -0.067
      -0.066
      -0.066
      -0.058
      -0.036
      -0.010
       0.005
      -0.001
      -0.026
      -0.052
      -0.060
      -0.043
      -0.013
       0.003
      -0.019
      -0.082
      -0.159
      -0.205
      -0.180
      -0.077
       0.061
       0.163
       0.166
       0.053
      -0.139
      -0.336
      -0.460
      -0.456
      -0.300
      -0.007
       0.372
       0.760
       1.082
       1.291
       1.374
       1.335
       1.163
       0.838
       0.351
      -0.241
      -0.814
      -1.212
      -1.321
      -1.131
      -0.732
      -0.265
       0.152
       0.454
       0.621
       0.638
       0.490
       0.181
      -0.218
      -0.570
      -0.727
      -0.608
      -0.243
       0.220
       0.566
       0.612
       0.312
      -0.208
      -0.705
      -0.961
      -0.886
      -0.527
       0.000
       0.578
       1.112
       1.524
       1.760
       1.791
       1.615
       1.227
       0.612
      -0.227
      -1.217
      -2.168
      -2.804
      -2.897
      -2.429
      -1.639
      -0.886
      -0.422
      -0.270
      -0.292
      -0.331
      -0.297
      -0.169
       0.035
       0.289
       0.577
       0.882
       1.161
       1.349
       1.409
       1.390
       1.420
       1.606
       1.946
       2.306
       2.476
       2.282
       1.682
       0.821
      -0.031
      -0.633
      -0.936
      -1.131
      -1.516
      -2.281
      -3.357
      -4.425
      -5.073
      -4.991
      -4.114
      -2.641
      -0.967
       0.471
       1.387
       1.796
       2.015
       2.455
       3.317
       4.394
       5.149
       5.051
       3.907
       1.990
      -0.121
      -1.846
      -2.871
      -3.229
      -3.187
      -3.036
      -2.929
      -2.842
      -2.630
      -2.147
      -1.349
      -0.350
       0.620
       1.333
       1.676
       1.683
       1.477
       1.183
       0.871
       0.549
       0.200
      -0.163
      -0.463
      -0.578
      -0.400
       0.101
       0.851
       1.687
       2.411
       2.861
       2.956
       2.689
       2.089
       1.199
       0.104
      -1.046
      -2.057
      -2.747
      -3.015
      -2.880
      -2.475
      -1.991
      -1.582
      -1.282
      -0.988
      -0.533
       0.205
       1.214
       2.324
       3.268
       3.813
       3.869
       3.495
       2.811
       1.903
       0.813
      -0.387
      -1.545
      -2.447
      -2.915
      -2.899
      -2.505
      -1.931
      -1.348
      -0.820
      -0.315
       0.201
       0.677
       0.990
       1.030
       0.788
       0.373
      -0.044
      -0.313
      -0.366
      -0.219
       0.048
       0.321
       0.477
       0.426
       0.149
      -0.291
      -0.769
      -1.150
      -1.348
      -1.354
      -1.241
      -1.122
      -1.070
      -1.059
      -0.968
      -0.671
      -0.141
       0.507
       1.081
       1.438
       1.557
       1.515
       1.404
       1.268
       1.099
       0.866
       0.552
       0.176
      -0.193
      -0.446
      -0.478
      -0.263
       0.116
       0.483
       0.652
       0.527
       0.145
      -0.354
      -0.813
      -1.143
      -1.333
      -1.411
      -1.386
      -1.252
      -1.015
      -0.714
      -0.392
      -0.053
       0.339
       0.797
       1.247
       1.537
       1.538
       1.242
       0.765
       0.241
      -0.262
      -0.737
      -1.152
      -1.410
      -1.409
      -1.131
      -0.665
      -0.154
       0.286
       0.599
       0.775
       0.815
       0.718
       0.495
       0.173
      -0.200
      -0.572
      -0.898
      -1.135
      -1.237
      -1.154
      -0.863
      -0.388
       0.198
       0.803
       1.346
       1.755
       1.962
       1.904
       1.559
       0.976
       0.273
      -0.422
      -1.006
      -1.407
      -1.570
      -1.454
      -1.066
      -0.477
       0.203
       0.882
       1.522
       2.107
       2.583
       2.826
       2.691
       2.112
       1.163
       0.038
      -1.032
      -1.861
      -2.343
      -2.461
      -2.270
      -1.870
      -1.367
      -0.828
      -0.279
       0.269
       0.778
       1.187
       1.443
       1.533
       1.480
       1.298
       0.971
       0.473
      -0.175
      -0.870
      -1.453
      -1.776
      -1.767
      -1.460
      -0.971
      -0.437
       0.027
       0.360
       0.538
       0.561
       0.445
       0.228
      -0.034
      -0.290
      -0.512
      -0.674
      -0.732
      -0.623
      -0.320
       0.121
       0.570
       0.877
       0.943
       0.758
       0.399
      -0.003
      -0.320
      -0.491
      -0.547
      -0.564
      -0.590
      -0.599
      -0.524
      -0.323
      -0.015
       0.335
       0.654
       0.885
       0.986
       0.940
       0.760
       0.489
       0.183
      -0.113
      -0.375
      -0.595
      -0.763
      -0.861
      -0.866
      -0.751
      -0.496
      -0.102
       0.382
       0.846
       1.150
       1.194
       0.974
       0.574
       0.116
      -0.302
      -0.634
      -0.875
      -1.036
      -1.109
      -1.067
      -0.885
      -0.567
      -0.155
       0.294
       0.730
       1.105
       1.369
       1.469
       1.391
       1.167
       0.861
       0.510
       0.118
      -0.313
      -0.732
      -1.055
      -1.211
      -1.194
      -1.056
      -0.852
      -0.609
      -0.328
      -0.024
       0.257
       0.452
       0.502
       0.374
       0.083
      -0.303
      -0.683
      -0.966
      -1.105
      -1.091
      -0.936
      -0.662
      -0.309
       0.065
       0.411
       0.712
       0.977
       1.205
       1.358
       1.374
       1.213
       0.888
       0.474
       0.077
      -0.210
      -0.346
      -0.350
      -0.275
      -0.178
      -0.098
      -0.051
      -0.045
      -0.082
      -0.160
      -0.266
      -0.368
      -0.412
      -0.355
      -0.189
       0.054
       0.333
       0.616
       0.887
       1.116
       1.252
       1.242
       1.064
       0.752
       0.385
       0.058
      -0.166
      -0.271
      -0.287
      -0.267
      -0.254
      -0.266
      -0.273
      -0.226
      -0.091
       0.110
       0.303
       0.408
       0.389
       0.274
       0.129
       0.000
      -0.121
      -0.280
      -0.513
      -0.795
      -1.049
      -1.191
      -1.167
      -0.979
      -0.670
      -0.311
       0.016
       0.241
       0.329
       0.299
       0.208
       0.117
       0.052
      -0.012
      -0.115
      -0.265
      -0.423
      -0.540
      -0.598
      -0.617
      -0.615
      -0.576
      -0.461
      -0.258
      -0.011
       0.205
       0.326
       0.336
       0.253
       0.112
      -0.048
      -0.178
      -0.227
      -0.171
      -0.043
       0.086
       0.147
       0.122
       0.059
       0.035
       0.109
       0.272
       0.439
       0.490
       0.345
       0.011
      -0.414
      -0.792
      -1.004
      -0.985
      -0.738
      -0.334
       0.112
       0.483
       0.701
       0.748
       0.646
       0.439
       0.181
      -0.071
      -0.279
      -0.429
      -0.521
      -0.534
      -0.414
      -0.108
       0.376
       0.946
       1.463
       1.825
       2.018
       2.090
       2.091
       2.023
       1.850
       1.543
       1.112
       0.614
       0.131
      -0.259
      -0.513
      -0.634
      -0.664
      -0.657
      -0.646
      -0.633
      -0.601
      -0.541
      -0.469
      -0.429
      -0.464
      -0.590
      -0.784
      -0.993
      -1.165
      -1.273
      -1.314
      -1.281
      -1.150
      -0.905
      -0.565
      -0.186
       0.165
       0.449
       0.661
       0.806
       0.874
       0.847
       0.732
       0.570
       0.419
       0.315
       0.254
       0.214
       0.176
       0.133
       0.074
      -0.033
      -0.223
      -0.496
      -0.800
      -1.033
      -1.095
      -0.945
      -0.630
      -0.266
       0.033
       0.212
       0.291
       0.321
       0.352
       0.415
       0.532
       0.713
       0.933
       1.117
       1.171
       1.051
       0.793
       0.482
       0.188
      -0.082
      -0.359
      -0.659
      -0.958
      -1.208
      -1.362
      -1.396
      -1.312
      -1.140
      -0.924
      -0.710
      -0.530
      -0.402
      -0.330
      -0.304
      -0.295
      -0.249
      -0.109
       0.141
       0.451
       0.714
       0.838
       0.802
       0.671
       0.534
       0.443
       0.392
       0.336
       0.240
       0.101
      -0.075
      -0.298
      -0.596
      -0.968
      -1.335
      -1.552
      -1.492
      -1.134
      -0.582
      -0.004
       0.464
       0.773
       0.949
       1.035
       1.041
       0.952
       0.776
       0.575
       0.433
       0.390
       0.413
       0.439
       0.430
       0.401
       0.403
       0.459
       0.535
       0.547
       0.431
       0.195
      -0.073
      -0.258
      -0.291
      -0.190
      -0.050
       0.020
      -0.034
      -0.171
      -0.281
      -0.272
      -0.139
       0.044
       0.197
       0.298
       0.384
       0.485
       0.579
       0.593
       0.464
       0.195
      -0.129
      -0.392
      -0.521
      -0.529
      -0.479
      -0.418
      -0.335
      -0.188
       0.044
       0.323
       0.569
       0.702
       0.680
       0.521
       0.285
       0.042
      -0.161
      -0.309
      -0.423
      -0.537
      -0.665
      -0.772
      -0.786
      -0.651
      -0.390
      -0.098
       0.122
       0.221
       0.228
       0.220
       0.269
       0.387
       0.508
       0.539
       0.436
       0.240
       0.031
      -0.134
      -0.255
      -0.360
      -0.464
      -0.553
      -0.605
      -0.613
      -0.594
      -0.557
      -0.494
      -0.393
      -0.272
      -0.179
      -0.160
      -0.214
      -0.282
      -0.276
      -0.134
       0.125
       0.387
       0.493
       0.344
      -0.031
      -0.490
      -0.871
      -1.089
      -1.147
      -1.095
      -0.974
      -0.797
      -0.567
      -0.315
      -0.110
      -0.034
      -0.127
      -0.348
      -0.581
      -0.705
      -0.652
      -0.429
      -0.095
       0.285
       0.660
       0.998
       1.274
       1.461
       1.532
       1.472
       1.304
       1.087
       0.890
       0.747
       0.632
       0.495
       0.319
       0.136
      -0.010
      -0.099
      -0.137
      -0.129
      -0.065
       0.057
       0.216
       0.368
       0.471
       0.499
       0.445
       0.316
       0.132
      -0.077
      -0.270
      -0.401
      -0.433
      -0.353
      -0.190
      -0.012
       0.103
       0.111
       0.024
      -0.106
      -0.238
      -0.362
      -0.486
      -0.600
      -0.668
      -0.664
      -0.593
      -0.494
      -0.408
      -0.357
      -0.331
      -0.299
      -0.218
      -0.060
       0.175
       0.450
       0.707
       0.881
       0.926
       0.818
       0.567
       0.219
      -0.163
      -0.511
      -0.770
      -0.907
      -0.919
      -0.828
      -0.684
      -0.555
      -0.517
      -0.628
      -0.888
      -1.239
      -1.586
      -1.856
      -2.026
      -2.128
      -2.199
      -2.244
      -2.220
      -2.070
      -1.777
      -1.380
      -0.945
      -0.507
      -0.048
       0.480
       1.103
       1.786
       2.455
       3.042
       3.518
       3.886
       4.152
       4.307
       4.336
       4.242
       4.052
       3.806
       3.533
       3.243
       2.936
       2.625
       2.344
       2.131
       2.002
       1.947
       1.957
       2.043
       2.224
       2.498
       2.820
       3.106
       3.280
       3.301
       3.183
       2.973
       2.727
       2.499
       2.329
       2.228
       2.165
       2.075
       1.894
       1.599
       1.216
       0.795
       0.373
      -0.036
      -0.427
      -0.798
      -1.148
      -1.489
      -1.857
      -2.307
      -2.878
      -3.568
      -4.327
      -5.094
      -5.831
      -6.533
      -7.205
      -7.835
      -8.382
      -8.800
      -9.060
      -9.170
      -9.175
      -9.118
      -9.027
      -8.914
      -8.800
      -8.718
      -8.696
      -8.730
      -8.777
      -8.762
      -8.606
      -8.241
      -7.616
      -6.698
      -5.474
      -3.949
      -2.164
      -0.198
       1.833
       3.797
       5.561
       7.015
       8.089
       8.770
       9.104
       9.167
       9.020
       8.686
       8.176
       7.532
       6.867
       6.358
       6.185
       6.456
       7.138
       8.054
       8.941
       9.551
       9.737
       9.482
       8.855
       7.931
       6.768
       5.440
       4.085
       2.892
       2.023
       1.525
       1.315
       1.224
       1.077
       0.750
       0.178
      -0.658
      -1.742
      -3.027
      -4.416
      -5.763
      -6.902
      -7.709
      -8.141
      -8.230
      -8.028
      -7.564
      -6.858
      -5.962
      -4.983
      -4.054
      -3.276
      -2.688
      -2.275
      -1.979
      -1.722
      -1.417
      -0.990
      -0.409
       0.308
       1.101
       1.882
       2.566
       3.093
       3.442
       3.643
       3.769
       3.900
       4.075
       4.252
       4.332
       4.220
       3.886
       3.382
       2.795
       2.195
       1.587
       0.929
       0.178
      -0.648
      -1.466
      -2.170
      -2.701
      -3.077
      -3.374
      -3.684
      -4.061
      -4.497
      -4.914
      -5.189
      -5.211
      -4.932
      -4.396
      -3.720
      -3.056
      -2.528
      -2.196
      -2.040
      -1.981
      -1.905
      -1.696
      -1.280
      -0.668
       0.049
       0.747
       1.354
       1.895
       2.467
       3.154
       3.960
       4.796
       5.535
       6.083
       6.412
       6.555
       6.553
       6.428
       6.171
       5.766
       5.210
       4.522
       3.745
       2.953
       2.230
       1.647
       1.229
       0.954
       0.767
       0.607
       0.415
       0.149
      -0.225
      -0.731
      -1.389
      -2.199
      -3.116
      -4.048
      -4.880
      -5.537
      -6.027
      -6.425
      -6.800
      -7.144
      -7.361
      -7.328
      -6.968
      -6.286
      -5.347
      -4.242
      -3.059
      -1.877
      -0.767
       0.203
       0.969
       1.497
       1.793
       1.887
       1.815
       1.616
       1.353
       1.112
       0.967
       0.959
       1.102
       1.406
       1.885
       2.542
       3.348
       4.223
       5.045
       5.692
       6.096
       6.266
       6.250
       6.074
       5.706
       5.096
       4.247
       3.241
       2.204
       1.249
       0.429
      -0.254
      -0.821
      -1.281
      -1.624
      -1.840
      -1.945
      -1.982
      -1.993
      -1.983
      -1.935
      -1.852
      -1.785
      -1.819
      -2.026
      -2.418
      -2.925
      -3.400
      -3.669
      -3.607
      -3.206
      -2.575
      -1.859
      -1.148
      -0.458
       0.227
       0.883
       1.441
       1.845
       2.103
       2.292
       2.488
       2.703
       2.879
       2.938
       2.842
       2.614
       2.308
       1.973
       1.626
       1.257
       0.845
       0.381
      -0.134
      -0.697
      -1.330
      -2.063
      -2.913
      -3.846
      -4.776
      -5.588
      -6.185
      -6.533
      -6.654
      -6.599
      -6.390
      -6.008
      -5.424
      -4.658
      -3.801
      -2.991
      -2.347
      -1.901
      -1.588
      -1.292
      -0.936
      -0.537
      -0.195
      -0.002
       0.036
       0.017
       0.070
       0.261
       0.559
       0.888
       1.200
       1.505
       1.834
       2.186
       2.512
       2.743
       2.835
       2.805
       2.733
       2.723
       2.849
       3.110
       3.435
       3.730
       3.941
       4.071
       4.152
       4.208
       4.226
       4.162
       3.963
       3.597
       3.095
       2.548
       2.063
       1.687
       1.397
       1.146
       0.935
       0.806
       0.798
       0.886
       0.997
       1.059
       1.029
       0.887
       0.612
       0.184
      -0.368
      -0.951
      -1.438
      -1.726
      -1.788
      -1.670
      -1.457
      -1.227
      -1.022
      -0.849
      -0.700
      -0.577
      -0.492
      -0.446
      -0.430
      -0.433
      -0.461
      -0.522
      -0.603
      -0.652
      -0.593
      -0.380
      -0.034
       0.344
       0.618
       0.689
       0.555
       0.306
       0.058
      -0.124
      -0.262
      -0.426
      -0.649
      -0.877
      -0.986
      -0.875
      -0.557
      -0.182
       0.030
      -0.085
      -0.548
      -1.234
      -1.955
      -2.541
      -2.890
      -2.979
      -2.845
      -2.571
      -2.238
      -1.886
      -1.505
      -1.067
      -0.572
      -0.075
       0.328
       0.535
       0.479
       0.173
      -0.286
      -0.760
      -1.125
      -1.319
      -1.356
      -1.305
      -1.245
      -1.201
      -1.118
      -0.899
      -0.508
      -0.027
       0.377
       0.559
       0.479
       0.206
      -0.132
      -0.412
      -0.561
      -0.567
      -0.453
      -0.254
       0.010
       0.336
       0.729
       1.189
       1.694
       2.191
       2.629
       2.988
       3.285
       3.538
       3.725
       3.783
       3.654
       3.334
       2.886
       2.418
       2.017
       1.714
       1.484
       1.285
       1.109
       0.971
       0.876
       0.790
       0.659
       0.458
       0.210
      -0.028
      -0.216
      -0.360
      -0.511
      -0.729
      -1.030
      -1.359
      -1.630
      -1.795
      -1.886
      -1.988
      -2.160
      -2.396
      -2.627
      -2.770
      -2.765
      -2.594
      -2.284
      -1.887
      -1.467
      -1.075
      -0.748
      -0.500
      -0.327
      -0.212
      -0.146
      -0.123
      -0.123
      -0.099
       0.016
       0.283
       0.733
       1.332
       1.961
       2.452
       2.670
       2.583
       2.275
       1.874
       1.489
       1.178
       0.956
       0.812
       0.709
       0.605
       0.471
       0.304
       0.120
      -0.072
      -0.277
      -0.502
      -0.737
      -0.955
      -1.140
      -1.301
      -1.462
      -1.620
      -1.738
      -1.765
      -1.687
      -1.535
      -1.363
      -1.216
      -1.120
