Origin Time       03/06/2011 00:53:21
Lat.              27.5 N	
Long.             88.0 E	
Depth (Km)         26.0
Magnitude         4.9
Region            India(Sikkim)-Nepar-Border                                       
 Above details taken from IMD 
     
Station Code      DJL
Station Lat.       27.050  N
Station Long.      88.262  E
Station Height(m)  393.0
Site Class        A   Vs30 between 700 m/sec to 1620 m/sec * 
Record Time       03.06.2011 00:53:25.319
Sampling Rate     200. Hz
Record Duration    85.365 Sec.
Direction         E-W (E positive)
Max. Acceleration      9.364 cm/sec**2
     
  * For reference see Site Classification link of website 
     
 Base Line Corrected and Low Pass Filtered (Cut Off at 35 Hz) Time History
 Acceleration data in cm/sec**2
    
[...]
      -0.754
      -0.701
      -0.555
      -0.324
      -0.038
       0.249
       0.478
       0.605
       0.616
       0.533
       0.387
       0.203
      -0.006
      -0.222
      -0.404
      -0.491
      -0.425
      -0.188
       0.182
       0.604
       0.991
       1.278
       1.438
       1.472
       1.390
       1.197
       0.885
       0.444
      -0.119
      -0.760
      -1.393
      -1.913
      -2.227
      -2.285
      -2.100
      -1.734
      -1.281
      -0.838
      -0.473
      -0.213
      -0.047
       0.053
       0.101
       0.083
      -0.020
      -0.201
      -0.404
      -0.546
      -0.558
      -0.431
      -0.217
       0.016
       0.221
       0.396
       0.559
       0.714
       0.828
       0.848
       0.733
       0.487
       0.161
      -0.174
      -0.455
      -0.645
      -0.729
      -0.701
      -0.568
      -0.350
      -0.083
       0.189
       0.433
       0.630
       0.776
       0.874
       0.927
       0.939
       0.910
       0.835
       0.714
       0.563
       0.421
       0.330
       0.310
       0.338
       0.362
       0.330
       0.229
       0.082
      -0.066
      -0.174
      -0.223
      -0.211
      -0.153
      -0.075
      -0.011
       0.019
       0.024
       0.029
       0.058
       0.106
       0.143
       0.135
       0.079
       0.006
      -0.032
       0.000
       0.095
       0.207
       0.278
       0.274
       0.206
       0.121
       0.077
       0.098
       0.167
       0.232
       0.233
       0.137
      -0.047
      -0.278
      -0.504
      -0.678
      -0.767
      -0.750
      -0.621
      -0.398
      -0.137
       0.082
       0.185
       0.141
      -0.026
      -0.253
      -0.467
      -0.612
      -0.669
      -0.650
      -0.591
      -0.533
      -0.502
      -0.492
      -0.462
      -0.354
      -0.131
       0.185
       0.513
       0.754
       0.841
       0.769
       0.583
       0.341
       0.074
      -0.205
      -0.478
      -0.704
      -0.818
      -0.770
      -0.566
      -0.273
       0.008
       0.202
       0.281
       0.269
       0.210
       0.137
       0.064
      -0.007
      -0.077
      -0.140
      -0.191
      -0.235
      -0.276
      -0.302
      -0.271
      -0.122
       0.183
       0.625
       1.120
       1.548
       1.802
       1.822
       1.605
       1.195
       0.661
       0.090
      -0.428
      -0.823
      -1.059
      -1.140
      -1.093
      -0.947
      -0.727
      -0.456
      -0.173
       0.060
       0.177
       0.132
      -0.069
      -0.359
      -0.638
      -0.813
      -0.837
      -0.724
      -0.531
      -0.319
      -0.115
       0.085
       0.299
       0.530
       0.758
       0.948
       1.070
       1.097
       1.010
       0.805
       0.520
       0.238
       0.055
       0.026
       0.123
       0.259
       0.339
       0.318
       0.208
       0.050
      -0.115
      -0.264
      -0.391
      -0.493
      -0.567
      -0.611
      -0.625
      -0.610
      -0.568
      -0.495
      -0.388
      -0.251
      -0.093
       0.076
       0.249
       0.416
       0.554
       0.626
       0.600
       0.478
       0.304
       0.139
       0.027
      -0.028
      -0.066
      -0.134
      -0.265
      -0.457
      -0.675
      -0.876
      -1.028
      -1.117
      -1.149
      -1.138
      -1.096
      -1.026
      -0.916
      -0.749
      -0.513
      -0.231
       0.053
       0.298
       0.499
       0.688
       0.895
       1.115
       1.298
       1.390
       1.374
       1.289
       1.205
       1.179
       1.214
       1.262
       1.258
       1.156
       0.957
       0.709
       0.476
       0.304
       0.190
       0.081
      -0.086
      -0.341
      -0.655
      -0.952
      -1.158
      -1.248
      -1.251
      -1.212
      -1.146
      -1.031
      -0.839
      -0.582
      -0.318
      -0.119
      -0.024
      -0.025
      -0.076
      -0.132
      -0.167
      -0.181
      -0.184
      -0.182
      -0.172
      -0.148
      -0.109
      -0.067
      -0.044
      -0.048
      -0.068
      -0.070
      -0.019
       0.107
       0.305
       0.542
       0.760
       0.879
       0.833
       0.601
       0.237
      -0.146
      -0.435
      -0.577
      -0.596
      -0.555
      -0.505
      -0.455
      -0.384
      -0.277
      -0.132
       0.042
       0.239
       0.445
       0.631
       0.752
       0.770
       0.665
       0.447
       0.151
      -0.165
      -0.435
      -0.613
      -0.677
      -0.633
      -0.495
      -0.283
      -0.017
       0.283
       0.600
       0.917
       1.193
       1.356
       1.325
       1.056
       0.588
       0.023
      -0.528
      -0.992
      -1.344
      -1.575
      -1.671
      -1.618
      -1.435
      -1.172
      -0.893
      -0.637
      -0.421
      -0.250
      -0.137
      -0.092
      -0.088
      -0.064
       0.053
       0.296
       0.619
       0.916
       1.078
       1.051
       0.871
       0.647
       0.503
       0.517
       0.678
       0.883
       0.979
       0.840
       0.439
      -0.127
      -0.679
      -1.036
      -1.102
      -0.893
      -0.520
      -0.124
       0.187
       0.373
       0.461
       0.515
       0.592
       0.707
       0.821
       0.883
       0.858
       0.747
       0.576
       0.371
       0.152
      -0.063
      -0.256
      -0.409
      -0.511
      -0.550
      -0.507
      -0.361
      -0.121
       0.157
       0.382
       0.473
       0.402
       0.209
      -0.021
      -0.197
      -0.260
      -0.198
      -0.046
       0.124
       0.220
       0.162
      -0.077
      -0.445
      -0.821
      -1.067
      -1.097
      -0.915
      -0.605
      -0.267
       0.035
       0.296
       0.535
       0.763
       0.957
       1.073
       1.073
       0.949
       0.734
       0.491
       0.289
       0.161
       0.087
       0.003
      -0.160
      -0.439
      -0.805
      -1.175
      -1.435
      -1.495
      -1.333
      -1.014
      -0.663
      -0.403
      -0.304
      -0.356
      -0.497
      -0.652
      -0.766
      -0.806
      -0.754
      -0.603
      -0.357
      -0.047
       0.264
       0.502
       0.608
       0.575
       0.457
       0.345
       0.313
       0.379
       0.505
       0.623
       0.686
       0.688
       0.654
       0.615
       0.576
       0.513
       0.389
       0.179
      -0.092
      -0.348
      -0.493
      -0.468
      -0.294
      -0.077
       0.053
       0.017
      -0.155
      -0.348
      -0.434
      -0.359
      -0.167
       0.038
       0.160
       0.159
       0.054
      -0.099
      -0.231
      -0.282
      -0.213
      -0.022
       0.255
       0.558
       0.828
       1.024
       1.137
       1.188
       1.209
       1.221
       1.212
       1.153
       1.024
       0.840
       0.646
       0.477
       0.340
       0.213
       0.073
      -0.088
      -0.269
      -0.483
      -0.755
      -1.097
      -1.482
      -1.832
      -2.058
      -2.107
      -1.994
      -1.791
      -1.572
      -1.367
      -1.137
      -0.817
      -0.371
       0.165
       0.697
       1.120
       1.381
       1.504
       1.565
       1.624
       1.668
       1.611
       1.348
       0.847
       0.191
      -0.460
      -0.957
      -1.238
      -1.343
      -1.357
      -1.343
      -1.307
      -1.213
      -1.031
      -0.769
      -0.471
      -0.191
       0.047
       0.253
       0.448
       0.624
       0.742
       0.753
       0.638
       0.436
       0.227
       0.100
       0.098
       0.196
       0.311
       0.353
       0.284
       0.147
       0.040
       0.050
       0.189
       0.388
       0.542
       0.581
       0.502
       0.358
       0.207
       0.081
      -0.020
      -0.097
      -0.126
      -0.070
       0.097
       0.345
       0.592
       0.737
       0.710
       0.512
       0.211
      -0.093
      -0.316
      -0.433
      -0.474
      -0.492
      -0.522
      -0.558
      -0.570
      -0.528
      -0.418
      -0.237
       0.022
       0.356
       0.726
       1.042
       1.192
       1.098
       0.769
       0.317
      -0.088
      -0.299
      -0.262
      -0.041
       0.230
       0.424
       0.480
       0.409
       0.262
       0.090
      -0.075
      -0.215
      -0.321
      -0.386
      -0.423
      -0.466
      -0.549
      -0.686
      -0.871
      -1.097
      -1.360
      -1.638
      -1.868
      -1.948
      -1.800
      -1.423
      -0.904
      -0.368
       0.096
       0.464
       0.753
       0.988
       1.181
       1.331
       1.430
       1.455
       1.380
       1.189
       0.896
       0.551
       0.225
      -0.021
      -0.152
      -0.167
      -0.086
       0.055
       0.217
       0.354
       0.422
       0.397
       0.287
       0.134
      -0.019
      -0.161
      -0.329
      -0.572
      -0.912
      -1.307
      -1.670
      -1.911
      -1.978
      -1.879
      -1.653
      -1.340
      -0.948
      -0.459
       0.139
       0.811
       1.468
       2.001
       2.339
       2.484
       2.485
       2.385
       2.178
       1.826
       1.311
       0.664
      -0.047
      -0.749
      -1.378
      -1.872
      -2.166
      -2.211
      -1.998
      -1.568
      -0.995
      -0.362
       0.255
       0.796
       1.220
       1.523
       1.731
       1.890
       2.039
       2.200
       2.383
       2.589
       2.810
       3.028
       3.221
       3.354
       3.377
       3.227
       2.852
       2.243
       1.452
       0.585
      -0.241
      -0.930
      -1.437
      -1.764
      -1.948
      -2.046
      -2.119
      -2.213
      -2.341
      -2.490
      -2.625
      -2.718
      -2.756
      -2.751
      -2.731
      -2.726
      -2.746
      -2.775
      -2.778
      -2.721
      -2.583
      -2.363
      -2.075
      -1.739
      -1.371
      -0.952
      -0.434
       0.235
       1.056
       1.948
       2.761
       3.337
       3.576
       3.472
       3.095
       2.545
       1.910
       1.252
       0.614
       0.040
      -0.425
      -0.751
      -0.928
      -0.965
      -0.880
      -0.704
      -0.481
      -0.266
      -0.105
      -0.022
      -0.018
      -0.072
      -0.138
      -0.159
      -0.090
       0.073
       0.279
       0.453
       0.552
       0.603
       0.684
       0.860
       1.124
       1.402
       1.605
       1.698
       1.703
       1.660
       1.579
       1.420
       1.130
       0.692
       0.150
      -0.403
      -0.869
      -1.196
      -1.401
      -1.559
      -1.768
      -2.090
      -2.515
      -2.956
      -3.296
      -3.436
      -3.333
      -2.996
      -2.454
      -1.736
      -0.872
       0.093
       1.096
       2.055
       2.894
       3.557
       4.010
       4.239
       4.243
       4.026
       3.607
       3.016
       2.289
       1.462
       0.558
      -0.403
      -1.400
      -2.406
      -3.381
      -4.271
      -5.005
      -5.516
      -5.754
      -5.704
      -5.404
      -4.934
      -4.387
      -3.842
      -3.338
      -2.889
      -2.497
      -2.165
      -1.875
      -1.581
      -1.221
      -0.756
      -0.191
       0.433
       1.069
       1.681
       2.244
       2.717
       3.039
       3.153
       3.044
       2.754
       2.360
       1.920
       1.440
       0.884
       0.219
      -0.539
      -1.301
      -1.920
      -2.249
      -2.189
      -1.718
      -0.891
       0.190
       1.413
       2.678
       3.905
       5.040
       6.055
       6.941
       7.680
       8.205
       8.384
       8.080
       7.246
       5.990
       4.555
       3.207
       2.120
       1.327
       0.762
       0.338
      -0.002
      -0.279
      -0.516
      -0.752
      -1.039
      -1.421
      -1.920
      -2.536
      -3.254
      -4.038
      -4.817
      -5.484
      -5.923
      -6.043
      -5.820
      -5.299
      -4.573
      -3.744
      -2.898
      -2.093
      -1.381
      -0.808
      -0.409
      -0.181
      -0.074
       0.000
       0.129
       0.372
       0.737
       1.188
       1.656
       2.068
       2.357
       2.469
       2.350
       1.949
       1.220
       0.150
      -1.208
      -2.726
      -4.233
      -5.574
      -6.646
      -7.391
      -7.746
      -7.627
      -6.957
      -5.730
      -4.033
      -2.026
       0.116
       2.245
       4.239
       5.990
       7.398
       8.381
       8.883
       8.878
       8.352
       7.318
       5.828
       4.009
       2.065
       0.241
      -1.234
      -2.210
      -2.644
      -2.599
      -2.198
      -1.567
      -0.803
       0.039
       0.924
       1.812
       2.639
       3.310
       3.712
       3.742
       3.342
       2.521
       1.354
      -0.034
      -1.494
      -2.879
      -4.074
      -5.014
      -5.676
      -6.045
      -6.095
      -5.788
      -5.106
      -4.084
      -2.820
      -1.465
      -0.197
       0.826
       1.505
       1.824
       1.821
       1.541
       1.004
       0.215
      -0.792
      -1.917
      -2.995
      -3.866
      -4.439
      -4.720
      -4.782
      -4.709
      -4.549
      -4.304
      -3.948
      -3.454
      -2.821
      -2.074
      -1.248
      -0.359
       0.602
       1.646
       2.746
       3.836
       4.844
       5.733
       6.492
       7.109
       7.564
       7.858
       8.049
       8.238
       8.504
       8.846
       9.175
       9.364
       9.312
       8.986
       8.421
       7.685
       6.839
       5.904
       4.866
       3.701
       2.411
       1.036
      -0.342
      -1.624
      -2.730
      -3.632
      -4.364
      -4.986
      -5.536
      -5.998
      -6.315
      -6.423
      -6.301
      -5.986
      -5.565
      -5.139
      -4.786
      -4.534
      -4.372
      -4.275
      -4.218
      -4.192
      -4.189
      -4.202
      -4.238
      -4.328
      -4.515
      -4.825
      -5.225
      -5.606
      -5.828
      -5.791
      -5.492
      -5.024
      -4.513
      -4.041
      -3.619
      -3.214
      -2.797
      -2.362
      -1.909
      -1.413
      -0.821
      -0.079
       0.829
       1.857
       2.904
       3.848
       4.603
       5.153
       5.556
       5.907
       6.276
       6.670
       7.020
       7.226
       7.216
       6.982
       6.575
       6.057
       5.461
       4.787
       4.020
       3.166
       2.262
       1.376
       0.581
      -0.063
      -0.522
      -0.784
      -0.851
      -0.727
      -0.411
       0.086
       0.736
       1.482
       2.246
       2.939
       3.484
       3.827
       3.936
       3.799
       3.432
       2.898
       2.303
       1.763
       1.348
       1.051
       0.801
       0.515
       0.149
      -0.288
      -0.758
      -1.226
      -1.687
      -2.151
      -2.619
      -3.075
      -3.499
      -3.895
      -4.310
      -4.815
      -5.462
      -6.235
      -7.017
      -7.623
      -7.883
      -7.728
      -7.235
      -6.579
      -5.933
      -5.376
      -4.868
      -4.303
      -3.585
      -2.687
      -1.641
      -0.499
       0.689
       1.874
       2.989
       3.945
       4.664
       5.117
       5.337
       5.400
       5.389
       5.358
       5.319
       5.260
       5.156
       4.985
       4.735
       4.415
       4.050
       3.681
       3.337
       3.013
       2.656
       2.194
       1.577
       0.822
       0.014
      -0.734
      -1.333
      -1.755
      -2.027
      -2.194
      -2.290
      -2.327
      -2.306
      -2.241
      -2.157
      -2.073
      -1.993
      -1.906
      -1.792
      -1.633
      -1.407
      -1.097
      -0.705
      -0.268
       0.142
       0.453
       0.624
       0.656
       0.574
       0.401
       0.142
      -0.205
      -0.622
      -1.046
      -1.366
      -1.462
      -1.264
      -0.805
      -0.214
       0.342
       0.735
       0.922
       0.948
       0.902
       0.867
       0.871
       0.882
       0.832
       0.669
       0.396
       0.074
      -0.226
      -0.463
      -0.639
      -0.772
      -0.857
      -0.861
      -0.753
      -0.532
      -0.244
       0.032
       0.217
       0.265
       0.194
       0.074
      -0.007
      -0.010
       0.038
       0.059
      -0.019
      -0.218
      -0.505
      -0.820
      -1.122
      -1.412
      -1.715
      -2.048
      -2.393
      -2.704
      -2.944
      -3.111
      -3.225
      -3.290
      -3.260
      -3.050
      -2.582
      -1.843
      -0.904
       0.109
       1.071
       1.901
       2.567
       3.061
       3.355
       3.382
       3.065
       2.371
       1.371
       0.243
      -0.789
      -1.553
      -1.998
      -2.193
      -2.259
      -2.277
      -2.251
      -2.119
      -1.813
      -1.313
      -0.667
       0.032
       0.680
       1.199
       1.541
       1.680
       1.611
       1.358
       0.992
       0.632
       0.409
       0.392
       0.544
       0.737
       0.834
       0.771
       0.595
       0.426
       0.379
       0.505
       0.765
       1.069
       1.334
       1.529
       1.677
       1.814
       1.951
       2.064
       2.116
       2.088
       1.990
       1.846
       1.679
       1.506
       1.347
       1.233
       1.205
       1.300
       1.539
       1.920
       2.411
       2.942
       3.422
       3.751
       3.860
       3.727
       3.389
       2.927
       2.434
       1.984
       1.617
       1.338
       1.131
       0.965
       0.794
       0.561
       0.219
      -0.231
      -0.715
      -1.119
      -1.365
      -1.479
      -1.583
      -1.816
      -2.239
      -2.776
      -3.256
      -3.498
      -3.411
      -3.035
      -2.529
      -2.101
      -1.919
      -2.049
      -2.437
      -2.949
      -3.446
      -3.846
      -4.136
      -4.340
      -4.473
      -4.521
      -4.473
      -4.351
      -4.213
      -4.105
      -4.007
      -3.826
      -3.446
      -2.808
      -1.952
      -0.997
      -0.085
       0.669
       1.197
       1.481
       1.552
       1.483
       1.360
       1.246
       1.153
       1.051
       0.904
       0.702
       0.478
       0.313
       0.329
       0.640
       1.292
       2.204
       3.182
       3.990
       4.457
       4.532
       4.278
       3.812
       3.262
       2.742
       2.345
       2.120
       2.044
       2.034
       2.009
       1.952
       1.910
       1.934
       2.008
       2.036
       1.911
       1.583
       1.091
       0.529
      -0.028
      -0.555
      -1.072
      -1.595
      -2.093
      -2.492
      -2.717
      -2.734
      -2.577
      -2.319
      -2.035
      -1.767
      -1.518
      -1.270
      -1.018
      -0.799
      -0.682
      -0.735
      -0.974
      -1.334
      -1.689
      -1.906
      -1.907
      -1.691
      -1.301
      -0.781
      -0.167
       0.492
       1.111
       1.581
       1.819
       1.804
       1.586
       1.259
       0.913
       0.598
       0.327
       0.106
      -0.046
      -0.106
      -0.089
      -0.064
      -0.129
      -0.347
      -0.697
      -1.086
      -1.407
      -1.609
      -1.711
      -1.784
      -1.881
      -2.004
      -2.097
      -2.076
      -1.876
      -1.489
