Origin Time       30/11/2012 19:39:29
Lat.              27.3 N 
Long.             88.3 E 
Depth (Km)         10.0
Magnitude         4.1
 Region           WEST-SIKKIM                                                      
 Above details taken from IMD 
   
Station Code      DJL
Station Lat.       27.050
Station Long.      88.262
Station Height(m) 2110.0
Site Class        A   Vs30 between 700 m/sec to 1400 m/sec * 
Record Time       30.11.2012 19:38:58.074
Sampling Rate     200. Hz
 Record Duration   86.645 Sec.
 Direction         Vert. (Up positive)
Max. Acceleration      9.364 cm/sec**2
     
  * For reference see Site Classification link of website 
     
 Base Line Corrected and Low Pass Filtered (Cut Off at 35 Hz) Time History
 Acceleration data in cm/sec**2
    
[...]
      -0.018
      -0.038
      -0.030
       0.002
       0.037
       0.052
       0.050
       0.051
       0.081
       0.144
       0.214
       0.250
       0.230
       0.162
       0.090
       0.051
       0.053
       0.070
       0.067
       0.031
      -0.014
      -0.033
      -0.013
       0.026
       0.052
       0.056
       0.071
       0.144
       0.277
       0.397
       0.374
       0.116
      -0.343
      -0.809
      -1.004
      -0.718
       0.041
       1.016
       1.811
       2.078
       1.674
       0.701
      -0.573
      -1.841
      -2.860
      -3.506
      -3.771
      -3.715
      -3.397
      -2.808
      -1.872
      -0.542
       1.066
       2.613
       3.624
       3.721
       2.837
       1.282
      -0.380
      -1.584
      -1.996
      -1.624
      -0.776
       0.112
       0.693
       0.849
       0.700
       0.496
       0.473
       0.751
       1.300
       1.964
       2.546
       2.907
       3.020
       2.953
       2.782
       2.521
       2.080
       1.280
      -0.063
      -1.983
      -4.215
      -6.201
      -7.283
      -7.026
      -5.447
      -3.039
      -0.562
       1.271
       2.103
       2.073
       1.716
       1.661
       2.285
       3.501
       4.767
       5.328
       4.625
       2.673
       0.143
      -2.001
      -3.067
      -2.996
      -2.266
      -1.522
      -1.234
      -1.511
      -2.056
      -2.298
      -1.745
      -0.360
       1.345
       2.618
       2.901
       2.080
       0.460
      -1.388
      -2.828
      -3.372
      -2.877
      -1.599
      -0.039
       1.303
       2.149
       2.547
       2.805
       3.252
       3.948
       4.570
       4.608
       3.706
       1.881
      -0.505
      -2.911
      -4.803
      -5.788
      -5.734
      -4.839
      -3.575
      -2.470
      -1.837
      -1.587
      -1.300
      -0.521
       0.875
       2.542
       3.853
       4.270
       3.660
       2.342
       0.893
      -0.175
      -0.659
      -0.730
      -0.768
      -1.094
      -1.783
      -2.647
      -3.362
      -3.600
      -3.128
      -1.886
      -0.052
       1.939
       3.500
       4.146
       3.770
       2.703
       1.478
       0.484
      -0.187
      -0.651
      -1.043
      -1.430
      -1.816
      -2.133
      -2.226
      -1.923
      -1.189
      -0.213
       0.674
       1.188
       1.247
       1.011
       0.779
       0.788
       1.031
       1.242
       1.084
       0.412
      -0.573
      -1.414
      -1.666
      -1.174
      -0.187
       0.801
       1.374
       1.451
       1.295
       1.279
       1.600
       2.139
       2.534
       2.415
       1.664
       0.524
      -0.538
      -1.136
      -1.195
      -0.936
      -0.678
      -0.637
      -0.850
      -1.212
      -1.557
      -1.741
      -1.713
      -1.528
      -1.306
      -1.147
      -1.066
      -0.979
      -0.746
      -0.258
       0.478
       1.302
       1.940
       2.122
       1.731
       0.895
      -0.048
      -0.717
      -0.891
      -0.617
      -0.162
       0.147
       0.094
      -0.327
      -0.924
      -1.390
      -1.448
      -0.994
      -0.164
       0.732
       1.376
       1.593
       1.380
       0.846
       0.153
      -0.473
      -0.754
      -0.489
       0.269
       1.159
       1.683
       1.497
       0.614
      -0.613
      -1.690
      -2.233
      -2.123
      -1.503
      -0.656
       0.139
       0.717
       1.059
       1.273
       1.514
       1.853
       2.195
       2.320
       2.049
       1.396
       0.575
      -0.153
      -0.661
      -1.017
      -1.369
      -1.763
      -2.054
      -2.018
      -1.556
      -0.803
      -0.030
       0.542
       0.836
       0.870
       0.681
       0.320
      -0.107
      -0.457
      -0.626
      -0.610
      -0.493
      -0.393
      -0.404
      -0.568
      -0.842
      -1.123
      -1.295
      -1.274
      -1.026
      -0.582
      -0.040
       0.443
       0.717
       0.727
       0.555
       0.371
       0.330
       0.472
       0.699
       0.817
       0.634
       0.075
      -0.750
      -1.549
      -1.958
      -1.711
      -0.788
       0.553
       1.897
       2.853
       3.195
       2.889
       2.068
       0.992
      -0.002
      -0.615
      -0.740
      -0.545
      -0.385
      -0.568
      -1.156
      -1.926
      -2.499
      -2.556
      -2.004
      -1.011
       0.086
       0.959
       1.425
       1.487
       1.272
       0.945
       0.640
       0.421
       0.268
       0.106
      -0.121
      -0.393
      -0.595
      -0.588
      -0.301
       0.189
       0.679
       0.958
       0.937
       0.692
       0.388
       0.163
       0.070
       0.103
       0.230
       0.397
       0.529
       0.573
       0.553
       0.542
       0.566
       0.535
       0.309
      -0.165
      -0.787
      -1.350
      -1.661
      -1.626
      -1.285
      -0.788
      -0.327
      -0.035
       0.059
       0.005
      -0.134
      -0.314
      -0.496
      -0.626
      -0.652
      -0.552
      -0.350
      -0.102
       0.125
       0.271
       0.303
       0.230
       0.097
      -0.032
      -0.098
      -0.081
      -0.007
       0.077
       0.151
       0.240
       0.374
       0.546
       0.718
       0.863
       0.974
       1.031
       0.989
       0.825
       0.590
       0.404
       0.377
       0.531
       0.774
       0.928
       0.819
       0.391
      -0.239
      -0.840
      -1.230
      -1.378
      -1.389
      -1.395
      -1.461
      -1.568
      -1.644
      -1.612
      -1.411
      -1.021
      -0.471
       0.164
       0.771
       1.217
       1.394
       1.279
       0.964
       0.611
       0.351
       0.205
       0.079
      -0.156
      -0.552
      -1.032
      -1.427
      -1.583
      -1.435
      -1.006
      -0.382
       0.308
       0.899
       1.247
       1.300
       1.118
       0.815
       0.473
       0.133
      -0.163
      -0.357
      -0.410
      -0.337
      -0.189
       0.001
       0.246
       0.577
       0.982
       1.348
       1.497
       1.301
       0.798
       0.189
      -0.298
      -0.547
      -0.596
      -0.565
      -0.557
      -0.595
      -0.616
      -0.516
      -0.232
       0.179
       0.556
       0.740
       0.683
       0.464
       0.212
       0.020
      -0.079
      -0.087
      -0.014
       0.119
       0.254
       0.318
       0.276
       0.178
       0.128
       0.199
       0.355
       0.471
       0.425
       0.188
      -0.180
      -0.578
      -0.931
      -1.198
      -1.338
      -1.296
      -1.032
      -0.585
      -0.096
       0.247
       0.330
       0.183
      -0.044
      -0.195
      -0.218
      -0.179
      -0.172
      -0.229
      -0.296
      -0.298
      -0.195
       0.019
       0.350
       0.774
       1.178
       1.375
       1.227
       0.774
       0.226
      -0.177
      -0.311
      -0.202
       0.038
       0.277
       0.401
       0.333
       0.073
      -0.284
      -0.593
      -0.748
      -0.736
      -0.630
      -0.515
      -0.439
      -0.408
      -0.419
      -0.477
      -0.576
      -0.684
      -0.753
      -0.749
      -0.667
      -0.527
      -0.362
      -0.195
      -0.024
       0.193
       0.494
       0.865
       1.220
       1.456
       1.516
       1.404
       1.159
       0.834
       0.491
       0.187
      -0.046
      -0.214
      -0.335
      -0.413
      -0.443
      -0.445
      -0.473
      -0.568
      -0.693
      -0.732
      -0.576
      -0.221
       0.218
       0.589
       0.797
       0.831
       0.702
       0.407
      -0.037
      -0.513
      -0.805
      -0.719
      -0.238
       0.455
       1.079
       1.423
       1.439
       1.223
       0.936
       0.699
       0.529
       0.340
       0.025
      -0.448
      -1.013
      -1.544
      -1.915
      -2.033
      -1.868
      -1.484
      -1.044
      -0.743
      -0.685
      -0.811
      -0.936
      -0.866
      -0.503
       0.132
       0.938
       1.768
       2.452
       2.809
       2.702
       2.124
       1.247
       0.360
      -0.276
      -0.547
      -0.498
      -0.267
      -0.008
       0.168
       0.211
       0.125
      -0.046
      -0.251
      -0.451
      -0.622
      -0.767
      -0.929
      -1.176
      -1.539
      -1.942
      -2.202
      -2.141
      -1.716
      -1.061
      -0.390
       0.129
       0.455
       0.653
       0.840
       1.115
       1.501
       1.908
       2.172
       2.145
       1.792
       1.200
       0.513
      -0.138
      -0.660
      -0.975
      -1.019
      -0.789
      -0.403
      -0.066
       0.060
      -0.027
      -0.178
      -0.231
      -0.146
       0.002
       0.118
       0.178
       0.218
       0.269
       0.307
       0.260
       0.085
      -0.184
      -0.441
      -0.578
      -0.562
      -0.447
      -0.317
      -0.225
      -0.159
      -0.058
       0.136
       0.405
       0.634
       0.677
       0.487
       0.188
      -0.002
       0.071
       0.371
       0.690
       0.793
       0.578
       0.154
      -0.245
      -0.439
      -0.435
      -0.405
      -0.528
      -0.831
      -1.155
      -1.270
      -1.039
      -0.518
       0.080
       0.531
       0.735
       0.733
       0.625
       0.485
       0.345
       0.241
       0.231
       0.363
       0.632
       0.958
       1.207
       1.251
       1.063
       0.737
       0.430
       0.246
       0.194
       0.228
       0.295
       0.348
       0.334
       0.233
       0.086
      -0.042
      -0.137
      -0.266
      -0.514
      -0.884
      -1.259
      -1.478
      -1.446
      -1.195
      -0.840
      -0.483
      -0.164
       0.092
       0.235
       0.221
       0.073
      -0.120
      -0.287
      -0.430
      -0.573
      -0.692
      -0.729
      -0.653
      -0.495
      -0.299
      -0.085
       0.135
       0.325
       0.452
       0.528
       0.619
       0.797
       1.064
       1.326
       1.440
       1.313
       0.959
       0.476
      -0.043
      -0.559
      -1.063
      -1.529
      -1.894
      -2.082
      -2.029
      -1.707
      -1.146
      -0.462
       0.154
       0.517
       0.566
       0.415
       0.263
       0.235
       0.296
       0.309
       0.182
      -0.055
      -0.305
      -0.507
      -0.669
      -0.814
      -0.933
      -0.986
      -0.938
      -0.770
      -0.476
      -0.081
       0.338
       0.688
       0.936
       1.142
       1.387
       1.669
       1.898
       1.980
       1.902
       1.722
       1.493
       1.233
       0.946
       0.653
       0.382
       0.149
      -0.047
      -0.203
      -0.304
      -0.324
      -0.241
      -0.043
       0.247
       0.551
       0.749
       0.745
       0.509
       0.096
      -0.405
      -0.901
      -1.319
      -1.610
      -1.739
      -1.687
      -1.457
      -1.091
      -0.674
      -0.308
      -0.065
       0.047
       0.083
       0.118
       0.206
       0.352
       0.518
       0.661
       0.755
       0.771
       0.662
       0.383
      -0.040
      -0.493
      -0.840
      -1.008
      -1.011
      -0.899
      -0.696
      -0.408
      -0.051
       0.316
       0.610
       0.766
       0.761
       0.623
       0.403
       0.157
      -0.063
      -0.206
      -0.227
      -0.118
       0.058
       0.198
       0.220
       0.132
       0.017
      -0.023
       0.068
       0.270
       0.493
       0.622
       0.560
       0.275
      -0.196
      -0.773
      -1.374
      -1.922
      -2.340
      -2.532
      -2.412
      -1.946
      -1.186
      -0.264
       0.660
       1.465
       2.102
       2.575
       2.882
       2.984
       2.818
       2.364
       1.700
       0.991
       0.390
      -0.057
      -0.436
      -0.866
      -1.381
      -1.895
      -2.278
      -2.454
      -2.409
      -2.153
      -1.707
      -1.142
      -0.605
      -0.266
      -0.206
      -0.352
      -0.519
      -0.548
      -0.413
      -0.217
      -0.067
       0.030
       0.169
       0.444
       0.852
       1.301
       1.681
       1.949
       2.134
       2.317
       2.581
       2.973
       3.483
       4.044
       4.537
       4.805
       4.687
       4.081
       3.018
       1.681
       0.345
      -0.737
      -1.426
      -1.711
      -1.652
      -1.302
      -0.679
       0.175
       1.117
       1.898
       2.283
       2.168
       1.617
       0.775
      -0.231
      -1.313
      -2.385
      -3.343
      -4.097
      -4.620
      -4.945
      -5.105
      -5.063
      -4.713
      -3.960
      -2.847
      -1.586
      -0.462
       0.337
       0.790
       0.975
       0.943
       0.658
       0.055
      -0.868
      -1.998
      -3.134
      -4.038
      -4.512
      -4.477
      -4.005
      -3.294
      -2.563
      -1.957
      -1.490
      -1.101
      -0.741
      -0.426
      -0.202
      -0.082
      -0.022
       0.054
       0.219
       0.520
       0.979
       1.568
       2.197
       2.727
       3.022
       2.996
       2.625
       1.934
       0.973
      -0.193
      -1.462
      -2.676
      -3.653
      -4.285
      -4.607
      -4.746
      -4.785
      -4.688
      -4.354
      -3.727
      -2.840
      -1.768
      -0.579
       0.649
       1.795
       2.734
       3.440
       4.051
       4.801
       5.842
       7.098
       8.280
       9.074
       9.364
       9.300
       9.173
       9.182
       9.294
       9.269
       8.811
       7.753
       6.151
       4.249
       2.356
       0.677
      -0.746
      -1.958
      -2.972
      -3.723
      -4.136
      -4.201
      -3.980
      -3.550
      -2.962
      -2.233
      -1.385
      -0.510
       0.193
       0.470
       0.162
      -0.663
      -1.750
      -2.839
      -3.797
      -4.598
      -5.208
      -5.558
      -5.610
      -5.421
      -5.106
      -4.738
      -4.295
      -3.680
      -2.802
      -1.646
      -0.292
       1.109
       2.400
       3.455
       4.177
       4.489
       4.358
       3.839
       3.095
       2.341
       1.728
       1.252
       0.775
       0.162
      -0.588
      -1.344
      -1.946
      -2.328
      -2.517
      -2.571
      -2.523
      -2.393
      -2.222
      -2.077
      -2.040
      -2.172
      -2.486
      -2.926
      -3.396
      -3.822
      -4.193
      -4.518
      -4.740
      -4.722
      -4.342
      -3.608
      -2.651
      -1.600
      -0.474
       0.783
       2.154
       3.466
       4.484
       5.098
       5.405
       5.582
       5.715
       5.742
       5.546
       5.080
       4.406
       3.641
       2.888
       2.203
       1.633
       1.248
       1.104
       1.155
       1.235
       1.179
       0.973
       0.772
       0.748
       0.935
       1.190
       1.281
       0.999
       0.265
      -0.794
      -1.878
      -2.683
      -3.107
      -3.283
      -3.383
      -3.420
      -3.245
      -2.714
      -1.833
      -0.755
       0.345
       1.360
       2.262
       3.051
       3.702
       4.165
       4.392
       4.368
       4.098
       3.583
       2.851
       2.007
       1.222
       0.633
       0.254
       0.009
      -0.159
      -0.232
      -0.166
       0.025
       0.259
       0.418
       0.380
       0.023
      -0.734
      -1.859
      -3.173
      -4.419
      -5.395
      -6.044
      -6.432
      -6.626
      -6.616
      -6.344
      -5.826
      -5.219
      -4.722
      -4.397
      -4.079
      -3.514
      -2.592
      -1.488
      -0.547
      -0.038
       0.029
      -0.117
      -0.200
      -0.069
       0.243
       0.602
       0.903
       1.141
       1.379
       1.666
       1.966
       2.183
       2.251
       2.202
       2.152
       2.212
       2.397
       2.624
       2.793
       2.874
       2.926
       3.017
       3.120
       3.109
       2.859
       2.379
       1.816
       1.348
       1.046
       0.836
       0.583
       0.213
      -0.223
      -0.579
      -0.698
      -0.497
      -0.019
       0.559
       0.992
       1.092
       0.842
       0.431
       0.160
       0.257
       0.726
       1.337
       1.778
       1.864
       1.623
       1.232
       0.887
       0.715
       0.764
       1.001
       1.298
       1.453
       1.297
       0.818
       0.179
      -0.400
      -0.784
      -0.968
      -1.017
      -0.996
      -0.950
      -0.925
      -0.976
      -1.127
      -1.355
      -1.597
      -1.796
      -1.934
      -2.049
      -2.215
      -2.488
      -2.843
      -3.148
      -3.235
      -3.016
      -2.552
      -2.022
      -1.601
      -1.360
      -1.227
      -1.035
      -0.612
       0.111
       1.031
       1.886
       2.388
       2.404
       2.041
       1.576
       1.268
       1.212
       1.316
       1.393
       1.289
       0.963
       0.514
       0.129
      -0.006
       0.200
       0.698
       1.319
       1.843
       2.097
       2.029
       1.731
       1.400
       1.247
       1.389
       1.799
       2.315
       2.715
       2.841
       2.682
       2.386
       2.134
       1.995
       1.875
       1.603
       1.086
       0.399
      -0.253
      -0.683
      -0.862
      -0.948
      -1.163
      -1.603
      -2.152
      -2.587
      -2.749
      -2.648
      -2.443
      -2.350
      -2.533
      -2.998
      -3.568
      -3.982
      -4.084
      -3.921
      -3.690
      -3.561
      -3.556
      -3.539
      -3.338
      -2.879
      -2.247
      -1.597
      -1.015
      -0.468
       0.097
       0.622
       0.944
       0.934
       0.619
       0.185
      -0.142
      -0.217
      -0.035
       0.294
       0.642
       0.953
       1.261
       1.609
       1.967
       2.227
       2.287
       2.115
       1.767
       1.357
       1.025
       0.869
       0.874
       0.912
       0.856
       0.699
       0.559
       0.564
       0.728
       0.943
       1.047
       0.932
       0.602
       0.184
      -0.143
      -0.250
      -0.130
       0.122
       0.397
       0.640
       0.850
       1.033
       1.149
       1.124
       0.911
       0.554
       0.182
      -0.078
      -0.190
      -0.206
      -0.195
      -0.182
      -0.166
      -0.159
      -0.211
      -0.379
      -0.690
      -1.095
      -1.469
      -1.674
      -1.656
      -1.495
      -1.329
      -1.224
      -1.122
      -0.924
      -0.603
      -0.223
       0.116
       0.341
       0.397
       0.252
      -0.086
      -0.538
      -0.974
      -1.277
      -1.410
      -1.425
      -1.408
      -1.411
      -1.409
      -1.318
      -1.063
      -0.627
      -0.045
       0.612
       1.245
       1.729
       1.958
       1.888
       1.547
       1.006
       0.363
      -0.250
      -0.689
      -0.856
      -0.747
      -0.443
      -0.053
       0.315
       0.579
       0.723
       0.801
       0.905
       1.082
       1.299
       1.464
       1.490
       1.358
       1.139
       0.948
       0.850
       0.796
       0.675
       0.432
       0.120
      -0.158
      -0.345
      -0.466
      -0.586
      -0.760
      -0.999
      -1.237
      -1.334
      -1.138
      -0.604
       0.129
