Origin Time       26/2/2010 4:42:33	 
Lat.              28.5 N	
Long.             86.7 E	
Depth (Km)         28.0
Magnitude         5.4
 Region           Tibet                                                            
 Above details taken from IMD 
   
Station Code      DJL
Station Lat.       27.050
Station Long.      88.262
Station Height(m)  393.0
Site Class        A   Vs30 between 700 m/sec to 1400 m/sec * 
Record Time       26.02.2010 04:43:20.079
Sampling Rate     200. Hz
 Record Duration   71.075 Sec.
 Direction         Vert. (Up positive)
Max. Acceleration      2.798 cm/sec**2
     
  * For reference see Site Classification link of website 
     
 Base Line Corrected and Low Pass Filtered (Cut Off at 35 Hz) Time History
 Acceleration data in cm/sec**2
    
[...]
       0.257
       0.131
       0.050
      -0.013
      -0.082
      -0.153
      -0.207
      -0.235
      -0.250
      -0.276
      -0.313
      -0.330
      -0.291
      -0.193
      -0.084
      -0.043
      -0.129
      -0.336
      -0.579
      -0.741
      -0.737
      -0.574
      -0.346
      -0.166
      -0.107
      -0.158
      -0.228
      -0.186
       0.047
       0.434
       0.821
       1.024
       0.949
       0.654
       0.312
       0.092
       0.046
       0.074
       0.020
      -0.192
      -0.492
      -0.712
      -0.716
      -0.491
      -0.150
       0.159
       0.346
       0.420
       0.447
       0.480
       0.514
       0.501
       0.390
       0.167
      -0.121
      -0.370
      -0.470
      -0.366
      -0.105
       0.204
       0.465
       0.642
       0.726
       0.675
       0.437
       0.031
      -0.417
      -0.753
      -0.913
      -0.952
      -0.957
      -0.961
      -0.926
      -0.814
      -0.632
      -0.419
      -0.206
       0.004
       0.233
       0.494
       0.770
       1.011
       1.156
       1.159
       1.014
       0.753
       0.442
       0.170
       0.021
       0.012
       0.079
       0.121
       0.074
      -0.049
      -0.169
      -0.211
      -0.163
      -0.088
      -0.073
      -0.168
      -0.360
      -0.585
      -0.757
      -0.792
      -0.648
      -0.347
       0.018
       0.342
       0.556
       0.659
       0.689
       0.684
       0.648
       0.554
       0.364
       0.065
      -0.305
      -0.654
      -0.883
      -0.931
      -0.820
      -0.632
      -0.461
      -0.343
      -0.241
      -0.079
       0.183
       0.508
       0.792
       0.929
       0.864
       0.636
       0.354
       0.143
       0.075
       0.136
       0.251
       0.336
       0.354
       0.325
       0.284
       0.235
       0.138
      -0.044
      -0.308
      -0.607
      -0.886
      -1.121
      -1.300
      -1.398
      -1.361
      -1.146
      -0.777
      -0.352
       0.016
       0.275
       0.460
       0.638
       0.825
       0.951
       0.911
       0.665
       0.289
      -0.050
      -0.206
      -0.156
      -0.019
       0.042
      -0.058
      -0.264
      -0.434
      -0.442
      -0.264
       0.010
       0.239
       0.317
       0.245
       0.113
       0.036
       0.083
       0.250
       0.472
       0.650
       0.692
       0.549
       0.221
      -0.235
      -0.708
      -1.056
      -1.155
      -0.960
      -0.532
      -0.006
       0.474
       0.837
       1.089
       1.260
       1.334
       1.235
       0.890
       0.315
      -0.356
      -0.941
      -1.323
      -1.502
      -1.546
      -1.507
      -1.375
      -1.113
      -0.712
      -0.207
       0.342
       0.869
       1.314
       1.619
       1.747
       1.702
       1.533
       1.297
       1.017
       0.671
       0.239
      -0.238
      -0.643
      -0.847
      -0.801
      -0.594
      -0.398
      -0.351
      -0.463
      -0.624
      -0.695
      -0.618
      -0.441
      -0.257
      -0.121
      -0.031
       0.036
       0.081
       0.099
       0.108
       0.151
       0.251
       0.369
       0.424
       0.350
       0.149
      -0.111
      -0.336
      -0.461
      -0.474
      -0.398
      -0.264
      -0.094
       0.099
       0.287
       0.425
       0.466
       0.382
       0.182
      -0.086
      -0.351
      -0.552
      -0.664
      -0.703
      -0.694
      -0.653
      -0.583
      -0.473
      -0.300
      -0.037
       0.318
       0.706
       1.022
       1.164
       1.107
       0.901
       0.630
       0.346
       0.051
      -0.274
      -0.621
      -0.931
      -1.118
      -1.116
      -0.922
      -0.602
      -0.270
      -0.045
       0.011
      -0.069
      -0.181
      -0.210
      -0.104
       0.093
       0.267
       0.322
       0.241
       0.097
      -0.017
      -0.050
      -0.012
       0.077
       0.212
       0.398
       0.625
       0.862
       1.072
       1.218
       1.250
       1.109
       0.770
       0.273
      -0.273
      -0.744
      -1.062
      -1.225
      -1.270
      -1.224
      -1.068
      -0.760
      -0.295
       0.255
       0.742
       1.011
       0.997
       0.783
       0.550
       0.452
       0.496
       0.549
       0.459
       0.185
      -0.183
      -0.495
      -0.650
      -0.645
      -0.545
      -0.426
      -0.324
      -0.243
      -0.179
      -0.139
      -0.136
      -0.177
      -0.254
      -0.345
      -0.431
      -0.503
      -0.564
      -0.606
      -0.603
      -0.516
      -0.339
      -0.113
       0.094
       0.243
       0.346
       0.444
       0.556
       0.661
       0.719
       0.705
       0.619
       0.480
       0.311
       0.147
       0.027
      -0.021
       0.012
       0.111
       0.239
       0.345
       0.381
       0.323
       0.185
      -0.001
      -0.199
      -0.378
      -0.504
      -0.535
      -0.446
      -0.251
      -0.007
       0.221
       0.383
       0.455
       0.436
       0.354
       0.258
       0.183
       0.122
       0.043
      -0.077
      -0.220
      -0.345
      -0.423
      -0.452
      -0.454
      -0.453
      -0.467
      -0.503
      -0.555
      -0.609
      -0.644
      -0.638
      -0.565
      -0.408
      -0.169
       0.122
       0.405
       0.621
       0.737
       0.760
       0.735
       0.708
       0.701
       0.694
       0.642
       0.505
       0.267
      -0.058
      -0.429
      -0.770
      -0.981
      -0.978
      -0.766
      -0.465
      -0.240
      -0.185
      -0.259
      -0.335
      -0.317
      -0.211
      -0.091
      -0.012
       0.034
       0.094
       0.188
       0.285
       0.326
       0.280
       0.176
       0.089
       0.088
       0.188
       0.336
       0.437
       0.415
       0.256
       0.017
      -0.203
      -0.316
      -0.288
      -0.159
      -0.014
       0.074
       0.094
       0.088
       0.103
       0.148
       0.201
       0.251
       0.317
       0.421
       0.551
       0.655
       0.678
       0.593
       0.425
       0.230
       0.063
      -0.046
      -0.116
      -0.198
      -0.331
      -0.504
      -0.654
      -0.709
      -0.652
      -0.535
      -0.435
      -0.405
      -0.443
      -0.515
      -0.570
      -0.561
      -0.456
      -0.266
      -0.044
       0.144
       0.278
       0.393
       0.528
       0.670
       0.751
       0.713
       0.576
       0.418
       0.297
       0.195
       0.040
      -0.222
      -0.574
      -0.914
      -1.107
      -1.043
      -0.701
      -0.161
       0.419
       0.876
       1.098
       1.055
       0.814
       0.512
       0.296
       0.235
       0.271
       0.261
       0.086
      -0.247
      -0.609
      -0.841
      -0.864
      -0.718
      -0.506
      -0.321
      -0.199
      -0.143
      -0.150
      -0.228
      -0.383
      -0.596
      -0.826
      -1.016
      -1.117
      -1.100
      -0.962
      -0.716
      -0.373
       0.049
       0.509
       0.940
       1.272
       1.463
       1.514
       1.444
       1.266
       0.994
       0.658
       0.316
       0.030
      -0.172
      -0.300
      -0.363
      -0.337
      -0.176
       0.135
       0.542
       0.943
       1.245
       1.406
       1.418
       1.277
       0.974
       0.513
      -0.068
      -0.699
      -1.297
      -1.776
      -2.062
      -2.124
      -1.994
      -1.738
      -1.411
      -1.011
      -0.517
       0.058
       0.627
       1.070
       1.308
       1.357
       1.294
       1.182
       1.015
       0.746
       0.363
      -0.071
      -0.447
      -0.690
      -0.793
      -0.798
      -0.735
      -0.591
      -0.332
       0.040
       0.453
       0.800
       0.997
       1.036
       0.963
       0.810
       0.556
       0.151
      -0.422
      -1.091
      -1.711
      -2.127
      -2.260
      -2.146
      -1.908
      -1.672
      -1.484
      -1.300
      -1.040
      -0.670
      -0.236
       0.156
       0.404
       0.476
       0.436
       0.418
       0.541
       0.822
       1.151
       1.367
       1.386
       1.272
       1.186
       1.252
       1.454
       1.635
       1.606
       1.278
       0.732
       0.175
      -0.182
      -0.256
      -0.143
      -0.035
      -0.091
      -0.331
      -0.634
      -0.829
      -0.819
      -0.624
      -0.355
      -0.137
      -0.059
      -0.144
      -0.329
      -0.485
      -0.484
      -0.286
       0.026
       0.302
       0.427
       0.395
       0.304
       0.285
       0.422
       0.709
       1.059
       1.337
       1.413
       1.223
       0.809
       0.301
      -0.167
      -0.542
      -0.866
      -1.197
      -1.510
      -1.674
      -1.539
      -1.058
      -0.350
       0.364
       0.894
       1.190
       1.346
       1.517
       1.792
       2.128
       2.357
       2.296
       1.868
       1.164
       0.397
      -0.237
      -0.674
      -0.978
      -1.253
      -1.545
      -1.835
      -2.085
      -2.275
      -2.404
      -2.480
      -2.493
      -2.414
      -2.219
      -1.910
      -1.523
      -1.105
      -0.691
      -0.292
       0.097
       0.473
       0.816
       1.084
       1.231
       1.214
       1.008
       0.615
       0.076
      -0.517
      -1.032
      -1.342
      -1.385
      -1.200
      -0.892
      -0.569
      -0.286
      -0.035
       0.215
       0.487
       0.776
       1.062
       1.322
       1.539
       1.684
       1.717
       1.596
       1.305
       0.875
       0.369
      -0.124
      -0.503
      -0.669
      -0.560
      -0.195
       0.311
       0.791
       1.114
       1.258
       1.311
       1.397
       1.575
       1.795
       1.936
       1.888
       1.613
       1.160
       0.635
       0.151
      -0.215
      -0.445
      -0.572
      -0.645
      -0.693
      -0.726
      -0.754
      -0.795
      -0.850
      -0.881
      -0.825
      -0.647
      -0.383
      -0.125
       0.045
       0.107
       0.098
       0.061
      -0.020
      -0.213
      -0.574
      -1.077
      -1.600
      -1.994
      -2.170
      -2.139
      -1.980
      -1.774
      -1.553
      -1.303
      -0.992
      -0.608
      -0.172
       0.269
       0.670
       0.993
       1.232
       1.421
       1.620
       1.875
       2.173
       2.428
       2.516
       2.349
       1.935
       1.389
       0.860
       0.445
       0.135
      -0.141
      -0.444
      -0.771
      -1.064
      -1.278
      -1.424
      -1.557
      -1.710
      -1.854
      -1.886
      -1.690
      -1.214
      -0.525
       0.200
       0.764
       1.050
       1.070
       0.923
       0.717
       0.509
       0.298
       0.050
      -0.252
      -0.585
      -0.889
      -1.116
      -1.260
      -1.354
      -1.422
      -1.430
      -1.286
      -0.916
      -0.337
       0.322
       0.896
       1.268
       1.405
       1.332
       1.087
       0.724
       0.318
      -0.030
      -0.240
      -0.294
      -0.230
      -0.099
       0.074
       0.302
       0.607
       0.973
       1.341
       1.647
       1.853
       1.958
       1.960
       1.832
       1.543
       1.110
       0.606
       0.114
      -0.343
      -0.791
      -1.238
      -1.607
      -1.767
      -1.638
      -1.283
      -0.885
      -0.626
      -0.576
      -0.677
      -0.834
      -1.010
      -1.233
      -1.526
      -1.822
      -1.973
      -1.844
      -1.419
      -0.818
      -0.205
       0.326
       0.776
       1.165
       1.453
       1.550
       1.404
       1.066
       0.669
       0.342
       0.144
       0.034
      -0.090
      -0.312
      -0.612
      -0.848
      -0.822
      -0.399
       0.397
       1.365
       2.216
       2.715
       2.798
       2.567
       2.180
       1.733
       1.236
       0.690
       0.151
      -0.285
      -0.557
      -0.698
      -0.804
      -0.959
      -1.173
      -1.381
      -1.501
      -1.490
      -1.364
      -1.177
      -0.991
      -0.865
      -0.851
      -0.976
      -1.204
      -1.446
      -1.599
      -1.595
      -1.424
      -1.114
      -0.716
      -0.299
       0.062
       0.318
       0.468
       0.563
       0.677
       0.858
       1.097
       1.325
       1.465
       1.492
       1.456
       1.453
       1.536
       1.654
       1.661
       1.421
       0.920
       0.302
      -0.215
      -0.465
      -0.421
      -0.194
       0.058
       0.231
       0.324
       0.406
       0.531
       0.693
       0.831
       0.887
       0.846
       0.738
       0.597
       0.438
       0.256
       0.039
      -0.217
      -0.501
      -0.791
      -1.045
      -1.220
      -1.307
      -1.344
      -1.401
      -1.525
      -1.700
      -1.844
      -1.851
      -1.653
      -1.276
      -0.845
      -0.526
      -0.435
      -0.560
      -0.767
      -0.881
      -0.787
      -0.486
      -0.076
       0.319
       0.602
       0.733
       0.718
       0.599
       0.450
       0.375
       0.481
       0.817
       1.331
       1.878
       2.277
       2.400
       2.219
       1.804
       1.269
       0.715
       0.198
      -0.252
      -0.600
      -0.797
      -0.807
      -0.646
      -0.379
      -0.078
       0.231
       0.564
       0.925
       1.247
       1.403
       1.276
       0.841
       0.175
      -0.590
      -1.332
      -1.967
      -2.442
      -2.722
      -2.795
      -2.687
      -2.458
      -2.161
      -1.802
      -1.348
      -0.783
      -0.179
       0.305
       0.496
       0.336
      -0.058
      -0.448
      -0.627
      -0.543
      -0.298
      -0.034
       0.198
       0.456
       0.816
       1.263
       1.674
       1.906
       1.881
       1.630
       1.256
       0.878
       0.588
       0.441
       0.436
       0.519
       0.614
       0.679
       0.746
       0.899
       1.204
       1.635
       2.059
       2.295
       2.210
       1.788
       1.135
       0.419
      -0.207
      -0.671
      -1.000
      -1.277
      -1.556
      -1.816
      -1.962
      -1.912
      -1.677
      -1.376
      -1.162
      -1.127
      -1.250
      -1.411
      -1.463
      -1.305
      -0.926
      -0.412
       0.090
       0.433
       0.538
       0.424
       0.199
       0.000
      -0.070
       0.033
       0.282
       0.590
       0.849
       0.984
       0.999
       0.958
       0.910
       0.842
       0.697
       0.461
       0.216
       0.093
       0.168
       0.380
       0.555
       0.520
       0.223
      -0.218
      -0.585
      -0.702
      -0.550
      -0.275
      -0.095
      -0.174
      -0.537
      -1.078
      -1.626
      -2.029
      -2.212
      -2.182
      -1.997
      -1.712
      -1.350
      -0.902
      -0.348
       0.306
       1.004
       1.636
       2.078
       2.240
       2.107
       1.734
       1.225
       0.693
       0.226
      -0.142
      -0.437
      -0.713
      -0.995
      -1.245
      -1.371
      -1.285
      -0.949
      -0.396
       0.290
       1.004
       1.643
       2.113
       2.334
       2.266
       1.918
       1.346
       0.652
      -0.027
      -0.543
      -0.781
      -0.728
      -0.485
      -0.223
      -0.088
      -0.128
      -0.283
      -0.434
      -0.466
      -0.320
      -0.007
       0.404
       0.810
       1.090
       1.134
       0.878
       0.342
      -0.336
      -0.929
      -1.211
      -1.085
      -0.650
      -0.145
       0.215
       0.371
       0.416
       0.456
       0.483
       0.374
       0.002
      -0.631
      -1.372
      -1.997
      -2.349
      -2.416
      -2.306
      -2.148
      -2.003
      -1.837
      -1.570
      -1.140
      -0.554
       0.106
       0.709
       1.138
       1.343
       1.356
       1.257
       1.116
       0.969
       0.831
       0.722
       0.680
       0.754
       0.978
       1.346
       1.784
       2.138
       2.216
       1.875
       1.121
       0.142
      -0.758
      -1.302
      -1.376
      -1.077
      -0.644
      -0.308
      -0.170
      -0.179
      -0.210
      -0.160
       0.005
       0.258
       0.543
       0.794
       0.942
       0.938
       0.783
       0.537
       0.269
       0.007
      -0.268
      -0.559
      -0.797
      -0.865
      -0.686
      -0.315
       0.064
       0.226
       0.049
      -0.396
      -0.874
      -1.134
      -1.084
      -0.842
      -0.615
      -0.519
      -0.493
      -0.378
      -0.074
       0.350
       0.697
       0.776
       0.532
       0.063
      -0.449
      -0.844
      -1.046
      -1.066
      -0.968
      -0.817
      -0.636
      -0.405
      -0.093
       0.292
       0.681
       0.966
       1.054
       0.931
       0.681
       0.444
       0.330
       0.344
       0.390
       0.328
       0.088
      -0.269
      -0.571
      -0.643
      -0.425
      -0.002
       0.464
       0.841
       1.099
       1.281
       1.442
       1.583
       1.643
       1.539
       1.219
       0.699
       0.057
      -0.599
      -1.178
      -1.631
      -1.957
      -2.170
      -2.271
      -2.228
      -2.001
      -1.579
      -0.995
      -0.305
       0.430
       1.148
       1.765
       2.190
       2.358
       2.258
       1.913
       1.345
       0.579
      -0.311
      -1.163
      -1.772
      -1.995
      -1.836
      -1.428
      -0.932
      -0.455
      -0.053
       0.217
       0.290
       0.146
      -0.132
      -0.372
      -0.398
      -0.148
       0.282
       0.693
       0.907
       0.881
       0.717
       0.574
       0.537
       0.565
       0.545
       0.391
       0.103
      -0.242
      -0.557
      -0.786
      -0.914
      -0.928
      -0.814
      -0.576
      -0.270
       0.013
       0.195
       0.265
       0.268
       0.250
       0.210
       0.096
      -0.144
      -0.509
      -0.929
      -1.288
      -1.474
      -1.417
      -1.104
      -0.571
       0.114
       0.863
       1.559
       2.069
       2.275
       2.137
       1.725
       1.187
       0.665
       0.234
      -0.114
      -0.422
      -0.711
      -0.955
      -1.107
      -1.139
      -1.060
      -0.874
      -0.558
      -0.089
       0.489
       1.050
       1.434
       1.515
       1.260
       0.743
       0.105
      -0.490
      -0.910
      -1.104
      -1.126
      -1.107
      -1.161
      -1.291
      -1.387
      -1.315
      -1.026
      -0.594
      -0.156
       0.176
       0.363
       0.453
       0.548
       0.740
       1.049
       1.401
       1.662
       1.723
       1.570
       1.287
       1.005
       0.825
       0.772
       0.784
       0.741
       0.539
       0.156
      -0.329
      -0.786
      -1.115
      -1.300
      -1.375
      -1.384
      -1.347
      -1.277
      -1.186
      -1.069
      -0.891
      -0.618
      -0.271
       0.052
       0.245
       0.299
       0.320
       0.436
       0.662
       0.872
       0.909
       0.744
       0.512
       0.387
       0.408
       0.441
       0.301
      -0.081
      -0.585
      -0.985
      -1.097
      -0.886
      -0.461
      -0.002
       0.338
       0.494
       0.498
       0.443
       0.415
       0.434
