Origin Time       30/11/2012 19:39:29
Lat.              27.3 N 
Long.             88.3 E 
Depth (Km)         10.0
Magnitude         4.1
 Region           WEST-SIKKIM                                                      
 Above details taken from IMD 
     
Station Code      DJL
Station Lat.       27.050  N
Station Long.      88.262  E
Station Height(m) 2110.0
Site Class        A   Vs30 between 700 m/sec to 1400 m/sec * 
Record Time       30.11.2012 19:38:58.074
Sampling Rate     200. Hz
 Record Duration   86.645 Sec.
 Direction         E-W (E positive)
Max. Acceleration     11.552 cm/sec**2
     
  * For reference see Site Classification link of website 
     
 Base Line Corrected and Low Pass Filtered (Cut Off at 35 Hz) Time History
 Acceleration data in cm/sec**2
    
[...]
       0.515
       0.332
       0.081
      -0.284
      -0.738
      -1.199
      -1.564
      -1.732
      -1.629
      -1.242
      -0.653
      -0.030
       0.451
       0.691
       0.704
       0.585
       0.466
       0.476
       0.690
       1.072
       1.454
       1.610
       1.387
       0.816
       0.114
      -0.425
      -0.589
      -0.372
       0.009
       0.242
       0.120
      -0.303
      -0.726
      -0.790
      -0.333
       0.462
       1.144
       1.268
       0.685
      -0.339
      -1.278
      -1.655
      -1.320
      -0.508
       0.321
       0.752
       0.629
       0.113
      -0.432
      -0.635
      -0.310
       0.454
       1.338
       1.949
       2.027
       1.574
       0.852
       0.224
      -0.064
      -0.026
       0.091
      -0.018
      -0.505
      -1.264
      -1.975
      -2.289
      -2.032
      -1.310
      -0.456
       0.174
       0.412
       0.363
       0.301
       0.458
       0.875
       1.420
       1.901
       2.173
       2.159
       1.842
       1.251
       0.464
      -0.409
      -1.250
      -1.957
      -2.446
      -2.678
      -2.684
      -2.561
      -2.414
      -2.283
      -2.121
      -1.844
      -1.409
      -0.867
      -0.333
       0.082
       0.345
       0.523
       0.740
       1.090
       1.550
       1.967
       2.141
       1.948
       1.422
       0.741
       0.128
      -0.250
      -0.345
      -0.234
      -0.073
      -0.031
      -0.217
      -0.628
      -1.141
      -1.556
      -1.677
      -1.417
      -0.842
      -0.143
       0.464
       0.851
       1.034
       1.133
       1.275
       1.502
       1.750
       1.904
       1.892
       1.737
       1.534
       1.382
       1.310
       1.263
       1.141
       0.877
       0.486
       0.067
      -0.265
      -0.454
      -0.541
      -0.626
      -0.808
      -1.124
      -1.531
      -1.926
      -2.178
      -2.166
      -1.819
      -1.140
      -0.219
       0.785
       1.699
       2.397
       2.826
       2.973
       2.821
       2.335
       1.513
       0.453
      -0.645
      -1.555
      -2.124
      -2.328
      -2.250
      -2.021
      -1.749
      -1.478
      -1.196
      -0.878
      -0.541
      -0.264
      -0.148
      -0.234
      -0.441
      -0.589
      -0.500
      -0.114
       0.450
       0.957
       1.202
       1.129
       0.841
       0.498
       0.194
      -0.087
      -0.404
      -0.755
      -1.059
      -1.225
      -1.244
      -1.198
      -1.182
      -1.217
      -1.232
      -1.137
      -0.894
      -0.538
      -0.142
       0.228
       0.529
       0.737
       0.846
       0.865
       0.818
       0.740
       0.677
       0.671
       0.742
       0.874
       1.003
       1.039
       0.902
       0.566
       0.096
      -0.372
      -0.693
      -0.791
      -0.700
      -0.521
      -0.348
      -0.209
      -0.067
       0.130
       0.397
       0.704
       1.001
       1.250
       1.423
       1.497
       1.455
       1.300
       1.085
       0.895
       0.801
       0.816
       0.886
       0.913
       0.798
       0.486
      -0.006
      -0.592
      -1.143
      -1.545
      -1.746
      -1.764
      -1.652
      -1.453
      -1.183
      -0.852
      -0.486
      -0.139
       0.134
       0.297
       0.340
       0.262
       0.063
      -0.254
      -0.652
      -1.042
      -1.304
      -1.343
      -1.152
      -0.826
      -0.500
      -0.258
      -0.086
       0.091
       0.315
       0.537
       0.644
       0.553
       0.291
      -0.007
      -0.177
      -0.120
       0.146
       0.492
       0.753
       0.806
       0.636
       0.339
       0.067
      -0.064
      -0.029
       0.118
       0.291
       0.430
       0.526
       0.611
       0.715
       0.845
       0.971
       1.049
       1.050
       0.971
       0.817
       0.596
       0.324
       0.041
      -0.191
      -0.338
      -0.421
      -0.505
      -0.635
      -0.784
      -0.871
      -0.829
      -0.661
      -0.439
      -0.246
      -0.134
      -0.113
      -0.169
      -0.273
      -0.388
      -0.477
      -0.518
      -0.509
      -0.462
      -0.380
      -0.258
      -0.101
       0.068
       0.214
       0.301
       0.311
       0.246
       0.131
      -0.001
      -0.118
      -0.201
      -0.236
      -0.209
      -0.109
       0.041
       0.187
       0.270
       0.277
       0.239
       0.199
       0.169
       0.123
       0.032
      -0.086
      -0.173
      -0.176
      -0.102
      -0.019
      -0.014
      -0.126
      -0.325
      -0.527
      -0.654
      -0.678
      -0.626
      -0.545
      -0.462
      -0.367
      -0.245
      -0.108
       0.002
       0.043
       0.008
      -0.073
      -0.170
      -0.272
      -0.389
      -0.520
      -0.627
      -0.648
      -0.535
      -0.292
       0.021
       0.320
       0.539
       0.658
       0.712
       0.761
       0.845
       0.943
       0.981
       0.888
       0.655
       0.353
       0.096
      -0.016
       0.050
       0.251
       0.494
       0.692
       0.808
       0.866
       0.921
       1.009
       1.117
       1.200
       1.210
       1.137
       1.004
       0.831
       0.619
       0.355
       0.046
      -0.268
      -0.527
      -0.697
      -0.781
      -0.803
      -0.776
      -0.694
      -0.560
      -0.410
      -0.313
      -0.329
      -0.461
      -0.639
      -0.765
      -0.773
      -0.676
      -0.551
      -0.489
      -0.524
      -0.619
      -0.700
      -0.718
      -0.688
      -0.665
      -0.697
      -0.786
      -0.888
      -0.939
      -0.885
      -0.719
      -0.488
      -0.270
      -0.128
      -0.058
       0.003
       0.122
       0.300
       0.464
       0.528
       0.468
       0.332
       0.186
       0.066
      -0.027
      -0.091
      -0.093
       0.012
       0.233
       0.512
       0.750
       0.859
       0.825
       0.704
       0.571
       0.464
       0.364
       0.227
       0.047
      -0.124
      -0.205
      -0.143
       0.043
       0.270
       0.435
       0.470
       0.374
       0.199
       0.014
      -0.145
      -0.289
      -0.447
      -0.617
      -0.742
      -0.737
      -0.558
      -0.256
       0.048
       0.242
       0.302
       0.296
       0.312
       0.395
       0.525
       0.649
       0.721
       0.722
       0.658
       0.556
       0.447
       0.352
       0.278
       0.216
       0.158
       0.099
       0.024
      -0.092
      -0.272
      -0.497
      -0.701
      -0.802
      -0.752
      -0.576
      -0.359
      -0.185
      -0.097
      -0.080
      -0.089
      -0.100
      -0.118
      -0.159
      -0.200
      -0.179
      -0.033
       0.229
       0.507
       0.679
       0.692
       0.612
       0.563
       0.625
       0.773
       0.907
       0.932
       0.811
       0.573
       0.272
      -0.035
      -0.314
      -0.556
      -0.772
      -0.964
      -1.109
      -1.165
      -1.106
      -0.950
      -0.751
      -0.560
      -0.387
      -0.201
       0.035
       0.323
       0.622
       0.861
       0.977
       0.944
       0.790
       0.589
       0.411
       0.275
       0.144
      -0.029
      -0.258
      -0.514
      -0.761
      -0.983
      -1.164
      -1.251
      -1.164
      -0.867
      -0.426
      -0.002
       0.244
       0.256
       0.104
      -0.069
      -0.151
      -0.111
      -0.006
       0.076
       0.074
      -0.009
      -0.115
      -0.180
      -0.192
      -0.198
      -0.260
      -0.391
      -0.528
      -0.581
      -0.512
      -0.372
      -0.264
      -0.256
      -0.320
      -0.366
      -0.311
      -0.147
       0.071
       0.282
       0.468
       0.656
       0.878
       1.127
       1.355
       1.509
       1.566
       1.540
       1.450
       1.290
       1.033
       0.663
       0.220
      -0.205
      -0.511
      -0.654
      -0.675
      -0.676
      -0.753
      -0.926
      -1.133
      -1.266
      -1.238
      -1.018
      -0.645
      -0.208
       0.189
       0.468
       0.609
       0.643
       0.629
       0.611
       0.612
       0.637
       0.688
       0.764
       0.860
       0.964
       1.052
       1.091
       1.044
       0.886
       0.609
       0.237
      -0.174
      -0.536
      -0.761
      -0.805
      -0.694
      -0.500
      -0.286
      -0.072
       0.158
       0.405
       0.628
       0.760
       0.755
       0.608
       0.363
       0.079
      -0.180
      -0.363
      -0.453
      -0.483
      -0.522
      -0.616
      -0.743
      -0.826
      -0.800
      -0.674
      -0.516
      -0.388
      -0.302
      -0.236
      -0.179
      -0.150
      -0.184
      -0.293
      -0.452
      -0.606
      -0.686
      -0.641
      -0.471
      -0.246
      -0.067
      -0.003
      -0.044
      -0.126
      -0.206
      -0.300
      -0.449
      -0.648
      -0.823
      -0.881
      -0.783
      -0.585
      -0.392
      -0.281
      -0.263
      -0.290
      -0.311
      -0.295
      -0.226
      -0.100
       0.080
       0.286
       0.475
       0.601
       0.634
       0.568
       0.423
       0.243
       0.086
      -0.007
      -0.036
      -0.044
      -0.076
      -0.134
      -0.161
      -0.096
       0.081
       0.325
       0.564
       0.741
       0.831
       0.839
       0.784
       0.688
       0.563
       0.417
       0.266
       0.152
       0.129
       0.214
       0.367
       0.506
       0.566
       0.546
       0.489
       0.429
       0.356
       0.225
       0.005
      -0.294
      -0.624
      -0.913
      -1.097
      -1.142
      -1.063
      -0.921
      -0.793
      -0.723
      -0.693
      -0.642
      -0.515
      -0.298
      -0.028
       0.243
       0.474
       0.658
       0.799
       0.898
       0.934
       0.886
       0.756
       0.581
       0.410
       0.264
       0.131
      -0.012
      -0.161
      -0.288
      -0.365
      -0.397
      -0.412
      -0.422
      -0.402
      -0.306
      -0.117
       0.126
       0.347
       0.469
       0.456
       0.323
       0.133
      -0.032
      -0.107
      -0.087
      -0.025
       0.013
      -0.006
      -0.057
      -0.088
      -0.062
       0.021
       0.128
       0.225
       0.295
       0.334
       0.344
       0.312
       0.222
       0.073
      -0.107
      -0.277
      -0.421
      -0.570
      -0.769
      -1.029
      -1.286
      -1.420
      -1.335
      -1.024
      -0.587
      -0.168
       0.129
       0.285
       0.343
       0.348
       0.319
       0.249
       0.138
       0.001
      -0.137
      -0.254
      -0.337
      -0.390
      -0.432
      -0.490
      -0.578
      -0.684
      -0.778
      -0.841
      -0.888
      -0.964
      -1.099
      -1.289
      -1.492
      -1.676
      -1.862
      -2.110
      -2.465
      -2.886
      -3.258
      -3.449
      -3.400
      -3.147
      -2.781
      -2.370
      -1.928
      -1.422
      -0.825
      -0.147
       0.567
       1.268
       1.926
       2.538
       3.110
       3.637
       4.106
       4.502
       4.821
       5.066
       5.240
       5.343
       5.379
       5.370
       5.355
       5.386
       5.508
       5.743
       6.083
       6.486
       6.903
       7.287
       7.605
       7.830
       7.933
       7.869
       7.571
       6.964
       6.004
       4.714
       3.209
       1.654
       0.202
      -1.073
      -2.182
      -3.167
      -4.037
      -4.756
      -5.289
      -5.673
      -6.028
      -6.499
      -7.163
      -7.982
      -8.837
      -9.589
     -10.133
     -10.395
     -10.316
      -9.840
      -8.943
      -7.666
      -6.127
      -4.491
      -2.933
      -1.603
      -0.611
      -0.024
       0.146
      -0.068
      -0.582
      -1.270
      -1.975
      -2.549
      -2.910
      -3.068
      -3.095
      -3.055
      -2.957
      -2.768
      -2.464
      -2.083
      -1.701
      -1.362
      -1.031
      -0.619
      -0.064
       0.622
       1.377
       2.160
       2.974
       3.820
       4.648
       5.340
       5.767
       5.837
       5.517
       4.816
       3.765
       2.432
       0.929
      -0.605
      -2.035
      -3.263
      -4.207
      -4.779
      -4.878
      -4.422
      -3.389
      -1.829
       0.150
       2.397
       4.732
       6.942
       8.804
      10.150
      10.944
      11.306
      11.431
      11.451
      11.341
      10.930
      10.019
       8.515
       6.494
       4.163
       1.768
      -0.496
      -2.510
      -4.207
      -5.548
      -6.505
      -7.072
      -7.269
      -7.141
      -6.752
      -6.163
      -5.427
      -4.592
      -3.710
      -2.828
      -1.962
      -1.076
      -0.112
       0.941
       1.985
       2.823
       3.246
       3.138
       2.547
       1.648
       0.644
      -0.337
      -1.279
      -2.234
      -3.226
      -4.191
      -5.000
      -5.555
      -5.881
      -6.110
      -6.383
      -6.728
      -7.041
      -7.151
      -6.930
      -6.360
      -5.525
      -4.543
      -3.522
      -2.569
      -1.815
      -1.407
      -1.444
      -1.897
      -2.608
      -3.379
      -4.066
      -4.611
      -4.977
      -5.103
      -4.912
      -4.357
      -3.448
      -2.224
      -0.734
       0.960
       2.753
       4.505
       6.097
       7.486
       8.693
       9.750
      10.630
      11.251
      11.548
      11.552
      11.398
      11.226
      11.074
      10.845
      10.399
       9.681
       8.754
       7.734
       6.666
       5.494
       4.134
       2.594
       1.020
      -0.362
      -1.370
      -1.957
      -2.218
      -2.308
      -2.352
      -2.391
      -2.403
      -2.362
      -2.261
      -2.103
      -1.876
      -1.555
      -1.140
      -0.680
      -0.253
       0.093
       0.389
       0.735
       1.237
       1.917
       2.665
       3.275
       3.556
       3.416
       2.882
       2.043
       0.989
      -0.212
      -1.507
      -2.837
      -4.110
      -5.201
      -5.974
      -6.337
      -6.297
      -5.957
      -5.446
      -4.860
      -4.245
      -3.634
      -3.082
      -2.649
      -2.364
      -2.198
      -2.075
      -1.910
      -1.655
      -1.312
      -0.915
      -0.498
      -0.077
       0.342
       0.725
       1.014
       1.147
       1.098
       0.882
       0.531
       0.081
      -0.431
      -0.963
      -1.461
      -1.864
      -2.115
      -2.184
      -2.094
      -1.927
      -1.804
      -1.829
      -2.037
      -2.379
      -2.744
      -3.024
      -3.176
      -3.246
      -3.321
      -3.455
      -3.615
      -3.698
      -3.597
      -3.264
      -2.738
      -2.114
      -1.489
      -0.921
      -0.422
       0.013
       0.384
       0.689
       0.944
       1.197
       1.493
       1.832
       2.147
       2.359
       2.446
       2.472
       2.523
       2.615
       2.644
       2.453
       1.976
       1.320
       0.719
       0.376
       0.324
       0.409
       0.400
       0.125
      -0.436
      -1.170
      -1.899
      -2.474
      -2.837
      -3.020
      -3.097
      -3.118
      -3.074
      -2.924
      -2.637
      -2.225
      -1.724
      -1.161
      -0.528
       0.200
       1.026
       1.907
       2.774
       3.581
       4.337
       5.090
       5.876
       6.668
       7.390
       7.976
       8.415
       8.750
       9.018
       9.183
       9.132
       8.756
       8.037
       7.087
       6.079
       5.127
       4.217
       3.251
       2.155
       0.952
      -0.246
      -1.318
      -2.220
      -2.997
      -3.726
      -4.436
      -5.086
      -5.609
      -5.985
      -6.247
      -6.436
      -6.536
      -6.474
      -6.178
      -5.651
      -4.990
      -4.333
      -3.771
      -3.304
      -2.852
      -2.315
      -1.632
      -0.816
       0.057
       0.879
       1.562
       2.077
       2.454
       2.741
       2.948
       3.030
       2.925
       2.616
       2.157
       1.643
       1.144
       0.669
       0.188
      -0.308
      -0.769
      -1.113
      -1.295
      -1.339
      -1.310
      -1.249
      -1.151
      -1.005
      -0.835
      -0.704
      -0.663
      -0.711
      -0.782
      -0.798
      -0.718
      -0.562
      -0.379
      -0.205
      -0.036
       0.169
       0.458
       0.856
       1.340
       1.836
       2.254
       2.528
       2.651
       2.671
       2.645
       2.607
       2.547
       2.433
       2.247
       1.992
       1.671
       1.262
       0.729
       0.062
      -0.678
      -1.371
      -1.901
      -2.227
      -2.415
      -2.587
      -2.833
      -3.151
      -3.460
      -3.658
      -3.679
      -3.530
      -3.277
      -3.007
      -2.772
      -2.561
      -2.329
      -2.052
      -1.760
      -1.506
      -1.303
      -1.088
      -0.768
      -0.304
       0.242
       0.747
       1.112
       1.321
       1.426
       1.480
       1.486
       1.407
       1.208
       0.903
       0.550
       0.219
      -0.058
      -0.297
      -0.538
      -0.811
      -1.115
      -1.431
      -1.744
      -2.050
      -2.342
      -2.594
      -2.773
      -2.864
      -2.872
      -2.803
      -2.648
      -2.374
      -1.954
      -1.381
      -0.681
       0.088
       0.848
       1.507
       2.000
       2.324
       2.538
       2.723
       2.921
       3.099
       3.185
       3.129
       2.948
       2.706
       2.451
       2.184
       1.866
       1.476
       1.050
       0.672
       0.418
       0.297
       0.235
       0.132
      -0.056
      -0.277
      -0.423
      -0.406
      -0.220
       0.065
       0.356
       0.608
       0.851
       1.157
       1.572
       2.065
       2.528
       2.831
       2.891
       2.729
       2.460
       2.221
       2.085
       2.034
       2.016
       2.017
       2.076
       2.237
       2.489
       2.761
       2.974
       3.094
       3.137
       3.131
       3.078
       2.951
       2.722
       2.400
       2.026
       1.648
       1.287
       0.940
       0.605
       0.305
       0.080
      -0.049
      -0.113
      -0.190
      -0.377
      -0.746
      -1.301
      -1.966
      -2.610
      -3.116
      -3.441
      -3.630
      -3.767
      -3.911
      -4.048
      -4.093
      -3.961
      -3.635
      -3.201
      -2.787
      -2.474
      -2.248
      -2.045
      -1.836
      -1.667
      -1.610
      -1.680
      -1.799
      -1.853
      -1.780
      -1.619
      -1.464
      -1.370
      -1.306
      -1.189
      -0.971
      -0.691
      -0.445
      -0.303
      -0.263
      -0.285
      -0.352
      -0.495
      -0.757
      -1.142
      -1.586
      -1.985
      -2.248
      -2.332
      -2.255
      -2.070
      -1.832
      -1.585
      -1.345
      -1.103
      -0.844
      -0.572
      -0.321
      -0.130
      -0.002
       0.108
       0.263
       0.495
       0.774
       1.025
       1.185
       1.247
       1.251
       1.246
       1.249
       1.254
       1.261
       1.292
       1.382
       1.547
       1.763
       1.967
       2.081
       2.046
       1.851
       1.540
       1.187
       0.864
       0.605
       0.412
