Origin Time       03/06/2011 00:53:21
Lat.              27.5 N	
Long.             88.0 E	
Depth (Km)         26.0
Magnitude         4.9
Region            India(Sikkim)-Nepar-Border                                       
 Above details taken from IMD 
   
Station Code      DJL
Station Lat.       27.050
Station Long.      88.262
Station Height(m)  393.0
Site Class        A   Vs30 between 700 m/sec to 1620 m/sec * 
Record Time       03.06.2011 00:53:25.319
Sampling Rate     200. Hz
Record Duration    85.365 Sec.
Direction         Vert. (Up positi
Max. Acceleration    -10.806 cm/sec**2
     
  * For reference see Site Classification link of website 
     
 Base Line Corrected and Low Pass Filtered (Cut Off at 35 Hz) Time History
 Acceleration data in cm/sec**2
    
[...]
       1.768
       1.682
       1.571
       1.479
       1.439
       1.466
       1.538
       1.582
       1.502
       1.232
       0.788
       0.254
      -0.273
      -0.734
      -1.120
      -1.441
      -1.682
      -1.812
      -1.807
      -1.677
      -1.463
      -1.214
      -0.961
      -0.699
      -0.395
      -0.017
       0.431
       0.874
       1.187
       1.245
       0.994
       0.491
      -0.119
      -0.664
      -1.016
      -1.129
      -1.028
      -0.761
      -0.358
       0.181
       0.830
       1.489
       1.986
       2.155
       1.932
       1.386
       0.666
      -0.081
      -0.743
      -1.233
      -1.465
      -1.373
      -0.959
      -0.315
       0.397
       1.011
       1.423
       1.624
       1.669
       1.616
       1.468
       1.174
       0.689
       0.052
      -0.599
      -1.101
      -1.374
      -1.481
      -1.565
      -1.722
      -1.921
      -2.034
      -1.950
      -1.664
      -1.275
      -0.917
      -0.664
      -0.497
      -0.335
      -0.105
       0.182
       0.426
       0.487
       0.281
      -0.141
      -0.585
      -0.794
      -0.592
       0.006
       0.777
       1.414
       1.691
       1.576
       1.215
       0.823
       0.570
       0.538
       0.729
       1.102
       1.558
       1.938
       2.044
       1.740
       1.045
       0.153
      -0.652
      -1.148
      -1.277
      -1.128
      -0.843
      -0.524
      -0.221
       0.007
       0.045
      -0.233
      -0.856
      -1.678
      -2.405
      -2.732
      -2.516
      -1.854
      -1.026
      -0.329
       0.081
       0.240
       0.316
       0.474
       0.764
       1.096
       1.303
       1.272
       1.031
       0.742
       0.585
       0.627
       0.776
       0.862
       0.785
       0.614
       0.539
       0.723
       1.163
       1.671
       1.977
       1.885
       1.371
       0.589
      -0.225
      -0.877
      -1.291
      -1.507
      -1.585
      -1.529
      -1.292
      -0.870
      -0.384
      -0.056
      -0.069
      -0.433
      -0.961
      -1.393
      -1.543
      -1.390
      -1.054
      -0.706
      -0.473
      -0.382
      -0.365
      -0.321
      -0.171
       0.126
       0.564
       1.091
       1.594
       1.907
       1.872
       1.417
       0.609
      -0.352
      -1.199
      -1.695
      -1.721
      -1.316
      -0.649
       0.070
       0.695
       1.184
       1.562
       1.838
       1.955
       1.826
       1.415
       0.802
       0.142
      -0.431
      -0.888
      -1.291
      -1.691
      -2.041
      -2.186
      -1.969
      -1.349
      -0.451
       0.489
       1.243
       1.682
       1.795
       1.638
       1.280
       0.761
       0.102
      -0.663
      -1.454
      -2.140
      -2.565
      -2.609
      -2.235
      -1.519
      -0.634
       0.199
       0.794
       1.074
       1.106
       1.047
       1.034
       1.089
       1.126
       1.047
       0.859
       0.682
       0.657
       0.833
       1.124
       1.388
       1.521
       1.512
       1.397
       1.182
       0.817
       0.254
      -0.467
      -1.183
      -1.695
      -1.890
      -1.810
      -1.598
      -1.380
      -1.177
      -0.931
      -0.594
      -0.184
       0.229
       0.571
       0.784
       0.820
       0.646
       0.292
      -0.127
      -0.439
      -0.509
      -0.321
       0.016
       0.345
       0.534
       0.520
       0.297
      -0.097
      -0.588
      -1.072
      -1.433
      -1.580
      -1.457
      -1.053
      -0.400
       0.415
       1.239
       1.881
       2.185
       2.113
       1.769
       1.343
       0.999
       0.769
       0.554
       0.204
      -0.359
      -1.072
      -1.758
      -2.216
      -2.307
      -2.001
      -1.363
      -0.516
       0.411
       1.300
       2.058
       2.595
       2.799
       2.542
       1.743
       0.477
      -0.970
      -2.170
      -2.751
      -2.579
      -1.824
      -0.858
      -0.051
       0.406
       0.548
       0.561
       0.621
       0.764
       0.858
       0.713
       0.240
      -0.453
      -1.107
      -1.465
      -1.418
      -1.036
      -0.469
       0.156
       0.779
       1.359
       1.836
       2.129
       2.173
       1.936
       1.408
       0.624
      -0.312
      -1.217
      -1.885
      -2.173
      -2.062
      -1.659
      -1.144
      -0.680
      -0.352
      -0.132
       0.084
       0.394
       0.806
       1.198
       1.372
       1.178
       0.629
      -0.089
      -0.723
      -1.092
      -1.163
      -1.019
      -0.758
      -0.416
       0.042
       0.662
       1.424
       2.185
       2.702
       2.743
       2.200
       1.166
      -0.085
      -1.203
      -1.900
      -2.063
      -1.786
      -1.291
      -0.795
      -0.408
      -0.129
       0.080
       0.208
       0.180
      -0.069
      -0.526
      -1.075
      -1.568
      -1.892
      -2.012
      -1.945
      -1.733
      -1.421
      -1.048
      -0.625
      -0.106
       0.575
       1.423
       2.298
       2.937
       3.091
       2.679
       1.848
       0.899
       0.125
      -0.317
      -0.426
      -0.300
      -0.034
       0.315
       0.702
       1.044
       1.221
       1.124
       0.712
       0.038
      -0.763
      -1.528
      -2.115
      -2.447
      -2.509
      -2.315
      -1.868
      -1.162
      -0.229
       0.811
       1.728
       2.246
       2.185
       1.572
       0.644
      -0.278
      -0.955
      -1.318
      -1.438
      -1.422
      -1.324
      -1.141
      -0.846
      -0.444
       0.024
       0.512
       0.996
       1.466
       1.901
       2.261
       2.477
       2.469
       2.171
       1.580
       0.806
       0.065
      -0.399
      -0.458
      -0.179
       0.198
       0.394
       0.245
      -0.219
      -0.812
      -1.323
      -1.649
      -1.831
      -1.977
      -2.143
      -2.265
      -2.209
      -1.885
      -1.332
      -0.694
      -0.124
       0.286
       0.502
       0.525
       0.378
       0.133
      -0.103
      -0.224
      -0.167
       0.071
       0.449
       0.883
       1.257
       1.469
       1.491
       1.396
       1.301
       1.275
       1.293
       1.274
       1.157
       0.944
       0.683
       0.420
       0.176
      -0.046
      -0.251
      -0.440
      -0.619
      -0.802
      -1.011
      -1.264
      -1.559
      -1.849
      -2.029
      -1.964
      -1.577
      -0.916
      -0.146
       0.570
       1.168
       1.674
       2.103
       2.390
       2.431
       2.181
       1.684
       0.996
       0.112
      -1.005
      -2.293
      -3.513
      -4.324
      -4.470
      -3.918
      -2.867
      -1.648
      -0.584
       0.135
       0.519
       0.754
       1.047
       1.465
       1.891
       2.145
       2.134
       1.898
       1.551
       1.207
       0.955
       0.857
       0.936
       1.154
       1.427
       1.669
       1.834
       1.896
       1.805
       1.471
       0.819
      -0.113
      -1.125
      -1.923
      -2.282
      -2.182
      -1.800
      -1.376
      -1.068
      -0.915
      -0.899
      -1.003
      -1.196
      -1.369
      -1.345
      -0.985
      -0.319
       0.449
       1.058
       1.344
       1.305
       1.075
       0.845
       0.782
       0.969
       1.370
       1.837
       2.167
       2.187
       1.837
       1.181
       0.360
      -0.481
      -1.220
      -1.748
      -1.947
      -1.722
      -1.071
      -0.143
       0.773
       1.355
       1.379
       0.824
      -0.125
      -1.164
      -2.002
      -2.462
      -2.525
      -2.294
      -1.917
      -1.519
      -1.169
      -0.882
      -0.647
      -0.452
      -0.306
      -0.210
      -0.112
       0.091
       0.486
       1.054
       1.640
       2.018
       2.014
       1.605
       0.941
       0.292
      -0.068
       0.027
       0.542
       1.249
       1.827
       2.015
       1.738
       1.112
       0.351
      -0.363
      -0.943
      -1.382
      -1.690
      -1.840
      -1.779
      -1.469
      -0.936
      -0.288
       0.320
       0.750
       0.937
       0.887
       0.644
       0.265
      -0.196
      -0.678
      -1.119
      -1.465
      -1.681
      -1.747
      -1.663
      -1.437
      -1.072
      -0.578
      -0.010
       0.521
       0.883
       1.010
       0.942
       0.795
       0.695
       0.727
       0.937
       1.324
       1.834
       2.341
       2.677
       2.682
       2.268
       1.448
       0.343
      -0.830
      -1.819
      -2.425
      -2.588
      -2.393
      -1.996
      -1.526
      -1.043
      -0.573
      -0.146
       0.186
       0.387
       0.476
       0.525
       0.622
       0.808
       1.027
       1.136
       0.992
       0.570
       0.018
      -0.431
      -0.616
      -0.552
      -0.384
      -0.227
      -0.074
       0.149
       0.444
       0.669
       0.612
       0.160
      -0.606
      -1.446
      -2.097
      -2.400
      -2.317
      -1.884
      -1.165
      -0.267
       0.648
       1.391
       1.834
       1.963
       1.867
       1.645
       1.325
       0.868
       0.241
      -0.496
      -1.161
      -1.531
      -1.467
      -1.024
      -0.438
       0.010
       0.169
       0.105
       0.034
       0.136
       0.417
       0.720
       0.868
       0.804
       0.614
       0.437
       0.348
       0.294
       0.127
      -0.295
      -0.959
      -1.630
      -1.946
      -1.651
      -0.814
       0.186
       0.920
       1.210
       1.226
       1.285
       1.568
       1.992
       2.304
       2.277
       1.829
       1.039
       0.087
      -0.827
      -1.544
      -1.988
      -2.153
      -2.068
      -1.778
      -1.354
      -0.910
      -0.573
      -0.405
      -0.356
      -0.294
      -0.105
       0.229
       0.608
       0.871
       0.880
       0.584
       0.051
      -0.546
      -0.990
      -1.117
      -0.878
      -0.345
       0.361
       1.123
       1.845
       2.413
       2.667
       2.461
       1.766
       0.754
      -0.249
      -0.924
      -1.137
      -0.985
      -0.682
      -0.395
      -0.175
       0.001
       0.142
       0.230
       0.255
       0.251
       0.266
       0.320
       0.382
       0.381
       0.242
      -0.097
      -0.660
      -1.387
      -2.110
      -2.570
      -2.529
      -1.900
      -0.837
       0.310
       1.159
       1.499
       1.371
       0.998
       0.609
       0.314
       0.104
      -0.069
      -0.205
      -0.263
      -0.219
      -0.124
      -0.108
      -0.292
      -0.686
      -1.161
      -1.523
      -1.624
      -1.414
      -0.925
      -0.241
       0.518
       1.213
       1.758
       2.193
       2.641
       3.152
       3.560
       3.515
       2.705
       1.094
      -0.997
      -3.029
      -4.505
      -5.183
      -5.129
      -4.587
      -3.779
      -2.786
      -1.563
      -0.098
       1.471
       2.843
       3.704
       3.896
       3.500
       2.778
       2.020
       1.399
       0.928
       0.525
       0.119
      -0.292
      -0.654
      -0.902
      -0.994
      -0.923
      -0.715
      -0.447
      -0.223
      -0.135
      -0.198
      -0.331
      -0.421
      -0.429
      -0.450
      -0.635
      -1.036
      -1.510
      -1.789
      -1.650
      -1.057
      -0.156
       0.833
       1.721
       2.389
       2.782
       2.909
       2.848
       2.692
       2.472
       2.119
       1.535
       0.703
      -0.265
      -1.179
      -1.874
      -2.268
      -2.348
      -2.143
      -1.728
      -1.236
      -0.810
      -0.519
      -0.298
      -0.020
       0.383
       0.829
       1.137
       1.151
       0.857
       0.398
      -0.015
      -0.252
      -0.357
      -0.501
      -0.815
      -1.257
      -1.606
      -1.620
      -1.215
      -0.525
       0.206
       0.790
       1.178
       1.432
       1.617
       1.736
       1.741
       1.583
       1.250
       0.770
       0.187
      -0.436
      -1.005
      -1.402
      -1.544
      -1.449
      -1.230
      -1.014
      -0.848
      -0.681
      -0.424
      -0.048
       0.369
       0.668
       0.692
       0.362
      -0.291
      -1.147
      -2.034
      -2.761
      -3.152
      -3.110
      -2.660
      -1.951
      -1.174
      -0.454
       0.199
       0.820
       1.370
       1.696
       1.647
       1.248
       0.755
       0.517
       0.755
       1.470
       2.499
       3.627
       4.639
       5.340
       5.603
       5.423
       4.911
       4.192
       3.289
       2.137
       0.710
      -0.866
      -2.351
      -3.558
      -4.475
      -5.202
      -5.778
      -6.074
      -5.900
      -5.197
      -4.145
      -3.071
      -2.258
      -1.796
      -1.565
      -1.319
      -0.822
       0.046
       1.245
       2.612
       3.945
       5.089
       5.970
       6.561
       6.834
       6.725
       6.150
       5.044
       3.413
       1.379
      -0.800
      -2.782
      -4.264
      -5.123
      -5.452
      -5.468
      -5.344
      -5.109
      -4.687
      -4.008
      -3.102
      -2.102
      -1.159
      -0.332
       0.466
       1.397
       2.550
       3.825
       4.957
       5.682
       5.905
       5.747
       5.431
       5.086
       4.639
       3.873
       2.613
       0.858
      -1.244
      -3.521
      -5.837
      -8.029
      -9.811
     -10.806
     -10.721
      -9.526
      -7.482
      -5.017
      -2.563
      -0.441
       1.171
       2.216
       2.717
       2.748
       2.422
       1.886
       1.312
       0.863
       0.656
       0.750
       1.164
       1.909
       2.970
       4.252
       5.558
       6.640
       7.294
       7.411
       6.954
       5.899
       4.245
       2.106
      -0.225
      -2.352
      -3.966
      -4.947
      -5.312
      -5.080
      -4.249
      -2.892
      -1.253
       0.293
       1.404
       1.905
       1.798
       1.186
       0.206
      -0.980
      -2.160
      -3.100
      -3.610
      -3.583
      -2.990
      -1.871
      -0.349
       1.346
       2.926
       4.147
       4.870
       5.028
       4.574
       3.477
       1.796
      -0.264
      -2.372
      -4.185
      -5.486
      -6.235
      -6.502
      -6.354
      -5.766
      -4.653
      -2.991
      -0.918
       1.271
       3.244
       4.763
       5.718
       6.074
       5.822
       5.020
       3.844
       2.563
       1.421
       0.541
      -0.070
      -0.443
      -0.614
      -0.647
      -0.662
      -0.791
      -1.110
      -1.620
      -2.287
      -3.064
      -3.879
      -4.614
      -5.124
      -5.300
      -5.116
      -4.655
      -4.077
      -3.545
      -3.126
      -2.756
      -2.298
      -1.646
      -0.806
       0.123
       1.018
       1.814
       2.531
       3.241
       4.006
       4.800
       5.480
       5.811
       5.577
       4.704
       3.318
       1.674
       0.013
      -1.541
      -2.961
      -4.191
      -5.048
      -5.262
      -4.636
      -3.204
      -1.251
       0.791
       2.509
       3.648
       4.169
       4.222
       4.028
       3.753
       3.428
       2.990
       2.378
       1.588
       0.660
      -0.352
      -1.355
      -2.187
      -2.658
      -2.678
      -2.325
      -1.767
      -1.114
      -0.340
       0.617
       1.693
       2.654
       3.213
       3.223
       2.767
       2.096
       1.464
       0.987
       0.588
       0.067
      -0.736
      -1.785
      -2.812
      -3.459
      -3.499
      -2.951
      -2.025
      -0.963
       0.068
       0.991
       1.778
       2.434
       2.975
       3.393
       3.628
       3.616
       3.376
       3.043
       2.770
       2.589
       2.394
       2.072
       1.638
       1.218
       0.876
       0.487
      -0.190
      -1.269
      -2.547
      -3.572
      -3.959
      -3.695
      -3.159
      -2.813
      -2.832
      -2.983
      -2.849
      -2.176
      -1.063
       0.135
       1.055
       1.544
       1.677
       1.602
       1.349
       0.765
      -0.358
      -2.062
      -4.087
      -5.921
      -7.046
      -7.192
      -6.466
      -5.270
      -4.065
      -3.121
      -2.393
      -1.615
      -0.552
       0.766
       2.022
       2.831
       3.015
       2.712
       2.232
       1.803
       1.432
       0.974
       0.341
      -0.355
      -0.841
      -0.861
      -0.355
       0.512
       1.456
       2.259
       2.878
       3.421
       4.000
       4.572
       4.902
       4.680
       3.732
       2.179
       0.411
      -1.114
      -2.097
      -2.497
      -2.463
      -2.187
      -1.805
      -1.400
      -1.036
      -0.767
      -0.595
      -0.440
      -0.176
       0.274
       0.860
       1.398
       1.674
       1.591
       1.272
       1.013
       1.134
       1.765
       2.729
       3.597
       3.919
       3.484
       2.420
       1.081
      -0.176
      -1.135
      -1.732
      -1.980
      -1.918
      -1.622
      -1.233
      -0.921
      -0.804
      -0.885
      -1.071
      -1.244
      -1.331
      -1.313
      -1.201
      -1.033
      -0.872
      -0.795
      -0.835
      -0.922
      -0.903
      -0.620
      -0.012
       0.859
       1.847
       2.787
       3.544
       4.038
       4.230
       4.106
       3.650
       2.849
       1.730
       0.407
      -0.939
      -2.127
      -3.065
      -3.776
      -4.344
      -4.824
      -5.200
      -5.416
      -5.431
      -5.245
      -4.885
      -4.387
      -3.783
      -3.107
      -2.396
      -1.686
      -0.998
      -0.338
       0.277
       0.796
       1.137
       1.230
       1.072
       0.781
       0.576
       0.676
       1.171
       1.937
       2.693
       3.155
       3.182
       2.852
       2.413
       2.173
       2.369
       3.063
       4.104
       5.172
       5.901
       6.019
       5.447
       4.306
       2.848
       1.368
       0.110
      -0.777
      -1.230
      -1.240
      -0.847
      -0.180
       0.518
       0.976
       1.055
       0.845
       0.566
       0.357
       0.127
      -0.388
      -1.401
      -2.882
      -4.518
      -5.866
      -6.596
      -6.648
      -6.219
      -5.590
      -4.926
      -4.187
      -3.222
      -1.968
      -0.586
       0.584
       1.228
       1.275
       0.930
       0.532
       0.350
       0.479
       0.864
       1.380
       1.925
       2.468
       3.028
       3.604
       4.099
       4.311
       4.041
       3.234
       2.058
       0.837
      -0.110
      -0.626
      -0.759
      -0.684
      -0.553
      -0.409
      -0.194
       0.168
       0.705
       1.375
       2.081
       2.692
       3.069
       3.086
       2.636
       1.637
       0.073
      -1.944
      -4.125
      -6.057
      -7.340
      -7.777
      -7.468
      -6.739
      -5.945
      -5.272
      -4.664
      -3.904
      -2.807
      -1.396
       0.070
       1.248
       1.956
       2.298
       2.555
       2.919
       3.306
       3.438
       3.110
       2.420
       1.741
       1.468
       1.726
       2.276
       2.673
       2.572
       1.960
       1.158
       0.585
