Origin Time       05/3/2012 07:41:05	
Lat.              28.7 N	
Long.             76.6 E	
Depth (Km)         14.0
Magnitude         4.9
 Region           Haryana-Delhi-Border-Region                                      
 Above details taken from IMD 
   
Station Code      DLU
Station Lat.       28.691
Station Long.      77.212
Station Height(m)  220.0
Site Class        C   Vs30 between 200 m/sec to 375 m/sec *  
Record Time       05.03.2012 07:40:46.379
Sampling Rate     200. Hz
 Record Duration  125.330 Sec.
 Direction         Vert. (Up positive)
Max. Acceleration      6.934 cm/sec**2
     
  * For reference see Site Classification link of website 
     
 Base Line Corrected and Low Pass Filtered (Cut Off at 35 Hz) Time History
 Acceleration data in cm/sec**2
    
[...]
      -0.640
       1.269
       2.523
       3.078
       3.134
       2.809
       2.030
       0.739
      -0.834
      -2.146
      -2.651
      -2.170
      -1.015
       0.243
       1.122
       1.419
       1.169
       0.521
      -0.310
      -1.035
      -1.333
      -0.998
      -0.088
       1.091
       2.157
       2.869
       3.196
       3.220
       2.978
       2.409
       1.489
       0.394
      -0.525
      -1.009
      -1.135
      -1.233
      -1.503
      -1.733
      -1.491
      -0.654
       0.305
       0.611
      -0.143
      -1.611
      -2.937
      -3.392
      -2.833
      -1.635
      -0.284
       0.943
       1.962
       2.691
       2.956
       2.591
       1.565
       0.018
      -1.773
      -3.410
      -4.402
      -4.325
      -3.074
      -1.031
       1.038
       2.362
       2.584
       1.909
       0.879
      -0.028
      -0.640
      -1.022
      -1.226
      -1.163
      -0.683
       0.220
       1.279
       2.013
       1.953
       0.920
      -0.820
      -2.645
      -3.862
      -4.016
      -3.087
      -1.469
       0.240
       1.516
       2.113
       2.069
       1.559
       0.708
      -0.439
      -1.767
      -2.917
      -3.333
      -2.599
      -0.813
       1.348
       2.971
       3.426
       2.664
       1.123
      -0.594
      -2.007
      -2.822
      -2.859
      -2.033
      -0.451
       1.492
       3.203
       4.156
       4.129
       3.210
       1.664
      -0.183
      -1.951
      -3.214
      -3.634
      -3.130
      -1.906
      -0.276
       1.524
       3.320
       4.821
       5.503
       4.828
       2.659
      -0.460
      -3.465
      -5.301
      -5.419
      -3.910
      -1.292
       1.767
       4.571
       6.447
       6.886
       5.770
       3.469
       0.668
      -1.928
      -3.780
      -4.542
      -4.050
      -2.399
      -0.048
       2.227
       3.590
       3.514
       2.049
      -0.192
      -2.341
      -3.689
      -3.977
      -3.408
      -2.411
      -1.335
      -0.297
       0.729
       1.671
       2.227
       2.016
       0.891
      -0.868
      -2.646
      -3.782
      -3.811
      -2.595
      -0.354
       2.347
       4.723
       6.020
       5.840
       4.330
       2.093
      -0.147
      -1.895
      -2.991
      -3.461
      -3.330
      -2.584
      -1.302
       0.222
       1.514
       2.106
       1.761
       0.599
      -0.941
      -2.279
      -2.900
      -2.545
      -1.315
       0.346
       1.839
       2.693
       2.743
       2.079
       0.872
      -0.705
      -2.391
      -3.732
      -4.194
      -3.471
      -1.745
       0.364
       2.139
       3.120
       3.174
       2.349
       0.768
      -1.276
      -3.184
      -4.187
      -3.776
      -2.103
       0.052
       1.778
       2.623
       2.805
       2.871
       3.130
       3.356
       3.021
       1.834
       0.089
      -1.473
      -2.162
      -1.795
      -0.769
       0.248
       0.726
       0.514
      -0.200
      -1.079
      -1.833
      -2.326
      -2.551
      -2.502
      -2.051
      -0.991
       0.728
       2.743
       4.300
       4.656
       3.619
       1.728
      -0.119
      -1.283
      -1.694
      -1.611
      -1.173
      -0.280
       1.092
       2.523
       3.245
       2.695
       1.027
      -0.939
      -2.309
      -2.735
      -2.522
      -2.216
      -2.081
      -1.953
      -1.516
      -0.685
       0.283
       1.011
       1.327
       1.361
       1.346
       1.313
       1.044
       0.349
      -0.598
      -1.299
      -1.379
      -1.006
      -0.792
      -1.200
      -2.009
      -2.402
      -1.653
       0.195
       2.300
       3.690
       3.989
       3.538
       2.839
       1.968
       0.625
      -1.262
      -3.075
      -3.826
      -3.027
      -1.267
       0.142
       0.214
      -0.892
      -2.002
      -1.906
      -0.342
       1.815
       3.276
       3.294
       2.065
       0.362
      -1.131
      -2.143
      -2.624
      -2.436
      -1.373
       0.490
       2.551
       3.874
       3.769
       2.271
       0.144
      -1.612
      -2.381
      -2.198
      -1.522
      -0.799
      -0.220
       0.189
       0.404
       0.421
       0.404
       0.655
       1.297
       1.984
       2.024
       0.958
      -0.920
      -2.633
      -3.218
      -2.478
      -1.131
      -0.216
      -0.284
      -1.074
      -1.882
      -2.216
      -2.046
      -1.514
      -0.547
       1.059
       3.121
       4.796
       5.057
       3.613
       1.341
      -0.349
      -0.708
      -0.258
      -0.158
      -0.939
      -1.907
      -1.840
      -0.283
       1.901
       3.256
       2.991
       1.540
      -0.020
      -0.999
      -1.560
      -2.256
      -3.228
      -3.890
      -3.406
      -1.479
       1.276
       3.714
       4.945
       4.839
       3.891
       2.668
       1.391
       0.015
      -1.412
      -2.592
      -3.220
      -3.363
      -3.456
      -3.844
      -4.296
      -4.075
      -2.595
      -0.071
       2.522
       4.209
       4.778
       4.758
       4.668
       4.349
       3.168
       0.864
      -1.892
      -3.905
      -4.440
      -3.782
      -2.862
      -2.374
      -2.290
      -2.138
      -1.612
      -0.840
      -0.110
       0.527
       1.283
       2.284
       3.297
       3.868
       3.722
       2.987
       2.023
       1.079
       0.156
      -0.815
      -1.698
      -2.149
      -1.919
      -1.164
      -0.391
      -0.029
      -0.036
       0.010
       0.392
       0.856
       0.824
       0.029
      -1.112
      -1.836
      -1.722
      -1.028
      -0.364
      -0.140
      -0.343
      -0.761
      -1.227
      -1.591
      -1.591
      -0.938
       0.370
       1.873
       2.903
       3.056
       2.432
       1.430
       0.367
      -0.663
      -1.585
      -2.123
      -1.885
      -0.697
       1.147
       2.954
       3.974
       3.768
       2.382
       0.280
      -1.881
      -3.500
      -4.201
      -3.907
      -2.800
      -1.239
       0.349
       1.576
       2.230
       2.375
       2.275
       2.153
       1.984
       1.532
       0.613
      -0.703
      -2.093
      -3.149
      -3.545
      -3.158
      -2.131
      -0.849
       0.194
       0.624
       0.392
      -0.156
      -0.458
      -0.100
       0.886
       2.043
       2.824
       2.931
       2.419
       1.569
       0.686
      -0.077
      -0.771
      -1.542
      -2.368
      -2.889
      -2.577
      -1.181
       0.911
       2.804
       3.678
       3.335
       2.224
       0.961
      -0.134
      -1.036
      -1.672
      -1.729
      -0.933
       0.521
       1.914
       2.451
       1.828
       0.390
      -1.203
      -2.447
      -3.181
      -3.439
      -3.215
      -2.441
      -1.195
       0.118
       0.876
       0.653
      -0.385
      -1.473
      -1.737
      -0.856
       0.665
       1.867
       2.075
       1.372
       0.442
      -0.022
       0.197
       0.794
       1.273
       1.295
       0.803
      -0.066
      -1.100
      -2.044
      -2.603
      -2.533
      -1.802
      -0.654
       0.569
       1.661
       2.608
       3.359
       3.630
       3.001
       1.307
      -1.041
      -3.139
      -4.063
      -3.428
      -1.634
       0.385
       1.737
       2.116
       1.898
       1.726
       1.918
       2.196
       1.996
       1.036
      -0.396
      -1.686
      -2.404
      -2.596
      -2.626
      -2.770
      -2.920
      -2.647
      -1.574
       0.258
       2.279
       3.654
       3.758
       2.559
       0.640
      -1.183
      -2.360
      -2.846
      -2.894
      -2.630
      -1.877
      -0.407
       1.634
       3.594
       4.679
       4.527
       3.475
       2.279
       1.520
       1.198
       0.854
       0.076
      -1.085
      -2.132
      -2.531
      -2.127
      -1.218
      -0.261
       0.458
       0.879
       0.994
       0.731
       0.054
      -0.875
      -1.709
      -2.113
      -1.942
      -1.244
      -0.175
       1.015
       1.943
       2.143
       1.339
      -0.202
      -1.611
      -1.891
      -0.718
       1.131
       2.255
       1.748
      -0.019
      -1.727
      -2.242
      -1.482
      -0.269
       0.568
       0.896
       1.173
       1.764
       2.416
       2.403
       1.188
      -1.026
      -3.344
      -4.797
      -4.955
      -4.059
      -2.658
      -1.190
       0.139
       1.221
       1.942
       2.220
       2.090
       1.668
       1.040
       0.212
      -0.799
      -1.800
      -2.401
      -2.200
      -1.079
       0.660
       2.451
       3.776
       4.398
       4.364
       3.834
       2.902
       1.586
      -0.028
      -1.646
      -2.806
      -3.164
      -2.783
      -2.146
      -1.772
      -1.768
      -1.767
      -1.340
      -0.483
       0.350
       0.686
       0.490
       0.197
       0.320
       1.015
       1.978
       2.658
       2.591
       1.649
       0.130
      -1.340
      -2.093
      -1.799
      -0.695
       0.532
       1.163
       0.885
      -0.036
      -0.993
      -1.489
      -1.466
      -1.244
      -1.128
      -1.064
      -0.654
       0.425
       1.985
       3.316
       3.658
       2.797
       1.266
      -0.028
      -0.453
      -0.061
       0.532
       0.646
      -0.001
      -1.207
      -2.522
      -3.560
      -4.145
      -4.273
      -3.982
      -3.268
      -2.130
      -0.689
       0.751
       1.808
       2.242
       2.108
       1.707
       1.377
       1.303
       1.458
       1.685
       1.788
       1.622
       1.180
       0.644
       0.316
       0.392
       0.733
       0.915
       0.575
      -0.218
      -0.971
      -1.176
      -0.750
      -0.091
       0.307
       0.271
       0.072
       0.158
       0.766
       1.688
       2.345
       2.131
       0.825
      -1.197
      -3.122
      -4.155
      -3.969
      -2.825
      -1.325
      -0.031
       0.744
       0.935
       0.636
       0.026
      -0.689
      -1.353
      -1.877
      -2.160
      -1.985
      -1.083
       0.596
       2.654
       4.354
       5.069
       4.711
       3.730
       2.665
       1.672
       0.504
      -1.014
      -2.508
      -3.101
      -2.048
       0.533
       3.486
       5.249
       4.857
       2.565
      -0.387
      -2.645
      -3.557
      -3.375
      -2.810
      -2.432
      -2.383
      -2.519
      -2.684
      -2.794
      -2.764
      -2.475
      -1.900
      -1.180
      -0.506
       0.096
       0.783
       1.636
       2.420
       2.665
       2.082
       0.902
      -0.212
      -0.630
      -0.206
       0.668
       1.443
       1.844
       1.972
       2.051
       2.121
       1.989
       1.456
       0.549
      -0.457
      -1.231
      -1.590
      -1.544
      -1.223
      -0.799
      -0.487
      -0.481
      -0.794
      -1.159
      -1.195
      -0.781
      -0.263
      -0.191
      -0.757
      -1.493
      -1.635
      -0.872
       0.303
       1.036
       0.924
       0.329
      -0.091
      -0.069
       0.107
       0.084
      -0.068
       0.071
       0.703
       1.433
       1.549
       0.704
      -0.675
      -1.701
      -1.762
      -1.014
      -0.184
       0.103
      -0.130
      -0.262
       0.357
       1.806
       3.438
       4.303
       3.807
       2.104
      -0.064
      -1.867
      -2.806
      -2.793
      -2.019
      -0.833
       0.340
       1.128
       1.398
       1.284
       0.989
       0.555
      -0.104
      -0.940
      -1.605
      -1.637
      -0.865
       0.367
       1.380
       1.622
       1.018
      -0.061
      -1.149
      -2.003
      -2.636
      -3.116
      -3.373
      -3.203
      -2.407
      -0.922
       1.092
       3.207
       4.784
       5.262
       4.558
       3.195
       1.948
       1.244
       0.892
       0.367
      -0.657
      -2.028
      -3.260
      -3.883
      -3.678
      -2.718
      -1.280
       0.285
       1.694
       2.789
       3.466
       3.543
       2.775
       1.145
      -0.818
      -2.133
      -2.030
      -0.681
       0.743
       0.894
      -0.690
      -3.207
      -5.213
      -5.695
      -4.669
      -2.930
      -1.272
       0.063
       1.294
       2.575
       3.607
       3.785
       2.754
       0.857
      -0.951
      -1.705
      -1.071
       0.490
       2.130
       3.172
       3.371
       2.782
       1.566
      -0.025
      -1.567
      -2.566
      -2.734
      -2.177
      -1.230
      -0.118
       1.164
       2.623
       3.986
       4.751
       4.577
       3.595
       2.313
       1.207
       0.393
      -0.347
      -1.287
      -2.507
      -3.817
      -4.827
      -5.104
      -4.396
      -2.856
      -1.102
       0.068
       0.158
      -0.686
      -1.794
      -2.459
      -2.379
      -1.698
      -0.706
       0.430
       1.638
       2.718
       3.259
       2.884
       1.621
       0.050
      -0.996
      -0.966
       0.047
       1.394
       2.323
       2.427
       1.789
       0.769
      -0.311
      -1.311
      -2.163
      -2.686
      -2.598
      -1.765
      -0.434
       0.853
       1.651
       1.924
       1.995
       2.190
       2.535
       2.741
       2.445
       1.489
       0.024
      -1.577
      -2.913
      -3.700
      -3.795
      -3.138
      -1.708
       0.443
       3.057
       5.522
       6.934
       6.478
       4.009
       0.327
      -3.192
      -5.416
      -6.060
      -5.580
      -4.561
      -3.236
      -1.556
       0.405
       2.211
       3.266
       3.247
       2.347
       1.086
      -0.082
      -0.980
      -1.581
      -1.794
      -1.451
      -0.529
       0.676
       1.646
       1.967
       1.607
       0.877
       0.118
      -0.569
      -1.286
      -2.036
      -2.523
      -2.320
      -1.304
       0.112
       1.196
       1.425
       0.865
       0.115
      -0.119
       0.494
       1.666
       2.639
       2.679
       1.620
       0.079
      -0.907
      -0.654
       0.570
       1.690
       1.677
       0.413
      -1.246
      -2.279
      -2.360
      -1.909
      -1.376
      -0.671
       0.579
       2.237
       3.366
       2.915
       0.757
      -2.010
      -3.857
      -3.959
      -2.674
      -1.032
       0.145
       0.723
       1.072
       1.544
       2.123
       2.458
       2.191
       1.260
      -0.044
      -1.274
      -2.067
      -2.237
      -1.720
      -0.556
       0.989
       2.325
       2.744
       1.887
       0.087
      -1.807
      -3.024
      -3.350
      -3.082
      -2.551
      -1.754
      -0.440
       1.465
       3.539
       4.978
       5.044
       3.535
       0.979
      -1.577
      -3.094
      -3.123
      -2.063
      -0.850
      -0.302
      -0.573
      -1.149
      -1.340
      -0.857
       0.020
       0.765
       1.095
       1.134
       1.146
       1.128
       0.778
      -0.129
      -1.353
      -2.263
      -2.317
      -1.493
      -0.254
       0.850
       1.532
       1.761
       1.547
       0.850
      -0.234
      -1.276
      -1.672
      -1.115
       0.076
       1.106
       1.266
       0.440
      -0.860
      -1.937
      -2.404
      -2.303
      -1.812
      -0.961
       0.278
       1.669
       2.642
       2.696
       1.899
       0.911
       0.432
       0.582
       0.849
       0.648
      -0.044
      -0.607
      -0.304
       1.062
       2.922
       4.319
       4.542
       3.556
       1.909
       0.245
      -1.179
      -2.555
      -4.136
      -5.751
      -6.743
      -6.435
      -4.724
      -2.209
       0.257
       2.116
       3.233
       3.594
       3.090
       1.733
       0.011
      -1.180
      -1.167
      -0.090
       1.197
       1.904
       1.976
       2.005
       2.485
       3.217
       3.468
       2.690
       1.074
      -0.567
      -1.442
      -1.317
      -0.543
       0.316
       0.824
       0.724
      -0.120
      -1.634
      -3.357
      -4.508
      -4.454
      -3.232
      -1.573
      -0.301
       0.305
       0.573
       0.861
       1.001
       0.430
      -1.094
      -2.950
      -3.940
      -3.243
      -1.135
       1.197
       2.618
       2.880
       2.623
       2.608
       2.950
       3.071
       2.348
       0.814
      -0.793
      -1.697
      -1.812
      -1.797
      -2.335
      -3.338
      -3.921
      -3.212
      -1.224
       1.085
       2.591
       2.882
       2.424
       1.959
       1.790
       1.631
       1.096
       0.256
      -0.299
       0.046
       1.354
       2.998
       4.073
       4.002
       2.859
       1.218
      -0.284
      -1.307
      -1.879
      -2.237
      -2.610
      -3.083
      -3.546
      -3.715
      -3.288
      -2.180
      -0.688
       0.639
       1.362
       1.481
       1.398
       1.541
       1.954
       2.240
       1.930
       0.982
      -0.108
      -0.710
      -0.661
      -0.439
      -0.711
      -1.618
      -2.539
      -2.624
      -1.660
      -0.351
       0.311
       0.007
      -0.608
      -0.578
       0.423
       1.838
       2.843
       3.093
       2.840
       2.410
       1.734
       0.505
      -1.229
      -2.759
      -3.136
      -1.995
       0.023
       1.706
       2.199
       1.591
       0.677
       0.183
       0.204
       0.275
      -0.073
      -0.843
      -1.612
      -1.998
      -2.085
      -2.325
      -3.033
      -3.990
      -4.577
      -4.276
      -3.076
      -1.464
      -0.071
       0.742
       1.087
       1.356
       1.756
       2.018
       1.661
       0.626
      -0.408
      -0.466
       0.857
       2.967
       4.700
       5.205
       4.476
       3.162
       1.932
       1.023
       0.279
      -0.506
      -1.356
      -2.119
      -2.591
      -2.597
      -2.079
      -1.230
      -0.487
      -0.275
      -0.664
      -1.274
      -1.549
      -1.148
      -0.146
       1.062
       2.024
       2.450
       2.285
       1.651
       0.784
       0.039
      -0.167
       0.431
       1.656
       2.821
       3.103
       2.143
       0.340
      -1.470
      -2.664
      -3.187
      -3.334
      -3.267
      -2.824
      -1.810
      -0.394
       0.861
       1.426
       1.224
       0.597
      -0.144
      -1.009
      -2.110
      -3.199
      -3.592
      -2.661
      -0.467
       2.118
       3.972
       4.470
       3.784
       2.557
       1.340
       0.329
      -0.487
      -1.052
      -1.182
      -0.769
      -0.018
       0.569
       0.491
      -0.365
      -1.589
      -2.516
      -2.687
      -2.135
      -1.262
      -0.464
       0.141
       0.666
       1.231
       1.824
       2.362
       2.810
       3.197
       3.529
       3.700
       3.492
       2.708
       1.338
      -0.362
      -1.962
      -3.062
      -3.447
      -3.133
      -2.349
      -1.506
      -1.136
      -1.664
      -3.060
      -4.665
      -5.466
      -4.748
      -2.596
       0.182
       2.621
       4.128
       4.582
       4.126
       3.027
       1.691
       0.612
       0.094
       0.022
      -0.002
      -0.222
      -0.456
      -0.244
       0.681
