Origin Time       12/3/2012 22:07:20	
Lat.              28.9 N	
Long.             77.3 E	
Depth (Km)          5.0
Magnitude         3.5
 Region           Baghpat-U.P.                                                     
 Above details taken from IMD 
     
Station Code      DLU
Station Lat.       28.691  N
Station Long.      77.212  E
Station Height(m)  220.0
Site Class        C   Vs30 between 200 m/sec to 375 m/sec *  
Record Time       12.03.2012 22:06:59.884
Sampling Rate     200. Hz
 Record Duration   84.260 Sec.
 Direction         E-W (E positive)
Max. Acceleration     -9.388 cm/sec**2
     
  * For reference see Site Classification link of website 
     
 Base Line Corrected and Low Pass Filtered (Cut Off at 35 Hz) Time History
 Acceleration data in cm/sec**2
    
[...]
       0.048
      -0.088
      -0.200
      -0.277
      -0.288
      -0.196
      -0.010
       0.196
       0.328
       0.338
       0.244
       0.093
      -0.072
      -0.213
      -0.277
      -0.218
      -0.048
       0.146
       0.257
       0.224
       0.067
      -0.144
      -0.337
      -0.455
      -0.460
      -0.338
      -0.099
       0.216
       0.520
       0.693
       0.634
       0.341
      -0.056
      -0.370
      -0.485
      -0.416
      -0.282
      -0.190
      -0.167
      -0.160
      -0.097
       0.050
       0.244
       0.401
       0.432
       0.298
       0.037
      -0.249
      -0.443
      -0.458
      -0.282
       0.003
       0.242
       0.293
       0.134
      -0.109
      -0.259
      -0.225
      -0.067
       0.079
       0.128
       0.103
       0.088
       0.138
       0.223
       0.263
       0.209
       0.083
      -0.036
      -0.081
      -0.059
      -0.037
      -0.078
      -0.169
      -0.234
      -0.209
      -0.114
      -0.022
       0.016
       0.019
       0.045
       0.119
       0.191
       0.177
       0.031
      -0.190
      -0.350
      -0.331
      -0.133
       0.121
       0.277
       0.259
       0.126
       0.009
      -0.001
       0.070
       0.112
       0.041
      -0.115
      -0.243
      -0.248
      -0.133
       0.001
       0.048
      -0.027
      -0.161
      -0.259
      -0.261
      -0.175
      -0.045
       0.086
       0.189
       0.236
       0.204
       0.092
      -0.050
      -0.138
      -0.118
      -0.017
       0.060
       0.026
      -0.107
      -0.232
      -0.231
      -0.077
       0.148
       0.319
       0.365
       0.310
       0.235
       0.182
       0.114
      -0.035
      -0.273
      -0.512
      -0.620
      -0.522
      -0.259
       0.046
       0.276
       0.385
       0.383
       0.302
       0.168
       0.013
      -0.118
      -0.176
      -0.135
      -0.014
       0.119
       0.179
       0.105
      -0.098
      -0.349
      -0.537
      -0.569
      -0.430
      -0.184
       0.058
       0.223
       0.312
       0.372
       0.423
       0.423
       0.324
       0.134
      -0.074
      -0.226
      -0.299
      -0.310
      -0.281
      -0.220
      -0.130
      -0.013
       0.114
       0.220
       0.272
       0.268
       0.244
       0.233
       0.203
       0.069
      -0.215
      -0.573
      -0.813
      -0.760
      -0.401
       0.086
       0.449
       0.539
       0.395
       0.174
       0.022
      -0.026
      -0.026
      -0.048
      -0.112
      -0.191
      -0.242
      -0.244
      -0.202
      -0.146
      -0.117
      -0.143
      -0.203
      -0.204
      -0.037
       0.311
       0.698
       0.891
       0.733
       0.261
      -0.300
      -0.686
      -0.748
      -0.530
      -0.206
       0.052
       0.172
       0.185
       0.152
       0.094
       0.005
      -0.088
      -0.103
       0.037
       0.300
       0.532
       0.563
       0.344
      -0.021
      -0.351
      -0.512
      -0.483
      -0.330
      -0.146
      -0.003
       0.071
       0.078
       0.046
       0.021
       0.043
       0.127
       0.246
       0.325
       0.288
       0.104
      -0.170
      -0.422
      -0.560
      -0.572
      -0.507
      -0.398
      -0.224
       0.049
       0.394
       0.700
       0.831
       0.710
       0.380
      -0.022
      -0.335
      -0.469
      -0.432
      -0.306
      -0.177
      -0.083
      -0.021
       0.014
       0.008
      -0.040
      -0.071
       0.013
       0.251
       0.549
       0.723
       0.629
       0.276
      -0.179
      -0.542
      -0.699
      -0.647
      -0.455
      -0.213
      -0.009
       0.079
       0.032
      -0.075
      -0.101
       0.047
       0.312
       0.510
       0.476
       0.200
      -0.164
      -0.420
      -0.471
      -0.353
      -0.168
      -0.007
       0.086
       0.102
       0.058
      -0.007
      -0.045
      -0.038
      -0.010
       0.002
      -0.004
       0.019
       0.105
       0.227
       0.295
       0.237
       0.062
      -0.154
      -0.335
      -0.443
      -0.457
      -0.349
      -0.106
       0.212
       0.479
       0.569
       0.446
       0.174
      -0.127
      -0.340
      -0.377
      -0.227
       0.023
       0.204
       0.189
      -0.005
      -0.219
      -0.285
      -0.163
       0.042
       0.186
       0.212
       0.174
       0.171
       0.247
       0.355
       0.399
       0.287
      -0.013
      -0.445
      -0.861
      -1.077
      -0.977
      -0.589
      -0.060
       0.430
       0.739
       0.797
       0.621
       0.303
      -0.026
      -0.258
      -0.358
      -0.341
      -0.233
      -0.060
       0.116
       0.190
       0.077
      -0.204
      -0.493
      -0.579
      -0.340
       0.153
       0.676
       0.991
       0.991
       0.732
       0.348
      -0.031
      -0.323
      -0.494
      -0.550
      -0.527
      -0.461
      -0.340
      -0.125
       0.167
       0.402
       0.409
       0.140
      -0.253
      -0.509
      -0.441
      -0.060
       0.435
       0.756
       0.689
       0.236
      -0.360
      -0.753
      -0.732
      -0.375
       0.015
       0.174
       0.103
       0.031
       0.151
       0.381
       0.441
       0.158
      -0.327
      -0.666
      -0.619
      -0.254
       0.153
       0.380
       0.411
       0.362
       0.299
       0.184
      -0.031
      -0.298
      -0.486
      -0.479
      -0.252
       0.115
       0.461
       0.595
       0.415
       0.002
      -0.418
      -0.634
      -0.585
      -0.351
      -0.047
       0.227
       0.379
       0.356
       0.206
       0.078
       0.092
       0.215
       0.302
       0.262
       0.161
       0.129
       0.186
       0.201
       0.024
      -0.340
      -0.710
      -0.854
      -0.659
      -0.204
       0.284
       0.559
       0.507
       0.228
      -0.029
      -0.065
       0.098
       0.226
       0.096
      -0.292
      -0.689
      -0.793
      -0.503
       0.007
       0.436
       0.594
       0.519
       0.362
       0.204
       0.005
      -0.255
      -0.468
      -0.462
      -0.198
       0.157
       0.381
       0.390
       0.262
       0.104
      -0.050
      -0.196
      -0.272
      -0.186
       0.062
       0.330
       0.426
       0.259
      -0.084
      -0.395
      -0.485
      -0.319
      -0.043
       0.128
       0.080
      -0.109
      -0.244
      -0.189
       0.018
       0.209
       0.249
       0.163
       0.095
       0.160
       0.305
       0.341
       0.114
      -0.318
      -0.694
      -0.743
      -0.398
       0.151
       0.600
       0.732
       0.532
       0.149
      -0.215
      -0.411
      -0.399
      -0.236
      -0.016
       0.191
       0.348
       0.408
       0.303
       0.013
      -0.357
      -0.622
      -0.652
      -0.481
      -0.257
      -0.103
      -0.036
       0.001
       0.068
       0.186
       0.358
       0.560
       0.710
       0.669
       0.329
      -0.272
      -0.905
      -1.252
      -1.091
      -0.455
       0.363
       0.959
       1.061
       0.691
       0.133
      -0.278
      -0.372
      -0.217
      -0.007
       0.103
       0.087
       0.015
      -0.042
      -0.068
      -0.092
      -0.147
      -0.239
      -0.314
      -0.268
      -0.010
       0.435
       0.879
       1.067
       0.843
       0.272
      -0.389
      -0.851
      -0.967
      -0.790
      -0.486
      -0.215
      -0.060
      -0.043
      -0.128
      -0.201
      -0.117
       0.165
       0.486
       0.585
       0.345
      -0.071
      -0.363
      -0.369
      -0.181
      -0.004
       0.049
       0.007
      -0.054
      -0.090
      -0.080
       0.004
       0.159
       0.288
       0.242
      -0.027
      -0.356
      -0.462
      -0.195
       0.313
       0.758
       0.907
       0.743
       0.396
       0.014
      -0.291
      -0.455
      -0.474
      -0.403
      -0.316
      -0.236
      -0.137
       0.004
       0.156
       0.250
       0.238
       0.144
       0.044
       0.005
       0.009
      -0.026
      -0.163
      -0.371
      -0.531
      -0.537
      -0.362
      -0.071
       0.216
       0.374
       0.323
       0.077
      -0.225
      -0.368
      -0.195
       0.272
       0.829
       1.191
       1.123
       0.531
      -0.449
      -1.438
      -1.949
      -1.673
      -0.716
       0.451
       1.291
       1.515
       1.175
       0.523
      -0.167
      -0.696
      -0.937
      -0.827
      -0.385
       0.263
       0.882
       1.186
       0.975
       0.291
      -0.544
      -1.092
      -1.094
      -0.631
      -0.032
       0.397
       0.563
       0.553
       0.455
       0.256
      -0.083
      -0.465
      -0.648
      -0.435
       0.106
       0.642
       0.827
       0.563
       0.035
      -0.476
      -0.773
      -0.794
      -0.563
      -0.175
       0.209
       0.423
       0.405
       0.221
      -0.010
      -0.208
      -0.337
      -0.362
      -0.251
      -0.033
       0.186
       0.310
       0.346
       0.366
       0.391
       0.344
       0.159
      -0.087
      -0.221
      -0.153
       0.008
       0.066
      -0.066
      -0.284
      -0.414
      -0.367
      -0.187
       0.011
       0.123
       0.109
       0.025
      -0.005
       0.109
       0.313
       0.426
       0.302
      -0.032
      -0.396
      -0.593
      -0.528
      -0.225
       0.208
       0.600
       0.765
       0.596
       0.146
      -0.382
      -0.756
      -0.849
      -0.678
      -0.335
       0.099
       0.573
       0.991
       1.169
       0.909
       0.195
      -0.681
      -1.232
      -1.112
      -0.385
       0.502
       1.045
       1.003
       0.473
      -0.261
      -0.887
      -1.159
      -0.970
      -0.425
       0.173
       0.517
       0.508
       0.297
       0.121
       0.111
       0.224
       0.308
       0.220
      -0.077
      -0.461
      -0.705
      -0.645
      -0.295
       0.172
       0.567
       0.777
       0.767
       0.568
       0.274
       0.008
      -0.167
      -0.279
      -0.360
      -0.346
      -0.148
       0.181
       0.379
       0.186
      -0.368
      -0.909
      -1.017
      -0.597
       0.078
       0.653
       0.991
       1.144
       1.131
       0.845
       0.208
      -0.642
      -1.378
      -1.694
      -1.476
      -0.819
       0.031
       0.739
       0.987
       0.661
      -0.013
      -0.550
      -0.540
       0.043
       0.833
       1.356
       1.353
       0.872
       0.140
      -0.602
      -1.158
      -1.384
      -1.218
      -0.741
      -0.176
       0.227
       0.358
       0.317
       0.303
       0.423
       0.597
       0.659
       0.537
       0.308
       0.099
      -0.019
      -0.026
       0.086
       0.299
       0.480
       0.415
      -0.021
      -0.679
      -1.174
      -1.134
      -0.466
       0.565
       1.449
       1.687
       1.082
      -0.078
      -1.156
      -1.577
      -1.221
      -0.430
       0.326
       0.763
       0.839
       0.605
       0.115
      -0.519
      -1.074
      -1.306
      -1.122
      -0.666
      -0.186
       0.169
       0.419
       0.651
       0.883
       1.046
       1.049
       0.847
       0.441
      -0.139
      -0.822
      -1.476
      -1.892
      -1.825
      -1.142
       0.015
       1.205
       1.887
       1.750
       0.912
      -0.154
      -0.913
      -1.079
      -0.730
      -0.195
       0.183
       0.238
       0.037
      -0.215
      -0.324
      -0.218
       0.041
       0.314
       0.452
       0.366
       0.107
      -0.115
      -0.038
       0.443
       1.129
       1.602
       1.515
       0.852
      -0.018
      -0.557
      -0.418
       0.286
       1.005
       1.118
       0.419
      -0.696
      -1.540
      -1.689
      -1.270
      -0.715
      -0.310
       0.004
       0.388
       0.757
       0.754
       0.108
      -0.976
      -1.841
      -1.859
      -0.965
       0.239
       0.913
       0.589
      -0.500
      -1.603
      -1.952
      -1.247
       0.183
       1.608
       2.335
       2.091
       1.134
       0.059
      -0.563
      -0.487
       0.117
       0.818
       1.215
       1.170
       0.825
       0.392
      -0.076
      -0.641
      -1.211
      -1.383
      -0.715
       0.768
       2.360
       3.048
       2.209
       0.088
      -2.276
      -3.618
      -3.164
      -1.126
       1.357
       2.877
       2.615
       0.830
      -1.397
      -2.905
      -3.142
      -2.329
      -1.129
      -0.140
       0.434
       0.782
       1.206
       1.779
       2.206
       2.030
       1.045
      -0.422
      -1.662
      -2.068
      -1.591
      -0.763
      -0.255
      -0.358
      -0.809
      -1.071
      -0.784
       0.037
       1.122
       2.159
       2.869
       2.961
       2.187
       0.554
      -1.511
      -3.279
      -4.080
      -3.611
      -2.002
       0.299
       2.658
       4.368
       4.838
       3.835
       1.630
      -1.068
      -3.398
      -4.658
      -4.529
      -3.122
      -0.893
       1.509
       3.398
       4.214
       3.704
       2.072
      -0.026
      -1.763
      -2.578
      -2.447
      -1.701
      -0.559
       1.076
       3.232
       5.263
       5.832
       3.771
      -0.778
      -6.018
      -9.388
      -9.089
      -5.158
       0.595
       5.621
       7.924
       6.919
       3.532
      -0.430
      -3.265
      -4.195
      -3.550
      -2.273
      -1.175
      -0.510
      -0.113
       0.212
       0.474
       0.589
       0.576
       0.602
       0.840
       1.279
       1.629
       1.426
       0.329
      -1.533
      -3.428
      -4.319
      -3.499
      -1.119
       1.821
       4.055
       4.753
       3.849
       1.871
      -0.426
      -2.295
      -3.116
      -2.579
      -0.925
       1.040
       2.333
       2.379
       1.324
      -0.146
      -1.281
      -1.649
      -1.227
      -0.276
       0.815
       1.626
       1.823
       1.319
       0.366
      -0.553
      -1.005
      -0.865
      -0.353
       0.161
       0.412
       0.346
       0.020
      -0.548
      -1.380
      -2.359
      -3.116
      -3.149
      -2.165
      -0.338
       1.688
       3.091
       3.279
       2.232
       0.564
      -0.803
      -1.199
      -0.644
       0.241
       0.783
       0.777
       0.520
       0.381
       0.458
       0.637
       0.890
       1.300
       1.748
       1.716
       0.632
      -1.482
      -3.743
      -4.906
      -4.239
      -2.019
       0.730
       2.922
       3.938
       3.745
       2.739
       1.525
       0.659
       0.319
       0.118
      -0.660
      -2.438
      -4.831
      -6.703
      -6.782
      -4.430
      -0.119
       4.633
       7.870
       8.164
       5.449
       1.165
      -2.513
      -3.953
      -2.949
      -0.632
       1.417
       2.102
       1.190
      -0.842
      -3.117
      -4.617
      -4.501
      -2.534
       0.620
       3.613
       5.115
       4.554
       2.396
      -0.158
      -1.838
      -1.962
      -0.759
       0.801
       1.624
       1.187
      -0.179
      -1.635
      -2.477
      -2.534
      -2.071
      -1.446
      -0.855
      -0.297
       0.339
       1.143
       2.027
       2.641
       2.524
       1.472
      -0.152
      -1.519
      -1.866
      -1.048
       0.344
       1.411
       1.547
       0.768
      -0.384
      -1.217
      -1.285
      -0.600
       0.400
       1.104
       1.075
       0.320
      -0.697
      -1.342
      -1.208
      -0.312
       0.981
       2.173
       2.794
       2.518
       1.284
      -0.605
      -2.522
      -3.753
      -3.825
      -2.755
      -1.076
       0.410
       1.075
       0.864
       0.337
       0.240
       0.858
       1.689
       1.802
       0.671
      -1.242
      -2.732
      -2.785
      -1.363
       0.629
       2.102
       2.534
       2.151
       1.536
       1.106
       0.852
       0.472
      -0.274
      -1.270
      -2.052
      -2.124
      -1.366
      -0.187
       0.717
       0.864
       0.332
      -0.334
      -0.564
      -0.199
       0.449
       0.896
       0.850
       0.357
      -0.282
      -0.706
      -0.689
      -0.288
       0.151
       0.248
      -0.081
      -0.539
      -0.745
      -0.620
      -0.436
      -0.498
      -0.822
      -1.102
      -0.937
      -0.075
       1.433
       3.168
       4.415
       4.458
       3.025
       0.554
      -2.011
      -3.782
      -4.396
      -4.015
      -2.951
      -1.376
       0.582
       2.557
       3.871
       3.902
       2.561
       0.455
      -1.467
      -2.476
      -2.409
      -1.597
      -0.542
       0.304
       0.591
       0.128
      -0.931
      -1.986
      -2.280
      -1.473
       0.045
       1.463
       2.167
       2.055
       1.363
       0.372
      -0.596
      -1.072
      -0.618
       0.710
       2.136
       2.571
       1.438
      -0.797
      -2.871
      -3.567
      -2.510
      -0.352
       1.700
       2.649
       2.278
       1.222
       0.511
       0.837
       1.990
       2.919
       2.468
       0.293
      -2.748
      -5.085
      -5.450
      -3.674
      -0.704
       2.078
       3.639
       3.638
       2.299
       0.179
      -1.948
      -3.230
      -3.104
      -1.700
       0.135
       1.357
       1.426
       0.613
      -0.320
      -0.726
      -0.457
       0.211
       0.892
       1.325
       1.411
       1.132
       0.498
      -0.421
      -1.435
      -2.228
      -2.454
      -1.908
      -0.661
       0.912
       2.258
       2.856
       2.438
       1.110
      -0.659
      -2.159
      -2.686
      -1.891
      -0.057
       1.915
       2.972
       2.577
       1.081
      -0.568
      -1.571
      -1.821
      -1.766
      -1.794
      -1.817
      -1.443
      -0.478
       0.812
       1.887
       2.305
       1.934
       0.931
      -0.386
      -1.614
      -2.307
      -2.084
      -0.850
       0.971
       2.506
       2.899
       1.938
       0.289
      -0.930
      -0.972
      -0.004
       1.066
       1.340
       0.609
      -0.586
      -1.486
      -1.701
      -1.362
      -0.835
      -0.369
       0.014
       0.403
       0.869
       1.399
       1.848
       1.922
       1.310
      -0.048
      -1.750
      -3.046
      -3.257
      -2.210
      -0.385
       1.353
       2.256
       2.103
       1.227
       0.221
      -0.434
      -0.579
      -0.367
      -0.116
      -0.099
      -0.347
      -0.606
      -0.538
      -0.058
       0.523
       0.739
       0.399
      -0.222
      -0.604
      -0.394
       0.343
       1.154
       1.441
       0.831
      -0.525
      -1.934
      -2.540
      -1.879
      -0.197
       1.710
       2.958
       3.002
       1.806
      -0.200
      -2.266
      -3.553
      -3.472
      -2.018
       0.146
       2.017
       2.851
       2.571
       1.686
       0.806
       0.235
      -0.078
      -0.315
      -0.614
      -1.049
      -1.628
      -2.199
      -2.390
      -1.790
