Origin Time       07/09/2011 17:58:18
Lat.              28.6 N	
Long.             77.0 E	
Depth (Km)          8.0
Magnitude         4.2
 Region           DELHI-HARYANA(SONIPAT)                                           
 Above details taken from IMD 
   
Station Code      DLU
Station Lat.       28.691
Station Long.      77.212
Station Height(m)  220.0
Site Class        C   Vs30 between 200 m/sec to 375 m/sec *  
Record Time       07.09.2011 17:54:20.204
Sampling Rate     200. Hz
 Record Duration  102.400 Sec.
 Direction         Vert. (Up positive)
Max. Acceleration    -26.407 cm/sec**2
     
  * For reference see Site Classification link of website 
     
 Base Line Corrected and Low Pass Filtered (Cut Off at 35 Hz) Time History
 Acceleration data in cm/sec**2
    
[...]
      -0.002
       0.000
       0.016
       0.036
       0.053
       0.058
       0.048
       0.028
       0.009
       0.000
       0.003
       0.012
       0.020
       0.018
       0.005
      -0.014
      -0.028
      -0.030
      -0.020
      -0.004
       0.013
       0.023
       0.020
       0.008
      -0.003
      -0.005
       0.004
       0.019
       0.032
       0.037
       0.029
       0.015
       0.004
       0.000
       0.001
       0.000
      -0.009
      -0.025
      -0.041
      -0.047
      -0.038
      -0.019
       0.002
       0.019
       0.027
       0.028
       0.025
       0.025
       0.028
       0.027
       0.018
       0.001
      -0.016
      -0.026
      -0.029
      -0.023
      -0.014
      -0.005
       0.005
       0.014
       0.023
       0.029
       0.032
       0.034
       0.033
       0.029
       0.021
       0.011
       0.001
      -0.009
      -0.017
      -0.020
      -0.018
      -0.010
      -0.001
       0.005
       0.002
      -0.006
      -0.006
       0.008
       0.032
       0.052
       0.056
       0.043
       0.019
      -0.007
      -0.026
      -0.035
      -0.030
      -0.015
       0.007
       0.023
       0.024
       0.009
      -0.012
      -0.027
      -0.029
      -0.018
       0.001
       0.015
       0.017
       0.006
      -0.008
      -0.015
      -0.011
       0.001
       0.017
       0.028
       0.029
       0.019
       0.005
      -0.008
      -0.015
      -0.013
      -0.007
      -0.003
      -0.007
      -0.019
      -0.029
      -0.029
      -0.014
       0.013
       0.041
       0.058
       0.051
       0.025
      -0.006
      -0.027
      -0.029
      -0.010
       0.020
       0.045
       0.050
       0.034
       0.006
      -0.020
      -0.033
      -0.031
      -0.021
      -0.011
      -0.005
      -0.001
       0.005
       0.013
       0.022
       0.031
       0.037
       0.032
       0.013
      -0.016
      -0.042
      -0.050
      -0.034
      -0.003
       0.025
       0.035
       0.024
       0.002
      -0.015
      -0.017
       0.000
       0.033
       0.068
       0.082
       0.063
       0.014
      -0.041
      -0.076
      -0.077
      -0.049
      -0.011
       0.015
       0.022
       0.016
       0.008
       0.004
       0.009
       0.027
       0.051
       0.066
       0.060
       0.031
      -0.013
      -0.050
      -0.065
      -0.050
      -0.017
       0.016
       0.038
       0.044
       0.037
       0.023
       0.013
       0.015
       0.026
       0.037
       0.038
       0.026
       0.002
      -0.026
      -0.048
      -0.057
      -0.051
      -0.030
      -0.003
       0.020
       0.025
       0.010
      -0.012
      -0.024
      -0.020
      -0.005
       0.008
       0.008
      -0.002
      -0.008
      -0.002
       0.013
       0.027
       0.031
       0.027
       0.018
       0.007
      -0.004
      -0.011
      -0.014
      -0.014
      -0.014
      -0.014
      -0.014
      -0.012
      -0.003
       0.013
       0.034
       0.050
       0.057
       0.050
       0.027
      -0.003
      -0.026
      -0.029
      -0.010
       0.019
       0.042
       0.043
       0.020
      -0.015
      -0.045
      -0.053
      -0.038
      -0.008
       0.024
       0.047
       0.047
       0.025
      -0.009
      -0.035
      -0.041
      -0.024
       0.004
       0.024
       0.023
       0.002
      -0.025
      -0.040
      -0.036
      -0.014
       0.017
       0.041
       0.050
       0.040
       0.019
      -0.007
      -0.027
      -0.035
      -0.032
      -0.024
      -0.021
      -0.024
      -0.025
      -0.021
      -0.010
       0.003
       0.016
       0.024
       0.028
       0.028
       0.026
       0.021
       0.012
       0.006
       0.002
      -0.005
      -0.023
      -0.047
      -0.065
      -0.059
      -0.030
       0.008
       0.031
       0.026
       0.004
      -0.011
      -0.006
       0.014
       0.029
       0.027
       0.009
      -0.018
      -0.043
      -0.057
      -0.052
      -0.029
       0.007
       0.039
       0.050
       0.034
       0.004
      -0.018
      -0.016
       0.003
       0.027
       0.042
       0.042
       0.026
      -0.001
      -0.029
      -0.045
      -0.043
      -0.023
       0.004
       0.024
       0.028
       0.019
       0.005
      -0.005
      -0.007
       0.002
       0.018
       0.030
       0.024
      -0.003
      -0.038
      -0.059
      -0.049
      -0.010
       0.036
       0.058
       0.042
       0.001
      -0.035
      -0.046
      -0.028
       0.004
       0.026
       0.023
      -0.004
      -0.041
      -0.070
      -0.076
      -0.054
      -0.014
       0.028
       0.052
       0.054
       0.039
       0.019
       0.002
      -0.009
      -0.011
      -0.007
      -0.002
      -0.005
      -0.019
      -0.033
      -0.033
      -0.009
       0.030
       0.058
       0.052
       0.016
      -0.026
      -0.045
      -0.031
       0.004
       0.040
       0.057
       0.045
       0.010
      -0.032
      -0.059
      -0.058
      -0.025
       0.021
       0.052
       0.049
       0.017
      -0.021
      -0.041
      -0.031
       0.001
       0.036
       0.048
       0.026
      -0.023
      -0.073
      -0.096
      -0.080
      -0.034
       0.016
       0.046
       0.045
       0.023
      -0.005
      -0.027
      -0.034
      -0.026
      -0.005
       0.017
       0.027
       0.016
      -0.013
      -0.043
      -0.057
      -0.045
      -0.016
       0.007
       0.011
      -0.004
      -0.026
      -0.041
      -0.036
      -0.011
       0.025
       0.053
       0.058
       0.036
      -0.005
      -0.047
      -0.068
      -0.055
      -0.016
       0.025
       0.045
       0.034
       0.002
      -0.028
      -0.036
      -0.018
       0.011
       0.030
       0.027
       0.008
      -0.013
      -0.023
      -0.018
      -0.003
       0.010
       0.011
       0.001
      -0.014
      -0.026
      -0.029
      -0.019
      -0.002
       0.008
       0.005
      -0.011
      -0.029
      -0.035
      -0.021
       0.010
       0.041
       0.055
       0.045
       0.017
      -0.013
      -0.033
      -0.035
      -0.022
      -0.007
      -0.004
      -0.016
      -0.033
      -0.043
      -0.037
      -0.017
       0.012
       0.038
       0.049
       0.039
       0.011
      -0.021
      -0.043
      -0.042
      -0.021
       0.006
       0.022
       0.020
       0.002
      -0.021
      -0.038
      -0.041
      -0.027
      -0.003
       0.025
       0.050
       0.062
       0.053
       0.024
      -0.012
      -0.035
      -0.035
      -0.016
       0.005
       0.009
      -0.009
      -0.037
      -0.057
      -0.055
      -0.031
       0.004
       0.035
       0.048
       0.036
       0.006
      -0.024
      -0.039
      -0.037
      -0.023
      -0.010
      -0.005
      -0.008
      -0.015
      -0.018
      -0.014
      -0.003
       0.012
       0.025
       0.027
       0.013
      -0.008
      -0.023
      -0.024
      -0.014
      -0.004
      -0.002
      -0.012
      -0.030
      -0.045
      -0.048
      -0.037
      -0.017
       0.001
       0.004
      -0.014
      -0.041
      -0.054
      -0.036
       0.007
       0.050
       0.073
       0.065
       0.035
      -0.001
      -0.030
      -0.046
      -0.052
      -0.047
      -0.030
      -0.004
       0.020
       0.033
       0.034
       0.025
       0.013
      -0.001
      -0.016
      -0.032
      -0.047
      -0.054
      -0.044
      -0.018
       0.011
       0.027
       0.020
      -0.008
      -0.039
      -0.052
      -0.034
       0.008
       0.048
       0.063
       0.044
       0.005
      -0.029
      -0.039
      -0.024
       0.000
       0.015
       0.014
       0.005
      -0.005
      -0.010
      -0.008
      -0.003
       0.004
       0.010
       0.011
       0.007
      -0.002
      -0.011
      -0.016
      -0.016
      -0.014
      -0.012
      -0.006
       0.004
       0.016
       0.022
       0.016
      -0.003
      -0.025
      -0.035
      -0.022
       0.005
       0.023
       0.016
      -0.015
      -0.050
      -0.070
      -0.063
      -0.031
       0.009
       0.041
       0.051
       0.040
       0.014
      -0.017
      -0.036
      -0.038
      -0.026
      -0.013
      -0.007
      -0.010
      -0.016
      -0.018
      -0.002
       0.038
       0.094
       0.148
       0.179
       0.172
       0.130
       0.076
       0.043
       0.053
       0.098
       0.150
       0.169
       0.117
       0.001
      -0.078
       0.097
       0.735
       1.824
       3.003
       3.699
       3.526
       2.582
       1.306
      -0.052
      -1.811
      -4.501
      -7.940
     -10.718
     -10.961
      -7.994
      -3.283
       0.643
       2.514
       3.415
       5.246
       8.140
       9.843
       7.955
       2.707
      -2.764
      -5.097
      -3.688
      -0.973
       0.212
      -0.658
      -1.763
      -1.209
       1.102
       3.661
       4.792
       3.794
       1.259
      -1.215
      -1.909
      -0.324
       2.085
       2.875
       0.819
      -2.819
      -5.368
      -5.197
      -3.037
      -0.988
      -0.434
      -1.048
      -1.556
      -1.090
       0.203
       1.511
       2.021
       1.442
       0.198
      -0.766
      -0.590
       0.833
       2.697
       3.819
       3.475
       1.827
      -0.372
      -2.449
      -4.061
      -4.737
      -3.529
       0.194
       5.264
       8.482
       6.795
       0.364
      -6.643
      -9.042
      -5.206
       1.194
       4.467
       2.388
      -1.676
      -2.429
       1.633
       6.531
       6.929
       1.680
      -5.051
      -8.086
      -6.163
      -2.399
      -0.500
      -1.185
      -2.150
      -0.790
       3.191
       7.356
       8.440
       5.058
      -0.926
      -5.552
      -5.624
      -1.230
       4.012
       5.518
       1.513
      -5.073
      -8.754
      -6.278
       0.272
       5.327
       5.041
       0.704
      -2.975
      -2.655
       0.768
       3.688
       3.622
       1.497
       0.400
       2.172
       5.208
       5.843
       2.142
      -3.797
      -7.683
      -7.369
      -5.031
      -4.581
      -6.962
      -8.638
      -5.299
       3.081
      11.405
      13.882
       9.129
       1.083
      -4.592
      -4.952
      -1.396
       2.253
       3.006
       0.644
      -2.583
      -3.804
      -1.643
       2.732
       6.485
       7.317
       5.065
       1.208
      -2.896
      -6.826
     -10.124
     -11.219
      -8.262
      -1.378
       6.435
      11.341
      11.744
       9.061
       5.566
       2.038
      -2.159
      -7.085
     -11.075
     -11.948
      -9.115
      -4.039
       1.248
       5.561
       8.445
       9.249
       7.139
       2.285
      -3.406
      -7.275
      -7.782
      -5.433
      -1.906
       1.599
       4.977
       8.224
      10.237
       9.116
       4.028
      -3.301
      -9.370
     -11.540
      -9.892
      -6.485
      -3.062
       0.210
       3.811
       7.285
       9.169
       8.403
       5.332
       1.127
      -3.414
      -8.079
     -12.200
     -13.856
     -10.867
      -3.031
       6.753
      14.002
      15.638
      11.900
       5.744
       0.522
      -2.063
      -2.458
      -2.422
      -3.579
      -5.944
      -7.492
      -5.772
      -0.677
       4.622
       6.310
       3.778
       0.314
      -0.486
       1.229
       1.646
      -2.244
      -8.555
     -11.476
      -6.655
       4.314
      14.696
      17.959
      12.778
       3.443
      -4.236
      -7.503
      -7.845
      -8.405
     -10.469
     -12.127
     -10.079
      -2.897
       7.004
      14.435
      14.882
       7.858
      -2.336
      -9.314
      -9.117
      -3.190
       2.863
       4.207
       1.146
      -1.389
       0.987
       7.387
      12.246
      10.636
       2.877
      -6.045
     -11.198
     -11.498
      -9.209
      -6.760
      -4.663
      -2.038
       1.638
       5.507
       7.834
       7.563
       5.395
       3.020
       1.139
      -1.222
      -4.892
      -8.331
      -8.106
      -2.257
       6.826
      13.349
      12.549
       4.736
      -4.801
     -10.082
      -9.135
      -4.997
      -2.423
      -3.556
      -6.411
      -7.190
      -4.070
       1.066
       4.402
       3.670
       0.076
      -2.911
      -2.467
       1.740
       7.935
      13.747
      17.350
      17.888
      15.459
      10.684
       4.161
      -3.498
     -10.958
     -15.860
     -15.922
     -10.843
      -3.304
       2.187
       2.278
      -2.623
      -8.690
     -11.917
     -11.066
      -7.618
      -3.434
       0.882
       5.399
       9.407
      11.288
       9.962
       6.115
       1.723
      -1.473
      -2.709
      -1.714
       1.573
       6.266
      10.083
      10.601
       7.298
       2.079
      -2.401
      -4.841
      -5.871
      -6.920
      -8.720
     -10.702
     -11.514
     -10.090
      -6.484
      -1.941
       1.914
       4.092
       4.531
       3.579
       1.693
      -0.114
      -0.110
       2.964
       8.235
      12.666
      13.221
       9.280
       3.070
      -2.236
      -5.008
      -5.931
      -6.328
      -5.930
      -2.851
       3.851
      11.783
      15.883
      11.987
       0.347
     -13.944
     -24.174
     -26.407
     -21.527
     -13.446
      -5.616
       0.738
       5.741
       9.440
      11.608
      12.280
      11.711
       9.756
       5.749
      -0.464
      -7.269
     -11.547
     -10.880
      -5.609
       1.645
       8.560
      14.621
      19.776
      22.405
      19.856
      11.310
      -0.609
     -11.741
     -19.626
     -24.299
     -26.164
     -24.162
     -16.833
      -5.132
       6.454
      12.492
      10.919
       4.929
       0.319
       0.622
       4.568
       8.118
       8.740
       7.498
       7.174
       8.945
      11.128
      10.804
       6.229
      -2.071
     -11.768
     -19.919
     -24.220
     -23.887
     -19.697
     -13.163
      -5.559
       2.326
       9.525
      14.352
      15.271
      12.657
       9.084
       7.128
       6.985
       6.784
       5.179
       2.836
       0.867
      -1.503
      -6.430
     -14.173
     -21.064
     -21.747
     -13.874
      -0.522
      12.120
      19.349
      20.485
      17.679
      13.190
       8.068
       2.779
      -1.913
      -5.132
      -6.593
      -6.679
      -5.894
      -4.469
      -2.518
      -0.399
       1.163
       1.496
       0.643
      -0.491
      -0.844
      -0.182
       0.642
       0.552
      -0.526
      -1.334
      -0.341
       2.791
       6.800
       9.763
      10.161
       7.172
       0.769
      -7.658
     -15.071
     -18.234
     -16.081
     -10.612
      -5.214
      -2.019
      -0.768
       0.053
       1.273
       2.242
       1.749
      -0.402
      -2.788
      -3.460
      -1.783
       0.908
       2.661
       2.838
       2.468
       2.695
       3.392
       3.692
       3.496
       3.639
       4.473
       4.924
       3.511
       0.174
      -3.362
      -5.126
      -4.544
      -2.497
      -0.098
       2.200
       4.420
       6.485
       8.153
       9.279
       9.818
       9.608
       8.267
       5.286
       0.324
      -6.190
     -12.545
     -16.159
     -15.119
      -9.721
      -2.542
       3.256
       6.061
       6.628
       6.950
       8.072
       8.627
       5.560
      -3.015
     -14.926
     -24.083
     -24.672
     -16.195
      -4.331
       3.777
       5.401
       3.537
       2.724
       4.085
       4.780
       2.116
      -2.539
      -4.519
      -0.511
       7.920
      15.438
      17.375
      13.359
       7.203
       3.452
       3.664
       5.492
       5.100
       0.549
      -6.757
     -13.512
     -17.206
     -17.603
     -16.009
     -13.469
      -9.871
      -4.621
       2.091
       8.771
      13.308
      14.413
      12.733
      10.564
      10.005
      10.990
      11.130
       7.833
       0.943
      -6.456
     -10.052
      -7.695
      -1.335
       4.361
       5.652
       2.458
      -2.209
      -5.261
      -5.958
      -5.676
      -5.911
      -6.920
      -8.150
      -9.391
     -10.967
     -12.882
     -14.316
     -14.206
     -12.049
      -7.909
      -1.974
       5.342
      12.815
      18.499
      20.824
      19.547
      15.566
      10.117
       4.404
      -0.337
      -3.049
      -3.480
      -2.437
      -1.150
      -0.272
       0.569
       2.260
       5.185
       8.498
      10.257
       8.541
       3.003
      -4.285
      -9.765
     -10.825
      -7.821
      -3.690
      -1.316
      -1.222
      -1.872
      -1.999
      -2.180
      -3.887
      -7.228
     -10.071
      -9.767
      -5.808
      -0.602
       2.669
       2.971
       2.063
       2.392
       4.679
       7.463
       8.503
       6.558
       2.335
      -1.949
      -4.127
      -3.643
      -1.818
      -0.575
      -0.813
      -1.788
      -1.851
       0.111
       3.595
       6.607
       7.026
       4.277
      -0.050
      -3.280
      -3.643
      -1.490
       1.236
       2.667
       2.349
       1.261
       0.664
       0.913
       1.311
       1.076
       0.285
      -0.339
      -0.532
      -0.967
      -2.343
      -4.108
      -4.559
      -2.473
       1.413
       4.860
       6.167
       5.508
       4.084
       2.327
      -0.383
      -4.206
      -7.747
      -9.102
      -7.851
      -5.485
      -3.750
      -2.976
      -2.343
      -1.571
      -1.756
      -4.114
      -7.964
     -10.467
      -8.780
      -2.656
       5.003
      10.260
      11.147
       8.980
       6.869
       6.920
       8.706
      10.145
       9.588
       6.976
       3.316
      -0.355
      -3.196
      -4.232
      -2.672
       1.031
       4.738
       5.830
       3.228
      -1.675
      -6.091
      -7.902
      -6.942
      -4.560
      -2.177
      -0.347
       1.028
       2.012
       2.477
       2.404
       1.889
       0.700
      -1.804
      -5.808
     -10.089
     -12.370
     -11.086
      -6.925
      -2.474
      -0.023
       0.489
       1.255
       4.097
       8.184
      10.506
       8.883
       4.444
       0.834
       0.746
       3.339
       5.267
       4.226
       1.217
      -0.789
      -0.271
       1.092
       0.236
      -3.856
      -8.852
     -11.264
      -9.713
      -5.817
      -2.142
       0.159
       1.630
       3.058
       4.390
       5.063
       4.908
       4.360
       3.950
       3.873
       3.986
       3.909
       3.104
       1.227
      -1.291
      -3.210
      -3.487
      -2.456
      -1.674
      -2.282
      -3.584
      -3.636
      -1.440
       1.609
       2.835
       0.924
      -2.699
      -5.219
      -4.989
      -2.656
      -0.005
       1.778
       2.548
       2.418
       1.317
      -0.503
      -2.060
      -2.290
      -1.120
       0.493
       1.659
       2.427
       3.366
       4.539
       5.263
       4.935
       3.792
       2.623
       1.835
       1.065
      -0.208
