Origin Time       07/09/2011 17:58:18 UTC
Lat.              28.6 N	
Long.             77.0 E	
Depth (Km)          8.0
Magnitude         4.2
 Region           DELHI-HARYANA(SONIPAT)                                           
 Above details taken from IMD 
    
Station Code      DLU
Station Lat.       28.691  N
Station Long.      77.212  E
Station Height(m)  220.0
Site Class        C   Vs30 between 200 m/sec to 375 m/sec *  
Record Time       07.09.2011 17:54:20.204 UTC
Sampling Rate     200. Hz
 Record Duration  102.400 Sec.
 Direction         N-S (N positive)
Max. Acceleration     62.367 cm/sec**2
     
  * For reference see Site Classification link of website 
     
 Base Line Corrected and Low Pass Filtered (Cut Off at 35 Hz) Time History
 Acceleration data in cm/sec**2
    
[...]
       0.031
       0.043
       0.040
       0.026
       0.005
      -0.012
      -0.018
      -0.006
       0.017
       0.037
       0.036
       0.010
      -0.033
      -0.075
      -0.094
      -0.076
      -0.030
       0.022
       0.052
       0.051
       0.025
      -0.008
      -0.025
      -0.019
       0.002
       0.019
       0.017
      -0.003
      -0.031
      -0.054
      -0.058
      -0.037
       0.002
       0.040
       0.060
       0.056
       0.033
       0.003
      -0.017
      -0.016
       0.002
       0.022
       0.026
       0.007
      -0.029
      -0.062
      -0.067
      -0.035
       0.020
       0.068
       0.085
       0.066
       0.026
      -0.008
      -0.019
      -0.006
       0.014
       0.023
       0.019
       0.006
      -0.011
      -0.031
      -0.049
      -0.051
      -0.030
       0.013
       0.060
       0.088
       0.079
       0.036
      -0.015
      -0.043
      -0.034
       0.003
       0.039
       0.051
       0.027
      -0.016
      -0.051
      -0.057
      -0.034
       0.004
       0.037
       0.051
       0.040
       0.011
      -0.019
      -0.035
      -0.033
      -0.011
       0.019
       0.039
       0.033
       0.004
      -0.030
      -0.045
      -0.034
      -0.005
       0.024
       0.038
       0.029
       0.005
      -0.015
      -0.022
      -0.013
       0.008
       0.032
       0.045
       0.035
       0.007
      -0.022
      -0.035
      -0.024
       0.007
       0.040
       0.057
       0.053
       0.035
       0.017
       0.005
      -0.001
      -0.004
      -0.009
      -0.020
      -0.037
      -0.048
      -0.042
      -0.012
       0.031
       0.067
       0.075
       0.047
       0.000
      -0.042
      -0.059
      -0.048
      -0.022
       0.005
       0.019
       0.012
      -0.010
      -0.029
      -0.031
      -0.013
       0.014
       0.035
       0.041
       0.035
       0.027
       0.027
       0.031
       0.024
       0.003
      -0.024
      -0.042
      -0.045
      -0.036
      -0.021
      -0.011
      -0.007
      -0.003
       0.005
       0.015
       0.022
       0.026
       0.031
       0.033
       0.023
       0.004
      -0.012
      -0.014
      -0.004
       0.005
       0.003
      -0.017
      -0.045
      -0.065
      -0.059
      -0.025
       0.023
       0.063
       0.079
       0.068
       0.040
       0.011
      -0.007
      -0.013
      -0.014
      -0.016
      -0.024
      -0.035
      -0.040
      -0.033
      -0.019
      -0.008
      -0.006
      -0.003
       0.008
       0.030
       0.051
       0.059
       0.045
       0.013
      -0.023
      -0.047
      -0.049
      -0.030
      -0.003
       0.016
       0.015
      -0.009
      -0.042
      -0.064
      -0.061
      -0.031
       0.016
       0.059
       0.076
       0.061
       0.022
      -0.021
      -0.051
      -0.058
      -0.041
      -0.009
       0.023
       0.044
       0.049
       0.035
       0.007
      -0.028
      -0.050
      -0.048
      -0.025
      -0.002
       0.005
      -0.008
      -0.026
      -0.031
      -0.015
       0.017
       0.046
       0.058
       0.045
       0.016
      -0.016
      -0.031
      -0.021
       0.007
       0.032
       0.038
       0.020
      -0.016
      -0.052
      -0.070
      -0.060
      -0.027
       0.012
       0.041
       0.051
       0.041
       0.021
       0.002
      -0.010
      -0.017
      -0.024
      -0.033
      -0.035
      -0.028
      -0.010
       0.015
       0.037
       0.046
       0.039
       0.024
       0.009
       0.001
      -0.001
       0.002
       0.006
       0.008
       0.003
      -0.013
      -0.038
      -0.063
      -0.071
      -0.043
       0.018
       0.083
       0.111
       0.084
       0.013
      -0.060
      -0.093
      -0.072
      -0.016
       0.032
       0.044
       0.017
      -0.027
      -0.060
      -0.062
      -0.028
       0.022
       0.064
       0.082
       0.075
       0.051
       0.020
      -0.006
      -0.022
      -0.026
      -0.019
      -0.003
       0.011
       0.004
      -0.033
      -0.081
      -0.101
      -0.063
       0.027
       0.125
       0.173
       0.138
       0.036
      -0.073
      -0.128
      -0.109
      -0.046
       0.012
       0.032
       0.017
      -0.007
      -0.014
      -0.009
      -0.018
      -0.048
      -0.073
      -0.053
       0.022
       0.112
       0.155
       0.110
      -0.010
      -0.136
      -0.194
      -0.152
      -0.044
       0.061
       0.106
       0.082
       0.018
      -0.036
      -0.049
      -0.022
       0.015
       0.037
       0.032
       0.010
      -0.017
      -0.038
      -0.051
      -0.058
      -0.063
      -0.061
      -0.044
      -0.014
       0.024
       0.057
       0.076
       0.074
       0.046
       0.005
      -0.030
      -0.046
      -0.042
      -0.026
      -0.012
      -0.008
      -0.017
      -0.026
      -0.025
      -0.010
       0.012
       0.031
       0.036
       0.020
      -0.011
      -0.040
      -0.048
      -0.029
       0.008
       0.042
       0.051
       0.024
      -0.031
      -0.085
      -0.109
      -0.085
      -0.017
       0.069
       0.134
       0.148
       0.105
       0.030
      -0.040
      -0.080
      -0.084
      -0.063
      -0.034
      -0.010
       0.004
       0.012
       0.012
       0.004
      -0.007
      -0.011
       0.000
       0.021
       0.040
       0.045
       0.031
       0.003
      -0.027
      -0.048
      -0.055
      -0.052
      -0.040
      -0.023
      -0.010
      -0.010
      -0.026
      -0.046
      -0.050
      -0.024
       0.030
       0.091
       0.123
       0.104
       0.041
      -0.033
      -0.083
      -0.095
      -0.076
      -0.044
      -0.016
       0.002
       0.014
       0.020
       0.019
       0.007
      -0.012
      -0.026
      -0.022
       0.002
       0.031
       0.046
       0.033
      -0.004
      -0.045
      -0.067
      -0.061
      -0.030
       0.008
       0.032
       0.031
       0.009
      -0.020
      -0.037
      -0.031
       0.001
       0.040
       0.062
       0.047
      -0.001
      -0.059
      -0.098
      -0.095
      -0.053
       0.003
       0.040
       0.041
       0.012
      -0.024
      -0.044
      -0.041
      -0.016
       0.012
       0.029
       0.025
       0.007
      -0.015
      -0.034
      -0.041
      -0.031
      -0.008
       0.017
       0.037
       0.048
       0.046
       0.027
      -0.006
      -0.040
      -0.063
      -0.066
      -0.051
      -0.020
       0.013
       0.038
       0.049
       0.048
       0.039
       0.028
       0.020
       0.016
       0.008
      -0.012
      -0.038
      -0.056
      -0.058
      -0.047
      -0.033
      -0.020
      -0.007
       0.005
       0.018
       0.027
       0.030
       0.024
       0.012
      -0.003
      -0.015
      -0.017
      -0.003
       0.022
       0.041
       0.036
       0.001
      -0.053
      -0.101
      -0.115
      -0.083
      -0.017
       0.050
       0.089
       0.087
       0.051
       0.006
      -0.024
      -0.022
       0.005
       0.031
       0.031
       0.002
      -0.043
      -0.076
      -0.070
      -0.019
       0.050
       0.093
       0.083
       0.029
      -0.034
      -0.070
      -0.060
      -0.014
       0.033
       0.048
       0.023
      -0.023
      -0.064
      -0.079
      -0.060
      -0.016
       0.030
       0.049
       0.034
      -0.003
      -0.039
      -0.057
      -0.053
      -0.032
      -0.006
       0.009
       0.009
      -0.005
      -0.028
      -0.050
      -0.057
      -0.042
      -0.017
      -0.001
      -0.001
      -0.010
      -0.016
      -0.013
      -0.001
       0.015
       0.024
       0.024
       0.018
       0.009
      -0.011
      -0.041
      -0.072
      -0.087
      -0.069
      -0.016
       0.060
       0.130
       0.155
       0.118
       0.028
      -0.071
      -0.134
      -0.130
      -0.071
       0.002
       0.044
       0.037
       0.000
      -0.040
      -0.064
      -0.064
      -0.039
       0.003
       0.044
       0.068
       0.064
       0.037
       0.006
      -0.012
      -0.012
      -0.005
      -0.010
      -0.030
      -0.049
      -0.046
      -0.011
       0.042
       0.082
       0.080
       0.028
      -0.044
      -0.091
      -0.080
      -0.016
       0.062
       0.102
       0.074
      -0.007
      -0.086
      -0.110
      -0.061
       0.025
       0.086
       0.077
       0.005
      -0.077
      -0.106
      -0.059
       0.028
       0.097
       0.107
       0.058
      -0.015
      -0.069
      -0.084
      -0.061
      -0.020
       0.020
       0.046
       0.057
       0.057
       0.051
       0.035
       0.006
      -0.031
      -0.059
      -0.057
      -0.026
       0.011
       0.026
       0.007
      -0.038
      -0.083
      -0.098
      -0.072
      -0.015
       0.049
       0.092
       0.100
       0.077
       0.042
       0.018
       0.010
      -0.005
      -0.063
      -0.166
      -0.258
      -0.254
      -0.116
       0.089
       0.232
       0.242
       0.184
       0.196
       0.315
       0.394
       0.238
      -0.143
      -0.463
      -0.419
      -0.060
       0.177
      -0.068
      -0.588
      -0.739
      -0.175
       0.677
       1.040
       0.693
       0.238
       0.381
       1.024
       1.254
       0.331
      -1.409
      -2.793
      -3.002
      -2.345
      -1.738
      -1.577
      -1.411
      -0.658
       0.659
       1.990
       2.806
       2.931
       2.503
       1.878
       1.531
       1.756
       2.232
       2.062
       0.617
      -1.539
      -2.917
      -2.591
      -1.261
      -0.507
      -1.030
      -1.937
      -1.811
      -0.271
       1.720
       2.933
       3.010
       2.504
       2.041
       1.732
       1.310
       0.535
      -0.758
      -2.693
      -4.993
      -6.560
      -5.980
      -2.907
       1.112
       3.616
       3.302
       1.177
      -0.415
       0.059
       2.075
       3.759
       3.673
       1.916
      -0.350
      -2.212
      -3.653
      -4.928
      -5.574
      -4.432
      -0.978
       3.477
       6.335
       5.846
       2.759
      -0.333
      -1.304
      -0.154
       1.369
       1.498
      -0.145
      -2.417
      -3.666
      -3.060
      -1.282
       0.025
      -0.307
      -1.827
      -2.703
      -1.308
       2.143
       5.526
       6.598
       4.955
       2.162
       0.025
      -1.062
      -2.001
      -3.480
      -4.920
      -5.027
      -3.243
      -0.437
       1.777
       2.312
       1.331
       0.084
       0.079
       1.895
       4.342
       5.018
       2.344
      -2.583
      -6.433
      -6.382
      -2.628
       1.874
       4.140
       3.580
       1.904
       1.018
       1.264
       1.613
       1.177
       0.106
      -0.958
      -1.874
      -3.122
      -4.950
      -6.611
      -6.570
      -3.632
       1.794
       7.340
       9.910
       7.975
       3.003
      -1.552
      -3.035
      -1.612
       0.336
       0.729
      -0.353
      -1.274
      -0.977
      -0.126
      -0.085
      -1.216
      -2.567
      -3.027
      -2.306
      -0.695
       1.534
       3.945
       5.382
       4.447
       1.037
      -2.840
      -4.410
      -2.566
       1.064
       3.550
       3.127
       0.375
      -2.735
      -4.640
      -5.022
      -4.216
      -2.313
       0.813
       4.656
       7.656
       8.012
       5.093
       0.035
      -5.083
      -8.585
      -9.706
      -8.165
      -3.965
       1.997
       7.511
       9.995
       8.345
       3.875
      -0.685
      -3.187
      -3.213
      -1.667
       0.223
       1.388
       0.973
      -1.286
      -4.434
      -6.377
      -5.193
      -0.753
       4.926
       8.980
       9.420
       5.912
      -0.386
      -7.154
     -11.320
     -10.341
      -4.263
       3.399
       7.769
       6.537
       1.995
      -1.158
      -0.327
       2.633
       3.617
       0.668
      -4.000
      -6.243
      -3.909
       1.402
       5.981
       7.088
       4.701
       0.838
      -2.386
      -4.082
      -4.502
      -4.186
      -3.325
      -1.770
       0.505
       2.974
       4.635
       4.667
       3.140
       1.058
      -0.409
      -0.930
      -1.412
      -3.217
      -6.538
      -9.378
      -8.625
      -2.941
       5.111
      10.317
       9.057
       2.687
      -3.451
      -4.649
      -0.696
       4.409
       6.178
       3.244
      -1.941
      -5.371
      -4.681
      -0.854
       2.823
       3.630
       1.568
      -1.087
      -2.244
      -1.954
      -1.983
      -3.463
      -5.102
      -4.025
       1.206
       8.447
      13.153
      12.001
       5.532
      -2.488
      -8.097
      -9.708
      -8.320
      -5.849
      -3.487
      -1.431
       0.399
       1.887
       3.038
       4.270
       5.903
       7.420
       7.609
       5.525
       1.238
      -4.150
      -8.953
     -11.452
     -10.555
      -6.418
      -0.719
       3.793
       4.522
       0.635
      -6.054
     -11.938
     -13.896
     -11.258
      -5.929
      -0.789
       2.119
       2.351
       0.673
      -1.884
      -4.858
      -8.612
     -13.717
     -19.603
     -23.508
     -21.188
      -9.779
       9.351
      30.752
      48.365
      58.986
      62.367
      58.559
      46.355
      25.170
      -1.752
     -26.668
     -40.384
     -36.819
     -16.471
      12.706
      37.867
      47.009
      35.201
       7.269
     -25.078
     -49.652
     -59.313
     -53.489
     -36.202
     -13.419
       8.308
      22.568
      24.730
      14.247
      -4.377
     -23.306
     -34.882
     -34.899
     -24.117
      -7.565
       7.828
      16.163
      14.930
       6.108
      -4.470
      -9.785
      -5.518
       7.117
      21.892
      31.447
      31.846
      24.520
      14.408
       6.175
       1.567
      -0.658
      -3.082
      -7.688
     -14.283
     -19.825
     -19.710
     -11.199
       3.335
      16.670
      21.285
      14.839
       1.726
     -10.724
     -17.661
     -18.649
     -15.333
      -8.699
       0.737
      10.874
      17.507
      16.706
       7.990
      -4.711
     -15.112
     -17.955
     -11.519
       1.673
      15.823
      24.107
      21.551
       7.494
     -13.675
     -34.322
     -47.165
     -48.320
     -37.994
     -19.362
       2.481
      21.118
      30.463
      28.040
      17.491
       7.090
       4.305
      10.604
      20.896
      27.743
      26.432
      17.133
       3.806
      -8.060
     -13.610
     -10.984
      -3.332
       1.912
      -2.225
     -16.451
     -33.712
     -44.040
     -41.721
     -28.635
     -11.570
       3.092
      12.496
      16.741
      16.962
      14.678
      12.273
      12.595
      16.969
      23.507
      27.899
      26.442
      18.640
       7.167
      -4.320
     -13.118
     -17.638
     -16.597
      -9.098
       3.948
      18.658
      29.085
      30.195
      20.978
       5.527
      -8.838
     -15.531
     -12.433
      -2.974
       6.166
       9.060
       3.614
      -7.801
     -20.021
     -27.828
     -28.322
     -21.870
     -11.364
      -0.531
       7.525
      10.973
       9.459
       4.232
      -2.093
      -6.557
      -7.290
      -4.395
       0.235
       3.926
       4.461
       1.050
      -5.303
     -12.255
     -17.238
     -18.651
     -16.304
     -11.008
      -4.036
       3.059
       8.566
      11.196
      10.908
       9.192
       8.282
       9.618
      12.711
      15.554
      16.437
      15.560
      14.746
      15.334
      16.249
      14.384
       7.329
      -3.982
     -15.350
     -22.207
     -22.741
     -18.634
     -13.338
      -9.738
      -8.867
      -9.959
     -11.404
     -11.930
     -11.246
      -9.655
      -7.047
      -2.525
       4.585
      13.178
      20.051
      21.620
      16.508
       6.866
      -2.780
      -8.335
      -8.420
      -4.499
       0.875
       5.837
       9.406
      10.466
       7.548
       0.492
      -7.762
     -12.129
      -9.337
      -1.302
       5.891
       7.026
       2.193
      -3.615
      -5.231
      -1.752
       3.397
       6.253
       5.818
       4.083
       3.348
       3.900
       4.061
       2.141
      -1.634
      -4.931
      -5.101
      -1.563
       3.324
       5.937
       4.396
       0.221
      -3.038
      -3.082
      -1.004
      -0.233
      -3.200
      -8.826
     -13.234
     -13.084
      -8.407
      -2.354
       1.709
       2.941
       3.176
       4.633
       7.550
       9.988
       9.874
       7.164
       3.928
       2.269
       2.167
       1.482
      -1.825
      -7.422
     -12.574
     -14.310
     -11.665
      -6.062
      -0.012
       4.305
       5.601
       3.628
      -0.570
      -4.824
      -7.035
      -6.563
      -4.270
      -1.125
       2.844
       7.898
      13.115
      16.165
      15.005
       9.892
       3.548
      -0.793
      -1.607
       0.292
       2.802
       3.974
       2.827
      -0.468
      -4.698
      -7.986
      -8.551
      -5.608
       0.078
       6.342
      10.437
      10.186
       5.049
      -3.359
     -11.723
     -16.616
     -16.505
     -12.693
      -8.219
      -5.574
      -5.233
      -6.098
      -6.875
      -6.726
      -4.925
      -0.700
       5.954
      13.370
      18.665
      19.528
      15.748
       9.249
       2.862
      -1.166
      -2.136
      -0.973
       0.516
       0.749
      -0.835
      -3.665
      -6.529
      -8.263
      -8.209
      -6.252
      -2.734
       1.416
       4.538
       4.758
       1.275
      -4.576
      -9.642
     -10.643
      -6.009
       3.303
      14.281
      23.088
      26.440
      22.796
      13.100
       0.729
      -9.655
     -14.126
     -11.449
      -3.775
       4.435
       8.712
       6.773
      -0.608
     -10.434
     -19.302
     -24.831
     -25.860
     -21.866
     -12.924
      -0.662
      11.062
      17.463
      15.908
       8.194
      -0.335
      -4.408
      -2.266
       3.629
       8.753
       9.654
       5.908
      -0.028
      -4.575
      -5.156
      -1.566
       3.962
       7.943
       7.560
       2.378
      -5.180
     -11.084
     -12.089
      -7.742
      -0.642
       5.207
       6.794
       3.772
      -1.502
      -5.427
      -5.232
      -0.573
       6.212
      11.399
      12.074
       7.917
       1.362
      -3.950
      -5.405
      -2.888
       1.341
       4.182
       3.652
       0.137
      -3.901
      -5.699
      -4.280
      -1.164
       0.954
       0.411
      -2.266
      -5.104
      -6.349
      -5.389
      -2.409
       2.158
       7.323
      10.979
      10.534
       4.917
      -3.834
     -11.271
     -13.424
      -9.582
      -2.576
       3.605
       6.639
       6.727
       5.355
       3.706
       2.247
       1.206
       0.817
       0.953
       0.974
       0.359
      -0.532
      -0.689
       0.389
       1.880
       2.147
       0.115
      -3.769
      -7.693
      -9.506
