Origin Time       11/11/2013 19:11:18
Lat.              28.5 N	
Long.             77.2 E	
Depth (Km)         10.0
Magnitude         3.1
 Region           DELHI                                                            
 Above details taken from IMD 
   
Station Code      DLU
Station Lat.       28.691
Station Long.      77.212
Station Height(m)  220.0
Site Class        C   Vs30 between 200 m/sec to 375 m/sec *  
Record Time       11.11.2013 19:10:52.914
Sampling Rate     200. Hz
 Record Duration   85.190 Sec.
 Direction         Vert. (Up positive)
Max. Acceleration      4.813 cm/sec**2
     
  * For reference see Site Classification link of website 
     
 Base Line Corrected and Low Pass Filtered (Cut Off at 35 Hz) Time History
 Acceleration data in cm/sec**2
    
[...]
      -0.084
      -0.081
      -0.040
       0.008
       0.032
       0.021
      -0.003
      -0.015
      -0.006
       0.012
       0.018
       0.010
      -0.004
      -0.007
       0.002
       0.009
       0.000
      -0.028
      -0.055
      -0.056
      -0.025
       0.018
       0.043
       0.033
       0.003
      -0.021
      -0.020
      -0.001
       0.014
       0.012
      -0.002
      -0.010
      -0.002
       0.012
       0.011
      -0.012
      -0.041
      -0.050
      -0.023
       0.025
       0.059
       0.059
       0.032
       0.010
       0.013
       0.031
       0.037
       0.012
      -0.031
      -0.064
      -0.066
      -0.045
      -0.023
      -0.014
      -0.011
       0.006
       0.039
       0.071
       0.076
       0.044
      -0.011
      -0.054
      -0.064
      -0.044
      -0.020
      -0.019
      -0.040
      -0.058
      -0.051
      -0.019
       0.013
       0.023
       0.010
      -0.003
       0.003
       0.023
       0.035
       0.021
      -0.011
      -0.034
      -0.028
       0.001
       0.026
       0.026
       0.001
      -0.024
      -0.027
      -0.005
       0.020
       0.027
       0.014
      -0.001
       0.004
       0.027
       0.045
       0.032
      -0.013
      -0.060
      -0.077
      -0.055
      -0.019
       0.001
      -0.001
      -0.007
       0.006
       0.036
       0.062
       0.062
       0.037
       0.007
      -0.005
       0.000
       0.004
      -0.012
      -0.043
      -0.063
      -0.048
      -0.002
       0.044
       0.061
       0.040
       0.004
      -0.015
      -0.005
       0.022
       0.035
       0.019
      -0.015
      -0.041
      -0.043
      -0.026
      -0.014
      -0.021
      -0.039
      -0.041
      -0.014
       0.029
       0.053
       0.039
       0.001
      -0.027
      -0.023
       0.004
       0.023
       0.012
      -0.022
      -0.048
      -0.045
      -0.019
       0.004
       0.005
      -0.007
      -0.009
       0.013
       0.046
       0.061
       0.040
      -0.005
      -0.045
      -0.056
      -0.040
      -0.021
      -0.018
      -0.032
      -0.042
      -0.033
      -0.007
       0.018
       0.025
       0.011
      -0.005
      -0.006
       0.007
       0.017
       0.006
      -0.021
      -0.045
      -0.041
      -0.012
       0.021
       0.030
       0.011
      -0.014
      -0.021
      -0.002
       0.024
       0.036
       0.030
       0.021
       0.026
       0.040
       0.040
       0.010
      -0.042
      -0.087
      -0.094
      -0.062
      -0.017
       0.010
       0.007
      -0.004
       0.000
       0.025
       0.050
       0.052
       0.023
      -0.016
      -0.042
      -0.045
      -0.040
      -0.047
      -0.064
      -0.071
      -0.046
       0.007
       0.060
       0.079
       0.055
       0.011
      -0.019
      -0.018
       0.002
       0.014
       0.004
      -0.017
      -0.027
      -0.013
       0.011
       0.023
       0.012
      -0.009
      -0.014
       0.010
       0.046
       0.064
       0.045
       0.004
      -0.026
      -0.025
      -0.001
       0.019
       0.013
      -0.015
      -0.038
      -0.038
      -0.017
       0.003
       0.005
      -0.004
      -0.003
       0.020
       0.053
       0.069
       0.054
       0.015
      -0.020
      -0.033
      -0.028
      -0.024
      -0.036
      -0.054
      -0.054
      -0.025
       0.020
       0.052
       0.052
       0.026
       0.001
      -0.001
       0.015
       0.025
       0.009
      -0.030
      -0.063
      -0.064
      -0.033
       0.002
       0.015
       0.003
      -0.010
      -0.001
       0.027
       0.050
       0.047
       0.020
      -0.005
      -0.008
       0.010
       0.025
       0.016
      -0.017
      -0.048
      -0.050
      -0.018
       0.023
       0.043
       0.034
       0.013
       0.005
       0.019
       0.037
       0.038
       0.019
      -0.003
      -0.008
       0.003
       0.007
      -0.012
      -0.044
      -0.057
      -0.031
       0.022
       0.067
       0.071
       0.033
      -0.016
      -0.040
      -0.026
       0.008
       0.031
       0.026
       0.003
      -0.017
      -0.020
      -0.011
      -0.006
      -0.009
      -0.011
       0.005
       0.041
       0.079
       0.088
       0.057
       0.004
      -0.033
      -0.034
      -0.009
       0.011
       0.003
      -0.026
      -0.049
      -0.044
      -0.014
       0.016
       0.029
       0.028
       0.037
       0.063
       0.092
       0.092
       0.051
      -0.013
      -0.062
      -0.070
      -0.043
      -0.013
      -0.002
      -0.009
      -0.016
      -0.006
       0.015
       0.033
       0.032
       0.019
       0.008
       0.014
       0.026
       0.024
      -0.004
      -0.046
      -0.071
      -0.059
      -0.017
       0.027
       0.044
       0.030
       0.007
       0.001
       0.018
       0.040
       0.048
       0.039
       0.026
       0.026
       0.037
       0.041
       0.022
      -0.017
      -0.048
      -0.046
      -0.010
       0.032
       0.047
       0.029
       0.000
      -0.011
       0.002
       0.020
       0.021
       0.001
      -0.024
      -0.032
      -0.020
      -0.007
      -0.013
      -0.035
      -0.048
      -0.029
       0.020
       0.072
       0.093
       0.072
       0.030
      -0.002
      -0.005
       0.009
       0.015
      -0.001
      -0.024
      -0.033
      -0.019
       0.005
       0.016
       0.005
      -0.013
      -0.011
       0.020
       0.061
       0.083
       0.068
       0.029
      -0.008
      -0.022
      -0.018
      -0.016
      -0.029
      -0.046
      -0.046
      -0.019
       0.017
       0.037
       0.027
       0.006
       0.004
       0.030
       0.066
       0.078
       0.049
      -0.006
      -0.051
      -0.058
      -0.027
       0.015
       0.043
       0.054
       0.066
       0.091
       0.119
       0.125
       0.097
       0.054
       0.034
       0.057
       0.109
       0.157
       0.190
       0.239
       0.328
       0.416
       0.392
       0.154
      -0.305
      -0.872
      -1.364
      -1.595
      -1.443
      -0.922
      -0.227
       0.341
       0.563
       0.458
       0.254
       0.178
       0.284
       0.481
       0.665
       0.810
       0.930
       0.997
       0.914
       0.583
       0.021
      -0.567
      -0.875
      -0.746
      -0.358
      -0.113
      -0.262
      -0.649
      -0.869
      -0.660
      -0.125
       0.409
       0.688
       0.670
       0.448
       0.141
      -0.132
      -0.262
      -0.202
      -0.012
       0.189
       0.324
       0.388
       0.391
       0.309
       0.132
      -0.098
      -0.316
      -0.499
      -0.638
      -0.675
      -0.538
      -0.261
      -0.014
       0.057
      -0.003
      -0.018
       0.107
       0.316
       0.521
       0.675
       0.707
       0.499
       0.055
      -0.376
      -0.449
      -0.071
       0.443
       0.635
       0.332
      -0.195
      -0.522
      -0.500
      -0.346
      -0.334
      -0.449
      -0.425
      -0.100
       0.346
       0.538
       0.275
      -0.258
      -0.637
      -0.547
      -0.030
       0.587
       0.969
       0.982
       0.698
       0.264
      -0.189
      -0.552
      -0.727
      -0.656
      -0.374
      -0.054
       0.071
      -0.081
      -0.306
      -0.265
       0.137
       0.570
       0.572
       0.068
      -0.467
      -0.450
       0.198
       0.939
       1.143
       0.693
       0.030
      -0.364
      -0.438
      -0.486
      -0.705
      -0.939
      -0.883
      -0.457
       0.083
       0.403
       0.406
       0.286
       0.301
       0.527
       0.791
       0.838
       0.558
       0.088
      -0.322
      -0.549
      -0.684
      -0.850
      -0.966
      -0.804
      -0.296
       0.298
       0.612
       0.554
       0.369
       0.328
       0.413
       0.382
       0.098
      -0.281
      -0.454
      -0.280
       0.096
       0.401
       0.469
       0.319
       0.087
      -0.093
      -0.154
      -0.110
      -0.047
      -0.065
      -0.199
      -0.389
      -0.509
      -0.441
      -0.143
       0.286
       0.577
       0.433
      -0.167
      -0.798
      -0.868
      -0.181
       0.797
       1.326
       1.076
       0.391
      -0.120
      -0.208
      -0.155
      -0.347
      -0.758
      -0.944
      -0.559
       0.182
       0.654
       0.427
      -0.307
      -0.905
      -0.853
      -0.193
       0.571
       0.964
       0.938
       0.796
       0.772
       0.761
       0.506
      -0.029
      -0.549
      -0.722
      -0.518
      -0.231
      -0.169
      -0.364
      -0.590
      -0.618
      -0.434
      -0.174
       0.073
       0.323
       0.540
       0.542
       0.188
      -0.339
      -0.572
      -0.175
       0.650
       1.267
       1.170
       0.451
      -0.345
      -0.782
      -0.871
      -0.862
      -0.867
      -0.754
      -0.374
       0.216
       0.762
       0.982
       0.775
       0.313
      -0.056
      -0.098
       0.079
       0.136
      -0.103
      -0.410
      -0.388
       0.059
       0.551
       0.612
       0.164
      -0.401
      -0.664
      -0.590
      -0.448
      -0.393
      -0.258
       0.175
       0.805
       1.229
       1.137
       0.618
       0.068
      -0.183
      -0.157
      -0.159
      -0.450
      -0.948
      -1.254
      -1.024
      -0.333
       0.354
       0.602
       0.392
       0.101
       0.113
       0.453
       0.782
       0.706
       0.159
      -0.499
      -0.768
      -0.480
       0.028
       0.261
       0.081
      -0.181
      -0.152
       0.141
       0.327
       0.144
      -0.283
      -0.594
      -0.535
      -0.121
       0.437
       0.857
       0.916
       0.585
       0.084
      -0.274
      -0.363
      -0.336
      -0.386
      -0.468
      -0.360
       0.004
       0.377
       0.444
       0.176
      -0.157
      -0.305
      -0.264
      -0.168
      -0.061
       0.101
       0.247
       0.179
      -0.158
      -0.504
      -0.500
      -0.085
       0.463
       0.847
       1.000
       0.974
       0.733
       0.201
      -0.542
      -1.214
      -1.523
      -1.355
      -0.781
       0.006
       0.716
       1.033
       0.818
       0.288
      -0.115
      -0.125
       0.069
       0.047
      -0.299
      -0.558
      -0.266
       0.465
       0.972
       0.766
       0.098
      -0.351
      -0.273
      -0.055
      -0.254
      -0.876
      -1.300
      -0.926
       0.165
       1.237
       1.568
       1.088
       0.375
       0.037
       0.127
       0.193
      -0.160
      -0.807
      -1.235
      -1.069
      -0.449
       0.129
       0.310
       0.218
       0.256
       0.598
       0.935
       0.804
       0.115
      -0.710
      -1.124
      -0.914
      -0.309
       0.268
       0.529
       0.478
       0.303
       0.151
       0.011
      -0.170
      -0.316
      -0.276
      -0.046
       0.135
       0.012
      -0.382
      -0.703
      -0.602
      -0.063
       0.553
       0.798
       0.499
      -0.104
      -0.550
      -0.523
      -0.090
       0.393
       0.622
       0.609
       0.591
       0.690
       0.740
       0.510
       0.044
      -0.337
      -0.413
      -0.349
      -0.480
      -0.853
      -1.106
      -0.855
      -0.139
       0.609
       0.983
       0.905
       0.559
       0.123
      -0.334
      -0.768
      -1.060
      -1.024
      -0.529
       0.344
       1.222
       1.580
       1.113
       0.038
      -1.017
      -1.480
      -1.226
      -0.561
       0.101
       0.509
       0.637
       0.595
       0.519
       0.464
       0.359
       0.128
      -0.137
      -0.191
       0.076
       0.395
       0.298
      -0.398
      -1.300
      -1.712
      -1.246
      -0.167
       0.821
       1.148
       0.794
       0.225
      -0.055
       0.096
       0.456
       0.761
       0.948
       1.078
       1.081
       0.715
      -0.142
      -1.205
      -1.908
      -1.898
      -1.347
      -0.715
      -0.235
       0.235
       0.855
       1.416
       1.473
       0.863
      -0.027
      -0.587
      -0.551
      -0.204
      -0.052
      -0.347
      -0.865
      -1.093
      -0.677
       0.228
       1.011
       1.124
       0.596
      -0.009
      -0.180
       0.030
       0.134
      -0.129
      -0.416
      -0.186
       0.544
       1.068
       0.724
      -0.339
      -1.279
      -1.405
      -0.781
       0.002
       0.462
       0.567
       0.545
       0.512
       0.384
       0.069
      -0.359
      -0.696
      -0.761
      -0.507
      -0.039
       0.430
       0.707
       0.733
       0.592
       0.359
      -0.011
      -0.602
      -1.338
      -1.909
      -1.928
      -1.237
      -0.075
       1.056
       1.748
       1.920
       1.748
       1.418
       1.009
       0.565
       0.157
      -0.181
      -0.516
      -0.905
      -1.230
      -1.283
      -1.038
      -0.756
      -0.711
      -0.845
      -0.767
      -0.151
       0.880
       1.801
       2.145
       1.901
       1.465
       1.202
       1.076
       0.736
      -0.058
      -1.123
      -1.949
      -2.105
      -1.596
      -0.874
      -0.515
      -0.776
      -1.407
      -1.856
      -1.682
      -0.804
       0.590
       2.224
       3.772
       4.792
       4.813
       3.621
       1.506
      -0.802
      -2.525
      -3.278
      -3.224
      -2.852
      -2.555
      -2.397
      -2.187
      -1.738
      -1.024
      -0.114
       0.937
       2.059
       2.991
       3.268
       2.552
       1.043
      -0.519
      -1.374
      -1.351
      -0.917
      -0.628
      -0.566
      -0.377
       0.190
       0.906
       1.285
       1.138
       0.786
       0.692
       0.921
       1.053
       0.692
      -0.030
      -0.532
      -0.441
      -0.064
      -0.129
      -0.985
      -2.115
      -2.521
      -1.653
       0.018
       1.364
       1.567
       0.749
      -0.253
      -0.690
      -0.463
      -0.028
       0.138
      -0.066
      -0.394
      -0.555
      -0.440
      -0.126
       0.252
       0.569
       0.704
       0.557
       0.160
      -0.259
      -0.407
      -0.210
       0.079
       0.109
      -0.200
      -0.516
      -0.363
       0.439
       1.561
       2.366
       2.381
       1.649
       0.675
       0.002
      -0.195
      -0.181
      -0.357
      -0.886
      -1.565
      -1.999
      -1.912
      -1.332
      -0.554
       0.069
       0.328
       0.230
      -0.081
      -0.425
      -0.642
      -0.606
      -0.252
       0.367
       1.045
       1.463
       1.355
       0.720
      -0.078
      -0.503
      -0.276
       0.324
       0.644
       0.252
      -0.615
      -1.214
      -0.947
       0.111
       1.296
       1.917
       1.738
       0.977
      -0.047
      -1.176
      -2.315
      -3.151
      -3.171
      -2.125
      -0.451
       0.918
       1.319
       0.964
       0.716
       1.233
       2.323
       3.150
       3.040
       2.034
       0.709
      -0.399
      -1.148
      -1.695
      -2.138
      -2.293
      -1.821
      -0.631
       0.822
       1.741
       1.589
       0.562
      -0.590
      -1.211
      -1.244
      -1.115
      -1.199
      -1.449
      -1.510
      -1.123
      -0.384
       0.342
       0.732
       0.772
       0.747
       0.971
       1.462
       1.891
       1.878
       1.339
       0.533
      -0.215
      -0.728
      -0.940
      -0.807
      -0.359
       0.214
       0.650
       0.801
       0.680
       0.390
       0.056
      -0.195
      -0.308
      -0.395
      -0.657
      -1.139
      -1.569
      -1.545
      -0.937
      -0.101
       0.382
       0.251
      -0.169
      -0.281
       0.184
       0.898
       1.258
       0.959
       0.244
      -0.357
      -0.494
      -0.243
       0.074
       0.254
       0.375
       0.625
       1.007
       1.244
       0.999
       0.235
      -0.649
      -1.089
      -0.832
      -0.167
       0.342
       0.356
      -0.003
      -0.379
      -0.571
      -0.672
      -0.840
      -1.022
      -0.984
      -0.602
      -0.055
       0.321
       0.359
       0.196
       0.110
       0.251
       0.524
       0.710
       0.667
       0.452
       0.277
       0.330
       0.588
       0.804
       0.712
       0.260
      -0.360
      -0.887
      -1.153
      -1.107
      -0.774
      -0.259
       0.242
       0.525
       0.502
       0.254
      -0.064
      -0.350
      -0.580
      -0.754
      -0.850
      -0.847
      -0.735
      -0.479
      -0.021
       0.625
       1.282
       1.679
       1.650
       1.253
       0.685
       0.100
      -0.428
      -0.798
      -0.839
      -0.475
       0.098
       0.533
       0.682
       0.736
       0.945
       1.219
       1.142
       0.434
      -0.651
      -1.473
      -1.561
      -1.019
      -0.409
      -0.271
      -0.685
      -1.229
      -1.364
      -0.916
      -0.224
       0.216
       0.249
       0.180
       0.378
       0.800
       0.989
       0.585
      -0.214
      -0.794
      -0.721
      -0.138
       0.461
       0.759
       0.841
       0.919
       0.968
       0.734
       0.086
      -0.732
      -1.256
      -1.189
      -0.630
       0.038
       0.459
       0.539
       0.451
       0.400
       0.401
       0.274
      -0.103
      -0.584
      -0.848
      -0.714
      -0.318
       0.045
       0.209
       0.245
       0.307
       0.429
       0.514
       0.479
       0.345
       0.189
       0.038
      -0.121
      -0.272
      -0.349
      -0.270
       0.002
       0.394
       0.689
       0.624
       0.127
      -0.540
      -0.960
      -0.938
      -0.670
      -0.486
      -0.461
      -0.335
       0.146
       0.867
       1.378
       1.313
       0.754
       0.146
      -0.152
      -0.188
      -0.292
      -0.643
      -1.052
      -1.158
      -0.827
      -0.300
       0.047
       0.070
      -0.026
       0.070
       0.416
       0.729
       0.700
       0.374
       0.147
       0.314
       0.699
       0.781
       0.237
      -0.695
      -1.386
      -1.357
      -0.670
       0.134
       0.499
       0.303
      -0.087
      -0.178
       0.202
       0.769
       1.059
       0.823
       0.187
      -0.506
      -0.958
      -1.069
      -0.878
      -0.444
       0.144
       0.699
       0.968
       0.836
       0.466
       0.171
       0.116
       0.177
       0.108
      -0.179
      -0.524
      -0.688
      -0.570
      -0.271
       0.023
       0.202
       0.298
       0.391
       0.449
       0.321
      -0.088
      -0.629
      -0.981
      -0.945
      -0.629
      -0.296
      -0.059
       0.202
       0.594
       0.971
       0.999
       0.520
      -0.186
      -0.558
      -0.228
       0.600
       1.251
       1.110
       0.151
      -0.999
      -1.565
      -1.265
      -0.492
       0.123
       0.304
       0.282
       0.393
       0.640
       0.717
       0.408
      -0.136
      -0.530
      -0.507
      -0.107
       0.406
       0.747
       0.749
