Origin Time       11/11/2013 22:10:42 UTC
Lat.              28.4 N	
Long.             77.2 E	
Depth (Km)         11.0
Magnitude         2.8
 Region           DELHI                                                            
 Above details taken from IMD 
    
Station Code      DLU
Station Lat.       28.691  N
Station Long.      77.212  E
Station Height(m)  220.0
Site Class        C   Vs30 between 200 m/sec to 375 m/sec *  
Record Time       11.11.2013 22:10:21.899 UTC
Sampling Rate     200. Hz
 Record Duration   81.015 Sec.
 Direction         N-S (N positive)
Max. Acceleration     -3.308 cm/sec**2
     
  * For reference see Site Classification link of website 
     
 Base Line Corrected and Low Pass Filtered (Cut Off at 35 Hz) Time History
 Acceleration data in cm/sec**2
    
[...]
       0.039
       0.001
      -0.023
      -0.020
      -0.007
      -0.010
      -0.032
      -0.049
      -0.035
       0.014
       0.063
       0.074
       0.039
      -0.014
      -0.042
      -0.026
       0.015
       0.041
       0.026
      -0.020
      -0.062
      -0.070
      -0.045
      -0.009
       0.014
       0.018
       0.019
       0.033
       0.053
       0.059
       0.034
      -0.014
      -0.052
      -0.052
      -0.014
       0.034
       0.053
       0.027
      -0.023
      -0.058
      -0.051
      -0.013
       0.022
       0.030
       0.016
       0.003
       0.008
       0.021
       0.019
      -0.008
      -0.041
      -0.049
      -0.019
       0.026
       0.044
       0.015
      -0.039
      -0.069
      -0.047
       0.013
       0.067
       0.082
       0.056
       0.017
      -0.002
       0.003
       0.014
       0.008
      -0.016
      -0.036
      -0.030
       0.000
       0.033
       0.039
       0.018
      -0.009
      -0.008
       0.025
       0.065
       0.075
       0.039
      -0.020
      -0.061
      -0.060
      -0.028
       0.002
       0.008
      -0.005
      -0.010
       0.008
       0.035
       0.043
       0.017
      -0.021
      -0.033
      -0.005
       0.043
       0.067
       0.045
      -0.009
      -0.053
      -0.057
      -0.022
       0.021
       0.045
       0.042
       0.028
       0.021
       0.025
       0.028
       0.021
       0.007
       0.001
       0.017
       0.046
       0.064
       0.049
      -0.002
      -0.059
      -0.083
      -0.056
       0.008
       0.065
       0.082
       0.054
       0.010
      -0.020
      -0.024
      -0.015
      -0.012
      -0.016
      -0.015
       0.002
       0.023
       0.030
       0.008
      -0.028
      -0.050
      -0.037
       0.007
       0.055
       0.076
       0.064
       0.034
       0.009
       0.002
       0.008
       0.015
       0.017
       0.015
       0.015
       0.020
       0.020
       0.012
      -0.003
      -0.011
       0.001
       0.032
       0.064
       0.077
       0.057
       0.014
      -0.028
      -0.042
      -0.028
      -0.006
       0.002
      -0.007
      -0.013
       0.000
       0.029
       0.049
       0.041
       0.007
      -0.022
      -0.019
       0.014
       0.044
       0.041
       0.001
      -0.046
      -0.064
      -0.043
      -0.002
       0.032
       0.043
       0.038
       0.033
       0.032
       0.027
       0.009
      -0.017
      -0.029
      -0.013
       0.024
       0.053
       0.047
       0.002
      -0.054
      -0.083
      -0.063
      -0.008
       0.046
       0.066
       0.050
       0.022
       0.006
       0.011
       0.023
       0.025
       0.014
       0.001
      -0.001
       0.006
       0.004
      -0.019
      -0.053
      -0.064
      -0.030
       0.040
       0.103
       0.115
       0.069
      -0.003
      -0.053
      -0.057
      -0.027
       0.002
       0.009
       0.000
      -0.002
       0.013
       0.035
       0.040
       0.023
       0.002
       0.004
       0.036
       0.072
       0.076
       0.035
      -0.024
      -0.059
      -0.045
       0.002
       0.043
       0.047
       0.014
      -0.027
      -0.047
      -0.035
      -0.008
       0.007
       0.004
      -0.002
       0.009
       0.037
       0.058
       0.046
       0.000
      -0.054
      -0.077
      -0.055
      -0.007
       0.032
       0.039
       0.019
       0.002
       0.004
       0.021
       0.030
       0.016
      -0.011
      -0.026
      -0.014
       0.015
       0.030
       0.008
      -0.044
      -0.085
      -0.077
      -0.016
       0.059
       0.098
       0.078
       0.022
      -0.024
      -0.033
      -0.012
       0.011
       0.013
       0.004
       0.002
       0.016
       0.027
       0.014
      -0.022
      -0.052
      -0.044
       0.007
       0.066
       0.089
       0.055
      -0.009
      -0.056
      -0.052
      -0.005
       0.045
       0.060
       0.035
      -0.004
      -0.027
      -0.026
      -0.014
      -0.005
       0.002
       0.020
       0.051
       0.082
       0.085
       0.048
      -0.013
      -0.061
      -0.065
      -0.025
       0.026
       0.047
       0.025
      -0.018
      -0.042
      -0.027
       0.015
       0.053
       0.062
       0.043
       0.020
       0.009
       0.006
      -0.004
      -0.029
      -0.050
      -0.045
      -0.010
       0.031
       0.051
       0.038
       0.009
      -0.012
      -0.010
       0.007
       0.019
       0.012
      -0.004
      -0.012
       0.001
       0.025
       0.040
       0.030
       0.001
      -0.027
      -0.033
      -0.014
       0.012
       0.026
       0.022
       0.010
       0.004
       0.008
       0.018
       0.027
       0.027
       0.019
       0.009
       0.007
       0.007
      -0.009
      -0.047
      -0.088
      -0.092
      -0.043
       0.035
       0.091
       0.095
       0.060
       0.028
       0.028
       0.050
       0.057
       0.019
      -0.054
      -0.119
      -0.135
      -0.096
      -0.030
       0.030
       0.068
       0.089
       0.105
       0.113
       0.089
       0.020
      -0.073
      -0.134
      -0.119
      -0.034
       0.063
       0.107
       0.071
      -0.009
      -0.070
      -0.073
      -0.034
       0.000
       0.005
       0.005
       0.039
       0.099
       0.132
       0.092
      -0.006
      -0.088
      -0.096
      -0.045
      -0.003
      -0.013
      -0.040
      -0.016
       0.065
       0.131
       0.108
       0.017
      -0.047
      -0.026
       0.032
       0.035
      -0.040
      -0.111
      -0.092
       0.005
       0.086
       0.083
       0.031
      -0.001
       0.006
       0.007
      -0.027
      -0.058
      -0.030
       0.055
       0.127
       0.113
       0.016
      -0.087
      -0.117
      -0.062
       0.026
       0.086
       0.083
       0.032
      -0.017
      -0.005
       0.073
       0.148
       0.134
       0.028
      -0.066
      -0.043
       0.079
       0.153
       0.047
      -0.200
      -0.391
      -0.347
      -0.082
       0.212
       0.342
       0.282
       0.161
       0.107
       0.114
       0.061
      -0.138
      -0.421
      -0.605
      -0.531
      -0.214
       0.152
       0.355
       0.346
       0.255
       0.221
       0.235
       0.169
      -0.030
      -0.248
      -0.313
      -0.182
       0.024
       0.158
       0.181
       0.149
       0.115
       0.069
      -0.023
      -0.140
      -0.218
      -0.210
      -0.128
      -0.005
       0.136
       0.255
       0.273
       0.142
      -0.062
      -0.173
      -0.110
       0.021
       0.045
      -0.067
      -0.157
      -0.077
       0.111
       0.199
       0.071
      -0.156
      -0.267
      -0.179
       0.001
       0.134
       0.188
       0.206
       0.180
       0.058
      -0.134
      -0.255
      -0.195
      -0.032
       0.041
      -0.042
      -0.126
      -0.017
       0.257
       0.440
       0.334
       0.030
      -0.180
      -0.128
       0.066
       0.159
       0.051
      -0.138
      -0.235
      -0.190
      -0.088
      -0.032
      -0.031
      -0.011
       0.090
       0.228
       0.284
       0.207
       0.080
       0.030
       0.086
       0.161
       0.152
       0.033
      -0.141
      -0.284
      -0.333
      -0.287
      -0.210
      -0.166
      -0.136
      -0.021
       0.245
       0.572
       0.734
       0.561
       0.112
      -0.338
      -0.536
      -0.467
      -0.325
      -0.269
      -0.242
      -0.059
       0.324
       0.720
       0.868
       0.665
       0.217
      -0.260
      -0.565
      -0.600
      -0.424
      -0.226
      -0.164
      -0.201
      -0.153
       0.096
       0.421
       0.557
       0.370
      -0.006
      -0.276
      -0.238
       0.062
       0.376
       0.456
       0.228
      -0.166
      -0.489
      -0.568
      -0.400
      -0.126
       0.083
       0.150
       0.125
       0.107
       0.147
       0.217
       0.244
       0.160
      -0.043
      -0.274
      -0.369
      -0.225
       0.075
       0.313
       0.319
       0.110
      -0.132
      -0.215
      -0.096
       0.095
       0.184
       0.125
       0.032
       0.035
       0.145
       0.268
       0.309
       0.235
       0.057
      -0.197
      -0.461
      -0.598
      -0.463
      -0.094
       0.223
       0.196
      -0.115
      -0.303
      -0.068
       0.378
       0.513
       0.115
      -0.417
      -0.473
       0.081
       0.709
       0.765
       0.191
      -0.426
      -0.505
      -0.086
       0.280
       0.198
      -0.146
      -0.271
      -0.010
       0.326
       0.360
       0.107
      -0.098
      -0.037
       0.129
       0.085
      -0.233
      -0.534
      -0.479
      -0.051
       0.412
       0.542
       0.274
      -0.130
      -0.350
      -0.267
      -0.019
       0.155
       0.122
      -0.043
      -0.139
      -0.034
       0.183
       0.276
       0.114
      -0.150
      -0.205
       0.065
       0.415
       0.466
       0.126
      -0.295
      -0.418
      -0.222
      -0.036
      -0.131
      -0.384
      -0.432
      -0.121
       0.287
       0.413
       0.207
       0.014
       0.151
       0.511
       0.664
       0.365
      -0.142
      -0.383
      -0.170
       0.208
       0.318
       0.029
      -0.404
      -0.644
      -0.589
      -0.385
      -0.193
      -0.049
       0.094
       0.255
       0.390
       0.433
       0.344
       0.152
      -0.050
      -0.148
      -0.090
       0.078
       0.230
       0.242
       0.081
      -0.158
      -0.306
      -0.253
      -0.054
       0.105
       0.078
      -0.081
      -0.162
      -0.036
       0.174
       0.220
       0.024
      -0.214
      -0.241
      -0.052
       0.092
      -0.059
      -0.456
      -0.751
      -0.598
      -0.012
       0.606
       0.818
       0.544
       0.107
      -0.115
      -0.032
       0.172
       0.323
       0.434
       0.567
       0.637
       0.474
       0.074
      -0.333
      -0.512
      -0.462
      -0.343
      -0.262
      -0.197
      -0.113
      -0.030
       0.027
       0.061
       0.080
       0.078
       0.040
      -0.046
      -0.167
      -0.257
      -0.215
      -0.006
       0.248
       0.325
       0.110
      -0.253
      -0.458
      -0.322
       0.012
       0.208
       0.088
      -0.175
      -0.248
       0.024
       0.492
       0.877
       0.992
       0.806
       0.413
      -0.033
      -0.384
      -0.558
      -0.538
      -0.334
       0.000
       0.295
       0.311
      -0.039
      -0.517
      -0.728
      -0.497
      -0.043
       0.253
       0.202
      -0.065
      -0.259
      -0.162
       0.216
       0.625
       0.754
       0.503
       0.094
      -0.163
      -0.206
      -0.249
      -0.466
      -0.738
      -0.769
      -0.429
       0.105
       0.511
       0.585
       0.364
       0.048
      -0.189
      -0.328
      -0.464
      -0.626
      -0.687
      -0.507
      -0.153
       0.087
      -0.008
      -0.325
      -0.488
      -0.222
       0.361
       0.880
       1.057
       0.978
       0.989
       1.329
       1.873
       2.202
       1.934
       1.059
      -0.010
      -0.758
      -1.000
      -0.982
      -1.050
      -1.248
      -1.335
      -1.153
      -0.836
      -0.601
      -0.430
      -0.100
       0.482
       1.053
       1.179
       0.653
      -0.259
      -0.976
      -1.031
      -0.455
       0.195
       0.249
      -0.491
      -1.480
      -1.815
      -1.008
       0.510
       1.681
       1.698
       0.715
      -0.261
      -0.252
       0.788
       1.909
       2.012
       0.853
      -0.749
      -1.662
      -1.380
      -0.310
       0.714
       1.099
       0.764
      -0.003
      -0.788
      -1.197
      -1.002
      -0.302
       0.457
       0.761
       0.423
      -0.261
      -0.770
      -0.773
      -0.363
       0.064
       0.128
      -0.245
      -0.756
      -0.956
      -0.605
       0.101
       0.691
       0.839
       0.644
       0.494
       0.647
       0.961
       1.022
       0.554
      -0.309
      -1.093
      -1.323
      -0.845
       0.077
       0.942
       1.341
       1.180
       0.631
      -0.076
      -0.724
      -1.039
      -0.765
       0.038
       0.832
       0.945
       0.171
      -0.995
      -1.717
      -1.468
      -0.441
       0.567
       0.741
      -0.082
      -1.224
      -1.716
      -1.141
       0.019
       0.840
       0.759
      -0.001
      -0.657
      -0.489
       0.615
       2.083
       3.064
       2.991
       1.903
       0.371
      -0.868
      -1.338
      -1.056
      -0.418
       0.172
       0.536
       0.634
       0.385
      -0.250
      -1.016
      -1.396
      -1.062
      -0.268
       0.337
       0.327
      -0.151
      -0.643
      -0.916
      -1.142
      -1.583
      -2.146
      -2.315
      -1.601
      -0.085
       1.506
       2.366
       2.274
       1.695
       1.288
       1.342
       1.632
       1.712
       1.309
       0.517
      -0.322
      -0.895
      -1.120
      -1.104
      -0.959
      -0.673
      -0.156
       0.590
       1.338
       1.722
       1.540
       0.989
       0.534
       0.468
       0.577
       0.306
      -0.691
      -2.128
      -3.226
      -3.308
      -2.340
      -0.962
      -0.009
       0.071
      -0.550
      -1.267
      -1.420
      -0.628
       0.960
       2.597
       3.285
       2.497
       0.698
      -0.926
      -1.381
      -0.607
       0.589
       1.253
       1.002
       0.156
      -0.691
      -1.159
      -1.180
      -0.824
      -0.217
       0.406
       0.782
       0.881
       0.964
       1.261
       1.596
       1.474
       0.572
      -0.825
      -1.933
      -2.071
      -1.241
      -0.124
       0.512
       0.356
      -0.401
      -1.350
      -2.021
      -1.955
      -0.976
       0.472
       1.473
       1.392
       0.529
      -0.080
       0.362
       1.586
       2.422
       1.851
      -0.010
      -1.896
      -2.393
      -1.079
       1.159
       2.849
       3.049
       1.919
       0.410
      -0.532
      -0.601
      -0.198
       0.000
      -0.383
      -1.136
      -1.703
      -1.726
      -1.355
      -1.019
      -0.979
      -1.136
      -1.222
      -1.038
      -0.525
       0.234
       0.968
       1.304
       1.084
       0.631
       0.543
       1.106
       1.934
       2.279
       1.750
       0.691
      -0.159
      -0.350
      -0.087
       0.033
      -0.426
      -1.356
      -2.187
      -2.317
      -1.559
      -0.303
       0.739
       1.017
       0.508
      -0.321
      -0.918
      -1.049
      -0.853
      -0.548
      -0.200
       0.195
       0.530
       0.639
       0.528
       0.442
       0.618
       1.031
       1.437
       1.610
       1.482
       1.090
       0.501
      -0.150
      -0.628
      -0.735
      -0.504
      -0.229
      -0.236
      -0.613
      -1.107
      -1.307
      -0.959
      -0.214
       0.434
       0.526
       0.028
      -0.672
      -1.143
      -1.230
      -0.993
      -0.501
       0.179
       0.821
       1.074
       0.781
       0.263
       0.150
       0.783
       1.780
       2.290
       1.765
       0.468
      -0.801
      -1.433
      -1.404
      -1.071
      -0.729
      -0.443
      -0.195
      -0.039
      -0.054
      -0.204
      -0.296
      -0.112
       0.386
       0.977
       1.296
       1.080
       0.409
      -0.274
      -0.450
       0.061
       0.904
       1.390
       0.980
      -0.285
      -1.738
      -2.515
      -2.196
      -1.135
      -0.154
       0.156
      -0.149
      -0.560
      -0.612
      -0.173
       0.611
       1.445
       1.963
       1.850
       1.080
       0.064
      -0.572
      -0.474
       0.104
       0.507
       0.270
      -0.441
      -0.979
      -0.817
      -0.023
       0.781
       0.939
       0.326
      -0.511
      -0.794
      -0.227
       0.689
       1.062
       0.428
      -0.773
      -1.559
      -1.315
      -0.384
       0.280
       0.100
      -0.538
      -0.741
      -0.116
       0.772
       0.988
       0.228
      -0.836
      -1.220
      -0.560
       0.616
       1.465
       1.558
       1.068
       0.427
      -0.067
      -0.360
      -0.515
      -0.554
      -0.440
      -0.193
       0.024
       0.006
      -0.271
      -0.551
      -0.471
       0.139
       1.061
       1.753
       1.699
       0.832
      -0.315
      -0.982
      -0.810
      -0.144
       0.292
       0.040
      -0.710
      -1.318
      -1.280
      -0.664
      -0.004
       0.215
      -0.021
      -0.335
      -0.381
      -0.138
       0.185
       0.449
       0.703
       1.032
       1.343
       1.361
       0.895
       0.087
      -0.639
      -0.936
      -0.826
      -0.631
      -0.602
      -0.650
      -0.496
      -0.040
       0.449
       0.587
       0.260
      -0.255
      -0.567
      -0.494
      -0.144
       0.258
       0.558
       0.724
       0.815
       0.912
       1.038
       1.089
       0.897
       0.401
      -0.230
      -0.694
      -0.822
      -0.726
      -0.655
      -0.695
      -0.700
      -0.536
      -0.282
      -0.106
       0.010
       0.246
       0.617
       0.797
       0.444
      -0.330
      -0.954
      -0.942
      -0.391
       0.131
       0.142
      -0.320
      -0.780
      -0.775
      -0.223
       0.547
       1.061
       1.019
       0.485
      -0.160
      -0.460
      -0.244
       0.199
       0.355
      -0.003
      -0.534
      -0.645
      -0.108
       0.674
       1.067
       0.831
       0.324
       0.077
       0.245
       0.529
       0.586
       0.405
       0.218
       0.143
       0.053
      -0.205
      -0.587
      -0.901
      -1.013
      -0.935
      -0.751
      -0.549
      -0.392
      -0.296
      -0.191
       0.024
       0.329
       0.515
       0.349
      -0.161
      -0.692
      -0.825
      -0.373
       0.464
       1.243
       1.594
       1.467
       1.092
       0.708
       0.365
       0.006
      -0.314
      -0.426
      -0.279
      -0.095
      -0.179
      -0.561
      -0.908
      -0.828
      -0.265
       0.426
       0.812
       0.756
       0.457
       0.186
       0.044
      -0.029
      -0.125
      -0.289
      -0.510
      -0.724
      -0.833
      -0.776
      -0.566
      -0.237
       0.176
       0.567
       0.724
       0.482
      -0.023
      -0.361
      -0.172
       0.450
       0.979
       0.933
       0.308
      -0.430
      -0.772
      -0.587
      -0.153
       0.160
       0.209
       0.110
       0.023
       0.002
       0.025
       0.085
       0.161
       0.165
       0.015
      -0.209
      -0.284
      -0.091
       0.206
       0.294
       0.053
      -0.289
      -0.390
      -0.148
       0.229
       0.460
       0.435
       0.215
      -0.100
      -0.408
      -0.569
      -0.482
      -0.229
      -0.051
      -0.096
      -0.222
      -0.144
       0.217
       0.611
       0.713
       0.453
