Origin Time       11/11/2013 22:10:42
Lat.              28.4 N	
Long.             77.2 E	
Depth (Km)         11.0
Magnitude         2.8
 Region           DELHI                                                            
 Above details taken from IMD 
     
Station Code      DLU
Station Lat.       28.691  N
Station Long.      77.212  E
Station Height(m)  220.0
Site Class        C   Vs30 between 200 m/sec to 375 m/sec *  
Record Time       11.11.2013 22:10:21.899
Sampling Rate     200. Hz
 Record Duration   81.015 Sec.
 Direction         E-W (E positive)
Max. Acceleration     -3.777 cm/sec**2
     
  * For reference see Site Classification link of website 
     
 Base Line Corrected and Low Pass Filtered (Cut Off at 35 Hz) Time History
 Acceleration data in cm/sec**2
    
[...]
      -0.017
       0.001
      -0.018
      -0.057
      -0.074
      -0.045
       0.019
       0.074
       0.088
       0.061
       0.024
       0.009
       0.020
       0.031
       0.012
      -0.037
      -0.086
      -0.101
      -0.075
      -0.032
      -0.005
      -0.009
      -0.025
      -0.020
       0.022
       0.077
       0.103
       0.080
       0.027
      -0.016
      -0.024
      -0.008
      -0.003
      -0.028
      -0.069
      -0.089
      -0.062
      -0.001
       0.054
       0.070
       0.051
       0.028
       0.029
       0.049
       0.062
       0.043
      -0.009
      -0.063
      -0.088
      -0.075
      -0.047
      -0.030
      -0.031
      -0.032
      -0.013
       0.023
       0.056
       0.064
       0.042
       0.012
      -0.002
       0.011
       0.027
       0.017
      -0.028
      -0.081
      -0.107
      -0.086
      -0.033
       0.014
       0.027
       0.011
       0.000
       0.021
       0.063
       0.090
       0.073
       0.021
      -0.028
      -0.043
      -0.031
      -0.022
      -0.043
      -0.084
      -0.106
      -0.078
      -0.007
       0.064
       0.093
       0.072
       0.032
       0.009
       0.014
       0.024
       0.007
      -0.040
      -0.091
      -0.107
      -0.079
      -0.034
      -0.009
      -0.016
      -0.030
      -0.021
       0.022
       0.074
       0.098
       0.078
       0.029
      -0.011
      -0.022
      -0.014
      -0.013
      -0.032
      -0.059
      -0.065
      -0.037
       0.008
       0.039
       0.038
       0.016
       0.002
       0.019
       0.057
       0.082
       0.067
       0.012
      -0.049
      -0.079
      -0.069
      -0.042
      -0.028
      -0.036
      -0.043
      -0.025
       0.022
       0.070
       0.087
       0.062
       0.020
      -0.004
       0.005
       0.024
       0.017
      -0.030
      -0.093
      -0.127
      -0.108
      -0.052
       0.000
       0.018
       0.009
       0.008
       0.036
       0.080
       0.102
       0.078
       0.022
      -0.030
      -0.046
      -0.029
      -0.009
      -0.013
      -0.041
      -0.063
      -0.053
      -0.007
       0.043
       0.064
       0.046
       0.012
      -0.005
       0.009
       0.037
       0.039
      -0.001
      -0.065
      -0.108
      -0.104
      -0.064
      -0.023
      -0.009
      -0.016
      -0.013
       0.022
       0.077
       0.111
       0.094
       0.035
      -0.020
      -0.034
      -0.011
       0.010
      -0.008
      -0.060
      -0.099
      -0.085
      -0.017
       0.054
       0.080
       0.054
       0.016
       0.008
       0.035
       0.062
       0.052
       0.000
      -0.062
      -0.094
      -0.080
      -0.045
      -0.022
      -0.029
      -0.046
      -0.042
      -0.004
       0.045
       0.072
       0.059
       0.020
      -0.010
      -0.006
       0.018
       0.029
      -0.003
      -0.065
      -0.114
      -0.112
      -0.060
       0.003
       0.031
       0.013
      -0.018
      -0.019
       0.023
       0.075
       0.091
       0.055
      -0.009
      -0.056
      -0.065
      -0.051
      -0.046
      -0.063
      -0.079
      -0.063
      -0.009
       0.056
       0.091
       0.081
       0.047
       0.023
       0.026
       0.043
       0.042
       0.008
      -0.046
      -0.087
      -0.092
      -0.066
      -0.035
      -0.019
      -0.016
      -0.006
       0.022
       0.059
       0.079
       0.063
       0.019
      -0.022
      -0.036
      -0.022
      -0.006
      -0.012
      -0.044
      -0.077
      -0.081
      -0.046
       0.006
       0.040
       0.040
       0.021
       0.015
       0.037
       0.069
       0.076
       0.037
      -0.030
      -0.080
      -0.084
      -0.052
      -0.022
      -0.021
      -0.040
      -0.048
      -0.020
       0.032
       0.076
       0.084
       0.061
       0.033
       0.024
       0.031
       0.027
      -0.009
      -0.067
      -0.109
      -0.106
      -0.059
      -0.002
       0.028
       0.023
       0.008
       0.013
       0.046
       0.081
       0.085
       0.051
       0.001
      -0.035
      -0.043
      -0.037
      -0.040
      -0.059
      -0.077
      -0.068
      -0.026
       0.029
       0.065
       0.068
       0.050
       0.033
       0.033
       0.040
       0.034
      -0.001
      -0.050
      -0.082
      -0.075
      -0.041
      -0.013
      -0.011
      -0.027
      -0.031
       0.000
       0.054
       0.093
       0.083
       0.032
      -0.018
      -0.030
      -0.008
       0.011
      -0.007
      -0.060
      -0.108
      -0.113
      -0.069
      -0.010
       0.023
       0.019
       0.005
       0.014
       0.054
       0.094
       0.096
       0.049
      -0.024
      -0.079
      -0.090
      -0.065
      -0.038
      -0.033
      -0.046
      -0.047
      -0.014
       0.043
       0.090
       0.095
       0.055
       0.001
      -0.026
      -0.014
       0.010
       0.008
      -0.034
      -0.087
      -0.105
      -0.074
      -0.019
       0.015
       0.009
      -0.015
      -0.020
       0.010
       0.051
       0.065
       0.034
      -0.020
      -0.054
      -0.047
      -0.017
      -0.003
      -0.021
      -0.047
      -0.041
       0.001
       0.040
       0.033
      -0.017
      -0.062
      -0.056
       0.006
       0.081
       0.112
       0.071
      -0.027
      -0.123
      -0.158
      -0.109
      -0.015
       0.057
       0.071
       0.052
       0.044
       0.060
       0.072
       0.047
      -0.016
      -0.082
      -0.112
      -0.086
      -0.018
       0.054
       0.075
       0.019
      -0.081
      -0.149
      -0.125
      -0.028
       0.070
       0.105
       0.080
       0.041
       0.023
       0.022
       0.006
      -0.034
      -0.074
      -0.080
      -0.045
       0.000
       0.008
      -0.033
      -0.085
      -0.088
      -0.020
       0.070
       0.107
       0.067
      -0.005
      -0.039
      -0.024
      -0.006
      -0.026
      -0.061
      -0.055
       0.012
       0.080
       0.073
      -0.027
      -0.145
      -0.179
      -0.084
       0.089
       0.220
       0.218
       0.089
      -0.070
      -0.151
      -0.120
      -0.032
       0.024
       0.002
      -0.073
      -0.136
      -0.130
      -0.060
       0.011
       0.016
      -0.042
      -0.067
       0.035
       0.247
       0.433
       0.460
       0.313
       0.082
      -0.130
      -0.264
      -0.295
      -0.229
      -0.126
      -0.089
      -0.165
      -0.266
      -0.242
      -0.045
       0.193
       0.278
       0.149
      -0.058
      -0.137
       0.016
       0.326
       0.600
       0.658
       0.431
       0.005
      -0.423
      -0.658
      -0.633
      -0.437
      -0.216
      -0.045
       0.089
       0.208
       0.281
       0.257
       0.149
       0.036
      -0.027
      -0.063
      -0.112
      -0.142
      -0.074
       0.097
       0.251
       0.239
       0.041
      -0.200
      -0.308
      -0.221
      -0.028
       0.114
       0.098
      -0.063
      -0.232
      -0.243
      -0.044
       0.232
       0.348
       0.181
      -0.136
      -0.304
      -0.136
       0.247
       0.513
       0.433
       0.083
      -0.262
      -0.406
      -0.368
      -0.277
      -0.203
      -0.139
      -0.082
      -0.052
      -0.045
      -0.007
       0.073
       0.113
       0.025
      -0.125
      -0.136
       0.097
       0.428
       0.573
       0.392
       0.005
      -0.348
      -0.500
      -0.420
      -0.168
       0.143
       0.368
       0.399
       0.240
      -0.014
      -0.270
      -0.463
      -0.505
      -0.293
       0.154
       0.621
       0.829
       0.662
       0.231
      -0.238
      -0.554
      -0.617
      -0.429
      -0.107
       0.156
       0.215
       0.080
      -0.112
      -0.238
      -0.269
      -0.216
      -0.079
       0.096
       0.178
       0.068
      -0.126
      -0.149
       0.120
       0.494
       0.651
       0.457
       0.093
      -0.143
      -0.125
       0.027
       0.096
      -0.024
      -0.249
      -0.380
      -0.250
       0.123
       0.497
       0.561
       0.195
      -0.379
      -0.746
      -0.642
      -0.184
       0.233
       0.298
       0.077
      -0.071
       0.099
       0.436
       0.562
       0.291
      -0.185
      -0.516
      -0.512
      -0.251
       0.050
       0.199
       0.114
      -0.168
      -0.491
      -0.628
      -0.421
       0.056
       0.512
       0.661
       0.452
       0.068
      -0.230
      -0.301
      -0.188
      -0.035
       0.074
       0.184
       0.372
       0.593
       0.675
       0.476
       0.047
      -0.386
      -0.595
      -0.530
      -0.329
      -0.151
      -0.053
      -0.029
      -0.096
      -0.265
      -0.446
      -0.450
      -0.148
       0.353
       0.734
       0.719
       0.349
      -0.030
      -0.090
       0.161
       0.384
       0.240
      -0.278
      -0.806
      -0.925
      -0.544
       0.020
       0.353
       0.328
       0.171
       0.160
       0.316
       0.407
       0.249
      -0.071
      -0.293
      -0.265
      -0.067
       0.120
       0.188
       0.133
      -0.020
      -0.230
      -0.389
      -0.332
       0.004
       0.453
       0.701
       0.532
       0.013
      -0.550
      -0.830
      -0.675
      -0.182
       0.348
       0.566
       0.314
      -0.186
      -0.458
      -0.211
       0.323
       0.603
       0.367
      -0.085
      -0.272
      -0.109
       0.038
      -0.129
      -0.435
      -0.448
      -0.037
       0.451
       0.579
       0.288
      -0.094
      -0.214
      -0.023
       0.223
       0.217
      -0.119
      -0.541
      -0.690
      -0.419
       0.080
       0.481
       0.608
       0.506
       0.300
       0.071
      -0.117
      -0.162
      -0.013
       0.193
       0.199
      -0.096
      -0.488
      -0.657
      -0.471
      -0.075
       0.276
       0.420
       0.331
       0.082
      -0.187
      -0.301
      -0.159
       0.136
       0.303
       0.135
      -0.254
      -0.493
      -0.307
       0.193
       0.616
       0.678
       0.425
       0.123
      -0.022
      -0.011
       0.017
      -0.053
      -0.211
      -0.350
      -0.378
      -0.305
      -0.210
      -0.138
      -0.047
       0.104
       0.252
       0.267
       0.148
       0.097
       0.288
       0.562
       0.505
      -0.074
      -0.817
      -1.110
      -0.705
       0.020
       0.466
       0.398
       0.080
      -0.075
       0.093
       0.412
       0.558
       0.297
      -0.323
      -0.919
      -1.000
      -0.414
       0.436
       0.907
       0.718
       0.179
      -0.188
      -0.170
       0.036
       0.142
       0.050
      -0.159
      -0.369
      -0.461
      -0.307
       0.104
       0.564
       0.750
       0.507
      -0.004
      -0.445
      -0.569
      -0.367
      -0.032
       0.202
       0.224
       0.110
       0.030
       0.054
       0.070
      -0.057
      -0.286
      -0.417
      -0.328
      -0.109
       0.072
       0.175
       0.291
       0.449
       0.509
       0.305
      -0.128
      -0.535
      -0.661
      -0.488
      -0.250
      -0.202
      -0.383
      -0.551
      -0.368
       0.282
       1.089
       1.480
       1.095
       0.159
      -0.665
      -0.853
      -0.464
      -0.019
       0.019
      -0.346
      -0.692
      -0.576
       0.111
       1.058
       1.743
       1.782
       1.200
       0.407
      -0.150
      -0.362
      -0.450
      -0.641
      -0.895
      -0.998
      -0.816
      -0.422
      -0.006
       0.268
       0.308
       0.095
      -0.284
      -0.631
      -0.710
      -0.411
       0.149
       0.669
       0.834
       0.530
      -0.058
      -0.555
      -0.666
      -0.389
       0.041
       0.402
       0.632
       0.759
       0.763
       0.583
       0.256
      -0.023
      -0.034
       0.218
       0.432
       0.226
      -0.487
      -1.340
      -1.735
      -1.316
      -0.279
       0.748
       1.165
       0.818
       0.074
      -0.473
      -0.433
       0.118
       0.711
       0.864
       0.447
      -0.270
      -0.890
      -1.168
      -1.075
      -0.712
      -0.212
       0.293
       0.697
       0.939
       0.967
       0.722
       0.214
      -0.370
      -0.734
      -0.762
      -0.718
      -0.987
      -1.569
      -1.930
      -1.460
      -0.089
       1.578
       2.724
       2.883
       2.141
       0.953
      -0.147
      -0.746
      -0.658
      -0.018
       0.715
       0.951
       0.351
      -0.850
      -1.878
      -1.896
      -0.631
       1.288
       2.649
       2.494
       0.878
      -1.130
      -2.254
      -1.960
      -0.796
       0.151
       0.181
      -0.468
      -0.903
      -0.451
       0.663
       1.462
       1.078
      -0.408
      -1.912
      -2.163
      -0.766
       1.396
       2.812
       2.501
       0.741
      -1.225
      -2.164
      -1.677
      -0.285
       1.091
       1.764
       1.611
       0.985
       0.385
       0.118
       0.149
       0.212
       0.063
      -0.371
      -1.001
      -1.629
      -1.978
      -1.803
      -1.148
      -0.439
      -0.140
      -0.216
      -0.056
       0.912
       2.490
       3.679
       3.452
       1.616
      -0.986
      -3.078
      -3.777
      -3.023
      -1.447
       0.080
       0.908
       0.896
       0.397
      -0.020
       0.043
       0.573
       1.170
       1.284
       0.597
      -0.657
      -1.696
      -1.695
      -0.461
       1.325
       2.606
       2.726
       1.765
       0.239
      -1.354
      -2.635
      -3.200
      -2.690
      -1.191
       0.546
       1.529
       1.329
       0.454
      -0.148
       0.040
       0.766
       1.423
       1.605
       1.254
       0.483
      -0.523
      -1.462
      -1.928
      -1.622
      -0.563
       0.851
       1.968
       2.172
       1.267
      -0.273
      -1.513
      -1.740
      -1.060
      -0.289
      -0.157
      -0.577
      -0.747
      -0.022
       1.323
       2.213
       1.703
      -0.127
      -2.152
      -3.064
      -2.385
      -0.765
       0.652
       1.188
       1.055
       0.930
       1.186
       1.567
       1.551
       0.931
       0.021
      -0.620
      -0.648
      -0.165
       0.384
       0.550
       0.212
      -0.359
      -0.777
      -0.902
      -0.924
      -1.073
      -1.281
      -1.233
      -0.768
      -0.126
       0.318
       0.516
       0.796
       1.372
       1.894
       1.647
       0.301
      -1.571
      -2.795
      -2.506
      -0.835
       1.213
       2.524
       2.590
       1.683
       0.498
      -0.349
      -0.601
      -0.367
       0.017
       0.174
      -0.103
      -0.692
      -1.181
      -1.157
      -0.545
       0.308
       0.900
       0.942
       0.479
      -0.240
      -0.920
      -1.286
      -1.138
      -0.510
       0.260
       0.745
       0.794
       0.636
       0.568
       0.586
       0.436
       0.014
      -0.424
      -0.523
      -0.235
       0.123
       0.220
       0.002
      -0.344
      -0.585
      -0.530
      -0.048
       0.775
       1.462
       1.335
       0.121
      -1.586
      -2.629
      -2.191
      -0.503
       1.293
       1.988
       1.186
      -0.407
      -1.505
      -1.214
       0.273
       1.831
       2.292
       1.354
      -0.243
      -1.382
      -1.442
      -0.667
       0.179
       0.468
       0.115
      -0.487
      -0.853
      -0.762
      -0.327
       0.209
       0.697
       1.076
       1.234
       0.963
       0.139
      -1.035
      -2.014
      -2.207
      -1.371
       0.168
       1.621
       2.176
       1.540
       0.186
      -0.958
      -1.154
      -0.325
       0.989
       2.029
       2.178
       1.197
      -0.609
      -2.374
      -3.072
      -2.256
      -0.512
       0.940
       1.236
       0.525
      -0.278
      -0.346
       0.406
       1.362
       1.773
       1.338
       0.339
      -0.673
      -1.294
      -1.428
      -1.134
      -0.475
       0.393
       1.052
       0.976
       0.009
      -1.301
      -2.008
      -1.539
      -0.197
       1.120
       1.694
       1.474
       0.890
       0.340
      -0.064
      -0.341
      -0.454
      -0.346
      -0.098
       0.080
       0.035
      -0.188
      -0.424
      -0.550
      -0.572
      -0.573
      -0.592
      -0.523
      -0.165
       0.547
       1.315
       1.589
       1.034
      -0.056
      -0.874
      -0.727
       0.322
       1.410
       1.559
       0.498
      -1.100
      -2.200
      -2.223
      -1.376
      -0.324
       0.407
       0.748
       0.960
       1.265
       1.589
       1.613
       1.083
       0.085
      -0.947
      -1.525
      -1.443
      -0.883
      -0.237
       0.168
       0.224
       0.007
      -0.309
      -0.513
      -0.439
      -0.115
       0.216
       0.276
       0.020
      -0.307
      -0.399
      -0.178
       0.139
       0.266
       0.151
       0.044
       0.250
       0.798
       1.313
       1.280
       0.528
      -0.516
      -1.108
      -0.834
      -0.010
       0.573
       0.358
      -0.503
      -1.313
      -1.456
      -0.872
      -0.014
       0.602
       0.786
       0.673
       0.464
       0.255
       0.105
       0.131
       0.398
       0.746
       0.877
       0.647
       0.214
      -0.180
      -0.490
      -0.829
      -1.180
      -1.292
      -0.965
      -0.333
       0.241
       0.522
       0.569
       0.554
       0.542
       0.475
       0.306
       0.055
      -0.249
      -0.610
      -1.000
      -1.267
      -1.163
      -0.547
       0.411
       1.243
       1.478
       0.977
       0.029
      -0.818
      -1.082
      -0.631
       0.229
       0.939
       1.071
       0.634
       0.044
      -0.237
      -0.058
       0.353
       0.649
       0.654
       0.422
       0.082
      -0.266
      -0.524
      -0.602
      -0.527
      -0.496
      -0.688
      -1.010
      -1.121
      -0.800
      -0.237
       0.115
      -0.002
      -0.401
      -0.657
      -0.479
       0.133
       0.977
       1.724
       1.959
       1.379
       0.101
      -1.238
      -1.847
      -1.351
      -0.081
       1.171
       1.706
       1.349
       0.494
      -0.223
      -0.364
       0.040
       0.567
       0.735
       0.335
      -0.460
      -1.233
      -1.569
      -1.266
      -0.442
       0.496
       1.042
       0.898
       0.227
      -0.418
      -0.514
      -0.020
       0.553
       0.573
      -0.137
      -1.109
      -1.620
      -1.312
      -0.447
       0.394
       0.832
       0.883
       0.727
       0.430
      -0.021
      -0.494
      -0.648
      -0.211
       0.677
       1.452
       1.516
       0.725
      -0.455
      -1.260
      -1.215
      -0.516
       0.144
       0.191
      -0.310
      -0.759
      -0.621
       0.077
       0.825
       1.103
       0.759
       0.016
      -0.725
      -1.093
      -0.902
      -0.276
       0.385
       0.669
       0.473
       0.064
