Origin Time       11/11/2013 20:11:30
Lat.              28.4 N	
Long.             77.2 E	
Depth (Km)         10.0
Magnitude         3.3
 Region           DELHI                                                            
 Above details taken from IMD 
     
Station Code      DLU
Station Lat.       28.691  N
Station Long.      77.212  E
Station Height(m)  220.0
Site Class        C   Vs30 between 200 m/sec to 375 m/sec *  
Record Time       11.11.2013 20:11:07.139
Sampling Rate     200. Hz
 Record Duration   87.735 Sec.
 Direction         E-W (E positive)
Max. Acceleration     17.561 cm/sec**2
     
  * For reference see Site Classification link of website 
     
 Base Line Corrected and Low Pass Filtered (Cut Off at 35 Hz) Time History
 Acceleration data in cm/sec**2
    
[...]
       0.059
       0.031
      -0.032
      -0.094
      -0.111
      -0.072
      -0.011
       0.026
       0.022
       0.001
      -0.001
       0.029
       0.067
       0.079
       0.054
       0.016
      -0.006
      -0.003
       0.000
      -0.021
      -0.067
      -0.103
      -0.094
      -0.041
       0.024
       0.059
       0.053
       0.028
       0.016
       0.028
       0.047
       0.046
       0.018
      -0.021
      -0.048
      -0.055
      -0.050
      -0.053
      -0.066
      -0.074
      -0.057
      -0.008
       0.055
       0.099
       0.103
       0.076
       0.044
       0.027
       0.021
       0.004
      -0.036
      -0.085
      -0.107
      -0.084
      -0.030
       0.014
       0.024
       0.011
       0.006
       0.029
       0.070
       0.093
       0.075
       0.023
      -0.025
      -0.040
      -0.026
      -0.013
      -0.027
      -0.058
      -0.075
      -0.052
      -0.001
       0.042
       0.047
       0.020
      -0.003
       0.009
       0.049
       0.077
       0.054
      -0.016
      -0.092
      -0.124
      -0.097
      -0.040
       0.000
      -0.003
      -0.029
      -0.035
       0.005
       0.068
       0.108
       0.097
       0.052
       0.014
       0.007
       0.014
       0.001
      -0.047
      -0.107
      -0.133
      -0.101
      -0.029
       0.036
       0.063
       0.055
       0.042
       0.049
       0.067
       0.069
       0.033
      -0.028
      -0.080
      -0.092
      -0.066
      -0.034
      -0.025
      -0.039
      -0.043
      -0.014
       0.045
       0.094
       0.101
       0.062
       0.012
      -0.012
       0.003
       0.032
       0.043
       0.022
      -0.015
      -0.045
      -0.052
      -0.044
      -0.034
      -0.028
      -0.016
       0.012
       0.051
       0.079
       0.079
       0.050
       0.016
       0.000
       0.002
       0.002
      -0.020
      -0.059
      -0.086
      -0.076
      -0.027
       0.031
       0.064
       0.062
       0.045
       0.040
       0.055
       0.071
       0.061
       0.018
      -0.037
      -0.072
      -0.072
      -0.050
      -0.031
      -0.029
      -0.034
      -0.022
       0.013
       0.053
       0.071
       0.055
       0.018
      -0.008
      -0.008
       0.007
       0.009
      -0.018
      -0.060
      -0.085
      -0.070
      -0.025
       0.019
       0.035
       0.022
       0.005
       0.011
       0.040
       0.069
       0.071
       0.041
       0.003
      -0.014
      -0.011
      -0.012
      -0.037
      -0.080
      -0.106
      -0.083
      -0.016
       0.053
       0.081
       0.064
       0.032
       0.023
       0.040
       0.053
       0.031
      -0.027
      -0.084
      -0.099
      -0.066
      -0.018
       0.003
      -0.009
      -0.023
      -0.006
       0.043
       0.088
       0.093
       0.054
       0.004
      -0.018
      -0.003
       0.025
       0.029
      -0.005
      -0.054
      -0.080
      -0.061
      -0.013
       0.031
       0.046
       0.038
       0.031
       0.042
       0.064
       0.068
       0.041
      -0.005
      -0.040
      -0.045
      -0.029
      -0.018
      -0.032
      -0.063
      -0.077
      -0.049
       0.011
       0.063
       0.073
       0.045
       0.017
       0.019
       0.046
       0.062
       0.038
      -0.021
      -0.076
      -0.091
      -0.063
      -0.020
       0.005
       0.005
       0.002
       0.015
       0.044
       0.066
       0.060
       0.027
      -0.012
      -0.033
      -0.031
      -0.025
      -0.034
      -0.054
      -0.062
      -0.040
       0.004
       0.045
       0.057
       0.039
       0.016
       0.016
       0.044
       0.074
       0.076
       0.042
      -0.006
      -0.036
      -0.038
      -0.029
      -0.033
      -0.058
      -0.080
      -0.066
      -0.008
       0.063
       0.099
       0.082
       0.036
       0.005
       0.008
       0.029
       0.031
      -0.002
      -0.050
      -0.078
      -0.063
      -0.023
       0.009
       0.015
       0.009
       0.017
       0.046
       0.077
       0.082
       0.050
       0.001
      -0.032
      -0.031
      -0.008
       0.007
      -0.010
      -0.049
      -0.074
      -0.056
       0.001
       0.056
       0.074
       0.051
       0.022
       0.022
       0.055
       0.085
       0.074
       0.021
      -0.040
      -0.066
      -0.047
      -0.012
       0.003
      -0.012
      -0.031
      -0.022
       0.022
       0.072
       0.092
       0.073
       0.038
       0.019
       0.026
       0.035
       0.018
      -0.034
      -0.093
      -0.114
      -0.079
      -0.008
       0.053
       0.072
       0.055
       0.036
       0.042
       0.066
       0.076
       0.050
      -0.003
      -0.049
      -0.058
      -0.034
      -0.010
      -0.010
      -0.032
      -0.045
      -0.025
       0.024
       0.065
       0.070
       0.040
       0.010
       0.010
       0.036
       0.059
       0.049
       0.006
      -0.044
      -0.071
      -0.066
      -0.046
      -0.027
      -0.016
       0.001
       0.031
       0.064
       0.081
       0.068
       0.035
       0.010
       0.008
       0.023
       0.026
      -0.002
      -0.053
      -0.093
      -0.091
      -0.044
       0.020
       0.065
       0.078
       0.073
       0.075
       0.091
       0.101
       0.079
       0.024
      -0.041
      -0.079
      -0.076
      -0.048
      -0.024
      -0.021
      -0.026
      -0.016
       0.019
       0.061
       0.080
       0.061
       0.022
      -0.005
      -0.003
       0.016
       0.020
      -0.010
      -0.058
      -0.083
      -0.059
      -0.001
       0.045
       0.047
       0.010
      -0.022
      -0.010
       0.044
       0.099
       0.109
       0.068
       0.009
      -0.028
      -0.034
      -0.034
      -0.052
      -0.083
      -0.095
      -0.064
       0.000
       0.058
       0.078
       0.059
       0.036
       0.037
       0.059
       0.071
       0.050
      -0.001
      -0.052
      -0.072
      -0.056
      -0.026
      -0.009
      -0.012
      -0.015
       0.005
       0.047
       0.087
       0.094
       0.062
       0.013
      -0.020
      -0.018
       0.005
       0.019
       0.005
      -0.027
      -0.044
      -0.029
       0.010
       0.046
       0.054
       0.038
       0.020
       0.023
       0.041
       0.050
       0.032
      -0.002
      -0.025
      -0.023
      -0.007
      -0.003
      -0.025
      -0.053
      -0.055
      -0.018
       0.038
       0.077
       0.078
       0.057
       0.046
       0.057
       0.071
       0.054
      -0.003
      -0.078
      -0.128
      -0.127
      -0.086
      -0.041
      -0.017
      -0.006
       0.022
       0.075
       0.118
       0.104
       0.023
      -0.064
      -0.072
       0.016
       0.106
       0.076
      -0.079
      -0.218
      -0.184
       0.026
       0.237
       0.244
      -0.006
      -0.345
      -0.486
      -0.250
       0.249
       0.625
       0.528
      -0.036
      -0.665
      -0.898
      -0.613
      -0.092
       0.282
       0.382
       0.395
       0.573
       0.941
       1.242
       1.113
       0.350
      -0.887
      -2.023
      -2.335
      -1.495
       0.050
       1.335
       1.634
       1.002
       0.106
      -0.392
      -0.299
       0.093
       0.318
       0.134
      -0.242
      -0.289
       0.333
       1.318
       1.791
       0.996
      -0.954
      -2.944
      -3.586
      -2.283
       0.234
       2.420
       3.101
       2.326
       1.141
       0.500
       0.387
       0.037
      -1.005
      -2.185
      -2.451
      -1.411
       0.169
       1.090
       0.843
      -0.030
      -0.553
      -0.190
       0.768
       1.488
       1.299
       0.269
      -0.828
      -1.192
      -0.723
      -0.059
       0.123
      -0.175
      -0.327
       0.148
       0.976
       1.346
       0.736
      -0.534
      -1.564
      -1.632
      -0.741
       0.463
       1.247
       1.298
       0.821
       0.236
      -0.175
      -0.379
      -0.487
      -0.653
      -0.972
      -1.344
      -1.411
      -0.814
       0.349
       1.425
       1.734
       1.234
       0.523
       0.123
      -0.098
      -0.649
      -1.591
      -2.162
      -1.411
       0.754
       3.178
       4.166
       2.754
      -0.481
      -3.683
      -4.903
      -3.402
      -0.151
       2.889
       4.154
       3.390
       1.478
      -0.447
      -1.691
      -2.089
      -1.764
      -0.983
      -0.156
       0.286
       0.206
      -0.074
      -0.035
       0.530
       1.276
       1.553
       0.931
      -0.416
      -1.744
      -2.231
      -1.606
      -0.385
       0.580
       0.839
       0.668
       0.644
       0.966
       1.260
       1.009
       0.107
      -1.026
      -1.736
      -1.484
      -0.147
       1.719
       2.921
       2.361
       0.081
      -2.463
      -3.437
      -2.139
       0.456
       2.539
       2.841
       1.414
      -0.590
      -1.824
      -1.694
      -0.691
       0.158
       0.293
       0.095
       0.298
       0.998
       1.420
       0.797
      -0.672
      -1.886
      -1.906
      -0.854
       0.274
       0.608
       0.159
      -0.328
      -0.158
       0.654
       1.374
       1.164
      -0.127
      -1.694
      -2.372
      -1.600
       0.117
       1.676
       2.231
       1.687
       0.564
      -0.419
      -0.719
      -0.254
       0.501
       0.806
       0.292
      -0.681
      -1.346
      -1.258
      -0.630
      -0.017
       0.233
       0.208
       0.247
       0.588
       1.137
       1.494
       1.238
       0.279
      -1.004
      -1.963
      -2.118
      -1.503
      -0.611
       0.035
       0.313
       0.567
       1.185
       2.076
       2.541
       1.788
      -0.278
      -2.692
      -3.923
      -2.949
      -0.112
       2.934
       4.253
       2.951
      -0.140
      -2.955
      -3.620
      -1.826
       0.940
       2.588
       2.111
       0.284
      -1.206
      -1.318
      -0.380
       0.515
       0.608
      -0.007
      -0.681
      -0.830
      -0.348
       0.373
       0.814
       0.777
       0.504
       0.339
       0.326
       0.184
      -0.324
      -1.031
      -1.423
      -1.090
      -0.138
       0.846
       1.231
       0.796
      -0.136
      -0.893
      -0.850
       0.154
       1.570
       2.333
       1.524
      -0.846
      -3.545
      -4.790
      -3.533
      -0.347
       2.955
       4.681
       4.375
       2.777
       0.923
      -0.642
      -1.919
      -2.990
      -3.604
      -3.221
      -1.536
       0.982
       3.127
       3.744
       2.663
       0.853
      -0.433
      -0.703
      -0.453
      -0.434
      -0.874
      -1.415
      -1.625
      -1.379
      -0.806
      -0.057
       0.760
       1.496
       1.926
       1.823
       1.107
       0.004
      -0.941
      -1.191
      -0.704
      -0.032
       0.219
       0.019
      -0.124
       0.141
       0.492
       0.251
      -0.784
      -1.921
      -2.075
      -0.745
       1.456
       3.157
       3.186
       1.411
      -1.073
      -2.636
      -2.303
      -0.551
       1.087
       1.326
       0.177
      -1.221
      -1.699
      -0.957
       0.442
       1.651
       2.028
       1.353
      -0.074
      -1.479
      -1.996
      -1.270
       0.199
       1.342
       1.296
       0.096
      -1.329
      -1.895
      -1.219
       0.122
       1.148
       1.317
       0.880
       0.446
       0.290
       0.188
      -0.084
      -0.331
      -0.193
       0.289
       0.600
       0.338
      -0.292
      -0.684
      -0.481
       0.096
       0.525
       0.458
      -0.061
      -0.668
      -0.874
      -0.376
       0.642
       1.529
       1.627
       0.777
      -0.597
      -1.823
      -2.370
      -2.025
      -0.930
       0.474
       1.642
       2.178
       1.951
       1.020
      -0.395
      -1.826
      -2.590
      -2.188
      -0.806
       0.675
       1.312
       0.834
      -0.267
      -1.269
      -1.729
      -1.516
      -0.615
       0.827
       2.284
       2.885
       2.004
       0.019
      -1.589
      -1.278
       1.110
       3.898
       4.781
       2.717
      -1.153
      -4.335
      -4.839
      -2.521
       1.028
       3.740
       4.363
       2.975
       0.613
      -1.551
      -2.885
      -3.369
      -3.180
      -2.379
      -1.061
       0.405
       1.479
       1.827
       1.477
       0.637
      -0.478
      -1.562
      -2.142
      -1.842
      -0.767
       0.526
       1.512
       2.033
       2.125
       1.721
       0.760
      -0.499
      -1.520
      -1.943
      -1.811
      -1.283
      -0.310
       1.175
       2.799
       3.719
       3.255
       1.516
      -0.627
      -2.202
      -2.781
      -2.600
      -2.143
      -1.592
      -0.655
       1.017
       3.139
       4.597
       4.161
       1.553
      -2.123
      -4.973
      -5.458
      -3.316
       0.223
       3.041
       3.364
       0.993
      -2.425
      -4.545
      -4.116
      -1.777
       0.847
       2.605
       3.231
       2.625
       0.486
      -2.931
      -6.023
      -6.466
      -3.108
       2.630
       7.265
       7.511
       2.671
      -4.558
      -9.534
      -8.552
      -1.324
       8.645
      16.175
      17.561
      12.496
       3.609
      -5.420
     -11.429
     -12.487
      -8.427
      -1.332
       4.956
       6.825
       3.201
      -3.682
      -9.679
     -11.199
      -7.056
       1.118
       9.759
      14.992
      14.351
       7.845
      -2.067
     -11.482
     -16.508
     -14.831
      -6.978
       3.495
      11.540
      13.444
       9.112
       2.005
      -3.454
      -5.017
      -3.734
      -2.256
      -2.027
      -2.058
      -0.373
       3.408
       6.988
       7.053
       2.284
      -5.040
     -10.386
     -10.208
      -4.418
       3.728
       9.925
      11.415
       8.160
       2.210
      -3.882
      -8.341
     -10.454
     -10.090
      -7.235
      -2.114
       4.186
       9.438
      11.130
       8.179
       2.085
      -3.733
      -6.125
      -4.237
       0.077
       3.607
       3.787
       0.090
      -5.782
     -10.826
     -12.301
      -9.198
      -2.835
       3.893
       8.256
       9.265
       7.923
       6.064
       4.819
       3.940
       2.395
      -0.370
      -3.535
      -5.180
      -3.709
       0.509
       4.758
       5.577
       1.395
      -5.927
     -12.086
     -13.225
      -8.544
      -0.737
       5.932
       8.421
       6.642
       3.107
       0.976
       1.910
       5.088
       7.887
       7.735
       3.868
      -2.141
      -7.317
      -8.990
      -6.297
      -0.763
       4.399
       6.011
       2.804
      -3.688
      -9.896
     -12.318
      -9.663
      -3.570
       2.635
       6.189
       6.495
       5.009
       3.712
       3.522
       3.867
       3.567
       2.014
      -0.397
      -2.689
      -3.963
      -3.759
      -2.190
       0.008
       1.677
       1.873
       0.559
      -1.248
      -2.051
      -0.780
       2.477
       6.285
       8.404
       7.036
       2.136
      -4.231
      -8.935
      -9.671
      -6.412
      -1.459
       1.973
       1.821
      -1.411
      -4.917
      -5.531
      -2.105
       3.516
       7.804
       8.192
       4.878
       0.413
      -2.459
      -2.811
      -1.807
      -1.175
      -1.385
      -1.295
       0.382
       3.281
       5.192
       3.884
      -0.669
      -5.797
      -7.962
      -5.412
       0.539
       6.425
       8.771
       5.971
      -0.889
      -8.418
     -12.443
     -10.249
      -2.324
       7.710
      15.075
      16.355
      10.960
       1.108
      -9.129
     -15.267
     -14.324
      -6.687
       3.495
      10.410
      10.203
       3.476
      -5.309
     -10.943
     -10.593
      -4.915
       2.978
       9.457
      12.070
      10.364
       5.737
       0.501
      -3.284
      -4.670
      -4.046
      -2.756
      -2.236
      -3.018
      -4.291
      -4.509
      -2.699
       0.645
       3.880
       5.370
       4.439
       1.564
      -1.967
      -4.519
      -4.742
      -2.370
       1.382
       4.452
       5.288
       3.765
       0.987
      -1.599
      -2.975
      -2.898
      -1.933
      -1.086
      -1.048
      -1.595
      -1.843
      -1.196
       0.051
       1.170
       1.909
       2.676
       3.747
       4.483
       3.651
       0.707
      -3.198
      -5.674
      -4.784
      -0.638
       4.437
       7.333
       6.238
       1.873
      -3.066
      -5.865
      -5.554
      -3.128
      -0.334
       1.662
       2.648
       2.818
       2.225
       0.854
      -0.993
      -2.649
      -3.504
      -3.366
      -2.404
      -0.903
       0.798
       2.215
       2.779
       2.213
       0.919
      -0.125
      -0.131
       0.669
       1.076
       0.057
      -2.048
      -3.544
      -2.811
       0.071
       3.121
       4.048
       2.277
      -0.523
      -1.886
      -0.656
       2.086
       3.883
       2.781
      -1.187
      -5.910
      -8.506
      -7.138
      -2.181
       3.914
       7.948
       7.767
       3.540
      -2.277
      -6.373
      -6.604
      -3.275
       1.207
       4.046
       3.853
       1.302
      -1.599
      -2.913
      -1.902
       0.654
       3.020
       3.691
       2.531
       0.943
       0.656
       2.016
       3.449
       2.882
      -0.106
      -3.633
      -5.107
      -3.474
       0.030
       3.042
       3.748
       1.769
      -1.857
      -5.247
      -6.560
      -5.001
      -1.349
       2.462
       4.519
       4.030
       1.581
      -1.445
      -3.667
      -4.187
      -2.821
      -0.226
       2.264
       3.332
       2.534
       0.599
      -1.135
      -1.694
      -1.044
       0.106
       0.941
       1.029
       0.445
      -0.330
      -0.617
       0.058
       1.473
       2.626
       2.418
       0.695
      -1.369
      -2.108
      -0.768
       1.793
       3.780
       3.907
       2.292
       0.098
      -1.574
      -2.366
      -2.466
      -2.078
      -1.255
      -0.106
       1.032
       1.642
       1.225
      -0.420
      -2.885
      -5.098
      -5.755
      -4.089
      -0.494
       3.481
       5.891
       5.493
       2.521
      -1.342
      -3.831
      -3.378
      -0.140
       3.929
       6.215
       5.140
       1.199
      -3.430
      -6.353
      -6.351
      -3.815
      -0.239
       2.677
       3.799
       3.000
       1.160
      -0.378
      -0.664
       0.219
       1.272
       1.395
       0.251
      -1.457
      -2.462
      -1.783
       0.529
       3.217
       4.474
       3.172
      -0.162
      -3.548
      -4.955
      -3.797
      -1.233
       0.877
       1.372
       0.402
      -1.076
      -2.225
      -2.765
      -2.699
      -1.884
      -0.143
       2.181
       3.981
       3.976
       1.747
      -1.708
      -4.440
      -4.725
      -2.114
       2.271
       6.301
       7.911
       6.202
