Origin Time       05/3/2012 07:41:05	
Lat.              28.7 N	
Long.             76.6 E	
Depth (Km)         14.0
Magnitude         4.9
 Region           Haryana-Delhi-Border-Region                                      
 Above details taken from IMD 
     
Station Code      DLU
Station Lat.       28.691  N
Station Long.      77.212  E
Station Height(m)  220.0
Site Class        C   Vs30 between 200 m/sec to 375 m/sec *  
Record Time       05.03.2012 07:40:46.379
Sampling Rate     200. Hz
 Record Duration  125.330 Sec.
 Direction         E-W (E positive)
Max. Acceleration    -10.321 cm/sec**2
     
  * For reference see Site Classification link of website 
     
 Base Line Corrected and Low Pass Filtered (Cut Off at 35 Hz) Time History
 Acceleration data in cm/sec**2
    
[...]
       1.035
       1.943
       2.490
       2.561
       2.152
       1.361
       0.391
      -0.501
      -1.073
      -1.179
      -0.799
      -0.050
       0.829
       1.536
       1.820
       1.601
       1.009
       0.305
      -0.262
      -0.576
      -0.665
      -0.614
      -0.462
      -0.191
       0.187
       0.553
       0.709
       0.532
       0.105
      -0.315
      -0.490
      -0.382
      -0.170
      -0.077
      -0.203
      -0.500
      -0.844
      -1.117
      -1.215
      -1.054
      -0.629
      -0.076
       0.358
       0.457
       0.182
      -0.284
      -0.642
      -0.648
      -0.242
       0.431
       1.114
       1.567
       1.651
       1.349
       0.741
      -0.021
      -0.715
      -1.106
      -1.045
      -0.565
       0.126
       0.751
       1.084
       1.010
       0.542
      -0.188
      -0.962
      -1.564
      -1.873
      -1.885
      -1.648
      -1.177
      -0.465
       0.424
       1.282
       1.821
       1.839
       1.362
       0.627
      -0.056
      -0.464
      -0.537
      -0.350
      -0.051
       0.198
       0.277
       0.140
      -0.163
      -0.508
      -0.758
      -0.830
      -0.742
      -0.589
      -0.485
      -0.492
      -0.596
      -0.730
      -0.821
      -0.835
      -0.794
      -0.756
      -0.760
      -0.771
      -0.710
      -0.550
      -0.389
      -0.356
      -0.429
      -0.368
       0.075
       0.864
       1.611
       1.851
       1.435
       0.656
       0.014
      -0.156
       0.134
       0.613
       0.983
       1.070
       0.846
       0.387
      -0.201
      -0.821
      -1.393
      -1.812
      -1.935
      -1.623
      -0.838
       0.299
       1.517
       2.455
       2.774
       2.309
       1.205
      -0.069
      -0.923
      -0.983
      -0.320
       0.620
       1.323
       1.517
       1.250
       0.751
       0.253
      -0.101
      -0.262
      -0.266
      -0.199
      -0.158
      -0.216
      -0.421
      -0.774
      -1.155
      -1.304
      -0.977
      -0.193
       0.670
       1.112
       0.918
       0.351
      -0.076
      -0.038
       0.356
       0.717
       0.757
       0.531
       0.359
       0.533
       1.072
       1.686
       1.966
       1.648
       0.801
      -0.185
      -0.816
      -0.762
      -0.033
       1.044
       2.008
       2.491
       2.382
       1.841
       1.140
       0.451
      -0.236
      -0.993
      -1.744
      -2.224
      -2.177
      -1.611
      -0.837
      -0.247
      -0.034
      -0.103
      -0.216
      -0.173
       0.086
       0.490
       0.878
       1.049
       0.829
       0.158
      -0.866
      -2.018
      -3.026
      -3.655
      -3.789
      -3.454
      -2.796
      -1.994
      -1.210
      -0.582
      -0.225
      -0.185
      -0.354
      -0.460
      -0.239
       0.340
       0.997
       1.356
       1.264
       0.916
       0.650
       0.643
       0.796
       0.891
       0.822
       0.658
       0.531
       0.492
       0.474
       0.364
       0.107
      -0.247
      -0.540
      -0.580
      -0.247
       0.398
       1.098
       1.490
       1.262
       0.314
      -1.154
      -2.664
      -3.639
      -3.684
      -2.802
      -1.400
      -0.057
       0.792
       1.061
       0.979
       0.873
       0.912
       1.018
       0.983
       0.679
       0.187
      -0.259
      -0.449
      -0.360
      -0.165
      -0.058
      -0.064
      -0.016
       0.253
       0.689
       1.023
       0.980
       0.515
      -0.145
      -0.633
      -0.642
      -0.085
       0.836
       1.693
       2.043
       1.707
       0.893
       0.066
      -0.359
      -0.264
       0.158
       0.590
       0.816
       0.822
       0.748
       0.752
       0.880
       1.007
       0.892
       0.335
      -0.635
      -1.699
      -2.366
      -2.246
      -1.285
       0.176
       1.557
       2.311
       2.181
       1.310
       0.149
      -0.770
      -1.082
      -0.736
       0.016
       0.743
       1.026
       0.671
      -0.174
      -1.089
      -1.648
      -1.677
      -1.294
      -0.751
      -0.265
       0.040
       0.091
      -0.145
      -0.610
      -1.114
      -1.386
      -1.212
      -0.574
       0.302
       1.048
       1.355
       1.130
       0.520
      -0.222
      -0.904
      -1.456
      -1.863
      -2.064
      -1.936
      -1.407
      -0.567
       0.352
       1.119
       1.619
       1.839
       1.791
       1.503
       1.087
       0.760
       0.731
       1.032
       1.463
       1.715
       1.583
       1.082
       0.396
      -0.261
      -0.747
      -1.019
      -1.084
      -0.948
      -0.599
      -0.048
       0.610
       1.179
       1.451
       1.333
       0.904
       0.343
      -0.196
      -0.650
      -1.014
      -1.277
      -1.414
      -1.422
      -1.361
      -1.325
      -1.368
      -1.439
      -1.387
      -1.060
      -0.447
       0.263
       0.778
       0.891
       0.629
       0.218
      -0.082
      -0.142
       0.016
       0.287
       0.540
       0.629
       0.441
      -0.001
      -0.475
      -0.653
      -0.321
       0.446
       1.299
       1.823
       1.778
       1.205
       0.348
      -0.508
      -1.140
      -1.401
      -1.216
      -0.632
       0.138
       0.771
       1.013
       0.834
       0.440
       0.111
      -0.003
       0.035
       0.020
      -0.230
      -0.751
      -1.404
      -1.950
      -2.164
      -1.942
      -1.356
      -0.594
       0.159
       0.798
       1.270
       1.489
       1.332
       0.760
      -0.058
      -0.763
      -0.987
      -0.580
       0.275
       1.140
       1.538
       1.225
       0.327
      -0.749
      -1.571
      -1.911
      -1.789
      -1.366
      -0.826
      -0.344
      -0.068
      -0.081
      -0.322
      -0.590
      -0.643
      -0.348
       0.239
       0.902
       1.382
       1.493
       1.193
       0.596
      -0.072
      -0.562
      -0.727
      -0.575
      -0.231
       0.151
       0.436
       0.515
       0.337
      -0.008
      -0.274
      -0.182
       0.355
       1.118
       1.701
       1.758
       1.177
       0.101
      -1.152
      -2.178
      -2.614
      -2.306
      -1.456
      -0.575
      -0.185
      -0.455
      -1.087
      -1.562
      -1.553
      -1.138
      -0.658
      -0.398
      -0.366
      -0.318
       0.047
       0.885
       2.096
       3.320
       4.058
       3.905
       2.799
       1.128
      -0.437
      -1.307
      -1.299
      -0.687
       0.049
       0.557
       0.767
       0.803
       0.765
       0.620
       0.251
      -0.392
      -1.183
      -1.818
      -1.951
      -1.389
      -0.264
       0.974
       1.777
       1.832
       1.233
       0.380
      -0.318
      -0.663
      -0.675
      -0.443
      -0.015
       0.568
       1.171
       1.551
       1.494
       0.976
       0.193
      -0.583
      -1.182
      -1.561
      -1.695
      -1.470
      -0.750
       0.424
       1.714
       2.596
       2.651
       1.806
       0.348
      -1.257
      -2.575
      -3.321
      -3.380
      -2.813
      -1.887
      -1.037
      -0.693
      -1.008
      -1.718
      -2.282
      -2.241
      -1.505
      -0.372
       0.731
       1.528
       1.995
       2.246
       2.356
       2.301
       2.027
       1.536
       0.872
       0.058
      -0.895
      -1.873
      -2.569
      -2.618
      -1.882
      -0.630
       0.601
       1.357
       1.531
       1.332
       1.032
       0.754
       0.445
       0.010
      -0.544
      -1.066
      -1.337
      -1.207
      -0.718
      -0.130
       0.194
      -0.011
      -0.729
      -1.646
      -2.275
      -2.165
      -1.080
       0.874
       3.185
       5.020
       5.541
       4.369
       1.898
      -0.822
      -2.628
      -2.867
      -1.675
       0.241
       2.092
       3.384
       3.991
       4.001
       3.562
       2.840
       2.038
       1.340
       0.798
       0.296
      -0.307
      -0.969
      -1.395
      -1.231
      -0.368
       0.911
       2.076
       2.668
       2.553
       1.935
       1.166
       0.526
       0.102
      -0.208
      -0.616
      -1.319
      -2.377
      -3.609
      -4.611
      -4.935
      -4.372
      -3.138
      -1.795
      -0.917
      -0.757
      -1.115
      -1.501
      -1.452
      -0.796
       0.282
       1.362
       1.989
       1.842
       0.874
      -0.618
      -2.058
      -2.835
      -2.654
      -1.755
      -0.804
      -0.472
      -0.993
      -2.024
      -2.900
      -3.073
      -2.408
      -1.196
       0.087
       1.052
       1.543
       1.614
       1.417
       1.117
       0.862
       0.767
       0.850
       0.967
       0.841
       0.211
      -0.981
      -2.470
      -3.714
      -4.098
      -3.252
      -1.320
       1.013
       2.836
       3.486
       2.889
       1.518
       0.079
      -0.838
      -0.941
      -0.272
       0.820
       1.794
       2.140
       1.671
       0.658
      -0.323
      -0.752
      -0.458
       0.338
       1.224
       1.849
       2.086
       2.050
       2.003
       2.182
       2.636
       3.151
       3.345
       2.891
       1.720
       0.083
      -1.537
      -2.615
      -2.775
      -1.953
      -0.488
       0.953
       1.650
       1.223
      -0.088
      -1.526
      -2.278
      -1.999
      -0.992
       0.070
       0.637
       0.582
       0.135
      -0.385
      -0.764
      -0.913
      -0.792
      -0.398
       0.210
       0.907
       1.575
       2.183
       2.779
       3.377
       3.839
       3.860
       3.139
       1.629
      -0.316
      -2.036
      -2.900
      -2.652
      -1.546
      -0.184
       0.822
       1.137
       0.782
       0.009
      -0.872
      -1.587
      -1.898
      -1.637
      -0.819
       0.257
       1.126
       1.489
       1.471
       1.509
       1.920
       2.541
       2.797
       2.152
       0.545
      -1.526
      -3.340
      -4.426
      -4.797
      -4.800
      -4.722
      -4.530
      -3.975
      -2.935
      -1.629
      -0.491
       0.162
       0.320
       0.183
      -0.047
      -0.231
      -0.204
       0.246
       1.185
       2.309
       3.010
       2.777
       1.626
       0.128
      -1.034
      -1.574
      -1.735
      -1.918
      -2.198
      -2.183
      -1.354
       0.431
       2.717
       4.704
       5.713
       5.491
       4.187
       2.147
      -0.213
      -2.405
      -3.839
      -3.971
      -2.612
      -0.214
       2.146
       3.230
       2.366
      -0.042
      -2.661
      -4.014
      -3.402
      -1.288
       1.069
       2.406
       2.100
       0.338
      -2.111
      -4.257
      -5.233
      -4.629
      -2.737
      -0.466
       1.169
       1.675
       1.283
       0.558
      -0.172
      -0.974
      -1.966
      -2.914
      -3.268
      -2.592
      -0.957
       1.082
       2.846
       3.899
       4.176
       3.854
       3.149
       2.192
       1.063
      -0.100
      -1.041
      -1.499
      -1.392
      -0.903
      -0.346
       0.048
       0.239
       0.301
       0.287
       0.189
      -0.006
      -0.284
      -0.623
      -1.011
      -1.399
      -1.654
      -1.575
      -0.988
       0.155
       1.713
       3.340
       4.550
       4.901
       4.200
       2.627
       0.690
      -0.967
      -1.819
      -1.692
      -0.845
       0.177
       0.845
       0.924
       0.566
       0.173
       0.117
       0.504
       1.115
       1.569
       1.570
       1.078
       0.308
      -0.408
      -0.786
      -0.692
      -0.152
       0.700
       1.687
       2.606
       3.208
       3.189
       2.258
       0.308
      -2.380
      -5.044
      -6.666
      -6.470
      -4.431
      -1.387
       1.378
       2.846
       2.777
       1.668
       0.255
      -0.983
      -1.926
      -2.566
      -2.776
      -2.345
      -1.182
       0.554
       2.500
       4.220
       5.295
       5.402
       4.436
       2.647
       0.611
      -1.019
      -1.836
      -1.843
      -1.347
      -0.726
      -0.248
      -0.028
      -0.040
      -0.179
      -0.375
      -0.708
      -1.383
      -2.532
      -4.000
      -5.341
      -6.053
      -5.852
      -4.807
      -3.284
      -1.799
      -0.826
      -0.573
      -0.816
      -0.985
      -0.533
       0.615
       1.933
       2.646
       2.326
       1.259
       0.264
       0.120
       1.067
       2.717
       4.369
       5.408
       5.546
       4.808
       3.396
       1.550
      -0.502
      -2.543
      -4.331
      -5.595
      -6.085
      -5.684
      -4.537
      -3.078
      -1.831
      -1.067
      -0.565
       0.228
       1.689
       3.560
       4.981
       5.059
       3.550
       1.123
      -0.996
      -1.762
      -0.925
       0.852
       2.446
       2.985
       2.360
       1.178
       0.241
      -0.012
       0.322
       0.865
       1.323
       1.665
       2.052
       2.627
       3.344
       3.912
       3.902
       3.018
       1.376
      -0.433
      -1.649
      -1.843
      -1.223
      -0.464
      -0.173
      -0.430
      -0.736
      -0.393
       0.981
       3.107
       5.103
       5.933
       5.039
       2.760
       0.203
      -1.416
      -1.569
      -0.761
      -0.196
      -0.966
      -3.342
      -6.584
      -9.338
     -10.321
      -8.922
      -5.464
      -1.047
       2.924
       5.305
       5.608
       4.071
       1.469
      -1.202
      -3.057
      -3.597
      -2.859
      -1.339
       0.286
       1.485
       2.051
       2.028
       1.508
       0.511
      -0.939
      -2.615
      -4.019
      -4.564
      -3.919
      -2.253
      -0.209
       1.417
       2.083
       1.766
       0.920
       0.144
      -0.234
      -0.364
      -0.689
      -1.522
      -2.707
      -3.660
      -3.785
      -2.937
      -1.577
      -0.474
      -0.152
      -0.529
      -1.028
      -1.070
      -0.506
       0.369
       1.162
       1.668
       1.842
       1.604
       0.838
      -0.353
      -1.439
      -1.692
      -0.763
       0.890
       2.211
       2.281
       0.981
      -0.954
      -2.468
      -2.841
      -1.975
      -0.242
       1.831
       3.770
       5.217
       5.976
       6.049
       5.623
       4.944
       4.183
       3.382
       2.514
       1.560
       0.528
      -0.598
      -1.896
      -3.445
      -5.170
      -6.725
      -7.556
      -7.172
      -5.454
      -2.808
      -0.016
       2.151
       3.317
       3.656
       3.719
       4.056
       4.849
       5.778
       6.164
       5.351
       3.148
       0.079
      -2.782
      -4.382
      -4.308
      -2.973
      -1.240
       0.216
       1.263
       2.129
       2.933
       3.414
       3.096
       1.736
      -0.355
      -2.386
      -3.499
      -3.246
      -1.847
      -0.071
       1.164
       1.238
       0.095
      -1.758
      -3.488
      -4.321
      -3.933
      -2.640
      -1.187
      -0.208
       0.235
       0.619
       1.435
       2.657
       3.691
       3.819
       2.711
       0.622
      -1.749
      -3.560
      -4.108
      -3.090
      -0.762
       2.106
       4.537
       5.748
       5.441
       3.844
       1.580
      -0.588
      -2.093
      -2.842
      -3.212
      -3.661
      -4.223
      -4.373
      -3.471
      -1.453
       0.882
       2.330
       2.140
       0.569
      -1.302
      -2.329
      -2.038
      -0.811
       0.571
       1.583
       2.271
       2.970
       3.749
       4.135
       3.423
       1.342
      -1.521
      -3.979
      -5.024
      -4.521
      -3.268
      -2.385
      -2.489
      -3.270
      -3.720
      -2.852
      -0.400
       2.902
       5.678
       6.678
       5.497
       2.797
      -0.122
      -2.060
      -2.500
      -1.725
      -0.490
       0.479
       0.868
       0.826
       0.692
       0.631
       0.475
      -0.074
      -1.039
      -1.938
      -1.989
      -0.674
       1.758
       4.288
       5.676
       5.207
       3.064
       0.121
      -2.597
      -4.367
      -4.921
      -4.388
      -3.190
      -1.906
      -1.024
      -0.689
      -0.626
      -0.393
       0.241
       1.141
       1.985
       2.549
       2.781
       2.688
       2.266
       1.613
       1.019
       0.839
       1.187
       1.750
       1.912
       1.125
      -0.756
      -3.359
      -5.927
      -7.612
      -7.796
      -6.347
      -3.694
      -0.677
       1.782
       3.016
       2.867
       1.767
       0.553
       0.056
       0.632
       1.979
       3.373
       4.145
       4.021
       3.152
       1.928
       0.766
      -0.067
      -0.576
      -1.020
      -1.691
      -2.585
      -3.278
      -3.189
      -2.030
      -0.063
       2.065
       3.721
       4.576
       4.633
       4.099
       3.275
       2.486
       1.975
       1.787
       1.733
       1.497
       0.803
      -0.494
      -2.378
      -4.602
      -6.576
      -7.433
      -6.423
      -3.483
       0.482
       3.935
       5.533
       4.903
       2.819
       0.678
      -0.364
      -0.009
       1.168
       2.228
       2.491
       1.878
       0.798
      -0.243
      -1.011
      -1.620
      -2.314
      -3.175
      -4.014
      -4.508
      -4.437
      -3.802
      -2.742
      -1.421
      -0.007
       1.272
       2.169
       2.585
       2.676
       2.709
       2.764
       2.617
       1.970
       0.812
      -0.487
      -1.440
      -1.791
      -1.618
      -1.176
      -0.714
      -0.446
      -0.589
      -1.305
      -2.523
      -3.818
      -4.534
      -4.085
      -2.291
       0.448
       3.231
       5.007
       5.089
       3.540
       1.117
      -1.239
      -2.995
      -4.222
      -5.279
      -6.309
      -7.004
      -6.808
      -5.342
      -2.720
       0.430
       3.242
       5.000
       5.432
       4.744
       3.443
       2.098
       1.203
       1.122
       1.981
       3.502
       4.960
       5.447
       4.393
       1.967
      -0.967
      -3.329
      -4.394
      -4.060
      -2.717
      -0.897
       1.006
       2.795
       4.368
       5.580
       6.193
       5.935
       4.635
       2.403
      -0.262
      -2.581
      -3.856
      -3.902
      -3.200
      -2.547
      -2.461
      -2.828
      -3.098
      -2.821
      -2.040
      -1.214
      -0.801
      -0.852
      -0.936
      -0.449
       0.943
       2.994
       4.956
       6.008
       5.755
       4.447
       2.734
       1.193
       0.014
      -0.920
      -1.695
      -2.153
      -2.022
      -1.222
      -0.008
       1.193
       2.009
       2.179
       1.476
      -0.244
      -2.803
      -5.540
      -7.487
      -7.851
      -6.485
      -4.002
      -1.462
       0.186
       0.572
       0.054
      -0.530
      -0.376
       0.791
       2.529
       3.928
       4.131
       2.844
       0.522
      -1.840
      -3.208
      -3.037
      -1.574
       0.278
       1.495
       1.533
       0.580
      -0.672
      -1.465
      -1.283
       0.016
       2.125
       4.271
       5.443
