Origin Time       05/3/2012 07:41:05	 UTC
Lat.              28.7 N	
Long.             76.6 E	
Depth (Km)         14.0
Magnitude         4.9
 Region           Haryana-Delhi-Border-Region                                      
 Above details taken from IMD 
    
Station Code      DLU
Station Lat.       28.691  N
Station Long.      77.212  E
Station Height(m)  220.0
Site Class        C   Vs30 between 200 m/sec to 375 m/sec *  
Record Time       05.03.2012 07:40:46.379 UTC
Sampling Rate     200. Hz
 Record Duration  125.330 Sec.
 Direction         N-S (N positive)
Max. Acceleration      8.406 cm/sec**2
     
  * For reference see Site Classification link of website 
     
 Base Line Corrected and Low Pass Filtered (Cut Off at 35 Hz) Time History
 Acceleration data in cm/sec**2
    
[...]
      -0.319
      -0.386
      -0.277
       0.143
       0.893
       1.755
       2.342
       2.335
       1.695
       0.672
      -0.372
      -1.177
      -1.663
      -1.856
      -1.784
      -1.470
      -0.994
      -0.526
      -0.256
      -0.275
      -0.517
      -0.817
      -1.017
      -1.040
      -0.897
      -0.659
      -0.436
      -0.329
      -0.351
      -0.393
      -0.295
       0.020
       0.482
       0.920
       1.179
       1.171
       0.869
       0.306
      -0.385
      -0.964
      -1.195
      -1.017
      -0.592
      -0.178
       0.075
       0.193
       0.287
       0.423
       0.597
       0.782
       0.971
       1.167
       1.359
       1.510
       1.533
       1.279
       0.608
      -0.448
      -1.579
      -2.308
      -2.288
      -1.534
      -0.388
       0.716
       1.477
       1.802
       1.750
       1.442
       1.003
       0.533
       0.096
      -0.260
      -0.482
      -0.512
      -0.313
       0.098
       0.636
       1.154
       1.461
       1.392
       0.920
       0.215
      -0.448
      -0.883
      -1.103
      -1.224
      -1.265
      -1.092
      -0.589
       0.127
       0.696
       0.744
       0.158
      -0.819
      -1.733
      -2.184
      -2.034
      -1.458
      -0.806
      -0.372
      -0.231
      -0.252
      -0.261
      -0.197
      -0.111
      -0.058
      -0.030
       0.014
       0.083
       0.150
       0.198
       0.227
       0.228
       0.160
      -0.007
      -0.235
      -0.414
      -0.455
      -0.391
      -0.371
      -0.533
      -0.841
      -1.060
      -0.908
      -0.306
       0.487
       1.017
       0.974
       0.444
      -0.155
      -0.410
      -0.236
       0.094
       0.221
       0.035
      -0.216
      -0.157
       0.343
       0.996
       1.316
       1.037
       0.359
      -0.227
      -0.350
      -0.018
       0.490
       0.945
       1.365
       1.909
       2.628
       3.337
       3.723
       3.526
       2.657
       1.235
      -0.421
      -1.857
      -2.688
      -2.841
      -2.578
      -2.211
      -1.800
      -1.164
      -0.237
       0.680
       1.096
       0.798
       0.105
      -0.390
      -0.341
       0.081
       0.416
       0.353
      -0.053
      -0.550
      -0.969
      -1.313
      -1.617
      -1.826
      -1.833
      -1.599
      -1.164
      -0.576
       0.146
       0.910
       1.485
       1.603
       1.203
       0.547
       0.026
      -0.172
      -0.208
      -0.366
      -0.727
      -1.104
      -1.267
      -1.170
      -0.918
      -0.595
      -0.213
       0.175
       0.423
       0.404
       0.180
       0.001
       0.124
       0.617
       1.310
       1.876
       1.997
       1.521
       0.551
      -0.590
      -1.544
      -2.106
      -2.279
      -2.165
      -1.838
      -1.316
      -0.627
       0.137
       0.837
       1.318
       1.441
       1.128
       0.446
      -0.346
      -0.875
      -0.866
      -0.324
       0.475
       1.163
       1.487
       1.423
       1.143
       0.904
       0.880
       1.065
       1.283
       1.328
       1.130
       0.800
       0.525
       0.421
       0.476
       0.611
       0.774
       0.973
       1.193
       1.305
       1.092
       0.425
      -0.569
      -1.530
      -2.075
      -2.028
      -1.489
      -0.762
      -0.209
      -0.108
      -0.520
      -1.251
      -1.951
      -2.311
      -2.190
      -1.606
      -0.693
       0.309
       1.063
       1.272
       0.893
       0.217
      -0.311
      -0.414
      -0.161
       0.156
       0.305
       0.265
       0.152
       0.046
      -0.064
      -0.196
      -0.293
      -0.253
      -0.023
       0.335
       0.671
       0.818
       0.671
       0.258
      -0.227
      -0.491
      -0.344
       0.118
       0.545
       0.605
       0.258
      -0.225
      -0.530
      -0.594
      -0.627
      -0.844
      -1.182
      -1.335
      -1.083
      -0.541
      -0.036
       0.230
       0.307
       0.284
       0.089
      -0.391
      -1.010
      -1.335
      -1.015
      -0.165
       0.719
       1.243
       1.461
       1.713
       2.155
       2.519
       2.374
       1.598
       0.571
      -0.110
      -0.115
       0.364
       0.806
       0.781
       0.271
      -0.373
      -0.720
      -0.578
      -0.095
       0.355
       0.415
      -0.025
      -0.741
      -1.282
      -1.247
      -0.563
       0.436
       1.210
       1.357
       0.849
      -0.032
      -0.949
      -1.715
      -2.253
      -2.443
      -2.107
      -1.207
      -0.021
       0.944
       1.296
       0.998
       0.305
      -0.529
      -1.419
      -2.343
      -3.128
      -3.431
      -2.978
      -1.821
      -0.331
       1.049
       2.031
       2.526
       2.551
       2.192
       1.633
       1.134
       0.887
       0.872
       0.867
       0.616
       0.020
      -0.784
      -1.482
      -1.754
      -1.454
      -0.706
       0.147
       0.727
       0.825
       0.508
       0.041
      -0.296
      -0.397
      -0.367
      -0.400
      -0.598
      -0.870
      -0.993
      -0.798
      -0.320
       0.233
       0.672
       0.993
       1.311
       1.645
       1.828
       1.655
       1.119
       0.444
      -0.104
      -0.428
      -0.645
      -0.933
      -1.347
      -1.723
      -1.757
      -1.208
      -0.113
       1.163
       2.101
       2.332
       1.845
       0.956
       0.078
      -0.508
      -0.733
      -0.661
      -0.364
       0.121
       0.748
       1.396
       1.849
       1.861
       1.284
       0.194
      -1.067
      -2.004
      -2.211
      -1.608
      -0.546
       0.352
       0.551
      -0.052
      -1.063
      -1.884
      -2.152
      -1.957
      -1.667
      -1.520
      -1.406
      -1.051
      -0.402
       0.202
       0.290
      -0.310
      -1.279
      -2.055
      -2.254
      -1.894
      -1.292
      -0.809
      -0.660
      -0.850
      -1.172
      -1.293
      -0.937
      -0.112
       0.825
       1.390
       1.341
       0.865
       0.375
       0.144
       0.137
       0.186
       0.233
       0.338
       0.489
       0.507
       0.228
      -0.264
      -0.655
      -0.687
      -0.391
      -0.010
       0.300
       0.619
       1.119
       1.805
       2.472
       2.901
       3.040
       2.965
       2.700
       2.150
       1.235
       0.108
      -0.788
      -0.908
       0.066
       2.015
       4.394
       6.469
       7.629
       7.647
       6.751
       5.443
       4.181
       3.142
       2.249
       1.375
       0.500
      -0.311
      -1.012
      -1.610
      -2.095
      -2.382
      -2.394
      -2.189
      -1.947
      -1.806
      -1.755
      -1.774
      -2.036
      -2.828
      -4.164
      -5.515
      -6.091
      -5.492
      -4.112
      -2.827
      -2.274
      -2.406
      -2.682
      -2.608
      -2.064
      -1.223
      -0.300
       0.552
       1.184
       1.433
       1.231
       0.736
       0.277
       0.120
       0.267
       0.485
       0.554
       0.476
       0.436
       0.557
       0.730
       0.698
       0.287
      -0.465
      -1.359
      -2.140
      -2.553
      -2.399
      -1.667
      -0.614
       0.339
       0.860
       0.875
       0.509
      -0.054
      -0.620
      -0.952
      -0.813
      -0.129
       0.893
       1.877
       2.557
       2.955
       3.255
       3.506
       3.490
       2.914
       1.745
       0.320
      -0.879
      -1.542
      -1.639
      -1.301
      -0.668
       0.097
       0.743
       0.983
       0.693
       0.081
      -0.416
      -0.444
       0.008
       0.626
       1.046
       1.106
       0.888
       0.555
       0.180
      -0.273
      -0.847
      -1.513
      -2.183
      -2.789
      -3.294
      -3.646
      -3.756
      -3.551
      -3.064
      -2.439
      -1.840
      -1.349
      -0.968
      -0.692
      -0.529
      -0.418
      -0.186
       0.346
       1.158
       1.986
       2.503
       2.603
       2.494
       2.520
       2.866
       3.405
       3.778
       3.628
       2.814
       1.505
       0.091
      -1.012
      -1.542
      -1.429
      -0.743
       0.339
       1.532
       2.484
       2.892
       2.629
       1.763
       0.493
      -0.922
      -2.182
      -2.984
      -3.130
      -2.677
      -1.931
      -1.207
      -0.553
       0.264
       1.421
       2.688
       3.456
       3.194
       1.926
       0.312
      -0.781
      -0.867
      -0.128
       0.809
       1.392
       1.498
       1.371
       1.270
       1.197
       0.925
       0.239
      -0.856
      -2.106
      -3.155
      -3.746
      -3.805
      -3.401
      -2.625
      -1.573
      -0.435
       0.423
       0.590
      -0.076
      -1.243
      -2.249
      -2.557
      -2.110
      -1.259
      -0.373
       0.444
       1.231
       1.867
       2.005
       1.386
       0.152
      -1.235
      -2.413
      -3.407
      -4.426
      -5.394
      -5.770
      -4.942
      -2.853
      -0.200
       2.027
       3.241
       3.559
       3.514
       3.560
       3.806
       4.095
       4.235
       4.142
       3.825
       3.260
       2.298
       0.742
      -1.371
      -3.519
      -4.813
      -4.548
      -2.807
      -0.525
       1.130
       1.579
       1.145
       0.654
       0.753
       1.532
       2.631
       3.588
       4.079
       3.941
       3.083
       1.489
      -0.653
      -2.840
      -4.414
      -4.986
      -4.771
      -4.423
      -4.430
      -4.634
      -4.366
      -3.082
      -0.869
       1.616
       3.645
       4.840
       5.206
       4.904
       4.103
       3.047
       2.139
       1.803
       2.142
       2.710
       2.734
       1.722
      -0.059
      -1.760
      -2.664
      -2.746
      -2.501
      -2.257
      -1.766
      -0.505
       1.635
       4.040
       5.734
       6.053
       4.980
       2.979
       0.624
      -1.601
      -3.290
      -4.114
      -3.970
      -3.121
      -2.133
      -1.605
      -1.844
      -2.723
      -3.779
      -4.496
      -4.580
      -4.083
      -3.306
      -2.572
      -2.020
      -1.590
      -1.194
      -0.899
      -0.915
      -1.374
      -2.124
      -2.801
      -3.131
      -3.119
      -2.886
      -2.382
      -1.371
       0.209
       1.916
       3.000
       3.053
       2.494
       2.302
       3.155
       4.784
       6.171
       6.395
       5.303
       3.443
       1.535
       0.086
      -0.618
      -0.434
       0.524
       1.772
       2.624
       2.617
       1.768
       0.420
      -1.089
      -2.550
      -3.704
      -4.120
      -3.426
      -1.701
       0.444
       2.248
       3.283
       3.577
       3.351
       2.735
       1.769
       0.601
      -0.410
      -0.853
      -0.568
       0.175
       0.782
       0.698
      -0.229
      -1.639
      -2.913
      -3.570
      -3.477
      -2.734
      -1.460
       0.221
       2.012
       3.425
       4.087
       4.068
       3.767
       3.425
       2.845
       1.692
       0.039
      -1.513
      -2.314
      -2.222
      -1.663
      -1.213
      -1.197
      -1.637
      -2.416
      -3.325
      -3.988
      -3.899
      -2.704
      -0.498
       2.137
       4.376
       5.470
       5.024
       3.204
       0.772
      -1.207
      -1.927
      -1.308
       0.027
       1.220
       1.707
       1.398
       0.537
      -0.519
      -1.391
      -1.747
      -1.458
      -0.772
      -0.228
      -0.299
      -1.048
      -2.130
      -3.071
      -3.538
      -3.401
      -2.673
      -1.499
      -0.193
       0.783
       1.008
       0.355
      -0.871
      -2.087
      -2.780
      -2.768
      -2.219
      -1.465
      -0.805
      -0.384
      -0.119
       0.261
       1.011
       2.061
       2.904
       2.932
       1.988
       0.635
      -0.212
      -0.001
       1.035
       2.114
       2.536
       2.090
       0.965
      -0.563
      -2.276
      -3.901
      -5.015
      -5.153
      -4.086
      -2.023
       0.399
       2.401
       3.461
       3.617
       3.390
       3.338
       3.549
       3.516
       2.546
       0.364
      -2.574
      -5.339
      -7.091
      -7.487
      -6.703
      -5.159
      -3.268
      -1.329
       0.442
       1.863
       2.799
       3.205
       3.170
       2.919
       2.780
       3.088
       4.028
       5.451
       6.832
       7.520
       7.164
       5.962
       4.458
       3.068
       1.836
       0.634
      -0.485
      -1.238
      -1.437
      -1.269
      -1.165
      -1.375
      -1.732
      -1.814
      -1.355
      -0.500
       0.244
       0.308
      -0.566
      -2.075
      -3.419
      -3.722
      -2.588
      -0.386
       1.958
       3.501
       3.758
       2.834
       1.262
      -0.308
      -1.386
      -1.820
      -1.801
      -1.697
      -1.815
      -2.247
      -2.853
      -3.363
      -3.499
      -3.063
      -1.992
      -0.407
       1.326
       2.625
       2.919
       2.013
       0.333
      -1.201
      -1.679
      -0.792
       0.920
       2.394
       2.725
       1.713
      -0.107
      -1.911
      -3.105
      -3.554
      -3.435
      -2.977
      -2.335
      -1.688
      -1.346
      -1.655
      -2.750
      -4.371
      -5.929
      -6.749
      -6.297
      -4.331
      -1.026
       2.936
       6.453
       8.406
       8.235
       6.285
       3.582
       1.171
      -0.447
      -1.336
      -1.715
      -1.624
      -1.007
      -0.040
       0.749
       0.764
      -0.207
      -1.756
      -3.017
      -3.144
      -1.843
       0.401
       2.594
       3.891
       4.134
       3.819
       3.539
       3.447
       3.228
       2.511
       1.292
      -0.003
      -0.770
      -0.591
       0.511
       2.075
       3.443
       4.089
       3.798
       2.625
       0.793
      -1.333
      -3.253
      -4.458
      -4.639
      -3.796
      -2.144
       0.028
       2.376
       4.425
       5.617
       5.553
       4.250
       2.131
      -0.238
      -2.396
      -4.053
      -5.046
      -5.335
      -5.084
      -4.679
      -4.544
      -4.839
      -5.297
      -5.409
      -4.830
      -3.628
      -2.179
      -0.840
       0.263
       1.186
       2.013
       2.792
       3.573
       4.434
       5.390
       6.267
       6.728
       6.484
       5.515
       4.079
       2.481
       0.846
      -0.879
      -2.681
      -4.268
      -5.128
      -4.862
      -3.512
      -1.627
      -0.013
       0.642
       0.090
      -1.367
      -3.014
      -4.077
      -4.100
      -3.084
      -1.318
       0.911
       3.408
       5.874
       7.684
       7.997
       6.262
       2.769
      -1.250
      -4.167
      -4.863
      -3.390
      -0.913
       1.021
       1.366
       0.044
      -2.193
      -4.244
      -5.180
      -4.647
      -3.053
      -1.389
      -0.631
      -1.083
      -2.171
      -2.908
      -2.620
      -1.372
       0.180
       1.281
       1.525
       1.050
       0.434
       0.329
       0.970
       1.914
       2.335
       1.741
       0.483
      -0.504
      -0.523
       0.313
       1.308
       1.897
       2.063
       2.111
       2.187
       2.123
       1.686
       0.831
      -0.287
      -1.407
      -2.154
      -2.097
      -1.061
       0.507
       1.633
       1.517
       0.276
      -1.057
      -1.369
      -0.372
       1.229
       2.403
       2.607
       2.070
       1.423
       1.121
       1.157
       1.248
       1.200
       1.095
       1.138
       1.341
       1.413
       1.050
       0.365
      -0.034
       0.470
       1.840
       3.217
       3.495
       2.190
      -0.160
      -2.388
      -3.516
      -3.324
      -2.295
      -1.129
      -0.306
       0.027
      -0.072
      -0.480
      -1.072
      -1.719
      -2.280
      -2.601
      -2.518
      -1.931
      -0.965
      -0.062
       0.179
      -0.558
      -1.917
      -2.934
      -2.644
      -0.813
       1.827
       4.080
       5.148
       5.091
       4.518
       3.848
       2.934
       1.405
      -0.656
      -2.483
      -3.156
      -2.409
      -0.952
       0.012
      -0.384
      -2.145
      -4.524
      -6.537
      -7.472
      -7.145
      -5.879
      -4.316
      -3.139
      -2.759
      -3.058
      -3.410
      -3.126
      -2.024
      -0.612
       0.373
       0.649
       0.607
       0.858
       1.574
       2.318
       2.492
       1.918
       1.004
       0.423
       0.654
       1.759
       3.457
       5.327
       6.951
       7.988
       8.214
       7.580
       6.244
       4.590
       3.156
       2.424
       2.526
       3.081
       3.367
       2.764
       1.124
      -1.212
      -3.664
      -5.650
      -6.649
      -6.274
      -4.488
      -1.816
       0.768
       2.312
       2.366
       1.112
      -0.840
      -2.758
      -4.018
      -4.252
      -3.429
      -1.843
       0.009
       1.553
       2.252
       1.731
      -0.039
      -2.591
      -5.024
      -6.327
      -5.855
      -3.681
      -0.600
       2.292
       4.217
       5.077
       5.293
       5.299
       5.182
       4.755
       3.861
       2.578
       1.190
       0.039
      -0.653
      -0.946
      -1.207
      -1.854
      -2.922
      -3.893
      -4.091
      -3.369
      -2.372
      -2.035
      -2.741
      -3.973
      -4.783
      -4.623
      -3.726
      -2.756
      -2.139
      -1.711
      -0.944
       0.522
       2.495
       4.255
       4.969
       4.206
       2.234
      -0.093
      -1.784
      -2.216
      -1.366
       0.314
       2.193
       3.704
       4.453
       4.285
       3.332
       1.984
       0.726
      -0.064
      -0.222
       0.211
       1.006
       1.761
       1.988
       1.361
      -0.030
      -1.642
      -2.747
      -2.841
      -1.883
      -0.234
       1.565
       2.955
       3.427
       2.650
       0.694
      -1.841
      -4.030
      -5.119
      -4.906
      -3.696
      -1.919
       0.178
       2.480
       4.747
       6.504
       7.229
       6.657
       4.920
       2.478
      -0.047
      -2.029
      -3.009
      -2.897
      -2.054
      -1.116
      -0.600
      -0.592
      -0.780
      -0.830
      -0.767
      -0.992
      -1.876
      -3.273
      -4.414
      -4.375
      -2.808
      -0.375
       1.540
       1.699
      -0.159
      -3.104
      -5.609
      -6.531
      -5.782
      -4.207
      -2.780
      -1.849
      -1.057
       0.097
       1.724
       3.526
       5.154
       6.425
       7.230
       7.361
       6.547
       4.680
       1.999
      -0.913
      -3.285
      -4.403
      -3.917
      -2.107
       0.140
       1.787
       2.293
       1.919
       1.370
       1.133
       1.158
       1.152
       1.036
       0.977
       1.025
       0.931
       0.459
      -0.215
      -0.601
      -0.448
      -0.082
      -0.094
      -0.725
      -1.648
      -2.342
      -2.577
      -2.493
      -2.265
      -1.834
      -0.997
       0.292
       1.767
       2.992
       3.621
       3.556
       2.924
       1.966
       0.920
