Origin Time       11/11/2013 22:10:42
Lat.              28.4 N	
Long.             77.2 E	
Depth (Km)         11.0
Magnitude         2.8
 Region           DELHI                                                            
 Above details taken from IMD 
   
Station Code      DLU
Station Lat.       28.691
Station Long.      77.212
Station Height(m)  220.0
Site Class        C   Vs30 between 200 m/sec to 375 m/sec *  
Record Time       11.11.2013 22:10:21.899
Sampling Rate     200. Hz
 Record Duration   81.015 Sec.
 Direction         Vert. (Up positive)
Max. Acceleration      2.256 cm/sec**2
     
  * For reference see Site Classification link of website 
     
 Base Line Corrected and Low Pass Filtered (Cut Off at 35 Hz) Time History
 Acceleration data in cm/sec**2
    
[...]
      -0.049
      -0.045
      -0.017
       0.010
       0.015
       0.001
      -0.011
       0.001
       0.032
       0.056
       0.052
       0.023
      -0.005
      -0.005
       0.017
       0.033
       0.017
      -0.027
      -0.069
      -0.077
      -0.045
      -0.001
       0.024
       0.016
      -0.005
      -0.013
       0.002
       0.026
       0.034
       0.017
      -0.012
      -0.029
      -0.024
      -0.011
      -0.011
      -0.033
      -0.057
      -0.057
      -0.022
       0.031
       0.069
       0.069
       0.037
      -0.001
      -0.018
      -0.010
       0.005
       0.004
      -0.015
      -0.034
      -0.034
      -0.016
       0.002
       0.001
      -0.016
      -0.026
      -0.008
       0.033
       0.070
       0.072
       0.036
      -0.012
      -0.039
      -0.031
      -0.004
       0.013
       0.005
      -0.019
      -0.035
      -0.029
      -0.007
       0.012
       0.015
       0.010
       0.015
       0.035
       0.055
       0.052
       0.017
      -0.035
      -0.073
      -0.072
      -0.040
      -0.002
       0.013
       0.003
      -0.015
      -0.019
      -0.003
       0.017
       0.022
       0.007
      -0.013
      -0.015
       0.002
       0.017
       0.006
      -0.032
      -0.071
      -0.077
      -0.042
       0.006
       0.034
       0.025
      -0.001
      -0.014
       0.002
       0.031
       0.048
       0.037
       0.010
      -0.012
      -0.017
      -0.015
      -0.019
      -0.037
      -0.055
      -0.054
      -0.026
       0.017
       0.048
       0.048
       0.022
      -0.009
      -0.020
      -0.009
       0.008
       0.011
      -0.005
      -0.027
      -0.035
      -0.026
      -0.012
      -0.010
      -0.018
      -0.018
       0.006
       0.049
       0.082
       0.078
       0.035
      -0.018
      -0.043
      -0.027
       0.008
       0.024
       0.007
      -0.026
      -0.045
      -0.034
      -0.005
       0.016
       0.016
       0.003
      -0.002
       0.011
       0.032
       0.037
       0.010
      -0.034
      -0.066
      -0.063
      -0.029
       0.008
       0.022
       0.006
      -0.021
      -0.033
      -0.019
       0.010
       0.032
       0.035
       0.026
       0.020
       0.024
       0.024
       0.007
      -0.028
      -0.061
      -0.065
      -0.031
       0.016
       0.042
       0.030
      -0.005
      -0.030
      -0.022
       0.009
       0.038
       0.042
       0.022
      -0.002
      -0.013
      -0.012
      -0.016
      -0.033
      -0.052
      -0.049
      -0.011
       0.044
       0.081
       0.073
       0.028
      -0.019
      -0.031
      -0.003
       0.034
       0.044
       0.016
      -0.027
      -0.054
      -0.048
      -0.024
      -0.007
      -0.007
      -0.011
       0.002
       0.036
       0.066
       0.062
       0.018
      -0.038
      -0.066
      -0.048
      -0.005
       0.023
       0.015
      -0.021
      -0.049
      -0.046
      -0.015
       0.018
       0.031
       0.024
       0.018
       0.030
       0.051
       0.058
       0.031
      -0.019
      -0.062
      -0.068
      -0.035
       0.008
       0.028
       0.012
      -0.022
      -0.042
      -0.033
      -0.003
       0.021
       0.024
       0.008
      -0.007
      -0.008
      -0.002
      -0.006
      -0.030
      -0.060
      -0.070
      -0.046
      -0.001
       0.034
       0.034
       0.006
      -0.022
      -0.019
       0.014
       0.053
       0.064
       0.040
      -0.001
      -0.029
      -0.034
      -0.025
      -0.023
      -0.033
      -0.041
      -0.027
       0.010
       0.046
       0.055
       0.029
      -0.008
      -0.025
      -0.011
       0.019
       0.035
       0.021
      -0.015
      -0.048
      -0.057
      -0.043
      -0.021
      -0.006
       0.005
       0.020
       0.044
       0.068
       0.076
       0.058
       0.023
      -0.009
      -0.020
      -0.011
      -0.002
      -0.009
      -0.031
      -0.040
      -0.009
       0.059
       0.123
       0.123
       0.031
      -0.118
      -0.245
      -0.281
      -0.213
      -0.084
       0.054
       0.167
       0.235
       0.245
       0.190
       0.092
      -0.004
      -0.061
      -0.070
      -0.045
      -0.011
       0.014
       0.019
       0.007
      -0.007
      -0.010
      -0.009
      -0.016
      -0.032
      -0.037
      -0.016
       0.010
       0.005
      -0.044
      -0.098
      -0.099
      -0.025
       0.079
       0.144
       0.133
       0.060
      -0.029
      -0.087
      -0.085
      -0.024
       0.056
       0.099
       0.080
       0.014
      -0.063
      -0.120
      -0.140
      -0.112
      -0.045
       0.022
       0.049
       0.043
       0.052
       0.102
       0.149
       0.119
       0.002
      -0.109
      -0.112
      -0.012
       0.073
       0.038
      -0.080
      -0.141
      -0.052
       0.125
       0.229
       0.167
      -0.003
      -0.133
      -0.133
      -0.041
       0.035
       0.033
      -0.009
      -0.020
       0.018
       0.057
       0.053
       0.020
       0.018
       0.080
       0.171
       0.211
       0.163
       0.082
       0.069
       0.158
       0.246
       0.152
      -0.227
      -0.780
      -1.225
      -1.326
      -1.076
      -0.674
      -0.301
       0.055
       0.515
       1.077
       1.522
       1.576
       1.172
       0.520
      -0.046
      -0.309
      -0.279
      -0.137
      -0.090
      -0.218
      -0.414
      -0.482
      -0.337
      -0.101
       0.009
      -0.095
      -0.289
      -0.382
      -0.313
      -0.169
      -0.027
       0.136
       0.355
       0.544
       0.553
       0.357
       0.130
       0.067
       0.168
       0.244
       0.148
      -0.071
      -0.255
      -0.319
      -0.294
      -0.247
      -0.223
      -0.263
      -0.389
      -0.540
      -0.544
      -0.266
       0.214
       0.606
       0.666
       0.445
       0.228
       0.229
       0.381
       0.444
       0.271
      -0.057
      -0.351
      -0.490
      -0.469
      -0.318
      -0.076
       0.169
       0.279
       0.194
       0.022
      -0.054
       0.011
       0.057
      -0.080
      -0.331
      -0.432
      -0.205
       0.224
       0.528
       0.496
       0.201
      -0.113
      -0.265
      -0.245
      -0.151
      -0.070
      -0.022
       0.028
       0.097
       0.144
       0.091
      -0.076
      -0.247
      -0.261
      -0.060
       0.229
       0.397
       0.343
       0.156
      -0.019
      -0.145
      -0.284
      -0.442
      -0.509
      -0.376
      -0.082
       0.213
       0.376
       0.402
       0.380
       0.384
       0.398
       0.311
       0.033
      -0.368
      -0.646
      -0.589
      -0.270
      -0.015
      -0.058
      -0.258
      -0.252
       0.127
       0.644
       0.906
       0.717
       0.208
      -0.336
      -0.663
      -0.649
      -0.315
       0.145
       0.431
       0.338
      -0.039
      -0.349
      -0.295
       0.060
       0.356
       0.297
      -0.062
      -0.396
      -0.430
      -0.154
       0.218
       0.437
       0.384
       0.133
      -0.084
      -0.052
       0.214
       0.423
       0.259
      -0.280
      -0.812
      -0.901
      -0.462
       0.158
       0.501
       0.387
       0.026
      -0.203
      -0.075
       0.340
       0.762
       0.907
       0.638
       0.055
      -0.541
      -0.829
      -0.707
      -0.370
      -0.125
      -0.125
      -0.254
      -0.277
      -0.090
       0.191
       0.357
       0.295
       0.050
      -0.217
      -0.288
       0.006
       0.600
       1.111
       1.067
       0.348
      -0.605
      -1.092
      -0.774
       0.006
       0.523
       0.361
      -0.215
      -0.582
      -0.421
      -0.008
       0.157
      -0.055
      -0.268
      -0.080
       0.416
       0.701
       0.430
      -0.142
      -0.441
      -0.227
       0.135
       0.129
      -0.280
      -0.581
      -0.315
       0.361
       0.817
       0.637
       0.048
      -0.358
      -0.260
       0.096
       0.227
      -0.052
      -0.438
      -0.473
      -0.025
       0.554
       0.744
       0.359
      -0.267
      -0.586
      -0.369
       0.069
       0.218
      -0.066
      -0.403
      -0.328
       0.159
       0.563
       0.442
      -0.094
      -0.494
      -0.371
       0.101
       0.437
       0.402
       0.196
       0.100
       0.097
      -0.038
      -0.351
      -0.566
      -0.403
       0.065
       0.454
       0.447
       0.090
      -0.280
      -0.355
      -0.125
       0.134
       0.156
      -0.012
      -0.041
       0.261
       0.633
       0.568
      -0.097
      -0.894
      -1.141
      -0.637
       0.142
       0.557
       0.421
       0.060
      -0.112
       0.026
       0.281
       0.390
       0.252
       0.009
      -0.099
       0.006
       0.150
       0.113
      -0.105
      -0.269
      -0.192
       0.018
       0.074
      -0.141
      -0.412
      -0.441
      -0.186
       0.124
       0.271
       0.258
       0.213
       0.199
       0.189
       0.167
       0.149
       0.107
      -0.031
      -0.256
      -0.409
      -0.304
       0.030
       0.317
       0.288
      -0.019
      -0.273
      -0.200
       0.139
       0.415
       0.355
      -0.012
      -0.398
      -0.496
      -0.235
       0.182
       0.433
       0.329
      -0.043
      -0.388
      -0.437
      -0.185
       0.109
       0.174
      -0.010
      -0.201
      -0.148
       0.189
       0.620
       0.846
       0.639
       0.024
      -0.631
      -0.843
      -0.440
       0.214
       0.530
       0.276
      -0.197
      -0.340
       0.002
       0.442
       0.470
      -0.033
      -0.684
      -0.966
      -0.668
      -0.017
       0.536
       0.679
       0.440
       0.112
      -0.039
      -0.009
       0.006
      -0.107
      -0.229
      -0.178
       0.000
       0.052
      -0.147
      -0.365
      -0.242
       0.260
       0.747
       0.779
       0.335
      -0.171
      -0.302
       0.004
       0.389
       0.403
      -0.084
      -0.691
      -0.820
      -0.247
       0.589
       0.952
       0.506
      -0.392
      -1.071
      -1.142
      -0.705
      -0.120
       0.311
       0.463
       0.367
       0.154
      -0.036
      -0.126
      -0.117
      -0.054
       0.019
       0.059
       0.037
      -0.015
       0.017
       0.217
       0.501
       0.638
       0.469
       0.100
      -0.163
      -0.107
       0.180
       0.391
       0.306
      -0.015
      -0.325
      -0.445
      -0.410
      -0.382
      -0.438
      -0.469
      -0.275
       0.188
       0.668
       0.763
       0.292
      -0.470
      -0.989
      -0.935
      -0.450
       0.045
       0.258
       0.251
       0.295
       0.556
       0.893
       0.935
       0.424
      -0.453
      -1.084
      -0.924
      -0.050
       0.822
       0.964
       0.310
      -0.509
      -0.795
      -0.421
       0.132
       0.310
       0.009
      -0.412
      -0.546
      -0.323
       0.009
       0.181
       0.143
       0.067
       0.155
       0.457
       0.823
       1.005
       0.849
       0.400
      -0.145
      -0.615
      -0.957
      -1.156
      -1.122
      -0.743
      -0.077
       0.572
       0.861
       0.713
       0.398
       0.269
       0.388
       0.463
       0.178
      -0.409
      -0.870
      -0.806
      -0.227
       0.433
       0.644
       0.170
      -0.724
      -1.406
      -1.315
      -0.430
       0.653
       1.204
       1.009
       0.500
       0.237
       0.306
       0.326
      -0.011
      -0.549
      -0.865
      -0.740
      -0.330
       0.085
       0.350
       0.446
       0.381
       0.167
      -0.117
      -0.291
      -0.153
       0.351
       0.967
       1.234
       0.859
       0.042
      -0.665
      -0.846
      -0.575
      -0.277
      -0.303
      -0.627
      -0.914
      -0.823
      -0.313
       0.319
       0.663
       0.511
       0.004
      -0.472
      -0.556
      -0.173
       0.394
       0.703
       0.517
       0.019
      -0.349
      -0.280
       0.173
       0.725
       1.110
       1.153
       0.762
      -0.001
      -0.838
      -1.360
      -1.396
      -1.120
      -0.821
      -0.597
      -0.328
       0.096
       0.617
       1.076
       1.352
       1.415
       1.297
       1.051
       0.723
       0.317
      -0.194
      -0.789
      -1.349
      -1.714
      -1.789
      -1.578
      -1.096
      -0.351
       0.557
       1.345
       1.687
       1.494
       1.025
       0.666
       0.593
       0.664
       0.611
       0.272
      -0.341
      -1.084
      -1.689
      -1.828
      -1.341
      -0.484
       0.162
       0.194
      -0.184
      -0.357
       0.015
       0.621
       0.868
       0.559
       0.038
      -0.290
      -0.402
      -0.502
      -0.597
      -0.439
       0.088
       0.674
       0.802
       0.269
      -0.539
      -0.937
      -0.553
       0.330
       1.062
       1.253
       1.089
       1.020
       1.206
       1.350
       1.074
       0.379
      -0.354
      -0.772
      -0.884
      -0.943
      -1.088
      -1.192
      -1.045
      -0.596
       0.011
       0.553
       0.800
       0.542
      -0.282
      -1.403
      -2.235
      -2.204
      -1.167
       0.439
       1.815
       2.256
       1.607
       0.434
      -0.332
      -0.142
       0.673
       1.203
       0.844
      -0.140
      -0.923
      -0.927
      -0.304
       0.322
       0.475
       0.181
      -0.177
      -0.245
       0.018
       0.352
       0.447
       0.210
      -0.165
      -0.358
      -0.183
       0.237
       0.514
       0.276
      -0.476
      -1.288
      -1.581
      -1.127
      -0.236
       0.514
       0.739
       0.514
       0.236
       0.250
       0.566
       0.904
       0.963
       0.646
       0.072
      -0.544
      -0.975
      -1.027
      -0.648
      -0.046
       0.371
       0.303
      -0.150
      -0.554
      -0.532
      -0.102
       0.394
       0.643
       0.627
       0.558
       0.622
       0.782
       0.777
       0.319
      -0.618
      -1.649
      -2.159
      -1.773
      -0.722
       0.298
       0.727
       0.605
       0.422
       0.540
       0.839
       0.941
       0.699
       0.367
       0.298
       0.520
       0.705
       0.531
       0.060
      -0.330
      -0.374
      -0.245
      -0.375
      -0.938
      -1.572
      -1.705
      -1.163
      -0.375
       0.070
       0.038
      -0.068
       0.168
       0.687
       1.048
       0.944
       0.510
       0.119
      -0.033
      -0.080
      -0.256
      -0.588
      -0.849
      -0.768
      -0.249
       0.549
       1.297
       1.674
       1.554
       1.088
       0.584
       0.290
       0.224
       0.187
      -0.080
      -0.670
      -1.389
      -1.842
      -1.714
      -1.021
      -0.133
       0.480
       0.555
       0.155
      -0.415
      -0.777
      -0.674
      -0.146
       0.432
       0.614
       0.297
      -0.141
      -0.185
       0.294
       0.882
       1.038
       0.623
       0.014
      -0.278
      -0.094
       0.273
       0.410
       0.191
      -0.128
      -0.192
       0.100
       0.493
       0.603
       0.263
      -0.296
      -0.621
      -0.461
      -0.037
       0.157
      -0.145
      -0.722
      -1.125
      -1.136
      -0.896
      -0.638
      -0.411
      -0.100
       0.347
       0.812
       1.111
       1.157
       1.013
       0.791
       0.545
       0.258
      -0.069
      -0.334
      -0.395
      -0.241
      -0.056
      -0.054
      -0.245
      -0.410
      -0.324
       0.018
       0.388
       0.507
       0.271
      -0.156
      -0.478
      -0.515
      -0.361
      -0.264
      -0.366
      -0.579
      -0.690
      -0.547
      -0.164
       0.298
       0.632
       0.709
       0.569
       0.377
       0.285
       0.297
       0.304
       0.228
       0.137
       0.163
       0.322
       0.458
       0.411
       0.206
       0.031
       0.007
       0.026
      -0.136
      -0.534
      -0.926
      -0.987
      -0.654
      -0.216
      -0.016
      -0.086
      -0.138
       0.084
       0.485
       0.697
       0.440
      -0.188
      -0.784
      -0.991
      -0.775
      -0.396
      -0.119
       0.032
       0.229
       0.590
       0.979
       1.103
       0.804
       0.238
      -0.231
      -0.316
      -0.019
       0.391
       0.585
       0.400
      -0.057
      -0.495
      -0.663
      -0.532
      -0.298
      -0.183
      -0.231
      -0.291
      -0.212
      -0.025
       0.085
      -0.003
      -0.178
      -0.195
       0.065
       0.437
       0.590
       0.342
      -0.141
      -0.461
      -0.358
       0.031
       0.308
       0.217
      -0.092
      -0.210
       0.118
       0.704
       1.058
       0.857
       0.263
      -0.249
      -0.387
      -0.297
      -0.309
      -0.505
      -0.609
      -0.333
       0.246
       0.707
       0.694
       0.270
      -0.160
      -0.290
      -0.209
      -0.231
      -0.468
      -0.665
      -0.505
      -0.014
       0.413
       0.408
       0.008
      -0.382
      -0.371
       0.078
       0.617
       0.774
       0.332
      -0.461
      -1.026
      -0.919
      -0.244
       0.420
       0.548
       0.163
      -0.223
      -0.135
       0.417
       0.968
       1.032
       0.533
      -0.163
      -0.585
      -0.538
      -0.200
       0.117
       0.235
       0.195
       0.134
       0.118
       0.094
      -0.023
      -0.223
      -0.380
      -0.377
      -0.258
      -0.200
      -0.324
      -0.517
      -0.494
      -0.087
       0.522
       0.900
       0.749
       0.193
      -0.342
      -0.549
      -0.466
      -0.304
      -0.127
       0.159
       0.534
       0.730
       0.494
      -0.069
      -0.537
      -0.583
      -0.260
       0.127
       0.359
       0.430
       0.423
       0.368
       0.249
       0.077
      -0.093
      -0.218
      -0.300
      -0.367
      -0.409
      -0.346
      -0.097
       0.301
       0.652
       0.728
       0.456
      -0.001
      -0.365
      -0.438
      -0.247
      -0.027
      -0.037
      -0.333
      -0.662
      -0.659
      -0.188
       0.490
       0.925
       0.857
       0.408
      -0.061
      -0.245
      -0.107
       0.134
       0.188
      -0.072
      -0.491
      -0.730
      -0.554
      -0.070
       0.330
       0.313
      -0.078
      -0.482
      -0.571
      -0.341
      -0.013
       0.260
       0.525
       0.854
       1.135
       1.121
       0.717
       0.135
      -0.284
      -0.400
      -0.376
      -0.454
      -0.677
      -0.851
      -0.756
      -0.364
       0.120
       0.441
       0.517
       0.471
       0.450
       0.426
       0.252
      -0.103
      -0.455
      -0.578
      -0.447
      -0.259
      -0.199
      -0.241
      -0.198
       0.046
       0.391
       0.615
       0.601
       0.442
       0.319
       0.280
       0.180
      -0.141
      -0.606
      -0.896
      -0.740
      -0.238
