Origin Time       11/11/2013 20:11:30 UTC
Lat.              28.4 N	
Long.             77.2 E	
Depth (Km)         10.0
Magnitude         3.3
 Region           DELHI                                                            
 Above details taken from IMD 
    
Station Code      DLU
Station Lat.       28.691  N
Station Long.      77.212  E
Station Height(m)  220.0
Site Class        C   Vs30 between 200 m/sec to 375 m/sec *  
Record Time       11.11.2013 20:11:07.139 UTC
Sampling Rate     200. Hz
 Record Duration   87.735 Sec.
 Direction         N-S (N positive)
Max. Acceleration    -13.382 cm/sec**2
     
  * For reference see Site Classification link of website 
     
 Base Line Corrected and Low Pass Filtered (Cut Off at 35 Hz) Time History
 Acceleration data in cm/sec**2
    
[...]
       0.005
       0.003
      -0.021
      -0.044
      -0.038
       0.000
       0.041
       0.053
       0.028
      -0.008
      -0.016
       0.012
       0.047
       0.051
       0.012
      -0.041
      -0.062
      -0.038
       0.009
       0.037
       0.029
       0.002
      -0.012
      -0.001
       0.019
       0.021
      -0.001
      -0.026
      -0.024
       0.009
       0.048
       0.055
       0.015
      -0.048
      -0.093
      -0.091
      -0.049
      -0.001
       0.025
       0.019
      -0.001
      -0.014
      -0.014
      -0.007
      -0.004
      -0.007
      -0.007
       0.003
       0.018
       0.019
      -0.013
      -0.066
      -0.104
      -0.088
      -0.015
       0.070
       0.108
       0.072
      -0.005
      -0.063
      -0.064
      -0.022
       0.014
       0.011
      -0.023
      -0.053
      -0.054
      -0.035
      -0.018
      -0.012
      -0.004
       0.020
       0.056
       0.074
       0.055
       0.007
      -0.035
      -0.041
      -0.013
       0.020
       0.029
       0.006
      -0.029
      -0.050
      -0.043
      -0.017
       0.008
       0.022
       0.026
       0.027
       0.028
       0.025
       0.014
      -0.004
      -0.019
      -0.022
      -0.014
      -0.005
      -0.010
      -0.027
      -0.041
      -0.030
       0.007
       0.048
       0.059
       0.028
      -0.020
      -0.046
      -0.026
       0.022
       0.053
       0.034
      -0.023
      -0.074
      -0.079
      -0.038
       0.014
       0.043
       0.040
       0.025
       0.017
       0.019
       0.014
      -0.005
      -0.028
      -0.033
      -0.010
       0.021
       0.030
       0.002
      -0.049
      -0.083
      -0.067
      -0.001
       0.075
       0.113
       0.091
       0.028
      -0.029
      -0.045
      -0.020
       0.014
       0.025
       0.007
      -0.017
      -0.026
      -0.022
      -0.021
      -0.030
      -0.030
      -0.003
       0.050
       0.096
       0.096
       0.043
      -0.029
      -0.074
      -0.069
      -0.031
       0.002
       0.006
      -0.012
      -0.028
      -0.027
      -0.012
       0.003
       0.009
       0.010
       0.019
       0.038
       0.052
       0.037
      -0.009
      -0.063
      -0.087
      -0.065
      -0.015
       0.025
       0.028
       0.000
      -0.026
      -0.022
       0.007
       0.032
       0.028
      -0.001
      -0.026
      -0.022
       0.007
       0.029
       0.017
      -0.026
      -0.067
      -0.072
      -0.039
       0.002
       0.022
       0.015
       0.002
       0.006
       0.025
       0.035
       0.016
      -0.023
      -0.052
      -0.045
      -0.007
       0.029
       0.030
      -0.011
      -0.064
      -0.090
      -0.068
      -0.010
       0.050
       0.079
       0.070
       0.036
       0.002
      -0.021
      -0.029
      -0.029
      -0.020
      -0.003
       0.017
       0.027
       0.011
      -0.027
      -0.060
      -0.056
      -0.004
       0.063
       0.097
       0.069
      -0.005
      -0.076
      -0.101
      -0.074
      -0.026
       0.006
       0.011
       0.000
      -0.012
      -0.020
      -0.032
      -0.048
      -0.054
      -0.034
       0.012
       0.058
       0.070
       0.034
      -0.028
      -0.073
      -0.067
      -0.019
       0.034
       0.051
       0.027
      -0.013
      -0.032
      -0.022
       0.001
       0.011
       0.004
      -0.006
      -0.002
       0.015
       0.025
       0.010
      -0.026
      -0.056
      -0.058
      -0.032
      -0.001
       0.010
      -0.004
      -0.026
      -0.032
      -0.012
       0.018
       0.030
       0.012
      -0.023
      -0.046
      -0.036
      -0.004
       0.021
       0.014
      -0.023
      -0.059
      -0.058
      -0.016
       0.034
       0.053
       0.032
      -0.002
      -0.015
       0.000
       0.019
       0.016
      -0.006
      -0.022
      -0.007
       0.026
       0.041
       0.013
      -0.039
      -0.069
      -0.047
       0.010
       0.057
       0.061
       0.028
      -0.007
      -0.017
      -0.003
       0.011
       0.008
      -0.005
      -0.010
       0.002
       0.017
       0.015
      -0.008
      -0.036
      -0.046
      -0.027
       0.010
       0.041
       0.043
       0.015
      -0.025
      -0.049
      -0.044
      -0.015
       0.012
       0.020
       0.006
      -0.013
      -0.018
      -0.010
      -0.004
      -0.014
      -0.029
      -0.026
       0.006
       0.045
       0.055
       0.020
      -0.037
      -0.066
      -0.041
       0.017
       0.058
       0.053
       0.017
      -0.010
      -0.005
       0.018
       0.031
       0.022
       0.010
       0.017
       0.043
       0.062
       0.044
      -0.011
      -0.070
      -0.091
      -0.061
       0.001
       0.055
       0.073
       0.055
       0.023
       0.001
      -0.001
       0.008
       0.012
       0.005
      -0.007
      -0.007
       0.017
       0.060
       0.092
       0.070
      -0.024
      -0.138
      -0.171
      -0.067
       0.088
       0.122
      -0.021
      -0.149
      -0.001
       0.404
       0.668
       0.387
      -0.354
      -0.947
      -0.796
       0.081
       1.016
       1.261
       0.654
      -0.264
      -0.774
      -0.649
      -0.318
      -0.358
      -0.833
      -1.138
      -0.538
       1.067
       2.829
       3.453
       2.224
      -0.291
      -2.585
      -3.420
      -2.794
      -1.741
      -1.173
      -0.948
      -0.114
       1.893
       4.287
       5.307
       3.741
       0.191
      -3.267
      -4.772
      -4.074
      -2.363
      -0.916
      -0.025
       0.869
       2.188
       3.495
       3.782
       2.460
       0.046
      -2.180
      -3.178
      -2.820
      -1.708
      -0.510
       0.482
       1.295
       1.929
       2.154
       1.685
       0.559
      -0.747
      -1.654
      -1.895
      -1.550
      -0.816
       0.128
       1.031
       1.551
       1.436
       0.749
      -0.118
      -0.673
      -0.708
      -0.473
      -0.402
      -0.561
      -0.527
       0.045
       0.813
       0.983
       0.227
      -0.815
      -1.128
      -0.402
       0.627
       0.944
       0.309
      -0.522
      -0.609
       0.171
       0.996
       0.964
       0.037
      -0.924
      -1.064
      -0.379
       0.366
       0.487
       0.030
      -0.419
      -0.399
       0.060
       0.623
       1.004
       1.087
       0.873
       0.431
      -0.114
      -0.622
      -0.949
      -0.957
      -0.598
      -0.028
       0.447
       0.604
       0.465
       0.226
       0.064
       0.023
       0.049
       0.101
       0.229
       0.439
       0.457
      -0.173
      -1.524
      -2.836
      -2.936
      -1.321
       1.230
       3.225
       3.689
       2.821
       1.527
       0.434
      -0.500
      -1.506
      -2.389
      -2.632
      -2.053
      -1.073
      -0.196
       0.568
       1.511
       2.528
       2.911
       2.009
       0.020
      -1.966
      -2.784
      -2.125
      -0.742
       0.259
       0.431
       0.308
       0.677
       1.539
       1.970
       1.098
      -0.865
      -2.659
      -3.042
      -1.810
       0.138
       1.611
       2.000
       1.496
       0.669
      -0.041
      -0.448
      -0.453
      -0.047
       0.447
       0.362
      -0.723
      -2.281
      -2.952
      -1.681
       1.108
       3.581
       3.944
       2.005
      -0.637
      -1.988
      -1.344
       0.293
       1.296
       0.851
      -0.554
      -1.776
      -1.984
      -1.122
       0.248
       1.394
       1.783
       1.280
       0.181
      -0.920
      -1.459
      -1.243
      -0.538
       0.211
       0.725
       0.960
       0.922
       0.543
      -0.195
      -1.081
      -1.700
      -1.652
      -0.804
       0.569
       1.809
       2.186
       1.453
       0.204
      -0.488
      -0.056
       0.918
       1.222
       0.287
      -1.163
      -1.834
      -1.171
       0.164
       1.051
       0.956
       0.227
      -0.451
      -0.713
      -0.687
      -0.673
      -0.740
      -0.654
      -0.169
       0.632
       1.346
       1.571
       1.195
       0.399
      -0.517
      -1.235
      -1.460
      -1.021
      -0.067
       0.887
       1.241
       0.791
      -0.034
      -0.502
      -0.271
       0.254
       0.315
      -0.382
      -1.251
      -1.312
      -0.180
       1.403
       2.098
       1.147
      -0.881
      -2.487
      -2.456
      -0.844
       1.107
       2.020
       1.496
       0.323
      -0.343
      -0.047
       0.646
       0.801
       0.030
      -1.176
      -1.895
      -1.521
      -0.226
       1.200
       1.932
       1.661
       0.724
      -0.212
      -0.632
      -0.517
      -0.316
      -0.541
      -1.261
      -1.937
      -1.784
      -0.437
       1.566
       2.992
       2.800
       1.076
      -0.921
      -1.785
      -1.142
       0.123
       0.774
       0.320
      -0.657
      -1.131
      -0.585
       0.524
       1.167
       0.705
      -0.462
      -1.236
      -0.837
       0.471
       1.629
       1.672
       0.475
      -1.181
      -2.162
      -1.747
      -0.136
       1.624
       2.308
       1.395
      -0.474
      -1.935
      -2.004
      -0.890
       0.305
       0.739
       0.575
       0.511
       0.792
       0.966
       0.604
      -0.071
      -0.493
      -0.484
      -0.395
      -0.507
      -0.575
      -0.209
       0.424
       0.600
      -0.074
      -0.977
      -1.001
       0.155
       1.455
       1.486
      -0.053
      -1.938
      -2.503
      -1.150
       1.139
       2.703
       2.609
       1.250
      -0.275
      -1.170
      -1.325
      -0.961
      -0.249
       0.625
       1.276
       1.265
       0.482
      -0.664
      -1.488
      -1.510
      -0.736
       0.401
       1.320
       1.547
       0.922
      -0.291
      -1.501
      -2.112
      -1.872
      -0.959
       0.198
       1.192
       1.826
       2.110
       2.053
       1.509
       0.333
      -1.242
      -2.512
      -2.764
      -1.875
      -0.368
       1.075
       2.028
       2.249
       1.491
      -0.295
      -2.534
      -4.062
      -3.914
      -2.198
      -0.144
       0.818
       0.150
      -1.479
      -2.850
      -3.169
      -2.498
      -1.399
      -0.242
       1.090
       2.835
       4.757
       6.049
       5.968
       4.632
       3.127
       2.668
       3.508
       4.637
       4.561
       2.498
      -1.008
      -4.387
      -5.968
      -5.017
      -2.315
       0.214
       0.831
      -0.660
      -2.740
      -3.463
      -2.049
       0.651
       3.069
       4.177
       3.943
       2.786
       0.890
      -1.801
      -4.964
      -7.529
      -8.231
      -6.648
      -3.719
      -1.158
      -0.165
      -0.520
      -0.844
       0.115
       2.296
       4.365
       4.971
       4.017
       2.725
       2.491
       3.632
       5.146
       5.616
       4.342
       1.735
      -1.188
      -3.513
      -4.728
      -4.641
      -3.276
      -0.929
       1.758
       3.832
       4.317
       2.678
      -0.750
      -4.745
      -7.708
      -8.432
      -6.614
      -2.959
       1.060
       3.710
       3.806
       1.459
      -1.892
      -4.341
      -4.613
      -2.573
       0.971
       4.729
       7.322
       7.661
       5.350
       1.013
      -3.707
      -6.711
      -6.468
      -2.908
       2.524
       7.689
      10.682
      10.280
       6.197
      -0.477
      -7.117
     -10.529
      -8.925
      -3.383
       2.673
       5.872
       5.213
       2.265
      -0.767
      -3.029
      -5.036
      -7.006
      -7.766
      -5.726
      -0.929
       4.193
       6.410
       4.298
      -0.523
      -4.601
      -5.227
      -2.262
       2.015
       4.720
       4.382
       1.728
      -1.154
      -2.393
      -1.381
       1.282
       4.461
       7.083
       8.401
       8.082
       6.245
       3.376
       0.142
      -2.768
      -4.730
      -5.372
      -4.861
      -3.916
      -3.367
      -3.560
      -4.163
      -4.553
      -4.408
      -3.951
      -3.614
      -3.452
      -2.899
      -1.214
       1.715
       4.976
       7.084
       6.912
       4.323
       0.209
      -3.800
      -5.773
      -4.318
       0.239
       5.390
       7.846
       6.188
       2.246
      -0.501
      -0.148
       2.096
       3.569
       3.064
       1.838
       1.869
       3.533
       5.163
       4.766
       1.983
      -1.675
      -4.376
      -5.563
      -5.964
      -6.233
      -6.005
      -4.546
      -2.098
      -0.134
      -0.095
      -2.100
      -4.946
      -7.060
      -7.235
      -4.872
      -0.281
       4.932
       8.288
       8.040
       4.775
       1.202
      -0.129
       0.838
       1.699
       0.133
      -3.575
      -6.609
      -6.178
      -2.015
       3.429
       6.971
       6.988
       4.283
       1.197
      -0.164
       0.721
       2.725
       4.102
       3.692
       1.481
      -1.577
      -4.185
      -5.421
      -5.223
      -4.260
      -3.259
      -2.436
      -1.592
      -0.648
       0.148
       0.525
       0.458
       0.021
      -0.768
      -1.702
      -2.069
      -0.899
       2.283
       6.834
      10.970
      12.439
       9.705
       3.031
      -5.276
     -11.760
     -13.382
      -9.042
      -0.440
       8.279
      12.454
       9.705
       1.675
      -6.911
     -11.397
     -10.110
      -4.851
       1.008
       4.842
       5.752
       4.112
       0.864
      -2.665
      -4.859
      -4.520
      -1.920
       0.997
       1.953
       0.296
      -2.241
      -2.899
      -0.318
       4.127
       7.358
       7.116
       3.776
      -0.155
      -2.263
      -2.077
      -0.920
      -0.243
      -0.330
      -0.550
      -0.469
      -0.312
      -0.410
      -0.635
      -0.695
      -0.752
      -1.320
      -2.411
      -3.078
      -2.190
       0.198
       2.439
       2.609
       0.422
      -2.278
      -3.111
      -1.319
       1.645
       3.495
       2.932
       0.336
      -2.815
      -4.887
      -4.746
      -2.138
       2.091
       6.091
       7.781
       6.151
       2.181
      -1.671
      -3.257
      -2.213
       0.238
       2.658
       4.224
       4.421
       2.687
      -0.945
      -4.975
      -6.965
      -5.557
      -1.986
       0.783
       0.667
      -1.751
      -3.983
      -4.033
      -2.031
       0.288
       1.447
       1.455
       1.356
       1.857
       2.609
       2.792
       2.147
       1.274
       0.963
       1.352
       1.741
       1.221
      -0.448
      -2.472
      -3.543
      -2.850
      -0.743
       1.492
       2.590
       2.206
       1.032
       0.039
      -0.408
      -0.638
      -0.951
      -1.013
      -0.169
       1.618
       3.322
       3.471
       1.333
      -2.435
      -6.151
      -8.064
      -7.204
      -3.805
       0.731
       4.452
       5.946
       5.199
       3.363
       1.615
       0.313
      -0.723
      -1.443
      -1.416
      -0.426
       1.088
       2.314
       2.691
       2.188
       1.096
      -0.325
      -1.924
      -3.432
      -4.261
      -3.754
      -1.826
       0.654
       2.305
       2.276
       0.938
      -0.466
      -0.878
      -0.209
       0.779
       1.207
       0.711
      -0.401
      -1.421
      -1.727
      -1.268
      -0.654
      -0.633
      -1.302
      -1.883
      -1.440
       0.110
       1.790
       2.473
       1.980
       1.181
       0.973
       1.316
       1.391
       0.671
      -0.409
      -0.947
      -0.629
      -0.040
       0.094
      -0.220
      -0.290
       0.404
       1.533
       2.117
       1.367
      -0.584
      -2.672
      -3.619
      -2.813
      -0.719
       1.455
       2.552
       2.199
       0.967
      -0.176
      -0.673
      -0.659
      -0.541
      -0.471
      -0.383
      -0.346
      -0.564
      -0.946
      -0.922
       0.003
       1.480
       2.348
       1.624
      -0.510
      -2.750
      -3.670
      -2.689
      -0.290
       2.411
       4.245
       4.454
       2.998
       0.643
      -1.353
      -1.943
      -1.045
       0.291
       0.613
      -0.726
      -2.949
      -4.467
      -4.204
      -2.366
      -0.007
       1.969
       3.289
       3.990
       3.992
       3.173
       1.735
       0.203
      -0.990
      -1.764
      -2.124
      -1.798
      -0.416
       1.880
       4.117
       4.935
       3.469
       0.007
      -3.989
      -6.541
      -6.234
      -3.117
       1.206
       4.436
       4.881
       2.434
      -1.372
      -4.285
      -4.752
      -2.937
      -0.529
       0.638
       0.042
      -1.246
      -1.686
      -0.709
       0.838
       1.537
       0.689
      -1.117
      -2.538
      -2.499
      -0.818
       1.839
       4.319
       5.390
       4.306
       1.453
      -1.553
      -2.797
      -1.499
       1.310
       3.571
       3.814
       2.214
       0.233
      -0.681
      -0.184
       0.912
       1.469
       0.928
      -0.449
      -2.005
      -3.169
      -3.587
      -3.085
      -1.804
      -0.365
       0.403
       0.110
      -0.829
      -1.581
      -1.665
      -1.325
      -1.188
      -1.553
      -2.006
      -1.734
      -0.316
       1.759
       3.437
       4.004
       3.615
       2.913
       2.272
       1.571
       0.622
      -0.415
      -1.146
      -1.320
      -0.947
      -0.104
       1.164
       2.643
       3.731
       3.634
       1.978
      -0.698
      -3.127
      -4.127
      -3.377
      -1.554
       0.115
       0.557
      -0.493
      -2.230
      -3.243
      -2.572
      -0.468
       1.851
       3.172
       3.031
       1.727
      -0.092
      -1.763
      -2.744
      -2.741
      -1.883
      -0.752
      -0.039
      -0.025
      -0.404
      -0.629
      -0.370
       0.390
       1.489
       2.613
       3.258
       2.950
       1.694
       0.123
      -0.928
      -1.074
      -0.634
      -0.246
      -0.212
      -0.204
       0.307
       1.276
       1.847
       1.096
      -0.865
      -2.710
      -3.023
      -1.645
       0.177
       1.022
       0.593
      -0.233
      -0.477
       0.002
       0.605
       0.777
       0.490
       0.010
      -0.524
      -1.103
      -1.532
      -1.368
      -0.372
       1.030
       1.938
       1.792
       0.950
       0.341
       0.490
       0.937
       0.708
      -0.551
      -1.967
      -2.090
      -0.320
       2.294
       3.809
       3.092
       0.802
      -1.331
      -2.156
      -1.944
      -1.682
      -1.821
      -1.923
      -1.451
      -0.594
      -0.093
      -0.325
      -0.773
      -0.542
       0.657
       2.102
       2.647
       1.715
      -0.168
      -1.699
      -1.747
      -0.226
       1.772
       2.772
       2.048
       0.139
      -1.647
      -2.258
      -1.565
      -0.242
       0.870
       1.305
       1.042
       0.262
      -0.816
      -1.848
      -2.331
      -1.834
      -0.341
       1.682
       3.485
       4.297
       3.562
