Origin Time       07/09/2011 17:58:18
Lat.              28.6 N	
Long.             77.0 E	
Depth (Km)          8.0
Magnitude         4.2
 Region           DELHI-HARYANA(SONIPAT)                                           
 Above details taken from IMD 
     
Station Code      DLU
Station Lat.       28.691  N
Station Long.      77.212  E
Station Height(m)  220.0
Site Class        C   Vs30 between 200 m/sec to 375 m/sec *  
Record Time       07.09.2011 17:54:20.204
Sampling Rate     200. Hz
 Record Duration  102.400 Sec.
 Direction         E-W (E positive)
Max. Acceleration    -53.257 cm/sec**2
     
  * For reference see Site Classification link of website 
     
 Base Line Corrected and Low Pass Filtered (Cut Off at 35 Hz) Time History
 Acceleration data in cm/sec**2
    
[...]
      -0.039
      -0.033
      -0.020
      -0.013
      -0.020
      -0.041
      -0.064
      -0.074
      -0.061
      -0.031
       0.002
       0.025
       0.035
       0.030
       0.020
       0.013
       0.013
       0.013
       0.001
      -0.025
      -0.053
      -0.071
      -0.069
      -0.047
      -0.017
       0.007
       0.018
       0.019
       0.017
       0.016
       0.015
       0.015
       0.014
       0.005
      -0.015
      -0.045
      -0.071
      -0.079
      -0.060
      -0.023
       0.010
       0.022
       0.009
      -0.013
      -0.024
      -0.015
       0.006
       0.022
       0.019
      -0.004
      -0.037
      -0.063
      -0.077
      -0.076
      -0.060
      -0.027
       0.016
       0.053
       0.066
       0.047
       0.006
      -0.037
      -0.054
      -0.036
       0.002
       0.035
       0.042
       0.022
      -0.012
      -0.042
      -0.055
      -0.048
      -0.028
      -0.003
       0.019
       0.028
       0.018
      -0.002
      -0.015
      -0.011
       0.007
       0.022
       0.021
      -0.002
      -0.037
      -0.066
      -0.074
      -0.057
      -0.030
      -0.003
       0.015
       0.022
       0.020
       0.015
       0.017
       0.026
       0.031
       0.022
      -0.002
      -0.036
      -0.065
      -0.076
      -0.061
      -0.025
       0.013
       0.037
       0.040
       0.022
      -0.006
      -0.025
      -0.020
       0.007
       0.034
       0.035
       0.004
      -0.045
      -0.083
      -0.085
      -0.051
      -0.003
       0.031
       0.034
       0.012
      -0.019
      -0.039
      -0.030
       0.010
       0.058
       0.082
       0.058
      -0.010
      -0.087
      -0.134
      -0.124
      -0.063
       0.015
       0.075
       0.094
       0.072
       0.022
      -0.031
      -0.056
      -0.034
       0.022
       0.078
       0.094
       0.053
      -0.025
      -0.095
      -0.117
      -0.079
      -0.007
       0.059
       0.087
       0.070
       0.025
      -0.015
      -0.025
      -0.003
       0.028
       0.044
       0.029
      -0.012
      -0.059
      -0.090
      -0.089
      -0.052
       0.009
       0.071
       0.106
       0.092
       0.031
      -0.047
      -0.098
      -0.097
      -0.047
       0.017
       0.057
       0.049
       0.000
      -0.057
      -0.089
      -0.079
      -0.036
       0.020
       0.066
       0.083
       0.068
       0.035
       0.003
      -0.013
      -0.015
      -0.014
      -0.029
      -0.067
      -0.117
      -0.150
      -0.137
      -0.073
       0.019
       0.097
       0.125
       0.095
       0.030
      -0.025
      -0.042
      -0.020
       0.021
       0.052
       0.054
       0.018
      -0.044
      -0.106
      -0.136
      -0.118
      -0.058
       0.015
       0.063
       0.065
       0.031
      -0.008
      -0.020
       0.007
       0.057
       0.100
       0.103
       0.053
      -0.037
      -0.125
      -0.164
      -0.126
      -0.025
       0.089
       0.156
       0.147
       0.077
      -0.008
      -0.063
      -0.065
      -0.022
       0.033
       0.060
       0.033
      -0.039
      -0.114
      -0.148
      -0.115
      -0.031
       0.061
       0.113
       0.109
       0.062
       0.005
      -0.033
      -0.036
      -0.005
       0.041
       0.072
       0.062
       0.009
      -0.065
      -0.117
      -0.112
      -0.051
       0.028
       0.079
       0.075
       0.028
      -0.026
      -0.058
      -0.054
      -0.023
       0.015
       0.039
       0.035
       0.006
      -0.037
      -0.071
      -0.076
      -0.049
      -0.005
       0.033
       0.046
       0.036
       0.013
      -0.004
       0.000
       0.020
       0.031
       0.011
      -0.041
      -0.101
      -0.135
      -0.119
      -0.054
       0.027
       0.085
       0.097
       0.067
       0.021
      -0.013
      -0.018
       0.004
       0.033
       0.039
       0.008
      -0.048
      -0.102
      -0.126
      -0.104
      -0.041
       0.032
       0.079
       0.078
       0.034
      -0.021
      -0.053
      -0.043
      -0.001
       0.043
       0.061
       0.047
       0.011
      -0.029
      -0.057
      -0.060
      -0.033
       0.008
       0.036
       0.023
      -0.030
      -0.095
      -0.125
      -0.090
      -0.003
       0.081
       0.108
       0.065
      -0.010
      -0.067
      -0.075
      -0.044
      -0.004
       0.022
       0.035
       0.044
       0.052
       0.049
       0.030
       0.005
      -0.012
      -0.020
      -0.030
      -0.046
      -0.061
      -0.064
      -0.050
      -0.029
      -0.015
      -0.013
      -0.012
       0.002
       0.027
       0.050
       0.059
       0.055
       0.041
       0.015
      -0.024
      -0.066
      -0.095
      -0.093
      -0.058
      -0.008
       0.032
       0.038
       0.011
      -0.032
      -0.065
      -0.066
      -0.029
       0.030
       0.076
       0.078
       0.032
      -0.033
      -0.078
      -0.082
      -0.051
      -0.005
       0.033
       0.048
       0.035
      -0.002
      -0.049
      -0.081
      -0.073
      -0.017
       0.057
       0.103
       0.085
       0.006
      -0.098
      -0.176
      -0.191
      -0.137
      -0.039
       0.062
       0.127
       0.132
       0.077
      -0.005
      -0.067
      -0.076
      -0.035
       0.021
       0.051
       0.034
      -0.018
      -0.074
      -0.103
      -0.096
      -0.063
      -0.024
       0.009
       0.029
       0.032
       0.024
       0.011
       0.001
      -0.001
       0.007
       0.018
       0.021
       0.009
      -0.015
      -0.039
      -0.050
      -0.043
      -0.023
      -0.001
       0.012
       0.009
      -0.001
      -0.007
      -0.003
       0.003
       0.000
      -0.020
      -0.051
      -0.077
      -0.081
      -0.059
      -0.022
       0.014
       0.036
       0.040
       0.025
      -0.003
      -0.028
      -0.031
      -0.006
       0.034
       0.061
       0.047
      -0.010
      -0.080
      -0.121
      -0.109
      -0.055
       0.009
       0.052
       0.057
       0.028
      -0.011
      -0.038
      -0.041
      -0.021
       0.009
       0.029
       0.022
      -0.019
      -0.079
      -0.123
      -0.123
      -0.072
       0.008
       0.076
       0.096
       0.061
      -0.003
      -0.059
      -0.077
      -0.053
      -0.005
       0.038
       0.052
       0.031
      -0.017
      -0.072
      -0.110
      -0.113
      -0.075
      -0.010
       0.049
       0.073
       0.054
       0.006
      -0.040
      -0.056
      -0.033
       0.011
       0.045
       0.045
       0.008
      -0.042
      -0.079
      -0.082
      -0.054
      -0.013
       0.023
       0.042
       0.043
       0.025
      -0.002
      -0.022
      -0.023
      -0.010
       0.002
       0.000
      -0.014
      -0.032
      -0.039
      -0.031
      -0.011
       0.008
       0.017
       0.013
       0.001
      -0.014
      -0.021
      -0.016
      -0.003
       0.006
       0.000
      -0.019
      -0.037
      -0.043
      -0.033
      -0.013
       0.006
       0.013
       0.008
      -0.003
      -0.011
      -0.010
       0.003
       0.023
       0.042
       0.042
       0.016
      -0.027
      -0.069
      -0.090
      -0.079
      -0.041
       0.003
       0.032
       0.034
       0.017
      -0.004
      -0.014
      -0.011
       0.001
       0.010
       0.005
      -0.016
      -0.045
      -0.067
      -0.069
      -0.047
      -0.012
       0.018
       0.029
       0.021
       0.008
       0.000
      -0.001
       0.005
       0.018
       0.032
       0.034
       0.011
      -0.035
      -0.086
      -0.112
      -0.095
      -0.048
      -0.003
       0.015
       0.006
      -0.007
      -0.011
      -0.001
       0.014
       0.032
       0.047
       0.053
       0.042
       0.003
      -0.058
      -0.115
      -0.134
      -0.102
      -0.038
       0.022
       0.049
       0.039
       0.009
      -0.013
      -0.013
       0.002
       0.016
       0.015
       0.000
      -0.023
      -0.051
      -0.077
      -0.088
      -0.073
      -0.029
       0.028
       0.072
       0.078
       0.044
      -0.001
      -0.018
       0.009
       0.058
       0.084
       0.058
      -0.009
      -0.074
      -0.096
      -0.065
      -0.015
       0.015
       0.007
      -0.027
      -0.059
      -0.066
      -0.040
       0.014
       0.076
       0.120
       0.121
       0.066
      -0.032
      -0.134
      -0.185
      -0.153
      -0.051
       0.064
       0.123
       0.089
      -0.013
      -0.111
      -0.134
      -0.066
       0.043
       0.114
       0.099
       0.010
      -0.097
      -0.158
      -0.143
      -0.062
       0.040
       0.113
       0.122
       0.059
      -0.047
      -0.141
      -0.172
      -0.119
      -0.010
       0.097
       0.147
       0.117
       0.031
      -0.062
      -0.113
      -0.108
      -0.059
       0.006
       0.057
       0.071
       0.037
      -0.030
      -0.092
      -0.106
      -0.055
       0.036
       0.106
       0.100
       0.014
      -0.090
      -0.128
      -0.061
       0.070
       0.184
       0.217
       0.166
       0.062
      -0.079
      -0.254
      -0.416
      -0.456
      -0.293
      -0.009
       0.157
       0.030
      -0.238
      -0.221
       0.338
       1.087
       1.222
       0.341
      -0.840
      -0.968
       0.438
       2.115
       2.153
       0.118
      -2.182
      -2.454
      -0.475
       1.445
       0.895
      -1.800
      -3.643
      -2.130
       1.887
       4.939
       4.474
       1.250
      -1.841
      -2.827
      -2.152
      -1.509
      -1.917
      -3.084
      -4.004
      -3.672
      -1.527
       2.024
       5.287
       6.098
       3.694
      -0.140
      -2.373
      -1.553
       0.825
       1.973
       0.714
      -1.461
      -2.144
      -0.517
       2.005
       3.340
       2.634
       0.632
      -1.318
      -2.269
      -1.899
      -0.416
       1.380
       2.287
       1.591
      -0.124
      -1.412
      -1.458
      -0.972
      -1.284
      -2.536
      -3.151
      -1.614
       1.262
       2.554
       0.368
      -3.467
      -4.758
      -1.516
       3.369
       4.940
       1.794
      -1.957
      -1.159
       4.239
       8.558
       6.424
      -1.246
      -8.057
      -8.603
      -3.365
       2.637
       5.039
       3.526
       0.823
      -0.508
       0.034
       1.290
       1.745
       0.481
      -2.249
      -4.763
      -4.721
      -1.140
       3.903
       6.248
       3.362
      -2.692
      -6.694
      -5.314
      -0.520
       2.494
       0.753
      -3.488
      -5.223
      -1.908
       3.942
       7.312
       5.611
       0.980
      -2.120
      -1.352
       1.494
       2.692
       0.526
      -3.081
      -4.731
      -3.042
       0.224
       2.285
       2.157
       1.223
       1.380
       2.970
       4.396
       3.607
       0.137
      -4.180
      -6.592
      -5.644
      -2.241
       1.138
       2.338
       1.160
      -0.496
      -0.286
       2.280
       4.967
       4.573
       0.077
      -5.948
      -9.390
      -8.183
      -3.810
       0.547
       2.928
       3.539
       3.401
       2.961
       2.195
       1.408
       1.161
       1.331
       0.819
      -1.128
      -3.423
      -3.705
      -0.875
       3.231
       5.295
       3.864
       0.909
      -0.382
       0.784
       1.969
       0.520
      -3.066
      -5.380
      -3.745
       0.901
       5.060
       6.236
       4.886
       2.852
       0.596
      -3.115
      -8.650
     -13.542
     -14.075
      -8.971
      -0.935
       5.770
       8.925
       9.279
       8.475
       7.002
       4.397
       0.759
      -2.689
      -4.706
      -5.242
      -5.041
      -4.231
      -1.945
       2.313
       7.151
       9.588
       7.375
       1.252
      -5.271
      -8.560
      -7.331
      -2.950
       1.916
       4.757
       4.206
       0.752
      -3.198
      -4.751
      -3.013
      -0.205
       0.499
      -1.366
      -2.644
      -0.100
       5.206
       8.083
       4.489
      -3.549
      -9.094
      -6.893
       1.337
       8.535
       9.130
       3.926
      -1.640
      -3.305
      -1.620
      -0.255
      -1.583
      -4.324
      -5.150
      -2.057
       3.786
       8.850
       9.558
       4.453
      -4.659
     -13.058
     -15.404
      -9.443
       1.483
      10.218
      11.494
       6.600
       1.929
       2.256
       5.642
       5.724
      -0.880
     -10.256
     -14.793
     -10.682
      -1.417
       5.779
       6.434
       1.996
      -2.460
      -3.021
       0.160
       3.813
       4.842
       2.825
      -0.257
      -2.261
      -2.619
      -2.082
      -1.286
      -0.038
       1.901
       3.648
       3.357
       0.028
      -4.815
      -7.702
      -5.956
      -0.134
       6.118
       8.850
       6.902
       2.677
      -0.066
       0.614
       3.370
       4.905
       2.852
      -2.272
      -7.533
      -9.874
      -8.317
      -4.352
      -0.365
       2.274
       3.686
       4.582
       5.412
       6.311
       7.422
       9.090
      11.788
      15.588
      19.365
      20.668
      16.993
       7.608
      -5.896
     -20.846
     -34.988
     -46.584
     -53.257
     -51.631
     -39.386
     -18.571
       3.501
      18.163
      21.566
      17.162
      11.706
       9.052
       8.198
       6.618
       4.068
       2.679
       4.386
       9.217
      15.641
      21.399
      23.995
      21.620
      14.559
       5.541
      -1.922
      -5.966
      -7.441
      -8.687
     -11.206
     -14.166
     -14.751
     -10.160
      -0.230
      11.115
      17.556
      14.925
       4.892
      -6.133
     -12.298
     -12.684
     -10.566
      -9.138
      -9.021
      -9.942
     -12.903
     -18.514
     -23.316
     -20.106
      -4.113
      20.567
      41.402
      45.587
      29.551
       2.095
     -21.361
     -29.062
     -20.019
      -2.769
      12.348
      20.257
      22.091
      21.048
      18.318
      12.774
       3.775
      -6.490
     -13.822
     -15.097
     -10.470
      -2.890
       3.861
       6.668
       3.982
      -2.927
      -9.123
      -8.044
       3.228
      19.785
      30.898
      27.713
      10.002
     -14.095
     -34.496
     -45.406
     -46.317
     -38.996
     -25.471
      -9.059
       4.790
      11.162
       9.977
       6.771
       8.129
      15.814
      25.170
      29.074
      23.615
      10.668
      -4.123
     -15.457
     -20.983
     -21.025
     -16.886
      -9.723
      -0.502
       9.742
      19.861
      28.406
      33.201
      31.678
      22.624
       7.957
      -7.655
     -19.371
     -24.549
     -23.019
     -16.010
      -5.825
       3.619
       7.615
       3.661
      -6.234
     -16.955
     -24.148
     -26.399
     -24.020
     -17.075
      -5.897
       6.616
      14.863
      14.406
       6.448
      -2.211
      -4.541
       0.913
       9.352
      14.679
      14.974
      13.186
      13.077
      15.272
      17.392
      17.182
      14.591
      10.869
       6.612
       1.459
      -4.445
      -9.468
     -11.641
     -10.887
      -9.635
     -10.696
     -14.375
     -17.865
     -17.771
     -13.333
      -7.136
      -2.693
      -1.460
      -1.963
      -1.288
       2.661
       9.549
      16.341
      18.763
      14.079
       3.521
      -7.773
     -13.770
     -11.541
      -3.285
       5.217
       8.730
       6.224
       1.205
      -1.542
      -0.029
       3.589
       5.504
       4.019
       0.785
      -1.421
      -1.493
      -0.303
       1.228
       3.429
       6.866
      10.554
      12.080
       9.870
       4.926
      -0.156
      -3.845
      -6.999
     -11.401
     -17.187
     -22.043
     -23.104
     -19.618
     -13.620
      -7.943
      -3.734
      -0.003
       4.615
      10.074
      15.000
      18.155
      19.235
      18.106
      13.992
       6.359
      -3.359
     -11.708
     -15.446
     -13.883
      -9.160
      -4.595
      -2.569
      -3.124
      -3.825
      -1.369
       5.507
      14.041
      18.871
      16.597
       9.481
       4.013
       4.775
       9.474
      10.755
       3.515
      -9.668
     -20.556
     -22.553
     -16.051
      -7.221
      -2.292
      -3.098
      -7.284
     -11.545
     -14.153
     -15.058
     -14.615
     -12.757
      -9.211
      -4.101
       1.989
       8.528
      15.326
      22.006
      27.258
      29.020
      25.856
      18.382
       9.291
       1.784
      -2.327
      -3.267
      -2.440
      -1.203
      -0.387
      -0.416
      -1.218
      -1.926
      -1.187
       1.577
       5.050
       6.615
       4.578
      -0.093
      -4.577
      -6.827
      -7.243
      -7.717
      -9.429
     -11.896
     -13.884
     -14.488
     -13.099
      -9.153
      -2.993
       3.097
       5.924
       4.487
       1.741
       2.206
       7.301
      13.424
      15.097
      10.008
       0.971
      -6.681
      -9.209
      -6.464
      -1.019
       3.847
       5.695
       3.668
      -1.390
      -7.368
     -11.752
     -12.615
      -9.459
      -3.627
       2.230
       5.709
       6.187
       4.968
       3.880
       3.820
       4.613
       5.938
       7.889
      10.408
      12.326
      11.528
       6.692
      -0.856
      -7.411
      -9.687
      -7.659
      -4.565
      -3.940
      -6.624
     -10.484
     -12.742
     -12.347
     -10.174
      -7.206
      -3.012
       3.601
      12.435
      20.726
      24.448
      21.065
      11.350
      -1.087
     -11.878
     -17.985
     -18.672
     -15.276
     -10.256
      -6.026
      -3.930
      -3.784
      -4.309
      -4.135
      -2.554
       0.399
       4.239
       8.337
      12.153
      15.296
      17.202
      16.829
      13.205
       6.718
      -0.377
      -5.320
      -6.928
      -6.150
      -4.624
      -3.193
      -2.046
      -1.687
      -2.815
      -5.053
      -6.474
      -5.238
      -1.900
       0.464
      -0.946
      -5.657
     -10.069
     -10.679
      -6.991
      -1.351
       3.564
       6.704
       8.403
       8.966
       8.045
       5.482
       2.489
       1.456
       4.001
       9.045
      13.191
      13.441
       9.658
       4.337
       0.053
      -2.649
      -4.806
      -6.998
      -8.339
      -7.597
      -4.853
      -1.683
       0.182
       0.156
      -1.174
      -2.986
      -4.956
      -7.126
      -9.298
     -10.821
     -11.011
      -9.612
      -6.778
      -2.833
       1.702
       5.965
       8.989
      10.289
      10.162
       9.229
       7.639
       4.918
       0.865
      -3.350
      -5.368
      -3.478
       1.463
       6.213
       7.697
       5.582
       2.215
      -0.130
      -1.740
      -4.839
     -10.324
     -15.534
     -15.955
      -9.579
       0.498
       8.118
       9.055
       4.358
      -0.959
      -2.437
       0.344
       4.255
       6.051
       5.120
