Origin Time       16/4/2013 10:44:11	 UTC
Lat.              28.0 N	
Long.             62.1 E	
Depth (Km)         46.0
Magnitude         7.8
 Region           Iran-Pakistan-Border-Region                                      
 Above details taken from IMD 
    
Station Code      DLU
Station Lat.       28.691  N
Station Long.      77.212  E
Station Height(m)  220.0
Site Class        C   Vs30 between 200 m/sec to 375 m/sec *  
Record Time       16.04.2013 10:49:16.774 UTC
Sampling Rate     200. Hz
 Record Duration  100.755 Sec.
 Direction         N-S (N positive)
Max. Acceleration      2.715 cm/sec**2
     
  * For reference see Site Classification link of website 
     
 Base Line Corrected and Low Pass Filtered (Cut Off at 35 Hz) Time History
 Acceleration data in cm/sec**2
    
[...]
       0.171
       0.114
      -0.034
      -0.213
      -0.322
      -0.308
      -0.202
      -0.087
      -0.033
      -0.049
      -0.096
      -0.128
      -0.130
      -0.126
      -0.153
      -0.225
      -0.310
      -0.352
      -0.324
      -0.258
      -0.228
      -0.296
      -0.460
      -0.651
      -0.772
      -0.761
      -0.635
      -0.474
      -0.372
      -0.371
      -0.446
      -0.536
      -0.586
      -0.573
      -0.501
      -0.385
      -0.247
      -0.109
       0.002
       0.069
       0.094
       0.102
       0.139
       0.238
       0.394
       0.555
       0.653
       0.665
       0.634
       0.630
       0.673
       0.712
       0.686
       0.598
       0.519
       0.513
       0.568
       0.603
       0.537
       0.362
       0.147
      -0.017
      -0.085
      -0.090
      -0.107
      -0.190
      -0.326
      -0.455
      -0.534
      -0.576
      -0.620
      -0.679
      -0.714
      -0.679
      -0.568
      -0.436
      -0.350
      -0.345
      -0.402
      -0.462
      -0.468
      -0.396
      -0.270
      -0.143
      -0.062
      -0.045
      -0.075
      -0.124
      -0.169
      -0.201
      -0.216
      -0.222
      -0.229
      -0.247
      -0.278
      -0.318
      -0.362
      -0.413
      -0.472
      -0.532
      -0.575
      -0.595
      -0.599
      -0.594
      -0.569
      -0.496
      -0.365
      -0.211
      -0.087
      -0.029
      -0.027
      -0.045
      -0.056
      -0.056
      -0.054
      -0.054
      -0.039
       0.020
       0.138
       0.300
       0.466
       0.594
       0.659
       0.663
       0.626
       0.583
       0.574
       0.628
       0.740
       0.871
       0.971
       1.003
       0.962
       0.876
       0.782
       0.720
       0.711
       0.747
       0.792
       0.798
       0.736
       0.616
       0.474
       0.352
       0.269
       0.219
       0.187
       0.155
       0.109
       0.036
      -0.065
      -0.178
      -0.272
      -0.311
      -0.266
      -0.136
       0.043
       0.208
       0.312
       0.361
       0.407
       0.492
       0.604
       0.685
       0.686
       0.610
       0.516
       0.462
       0.449
       0.424
       0.324
       0.140
      -0.067
      -0.196
      -0.175
      -0.012
       0.206
       0.363
       0.388
       0.284
       0.105
      -0.092
      -0.272
      -0.408
      -0.478
      -0.482
      -0.456
      -0.467
      -0.565
      -0.735
      -0.892
      -0.933
      -0.806
      -0.555
      -0.290
      -0.115
      -0.069
      -0.124
      -0.217
      -0.286
      -0.286
      -0.205
      -0.062
       0.090
       0.184
       0.178
       0.072
      -0.080
      -0.205
      -0.246
      -0.179
      -0.014
       0.211
       0.434
       0.591
       0.646
       0.617
       0.563
       0.531
       0.522
       0.495
       0.400
       0.230
       0.018
      -0.189
      -0.372
      -0.547
      -0.730
      -0.904
      -1.024
      -1.054
      -1.002
      -0.903
      -0.794
      -0.687
      -0.579
      -0.467
      -0.364
      -0.279
      -0.211
      -0.142
      -0.073
      -0.034
      -0.069
      -0.201
      -0.397
      -0.577
      -0.653
      -0.583
      -0.399
      -0.183
      -0.012
       0.086
       0.134
       0.171
       0.224
       0.293
       0.362
       0.421
       0.475
       0.532
       0.583
       0.598
       0.549
       0.434
       0.280
       0.129
       0.014
      -0.060
      -0.120
      -0.200
      -0.309
      -0.427
      -0.526
      -0.592
      -0.629
      -0.641
      -0.618
      -0.543
      -0.419
      -0.277
      -0.166
      -0.119
      -0.125
      -0.139
      -0.114
      -0.030
       0.103
       0.251
       0.366
       0.406
       0.356
       0.246
       0.142
       0.108
       0.169
       0.292
       0.412
       0.469
       0.439
       0.336
       0.194
       0.058
      -0.027
      -0.031
       0.037
       0.124
       0.155
       0.095
      -0.026
      -0.131
      -0.160
      -0.105
      -0.001
       0.113
       0.212
       0.281
       0.309
       0.285
       0.218
       0.146
       0.113
       0.139
       0.200
       0.249
       0.254
       0.224
       0.202
       0.228
       0.306
       0.402
       0.471
       0.497
       0.500
       0.514
       0.552
       0.592
       0.595
       0.545
       0.463
       0.384
       0.338
       0.327
       0.323
       0.284
       0.171
      -0.030
      -0.296
      -0.580
      -0.825
      -0.987
      -1.047
      -1.020
      -0.956
      -0.920
      -0.963
      -1.084
      -1.226
      -1.300
      -1.239
      -1.046
      -0.791
      -0.568
      -0.438
      -0.405
      -0.432
      -0.470
      -0.480
      -0.442
      -0.345
      -0.194
      -0.015
       0.142
       0.225
       0.210
       0.128
       0.045
       0.026
       0.098
       0.233
       0.361
       0.404
       0.323
       0.145
      -0.060
      -0.221
      -0.308
      -0.334
      -0.331
      -0.327
      -0.337
      -0.363
      -0.398
      -0.427
      -0.434
      -0.409
      -0.352
      -0.270
      -0.180
      -0.106
      -0.073
      -0.088
      -0.132
      -0.161
      -0.139
      -0.059
       0.058
       0.193
       0.329
       0.447
       0.519
       0.531
       0.512
       0.524
       0.626
       0.820
       1.041
       1.200
       1.239
       1.169
       1.058
       0.982
       0.975
       1.004
       0.994
       0.894
       0.722
       0.543
       0.414
       0.326
       0.224
       0.060
      -0.154
      -0.350
      -0.461
      -0.475
      -0.444
      -0.434
      -0.473
      -0.539
      -0.601
      -0.660
      -0.738
      -0.842
      -0.936
      -0.979
      -0.971
      -0.961
      -1.006
      -1.108
      -1.210
      -1.239
      -1.164
      -1.009
      -0.827
      -0.664
      -0.532
      -0.417
      -0.298
      -0.162
      -0.016
       0.124
       0.257
       0.404
       0.593
       0.819
       1.036
       1.177
       1.198
       1.111
       0.990
       0.925
       0.968
       1.094
       1.220
       1.270
       1.228
       1.149
       1.107
       1.136
       1.212
       1.284
       1.316
       1.313
       1.293
       1.256
       1.181
       1.049
       0.874
       0.710
       0.624
       0.650
       0.756
       0.866
       0.910
       0.865
       0.762
       0.649
       0.558
       0.500
       0.471
       0.461
       0.457
       0.440
       0.387
       0.283
       0.139
      -0.009
      -0.115
      -0.151
      -0.129
      -0.086
      -0.066
      -0.094
      -0.170
      -0.274
      -0.380
      -0.468
      -0.534
      -0.580
      -0.611
      -0.629
      -0.639
      -0.663
      -0.722
      -0.826
      -0.953
      -1.056
      -1.093
      -1.064
      -1.024
      -1.047
      -1.151
      -1.274
      -1.322
      -1.255
      -1.117
      -0.985
      -0.891
      -0.805
      -0.684
      -0.526
      -0.374
      -0.272
      -0.228
      -0.217
      -0.206
      -0.182
      -0.160
      -0.159
      -0.187
      -0.231
      -0.267
      -0.280
      -0.269
      -0.245
      -0.212
      -0.164
      -0.084
       0.022
       0.123
       0.179
       0.182
       0.159
       0.155
       0.193
       0.263
       0.319
       0.309
       0.213
       0.063
      -0.068
      -0.115
      -0.067
       0.028
       0.106
       0.145
       0.177
       0.253
       0.379
       0.506
       0.577
       0.601
       0.651
       0.794
       1.015
       1.216
       1.296
       1.232
       1.096
       0.987
       0.954
       0.960
       0.930
       0.833
       0.709
       0.628
       0.617
       0.629
       0.585
       0.452
       0.270
       0.124
       0.075
       0.113
       0.166
       0.157
       0.054
      -0.111
      -0.269
      -0.368
      -0.398
      -0.387
      -0.373
      -0.379
      -0.419
      -0.503
      -0.627
      -0.766
      -0.878
      -0.927
      -0.898
      -0.810
      -0.713
      -0.660
      -0.678
      -0.738
      -0.774
      -0.737
      -0.634
      -0.517
      -0.433
      -0.393
      -0.378
      -0.378
      -0.400
      -0.442
      -0.476
      -0.461
      -0.388
      -0.289
      -0.217
      -0.200
      -0.222
      -0.245
      -0.240
      -0.199
      -0.138
      -0.080
      -0.040
      -0.018
      -0.004
       0.012
       0.035
       0.061
       0.090
       0.130
       0.201
       0.322
       0.494
       0.688
       0.863
       0.982
       1.024
       0.996
       0.928
       0.867
       0.852
       0.892
       0.960
       1.005
       0.987
       0.897
       0.747
       0.561
       0.365
       0.191
       0.081
       0.058
       0.107
       0.173
       0.194
       0.162
       0.128
       0.161
       0.298
       0.504
       0.703
       0.822
       0.828
       0.727
       0.554
       0.357
       0.184
       0.065
      -0.007
      -0.072
      -0.171
      -0.317
      -0.473
      -0.591
      -0.658
      -0.711
      -0.792
      -0.900
      -0.977
      -0.972
      -0.889
      -0.788
      -0.728
      -0.719
      -0.729
      -0.723
      -0.694
      -0.663
      -0.661
      -0.699
      -0.767
      -0.837
      -0.880
      -0.898
      -0.923
      -0.985
      -1.076
      -1.138
      -1.107
      -0.970
      -0.783
      -0.634
      -0.570
      -0.565
      -0.547
      -0.449
      -0.250
       0.005
       0.237
       0.376
       0.401
       0.357
       0.312
       0.311
       0.360
       0.438
       0.531
       0.632
       0.730
       0.791
       0.771
       0.645
       0.443
       0.254
       0.180
       0.260
       0.443
       0.619
       0.699
       0.671
       0.593
       0.546
       0.583
       0.692
       0.805
       0.845
       0.779
       0.637
       0.480
       0.349
       0.248
       0.154
       0.050
      -0.064
      -0.180
      -0.282
      -0.353
      -0.368
      -0.319
      -0.221
      -0.115
      -0.042
      -0.010
      -0.003
       0.002
       0.000
      -0.045
      -0.176
      -0.401
      -0.674
      -0.908
      -1.029
      -1.019
      -0.923
      -0.806
      -0.709
      -0.635
      -0.565
      -0.481
      -0.375
      -0.252
      -0.133
      -0.057
      -0.060
      -0.156
      -0.314
      -0.479
      -0.596
      -0.632
      -0.585
      -0.477
      -0.349
      -0.253
      -0.223
      -0.251
      -0.293
      -0.304
      -0.278
      -0.249
      -0.241
      -0.233
      -0.187
      -0.101
      -0.026
      -0.022
      -0.096
      -0.184
      -0.190
      -0.054
       0.207
       0.520
       0.808
       1.034
       1.203
       1.342
       1.467
       1.575
       1.649
       1.680
       1.686
       1.709
       1.774
       1.858
       1.894
       1.837
       1.703
       1.552
       1.427
       1.309
       1.138
       0.877
       0.550
       0.227
      -0.019
      -0.151
      -0.178
      -0.142
      -0.097
      -0.088
      -0.139
      -0.250
      -0.400
      -0.559
      -0.687
      -0.735
      -0.667
      -0.493
      -0.280
      -0.123
      -0.078
      -0.130
      -0.208
      -0.250
      -0.246
      -0.229
      -0.231
      -0.251
      -0.268
      -0.275
      -0.291
      -0.336
      -0.396
      -0.433
      -0.422
      -0.386
      -0.383
      -0.465
      -0.629
      -0.818
      -0.955
      -1.000
      -0.970
      -0.914
      -0.863
      -0.812
      -0.755
      -0.722
      -0.765
      -0.904
      -1.089
      -1.228
      -1.244
      -1.129
      -0.939
      -0.734
      -0.539
      -0.340
      -0.121
       0.109
       0.322
       0.491
       0.612
       0.702
       0.785
       0.865
       0.920
       0.921
       0.860
       0.754
       0.628
       0.497
       0.376
       0.283
       0.231
       0.209
       0.188
       0.145
       0.085
       0.033
       0.006
       0.002
       0.023
       0.086
       0.209
       0.372
       0.500
       0.509
       0.374
       0.153
      -0.049
      -0.160
      -0.184
      -0.180
      -0.205
      -0.266
      -0.329
      -0.354
      -0.326
      -0.254
      -0.148
      -0.004
       0.175
       0.368
       0.536
       0.657
       0.735
       0.787
       0.812
       0.792
       0.714
       0.581
       0.411
       0.224
       0.050
      -0.070
      -0.099
      -0.035
       0.076
       0.165
       0.190
       0.156
       0.108
       0.091
       0.120
       0.185
       0.263
       0.348
       0.441
       0.530
       0.580
       0.549
       0.414
       0.199
      -0.036
      -0.221
      -0.312
      -0.301
      -0.208
      -0.062
       0.104
       0.260
       0.375
       0.426
       0.400
       0.298
       0.142
      -0.027
      -0.166
      -0.264
      -0.348
      -0.462
      -0.639
      -0.876
      -1.142
      -1.398
      -1.618
      -1.791
      -1.917
      -2.003
      -2.061
      -2.107
      -2.141
      -2.134
      -2.034
      -1.805
      -1.458
      -1.068
      -0.738
      -0.543
      -0.488
      -0.504
      -0.493
      -0.383
      -0.160
       0.145
       0.494
       0.860
       1.227
       1.576
       1.874
       2.092
       2.231
       2.322
       2.414
       2.530
       2.648
       2.715
       2.693
       2.587
       2.439
       2.287
       2.131
       1.947
       1.714
       1.429
       1.097
       0.719
       0.294
      -0.165
      -0.624
      -1.029
      -1.330
      -1.501
      -1.558
      -1.547
      -1.524
      -1.524
      -1.547
      -1.574
      -1.586
      -1.576
      -1.534
      -1.434
      -1.249
      -0.984
      -0.698
      -0.469
      -0.333
      -0.249
      -0.126
       0.104
       0.429
       0.759
       0.989
       1.071
       1.034
       0.950
       0.877
       0.823
       0.755
       0.627
       0.418
       0.142
      -0.145
      -0.373
      -0.482
      -0.458
      -0.336
      -0.187
      -0.080
      -0.047
      -0.063
      -0.068
      -0.020
       0.068
       0.125
       0.073
      -0.106
      -0.355
      -0.579
      -0.708
      -0.731
      -0.681
      -0.589
      -0.463
      -0.301
      -0.100
       0.133
       0.398
       0.689
       0.984
       1.242
       1.420
       1.501
       1.494
       1.420
       1.304
       1.164
       1.023
       0.896
       0.786
       0.682
       0.578
       0.490
       0.448
       0.474
       0.552
       0.636
       0.673
       0.632
       0.514
       0.361
       0.239
       0.204
       0.267
       0.384
       0.471
       0.463
       0.347
       0.169
      -0.003
      -0.126
      -0.203
      -0.268
      -0.353
      -0.462
      -0.571
      -0.651
      -0.699
      -0.737
      -0.790
      -0.869
      -0.964
      -1.055
      -1.118
      -1.141
      -1.132
      -1.115
      -1.118
      -1.164
      -1.261
      -1.408
      -1.583
      -1.741
      -1.824
      -1.793
      -1.647
      -1.424
      -1.164
      -0.872
      -0.531
      -0.140
       0.256
       0.591
       0.817
       0.928
       0.938
       0.861
       0.710
       0.517
       0.331
       0.202
       0.150
       0.158
       0.191
       0.225
       0.274
       0.368
       0.517
       0.690
       0.837
       0.935
       1.000
       1.069
       1.153
       1.224
       1.228
       1.132
       0.953
       0.758
       0.612
       0.539
       0.505
       0.458
       0.384
       0.326
       0.350
       0.481
       0.674
       0.843
       0.928
       0.938
       0.926
       0.929
       0.929
       0.878
       0.741
       0.525
       0.273
       0.045
      -0.103
      -0.149
      -0.113
      -0.056
      -0.042
      -0.113
      -0.270
      -0.479
      -0.689
      -0.856
      -0.945
      -0.939
      -0.850
      -0.724
      -0.623
      -0.586
      -0.602
      -0.618
      -0.587
      -0.499
      -0.384
      -0.291
      -0.260
      -0.297
      -0.376
      -0.455
      -0.508
      -0.542
      -0.586
      -0.669
      -0.796
      -0.949
      -1.107
      -1.262
      -1.419
      -1.585
      -1.749
      -1.882
      -1.955
      -1.969
      -1.956
      -1.952
      -1.962
      -1.949
      -1.865
      -1.685
      -1.419
      -1.096
      -0.752
      -0.414
      -0.105
       0.151
       0.343
       0.481
       0.600
       0.735
       0.896
       1.053
       1.162
       1.201
       1.186
       1.158
       1.146
       1.158
       1.193
       1.260
       1.377
       1.541
       1.717
       1.851
       1.906
       1.875
       1.783
       1.663
       1.536
       1.407
       1.271
       1.124
       0.965
       0.806
       0.658
       0.527
       0.408
       0.293
       0.179
       0.071
      -0.023
      -0.105
      -0.196
      -0.324
      -0.502
      -0.713
      -0.917
      -1.076
      -1.176
      -1.229
      -1.250
      -1.246
      -1.209
      -1.128
      -1.001
      -0.841
      -0.662
      -0.481
      -0.312
      -0.170
      -0.076
      -0.045
      -0.073
      -0.134
      -0.190
      -0.214
      -0.205
      -0.173
      -0.117
      -0.019
       0.143
       0.371
       0.634
       0.880
       1.061
       1.163
       1.204
       1.211
       1.188
       1.113
       0.965
       0.757
       0.540
       0.377
       0.313
       0.343
       0.426
       0.516
       0.584
       0.622
       0.620
       0.565
       0.452
       0.308
       0.187
       0.143
       0.194
       0.307
       0.419
       0.480
       0.481
       0.451
       0.424
       0.410
       0.397
       0.367
       0.310
       0.234
       0.156
       0.096
       0.067
       0.079
       0.120
       0.161
       0.161
       0.091
      -0.039
      -0.187
      -0.308
      -0.379
      -0.403
      -0.398
      -0.390
      -0.411
      -0.488
      -0.627
      -0.803
      -0.973
      -1.086
      -1.103
      -1.017
      -0.858
      -0.675
      -0.507
      -0.372
      -0.274
      -0.215
      -0.196
      -0.214
      -0.257
      -0.305
      -0.346
      -0.380
      -0.423
      -0.506
      -0.651
      -0.855
      -1.075
      -1.245
      -1.312
      -1.267
      -1.147
      -1.014
      -0.926
      -0.904
      -0.933
      -0.958
      -0.913
      -0.750
      -0.465
      -0.114
       0.210
       0.426
       0.514
       0.528
       0.547
       0.622
       0.754
       0.911
       1.050
       1.143
       1.175
       1.152
       1.093
       1.020
       0.949
       0.878
       0.797
       0.695
       0.573
       0.445
       0.331
       0.260
       0.251
       0.301
       0.370
       0.411
       0.422
       0.446
       0.525
       0.646
       0.753
       0.790
       0.745
       0.650
       0.553
       0.489
       0.468
       0.466
       0.441
       0.359
       0.208
      -0.007
      -0.273
      -0.571
      -0.863
      -1.109
      -1.287
      -1.405
      -1.496
      -1.581
      -1.659
      -1.705
      -1.689
