Origin Time       11/11/2013 19:11:18 UTC
Lat.              28.5 N	
Long.             77.2 E	
Depth (Km)         10.0
Magnitude         3.1
 Region           DELHI                                                            
 Above details taken from IMD 
    
Station Code      DLU
Station Lat.       28.691  N
Station Long.      77.212  E
Station Height(m)  220.0
Site Class        C   Vs30 between 200 m/sec to 375 m/sec *  
Record Time       11.11.2013 19:10:52.914 UTC
Sampling Rate     200. Hz
 Record Duration   85.190 Sec.
 Direction         N-S (N positive)
Max. Acceleration     -6.409 cm/sec**2
     
  * For reference see Site Classification link of website 
     
 Base Line Corrected and Low Pass Filtered (Cut Off at 35 Hz) Time History
 Acceleration data in cm/sec**2
    
[...]
       0.024
       0.077
       0.085
       0.038
      -0.033
      -0.077
      -0.068
      -0.023
       0.012
       0.008
      -0.023
      -0.046
      -0.037
      -0.009
       0.009
       0.000
      -0.020
      -0.022
       0.008
       0.049
       0.064
       0.035
      -0.019
      -0.056
      -0.050
      -0.011
       0.026
       0.033
       0.013
      -0.008
      -0.005
       0.018
       0.038
       0.032
       0.006
      -0.014
      -0.008
       0.019
       0.040
       0.032
      -0.002
      -0.033
      -0.035
      -0.011
       0.016
       0.022
       0.010
       0.002
       0.017
       0.049
       0.070
       0.059
       0.023
      -0.009
      -0.010
       0.014
       0.032
       0.018
      -0.022
      -0.058
      -0.060
      -0.024
       0.025
       0.057
       0.059
       0.040
       0.021
       0.009
      -0.001
      -0.013
      -0.022
      -0.017
       0.003
       0.023
       0.022
      -0.008
      -0.050
      -0.073
      -0.057
      -0.006
       0.045
       0.064
       0.039
      -0.008
      -0.046
      -0.059
      -0.049
      -0.033
      -0.020
      -0.008
       0.006
       0.019
       0.014
      -0.018
      -0.061
      -0.081
      -0.050
       0.021
       0.087
       0.099
       0.048
      -0.026
      -0.068
      -0.054
      -0.006
       0.027
       0.019
      -0.015
      -0.036
      -0.024
       0.003
       0.014
      -0.004
      -0.025
      -0.013
       0.036
       0.083
       0.084
       0.030
      -0.041
      -0.075
      -0.051
       0.000
       0.034
       0.031
       0.010
      -0.001
       0.009
       0.023
       0.024
       0.011
       0.001
       0.010
       0.037
       0.064
       0.065
       0.035
      -0.009
      -0.034
      -0.025
       0.009
       0.037
       0.035
       0.006
      -0.022
      -0.023
       0.006
       0.037
       0.036
       0.000
      -0.039
      -0.044
      -0.012
       0.022
       0.018
      -0.027
      -0.074
      -0.079
      -0.033
       0.027
       0.055
       0.039
       0.002
      -0.019
      -0.014
       0.000
      -0.001
      -0.019
      -0.034
      -0.028
      -0.004
       0.012
       0.001
      -0.030
      -0.051
      -0.039
       0.005
       0.052
       0.071
       0.057
       0.026
       0.003
      -0.001
       0.005
       0.007
       0.006
       0.011
       0.028
       0.044
       0.040
       0.010
      -0.030
      -0.047
      -0.022
       0.033
       0.081
       0.083
       0.036
      -0.028
      -0.063
      -0.050
      -0.008
       0.025
       0.026
       0.003
      -0.013
      -0.002
       0.026
       0.043
       0.034
       0.013
       0.010
       0.032
       0.059
       0.054
       0.008
      -0.052
      -0.080
      -0.056
      -0.004
       0.032
       0.031
       0.009
       0.001
       0.018
       0.040
       0.038
       0.004
      -0.040
      -0.061
      -0.045
      -0.010
       0.011
       0.002
      -0.025
      -0.042
      -0.034
      -0.006
       0.018
       0.021
       0.004
      -0.010
      -0.007
       0.012
       0.024
       0.013
      -0.012
      -0.025
      -0.007
       0.031
       0.055
       0.038
      -0.015
      -0.066
      -0.075
      -0.033
       0.028
       0.066
       0.059
       0.026
      -0.001
      -0.005
       0.002
       0.000
      -0.017
      -0.033
      -0.029
      -0.005
       0.016
       0.012
      -0.013
      -0.029
      -0.008
       0.043
       0.091
       0.096
       0.052
      -0.012
      -0.053
      -0.054
      -0.028
      -0.002
       0.007
       0.007
       0.012
       0.022
       0.027
       0.014
      -0.008
      -0.018
       0.001
       0.044
       0.080
       0.082
       0.047
      -0.001
      -0.029
      -0.026
      -0.007
       0.007
       0.004
      -0.005
      -0.002
       0.014
       0.027
       0.020
      -0.003
      -0.019
      -0.007
       0.030
       0.062
       0.056
       0.007
      -0.054
      -0.085
      -0.069
      -0.026
       0.010
       0.018
       0.009
       0.007
       0.022
       0.039
       0.036
       0.008
      -0.024
      -0.031
      -0.001
       0.045
       0.069
       0.047
      -0.007
      -0.053
      -0.058
      -0.022
       0.025
       0.050
       0.044
       0.023
       0.010
       0.012
       0.017
       0.011
      -0.006
      -0.012
       0.005
       0.039
       0.056
       0.030
      -0.035
      -0.094
      -0.098
      -0.037
       0.047
       0.097
       0.090
       0.047
       0.013
       0.010
       0.023
       0.021
      -0.001
      -0.022
      -0.014
       0.016
       0.037
       0.020
      -0.022
      -0.048
      -0.027
       0.030
       0.080
       0.085
       0.047
      -0.003
      -0.030
      -0.026
      -0.012
      -0.005
      -0.008
      -0.007
       0.008
       0.030
       0.039
       0.026
      -0.002
      -0.026
      -0.028
      -0.007
       0.022
       0.038
       0.032
       0.014
       0.000
      -0.001
       0.007
       0.011
       0.007
       0.001
       0.005
       0.020
       0.035
       0.032
       0.011
      -0.012
      -0.012
       0.019
       0.058
       0.071
       0.043
      -0.006
      -0.037
      -0.033
      -0.006
       0.013
       0.012
       0.004
       0.012
       0.037
       0.053
       0.032
      -0.026
      -0.083
      -0.097
      -0.057
       0.004
       0.036
       0.017
      -0.032
      -0.069
      -0.063
      -0.023
       0.020
       0.041
       0.036
       0.020
       0.006
      -0.004
      -0.016
      -0.030
      -0.033
      -0.012
       0.030
       0.068
       0.072
       0.032
      -0.029
      -0.069
      -0.058
      -0.003
       0.057
       0.085
       0.073
       0.041
       0.015
       0.010
       0.016
       0.012
      -0.015
      -0.053
      -0.069
      -0.037
       0.022
       0.055
       0.030
      -0.021
      -0.037
       0.001
       0.048
       0.058
       0.051
       0.082
       0.160
       0.206
       0.138
      -0.041
      -0.226
      -0.307
      -0.260
      -0.153
      -0.059
       0.019
       0.136
       0.307
       0.436
       0.377
       0.096
      -0.249
      -0.427
      -0.360
      -0.186
      -0.100
      -0.132
      -0.143
      -0.010
       0.210
       0.326
       0.210
      -0.073
      -0.329
      -0.403
      -0.274
      -0.026
       0.240
       0.439
       0.503
       0.390
       0.142
      -0.125
      -0.293
      -0.332
      -0.291
      -0.220
      -0.117
       0.038
       0.225
       0.367
       0.383
       0.251
       0.041
      -0.126
      -0.181
      -0.165
      -0.159
      -0.163
      -0.107
       0.027
       0.144
       0.129
      -0.024
      -0.189
      -0.216
      -0.070
       0.124
       0.182
       0.063
      -0.062
      -0.005
       0.171
       0.190
      -0.093
      -0.458
      -0.528
      -0.195
       0.246
       0.411
       0.231
      -0.004
      -0.009
       0.179
       0.281
       0.133
      -0.137
      -0.288
      -0.225
      -0.043
       0.123
       0.215
       0.234
       0.187
       0.065
      -0.128
      -0.341
      -0.462
      -0.378
      -0.084
       0.275
       0.482
       0.415
       0.150
      -0.094
      -0.138
       0.008
       0.164
       0.178
       0.079
       0.021
       0.067
       0.091
      -0.073
      -0.389
      -0.583
      -0.406
       0.064
       0.436
       0.370
      -0.069
      -0.470
      -0.487
      -0.153
       0.208
       0.329
       0.217
       0.070
       0.040
       0.118
       0.213
       0.284
       0.364
       0.445
       0.420
       0.168
      -0.273
      -0.677
      -0.779
      -0.502
      -0.048
       0.247
       0.186
      -0.119
      -0.345
      -0.259
       0.081
       0.410
       0.504
       0.353
       0.115
      -0.047
      -0.086
      -0.081
      -0.137
      -0.280
      -0.411
      -0.389
      -0.156
       0.198
       0.494
       0.575
       0.391
       0.030
      -0.314
      -0.448
      -0.311
      -0.032
       0.156
       0.103
      -0.118
      -0.253
      -0.115
       0.183
       0.292
       0.005
      -0.453
      -0.592
      -0.155
       0.597
       1.136
       1.135
       0.701
       0.182
      -0.190
      -0.445
      -0.698
      -0.874
      -0.733
      -0.198
       0.430
       0.694
       0.415
      -0.151
      -0.591
      -0.693
      -0.534
      -0.286
      -0.019
       0.301
       0.652
       0.858
       0.704
       0.179
      -0.448
      -0.831
      -0.820
      -0.515
      -0.104
       0.312
       0.707
       1.001
       1.033
       0.710
       0.167
      -0.294
      -0.472
      -0.424
      -0.339
      -0.289
      -0.191
       0.024
       0.276
       0.388
       0.218
      -0.232
      -0.794
      -1.162
      -1.049
      -0.398
       0.507
       1.192
       1.323
       0.935
       0.346
      -0.164
      -0.554
      -0.901
      -1.136
      -1.021
      -0.425
       0.428
       1.084
       1.221
       0.878
       0.342
      -0.123
      -0.429
      -0.605
      -0.652
      -0.520
      -0.239
      -0.004
      -0.014
      -0.218
      -0.305
      -0.026
       0.496
       0.857
       0.767
       0.317
      -0.139
      -0.294
      -0.090
       0.269
       0.478
       0.343
      -0.053
      -0.406
      -0.489
      -0.382
      -0.351
      -0.488
      -0.564
      -0.304
       0.228
       0.624
       0.523
      -0.005
      -0.492
      -0.487
       0.044
       0.682
       0.921
       0.596
      -0.012
      -0.472
      -0.563
      -0.383
      -0.158
      -0.015
       0.068
       0.161
       0.285
       0.383
       0.370
       0.232
       0.068
       0.023
       0.121
       0.180
      -0.035
      -0.527
      -0.964
      -0.946
      -0.404
       0.318
       0.766
       0.743
       0.404
       0.049
      -0.119
      -0.085
       0.044
       0.144
       0.132
      -0.011
      -0.228
      -0.403
      -0.426
      -0.273
      -0.028
       0.187
       0.281
       0.225
       0.059
      -0.109
      -0.178
      -0.155
      -0.110
      -0.018
       0.253
       0.701
       1.005
       0.745
      -0.113
      -1.041
      -1.386
      -1.003
      -0.390
      -0.132
      -0.271
      -0.296
       0.200
       0.969
       1.334
       0.944
       0.167
      -0.334
      -0.315
      -0.125
      -0.187
      -0.470
      -0.540
      -0.088
       0.694
       1.240
       1.103
       0.344
      -0.528
      -0.994
      -0.921
      -0.564
      -0.257
      -0.163
      -0.239
      -0.317
      -0.209
       0.133
       0.530
       0.699
       0.529
       0.201
      -0.009
      -0.017
       0.003
      -0.157
      -0.479
      -0.709
      -0.628
      -0.311
      -0.060
      -0.077
      -0.265
      -0.417
      -0.511
      -0.717
      -1.084
      -1.332
      -1.085
      -0.302
       0.606
       1.159
       1.261
       1.240
       1.441
       1.828
       2.037
       1.816
       1.335
       0.997
       0.964
       0.940
       0.501
      -0.395
      -1.296
      -1.667
      -1.375
      -0.736
      -0.163
       0.174
       0.331
       0.348
       0.151
      -0.311
      -0.895
      -1.295
      -1.278
      -0.904
      -0.516
      -0.502
      -1.006
      -1.797
      -2.377
      -2.299
      -1.478
      -0.289
       0.680
       1.082
       1.091
       1.217
       1.754
       2.403
       2.513
       1.766
       0.576
      -0.248
      -0.249
       0.305
       0.767
       0.770
       0.501
       0.389
       0.582
       0.781
       0.588
      -0.030
      -0.689
      -1.007
      -1.005
      -1.013
      -1.214
      -1.415
      -1.343
      -1.075
      -1.038
      -1.486
      -2.048
      -1.937
      -0.698
       1.255
       2.901
       3.427
       2.780
       1.493
       0.144
      -0.951
      -1.628
      -1.697
      -1.035
       0.171
       1.346
       1.807
       1.228
      -0.088
      -1.386
      -1.983
      -1.730
      -1.031
      -0.372
       0.173
       0.956
       2.199
       3.427
       3.579
       1.898
      -1.161
      -3.963
      -4.824
      -3.264
      -0.303
       2.342
       3.390
       2.609
       0.693
      -1.290
      -2.458
      -2.448
      -1.500
      -0.322
       0.282
      -0.080
      -1.072
      -1.851
      -1.729
      -0.694
       0.673
       1.796
       2.556
       3.163
       3.653
       3.668
       2.785
       1.031
      -0.977
      -2.382
      -2.592
      -1.616
      -0.090
       1.029
       1.047
       0.038
      -1.191
      -1.739
      -1.346
      -0.538
      -0.066
      -0.224
      -0.680
      -0.919
      -0.786
      -0.645
      -1.024
      -2.061
      -3.246
      -3.701
      -2.801
      -0.644
       1.992
       4.103
       4.983
       4.528
       3.196
       1.704
       0.617
       0.108
       0.015
       0.111
       0.292
       0.517
       0.638
       0.428
      -0.155
      -0.753
      -0.794
      -0.017
       1.169
       1.912
       1.631
       0.546
      -0.491
      -0.786
      -0.502
      -0.575
      -1.838
      -4.107
      -6.112
      -6.409
      -4.503
      -1.208
       1.966
       3.794
       3.911
       2.739
       1.071
      -0.320
      -0.924
      -0.609
       0.337
       1.302
       1.628
       1.025
      -0.131
      -0.992
      -0.905
      -0.005
       0.887
       1.028
       0.448
      -0.115
       0.037
       0.875
       1.669
       1.661
       0.755
      -0.403
      -0.993
      -0.698
       0.100
       0.698
       0.636
       0.006
      -0.707
      -1.059
      -1.004
      -0.872
      -1.029
      -1.506
      -1.941
      -1.876
      -1.130
       0.063
       1.217
       1.892
       1.843
       1.028
      -0.371
      -1.863
      -2.705
      -2.266
      -0.520
       1.783
       3.518
       3.887
       2.899
       1.267
      -0.103
      -0.641
      -0.316
       0.506
       1.349
       1.825
       1.686
       0.822
      -0.668
      -2.403
      -3.820
      -4.431
      -4.068
      -2.933
      -1.466
      -0.150
       0.682
       0.967
       0.884
       0.699
       0.562
       0.432
       0.176
      -0.179
      -0.282
       0.371
       1.930
       3.792
       4.812
       4.111
       1.833
      -0.858
      -2.612
      -2.831
      -1.950
      -0.921
      -0.436
      -0.515
      -0.680
      -0.481
       0.083
       0.606
       0.681
       0.264
      -0.343
      -0.805
      -1.049
      -1.277
      -1.690
      -2.175
      -2.269
      -1.542
      -0.100
       1.340
       2.023
       1.862
       1.486
       1.540
       1.968
       2.111
       1.502
       0.475
      -0.127
       0.187
       1.030
       1.490
       0.949
      -0.427
      -1.892
      -2.732
      -2.727
      -2.135
      -1.345
      -0.562
       0.184
       0.803
       1.021
       0.580
      -0.397
      -1.322
      -1.515
      -0.748
       0.522
       1.490
       1.622
       1.018
       0.236
      -0.217
      -0.269
      -0.244
      -0.471
      -0.916
      -1.174
      -0.873
      -0.097
       0.668
       1.009
       0.972
       0.914
       1.022
       1.082
       0.743
      -0.030
      -0.814
      -1.042
      -0.517
       0.377
       0.982
       0.930
       0.448
       0.094
       0.181
       0.454
       0.344
      -0.449
      -1.595
      -2.313
      -1.990
      -0.733
       0.647
       1.290
       1.001
       0.312
      -0.167
      -0.365
      -0.651
      -1.194
      -1.587
      -1.187
       0.184
       1.905
       2.938
       2.609
       1.117
      -0.642
      -1.750
      -1.853
      -1.235
      -0.421
       0.265
       0.808
       1.242
       1.416
       1.102
       0.330
      -0.462
      -0.731
      -0.323
       0.346
       0.634
       0.239
      -0.569
      -1.277
      -1.626
      -1.770
      -1.960
      -2.160
      -2.026
      -1.238
       0.152
       1.671
       2.718
       2.935
       2.367
       1.357
       0.350
      -0.266
      -0.326
      -0.027
       0.177
      -0.058
      -0.632
      -1.071
      -0.932
      -0.176
       0.795
       1.423
       1.352
       0.649
      -0.263
      -0.882
      -0.951
      -0.595
      -0.202
      -0.119
      -0.381
      -0.671
      -0.598
      -0.050
       0.671
       1.085
       0.918
       0.286
      -0.443
      -0.938
      -1.068
      -0.877
      -0.507
      -0.141
       0.070
       0.116
       0.160
       0.391
       0.802
       1.138
       1.108
       0.675
       0.139
      -0.113
       0.026
       0.249
       0.118
      -0.471
      -1.121
      -1.261
      -0.680
       0.235
       0.785
       0.537
      -0.292
      -1.001
      -1.003
      -0.318
       0.489
       0.869
       0.752
       0.479
       0.359
       0.382
       0.346
       0.181
       0.046
       0.138
       0.412
       0.531
       0.120
      -0.838
      -1.841
      -2.169
      -1.469
      -0.101
       1.105
       1.511
       1.116
       0.423
      -0.085
      -0.300
      -0.396
      -0.503
      -0.537
      -0.331
       0.143
       0.681
       0.968
       0.780
       0.158
      -0.588
      -1.042
      -0.980
      -0.556
      -0.209
      -0.304
      -0.813
      -1.314
      -1.314
      -0.633
       0.447
       1.386
       1.754
       1.486
       0.860
       0.284
       0.039
       0.130
       0.295
       0.204
      -0.232
      -0.687
      -0.659
       0.040
       1.026
       1.661
       1.630
       1.135
       0.544
      -0.025
      -0.671
      -1.354
      -1.729
      -1.465
      -0.663
       0.143
       0.458
       0.243
      -0.173
      -0.542
      -0.917
      -1.395
      -1.717
      -1.357
      -0.103
       1.507
       2.475
       2.162
       0.838
      -0.528
      -1.036
      -0.496
       0.520
       1.189
       1.061
       0.307
      -0.531
      -0.980
      -0.914
      -0.520
      -0.090
       0.189
       0.304
       0.327
       0.289
       0.182
       0.065
       0.094
       0.361
       0.705
       0.783
       0.394
      -0.267
      -0.744
      -0.733
      -0.357
      -0.028
      -0.058
      -0.378
      -0.633
      -0.554
      -0.228
       0.018
      -0.019
      -0.225
      -0.352
      -0.313
      -0.223
      -0.188
      -0.160
      -0.036
       0.184
       0.386
       0.485
       0.496
       0.467
       0.369
       0.124
      -0.265
      -0.609
      -0.616
      -0.127
       0.660
       1.227
       1.095
       0.250
      -0.749
      -1.184
      -0.770
       0.110
       0.771
       0.833
       0.491
       0.229
       0.282
       0.418
       0.230
      -0.392
      -1.096
      -1.380
      -1.030
      -0.280
       0.414
       0.707
       0.531
       0.048
      -0.473
      -0.770
      -0.684
