Origin Time       11/11/2013 19:11:18
Lat.              28.5 N	
Long.             77.2 E	
Depth (Km)         10.0
Magnitude         3.1
 Region           DELHI                                                            
 Above details taken from IMD 
     
Station Code      DLU
Station Lat.       28.691  N
Station Long.      77.212  E
Station Height(m)  220.0
Site Class        C   Vs30 between 200 m/sec to 375 m/sec *  
Record Time       11.11.2013 19:10:52.914
Sampling Rate     200. Hz
 Record Duration   85.190 Sec.
 Direction         E-W (E positive)
Max. Acceleration     -7.625 cm/sec**2
     
  * For reference see Site Classification link of website 
     
 Base Line Corrected and Low Pass Filtered (Cut Off at 35 Hz) Time History
 Acceleration data in cm/sec**2
    
[...]
      -0.080
      -0.054
      -0.044
      -0.041
      -0.020
       0.025
       0.075
       0.095
       0.071
       0.023
      -0.011
      -0.012
       0.004
       0.006
      -0.021
      -0.060
      -0.080
      -0.070
      -0.044
      -0.027
      -0.027
      -0.027
      -0.006
       0.036
       0.077
       0.088
       0.062
       0.018
      -0.012
      -0.015
      -0.005
      -0.012
      -0.051
      -0.100
      -0.123
      -0.096
      -0.035
       0.024
       0.053
       0.056
       0.058
       0.074
       0.086
       0.070
       0.014
      -0.055
      -0.098
      -0.094
      -0.057
      -0.026
      -0.026
      -0.045
      -0.044
      -0.001
       0.062
       0.098
       0.081
       0.034
       0.002
       0.014
       0.047
       0.054
       0.009
      -0.064
      -0.111
      -0.097
      -0.035
       0.026
       0.048
       0.028
      -0.003
      -0.009
       0.018
       0.052
       0.060
       0.033
      -0.005
      -0.015
       0.008
       0.034
       0.021
      -0.036
      -0.093
      -0.099
      -0.045
       0.028
       0.068
       0.061
       0.035
       0.031
       0.055
       0.077
       0.061
       0.004
      -0.059
      -0.089
      -0.076
      -0.050
      -0.045
      -0.066
      -0.078
      -0.047
       0.028
       0.101
       0.124
       0.087
       0.025
      -0.015
      -0.015
       0.006
       0.008
      -0.020
      -0.055
      -0.065
      -0.036
       0.008
       0.034
       0.029
       0.010
       0.006
       0.028
       0.059
       0.069
       0.046
       0.010
      -0.010
      -0.004
       0.010
       0.003
      -0.031
      -0.073
      -0.091
      -0.070
      -0.023
       0.023
       0.048
       0.056
       0.066
       0.084
       0.095
       0.077
       0.026
      -0.037
      -0.078
      -0.078
      -0.049
      -0.022
      -0.017
      -0.027
      -0.022
       0.015
       0.067
       0.099
       0.088
       0.047
       0.008
      -0.002
       0.008
       0.009
      -0.021
      -0.067
      -0.091
      -0.065
      -0.002
       0.050
       0.056
       0.024
      -0.003
       0.009
       0.053
       0.088
       0.080
       0.035
      -0.009
      -0.021
      -0.006
       0.001
      -0.025
      -0.075
      -0.108
      -0.092
      -0.033
       0.033
       0.067
       0.062
       0.041
       0.029
       0.033
       0.035
       0.015
      -0.027
      -0.069
      -0.086
      -0.068
      -0.037
      -0.024
      -0.036
      -0.052
      -0.036
       0.018
       0.082
       0.114
       0.093
       0.041
       0.000
      -0.006
       0.011
       0.015
      -0.011
      -0.048
      -0.059
      -0.028
       0.025
       0.060
       0.055
       0.027
       0.015
       0.041
       0.083
       0.099
       0.068
       0.011
      -0.029
      -0.034
      -0.020
      -0.016
      -0.035
      -0.058
      -0.056
      -0.022
       0.024
       0.052
       0.049
       0.035
       0.034
       0.053
       0.074
       0.068
       0.026
      -0.035
      -0.083
      -0.094
      -0.073
      -0.045
      -0.032
      -0.030
      -0.017
       0.018
       0.062
       0.084
       0.068
       0.024
      -0.016
      -0.025
      -0.011
      -0.003
      -0.025
      -0.068
      -0.093
      -0.071
      -0.008
       0.053
       0.073
       0.050
       0.018
       0.016
       0.041
       0.061
       0.047
       0.008
      -0.020
      -0.013
       0.016
       0.028
       0.001
      -0.049
      -0.078
      -0.054
       0.014
       0.078
       0.095
       0.063
       0.019
       0.001
       0.016
       0.037
       0.032
      -0.004
      -0.045
      -0.058
      -0.036
      -0.007
       0.002
      -0.012
      -0.018
       0.013
       0.075
       0.129
       0.137
       0.093
       0.030
      -0.008
      -0.003
       0.020
       0.022
      -0.013
      -0.060
      -0.077
      -0.048
       0.008
       0.048
       0.052
       0.031
       0.019
       0.034
       0.058
       0.057
       0.014
      -0.050
      -0.094
      -0.093
      -0.061
      -0.034
      -0.035
      -0.053
      -0.054
      -0.018
       0.039
       0.077
       0.073
       0.039
       0.016
       0.025
       0.053
       0.063
       0.031
      -0.029
      -0.078
      -0.087
      -0.057
      -0.016
       0.009
       0.017
       0.027
       0.053
       0.085
       0.098
       0.075
       0.027
      -0.015
      -0.028
      -0.021
      -0.021
      -0.044
      -0.076
      -0.086
      -0.056
       0.001
       0.047
       0.056
       0.033
       0.011
       0.015
       0.040
       0.055
       0.038
      -0.004
      -0.036
      -0.037
      -0.017
      -0.006
      -0.024
      -0.056
      -0.065
      -0.030
       0.032
       0.079
       0.083
       0.051
       0.018
       0.012
       0.029
       0.042
       0.023
      -0.025
      -0.072
      -0.085
      -0.058
      -0.019
       0.002
      -0.002
      -0.009
       0.011
       0.061
       0.115
       0.132
       0.097
       0.028
      -0.029
      -0.049
      -0.040
      -0.035
      -0.052
      -0.076
      -0.074
      -0.035
       0.021
       0.054
       0.048
       0.022
       0.012
       0.034
       0.065
       0.074
       0.045
      -0.002
      -0.037
      -0.044
      -0.033
      -0.028
      -0.038
      -0.046
      -0.028
       0.020
       0.073
       0.093
       0.073
       0.035
       0.017
       0.030
       0.055
       0.055
       0.016
      -0.042
      -0.079
      -0.071
      -0.030
       0.009
       0.018
       0.003
      -0.005
       0.019
       0.068
       0.107
       0.106
       0.063
       0.010
      -0.020
      -0.023
      -0.025
      -0.049
      -0.089
      -0.107
      -0.072
       0.005
       0.077
       0.102
       0.076
       0.037
       0.024
       0.040
       0.059
       0.052
       0.008
      -0.057
      -0.107
      -0.111
      -0.070
      -0.020
      -0.001
      -0.018
      -0.049
      -0.076
      -0.096
      -0.103
      -0.081
      -0.022
       0.055
       0.130
       0.205
       0.286
       0.340
       0.309
       0.179
       0.014
      -0.106
      -0.153
      -0.142
      -0.083
       0.020
       0.112
       0.086
      -0.105
      -0.361
      -0.500
      -0.432
      -0.221
       0.016
       0.228
       0.417
       0.571
       0.646
       0.595
       0.383
       0.024
      -0.363
      -0.549
      -0.370
       0.074
       0.433
       0.403
       0.004
      -0.446
      -0.639
      -0.514
      -0.216
       0.090
       0.306
       0.388
       0.336
       0.219
       0.123
       0.064
      -0.022
      -0.155
      -0.245
      -0.177
       0.031
       0.200
       0.155
      -0.091
      -0.335
      -0.377
      -0.183
       0.121
       0.371
       0.466
       0.377
       0.150
      -0.111
      -0.283
      -0.290
      -0.136
       0.104
       0.315
       0.372
       0.192
      -0.169
      -0.497
      -0.559
      -0.295
       0.111
       0.374
       0.347
       0.125
      -0.090
      -0.219
      -0.359
      -0.584
      -0.749
      -0.572
       0.042
       0.789
       1.147
       0.798
      -0.090
      -0.954
      -1.226
      -0.694
       0.366
       1.346
       1.672
       1.167
       0.166
      -0.742
      -1.131
      -0.976
      -0.534
      -0.055
       0.353
       0.641
       0.715
       0.501
       0.084
      -0.301
      -0.463
      -0.409
      -0.268
      -0.127
       0.032
       0.234
       0.415
       0.468
       0.348
       0.108
      -0.169
      -0.429
      -0.639
      -0.748
      -0.700
      -0.488
      -0.173
       0.142
       0.351
       0.388
       0.289
       0.205
       0.306
       0.605
       0.903
       0.936
       0.621
       0.142
      -0.228
      -0.356
      -0.312
      -0.232
      -0.206
      -0.265
      -0.406
      -0.556
      -0.576
      -0.355
       0.054
       0.433
       0.554
       0.364
       0.022
      -0.223
      -0.190
       0.125
       0.538
       0.765
       0.599
       0.059
      -0.615
      -1.120
      -1.283
      -1.109
      -0.699
      -0.146
       0.464
       0.988
       1.225
       1.036
       0.467
      -0.267
      -0.897
      -1.214
      -1.099
      -0.570
       0.184
       0.858
       1.201
       1.161
       0.856
       0.430
      -0.013
      -0.355
      -0.444
      -0.193
       0.289
       0.704
       0.742
       0.284
      -0.505
      -1.259
      -1.603
      -1.374
      -0.725
      -0.018
       0.434
       0.579
       0.595
       0.661
       0.785
       0.820
       0.602
       0.089
      -0.561
      -1.037
      -1.059
      -0.597
       0.078
       0.587
       0.701
       0.425
      -0.083
      -0.609
      -0.910
      -0.771
      -0.148
       0.734
       1.471
       1.714
       1.322
       0.397
      -0.747
      -1.632
      -1.812
      -1.154
      -0.015
       0.948
       1.233
       0.814
       0.089
      -0.467
      -0.584
      -0.269
       0.242
       0.583
       0.462
      -0.102
      -0.737
      -0.995
      -0.720
      -0.130
       0.425
       0.732
       0.743
       0.448
      -0.143
      -0.868
      -1.353
      -1.219
      -0.412
       0.683
       1.476
       1.572
       1.001
       0.133
      -0.588
      -0.866
      -0.651
      -0.106
       0.467
       0.762
       0.615
       0.107
      -0.480
      -0.819
      -0.724
      -0.253
       0.323
       0.669
       0.566
       0.049
      -0.575
      -0.892
      -0.669
      -0.044
       0.576
       0.857
       0.784
       0.564
       0.316
      -0.042
      -0.571
      -1.060
      -1.126
      -0.597
       0.241
       0.842
       0.842
       0.330
      -0.258
      -0.484
      -0.218
       0.291
       0.611
       0.469
      -0.015
      -0.422
      -0.418
      -0.041
       0.395
       0.638
       0.652
       0.476
       0.066
      -0.578
      -1.179
      -1.269
      -0.650
       0.295
       0.867
       0.673
      -0.046
      -0.695
      -0.851
      -0.508
       0.078
       0.635
       0.950
       0.880
       0.435
      -0.151
      -0.559
      -0.619
      -0.377
       0.029
       0.469
       0.773
       0.723
       0.224
      -0.516
      -1.071
      -1.138
      -0.763
      -0.209
       0.308
       0.690
       0.832
       0.604
       0.051
      -0.467
      -0.505
       0.024
       0.693
       0.942
       0.597
      -0.026
      -0.505
      -0.697
      -0.702
      -0.600
      -0.342
       0.090
       0.540
       0.769
       0.654
       0.297
      -0.073
      -0.269
      -0.257
      -0.142
      -0.078
      -0.134
      -0.217
      -0.138
       0.189
       0.572
       0.633
       0.129
      -0.749
      -1.434
      -1.399
      -0.622
       0.358
       0.882
       0.733
       0.281
       0.043
       0.132
       0.196
      -0.094
      -0.580
      -0.755
      -0.333
       0.406
       0.896
       0.846
       0.471
       0.228
       0.375
       0.775
       1.066
       0.971
       0.500
      -0.095
      -0.552
      -0.809
      -0.960
      -1.010
      -0.777
      -0.125
       0.719
       1.220
       0.983
       0.108
      -0.929
      -1.686
      -1.986
      -1.818
      -1.192
      -0.170
       1.014
       1.956
       2.243
       1.661
       0.334
      -1.229
      -2.281
      -2.216
      -0.990
       0.779
       2.190
       2.631
       2.056
       0.862
      -0.405
      -1.261
      -1.417
      -0.902
      -0.074
       0.562
       0.697
       0.425
       0.130
       0.124
       0.340
       0.391
      -0.018
      -0.710
      -1.125
      -0.862
      -0.140
       0.350
       0.119
      -0.632
      -1.219
      -1.193
      -0.764
      -0.469
      -0.492
      -0.432
       0.205
       1.345
       2.231
       2.001
       0.396
      -1.975
      -3.968
      -4.566
      -3.471
      -1.263
       1.002
       2.495
       3.066
       3.104
       3.035
       2.996
       2.927
       2.803
       2.616
       2.171
       1.102
      -0.713
      -2.778
      -4.199
      -4.378
      -3.459
      -2.089
      -0.856
      -0.020
       0.395
       0.475
       0.442
       0.652
       1.396
       2.597
       3.692
       3.853
       2.484
      -0.272
      -3.330
      -5.045
      -4.192
      -0.983
       2.813
       4.942
       4.151
       0.901
      -3.084
      -5.893
      -6.344
      -4.368
      -0.869
       2.740
       5.085
       5.331
       3.491
       0.461
      -2.326
      -3.563
      -2.762
      -0.492
       2.024
       3.654
       3.882
       2.833
       1.035
      -0.800
      -2.029
      -2.425
      -2.367
      -2.472
      -2.903
      -3.113
      -2.381
      -0.569
       1.707
       3.596
       4.529
       4.288
       2.900
       0.756
      -1.275
      -2.215
      -1.725
      -0.478
       0.308
      -0.216
      -1.984
      -4.129
      -5.478
      -5.089
      -2.737
       0.796
       3.956
       5.289
       4.414
       2.282
       0.453
       0.007
       0.960
       2.485
       3.550
       3.410
       1.796
      -1.038
      -4.313
      -6.870
      -7.625
      -6.204
      -3.298
      -0.346
       1.398
       1.698
       1.371
       1.482
       2.435
       3.727
       4.468
       4.115
       2.782
       1.030
      -0.533
      -1.461
      -1.450
      -0.415
       1.261
       2.619
       2.547
       0.592
      -2.535
      -5.335
      -6.501
      -5.669
      -3.356
      -0.397
       2.454
       4.507
       5.096
       3.882
       1.322
      -1.284
      -2.456
      -1.548
       0.677
       2.479
       2.362
       0.228
      -2.484
      -3.858
      -2.981
      -0.593
       1.618
       2.404
       1.802
       0.817
       0.446
       0.963
       1.883
       2.402
       1.900
       0.295
      -1.848
      -3.520
      -3.778
      -2.343
       0.105
       2.219
       2.768
       1.431
      -0.968
      -2.963
      -3.373
      -1.996
       0.374
       2.495
       3.347
       2.548
       0.449
      -2.054
      -3.896
      -4.305
      -3.147
      -0.951
       1.367
       2.915
       3.190
       2.279
       0.837
      -0.233
      -0.295
       0.616
       1.788
       2.300
       1.651
       0.091
      -1.568
      -2.526
      -2.500
      -1.807
      -1.007
      -0.477
      -0.250
      -0.157
      -0.026
       0.256
       0.751
       1.432
       2.069
       2.241
       1.584
       0.140
      -1.531
      -2.635
      -2.651
      -1.653
      -0.215
       0.971
       1.478
       1.312
       0.840
       0.525
       0.644
       1.128
       1.618
       1.689
       1.078
      -0.177
      -1.723
      -3.015
      -3.540
      -3.048
      -1.688
       0.047
       1.535
       2.306
       2.245
       1.585
       0.698
      -0.117
      -0.680
      -0.877
      -0.696
      -0.368
      -0.325
      -0.853
      -1.722
      -2.271
      -1.923
      -0.650
       1.038
       2.448
       3.051
       2.638
       1.395
      -0.100
      -1.071
      -0.977
       0.100
       1.445
       2.124
       1.552
      -0.135
      -2.139
      -3.459
      -3.440
      -2.054
       0.165
       2.370
       3.693
       3.596
       2.187
       0.257
      -1.197
      -1.653
      -1.370
      -0.978
      -0.807
      -0.695
      -0.429
      -0.221
      -0.541
      -1.480
      -2.418
      -2.435
      -1.080
       1.234
       3.487
       4.687
       4.388
       2.796
       0.536
      -1.670
      -3.216
      -3.710
      -3.064
      -1.564
       0.174
       1.483
       2.011
       1.874
       1.460
       1.039
       0.572
      -0.120
      -1.019
      -1.745
      -1.791
      -0.964
       0.340
       1.333
       1.376
       0.440
      -0.874
      -1.755
      -1.704
      -0.822
       0.285
       0.901
       0.679
      -0.114
      -0.796
      -0.825
      -0.242
       0.406
       0.591
       0.252
      -0.244
      -0.497
      -0.363
       0.034
       0.465
       0.746
       0.846
       0.912
       1.133
       1.517
       1.802
       1.628
       0.874
      -0.185
      -1.068
      -1.441
      -1.278
      -0.775
      -0.191
       0.193
       0.129
      -0.430
      -1.193
      -1.644
      -1.420
      -0.595
       0.385
       1.044
       1.183
       0.921
       0.533
       0.253
       0.161
       0.172
       0.134
      -0.008
      -0.148
      -0.184
      -0.233
      -0.586
      -1.335
      -2.109
      -2.286
      -1.521
      -0.065
       1.404
       2.216
       2.070
       1.163
       0.075
      -0.562
      -0.492
      -0.050
       0.103
      -0.405
      -1.270
      -1.751
      -1.313
      -0.015
       1.643
       3.108
       3.940
       3.803
       2.581
       0.617
      -1.309
      -2.423
      -2.455
      -1.748
      -0.917
      -0.426
      -0.379
      -0.545
      -0.529
      -0.083
       0.592
       0.887
       0.290
      -1.015
      -2.146
      -2.207
      -1.036
       0.711
       2.143
       2.741
       2.491
       1.641
       0.493
      -0.630
      -1.421
      -1.715
      -1.583
      -1.231
      -0.792
      -0.283
       0.244
       0.612
       0.689
       0.582
       0.546
       0.695
       0.847
       0.689
       0.079
      -0.786
      -1.455
      -1.492
      -0.742
       0.546
       1.834
       2.564
       2.430
       1.474
       0.016
      -1.472
      -2.497
      -2.728
      -2.212
      -1.370
      -0.699
      -0.403
      -0.324
      -0.193
       0.104
       0.501
       0.886
       1.171
       1.235
       0.920
       0.184
      -0.734
      -1.384
      -1.397
      -0.738
       0.308
       1.361
       2.165
       2.602
       2.560
       1.868
       0.456
      -1.360
      -2.828
      -3.138
      -2.035
      -0.096
       1.628
       2.351
       2.030
       1.209
       0.465
      -0.005
      -0.329
      -0.644
      -0.928
      -1.117
      -1.241
      -1.324
      -1.218
      -0.678
       0.301
       1.280
       1.613
       0.956
      -0.422
      -1.800
      -2.494
      -2.266
      -1.374
      -0.309
       0.554
       1.143
       1.598
       2.011
       2.251
       2.086
       1.439
       0.507
      -0.356
      -0.852
      -0.863
      -0.459
       0.146
       0.647
       0.760
       0.380
      -0.308
      -0.917
      -1.120
      -0.878
      -0.447
      -0.170
      -0.210
      -0.441
      -0.572
      -0.449
      -0.226
      -0.206
      -0.492
      -0.831
      -0.859
      -0.441
       0.253
       0.956
       1.475
       1.684
       1.495
       0.944
       0.282
      -0.168
      -0.260
      -0.093
       0.171
       0.443
       0.620
       0.470
      -0.215
      -1.324
      -2.351
      -2.708
      -2.143
      -0.891
       0.513
       1.527
       1.811
