Origin Time       12/3/2012 22:07:20	
Lat.              28.9 N	
Long.             77.3 E	
Depth (Km)          5.0
Magnitude         3.5
 Region           Baghpat-U.P.                                                     
 Above details taken from IMD 
   
Station Code      DLU
Station Lat.       28.691
Station Long.      77.212
Station Height(m)  220.0
Site Class        C   Vs30 between 200 m/sec to 375 m/sec *  
Record Time       12.03.2012 22:06:59.884
Sampling Rate     200. Hz
 Record Duration   84.260 Sec.
 Direction         Vert. (Up positive)
Max. Acceleration      5.565 cm/sec**2
     
  * For reference see Site Classification link of website 
     
 Base Line Corrected and Low Pass Filtered (Cut Off at 35 Hz) Time History
 Acceleration data in cm/sec**2
    
[...]
       0.033
       0.142
       0.153
      -0.080
      -0.430
      -0.621
      -0.497
      -0.160
       0.155
       0.326
       0.423
       0.561
       0.697
       0.615
       0.135
      -0.646
      -1.343
      -1.534
      -1.070
      -0.187
       0.673
       1.153
       1.173
       0.888
       0.509
       0.138
      -0.225
      -0.566
      -0.765
      -0.672
      -0.269
       0.233
       0.514
       0.395
       0.007
      -0.294
      -0.224
       0.178
       0.573
       0.611
       0.239
      -0.267
      -0.547
      -0.470
      -0.218
      -0.081
      -0.169
      -0.313
      -0.251
       0.099
       0.527
       0.699
       0.451
      -0.049
      -0.438
      -0.459
      -0.169
       0.131
       0.186
       0.016
      -0.117
       0.018
       0.364
       0.592
       0.407
      -0.141
      -0.652
      -0.716
      -0.283
       0.294
       0.580
       0.429
       0.056
      -0.219
      -0.275
      -0.240
      -0.274
      -0.362
      -0.333
      -0.083
       0.279
       0.515
       0.482
       0.255
       0.028
      -0.064
      -0.025
       0.057
       0.121
       0.164
       0.194
       0.179
       0.074
      -0.117
      -0.308
      -0.390
      -0.314
      -0.119
       0.093
       0.212
       0.168
      -0.044
      -0.342
      -0.567
      -0.554
      -0.232
       0.306
       0.837
       1.131
       1.071
       0.688
       0.097
      -0.557
      -1.104
      -1.343
      -1.108
      -0.408
       0.480
       1.116
       1.165
       0.636
      -0.120
      -0.651
      -0.708
      -0.379
       0.028
       0.238
       0.194
       0.042
      -0.027
       0.076
       0.302
       0.522
       0.582
       0.373
      -0.094
      -0.637
      -0.969
      -0.884
      -0.426
       0.121
       0.447
       0.443
       0.259
       0.137
       0.193
       0.315
       0.270
      -0.068
      -0.573
      -0.935
      -0.885
      -0.405
       0.258
       0.783
       0.996
       0.936
       0.743
       0.500
       0.178
      -0.258
      -0.734
      -1.068
      -1.102
      -0.832
      -0.399
       0.037
       0.386
       0.633
       0.773
       0.778
       0.627
       0.350
       0.046
      -0.167
      -0.236
      -0.218
      -0.235
      -0.374
      -0.600
      -0.776
      -0.762
      -0.534
      -0.182
       0.199
       0.600
       1.047
       1.442
       1.522
       1.042
       0.058
      -1.005
      -1.618
      -1.544
      -0.997
      -0.417
      -0.076
       0.102
       0.353
       0.744
       1.061
       1.023
       0.592
       0.024
      -0.357
      -0.434
      -0.339
      -0.271
      -0.293
      -0.321
      -0.258
      -0.109
       0.046
       0.157
       0.249
       0.355
       0.420
       0.316
      -0.031
      -0.529
      -0.935
      -1.008
      -0.661
      -0.006
       0.710
       1.217
       1.313
       0.953
       0.273
      -0.449
      -0.942
      -1.070
      -0.876
      -0.507
      -0.095
       0.286
       0.573
       0.676
       0.535
       0.215
      -0.079
      -0.157
      -0.017
       0.147
       0.129
      -0.102
      -0.397
      -0.568
      -0.521
      -0.273
       0.109
       0.545
       0.916
       1.056
       0.848
       0.338
      -0.262
      -0.727
      -0.969
      -1.026
      -0.951
      -0.731
      -0.339
       0.182
       0.688
       1.002
       1.006
       0.705
       0.228
      -0.223
      -0.464
      -0.422
      -0.178
       0.088
       0.216
       0.159
      -0.021
      -0.243
      -0.458
      -0.619
      -0.629
      -0.379
       0.124
       0.682
       0.989
       0.849
       0.321
      -0.305
      -0.688
      -0.643
      -0.226
       0.315
       0.693
       0.739
       0.473
       0.058
      -0.315
      -0.533
      -0.566
      -0.418
      -0.108
       0.282
       0.570
       0.549
       0.172
      -0.342
      -0.629
      -0.494
      -0.101
       0.179
       0.137
      -0.071
      -0.118
       0.109
       0.366
       0.315
      -0.098
      -0.563
      -0.721
      -0.503
      -0.135
       0.148
       0.345
       0.607
       0.965
       1.178
       0.905
       0.050
      -1.042
      -1.766
      -1.676
      -0.807
       0.360
       1.242
       1.502
       1.171
       0.535
      -0.086
      -0.497
      -0.677
      -0.710
      -0.673
      -0.558
      -0.294
       0.150
       0.684
       1.084
       1.104
       0.645
      -0.136
      -0.879
      -1.241
      -1.102
      -0.607
      -0.028
       0.404
       0.584
       0.536
       0.372
       0.228
       0.167
       0.110
      -0.101
      -0.483
      -0.762
      -0.525
       0.344
       1.364
       1.724
       0.978
      -0.464
      -1.603
      -1.687
      -0.842
       0.106
       0.431
       0.128
      -0.223
      -0.137
       0.310
       0.651
       0.577
       0.240
       0.025
       0.118
       0.328
       0.322
      -0.025
      -0.530
      -0.901
      -0.981
      -0.792
      -0.421
       0.064
       0.589
       1.015
       1.157
       0.894
       0.291
      -0.363
      -0.695
      -0.539
      -0.117
       0.126
      -0.036
      -0.354
      -0.366
       0.086
       0.640
       0.778
       0.363
      -0.234
      -0.542
      -0.466
      -0.302
      -0.340
      -0.522
      -0.542
      -0.222
       0.301
       0.735
       0.912
       0.846
       0.606
       0.246
      -0.151
      -0.437
      -0.499
      -0.364
      -0.191
      -0.131
      -0.224
      -0.401
      -0.544
      -0.522
      -0.228
       0.344
       0.992
       1.334
       1.060
       0.251
      -0.603
      -0.987
      -0.828
      -0.527
      -0.482
      -0.619
      -0.458
       0.329
       1.454
       2.144
       1.777
       0.449
      -1.050
      -1.828
      -1.556
      -0.645
       0.175
       0.452
       0.281
       0.080
       0.146
       0.409
       0.551
       0.357
      -0.058
      -0.342
      -0.244
       0.124
       0.372
       0.192
      -0.337
      -0.795
      -0.797
      -0.351
       0.151
       0.307
       0.068
      -0.228
      -0.191
       0.270
       0.878
       1.235
       1.116
       0.573
      -0.173
      -0.894
      -1.427
      -1.644
      -1.437
      -0.783
       0.160
       1.039
       1.473
       1.293
       0.673
       0.000
      -0.406
      -0.487
      -0.403
      -0.328
      -0.293
      -0.206
       0.011
       0.325
       0.608
       0.728
       0.638
       0.373
      -0.004
      -0.454
      -0.934
      -1.314
      -1.358
      -0.861
       0.131
       1.239
       1.947
       1.951
       1.355
       0.537
      -0.193
      -0.779
      -1.290
      -1.666
      -1.669
      -1.121
      -0.153
       0.818
       1.373
       1.364
       0.925
       0.290
      -0.356
      -0.882
      -1.146
      -1.027
      -0.526
       0.179
       0.802
       1.104
       1.000
       0.565
      -0.036
      -0.623
      -1.050
      -1.207
      -1.035
      -0.537
       0.198
       0.973
       1.503
       1.501
       0.869
      -0.168
      -1.111
      -1.501
      -1.223
      -0.549
       0.126
       0.588
       0.880
       1.114
       1.266
       1.153
       0.622
      -0.244
      -1.096
      -1.525
      -1.342
      -0.723
      -0.062
       0.320
       0.386
       0.335
       0.368
       0.494
       0.546
       0.389
       0.086
      -0.155
      -0.231
      -0.265
      -0.430
      -0.681
      -0.763
      -0.496
       0.013
       0.478
       0.707
       0.708
       0.565
       0.296
      -0.100
      -0.517
      -0.730
      -0.565
      -0.091
       0.406
       0.657
       0.612
       0.413
       0.199
      -0.014
      -0.255
      -0.496
      -0.666
      -0.729
      -0.655
      -0.369
       0.170
       0.793
       1.128
       0.891
       0.206
      -0.431
      -0.592
      -0.336
      -0.138
      -0.347
      -0.734
      -0.673
       0.172
       1.366
       1.997
       1.473
       0.056
      -1.359
      -1.961
      -1.572
      -0.628
       0.278
       0.844
       1.105
       1.176
       1.007
       0.479
      -0.333
      -1.050
      -1.245
      -0.827
      -0.154
       0.263
       0.196
      -0.147
      -0.358
      -0.230
       0.097
       0.345
       0.405
       0.397
       0.443
       0.461
       0.256
      -0.208
      -0.702
      -0.905
      -0.675
      -0.134
       0.451
       0.813
       0.777
       0.324
      -0.332
      -0.774
      -0.621
       0.125
       0.972
       1.286
       0.815
      -0.088
      -0.777
      -0.861
      -0.467
      -0.031
       0.121
      -0.004
      -0.172
      -0.186
      -0.046
       0.079
       0.009
      -0.275
      -0.565
      -0.544
      -0.065
       0.650
       1.095
       0.873
       0.055
      -0.825
      -1.145
      -0.646
       0.393
       1.334
       1.580
       0.961
      -0.123
      -0.973
      -1.120
      -0.682
      -0.182
      -0.012
      -0.090
      -0.067
       0.197
       0.439
       0.321
      -0.118
      -0.439
      -0.269
       0.258
       0.591
       0.334
      -0.326
      -0.787
      -0.613
       0.067
       0.706
       0.824
       0.360
      -0.363
      -0.915
      -1.009
      -0.592
       0.152
       0.871
       1.200
       0.994
       0.440
      -0.094
      -0.367
      -0.404
      -0.345
      -0.242
      -0.055
       0.179
       0.288
       0.132
      -0.237
      -0.601
      -0.780
      -0.748
      -0.566
      -0.229
       0.341
       1.111
       1.724
       1.614
       0.492
      -1.201
      -2.411
      -2.252
      -0.784
       0.963
       1.829
       1.470
       0.548
       0.010
       0.183
       0.558
       0.427
      -0.318
      -1.062
      -1.115
      -0.396
       0.534
       1.049
       0.948
       0.426
      -0.281
      -1.056
      -1.765
      -2.111
      -1.777
      -0.735
       0.623
       1.708
       2.132
       1.926
       1.399
       0.831
       0.284
      -0.318
      -0.992
      -1.585
      -1.841
      -1.555
      -0.720
       0.421
       1.456
       1.971
       1.732
       0.808
      -0.411
      -1.350
      -1.539
      -0.932
       0.010
       0.615
       0.503
      -0.118
      -0.638
      -0.570
       0.056
       0.770
       1.104
       0.940
       0.471
      -0.079
      -0.626
      -1.109
      -1.345
      -1.097
      -0.346
       0.576
       1.195
       1.246
       0.835
       0.273
      -0.197
      -0.489
      -0.599
      -0.513
      -0.246
       0.103
       0.403
       0.565
       0.549
       0.295
      -0.251
      -0.984
      -1.545
      -1.496
      -0.679
       0.578
       1.660
       2.103
       1.879
       1.288
       0.639
       0.022
      -0.662
      -1.507
      -2.403
      -3.001
      -2.899
      -1.933
      -0.346
       1.351
       2.678
       3.377
       3.366
       2.621
       1.193
      -0.613
      -2.167
      -2.765
      -2.126
      -0.706
       0.561
       0.977
       0.627
       0.205
       0.263
       0.629
       0.606
      -0.250
      -1.537
      -2.230
      -1.550
       0.267
       2.044
       2.567
       1.556
      -0.141
      -1.290
      -1.263
      -0.431
       0.329
       0.472
       0.179
      -0.011
       0.143
       0.342
       0.143
      -0.486
      -1.072
      -1.074
      -0.391
       0.576
       1.284
       1.420
       0.985
       0.143
      -0.872
      -1.745
      -2.109
      -1.733
      -0.745
       0.392
       1.202
       1.515
       1.463
       1.199
       0.687
      -0.170
      -1.250
      -2.123
      -2.290
      -1.532
      -0.086
       1.481
       2.591
       2.923
       2.472
       1.411
      -0.034
      -1.578
      -2.808
      -3.245
      -2.588
      -0.959
       1.101
       2.877
       3.777
       3.468
       1.924
      -0.473
      -2.872
      -4.199
      -3.772
      -1.830
       0.544
       2.168
       2.532
       1.949
       1.021
       0.085
      -0.823
      -1.586
      -1.838
      -1.289
      -0.136
       1.004
       1.621
       1.682
       1.441
       0.979
       0.120
      -1.160
      -2.357
      -2.659
      -1.636
       0.275
       1.997
       2.562
       1.766
       0.246
      -1.020
      -1.363
      -0.776
       0.195
       0.863
       0.803
       0.029
      -1.065
      -1.919
      -2.044
      -1.234
       0.285
       1.860
       2.677
       2.227
       0.707
      -1.003
      -1.889
      -1.507
      -0.281
       0.861
       1.210
       0.750
       0.043
      -0.337
      -0.281
      -0.109
      -0.089
      -0.044
       0.458
       1.480
       2.342
       2.027
       0.101
      -2.707
      -4.898
      -5.269
      -3.705
      -1.056
       1.618
       3.637
       4.691
       4.599
       3.335
       1.309
      -0.653
      -1.847
      -2.233
      -2.341
      -2.608
      -2.865
      -2.550
      -1.392
       0.205
       1.495
       2.055
       2.074
       2.007
       2.028
       1.887
       1.267
       0.209
      -0.836
      -1.359
      -1.225
      -0.790
      -0.638
      -1.109
      -2.005
      -2.681
      -2.458
      -1.045
       1.291
       3.800
       5.505
       5.565
       3.706
       0.495
      -2.812
      -4.872
      -4.985
      -3.412
      -1.064
       1.141
       2.669
       3.269
       2.717
       0.938
      -1.555
      -3.527
      -3.666
      -1.609
       1.572
       4.008
       4.304
       2.434
      -0.401
      -2.706
      -3.615
      -3.139
      -1.778
      -0.033
       1.721
       3.068
       3.500
       2.709
       0.939
      -1.018
      -2.274
      -2.417
      -1.752
      -1.044
      -0.951
      -1.540
      -2.217
      -2.150
      -0.926
       1.054
       2.784
       3.393
       2.816
       1.790
       1.129
       0.951
       0.598
      -0.596
      -2.424
      -3.728
      -3.330
      -1.159
       1.532
       3.143
       2.981
       1.626
       0.171
      -0.780
      -1.358
      -1.839
      -2.045
      -1.445
       0.152
       2.110
       3.268
       2.837
       1.092
      -0.779
      -1.572
      -0.983
       0.222
       0.904
       0.520
      -0.429
      -0.899
      -0.323
       0.765
       1.134
      -0.011
      -2.213
      -4.061
      -4.343
      -2.966
      -0.836
       1.069
       2.415
       3.352
       3.815
       3.293
       1.431
      -1.201
      -3.205
      -3.403
      -1.871
       0.110
       1.181
       1.021
       0.411
       0.247
       0.601
       0.827
       0.493
       0.022
       0.239
       1.324
       2.401
       2.284
       0.670
      -1.486
      -2.783
      -2.546
      -1.247
       0.066
       0.656
       0.479
      -0.077
      -0.617
      -0.896
      -0.730
      -0.001
       1.154
       2.217
       2.516
       1.710
       0.085
      -1.635
      -2.789
      -3.144
      -2.816
      -1.983
      -0.742
       0.730
       2.021
       2.643
       2.397
       1.574
       0.720
       0.172
      -0.162
      -0.561
      -1.062
      -1.360
      -1.130
      -0.438
       0.253
       0.497
       0.296
       0.066
       0.196
       0.632
       0.937
       0.743
       0.100
      -0.616
      -1.083
      -1.261
      -1.259
      -1.086
      -0.617
       0.182
       1.100
       1.781
       1.962
       1.598
       0.849
       0.036
      -0.483
      -0.547
      -0.396
      -0.527
      -1.186
      -1.969
      -2.074
      -1.058
       0.611
       1.830
       1.774
       0.628
      -0.548
      -0.699
       0.339
       1.740
       2.411
       1.866
       0.513
      -0.778
      -1.365
      -1.239
      -0.922
      -0.976
      -1.468
      -1.831
      -1.354
       0.065
       1.642
       2.290
       1.568
       0.083
      -1.052
      -1.160
      -0.439
       0.410
       0.848
       0.794
       0.427
      -0.102
      -0.705
      -1.224
      -1.435
      -1.224
      -0.703
      -0.071
       0.587
       1.250
       1.746
       1.742
       1.105
       0.172
      -0.486
      -0.612
      -0.495
      -0.583
      -0.925
      -1.094
      -0.660
       0.298
       1.236
       1.658
       1.532
       1.180
       0.828
       0.373
      -0.374
      -1.281
      -1.860
      -1.701
      -0.920
      -0.123
       0.120
      -0.210
      -0.597
      -0.493
       0.158
       0.864
       1.031
       0.506
      -0.226
      -0.412
       0.296
       1.414
       1.902
       1.046
      -0.798
      -2.344
      -2.384
      -0.829
       1.201
       2.315
       1.956
       0.684
      -0.514
      -1.090
      -1.167
      -1.085
      -0.941
      -0.639
      -0.242
      -0.036
      -0.159
      -0.291
       0.078
       1.010
       1.845
       1.726
       0.434
      -1.307
      -2.374
      -2.134
      -0.855
       0.625
       1.590
       1.855
       1.652
       1.222
       0.580
      -0.343
      -1.385
      -2.084
      -2.009
      -1.169
      -0.060
       0.750
       1.090
       1.242
       1.541
       1.916
       1.858
       0.910
      -0.787
      -2.427
      -3.067
      -2.318
      -0.646
       0.948
       1.634
       1.283
       0.445
      -0.178
      -0.267
       0.008
       0.326
       0.549
       0.697
       0.685
       0.259
      -0.704
      -1.861
      -2.477
      -1.987
      -0.550
       0.950
       1.575
       1.126
       0.300
      -0.002
       0.444
       1.016
       0.953
       0.173
      -0.649
      -0.762
      -0.068
       0.809
       1.101
       0.539
      -0.486
      -1.322
      -1.554
      -1.172
      -0.401
       0.475
       1.119
       1.177
       0.534
      -0.451
      -1.132
      -1.089
      -0.448
       0.332
       0.882
       1.069
       0.856
       0.228
      -0.636
      -1.254
      -1.117
      -0.209
       0.811
       1.102
       0.418
      -0.599
      -0.978
      -0.323
       0.804
       1.408
       0.958
      -0.180
      -1.138
      -1.303
      -0.745
      -0.015
       0.392
       0.414
       0.348
       0.461
       0.679
       0.654
       0.156
      -0.602
      -1.086
      -0.920
      -0.263
       0.330
       0.434
       0.128
      -0.160
      -0.128
       0.135
       0.350
       0.426
       0.568
       0.976
       1.467
       1.488
       0.615
      -0.925
      -2.305
      -2.762
      -2.211
      -1.177
      -0.191
       0.626
       1.381
       1.958
       1.937
       1.030
      -0.447
      -1.607
      -1.631
      -0.475
       1.006
       1.712
       1.201
       0.010
      -0.915
      -1.094
      -0.800
      -0.532
      -0.375
      -0.015
       0.656
       1.194
       1.027
       0.163
      -0.720
      -0.966
      -0.626
      -0.303
      -0.367
      -0.480
      -0.018
       1.093
       2.089
       2.013
       0.655
      -1.166
      -2.278
      -2.118
      -1.064
       0.083
       0.838
