Origin Time       16/4/2013 10:44:11	
Lat.              28.0 N	
Long.             62.1 E	
Depth (Km)         46.0
Magnitude         7.8
 Region           Iran-Pakistan-Border-Region                                      
 Above details taken from IMD 
     
Station Code      DLU
Station Lat.       28.691  N
Station Long.      77.212  E
Station Height(m)  220.0
Site Class        C   Vs30 between 200 m/sec to 375 m/sec *  
Record Time       16.04.2013 10:49:16.774
Sampling Rate     200. Hz
 Record Duration  100.755 Sec.
 Direction         E-W (E positive)
Max. Acceleration      2.306 cm/sec**2
     
  * For reference see Site Classification link of website 
     
 Base Line Corrected and Low Pass Filtered (Cut Off at 35 Hz) Time History
 Acceleration data in cm/sec**2
    
[...]
      -0.156
      -0.241
      -0.351
      -0.466
      -0.540
      -0.539
      -0.482
      -0.426
      -0.413
      -0.432
      -0.435
      -0.400
      -0.352
      -0.332
      -0.346
      -0.369
      -0.373
      -0.363
      -0.365
      -0.401
      -0.470
      -0.548
      -0.594
      -0.568
      -0.461
      -0.309
      -0.175
      -0.103
      -0.085
      -0.073
      -0.030
       0.038
       0.099
       0.139
       0.178
       0.240
       0.315
       0.357
       0.333
       0.251
       0.159
       0.104
       0.108
       0.168
       0.264
       0.364
       0.430
       0.437
       0.388
       0.311
       0.238
       0.191
       0.185
       0.228
       0.310
       0.385
       0.399
       0.335
       0.238
       0.176
       0.174
       0.201
       0.207
       0.180
       0.150
       0.161
       0.231
       0.326
       0.378
       0.325
       0.160
      -0.042
      -0.168
      -0.154
      -0.040
       0.052
       0.019
      -0.135
      -0.323
      -0.453
      -0.493
      -0.460
      -0.384
      -0.283
      -0.181
      -0.117
      -0.127
      -0.214
      -0.343
      -0.462
      -0.527
      -0.514
      -0.423
      -0.283
      -0.148
      -0.077
      -0.089
      -0.151
      -0.195
      -0.174
      -0.082
       0.057
       0.211
       0.342
       0.401
       0.357
       0.231
       0.102
       0.051
       0.097
       0.186
       0.228
       0.177
       0.055
      -0.066
      -0.121
      -0.089
       0.009
       0.132
       0.247
       0.333
       0.378
       0.371
       0.312
       0.211
       0.095
       0.004
      -0.031
      -0.006
       0.056
       0.110
       0.116
       0.065
      -0.016
      -0.076
      -0.077
      -0.018
       0.064
       0.136
       0.186
       0.213
       0.203
       0.121
      -0.044
      -0.247
      -0.396
      -0.416
      -0.309
      -0.160
      -0.074
      -0.109
      -0.231
      -0.348
      -0.379
      -0.318
      -0.233
      -0.195
      -0.207
      -0.213
      -0.167
      -0.087
      -0.038
      -0.050
      -0.082
      -0.055
       0.074
       0.265
       0.427
       0.488
       0.450
       0.375
       0.327
       0.316
       0.303
       0.254
       0.171
       0.093
       0.055
       0.070
       0.123
       0.177
       0.191
       0.142
       0.048
      -0.037
      -0.072
      -0.076
      -0.121
      -0.259
      -0.463
      -0.645
      -0.731
      -0.716
      -0.652
      -0.593
      -0.548
      -0.492
      -0.415
      -0.348
      -0.347
      -0.436
      -0.563
      -0.624
      -0.534
      -0.296
      -0.007
       0.217
       0.320
       0.337
       0.343
       0.385
       0.457
       0.527
       0.590
       0.683
       0.837
       1.021
       1.148
       1.139
       0.997
       0.802
       0.641
       0.543
       0.466
       0.361
       0.225
       0.104
       0.040
       0.030
       0.021
      -0.042
      -0.165
      -0.304
      -0.402
      -0.443
      -0.461
      -0.509
      -0.601
      -0.697
      -0.724
      -0.639
      -0.460
      -0.265
      -0.142
      -0.119
      -0.146
      -0.137
      -0.046
       0.090
       0.180
       0.154
       0.016
      -0.166
      -0.308
      -0.363
      -0.341
      -0.289
      -0.252
      -0.247
      -0.261
      -0.284
      -0.322
      -0.382
      -0.448
      -0.464
      -0.374
      -0.184
       0.022
       0.147
       0.157
       0.118
       0.123
       0.212
       0.340
       0.429
       0.442
       0.404
       0.365
       0.354
       0.353
       0.313
       0.207
       0.066
      -0.027
       0.003
       0.147
       0.306
       0.366
       0.290
       0.140
       0.021
      -0.011
       0.023
       0.059
       0.045
      -0.033
      -0.154
      -0.288
      -0.412
      -0.510
      -0.567
      -0.570
      -0.521
      -0.444
      -0.378
      -0.354
      -0.371
      -0.397
      -0.403
      -0.376
      -0.332
      -0.295
      -0.281
      -0.288
      -0.296
      -0.278
      -0.218
      -0.117
       0.012
       0.167
       0.356
       0.571
       0.767
       0.886
       0.907
       0.859
       0.803
       0.771
       0.757
       0.733
       0.684
       0.618
       0.554
       0.512
       0.497
       0.491
       0.455
       0.360
       0.214
       0.058
      -0.066
      -0.145
      -0.189
      -0.209
      -0.195
      -0.132
      -0.028
       0.078
       0.151
       0.184
       0.206
       0.246
       0.311
       0.380
       0.426
       0.439
       0.424
       0.386
       0.321
       0.226
       0.112
      -0.002
      -0.095
      -0.153
      -0.180
      -0.199
      -0.255
      -0.383
      -0.571
      -0.743
      -0.812
      -0.765
      -0.674
      -0.640
      -0.695
      -0.789
      -0.846
      -0.828
      -0.750
      -0.647
      -0.550
      -0.468
      -0.390
      -0.298
      -0.189
      -0.085
      -0.020
      -0.002
       0.010
       0.079
       0.226
       0.407
       0.545
       0.602
       0.597
       0.574
       0.555
       0.534
       0.504
       0.477
       0.467
       0.466
       0.438
       0.344
       0.175
      -0.020
      -0.168
      -0.220
      -0.187
      -0.127
      -0.085
      -0.065
      -0.041
       0.003
       0.054
       0.087
       0.083
       0.037
      -0.028
      -0.064
      -0.019
       0.114
       0.278
       0.387
       0.399
       0.356
       0.341
       0.395
       0.481
       0.530
       0.510
       0.449
       0.394
       0.353
       0.283
       0.140
      -0.062
      -0.241
      -0.300
      -0.199
       0.000
       0.161
       0.168
       0.004
      -0.244
      -0.457
      -0.565
      -0.582
      -0.567
      -0.564
      -0.575
      -0.588
      -0.604
      -0.647
      -0.737
      -0.865
      -0.991
      -1.065
      -1.065
      -1.010
      -0.945
      -0.896
      -0.836
      -0.704
      -0.467
      -0.182
       0.034
       0.098
       0.035
      -0.044
      -0.050
       0.022
       0.118
       0.194
       0.247
       0.285
       0.305
       0.301
       0.272
       0.219
       0.151
       0.094
       0.088
       0.133
       0.175
       0.137
       0.000
      -0.164
      -0.243
      -0.182
      -0.030
       0.100
       0.125
       0.056
      -0.017
      -0.010
       0.092
       0.220
       0.291
       0.280
       0.241
       0.247
       0.319
       0.405
       0.436
       0.389
       0.299
       0.216
       0.166
       0.151
       0.159
       0.184
       0.228
       0.296
       0.381
       0.457
       0.484
       0.434
       0.317
       0.190
       0.119
       0.132
       0.196
       0.240
       0.219
       0.154
       0.109
       0.125
       0.184
       0.237
       0.266
       0.302
       0.381
       0.492
       0.579
       0.595
       0.540
       0.453
       0.377
       0.330
       0.307
       0.284
       0.231
       0.129
      -0.007
      -0.136
      -0.232
      -0.308
      -0.391
      -0.484
      -0.561
      -0.595
      -0.601
      -0.621
      -0.692
      -0.818
      -0.970
      -1.098
      -1.154
      -1.114
      -0.981
      -0.786
      -0.569
      -0.373
      -0.234
      -0.175
      -0.193
      -0.257
      -0.321
      -0.356
      -0.362
      -0.353
      -0.331
      -0.273
      -0.141
       0.076
       0.334
       0.554
       0.676
       0.709
       0.716
       0.756
       0.829
       0.880
       0.856
       0.752
       0.610
       0.486
       0.418
       0.406
       0.419
       0.414
       0.376
       0.338
       0.360
       0.465
       0.609
       0.707
       0.705
       0.610
       0.472
       0.334
       0.206
       0.087
      -0.015
      -0.082
      -0.099
      -0.056
       0.052
       0.217
       0.407
       0.572
       0.661
       0.645
       0.539
       0.396
       0.291
       0.266
       0.304
       0.321
       0.221
      -0.027
      -0.361
      -0.661
      -0.844
      -0.914
      -0.931
      -0.937
      -0.923
      -0.861
      -0.754
      -0.639
      -0.552
      -0.492
      -0.429
      -0.328
      -0.182
      -0.033
       0.039
      -0.031
      -0.231
      -0.467
      -0.616
      -0.606
      -0.454
      -0.242
      -0.073
      -0.030
      -0.129
      -0.299
      -0.411
      -0.372
      -0.210
      -0.061
      -0.058
      -0.223
      -0.463
      -0.654
      -0.720
      -0.661
      -0.531
      -0.409
      -0.360
      -0.403
      -0.495
      -0.557
      -0.514
      -0.340
      -0.066
       0.226
       0.440
       0.513
       0.443
       0.286
       0.115
      -0.019
      -0.094
      -0.106
      -0.060
       0.039
       0.180
       0.342
       0.487
       0.563
       0.532
       0.402
       0.250
       0.195
       0.309
       0.545
       0.752
       0.793
       0.657
       0.461
       0.344
       0.356
       0.440
       0.520
       0.573
       0.632
       0.729
       0.837
       0.893
       0.856
       0.751
       0.640
       0.552
       0.447
       0.260
      -0.018
      -0.316
      -0.533
      -0.627
      -0.641
      -0.655
      -0.705
      -0.760
      -0.764
      -0.698
      -0.597
      -0.514
      -0.469
      -0.444
      -0.403
      -0.332
      -0.259
      -0.240
      -0.316
      -0.473
      -0.630
      -0.690
      -0.607
      -0.427
      -0.253
      -0.175
      -0.212
      -0.312
      -0.409
      -0.473
      -0.530
      -0.608
      -0.691
      -0.714
      -0.610
      -0.383
      -0.124
       0.043
       0.057
      -0.041
      -0.147
      -0.179
      -0.128
      -0.033
       0.068
       0.170
       0.284
       0.404
       0.501
       0.536
       0.490
       0.384
       0.269
       0.196
       0.183
       0.207
       0.237
       0.264
       0.302
       0.355
       0.402
       0.430
       0.454
       0.513
       0.626
       0.755
       0.834
       0.819
       0.725
       0.610
       0.533
       0.520
       0.559
       0.616
       0.656
       0.667
       0.674
       0.717
       0.799
       0.857
       0.818
       0.686
       0.562
       0.553
       0.665
       0.800
       0.855
       0.803
       0.688
       0.557
       0.430
       0.293
       0.130
      -0.065
      -0.266
      -0.418
      -0.467
      -0.419
      -0.351
      -0.353
      -0.432
      -0.499
      -0.451
      -0.286
      -0.119
      -0.095
      -0.263
      -0.542
      -0.784
      -0.889
      -0.864
      -0.797
      -0.768
      -0.794
      -0.838
      -0.867
      -0.872
      -0.838
      -0.717
      -0.459
      -0.070
       0.346
       0.630
       0.659
       0.421
       0.035
      -0.314
      -0.479
      -0.431
      -0.247
      -0.039
       0.104
       0.147
       0.099
       0.012
      -0.040
      -0.011
       0.078
       0.150
       0.135
       0.027
      -0.132
      -0.296
      -0.447
      -0.570
      -0.637
      -0.624
      -0.547
      -0.468
      -0.429
      -0.409
      -0.336
      -0.169
       0.055
       0.253
       0.359
       0.362
       0.288
       0.165
       0.012
      -0.151
      -0.302
      -0.423
      -0.509
      -0.561
      -0.585
      -0.584
      -0.555
      -0.488
      -0.384
      -0.257
      -0.131
      -0.035
       0.019
       0.024
      -0.023
      -0.114
      -0.223
      -0.309
      -0.330
      -0.276
      -0.164
      -0.026
       0.115
       0.248
       0.361
       0.451
       0.527
       0.610
       0.715
       0.827
       0.907
       0.922
       0.883
       0.829
       0.795
       0.777
       0.744
       0.678
       0.596
       0.548
       0.571
       0.652
       0.730
       0.731
       0.625
       0.455
       0.311
       0.269
       0.332
       0.435
       0.492
       0.469
       0.399
       0.334
       0.281
       0.199
       0.058
      -0.105
      -0.214
      -0.233
      -0.202
      -0.209
      -0.310
      -0.489
      -0.672
      -0.785
      -0.794
      -0.718
      -0.605
      -0.502
      -0.419
      -0.327
      -0.191
       0.001
       0.228
       0.455
       0.647
       0.771
       0.800
       0.724
       0.569
       0.391
       0.250
       0.177
       0.162
       0.169
       0.160
       0.116
       0.041
      -0.050
      -0.130
      -0.176
      -0.178
      -0.164
      -0.192
      -0.302
      -0.468
      -0.600
      -0.616
      -0.509
      -0.355
      -0.238
      -0.182
      -0.143
      -0.076
       0.015
       0.067
       0.020
      -0.137
      -0.354
      -0.542
      -0.627
      -0.589
      -0.476
      -0.373
      -0.359
      -0.465
      -0.675
      -0.954
      -1.261
      -1.551
      -1.779
      -1.912
      -1.941
      -1.881
      -1.757
      -1.598
      -1.437
      -1.311
      -1.249
      -1.260
      -1.321
      -1.382
      -1.382
      -1.280
      -1.086
      -0.859
      -0.673
      -0.561
      -0.505
      -0.474
      -0.460
      -0.480
      -0.530
      -0.564
      -0.513
      -0.348
      -0.105
       0.143
       0.333
       0.451
       0.529
       0.616
       0.737
       0.875
       0.989
       1.062
       1.131
       1.269
       1.512
       1.816
       2.087
       2.252
       2.306
       2.294
       2.251
       2.180
       2.074
       1.948
       1.845
       1.794
       1.774
       1.719
       1.561
       1.286
       0.949
       0.637
       0.405
       0.242
       0.098
      -0.065
      -0.237
      -0.381
      -0.475
      -0.536
      -0.596
      -0.659
      -0.682
      -0.607
      -0.419
      -0.171
       0.057
       0.224
       0.355
       0.499
       0.668
       0.823
       0.913
       0.921
       0.865
       0.771
       0.648
       0.502
       0.353
       0.228
       0.133
       0.036
      -0.088
      -0.216
      -0.284
      -0.260
      -0.193
      -0.182
      -0.284
      -0.451
      -0.559
      -0.518
      -0.369
      -0.260
      -0.321
      -0.550
      -0.818
      -0.996
      -1.063
      -1.095
      -1.151
      -1.191
      -1.114
      -0.881
      -0.583
      -0.379
      -0.371
      -0.536
      -0.761
      -0.932
      -0.995
      -0.957
      -0.864
      -0.765
      -0.686
      -0.630
      -0.611
      -0.673
      -0.860
      -1.151
      -1.424
      -1.518
      -1.352
      -0.993
      -0.598
      -0.288
      -0.076
       0.087
       0.231
       0.341
       0.404
       0.443
       0.486
       0.524
       0.516
       0.438
       0.329
       0.273
       0.360
       0.619
       0.988
       1.332
       1.518
       1.507
       1.373
       1.237
       1.165
       1.131
       1.062
       0.921
       0.747
       0.613
       0.546
       0.504
       0.418
       0.270
       0.106
      -0.006
      -0.037
      -0.004
       0.061
       0.146
       0.257
       0.401
       0.555
       0.669
       0.704
       0.661
       0.592
       0.558
       0.579
       0.613
       0.594
       0.487
       0.316
       0.136
      -0.005
      -0.092
      -0.127
      -0.125
      -0.114
      -0.132
      -0.198
      -0.296
      -0.397
      -0.495
      -0.627
      -0.813
      -1.009
      -1.104
      -1.009
      -0.750
      -0.461
      -0.284
      -0.249
      -0.263
      -0.205
      -0.045
       0.136
       0.240
       0.259
       0.277
       0.375
       0.530
       0.639
       0.626
       0.527
       0.452
       0.484
       0.608
       0.731
       0.763
       0.679
       0.525
       0.367
       0.217
       0.019
      -0.292
      -0.694
      -1.053
      -1.228
      -1.191
      -1.054
      -0.951
      -0.912
      -0.845
      -0.656
      -0.361
      -0.085
       0.052
       0.036
      -0.048
      -0.112
      -0.134
      -0.138
      -0.141
      -0.133
      -0.109
      -0.090
      -0.108
      -0.162
      -0.216
      -0.243
      -0.256
      -0.281
      -0.308
      -0.285
      -0.176
      -0.013
       0.108
       0.097
      -0.077
      -0.362
      -0.654
      -0.852
      -0.904
      -0.828
      -0.683
      -0.528
      -0.391
      -0.279
      -0.203
      -0.169
      -0.167
      -0.149
      -0.054
       0.138
       0.366
       0.528
       0.556
       0.485
       0.408
       0.389
       0.401
       0.369
       0.260
       0.127
       0.051
       0.061
       0.119
       0.173
       0.233
       0.350
       0.533
       0.695
       0.711
       0.538
       0.267
       0.040
      -0.081
      -0.153
      -0.265
      -0.422
      -0.539
      -0.518
      -0.348
      -0.104
       0.118
       0.271
       0.362
       0.403
       0.370
       0.224
      -0.032
      -0.322
      -0.534
      -0.602
      -0.546
      -0.455
      -0.404
      -0.407
      -0.429
      -0.447
      -0.476
      -0.546
      -0.644
      -0.701
      -0.625
      -0.376
       0.002
       0.397
       0.697
       0.851
       0.873
       0.804
       0.669
       0.491
       0.313
       0.198
       0.181
       0.229
       0.279
       0.319
       0.408
       0.608
       0.885
       1.117
       1.196
       1.118
       0.960
       0.791
       0.622
       0.450
       0.310
       0.272
       0.367
       0.517
       0.578
       0.453
       0.197
      -0.009
      -0.003
       0.220
       0.494
       0.617
       0.513
       0.283
       0.119
       0.151
       0.361
       0.620
       0.808
       0.888
       0.894
       0.846
       0.710
       0.449
       0.111
      -0.160
      -0.219
      -0.044
       0.242
       0.470
       0.544
       0.472
       0.298
       0.034
      -0.333
      -0.775
      -1.192
      -1.455
      -1.493
      -1.339
      -1.112
      -0.941
      -0.892
      -0.935
      -0.977
      -0.928
      -0.746
      -0.462
      -0.153
       0.090
       0.216
       0.222
       0.138
      -0.006
      -0.187
      -0.380
      -0.548
      -0.650
      -0.663
      -0.599
      -0.499
      -0.404
      -0.327
      -0.255
      -0.162
      -0.041
       0.087
       0.175
       0.169
       0.053
      -0.124
      -0.252
      -0.230
      -0.040
       0.242
       0.517
       0.722
       0.832
       0.822
       0.664
       0.380
       0.082
      -0.072
       0.006
       0.272
       0.590
       0.839
       0.978
       1.014
       0.945
       0.744
       0.408
       0.012
      -0.304
      -0.430
      -0.366
      -0.222
      -0.123
      -0.111
      -0.147
      -0.171
      -0.164
      -0.139
      -0.095
      -0.006
       0.138
       0.291
       0.358
       0.271
       0.059
      -0.151
      -0.220
      -0.087
       0.192
       0.499
       0.726
       0.827
       0.816
       0.738
       0.652
       0.604
       0.592
       0.560
       0.427
       0.153
      -0.211
      -0.555
      -0.768
      -0.798
      -0.663
      -0.425
      -0.158
       0.064
       0.181
       0.176
       0.078
      -0.051
      -0.148
      -0.174
