Origin Time       11/11/2013 20:11:30
Lat.              28.4 N	
Long.             77.2 E	
Depth (Km)         10.0
Magnitude         3.3
 Region           DELHI                                                            
 Above details taken from IMD 
   
Station Code      DLU
Station Lat.       28.691
Station Long.      77.212
Station Height(m)  220.0
Site Class        C   Vs30 between 200 m/sec to 375 m/sec *  
Record Time       11.11.2013 20:11:07.139
Sampling Rate     200. Hz
 Record Duration   87.735 Sec.
 Direction         Vert. (Up positive)
Max. Acceleration      8.296 cm/sec**2
     
  * For reference see Site Classification link of website 
     
 Base Line Corrected and Low Pass Filtered (Cut Off at 35 Hz) Time History
 Acceleration data in cm/sec**2
    
[...]
      -0.085
      -0.060
      -0.009
       0.030
       0.036
       0.020
       0.012
       0.026
       0.049
       0.055
       0.034
       0.006
      -0.003
       0.011
       0.026
       0.013
      -0.035
      -0.092
      -0.116
      -0.087
      -0.021
       0.039
       0.064
       0.054
       0.034
       0.026
       0.028
       0.024
      -0.002
      -0.040
      -0.069
      -0.069
      -0.045
      -0.021
      -0.015
      -0.025
      -0.025
       0.002
       0.049
       0.087
       0.086
       0.045
      -0.013
      -0.052
      -0.056
      -0.037
      -0.020
      -0.016
      -0.019
      -0.014
       0.001
       0.014
       0.012
       0.002
       0.002
       0.027
       0.064
       0.086
       0.069
       0.017
      -0.039
      -0.066
      -0.056
      -0.023
       0.005
       0.013
       0.005
      -0.003
       0.003
       0.017
       0.027
       0.023
       0.015
       0.014
       0.026
       0.035
       0.024
      -0.010
      -0.051
      -0.069
      -0.051
      -0.013
       0.015
       0.015
      -0.005
      -0.013
       0.008
       0.048
       0.074
       0.062
       0.019
      -0.023
      -0.035
      -0.018
       0.001
      -0.005
      -0.031
      -0.049
      -0.036
       0.001
       0.034
       0.039
       0.019
      -0.003
      -0.006
       0.007
       0.018
       0.010
      -0.008
      -0.018
      -0.009
       0.011
       0.021
       0.007
      -0.023
      -0.045
      -0.037
       0.000
       0.041
       0.056
       0.036
       0.000
      -0.021
      -0.012
       0.009
       0.015
      -0.006
      -0.034
      -0.041
      -0.014
       0.025
       0.043
       0.027
       0.001
      -0.003
       0.025
       0.059
       0.064
       0.026
      -0.029
      -0.062
      -0.049
      -0.005
       0.037
       0.050
       0.036
       0.018
       0.012
       0.018
       0.024
       0.019
       0.009
       0.005
       0.012
       0.023
       0.023
       0.006
      -0.018
      -0.031
      -0.017
       0.014
       0.040
       0.037
       0.005
      -0.035
      -0.054
      -0.041
      -0.010
       0.015
       0.022
       0.020
       0.022
       0.033
       0.037
       0.020
      -0.016
      -0.046
      -0.047
      -0.019
       0.013
       0.021
       0.004
      -0.015
      -0.008
       0.023
       0.054
       0.058
       0.029
      -0.012
      -0.035
      -0.029
      -0.008
       0.005
      -0.001
      -0.014
      -0.014
       0.005
       0.029
       0.035
       0.016
      -0.011
      -0.020
       0.002
       0.036
       0.053
       0.039
       0.006
      -0.015
      -0.010
       0.010
       0.020
       0.006
      -0.021
      -0.032
      -0.014
       0.022
       0.047
       0.043
       0.018
      -0.002
       0.000
       0.018
       0.029
       0.017
      -0.011
      -0.030
      -0.024
      -0.001
       0.016
       0.007
      -0.018
      -0.031
      -0.011
       0.033
       0.071
       0.074
       0.040
      -0.001
      -0.018
      -0.002
       0.022
       0.025
      -0.001
      -0.035
      -0.047
      -0.028
       0.004
       0.022
       0.021
       0.014
       0.021
       0.039
       0.048
       0.027
      -0.015
      -0.050
      -0.052
      -0.024
       0.006
       0.008
      -0.020
      -0.054
      -0.062
      -0.036
       0.007
       0.039
       0.045
       0.034
       0.024
       0.021
       0.014
      -0.006
      -0.037
      -0.061
      -0.057
      -0.024
       0.017
       0.040
       0.033
       0.011
       0.000
       0.013
       0.042
       0.059
       0.048
       0.013
      -0.022
      -0.032
      -0.017
       0.001
       0.001
      -0.013
      -0.020
      -0.003
       0.032
       0.055
       0.048
       0.017
      -0.011
      -0.009
       0.018
       0.041
       0.034
       0.000
      -0.035
      -0.045
      -0.030
      -0.009
      -0.003
      -0.010
      -0.011
       0.008
       0.041
       0.064
       0.060
       0.029
      -0.007
      -0.026
      -0.023
      -0.013
      -0.016
      -0.039
      -0.068
      -0.078
      -0.057
      -0.014
       0.024
       0.041
       0.042
       0.048
       0.067
       0.083
       0.067
       0.009
      -0.064
      -0.108
      -0.097
      -0.048
      -0.004
       0.003
      -0.018
      -0.030
      -0.011
       0.030
       0.059
       0.055
       0.027
       0.003
      -0.002
       0.003
      -0.008
      -0.043
      -0.081
      -0.089
      -0.053
       0.009
       0.056
       0.058
       0.020
      -0.025
      -0.042
      -0.018
       0.026
       0.055
       0.051
       0.022
      -0.010
      -0.030
      -0.040
      -0.050
      -0.061
      -0.058
      -0.028
       0.025
       0.071
       0.079
       0.046
       0.001
      -0.017
       0.001
       0.032
       0.037
       0.003
      -0.048
      -0.078
      -0.071
      -0.038
      -0.007
       0.006
       0.010
       0.022
       0.048
       0.071
       0.071
       0.041
      -0.004
      -0.035
      -0.038
      -0.022
      -0.010
      -0.020
      -0.041
      -0.049
      -0.030
       0.006
       0.036
       0.044
       0.035
       0.031
       0.045
       0.062
       0.057
       0.015
      -0.044
      -0.083
      -0.079
      -0.037
       0.010
       0.030
       0.019
      -0.003
      -0.011
       0.001
       0.019
       0.025
       0.017
       0.010
       0.013
       0.019
       0.006
      -0.031
      -0.076
      -0.096
      -0.071
      -0.016
       0.034
       0.049
       0.029
       0.000
      -0.010
       0.005
       0.028
       0.035
       0.018
      -0.012
      -0.029
      -0.025
      -0.011
      -0.008
      -0.022
      -0.032
      -0.017
       0.023
       0.060
       0.062
       0.023
      -0.026
      -0.048
      -0.027
       0.013
       0.035
       0.018
      -0.021
      -0.050
      -0.051
      -0.031
      -0.011
      -0.004
      -0.004
       0.003
       0.024
       0.045
       0.046
       0.022
      -0.009
      -0.021
      -0.005
       0.022
       0.031
       0.008
      -0.033
      -0.060
      -0.052
      -0.013
       0.028
       0.049
       0.050
       0.054
       0.076
       0.109
       0.131
       0.137
       0.149
       0.184
       0.217
       0.173
       0.009
      -0.208
      -0.303
      -0.134
       0.252
       0.642
       0.873
       1.020
       1.242
       1.378
       0.800
      -1.081
      -3.973
      -6.439
      -6.735
      -4.161
       0.274
       4.482
       6.704
       6.536
       4.839
       2.771
       0.816
      -1.326
      -3.948
      -6.420
      -7.232
      -5.183
      -0.740
       3.857
       6.138
       5.359
       3.030
       1.405
       1.351
       1.693
       0.652
      -2.150
      -5.139
      -6.134
      -4.255
      -0.652
       2.492
       3.705
       3.163
       2.079
       1.316
       0.683
      -0.454
      -2.100
      -3.332
      -3.096
      -1.253
       1.167
       2.765
       2.860
       1.892
       0.815
       0.151
      -0.350
      -1.154
      -2.176
      -2.669
      -1.948
      -0.178
       1.626
       2.443
       2.054
       1.014
      -0.063
      -0.966
      -1.667
      -1.962
      -1.616
      -0.765
       0.132
       0.799
       1.418
       2.235
       2.950
       2.681
       0.771
      -2.260
      -4.698
      -4.856
      -2.541
       0.711
       2.958
       3.432
       2.819
       2.146
       1.611
       0.630
      -1.138
      -3.046
      -3.867
      -2.908
      -0.702
       1.401
       2.310
       1.951
       1.097
       0.523
       0.330
       0.053
      -0.640
      -1.468
      -1.822
      -1.461
      -0.780
      -0.318
      -0.144
       0.148
       0.865
       1.760
       2.225
       1.927
       1.150
       0.437
      -0.085
      -0.817
      -2.041
      -3.277
      -3.537
      -2.267
       0.048
       2.249
       3.374
       3.208
       2.166
       0.820
      -0.465
      -1.496
      -2.026
      -1.795
      -0.920
      -0.058
       0.140
      -0.172
      -0.073
       1.019
       2.390
       2.530
       0.793
      -1.647
      -2.788
      -1.799
       0.143
       1.087
       0.263
      -1.275
      -1.833
      -0.738
       1.115
       2.184
       1.723
       0.435
      -0.287
       0.128
       0.735
       0.131
      -1.730
      -3.111
      -2.232
       0.645
       3.238
       3.464
       1.428
      -0.919
      -1.853
      -1.324
      -0.481
      -0.182
      -0.263
      -0.076
       0.583
       1.238
       1.301
       0.676
      -0.256
      -1.141
      -1.923
      -2.523
      -2.435
      -1.021
       1.606
       4.114
       4.737
       2.767
      -0.676
      -3.437
      -4.024
      -2.650
      -0.747
       0.459
       0.864
       1.150
       1.767
       2.395
       2.305
       1.124
      -0.762
      -2.448
      -3.096
      -2.407
      -0.729
       1.147
       2.385
       2.473
       1.456
      -0.050
      -1.133
      -1.171
      -0.388
       0.238
      -0.125
      -1.216
      -1.802
      -0.917
       0.979
       2.267
       1.697
      -0.293
      -1.862
      -1.477
       0.557
       2.310
       2.045
      -0.145
      -2.501
      -3.295
      -2.255
      -0.405
       1.155
       2.063
       2.470
       2.445
       1.836
       0.590
      -1.007
      -2.424
      -3.167
      -2.989
      -1.912
      -0.144
       1.949
       3.743
       4.366
       3.146
       0.341
      -2.609
      -3.892
      -2.753
      -0.252
       1.541
       1.349
      -0.183
      -1.186
      -0.489
       1.182
       1.973
       0.852
      -1.259
      -2.350
      -1.300
       0.992
       2.436
       1.742
      -0.356
      -1.837
      -1.366
       0.447
       1.696
       1.025
      -1.114
      -2.909
      -2.781
      -0.669
       2.036
       3.609
       3.134
       0.928
      -1.787
      -3.517
      -3.224
      -0.953
       1.950
       3.508
       2.504
      -0.435
      -3.145
      -3.594
      -1.520
       1.448
       3.227
       2.949
       1.413
       0.106
      -0.192
       0.027
      -0.287
      -1.499
      -2.761
      -2.759
      -1.057
       1.296
       2.562
       1.792
      -0.370
      -2.257
      -2.486
      -0.876
       1.616
       3.588
       3.956
       2.459
      -0.183
      -2.586
      -3.522
      -2.778
      -1.232
       0.037
       0.726
       1.314
       2.158
       2.830
       2.486
       0.824
      -1.457
      -3.161
      -3.517
      -2.665
      -1.350
      -0.243
       0.460
       0.925
       1.337
       1.709
       1.911
       1.751
       1.084
      -0.034
      -1.198
      -1.790
      -1.451
      -0.492
       0.279
       0.284
      -0.231
      -0.431
       0.218
       1.318
       1.918
       1.482
       0.387
      -0.540
      -0.849
      -0.779
      -0.867
      -1.328
      -1.794
      -1.602
      -0.426
       1.301
       2.582
       2.578
       1.275
      -0.509
      -1.767
      -2.009
      -1.413
      -0.430
       0.585
       1.376
       1.672
       1.320
       0.544
      -0.139
      -0.409
      -0.489
      -0.858
      -1.600
      -2.134
      -1.694
      -0.090
       1.996
       3.433
       3.386
       1.861
      -0.283
      -1.863
      -2.124
      -1.225
      -0.061
       0.462
       0.125
      -0.544
      -0.851
      -0.606
      -0.257
      -0.405
      -1.156
      -1.903
      -1.790
      -0.474
       1.442
       2.770
       2.638
       1.218
      -0.390
      -1.073
      -0.609
       0.266
       0.641
       0.262
      -0.363
      -0.574
      -0.174
       0.537
       1.174
       1.562
       1.640
       1.275
       0.379
      -0.849
      -1.955
      -2.517
      -2.349
      -1.451
       0.002
       1.518
       2.320
       1.849
       0.358
      -1.187
      -1.934
      -1.828
      -1.366
      -0.880
      -0.276
       0.551
       1.330
       1.594
       1.171
       0.420
      -0.016
       0.310
       1.284
       2.156
       1.904
       0.027
      -2.753
      -4.701
      -4.374
      -1.953
       0.770
       1.931
       1.240
       0.122
       0.189
       1.607
       3.017
       3.044
       1.694
       0.178
      -0.507
      -0.577
      -0.964
      -2.008
      -2.948
      -2.759
      -1.303
       0.507
       1.601
       1.627
       0.996
       0.309
      -0.083
      -0.120
       0.130
       0.602
       1.258
       1.956
       2.276
       1.614
      -0.293
      -2.797
      -4.461
      -4.103
      -1.907
       0.650
       2.128
       2.275
       1.756
       1.041
       0.034
      -1.155
      -1.685
      -0.784
       1.043
       2.140
       1.289
      -1.008
      -2.969
      -3.137
      -1.531
       0.571
       1.761
       1.500
       0.360
      -0.469
      -0.085
       1.305
       2.417
       2.040
       0.391
      -0.869
      -0.303
       1.635
       2.871
       1.835
      -0.856
      -3.016
      -3.109
      -1.619
      -0.257
      -0.099
      -0.681
      -0.788
       0.078
       1.035
       0.608
      -1.731
      -4.665
      -5.756
      -3.388
       1.666
       6.534
       8.296
       6.120
       1.675
      -2.402
      -4.425
      -4.338
      -2.964
      -1.002
       1.181
       3.076
       3.770
       2.505
      -0.407
      -3.397
      -4.665
      -3.586
      -1.098
       1.302
       2.872
       3.893
       4.781
       5.227
       4.391
       1.845
      -1.812
      -5.213
      -7.001
      -6.570
      -4.386
      -1.628
       0.723
       2.554
       4.231
       5.516
       5.314
       2.951
      -0.490
      -2.745
      -2.528
      -0.810
       0.332
      -0.029
      -0.949
      -1.100
      -0.501
      -0.392
      -1.537
      -3.062
      -3.213
      -1.165
       2.090
       4.635
       5.275
       4.281
       2.705
       1.235
      -0.208
      -1.943
      -3.864
      -5.362
      -5.799
      -5.023
      -3.494
      -1.928
      -0.773
       0.027
       0.804
       1.727
       2.572
       2.905
       2.572
       1.994
       1.815
       2.101
       2.034
       0.716
      -1.606
      -3.276
      -2.524
       0.777
       4.689
       6.688
       5.664
       2.571
      -0.621
      -2.408
      -2.419
      -1.233
       0.090
       0.516
      -0.386
      -2.081
      -3.397
      -3.462
      -2.458
      -1.441
      -1.375
      -2.249
      -3.074
      -2.756
      -1.026
       1.359
       3.198
       3.670
       2.825
       1.443
       0.388
      -0.086
      -0.420
      -1.065
      -1.803
      -1.910
      -0.967
       0.739
       2.607
       4.168
       4.944
       4.238
       1.604
      -2.311
      -5.687
      -6.662
      -4.736
      -1.165
       2.037
       3.567
       3.534
       2.919
       2.454
       2.038
       1.164
      -0.214
      -1.371
      -1.476
      -0.565
       0.283
      -0.053
      -1.544
      -2.905
      -2.783
      -1.086
       0.911
       1.775
       1.165
      -0.137
      -1.250
      -1.944
      -2.366
      -2.373
      -1.519
       0.297
       2.389
       3.700
       3.645
       2.490
       0.964
      -0.352
      -1.220
      -1.502
      -1.011
       0.224
       1.636
       2.299
       1.579
      -0.333
      -2.499
      -3.849
      -3.859
      -2.830
      -1.631
      -1.055
      -1.205
      -1.370
      -0.558
       1.642
       4.514
       6.549
       6.551
       4.625
       2.039
       0.070
      -0.977
      -1.593
      -2.155
      -2.487
      -2.318
      -1.865
      -1.696
      -2.000
      -2.203
      -1.487
       0.301
       2.318
       3.294
       2.491
       0.316
      -1.856
      -2.599
      -1.553
       0.198
       1.003
       0.120
      -1.608
      -2.587
      -1.973
      -0.346
       1.029
       1.433
       1.180
       1.086
       1.632
       2.573
       3.196
       2.910
       1.696
       0.099
      -1.155
      -1.617
      -1.330
      -0.751
      -0.447
      -0.715
      -1.322
      -1.637
      -1.147
       0.005
       0.978
       0.840
      -0.572
      -2.320
      -3.001
      -1.937
       0.137
       1.643
       1.563
       0.365
      -0.510
      -0.091
       1.222
       2.195
       1.994
       0.790
      -0.640
      -1.600
      -1.755
      -1.033
       0.416
       2.100
       3.222
       3.117
       1.798
       0.032
      -1.227
      -1.532
      -1.158
      -0.705
      -0.555
      -0.649
      -0.673
      -0.397
       0.115
       0.542
       0.523
      -0.067
      -0.949
      -1.559
      -1.499
      -0.932
      -0.445
      -0.439
      -0.715
      -0.777
      -0.428
       0.095
       0.533
       0.888
       1.212
       1.308
       0.941
       0.298
      -0.036
       0.295
       0.945
       1.213
       0.824
       0.175
      -0.254
      -0.497
      -0.917
      -1.501
      -1.670
      -0.949
       0.358
       1.363
       1.441
       0.729
      -0.214
      -0.990
      -1.503
      -1.725
      -1.595
      -1.151
      -0.580
      -0.018
       0.600
       1.376
       2.154
       2.526
       2.253
       1.605
       1.122
       1.013
       0.925
       0.438
      -0.337
      -0.815
      -0.606
       0.015
       0.383
       0.112
      -0.583
      -1.214
      -1.536
      -1.643
      -1.613
      -1.270
      -0.493
       0.330
       0.419
      -0.659
      -2.368
      -3.448
      -2.880
      -0.750
       1.695
       2.905
       2.203
       0.365
      -0.921
      -0.378
       1.785
       3.968
       4.389
       2.471
      -0.719
      -3.287
      -3.853
      -2.368
       0.028
       1.820
       2.036
       0.751
      -1.060
      -2.203
      -1.989
      -0.553
       1.340
       2.739
       2.952
       1.889
       0.153
      -1.223
      -1.375
      -0.271
       1.107
       1.410
       0.045
      -2.206
      -3.803
      -3.769
      -2.419
      -0.835
       0.198
       0.679
       1.026
       1.503
       1.999
       2.225
       2.025
       1.528
       0.996
       0.545
       0.093
      -0.368
      -0.561
      -0.207
       0.448
       0.607
      -0.293
      -1.803
      -2.671
      -2.010
      -0.211
       1.399
       1.799
       1.134
       0.380
       0.272
       0.623
       0.661
      -0.063
      -1.188
      -1.964
      -2.050
      -1.762
      -1.539
      -1.333
      -0.702
       0.463
       1.526
       1.616
       0.570
      -0.786
      -1.359
      -0.756
       0.466
       1.422
       1.694
       1.550
       1.476
       1.622
       1.706
       1.383
       0.639
      -0.192
      -0.775
      -1.086
      -1.362
      -1.741
      -1.997
      -1.751
      -0.965
      -0.098
       0.353
       0.362
       0.293
       0.353
       0.327
      -0.053
      -0.607
      -0.741
      -0.036
       1.237
       2.213
