Origin Time       12/3/2012 22:07:20	 UTC
Lat.              28.9 N	
Long.             77.3 E	
Depth (Km)          5.0
Magnitude         3.5
 Region           Baghpat-U.P.                                                     
 Above details taken from IMD 
    
Station Code      DLU
Station Lat.       28.691  N
Station Long.      77.212  E
Station Height(m)  220.0
Site Class        C   Vs30 between 200 m/sec to 375 m/sec *  
Record Time       12.03.2012 22:06:59.884 UTC
Sampling Rate     200. Hz
 Record Duration   84.260 Sec.
 Direction         N-S (N positive)
Max. Acceleration      7.536 cm/sec**2
     
  * For reference see Site Classification link of website 
     
 Base Line Corrected and Low Pass Filtered (Cut Off at 35 Hz) Time History
 Acceleration data in cm/sec**2
    
[...]
       0.346
       0.436
       0.392
       0.242
       0.053
      -0.115
      -0.232
      -0.289
      -0.254
      -0.090
       0.180
       0.427
       0.480
       0.263
      -0.109
      -0.384
      -0.356
      -0.034
       0.346
       0.491
       0.286
      -0.109
      -0.395
      -0.386
      -0.166
       0.015
      -0.006
      -0.156
      -0.221
      -0.079
       0.172
       0.299
       0.164
      -0.130
      -0.309
      -0.183
       0.158
       0.405
       0.314
      -0.033
      -0.291
      -0.178
       0.227
       0.535
       0.411
      -0.095
      -0.583
      -0.658
      -0.276
       0.251
       0.551
       0.505
       0.283
       0.119
       0.083
       0.060
      -0.071
      -0.281
      -0.425
      -0.414
      -0.309
      -0.230
      -0.212
      -0.166
      -0.013
       0.201
       0.329
       0.267
       0.057
      -0.161
      -0.275
      -0.275
      -0.208
      -0.108
       0.013
       0.136
       0.222
       0.249
       0.236
       0.213
       0.174
       0.088
      -0.047
      -0.155
      -0.130
       0.056
       0.284
       0.367
       0.216
      -0.072
      -0.301
      -0.356
      -0.288
      -0.228
      -0.209
      -0.126
       0.127
       0.469
       0.644
       0.445
      -0.057
      -0.527
      -0.642
      -0.354
       0.083
       0.352
       0.327
       0.132
      -0.025
      -0.047
       0.007
       0.038
       0.026
       0.021
       0.050
       0.062
      -0.008
      -0.138
      -0.225
      -0.180
      -0.022
       0.150
       0.246
       0.247
       0.174
       0.053
      -0.093
      -0.233
      -0.323
      -0.339
      -0.269
      -0.109
       0.121
       0.341
       0.423
       0.285
      -0.009
      -0.272
      -0.335
      -0.175
       0.091
       0.302
       0.355
       0.239
       0.024
      -0.180
      -0.271
      -0.221
      -0.089
       0.017
       0.027
      -0.043
      -0.113
      -0.112
      -0.034
       0.066
       0.119
       0.095
       0.024
      -0.022
       0.005
       0.087
       0.153
       0.134
       0.034
      -0.061
      -0.043
       0.121
       0.332
       0.411
       0.253
      -0.063
      -0.327
      -0.381
      -0.260
      -0.140
      -0.152
      -0.254
      -0.288
      -0.161
       0.058
       0.228
       0.270
       0.212
       0.122
       0.039
      -0.031
      -0.071
      -0.048
       0.043
       0.143
       0.161
       0.051
      -0.139
      -0.292
      -0.303
      -0.148
       0.113
       0.379
       0.555
       0.577
       0.428
       0.142
      -0.200
      -0.489
      -0.643
      -0.651
      -0.561
      -0.410
      -0.187
       0.110
       0.397
       0.526
       0.427
       0.205
       0.066
       0.104
       0.208
       0.169
      -0.085
      -0.409
      -0.579
      -0.505
      -0.274
      -0.019
       0.204
       0.398
       0.533
       0.531
       0.367
       0.142
      -0.009
      -0.077
      -0.187
      -0.436
      -0.719
      -0.797
      -0.538
      -0.078
       0.288
       0.379
       0.264
       0.143
       0.131
       0.180
       0.180
       0.093
      -0.039
      -0.162
      -0.246
      -0.262
      -0.183
      -0.022
       0.147
       0.250
       0.289
       0.331
       0.399
       0.408
       0.256
      -0.040
      -0.316
      -0.395
      -0.247
      -0.016
       0.101
       0.019
      -0.188
      -0.366
      -0.398
      -0.264
      -0.027
       0.195
       0.276
       0.162
      -0.077
      -0.285
      -0.356
      -0.307
      -0.220
      -0.111
       0.075
       0.342
       0.545
       0.502
       0.210
      -0.100
      -0.184
      -0.051
       0.064
      -0.017
      -0.193
      -0.226
      -0.057
       0.089
      -0.025
      -0.344
      -0.544
      -0.379
       0.051
       0.412
       0.492
       0.378
       0.290
       0.303
       0.277
       0.050
      -0.352
      -0.713
      -0.802
      -0.544
      -0.047
       0.475
       0.817
       0.855
       0.592
       0.153
      -0.275
      -0.538
      -0.592
      -0.514
      -0.408
      -0.311
      -0.167
       0.075
       0.360
       0.537
       0.477
       0.204
      -0.122
      -0.338
      -0.391
      -0.334
      -0.220
      -0.058
       0.153
       0.365
       0.468
       0.362
       0.064
      -0.260
      -0.406
      -0.305
      -0.069
       0.159
       0.366
       0.602
       0.763
       0.567
      -0.151
      -1.093
      -1.600
      -1.220
      -0.201
       0.683
       0.857
       0.463
       0.119
       0.204
       0.485
       0.462
      -0.031
      -0.641
      -0.874
      -0.574
      -0.003
       0.462
       0.619
       0.473
       0.116
      -0.314
      -0.600
      -0.531
      -0.095
       0.437
       0.706
       0.562
       0.176
      -0.150
      -0.238
      -0.126
       0.022
       0.048
      -0.127
      -0.442
      -0.671
      -0.549
      -0.041
       0.527
       0.709
       0.391
      -0.084
      -0.297
      -0.204
      -0.117
      -0.236
      -0.372
      -0.202
       0.278
       0.697
       0.719
       0.382
      -0.004
      -0.217
      -0.276
      -0.276
      -0.221
      -0.073
       0.105
       0.180
       0.121
       0.049
       0.063
       0.075
      -0.099
      -0.467
      -0.757
      -0.644
      -0.116
       0.449
       0.612
       0.305
      -0.111
      -0.225
       0.003
       0.266
       0.301
       0.165
       0.081
       0.101
       0.041
      -0.232
      -0.575
      -0.693
      -0.456
      -0.007
       0.423
       0.709
       0.830
       0.760
       0.475
       0.046
      -0.369
      -0.663
      -0.848
      -0.947
      -0.873
      -0.513
       0.065
       0.569
       0.720
       0.534
       0.301
       0.251
       0.294
       0.138
      -0.324
      -0.799
      -0.824
      -0.224
       0.658
       1.201
       1.012
       0.247
      -0.541
      -0.854
      -0.602
      -0.095
       0.270
       0.314
       0.152
       0.021
       0.042
       0.119
       0.055
      -0.244
      -0.640
      -0.849
      -0.668
      -0.144
       0.462
       0.857
       0.897
       0.642
       0.280
      -0.004
      -0.129
      -0.142
      -0.159
      -0.246
      -0.363
      -0.396
      -0.260
       0.027
       0.355
       0.583
       0.602
       0.371
      -0.036
      -0.432
      -0.612
      -0.526
      -0.335
      -0.244
      -0.263
      -0.179
       0.184
       0.704
       1.010
       0.828
       0.258
      -0.317
      -0.570
      -0.478
      -0.248
      -0.082
      -0.034
      -0.040
       0.004
       0.184
       0.497
       0.781
       0.765
       0.278
      -0.540
      -1.266
      -1.484
      -1.092
      -0.346
       0.359
       0.740
       0.709
       0.330
      -0.223
      -0.692
      -0.840
      -0.594
      -0.093
       0.418
       0.750
       0.851
       0.778
       0.611
       0.397
       0.128
      -0.218
      -0.591
      -0.823
      -0.695
      -0.123
       0.693
       1.326
       1.398
       0.852
       0.010
      -0.661
      -0.889
      -0.738
      -0.448
      -0.177
       0.069
       0.284
       0.341
       0.103
      -0.356
      -0.733
      -0.733
      -0.341
       0.187
       0.564
       0.680
       0.565
       0.259
      -0.196
      -0.638
      -0.809
      -0.583
      -0.147
       0.164
       0.200
       0.104
       0.067
       0.073
      -0.029
      -0.247
      -0.362
      -0.176
       0.225
       0.540
       0.576
       0.430
       0.322
       0.308
       0.244
       0.031
      -0.193
      -0.197
       0.026
       0.189
       0.025
      -0.358
      -0.538
      -0.240
       0.326
       0.628
       0.344
      -0.327
      -0.846
      -0.820
      -0.311
       0.287
       0.594
       0.509
       0.198
      -0.085
      -0.186
      -0.124
      -0.039
      -0.050
      -0.141
      -0.190
      -0.109
       0.077
       0.280
       0.439
       0.509
       0.399
       0.032
      -0.481
      -0.808
      -0.662
      -0.129
       0.342
       0.355
      -0.020
      -0.322
      -0.187
       0.286
       0.677
       0.700
       0.433
       0.108
      -0.179
      -0.461
      -0.655
      -0.523
       0.023
       0.639
       0.757
       0.152
      -0.736
      -1.150
      -0.726
       0.169
       0.839
       0.918
       0.587
       0.221
      -0.033
      -0.268
      -0.551
      -0.778
      -0.796
      -0.557
      -0.121
       0.407
       0.873
       1.046
       0.746
       0.039
      -0.708
      -1.064
      -0.866
      -0.320
       0.186
       0.371
       0.212
      -0.082
      -0.240
      -0.121
       0.158
       0.313
       0.168
      -0.129
      -0.230
       0.038
       0.450
       0.613
       0.398
       0.066
      -0.058
       0.038
       0.095
      -0.044
      -0.230
      -0.205
       0.060
       0.313
       0.297
       0.029
      -0.238
      -0.284
      -0.136
      -0.001
      -0.023
      -0.149
      -0.220
      -0.162
      -0.023
       0.119
       0.226
       0.234
       0.026
      -0.422
      -0.846
      -0.805
      -0.117
       0.845
       1.385
       1.110
       0.278
      -0.476
      -0.735
      -0.564
      -0.258
       0.002
       0.197
       0.294
       0.183
      -0.152
      -0.507
      -0.577
      -0.236
       0.297
       0.605
       0.436
      -0.019
      -0.252
       0.056
       0.620
       0.741
       0.032
      -1.061
      -1.584
      -0.997
       0.268
       1.225
       1.274
       0.656
       0.035
      -0.222
      -0.241
      -0.257
      -0.251
      -0.061
       0.297
       0.570
       0.541
       0.261
      -0.045
      -0.262
      -0.473
      -0.765
      -1.028
      -1.030
      -0.657
      -0.051
       0.527
       0.917
       1.113
       1.130
       0.887
       0.285
      -0.591
      -1.367
      -1.554
      -0.910
       0.298
       1.391
       1.724
       1.150
       0.111
      -0.705
      -0.898
      -0.608
      -0.291
      -0.260
      -0.427
      -0.469
      -0.202
       0.237
       0.547
       0.563
       0.398
       0.283
       0.317
       0.403
       0.410
       0.331
       0.221
       0.038
      -0.332
      -0.834
      -1.133
      -0.880
      -0.112
       0.702
       1.071
       0.878
       0.358
      -0.230
      -0.765
      -1.140
      -1.161
      -0.723
      -0.018
       0.565
       0.767
       0.619
       0.294
      -0.093
      -0.465
      -0.693
      -0.640
      -0.307
       0.154
       0.577
       0.868
       0.962
       0.768
       0.271
      -0.344
      -0.760
      -0.787
      -0.541
      -0.290
      -0.138
       0.077
       0.538
       1.123
       1.413
       1.059
       0.159
      -0.768
      -1.216
      -1.125
      -0.859
      -0.752
      -0.733
      -0.433
       0.316
       1.183
       1.580
       1.198
       0.283
      -0.590
      -0.992
      -0.909
      -0.642
      -0.478
      -0.440
      -0.323
       0.062
       0.638
       1.056
       0.975
       0.421
      -0.155
      -0.243
       0.258
       0.935
       1.236
       0.926
       0.186
      -0.624
      -1.200
      -1.332
      -0.898
       0.009
       0.995
       1.567
       1.523
       1.102
       0.682
       0.359
      -0.122
      -0.995
      -2.085
      -2.820
      -2.652
      -1.489
       0.211
       1.729
       2.494
       2.312
       1.308
      -0.230
      -1.905
      -3.173
      -3.437
      -2.385
      -0.353
       1.692
       2.723
       2.376
       1.169
      -0.012
      -0.638
      -0.775
      -0.695
      -0.431
       0.171
       1.054
       1.803
       2.021
       1.757
       1.379
       0.991
       0.160
      -1.537
      -3.696
      -5.029
      -4.343
      -1.653
       1.722
       4.175
       4.902
       4.112
       2.425
       0.317
      -1.861
      -3.588
      -4.214
      -3.421
      -1.585
       0.400
       1.674
       1.883
       1.213
       0.149
      -0.790
      -1.189
      -0.829
       0.208
       1.520
       2.533
       2.760
       2.019
       0.528
      -1.148
      -2.323
      -2.531
      -1.791
      -0.572
       0.567
       1.330
       1.739
       1.890
       1.735
       1.153
       0.182
      -0.864
      -1.552
      -1.628
      -1.185
      -0.589
      -0.190
      -0.059
       0.020
       0.225
       0.348
      -0.125
      -1.415
      -2.904
      -3.360
      -1.955
       0.845
       3.459
       4.371
       3.227
       0.912
      -1.287
      -2.507
      -2.509
      -1.460
       0.233
       1.965
       3.135
       3.516
       3.357
       2.957
       2.139
       0.374
      -2.412
      -5.230
      -6.455
      -5.081
      -1.634
       2.129
       4.437
       4.593
       3.137
       1.188
      -0.383
      -1.318
      -1.801
      -2.061
      -2.149
      -2.013
      -1.643
      -1.116
      -0.553
      -0.107
       0.005
      -0.431
      -1.379
      -2.332
      -2.439
      -1.068
       1.605
       4.545
       6.458
       6.575
       4.992
       2.374
      -0.580
      -3.403
      -5.660
      -6.652
      -5.562
      -2.178
       2.460
       6.305
       7.536
       5.813
       2.445
      -0.673
      -2.404
      -2.854
      -2.802
      -2.790
      -2.732
      -2.223
      -1.104
       0.278
       1.284
       1.427
       0.707
      -0.382
      -1.160
      -1.195
      -0.579
       0.164
       0.480
       0.179
      -0.484
      -1.061
      -1.274
      -1.134
      -0.767
      -0.178
       0.701
       1.708
       2.310
       1.978
       0.800
      -0.343
      -0.418
       0.821
       2.485
       3.226
       2.315
       0.170
      -2.076
      -3.421
      -3.498
      -2.495
      -0.876
       0.773
       1.856
       2.018
       1.420
       0.675
       0.370
       0.560
       0.744
       0.368
      -0.644
      -1.835
      -2.614
      -2.622
      -1.799
      -0.321
       1.377
       2.602
       2.722
       1.696
       0.238
      -0.715
      -0.810
      -0.532
      -0.585
      -1.066
      -1.353
      -0.821
       0.455
       1.785
       2.552
       2.635
       2.164
       1.100
      -0.671
      -2.784
      -4.162
      -3.695
      -1.317
       1.607
       3.205
       2.608
       0.658
      -0.922
      -1.128
      -0.504
      -0.396
      -1.405
      -2.681
      -2.784
      -1.203
       1.087
       2.531
       2.389
       1.208
       0.077
      -0.378
      -0.273
       0.016
       0.319
       0.634
       0.853
       0.773
       0.366
      -0.114
      -0.391
      -0.456
      -0.516
      -0.654
      -0.656
      -0.254
       0.457
       0.935
       0.634
      -0.400
      -1.391
      -1.390
      -0.093
       1.790
       2.970
       2.525
       0.585
      -1.753
      -3.196
      -3.084
      -1.658
       0.284
       1.942
       2.825
       2.765
       1.853
       0.462
      -0.782
      -1.271
      -0.836
       0.063
       0.678
       0.560
      -0.163
      -1.035
      -1.714
      -2.123
      -2.272
      -2.055
      -1.290
       0.043
       1.668
       3.074
       3.697
       3.131
       1.353
      -1.089
      -3.183
      -3.975
      -3.214
      -1.530
       0.072
       0.967
       1.210
       1.202
       1.183
       1.118
       0.973
       0.902
       1.077
       1.394
       1.463
       0.935
      -0.164
      -1.397
      -2.195
      -2.203
      -1.454
      -0.300
       0.772
       1.334
       1.180
       0.451
      -0.401
      -0.885
      -0.803
      -0.354
       0.075
       0.202
      -0.018
      -0.407
      -0.614
      -0.264
       0.697
       1.726
       1.939
       0.926
      -0.674
      -1.598
      -1.109
       0.309
       1.460
       1.582
       0.907
       0.177
      -0.196
      -0.370
      -0.643
      -1.046
      -1.412
      -1.682
      -1.912
      -2.009
      -1.651
      -0.627
       0.792
       1.962
       2.394
       2.159
       1.723
       1.438
       1.229
       0.783
      -0.006
      -0.844
      -1.291
      -1.192
      -0.815
      -0.593
      -0.730
      -1.038
      -1.093
      -0.572
       0.459
       1.484
       1.792
       0.989
      -0.559
      -1.797
      -1.734
      -0.340
       1.299
       1.869
       0.959
      -0.653
      -1.794
      -1.905
      -1.276
      -0.459
       0.336
       1.213
       2.108
       2.584
       2.215
       1.128
       0.018
      -0.472
      -0.365
      -0.303
      -0.856
      -1.898
      -2.676
      -2.487
      -1.272
       0.388
       1.772
       2.499
       2.576
       2.155
       1.348
       0.284
      -0.789
      -1.577
      -1.905
      -1.773
      -1.271
      -0.521
       0.269
       0.783
       0.774
       0.284
      -0.333
      -0.660
      -0.477
       0.171
       1.083
       1.971
       2.456
       2.133
       0.825
      -1.152
      -3.001
      -3.842
      -3.252
      -1.537
       0.481
       1.963
       2.436
       1.891
       0.672
      -0.647
      -1.420
      -1.209
      -0.097
       1.251
       1.982
       1.646
       0.490
      -0.780
      -1.539
      -1.611
      -1.230
      -0.745
      -0.345
      -0.019
       0.305
       0.635
       0.936
       1.191
       1.357
       1.264
       0.708
      -0.240
      -1.058
      -1.074
      -0.096
       1.255
       1.907
       1.149
      -0.796
      -2.899
      -4.013
      -3.551
      -1.709
       0.783
       3.039
       4.284
       4.082
       2.569
       0.523
      -1.042
      -1.594
      -1.491
      -1.568
      -2.210
      -2.855
      -2.500
      -0.758
       1.619
       3.287
       3.386
       2.098
       0.326
      -1.064
      -1.700
      -1.664
      -1.212
      -0.583
       0.006
       0.341
       0.255
      -0.229
      -0.823
      -1.072
      -0.637
       0.424
       1.622
       2.327
       2.202
       1.397
       0.358
      -0.544
      -1.203
      -1.641
      -1.793
      -1.485
      -0.649
       0.468
       1.351
       1.536
       0.959
       0.021
      -0.705
      -0.890
      -0.627
      -0.226
       0.126
       0.468
       0.817
       0.947
       0.559
      -0.285
      -1.021
      -1.027
      -0.261
       0.597
       0.703
      -0.186
      -1.444
      -2.070
      -1.499
      -0.031
       1.498
       2.437
       2.692
       2.462
       1.789
       0.575
      -0.958
      -2.085
      -2.131
      -1.224
      -0.263
      -0.019
      -0.388
      -0.671
      -0.500
      -0.204
      -0.217
      -0.400
      -0.203
       0.587
       1.513
       1.941
       1.722
       1.226
       0.830
       0.526
       0.053
      -0.729
      -1.651
      -2.345
      -2.462
      -1.842
      -0.607
       0.861
       2.048
       2.497
       1.938
       0.396
      -1.659
      -3.308
      -3.574
      -2.121
       0.348
