Origin Time       16/4/2013 10:44:11	
Lat.              28.0 N	
Long.             62.1 E	
Depth (Km)         46.0
Magnitude         7.8
 Region           Iran-Pakistan-Border-Region                                      
 Above details taken from IMD 
   
Station Code      DLU
Station Lat.       28.691
Station Long.      77.212
Station Height(m)  220.0
Site Class        C   Vs30 between 200 m/sec to 375 m/sec *  
Record Time       16.04.2013 10:49:16.774
Sampling Rate     200. Hz
 Record Duration  100.755 Sec.
 Direction         Vert. (Up positive)
Max. Acceleration      1.228 cm/sec**2
     
  * For reference see Site Classification link of website 
     
 Base Line Corrected and Low Pass Filtered (Cut Off at 35 Hz) Time History
 Acceleration data in cm/sec**2
    
[...]
       0.167
       0.244
       0.221
       0.106
      -0.025
      -0.085
      -0.043
       0.064
       0.168
       0.220
       0.206
       0.148
       0.094
       0.102
       0.207
       0.387
       0.570
       0.678
       0.677
       0.599
       0.503
       0.435
       0.401
       0.380
       0.351
       0.314
       0.281
       0.253
       0.213
       0.141
       0.045
      -0.032
      -0.050
      -0.013
       0.026
       0.022
      -0.021
      -0.054
      -0.035
       0.029
       0.102
       0.164
       0.219
       0.278
       0.330
       0.356
       0.348
       0.322
       0.297
       0.277
       0.255
       0.221
       0.173
       0.110
       0.031
      -0.058
      -0.140
      -0.195
      -0.219
      -0.231
      -0.256
      -0.298
      -0.334
      -0.334
      -0.278
      -0.178
      -0.070
       0.014
       0.077
       0.157
       0.287
       0.458
       0.622
       0.739
       0.804
       0.843
       0.882
       0.931
       0.987
       1.034
       1.046
       1.004
       0.915
       0.818
       0.747
       0.695
       0.623
       0.506
       0.368
       0.262
       0.219
       0.222
       0.224
       0.189
       0.118
       0.046
       0.010
       0.029
       0.086
       0.146
       0.173
       0.160
       0.123
       0.091
       0.087
       0.118
       0.173
       0.225
       0.232
       0.164
       0.025
      -0.145
      -0.301
      -0.420
      -0.504
      -0.558
      -0.579
      -0.562
      -0.507
      -0.420
      -0.310
      -0.189
      -0.071
       0.040
       0.145
       0.257
       0.381
       0.515
       0.646
       0.755
       0.817
       0.814
       0.741
       0.617
       0.476
       0.353
       0.265
       0.203
       0.131
       0.011
      -0.167
      -0.363
      -0.504
      -0.533
      -0.443
      -0.289
      -0.149
      -0.082
      -0.101
      -0.175
      -0.257
      -0.319
      -0.364
      -0.406
      -0.442
      -0.457
      -0.441
      -0.415
      -0.414
      -0.452
      -0.508
      -0.543
      -0.533
      -0.481
      -0.405
      -0.318
      -0.227
      -0.130
      -0.024
       0.084
       0.182
       0.254
       0.307
       0.374
       0.487
       0.635
       0.754
       0.767
       0.640
       0.418
       0.193
       0.053
       0.027
       0.073
       0.106
       0.051
      -0.112
      -0.344
      -0.585
      -0.788
      -0.934
      -1.018
      -1.049
      -1.049
      -1.053
      -1.083
      -1.131
      -1.154
      -1.108
      -0.981
      -0.807
      -0.638
      -0.518
      -0.459
      -0.445
      -0.451
      -0.465
      -0.487
      -0.507
      -0.507
      -0.473
      -0.416
      -0.364
      -0.336
      -0.325
      -0.299
      -0.232
      -0.123
      -0.006
       0.073
       0.084
       0.030
      -0.046
      -0.098
      -0.103
      -0.071
      -0.031
       0.006
       0.048
       0.103
       0.154
       0.174
       0.154
       0.109
       0.060
       0.005
      -0.072
      -0.179
      -0.309
      -0.450
      -0.593
      -0.732
      -0.857
      -0.952
      -0.998
      -0.969
      -0.853
      -0.661
      -0.441
      -0.250
      -0.120
      -0.039
       0.032
       0.125
       0.248
       0.388
       0.524
       0.634
       0.696
       0.694
       0.623
       0.499
       0.358
       0.240
       0.170
       0.143
       0.138
       0.134
       0.126
       0.124
       0.136
       0.159
       0.181
       0.187
       0.171
       0.143
       0.119
       0.113
       0.126
       0.139
       0.118
       0.034
      -0.103
      -0.238
      -0.310
      -0.294
      -0.232
      -0.194
      -0.220
      -0.290
      -0.347
      -0.343
      -0.264
      -0.134
       0.006
       0.118
       0.184
       0.208
       0.210
       0.200
       0.167
       0.093
      -0.021
      -0.140
      -0.215
      -0.219
      -0.167
      -0.100
      -0.055
      -0.045
      -0.061
      -0.079
      -0.070
      -0.010
       0.095
       0.205
       0.264
       0.234
       0.131
       0.013
      -0.054
      -0.038
       0.041
       0.127
       0.163
       0.125
       0.038
      -0.045
      -0.074
      -0.034
       0.062
       0.195
       0.347
       0.504
       0.635
       0.704
       0.685
       0.581
       0.429
       0.277
       0.160
       0.095
       0.082
       0.110
       0.163
       0.218
       0.256
       0.278
       0.307
       0.373
       0.472
       0.559
       0.568
       0.468
       0.285
       0.095
      -0.027
      -0.048
       0.001
       0.056
       0.057
      -0.005
      -0.099
      -0.177
      -0.218
      -0.229
      -0.226
      -0.212
      -0.176
      -0.109
      -0.019
       0.069
       0.133
       0.171
       0.201
       0.245
       0.310
       0.387
       0.454
       0.490
       0.486
       0.440
       0.361
       0.266
       0.177
       0.108
       0.065
       0.054
       0.078
       0.130
       0.186
       0.211
       0.188
       0.130
       0.064
       0.005
      -0.054
      -0.130
      -0.233
      -0.361
      -0.493
      -0.591
      -0.616
      -0.541
      -0.380
      -0.176
       0.013
       0.149
       0.214
       0.214
       0.162
       0.080
      -0.003
      -0.057
      -0.061
      -0.022
       0.026
       0.047
       0.027
      -0.025
      -0.078
      -0.097
      -0.051
       0.068
       0.228
       0.358
       0.391
       0.319
       0.199
       0.106
       0.067
       0.046
      -0.017
      -0.141
      -0.287
      -0.389
      -0.406
      -0.358
      -0.316
      -0.347
      -0.461
      -0.596
      -0.661
      -0.609
      -0.474
      -0.330
      -0.240
      -0.211
      -0.218
      -0.224
      -0.198
      -0.113
       0.033
       0.208
       0.344
       0.379
       0.291
       0.115
      -0.084
      -0.243
      -0.325
      -0.331
      -0.283
      -0.207
      -0.108
       0.029
       0.207
       0.393
       0.537
       0.611
       0.630
       0.630
       0.626
       0.611
       0.575
       0.528
       0.484
       0.445
       0.398
       0.331
       0.242
       0.133
       0.007
      -0.124
      -0.237
      -0.304
      -0.303
      -0.234
      -0.124
      -0.011
       0.075
       0.122
       0.135
       0.114
       0.045
      -0.097
      -0.315
      -0.568
      -0.769
      -0.831
      -0.720
      -0.488
      -0.237
      -0.064
      -0.005
      -0.028
      -0.060
      -0.043
       0.036
       0.140
       0.221
       0.251
       0.235
       0.194
       0.149
       0.116
       0.094
       0.065
      -0.002
      -0.125
      -0.285
      -0.438
      -0.546
      -0.607
      -0.631
      -0.611
      -0.521
      -0.356
      -0.155
       0.010
       0.092
       0.104
       0.110
       0.181
       0.343
       0.554
       0.735
       0.826
       0.826
       0.784
       0.751
       0.734
       0.703
       0.635
       0.549
       0.489
       0.478
       0.480
       0.428
       0.277
       0.039
      -0.223
      -0.429
      -0.522
      -0.487
      -0.365
      -0.226
      -0.132
      -0.105
      -0.118
      -0.134
      -0.135
      -0.142
      -0.189
      -0.292
      -0.426
      -0.536
      -0.577
      -0.549
      -0.490
      -0.433
      -0.374
      -0.286
      -0.167
      -0.073
      -0.087
      -0.237
      -0.461
      -0.641
      -0.684
      -0.577
      -0.380
      -0.179
      -0.025
       0.086
       0.186
       0.291
       0.379
       0.416
       0.391
       0.333
       0.282
       0.256
       0.244
       0.231
       0.217
       0.215
       0.233
       0.243
       0.196
       0.065
      -0.117
      -0.283
      -0.379
      -0.409
      -0.406
      -0.387
      -0.340
      -0.244
      -0.105
       0.043
       0.160
       0.229
       0.254
       0.251
       0.228
       0.177
       0.098
       0.011
      -0.041
      -0.027
       0.034
       0.081
       0.055
      -0.044
      -0.155
      -0.198
      -0.127
       0.041
       0.241
       0.387
       0.425
       0.349
       0.200
       0.032
      -0.110
      -0.202
      -0.223
      -0.154
       0.008
       0.234
       0.462
       0.625
       0.678
       0.605
       0.423
       0.168
      -0.109
      -0.357
      -0.533
      -0.614
      -0.597
      -0.502
      -0.369
      -0.238
      -0.125
      -0.022
       0.086
       0.192
       0.266
       0.273
       0.194
       0.044
      -0.130
      -0.261
      -0.298
      -0.237
      -0.137
      -0.078
      -0.102
      -0.168
      -0.190
      -0.110
       0.056
       0.241
       0.394
       0.504
       0.572
       0.588
       0.540
       0.437
       0.321
       0.237
       0.206
       0.220
       0.256
       0.285
       0.290
       0.263
       0.203
       0.114
       0.021
      -0.032
       0.002
       0.132
       0.309
       0.443
       0.472
       0.404
       0.313
       0.279
       0.331
       0.420
       0.458
       0.382
       0.205
       0.005
      -0.130
      -0.162
      -0.122
      -0.082
      -0.097
      -0.178
      -0.287
      -0.376
      -0.414
      -0.407
      -0.386
      -0.384
      -0.398
      -0.387
      -0.312
      -0.175
      -0.029
       0.064
       0.086
       0.073
       0.076
       0.107
       0.135
       0.128
       0.098
       0.093
       0.143
       0.208
       0.212
       0.122
      -0.019
      -0.117
      -0.113
      -0.022
       0.079
       0.124
       0.096
       0.028
      -0.030
      -0.048
      -0.033
      -0.019
      -0.040
      -0.108
      -0.200
      -0.278
      -0.321
      -0.339
      -0.365
      -0.423
      -0.494
      -0.518
      -0.434
      -0.235
       0.013
       0.215
       0.303
       0.274
       0.173
       0.056
      -0.033
      -0.063
      -0.019
       0.089
       0.210
       0.280
       0.246
       0.110
      -0.076
      -0.238
      -0.316
      -0.294
      -0.204
      -0.113
      -0.088
      -0.161
      -0.309
      -0.467
      -0.576
      -0.613
      -0.593
      -0.539
      -0.456
      -0.331
      -0.148
       0.075
       0.293
       0.455
       0.542
       0.571
       0.570
       0.551
       0.496
       0.388
       0.234
       0.071
      -0.063
      -0.148
      -0.184
      -0.182
      -0.159
      -0.136
      -0.127
      -0.124
      -0.110
      -0.079
      -0.053
      -0.061
      -0.103
      -0.153
      -0.186
      -0.203
      -0.225
      -0.256
      -0.270
      -0.221
      -0.079
       0.146
       0.399
       0.608
       0.719
       0.724
       0.649
       0.534
       0.404
       0.273
       0.156
       0.086
       0.085
       0.141
       0.208
       0.241
       0.242
       0.259
       0.342
       0.495
       0.664
       0.770
       0.770
       0.670
       0.514
       0.344
       0.186
       0.046
      -0.071
      -0.163
      -0.225
      -0.253
      -0.249
      -0.223
      -0.192
      -0.175
      -0.184
      -0.213
      -0.241
      -0.239
      -0.182
      -0.071
       0.054
       0.125
       0.087
      -0.053
      -0.219
      -0.314
      -0.297
      -0.220
      -0.188
      -0.275
      -0.464
      -0.673
      -0.821
      -0.883
      -0.885
      -0.857
      -0.795
      -0.676
      -0.489
      -0.262
      -0.052
       0.102
       0.199
       0.271
       0.342
       0.404
       0.428
       0.398
       0.328
       0.246
       0.160
       0.061
      -0.056
      -0.172
      -0.253
      -0.282
      -0.272
      -0.248
      -0.217
      -0.165
      -0.072
       0.051
       0.165
       0.237
       0.264
       0.271
       0.275
       0.256
       0.181
       0.042
      -0.118
      -0.224
      -0.226
      -0.135
      -0.016
       0.060
       0.065
       0.026
      -0.013
      -0.035
      -0.054
      -0.098
      -0.170
      -0.244
      -0.293
      -0.320
      -0.359
      -0.437
      -0.549
      -0.653
      -0.709
      -0.700
      -0.641
      -0.571
      -0.535
      -0.556
      -0.619
      -0.673
      -0.671
      -0.589
      -0.437
      -0.250
      -0.071
       0.051
       0.085
       0.031
      -0.086
      -0.229
      -0.364
      -0.467
      -0.521
      -0.524
      -0.481
      -0.400
      -0.294
      -0.188
      -0.113
      -0.086
      -0.093
      -0.105
      -0.099
      -0.073
      -0.039
      -0.004
       0.035
       0.087
       0.151
       0.218
       0.278
       0.334
       0.395
       0.463
       0.517
       0.525
       0.474
       0.390
       0.326
       0.322
       0.367
       0.405
       0.377
       0.274
       0.150
       0.075
       0.083
       0.151
       0.228
       0.280
       0.305
       0.328
       0.371
       0.432
       0.490
       0.518
       0.508
       0.476
       0.451
       0.442
       0.426
       0.363
       0.230
       0.046
      -0.137
      -0.268
      -0.323
      -0.326
      -0.321
      -0.342
      -0.384
      -0.404
      -0.365
      -0.273
      -0.174
      -0.119
      -0.120
      -0.148
      -0.153
      -0.111
      -0.034
       0.032
       0.051
       0.029
       0.015
       0.061
       0.192
       0.394
       0.633
       0.878
       1.093
       1.228
       1.227
       1.072
       0.811
       0.543
       0.365
       0.317
       0.362
       0.426
       0.446
       0.402
       0.305
       0.182
       0.059
      -0.044
      -0.120
      -0.177
      -0.243
      -0.346
      -0.492
      -0.642
      -0.736
      -0.728
      -0.624
      -0.485
      -0.392
      -0.389
      -0.462
      -0.550
      -0.600
      -0.596
      -0.554
      -0.482
      -0.368
      -0.196
       0.012
       0.195
       0.293
       0.300
       0.272
       0.281
       0.359
       0.475
       0.568
       0.599
       0.567
       0.487
       0.354
       0.150
      -0.117
      -0.388
      -0.574
      -0.617
      -0.523
      -0.353
      -0.171
      -0.018
       0.099
       0.192
       0.277
       0.371
       0.482
       0.605
       0.720
       0.798
       0.816
       0.761
       0.639
       0.464
       0.261
       0.051
      -0.148
      -0.321
      -0.457
      -0.549
      -0.591
      -0.583
      -0.531
      -0.439
      -0.311
      -0.160
      -0.015
       0.091
       0.126
       0.082
      -0.027
      -0.154
      -0.227
      -0.187
      -0.021
       0.217
       0.437
       0.559
       0.557
       0.464
       0.335
       0.215
       0.116
       0.030
      -0.051
      -0.127
      -0.185
      -0.206
      -0.175
      -0.099
      -0.022
      -0.004
      -0.078
      -0.213
      -0.336
      -0.387
      -0.369
      -0.343
      -0.371
      -0.455
      -0.531
      -0.530
      -0.439
      -0.312
      -0.225
      -0.211
      -0.241
      -0.263
      -0.242
      -0.185
      -0.125
      -0.095
      -0.108
      -0.165
      -0.261
      -0.388
      -0.523
      -0.619
      -0.623
      -0.503
      -0.283
      -0.031
       0.175
       0.297
       0.338
       0.325
       0.274
       0.194
       0.100
       0.022
      -0.012
       0.003
       0.050
       0.095
       0.107
       0.077
       0.020
      -0.026
      -0.024
       0.034
       0.123
       0.204
       0.265
       0.325
       0.411
       0.520
       0.616
       0.660
       0.626
       0.515
       0.334
       0.097
      -0.171
      -0.436
      -0.661
      -0.813
      -0.876
      -0.849
      -0.747
      -0.606
      -0.467
      -0.356
      -0.271
      -0.198
      -0.131
      -0.077
      -0.047
      -0.034
      -0.016
       0.026
       0.100
       0.203
       0.323
       0.447
       0.551
       0.610
       0.613
       0.581
       0.555
       0.552
       0.550
       0.495
       0.357
       0.163
      -0.008
      -0.079
      -0.030
       0.099
       0.242
       0.353
       0.424
       0.466
       0.487
       0.484
       0.450
       0.391
       0.320
       0.244
       0.158
       0.063
      -0.021
      -0.061
      -0.025
       0.093
       0.270
       0.461
       0.619
       0.712
       0.725
       0.654
       0.507
       0.307
       0.106
      -0.037
      -0.096
      -0.105
      -0.139
      -0.252
      -0.428
      -0.594
      -0.683
      -0.681
      -0.616
      -0.515
      -0.375
      -0.180
       0.056
       0.293
       0.485
       0.615
       0.700
       0.763
       0.800
       0.772
       0.646
       0.434
       0.199
       0.011
      -0.101
      -0.153
      -0.178
      -0.186
      -0.164
      -0.113
      -0.066
      -0.071
      -0.153
      -0.291
      -0.436
      -0.549
      -0.628
      -0.685
      -0.725
      -0.729
      -0.685
      -0.604
      -0.521
      -0.461
      -0.416
      -0.352
      -0.242
      -0.101
       0.024
       0.085
       0.080
       0.055
       0.072
       0.154
       0.270
       0.357
       0.378
       0.343
       0.294
       0.262
       0.235
       0.172
       0.048
      -0.113
      -0.248
      -0.303
      -0.273
      -0.208
      -0.179
      -0.223
      -0.309
      -0.365
      -0.334
      -0.216
      -0.059
       0.091
       0.212
       0.299
       0.351
       0.365
       0.349
       0.329
       0.321
       0.314
       0.276
       0.194
       0.092
       0.015
      -0.024
      -0.068
      -0.175
      -0.360
      -0.570
      -0.717
      -0.736
      -0.624
      -0.432
      -0.229
      -0.065
       0.045
       0.105
       0.125
       0.108
       0.056
      -0.028
      -0.129
      -0.227
      -0.308
      -0.367
      -0.399
      -0.390
      -0.320
      -0.196
      -0.067
      -0.012
      -0.077
      -0.237
      -0.404
      -0.490
      -0.453
      -0.310
      -0.109
       0.099
       0.265
       0.342
       0.308
       0.186
       0.041
      -0.057
      -0.071
      -0.011
       0.075
       0.140
       0.161
       0.151
       0.135
       0.140
       0.179
       0.253
       0.340
       0.402
       0.393
       0.290
       0.109
      -0.101
      -0.288
      -0.419
      -0.492
      -0.524
      -0.523
      -0.483
      -0.398
      -0.284
      -0.183
      -0.141
      -0.166
      -0.224
      -0.255
      -0.217
      -0.114
       0.014
       0.118
       0.157
       0.123
       0.049
      -0.008
      -0.010
       0.032
       0.066
       0.057
       0.026
       0.031
       0.108
       0.240
       0.379
       0.497
       0.594
       0.674
       0.720
       0.707
       0.625
       0.494
       0.359
       0.251
       0.181
       0.135
       0.083
      -0.005
      -0.152
      -0.351
      -0.558
      -0.706
      -0.739
      -0.649
      -0.485
      -0.334
      -0.269
      -0.313
      -0.424
      -0.530
      -0.579
      -0.575
      -0.564
      -0.585
      -0.622
      -0.614
      -0.507
      -0.314
      -0.122
      -0.024
      -0.057
      -0.176
      -0.295
      -0.345
      -0.305
