Origin Time       17/9/2010 19:21:09	
Lat.              36.5 N	
Long.             70.8 E	
Depth (Km)        167.0
Magnitude         6.5
 Region           Hindukush                                                        
 Above details taken from IMD 
     
Station Code      DNL
Station Lat.       30.427  N
Station Long.      78.244  E
Station Height(m) 2280.0
Site Class        B   Vs30 between 375 m/sec to 700 m/sec *  
Record Time       17.09.2010 19:24:00.594
Sampling Rate     200. Hz
 Record Duration   80.065 Sec.
 Direction         E-W (E positive)
Max. Acceleration      3.228 cm/sec**2
     
  * For reference see Site Classification link of website 
     
 Base Line Corrected and Low Pass Filtered (Cut Off at 35 Hz) Time History
 Acceleration data in cm/sec**2
    
[...]
       0.672
       0.702
       0.732
       0.754
       0.761
       0.749
       0.724
       0.698
       0.677
       0.660
       0.636
       0.600
       0.553
       0.505
       0.461
       0.421
       0.379
       0.330
       0.276
       0.223
       0.175
       0.134
       0.099
       0.066
       0.032
      -0.004
      -0.042
      -0.078
      -0.109
      -0.132
      -0.151
      -0.169
      -0.188
      -0.208
      -0.229
      -0.247
      -0.262
      -0.274
      -0.280
      -0.281
      -0.279
      -0.276
      -0.272
      -0.266
      -0.257
      -0.241
      -0.220
      -0.195
      -0.170
      -0.146
      -0.122
      -0.094
      -0.061
      -0.025
       0.011
       0.045
       0.079
       0.117
       0.160
       0.206
       0.254
       0.299
       0.343
       0.383
       0.419
       0.451
       0.479
       0.506
       0.535
       0.562
       0.585
       0.602
       0.614
       0.626
       0.638
       0.649
       0.655
       0.656
       0.656
       0.655
       0.654
       0.648
       0.638
       0.625
       0.609
       0.590
       0.565
       0.534
       0.500
       0.464
       0.426
       0.383
       0.336
       0.288
       0.242
       0.200
       0.157
       0.112
       0.061
       0.006
      -0.045
      -0.089
      -0.124
      -0.157
      -0.194
      -0.237
      -0.281
      -0.320
      -0.355
      -0.387
      -0.419
      -0.452
      -0.482
      -0.509
      -0.535
      -0.560
      -0.581
      -0.595
      -0.602
      -0.605
      -0.610
      -0.618
      -0.627
      -0.631
      -0.630
      -0.627
      -0.627
      -0.633
      -0.645
      -0.659
      -0.670
      -0.677
      -0.680
      -0.679
      -0.674
      -0.667
      -0.658
      -0.648
      -0.634
      -0.613
      -0.585
      -0.553
      -0.521
      -0.487
      -0.449
      -0.404
      -0.354
      -0.306
      -0.264
      -0.226
      -0.191
      -0.156
      -0.125
      -0.103
      -0.089
      -0.082
      -0.075
      -0.065
      -0.051
      -0.035
      -0.021
      -0.013
      -0.012
      -0.014
      -0.014
      -0.010
      -0.002
       0.003
       0.004
       0.003
       0.002
       0.004
       0.007
       0.007
       0.003
      -0.004
      -0.010
      -0.012
      -0.009
      -0.002
       0.006
       0.013
       0.020
       0.027
       0.035
       0.044
       0.053
       0.060
       0.067
       0.076
       0.087
       0.097
       0.101
       0.098
       0.089
       0.076
       0.061
       0.044
       0.025
       0.007
      -0.011
      -0.028
      -0.047
      -0.068
      -0.092
      -0.114
      -0.129
      -0.136
      -0.136
      -0.134
      -0.131
      -0.127
      -0.122
      -0.116
      -0.111
      -0.109
      -0.107
      -0.100
      -0.089
      -0.072
      -0.050
      -0.025
       0.005
       0.041
       0.080
       0.124
       0.171
       0.222
       0.274
       0.324
       0.373
       0.423
       0.475
       0.529
       0.580
       0.627
       0.672
       0.716
       0.760
       0.801
       0.840
       0.875
       0.909
       0.941
       0.973
       1.005
       1.038
       1.069
       1.094
       1.108
       1.111
       1.102
       1.083
       1.057
       1.021
       0.975
       0.916
       0.846
       0.769
       0.688
       0.606
       0.520
       0.428
       0.333
       0.238
       0.145
       0.055
      -0.033
      -0.120
      -0.203
      -0.282
      -0.354
      -0.422
      -0.489
      -0.555
      -0.618
      -0.675
      -0.724
      -0.765
      -0.802
      -0.837
      -0.870
      -0.897
      -0.918
      -0.931
      -0.936
      -0.932
      -0.924
      -0.915
      -0.906
      -0.897
      -0.890
      -0.883
      -0.877
      -0.867
      -0.853
      -0.835
      -0.815
      -0.796
      -0.777
      -0.757
      -0.735
      -0.711
      -0.685
      -0.654
      -0.617
      -0.575
      -0.529
      -0.481
      -0.431
      -0.379
      -0.325
      -0.274
      -0.227
      -0.185
      -0.145
      -0.103
      -0.061
      -0.023
       0.008
       0.033
       0.055
       0.075
       0.093
       0.110
       0.126
       0.140
       0.152
       0.162
       0.170
       0.175
       0.178
       0.179
       0.178
       0.175
       0.169
       0.160
       0.150
       0.137
       0.122
       0.105
       0.087
       0.071
       0.056
       0.044
       0.032
       0.023
       0.017
       0.013
       0.009
       0.005
       0.002
      -0.002
      -0.006
      -0.012
      -0.019
      -0.027
      -0.036
      -0.046
      -0.057
      -0.070
      -0.084
      -0.098
      -0.111
      -0.119
      -0.122
      -0.121
      -0.117
      -0.113
      -0.107
      -0.097
      -0.080
      -0.055
      -0.023
       0.011
       0.045
       0.078
       0.113
       0.154
       0.204
       0.260
       0.318
       0.377
       0.438
       0.501
       0.565
       0.630
       0.693
       0.756
       0.820
       0.884
       0.947
       1.010
       1.069
       1.123
       1.169
       1.206
       1.234
       1.251
       1.259
       1.258
       1.251
       1.237
       1.214
       1.179
       1.134
       1.081
       1.023
       0.959
       0.886
       0.805
       0.717
       0.624
       0.531
       0.438
       0.342
       0.243
       0.140
       0.035
      -0.067
      -0.163
      -0.250
      -0.329
      -0.405
      -0.479
      -0.548
      -0.610
      -0.660
      -0.700
      -0.730
      -0.754
      -0.774
      -0.790
      -0.800
      -0.803
      -0.802
      -0.798
      -0.794
      -0.788
      -0.779
      -0.764
      -0.746
      -0.727
      -0.708
      -0.688
      -0.662
      -0.626
      -0.584
      -0.540
      -0.497
      -0.455
      -0.411
      -0.364
      -0.316
      -0.268
      -0.223
      -0.180
      -0.139
      -0.099
      -0.061
      -0.029
      -0.007
       0.004
       0.008
       0.008
       0.007
       0.001
      -0.010
      -0.027
      -0.045
      -0.059
      -0.068
      -0.074
      -0.078
      -0.084
      -0.093
      -0.102
      -0.112
      -0.121
      -0.130
      -0.139
      -0.149
      -0.159
      -0.170
      -0.182
      -0.197
      -0.218
      -0.245
      -0.274
      -0.302
      -0.325
      -0.348
      -0.377
      -0.415
      -0.463
      -0.513
      -0.563
      -0.613
      -0.664
      -0.719
      -0.778
      -0.839
      -0.901
      -0.962
      -1.020
      -1.075
      -1.123
      -1.164
      -1.196
      -1.222
      -1.243
      -1.256
      -1.261
      -1.256
      -1.241
      -1.215
      -1.177
      -1.127
      -1.066
      -0.998
      -0.922
      -0.837
      -0.740
      -0.636
      -0.528
      -0.420
      -0.314
      -0.208
      -0.098
       0.018
       0.136
       0.254
       0.366
       0.472
       0.574
       0.672
       0.766
       0.854
       0.934
       1.008
       1.078
       1.146
       1.210
       1.269
       1.325
       1.380
       1.432
       1.481
       1.525
       1.565
       1.605
       1.643
       1.675
       1.696
       1.706
       1.707
       1.706
       1.703
       1.696
       1.681
       1.654
       1.613
       1.561
       1.504
       1.447
       1.394
       1.343
       1.289
       1.228
       1.161
       1.090
       1.016
       0.943
       0.869
       0.795
       0.720
       0.643
       0.563
       0.484
       0.407
       0.333
       0.259
       0.184
       0.108
       0.033
      -0.038
      -0.105
      -0.169
      -0.233
      -0.296
      -0.357
      -0.416
      -0.477
      -0.540
      -0.601
      -0.653
      -0.693
      -0.724
      -0.754
      -0.785
      -0.815
      -0.842
      -0.861
      -0.876
      -0.887
      -0.896
      -0.903
      -0.906
      -0.903
      -0.897
      -0.889
      -0.878
      -0.861
      -0.839
      -0.812
      -0.785
      -0.755
      -0.721
      -0.680
      -0.633
      -0.583
      -0.535
      -0.492
      -0.458
      -0.433
      -0.413
      -0.399
      -0.389
      -0.383
      -0.383
      -0.388
      -0.399
      -0.416
      -0.439
      -0.466
      -0.494
      -0.518
      -0.535
      -0.544
      -0.546
      -0.543
      -0.531
      -0.509
      -0.473
      -0.424
      -0.364
      -0.294
      -0.221
      -0.147
      -0.076
      -0.010
       0.051
       0.110
       0.167
       0.220
       0.266
       0.299
       0.322
       0.339
       0.354
       0.368
       0.375
       0.371
       0.354
       0.328
       0.298
       0.268
       0.238
       0.204
       0.164
       0.122
       0.081
       0.044
       0.012
      -0.018
      -0.047
      -0.076
      -0.102
      -0.124
      -0.140
      -0.150
      -0.154
      -0.153
      -0.145
      -0.131
      -0.111
      -0.087
      -0.059
      -0.026
       0.011
       0.050
       0.090
       0.133
       0.179
       0.229
       0.282
       0.336
       0.391
       0.444
       0.493
       0.537
       0.577
       0.611
       0.640
       0.662
       0.674
       0.674
       0.664
       0.647
       0.626
       0.603
       0.573
       0.536
       0.490
       0.433
       0.369
       0.303
       0.240
       0.182
       0.128
       0.074
       0.019
      -0.035
      -0.089
      -0.140
      -0.191
      -0.240
      -0.286
      -0.326
      -0.357
      -0.382
      -0.399
      -0.411
      -0.417
      -0.417
      -0.409
      -0.393
      -0.369
      -0.341
      -0.306
      -0.267
      -0.222
      -0.174
      -0.124
      -0.075
      -0.027
       0.018
       0.062
       0.105
       0.147
       0.188
       0.228
       0.270
       0.315
       0.360
       0.401
       0.437
       0.467
       0.492
       0.513
       0.531
       0.545
       0.559
       0.573
       0.587
       0.598
       0.606
       0.611
       0.617
       0.626
       0.642
       0.661
       0.681
       0.700
       0.715
       0.728
       0.737
       0.742
       0.743
       0.738
       0.727
       0.708
       0.679
       0.642
       0.598
       0.549
       0.492
       0.429
       0.362
       0.294
       0.227
       0.161
       0.095
       0.030
      -0.032
      -0.090
      -0.148
      -0.209
      -0.275
      -0.341
      -0.404
      -0.463
      -0.523
      -0.589
      -0.661
      -0.734
      -0.804
      -0.870
      -0.934
      -1.000
      -1.068
      -1.135
      -1.198
      -1.254
      -1.306
      -1.353
      -1.394
      -1.429
      -1.455
      -1.473
      -1.484
      -1.490
      -1.492
      -1.491
      -1.485
      -1.474
      -1.459
      -1.442
      -1.424
      -1.406
      -1.383
      -1.353
      -1.314
      -1.268
      -1.218
      -1.166
      -1.111
      -1.050
      -0.982
      -0.906
      -0.828
      -0.753
      -0.684
      -0.615
      -0.537
      -0.448
      -0.354
      -0.265
      -0.185
      -0.112
      -0.038
       0.041
       0.123
       0.199
       0.262
       0.313
       0.353
       0.389
       0.423
       0.456
       0.484
       0.502
       0.510
       0.508
       0.502
       0.500
       0.504
       0.513
       0.524
       0.532
       0.541
       0.555
       0.580
       0.615
       0.653
       0.688
       0.718
       0.745
       0.773
       0.800
       0.820
       0.831
       0.829
       0.817
       0.799
       0.775
       0.744
       0.706
       0.657
       0.599
       0.536
       0.471
       0.407
       0.347
       0.289
       0.234
       0.185
       0.145
       0.113
       0.092
       0.080
       0.079
       0.087
       0.103
       0.127
       0.157
       0.195
       0.241
       0.293
       0.350
       0.407
       0.463
       0.521
       0.582
       0.647
       0.712
       0.777
       0.842
       0.907
       0.971
       1.028
       1.076
       1.118
       1.155
       1.188
       1.216
       1.234
       1.241
       1.239
       1.229
       1.216
       1.202
       1.182
       1.155
       1.119
       1.077
       1.033
       0.989
       0.942
       0.891
       0.834
       0.777
       0.722
       0.673
       0.625
       0.576
       0.524
       0.475
       0.430
       0.389
       0.345
       0.293
       0.234
       0.173
       0.113
       0.053
      -0.014
      -0.089
      -0.173
      -0.263
      -0.357
      -0.458
      -0.570
      -0.696
      -0.832
      -0.973
      -1.114
      -1.254
      -1.392
      -1.531
      -1.667
      -1.793
      -1.905
      -2.000
      -2.079
      -2.144
      -2.195
      -2.230
      -2.249
      -2.254
      -2.249
      -2.238
      -2.222
      -2.200
      -2.173
      -2.144
      -2.115
      -2.086
      -2.056
      -2.025
      -1.995
      -1.966
      -1.937
      -1.909
      -1.883
      -1.859
      -1.836
      -1.810
      -1.776
      -1.728
      -1.664
      -1.587
      -1.500
      -1.402
      -1.293
      -1.170
      -1.035
      -0.887
      -0.728
      -0.559
      -0.382
      -0.198
      -0.009
       0.185
       0.383
       0.585
       0.793
       1.004
       1.218
       1.430
       1.636
       1.834
       2.024
       2.207
       2.382
       2.544
       2.687
       2.813
       2.923
       3.021
       3.103
       3.167
       3.209
       3.228
       3.224
       3.201
       3.159
       3.098
       3.016
       2.914
       2.795
       2.664
       2.523
       2.373
       2.215
       2.049
       1.875
       1.692
       1.499
       1.298
       1.093
       0.889
       0.694
       0.507
       0.326
       0.143
      -0.043
      -0.226
      -0.398
      -0.550
      -0.682
      -0.794
      -0.891
      -0.975
      -1.046
      -1.102
      -1.141
      -1.161
      -1.159
      -1.136
      -1.092
      -1.029
      -0.952
      -0.863
      -0.766
      -0.661
      -0.551
      -0.435
      -0.315
      -0.190
      -0.065
       0.054
       0.161
       0.253
       0.332
       0.399
       0.456
       0.503
       0.538
       0.562
       0.574
       0.573
       0.563
       0.545
       0.519
       0.485
       0.446
       0.402
       0.354
       0.296
       0.228
       0.153
       0.078
       0.006
      -0.063
      -0.135
      -0.212
      -0.294
      -0.375
      -0.451
      -0.523
      -0.597
      -0.677
      -0.764
      -0.851
      -0.932
      -1.008
      -1.081
      -1.156
      -1.234
      -1.314
      -1.395
      -1.476
      -1.559
      -1.644
      -1.730
      -1.818
      -1.905
      -1.988
      -2.064
      -2.130
      -2.184
      -2.228
      -2.265
      -2.296
      -2.316
      -2.324
      -2.318
      -2.303
      -2.280
      -2.251
      -2.213
      -2.163
      -2.103
      -2.036
      -1.963
      -1.885
      -1.799
      -1.705
      -1.598
      -1.479
      -1.349
      -1.209
      -1.061
      -0.904
      -0.741
      -0.572
      -0.397
      -0.216
      -0.031
       0.153
       0.334
       0.507
       0.673
       0.829
       0.973
       1.108
       1.235
       1.357
       1.474
       1.585
       1.691
       1.793
       1.891
       1.984
       2.074
       2.161
       2.249
       2.336
       2.421
       2.501
       2.576
       2.645
       2.707
       2.760
       2.799
       2.820
       2.820
       2.799
       2.761
       2.709
       2.642
       2.560
       2.462
       2.350
       2.226
       2.090
       1.943
       1.784
       1.617
       1.447
       1.282
       1.121
       0.960
       0.797
       0.637
       0.487
       0.354
       0.238
       0.136
       0.046
      -0.032
      -0.097
      -0.148
      -0.182
      -0.201
      -0.211
      -0.215
      -0.215
      -0.211
      -0.199
      -0.180
      -0.154
      -0.123
      -0.091
      -0.060
      -0.034
      -0.014
       0.002
       0.017
       0.033
       0.050
       0.064
       0.070
       0.068
       0.064
       0.062
       0.064
       0.069
       0.075
       0.080
       0.082
       0.077
       0.062
       0.039
       0.011
      -0.021
      -0.058
      -0.101
      -0.153
      -0.213
      -0.280
      -0.352
      -0.430
      -0.514
      -0.603
      -0.696
      -0.791
      -0.886
      -0.983
      -1.083
      -1.183
      -1.280
      -1.370
      -1.452
      -1.527
      -1.596
      -1.659
      -1.715
      -1.767
      -1.818
      -1.867
      -1.915
      -1.958
      -1.994
      -2.026
      -2.060
      -2.098
      -2.138
      -2.177
      -2.211
      -2.239
      -2.262
      -2.278
      -2.287
      -2.287
      -2.280
      -2.266
      -2.247
      -2.220
      -2.179
      -2.123
      -2.050
      -1.964
      -1.866
      -1.758
      -1.639
      -1.508
      -1.365
      -1.209
      -1.044
      -0.873
      -0.700
      -0.528
      -0.359
      -0.194
      -0.032
       0.123
       0.271
       0.410
       0.539
       0.658
       0.768
       0.869
       0.959
       1.036
       1.101
       1.158
       1.207
       1.245
       1.273
       1.293
       1.309
       1.326
       1.342
       1.357
       1.370
       1.381
       1.391
       1.401
       1.409
       1.415
       1.417
       1.415
       1.409
       1.401
       1.392
       1.382
       1.370
       1.355
       1.335
       1.313
       1.288
       1.264
       1.238
       1.213
       1.185
       1.156
       1.125
       1.099
       1.082
       1.075
       1.076
       1.082
       1.093
       1.111
       1.140
       1.180
       1.230
       1.285
       1.341
       1.396
       1.447
       1.494
       1.536
       1.576
       1.614
       1.644
       1.658
       1.654
       1.632
       1.597
       1.555
       1.504
       1.443
       1.371
       1.289
       1.197
       1.097
       0.990
       0.879
       0.769
       0.664
       0.565
       0.473
       0.384
       0.296
       0.208
       0.123
       0.042
      -0.034
      -0.111
      -0.190
      -0.272
      -0.353
      -0.430
      -0.503
      -0.579
      -0.664
      -0.758
      -0.852
      -0.940
      -1.021
      -1.096
      -1.169
      -1.244
      -1.317
      -1.388
      -1.452
      -1.505
      -1.545
      -1.571
      -1.584
      -1.586
      -1.581
      -1.567
      -1.544
      -1.509
      -1.463
      -1.410
      -1.358
      -1.310
      -1.264
      -1.216
      -1.167
      -1.115
      -1.063
      -1.013
      -0.969
      -0.931
      -0.897
      -0.865
      -0.836
      -0.811
      -0.790
      -0.769
      -0.745
      -0.720
      -0.699
      -0.688
      -0.684
      -0.682
      -0.677
      -0.672
      -0.670
      -0.674
      -0.682
      -0.693
      -0.706
      -0.718
      -0.727
      -0.729
      -0.723
      -0.709
      -0.690
      -0.663
      -0.625
      -0.574
      -0.510
      -0.436
      -0.355
      -0.267
      -0.172
      -0.071
       0.034
       0.140
       0.244
       0.344
       0.439
       0.530
       0.617
       0.695
       0.761
       0.811
       0.845
       0.863
       0.868
